Origin Time       2025/03/30 10:18:00
Lat.              34.667
Long.             140.825
Depth. (km)       69
Mag.              4.9
Station Code      TKY009
Station Lat.      34.6867
Station Long.     139.4410
Station Height(m) 53
Record Time       2025/03/30 10:18:51
Sampling Freq(Hz) 100Hz
Duration Time(s)  70
Dir.              E-W
Scale Factor      7845(gal)/8223790
Max. Acc. (gal)   6.406
Last Correction   2025/03/30 10:18:50
Memo.             
[...]
   -9991    -8307    -7865    -9182   -10600   -10467    -9049    -8228 
   -9159   -10885   -11144    -9323    -7784    -8028    -9204   -10608 
  -11221   -10218    -8739    -8129    -8708   -10164   -11277   -10789 
   -9019    -7663    -7990    -9437   -10359   -10025    -8872    -8186 
   -9150   -10632   -10717    -9694    -8766    -8232    -8386    -9606 
  -10569    -9880    -8858    -9004    -9756   -10130    -9759    -8935 
   -8383    -8816   -10355   -11670   -10987    -8617    -6893    -7474 
   -9597   -11142   -10971    -9375    -7423    -6978    -9028   -11433 
  -11526   -10012    -8978    -8927    -9688   -10728   -10917   -10007 
   -8910    -8089    -7538    -8041    -9733   -10971   -10862   -10069 
   -8862    -7668    -7888    -9576   -10879   -10667    -9645    -8928 
   -8637    -8476    -8842   -10066   -11307   -11155    -9329    -7398 
   -7200    -8833   -10947   -12368   -12025    -9300    -6415    -6524 
   -9086   -11484   -12361   -11063    -8202    -6318    -7014    -9436 
  -11596   -11708    -9683    -7537    -7223    -8560   -10172   -11253 
  -11172    -9651    -8006    -7830    -8942   -10231   -11149   -11025 
   -9487    -8056    -7975    -8788   -10041   -10750    -9852    -8838 
   -9474   -10242    -9477    -8577    -8903    -9401    -9216    -9296 
   -9724    -9279    -8596    -9205   -10415   -10473    -9408    -8811 
   -9001    -8950    -8950    -9840   -10669   -10417    -9838    -9498 
   -9202    -9263    -9659    -9895    -9859    -9352    -8468    -8124 
   -8700    -9459   -10135   -10662   -10081    -8662    -8122    -8714 
   -9776   -11055   -11183    -9162    -7389    -8093    -9472    -9780 
  -10142   -10559    -9564    -8490    -9184   -10060    -9904    -9768 
   -9633    -9066    -8868    -9193    -9258    -9121    -9402    -9948 
  -10351   -10230    -9167    -8125    -8441    -9574   -10242   -10062 
   -9450    -8843    -8559    -8995    -9803   -10288   -10357    -9634 
   -8199    -7719    -8938   -10282   -10751   -10858   -10488    -9262 
   -7936    -7711    -8961   -10451   -10832   -10411    -9674    -8596 
   -8005    -8777   -10091   -10323    -9571    -9211    -9131    -8572 
   -8337    -9387   -10808   -10787    -9396    -8519    -8714    -9115 
   -9768   -10646   -10453    -9055    -8259    -8928   -10125   -10779 
  -10327    -9093    -8326    -8698    -9632   -10231   -10187    -9886 
   -9474    -8908    -8888    -9539    -9726    -9153    -8746    -9063 
   -9522    -9366    -9112    -9405    -9776    -9945    -9960    -9609 
   -9080    -8920    -9402   -10019    -9906    -9293    -8976    -8995 
   -9209    -9568    -9860    -9853    -9517    -9250    -9173    -9100 
   -9294    -9657    -9668    -9478    -9405    -9366    -9418    -9597 
   -9672    -9656    -9613    -9418    -9266    -9279    -9158    -9288 
   -9910    -9815    -8837    -8517    -9188    -9861    -9972    -9737 
   -9456    -9089    -8914    -9339   -10018   -10149    -9552    -9028 
   -9236    -9447    -9047    -9366   -10544   -10320    -8883    -8608 
   -9560   -10241    -9925    -8992    -8471    -8914    -9888   -10417 
  -10262    -9867    -8984    -8109    -8586    -9697   -10031    -9846 
   -9432    -8973    -9148    -9703    -9987   -10014    -9867    -9378 
   -8545    -8343    -9270    -9922    -9598    -9360    -9706    -9694 
   -8889    -8731    -9757   -10278    -9794    -9468    -9640    -9718 
   -9124    -8472    -9088   -10249   -10233    -9227    -8391    -8397 
   -9088    -9794   -10264   -10224    -9416    -8822    -9244    -9715 
   -9718    -9988   -10462   -10301    -9239    -8403    -8922    -9564 
   -9139    -8742    -9054    -9458    -9765    -9902    -9448    -8911 
   -9077    -9590    -9957    -9856    -9126    -8571    -8812    -9526 
   -9927    -9413    -8923    -9656   -10503    -9788    -8561    -8938 
  -10431   -11021   -10405    -9564    -8864    -8602    -9182    -9892 
   -9767    -8912    -8337    -8961    -9988   -10069    -9475    -8974 
   -8737    -8797    -9491   -10496   -10285    -9096    -8833    -9139 
   -9039    -9323    -9799    -9553    -9321    -9495    -9416    -9571 
  -10292   -10370    -9775    -9645    -9366    -8461    -8465    -9536 
  -10147   -10062    -9671    -8965    -8586    -9088    -9648    -9620 
   -9540    -9558    -9369    -9277    -9510    -9586    -9390    -9386 
   -9517    -9776   -10091    -9564    -8613    -8787    -9643    -9713 
   -9281    -9208    -9217    -9364    -9987   -10173    -9564    -9340 
   -9844    -9899    -9065    -8406    -8596    -9396   -10284   -10465 
   -9656    -8641    -8561    -9502   -10098    -9644    -9070    -9134 
   -9491    -9603    -9574    -9733    -9796    -9410    -9177    -9474 
   -9495    -9196    -9382    -9711    -9601    -9520    -9706    -9421 
   -8656    -8677    -9745   -10470    -9969    -9072    -8931    -9478 
   -9853    -9606    -9108    -8789    -8754    -9167    -9732    -9795 
   -9404    -9165    -9602   -10366   -10347    -9448    -8661    -8506 
   -9011    -9755    -9914    -9464    -9175    -9510   -10174   -10409 
   -9945    -9208    -8725    -8950    -9736   -10107    -9533    -8607 
   -8226    -8804    -9937   -10430    -9663    -8703    -8606    -9278 
  -10246   -10633    -9876    -8689    -8046    -8527    -9964   -10864 
  -10230    -9113    -8695    -8916    -9517   -10138   -10170    -9607 
   -9109    -9138    -9370    -9425    -9548    -9751    -9726    -9504 
   -9109    -8716    -8850    -9475   -10160   -10559    -9964    -8711 
   -8398    -9163    -9953   -10304   -10061    -9255    -8773    -9327 
   -9753    -9254    -9051    -9560    -9752    -9146    -8448    -8619 
   -9674   -10478    -9880    -8571    -8217    -9144   -10469   -11036 
  -10511    -9423    -8289    -7848    -8554    -9934   -11040   -10939 
   -9724    -8824    -8993    -9340    -9410    -9713   -10119   -10138 
   -9748    -9031    -8341    -8464    -9462   -10489   -10731    -9715 
   -8068    -7649    -9051   -10443   -10481    -9686    -8654    -8012 
   -8463    -9620   -10528   -10557    -9895    -9235    -8775    -8746 
   -9283    -9683    -9499    -9171    -9289    -9722    -9834    -9567 
   -9544   -10031   -10088    -9189    -8621    -8858    -9153    -9709 
  -10281    -9931    -9273    -9192    -9387    -9728   -10165   -10058 
   -9329    -8716    -8676    -8876    -9161   -10114   -10990   -10149 
   -8507    -8151    -8988    -9713    -9783    -9471    -9297    -9455 
   -9547    -9468    -9644    -9671    -9103    -8876    -9273    -9413 
   -9439    -9792    -9930    -9506    -8974    -8785    -9070    -9684 
  -10125    -9865    -9127    -8761    -8926    -9171    -9720   -10436 
  -10372    -9674    -9162    -9028    -9208    -9458    -9864   -10486 
  -10276    -9004    -8276    -8793    -9317    -9215    -9502   -10172 
   -9938    -9169    -9067    -9618   -10146    -9941    -9363    -9364 
   -9499    -9354    -9306    -9274    -9251    -9143    -8961    -9283 
   -9772    -9784    -9377    -8787    -8738    -9394    -9848    -9926 
   -9973    -9798    -9393    -9089    -8941    -8777    -8662    -9034 
   -9895   -10446   -10162    -9468    -9170    -9618   -10305   -10386 
   -9566    -8510    -8239    -8903    -9818   -10301   -10103    -9628 
   -9369    -9296    -9423    -9855   -10133    -9767    -9155    -9011 
   -9270    -9342    -9086    -9026    -9603   -10334   -10357    -9482 
   -8392    -8282    -9084    -9711   -10008    -9796    -8982    -8580 
   -9069    -9840   -10220   -10065    -9655    -9204    -8884    -8851 
   -9070    -9217    -9138    -9289    -9749    -9830    -9339    -8982 
   -9379   -10141   -10206    -9495    -8854    -8374    -8351    -9393 
  -10458   -10450    -9729    -8883    -8525    -8964    -9680    -9995 
   -9715    -9139    -8780    -9111    -9890   -10304   -10177    -9960 
   -9852    -9656    -9502    -9610    -9501    -8951    -8353    -8052 
   -8509    -9622   -10558   -10903   -10642    -9922    -9207    -8914 
   -9150    -9529    -9495    -9292    -9209    -8932    -8816    -9185 
   -9668   -10192   -10309    -9659    -8972    -8878    -9433   -10181 
  -10308    -9663    -8856    -8399    -8374    -8653    -9134    -9644 
   -9803    -9606    -9626   -10085   -10574   -10633   -10088    -9072 
   -8284    -8584    -9606   -10211   -10066    -9545    -9167    -9266 
   -9448    -9028    -8325    -8510    -9684   -10602   -10311    -9216 
   -8598    -8873    -9531   -10199   -10440    -9913    -8799    -7946 
   -8418    -9833   -10629   -10278    -9386    -8599    -8386    -8946 
   -9929   -10521   -10455   -10269    -9944    -9131    -8316    -8077 
   -8645    -9756   -10331    -9942    -9147    -8441    -8364    -8988 
   -9741   -10208    -9950    -8958    -8317    -8829    -9822   -10377 
  -10470   -10102    -9279    -8862    -9240    -9630    -9558    -9327 
   -9360    -9508    -9324    -9138    -9451   -10098   -10636   -10597 
   -9968    -9373    -9238    -9332    -9312    -9192    -9103    -9143 
   -9240    -9281    -9364    -9391    -9512    -9954    -9927    -9161 
   -8665    -8927    -9678   -10216    -9918    -9220    -8922    -9308 
  -10062   -10246    -9448    -8569    -8526    -9225   -10120   -10543 
  -10076    -9175    -8438    -8397    -9363   -10288   -10127    -9215 
   -8303    -8195    -9240   -10388   -10311    -9459    -9115    -9283 
   -9471    -9560    -9509    -9451    -9381    -9417    -9722    -9795 
   -9517    -9381    -9401    -9381    -9458    -9656    -9667    -9504 
   -9362    -9220    -9366    -9702    -9517    -8922    -8642    -8922 
   -9310    -9171    -8915    -9406   -10139   -10160    -9566    -9070 
   -9138    -9443    -9733   -10181   -10193    -9481    -8884    -8765 
   -8935    -9321    -9651    -9667    -9475    -9198    -8942    -9092 
   -9799   -10501   -10503    -9728    -8831    -8519    -8914    -9541 
  -10045   -10362   -10089    -9217    -8606    -8842    -9594    -9971 
   -9825    -9769    -9740    -9348    -8845    -8729    -9193    -9968 
  -10400   -10241    -9705    -8891    -8421    -9040   -10107   -10326 
   -9506    -8629    -8536    -8912    -9194    -9764   -10594   -10639 
   -9462    -8024    -7858    -9039   -10174   -10602   -10473    -9852 
   -8973    -8557    -8935    -9455    -9639    -9498    -9333    -9301 
   -9011    -8826    -9335    -9953   -10143    -9884    -9489    -9570 
   -9860    -9688    -9271    -9148    -9455    -9657    -9236    -8826 
   -9088    -9377    -9135    -9053    -9315    -9263    -9413   -10223 
  -10712   -10339    -9585    -9028    -8957    -9240    -9516    -9495 
   -9273    -9158    -9259    -9373    -9508    -9863    -9995    -9580 
   -9196    -9262    -9421    -9289    -9239    -9607    -9876    -9644 
   -9196    -8891    -8999    -9580   -10064    -9979    -9566    -9155 
   -9092    -9413    -9551    -9328    -9231    -9414    -9528    -9513 
   -9539    -9444    -9273    -9323    -9360    -9302    -9721   -10334 
  -10204    -9424    -8598    -8178    -8456    -9238    -9999   -10285 
   -9960    -9275    -8849    -9132    -9774   -10135   -10007    -9613 
   -9265    -9092    -9185    -9408    -9386    -9099    -8984    -9248 
   -9459    -9155    -8622    -8664    -9505   -10378   -10615   -10347 
   -9805    -9174    -9100    -9860   -10590   -10427    -9559    -8791 
   -8792    -9482   -10179   -10485   -10203    -9315    -8542    -8772 
   -9710   -10201    -9904    -9293    -8923    -9082    -9495   -10042 
  -10362    -9714    -8584    -8029    -8395    -9443   -10446   -10621 
   -9471    -7684    -6972    -7758    -8950    -9537    -9035    -7770 
   -6821    -7048    -8132    -9070    -9566    -9555    -8932    -8437 
   -8479    -8838    -9583   -10253   -10343    -9930    -9138    -8738 
   -9356   -10431   -11284   -11554   -11394   -11388   -11254   -10750 
  -10963   -12152   -12999   -12792   -11793   -10504    -9625    -9391 
   -9363    -9297    -9371    -9517    -9248    -8515    -7977    -8051 
   -8510    -8884    -8829    -8287    -7592    -7337    -7658    -8137 
   -8576    -9175   -10083   -10800   -10525    -9445    -8486    -8375 
   -9456   -10960   -11585   -11084    -9919    -8706    -8014    -8162 
   -9285   -10746   -11456   -10922    -9319    -7396    -6300    -6944 
   -9200   -11449   -11813   -10287    -8371    -7327    -7773    -9559 
  -11850   -13616   -14179   -13270   -10827    -8009    -6623    -7168 
   -8885   -10139    -9536    -7435    -5692    -6241    -9024   -11873 
  -12441    -9867    -6181    -4695    -6403    -9946   -12861   -12908 
  -10268    -6740    -4284    -4676    -7639   -10948   -12706   -12101 
   -9985    -8599    -9432   -11816   -13437   -12519    -9783    -7557 
   -7294    -8683   -10386   -11106   -10497    -8986    -7210    -5968 
   -5702    -6401    -8259   -10922   -13058   -13703   -12850   -10901 
   -8731    -7692    -7993    -8505    -8608    -8290    -8206    -9173 
  -10334   -10729   -10743   -10624   -10135    -9255    -8577    -8684 
   -9601   -10932   -11792   -11626   -10559    -9112    -8140    -7917 
   -8185    -8510    -8433    -8193    -8191    -8684    -9971   -11695 
  -12528   -11234    -8473    -6278    -6093    -8179   -11151   -12893 
  -12556   -10729    -8630    -7288    -7059    -7809    -8992    -9931 
  -10458   -10716   -10735   -10528    -9929    -8911    -8048    -7604 
   -7457    -7975    -9246   -10569   -11141   -10544    -9445    -9005 
   -9603   -10855   -11457   -10004    -7028    -4957    -6077   -10339 
  -14789   -16162   -13675    -9072    -5448    -5130    -7645   -10655 
  -11916   -10635    -8233    -6891    -7624    -9856   -11889   -12042 
  -10142    -7785    -6551    -6944    -8764   -10908   -12017   -11827 
  -10952    -9956    -8904    -7815    -7128    -7335    -8565   -10145 
  -10843   -10203    -9211    -9255   -10409   -11109   -10162    -8598 
   -8052    -8581    -9483   -10085   -10068   -10083   -10438   -10386 
   -9328    -7765    -6928    -7249    -8436   -10126   -11365   -11254 
   -9996    -8613    -8001    -8152    -8553    -8947    -9285    -9836 
  -11021   -12361   -12590   -11184    -8980    -7338    -7121    -8002 
   -8761    -8818    -8650    -8691    -9132    -9842   -10077    -9510 
   -8777    -8619    -9332   -10219   -10154    -9351    -8872    -8996 
   -9390    -9826   -10165   -10399   -10876   -11408   -11214   -10322 
   -9429    -8928    -8814    -9074    -9733   -10493   -10773   -10395 
   -9811    -9317    -8927    -8606    -8032    -7311    -7244    -8163 
   -9493   -10431   -10654   -10463   -10246   -10035    -9826    -9796 
   -9937    -9869    -9487    -9190    -9135    -9274    -9725   -10197 
  -10026    -9147    -8182    -7700    -8000    -8765    -9018    -8465 
   -7905    -7990    -8816    -9919   -10422    -9984    -8864    -7646 
   -7454    -8688   -10314   -11311   -11269   -10305    -9292    -8988 
   -9331    -9987   -10489   -10064    -8810    -7713    -7411    -8402 
  -10068   -10881   -10497    -9281    -8293    -8629    -9747   -10871 
  -11493   -11034    -9786    -8343    -7238    -7360    -9112   -11554 
  -12873   -11989    -9783    -8027    -7587    -8484    -9983   -10889 
  -10777    -9718    -8619    -9132   -11051   -12468   -11969    -9423 
   -6502    -5332    -6386    -8677   -10617   -10881    -9602    -8230 
   -7924    -8748    -9998   -10764   -10617    -9644    -8324    -7672 
   -8480   -10470   -12301   -12538   -10953    -8614    -7165    -7545 
   -9135   -10720   -11304   -10646    -9494    -8637    -8586    -9382 
  -10218   -10347    -9882    -9413    -9166    -9018    -9065    -9266 
   -9312    -9198    -9165    -9193    -9132    -9180    -9633   -10161 
   -9963    -9202    -9061    -9823   -10638   -10700    -9838    -8586 
   -7632    -7468    -8240    -9097    -9084    -8557    -8365    -8752 
   -9378    -9741    -9818    -9821    -9504    -8872    -8595    -8977 
   -9629   -10085   -10120    -9852    -9703    -9969   -10280   -10162 
   -9882    -9818   -10011   -10516   -10972   -10678    -9580    -8449 
   -8125    -8611    -9281    -9742   -10057   -10408   -10440    -9663 
   -8629    -8239    -8417    -8677    -8965    -9135    -8826    -8500 
   -8818    -9181    -9059    -8835    -8753    -9062    -9639    -9845 
   -9877   -10343   -11037   -11280   -10839   -10050    -9366    -9161 
   -9521   -10076   -10281    -9983    -9705    -9796    -9860    -9622 
   -9155    -8548    -8152    -8205    -8563    -9059    -9370    -9039 
   -8140    -7508    -7777    -8664    -9675   -10365   -10436   -10282 
  -10316   -10520   -10701   -10466    -9769    -9024    -8592    -8683 
   -9117    -9599   -10002    -9879    -9144    -8683    -9072   -10025 
  -10895   -10781    -9529    -8243    -7884    -8595    -9695   -10153 
   -9913    -9603    -9490    -9516    -9555    -9513    -9282    -8986 
   -8937    -9192    -9603    -9780    -9517    -9072    -8654    -8557 
   -8770    -8912    -9134    -9487    -9776   -10141   -10241    -9706 
   -9077    -8800    -8733    -8654    -8507    -8525    -9096   -10015 
  -10589   -10605   -10127    -9481    -9306    -9602    -9988   -10102 
   -9807    -9674    -9864    -9907    -9616    -9028    -8540    -8712 
   -9413    -9946   -10031   -10019   -10210   -10430   -10412   -10044 
   -9305    -8716    -8749    -9089    -9413    -9675    -9751    -9416 
   -8893    -8953    -9697   -10401   -10578   -10396   -10312   -10265 
   -9961    -9640    -9548    -9514    -9321    -9088    -9119    -9354 
   -9525    -9647    -9529    -9000    -8617    -8619    -8680    -8657 
   -8446    -8267    -8565    -9277    -9840    -9782    -9240    -8533 
   -7827    -7534    -8020    -9243   -10669   -11427   -11106   -10052 
   -8974    -8600    -9115    -9904   -10292   -10072    -9609    -9529 
   -9983   -10562   -10733   -10335    -9747    -9227    -8880    -8895 
   -9220    -9783   -10316   -10206    -9418    -8523    -7994    -8066 
   -8669    -9410    -9774    -9532    -8920    -8649    -9123    -9629 
   -9574    -9117    -8644    -8665    -9008    -9354   -10015   -10623 
  -10442    -9570    -8633    -8341    -8874    -9796   -10501   -10600 
  -10362   -10056    -9572    -9100    -8918    -9023    -9236    -9332 
   -9308    -9328    -9478    -9794   -10135   -10187    -9757    -8880 
   -8112    -8144    -8822    -9549    -9894    -9832    -9755    -9798 
   -9834    -9776    -9609    -9558    -9668    -9779    -9961   -10110 
  -10049    -9964   -10002   -10091    -9934    -9504    -9213    -9113 
   -9100    -9028    -8749    -8517    -8368    -8264    -8391    -8718 
   -9097    -9343    -9521    -9718    -9632    -9224    -8938    -9008 
   -9228    -9497    -9778    -9903    -9957   -10108   -10349   -10555 
  -10656   -10690   -10396    -9595    -8738    -8284    -8465    -9086 
   -9331    -8900    -8469    -8649    -9301    -9783    -9823    -9713 
   -9695    -9788    -9726    -9351    -9049    -9130    -9560   -10030 
  -10064    -9763    -9493    -9359    -9448    -9464    -9325    -9436 
   -9520    -9406    -9437    -9369    -9159    -9181    -9301    -9572 
  -10045   -10143    -9722    -9288    -9285    -9651    -9926   -10006 
   -9887    -9521    -9347    -9606    -9925    -9990    -9748    -9389 
   -9170    -9086    -9076    -9146    -9277    -9418    -9540    -9710 
   -9877    -9855    -9687    -9431    -8976    -8421    -8109    -8302 
