Origin Time       2025/03/30 10:18:00
Lat.              34.667
Long.             140.825
Depth. (km)       69
Mag.              4.9
Station Code      TKY031
Station Lat.      35.6789
Station Long.     139.7070
Station Height(m) 29
Record Time       2025/03/30 10:19:16
Sampling Freq(Hz) 100Hz
Duration Time(s)  60
Dir.              U-D
Scale Factor      7845(gal)/8223790
Max. Acc. (gal)   0.815
Last Correction   2025/03/30 10:19:17
Memo.             
    6713     6419     6193     6243     6470     6567     6443     6264 
    6300     6615     6906     6940     6760     6508     6323     6204 
    6066     5979     6124     6532     6949     7041     6735     6405 
    6450     6652     6520     6147     6042     6309     6619     6674 
    6455     6293     6517     6882     6897     6559     6304     6377 
    6561     6546     6370     6330     6512     6690     6686     6531 
    6415     6459     6493     6355     6238     6331     6504     6563 
    6548     6535     6505     6490     6527     6565     6559     6505 
    6447     6454     6496     6469     6403     6430     6567     6683 
    6624     6423     6308     6403     6569     6619     6524     6393 
    6366     6467     6585     6642     6617     6478     6313     6299 
    6443     6598     6656     6577     6394     6278     6359     6528 
    6570     6466     6365     6324     6363     6539     6741     6771 
    6597     6424     6442     6542     6471     6274     6246     6448 
    6594     6517     6397     6465     6700     6852     6754     6527 
    6411     6481     6571     6529     6411     6334     6351     6419 
    6415     6342     6394     6616     6752     6647     6446     6336 
    6370     6431     6420     6416     6546     6736     6783     6639 
    6393     6203     6277     6552     6693     6579     6440     6451 
    6463     6316     6172     6242     6466     6667     6774     6831 
    6864     6867     6802     6550     6072     5644     5638     6085 
    6601     6812     6764     6741     6812     6821     6667     6446 
    6295     6247     6305     6446     6575     6632     6620     6544 
    6416     6351     6508     6764     6786     6529     6296     6251 
    6291     6358     6478     6620     6752     6755     6481     6119 
    6110     6480     6733     6616     6393     6362     6563     6747 
    6643     6326     6139     6327     6701     6782     6492     6276 
    6367     6524     6542     6467     6408     6469     6636     6716 
    6604     6466     6462     6569     6628     6475     6234     6262 
    6565     6766     6685     6475     6346     6419     6651     6831 
    6781     6520     6227     6115     6207     6330     6407     6497 
    6570     6524     6431     6434     6539     6652     6616     6428 
    6295     6339     6516     6652     6592     6481     6539     6656 
    6624     6512     6481     6528     6573     6513     6322     6177 
    6286     6548     6662     6597     6579     6594     6451     6208 
    6129     6339     6671     6818     6708     6547     6485     6528 
    6609     6593     6489     6454     6511     6527     6434     6340 
    6353     6428     6471     6466     6459     6497     6593     6674 
    6604     6427     6359     6465     6613     6631     6457     6273 
    6328     6552     6642     6527     6443     6535     6669     6633 
    6384     6114     6081     6289     6473     6525     6593     6721 
    6789     6745     6619     6412     6261     6313     6416     6411 
    6411     6504     6613     6712     6817     6798     6547     6247 
    6168     6326     6498     6520     6457     6482     6633     6721 
    6623     6486     6453     6482     6478     6376     6237     6243 
    6419     6575     6585     6505     6434     6424     6435     6413 
    6400     6442     6525     6621     6686     6663     6562     6466 
    6382     6305     6349     6496     6546     6481     6471     6534 
    6563     6558     6509     6443     6485     6612     6681     6615 
    6438     6309     6390     6567     6566     6404     6339     6454 
    6598     6586     6444     6403     6505     6581     6528     6388 
    6270     6326     6532     6643     6573     6543     6677     6779 
    6636     6372     6277     6365     6458     6504     6532     6548 
    6571     6574     6502     6432     6434     6451     6481     6570 
    6650     6613     6500     6432     6428     6386     6251     6119 
    6150     6374     6646     6782     6701     6517     6481     6659 
    6743     6544     6350     6377     6440     6380     6288     6308 
    6500     6759     6822     6629     6463     6480     6529     6490 
    6432     6498     6694     6862     6785     6407     6041     6066 
    6381     6570     6508     6389     6354     6408     6459     6415 
    6340     6366     6513     6663     6666     6569     6528     6546 
    6548     6507     6424     6385     6505     6678     6682     6556 
    6469     6400     6319     6363     6517     6562     6467     6347 
    6231     6207     6386     6683     6897     6925     6768     6540 
    6432     6438     6380     6299     6343     6457     6525     6563 
    6582     6589     6674     6786     6728     6532     6390     6350 
    6378     6396     6297     6214     6401     6723     6781     6567 
    6404     6386     6380     6336     6281     6253     6385     6656 
    6826     6774     6574     6382     6291     6276     6319     6399 
    6486     6548     6531     6466     6453     6484     6516     6596 
    6693     6629     6458     6431     6538     6527     6319     6134 
    6195     6511     6828     6818     6563     6431     6453     6465 
    6481     6523     6579     6714     6802     6621     6293     6143 
    6284     6556     6705     6635     6501     6478     6542     6544 
    6421     6264     6239     6457     6775     6887     6716     6516 
    6458     6448     6390     6295     6247     6351     6579     6702 
    6601     6475     6475     6478     6434     6434     6451     6416 
    6394     6446     6508     6578     6673     6689     6590     6450 
    6318     6204     6119     6150     6386     6716     6907     6867 
    6647     6413     6367     6489     6554     6485     6394     6380 
    6430     6523     6646     6694     6628     6493     6309     6193 
    6254     6409     6498     6443     6334     6369     6612     6852 
    6849     6621     6345     6143     6075     6156     6335     6538 
    6735     6825     6721     6569     6504     6451     6346     6277 
    6291     6354     6504     6702     6789     6755     6691     6590 
    6427     6274     6237     6351     6558     6708     6706     6627 
    6578     6565     6540     6525     6542     6536     6474     6380 
    6332     6388     6488     6556     6567     6562     6612     6629 
    6471     6246     6224     6413     6554     6517     6382     6303 
    6430     6698     6856     6758     6477     6192     6069     6174 
    6413     6612     6682     6650     6627     6652     6621     6439 
    6211     6153     6261     6366     6458     6563     6646     6759 
    6851     6725     6502     6478     6574     6524     6357     6234 
    6216     6296     6411     6494     6577     6717     6843     6835 
    6691     6504     6340     6255     6336     6540     6662     6582 
    6392     6270     6327     6480     6559     6521     6470     6473 
    6442     6361     6343     6401     6463     6471     6424     6442 
    6647     6879     6866     6629     6405     6320     6353     6438 
    6523     6563     6502     6354     6253     6322     6497     6592 
    6532     6435     6455     6523     6448     6307     6303     6428 
    6582     6740     6859     6899     6862     6659     6331     6134 
    6177     6357     6520     6543     6459     6420     6475     6561 
    6659     6774     6768     6581     6347     6189     6134     6210 
    6346     6378     6397     6600     6835     6875     6745     6515 
    6265     6205     6393     6558     6548     6497     6473     6461 
    6505     6582     6598     6579     6554     6463     6376     6408 
    6509     6573     6558     6478     6412     6461     6579     6574 
    6432     6361     6428     6532     6583     6544     6463     6481 
    6606     6642     6509     6354     6296     6389     6619     6771 
    6615     6286     6142     6237     6396     6525     6598     6621 
    6650     6697     6675     6498     6249     6172     6334     6480 
    6442     6396     6489     6612     6678     6697     6646     6602 
    6651     6646     6484     6300     6212     6214     6286     6440 
    6620     6743     6793     6725     6500     6274     6272     6436 
    6498     6430     6426     6482     6500     6497     6494     6524 
    6635     6714     6636     6524     6471     6385     6262     6192 
    6218     6326     6440     6502     6536     6589     6675     6710 
    6606     6440     6404     6543     6632     6488     6285     6328 
    6619     6843     6793     6592     6435     6376     6397     6416 
    6340     6311     6447     6575     6582     6583     6605     6523 
    6403     6365     6328     6339     6482     6543     6443     6428 
    6544     6639     6694     6712     6577     6359     6272     6319 
    6462     6674     6770     6686     6608     6625     6635     6539 
    6354     6183     6151     6308     6529     6644     6652     6636 
    6606     6592     6586     6502     6338     6210     6208     6301 
    6412     6551     6723     6802     6706     6528     6390     6285 
    6203     6201     6289     6412     6546     6681     6762     6760 
    6717     6644     6543     6432     6293     6146     6129     6297 
    6519     6685     6740     6624     6490     6540     6650     6556 
    6255     6053     6181     6535     6809     6802     6635     6559 
    6577     6489     6326     6335     6488     6548     6474     6362 
    6345     6521     6806     6909     6674     6372     6322     6481 
    6582     6474     6278     6191     6334     6662     6847     6664 
    6373     6312     6443     6567     6605     6551     6496     6497 
    6493     6486     6507     6486     6413     6430     6598     6705 
    6573     6362     6297     6393     6504     6484     6315     6205 
    6363     6658     6782     6629     6384     6289     6361     6438 
    6426     6386     6444     6574     6604     6497     6450     6613 
    6832     6832     6547     6222     6160     6347     6531     6583 
    6604     6727     6882     6833     6531     6255     6247     6370 
    6389     6309     6300     6496     6767     6806     6559     6292 
    6188     6215     6316     6461     6598     6713     6731     6570 
    6367     6350     6502     6616     6554     6384     6308     6453 
    6685     6783     6696     6548     6440     6385     6385     6397 
    6376     6355     6396     6485     6520     6500     6555     6639 
    6567     6362     6212     6253     6463     6616     6508     6297 
    6286     6512     6744     6706     6413     6255     6417     6643 
    6694     6636     6640     6710     6679     6489     6346     6403 
    6520     6546     6485     6439     6528     6664     6632     6407 
    6174     6099     6216     6469     6737     6874     6818     6654 
    6504     6420     6417     6473     6423     6204     6054     6196 
    6548     6856     6939     6802     6642     6596     6528     6350 
    6262     6390     6552     6597     6550     6411     6311     6494 
    6777     6777     6566     6450     6465     6471     6428     6297 
    6145     6232     6552     6745     6651     6424     6264     6308 
    6509     6585     6448     6366     6457     6579     6663     6673 
    6561     6492     6581     6593     6442     6363     6417     6450 
    6446     6484     6528     6529     6546     6548     6451     6296 
    6204     6265     6458     6675     6787     6739     6615     6529 
    6494     6455     6400     6366     6378     6451     6528     6529 
    6524     6609     6674     6606     6494     6409     6311     6265 
    6353     6484     6561     6600     6652     6686     6601     6424 
    6315     6318     6389     6493     6539     6469     6392     6405 
    6492     6610     6678     6598     6420     6305     6355     6493 
    6539     6432     6303     6296     6394     6482     6504     6517 
    6588     6675     6663     6528     6451     6509     6502     6359 
    6251     6327     6612     6903     6917     6709     6546     6459 
    6415     6488     6543     6443     6394     6496     6592     6636 
    6631     6504     6323     6257     6285     6296     6299     6336 
    6459     6698     6952     7018     6801     6446     6138     5985 
    6045     6187     6219     6269     6531     6813     6870     6774 
    6651     6570     6562     6509     6370     6308     6389     6512 
    6582     6656     6778     6754     6513     6303     6253     6254 
    6250     6264     6366     6617     6893     6945     6754     6567 
    6507     6469     6399     6307     6247     6377     6681     6889 
    6843     6656     6482     6282     6038     5903     5937     6123 
    6446     6731     6844     6860     6805     6659     6521     6430 
    6332     6330     6532     6741     6694     6478     6355     6392 
    6486     6512     6434     6347     6331     6358     6366     6381 
    6509     6724     6882     6891     6743     6558     6438     6318 
    6188     6185     6343     6485     6496     6467     6454     6400 
    6376     6455     6504     6412     6305     6359     6573     6789 
    6876     6778     6552     6405     6416     6458     6474     6481 
    6521     6617     6670     6571     6405     6313     6293     6316 
    6397     6412     6355     6455     6700     6849     6867     6841 
    6750     6578     6403     6257     6137     6064     6112     6296 
    6438     6463     6569     6809     6951     6845     6597     6366 
    6247     6308     6515     6677     6654     6543     6500     6512 
    6504     6475     6446     6380     6286     6320     6511     6674 
    6724     6729     6754     6756     6659     6434     6111     5833 
    5794     6034     6381     6643     6758     6759     6702     6631 
    6551     6455     6346     6251     6245     6377     6588     6723 
    6709     6601     6535     6601     6675     6597     6427     6326 
    6361     6458     6517     6539     6570     6640     6702     6663 
    6520     6354     6247     6249     6359     6583     6848     6944 
    6764     6435     6145     6034     6081     6127     6196     6399 
    6629     6763     6791     6725     6593     6450     6322     6245 
    6345     6633     6864     6885     6779     6658     6581     6512 
    6350     6150     6119     6257     6332     6316     6376     6520 
    6670     6805     6862     6786     6663     6529     6351     6208 
    6193     6282     6419     6544     6605     6601     6613     6663 
    6625     6463     6322     6326     6481     6679     6721     6532 
    6315     6265     6415     6666     6781     6650     6467     6389 
    6366     6335     6274     6191     6151     6255     6453     6592 
    6608     6513     6403     6386     6482     6667     6876     6932 
    6741     6485     6359     6346     6403     6527     6625     6616 
    6570     6550     6497     6409     6380     6431     6497     6529 
    6555     6585     6605     6631     6598     6457     6332     6331 
    6401     6438     6388     6319     6370     6481     6462     6313 
    6160     6087     6249     6689     7090     7101     6826     6565 
    6426     6434     6547     6625     6609     6512     6385     6323 
    6365     6446     6488     6517     6527     6443     6319     6261 
    6304     6415     6525     6600     6650     6689     6744     6794 
    6713     6463     6254     6270     6378     6342     6205     6189 
    6328     6542     6750     6783     6605     6430     6420     6525 
    6643     6766     6845     6785     6601     6413     6301     6245 
    6193     6192     6322     6532     6677     6743     6808     6766 
    6512     6172     5954     5976     6247     6620     6822     6805 
    6772     6808     6785     6597     6308     6091     6030     6095 
    6238     6389     6512     6621     6716     6790     6844     6829 
    6718     6569     6439     6351     6288     6254     6328     6534 
    6766     6855     6670     6315     6119     6242     6435     6448 
    6374     6396     6529     6696     6783     6733     6574     6394 
    6253     6122     6057     6193     6497     6758     6849     6835 
    6752     6577     6384     6274     6258     6336     6485     6596 
    6621     6589     6515     6454     6442     6426     6435     6528 
    6623     6627     6577     6478     6311     6258     6444     6674 
    6766     6732     6608     6470     6421     6454     6473     6440 
    6392     6408     6505     6575     6550     6455     6327     6239 
    6261     6358     6451     6521     6585     6623     6609     6554 
    6520     6566     6635     6644     6581     6475     6370     6343 
    6401     6417     6366     6361     6465     6636     6731     6637 
    6413     6170     6039     6150     6454     6725     6808     6741 
    6644     6582     6543     6493     6457     6470     6527     6598 
    6643     6613     6489     6366     6358     6411     6405     6308 
    6207     6273     6513     6741     6794     6702     6670     6747 
    6762     6612     6373     6219     6282     6458     6593     6724 
    6883     6917     6696     6316     6050     6072     6319     6573 
    6608     6443     6316     6305     6326     6346     6367     6384 
    6432     6552     6674     6690     6582     6386     6231     6210 
    6237     6253     6363     6589     6793     6863     6794     6709 
    6740     6862     6914     6772     6551     6477     6494     6413 
    6235     6050     5992     6108     6212     6199     6187     6232 
    6313     6478     6718     6903     6949     6848     6636     6426 
    6354     6432     6554     6647     6701     6716     6675     6544 
    6390     6331     6335     6324     6296     6284     6332     6438 
    6543     6612     6679     6775     6852     6847     6717     6492 
    6285     6178     6172     6242     6354     6439     6470     6508 
    6565     6590     6539     6417     6373     6493     6620     6604 
    6497     6417     6431     6547     6666     6663     6552     6436 
    6421     6470     6405     6262     6219     6258     6320     6438 
    6552     6588     6575     6550     6521     6517     6500     6458 
    6480     6589     6656     6598     6496     6419     6443     6612 
    6745     6686     6567     6535     6539     6489     6345     6169 
    6107     6203     6358     6494     6600     6705     6809     6809 
    6673     6498     6376     6313     6268     6238     6257     6342 
    6501     6690     6809     6798     6659     6438     6250     6230 
    6408     6662     6822     6789     6623     6469     6399     6377 
    6363     6362     6335     6292     6377     6613     6844     6951 
    6898     6664     6373     6257     6350     6500     6542     6427 
    6319     6347     6438     6519     6585     6566     6462     6419 
    6466     6527     6583     6606     6556     6439     6343     6389 
    6516     6582     6588     6544     6459     6407     6448     6519 
    6521     6442     6369     6411     6529     6601     6620     6590 
    6481     6351     6285     6282     6304     6345     6440     6609 
    6804     6891     6795     6620     6466     6293     6134     6158 
    6339     6497     6606     6683     6700     6683     6643     6554 
