Origin Time       2025/03/30 10:18:00
Lat.              34.667
Long.             140.825
Depth. (km)       69
Mag.              4.9
Station Code      TKY008
Station Lat.      34.7851
Station Long.     139.3909
Station Height(m) 65
Record Time       2025/03/30 10:18:51
Sampling Freq(Hz) 100Hz
Duration Time(s)  69
Dir.              E-W
Scale Factor      7845(gal)/8223790
Max. Acc. (gal)   3.306
Last Correction   2025/03/30 10:18:50
Memo.             
[...]
    -935     -961     -939     -907     -904     -909     -924     -924 
    -916     -928     -924     -919     -915     -905     -927     -939 
    -931     -936     -911     -882     -909     -927     -915     -920 
    -922     -924     -935     -922     -904     -900     -903     -919 
    -926     -934     -949     -930     -907     -913     -930     -930 
    -909     -897     -907     -912     -926     -949     -945     -923 
    -913     -908     -908     -926     -926     -915     -924     -912 
    -896     -911     -927     -938     -935     -912     -905     -924 
    -947     -955     -940     -904     -878     -897     -920     -932 
    -926     -880     -872     -939     -989     -972     -932     -901 
    -874     -874     -895     -912     -945     -970     -955     -916 
    -885     -895     -928     -942     -934     -904     -880     -891 
    -911     -942     -980     -973     -920     -869     -857     -885 
    -939     -972     -947     -911     -889     -878     -912     -980 
    -982     -911     -866     -877     -919     -954     -951     -922 
    -900     -909     -932     -935     -920     -896     -866     -889 
    -977    -1024     -973     -877     -827     -868     -919     -934 
    -954     -957     -932     -919     -897     -874     -899     -940 
    -961     -955     -918     -874     -872     -924     -966     -951 
    -927     -911     -874     -865     -908     -953     -966     -959 
    -912     -850     -858     -928     -986     -988     -928     -864 
    -862     -915     -943     -924     -916     -936     -943     -942 
    -918     -865     -866     -926     -966     -958     -918     -878 
    -881     -924     -969     -970     -926     -880     -873     -904 
    -942     -955     -928     -893     -888     -907     -928     -957 
    -962     -920     -877     -877     -905     -947     -972     -940 
    -897     -888     -896     -916     -938     -942     -931     -913 
    -905     -915     -919     -908     -913     -935     -936     -918 
    -896     -900     -924     -950     -962     -936     -884     -870 
    -900     -919     -938     -969     -954     -904     -886     -893 
    -899     -912     -940     -959     -947     -912     -889     -900 
    -915     -927     -963     -963     -901     -872     -901     -922 
    -931     -945     -934     -915     -905     -895     -888     -905 
    -953     -997     -969     -874     -822     -873     -961     -999 
    -972     -915     -876     -877     -904     -938     -945     -916 
    -912     -940     -934     -911     -909     -901     -907     -958 
    -972     -905     -869     -895     -913     -930     -963     -969 
    -924     -880     -874     -911     -949     -935     -927     -966 
    -953     -873     -843     -882     -939     -984     -981     -924 
    -874     -885     -920     -935     -932     -920     -913     -916 
    -922     -927     -924     -918     -913     -920     -935     -924 
    -896     -904     -928     -930     -936     -945     -916     -889 
    -895     -912     -932     -940     -926     -916     -920     -915 
    -908     -916     -922     -927     -949     -936     -899     -897 
    -916     -926     -940     -942     -913     -903     -912     -918 
    -932     -932     -905     -911     -939     -932     -903     -886 
    -907     -946     -963     -953     -923     -903     -918     -911 
    -865     -864     -919     -969     -990     -959     -888     -861 
    -892     -930     -955     -947     -909     -893     -899     -897 
    -920     -966     -973     -918     -868     -876     -915     -950 
    -954     -932     -913     -896     -889     -899     -909     -927 
    -963     -978     -932     -872     -869     -916     -939     -907 
    -892     -923     -947     -955     -946     -915     -895     -900 
    -909     -903     -904     -936     -949     -918     -903     -920 
    -942     -936     -900     -881     -901     -936     -963     -954 
    -912     -884     -892     -926     -947     -928     -909     -927 
    -930     -908     -897     -885     -895     -954     -985     -953 
    -913     -893     -892     -907     -924     -928     -922     -926 
    -927     -918     -918     -924     -915     -912     -928     -943 
    -939     -915     -896     -892     -885     -905     -965     -986 
    -936     -878     -866     -889     -935     -985     -970     -897 
    -858     -876     -908     -950     -982     -959     -908     -882 
    -881     -905     -953     -970     -938     -880     -842     -880 
    -966    -1008     -984     -913     -838     -834     -913     -992 
    -989     -924     -869     -862     -896     -940     -962     -957 
    -935     -900     -889     -922     -943     -919     -889     -903 
    -942     -961     -954     -926     -869     -843     -904     -986 
    -994     -938     -870     -845     -895     -958     -976     -957 
    -916     -876     -878     -923     -958     -950     -907     -870 
    -872     -908     -970    -1016     -974     -874     -818     -834 
    -908    -1007    -1030     -951     -865     -834     -858     -928 
    -985     -976     -935     -899     -876     -895     -923     -936 
    -946     -930     -908     -907     -915     -924     -916     -916 
    -943     -947     -919     -908     -901     -888     -909     -951 
    -958     -935     -907     -882     -885     -922     -957     -965 
    -930     -886     -874     -885     -926     -969     -961     -923 
    -897     -884     -895     -927     -954     -955     -922     -891 
    -900     -913     -918     -935     -934     -919     -923     -922 
    -918     -922     -913     -913     -930     -919     -904     -915 
    -924     -931     -938     -932     -915     -886     -877     -912 
    -955     -967     -949     -904     -886     -908     -920     -927 
    -938     -930     -915     -907     -896     -900     -924     -939 
    -949     -951     -934     -903     -886     -895     -911     -931 
    -957     -953     -908     -891     -909     -918     -928     -943 
    -939     -931     -913     -888     -892     -916     -934     -946 
    -940     -918     -896     -893     -915     -934     -936     -936 
    -930     -911     -905     -915     -927     -935     -927     -907 
    -904     -916     -935     -939     -919     -911     -920     -913 
    -905     -915     -927     -942     -947     -920     -889     -892 
    -911     -931     -946     -946     -928     -900     -896     -911 
    -919     -939     -949     -927     -915     -905     -889     -918 
    -947     -934     -919     -918     -919     -922     -920     -919 
    -927     -939     -934     -905     -889     -907     -930     -940 
    -950     -950     -928     -897     -868     -870     -926     -977 
    -962     -920     -893     -881     -901     -949     -961     -932 
    -903     -893     -899     -916     -939     -943     -926     -903 
    -886     -900     -946     -972     -951     -912     -882     -884 
    -901     -915     -935     -961     -957     -912     -877     -899 
    -930     -931     -938     -930     -900     -903     -924     -927 
    -923     -920     -923     -930     -924     -907     -899     -919 
    -939     -932     -922     -919     -915     -913     -918     -920 
    -927     -938     -931     -904     -893     -913     -931     -946 
    -950     -918     -885     -896     -926     -943     -939     -924 
    -907     -907     -927     -935     -920     -916     -927     -919 
    -907     -918     -927     -922     -924     -928     -911     -897 
    -913     -936     -940     -931     -916     -901     -904     -922 
    -931     -930     -931     -922     -907     -912     -920     -915 
    -918     -919     -918     -928     -936     -932     -919     -900 
    -901     -922     -934     -935     -924     -905     -907     -928 
    -936     -927     -918     -911     -905     -913     -920     -918 
    -924     -935     -930     -918     -911     -911     -922     -923 
    -920     -916     -908     -922     -943     -931     -919     -926 
    -915     -901     -909     -924     -928     -930     -927     -915 
    -912     -926     -922     -918     -930     -926     -911     -912 
    -922     -923     -919     -924     -927     -924     -923     -911 
    -905     -916     -920     -930     -942     -926     -903     -899 
    -908     -926     -934     -932     -930     -911     -891     -899 
    -927     -946     -942     -923     -911     -912     -911     -904 
    -911     -927     -930     -928     -934     -923     -904     -905 
    -919     -924     -922     -924     -926     -913     -903     -909 
    -924     -932     -932     -922     -904     -907     -920     -922 
    -923     -920     -915     -916     -920     -922     -923     -926 
    -927     -915     -904     -901     -908     -934     -936     -918 
    -923     -923     -904     -911     -919     -907     -916     -934 
    -934     -927     -918     -912     -918     -915     -909     -913 
    -918     -923     -928     -926     -923     -920     -916     -920 
    -923     -907     -903     -918     -927     -926     -920     -912 
    -919     -930     -924     -913     -909     -909     -918     -931 
    -936     -930     -916     -901     -905     -926     -931     -920 
    -920     -920     -907     -908     -930     -936     -922     -918 
    -922     -918     -918     -922     -918     -920     -928     -924 
    -918     -909     -901     -913     -932     -935     -930     -920 
    -912     -918     -920     -908     -916     -932     -926     -916 
    -916     -915     -918     -919     -919     -930     -938     -930 
    -911     -903     -907     -916     -928     -930     -920     -919 
    -922     -922     -919     -918     -922     -926     -924     -923 
    -913     -901     -912     -931     -932     -930     -926     -920 
    -926     -919     -908     -919     -924     -915     -919     -927 
    -919     -907     -916     -930     -924     -919     -920     -918 
    -922     -927     -920     -909     -912     -927     -928     -919 
    -919     -913     -909     -920     -924     -928     -934     -923 
    -907     -901     -915     -926     -923     -924     -927     -918 
    -907     -909     -912     -919     -934     -935     -927     -928 
    -923     -903     -900     -918     -927     -926     -932     -934 
    -916     -912     -915     -912     -926     -935     -923     -913 
    -912     -909     -913     -926     -931     -930     -926     -916 
    -905     -907     -912     -922     -936     -939     -928     -916 
    -904     -900     -907     -918     -934     -940     -922     -908 
    -913     -916     -916     -924     -928     -926     -919     -915 
    -912     -912     -919     -927     -931     -923     -915     -916 
    -919     -922     -931     -932     -926     -923     -913     -905 
    -913     -922     -923     -923     -923     -923     -916     -918 
    -924     -916     -912     -920     -924     -922     -911     -911 
    -931     -939     -928     -918     -908     -908     -919     -930 
    -927     -922     -928     -923     -909     -912     -918     -924 
    -935     -935     -922     -911     -908     -916     -922     -926 
    -928     -922     -918     -922     -920     -922     -923     -918 
    -916     -927     -934     -918     -908     -918     -922     -924 
    -930     -920     -905     -908     -922     -927     -930     -930 
    -920     -913     -918     -922     -922     -923     -922     -913 
    -911     -909     -911     -928     -936     -926     -915     -909 
    -915     -931     -936     -922     -897     -899     -930     -945 
    -928     -905     -904     -916     -924     -934     -927     -911 
    -913     -920     -913     -907     -916     -927     -922     -912 
    -908     -896     -893     -908     -913     -896     -880     -878 
    -878     -882     -900     -904     -877     -845     -838     -869 
    -923     -955     -963     -978     -988     -946     -865     -837 
    -927    -1102    -1263    -1310    -1221    -1030     -792     -654 
    -773    -1062    -1279    -1324    -1244     -999     -507      -58 
    -198     -885    -1329    -1108     -693     -499     -324     -117 
    -321    -1065    -1679    -1517     -865     -423     -453     -847 
   -1362    -1729    -1834    -1750    -1472     -920     -384     -453 
   -1290    -2177    -2083     -845      618     1098        0    -1787 
   -2330    -1140      -31       -2       85      492      206     -546 
   -1127    -1737    -2122    -1640     -695     -583    -1699    -2490 
   -1977    -1572    -2003    -2022    -1278     -665     -411     -120 
     413      564     -648    -2363    -2585    -1354      -43      905 
    1209      394     -938    -1534     -810      569      866     -625 
   -2535    -3658    -3782    -2606     -626      356     -288     -961 
    -604     -152     -472    -1138    -1576    -1651    -1208     -604 
    -662    -1073     -918     -587     -969    -1792    -1976    -1094 
    -170     -202     -720     -900     -588       58      596      479 
    -378    -1637    -2754    -3061    -2396    -1255     -193      409 
     248     -688    -1547    -1080      274      558     -557    -1386 
   -1169     -784     -788     -865     -693     -290     -220    -1080 
   -2363    -3132    -3068    -2401    -1858    -1857    -1923    -1888 
   -1953    -1345      549     2334     2546     1768      839      -37 
    -403     -425     -980    -2038    -2644    -2308    -1726    -1669 
   -1661    -1233     -899     -820     -837    -1111    -1135     -283 
     527       76    -1166    -1895    -1748    -1291     -884     -454 
    -245     -552     -900     -920    -1177    -1881    -2214    -1702 
    -954     -662     -716     -587     -164      248      342     -125 
    -926    -1432    -1560    -1665    -1660    -1158     -407     -359 
   -1266    -2153    -2336    -2027    -1352     -533     -221     -576 
    -819     -175     1019     1576      930     -367    -1559    -2026 
   -1444     -558     -602    -1678    -2748    -2826    -2037    -1426 
   -1192     -546      210      113     -488     -773     -687     -359 
      47      182     -203    -1182    -2452    -3388    -3523    -2803 
   -1680     -562      639     1509     1105     -282    -1237    -1089 
    -479     -399     -972    -1368    -1239    -1075    -1080    -1204 
   -1444    -1524    -1355    -1105     -803     -542     -267       75 
      45     -554    -1305    -1748    -1722    -1517    -1498    -1560 
   -1453    -1282    -1144     -791     -197      135     -170     -855 
   -1293    -1147     -719     -571     -762     -739     -442     -317 
    -315     -542    -1220    -1557    -1092     -688     -880    -1254 
   -1360    -1134     -938     -915     -535        5     -247     -903 
   -1046    -1148    -1595    -1767    -1510    -1278    -1239    -1194 
   -1007     -962    -1188    -1269    -1250    -1532    -1572     -774 
      25     -174     -984    -1402    -1162     -758     -530     -329 
    -157     -216     -457     -828    -1217    -1266     -881     -446 
    -382     -758    -1169    -1213    -1011     -783     -583     -496 
    -648    -1154    -1725    -1829    -1505    -1201    -1096    -1038 
    -857     -359      518     1017      195    -1524    -2681    -2484 
   -1580     -939     -575     -225     -197     -741    -1424    -1549 
   -1063     -614     -611     -859    -1190    -1718    -2150    -1872 
   -1070     -406      -43       76     -178     -997    -2041    -2228 
   -1246     -284       48      256      132     -518     -939    -1077 
   -1412    -1459     -868     -278     -168     -537    -1232    -1821 
   -1794    -1171     -797    -1255    -1703    -1281     -588     -476 
    -832    -1050     -785     -321      -97     -190     -537    -1026 
   -1493    -1668    -1340     -973     -999    -1147    -1489    -2170 
   -2405    -1750     -989     -634     -318      106      194     -402 
   -1186    -1304     -880     -554     -329       -5      292      256 
    -252     -904    -1310    -1495    -1486    -1151     -672     -450 
    -689    -1233    -1649    -1686    -1452    -1086     -772     -760 
   -1134    -1742    -2168    -1910    -1117     -521     -433     -591 
    -835    -1287    -1802    -1810    -1244     -735     -508     -303 
    -102        0       33      -90     -415     -571     -341     -136 
    -267     -654    -1096    -1247    -1206    -1566    -2116    -2038 
   -1362     -797     -784    -1142    -1159     -730     -643    -1051 
   -1424    -1574    -1305     -696     -468     -812    -1291    -1533 
   -1144     -449     -349     -789    -1175    -1362    -1204     -664 
    -179     -118     -359     -614     -872    -1215    -1364    -1016 
    -450     -182     -467    -1237    -1822    -1410     -429     -147 
    -716    -1279    -1518    -1480     -954     -206       18     -282 
    -463     -557    -1192    -2085    -2207    -1587    -1151    -1092 
    -940     -562     -313     -463     -753     -974    -1267    -1437 
   -1170     -845     -951    -1134     -831     -321     -337     -958 
   -1428    -1366    -1231    -1193    -1013     -747     -622     -846 
   -1264    -1341    -1040     -889    -1059    -1139     -893     -545 
    -191       56      -82     -387     -491     -595     -932    -1258 
   -1336    -1421    -1598    -1431     -891     -465     -346     -432 
    -735    -1213    -1422    -1013     -329      -59     -581    -1557 
   -2199    -2143    -1634    -1136     -905     -845     -967    -1217 
   -1069     -433     -145     -697    -1410    -1516    -1092     -622 
    -409     -378     -330     -406     -751    -1080     -955     -423 
    -105     -423    -1067    -1501    -1553    -1329     -878     -436 
    -496    -1086    -1706    -2089    -2189    -1746     -703      238 
     245     -606    -1479    -1706    -1325     -872     -792    -1050 
   -1239    -1109     -777     -480     -372     -365     -319     -268 
    -222     -265     -571     -950    -1088    -1051    -1034    -1050 
   -1111    -1374    -1838    -2091    -1883    -1478    -1004     -406 
     -32     -187     -622    -1001    -1232    -1362    -1362    -1146 
    -969    -1066    -1120     -927     -727     -621     -503     -364 
    -380     -722    -1132    -1212    -1101    -1093     -958     -569 
    -409     -584     -646     -715    -1158    -1572    -1476    -1093 
    -797     -662     -649     -711     -783     -897    -1070    -1188 
   -1215    -1101     -761     -472     -665    -1224    -1644    -1618 
   -1193     -766     -772     -965     -791     -459     -471     -716 
    -888     -957     -966     -838     -557     -367     -486     -816 
   -1135    -1360    -1447    -1248     -953    -1008    -1239    -1143 
    -832     -587     -418     -421     -588     -712     -942    -1524 
   -2085    -2091    -1563     -872     -380     -267     -538    -1016 
   -1188     -789     -270     -176     -646    -1324    -1599    -1224 
    -577     -245     -390     -704     -857     -857     -989    -1344 
   -1621    -1476     -997     -715     -924    -1343    -1525    -1267 
    -837     -788    -1101    -1155     -814     -498     -378     -438 
