Origin Time       2025/03/30 10:18:00
Lat.              34.667
Long.             140.825
Depth. (km)       69
Mag.              4.9
Station Code      TKY031
Station Lat.      35.6789
Station Long.     139.7070
Station Height(m) 29
Record Time       2025/03/30 10:19:16
Sampling Freq(Hz) 100Hz
Duration Time(s)  60
Dir.              N-S
Scale Factor      7845(gal)/8223790
Max. Acc. (gal)   1.632
Last Correction   2025/03/30 10:19:17
Memo.             
[...]
   -3469    -3231    -3186    -3342    -3501    -3622    -3731    -3738 
   -3591    -3424    -3480    -3619    -3399    -2953    -2844    -3230 
   -3653    -3635    -3321    -3218    -3574    -4037    -4028    -3568 
   -3187    -3237    -3584    -3813    -3744    -3488    -3235    -3094 
   -2994    -2963    -3111    -3404    -3628    -3609    -3501    -3474 
   -3495    -3520    -3512    -3426    -3349    -3457    -3663    -3649 
   -3443    -3361    -3470    -3585    -3539    -3364    -3203    -3180 
   -3280    -3365    -3442    -3607    -3785    -3816    -3674    -3503 
   -3399    -3380    -3450    -3528    -3464    -3191    -2917    -2889 
   -3122    -3526    -3901    -4047    -3912    -3593    -3296    -3127 
   -3167    -3476    -3794    -3823    -3618    -3458    -3447    -3415 
   -3262    -3152    -3257    -3416    -3372    -3261    -3319    -3537 
   -3696    -3580    -3285    -3090    -3140    -3383    -3524    -3379 
   -3283    -3620    -4052    -3989    -3545    -3241    -3349    -3676 
   -3812    -3630    -3319    -3187    -3294    -3353    -3256    -3207 
   -3330    -3453    -3389    -3229    -3191    -3372    -3623    -3677 
   -3449    -3152    -3117    -3376    -3654    -3816    -3875    -3781 
   -3578    -3453    -3481    -3586    -3585    -3273    -2909    -2934 
   -3292    -3608    -3616    -3447    -3368    -3384    -3451    -3530 
   -3569    -3545    -3491    -3562    -3663    -3595    -3496    -3420 
   -3348    -3403    -3550    -3572    -3329    -3072    -3160    -3489 
   -3690    -3628    -3516    -3499    -3458    -3325    -3194    -3213 
   -3442    -3746    -3805    -3541    -3269    -3142    -3041    -2976 
   -3091    -3476    -3925    -4093    -3897    -3585    -3427    -3362 
   -3280    -3187    -3129    -3302    -3627    -3746    -3569    -3325 
   -3322    -3527    -3582    -3384    -3176    -3200    -3453    -3697 
   -3726    -3547    -3389    -3426    -3580    -3607    -3393    -3071 
   -2887    -3068    -3446    -3624    -3599    -3592    -3669    -3734 
   -3694    -3607    -3636    -3765    -3663    -3307    -3109    -3217 
   -3388    -3335    -3156    -3161    -3253    -3288    -3338    -3447 
   -3632    -3693    -3541    -3402    -3410    -3499    -3469    -3334 
   -3385    -3626    -3775    -3678    -3487    -3410    -3456    -3503 
   -3439    -3323    -3249    -3273    -3433    -3508    -3430    -3478 
   -3643    -3686    -3562    -3365    -3221    -3184    -3159    -3110 
   -3186    -3392    -3585    -3681    -3690    -3707    -3727    -3670 
   -3542    -3399    -3339    -3402    -3528    -3561    -3397    -3234 
   -3215    -3272    -3345    -3381    -3400    -3427    -3503    -3636 
   -3607    -3384    -3238    -3311    -3476    -3524    -3537    -3634 
   -3716    -3707    -3604    -3511    -3457    -3379    -3358    -3327 
   -3199    -3191    -3384    -3520    -3373    -3141    -3142    -3329 
   -3466    -3515    -3601    -3669    -3615    -3585    -3669    -3786 
   -3851    -3761    -3505    -3288    -3275    -3343    -3331    -3249 
   -3190    -3169    -3094    -3046    -3196    -3449    -3626    -3608 
   -3542    -3646    -3819    -3831    -3580    -3272    -3210    -3349 
   -3424    -3307    -3208    -3318    -3484    -3539    -3407    -3242 
   -3334    -3564    -3599    -3384    -3302    -3613    -3890    -3778 
   -3495    -3314    -3319    -3456    -3528    -3366    -3165    -3181 
   -3307    -3433    -3620    -3890    -4045    -3840    -3393    -3025 
   -2957    -3198    -3547    -3750    -3604    -3360    -3346    -3342 
   -3275    -3357    -3469    -3456    -3434    -3473    -3465    -3429 
   -3511    -3642    -3601    -3383    -3249    -3262    -3234    -3181 
   -3214    -3342    -3532    -3635    -3520    -3333    -3358    -3593 
   -3739    -3669    -3501    -3373    -3362    -3478    -3636    -3650 
   -3487    -3321    -3300    -3399    -3484    -3483    -3384    -3326 
   -3484    -3682    -3618    -3333    -3207    -3434    -3689    -3712 
   -3600    -3474    -3393    -3376    -3361    -3276    -3253    -3429 
   -3584    -3534    -3385    -3346    -3424    -3366    -3230    -3321 
   -3631    -3942    -3950    -3609    -3273    -3172    -3256    -3403 
   -3473    -3369    -3214    -3213    -3345    -3449    -3445    -3456 
   -3557    -3609    -3593    -3478    -3250    -3196    -3387    -3516 
   -3402    -3217    -3300    -3667    -3906    -3723    -3375    -3287 
   -3442    -3551    -3472    -3348    -3343    -3381    -3466    -3653 
   -3757    -3638    -3393    -3268    -3323    -3362    -3341    -3366 
   -3399    -3349    -3330    -3402    -3438    -3422    -3345    -3260 
   -3343    -3597    -3838    -3854    -3635    -3420    -3361    -3393 
   -3391    -3348    -3331    -3365    -3478    -3528    -3406    -3302 
   -3348    -3473    -3543    -3539    -3535    -3539    -3616    -3708 
   -3593    -3339    -3231    -3294    -3327    -3365    -3538    -3684 
   -3569    -3268    -3100    -3207    -3454    -3689    -3686    -3450 
   -3302    -3316    -3275    -3153    -3231    -3534    -3731    -3696 
   -3535    -3464    -3600    -3704    -3537    -3207    -3024    -3138 
   -3426    -3654    -3673    -3609    -3591    -3534    -3420    -3241 
   -3046    -3002    -3141    -3416    -3717    -3870    -3790    -3572 
   -3396    -3295    -3265    -3343    -3447    -3489    -3470    -3512 
   -3673    -3754    -3595    -3302    -3168    -3352    -3634    -3743 
   -3680    -3611    -3592    -3503    -3261    -3030    -3142    -3480 
   -3546    -3338    -3226    -3349    -3528    -3553    -3456    -3395 
   -3408    -3380    -3302    -3276    -3343    -3478    -3493    -3294 
   -3165    -3292    -3514    -3655    -3720    -3821    -3881    -3696 
   -3369    -3262    -3427    -3591    -3688    -3697    -3569    -3441 
   -3352    -3210    -3018    -2914    -3036    -3250    -3387    -3468 
   -3568    -3726    -3893    -3958    -3816    -3520    -3200    -2916 
   -2910    -3327    -3767    -3778    -3461    -3294    -3427    -3581 
   -3551    -3422    -3408    -3532    -3623    -3551    -3399    -3439 
   -3601    -3520    -3227    -3033    -3033    -3069    -3044    -3118 
   -3454    -3896    -4062    -3835    -3514    -3397    -3443    -3456 
   -3503    -3645    -3645    -3412    -3127    -3055    -3271    -3507 
   -3578    -3581    -3639    -3701    -3507    -3126    -3046    -3424 
   -3825    -3823    -3558    -3400    -3395    -3357    -3237    -3214 
   -3315    -3415    -3469    -3493    -3584    -3676    -3573    -3354 
   -3326    -3603    -3866    -3773    -3387    -3038    -2992    -3269 
   -3667    -3842    -3690    -3491    -3335    -3179    -3118    -3134 
   -3142    -3203    -3423    -3667    -3755    -3748    -3670    -3492 
   -3292    -3210    -3291    -3362    -3395    -3478    -3559    -3631 
   -3654    -3584    -3488    -3442    -3480    -3483    -3429    -3442 
   -3420    -3303    -3292    -3456    -3534    -3396    -3229    -3165 
   -3211    -3314    -3403    -3474    -3528    -3619    -3750    -3759 
   -3597    -3408    -3308    -3302    -3411    -3553    -3543    -3423 
   -3335    -3346    -3420    -3414    -3331    -3338    -3559    -3824 
   -3770    -3555    -3527    -3530    -3427    -3323    -3234    -3160 
   -3179    -3291    -3381    -3411    -3407    -3435    -3561    -3659 
   -3576    -3422    -3392    -3379    -3265    -3250    -3427    -3662 
   -3763    -3630    -3487    -3491    -3547    -3542    -3361    -3156 
   -3191    -3375    -3465    -3462    -3515    -3613    -3657    -3646 
   -3642    -3607    -3422    -3186    -3079    -3109    -3321    -3592 
   -3620    -3472    -3420    -3497    -3510    -3365    -3245    -3358 
   -3593    -3643    -3588    -3604    -3550    -3418    -3345    -3296 
   -3280    -3450    -3743    -3734    -3348    -3072    -3198    -3491 
   -3555    -3402    -3353    -3488    -3653    -3618    -3433    -3429 
   -3582    -3574    -3369    -3262    -3373    -3492    -3434    -3234 
   -3125    -3242    -3470    -3613    -3576    -3522    -3528    -3484 
   -3478    -3530    -3478    -3358    -3245    -3226    -3408    -3649 
   -3692    -3561    -3457    -3468    -3626    -3770    -3639    -3339 
   -3110    -3049    -3208    -3429    -3460    -3402    -3497    -3570 
   -3406    -3230    -3294    -3531    -3662    -3528    -3284    -3137 
   -3195    -3321    -3393    -3608    -3916    -4012    -3788    -3429 
   -3261    -3412    -3711    -3851    -3696    -3415    -3219    -3150 
   -3059    -2987    -3229    -3572    -3628    -3504    -3431    -3443 
   -3412    -3249    -3049    -3086    -3433    -3730    -3780    -3620 
   -3364    -3300    -3514    -3765    -3784    -3532    -3334    -3333 
   -3370    -3480    -3750    -3883    -3595    -3242    -3238    -3443 
   -3609    -3601    -3377    -3082    -3005    -3252    -3577    -3676 
   -3439    -3156    -3179    -3369    -3470    -3470    -3480    -3569 
   -3572    -3375    -3187    -3207    -3410    -3607    -3630    -3518 
   -3519    -3708    -3777    -3530    -3244    -3327    -3680    -3816 
   -3613    -3272    -3041    -3090    -3318    -3462    -3380    -3275 
   -3376    -3520    -3469    -3264    -3167    -3302    -3527    -3788 
   -4040    -4129    -3964    -3572    -3163    -2988    -3119    -3400 
   -3495    -3312    -3183    -3381    -3704    -3751    -3446    -3125 
   -3157    -3364    -3356    -3249    -3315    -3570    -3843    -3905 
   -3744    -3493    -3262    -3164    -3215    -3342    -3449    -3542 
   -3597    -3504    -3393    -3423    -3515    -3516    -3400    -3339 
   -3445    -3557    -3493    -3360    -3311    -3327    -3474    -3682 
   -3670    -3443    -3252    -3264    -3420    -3547    -3595    -3481 
   -3304    -3353    -3545    -3591    -3439    -3326    -3422    -3530 
   -3435    -3258    -3285    -3496    -3527    -3273    -3076    -3254 
   -3653    -3838    -3669    -3466    -3493    -3507    -3303    -3150 
   -3267    -3597    -3816    -3636    -3365    -3406    -3607    -3635 
   -3492    -3365    -3310    -3388    -3549    -3570    -3434    -3300 
   -3307    -3456    -3515    -3373    -3246    -3291    -3346    -3261 
   -3223    -3403    -3631    -3712    -3642    -3460    -3321    -3460 
   -3700    -3759    -3677    -3538    -3414    -3329    -3306    -3329 
   -3168    -2903    -2960    -3337    -3676    -3789    -3709    -3580 
   -3495    -3397    -3269    -3253    -3349    -3439    -3520    -3589 
   -3649    -3684    -3694    -3704    -3616    -3391    -3172    -3110 
   -3176    -3346    -3603    -3692    -3549    -3439    -3485    -3592 
   -3572    -3439    -3377    -3372    -3443    -3588    -3640    -3623 
   -3585    -3445    -3204    -3017    -3067    -3321    -3578    -3743 
   -3840    -3832    -3666    -3387    -3146    -3087    -3127    -3180 
   -3312    -3414    -3280    -3059    -3183    -3650    -3858    -3645 
   -3414    -3311    -3296    -3321    -3407    -3642    -3855    -3858 
   -3736    -3649    -3630    -3608    -3451    -3214    -3246    -3523 
   -3570    -3322    -3164    -3280    -3443    -3434    -3357    -3353 
   -3370    -3288    -3167    -3150    -3161    -3142    -3159    -3269 
   -3495    -3700    -3863    -3987    -3942    -3820    -3726    -3661 
   -3734    -3910    -4020    -3917    -3564    -3123    -2789    -2627 
   -2659    -2903    -3240    -3523    -3680    -3618    -3411    -3280 
   -3314    -3427    -3453    -3375    -3303    -3343    -3507    -3642 
   -3743    -3798    -3688    -3553    -3461    -3196    -2745    -2420 
   -2575    -3137    -3669    -3993    -4217    -4380    -4417    -4214 
   -3766    -3423    -3500    -3746    -3798    -3676    -3591    -3565 
   -3435    -3132    -2770    -2644    -2814    -2895    -2768    -2772 
   -3115    -3654    -4072    -4205    -4083    -3815    -3515    -3200 
   -2961    -2937    -3064    -3194    -3291    -3377    -3397    -3312 
   -3202    -3245    -3514    -3808    -3985    -4000    -3790    -3469 
   -3226    -3196    -3400    -3640    -3724    -3689    -3734    -3886 
   -3940    -3797    -3527    -3279    -3144    -3053    -2965    -2857 
   -2728    -2698    -2862    -3225    -3658    -4004    -4197    -4163 
   -3875    -3519    -3361    -3402    -3508    -3742    -4062    -4213 
   -4058    -3715    -3422    -3275    -3277    -3326    -3271    -3186 
   -3138    -3087    -2988    -2839    -2793    -2922    -3129    -3352 
   -3554    -3712    -3699    -3456    -3204    -3075    -3033    -3136 
   -3415    -3685    -3746    -3620    -3414    -3222    -3068    -3007 
   -3176    -3483    -3773    -4043    -4178    -4035    -3763    -3694 
   -3751    -3585    -3218    -2893    -2729    -2732    -2910    -3217 
   -3434    -3522    -3626    -3709    -3765    -3850    -3905    -3836 
   -3662    -3524    -3554    -3692    -3689    -3549    -3547    -3607 
   -3527    -3406    -3331    -3219    -3075    -3130    -3446    -3777 
   -3944    -4031    -4175    -4274    -4187    -3979    -3655    -3191 
   -2705    -2492    -2671    -2941    -3133    -3264    -3279    -3198 
   -3038    -2909    -2984    -3237    -3505    -3636    -3622    -3651 
   -3898    -4191    -4158    -3802    -3416    -3184    -3100    -3024 
   -2987    -3129    -3352    -3451    -3360    -3254    -3264    -3354 
   -3469    -3523    -3516    -3473    -3338    -3186    -3234    -3591 
   -3966    -4059    -3958    -3834    -3805    -3855    -3765    -3458 
   -3079    -2810    -2693    -2586    -2436    -2398    -2641    -2997 
   -3221    -3443    -3824    -4280    -4662    -4942    -5138    -5157 
   -4855    -4164    -3325    -2748    -2609    -2797    -2930    -2782 
   -2567    -2432    -2304    -2224    -2312    -2565    -2990    -3624 
   -4264    -4693    -4912    -4990    -5015    -4926    -4549    -3873 
   -3063    -2407    -2151    -2327    -2690    -2949    -3048    -2980 
   -2843    -2856    -3044    -3283    -3477    -3582    -3680    -3847 
   -4067    -4253    -4306    -4171    -3889    -3611    -3437    -3356 
   -3252    -3033    -2737    -2373    -2069    -2123    -2647    -3416 
   -4102    -4576    -4810    -4796    -4641    -4342    -3839    -3250 
   -2814    -2705    -2785    -2856    -2918    -2941    -2933    -3037 
   -3354    -3775    -4051    -4095    -4018    -3897    -3753    -3693 
   -3753    -3757    -3699    -3715    -3843    -4025    -4044    -3797 
   -3372    -2844    -2420    -2312    -2516    -2870    -3234    -3547 
   -3651    -3403    -2947    -2673    -2781    -3092    -3443    -3746 
   -3879    -3836    -3739    -3696    -3659    -3651    -3786    -3946 
   -3955    -3804    -3636    -3639    -3674    -3537    -3358    -3272 
   -3156    -2921    -2755    -2856    -3196    -3632    -3890    -3775 
   -3450    -3273    -3343    -3370    -3179    -2965    -3002    -3299 
   -3631    -3882    -4024    -4024    -3935    -3828    -3821    -3912 
   -3893    -3672    -3331    -2998    -2776    -2677    -2668    -2814 
   -3176    -3613    -3836    -3654    -3244    -2971    -2863    -2868 
   -3163    -3755    -4382    -4639    -4374    -3870    -3400    -3092 
   -3019    -3106    -3281    -3538    -3835    -4044    -4023    -3770 
   -3435    -3206    -3041    -2775    -2571    -2687    -3030    -3330 
   -3546    -3750    -3842    -3767    -3685    -3746    -3900    -3989 
   -3940    -3705    -3392    -3302    -3422    -3418    -3210    -3045 
   -3029    -2957    -2749    -2689    -3014    -3530    -3932    -4128 
   -4044    -3720    -3396    -3308    -3470    -3600    -3611    -3716 
   -3856    -3751    -3304    -2743    -2450    -2641    -3153    -3565 
   -3663    -3578    -3508    -3545    -3657    -3852    -4024    -3954 
   -3667    -3343    -3134    -3033    -2897    -2778    -2832    -3044 
   -3265    -3335    -3248    -3152    -3229    -3451    -3591    -3604 
   -3678    -3978    -4395    -4600    -4461    -4086    -3681    -3404 
   -3265    -3187    -3049    -2860    -2760    -2798    -2992    -3406 
   -3912    -4094    -3773    -3331    -3190    -3357    -3526    -3518 
   -3499    -3627    -3834    -3943    -3831    -3500    -3103    -2934 
   -2972    -2951    -2910    -3015    -3326    -3742    -4028    -4085 
   -3919    -3638    -3484    -3514    -3489    -3338    -3361    -3626 
   -3848    -3794    -3415    -3025    -2971    -3117    -3202    -3200 
   -3213    -3242    -3210    -3192    -3365    -3761    -4140    -4247 
   -4097    -3893    -3801    -3738    -3553    -3307    -3115    -2970 
   -2729    -2417    -2290    -2450    -2725    -2943    -3181    -3615 
   -4153    -4594    -4765    -4644    -4426    -4234    -3994    -3611 
   -3202    -2974    -2922    -2880    -2793    -2866    -3100    -3225 
   -3222    -3153    -3105    -3280    -3572    -3781    -3929    -3978 
   -3873    -3681    -3460    -3288    -3311    -3435    -3439    -3383 
   -3399    -3520    -3588    -3356    -2991    -2822    -2880    -3001 
   -3006    -2957    -3049    -3257    -3451    -3578    -3585    -3503 
   -3495    -3558    -3657    -3893    -4185    -4422    -4534    -4382 
   -4141    -3977    -3713    -3358    -3057    -2840    -2713    -2628 
   -2571    -2654    -2843    -2994    -3107    -3213    -3373    -3585 
   -3672    -3744    -4024    -4391    -4614    -4503    -4048    -3487 
   -3010    -2629    -2313    -2174    -2313    -2689    -3132    -3464 
   -3735    -3971    -4077    -4167    -4306    -4382    -4349    -4249 
   -4095    -3832    -3481    -3110    -2760    -2516    -2462    -2697 
   -3127    -3415    -3412    -3302    -3331    -3500    -3647    -3762 
   -3901    -4083    -4226    -4210    -4012    -3615    -3121    -2779 
   -2748    -2967    -3287    -3632    -3859    -3885    -3839    -3761 
   -3518    -3088    -2743    -2725    -2895    -3055    -3152    -3208 
   -3299    -3402    -3458    -3427    -3334    -3279    -3289    -3364 
   -3491    -3627    -3686    -3680    -3732    -3701    -3449    -3206 
   -3138    -3223    -3308    -3235    -3148    -3294    -3665    -4027 
   -4189    -4116    -3913    -3819    -3878    -3917    -3829    -3578 
   -3254    -2944    -2722    -2712    -2810    -2829    -2860    -3103 
   -3474    -3751    -3861    -3850    -3870    -3909    -3827    -3724 
   -3669    -3535    -3285    -2983    -2802    -2891    -3176    -3447 
   -3542    -3528    -3592    -3767    -3889    -3854    -3744    -3643 
   -3628    -3613    -3449    -3302    -3267    -3198    -3114    -3113 
   -3203    -3375    -3568    -3597    -3388    -3176    -3109    -3144 
   -3288    -3541    -3859    -4033    -3888    -3528    -3206    -3073 
   -3057    -3149    -3404    -3651    -3761    -3759    -3654    -3451 
   -3210    -2991    -2860    -2971    -3271    -3474    -3586    -3681 
   -3647    -3465    -3273    -3258    -3389    -3429    -3325    -3334 
   -3620    -4017    -4299    -4326    -4160    -4045    -3959    -3724 
   -3387    -3102    -3057    -3262    -3469    -3528    -3446    -3262 
   -3102    -3087    -3123    -3119    -3159    -3231    -3306    -3373 
   -3331    -3238    -3265    -3368    -3449    -3532    -3561    -3557 
   -3690    -3854    -3831    -3632    -3412    -3376    -3437    -3345 
   -3225    -3167    -3078    -3069    -3252    -3505    -3753    -3985 
   -4041    -3886    -3713    -3622    -3559    -3391    -3145    -3033 
   -3086    -3194    -3248    -3199    -3107    -3002    -2959    -3092 
