Origin Time       2025/03/30 10:18:00
Lat.              34.667
Long.             140.825
Depth. (km)       69
Mag.              4.9
Station Code      TKY031
Station Lat.      35.6789
Station Long.     139.7070
Station Height(m) 29
Record Time       2025/03/30 10:19:16
Sampling Freq(Hz) 100Hz
Duration Time(s)  60
Dir.              E-W
Scale Factor      7845(gal)/8223790
Max. Acc. (gal)   1.263
Last Correction   2025/03/30 10:19:17
Memo.             
[...]
    4033     4045     3959     3782     3613     3519     3555     3827 
    4218     4371     4145     3804     3659     3782     3951     4036 
    4136     4140     3952     3744     3605     3568     3690     3925 
    4054     3885     3635     3721     4122     4356     4182     3946 
    3946     4036     3967     3750     3638     3713     3855     3946 
    3915     3893     3935     3924     3888     3801     3624     3596 
    3850     4148     4230     4108     4018     4137     4202     3964 
    3697     3626     3696     3846     3954     3923     3796     3762 
    3951     4144     4066     3823     3761     3909     3936     3766 
    3584     3555     3796     4132     4261     4206     4068     3855 
    3755     3890     4020     3994     3900     3793     3790     3950 
    4023     3753     3362     3319     3684     4125     4315     4234 
    4139     4109     4066     3970     3782     3647     3751     3940 
    3962     3865     3838     3893     3943     3910     3867     3896 
    3906     3912     3967     3975     3920     3869     3871     3862 
    3789     3788     3825     3761     3712     3839     4098     4253 
    4087     3711     3501     3636     3958     4226     4249     4063 
    3905     3859     3844     3796     3744     3798     3933     3994 
    3909     3855     4021     4193     4105     3913     3802     3719 
    3608     3564     3707     4025     4290     4260     3981     3658 
    3539     3773     4094     4160     4017     3910     3925     3901 
    3771     3715     3842     3964     3834     3596     3630     3955 
    4264     4351     4259     4091     3834     3520     3412     3646 
    3898     3963     3955     3831     3634     3651     3963     4275 
    4228     3921     3730     3736     3821     3963     4199     4384 
    4322     4054     3770     3638     3670     3796     3909     3940 
    3964     3923     3694     3518     3624     3888     4133     4259 
    4095     3731     3597     3735     3879     3964     3966     3913 
    3839     3742     3775     3935     4017     4012     4020     4090 
    4190     4179     3986     3780     3762     3869     3878     3728 
    3566     3592     3858     4124     4093     3865     3792     3969 
    4155     4066     3890     4016     4193     4051     3778     3655 
    3674     3705     3758     3871     3908     3782     3622     3597 
    3738     3944     4126     4279     4391     4341     4087     3742 
    3469     3473     3762     4104     4230     4039     3765     3707 
    3802     3856     3960     4203     4305     4031     3601     3476 
    3746     3978     3942     3842     3801     3808     3858     3929 
    3929     3842     3828     3940     3998     3892     3731     3696 
    3842     4024     4081     4099     4122     4089     4117     4139 
    3962     3726     3588     3570     3697     3912     4141     4275 
    4125     3761     3568     3692     3875     3915     3851     3904 
    4081     4029     3736     3570     3661     3874     4002     3969 
    3913     3947     4040     4095     3998     3771     3709     3928 
    4126     4133     4002     3883     3928     3935     3763     3630 
    3678     3883     4058     4036     3943     3892     3794     3713 
    3819     4020     4170     4189     4036     3867     3771     3738 
    3788     3809     3789     3816     3871     3937     3983     3989 
    3982     3986     3989     3942     3877     3865     3904     3902 
    3802     3744     3784     3788     3735     3770     3981     4195 
    4202     4001     3713     3570     3709     3991     4202     4175 
    3943     3753     3773     3910     3975     3955     3877     3703 
    3535     3574     3874     4229     4361     4213     3970     3821 
    3765     3742     3765     3873     4018     4085     4045     3939 
    3847     3908     4006     3920     3724     3651     3785     3939 
    3973     3983     3975     3878     3757     3746     3902     4077 
    4051     3851     3700     3732     3928     4114     4097     3948 
    3877     3940     4050     4006     3770     3605     3659     3792 
    3892     3986     3986     3816     3676     3778     4037     4136 
    3912     3564     3411     3609     4014     4298     4288     4136 
    4070     3974     3747     3653     3817     4062     4163     4045 
    3893     3867     3933     3987     3963     3865     3712     3605 
    3634     3778     3958     4055     4060     4052     4055     4027 
    3897     3732     3708     3840     3970     3990     3937     3932 
    3997     3946     3755     3750     4001     4164     3993     3647 
    3501     3659     3935     4163     4244     4122     3821     3551 
    3541     3747     3935     3952     3909     3985     4145     4202 
    4014     3739     3661     3816     4059     4166     4041     3842 
    3715     3750     3946     4094     4001     3805     3789     3892 
    3882     3793     3796     3886     3905     3889     3966     4008 
    3944     3867     3790     3732     3724     3739     3800     3947 
    4131     4230     4131     3854     3638     3628     3766     3958 
    4031     3944     3952     4110     4207     4117     3835     3532 
    3493     3802     4203     4329     4056     3623     3408     3527 
    3850     4205     4271     3902     3528     3589     3904     4109 
    4133     4091     4112     4124     3975     3735     3542     3505 
    3674     3946     4144     4153     4072     4066     4075     3983 
    3824     3716     3684     3711     3825     3939     3956     3869 
    3780     3902     4152     4202     3948     3618     3524     3721 
    3973     4039     3959     3925     3952     3971     3900     3766 
    3763     3879     3994     4085     4036     3848     3699     3674 
    3740     3850     3993     4128     4128     3975     3904     3986 
    3990     3840     3782     3958     4099     4013     3877     3763 
    3680     3743     3881     3912     3804     3748     3951     4237 
    4315     4140     3869     3700     3680     3743     3825     3901 
    3912     3780     3663     3763     3975     4064     4012     4045 
    4222     4278     4090     3804     3616     3632     3754     3786 
    3711     3689     3828     4068     4197     4109     3952     3844 
    3821     3836     3798     3819     3990     4153     4121     3901 
    3755     3839     3964     3936     3802     3701     3690     3786 
    3924     3979     3947     3920     3904     3850     3862     4040 
    4194     4148     3923     3708     3767     3986     4033     3924 
    3805     3711     3681     3717     3782     3892     4020     4071 
    4097     4086     3955     3813     3715     3662     3761     3946 
    4060     4044     3928     3846     3910     4045     4093     4024 
    3885     3809     3867     3890     3848     3865     3946     4060 
    4058     3919     3862     3828     3709     3694     3805     3851 
    3762     3650     3754     4077     4239     4162     4093     3943 
    3673     3524     3539     3680     3909     4097     4140     4012 
    3859     3886     4050     4124     3986     3747     3645     3766 
    3974     4114     4058     3831     3744     3902     4074     4077 
    3898     3765     3808     3889     3958     3959     3759     3519 
    3550     3846     4149     4259     4139     3947     3827     3793 
    3908     4075     4125     4139     4109     3908     3554     3248 
    3265     3620     4051     4278     4263     4190     4095     3962 
    3842     3716     3626     3694     3940     4190     4278     4170 
    3889     3655     3663     3838     4044     4171     4098     3825 
    3578     3588     3815     4036     3986     3712     3588     3761 
    4068     4270     4264     4176     4050     3870     3716     3623 
    3593     3640     3761     3902     3981     3971     3892     3796 
    3790     3909     4010     3944     3727     3597     3859     4337 
    4441     4062     3673     3663     3901     3948     3778     3800 
    4087     4260     4163     3974     3851     3851     3877     3817 
    3703     3580     3576     3755     3973     4109     4148     4087 
    3946     3805     3811     3978     4158     4198     4064     3823 
    3580     3503     3578     3623     3663     3765     3889     4040 
    4163     4132     4002     3963     4023     4089     4094     3977 
    3829     3731     3654     3705     3878     3983     3956     3839 
    3699     3692     3898     4149     4212     4055     3888     3928 
    4087     4160     4086     3892     3769     3846     3943     3931 
    3885     3921     4063     4189     4145     3924     3740     3774 
    3958     4054     3920     3774     3821     3997     4163     4114 
    3829     3618     3734     4104     4406     4409     4145     3874 
    3815     3846     3775     3684     3769     4014     4164     4118 
    4009     3933     3881     3846     3902     3987     3927     3757 
    3647     3689     3790     3824     3801     3746     3681     3647 
    3669     3773     3951     4113     4129     3991     3789     3576 
    3489     3580     3677     3712     3715     3690     3704     3793 
    3839     3773     3730     3765     3708     3429     3087     3056 
    3460     4048     4483     4639     4662     4583     4322     3981 
    3747     3713     3757     3739     3711     3672     3592     3600 
    3750     3847     3798     3782     3882     3948     3881     3829 
    3947     4048     3997     4025     4268     4496     4380     4001 
    3781     3765     3670     3462     3383     3591     3939     4140 
    4171     4209     4290     4409     4554     4564     4306     3901 
    3719     3958     4251     4259     4139     4140     4249     4201 
    3879     3488     3272     3373     3661     3842     3798     3562 
    3254     3119     3345     3825     4268     4457     4392     4324 
    4398     4472     4405     4116     3705     3414     3252     3141 
    3111     3291     3782     4349     4626     4611     4468     4191 
    3852     3672     3724     3859     3852     3724     3735     3981 
    4288     4407     4299     4182     4167     4175     4021     3634 
    3319     3392     3748     4059     4131     4021     3892     3863 
    3970     4137     4183     3978     3653     3397     3311     3416 
    3626     3847     3946     3904     3851     3801     3724     3676 
    3754     3948     4121     4228     4209     4013     3750     3576 
    3700     4021     4141     4041     3985     4090     4234     4195 
    4037     3894     3678     3418     3350     3489     3609     3601 
    3577     3719     3998     4190     4220     4116     3982     3959 
    3946     3850     3765     3751     3784     3855     4013     4160 
    4099     3842     3511     3277     3294     3531     3812     3944 
    3944     3997     4213     4490     4530     4237     3883     3700 
    3670     3767     4009     4280     4426     4398     4190     3825 
    3395     3130     3234     3547     3758     3812     3889     4075 
    4253     4325     4252     4067     3932     3921     3960     3994 
    4028     4101     4247     4340     4193     3932     3816     3843 
    3886     3813     3574     3272     3110     3250     3635     4074 
    4372     4409     4221     3985     3958     4160     4295     4228 
    4121     4243     4526     4553     4253     3896     3658     3605 
    3613     3520     3433     3481     3601     3797     4043     4185 
    4216     4144     4047     4113     4256     4307     4202     3829 
    3322     3042     3076     3141     3019     2938     3184     3630 
    4005     4315     4684     5035     5223     5194     4945     4507 
    3939     3343     2890     2675     2660     2801     3055     3330 
    3686     4149     4438     4430     4284     4126     3983     3823 
    3661     3547     3553     3728     3960     4172     4318     4286 
    4143     4064     4051     3940     3736     3586     3507     3507 
    3584     3688     3800     3882     4012     4280     4548     4629 
    4548     4517     4577     4434     3981     3613     3657     3910 
    4047     3946     3626     3204     2907     2997     3381     3661 
    3715     3705     3797     3982     4155     4417     4773     4931 
    4764     4448     4148     3813     3447     3254     3314     3505 
    3635     3607     3538     3616     3952     4472     4912     5012 
    4707     4229     3848     3628     3530     3514     3532     3535 
    3495     3419     3356     3430     3666     3939     4120     4158 
    4104     4014     3950     3989     4070     4089     4062     4090 
    4190     4239     4172     4060     3989     3931     3836     3754 
    3612     3375     3321     3662     4187     4503     4392     3889 
    3327     3100     3261     3643     4037     4303     4407     4249 
    3932     3774     3829     3975     4093     4056     3905     3771 
    3689     3688     3767     3773     3654     3526     3435     3462 
    3631     3819     3987     4147     4256     4189     3832     3400 
    3333     3759     4325     4635     4627     4510     4502     4533 
    4471     4332     4140     3919     3647     3314     3049     3010 
    3269     3661     3943     4112     4218     4267     4221     4043 
    3875     3815     3735     3504     3207     3126     3375     3781 
    4167     4392     4303     3901     3420     3176     3465     4237 
    4977     5212     4860     4272     3919     3786     3703     3730 
    3832     3886     3897     3916     4002     4166     4287     4295 
    4180     3929     3658     3431     3227     3191     3300     3312 
    3241     3325     3686     4197     4607     4733     4541     4236 
    3989     3805     3694     3685     3766     3873     3948     4017 
    4121     4183     4075     3890     3825     3927     4132     4257 
    4117     3758     3442     3407     3584     3731     3751     3750 
    3916     4268     4602     4727     4569     4212     3858     3605 
    3422     3303     3235     3210     3333     3538     3636     3721 
    3873     4013     4160     4268     4268     4182     4045     4014 
    4187     4369     4374     4220     3990     3804     3708     3663 
    3692     3726     3661     3585     3543     3539     3627     3819 
    4068     4175     4062     3909     3781     3670     3680     3873 
    4141     4264     4121     3859     3747     3827     3910     3861 
    3846     4082     4341     4345     4187     4033     4010     4101 
    4113     4025     3901     3753     3642     3601     3524     3360 
    3198     3125     3214     3474     3785     4066     4230     4253 
    4301     4382     4369     4299     4272     4333     4376     4234 
    3960     3755     3607     3454     3438     3628     3927     4155 
    4163     4094     4077     4006     3900     3808     3750     3770 
    3744     3569     3419     3470     3657     3905     4164     4295 
    4284     4176     4036     3925     3828     3816     3852     3770 
    3605     3523     3636     3865     4047     4199     4329     4344 
    4245     4086     3902     3823     3877     3859     3735     3677 
    3711     3754     3717     3678     3771     3912     4006     4077 
    4163     4252     4249     4166     4037     3827     3620     3454 
    3280     3291     3634     4021     4147     3981     3705     3627 
    3771     3921     4004     3985     3967     4043     4001     3855 
    3863     4013     4153     4212     4122     3867     3623     3615 
    3855     4122     4214     4168     4036     3798     3603     3514 
    3429     3356     3408     3704     4168     4476     4422     4197 
    4141     4336     4579     4606     4357     3933     3472     3289 
    3493     3734     3829     3856     3842     3840     3943     4170 
    4399     4383     4032     3608     3415     3481     3608     3611 
    3586     3669     3717     3726     3885     4135     4260     4141 
    3901     3801     3846     3892     3923     3901     3759     3613 
    3627     3851     4222     4473     4455     4320     4143     3956 
    3815     3658     3487     3370     3397     3624     3878     3940 
    3910     4025     4218     4288     4145     3811     3592     3704 
    3944     4141     4221     4113     3927     3832     3823     3766 
    3624     3478     3446     3564     3732     3865     3916     3871 
    3765     3680     3769     4044     4353     4568     4583     4399 
    4120     3838     3736     3923     4190     4268     4131     3847 
    3539     3379     3372     3488     3653     3696     3705     3798 
    3888     3986     4140     4252     4252     4224     4221     4141 
    3878     3518     3375     3586     3935     4201     4272     4159 
    4000     3917     3973     4078     4085     3975     3788     3608 
    3474     3365     3342     3439     3538     3551     3593     3807 
    4162     4483     4575     4425     4206     4037     3969     3990 
    4005     3959     3955     4059     4180     4247     4160     3898 
    3676     3586     3576     3584     3515     3399     3303     3307 
    3505     3785     3933     3944     3991     4145     4253     4166 
    3990     3951     4014     4070     4153     4199     4147     4000 
    3734     3532     3623     3939     4243     4372     4349     4286 
    4288     4348     4372     4342     4197     3913     3581     3308 
    3226     3329     3424     3404     3335     3333     3466     3751 
    4068     4272     4351     4325     4216     4066     3917     3846 
    3873     3979     4145     4291     4353     4297     4139     3952 
    3782     3638     3516     3424     3333     3246     3311     3580 
    3902     4158     4286     4218     4005     3878     3944     4055 
    4047     3912     3827     3866     3882     3854     3856     3854 
    3854     3913     4006     4085     4086     3964     3807     3673 
    3542     3489     3522     3580     3707     3854     3943     4006 
    4047     4050     3978     3855     3785     3823     3909     3960 
    3979     4000     4062     4124     4089     4078     4183     4229 
    4182     4141     4021     3807     3665     3709     3950     4175 
    4121     3951     3931     3986     4004     3958     3831     3646 
    3446     3333     3451     3751     3902     3778     3634     3643 
    3812     4087     4310     4386     4270     4008     3824     3755 
    3631     3493     3496     3600     3690     3747     3840     4056 
    4271     4311     4249     4194     4189     4279     4441     4561 
    4482     4174     3767     3460     3366     3410     3515     3649 
    3728     3813     3989     4190     4279     4144     3919     3823 
    3863     3933     4017     4099     4093     3959     3709     3437 
    3338     3384     3487     3677     3893     4041     4101     4116 
    4153     4205     4153     3920     3639     3445     3406     3626 
    3967     4185     4248     4230     4270     4421     4503     4365 
    4099     3831     3600     3515     3543     3489     3335     3167 
    3153     3435     3839     4091     4118     4021     3997     4162 
    4376     4444     4340     4101     3879     3802     3697     3497 
    3408     3510     3690     3829     3886     3916     4009     4133 
