Origin Time       2025/03/30 10:18:00
Lat.              34.667
Long.             140.825
Depth. (km)       69
Mag.              4.9
Station Code      TKY005
Station Lat.      35.5798
Station Long.     139.4137
Station Height(m) 106
Record Time       2025/03/30 10:19:18
Sampling Freq(Hz) 100Hz
Duration Time(s)  60
Dir.              U-D
Scale Factor      7845(gal)/8223790
Max. Acc. (gal)   1.561
Last Correction   2025/03/30 10:19:18
Memo.             
   -1389     -521     -591    -1409    -1738    -1273     -939    -1209 
   -1578    -1620    -1475    -1425    -1490    -1458    -1302    -1247 
   -1354    -1440    -1305    -1080    -1109    -1283    -1269    -1233 
   -1329    -1287    -1166    -1267    -1456    -1435    -1224    -1194 
   -1561    -1809    -1431     -878     -838    -1281    -1729    -1767 
   -1358    -1030    -1246    -1544    -1377    -1186    -1398    -1663 
   -1684    -1543    -1374    -1244    -1116     -989    -1050    -1374 
   -1632    -1513    -1237    -1155    -1274    -1418    -1445    -1363 
   -1333    -1360    -1286    -1147    -1117    -1232    -1436    -1545 
   -1368    -1071     -950    -1104    -1449    -1660    -1537    -1312 
   -1221    -1250    -1366    -1491    -1452    -1266    -1125    -1125 
   -1285    -1533    -1637    -1428    -1134    -1086    -1255    -1394 
   -1355    -1312    -1491    -1545    -1250    -1107    -1289    -1521 
   -1745    -1717    -1277     -927     -959    -1196    -1520    -1611 
   -1321    -1120    -1150    -1154    -1179    -1302    -1464    -1543 
   -1368    -1105    -1128    -1424    -1566    -1382    -1233    -1263 
   -1286    -1397    -1553    -1412    -1142    -1158    -1283    -1219 
   -1197    -1502    -1794    -1594    -1140     -905    -1004    -1402 
   -1699    -1460    -1151    -1279    -1448    -1340    -1178    -1223 
   -1545    -1734    -1460    -1044     -830     -963    -1359    -1609 
   -1570    -1460    -1401    -1352    -1277    -1219    -1225    -1282 
   -1344    -1393    -1379    -1298    -1316    -1416    -1375    -1287 
   -1309    -1362    -1440    -1483    -1285     -994    -1096    -1518 
   -1633    -1444    -1275    -1059     -993    -1237    -1463    -1540 
   -1478    -1217    -1081    -1385    -1676    -1551    -1323    -1147 
   -1071    -1279    -1459    -1452    -1518    -1449    -1090     -865 
   -1098    -1630    -1929    -1618    -1069     -930    -1209    -1371 
   -1252    -1321    -1628    -1572    -1143     -992    -1279    -1552 
   -1517    -1314    -1202    -1309    -1505    -1462    -1235    -1236 
   -1354    -1283    -1198    -1173    -1277    -1628    -1649    -1158 
    -950    -1120    -1197    -1347    -1722    -1891    -1453     -807 
    -746    -1260    -1759    -1865    -1444     -951    -1032    -1397 
   -1502    -1459    -1378    -1175    -1024    -1119    -1452    -1833 
   -1687     -949     -668    -1116    -1433    -1507    -1579    -1513 
   -1333     -966     -707    -1170    -1815    -1806    -1424    -1205 
   -1232    -1356    -1425    -1530    -1687    -1617    -1347    -1132 
   -1059    -1194    -1375    -1344    -1232    -1212    -1215    -1151 
   -1086    -1255    -1649    -1784    -1418     -961     -978    -1617 
   -1960    -1291     -720    -1074    -1560    -1682    -1579    -1347 
   -1223    -1140     -918    -1044    -1590    -1749    -1455    -1175 
   -1012    -1108    -1355    -1414    -1397    -1529    -1632    -1366 
    -977    -1051    -1433    -1512    -1251    -1169    -1436    -1452 
   -1166    -1341    -1765    -1674    -1215     -907     -993    -1347 
   -1555    -1440    -1221    -1053    -1046    -1359    -1710    -1726 
   -1399     -924     -899    -1506    -1867    -1653    -1348    -1004 
    -907    -1436    -1759    -1375    -1146    -1344    -1506    -1354 
   -1001    -1078    -1618    -1818    -1418     -904     -891    -1495 
   -1890    -1363     -618     -695    -1417    -1871    -1615    -1165 
   -1197    -1507    -1536    -1331    -1297    -1375    -1286    -1310 
   -1399    -1090    -1154    -1976    -2033     -885     -124     -785 
   -2080    -2313    -1375     -801     -846     -976    -1328    -1552 
   -1304    -1074    -1189    -1405    -1324    -1038    -1197    -1991 
   -2320    -1197     -156    -1023    -2309    -2101    -1121     -627 
   -1063    -1802    -1640    -1020    -1020    -1217    -1240    -1447 
   -1626    -1501    -1266    -1073    -1113    -1420    -1598    -1499 
   -1505    -1543    -1194     -970    -1140    -1233    -1520    -1756 
   -1432    -1363    -1333     -768    -1104    -2131    -1869    -1012 
   -1020    -1443    -1460     -974     -784    -1421    -1887    -1452 
    -986    -1067    -1308    -1512    -1571    -1431    -1264     -994 
    -803    -1329    -2145    -1836     -654     -400    -1422    -2182 
   -1706     -957    -1011    -1301    -1113     -977    -1323    -1660 
   -1613    -1262     -969    -1077    -1306    -1408    -1609    -1800 
   -1478     -919    -1113    -1810    -1750     -893     -440    -1225 
   -2401    -2255    -1035     -575    -1096    -1464    -1394    -1406 
   -1594    -1435    -1165    -1395    -1425     -837     -693    -1640 
   -2704    -2197     -361      309    -1070    -2411    -1998     -827 
    -710    -1602    -2041    -1363     -630     -822    -1416    -1579 
   -1254    -1210    -1732    -1872    -1409    -1024     -949    -1124 
   -1451    -1777    -1800    -1445    -1032     -757     -938    -1520 
   -1733    -1363    -1008    -1082    -1337    -1471    -1564    -1530 
   -1314    -1162    -1077    -1135    -1575    -2030    -1791     -984 
    -598     -972    -1595    -2019    -1800    -1030     -643    -1115 
   -1718    -1544     -880     -788    -1557    -2258    -1791     -683 
    -583    -1524    -1971    -1377     -808    -1046    -1570    -1609 
   -1046     -672    -1216    -1931    -1896    -1406    -1112    -1247 
   -1541    -1590    -1252     -868     -988    -1455    -1637    -1320 
    -954    -1177    -1688    -1730    -1451    -1243    -1146    -1236 
   -1428    -1412    -1196    -1186    -1294    -1113    -1066    -1328 
   -1327    -1281    -1490    -1556    -1474    -1408    -1208     -931 
    -949    -1428    -1902    -1838    -1370     -920     -842    -1271 
   -1710    -1633    -1285    -1136    -1251    -1490    -1648    -1495 
   -1158    -1003    -1127    -1464    -1678    -1445    -1206    -1202 
   -1129    -1135    -1200    -1024    -1017    -1429    -1717    -1634 
   -1367    -1050     -985    -1333    -1726    -1691    -1278    -1012 
   -1212    -1656    -1815    -1410     -938     -899    -1074    -1331 
   -1645    -1638    -1277    -1017    -1094    -1370    -1571    -1543 
   -1476    -1540    -1520    -1366    -1239    -1098    -1107    -1443 
   -1701    -1530    -1242    -1232    -1513    -1688    -1398     -966 
    -876    -1097    -1497    -1775    -1507     -981     -850    -1127 
   -1422    -1505    -1370    -1274    -1359    -1313    -1107    -1228 
   -1588    -1661    -1517    -1362    -1209    -1258    -1286     -922 
    -754    -1225    -1767    -1890    -1474     -842     -789    -1331 
   -1642    -1543    -1410    -1389    -1567    -1648    -1263     -951 
   -1113    -1399    -1632    -1651    -1391    -1182    -1138    -1219 
   -1277    -1140    -1140    -1464    -1691    -1476     -981     -684 
    -943    -1579    -1834    -1367    -1070    -1605    -1988    -1468 
   -1003    -1156    -1345    -1494    -1622    -1417    -1185    -1169 
   -1024     -938    -1255    -1572    -1528    -1206     -928    -1162 
   -1645    -1621    -1216     -999    -1132    -1566    -1769    -1340 
    -950    -1161    -1642    -1803    -1329     -841    -1046    -1474 
   -1605    -1429    -1094    -1262    -1830    -1777    -1175     -700 
    -642    -1104    -1678    -1872    -1737    -1520    -1259     -899 
    -799    -1223    -1630    -1637    -1441    -1161    -1051    -1323 
   -1472    -1269    -1125    -1167    -1452    -1799    -1607    -1058 
    -873    -1178    -1529    -1439    -1173    -1441    -1861    -1607 
   -1012     -789    -1040    -1655    -2178    -1896    -1055     -747 
   -1304    -1902    -1755    -1161     -972    -1242    -1309    -1119 
   -1082    -1173    -1390    -1663    -1479    -1057     -965    -1074 
   -1269    -1439    -1356    -1221    -1310    -1525    -1475    -1090 
    -935    -1304    -1706    -1584    -1228    -1402    -1768    -1426 
    -862     -927    -1370    -1753    -1815    -1404    -1026    -1034 
   -1178    -1370    -1377    -1055     -942    -1247    -1498    -1441 
   -1327    -1375    -1421    -1389    -1317    -1166    -1237    -1587 
   -1686    -1494    -1358    -1250    -1178    -1347    -1606    -1564 
   -1225     -955    -1062    -1429    -1575    -1497    -1453    -1343 
   -1275    -1428    -1526    -1362    -1148    -1120    -1224    -1394 
   -1467    -1240    -1028    -1136    -1310    -1337    -1301    -1358 
   -1518    -1509    -1263    -1112    -1107    -1071    -1208    -1582 
   -1674    -1347    -1192    -1440    -1622    -1421    -1112    -1159 
   -1502    -1513    -1166    -1142    -1517    -1775    -1560    -1057 
    -943    -1229    -1231    -1067    -1224    -1460    -1530    -1529 
   -1458    -1309    -1169    -1274    -1628    -1687    -1354    -1190 
   -1345    -1466    -1372    -1242    -1237    -1244    -1162    -1146 
   -1341    -1545    -1466    -1144     -877    -1047    -1549    -1618 
   -1185    -1058    -1371    -1640    -1626    -1371    -1244    -1277 
   -1065    -1121    -1729    -1755    -1155    -1109    -1428    -1395 
   -1183    -1119    -1364    -1625    -1316     -955    -1229    -1402 
   -1179    -1366    -1682    -1445    -1147    -1125    -1212    -1572 
   -1840    -1324     -781    -1178    -1691    -1559    -1170     -931 
   -1232    -1548    -1065     -892    -1495    -1498    -1116    -1250 
   -1502    -1706    -1728    -1339    -1093    -1156    -1286    -1594 
   -1771    -1404     -985    -1090    -1347    -1186     -950    -1223 
   -1485    -1165    -1059    -1641    -1912    -1347     -892    -1308 
   -1837    -1640    -1228    -1193    -1317    -1341    -1313    -1364 
   -1417    -1408    -1507    -1472    -1111     -974    -1229    -1320 
   -1112    -1147    -1547    -1699    -1412    -1065     -973    -1293 
   -1701    -1633    -1202     -970    -1138    -1413    -1447    -1246 
   -1038    -1193    -1721    -1701    -1012     -739    -1117    -1645 
   -1737    -1129     -719    -1135    -1829    -2081    -1490     -791 
    -989    -1652    -1965    -1599     -743     -396    -1058    -1881 
   -1826    -1107     -913    -1278    -1459    -1476    -1352    -1298 
   -1509    -1428    -1335    -1440    -1115    -1003    -1455    -1580 
   -1467    -1301     -977    -1139    -1756    -1868    -1368    -1001 
   -1163    -1478    -1586    -1649    -1567    -1285    -1197    -1263 
   -1306    -1279    -1220    -1536    -1836    -1399     -909    -1078 
   -1412    -1541    -1597    -1367    -1140    -1476    -1642    -1313 
   -1237    -1237    -1128    -1343    -1516    -1251    -1008    -1116 
   -1371    -1293     -832     -784    -1395    -1796    -1522    -1175 
   -1223    -1397    -1441    -1298    -1073    -1129    -1425    -1526 
   -1359    -1254    -1390    -1324     -961    -1156    -1719    -1613 
   -1217    -1167    -1351    -1642    -1559    -1109    -1065    -1404 
   -1626    -1512    -1155    -1159    -1574    -1547    -1063     -940 
   -1219    -1489    -1703    -1629    -1061     -739    -1248    -1740 
   -1463     -958     -784    -1046    -1653    -1929    -1420     -672 
    -604    -1572    -2330    -1617     -554     -669    -1637    -2143 
   -1503     -757    -1231    -2089    -1823     -918     -719    -1366 
   -1836    -1395     -850    -1323    -2037    -1696     -972     -904 
   -1131    -1304    -1428    -1248    -1105    -1381    -1480    -1236 
   -1374    -1875    -1836    -1159     -847    -1266    -1602    -1539 
   -1460    -1229     -916    -1173    -1637    -1372     -878    -1188 
   -1721    -1493    -1031    -1154    -1665    -1887    -1336     -669 
   -1082    -1911    -1791    -1124     -882    -1171    -1424    -1289 
   -1142    -1228    -1459    -1669    -1472     -992     -888    -1262 
   -1495    -1136     -742    -1028    -1466    -1366    -1117    -1128 
   -1163    -1116    -1217    -1489    -1718    -1680    -1367    -1231 
   -1445    -1732    -1914    -1692    -1197    -1169    -1517    -1665 
   -1567    -1243     -843     -812    -1225    -1586    -1549    -1343 
   -1197    -1111    -1194    -1401    -1425    -1246    -1134    -1224 
   -1390    -1503    -1588    -1533    -1286    -1287    -1621    -1586 
   -1125     -947    -1093    -1247    -1417    -1375    -1119    -1228 
   -1532    -1433    -1339    -1505    -1368    -1043    -1063    -1208 
   -1328    -1536    -1359     -861     -999    -1694    -1962    -1610 
   -1111    -1012    -1597    -2143    -1788    -1175    -1173    -1432 
   -1497    -1352    -1115    -1082    -1375    -1620    -1476    -1183 
   -1088    -1142    -1201    -1275    -1412    -1475    -1343    -1136 
    -886     -793    -1128    -1483    -1443    -1183    -1040    -1251 
   -1696    -1958    -1698    -1101     -815    -1071    -1630    -2073 
   -1894    -1321    -1143    -1529    -1904    -1614     -866     -627 
   -1109    -1534    -1408     -977     -776    -1044    -1393    -1345 
   -1119    -1123    -1220    -1279    -1424    -1594    -1591    -1320 
   -1101    -1293    -1571    -1561    -1424    -1306    -1221    -1289 
   -1489    -1490    -1244    -1116    -1142    -1246    -1498    -1557 
   -1324    -1228    -1287    -1285    -1169     -982    -1027    -1432 
   -1810    -1719    -1220     -892    -1131    -1621    -1798    -1482 
    -969     -814    -1306    -1930    -1915    -1321     -909    -1067 
   -1437    -1622    -1578    -1366    -1158    -1131    -1210    -1281 
   -1328    -1283    -1183    -1233    -1460    -1709    -1752    -1379 
    -911     -943    -1348    -1440    -1105     -900    -1035    -1264 
   -1483    -1575    -1447    -1296    -1263    -1328    -1444    -1445 
   -1310    -1239    -1202    -1135    -1227    -1483    -1636    -1603 
   -1472    -1273    -1067     -989    -1131    -1387    -1448    -1286 
   -1304    -1578    -1752    -1717    -1533    -1244    -1065    -1071 
   -1167    -1339    -1387    -1194    -1039    -1088    -1418    -1923 
   -1957    -1437    -1119    -1267    -1568    -1721    -1603    -1435 
   -1359    -1248    -1216    -1399    -1514    -1329    -1074    -1089 
   -1336    -1409    -1151     -943    -1030    -1183    -1308    -1448 
   -1433    -1240    -1075    -1040    -1143    -1305    -1443    -1597 
   -1587    -1188     -857    -1113    -1624    -1829    -1587    -1220 
   -1248    -1617    -1813    -1671    -1345    -1111    -1165    -1244 
   -1073     -899     -957    -1112    -1209    -1205    -1165    -1212 
   -1356    -1514    -1557    -1422    -1328    -1425    -1510    -1475 
   -1451    -1402    -1231    -1129    -1216    -1277    -1210    -1084 
    -939     -942    -1144    -1259    -1229    -1313    -1507    -1611 
   -1601    -1540    -1447    -1348    -1348    -1414    -1362    -1282 
   -1355    -1444    -1418    -1335    -1266    -1282    -1360    -1399 
   -1387    -1359    -1340    -1360    -1352    -1274    -1316    -1548 
   -1741    -1717    -1502    -1296    -1309    -1412    -1329    -1111 
   -1048    -1286    -1533    -1448    -1182    -1040    -1048    -1146 
   -1289    -1418    -1485    -1421    -1256    -1200    -1410    -1668 
   -1606    -1300    -1088    -1013     -984    -1034    -1173    -1329 
   -1437    -1422    -1267    -1156    -1293    -1525    -1530    -1416 
   -1495    -1611    -1485    -1283    -1239    -1308    -1394    -1409 
   -1286    -1152    -1221    -1458    -1530    -1331    -1246    -1453 
   -1578    -1406    -1174    -1155    -1336    -1405    -1247    -1181 
   -1358    -1502    -1395    -1120     -980    -1200    -1551    -1601 
   -1363    -1267    -1432    -1557    -1462    -1210    -1080    -1274 
   -1482    -1333    -1093    -1178    -1428    -1443    -1325    -1340 
   -1312    -1155    -1201    -1410    -1343    -1084    -1127    -1432 
   -1503    -1248    -1111    -1317    -1509    -1429    -1286    -1242 
   -1285    -1390    -1409    -1331    -1331    -1339    -1233    -1159 
   -1197    -1275    -1343    -1259    -1075    -1159    -1431    -1405 
   -1140    -1142    -1455    -1617    -1447    -1294    -1358    -1383 
   -1264    -1239    -1382    -1529    -1551    -1416    -1267    -1312 
   -1459    -1483    -1456    -1543    -1606    -1451    -1198    -1113 
   -1205    -1260    -1239    -1264    -1314    -1298    -1273    -1345 
   -1497    -1582    -1476    -1327    -1420    -1656    -1706    -1615 
   -1544    -1441    -1316    -1213    -1143    -1166    -1174    -1075 
   -1042    -1100    -1092     -990     -824     -797    -1094    -1418 
   -1468    -1440    -1470    -1464    -1435    -1393    -1339    -1428 
   -1696    -1873    -1717    -1385    -1278    -1464    -1526    -1274 
   -1082    -1263    -1579    -1591    -1262     -969     -993    -1216 
   -1314    -1197    -1120    -1235    -1308    -1188    -1066    -1105 
   -1228    -1329    -1360    -1266    -1105    -1046    -1174    -1368 
   -1360    -1192    -1212    -1351    -1323    -1250    -1337    -1539 
   -1721    -1796    -1783    -1759    -1709    -1574    -1464    -1509 
   -1614    -1595    -1347    -1003     -892    -1104    -1302    -1242 
   -1140    -1202    -1229    -1080     -955    -1009    -1192    -1366 
   -1391    -1313    -1355    -1539    -1603    -1483    -1425    -1448 
   -1382    -1324    -1406    -1482    -1372    -1143    -1063    -1215 
   -1313    -1273    -1332    -1452    -1377    -1163    -1039    -1062 
   -1201    -1366    -1386    -1243    -1228    -1453    -1521    -1256 
   -1096    -1316    -1586    -1439    -1008     -919    -1275    -1556 
   -1502    -1316    -1281    -1428    -1480    -1305    -1131    -1162 
   -1325    -1397    -1224     -990    -1039    -1301    -1402    -1360 
   -1448    -1614    -1656    -1587    -1525    -1486    -1439    -1437 
   -1516    -1557    -1521    -1459    -1355    -1294    -1387    -1444 
   -1264    -1089    -1223    -1468    -1480    -1355    -1317    -1309 
   -1293    -1363    -1451    -1468    -1474    -1417    -1239    -1135 
   -1251    -1405    -1344    -1108     -980    -1063    -1202    -1274 
   -1277    -1228    -1183    -1198    -1208    -1173    -1152    -1132 
   -1135    -1259    -1408    -1456    -1476    -1518    -1497    -1352 
   -1179    -1104    -1154    -1291    -1290     -996     -814    -1131 
   -1597    -1755    -1660    -1498    -1370    -1409    -1526    -1470 
   -1302    -1236    -1266    -1296    -1312    -1412    -1544    -1494 
   -1337    -1248    -1138    -1101    -1350    -1625    -1626    -1497 
   -1409    -1366    -1397    -1445    -1435    -1443    -1525    -1607 
   -1498    -1220    -1182    -1439    -1536    -1350    -1204    -1304 
   -1453    -1421    -1321    -1290    -1225    -1121    -1128    -1224 
   -1233    -1142    -1088    -1111    -1197    -1366    -1505    -1448 
   -1286    -1252    -1363    -1468    -1503    -1458    -1301    -1092 
   -1051    -1294    -1495    -1341    -1134    -1243    -1464    -1491 
   -1368    -1236    -1143    -1085    -1071    -1163    -1286    -1289 
   -1270    -1318    -1264    -1229    -1449    -1586    -1355    -1159 
   -1316    -1634    -1787    -1626    -1401    -1426    -1595    -1614 
   -1417    -1231    -1267    -1410    -1393    -1138     -935    -1038 
   -1170    -1131    -1155    -1271    -1321    -1328    -1339    -1356 
   -1318    -1200    -1179    -1312    -1359    -1289    -1293    -1401 
