Origin Time       2025/03/30 10:18:00
Lat.              34.667
Long.             140.825
Depth. (km)       69
Mag.              4.9
Station Code      TKY009
Station Lat.      34.6867
Station Long.     139.4410
Station Height(m) 53
Record Time       2025/03/30 10:18:51
Sampling Freq(Hz) 100Hz
Duration Time(s)  70
Dir.              N-S
Scale Factor      7845(gal)/8223790
Max. Acc. (gal)   5.322
Last Correction   2025/03/30 10:18:50
Memo.             
[...]
   -2968    -2951    -2987    -2976    -2932    -2965    -3003    -2964 
   -2955    -2964    -2964    -2986    -2961    -2932    -2968    -3001 
   -2976    -2929    -2957    -3009    -2967    -2937    -2964    -2978 
   -2983    -2961    -2945    -2970    -2975    -2955    -2949    -2986 
   -2990    -2930    -2965    -3017    -2937    -2926    -3003    -2978 
   -2938    -2955    -2983    -2987    -2945    -2951    -2980    -2961 
   -2956    -2971    -2963    -2959    -2979    -2971    -2938    -2965 
   -2997    -2953    -2928    -2970    -2997    -2963    -2951    -2971 
   -2968    -2965    -2964    -2960    -2963    -2968    -2986    -2975 
   -2938    -2959    -2995    -2961    -2947    -2980    -2978    -2961 
   -2961    -2951    -2963    -2979    -2960    -2959    -2974    -2963 
   -2971    -2968    -2951    -2964    -2965    -2970    -2961    -2948 
   -2980    -2976    -2956    -2972    -2963    -2948    -2971    -2978 
   -2960    -2961    -2975    -2963    -2961    -2970    -2959    -2953 
   -2967    -2986    -2970    -2944    -2960    -2976    -2971    -2949 
   -2959    -2987    -2965    -2953    -2955    -2970    -2991    -2947 
   -2959    -2991    -2948    -2976    -2980    -2926    -2967    -2991 
   -2959    -2949    -2964    -2975    -2967    -2967    -2960    -2951 
   -2978    -2980    -2951    -2952    -2963    -2971    -2979    -2957 
   -2951    -2983    -2971    -2957    -2978    -2951    -2943    -2991 
   -2986    -2936    -2944    -3002    -2984    -2928    -2952    -2995 
   -2983    -2949    -2948    -2978    -2987    -2959    -2952    -2971 
   -2975    -2964    -2953    -2976    -2980    -2957    -2961    -2948 
   -2971    -3011    -2953    -2934    -2994    -2983    -2941    -2955 
   -2987    -2976    -2955    -2961    -2979    -2972    -2940    -2944 
   -2983    -2978    -2956    -2967    -2972    -2970    -2967    -2956 
   -2955    -2967    -2970    -2963    -2964    -2972    -2959    -2957 
   -2970    -2967    -2970    -2961    -2965    -2982    -2959    -2959 
   -2968    -2951    -2974    -2974    -2953    -2967    -2961    -2959 
   -2978    -2979    -2961    -2951    -2948    -2971    -3007    -2963 
   -2921    -2968    -2998    -2976    -2934    -2936    -3006    -3001 
   -2932    -2951    -3003    -2970    -2928    -2976    -2990    -2945 
   -2974    -2979    -2938    -2972    -2995    -2971    -2936    -2945 
   -3017    -2990    -2924    -2970    -2992    -2952    -2963    -2974 
   -2952    -2968    -2991    -2957    -2938    -2975    -2987    -2961 
   -2956    -2967    -2972    -2975    -2965    -2960    -2960    -2978 
   -2995    -2944    -2933    -3014    -2988    -2905    -2955    -3024 
   -2964    -2924    -2979    -2978    -2957    -2982    -2951    -2938 
   -3015    -3007    -2913    -2926    -3011    -2990    -2928    -2953 
   -2986    -2976    -2964    -2957    -2968    -2975    -2967    -2957 
   -2949    -2975    -2991    -2948    -2934    -2984    -2997    -2949 
   -2940    -2979    -2980    -2953    -2956    -2971    -2968    -2967 
   -2963    -2947    -2972    -2978    -2938    -2970    -2992    -2948 
   -2951    -2968    -2963    -2982    -2968    -2936    -2955    -2978 
   -2992    -2982    -2911    -2940    -3021    -2976    -2930    -2952 
   -2976    -2979    -2951    -2968    -2976    -2944    -2983    -2986 
   -2933    -2963    -2980    -2955    -2975    -2982    -2947    -2945 
   -2975    -2965    -2963    -2979    -2960    -2955    -2971    -2970 
   -2976    -2959    -2941    -2983    -2992    -2957    -2961    -2961 
   -2955    -2975    -2971    -2948    -2976    -2980    -2941    -2975 
   -2991    -2934    -2971    -3001    -2928    -2953    -3006    -2963 
   -2957    -2967    -2961    -2979    -2971    -2943    -2945    -3001 
   -3001    -2932    -2955    -2979    -2960    -2984    -2949    -2949 
   -3009    -2965    -2949    -2959    -2949    -2991    -2975    -2947 
   -2978    -2972    -2961    -2960    -2959    -2976    -2978    -2964 
   -2959    -2964    -2983    -2974    -2933    -2959    -3006    -2965 
   -2947    -2982    -2959    -2948    -2991    -2978    -2938    -2980 
   -3001    -2944    -2947    -2979    -2964    -2963    -2968    -2968 
   -2991    -2967    -2937    -2972    -2980    -2963    -2968    -2963 
   -2964    -2983    -2952    -2924    -2975    -2980    -2929    -2965 
   -2999    -2953    -2961    -2986    -2970    -2994    -2982    -2937 
   -2965    -2963    -2926    -2955    -2972    -2947    -2956    -2987 
   -2984    -2960    -2957    -3005    -2992    -2934    -2987    -2990 
   -2914    -2951    -2970    -2934    -2949    -2970    -2976    -2971 
   -2978    -2988    -2956    -2970    -3002    -2959    -2940    -2975 
   -2971    -2925    -2934    -2970    -2949    -2961    -2986    -2976 
   -2983    -2976    -2986    -2979    -2937    -2976    -2979    -2928 
   -2943    -2964    -2963    -2952    -2951    -2980    -2983    -2964 
   -2968    -2978    -2974    -2968    -2959    -2945    -2957    -2976 
   -2967    -2960    -2959    -2960    -2975    -2964    -2963    -2984 
   -2970    -2963    -2987    -2971    -2940    -2971    -2984    -2929 
   -2949    -3001    -2957    -2952    -2986    -2972    -2964    -2970 
   -2965    -2956    -2982    -2988    -2941    -2951    -2975    -2967 
   -2957    -2944    -2978    -2972    -2956    -2988    -2957    -2957 
   -2999    -2952    -2938    -2991    -2976    -2926    -2963    -2995 
   -2940    -2952    -2980    -2929    -2979    -3019    -2938    -2951 
   -2992    -2960    -2953    -2959    -2965    -2965    -2955    -2984 
   -2972    -2944    -2984    -2972    -2937    -2987    -2994    -2945 
   -2948    -2975    -2978    -2959    -2955    -2972    -2976    -2978 
   -2960    -2940    -2980    -2997    -2944    -2960    -2992    -2957 
   -2963    -2971    -2955    -2979    -2963    -2955    -2987    -2957 
   -2951    -2979    -2961    -2972    -2983    -2951    -2963    -2978 
   -2964    -2960    -2952    -2978    -2992    -2940    -2943    -2997 
   -2987    -2949    -2947    -2952    -2964    -2990    -2970    -2929 
   -2963    -3001    -2961    -2938    -2960    -2982    -2980    -2937 
   -2955    -3010    -2959    -2937    -2979    -2957    -2974    -2990 
   -2928    -2953    -3002    -2974    -2961    -2938    -2959    -3019 
   -2955    -2916    -2984    -2992    -2967    -2955    -2960    -2975 
   -2967    -2970    -2960    -2967    -2982    -2945    -2956    -2987 
   -2965    -2964    -2964    -2972    -2984    -2952    -2955    -2982 
   -2970    -2957    -2959    -2970    -2976    -2975    -2951    -2949 
   -2995    -2974    -2941    -2975    -2974    -2968    -2963    -2944 
   -2979    -2980    -2940    -2955    -2975    -2965    -2961    -2968 
   -2976    -2965    -2948    -2963    -2984    -2952    -2940    -2995 
   -2975    -2925    -2975    -2994    -2951    -2951    -2980    -2972 
   -2930    -2974    -3010    -2929    -2937    -2990    -2960    -2968 
   -2970    -2944    -2964    -2984    -2974    -2943    -2955    -2992 
   -2972    -2944    -2960    -2976    -2967    -2956    -2961    -2967 
   -2975    -2965    -2947    -2957    -2971    -2972    -2972    -2956 
   -2945    -2974    -2995    -2948    -2922    -2980    -2986    -2948 
   -2968    -2975    -2955    -2960    -2970    -2967    -2959    -2967 
   -2968    -2971    -2982    -2955    -2945    -2964    -2971    -2979 
   -2959    -2960    -2984    -2953    -2944    -2976    -2979    -2963 
   -2955    -2968    -2968    -2965    -2972    -2943    -2957    -2988 
   -2951    -2960    -2986    -2955    -2963    -2974    -2949    -2967 
   -2972    -2965    -2974    -2947    -2959    -2987    -2959    -2961 
   -2968    -2956    -2976    -2974    -2953    -2953    -2972    -2980 
   -2963    -2967    -2963    -2957    -2984    -2960    -2956    -2983 
   -2953    -2963    -2980    -2959    -2971    -2967    -2963    -2979 
   -2951    -2957    -2984    -2964    -2960    -2963    -2978    -2990 
   -2947    -2947    -2976    -2975    -2971    -2947    -2951    -2997 
   -2987    -2940    -2955    -2999    -2961    -2944    -2986    -2959 
   -2959    -2991    -2949    -2949    -2998    -2982    -2937    -2947 
   -2991    -2980    -2948    -2963    -2970    -2967    -2968    -2970 
   -2971    -2959    -2974    -2978    -2944    -2964    -2986    -2959 
   -2965    -2978    -2963    -2951    -2965    -2982    -2963    -2964 
   -2974    -2959    -2967    -2970    -2967    -2975    -2952    -2967 
   -2984    -2949    -2970    -2972    -2941    -2983    -2986    -2949 
   -2957    -2967    -2982    -2968    -2947    -2967    -2971    -2970 
   -2959    -2949    -2997    -2975    -2925    -2974    -2979    -2947 
   -2956    -2971    -2972    -2959    -2984    -2964    -2928    -2997 
   -2992    -2929    -2955    -2982    -2964    -2943    -2957    -2990 
   -2968    -2944    -2971    -2986    -2957    -2936    -2961    -2988 
   -2970    -2937    -2948    -2988    -2975    -2947    -2968    -2961 
   -2959    -2984    -2955    -2952    -2995    -2959    -2944    -2983 
   -2959    -2961    -2991    -2949    -2956    -2987    -2957    -2971 
   -2972    -2945    -2970    -2975    -2965    -2960    -2957    -2982 
   -2970    -2953    -2965    -2967    -2960    -2949    -2978    -2979 
   -2933    -2968    -2998    -2947    -2944    -2982    -2974    -2953 
   -2959    -2970    -2972    -2961    -2970    -2959    -2936    -2991 
   -3002    -2930    -2936    -2988    -2984    -2951    -2952    -2970 
   -2968    -2963    -2963    -2963    -2964    -2971    -2971    -2961 
   -2959    -2971    -2971    -2956    -2967    -2978    -2959    -2960 
   -2970    -2968    -2964    -2955    -2968    -2974    -2967    -2971 
   -2961    -2957    -2970    -2978    -2956    -2947    -2987    -2970 
   -2948    -2980    -2964    -2957    -2975    -2965    -2960    -2963 
   -2984    -2978    -2930    -2964    -3002    -2953    -2934    -2965 
   -2999    -2982    -2924    -2955    -3003    -2971    -2949    -2967 
   -2960    -2959    -2991    -2964    -2921    -2980    -2997    -2940 
   -2948    -2972    -2971    -2957    -2957    -2976    -2960    -2955 
   -2976    -2952    -2949    -2990    -2971    -2951    -2970    -2957 
   -2963    -2980    -2970    -2961    -2957    -2964    -2978    -2972 
   -2952    -2948    -2976    -2979    -2953    -2967    -2971    -2953 
   -2961    -2960    -2975    -2980    -2949    -2965    -2971    -2959 
   -2983    -2961    -2953    -2972    -2951    -2975    -2986    -2940 
   -2960    -2992    -2957    -2941    -2979    -2987    -2957    -2953 
   -2964    -2971    -2975    -2960    -2964    -2971    -2951    -2967 
   -2990    -2953    -2945    -2980    -2978    -2964    -2959    -2957 
   -2971    -2975    -2963    -2965    -2976    -2978    -2964    -2947 
   -2972    -2976    -2945    -2979    -2984    -2953    -2960    -2961 
   -2971    -2984    -2968    -2944    -2970    -2987    -2944    -2970 
   -2992    -2929    -2956    -3001    -2955    -2951    -2974    -2964 
   -2976    -2978    -2947    -2959    -2984    -2975    -2952    -2947 
   -2987    -2983    -2938    -2959    -2979    -2965    -2963    -2961 
   -2961    -2967    -2971    -2967    -2956    -2967    -2967    -2957 
   -2991    -2975    -2926    -2975    -2987    -2934    -2965    -2990 
   -2960    -2960    -2955    -2952    -2978    -2984    -2957    -2940 
   -2965    -2991    -2964    -2948    -2983    -2970    -2932    -2968 
   -2991    -2955    -2956    -2970    -2959    -2971    -2970    -2955 
   -2964    -2970    -2979    -2970    -2943    -2963    -2974    -2967 
   -2976    -2955    -2952    -2983    -2968    -2951    -2960    -2979 
   -2975    -2955    -2965    -2968    -2963    -2970    -2955    -2957 
   -2980    -2975    -2951    -2945    -2986    -2986    -2937    -2963 
   -2995    -2959    -2960    -2980    -2952    -2949    -2982    -2972 
   -2949    -2964    -2960    -2949    -2967    -2953    -2934    -2960 
   -2948    -2925    -2953    -2926    -2902    -2964    -2944    -2898 
   -2965    -2995    -2986    -2984    -2949    -2980    -3011    -2957 
   -2951    -2982    -3095    -3258    -3295    -3213    -3028    -2828 
   -2701    -2644    -2735    -2990    -3493    -4029    -3834    -2805 
   -1875    -1818    -2278    -2353    -2349    -3276    -4565    -4617 
   -3198    -1777    -1669    -2492    -2995    -2880    -2779    -2999 
   -3219    -3117    -3001    -3446    -4260    -4749    -4288    -2673 
   -1169    -1220    -2227    -3045    -3501    -3564    -3106    -2509 
   -2606    -3456    -3875    -3113    -2205    -2612    -3488    -2658 
    -800    -1046    -3927    -6100    -5076    -2509     -972     -571 
   -1081    -3395    -6845    -8090    -4557     1016     2546    -1182 
   -5077    -5377    -3218    -1302    -1518    -4239    -6859    -5552 
   -1329      159    -2220    -3592    -2273    -1524    -2601    -3511 
   -3433    -3285    -3269    -3107    -3003    -3184    -3694    -3924 
   -3140    -2309    -2764    -3294    -2145    -1104    -2772    -5269 
   -5103    -2512     -240     -324    -2921    -5695    -5427    -2228 
     117     -639    -2955    -4602    -4911    -4210    -3294    -3200 
   -3869    -3921    -2640     -886     -498    -2610    -5458    -5755 
   -3281    -1453    -2116    -2887    -1545      -64    -1567    -4934 
   -6199    -4434    -2258    -1849    -2785    -2897    -1830    -1950 
   -3939    -5463    -4953    -3119    -1198     -276    -1665    -5113 
   -7169    -4719      278     2613      -64    -4936    -7371    -5560 
   -2039     -579    -1935    -3709    -3731    -2339    -1435    -1939 
   -3331    -4638    -4753    -3730    -2951    -3048    -3451    -3103 
   -1706     -832    -2115    -4907    -6427    -4475     -850      217 
   -2084    -4097    -3300    -1991    -2967    -4411    -3203     -645 
    -484    -3208    -5687    -5464    -3005     -967    -1902    -4542 
   -5163    -3481    -1927    -1528    -2161    -3272    -4059    -4158 
   -3221    -1336     -236    -1881    -5117    -5865    -3060     -957 
   -2315    -4249    -3380     -976     -711    -3103    -5155    -4954 
   -3361    -1930    -1375    -1910    -3476    -4804    -4453    -2828 
   -1513    -1719    -3087    -4016    -3892    -3307    -2646    -2262 
   -2870    -4051    -3915    -2309    -1498    -2002    -2219    -2273 
   -3334    -4367    -3954    -3024    -2637    -2443    -2528    -3329 
   -3898    -3250    -2417    -2465    -2565    -2513    -3136    -3840 
   -4032    -3816    -2682    -1551    -2177    -3586    -3964    -3522 
   -2924    -2097    -1287    -1671    -3581    -5108    -4746    -3248 
   -1856    -1370    -1854    -2709    -3450    -3392    -2509    -2316 
   -3169    -3650    -3547    -3681    -3819    -3300    -2446    -2138 
   -2546    -3194    -3757    -3944    -3352    -2272    -1721    -1995 
   -2822    -3869    -4010    -3154    -2774    -2656    -2033    -2211 
   -3591    -4421    -3848    -2666    -1598     -843    -1188    -3280 
   -5432    -5464    -3716    -1996    -1873    -3369    -4082    -2605 
   -1329    -2045    -3046    -3264    -3408    -3005    -1935    -2119 
   -3667    -4170    -3169    -2462    -2829    -3488    -3554    -3076 
   -2816    -3037    -2964    -2319    -2378    -3487    -3901    -3073 
   -2296    -1910    -1718    -2712    -4938    -5620    -3335    -1318 
   -2012    -3380    -3501    -2911    -2411    -2359    -2783    -3121 
   -3157    -3468    -3554    -2494    -1840    -2781    -3248    -2430 
   -2447    -3508    -3716    -3153    -3071    -3122    -2727    -2778 
   -3612    -3676    -2435    -1674    -2493    -3904    -4390    -3484 
   -2365    -2319    -2695    -2486    -2489    -3323    -3786    -3342 
   -3037    -2948    -2540    -2411    -2745    -2980    -3115    -3009 
   -2500    -2384    -3006    -3369    -2845    -2359    -3002    -4183 
   -4295    -3040    -1871    -1964    -2821    -3187    -2916    -3275 
   -4475    -4653    -3114    -1613    -1475    -2376    -3300    -3420 
   -2867    -2571    -2893    -2889    -2209    -2313    -3659    -4446 
   -3778    -3022    -3045    -2785    -1737    -1479    -3129    -4916 
   -4468    -2497    -1579    -2335    -3213    -3119    -2728    -2808 
   -2980    -3179    -3592    -3493    -2820    -2543    -2809    -3229 
   -3449    -2882    -1958    -1899    -2779    -3757    -3789    -2673 
   -2049    -3078    -4629    -4664    -2659     -913    -1707    -3811 
   -4174    -2458    -1506    -2705    -4222    -4162    -2647    -1579 
   -2290    -3451    -3576    -3160    -3110    -3480    -3276    -2296 
   -1972    -2565    -3084    -3198    -3142    -3480    -3735    -2793 
   -1725    -2249    -3699    -4182    -3100    -1860    -2073    -3488 
   -4436    -3882    -2635    -2253    -3007    -3591    -2899    -2120 
   -3115    -4580    -3867    -1568     -565    -1763    -3272    -3906 
   -4243    -4056    -2940    -1987    -2049    -2631    -2857    -2647 
   -3051    -3983    -3551    -1864    -1445    -2987    -4565    -4661 
   -3755    -2857    -2150    -1837    -2016    -2295    -2953    -4036 
   -4210    -2961    -2003    -2991    -4567    -3954    -1718    -1136 
   -2943    -4401    -3596    -2050    -1912    -2866    -3466    -3434 
   -3123    -2716    -2666    -3099    -3267    -3032    -3223    -3672 
   -3168    -1962    -1799    -2957    -3786    -3501    -2988    -2872 
   -2871    -2682    -2525    -2820    -3215    -2988    -2581    -2880 
   -3414    -3253    -2631    -2292    -2592    -3488    -4372    -4206 
   -2641    -1146    -1648    -3357    -3599    -2408    -2408    -3828 
   -4162    -2771    -1938    -3028    -4384    -4158    -2984    -2370 
   -2531    -2830    -2801    -2624    -2705    -2855    -3018    -3755 
   -4395    -3420    -1817    -1733    -2736    -3250    -3133    -2971 
   -2664    -2095    -2452    -3823    -3852    -2424    -2263    -3524 
   -3801    -2597    -1767    -2574    -3970    -4043    -2872    -2359 
   -2937    -2930    -2107    -2455    -3838    -3904    -2948    -2745 
   -2868    -2786    -3018    -3195    -2963    -3105    -3640    -3450 
   -2492    -2147    -3130    -4206    -3730    -2002     -928    -1692 
   -3287    -3797    -3187    -2714    -2766    -3345    -4032    -3744 
   -2627    -2254    -3133    -3726    -2945    -1798    -1659    -2839 
   -4212    -4101    -2735    -1927    -2473    -3554    -3906    -3129 
   -2222    -2315    -2972    -3181    -3149    -3221    -3064    -2868 
   -3177    -3663    -3458    -2566    -1995    -2308    -2951    -3325 
   -3348    -3022    -2909    -3435    -3468    -2405    -1717    -2388 
   -3565    -4085    -3669    -2857    -2313    -2338    -2856    -3446 
   -3574    -3137    -2659    -2678    -2871    -2558    -2181    -2817 
   -3996    -4160    -3268    -2554    -2501    -2694    -2716    -2713 
   -2972    -3040    -2820    -3129    -3678    -3487    -2856    -2393 
   -2151    -2370    -3122    -3688    -3368    -2660    -2658    -3285 
   -3501    -3144    -3021    -3258    -3076    -2388    -2119    -2677 
   -3279    -3064    -2509    -2677    -3288    -3304    -2689    -2324 
   -2760    -3526    -3979    -3734    -2573    -1655    -2278    -3434 
   -3758    -3442    -3113    -3083    -3076    -2941    -3152    -3338 
   -2666    -1769    -1985    -3234    -3994    -3511    -2774    -2693 
