Origin Time       2025/03/30 10:18:00
Lat.              34.667
Long.             140.825
Depth. (km)       69
Mag.              4.9
Station Code      TKY004
Station Lat.      35.6301
Station Long.     139.4034
Station Height(m) 81
Record Time       2025/03/30 10:19:18
Sampling Freq(Hz) 100Hz
Duration Time(s)  60
Dir.              U-D
Scale Factor      7845(gal)/8223790
Max. Acc. (gal)   0.777
Last Correction   2025/03/30 10:19:18
Memo.             
[...]
    8776     8681     8673     8748     8812     8783     8669     8583 
    8529     8473     8517     8660     8773     8824     8793     8664 
    8482     8317     8303     8518     8833     9040     9023     8802 
    8521     8348     8297     8317     8482     8773     8995     8992 
    8772     8518     8391     8365     8419     8565     8737     8858 
    8888     8808     8691     8611     8575     8541     8502     8517 
    8596     8685     8785     8888     8910     8818     8664     8511 
    8426     8460     8580     8688     8714     8656     8557     8480 
    8509     8650     8814     8926     8908     8748     8595     8552 
    8576     8623     8637     8575     8500     8503     8600     8754 
    8862     8824     8660     8502     8469     8573     8706     8738 
    8676     8611     8557     8490     8432     8444     8590     8812 
    8947     8928     8824     8748     8731     8721     8665     8586 
    8523     8491     8506     8606     8746     8814     8745     8557 
    8376     8363     8533     8727     8807     8735     8563     8413 
    8382     8440     8560     8742     8900     8950     8858     8680 
    8580     8618     8710     8810     8818     8658     8490     8472 
    8596     8760     8831     8776     8641     8457     8345     8406 
    8604     8869     9053     8950     8584     8220     8102     8268 
    8599     8946     9189     9213     8923     8441     8116     8170 
    8514     8802     8780     8611     8556     8604     8661     8715 
    8780     8858     8899     8818     8649     8513     8464     8505 
    8598     8680     8727     8706     8665     8723     8834     8874 
    8803     8596     8322     8158     8239     8527     8811     8869 
    8700     8505     8486     8676     8885     8932     8856     8741 
    8629     8556     8560     8662     8811     8866     8765     8561 
    8387     8349     8407     8526     8723     8880     8876     8752 
    8587     8496     8569     8734     8853     8862     8792     8662 
    8492     8382     8407     8550     8756     8888     8803     8538 
    8293     8247     8451     8741     8900     8873     8719     8553 
    8482     8503     8592     8730     8819     8787     8656     8495 
    8433     8548     8743     8862     8834     8719     8596     8527 
    8587     8721     8800     8810     8733     8587     8523     8599 
    8729     8816     8750     8592     8548     8600     8572     8419 
    8262     8289     8572     8923     9086     8991     8783     8621 
    8488     8365     8375     8560     8772     8842     8766     8723 
    8765     8739     8618     8521     8532     8619     8653     8637 
    8704     8791     8750     8626     8525     8486     8537     8661 
    8769     8827     8854     8804     8646     8487     8441     8511 
    8577     8575     8584     8649     8731     8781     8753     8654 
    8537     8446     8449     8545     8669     8784     8870     8901 
    8856     8707     8478     8282     8299     8548     8785     8823 
    8708     8591     8564     8602     8599     8532     8534     8722 
    8965     9022     8865     8658     8506     8430     8494     8660 
    8781     8811     8758     8649     8596     8650     8722     8730 
    8671     8596     8591     8652     8707     8725     8667     8540 
    8456     8479     8569     8662     8661     8550     8465     8490 
    8553     8603     8675     8811     8942     8946     8785     8542 
    8368     8392     8587     8785     8866     8796     8661     8592 
    8606     8646     8676     8660     8587     8502     8487     8546 
    8606     8640     8672     8681     8671     8676     8696     8704 
    8703     8742     8846     8872     8716     8483     8330     8370 
    8556     8727     8789     8714     8584     8557     8648     8761 
    8803     8703     8530     8459     8626     8920     9026     8818 
    8509     8351     8402     8541     8700     8883     9005     8961 
    8748     8472     8270     8216     8336     8573     8806     8959 
    8924     8658     8409     8388     8525     8667     8702     8661 
    8675     8722     8689     8572     8500     8596     8780     8849 
    8770     8671     8661     8719     8714     8654     8648     8656 
    8607     8544     8549     8638     8735     8795     8820     8764 
    8611     8449     8398     8510     8653     8715     8754     8769 
    8704     8577     8459     8430     8482     8534     8607     8733 
    8880     8968     8876     8587     8278     8154     8260     8492 
    8766     9015     9061     8819     8517     8410     8494     8640 
    8772     8851     8862     8797     8660     8523     8510     8669 
    8896     8978     8827     8561     8387     8432     8615     8756 
    8783     8698     8538     8469     8561     8660     8658     8586 
    8552     8640     8734     8722     8661     8614     8622     8673 
    8648     8548     8527     8653     8842     8955     8873     8610 
    8347     8260     8376     8586     8734     8780     8777     8726 
    8661     8644     8642     8660     8673     8592     8505     8523 
    8575     8613     8653     8694     8749     8820     8822     8714 
    8602     8618     8719     8764     8715     8658     8633     8640 
    8687     8711     8649     8552     8472     8444     8530     8684 
    8791     8856     8858     8714     8503     8382     8401     8542 
    8710     8765     8696     8608     8544     8473     8455     8515 
    8586     8658     8722     8727     8722     8714     8626     8490 
    8438     8572     8810     8959     8978     8880     8684     8500 
    8383     8333     8414     8631     8899     9077     9078     8943 
    8708     8406     8210     8284     8583     8932     9111     8992 
    8694     8406     8321     8561     8911     8993     8779     8538 
    8455     8479     8522     8591     8716     8878     8958     8814 
    8483     8187     8135     8341     8613     8777     8872     8932 
    8865     8637     8378     8282     8382     8511     8572     8630 
    8721     8799     8803     8711     8657     8784     8961     8904 
    8618     8380     8360     8518     8704     8756     8746     8827 
    8881     8796     8652     8526     8475     8469     8428     8441 
    8567     8691     8765     8792     8749     8715     8729     8699 
    8592     8472     8405     8419     8478     8565     8743     8981 
    9158     9113     8738     8245     8024     8174     8506     8784 
    8918     8986     8980     8816     8576     8444     8534     8730 
    8791     8725     8699     8660     8507     8363     8367     8550 
    8814     8943     8866     8667     8419     8295     8403     8634 
    8853     8972     8927     8760     8561     8475     8572     8708 
    8779     8815     8752     8540     8360     8355     8511     8750 
    8905     8869     8742     8650     8594     8518     8452     8455 
    8495     8571     8699     8818     8837     8729     8577     8556 
    8689     8792     8776     8739     8770     8839     8826     8652 
    8434     8388     8573     8812     8924     8901     8811     8664 
    8442     8260     8293     8506     8696     8721     8644     8631 
    8646     8546     8407     8386     8550     8799     8880     8768 
    8680     8664     8657     8633     8564     8513     8518     8517 
    8541     8684     8853     8861     8673     8429     8351     8514 
    8765     8939     8934     8756     8575     8465     8388     8452 
    8669     8843     8901     8892     8800     8657     8567     8567 
    8629     8698     8704     8667     8623     8544     8441     8413 
    8546     8788     8981     9036     8899     8635     8421     8289 
    8244     8337     8525     8748     8939     9000     8924     8750 
    8532     8395     8410     8511     8629     8719     8772     8796 
    8776     8742     8726     8646     8563     8591     8637     8611 
    8552     8522     8572     8649     8689     8689     8622     8540 
    8529     8580     8664     8721     8722     8719     8714     8707 
    8727     8719     8662     8627     8637     8664     8630     8511 
    8434     8480     8614     8793     8900     8856     8737     8572 
    8413     8440     8641     8806     8808     8680     8571     8606 
    8714     8752     8727     8695     8635     8610     8656     8664 
    8608     8556     8552     8637     8775     8877     8849     8653 
    8409     8266     8289     8460     8657     8770     8780     8667 
    8494     8417     8521     8748     8976     9120     9124     8937 
    8625     8371     8256     8274     8410     8583     8730     8837 
    8834     8699     8541     8469     8492     8515     8498     8519 
    8660     8880     9035     9012     8838     8633     8498     8487 
    8622     8838     8919     8752     8519     8451     8557     8673 
    8648     8548     8595     8819     8981     8888     8614     8392 
    8324     8329     8365     8432     8492     8577     8734     8880 
    8916     8822     8635     8494     8484     8563     8667     8753 
    8796     8789     8743     8675     8569     8465     8446     8580 
    8819     8984     8966     8838     8691     8575     8494     8451 
    8494     8599     8680     8749     8849     8907     8812     8627 
    8552     8676     8896     9034     8980     8769     8560     8480 
    8513     8583     8685     8806     8843     8714     8498     8370 
    8386     8471     8575     8695     8799     8814     8680     8495 
    8403     8402     8441     8540     8629     8611     8537     8452 
    8386     8434     8560     8614     8560     8425     8306     8353 
    8591     8914     9121     9049     8731     8367     8166     8235 
    8472     8722     8904     8927     8785     8633     8537     8498 
    8563     8630     8622     8646     8723     8729     8627     8537 
    8573     8704     8827     8900     8937     8951     8888     8731 
    8563     8413     8365     8527     8776     8928     8965     8893 
    8750     8638     8625     8702     8791     8785     8698     8642 
    8640     8630     8621     8608     8573     8552     8540     8499 
    8486     8564     8712     8819     8810     8738     8664     8606 
    8590     8606     8615     8627     8676     8746     8800     8812 
    8719     8552     8475     8576     8769     8862     8727     8484 
    8370     8440     8580     8714     8853     8935     8829     8554 
    8278     8140     8191     8375     8623     8860     8957     8877 
    8688     8472     8343     8371     8529     8748     8918     8887 
    8668     8451     8384     8490     8684     8876     8997     8970 
    8779     8540     8418     8490     8680     8808     8781     8688 
    8617     8529     8395     8355     8544     8829     8974     8926 
    8804     8708     8614     8506     8464     8533     8657     8711 
    8638     8556     8564     8615     8661     8711     8752     8760 
    8710     8604     8536     8580     8677     8725     8706     8680 
    8694     8698     8660     8634     8654     8704     8738     8702 
    8619     8577     8617     8711     8783     8734     8598     8538 
    8617     8721     8715     8596     8503     8532     8603     8665 
    8733     8803     8829     8725     8525     8444     8523     8627 
    8722     8757     8619     8387     8262     8343     8622     8977 
    9184     9123     8846     8502     8251     8210     8411     8754 
    9022     9055     8900     8687     8492     8387     8440     8588 
    8715     8749     8650     8486     8384     8424     8606     8818 
    8908     8866     8765     8681     8683     8688     8590     8456 
    8398     8437     8530     8669     8884     9046     8949     8673 
    8452     8337     8298     8347     8486     8698     8857     8822 
    8648     8465     8391     8483     8631     8760     8910     8984 
    8873     8665     8476     8340     8303     8418     8646     8865 
    8943     8799     8523     8394     8541     8796     8955     8935 
    8753     8510     8311     8248     8401     8684     8865     8861 
    8768     8688     8645     8592     8571     8676     8812     8842 
    8799     8730     8641     8554     8461     8424     8538     8754 
    8907     8899     8792     8677     8584     8515     8444     8399 
    8475     8635     8758     8826     8895     8972     8978     8842 
    8606     8413     8368     8465     8625     8764     8811     8719 
    8519     8363     8371     8521     8726     8885     8922     8830 
    8617     8336     8127     8094     8279     8648     9024     9205 
    9150     8934     8644     8394     8279     8320     8463     8623 
    8780     8923     9004     8980     8849     8699     8648     8679 
    8688     8629     8553     8538     8559     8523     8471     8507 
    8611     8700     8761     8799     8811     8768     8603     8356 
    8233     8330     8527     8719     8888     9005     9022     8896 
    8706     8608     8617     8637     8633     8619     8644     8699 
    8642     8456     8374     8548     8838     8996     8928     8699 
    8415     8194     8089     8127     8333     8615     8838     8919 
    8791     8553     8407     8436     8635     8924     9148     9224 
    9126     8907     8733     8673     8668     8662     8592     8434 
    8283     8251     8409     8723     8992     9007     8772     8457 
    8151     7893     7832     8085     8586     9093     9319     9201 
    8934     8702     8567     8542     8622     8765     8847     8760 
    8580     8445     8402     8455     8577     8770     8999     9139 
    9100     8820     8368     8033     7973     8154     8522     8934 
    9207     9242     9081     8860     8646     8486     8429     8391 
    8345     8364     8414     8529     8773     9013     9157     9208 
    9103     8853     8591     8444     8488     8652     8741     8653 
    8487     8387     8372     8429     8556     8658     8660     8595 
    8518     8500     8586     8702     8754     8703     8561     8445 
    8410     8388     8411     8577     8834     9040     9085     8935 
    8698     8529     8465     8484     8554     8572     8514     8498 
    8575     8741     8939     9042     9012     8899     8716     8515 
    8392     8425     8602     8719     8618     8449     8367     8370 
    8457     8592     8721     8838     8862     8754     8630     8559 
    8537     8561     8560     8513     8542     8691     8845     8869 
    8714     8438     8244     8340     8721     9167     9416     9324 
    8986     8608     8383     8403     8599     8808     8869     8754 
    8596     8510     8511     8573     8640     8675     8660     8569 
    8444     8360     8414     8631     8847     8876     8758     8650 
    8619     8658     8738     8777     8710     8553     8390     8293 
    8294     8403     8569     8672     8675     8615     8548     8575 
    8685     8792     8870     8835     8644     8480     8499     8650 
    8833     8914     8812     8630     8507     8480     8502     8577 
    8769     8981     8997     8803     8525     8279     8202     8368 
    8679     8976     9077     8873     8518     8297     8388     8773 
    9175     9308     9147     8797     8376     8081     8064     8330 
    8743     9050     9054     8777     8392     8117     8116     8379 
    8749     9024     9020     8743     8409     8201     8182     8322 
    8510     8679     8802     8842     8835     8829     8792     8753 
    8760     8783     8799     8800     8770     8716     8642     8577 
    8573     8641     8752     8849     8818     8638     8422     8283 
    8290     8473     8742     8934     8962     8808     8518     8256 
    8193     8355     8646     8934     9117     9136     8961     8648 
    8329     8125     8120     8295     8509     8637     8708     8797 
    8892     8945     8946     8904     8847     8780     8692     8640 
    8669     8716     8725     8689     8619     8587     8652     8745 
    8803     8822     8745     8583     8411     8244     8127     8109 
    8178     8313     8480     8646     8802     8904     8941     8939 
    8873     8753     8672     8621     8546     8495     8483     8507 
    8617     8760     8816     8793     8754     8708     8673     8656 
    8645     8668     8700     8660     8560     8523     8618     8787 
    8891     8837     8652     8430     8309     8370     8536     8689 
    8770     8753     8683     8613     8567     8592     8677     8792 
    8934     9057     9089     8995     8779     8548     8444     8488 
    8563     8529     8390     8298     8348     8432     8449     8434 
    8445     8536     8658     8658     8542     8456     8444     8509 
    8669     8850     8939     8951     8958     8927     8834     8738 
    8661     8634     8703     8791     8802     8768     8743     8743 
    8781     8802     8765     8711     8665     8640     8635     8599 
    8522     8446     8417     8488     8621     8675     8594     8424 
    8283     8340     8621     8889     8954     8846     8668     8529 
    8537     8684     8838     8912     8922     8864     8708     8500 
    8333     8283     8386     8580     8741     8795     8748     8662 
    8631     8689     8764     8748     8629     8491     8422     8494 
    8688     8858     8892     8788     8591     8374     8226     8203 
    8329     8586     8866     9015     8955     8760     8569     8488 
    8530     8646     8769     8833     8819     8772     8706     8600 
    8507     8514     8640     8803     8864     8748     8538     8397 
    8379     8429     8518     8675     8835     8883     8803     8640 
    8446     8284     8189     8209     8402     8710     8970     9067 
    9018     8912     8784     8633     8519     8538     8714     8938 
    9073     9093     8991     8749     8475     8310     8266     8302 
    8395     8525     8691     8854     8926     8858     8704     8565 
    8518     8575     8676     8748     8753     8694     8611     8591 
    8661     8715     8662     8580     8591     8680     8743     8741 
    8706     8681     8672     8644     8629     8662     8694     8706 
    8694     8595     8414     8240     8187     8326     8584     8811 
    8889     8789     8657     8650     8735     8816     8841     8769 
    8657     8604     8590     8565     8554     8577     8669     8815 
    8931     8919     8766     8575     8455     8414     8402     8397 
    8445     8569     8683     8729     8706     8600     8459     8397 
    8509     8765     8961     8920     8731     8563     8498     8557 
    8672     8739     8748     8722     8672     8615     8571     8522 
    8475     8488     8546     8576     8575     8571     8584     8613 
    8642     8658     8637     8576     8541     8595     8716     8812 
    8799     8695     8588     8522     8510     8581     8700     8795 
    8853     8842     8745     8626     8556     8550     8580     8608 
    8644     8677     8707     8764     8833     8864     8839     8768 
    8656     8564     8567     8625     8650     8648     8679     8745 
    8754     8661     8525     8410     8378     8476     8611     8665 
    8637     8584     8567     8603     8649     8689     8730     8708 
