Origin Time       2025/03/30 10:18:00
Lat.              34.667
Long.             140.825
Depth. (km)       69
Mag.              4.9
Station Code      TKY004
Station Lat.      35.6301
Station Long.     139.4034
Station Height(m) 81
Record Time       2025/03/30 10:19:18
Sampling Freq(Hz) 100Hz
Duration Time(s)  60
Dir.              N-S
Scale Factor      7845(gal)/8223790
Max. Acc. (gal)   1.063
Last Correction   2025/03/30 10:19:18
Memo.             
[...]
  -11809   -11805   -11638   -11518   -11577   -11666   -11632   -11588 
  -11635   -11685   -11697   -11716   -11716   -11685   -11680   -11681 
  -11642   -11641   -11732   -11805   -11780   -11778   -11877   -11929 
  -11828   -11684   -11596   -11547   -11547   -11584   -11611   -11653 
  -11678   -11605   -11519   -11568   -11718   -11796   -11735   -11653 
  -11711   -11908   -12015   -11888   -11666   -11508   -11495   -11628 
  -11772   -11805   -11753   -11699   -11691   -11704   -11686   -11646 
  -11670   -11755   -11749   -11622   -11557   -11614   -11673   -11678 
  -11641   -11581   -11581   -11695   -11842   -11907   -11875   -11812 
  -11740   -11635   -11572   -11601   -11641   -11670   -11734   -11759 
  -11722   -11693   -11708   -11759   -11805   -11774   -11657   -11538 
  -11554   -11722   -11847   -11784   -11620   -11547   -11620   -11715 
  -11746   -11715   -11647   -11607   -11623   -11642   -11611   -11568 
  -11624   -11762   -11832   -11793   -11743   -11718   -11680   -11672 
  -11707   -11726   -11715   -11681   -11612   -11539   -11499   -11487 
  -11487   -11529   -11680   -11919   -12108   -12083   -11863   -11691 
  -11726   -11846   -11892   -11881   -11871   -11832   -11767   -11705 
  -11588   -11429   -11358   -11385   -11429   -11483   -11547   -11620 
  -11672   -11643   -11584   -11587   -11651   -11720   -11765   -11807 
  -11867   -11919   -11892   -11797   -11745   -11781   -11831   -11796 
  -11686   -11600   -11576   -11593   -11623   -11642   -11638   -11618 
  -11623   -11665   -11696   -11722   -11763   -11786   -11773   -11732 
  -11701   -11701   -11713   -11720   -11735   -11742   -11722   -11678 
  -11622   -11599   -11603   -11561   -11537   -11630   -11763   -11828 
  -11821   -11788   -11736   -11645   -11560   -11557   -11604   -11618 
  -11601   -11616   -11655   -11680   -11691   -11676   -11680   -11751 
  -11819   -11854   -11886   -11858   -11734   -11573   -11488   -11545 
  -11646   -11699   -11738   -11786   -11811   -11772   -11678   -11634 
  -11695   -11774   -11773   -11708   -11655   -11639   -11632   -11592 
  -11533   -11524   -11574   -11653   -11736   -11800   -11835   -11817 
  -11743   -11696   -11709   -11719   -11700   -11696   -11673   -11578 
  -11476   -11473   -11595   -11755   -11827   -11786   -11730   -11723 
  -11739   -11731   -11705   -11704   -11726   -11715   -11709   -11782 
  -11862   -11866   -11807   -11692   -11580   -11572   -11623   -11607 
  -11539   -11516   -11577   -11678   -11766   -11827   -11846   -11820 
  -11776   -11751   -11746   -11745   -11742   -11724   -11688   -11649 
  -11616   -11585   -11537   -11511   -11551   -11601   -11643   -11750 
  -11905   -11993   -11958   -11843   -11703   -11565   -11488   -11523 
  -11608   -11653   -11641   -11581   -11497   -11464   -11526   -11601 
  -11583   -11549   -11646   -11835   -11977   -11988   -11889   -11803 
  -11811   -11838   -11763   -11643   -11654   -11804   -11894   -11774 
  -11551   -11445   -11499   -11570   -11565   -11541   -11576   -11651 
  -11719   -11766   -11811   -11884   -11961   -11956   -11847   -11755 
  -11743   -11691   -11557   -11475   -11523   -11682   -11857   -11889 
  -11789   -11666   -11556   -11537   -11646   -11742   -11722   -11669 
  -11669   -11669   -11587   -11468   -11468   -11662   -11911   -11992 
  -11867   -11681   -11550   -11506   -11504   -11491   -11479   -11497 
  -11545   -11632   -11727   -11728   -11647   -11620   -11718   -11884 
  -12000   -11977   -11870   -11832   -11898   -11940   -11892   -11790 
  -11658   -11520   -11406   -11369   -11449   -11574   -11664   -11727 
  -11769   -11800   -11830   -11817   -11769   -11755   -11778   -11778 
  -11723   -11681   -11681   -11630   -11554   -11562   -11612   -11627 
  -11631   -11655   -11684   -11712   -11736   -11709   -11637   -11622 
  -11701   -11743   -11653   -11541   -11542   -11619   -11635   -11584 
  -11619   -11763   -11857   -11866   -11889   -11955   -12010   -11969 
  -11824   -11673   -11583   -11546   -11507   -11450   -11431   -11500 
  -11627   -11693   -11664   -11651   -11693   -11730   -11745   -11757 
  -11793   -11835   -11828   -11789   -11754   -11708   -11632   -11539 
  -11495   -11553   -11664   -11726   -11701   -11623   -11584   -11642 
  -11708   -11709   -11701   -11692   -11701   -11788   -11877   -11857 
  -11734   -11610   -11597   -11689   -11797   -11834   -11740   -11573 
  -11484   -11543   -11661   -11750   -11804   -11788   -11735   -11738 
  -11754   -11746   -11745   -11745   -11731   -11703   -11685   -11678 
  -11616   -11504   -11464   -11535   -11622   -11676   -11745   -11820 
  -11878   -11921   -11889   -11740   -11560   -11437   -11387   -11411 
  -11531   -11678   -11711   -11627   -11554   -11595   -11745   -11873 
  -11861   -11738   -11647   -11677   -11743   -11799   -11862   -11869 
  -11807   -11761   -11759   -11757   -11723   -11669   -11601   -11537 
  -11529   -11600   -11722   -11815   -11846   -11874   -11917   -11928 
  -11857   -11705   -11585   -11604   -11715   -11745   -11646   -11534 
  -11469   -11453   -11496   -11572   -11646   -11707   -11774   -11827 
  -11811   -11718   -11601   -11541   -11565   -11601   -11599   -11593 
  -11616   -11638   -11666   -11728   -11758   -11745   -11776   -11846 
  -11880   -11878   -11865   -11820   -11766   -11718   -11643   -11577 
  -11591   -11647   -11657   -11620   -11599   -11608   -11628   -11647 
  -11665   -11677   -11688   -11723   -11773   -11803   -11805   -11780 
  -11723   -11657   -11627   -11628   -11603   -11546   -11524   -11591 
  -11715   -11792   -11766   -11695   -11684   -11753   -11824   -11855 
  -11838   -11755   -11664   -11623   -11627   -11641   -11634   -11611 
  -11593   -11632   -11739   -11861   -11939   -11923   -11813   -11715 
  -11689   -11654   -11583   -11577   -11628   -11622   -11554   -11523 
  -11584   -11647   -11589   -11470   -11461   -11605   -11794   -11878 
  -11817   -11707   -11678   -11780   -11869   -11826   -11750   -11751 
  -11785   -11772   -11720   -11650   -11542   -11483   -11560   -11696 
  -11776   -11793   -11788   -11799   -11853   -11913   -11898   -11789 
  -11668   -11622   -11630   -11607   -11549   -11483   -11419   -11368 
  -11371   -11476   -11646   -11782   -11815   -11778   -11773   -11813 
  -11832   -11770   -11668   -11669   -11767   -11796   -11718   -11627 
  -11577   -11534   -11473   -11423   -11415   -11496   -11680   -11855 
  -11929   -11929   -11921   -11896   -11819   -11758   -11792   -11847 
  -11821   -11755   -11749   -11750   -11664   -11554   -11514   -11549 
  -11646   -11782   -11921   -12009   -11996   -11897   -11755   -11588 
  -11412   -11308   -11354   -11465   -11495   -11472   -11460   -11462 
  -11529   -11689   -11827   -11840   -11797   -11812   -11892   -11955 
  -11946   -11875   -11786   -11684   -11564   -11483   -11477   -11541 
  -11637   -11708   -11751   -11785   -11777   -11709   -11643   -11627 
  -11646   -11669   -11693   -11716   -11718   -11709   -11736   -11796 
  -11819   -11724   -11558   -11504   -11615   -11747   -11801   -11788 
  -11743   -11751   -11848   -11956   -11974   -11925   -11877   -11827 
  -11777   -11778   -11817   -11850   -11853   -11800   -11732   -11758 
  -11857   -11898   -11843   -11786   -11788   -11812   -11819   -11777 
  -11688   -11604   -11523   -11403   -11284   -11281   -11408   -11520 
  -11531   -11487   -11438   -11379   -11288   -11211   -11232   -11318 
  -11392   -11441   -11433   -11333   -11217   -11167   -11211   -11373 
  -11587   -11715   -11728   -11712   -11682   -11604   -11518   -11519 
  -11638   -11803   -11904   -11917   -11901   -11881   -11844   -11785 
  -11719   -11684   -11715   -11819   -11967   -12079   -12105   -12089 
  -12117   -12202   -12293   -12359   -12370   -12303   -12232   -12209 
  -12197   -12166   -12151   -12171   -12135   -11952   -11670   -11373 
  -11118   -10955   -10897   -10897   -10932   -11075   -11376   -11740 
  -12021   -12125   -12078   -11974   -11877   -11799   -11701   -11583 
  -11542   -11607   -11650   -11620   -11612   -11641   -11611   -11504 
  -11427   -11452   -11524   -11605   -11739   -11934   -12054   -11958 
  -11695   -11464   -11403   -11469   -11568   -11673   -11784   -11878 
  -11935   -11936   -11889   -11801   -11685   -11576   -11477   -11385 
  -11321   -11290   -11306   -11384   -11469   -11491   -11469   -11414 
  -11307   -11194   -11132   -11183   -11406   -11735   -12040   -12289 
  -12448   -12447   -12313   -12113   -11830   -11514   -11311   -11286 
  -11379   -11522   -11678   -11842   -11997   -12105   -12141   -12091 
  -11997   -11974   -11994   -11892   -11685   -11537   -11457   -11360 
  -11265   -11261   -11342   -11442   -11545   -11670   -11794   -11867 
  -11863   -11765   -11611   -11526   -11531   -11569   -11686   -11921 
  -12187   -12333   -12294   -12154   -11971   -11750   -11520   -11325 
  -11230   -11288   -11464   -11743   -12087   -12332   -12375   -12272 
  -12064   -11736   -11368   -11057   -10847   -10806   -10932   -11086 
  -11184   -11290   -11489   -11745   -11900   -11929   -11943   -11969 
  -11938   -11828   -11685   -11608   -11637   -11681   -11654   -11591 
  -11593   -11703   -11848   -11969   -12110   -12303   -12468   -12519 
  -12444   -12244   -11961   -11676   -11448   -11350   -11415   -11533 
  -11549   -11421   -11257   -11191   -11219   -11271   -11315   -11333 
  -11317   -11325   -11408   -11535   -11650   -11727   -11778   -11828 
  -11863   -11827   -11682   -11496   -11396   -11430   -11557   -11747 
  -11978   -12199   -12366   -12460   -12528   -12618   -12704   -12703 
  -12538   -12186   -11745   -11365   -11082   -10845   -10686   -10660 
  -10773   -10925   -11007   -11051   -11151   -11271   -11315   -11321 
  -11396   -11593   -11901   -12266   -12598   -12795   -12798   -12618 
  -12293   -11917   -11618   -11383   -11134   -10939   -10902   -11033 
  -11286   -11603   -11874   -11967   -11846   -11628   -11485   -11522 
  -11734   -12017   -12231   -12271   -12132   -11875   -11643   -11583 
  -11705   -11894   -11998   -11925   -11746   -11628   -11631   -11705 
  -11757   -11734   -11659   -11541   -11365   -11192   -11121   -11213 
  -11492   -11873   -12159   -12233   -12102   -11797   -11433   -11206 
  -11210   -11365   -11565   -11757   -11943   -12133   -12264   -12248 
  -12050   -11705   -11311   -11020   -10957   -11132   -11410   -11635 
  -11740   -11761   -11778   -11809   -11793   -11727   -11695   -11713 
  -11731   -11727   -11681   -11565   -11446   -11435   -11573   -11770 
  -11955   -12177   -12383   -12476   -12447   -12256   -11923   -11618 
  -11470   -11491   -11577   -11638   -11688   -11758   -11859   -11992 
  -12047   -11931   -11723   -11483   -11191   -10921   -10821   -10947 
  -11190   -11389   -11462   -11441   -11425   -11502   -11673   -11871 
  -12031   -12154   -12220   -12177   -12056   -11943   -11890   -11921 
  -11983   -11940   -11749   -11545   -11449   -11452   -11477   -11452 
  -11376   -11304   -11237   -11157   -11091   -11072   -11155   -11357 
  -11610   -11854   -12085   -12289   -12430   -12490   -12460   -12352 
  -12171   -11958   -11765   -11607   -11452   -11323   -11307   -11361 
  -11323   -11163   -10956   -10818   -10859   -11074   -11426   -11867 
  -12276   -12577   -12746   -12702   -12433   -12083   -11807   -11692 
  -11732   -11844   -11913   -11839   -11614   -11342   -11130   -11061 
  -11184   -11458   -11758   -12020   -12255   -12407   -12413   -12305 
  -12132   -11909   -11669   -11457   -11329   -11295   -11303   -11340 
  -11375   -11352   -11326   -11415   -11620   -11858   -12069   -12190 
  -12177   -12048   -11850   -11627   -11476   -11468   -11499   -11437 
  -11334   -11284   -11295   -11360   -11461   -11558   -11641   -11716 
  -11763   -11781   -11804   -11815   -11761   -11643   -11523   -11487 
  -11550   -11619   -11614   -11531   -11385   -11241   -11198   -11303 
  -11561   -11874   -12054   -12060   -12070   -12178   -12279   -12286 
  -12229   -12158   -12091   -11997   -11867   -11790   -11828   -11925 
  -11959   -11832   -11604   -11446   -11433   -11512   -11623   -11734 
  -11776   -11689   -11545   -11470   -11460   -11445   -11427   -11422 
  -11402   -11367   -11341   -11349   -11452   -11678   -11929   -12064 
  -12054   -11990   -11973   -12016   -12128   -12268   -12294   -12109 
  -11759   -11353   -10976   -10701   -10602   -10709   -10967   -11326 
  -11716   -11952   -11900   -11688   -11584   -11695   -11973   -12312 
  -12541   -12564   -12426   -12175   -11866   -11595   -11387   -11227 
  -11164   -11227   -11357   -11458   -11497   -11510   -11541   -11591 
  -11631   -11651   -11688   -11763   -11840   -11888   -11939   -12010 
  -12066   -12060   -11951   -11701   -11354   -11010   -10790   -10798 
  -11020   -11337   -11703   -12086   -12393   -12561   -12572   -12368 
  -11989   -11616   -11421   -11407   -11441   -11422   -11360   -11302 
  -11277   -11313   -11380   -11429   -11479   -11605   -11780   -11905 
  -11985   -12044   -12059   -12039   -12039   -12094   -12199   -12330 
  -12448   -12451   -12275   -12039   -11878   -11801   -11743   -11630 
  -11429   -11196   -11033   -11020   -11164   -11387   -11597   -11735 
  -11786   -11786   -11761   -11674   -11537   -11448   -11443   -11450 
  -11402   -11302   -11269   -11431   -11728   -11993   -12123   -12121 
  -12089   -12127   -12233   -12318   -12321   -12287   -12260   -12177 
  -11992   -11734   -11461   -11219   -11003   -10774   -10588   -10577 
  -10754   -10975   -11164   -11352   -11550   -11715   -11742   -11630 
  -11549   -11570   -11624   -11696   -11805   -11942   -12048   -12009 
  -11797   -11547   -11411   -11445   -11643   -11911   -12097   -12162 
  -12158   -12129   -12078   -11989   -11880   -11792   -11728   -11669 
  -11624   -11624   -11669   -11742   -11797   -11788   -11750   -11758 
  -11823   -11912   -11982   -11994   -11959   -11939   -11967   -11993 
  -11940   -11772   -11516   -11268   -11122   -11155   -11364   -11624 
  -11758   -11723   -11623   -11564   -11588   -11665   -11713   -11662 
  -11537   -11454   -11446   -11383   -11223   -11088   -11033   -11059 
  -11215   -11470   -11712   -11901   -12032   -12083   -12085   -12102 
  -12131   -12098   -11977   -11820   -11685   -11614   -11607   -11646 
  -11745   -11912   -12110   -12278   -12351   -12334   -12270   -12158 
  -11990   -11789   -11583   -11383   -11227   -11163   -11153   -11119 
  -11060   -11026   -11074   -11217   -11410   -11612   -11827   -12040 
  -12208   -12339   -12472   -12582   -12633   -12592   -12415   -12144 
  -11871   -11632   -11391   -11130   -10925   -10866   -10944   -11083 
  -11219   -11321   -11379   -11383   -11388   -11495   -11718   -11927 
  -11988   -11904   -11762   -11607   -11502   -11503   -11591   -11699 
  -11774   -11774   -11720   -11658   -11604   -11583   -11610   -11659 
  -11699   -11697   -11670   -11674   -11736   -11823   -11862   -11836 
  -11776   -11678   -11547   -11456   -11468   -11604   -11815   -11986 
  -12071   -12106   -12082   -11982   -11824   -11647   -11543   -11560 
  -11610   -11592   -11519   -11473   -11487   -11484   -11435   -11361 
  -11269   -11217   -11286   -11480   -11715   -11893   -11998   -12081 
  -12148   -12159   -12090   -11979   -11896   -11866   -11840   -11749 
  -11588   -11431   -11360   -11410   -11547   -11708   -11834   -11904 
  -11935   -11929   -11873   -11816   -11817   -11866   -11893   -11866 
  -11813   -11766   -11726   -11651   -11519   -11375   -11268   -11200 
  -11156   -11119   -11111   -11164   -11265   -11402   -11589   -11816 
  -12027   -12174   -12225   -12183   -12079   -11951   -11835   -11745 
  -11684   -11641   -11584   -11535   -11515   -11503   -11489   -11493 
  -11537   -11645   -11790   -11897   -11934   -11951   -12010   -12087 
  -12144   -12206   -12264   -12256   -12155   -11985   -11786   -11600 
  -11468   -11427   -11475   -11545   -11557   -11480   -11346   -11240 
  -11248   -11333   -11410   -11485   -11593   -11743   -11928   -12082 
  -12131   -12059   -11904   -11732   -11608   -11553   -11576   -11650 
  -11709   -11734   -11754   -11753   -11681   -11538   -11391   -11302 
  -11271   -11322   -11476   -11654   -11765   -11812   -11819   -11778 
  -11742   -11750   -11777   -11808   -11838   -11827   -11770   -11712 
  -11685   -11669   -11626   -11583   -11595   -11651   -11701   -11682 
  -11603   -11533   -11493   -11454   -11435   -11484   -11614   -11757 
  -11817   -11754   -11645   -11628   -11724   -11800   -11736   -11560 
  -11404   -11354   -11398   -11514   -11673   -11817   -11925   -12021 
  -12101   -12135   -12121   -12096   -12097   -12129   -12155   -12125 
  -12009   -11797   -11515   -11249   -11101   -11094   -11178   -11300 
  -11435   -11568   -11704   -11815   -11819   -11754   -11758   -11873 
  -12013   -12085   -12040   -11920   -11789   -11676   -11611   -11610 
  -11620   -11584   -11514   -11462   -11461   -11522   -11614   -11685 
  -11716   -11740   -11796   -11857   -11880   -11866   -11823   -11766 
  -11718   -11691   -11696   -11708   -11682   -11618   -11524   -11418 
  -11349   -11335   -11346   -11391   -11458   -11492   -11504   -11527 
  -11537   -11558   -11631   -11713   -11780   -11847   -11886   -11880 
  -11894   -11992   -12132   -12221   -12191   -12040   -11828   -11650 
  -11568   -11553   -11535   -11506   -11511   -11566   -11620   -11638 
  -11646   -11662   -11645   -11608   -11624   -11709   -11812   -11840 
  -11766   -11653   -11583   -11588   -11631   -11643   -11597   -11541 
  -11522   -11561   -11697   -11917   -12101   -12190   -12229   -12248 
  -12209   -12059   -11808   -11551   -11395   -11367   -11388   -11399 
  -11427   -11481   -11497   -11430   -11348   -11371   -11496   -11646 
  -11796   -11916   -11951   -11907   -11831   -11770   -11735   -11691 
  -11614   -11543   -11506   -11479   -11483   -11551   -11642   -11686 
  -11658   -11588   -11523   -11496   -11535   -11618   -11672   -11686 
  -11701   -11746   -11824   -11934   -12054   -12118   -12086   -12032 
  -12046   -12106   -12150   -12132   -12021   -11844   -11680   -11601 
  -11635   -11730   -11776   -11669   -11406   -11102   -10885   -10801 
  -10844   -10951   -11053   -11165   -11303   -11466   -11635   -11759 
  -11823   -11854   -11881   -11947   -12086   -12264   -12406   -12459 
  -12417   -12314   -12199   -12094   -12005   -11936   -11865   -11745 
  -11618   -11562   -11539   -11476   -11376   -11253   -11148   -11146 
  -11268   -11460   -11680   -11863   -11917   -11830   -11670   -11537 
  -11500   -11542   -11614   -11673   -11686   -11709   -11827   -12012 
  -12164   -12226   -12202   -12120   -11989   -11853   -11773   -11738 
  -11705   -11668   -11635   -11623   -11632   -11634   -11597   -11520 
  -11395   -11248   -11160   -11168   -11232   -11304   -11364   -11381 
  -11338   -11286   -11317   -11418   -11516   -11622   -11758   -11867 
  -11935   -11977   -11955   -11873   -11832   -11881   -11952   -11998 
  -12010   -11963   -11863   -11784   -11747   -11707   -11651   -11630 
  -11624   -11583   -11516   -11481   -11479   -11491   -11543   -11646 
  -11761   -11844   -11880   -11892   -11880   -11813   -11703   -11591 
  -11534   -11549   -11581   -11569   -11499   -11415   -11388   -11465 
