Origin Time       2025/03/30 10:18:00
Lat.              34.667
Long.             140.825
Depth. (km)       69
Mag.              4.9
Station Code      TKY010
Station Lat.      34.3779
Station Long.     139.2573
Station Height(m) 16
Record Time       2025/03/30 10:18:56
Sampling Freq(Hz) 100Hz
Duration Time(s)  73
Dir.              E-W
Scale Factor      7845(gal)/8223790
Max. Acc. (gal)   3.421
Last Correction   2025/03/30 10:18:55
Memo.             
[...]
   -5294    -5919    -6446    -6678    -6658    -6508    -6421    -6389 
   -6223    -6006    -5918    -5814    -5536    -5300    -5374    -5733 
   -6174    -6421    -6331    -6107    -6045    -6172    -6237    -6008 
   -5632    -5489    -5651    -5841    -5938    -6056    -6220    -6388 
   -6575    -6706    -6605    -6216    -5772    -5563    -5533    -5529 
   -5674    -6083    -6597    -6913    -6907    -6767    -6636    -6421 
   -6053    -5547    -4984    -4542    -4375    -4579    -5128    -5806 
   -6435    -6886    -6968    -6671    -6286    -6104    -6187    -6415 
   -6625    -6686    -6482    -6030    -5626    -5529    -5655    -5904 
   -6285    -6608    -6593    -6254    -5867    -5611    -5435    -5325 
   -5337    -5386    -5467    -5717    -6084    -6384    -6529    -6589 
   -6687    -6817    -6770    -6313    -5544    -4968    -4984    -5517 
   -6170    -6492    -6363    -6168    -6177    -6181    -6068    -6065 
   -6216    -6293    -6199    -6046    -5931    -5949    -6145    -6281 
   -6178    -6039    -5945    -5833    -5892    -6054    -5895    -5441 
   -5067    -4905    -4947    -5263    -5822    -6366    -6735    -6948 
   -6897    -6540    -6138    -5964    -6019    -6093    -6069    -6053 
   -6115    -6124    -5949    -5734    -5744    -5998    -6335    -6629 
   -6752    -6608    -6286    -5929    -5580    -5433    -5698    -6145 
   -6363    -6323    -6237    -6127    -5919    -5703    -5567    -5508 
   -5605    -5852    -6096    -6232    -6203    -6037    -5945    -6076 
   -6322    -6527    -6610    -6444    -5983    -5445    -5115    -5121 
   -5358    -5559    -5656    -5779    -5964    -6173    -6327    -6286 
   -6088    -5996    -6196    -6539    -6725    -6705    -6500    -6029 
   -5514    -5390    -5690    -6038    -6219    -6338    -6416    -6349 
   -6219    -6183    -6160    -5977    -5668    -5390    -5270    -5308 
   -5398    -5548    -5914    -6462    -6913    -7075    -6972    -6720 
   -6393    -6033    -5718    -5576    -5621    -5676    -5702    -5908 
   -6328    -6725    -6859    -6569    -5950    -5347    -4985    -4978 
   -5412    -6058    -6469    -6481    -6312    -6262    -6431    -6543 
   -6300    -5825    -5466    -5381    -5463    -5521    -5545    -5676 
   -5902    -6079    -6124    -6068    -5999    -5973    -6008    -6189 
   -6554    -6863    -6836    -6493    -6006    -5501    -5186    -5310 
   -5822    -6346    -6662    -6814    -6770    -6443    -5954    -5509 
   -5252    -5283    -5597    -5979    -6172    -6118    -5927    -5799 
   -5958    -6350    -6647    -6656    -6405    -6076    -5917    -5968 
   -6003    -5798    -5405    -5154    -5281    -5697    -6204    -6655 
   -6910    -6882    -6570    -6038    -5467    -5089    -5080    -5522 
   -6166    -6512    -6481    -6436    -6486    -6488    -6388    -6164 
   -5873    -5710    -5701    -5749    -5868    -5998    -6056    -6116 
   -6181    -6203    -6299    -6463    -6439    -6097    -5586    -5120 
   -4893    -5013    -5431    -5946    -6284    -6305    -6161    -6072 
   -6050    -6007    -5945    -5903    -5876    -5910    -6076    -6319 
   -6519    -6644    -6642    -6442    -6160    -5933    -5756    -5678 
   -5806    -6112    -6462    -6685    -6589    -6192    -5780    -5602 
   -5678    -5846    -5906    -5814    -5719    -5741    -5888    -6112 
   -6259    -6285    -6319    -6276    -6041    -5814    -5755    -5802 
   -5872    -5991    -6224    -6446    -6394    -6042    -5647    -5467 
   -5562    -5771    -5879    -5923    -6110    -6396    -6471    -6242 
   -5942    -5725    -5589    -5557    -5660    -5879    -6075    -6145 
   -6255    -6490    -6625    -6508    -6278    -6111    -6042    -6085 
   -6197    -6228    -6139    -5976    -5740    -5555    -5567    -5718 
   -5868    -5896    -5799    -5730    -5837    -6066    -6207    -6129 
   -5911    -5760    -5879    -6215    -6496    -6574    -6484    -6284 
   -6058    -5911    -5888    -5900    -5919    -6027    -6147    -6160 
   -6122    -6103    -6114    -6053    -5891    -5842    -5929    -5934 
   -5868    -5805    -5683    -5586    -5634    -5746    -5946    -6284 
   -6536    -6604    -6678    -6858    -6924    -6610    -6075    -5701 
   -5532    -5418    -5339    -5339    -5444    -5575    -5629    -5688 
   -5868    -6097    -6291    -6462    -6635    -6762    -6690    -6366 
   -6023    -5864    -5840    -5891    -5983    -6012    -5960    -5899 
   -5860    -5826    -5746    -5611    -5513    -5521    -5641    -5854 
   -6130    -6420    -6598    -6583    -6517    -6569    -6651    -6592 
   -6400    -6141    -5849    -5632    -5551    -5560    -5629    -5683 
   -5664    -5659    -5730    -5865    -6016    -6085    -6116    -6215 
   -6259    -6145    -6015    -5940    -5827    -5657    -5555    -5668 
   -5999    -6388    -6670    -6737    -6600    -6432    -6351    -6239 
   -5973    -5679    -5593    -5729    -5903    -6029    -6178    -6397 
   -6532    -6411    -6097    -5772    -5532    -5428    -5467    -5593 
   -5764    -5948    -6068    -6100    -6110    -6146    -6146    -6014 
   -5817    -5733    -5788    -5907    -6061    -6189    -6243    -6268 
   -6305    -6347    -6386    -6440    -6490    -6453    -6313    -6162 
   -6052    -5948    -5836    -5744    -5678    -5605    -5545    -5575 
   -5686    -5779    -5784    -5768    -5876    -6112    -6286    -6264 
   -6122    -6012    -5973    -5965    -5985    -6054    -6139    -6158 
   -6093    -6027    -5988    -5930    -5881    -5902    -6008    -6184 
   -6255    -6062    -5786    -5732    -5902    -6061    -6087    -6045 
   -6007    -6027    -6188    -6459    -6689    -6727    -6504    -6123 
   -5880    -5976    -6308    -6571    -6548    -6332    -6154    -6075 
   -6039    -5999    -5846    -5571    -5332    -5248    -5350    -5547 
   -5614    -5526    -5540    -5779    -6038    -6081    -5992    -6034 
   -6205    -6304    -6245    -6085    -5898    -5728    -5682    -5845 
   -6114    -6324    -6351    -6157    -5860    -5624    -5536    -5649 
   -5919    -6154    -6172    -5984    -5771    -5710    -5854    -6172 
   -6569    -6835    -6818    -6679    -6615    -6520    -6241    -5902 
   -5761    -5860    -6018    -6096    -6042    -5857    -5652    -5579 
   -5719    -6003    -6264    -6416    -6447    -6365    -6274    -6220 
   -6110    -5946    -5837    -5737    -5548    -5401    -5481    -5690 
   -5837    -5922    -6022    -6093    -6053    -5925    -5791    -5710 
   -5786    -6058    -6296    -6276    -6123    -6068    -6169    -6403 
   -6681    -6822    -6670    -6264    -5826    -5541    -5422    -5409 
   -5476    -5584    -5636    -5634    -5719    -5918    -6150    -6405 
   -6623    -6664    -6509    -6234    -5930    -5719    -5718    -5950 
   -6285    -6523    -6567    -6444    -6246    -6093    -6007    -5886 
   -5706    -5570    -5594    -5833    -6160    -6328    -6251    -5994 
   -5660    -5463    -5536    -5701    -5775    -5826    -5957    -6120 
   -6223    -6208    -6134    -6131    -6195    -6215    -6200    -6231 
   -6318    -6396    -6380    -6230    -5984    -5786    -5790    -5940 
   -6099    -6210    -6162    -5908    -5638    -5529    -5555    -5621 
   -5710    -5852    -6062    -6284    -6413    -6408    -6311    -6224 
   -6250    -6293    -6172    -5954    -5871    -5957    -6058    -6112 
   -6207    -6351    -6388    -6201    -5867    -5583    -5524    -5668 
   -5827    -5849    -5767    -5751    -5891    -6037    -6004    -5859 
   -5826    -5987    -6210    -6377    -6462    -6459    -6374    -6197 
   -6003    -5914    -5884    -5838    -5829    -5856    -5827    -5746 
   -5686    -5687    -5778    -5954    -6168    -6380    -6524    -6477 
   -6227    -5973    -5927    -6103    -6261    -6164    -5907    -5755 
   -5773    -5886    -6068    -6318    -6528    -6496    -6157    -5691 
   -5339    -5213    -5325    -5629    -6015    -6309    -6405    -6346 
   -6234    -6134    -6066    -6066    -6141    -6203    -6183    -6160 
   -6200    -6220    -6126    -5989    -5994    -6183    -6367    -6358 
   -6120    -5755    -5463    -5391    -5481    -5626    -5850    -6143 
   -6361    -6359    -6138    -5868    -5742    -5795    -5892    -5906 
   -5842    -5800    -5869    -6045    -6192    -6192    -6084    -5992 
   -5992    -6057    -6133    -6204    -6242    -6165    -5942    -5721 
   -5706    -5888    -6097    -6277    -6459    -6555    -6462    -6266 
   -6135    -6085    -6015    -5904    -5879    -5985    -6081    -6061 
   -5988    -5933    -5935    -6084    -6322    -6388    -6161    -5823 
   -5603    -5589    -5724    -5868    -5915    -5826    -5626    -5449 
   -5455    -5686    -6003    -6219    -6297    -6323    -6293    -6157 
   -5969    -5935    -6180    -6525    -6648    -6462    -6189    -6007 
   -5904    -5817    -5691    -5620    -5795    -6176    -6513    -6659 
   -6619    -6455    -6208    -5891    -5576    -5416    -5535    -5872 
   -6174    -6243    -6091    -5900    -5876    -6069    -6326    -6384 
   -6096    -5614    -5304    -5391    -5718    -5960    -5985    -5859 
   -5728    -5726    -5877    -6091    -6197    -6058    -5783    -5694 
   -5940    -6342    -6691    -6840    -6679    -6286    -5946    -5931 
   -6214    -6461    -6369    -5994    -5674    -5656    -5914    -6234 
   -6381    -6262    -6002    -5796    -5711    -5660    -5586    -5516 
   -5532    -5691    -5927    -6149    -6342    -6504    -6598    -6551 
   -6340    -6066    -5891    -5884    -5944    -5944    -5886    -5841 
   -5883    -6011    -6103    -6006    -5714    -5437    -5433    -5742 
   -6165    -6520    -6687    -6498    -5964    -5449    -5300    -5506 
   -5867    -6220    -6415    -6382    -6246    -6143    -6106    -6129 
   -6203    -6316    -6377    -6272    -6079    -5971    -6019    -6162 
   -6234    -6110    -5857    -5621    -5509    -5610    -5891    -6168 
   -6301    -6273    -6134    -5972    -5869    -5794    -5695    -5652 
   -5738    -5940    -6215    -6430    -6394    -6112    -5794    -5647 
   -5701    -5850    -6026    -6205    -6359    -6461    -6488    -6434 
   -6295    -6134    -6066    -6107    -6147    -6089    -5930    -5738 
   -5601    -5576    -5638    -5710    -5822    -5996    -6143    -6204 
   -6168    -6041    -5919    -5911    -5931    -5822    -5633    -5580 
   -5780    -6127    -6386    -6397    -6230    -6084    -6104    -6282 
   -6496    -6613    -6561    -6319    -5980    -5721    -5647    -5679 
   -5733    -5822    -5981    -6154    -6219    -6112    -5868    -5586 
   -5385    -5308    -5324    -5414    -5606    -5930    -6338    -6696 
   -6902    -6909    -6716    -6400    -6096    -5914    -5854    -5840 
   -5833    -5910    -6151    -6463    -6646    -6602    -6355    -6003 
   -5744    -5730    -5894    -6052    -6079    -5977    -5842    -5737 
   -5676    -5632    -5541    -5436    -5503    -5836    -6253    -6540 
   -6620    -6458    -6069    -5636    -5406    -5487    -5767    -6046 
   -6222    -6315    -6332    -6276    -6204    -6185    -6238    -6297 
   -6278    -6178    -6025    -5792    -5582    -5602    -5868    -6189 
   -6426    -6504    -6316    -5913    -5606    -5586    -5691    -5767 
   -5887    -6089    -6255    -6342    -6463    -6663    -6752    -6548 
   -6154    -5826    -5695    -5671    -5597    -5402    -5193    -5236 
   -5656    -6205    -6517    -6427    -6060    -5737    -5726    -5991 
   -6235    -6191    -5873    -5576    -5518    -5617    -5738    -5863 
   -5971    -6058    -6212    -6466    -6620    -6504    -6291    -6243 
   -6413    -6729    -7018    -7009    -6621    -6052    -5540    -5240 
   -5262    -5553    -5900    -6178    -6428    -6609    -6604    -6431 
   -6196    -5937    -5757    -5810    -6060    -6281    -6282    -6029 
   -5656    -5300    -5023    -4950    -5154    -5454    -5591    -5532 
   -5468    -5605    -5915    -6230    -6481    -6682    -6723    -6401 
   -5628    -4499    -3370    -2893    -3547    -5100    -6759    -7801 
   -8091    -8050    -7966    -7723    -7299    -6917    -6728    -6825 
   -7246    -7813    -8221    -8226    -7759    -6968    -6183    -5737 
   -5721    -5873    -5832    -5433    -4714    -3855    -3260    -3345 
   -4055    -4864    -5373    -5545    -5444    -5112    -4714    -4584 
   -5005    -5888    -6840    -7578    -7994    -7894    -7173    -6174 
   -5501    -5540    -6210    -7010    -7425    -7250    -6558    -5626 
   -4888    -4646    -4868    -5346    -5838    -6089    -6049    -6064 
   -6519    -7342    -8043    -8178    -7727    -6964    -6156    -5583 
   -5518    -5919    -6394    -6544    -6176    -5337    -4450    -4141 
   -4513    -5005    -5282    -5502    -5721    -5746    -5401    -4708 
   -4031    -3834    -4266    -5169    -6346    -7566    -8422    -8514 
   -7825    -6829    -6112    -5881    -5987    -6224    -6521    -6929 
   -7388    -7720    -7846    -7568    -6628    -5370    -4594    -4507 
   -4585    -4561    -4804    -5617    -6662    -7214    -6829    -5786 
   -4765    -4175    -4020    -4245    -4889    -5892    -6883    -7357 
   -7153    -6565    -6089    -6162    -6880    -7877    -8507    -8239 
   -7080    -5753    -4982    -4702    -4320    -3578    -2918    -3036 
   -4109    -5617    -6917    -7649    -7719    -7357    -7071    -7225 
   -7762    -8262    -8202    -7360    -6093    -5130    -4945    -5424 
   -6069    -6448    -6342    -5872    -5545    -5552    -5367    -4592 
   -3613    -3134    -3481    -4384    -5231    -5644    -5923    -6632 
   -7819    -8996    -9607    -9396    -8608    -7685    -6779    -5837 
   -4963    -4460    -4477    -4830    -5135    -5109    -4924    -5039 
   -5576    -6203    -6470    -6066    -5159    -4523    -4760    -5543 
   -6153    -6474    -6876    -7348    -7530    -7411    -7234    -7037 
   -6806    -6631    -6458    -6088    -5552    -5139    -5040    -5169 
   -5274    -5211    -5044    -4855    -4730    -4865    -5346    -6033 
   -6696    -6997    -6739    -6277    -6153    -6345    -6448    -6332 
   -6172    -6130    -6308    -6642    -6801    -6434    -5579    -4747 
   -4511    -5093    -6350    -7838    -8986    -9410    -8959    -7587 
   -5618    -3900    -3160    -3397    -4114    -4835    -5294    -5367 
   -5082    -4700    -4507    -4656    -5236    -6119    -6876    -7260 
   -7361    -7195    -6713    -6189    -6108    -6659    -7550    -8330 
   -8683    -8401    -7408    -5888    -4315    -3225    -2839    -3053 
   -3771    -4954    -6299    -7366    -8010    -8286    -8257    -8047 
   -7713    -7241    -6824    -6624    -6351    -5651    -4666    -3816 
   -3352    -3380    -3917    -4718    -5352    -5597    -5616    -5691 
   -5888    -5985    -5795    -5578    -5890    -6858    -7932    -8513 
   -8451    -7874    -7017    -6231    -5742    -5563    -5670    -5876 
   -5907    -5796    -5840    -6192    -6631    -6756    -6428    -5942 
   -5744    -5942    -6119    -5730    -4777    -3917    -3747    -4206 
   -4779    -5148    -5395    -5687    -6158    -6901    -7699    -8147 
   -8201    -8085    -7751    -7015    -5984    -4968    -4230    -3909 
   -4113    -4861    -5729    -6160    -6199    -6264    -6436    -6574 
   -6714    -6949    -7152    -7036    -6462    -5733    -5385    -5605 
   -6068    -6332    -6324    -6349    -6582    -6894    -7114    -7025 
   -6392    -5335    -4345    -3836    -3947    -4548    -5350    -6151 
   -6835    -7225    -7263    -7083    -6767    -6297    -5794    -5487 
   -5410    -5352    -5254    -5305    -5634    -6219    -7003    -7709 
   -7838    -7138    -5894    -4691    -4012    -3963    -4321    -4831 
   -5381    -5844    -6069    -6153    -6342    -6632    -6824    -6921 
   -7105    -7303    -7273    -6951    -6427    -5829    -5350    -5125 
   -5175    -5449    -5826    -6129    -6216    -6106    -6008    -6214 
   -6755    -7230    -7149    -6434    -5462    -4633    -4113    -3962 
   -4209    -4773    -5502    -6292    -7060    -7650    -7815    -7381 
   -6534    -5749    -5425    -5617    -6053    -6361    -6388    -6292 
   -6251    -6237    -6142    -6027    -5998    -5975    -5879    -5872 
   -6079    -6403    -6679    -6829    -6886    -6831    -6543    -6058 
   -5603    -5335    -5236    -5192    -5032    -4666    -4216    -4017 
   -4356    -5194    -6308    -7373    -7975    -7835    -7123    -6447 
   -6249    -6351    -6265    -5765    -5125    -4824    -5026    -5464 
   -5756    -5772    -5664    -5648    -5903    -6411    -6902    -7253 
   -7614    -7933    -7838    -7138    -6093    -5098    -4455    -4287 
   -4514    -4947    -5352    -5522    -5433    -5327    -5497    -5975 
   -6600    -7188    -7541    -7650    -7665    -7569    -7344    -7094 
   -6802    -6439    -6127    -5954    -5888    -5798    -5544    -5136 
   -4723    -4453    -4305    -4164    -4174    -4509    -5026    -5556 
   -6099    -6582    -6841    -6739    -6277    -5688    -5239    -5036 
   -5098    -5414    -5911    -6439    -6868    -7265    -7761    -8181 
   -8210    -7803    -7082    -6264    -5672    -5420    -5400    -5521 
   -5680    -5867    -6253    -6839    -7338    -7461    -7024    -6083 
   -5053    -4446    -4503    -5058    -5676    -5957    -5779    -5374 
   -5093    -5016    -4962    -4853    -4769    -4808    -5077    -5611 
   -6307    -7021    -7609    -7948    -8078    -8172    -8245    -8012 
   -7223    -6068    -4982    -4261    -3989    -4056    -4213    -4311 
   -4425    -4719    -5211    -5715    -6153    -6691    -7407    -8055 
   -8411    -8452    -8151    -7531    -6818    -6266    -5931    -5732 
   -5661    -5699    -5625    -5319    -5005    -4926    -5078    -5283 
   -5436    -5614    -5838    -5977    -5957    -5811    -5659    -5699 
   -5985    -6362    -6709    -6976    -7041    -6759    -6099    -5300 
   -4783    -4750    -5100    -5665    -6193    -6403    -6285    -6041 
   -5788    -5571    -5471    -5532    -5729    -5994    -6174    -6178 
   -6075    -5983    -6050    -6393    -6980    -7593    -7897    -7742 
   -7258    -6551    -5748    -5169    -4970    -5012    -5223    -5613 
   -6041    -6326    -6428    -6403    -6328    -6204    -6010    -5926 
   -6037    -6092    -5976    -5807    -5605    -5432    -5408    -5421 
   -5402    -5549    -5913    -6315    -6586    -6567    -6214    -5667 
   -5169    -4977    -5144    -5474    -5803    -6058    -6187    -6297 
   -6502    -6706    -6817    -6883    -6925    -6890    -6772    -6593 
   -6394    -6281    -6254    -6201    -6139    -6124    -6075    -6014 
   -6046    -6129    -6228    -6313    -6228    -5953    -5593    -5159 
   -4749    -4604    -4769    -4997    -5082    -5062    -5131    -5402 
   -5765    -6030    -6087    -5984    -5844    -5761    -5809    -6012 
   -6291    -6525    -6674    -6779    -6833    -6802    -6759    -6763 
   -6732    -6590    -6362    -6103    -5869    -5764    -5876    -6176 
   -6480    -6589    -6524    -6467    -6424    -6253    -5975    -5759 
   -5691    -5765    -5958    -6208    -6392    -6374    -6089    -5660 
   -5383    -5387    -5486    -5487    -5439    -5493    -5690    -5935 
   -6191    -6436    -6582    -6592    -6424    -6049    -5637    -5425 
   -5470    -5741    -6124    -6415    -6403    -6012    -5428    -4922 
   -4621    -4614    -4966    -5510    -5981    -6315    -6547    -6704 
   -6836    -6939    -6909    -6739    -6594    -6552    -6467    -6226 
