Origin Time       2025/03/30 10:18:00
Lat.              34.667
Long.             140.825
Depth. (km)       69
Mag.              4.9
Station Code      TKY029
Station Lat.      34.0757
Station Long.     139.4789
Station Height(m) 32
Record Time       2025/03/30 10:19:08
Sampling Freq(Hz) 100Hz
Duration Time(s)  60
Dir.              N-S
Scale Factor      7845(gal)/8223790
Max. Acc. (gal)   1.727
Last Correction   2025/03/30 10:19:08
Memo.             
[...]
  -10839   -10632   -10466   -10497   -10632   -10658   -10539   -10346 
  -10143   -10064   -10185   -10400   -10577   -10655   -10682   -10770 
  -10821   -10601   -10201    -9985   -10087   -10319   -10470   -10435 
  -10233   -10048   -10129   -10497   -10841   -10895   -10728   -10520 
  -10320   -10156   -10073   -10118   -10301   -10498   -10538   -10420 
  -10349   -10471   -10623   -10585   -10458   -10431   -10467   -10459 
  -10427   -10494   -10658   -10702   -10501   -10200   -10044   -10120 
  -10288   -10412   -10534   -10621   -10532   -10277   -10054   -10052 
  -10260   -10551   -10829   -10936   -10741   -10376   -10080   -10018 
  -10215   -10473   -10536   -10443   -10435   -10512   -10458   -10265 
  -10164   -10293   -10579   -10806   -10794   -10612   -10458   -10405 
  -10431   -10494   -10489   -10332   -10119   -10052   -10269   -10677 
  -10941   -10886   -10650   -10380   -10187   -10239   -10443   -10530 
  -10516   -10561   -10629   -10609   -10451   -10226   -10084   -10096 
  -10241   -10436   -10617   -10733   -10655   -10372   -10153   -10172 
  -10304   -10395   -10450   -10528   -10573   -10465   -10233   -10068 
  -10103   -10292   -10492   -10648   -10801   -10902   -10808   -10508 
  -10158    -9919    -9907   -10154   -10531   -10743   -10598   -10280 
  -10126   -10218   -10374   -10457   -10471   -10493   -10593   -10732 
  -10763   -10613   -10351   -10145   -10207   -10524   -10775   -10740 
  -10527   -10343   -10299   -10408   -10596   -10721   -10652   -10331 
   -9938    -9844   -10122   -10493   -10719   -10751   -10666   -10547 
  -10426   -10330   -10287   -10354   -10532   -10656   -10619   -10481 
  -10316   -10231   -10289   -10405   -10490   -10523   -10503   -10446 
  -10343   -10149    -9971   -10084   -10493   -10832   -10856   -10631 
  -10385   -10330   -10397   -10419   -10417   -10476   -10592   -10674 
  -10608   -10430   -10228   -10027    -9984   -10266   -10677   -10824 
  -10600   -10264   -10081   -10073   -10212   -10504   -10841   -11049 
  -10997   -10671   -10201    -9764    -9540    -9674   -10079   -10480 
  -10716   -10804   -10777   -10639   -10400   -10131   -10000   -10227 
  -10782   -11186   -11076   -10677   -10378   -10293   -10331   -10438 
  -10632   -10801   -10713   -10353    -9981    -9882   -10116   -10453 
  -10620   -10604   -10519   -10358   -10166   -10129   -10274   -10457 
  -10619   -10760   -10822   -10708   -10428   -10179   -10150   -10334 
  -10584   -10728   -10692   -10519   -10305   -10102    -9914    -9872 
  -10126   -10493   -10636   -10525   -10384   -10381   -10471   -10426 
  -10154    -9965   -10180   -10635   -10913   -10871   -10677   -10500 
  -10395   -10351   -10373   -10500   -10673   -10717   -10579   -10397 
  -10301   -10311   -10384   -10474   -10530   -10486   -10358   -10235 
  -10249   -10439   -10619   -10557   -10326   -10239   -10407   -10604 
  -10629   -10515   -10434   -10497   -10579   -10525   -10403   -10260 
  -10037    -9856    -9965   -10366   -10760   -10852   -10673   -10512 
  -10520   -10476   -10197    -9961   -10045   -10327   -10625   -10810 
  -10729   -10466   -10273   -10278   -10496   -10741   -10723   -10449 
  -10192   -10135   -10287   -10550   -10766   -10744   -10488   -10299 
  -10339   -10423   -10420   -10386   -10351   -10316   -10331   -10395 
  -10395   -10291   -10269   -10457   -10665   -10723   -10733   -10754 
  -10679   -10505   -10311   -10174   -10204   -10404   -10592   -10598 
  -10485   -10473   -10548   -10488   -10277   -10068    -9953   -10019 
  -10269   -10494   -10497   -10365   -10288   -10246   -10211   -10316 
  -10507   -10540   -10500   -10612   -10759   -10709   -10490   -10320 
  -10330   -10417   -10469   -10538   -10646   -10660   -10438   -10080 
   -9949   -10201   -10554   -10696   -10643   -10590   -10574   -10476 
  -10363   -10373   -10442   -10505   -10566   -10597   -10543   -10359 
  -10131   -10057   -10181   -10403   -10608   -10698   -10678   -10592 
  -10400   -10139    -9991   -10039   -10208   -10426   -10627   -10724 
  -10669   -10451   -10154   -10039   -10270   -10652   -10878   -10879 
  -10783   -10696   -10638   -10554   -10365   -10106    -9996   -10220 
  -10625   -10883   -10812   -10458   -10042    -9836    -9956   -10223 
  -10393   -10480   -10597   -10686   -10651   -10485   -10260   -10119 
  -10187   -10440   -10713   -10752   -10469   -10131   -10022   -10102 
  -10219   -10331   -10434   -10543   -10663   -10702   -10619   -10548 
  -10594   -10612   -10489   -10395   -10451   -10530   -10505   -10420 
  -10322   -10273   -10365   -10547   -10621   -10513   -10366   -10307 
  -10297   -10288   -10327   -10426   -10551   -10694   -10762   -10650 
  -10440   -10241   -10083   -10085   -10326   -10646   -10833   -10810 
  -10611   -10322   -10081    -9991   -10017   -10112   -10301   -10569 
  -10816   -10902   -10771   -10516   -10312   -10270   -10322   -10331 
  -10332   -10411   -10485   -10450   -10359   -10291   -10261   -10319 
  -10446   -10505   -10488   -10527   -10579   -10512   -10384   -10345 
  -10412   -10492   -10534   -10525   -10436   -10331   -10338   -10411 
  -10432   -10420   -10424   -10476   -10604   -10702   -10588   -10326 
  -10183   -10255   -10419   -10575   -10683   -10652   -10419   -10119 
  -10011   -10133   -10304   -10426   -10481   -10471   -10454   -10419 
  -10297   -10156   -10111   -10201   -10390   -10579   -10687   -10689 
  -10617   -10562   -10538   -10471   -10390   -10376   -10405   -10389 
  -10334   -10289   -10280   -10361   -10521   -10627   -10632   -10582 
  -10473   -10361   -10393   -10557   -10671   -10662   -10589   -10489 
  -10390   -10385   -10490   -10577   -10531   -10399   -10322   -10341 
  -10353   -10291   -10230   -10274   -10384   -10403   -10295   -10215 
  -10254   -10331   -10423   -10608   -10768   -10700   -10486   -10322 
  -10242   -10289   -10453   -10527   -10417   -10289   -10276   -10338 
  -10386   -10405   -10454   -10532   -10563   -10528   -10438   -10318 
  -10276   -10349   -10431   -10463   -10481   -10503   -10511   -10473 
  -10384   -10315   -10357   -10455   -10482   -10486   -10555   -10613 
  -10554   -10358   -10141   -10129   -10345   -10521   -10507   -10465 
  -10528   -10581   -10498   -10353   -10336   -10525   -10697   -10615 
  -10413   -10354   -10465   -10608   -10650   -10538   -10359   -10247 
  -10237   -10296   -10369   -10380   -10312   -10266   -10341   -10485 
  -10539   -10443   -10355   -10423   -10581   -10648   -10543   -10392 
  -10359   -10449   -10561   -10600   -10524   -10373   -10235   -10239 
  -10439   -10647   -10647   -10492   -10357   -10276   -10180   -10092 
  -10174   -10501   -10856   -10949   -10729   -10357   -10011    -9784 
   -9752   -10031   -10505   -10820   -10820   -10619   -10359   -10165 
  -10125   -10276   -10563   -10809   -10840   -10683   -10458   -10251 
  -10137   -10181   -10390   -10627   -10685   -10542   -10386   -10327 
  -10301   -10304   -10430   -10658   -10848   -10920   -10855   -10644 
  -10322   -10019    -9907   -10046   -10347   -10639   -10787   -10801 
  -10752   -10671   -10546   -10384   -10269   -10235   -10211   -10207 
  -10270   -10309   -10307   -10347   -10396   -10428   -10465   -10440 
  -10335   -10242   -10212   -10220   -10247   -10318   -10489   -10748 
  -10908   -10751   -10336   -10011   -10023   -10276   -10551   -10732 
  -10750   -10617   -10459   -10372   -10349   -10370   -10412   -10442 
  -10450   -10457   -10447   -10388   -10327   -10345   -10388   -10343 
  -10260   -10269   -10388   -10525   -10562   -10500   -10485   -10570 
  -10639   -10548   -10297   -10135   -10261   -10523   -10633   -10486 
  -10243   -10143   -10231   -10395   -10523   -10527   -10449   -10451 
  -10577   -10665   -10530   -10241   -10106   -10258   -10503   -10600 
  -10531   -10454   -10465   -10505   -10520   -10515   -10517   -10531 
  -10516   -10455   -10417   -10442   -10467   -10463   -10447   -10454 
  -10509   -10511   -10365   -10228   -10257   -10350   -10370   -10309 
  -10241   -10249   -10339   -10401   -10397   -10426   -10524   -10638 
  -10731   -10756   -10659   -10485   -10359   -10342   -10370   -10362 
  -10353   -10400   -10462   -10465   -10390   -10255   -10168   -10238 
  -10373   -10407   -10372   -10350   -10334   -10357   -10454   -10543 
  -10559   -10570   -10631   -10648   -10535   -10423   -10449   -10474 
  -10366   -10289   -10411   -10613   -10683   -10562   -10353   -10212 
  -10201   -10276   -10407   -10559   -10616   -10497   -10273   -10115 
  -10154   -10343   -10504   -10542   -10530   -10559   -10579   -10488 
  -10359   -10355   -10463   -10536   -10497   -10423   -10413   -10471 
  -10540   -10548   -10451   -10314   -10251   -10309   -10413   -10457 
  -10419   -10376   -10399   -10455   -10430   -10328   -10309   -10444 
  -10619   -10662   -10544   -10400   -10332   -10314   -10291   -10289 
  -10345   -10389   -10397   -10470   -10608   -10659   -10579   -10450 
  -10351   -10295   -10260   -10282   -10388   -10534   -10674   -10731 
  -10620   -10413   -10278   -10269   -10300   -10330   -10393   -10504 
  -10616   -10655   -10566   -10389   -10235   -10201   -10287   -10427 
  -10573   -10669   -10659   -10573   -10447   -10287   -10168   -10145 
  -10203   -10368   -10575   -10624   -10461   -10249   -10122   -10108 
  -10195   -10354   -10524   -10643   -10692   -10682   -10663   -10655 
  -10593   -10462   -10365   -10380   -10459   -10493   -10477   -10494 
  -10539   -10524   -10411   -10274   -10228   -10291   -10362   -10343 
  -10241   -10188   -10251   -10359   -10462   -10517   -10481   -10439 
  -10493   -10593   -10660   -10671   -10605   -10453   -10296   -10245 
  -10287   -10365   -10454   -10512   -10548   -10612   -10638   -10536 
  -10380   -10304   -10338   -10365   -10293   -10193   -10181   -10261 
  -10382   -10508   -10631   -10732   -10720   -10523   -10207    -9981 
  -10057   -10374   -10669   -10791   -10739   -10520   -10219    -9996 
   -9998   -10237   -10554   -10729   -10652   -10449   -10362   -10435 
  -10515   -10484   -10382   -10357   -10478   -10625   -10647   -10548 
  -10419   -10311   -10258   -10247   -10269   -10366   -10570   -10809 
  -10920   -10768   -10386   -10006    -9904   -10119   -10434   -10663 
  -10759   -10700   -10481   -10191    -9967    -9938   -10164   -10507 
  -10724   -10728   -10619   -10519   -10453   -10372   -10345   -10467 
  -10613   -10593   -10442   -10354   -10442   -10612   -10658   -10492 
  -10264   -10184   -10276   -10381   -10380   -10305   -10276   -10331 
  -10385   -10350   -10309   -10376   -10493   -10555   -10577   -10606 
  -10615   -10569   -10525   -10540   -10552   -10492   -10403   -10342 
  -10284   -10258   -10368   -10555   -10629   -10515   -10327   -10249 
  -10324   -10436   -10498   -10498   -10473   -10467   -10457   -10395 
  -10291   -10181   -10166   -10318   -10517   -10554   -10412   -10295 
  -10345   -10509   -10640   -10621   -10476   -10327   -10251   -10285 
  -10427   -10563   -10569   -10480   -10422   -10411   -10382   -10336 
  -10342   -10440   -10598   -10704   -10646   -10435   -10219   -10118 
  -10142   -10264   -10466   -10685   -10821   -10810   -10671   -10494 
  -10363   -10274   -10196   -10147   -10146   -10192   -10304   -10461 
  -10594   -10679   -10708   -10644   -10485   -10282   -10110   -10042 
  -10173   -10505   -10867   -11056   -10991   -10721   -10390   -10147 
  -10049   -10073   -10203   -10404   -10578   -10621   -10517   -10343 
  -10212   -10166   -10165   -10191   -10272   -10413   -10562   -10600 
  -10496   -10397   -10435   -10557   -10654   -10679   -10617   -10498 
  -10388   -10304   -10289   -10407   -10631   -10806   -10736   -10413 
  -10130   -10134   -10346   -10519   -10507   -10372   -10262   -10292 
  -10486   -10724   -10840   -10827   -10804   -10854   -10964   -11024 
  -10905   -10593   -10246   -10076   -10143   -10332   -10480   -10480 
  -10278    -9938    -9667    -9664    -9954   -10380   -10687   -10719 
  -10544   -10339   -10191   -10108   -10087   -10152   -10347   -10625 
  -10746   -10503   -10039    -9757    -9872   -10222   -10485   -10500 
  -10382   -10339   -10413   -10513   -10567   -10543   -10455   -10334 
  -10185   -10098   -10239   -10577   -10851   -10883   -10756   -10682 
  -10735   -10737   -10504   -10129    -9940   -10095   -10413   -10601 
  -10559   -10430   -10311   -10146    -9957    -9915   -10137   -10566 
  -11044   -11387   -11415   -11080   -10540   -10053    -9803    -9823 
  -10049   -10388   -10752   -11055   -11221   -11246   -11205   -11149 
  -11016   -10763   -10511   -10392   -10427   -10482   -10326    -9884 
   -9329    -8895    -8773    -9032    -9545   -10112   -10585   -10847 
  -10816   -10505   -10110    -9877    -9849    -9913   -10058   -10328 
  -10635   -10832   -10893   -10960   -11205   -11564   -11759   -11595 
  -11159   -10733   -10515   -10474   -10461   -10396   -10357   -10432 
  -10504   -10301    -9747    -9107    -8779    -8986    -9574   -10172 
  -10575   -10832   -11036   -11128   -10885   -10262    -9616    -9375 
   -9672   -10280   -10809   -10983   -10827   -10608   -10569   -10795 
  -11256   -11784   -12147   -12240   -12043   -11504   -10725   -10068 
   -9783    -9802    -9956   -10108   -10112    -9909    -9595    -9293 
   -9130    -9254    -9710   -10374   -11030   -11418   -11334   -10849 
  -10299    -9972    -9856    -9775    -9765   -10099   -10858   -11716 
  -12231   -12185   -11649   -10917   -10380   -10224   -10315   -10480 
  -10627   -10613   -10355    -9968    -9653    -9556    -9629    -9674 
   -9609    -9544    -9659   -10044   -10496   -10604   -10227    -9694 
   -9481    -9818   -10589   -11410   -11834   -11709   -11248   -10700 
  -10188    -9757    -9483    -9547   -10069   -10883   -11508   -11531 
  -11047   -10484   -10133   -10039   -10126   -10276   -10363   -10323 
  -10183    -9991    -9795    -9747   -10002   -10539   -11132   -11443 
  -11273   -10802   -10405   -10243   -10233   -10308   -10473   -10744 
  -11117   -11418   -11419   -11110   -10617   -10044    -9532    -9256 
   -9321    -9714   -10250   -10646   -10755   -10671   -10535   -10373 
  -10211   -10146   -10257   -10507   -10747   -10805   -10617   -10293 
  -10065   -10142   -10505   -10912   -11160   -11191   -11022   -10770 
  -10601   -10601   -10698   -10762   -10739   -10624   -10385   -10060 
   -9787    -9625    -9499    -9413    -9464    -9672    -9910   -10008 
   -9944    -9929   -10153   -10503   -10723   -10721   -10633   -10578 
  -10532   -10455   -10343   -10230   -10227   -10438   -10836   -11233 
  -11346   -11068   -10601   -10266   -10249   -10527   -10898   -11095 
  -11020   -10787   -10536   -10341   -10200   -10060    -9898    -9771 
   -9779    -9973   -10270   -10579   -10881   -11078   -11016   -10694 
  -10357   -10319   -10604   -10871   -10854   -10658   -10525   -10507 
  -10484   -10434   -10399   -10307   -10056    -9714    -9549    -9732 
  -10127   -10531   -10870   -11141   -11300   -11254   -10937   -10412 
   -9907    -9711    -9927   -10393   -10863   -11140   -11159   -11025 
  -10870   -10702   -10465   -10116    -9694    -9298    -9035    -9031 
   -9375    -9985   -10612   -10968   -10951   -10720   -10428   -10098 
   -9842    -9803    -9960   -10231   -10575   -10922   -11141   -11091 
  -10756   -10341   -10129   -10228   -10552   -10929   -11221   -11358 
  -11315   -11083   -10677   -10216    -9915    -9887   -10018   -10107 
  -10095   -10145   -10384   -10687   -10816   -10652   -10277    -9953 
   -9919   -10156   -10439   -10550   -10434   -10211   -10052   -10091 
  -10342   -10617   -10737   -10771   -10871   -10982   -10921   -10689 
  -10466   -10403   -10474   -10517   -10459   -10426   -10536   -10698 
  -10736   -10558   -10165    -9634    -9132    -8846    -8897    -9300 
   -9987   -10816   -11526   -11807   -11580   -11105   -10654   -10322 
  -10157   -10153   -10196   -10296   -10571   -10959   -11223   -11173 
  -10790   -10258    -9918   -10034   -10516   -10975   -11113   -10937 
  -10624   -10327   -10154   -10164   -10277   -10376   -10449   -10538 
  -10612   -10579   -10393   -10103    -9792    -9587    -9601    -9822 
  -10142   -10451   -10686   -10812   -10746   -10451   -10100    -9938 
  -10030   -10254   -10458   -10524   -10413   -10254   -10243   -10442 
  -10724   -10887   -10843   -10740   -10755   -10813   -10751   -10590 
  -10463   -10413   -10381   -10305   -10215   -10208   -10336   -10523 
  -10635   -10615   -10515   -10440   -10470   -10594   -10737   -10771 
  -10623   -10389   -10242   -10260   -10389   -10485   -10466   -10358 
  -10207   -10054    -9998   -10147   -10489   -10858   -11105   -11129 
  -10849   -10388   -10041    -9998   -10235   -10574   -10724   -10527 
  -10125    -9760    -9549    -9541    -9734   -10012   -10281   -10552 
  -10786   -10876   -10839   -10778   -10740   -10648   -10358    -9848 
   -9364    -9262    -9644   -10284   -10860   -11161   -11163   -11014 
  -10886   -10812   -10731   -10589   -10409   -10322   -10380   -10476 
  -10561   -10693   -10833   -10860   -10758   -10650   -10660   -10756 
  -10785   -10644   -10390   -10165   -10042   -10023   -10096   -10196 
  -10264   -10331   -10419   -10474   -10455   -10343   -10150    -9976 
   -9965   -10141   -10417   -10747   -11097   -11303   -11229   -11001 
  -10821   -10705   -10558   -10374   -10235   -10235   -10349   -10408 
  -10324   -10138    -9918    -9759    -9747    -9834    -9922   -10012 
  -10172   -10405   -10608   -10655   -10527   -10339   -10245   -10289 
  -10424   -10588   -10748   -10914   -11056   -11067   -10864   -10486 
  -10087    -9859    -9877   -10058   -10287   -10507   -10674   -10748 
  -10690   -10469   -10153    -9950   -10008   -10241   -10492   -10713 
  -10866   -10805   -10474   -10061    -9828    -9911   -10234   -10571 
  -10795   -10932   -10993   -10941   -10758   -10467   -10188   -10100 
  -10293   -10628   -10843   -10820   -10673   -10555   -10481   -10380 
  -10226   -10092   -10085   -10203   -10362   -10503   -10604   -10660 
  -10646   -10528   -10355   -10246   -10316   -10539   -10675   -10567 
  -10369   -10301   -10374   -10446   -10434   -10381   -10392   -10528 
  -10721   -10790   -10605   -10214    -9801    -9520    -9406    -9402 
   -9462    -9661   -10045   -10466   -10697   -10638   -10409   -10228 
  -10172   -10164   -10199   -10363   -10701   -11118   -11403   -11416 
  -11222   -10943   -10682   -10566   -10639   -10809   -10947   -10968 
  -10860   -10675   -10496   -10369   -10284   -10223   -10170   -10108 
  -10052   -10050   -10114   -10166   -10133   -10042    -9988   -10033 
  -10177   -10395   -10629   -10786   -10763   -10552   -10258   -10075 
  -10116   -10251   -10305   -10318   -10385   -10507   -10609   -10625 
  -10555   -10467   -10457   -10559   -10721   -10902   -11084   -11191 
  -11155   -11017   -10840   -10620   -10376   -10177   -10077   -10048 
  -10026   -10044   -10179   -10396   -10593   -10662   -10524   -10273 
  -10142   -10206   -10336   -10450   -10554   -10665   -10763   -10774 
  -10621   -10349   -10093    -9942    -9895    -9936   -10030   -10154 
  -10322   -10528   -10717   -10812   -10755   -10582   -10426   -10368 
  -10359   -10323   -10251   -10183   -10154   -10206   -10351   -10552 
