Origin Time       2025/03/30 10:18:00
Lat.              34.667
Long.             140.825
Depth. (km)       69
Mag.              4.9
Station Code      TKY004
Station Lat.      35.6301
Station Long.     139.4034
Station Height(m) 81
Record Time       2025/03/30 10:19:18
Sampling Freq(Hz) 100Hz
Duration Time(s)  60
Dir.              E-W
Scale Factor      7845(gal)/8223790
Max. Acc. (gal)   1.410
Last Correction   2025/03/30 10:19:18
Memo.             
[...]
    1318     1306     1362     1375     1267     1132     1119     1231 
    1332     1343     1310     1309     1398     1593     1745     1691 
    1510     1385     1351     1316     1215     1081     1008     1077 
    1232     1302     1212      994      830      957     1305     1559 
    1536     1329     1205     1259     1327     1371     1485     1583 
    1501     1296     1181     1190     1217     1277     1377     1395 
    1301     1206     1210     1309     1413     1445     1421     1399 
    1398     1374     1339     1327     1341     1367     1354     1275 
    1185     1139     1152     1193     1209     1190     1216     1367 
    1528     1540     1466     1416     1387     1312     1197     1129 
    1125     1186     1316     1385     1336     1321     1416     1512 
    1463     1281     1140     1138     1185     1210     1228     1260 
    1296     1302     1321     1367     1327     1192     1155     1304 
    1431     1327     1142     1174     1416     1614     1607     1421 
    1219     1139     1173     1248     1327     1359     1320     1270 
    1287     1386     1520     1594     1530     1372     1213     1109 
    1111     1219     1359     1452     1426     1273     1120     1131 
    1289     1389     1324     1256     1260     1250     1242     1300 
    1375     1387     1314     1237     1239     1283     1317     1331 
    1352     1399     1389     1305     1285     1333     1350     1354 
    1352     1314     1235     1156     1217     1435     1591     1559 
    1417     1285     1223     1210     1201     1197     1229     1300 
    1366     1359     1271     1215     1236     1271     1271     1228 
    1165     1144     1209     1325     1425     1503     1552     1522 
    1436     1371     1374     1425     1445     1347     1194     1143 
    1196     1270     1344     1383     1344     1251     1159     1107 
    1111     1178     1286     1347     1325     1300     1309     1309 
    1277     1279     1354     1426     1420     1367     1352     1389 
    1422     1426     1391     1294     1156     1063     1077     1178 
    1277     1301     1243     1156     1170     1324     1470     1479 
    1387     1324     1320     1312     1317     1390     1491     1559 
    1571     1475     1248     1040     1028     1182     1344     1393 
    1328     1221     1136     1112     1139     1212     1340     1464 
    1522     1474     1372     1350     1397     1444     1437     1328 
    1189     1094     1065     1111     1179     1256     1331     1364 
    1358     1329     1362     1466     1505     1426     1304     1237 
    1283     1374     1449     1497     1463     1347     1240     1215 
    1244     1247     1224     1220     1216     1194     1175     1178 
    1229     1329     1401     1366     1279     1215     1152     1159 
    1266     1355     1391     1417     1410     1368     1347     1378 
    1416     1424     1448     1482     1448     1377     1367     1372 
    1296     1196     1144     1143     1170     1173     1132     1132 
    1217     1313     1356     1368     1368     1341     1317     1362 
    1444     1501     1510     1463     1366     1242     1136     1132 
    1239     1350     1328     1178     1038     1007     1104     1278 
    1409     1440     1417     1413     1448     1460     1408     1325 
    1297     1318     1298     1250     1267     1350     1436     1493 
    1471     1358     1229     1132     1071     1104     1193     1227 
    1225     1291     1451     1606     1665     1638     1552     1464 
    1424     1382     1305     1221     1121      992      901      905 
     996     1143     1324     1495     1582     1544     1448     1405 
    1416     1406     1347     1258     1181     1151     1182     1255 
    1332     1321     1192     1098     1151     1250     1285     1227 
    1150     1182     1337     1506     1567     1517     1443     1370 
    1289     1243     1267     1317     1335     1312     1262     1201 
    1167     1202     1316     1436     1458     1402     1405     1462 
    1436     1321     1221     1223     1314     1386     1370     1297 
    1243     1260     1281     1225     1156     1159     1231     1282 
    1252     1225     1291     1395     1421     1359     1347     1441 
    1516     1475     1385     1368     1413     1404     1329     1271 
    1259     1235     1150     1046     1007     1057     1143     1251 
    1414     1574     1618     1507     1310     1208     1293     1445 
    1513     1452     1359     1354     1387     1328     1192     1090 
    1084     1148     1220     1189     1066     1048     1219     1401 
    1398     1227     1101     1181     1367     1486     1507     1487 
    1491     1516     1495     1480     1517     1505     1386     1267 
    1264     1318     1318     1301     1313     1344     1362     1293 
    1185     1173     1240     1305     1343     1324     1246     1174 
    1139     1138     1232     1417     1498     1412     1318     1256 
    1186     1193     1287     1332     1289     1227     1208     1250 
    1327     1391     1377     1277     1194     1205     1298     1339 
    1205     1054     1104     1279     1383     1424     1489     1545 
    1555     1532     1463     1378     1333     1302     1263     1223 
    1183     1190     1231     1219     1166     1171     1264     1343 
    1336     1356     1463     1522     1447     1312     1227     1258 
    1350     1394     1389     1382     1386     1401     1417     1424 
    1405     1302     1105      940      915     1001     1159     1345 
    1441     1398     1333     1367     1455     1474     1402     1324 
    1328     1412     1460     1366     1162     1035     1102     1225 
    1220     1127     1097     1190     1370     1514     1487     1302 
    1159     1208     1390     1541     1536     1390     1242     1258 
    1463     1649     1617     1429     1239     1116     1080     1116 
    1206     1332     1381     1298     1239     1308     1402     1402 
    1306     1274     1414     1551     1456     1194     1008     1008 
    1100     1179     1219     1229     1215     1205     1293     1455 
    1547     1528     1463     1413     1386     1324     1251     1264 
    1340     1352     1289     1239     1255     1347     1452     1459 
    1360     1246     1212     1279     1348     1375     1371     1300 
    1151     1000      982     1108     1242     1316     1332     1309 
    1283     1248     1248     1350     1455     1447     1368     1329 
    1348     1395     1479     1539     1472     1323     1216     1208 
    1252     1256     1223     1215     1248     1317     1390     1433 
    1452     1445     1401     1358     1360     1347     1258     1192 
    1254     1383     1451     1383     1231     1128     1117     1132 
    1159     1244     1398     1524     1480     1294     1131     1117 
    1221     1313     1350     1350     1323     1291     1301     1397 
    1518     1544     1483     1424     1391     1324     1182     1051 
    1017     1073     1165     1233     1278     1304     1318     1350 
    1318     1212     1217     1377     1510     1493     1352     1204 
    1117     1117     1197     1328     1478     1575     1555     1470 
    1429     1433     1379     1244     1131     1132     1242     1351 
    1381     1379     1402     1409     1358     1287     1263     1324 
    1371     1225      969      884     1030     1220     1335     1416 
    1490     1478     1391     1350     1374     1422     1464     1447 
    1339     1215     1190     1304     1474     1560     1476     1274 
    1123     1119     1150     1136     1161     1259     1329     1309 
    1256     1279     1371     1401     1331     1256     1250     1336 
    1447     1447     1358     1281     1215     1163     1198     1301 
    1339     1277     1192     1169     1212     1258     1309     1379 
    1432     1453     1440     1374     1291     1263     1291     1293 
    1239     1243     1340     1395     1333     1247     1251     1316 
    1341     1339     1379     1437     1428     1336     1260     1291 
    1356     1358     1358     1418     1470     1401     1224     1082 
    1070     1150     1225     1267     1294     1310     1347     1431 
    1490     1467     1377     1248     1136     1109     1162     1228 
    1278     1331     1412     1472     1447     1358     1281     1251 
    1250     1179     1054     1003     1023     1059     1152     1324 
    1498     1615     1644     1543     1398     1404     1532     1520 
    1289     1073     1092     1309     1526     1584     1506     1429 
    1398     1371     1352     1383     1447     1463     1348     1132 
     978      994     1127     1231     1212     1128     1104     1162 
    1229     1252     1273     1328     1370     1374     1344     1294 
    1301     1422     1571     1628     1549     1399     1304     1291 
    1286     1243     1166     1086     1042     1071     1173     1255 
    1269     1279     1317     1331     1302     1289     1321     1348 
    1340     1335     1351     1337     1267     1237     1351     1530 
    1568     1445     1345     1316     1296     1306     1340     1323 
    1262     1210     1209     1279     1343     1321     1279     1270 
    1285     1333     1405     1443     1391     1312     1306     1360 
    1386     1335     1248     1201     1188     1185     1227     1317 
    1356     1329     1344     1404     1390     1270     1156     1125 
    1105     1094     1200     1413     1591     1599     1482     1404 
    1412     1410     1336     1229     1138     1074     1085     1177 
    1267     1278     1262     1310     1401     1464     1501     1526 
    1526     1468     1340     1194     1139     1212     1301     1329 
    1341     1340     1310     1260     1212     1227     1297     1370 
    1405     1368     1285     1213     1219     1302     1379     1385 
    1316     1259     1273     1309     1352     1368     1282     1125 
    1044     1135     1304     1390     1389     1406     1490     1563 
    1530     1382     1210     1167     1269     1343     1294     1177 
    1089     1109     1247     1399     1422     1335     1251     1244 
    1312     1313     1175     1035     1034     1196     1413     1551 
    1545     1448     1390     1395     1371     1309     1279     1327 
    1387     1375     1341     1345     1360     1316     1181     1062 
    1070     1150     1198     1231     1340     1482     1540     1530 
    1506     1495     1493     1418     1262     1129     1131     1273 
    1416     1433     1348     1283     1290     1287     1228     1202 
    1308     1425     1399     1301     1255     1221     1138     1065 
    1090     1167     1161     1096     1129     1279     1429     1513 
    1514     1399     1239     1225     1381     1521     1525     1422 
    1309     1250     1233     1233     1242     1269     1275     1221 
    1190     1254     1332     1351     1332     1314     1313     1359 
    1455     1529     1529     1439     1286     1165     1124     1173 
    1327     1528     1636     1580     1463     1418     1437     1436 
    1416     1412     1389     1324     1278     1289     1318     1341 
    1370     1377     1391     1489     1595     1601     1557     1560 
    1586     1530     1381     1240     1196     1197     1154     1073 
    1001      993     1094     1220     1256     1212     1125     1031 
     980     1004     1097     1220     1300     1270     1192     1183 
    1244     1279     1231     1119     1020      986      993     1024 
    1120     1286     1416     1431     1421     1482     1528     1474 
    1429     1460     1460     1339     1173     1085     1066     1051 
    1032     1066     1217     1412     1537     1605     1674     1745 
    1750     1664     1551     1441     1368     1382     1464     1548 
    1576     1555     1520     1475     1402     1239      977      747 
     626      548      491      513      657      868     1004     1026 
    1066     1166     1212     1178     1151     1205     1331     1447 
    1533     1614     1705     1772     1737     1609     1449     1318 
    1277     1294     1327     1377     1416     1458     1539     1671 
    1831     1934     1873     1663     1435     1309     1300     1336 
    1341     1310     1316     1432     1649     1844     1863     1688 
    1421     1170     1007      954     1009     1155     1240     1115 
     900      834      976     1248     1609     1937     2030     1807 
    1379      958      699      602      658      868     1094     1232 
    1354     1458     1413     1239     1090     1048     1093     1179 
    1291     1402     1460     1451     1382     1325     1360     1408 
    1386     1339     1217      946      648      522      661     1003 
    1406     1775     2003     2030     1912     1683     1355     1043 
     859      849     1026     1317     1576     1691     1613     1421 
    1247     1138     1115     1169     1193     1132     1061     1020 
    1001     1043     1196     1418     1641     1854     2003     1991 
    1850     1665     1464     1282     1154     1111     1179     1356 
    1618     1910     2097     2085     1921     1695     1378      963 
     575      295      106       25      120      429      880     1324 
    1675     1929     2070     2080     2007     1890     1709     1482 
    1267     1119     1069     1073     1063     1086     1220     1459 
    1706     1800     1655     1328      926      488       67     -170 
     -68      336      884     1490     2068     2474     2623     2520 
    2249     1945     1664     1372     1078      873      878     1117 
    1432     1637     1713     1730     1710     1637     1505     1324 
    1152     1053      994      905      800      774      874     1043 
    1201     1296     1305     1251     1119      895      691      653 
     791     1071     1458     1840     2074     2072     1852     1561 
    1355     1289     1336     1421     1470     1445     1366     1281 
    1237     1258     1337     1459     1588     1687     1738     1745 
    1741     1767     1741     1548     1266     1078      992      895 
     816      850      915      850      673      533      588      957 
    1539     1977     2010     1696     1240      854      704      814 
    1069     1323     1478     1494     1327     1027      819      889 
    1190     1536     1760     1798     1730     1714     1804     1872 
    1784     1587     1379     1197     1030      877      789      803 
     828      801      846     1090     1414     1663     1853     2026 
    2126     2081     1939     1849     1865     1954     2054     2023 
    1763     1350      927      612      510      584      634      545 
     398      303      326      461      600      688      791      969 
    1212     1529     1914     2278     2536     2656     2579     2311 
    2004     1767     1541     1263      977      784      750      846 
     924      862      677      487      391      437      631      935 
    1252     1485     1618     1723     1915     2219     2513     2666 
    2647     2469     2147     1709     1220      781      441      225 
     191      337      591      881     1182     1498     1780     1914 
    1853     1656     1398     1171     1059     1053     1062     1051 
    1065     1115     1146     1142     1197     1332     1404     1350 
    1289     1325     1459     1593     1606     1485     1333     1248 
    1235     1225     1156     1046      970     1023     1213     1372 
    1372     1306     1274     1273     1285     1277     1213     1129 
    1100     1143     1165     1082      923      807      884     1209 
    1665     2046     2241     2278     2226     2134     2034     1929 
    1798     1599     1335     1035      746      546      488      585 
     873     1259     1547     1651     1633     1605     1613     1559 
    1352     1055      785      668      803     1135     1483     1719 
    1773     1607     1298     1046      980     1040     1101     1146 
    1189     1189     1162     1186     1328     1629     1988     2170 
    2052     1768     1549     1466     1420     1374     1406     1522 
    1603     1495     1169      808      662      764      962     1144 
    1227     1120      834      522      318      270      375      604 
     920     1274     1615     1860     1929     1875     1806     1740 
    1660     1551     1406     1282     1215     1181     1170     1200 
    1251     1269     1243     1269     1406     1533     1516     1412 
    1375     1467     1636     1791     1884     1915     1861     1653 
    1285      859      527      432      602      892     1121     1239 
    1337     1433     1420     1321     1274     1310     1360     1395 
    1456     1545     1620     1667     1665     1594     1460     1310 
    1258     1336     1395     1333     1251     1242     1269     1296 
    1328     1337     1298     1224     1165     1148     1142     1112 
    1075     1085     1188     1362     1518     1575     1526     1459 
    1433     1422     1393     1343     1264     1146     1000      847 
     735      750      916     1165     1416     1599     1644     1543 
    1391     1325     1371     1467     1588     1692     1648     1459 
    1279     1181     1138     1125     1163     1260     1354     1374 
    1336     1293     1297     1350     1351     1239     1107     1040 
    1017     1009     1009     1042     1174     1433     1738     1922 
    1880     1695     1502     1379     1355     1417     1498     1503 
    1424     1337     1304     1333     1371     1279      993      638 
     386      326      492      865     1339     1745     1966     2002 
    1914     1756     1549     1327     1129     1015     1020     1084 
    1127     1175     1233     1225     1151     1092     1116     1235 
    1387     1502     1553     1578     1576     1489     1362     1302 
    1298     1270     1151      935      768      814     1026     1216 
    1310     1391     1501     1601     1674     1691     1653     1671 
    1796     1875     1800     1632     1424     1250     1147     1044 
     918      797      704      727      942     1306     1672     1852 
    1813     1663     1506     1409     1352     1251     1125     1063 
    1065     1092     1117     1147     1233     1371     1495     1575 
    1622     1647     1598     1428     1228     1136     1161     1197 
    1169     1082      996     1007     1174     1422     1641     1755 
    1714     1564     1425     1370     1364     1320     1228     1148 
    1080     1009      970      951      905      850      835      861 
     892      930     1007     1142     1329     1530     1684     1763 
    1753     1641     1470     1358     1352     1374     1377     1401 
    1448     1429     1264     1054      967     1046     1232     1441 
    1601     1687     1706     1671     1555     1325     1023      749 
     621      668      792      928     1111     1325     1498     1597 
    1638     1652     1649     1613     1561     1559     1575     1518 
    1413     1370     1449     1617     1794     1899     1840     1605 
    1333     1150     1088     1183     1398     1605     1703     1684 
    1613     1539     1426     1255     1090      967      854      762 
