Origin Time       2025/03/30 10:18:00
Lat.              34.667
Long.             140.825
Depth. (km)       69
Mag.              4.9
Station Code      TKY005
Station Lat.      35.5798
Station Long.     139.4137
Station Height(m) 106
Record Time       2025/03/30 10:19:18
Sampling Freq(Hz) 100Hz
Duration Time(s)  60
Dir.              E-W
Scale Factor      7845(gal)/8223790
Max. Acc. (gal)   1.113
Last Correction   2025/03/30 10:19:18
Memo.             
[...]
    3223     3352     3450     3342     3269     3493     3647     3483 
    3238     3103     3134     3227     3222     3202     3361     3577 
    3442     3010     2890     3242     3645     3785     3589     3207 
    2979     3019     3157     3354     3519     3338     3053     3095 
    3160     3045     3132     3510     3771     3597     3218     3134 
    3389     3527     3352     3303     3538     3550     3226     3019 
    3184     3584     3832     3684     3294     2975     2972     3199 
    3357     3393     3327     3138     2982     2976     3141     3422 
    3638     3631     3404     3218     3165     3041     3030     3334 
    3597     3512     3227     3180     3356     3250     3086     3406 
    3863     3804     3252     2849     3028     3504     3732     3426 
    3017     3132     3488     3501     3254     3190     3449     3528 
    3126     2836     3115     3565     3592     3208     2997     3146 
    3300     3406     3623     3836     3678     3107     2809     3046 
    3339     3511     3531     3412     3288     3181     3233     3346 
    3335     3392     3481     3369     3107     3079     3435     3527 
    3140     3045     3412     3624     3438     3256     3483     3662 
    3163     2581     2880     3700     3971     3478     2893     2803 
    3049     3173     3283     3630     3940     3839     3283     2708 
    2822     3530     3869     3469     3009     3169     3503     3245 
    3018     3437     3713     3414     3003     2930     3242     3534 
    3572     3454     3283     3113     2947     3069     3557     3765 
    3438     3102     3033     3100     3368     3720     3558     2980 
    2899     3366     3507     3190     3175     3489     3481     3260 
    3375     3680     3667     3281     2933     3052     3473     3638 
    3596     3684     3618     3218     2868     2932     3505     3940 
    3439     2697     2744     3276     3492     3129     2920     3408 
    3678     3337     3214     3453     3523     3271     3080     3148 
    3195     3318     3658     3589     3022     2864     3244     3604 
    3765     3514     3025     2988     3397     3615     3450     3248 
    3118     3045     3319     3628     3276     2844     3213     3728 
    3372     2782     3227     4018     3715     2890     2841     3450 
    3846     3527     2914     2944     3500     3727     3396     2947 
    3018     3415     3501     3422     3241     3177     3586     3650 
    3186     3138     3287     3237     3402     3554     3333     3013 
    2891     3152     3466     3487     3588     3643     3248     2949 
    3149     3407     3397     3291     3310     3388     3381     3275 
    3142     3283     3666     3613     3152     3033     3272     3361 
    3271     3276     3280     3117     3106     3368     3442     3177 
    3025     3311     3719     3721     3433     3222     3132     3204 
    3304     3358     3577     3624     3306     3188     3338     3343 
    3223     3198     3267     3260     3171     3115     3156     3389 
    3484     3129     3010     3412     3697     3731     3516     3176 
    3233     3419     3341     3339     3446     3439     3302     3087 
    3127     3481     3688     3620     3406     3113     2941     2991 
    3292     3608     3418     3010     3013     3227     3388     3416 
    3219     3032     3145     3546     3678     3343     3233     3323 
    3237     3213     3199     3272     3666     3793     3318     2909 
    3048     3426     3565     3434     3289     3163     3149     3456 
    3669     3537     3380     3195     3076     3148     3254     3422 
    3458     3229     2978     2864     3076     3531     3677     3373 
    3159     3169     3160     3234     3277     3407     3763     3654 
    3337     3449     3460     3173     3049     3412     3802     3493 
    3041     3126     3493     3651     3337     3175     3523     3611 
    3288     3092     3118     3150     3115     3113     3187     3300 
    3137     2884     3188     3493     3330     3175     3181     3462 
    3642     3294     3011     3208     3735     4001     3586     3203 
    3238     3333     3438     3366     3138     3250     3441     3267 
    2988     2821     2918     3362     3635     3460     3327     3457 
    3600     3573     3291     3140     3393     3484     3281     3253 
    3431     3599     3393     2963     3064     3472     3551     3453 
    3244     3013     3123     3311     3240     3150     3172     3244 
    3337     3404     3318     3048     2941     3165     3420     3468 
    3302     3161     3307     3649     3707     3314     3146     3484 
    3692     3565     3410     3338     3322     3280     3221     3306 
    3435     3461     3499     3412     3141     3028     3080     3154 
    3272     3337     3331     3256     3203     3284     3230     3171 
    3427     3470     3163     3225     3518     3468     3345     3318 
    3154     3036     3208     3495     3574     3468     3445     3449 
    3356     3300     3327     3343     3253     3123     3159     3271 
    3275     3217     3241     3515     3750     3574     3358     3375 
    3343     3091     2852     3024     3473     3667     3457     3148 
    3041     3159     3391     3415     3221     3441     3736     3360 
    3064     3288     3296     3177     3304     3285     3161     3261 
    3342     3383     3503     3360     3090     3183     3333     3121 
    3082     3464     3462     3091     3241     3650     3628     3543 
    3626     3369     3075     3365     3607     3323     3095     3160 
    3335     3524     3501     3235     3083     3240     3402     3330 
    3262     3240     3064     3059     3420     3555     3206     3009 
    3249     3469     3516     3553     3429     3214     3202     3262 
    3265     3276     3248     3202     3163     3105     3149     3472 
    3923     3936     3389     2937     3021     3358     3526     3456 
    3272     3152     3211     3237     3080     3011     3186     3414 
    3493     3442     3499     3667     3555     3183     3034     3203 
    3411     3507     3416     3226     3249     3457     3531     3501 
    3478     3288     2994     2972     3214     3373     3333     3190 
    3171     3426     3592     3302     2983     3256     3677     3449 
    3038     3100     3245     3225     3306     3501     3601     3499 
    3325     3192     3092     3149     3412     3596     3516     3395 
    3388     3323     3148     3026     3080     3211     3196     3111 
    3179     3319     3338     3249     3221     3252     3252     3250 
    3342     3622     3703     3273     3036     3389     3746     3677 
    3279     3014     3157     3431     3541     3469     3397     3395 
    3346     3325     3427     3489     3358     3160     3184     3373 
    3384     3262     3207     3150     3110     3072     2970     3133 
    3537     3601     3416     3346     3304     3281     3368     3481 
    3495     3337     3122     3118     3339     3414     3195     3053 
    3190     3393     3523     3492     3172     2857     3021     3453 
    3603     3460     3356     3385     3338     3203     3292     3520 
    3615     3584     3430     3316     3269     3179     3291     3400 
    3223     3152     3190     3218     3310     3181     3091     3350 
    3450     3397     3342     3072     3136     3553     3524     3381 
    3464     3339     3175     3234     3500     3796     3662     3260 
    3045     3141     3477     3485     3248     3488     3677     3260 
    2945     3218     3468     3118     2970     3504     3574     3021 
    2905     3200     3391     3446     3323     3180     3252     3227 
    3065     3233     3492     3321     3156     3524     3734     3222 
    2897     3149     3335     3603     3877     3384     2550     2548 
    3377     3709     3163     3032     3330     3144     3154     3635 
    3734     3596     3554     3306     3132     3429     3846     3863 
    3450     3103     3048     3186     3488     3518     3298     3423 
    3554     3372     3294     3204     3010     3222     3692     3572 
    2879     2729     3321     3565     3171     2866     3044     3316 
    3218     3082     3198     3229     3223     3331     3306     3260 
    3400     3595     3688     3547     3268     3194     3418     3620 
    3589     3547     3507     3403     3456     3491     3279     3041 
    3029     3253     3397     3306     3294     3420     3312     2983 
    2914     3215     3531     3613     3370     2875     2685     3102 
    3485     3441     3325     3280     3304     3451     3531     3377 
    3123     3198     3686     3777     3242     2951     3057     3221 
    3458     3631     3542     3261     3246     3585     3557     3268 
    3379     3503     3300     3229     3368     3281     3084     3302 
    3688     3551     3200     3190     3137     3132     3600     3835 
    3368     2828     2845     3337     3592     3403     3184     3049 
    3065     3268     3219     2960     3125     3323     3021     3078 
    3670     3688     3146     3005     3289     3411     3369     3424 
    3412     3327     3499     3713     3601     3346     3150     3145 
    3383     3481     3307     3167     3134     3279     3453     3292 
    3129     3267     3341     3299     3299     3229     3145     3240 
    3465     3505     3279     3238     3503     3576     3385     3311 
    3326     3349     3496     3505     3141     2905     3237     3658 
    3572     3267     3288     3559     3592     3103     2600     2833 
    3524     3831     3550     3146     3134     3510     3809     3835 
    3632     3273     3271     3801     4067     3657     3153     3146 
    3488     3543     3194     3037     3257     3406     3316     3231 
    3240     3192     3088     3095     3240     3289     3150     3202 
    3397     3187     3006     3429     3634     3175     2982     3343 
    3653     3611     3179     2716     2751     3061     3219     3218 
    3144     3125     3033     2771     2910     3450     3500     3114 
    3144     3483     3611     3574     3437     3346     3592     3854 
    3707     3381     3125     2991     3078     3044     2764     2944 
    3582     3748     3343     3168     3539     3956     3916     3589 
    3508     3712     3740     3412     3042     2998     3280     3495 
    3327     3061     3071     3184     3094     2855     2763     2907 
    3051     3038     2845     2589     2683     3141     3260     2802 
    2494     2809     3319     3515     3492     3572     3761     3924 
    4051     4050     3943     4043     4302     4271     3908     3561 
    3462     3445     3160     2887     2963     2941     2866     3229 
    3478     3281     3385     3731     3580     3100     2876     3003 
    3137     3059     2965     3106     3376     3416     3330     3522 
    3828     3906     3775     3446     2926     2637     2847     3134 
    3254     3311     3237     3159     3186     3117     3073     3279 
    3493     3407     3188     3121     3123     3125     3198     3338 
    3493     3650     3852     4005     4016     3943     3778     3642 
    3591     3379     3045     2863     2947     3173     3179     2910 
    2716     2863     3194     3262     3053     2794     2690     3130 
    3703     3624     3262     3195     3337     3446     3496     3657 
    3716     3434     3260     3396     3558     3689     3709     3645 
    3836     4170     4120     3653     3172     2918     2825     2866 
    3079     3115     2821     2762     3103     3291     3099     2876 
    2959     3221     3310     3176     2960     2895     3190     3493 
    3496     3542     3775     3997     4201     4221     3774     3165 
    2940     3022     2974     2683     2363     2380     2963     3724 
    3996     3747     3484     3454     3492     3393     3214     3096 
    3022     3003     3063     3094     3165     3385     3535     3501 
    3543     3796     4017     3904     3618     3619     3865     3937 
    3685     3215     2790     2686     2902     3071     2844     2473 
    2540     3037     3402     3376     3181     3084     3195     3383 
    3368     3217     3292     3582     3750     3738     3771     3996 
    4205     4014     3429     2898     2781     3002     3235     3296 
    3225     3126     3072     3133     3316     3501     3565     3422 
    3087     2803     2745     2821     2863     2781     2647     2620 
    2770     3069     3450     3831     4131     4240     4203     4136 
    3989     3782     3670     3599     3445     3307     3280     3271 
    3252     3288     3331     3307     3254     3244     3249     3168 
    2979     2868     2983     3235     3464     3580     3569     3480 
    3449     3510     3510     3379     3134     2903     2944     3175 
    3265     3188     3119     3169     3288     3387     3489     3580 
    3585     3457     3229     3086     3092     3115     3057     2878 
    2682     2624     2710     2871     2968     2983     3088     3291 
    3508     3748     3935     3991     4009     4097     4164     4058 
    3769     3424     3195     3129     3129     3210     3427     3619 
    3688     3728     3704     3616     3549     3373     3069     2810 
    2600     2450     2436     2502     2663     2948     3222     3462 
    3731     3854     3686     3418     3244     3102     2922     2828 
    2901     3067     3242     3376     3464     3626     3966     4328 
    4483     4421     4201     3858     3497     3206     3030     3044 
    3148     3117     2926     2729     2686     2853     3140     3416 
    3561     3542     3484     3497     3511     3385     3153     2953 
    2817     2767     2830     2890     2943     3180     3546     3793 
    3844     3762     3627     3447     3211     2990     2840     2790 
    2914     3175     3343     3295     3184     3196     3381     3611 
    3682     3581     3483     3538     3704     3801     3780     3705 
    3581     3422     3316     3291     3265     3219     3195     3137 
    2978     2795     2677     2608     2585     2619     2690     2805 
    2968     3204     3481     3693     3773     3681     3541     3555 
    3632     3646     3673     3719     3805     3964     4047     3917 
    3619     3331     3173     3106     3099     3172     3287     3322 
    3200     3041     3005     3079     3214     3411     3599     3657 
    3527     3241     2922     2710     2679     2872     3164     3299 
    3213     3118     3208     3441     3662     3797     3813     3738 
    3627     3457     3267     3248     3469     3716     3821     3815 
    3757     3684     3561     3350     3133     2963     2860     2837 
    2855     2951     3149     3350     3503     3595     3581     3481 
    3322     3136     3028     2983     2895     2829     2830     2798 
    2767     2798     2844     2926     3026     3144     3379     3646 
    3784     3815     3770     3670     3632     3699     3804     3867 
    3802     3639     3481     3333     3213     3191     3203     3186 
    3199     3211     3123     3025     3082     3246     3379     3441 
    3434     3319     3138     3107     3330     3624     3765     3676 
    3477     3304     3130     2924     2776     2779     2871     2880 
    2782     2728     2794     2936     3134     3361     3531     3612 
    3661     3743     3859     3946     4009     4098     4072     3866 
    3686     3649     3650     3592     3538     3515     3356     3051 
    2774     2612     2644     2851     3038     3083     3001     2901 
    2878     2940     3026     3073     3087     3061     2953     2876 
    2936     3088     3307     3489     3550     3616     3704     3713 
    3662     3555     3433     3400     3473     3632     3827     3963 
    4068     4143     4051     3766     3385     3025     2786     2708 
    2752     2824     2849     2911     3094     3333     3535     3685 
    3773     3744     3634     3526     3426     3342     3280     3142 
    2909     2774     2925     3214     3339     3296     3281     3303 
    3204     3011     2879     2802     2787     2894     3007     3119 
    3334     3553     3703     3877     4121     4380     4455     4244 
    3943     3732     3550     3235     2825     2593     2647     2860 
    3168     3519     3763     3708     3334     2967     2812     2737 
    2709     2798     2959     3080     3083     3006     2949     3026 
    3271     3465     3453     3420     3461     3396     3262     3269 
    3380     3434     3404     3370     3397     3460     3577     3762 
    3874     3848     3707     3480     3319     3329     3437     3561 
    3662     3705     3654     3531     3454     3473     3500     3441 
    3237     2902     2562     2382     2350     2304     2246     2265 
    2409     2782     3330     3730     3754     3591     3528     3518 
    3461     3451     3492     3485     3462     3535     3734     3944 
    4059     4062     3993     3905     3848     3808     3663     3384 
    3094     2874     2731     2658     2647     2709     2806     2884 
    2921     2863     2845     3075     3385     3615     3831     3977 
    4005     4008     3974     3852     3632     3349     3142     3125 
    3250     3385     3454     3373     3078     2770     2743     2975 
    3250     3415     3426     3337     3249     3273     3387     3458 
    3485     3466     3316     3137     3048     3028     3140     3354 
    3473     3450     3349     3175     2932     2714     2655     2791 
    3029     3192     3194     3186     3299     3450     3554     3586 
    3557     3591     3726     3738     3557     3381     3334     3387 
    3406     3361     3426     3607     3735     3796     3881     3978 
    3982     3854     3682     3527     3334     3095     2870     2690 
    2547     2442     2485     2743     3053     3306     3530     3649 
    3539     3253     2968     2859     2953     3114     3190     3179 
    3157     3181     3287     3501     3775     3927     3832     3657 
    3538     3445     3441     3488     3399     3221     3067     2957 
    2925     2913     2984     3156     3152     2968     2875     2911 
    2980     3046     3141     3299     3520     3744     3915     4017 
    4072     4147     4170     4032     3815     3592     3446     3419 
    3331     3121     2916     2816     2871     2947     2932     2982 
    3140     3234     3183     3063     2986     2976     2990     3049 
    3222     3446     3570     3582     3578     3577     3551     3504 
    3453     3372     3272     3217     3199     3179     3142     3109 
    3106     3125     3206     3369     3465     3460     3453     3393 
    3287     3261     3273     3253     3234     3249     3322     3404 
    3434     3485     3562     3586     3584     3546     3466     3396 
    3306     3187     3107     3086     3110     3173     3292     3458 
    3565     3570     3526     3464     3411     3353     3249     3103 
    2967     2897     2948     3130     3358     3539     3692     3835 
    3943     3991     3935     3813     3750     3673     3472     3231 
    2995     2782     2695     2766     2884     2943     2983     3082 
    3200     3252     3217     3200     3250     3268     3238     3196 
    3138     3153     3294     3473     3628     3715     3755     3759 
