Origin Time       2025/03/30 10:18:00
Lat.              34.667
Long.             140.825
Depth. (km)       69
Mag.              4.9
Station Code      TKY010
Station Lat.      34.3779
Station Long.     139.2573
Station Height(m) 16
Record Time       2025/03/30 10:18:56
Sampling Freq(Hz) 100Hz
Duration Time(s)  73
Dir.              U-D
Scale Factor      7845(gal)/8223790
Max. Acc. (gal)   1.960
Last Correction   2025/03/30 10:18:55
Memo.             
[...]
    7233     7195     7260     7253     7026     6853     6836     6837 
    6898     7038     7132     7182     7223     7209     7163     7138 
    7122     7079     6961     6817     6755     6799     6914     7002 
    6974     6929     6986     7037     6984     6901     6880     6982 
    7107     7068     7010     7140     7240     7144     7034     7041 
    7094     7123     7113     7009     6774     6489     6336     6411 
    6602     6747     6835     6960     7133     7348     7611     7781 
    7778     7719     7623     7377     7026     6774     6702     6702 
    6632     6475     6390     6523     6829     7160     7314     7164 
    6890     6774     6886     7114     7312     7323     7114     6886 
    6863     6984     7122     7342     7619     7697     7460     7079 
    6756     6593     6548     6474     6390     6536     6901     7187 
    7290     7350     7391     7269     7025     6907     7026     7155 
    7061     6860     6754     6716     6673     6701     6955     7395 
    7672     7531     7161     6856     6745     6866     7024     6930 
    6704     6623     6660     6716     6810     6920     6998     7088 
    7250     7402     7384     7203     7033     6990     7006     6963 
    6901     6916     6906     6799     6785     6970     7136     7082 
    6899     6848     7047     7342     7500     7446     7326     7271 
    7183     6972     6775     6682     6651     6733     6953     7106 
    7026     6887     6902     7030     7171     7219     7065     6810 
    6686     6731     6832     6912     6966     7040     7098     7040 
    6941     6930     6994     7072     7064     6930     6822     6882 
    7106     7349     7387     7179     6948     6916     7091     7276 
    7319     7250     7156     7126     7190     7230     7192     7115 
    6986     6852     6783     6705     6644     6758     6983     7122 
    7165     7157     7020     6785     6640     6596     6606     6847 
    7258     7465     7365     7103     6859     6872     7119     7272 
    7237     7159     7055     6964     6959     6905     6737     6624 
    6623     6644     6642     6606     6606     6816     7245     7557 
    7537     7404     7308     7153     7032     7101     7167     7044 
    6945     7032     7128     7129     7064     6936     6844     6903 
    7075     7219     7249     7231     7214     7076     6808     6606 
    6596     6697     6790     6817     6805     6890     7117     7337 
    7442     7447     7306     7024     6820     6775     6733     6659 
    6659     6760     6943     7188     7430     7561     7511     7310 
    7045     6825     6767     6839     6858     6789     6767     6822 
    6901     6960     6924     6820     6802     6922     7122     7327 
    7412     7319     7114     6832     6559     6521     6760     7065 
    7303     7415     7348     7261     7317     7349     7207     7014 
    6906     6893     6922     6943     6948     6952     6944     6953 
    7001     6995     6902     6844     6845     6785     6714     6783 
    6959     7219     7565     7738     7530     7111     6762     6637 
    6779     7038     7167     7075     6878     6720     6678     6795 
    7071     7369     7430     7106     6666     6536     6721     6934 
    7014     6917     6763     6781     6912     6968     6997     7091 
    7223     7322     7277     7094     6941     6924     6983     7025 
    7018     6920     6745     6712     6939     7238     7402     7352 
    7150     7041     7118     7206     7238     7283     7311     7290 
    7194     7002     6829     6786     6782     6751     6822     7028 
    7152     7079     6967     6940     6952     6987     7061     7142 
    7153     6980     6717     6687     6928     7156     7223     7141 
    6970     6837     6817     6821     6741     6639     6629     6685 
    6779     6943     7117     7246     7318     7250     7090     7055 
    7130     7113     7007     6945     6948     6979     6994     6963 
    6929     6948     7036     7209     7395     7442     7308     7107 
    6982     7044     7230     7330     7258     7074     6805     6513 
    6334     6377     6654     7065     7438     7574     7402     7084 
    6847     6768     6835     6914     6841     6723     6810     7057 
    7230     7223     7075     6906     6818     6791     6783     6839 
    6986     7180     7352     7354     7137     6921     6862     6907 
    7009     7086     7051     7018     7141     7325     7358     7180 
    6934     6808     6852     7022     7229     7290     7121     6948 
    6982     7065     7003     6922     6930     6910     6860     6903 
    6963     6934     6920     6968     6995     7025     7086     7092 
    7033     6948     6818     6660     6546     6540     6735     7074 
    7269     7209     7075     6948     6841     6867     6971     6970 
    6934     7007     7150     7300     7450     7561     7534     7364 
    7214     7141     7028     6849     6667     6474     6308     6340 
    6660     7074     7303     7326     7287     7233     7137     7037 
    7063     7252     7399     7325     7146     7034     7001     6991 
    6968     6913     6860     6848     6824     6747     6694     6748 
    6885     6999     7047     7060     7057     7063     7115     7177 
    7169     7083     6997     6937     6833     6696     6677     6789 
    6890     6983     7110     7191     7214     7250     7283     7276 
    7279     7341     7407     7368     7240     7103     6940     6791 
    6778     6871     6941     6922     6789     6648     6705     6976 
    7221     7209     6980     6774     6733     6820     6943     7042 
    7096     7071     6982     6983     7111     7202     7188     7096 
    6930     6795     6813     6910     6960     6932     6864     6833 
    6893     6990     7045     7078     7128     7155     7088     6918 
    6808     6913     7121     7173     7049     6941     6956     7098 
    7276     7298     7126     7009     7065     7090     7006     6968 
    6945     6813     6681     6731     6972     7257     7408     7329 
    7098     6922     6893     6918     6955     7014     7037     6988 
    6922     6949     7169     7445     7501     7327     7099     6899 
    6843     6975     7082     6993     6767     6467     6193     6205 
    6598     7080     7335     7361     7265     7146     7138     7237 
    7277     7156     6936     6798     6833     6941     7001     6979 
    6932     6912     6917     6988     7106     7176     7210     7198 
    7080     7015     7094     7088     6929     6817     6844     6974 
    7161     7296     7275     7106     6839     6538     6405     6621 
    7024     7295     7338     7236     7122     7086     7083     7095 
    7186     7290     7230     6988     6741     6670     6808     7018 
    7122     7057     6956     6975     7053     7040     6929     6771 
    6662     6713     6874     7020     7142     7242     7306     7342 
    7267     7072     6920     6890     6907     6917     6963     7064 
    7102     6970     6767     6679     6782     6980     7088     7003 
    6856     6851     6971     7036     7006     6983     7022     7078 
    7096     7109     7130     7059     6870     6736     6870     7219 
    7462     7414     7249     7171     7138     7061     6945     6817 
    6735     6799     6974     7121     7182     7119     6918     6739 
    6789     7045     7307     7446     7449     7361     7244     7118 
    6994     6880     6783     6754     6798     6856     6948     7052 
    7011     6814     6713     6863     7088     7150     7063     6968 
    6898     6851     6840     6851     6902     6966     6936     6853 
    6860     6960     7069     7148     7172     7105     6978     6912 
    6910     6894     6956     7209     7522     7685     7658     7469 
    7137     6871     6937     7225     7281     6917     6467     6326 
    6488     6735     6894     6879     6790     6806     6901     6976 
    7092     7295     7439     7384     7230     7198     7272     7231 
    6979     6628     6359     6313     6558     6943     7134     7071 
    7014     7121     7321     7418     7263     6968     6785     6843 
    7072     7234     7184     7036     6917     6862     6913     7065 
    7191     7169     7011     6859     6847     6995     7206     7307 
    7269     7230     7175     7051     7022     7098     7025     6809 
    6791     7052     7238     7083     6701     6369     6307     6548 
    6808     6732     6480     6529     6936     7353     7539     7458 
    7231     7045     6939     6836     6775     6925     7303     7589 
    7514     7231     7017     6994     7218     7572     7709     7456 
    7042     6802     6737     6635     6552     6656     6787     6781 
    6739     6744     6874     7217     7519     7449     7094     6786 
    6716     6822     6952     7032     7021     6914     6876     7014 
    7074     6818     6442     6331     6710     7395     7850     7778 
    7366     6939     6662     6594     6774     7130     7460     7611 
    7591     7456     7256     7075     6987     7033     7167     7118 
    6727     6388     6466     6705     6853     7006     7107     7057 
    7056     7269     7564     7636     7304     6697     6141     5973 
    6351     7005     7473     7605     7418     6826     6004     5553 
    5883     6659     7202     7269     7144     7138     7314     7508 
    7547     7446     7430     7627     7778     7523     6833     5972 
    5448     5830     7080     8326     8688     8054     6971     6199 
    6255     6968     7574     7550     7149     6880     6833     6853 
    6849     6752     6637     6770     7209     7680     7844     7489 
    6794     6331     6440     6924     7414     7564     7125     6218 
    5375     5171     5740     6660     7381     7649     7461     7038 
    6816     7078     7651     8122     8275     8303     8448     8561 
    8271     7423     6413     5892     5984     6332     6748     7038 
    6917     6538     6384     6592     6970     7357     7578     7497 
    7195     6743     6201     5872     5844     5780     5665     5913 
    6621     7537     8376     8734     8343     7623     7190     7051 
    7013     7176     7396     7281     6925     6701     6667     6772 
    6948     6952     6750     6658     6812     7020     7130     7146 
    7040     6778     6471     6300     6386     6654     6917     7269 
    7812     8164     8012     7692     7584     7418     6771     5867 
    5432     5803     6588     7277     7635     7560     7218     7025 
    7164     7419     7582     7696     7740     7550     7103     6430 
    5624     5147     5452     6421     7585     8548     9034     8849 
    7977     6690     5630     5379     5861     6567     7128     7380 
    7339     7168     7022     7013     7163     7437     7774     7981 
    7834     7325     6662     6212     6254     6620     6883     6875 
    6717     6570     6543     6635     6785     6991     7275     7565 
    7668     7479     7256     7310     7506     7449     6967     6247 
    5763     5929     6697     7626     8333     8627     8407     7742 
    6917     6203     5764     5746     6150     6685     6987     6926 
    6642     6413     6471     6798     7125     7161     6786     6274 
    6141     6515     7051     7508     7911     8229     8240     7753 
    6988     6532     6772     7453     7931     7861     7392     6848 
    6451     6242     6196     6376     6814     7321     7628     7623 
    7419     7206     7034     6856     6716     6772     7095     7447 
    7519     7329     7084     6874     6621     6313     6122     6197 
    6501     6921     7352     7678     7789     7632     7280     6864 
    6520     6373     6454     6675     6978     7281     7400     7277 
    7040     6698     6285     6115     6365     6741     6978     7171 
    7392     7500     7488     7496     7558     7578     7423     7087 
    6716     6455     6380     6465     6673     7002     7404     7834 
    8212     8310     7970     7338     6660     6085     5790     5992 
    6662     7380     7676     7431     6941     6659     6808     7271 
    7804     8113     7955     7439     6902     6488     6161     5946 
    5904     6053     6382     6705     6669     6204     5652     5391 
    5616     6339     7377     8313     8722     8548     8085     7580 
    7209     7245     7703     8145     8216     7996     7674     7230 
    6593     5903     5472     5595     6354     7438     8326     8584 
    8056     7114     6467     6396     6520     6528     6604     6901 
    7213     7263     6926     6335     5815     5576     5632     5981 
    6532     7071     7410     7465     7314     7146     7091     7160 
    7287     7379     7437     7608     7939     8239     8294     7982 
    7356     6794     6662     6930     7284     7392     7175     6820 
    6512     6397     6547     6847     7114     7248     7261     7177 
    7020     6925     7033     7287     7508     7546     7330     6895 
    6382     5931     5697     5790     6126     6489     6706     6704 
    6550     6507     6751     7072     7156     6991     6778     6732 
    6936     7271     7577     7735     7674     7466     7304     7268 
    7252     7172     7110     7161     7304     7462     7565     7550 
    7431     7227     6957     6756     6755     6886     7028     7121 
    7152     7145     7121     7014     6825     6705     6777     7009 
    7279     7491     7573     7431     6978     6205     5362     4954 
    5238     5946     6678     7190     7381     7319     7175     7079 
    7125     7304     7510     7690     7901     8148     8283     8159 
    7831     7483     7191     6876     6517     6277     6246     6280 
    6247     6242     6462     6932     7364     7477     7312     7110 
    7087     7253     7341     7111     6646     6227     6116     6405 
    6967     7542     7877     7834     7461     6995     6673     6515 
    6475     6647     7017     7354     7503     7500     7404     7223 
    6987     6813     6818     6941     7001     6926     6836     6798 
    6706     6542     6461     6500     6559     6616     6735     6979 
    7338     7649     7761     7692     7523     7287     7021     6832 
    6772     6758     6700     6667     6791     7033     7234     7317 
    7271     7152     7055     6960     6785     6621     6674     6922 
    7148     7253     7330     7447     7570     7600     7489     7279 
    6976     6633     6448     6507     6667     6831     6971     6986 
    6829     6685     6721     6917     7204     7489     7634     7584 
    7352     6964     6559     6372     6471     6669     6820     6979 
    7192     7458     7709     7780     7611     7330     7080     6941 
    6893     6836     6752     6693     6608     6511     6590     6829 
    7025     7119     7122     7029     6872     6698     6571     6589 
    6771     6980     7060     7024     6936     6845     6867     7033 
    7160     7183     7248     7344     7334     7271     7249     7187 
    7048     6968     6959     6955     7021     7084     6993     6880 
    6880     6891     6891     6966     7118     7261     7311     7296 
    7308     7341     7329     7264     7194     7150     7114     7041 
    6934     6848     6817     6855     6914     6866     6675     6500 
    6451     6501     6619     6822     7075     7245     7261     7206 
    7182     7161     7053     6835     6575     6413     6496     6812 
    7149     7308     7298     7218     7125     7091     7149     7207 
    7225     7272     7376     7493     7564     7551     7504     7412 
    7203     6963     6806     6710     6648     6594     6516     6498 
    6619     6799     6921     6943     6952     6979     6887     6644 
    6403     6332     6532     6895     7153     7160     6975     6744 
    6635     6763     7074     7433     7765     7935     7820     7589 
    7476     7462     7483     7565     7623     7433     7030     6713 
    6575     6551     6623     6725     6793     6852     6936     7013 
    7011     6880     6677     6516     6455     6498     6575     6571 
    6552     6717     7009     7231     7339     7377     7385     7388 
    7393     7404     7411     7392     7304     7110     6867     6751 
    6833     6972     7001     6901     6837     6975     7217     7360 
    7358     7249     7099     7021     7007     6974     6963     7048 
    7144     7111     6912     6666     6528     6519     6558     6592 
    6597     6570     6565     6644     6794     6955     7091     7221 
    7333     7357     7334     7323     7304     7299     7285     7191 
    7051     6940     6907     6947     6948     6878     6848     6920 
    7049     7182     7267     7252     7175     7149     7231     7354 
    7396     7321     7177     7065     7047     7067     7053     7007 
    6980     6941     6804     6629     6571     6681     6902     7069 
    7064     6934     6783     6706     6747     6848     6956     7065 
    7184     7329     7422     7366     7231     7122     7036     6953 
    6870     6772     6724     6740     6705     6598     6534     6538 
    6588     6694     6837     6979     7094     7167     7187     7183 
    7149     7009     6798     6755     6993     7348     7605     7663 
    7534     7304     7063     6889     6867     6966     7042     7057 
    7063     7071     7057     6994     6875     6770     6774     6880 
    7007     7068     7011     6901     6898     7049     7244     7362 
    7349     7230     7090     7003     7018     7109     7142     7056 
    6956     6945     7007     7074     7096     7074     7028     6972 
    6894     6798     6758     6826     6956     7041     7045     7038 
    7068     7086     7084     7059     6897     6601     6381     6358 
    6485     6656     6785     6876     6964     7040     7130     7217 
    7226     7191     7176     7211     7321     7441     7462     7416 
    7388     7346     7264     7179     7055     6871     6733     6704 
    6705     6669     6606     6559     6617     6806     6979     7034 
    7048     7084     7137     7177     7176     7153     7177     7271 
    7377     7407     7329     7195     7051     6914     6829     6844 
    6960     7110     7179     7102     6933     6751     6633     6691 
    6898     7109     7267     7348     7314     7245     7213     7149 
    7045     6986     6964     6929     6916     6948     6956     6895 
    6812     6758     6772     6844     6907     6959     7036     7102 
    7105     7055     6993     6959     6963     6963     6926     6890 
    6878     6864     6833     6799     6818     6902     6987     7060 
    7125     7145     7133     7110     7059     6995     6959     6967 
    6994     6987     6922     6828     6771     6809     6933     7090 
    7203     7245     7254     7226     7152     7078     7029     7026 
    7056     7021     6964     7034     7173     7245     7222     7119 
    7024     7013     7051     7095     7128     7119     7087     7049 
    6986     6895     6847     6912     7060     7219     7308     7287 
    7198     7090     6995     6948     6914     6845     6747     6682 
    6697     6763     6845     6894     6848     6774     6785     6875 
    6997     7083     7068     6960     6825     6725     6674     6642 
