Origin Time       2025/03/30 10:18:00
Lat.              34.667
Long.             140.825
Depth. (km)       69
Mag.              4.9
Station Code      TKY005
Station Lat.      35.5798
Station Long.     139.4137
Station Height(m) 106
Record Time       2025/03/30 10:19:18
Sampling Freq(Hz) 100Hz
Duration Time(s)  60
Dir.              N-S
Scale Factor      7845(gal)/8223790
Max. Acc. (gal)   1.592
Last Correction   2025/03/30 10:19:18
Memo.             
[...]
   -6636    -6567    -6475    -6548    -6701    -6700    -6528    -6399 
   -6463    -6644    -6750    -6664    -6346    -6015    -6010    -6235 
   -6426    -6538    -6458    -6195    -6124    -6303    -6376    -6372 
   -6544    -6733    -6687    -6566    -6565    -6624    -6658    -6566 
   -6358    -6292    -6378    -6394    -6323    -6222    -6210    -6373 
   -6524    -6542    -6546    -6475    -6239    -6115    -6316    -6639 
   -6856    -6814    -6436    -6068    -6108    -6434    -6706    -6743 
   -6567    -6367    -6268    -6234    -6304    -6551    -6736    -6652 
   -6528    -6488    -6438    -6424    -6473    -6490    -6430    -6363 
   -6358    -6376    -6362    -6295    -6365    -6546    -6442    -6280 
   -6358    -6347    -6270    -6331    -6466    -6669    -6813    -6685 
   -6394    -6330    -6588    -6763    -6594    -6326    -6249    -6324 
   -6365    -6288    -6189    -6197    -6219    -6143    -6174    -6412 
   -6588    -6515    -6307    -6312    -6702    -7029    -6934    -6700 
   -6534    -6462    -6554    -6593    -6412    -6265    -6421    -6670 
   -6520    -6196    -6313    -6585    -6450    -6195    -6257    -6489 
   -6544    -6369    -6249    -6370    -6534    -6567    -6594    -6592 
   -6338    -6037    -6153    -6548    -6728    -6659    -6574    -6488 
   -6326    -6228    -6392    -6594    -6542    -6459    -6432    -6293 
   -6208    -6261    -6423    -6624    -6552    -6350    -6393    -6423 
   -6296    -6442    -6739    -6615    -6339    -6372    -6450    -6342 
   -6285    -6493    -6677    -6529    -6363    -6372    -6401    -6431 
   -6416    -6500    -6741    -6698    -6523    -6598    -6482    -6192 
   -6308    -6632    -6593    -6292    -6282    -6477    -6380    -6231 
   -6405    -6700    -6829    -6623    -6282    -6272    -6412    -6219 
   -6002    -6242    -6540    -6444    -6261    -6258    -6328    -6401 
   -6316    -6166    -6390    -6802    -6905    -6725    -6531    -6609 
   -6775    -6542    -6285    -6431    -6590    -6532    -6374    -6299 
   -6434    -6578    -6582    -6579    -6558    -6457    -6435    -6320 
   -6066    -6126    -6309    -6270    -6205    -6178    -6145    -6089 
   -6093    -6420    -6849    -6874    -6610    -6419    -6420    -6602 
   -6701    -6660    -6637    -6453    -6293    -6525    -6678    -6577 
   -6577    -6417    -6158    -6426    -6893    -6816    -6354    -6053 
   -6157    -6408    -6438    -6469    -6647    -6594    -6253    -5999 
   -6057    -6328    -6431    -6326    -6432    -6643    -6534    -6343 
   -6606    -6971    -6671    -6124    -6205    -6696    -6713    -6149 
   -6123    -6853    -6916    -6223    -6154    -6781    -7001    -6520 
   -6033    -6025    -6335    -6430    -6153    -5995    -6165    -6392 
   -6517    -6539    -6527    -6581    -6546    -6382    -6474    -6789 
   -6845    -6689    -6484    -6208    -6237    -6474    -6401    -6490 
   -6897    -6659    -5992    -5938    -6308    -6647    -6863    -6629 
   -6151    -6181    -6669    -6844    -6552    -6232    -6210    -6481 
   -6565    -6210    -6184    -6805    -6893    -6192    -6014    -6575 
   -6924    -6639    -6188    -6157    -6265    -6133    -6238    -6598 
   -6453    -6072    -6300    -6687    -6534    -6218    -6291    -6779 
   -6944    -6200    -5778    -6669    -7396    -6817    -6073    -6146 
   -6583    -6720    -6299    -5865    -6177    -6732    -6652    -6243 
   -6228    -6436    -6465    -6490    -6411    -6399    -6926    -7148 
   -6604    -6188    -6097    -6154    -6403    -6516    -6494    -6637 
   -6612    -6203    -5756    -5620    -6150    -7060    -7357    -6906 
   -6551    -6471    -6173    -5952    -6318    -6822    -6853    -6507 
   -6238    -6308    -6606    -6671    -6332    -6033    -6092    -6355 
   -6628    -6891    -6825    -6189    -5649    -5890    -6646    -7137 
   -6983    -6590    -6454    -6430    -6270    -6282    -6604    -6723 
   -6363    -6119    -6408    -6544    -6257    -6161    -6184    -6231 
   -6516    -6608    -6335    -6065    -5902    -5886    -6145    -6689 
   -7319    -7402    -6691    -6025    -6043    -6531    -6951    -7207 
   -7408    -6882    -5794    -5512    -6058    -6489    -6625    -6824 
   -7040    -6713    -5825    -5242    -5602    -6313    -6602    -6701 
   -6804    -6859    -6685    -6107    -5968    -6380    -6536    -6752 
   -7099    -7087    -6766    -6327    -5910    -5809    -6319    -6691 
   -6430    -6457    -6801    -6682    -6130    -5786    -5980    -6413 
   -6860    -6832    -6347    -6278    -6349    -6223    -6440    -6862 
   -6926    -6623    -6448    -6457    -6346    -6288    -6291    -6230 
   -6270    -6413    -6453    -6453    -6783    -6899    -6242    -5954 
   -6350    -6539    -6534    -6417    -6366    -6660    -6667    -6075 
   -5773    -6324    -6895    -6767    -6509    -6577    -6596    -6451 
   -6424    -6450    -6436    -6651    -6867    -6644    -6264    -6010 
   -6116    -6600    -6704    -6189    -5795    -6088    -6494    -6250 
   -5996    -6380    -6872    -6848    -6481    -6237    -6170    -6511 
   -7026    -6849    -6377    -6504    -6816    -6600    -6138    -6062 
   -6447    -6895    -6860    -6365    -6246    -6573    -6353    -5728 
   -5832    -6613    -7067    -6797    -6266    -5953    -6008    -6309 
   -6602    -6772    -6601    -6257    -6339    -6651    -6763    -6709 
   -6484    -6226    -6245    -6605    -6895    -6797    -6644    -6489 
   -6195    -6056    -6077    -6119    -6281    -6382    -6357    -6417 
   -6336    -6069    -6072    -6390    -6805    -6955    -6594    -6259 
   -6615    -7171    -6837    -6146    -6139    -6280    -6397    -6772 
   -6758    -6501    -6439    -6039    -5749    -6241    -6631    -6523 
   -6448    -6312    -6187    -6482    -6783    -6588    -6251    -6289 
   -6678    -6917    -6501    -5915    -6187    -6817    -6721    -6339 
   -6377    -6625    -6701    -6659    -6636    -6505    -6436    -6606 
   -6628    -6346    -6103    -6124    -6241    -6228    -6330    -6678 
   -6766    -6444    -6185    -6134    -6180    -6332    -6482    -6573 
   -6637    -6551    -6393    -6343    -6241    -6166    -6435    -6841 
   -7011    -6810    -6377    -6166    -6300    -6450    -6423    -6273 
   -6235    -6525    -6763    -6502    -6331    -6547    -6478    -6327 
   -6497    -6427    -6172    -6242    -6426    -6453    -6365    -6340 
   -6435    -6482    -6544    -6642    -6651    -6798    -6763    -6118 
   -5913    -6504    -6667    -6488    -6663    -6590    -6214    -6251 
   -6477    -6467    -6423    -6562    -6697    -6588    -6389    -6251 
   -6062    -5935    -6191    -6633    -6766    -6621    -6454    -6292 
   -6259    -6401    -6509    -6556    -6469    -6154    -6129    -6608 
   -6805    -6469    -6396    -6673    -6624    -6336    -6297    -6359 
   -6330    -6431    -6731    -6880    -6628    -6270    -6068    -6003 
   -6308    -6897    -6980    -6419    -6118    -6447    -6732    -6409 
   -5945    -6106    -6563    -6671    -6646    -6717    -6628    -6284 
   -6011    -6181    -6635    -6727    -6340    -6088    -6147    -6274 
   -6463    -6654    -6555    -6312    -6562    -6943    -6628    -6154 
   -6280    -6637    -6581    -6367    -6629    -6893    -6620    -6278 
   -6181    -6281    -6488    -6604    -6493    -6285    -6293    -6370 
   -6405    -6669    -6775    -6478    -6340    -6442    -6374    -6191 
   -6262    -6497    -6420    -6156    -6261    -6640    -6631    -6166 
   -5933    -6112    -6362    -6631    -6766    -6632    -6428    -6327 
   -6359    -6405    -6516    -6691    -6697    -6736    -6771    -6507 
   -6292    -6243    -6264    -6439    -6543    -6658    -6847    -6659 
   -6241    -6212    -6507    -6485    -6168    -6166    -6292    -6178 
   -6126    -6303    -6693    -7044    -6829    -6273    -6138    -6453 
   -6636    -6534    -6442    -6465    -6443    -6291    -6274    -6544 
   -6610    -6349    -6174    -6220    -6440    -6555    -6486    -6501 
   -6504    -6493    -6540    -6507    -6434    -6316    -6373    -6728 
   -6763    -6380    -6102    -6000    -6069    -6243    -6320    -6501 
   -6764    -6702    -6385    -6266    -6521    -6766    -6660    -6496 
   -6519    -6619    -6636    -6467    -6309    -6374    -6403    -6235 
   -6104    -6107    -6147    -6262    -6465    -6650    -6778    -6782 
   -6559    -6299    -6359    -6698    -6887    -6650    -6228    -6245 
   -6604    -6466    -6053    -6168    -6524    -6698    -6671    -6339 
   -6069    -6219    -6396    -6392    -6489    -6647    -6463    -6130 
   -6346    -6939    -6982    -6492    -6427    -6656    -6327    -5895 
   -6039    -6517    -6890    -6740    -6327    -6330    -6573    -6554 
   -6442    -6632    -6856    -6566    -6031    -5931    -6270    -6640 
   -6669    -6107    -5707    -6319    -6818    -6210    -5823    -6471 
   -6961    -6721    -6629    -6902    -6619    -6049    -6295    -6820 
   -6879    -6729    -6423    -6176    -6192    -6095    -6085    -6555 
   -6808    -6361    -5965    -6100    -6292    -6361    -6604    -6771 
   -6531    -6311    -6480    -6604    -6309    -6153    -6567    -6894 
   -6690    -6450    -6455    -6525    -6608    -6652    -6529    -6328 
   -6436    -6771    -6644    -6187    -6176    -6529    -6534    -6126 
   -6069    -6440    -6502    -6261    -6174    -6307    -6475    -6411 
   -6305    -6606    -6851    -6628    -6367    -6203    -6253    -6516 
   -6660    -6825    -6828    -6498    -6324    -6274    -6318    -6601 
   -6556    -6174    -6104    -6332    -6616    -6637    -6320    -6196 
   -6289    -6469    -6727    -6523    -6060    -5957    -6099    -6516 
   -6751    -6353    -6307    -6673    -6632    -6556    -6528    -6534 
   -6866    -6907    -6496    -6096    -5991    -6359    -6628    -6585 
   -6633    -6525    -6328    -6478    -6656    -6470    -6251    -6374 
   -6602    -6509    -6210    -6205    -6346    -6338    -6481    -6609 
   -6394    -6238    -6488    -6663    -6373    -6185    -6238    -6326 
   -6658    -6751    -6369    -6073    -6139    -6511    -6689    -6458 
   -6293    -6336    -6392    -6492    -6772    -6860    -6419    -6176 
   -6413    -6569    -6837    -7119    -6837    -6378    -6272    -6376 
   -6346    -6264    -6448    -6677    -6535    -6149    -5983    -6183 
   -6512    -6494    -5968    -5656    -5954    -6478    -6831    -6659 
   -6197    -6282    -6879    -6844    -6238    -6323    -6755    -6718 
   -6525    -6253    -6227    -6747    -6995    -6569    -6193    -6435 
   -6637    -6361    -6413    -6619    -6180    -5829    -6222    -6714 
   -6674    -6247    -6216    -6718    -6952    -6771    -6548    -6390 
   -6473    -6893    -7175    -6885    -6427    -6296    -6616    -7169 
   -7111    -6601    -6737    -6870    -6278    -5996    -6282    -6525 
   -6531    -6161    -5965    -6486    -6663    -5988    -5783    -6305 
   -6463    -6214    -6197    -6454    -6493    -6039    -5622    -5852 
   -6358    -6455    -6143    -5819    -5930    -6373    -6343    -5872 
   -5806    -6104    -6214    -6250    -6313    -6057    -5756    -6003 
   -6399    -6388    -6313    -6417    -6511    -6473    -6214    -6142 
   -6592    -7029    -6998    -6597    -6403    -6795    -7125    -6917 
   -6679    -6808    -6926    -6621    -6335    -6475    -6670    -6848 
   -7034    -6974    -6840    -6826    -7022    -7331    -7258    -6933 
   -6756    -6662    -6642    -6704    -6720    -6369    -5853    -5875 
   -6134    -6191    -6246    -6228    -6261    -6461    -6443    -6315 
   -6401    -6390    -6191    -6255    -6457    -6432    -6403    -6408 
   -6419    -6677    -6944    -6953    -6813    -6579    -6597    -6841 
   -6708    -6513    -6721    -6821    -6563    -6197    -5979    -6079 
   -6133    -5921    -5907    -6050    -5968    -5876    -5846    -5733 
   -5775    -5968    -6112    -6358    -6428    -6181    -6384    -6831 
   -6585    -6126    -6108    -6207    -6366    -6646    -6675    -6488 
   -6408    -6547    -6804    -6671    -6180    -6069    -6300    -6366 
   -6276    -6354    -6732    -6890    -6529    -6343    -6659    -6794 
   -6507    -6342    -6455    -6696    -6955    -6937    -6766    -6793 
   -6795    -6647    -6648    -6725    -6542    -6336    -6469    -6620 
   -6612    -6615    -6501    -6347    -6339    -6498    -6828    -6795 
   -6081    -5418    -5359    -5740    -6187    -6405    -6417    -6269 
   -6065    -6212    -6720    -7086    -7013    -6729    -6627    -6739 
   -6885    -6840    -6548    -6457    -6686    -6755    -6620    -6586 
   -6600    -6424    -6135    -6037    -6022    -5803    -5576    -5644 
   -5923    -6189    -6384    -6494    -6431    -6291    -6208    -6053 
   -5948    -6096    -6212    -6168    -6234    -6531    -6922    -7268 
   -7511    -7534    -7344    -7161    -7076    -7099    -7196    -7018 
   -6435    -5927    -5860    -5976    -5852    -5563    -5537    -5888 
   -6345    -6621    -6574    -6443    -6617    -6988    -7164    -7118 
   -7003    -6767    -6427    -6238    -6345    -6551    -6507    -6134 
   -5776    -5786    -6073    -6274    -6262    -6129    -6000    -6060 
   -6328    -6555    -6577    -6544    -6571    -6531    -6330    -6127 
   -6112    -6160    -6120    -6187    -6475    -6786    -7036    -7285 
   -7402    -7300    -7137    -6943    -6745    -6759    -6910    -6797 
   -6349    -6018    -6023    -5945    -5555    -5162    -4990    -5001 
   -5148    -5436    -5817    -6118    -6259    -6490    -7033    -7713 
   -8113    -8000    -7654    -7495    -7418    -7106    -6604    -6116 
   -5783    -5697    -5846    -6118    -6303    -6268    -6245    -6451 
   -6674    -6698    -6639    -6619    -6621    -6575    -6432    -6268 
   -6203    -6259    -6354    -6466    -6592    -6608    -6575    -6690 
   -6801    -6696    -6481    -6286    -6162    -6077    -5985    -5960 
   -6011    -6035    -5918    -5699    -5626    -5819    -6192    -6567 
   -6754    -6805    -6880    -6991    -7080    -7083    -6994    -6875 
   -6812    -6860    -6943    -6937    -6814    -6655    -6574    -6534 
   -6386    -6173    -6099    -6228    -6412    -6473    -6362    -6296 
   -6501    -6752    -6697    -6331    -5914    -5772    -5910    -5988 
   -5996    -6170    -6354    -6374    -6408    -6523    -6528    -6293 
   -5964    -5809    -5871    -5965    -6041    -6208    -6481    -6710 
   -6818    -6878    -6951    -7014    -6987    -6913    -6963    -7126 
   -7168    -6934    -6485    -6092    -6011    -6162    -6313    -6374 
   -6322    -6205    -6214    -6416    -6682    -6871    -6909    -6763 
   -6500    -6282    -6216    -6215    -6180    -6135    -6037    -5799 
   -5516    -5331    -5358    -5736    -6342    -6845    -7179    -7430 
   -7587    -7639    -7543    -7272    -7020    -6860    -6575    -6180 
   -5956    -5941    -5956    -5921    -5860    -5852    -5994    -6296 
   -6669    -7002    -7179    -7172    -7094    -6974    -6747    -6504 
   -6367    -6305    -6274    -6218    -6088    -6014    -6072    -6085 
   -5902    -5575    -5319    -5344    -5548    -5699    -5800    -6004 
   -6407    -6863    -7172    -7361    -7487    -7506    -7442    -7388 
   -7330    -7242    -7204    -7165    -6978    -6679    -6389    -6180 
   -6035    -5887    -5759    -5767    -5892    -5948    -5865    -5818 
   -5859    -5856    -5917    -6276    -6764    -7022    -6982    -6835 
   -6809    -6902    -6837    -6492    -6049    -5714    -5521    -5471 
   -5665    -6102    -6605    -7036    -7331    -7470    -7483    -7400 
   -7253    -7103    -7014    -7003    -6960    -6783    -6570    -6381 
   -6153    -5931    -5764    -5530    -5231    -5039    -5024    -5146 
   -5405    -5856    -6448    -6916    -7082    -7055    -7018    -7107 
   -7348    -7574    -7574    -7304    -6886    -6467    -6180    -6080 
   -6166    -6392    -6575    -6597    -6512    -6338    -6126    -6042 
   -6096    -6118    -5985    -5790    -5729    -5748    -5702    -5767 
   -6041    -6327    -6551    -6766    -6918    -6974    -6974    -6986 
   -7052    -7179    -7365    -7522    -7460    -7213    -6998    -6802 
   -6486    -6106    -5791    -5609    -5566    -5559    -5522    -5525 
   -5628    -5829    -6046    -6189    -6340    -6554    -6712    -6843 
   -7002    -7040    -6840    -6480    -6181    -6127    -6231    -6319 
   -6374    -6370    -6250    -6150    -6250    -6486    -6708    -6872 
   -6952    -7001    -7130    -7308    -7441    -7443    -7244    -6930 
   -6674    -6444    -6166    -5927    -5782    -5714    -5769    -5876 
   -5902    -5915    -6016    -6204    -6467    -6694    -6710    -6569 
   -6521    -6686    -6902    -6945    -6858    -6804    -6729    -6561 
   -6446    -6451    -6426    -6242    -5988    -5863    -5849    -5815 
   -5821    -5925    -6061    -6130    -6097    -6072    -6161    -6382 
   -6575    -6524    -6342    -6277    -6301    -6331    -6411    -6600 
   -6879    -7134    -7273    -7346    -7362    -7236    -7048    -6851 
   -6547    -6259    -6151    -6088    -5945    -5810    -5763    -5792 
   -5887    -6025    -6153    -6254    -6392    -6647    -6964    -7146 
   -7130    -7030    -6907    -6820    -6805    -6720    -6508    -6307 
   -6165    -6046    -5984    -5991    -5999    -6006    -6042    -6093 
   -6309    -6767    -7068    -6945    -6667    -6529    -6578    -6655 
   -6552    -6347    -6238    -6197    -6168    -6180    -6196    -6228 
   -6284    -6254    -6284    -6542    -6767    -6809    -6872    -6960 
   -6841    -6457    -6011    -5748    -5732    -5876    -6143    -6488 
   -6718    -6767    -6766    -6725    -6628    -6606    -6708    -6775 
   -6724    -6613    -6432    -6181    -6084    -6305    -6628    -6758 
   -6686    -6569    -6488    -6439    -6389    -6338    -6311    -6363 
   -6470    -6484    -6328    -6139    -6162    -6399    -6573    -6520 
   -6313    -6120    -6053    -6083    -6158    -6313    -6562    -6799 
   -6926    -6984    -6988    -6907    -6831    -6789    -6710    -6516 
   -6208    -6027    -6145    -6390    -6569    -6637    -6666    -6643 
   -6463    -6212    -6097    -6150    -6181    -6080    -6002    -6018 
   -6081    -6264    -6500    -6678    -6779    -6696    -6493    -6396 
   -6372    -6305    -6264    -6301    -6334    -6320    -6322    -6358 
   -6467    -6616    -6615    -6513    -6540    -6639    -6619    -6481 
   -6382    -6415    -6546    -6712    -6797    -6721    -6589    -6458 
   -6305    -6184    -6126    -6120    -6138    -6160    -6228    -6295 
   -6301    -6311    -6299    -6266    -6304    -6423    -6655    -6914 
   -6999    -6975    -6910    -6748    -6592    -6527    -6593    -6801 
   -6901    -6702    -6347    -6039    -5826    -5710    -5738    -5853 
   -5942    -5995    -5989    -5988    -6089    -6250    -6467    -6741 
   -6879    -6820    -6820    -6957    -6978    -6809    -6612    -6515 
   -6513    -6457    -6390    -6448    -6496    -6475    -6450    -6408 
   -6420    -6535    -6696    -6829    -6880    -6872    -6828    -6785 
   -6794    -6779    -6713    -6612    -6438    -6285    -6230    -6169 
   -6135    -6187    -6154    -5968    -5805    -5826    -6010    -6102 
   -5989    -5929    -6085    -6307    -6471    -6582    -6667    -6760 
   -6812    -6766    -6694    -6682    -6710    -6694    -6646    -6659 
   -6751    -6886    -7003    -7041    -7009    -6939    -6804    -6550 
