Origin Time       2025/03/30 10:18:00
Lat.              34.667
Long.             140.825
Depth. (km)       69
Mag.              4.9
Station Code      TKY008
Station Lat.      34.7851
Station Long.     139.3909
Station Height(m) 65
Record Time       2025/03/30 10:18:51
Sampling Freq(Hz) 100Hz
Duration Time(s)  69
Dir.              N-S
Scale Factor      7845(gal)/8223790
Max. Acc. (gal)   3.771
Last Correction   2025/03/30 10:18:50
Memo.             
[...]
   -9760    -9811    -9838    -9828    -9810    -9807    -9788    -9757 
   -9761    -9795    -9821    -9828    -9811    -9791    -9784    -9784 
   -9802    -9823    -9815    -9783    -9764    -9784    -9825    -9837 
   -9810    -9774    -9764    -9794    -9819    -9814    -9795    -9778 
   -9780    -9811    -9826    -9806    -9769    -9759    -9803    -9844 
   -9829    -9787    -9751    -9756    -9810    -9852    -9844    -9802 
   -9760    -9753    -9783    -9818    -9836    -9828    -9806    -9778 
   -9756    -9774    -9805    -9813    -9814    -9807    -9792    -9784 
   -9792    -9802    -9802    -9803    -9799    -9795    -9809    -9809 
   -9782    -9780    -9796    -9801    -9807    -9813    -9799    -9780 
   -9778    -9791    -9811    -9817    -9805    -9798    -9791    -9786 
   -9791    -9795    -9814    -9822    -9795    -9786    -9792    -9788 
   -9794    -9814    -9821    -9796    -9778    -9786    -9799    -9811 
   -9809    -9786    -9783    -9796    -9795    -9802    -9819    -9810 
   -9805    -9809    -9776    -9759    -9788    -9809    -9821    -9823 
   -9798    -9783    -9774    -9782    -9817    -9807    -9780    -9791 
   -9801    -9799    -9810    -9814    -9798    -9791    -9810    -9810 
   -9788    -9779    -9768    -9774    -9815    -9832    -9819    -9809 
   -9786    -9768    -9774    -9791    -9810    -9815    -9802    -9780 
   -9774    -9796    -9817    -9818    -9815    -9784    -9756    -9790 
   -9844    -9844    -9809    -9791    -9782    -9769    -9795    -9825 
   -9783    -9730    -9742    -9801    -9882    -9925    -9869    -9756 
   -9691    -9703    -9763    -9846    -9882    -9838    -9778    -9752 
   -9769    -9802    -9828    -9840    -9822    -9776    -9742    -9748 
   -9782    -9834    -9873    -9856    -9801    -9748    -9730    -9763 
   -9811    -9837    -9836    -9811    -9782    -9778    -9788    -9809 
   -9817    -9787    -9765    -9794    -9822    -9832    -9834    -9807 
   -9765    -9751    -9769    -9814    -9842    -9809    -9742    -9729 
   -9807    -9904    -9917    -9823    -9697    -9644    -9720    -9860 
   -9933    -9894    -9799    -9710    -9694    -9761    -9841    -9884 
   -9869    -9801    -9738    -9724    -9748    -9802    -9855    -9875 
   -9845    -9774    -9721    -9730    -9778    -9829    -9857    -9848 
   -9802    -9747    -9733    -9778    -9836    -9850    -9811    -9768 
   -9768    -9788    -9806    -9826    -9830    -9802    -9760    -9756 
   -9802    -9826    -9802    -9780    -9790    -9814    -9819    -9795 
   -9779    -9780    -9794    -9815    -9810    -9786    -9786    -9801 
   -9811    -9819    -9805    -9763    -9759    -9814    -9850    -9829 
   -9787    -9752    -9755    -9791    -9818    -9837    -9841    -9807 
   -9768    -9753    -9764    -9796    -9829    -9836    -9823    -9802 
   -9774    -9759    -9761    -9790    -9830    -9844    -9822    -9779 
   -9756    -9776    -9805    -9832    -9838    -9806    -9768    -9751 
   -9768    -9813    -9837    -9821    -9794    -9790    -9796    -9791 
   -9783    -9780    -9784    -9805    -9832    -9837    -9815    -9783 
   -9738    -9734    -9813    -9888    -9880    -9811    -9736    -9713 
   -9753    -9805    -9838    -9855    -9841    -9798    -9759    -9734 
   -9734    -9799    -9896    -9913    -9813    -9703    -9703    -9792 
   -9868    -9867    -9799    -9749    -9757    -9790    -9805    -9791 
   -9786    -9818    -9841    -9825    -9798    -9774    -9764    -9786 
   -9810    -9811    -9801    -9798    -9805    -9798    -9782    -9780 
   -9794    -9809    -9828    -9829    -9794    -9774    -9774    -9771 
   -9803    -9849    -9837    -9776    -9736    -9755    -9814    -9853 
   -9832    -9787    -9788    -9803    -9780    -9765    -9786    -9807 
   -9818    -9823    -9828    -9809    -9768    -9760    -9780    -9790 
   -9794    -9807    -9818    -9817    -9803    -9787    -9779    -9776 
   -9783    -9818    -9845    -9817    -9768    -9752    -9771    -9801 
   -9829    -9840    -9814    -9776    -9772    -9788    -9787    -9782 
   -9806    -9836    -9829    -9794    -9768    -9757    -9776    -9833 
   -9867    -9830    -9764    -9733    -9755    -9795    -9819    -9823 
   -9825    -9822    -9809    -9791    -9774    -9767    -9798    -9822 
   -9783    -9749    -9778    -9822    -9856    -9867    -9817    -9740 
   -9724    -9764    -9810    -9833    -9818    -9788    -9778    -9790 
   -9814    -9825    -9813    -9791    -9768    -9771    -9803    -9821 
   -9801    -9783    -9782    -9787    -9809    -9817    -9792    -9774 
   -9780    -9803    -9825    -9834    -9833    -9805    -9747    -9715 
   -9729    -9774    -9856    -9925    -9892    -9778    -9688    -9693 
   -9767    -9848    -9872    -9823    -9771    -9768    -9786    -9795 
   -9801    -9815    -9821    -9801    -9775    -9767    -9780    -9803 
   -9817    -9814    -9796    -9786    -9801    -9809    -9802    -9796 
   -9787    -9786    -9788    -9786    -9791    -9807    -9817    -9811 
   -9796    -9780    -9784    -9802    -9813    -9819    -9806    -9772 
   -9759    -9776    -9809    -9846    -9842    -9788    -9751    -9749 
   -9772    -9815    -9849    -9845    -9809    -9763    -9752    -9796 
   -9832    -9811    -9776    -9764    -9787    -9830    -9850    -9817 
   -9752    -9725    -9769    -9840    -9880    -9860    -9788    -9715 
   -9706    -9767    -9848    -9895    -9876    -9796    -9710    -9691 
   -9760    -9876    -9931    -9865    -9748    -9674    -9686    -9802 
   -9925    -9926    -9823    -9721    -9675    -9706    -9809    -9923 
   -9949    -9846    -9699    -9647    -9720    -9834    -9904    -9898 
   -9832    -9752    -9714    -9744    -9787    -9805    -9819    -9846 
   -9863    -9829    -9752    -9694    -9703    -9790    -9898    -9941 
   -9888    -9764    -9645    -9624    -9755    -9946   -10000    -9873 
   -9711    -9618    -9645    -9811    -9972    -9964    -9818    -9675 
   -9651    -9760    -9877    -9903    -9844    -9749    -9703    -9749 
   -9829    -9876    -9852    -9776    -9738    -9761    -9809    -9846 
   -9829    -9782    -9772    -9784    -9795    -9821    -9815    -9775 
   -9778    -9806    -9823    -9829    -9794    -9755    -9756    -9786 
   -9834    -9860    -9833    -9792    -9752    -9729    -9775    -9836 
   -9856    -9841    -9783    -9740    -9767    -9806    -9829    -9834 
   -9801    -9779    -9790    -9782    -9787    -9813    -9817    -9818 
   -9813    -9788    -9771    -9764    -9776    -9822    -9853    -9837 
   -9792    -9749    -9747    -9788    -9833    -9849    -9821    -9772 
   -9756    -9768    -9784    -9818    -9841    -9826    -9794    -9761 
   -9753    -9794    -9833    -9832    -9803    -9787    -9786    -9780 
   -9787    -9811    -9817    -9810    -9803    -9786    -9780    -9794 
   -9798    -9799    -9813    -9809    -9790    -9791    -9799    -9801 
   -9801    -9801    -9801    -9801    -9799    -9801    -9791    -9780 
   -9788    -9803    -9815    -9817    -9791    -9771    -9786    -9807 
   -9819    -9819    -9792    -9768    -9778    -9795    -9811    -9821 
   -9810    -9792    -9784    -9784    -9791    -9794    -9805    -9818 
   -9807    -9791    -9792    -9788    -9783    -9794    -9810    -9817 
   -9795    -9778    -9798    -9817    -9813    -9806    -9790    -9775 
   -9780    -9796    -9818    -9829    -9806    -9776    -9772    -9779 
   -9795    -9826    -9836    -9806    -9778    -9775    -9779    -9782 
   -9810    -9848    -9832    -9780    -9759    -9769    -9802    -9837 
   -9830    -9799    -9788    -9782    -9769    -9778    -9806    -9829 
   -9828    -9817    -9806    -9776    -9753    -9759    -9783    -9842 
   -9886    -9837    -9752    -9710    -9728    -9806    -9882    -9884 
   -9819    -9733    -9703    -9761    -9837    -9872    -9864    -9798 
   -9724    -9711    -9763    -9859    -9914    -9840    -9737    -9722 
   -9764    -9823    -9850    -9818    -9788    -9783    -9774    -9780 
   -9813    -9818    -9806    -9809    -9805    -9788    -9783    -9780 
   -9780    -9790    -9809    -9840    -9841    -9790    -9756    -9759 
   -9786    -9830    -9830    -9790    -9779    -9783    -9787    -9806 
   -9815    -9819    -9829    -9792    -9755    -9778    -9801    -9807 
   -9817    -9806    -9784    -9778    -9795    -9834    -9833    -9787 
   -9771    -9787    -9795    -9796    -9803    -9809    -9805    -9798 
   -9787    -9784    -9799    -9805    -9805    -9817    -9814    -9787 
   -9768    -9776    -9801    -9823    -9837    -9822    -9783    -9764 
   -9772    -9784    -9815    -9837    -9815    -9787    -9776    -9782 
   -9798    -9807    -9805    -9799    -9799    -9807    -9801    -9779 
   -9778    -9795    -9807    -9819    -9819    -9787    -9769    -9786 
   -9801    -9803    -9810    -9809    -9792    -9786    -9790    -9795 
   -9806    -9818    -9813    -9794    -9778    -9776    -9790    -9802 
   -9810    -9809    -9796    -9794    -9802    -9799    -9795    -9799 
   -9798    -9790    -9795    -9802    -9802    -9810    -9811    -9801 
   -9794    -9791    -9791    -9796    -9796    -9799    -9796    -9799 
   -9814    -9806    -9787    -9791    -9791    -9794    -9814    -9814 
   -9798    -9792    -9796    -9799    -9796    -9799    -9803    -9790 
   -9786    -9806    -9818    -9810    -9796    -9788    -9784    -9780 
   -9795    -9821    -9832    -9815    -9779    -9767    -9790    -9803 
   -9806    -9806    -9795    -9795    -9802    -9799    -9806    -9805 
   -9792    -9791    -9786    -9786    -9802    -9806    -9801    -9799 
   -9796    -9798    -9801    -9799    -9795    -9795    -9802    -9802 
   -9801    -9811    -9798    -9779    -9786    -9798    -9810    -9809 
   -9796    -9790    -9786    -9791    -9801    -9801    -9806    -9805 
   -9796    -9796    -9798    -9794    -9791    -9787    -9786    -9798 
   -9802    -9795    -9795    -9802    -9807    -9806    -9807    -9805 
   -9787    -9779    -9788    -9798    -9805    -9801    -9788    -9794 
   -9803    -9798    -9796    -9802    -9802    -9796    -9794    -9790 
   -9784    -9788    -9801    -9809    -9803    -9795    -9788    -9787 
   -9796    -9796    -9787    -9786    -9788    -9803    -9817    -9810 
   -9792    -9787    -9791    -9795    -9795    -9801    -9801    -9790 
   -9790    -9792    -9790    -9803    -9815    -9810    -9801    -9790 
   -9783    -9783    -9780    -9788    -9803    -9814    -9819    -9799 
   -9775    -9787    -9806    -9802    -9799    -9796    -9788    -9792 
   -9805    -9805    -9799    -9801    -9795    -9787    -9791    -9803 
   -9814    -9809    -9788    -9784    -9798    -9801    -9794    -9791 
   -9796    -9810    -9806    -9788    -9788    -9782    -9779    -9802 
   -9826    -9828    -9802    -9778    -9775    -9791    -9806    -9805 
   -9794    -9792    -9798    -9805    -9809    -9806    -9794    -9790 
   -9796    -9794    -9792    -9801    -9802    -9798    -9806    -9811 
   -9798    -9791    -9802    -9802    -9799    -9799    -9791    -9791 
   -9801    -9806    -9809    -9807    -9798    -9791    -9792    -9803 
   -9803    -9796    -9805    -9803    -9783    -9780    -9799    -9815 
   -9815    -9818    -9806    -9776    -9779    -9802    -9801    -9798 
   -9807    -9810    -9805    -9798    -9794    -9796    -9805    -9802 
   -9790    -9787    -9799    -9809    -9806    -9802    -9795    -9794 
   -9803    -9806    -9799    -9796    -9796    -9796    -9792    -9798 
   -9805    -9794    -9792    -9805    -9803    -9799    -9810    -9807 
   -9784    -9778    -9788    -9799    -9813    -9815    -9799    -9787 
   -9786    -9786    -9803    -9822    -9815    -9788    -9776    -9791 
   -9803    -9805    -9811    -9807    -9798    -9798    -9798    -9798 
   -9802    -9799    -9791    -9794    -9801    -9798    -9796    -9799 
   -9803    -9805    -9794    -9786    -9798    -9810    -9810    -9801 
   -9788    -9792    -9806    -9802    -9791    -9791    -9806    -9818 
   -9801    -9784    -9786    -9786    -9794    -9810    -9817    -9815 
   -9805    -9788    -9779    -9786    -9801    -9806    -9809    -9810 
   -9796    -9783    -9784    -9801    -9810    -9802    -9798    -9796 
   -9796    -9799    -9799    -9802    -9806    -9795    -9790    -9801 
   -9805    -9798    -9792    -9791    -9795    -9805    -9799    -9786 
   -9795    -9810    -9799    -9798    -9810    -9801    -9783    -9784 
   -9801    -9814    -9813    -9798    -9786    -9787    -9795    -9803 
   -9806    -9805    -9796    -9784    -9787    -9795    -9796    -9803 
   -9815    -9809    -9790    -9782    -9790    -9802    -9805    -9807 
   -9807    -9795    -9788    -9798    -9805    -9796    -9783    -9784 
   -9801    -9821    -9830    -9810    -9788    -9790    -9795    -9802 
   -9814    -9821    -9819    -9815    -9826    -9836    -9823    -9814 
   -9821    -9830    -9830    -9807    -9796    -9818    -9829    -9818 
   -9805    -9784    -9741    -9690    -9652    -9649    -9694    -9755 
   -9784    -9761    -9697    -9613    -9548    -9556    -9675    -9853 
   -9976    -9994    -9938    -9857    -9795    -9829    -9995   -10176 
  -10204   -10076    -9999   -10092   -10187   -10153   -10053    -9894 
   -9636    -9387    -9300    -9390    -9556    -9695    -9653    -9313 
   -8976    -9053    -9375    -9547    -9618    -9663    -9406    -8973 
   -9061    -9744   -10274   -10377   -10489   -10751   -10882   -10899 
  -11109   -11311   -11021   -10679   -10898   -10860    -9838    -8934 
   -9333   -10447   -10840    -9936    -8248    -6561    -5845    -7033 
   -9204    -9842    -8514    -7383    -7870    -9460   -10912   -11452 
  -11371   -11203   -10829   -10293   -10409   -11369   -11776   -10615 
   -9078    -8843    -9991   -11472   -12309   -12131   -11014    -9470 
   -8559    -8721    -9078    -9070    -8934    -8392    -7520    -7682 
   -9356   -10921   -10895    -9589    -7951    -6913    -7688   -10080 
  -11784   -11495   -10507   -10215   -10368   -10531   -11246   -12405 
  -12526   -11103    -9472    -8829    -9198    -9969   -10336    -9775 
   -8525    -7450    -7217    -7686    -8484    -9467   -10046    -9730 
   -9367    -9919   -11010   -11751   -11647   -10725    -9439    -8415 
   -8276    -9212   -10706   -11807   -11715   -10820   -10378   -10721 
  -11214   -11168    -9964    -7893    -6465    -6871    -8653    -9921 
   -9383    -8024    -7399    -7643    -8436    -9683   -10852   -11368 
  -11334   -11287   -11556   -11871   -11723   -10849    -9501    -8668 
   -9128   -10262   -11009   -11003   -10237    -9162    -8734    -9289 
  -10098   -10238    -9732    -9520   -10041   -10706   -10897   -10490 
   -9525    -8290    -7465    -7435    -7908    -8645    -9472    -9810 
   -9478    -9139    -9385   -10162   -10997   -11452   -11403   -11106 
  -10964   -10894   -10585   -10233   -10142   -10201    -9979    -9101 
   -8098    -8059    -9066   -10154   -10407    -9659    -8704    -8460 
   -9027    -9950   -10440    -9863    -8919    -8883    -9641   -10368 
  -11144   -12029   -12118   -11041    -9886    -9524    -9429    -8919 
   -8333    -8367    -9000    -9614    -9915   -10174   -10538   -10679 
  -10188    -9126    -8168    -7997    -8557    -9169    -9552   -10061 
  -10667   -11075   -11323   -11269   -10899   -10659   -10678   -10733 
  -10446    -9589    -8887    -9030    -9508    -9675    -9585    -9644 
  -10002   -10185    -9748    -8908    -8206    -8144    -8800    -9670 
  -10165   -10050    -9661    -9653    -9979   -10007    -9675    -9479 
   -9664    -9946   -10038   -10207   -10639   -10754   -10266    -9899 
  -10062   -10274   -10149    -9778    -9549    -9780   -10093   -10062 
   -9961    -9784    -9270    -8964    -9292    -9695    -9734    -9660 
   -9811    -9977    -9605    -8959    -8897    -9332    -9643    -9828 
  -10076   -10299   -10411   -10488   -10503   -10174    -9563    -9242 
   -9433    -9817   -10215   -10606   -10554    -9765    -9057    -9412 
  -10443   -10928   -10523    -9795    -8996    -8394    -8598    -9408 
  -10042   -10160    -9618    -8758    -8644    -9652   -10752   -10814 
   -9998    -9343    -9362    -9775   -10161   -10300   -10255   -10166 
  -10012    -9767    -9574    -9585    -9741    -9794    -9636    -9574 
   -9902   -10370   -10515   -10320   -10071    -9826    -9601    -9531 
   -9414    -9049    -8869    -9131    -9452    -9787   -10297   -10692 
  -10713   -10295    -9508    -9001    -9355   -10072   -10226    -9738 
   -9201    -9035    -9355    -9914   -10277   -10368   -10176    -9624 
   -9131    -9185    -9718   -10318   -10548   -10280    -9761    -9418 
   -9610   -10215   -10624   -10377    -9768    -9678   -10266   -10596 
  -10233    -9694    -9286    -9003    -9040    -9540   -10022    -9711 
   -8927    -8897    -9764   -10535   -10768   -10697   -10538   -10304 
   -9860    -9333    -9009    -8761    -8506    -8588    -9155    -9769 
  -10015   -10081   -10095    -9760    -9292    -9347    -9906   -10407 
  -10650   -10743   -10515    -9803    -9163    -9336   -10185   -10998 
  -11192   -10596    -9679    -9215    -9418    -9718    -9529    -9148 
   -9209    -9625    -9942   -10023   -10000    -9927    -9742    -9547 
   -9406    -9186    -9057    -9329    -9853   -10211   -10264   -10292 
  -10436   -10346    -9996    -9876    -9987    -9884    -9454    -9012 
   -8839    -8877    -9136    -9717   -10268   -10438   -10341   -10129 
   -9938    -9841    -9776    -9940   -10312   -10328    -9969    -9782 
   -9925   -10153   -10108    -9849    -9790    -9856    -9790    -9682 
   -9651    -9643    -9462    -9180    -9223    -9543    -9629    -9439 
   -9398    -9690   -10015   -10033    -9823    -9629    -9487    -9443 
   -9606    -9953   -10258   -10280   -10168   -10238   -10386   -10281 
   -9863    -9435    -9332    -9549    -9949   -10457   -10720   -10378 
   -9720    -9243    -8958    -8710    -8619    -8912    -9539   -10093 
  -10235    -9925    -9497    -9532   -10061   -10405   -10127    -9447 
   -8980    -9259   -10137   -10971   -11223   -10729    -9972    -9528 
   -9302    -9189    -9477   -10069   -10420   -10291    -9981    -9819 
   -9774    -9667    -9447    -9162    -8974    -9080    -9428    -9886 
  -10362   -10554   -10289    -9879    -9599    -9549    -9796   -10014 
   -9868    -9707    -9907   -10291   -10609   -10710   -10403    -9630 
   -8712    -8247    -8560    -9447   -10393   -10778   -10358    -9552 
   -9023    -9113    -9597    -9953    -9911    -9617    -9508    -9909 
  -10571   -10851   -10389    -9452    -8748    -8856    -9566   -10114 
  -10169   -10058   -10068   -10156   -10254   -10239    -9995    -9802 
   -9864    -9865    -9598    -9363    -9421    -9664    -9863    -9832 
   -9486    -9062    -8970    -9354    -9844    -9911    -9609    -9413 
   -9560   -10027   -10632   -11003   -10878   -10420   -10096   -10011 
   -9875    -9774    -9876    -9845    -9556    -9437    -9674    -9918 
   -9840    -9544    -9306    -9182    -9255    -9564    -9764    -9680 
   -9572    -9629    -9805    -9891    -9832    -9772    -9767    -9956 
  -10351   -10458    -9999    -9416    -9252    -9560    -9925   -10079 
  -10160   -10193   -10087   -10014   -10079   -10071    -9838    -9483 
   -9190    -9147    -9545   -10100   -10108    -9648    -9478    -9667 
   -9879   -10173   -10444   -10262    -9661    -9219    -9279    -9502 
