Origin Time       2025/03/30 10:18:00
Lat.              34.667
Long.             140.825
Depth. (km)       69
Mag.              4.9
Station Code      TKY010
Station Lat.      34.3779
Station Long.     139.2573
Station Height(m) 16
Record Time       2025/03/30 10:18:56
Sampling Freq(Hz) 100Hz
Duration Time(s)  73
Dir.              N-S
Scale Factor      7845(gal)/8223790
Max. Acc. (gal)   5.405
Last Correction   2025/03/30 10:18:55
Memo.             
[...]
   -4287    -4608    -4973    -4914    -4625    -4558    -4773    -4986 
   -4869    -4368    -3912    -3928    -4237    -4336    -4009    -3565 
   -3507    -3912    -4483    -5098    -5655    -5772    -5244    -4367 
   -3763    -3862    -4405    -4857    -5027    -4988    -4851    -4795 
   -4946    -5262    -5575    -5699    -5571    -5260    -4716    -3919 
   -3234    -3142    -3726    -4558    -5059    -5031    -4803    -4818 
   -5185    -5570    -5545    -5138    -4715    -4349    -3916    -3565 
   -3468    -3553    -3731    -3997    -4295    -4464    -4429    -4390 
   -4577    -4966    -5356    -5544    -5467    -5243    -4989    -4752 
   -4591    -4553    -4575    -4494    -4244    -3981    -3901    -4106 
   -4599    -5182    -5555    -5587    -5308    -4804    -4290    -4086 
   -4352    -4877    -5216    -5085    -4631    -4222    -4021    -4047 
   -4291    -4544    -4540    -4257    -3954    -3956    -4313    -4772 
   -5123    -5243    -5044    -4614    -4282    -4341    -4580    -4585 
   -4472    -4619    -5061    -5474    -5508    -5077    -4491    -4164 
   -4234    -4511    -4716    -4770    -4729    -4600    -4433    -4365 
   -4459    -4671    -4897    -5007    -4995    -4943    -4858    -4707 
   -4498    -4303    -4216    -4249    -4375    -4525    -4629    -4687 
   -4699    -4649    -4577    -4569    -4644    -4731    -4747    -4592 
   -4278    -4050    -4141    -4558    -5074    -5398    -5431    -5269 
   -4988    -4669    -4444    -4345    -4293    -4129    -3827    -3736 
   -4162    -4876    -5445    -5544    -5082    -4387    -3966    -3979 
   -4207    -4453    -4656    -4700    -4560    -4477    -4577    -4689 
   -4749    -4831    -4870    -4700    -4391    -4320    -4695    -5232 
   -5566    -5541    -5080    -4290    -3618    -3418    -3647    -4018 
   -4320    -4579    -4869    -5197    -5590    -5873    -5757    -5302 
   -4774    -4249    -3717    -3383    -3499    -3946    -4337    -4580 
   -4885    -5304    -5645    -5714    -5452    -5047    -4795    -4684 
   -4529    -4359    -4256    -4167    -4099    -4039    -3885    -3748 
   -3812    -4001    -4212    -4453    -4766    -5169    -5509    -5655 
   -5710    -5706    -5551    -5260    -4893    -4450    -4027    -3785 
   -3717    -3705    -3716    -3786    -3998    -4434    -5015    -5459 
   -5591    -5518    -5323    -4916    -4387    -4020    -3969    -4108 
   -4251    -4423    -4677    -4908    -5058    -5039    -4716    -4303 
   -4220    -4491    -4770    -4876    -4909    -4915    -4839    -4679 
   -4567    -4683    -4923    -4961    -4699    -4290    -3971    -3989 
   -4315    -4560    -4514    -4428    -4552    -4870    -5236    -5424 
   -5296    -4931    -4602    -4575    -4757    -4797    -4607    -4342 
   -4082    -3877    -3854    -4064    -4407    -4722    -4837    -4704 
   -4506    -4415    -4440    -4544    -4681    -4804    -4943    -5121 
   -5236    -5175    -4988    -4750    -4468    -4266    -4313    -4557 
   -4822    -4918    -4661    -4158    -3786    -3762    -4029    -4453 
   -4860    -5055    -4962    -4747    -4681    -4885    -5213    -5306 
   -4884    -4147    -3649    -3689    -4079    -4486    -4719    -4824 
   -4984    -5182    -5227    -5132    -5066    -5047    -4947    -4727 
   -4444    -4172    -4126    -4467    -4958    -5178    -4966    -4558 
   -4276    -4126    -4031    -4104    -4367    -4631    -4815    -4976 
   -5081    -5028    -4797    -4507    -4394    -4484    -4476    -4224 
   -3973    -3956    -4106    -4180    -4141    -4226    -4575    -5031 
   -5346    -5354    -5059    -4693    -4577    -4797    -5115    -5293 
   -5304    -5219    -5139    -5121    -5053    -4801    -4444    -4155 
   -3983    -3897    -3889    -3900    -3892    -3951    -4079    -4221 
   -4448    -4810    -5225    -5460    -5221    -4604    -4074    -3948 
   -4230    -4610    -4746    -4714    -4747    -4854    -4999    -5262 
   -5559    -5591    -5279    -4892    -4646    -4457    -4220    -4077 
   -4186    -4429    -4572    -4526    -4402    -4380    -4441    -4409 
   -4314    -4423    -4797    -5139    -5154    -4822    -4367    -4137 
   -4245    -4379    -4286    -4114    -4125    -4418    -4870    -5223 
   -5314    -5130    -4754    -4450    -4434    -4583    -4649    -4599 
   -4573    -4637    -4675    -4656    -4753    -4972    -5047    -4897 
   -4689    -4563    -4575    -4683    -4716    -4548    -4279    -4239 
   -4563    -4943    -5035    -4810    -4422    -4063    -3970    -4170 
   -4418    -4618    -4849    -5031    -5031    -4896    -4811    -4862 
   -4884    -4720    -4494    -4390    -4361    -4255    -4158    -4253 
   -4502    -4723    -4808    -4762    -4644    -4509    -4415    -4375 
   -4417    -4596    -4857    -5031    -4980    -4762    -4660    -4747 
   -4708    -4449    -4315    -4396    -4406    -4293    -4294    -4529 
   -4833    -4920    -4737    -4581    -4680    -4885    -4963    -4865 
   -4689    -4519    -4399    -4387    -4461    -4517    -4546    -4596 
   -4630    -4618    -4618    -4664    -4726    -4808    -4934    -4966 
   -4708    -4299    -4074    -4089    -4180    -4276    -4418    -4622 
   -4833    -5012    -5229    -5549    -5778    -5643    -5216    -4787 
   -4499    -4320    -4197    -4179    -4257    -4275    -4193    -4113 
   -4035    -3983    -4109    -4376    -4594    -4787    -5119    -5524 
   -5648    -5298    -4781    -4538    -4637    -4797    -4772    -4554 
   -4282    -4043    -3902    -3925    -4070    -4230    -4355    -4422 
   -4445    -4506    -4684    -4930    -5128    -5208    -5158    -5036 
   -4911    -4807    -4668    -4423    -4212    -4187    -4270    -4365 
   -4494    -4615    -4677    -4693    -4707    -4781    -4938    -5080 
   -5119    -5098    -5013    -4738    -4282    -3920    -3906    -4189 
   -4499    -4657    -4653    -4506    -4252    -4031    -4043    -4344 
   -4706    -4903    -5043    -5283    -5471    -5383    -5008    -4476 
   -3952    -3626    -3650    -4021    -4599    -5148    -5394    -5282 
   -5081    -5054    -5206    -5371    -5360    -5104    -4706    -4266 
   -3838    -3605    -3754    -4194    -4599    -4675    -4461    -4245 
   -4205    -4360    -4581    -4718    -4812    -4905    -4882    -4788 
   -4823    -4924    -4870    -4726    -4671    -4691    -4699    -4646 
   -4567    -4568    -4653    -4688    -4615    -4567    -4673    -4842 
   -4895    -4803    -4642    -4425    -4175    -4059    -4274    -4741 
   -5050    -4927    -4607    -4492    -4603    -4669    -4604    -4557 
   -4606    -4681    -4693    -4622    -4563    -4544    -4410    -4120 
   -3929    -4067    -4410    -4611    -4521    -4329    -4237    -4326 
   -4653    -5111    -5400    -5331    -5053    -4864    -4877    -5007 
   -5128    -5162    -5096    -4911    -4529    -4024    -3692    -3732 
   -4014    -4294    -4548    -4846    -5034    -4904    -4538    -4240 
   -4255    -4576    -4930    -5032    -4860    -4596    -4456    -4513 
   -4656    -4719    -4665    -4592    -4563    -4511    -4425    -4399 
   -4513    -4769    -5066    -5219    -5140    -4918    -4665    -4426 
   -4216    -4102    -4179    -4438    -4764    -5015    -5057    -4854 
   -4585    -4475    -4490    -4448    -4417    -4571    -4846    -5022 
   -4958    -4685    -4372    -4224    -4297    -4472    -4621    -4723 
   -4816    -4845    -4716    -4473    -4305    -4372    -4612    -4808 
   -4823    -4673    -4519    -4537    -4666    -4733    -4711    -4693 
   -4683    -4557    -4263    -3982    -3942    -4180    -4556    -4899 
   -5058    -4990    -4872    -4900    -5049    -5188    -5274    -5225 
   -4907    -4357    -3870    -3751    -4029    -4434    -4723    -4876 
   -4905    -4788    -4592    -4422    -4290    -4190    -4170    -4279 
   -4482    -4635    -4666    -4679    -4747    -4788    -4712    -4594 
   -4560    -4615    -4617    -4509    -4500    -4781    -5198    -5439 
   -5373    -5093    -4761    -4541    -4509    -4503    -4351    -4166 
   -4153    -4318    -4530    -4693    -4750    -4704    -4648    -4654 
   -4676    -4630    -4575    -4652    -4791    -4758    -4529    -4313 
   -4256    -4390    -4639    -4816    -4842    -4810    -4750    -4644 
   -4572    -4546    -4495    -4444    -4461    -4517    -4530    -4472 
   -4383    -4356    -4445    -4614    -4776    -4895    -4980    -5012 
   -5001    -5040    -5163    -5262    -5232    -5071    -4839    -4563 
   -4240    -3942    -3812    -3921    -4176    -4407    -4495    -4477 
   -4499    -4650    -4837    -4891    -4779    -4611    -4484    -4383 
   -4310    -4374    -4615    -4905    -5046    -4934    -4702    -4564 
   -4503    -4410    -4311    -4294    -4388    -4595    -4816    -4882 
   -4758    -4583    -4554    -4804    -5169    -5239    -4861    -4317 
   -3971    -4004    -4356    -4758    -4951    -4899    -4691    -4490 
   -4488    -4675    -4816    -4803    -4780    -4899    -5100    -5186 
   -5049    -4715    -4271    -3862    -3619    -3584    -3782    -4178 
   -4596    -4831    -4855    -4808    -4822    -4942    -5020    -4857 
   -4588    -4563    -4795    -4986    -5000    -4893    -4665    -4355 
   -4151    -4190    -4409    -4602    -4625    -4558    -4581    -4737 
   -4928    -5046    -4984    -4734    -4492    -4432    -4457    -4442 
   -4460    -4550    -4617    -4660    -4789    -4990    -5142    -5178 
   -5063    -4757    -4376    -4145    -4164    -4378    -4650    -4793 
   -4629    -4176    -3730    -3638    -3990    -4538    -4922    -5031 
   -5013    -4935    -4753    -4563    -4544    -4727    -4958    -5032 
   -4943    -4851    -4747    -4522    -4275    -4193    -4349    -4687 
   -4999    -5069    -4837    -4469    -4247    -4261    -4368    -4440 
   -4477    -4500    -4523    -4576    -4658    -4733    -4777    -4841 
   -4958    -4999    -4823    -4550    -4423    -4504    -4665    -4772 
   -4789    -4773    -4791    -4820    -4784    -4672    -4479    -4217 
   -4054    -4125    -4340    -4506    -4564    -4568    -4534    -4476 
   -4491    -4646    -4899    -5103    -5101    -4900    -4633    -4438 
   -4441    -4634    -4819    -4806    -4615    -4450    -4533    -4887 
   -5262    -5355    -5107    -4758    -4549    -4463    -4355    -4245 
   -4295    -4513    -4714    -4766    -4675    -4538    -4467    -4469 
   -4492    -4526    -4604    -4758    -4958    -5049    -4860    -4464 
   -4159    -4067    -4081    -4136    -4218    -4283    -4330    -4441 
   -4639    -4815    -4881    -4835    -4683    -4511    -4460    -4530 
   -4658    -4773    -4729    -4486    -4313    -4515    -4981    -5296 
   -5282    -5143    -5023    -4792    -4428    -4179    -4182    -4334 
   -4536    -4692    -4706    -4608    -4567    -4677    -4835    -4885 
   -4828    -4749    -4633    -4442    -4259    -4151    -4083    -4104 
   -4290    -4507    -4568    -4515    -4525    -4626    -4752    -4924 
   -5181    -5390    -5401    -5225    -4966    -4734    -4626    -4627 
   -4638    -4604    -4529    -4487    -4544    -4635    -4666    -4630 
   -4521    -4313    -4077    -3985    -4129    -4361    -4507    -4652 
   -4907    -5071    -4932    -4630    -4446    -4502    -4703    -4797 
   -4661    -4464    -4376    -4344    -4332    -4459    -4784    -5119 
   -5239    -5223    -5306    -5382    -5094    -4482    -3974    -3778 
   -3782    -3882    -4010    -4117    -4241    -4491    -4872    -5200 
   -5296    -5196    -5059    -4976    -4899    -4683    -4305    -4031 
   -4137    -4488    -4691    -4625    -4506    -4490    -4523    -4567 
   -4649    -4741    -4831    -4965    -5130    -5266    -5279    -5067 
   -4719    -4449    -4288    -4187    -4210    -4390    -4626    -4757 
   -4693    -4623    -4756    -4919    -4842    -4607    -4496    -4606 
   -4747    -4752    -4664    -4581    -4496    -4422    -4487    -4700 
   -4811    -4617    -4278    -4106    -4203    -4399    -4496    -4398 
   -4104    -3775    -3682    -3917    -4302    -4619    -4769    -4750 
   -4687    -4793    -5051    -5193    -5142    -5115    -5252    -5464 
   -5564    -5343    -4644    -3645    -2932    -2970    -3673    -4611 
   -5254    -5185    -4633    -4419    -4957    -5701    -5913    -5580 
   -5258    -5139    -4891    -4438    -4152    -4263    -4621    -4869 
   -4656    -3898    -2951    -2373    -2435    -3046    -4032    -5120 
   -5869    -5960    -5489    -4911    -4677    -4882    -5175    -5128 
   -4806    -4723    -5096    -5464    -5343    -4963    -4843    -4880 
   -4621    -4090    -3700    -3663    -3867    -4117    -4325    -4575 
   -4957    -5375    -5690    -5826    -5686    -5219    -4638    -4468 
   -5070    -5953    -6174    -5540    -4681    -4124    -3916    -4025 
   -4406    -4689    -4409    -3582    -2763    -2567    -3171    -4074 
   -4503    -4298    -4000    -3910    -3792    -3611    -3721    -4104 
   -4297    -4276    -4656    -5767    -6943    -7160    -6315    -5344 
   -5074    -5406    -5621    -5223    -4367    -3572    -3256    -3539 
   -4185    -4783    -5044    -5009    -4877    -4649    -4267    -3927 
   -3863    -4041    -4306    -4648    -5124    -5583    -5799    -5691 
   -5248    -4571    -3840    -3040    -2050    -1067     -692    -1437 
   -3141    -5061    -6443    -7013    -7128    -7246    -7257    -6759 
   -5729    -4513    -3510    -2991    -2979    -3451    -4449    -5682 
   -6497    -6513    -6004    -5494    -5267    -5530    -6496    -7812 
   -8576    -8311    -7388    -6346    -5244    -3757    -1780      117 
    1046      626     -757    -2303    -3214    -3142    -2492    -2196 
   -2830    -3956    -4745    -5111    -5714    -6878    -7921    -7912 
   -6787    -5398    -4683    -4985    -5975    -6906    -6926    -5721 
   -4043    -3107    -3350    -4028    -4010    -3033    -2052    -2096 
   -3060    -3991    -4429    -4788    -5379    -5853    -5881    -5710 
   -5738    -6049    -6538    -7015    -7213    -6947    -6108    -4761 
   -3387    -2606    -2616    -3067    -3422    -3465    -3346    -3188 
   -3057    -3240    -3973    -4981    -5564    -5225    -4252    -3389 
   -3046    -3265    -3950    -4692    -4943    -4612    -4280    -4553 
   -5271    -5763    -5738    -5520    -5524    -5714    -5711    -5379 
   -4996    -4796    -4830    -5171    -5752    -6131    -5860    -5012 
   -4128    -3597    -3327    -3088    -2924    -2987    -3322    -3964 
   -4930    -5995    -6724    -6700    -5827    -4472    -3246    -2683 
   -3040    -4091    -5146    -5540    -5221    -4712    -4445    -4347 
   -4102    -3595    -3069    -2987    -3611    -4776    -6031    -6845 
   -6868    -6200    -5198    -4113    -3083    -2378    -2359    -3134 
   -4480    -6043    -7500    -8575    -9018    -8741    -7954    -6839 
   -5360    -3623    -2045    -1090    -1050    -1775    -2552    -2755 
   -2567    -2633    -3211    -4021    -4702    -5065    -5128    -5084 
   -5193    -5660    -6399    -6893    -6619    -5675    -4730    -4307 
   -4353    -4459    -4237    -3547    -2574    -1655    -1186    -1628 
   -3171    -5331    -7087    -7603    -6844    -5521    -4440    -4047 
   -4376    -5040    -5549    -5809    -6061    -6430    -6689    -6413 
   -5472    -4299    -3477    -3210    -3225    -3206    -3177    -3273 
   -3433    -3566    -3721    -3924    -4063    -3975    -3739    -3740 
   -4247    -5084    -5860    -6305    -6396    -6326    -6326    -6489 
   -6790    -7064    -6963    -6316    -5351    -4345    -3445    -2667 
   -1964    -1422    -1242    -1487    -1969    -2471    -3073    -3997 
   -5194    -6304    -6953    -7080    -6876    -6471    -5868    -5103 
   -4336    -3840    -3873    -4384    -5013    -5497    -5840    -6022 
   -5890    -5413    -4819    -4371    -4063    -3692    -3250    -2991 
   -2998    -3060    -3159    -3568    -4344    -5134    -5512    -5425 
   -5321    -5633    -6205    -6440    -6007    -5239    -4720    -4661 
   -4845    -4936    -4660    -3920    -2957    -2124    -1590    -1417 
   -1710    -2478    -3574    -4834    -6062    -7001    -7488    -7560 
   -7368    -7032    -6624    -6278    -6075    -5915    -5657    -5150 
   -4266    -3119    -2133    -1690    -1728    -1894    -2031    -2185 
   -2417    -2795    -3337    -3936    -4468    -4934    -5436    -6084 
   -6925    -7771    -8197    -7912    -7032    -5977    -5154    -4602 
   -4070    -3508    -3119    -3079    -3411    -3981    -4604    -5117 
   -5343    -5212    -4851    -4492    -4364    -4533    -4828    -5065 
   -5251    -5517    -5819    -5826    -5252    -4185    -2929    -1819 
   -1301    -1711    -2814    -3908    -4450    -4455    -4283    -4255 
   -4530    -5097    -5698    -6123    -6431    -6689    -6856    -6876 
   -6678    -6211    -5530    -4815    -4282    -3998    -3848    -3712 
   -3582    -3519    -3531    -3576    -3690    -3919    -4113    -4083 
   -3933    -3940    -4045    -3902    -3492    -3258    -3554    -4282 
   -5147    -6014    -6821    -7352    -7354    -6793    -5845    -4830 
   -4083    -3758    -3748    -3852    -3924    -3946    -4027    -4201 
   -4356    -4415    -4396    -4353    -4368    -4473    -4648    -4922 
   -5265    -5471    -5393    -5082    -4668    -4291    -4083    -4120 
   -4387    -4757    -5084    -5355    -5578    -5625    -5381    -4904 
   -4309    -3669    -3078    -2712    -2709    -3002    -3366    -3705 
   -4186    -5008    -5949    -6480    -6434    -6126    -5788    -5355 
   -4780    -4275    -4124    -4365    -4753    -4990    -4941    -4685 
   -4371    -4006    -3627    -3445    -3535    -3678    -3792    -4087 
   -4671    -5368    -5968    -6386    -6590    -6447    -5856    -5007 
   -4288    -3970    -4063    -4392    -4707    -4739    -4374    -3838 
   -3565    -3790    -4379    -4922    -4936    -4301    -3505    -3169 
   -3411    -3901    -4311    -4563    -4683    -4698    -4675    -4723 
   -4931    -5232    -5350    -5123    -4765    -4561    -4522    -4541 
   -4689    -5097    -5614    -5906    -5832    -5497    -5090    -4818 
   -4727    -4645    -4504    -4452    -4537    -4646    -4665    -4608 
   -4569    -4525    -4361    -4102    -3958    -4047    -4203    -4240 
   -4198    -4201    -4295    -4471    -4637    -4680    -4598    -4455 
   -4279    -4153    -4182    -4333    -4469    -4472    -4336    -4195 
   -4135    -4195    -4492    -4958    -5309    -5378    -5292    -5378 
   -5779    -6172    -6165    -5745    -5211    -4810    -4525    -4282 
   -4094    -3897    -3607    -3399    -3520    -3975    -4554    -5015 
   -5220    -5165    -4904    -4537    -4222    -4054    -3996    -4000 
   -4045    -4125    -4261    -4461    -4662    -4747    -4680    -4565 
   -4567    -4708    -4849    -4927    -5040    -5212    -5274    -5061 
   -4719    -4641    -4934    -5285    -5382    -5238    -5020    -4718 
   -4287    -3963    -3962    -4213    -4540    -4745    -4702    -4523 
   -4398    -4369    -4396    -4425    -4438    -4499    -4637    -4822 
   -4988    -5016    -4855    -4610    -4510    -4764    -5293    -5709 
   -5713    -5347    -4801    -4253    -3858    -3674    -3630    -3657 
   -3738    -3836    -3955    -4145    -4328    -4374    -4333    -4347 
   -4486    -4756    -5070    -5277    -5306    -5184    -4953    -4706 
   -4525    -4463    -4537    -4638    -4710    -4777    -4702    -4441 
   -4264    -4320    -4498    -4718    -4934    -5066    -5097    -5100 
