Origin Time       2025/03/30 10:18:00
Lat.              34.667
Long.             140.825
Depth. (km)       69
Mag.              4.9
Station Code      TKY008
Station Lat.      34.7851
Station Long.     139.3909
Station Height(m) 65
Record Time       2025/03/30 10:18:51
Sampling Freq(Hz) 100Hz
Duration Time(s)  69
Dir.              U-D
Scale Factor      7845(gal)/8223790
Max. Acc. (gal)   4.515
Last Correction   2025/03/30 10:18:50
Memo.             
[...]
   12129    12086    12098    12141    12140    12098    12104    12154 
   12166    12128    12091    12091    12116    12140    12145    12136 
   12117    12093    12097    12129    12143    12135    12116    12112 
   12143    12151    12116    12098    12116    12139    12137    12121 
   12118    12127    12118    12108    12116    12125    12125    12137 
   12150    12136    12100    12083    12114    12147    12137    12125 
   12137    12133    12113    12114    12109    12109    12141    12155 
   12145    12127    12086    12070    12109    12158    12160    12125 
   12109    12113    12110    12116    12135    12141    12116    12108 
   12129    12135    12120    12116    12127    12124    12113    12117 
   12124    12132    12140    12120    12112    12114    12106    12135 
   12167    12144    12113    12096    12098    12128    12140    12139 
   12125    12102    12124    12151    12123    12098    12116    12131 
   12132    12131    12123    12114    12128    12143    12124    12118 
   12132    12117    12117    12136    12120    12113    12135    12129 
   12118    12131    12125    12104    12117    12147    12145    12132 
   12123    12109    12106    12113    12125    12144    12143    12114 
   12101    12124    12152    12137    12100    12096    12135    12159 
   12147    12109    12051    12052    12133    12198    12214    12175 
   12097    12064    12087    12098    12091    12118    12185    12201 
   12135    12074    12075    12101    12127    12166    12166    12123 
   12109    12114    12117    12125    12110    12106    12139    12160 
   12152    12128    12094    12070    12090    12144    12186    12178 
   12127    12077    12060    12090    12150    12182    12171    12141 
   12098    12067    12098    12154    12160    12141    12131    12085 
   12040    12083    12179    12240    12210    12094    12023    12055 
   12110    12159    12189    12172    12136    12101    12074    12070 
   12100    12163    12199    12168    12112    12082    12102    12118 
   12106    12124    12159    12145    12128    12143    12125    12075 
   12079    12131    12154    12144    12148    12147    12106    12073 
   12094    12144    12179    12160    12093    12067    12118    12170 
   12171    12129    12087    12101    12137    12136    12108    12098 
   12128    12171    12163    12100    12042    12056    12143    12217 
   12199    12123    12064    12071    12121    12154    12147    12124 
   12118    12131    12117    12091    12105    12137    12162    12160 
   12123    12104    12120    12121    12108    12112    12139    12162 
   12152    12112    12083    12087    12109    12137    12167    12171 
   12132    12085    12083    12125    12143    12135    12141    12143 
   12123    12106    12096    12093    12127    12172    12175    12143 
   12109    12081    12074    12089    12132    12181    12179    12133 
   12094    12073    12079    12127    12175    12172    12148    12131 
   12106    12077    12069    12105    12167    12198    12158    12082 
   12055    12097    12154    12179    12140    12085    12109    12156 
   12132    12089    12096    12143    12189    12164    12073    12032 
   12087    12172    12209    12164    12089    12075    12121    12150 
   12128    12089    12090    12152    12194    12154    12081    12062 
   12109    12152    12148    12133    12139    12144    12120    12082 
   12083    12132    12177    12163    12114    12096    12106    12113 
   12117    12129    12148    12167    12147    12093    12067    12104 
   12151    12154    12131    12121    12132    12132    12117    12113 
   12110    12108    12139    12168    12131    12081    12097    12137 
   12139    12120    12127    12156    12158    12120    12082    12069 
   12101    12160    12174    12133    12106    12120    12117    12102 
   12117    12135    12139    12133    12120    12114    12106    12108 
   12148    12171    12128    12089    12112    12137    12125    12104 
   12100    12124    12150    12137    12116    12118    12128    12151 
   12158    12096    12032    12074    12178    12218    12170    12109 
   12087    12079    12073    12113    12178    12189    12159    12128 
   12085    12056    12085    12150    12179    12151    12135    12140 
   12121    12089    12079    12110    12155    12170    12148    12104 
   12081    12116    12152    12132    12105    12147    12213    12168 
   12032    11989    12094    12199    12213    12166    12093    12055 
   12091    12145    12158    12137    12135    12155    12139    12083 
   12064    12112    12158    12152    12135    12117    12105    12128 
   12145    12137    12118    12085    12100    12158    12164    12139 
   12132    12113    12086    12086    12104    12132    12171    12172 
   12123    12078    12097    12166    12189    12131    12069    12060 
   12112    12171    12174    12143    12110    12091    12104    12110 
   12106    12135    12178    12186    12139    12059    12037    12113 
   12190    12178    12121    12090    12098    12118    12135    12143 
   12145    12141    12123    12091    12074    12108    12162    12167 
   12129    12094    12093    12137    12183    12177    12116    12052 
   12036    12085    12162    12209    12204    12150    12066    12027 
   12071    12145    12206    12225    12163    12051    11992    12039 
   12148    12225    12205    12136    12101    12093    12093    12109 
   12128    12137    12145    12148    12140    12109    12067    12075 
   12141    12183    12174    12140    12096    12089    12113    12120 
   12120    12136    12145    12135    12121    12129    12150    12128 
   12090    12097    12123    12127    12132    12143    12148    12139 
   12108    12085    12098    12127    12154    12187    12172    12097 
   12039    12048    12123    12208    12206    12133    12075    12062 
   12110    12187    12193    12129    12082    12069    12096    12145 
   12167    12158    12125    12081    12091    12145    12167    12159 
   12140    12098    12069    12087    12135    12167    12162    12127 
   12100    12104    12135    12156    12125    12091    12101    12132 
   12160    12156    12121    12097    12077    12086    12156    12193 
   12145    12108    12100    12102    12131    12141    12133    12131 
   12112    12106    12125    12123    12120    12139    12135    12127 
   12125    12106    12112    12133    12118    12117    12139    12132 
   12118    12110    12109    12133    12141    12125    12123    12120 
   12114    12123    12133    12143    12136    12110    12105    12117 
   12117    12127    12133    12125    12127    12128    12129    12133 
   12116    12105    12123    12133    12137    12136    12114    12116 
   12132    12121    12120    12133    12129    12131    12123    12108 
   12123    12139    12135    12129    12118    12116    12120    12116 
   12129    12141    12118    12109    12129    12129    12123    12124 
   12125    12131    12123    12120    12133    12131    12123    12125 
   12114    12108    12106    12108    12139    12170    12156    12125 
   12086    12071    12116    12160    12163    12140    12109    12101 
   12104    12093    12113    12150    12155    12159    12139    12091 
   12089    12110    12121    12133    12137    12131    12129    12120 
   12108    12113    12135    12154    12140    12101    12083    12108 
   12132    12145    12154    12139    12118    12100    12085    12106 
   12155    12178    12156    12102    12069    12085    12117    12150 
   12168    12151    12120    12102    12098    12120    12139    12136 
   12137    12131    12106    12094    12106    12141    12166    12145 
   12116    12105    12094    12101    12139    12168    12154    12108 
   12078    12098    12143    12156    12144    12124    12104    12106 
   12129    12147    12147    12117    12087    12106    12139    12144 
   12139    12129    12125    12123    12093    12093    12144    12163 
   12132    12108    12114    12136    12132    12102    12102    12129 
   12147    12148    12129    12100    12086    12108    12147    12163 
   12136    12112    12113    12114    12116    12131    12141    12137 
   12116    12093    12105    12135    12141    12144    12137    12113 
   12104    12120    12128    12118    12117    12133    12145    12131 
   12105    12102    12121    12140    12143    12131    12120    12117 
   12118    12128    12137    12127    12114    12120    12136    12136 
   12121    12118    12125    12121    12118    12128    12139    12136 
   12123    12109    12114    12132    12137    12131    12127    12124 
   12118    12117    12124    12124    12121    12121    12120    12137 
   12155    12141    12110    12091    12102    12133    12140    12128 
   12123    12124    12129    12128    12117    12117    12127    12135 
   12127    12108    12108    12129    12141    12129    12118    12125 
   12136    12128    12113    12117    12121    12118    12123    12129 
   12132    12136    12131    12112    12106    12120    12132    12139 
   12132    12125    12125    12118    12120    12131    12128    12123 
   12123    12123    12127    12117    12105    12123    12141    12140 
   12131    12118    12117    12127    12123    12116    12117    12124 
   12135    12136    12121    12108    12110    12131    12144    12131 
   12110    12109    12128    12150    12141    12108    12094    12113 
   12131    12133    12125    12125    12140    12144    12123    12100 
   12102    12121    12139    12145    12135    12125    12128    12121 
   12110    12113    12121    12128    12137    12137    12125    12116 
   12118    12137    12135    12109    12110    12129    12135    12133 
   12124    12118    12128    12128    12118    12114    12116    12121 
   12139    12145    12128    12113    12120    12135    12137    12116 
   12102    12117    12135    12139    12137    12127    12117    12124 
   12128    12123    12120    12127    12128    12121    12125    12135 
   12127    12123    12127    12116    12113    12135    12140    12120 
   12112    12128    12139    12132    12114    12101    12114    12141 
   12150    12141    12125    12108    12108    12121    12131    12136 
   12133    12127    12116    12105    12113    12132    12133    12128 
   12133    12132    12123    12117    12112    12113    12128    12136 
   12129    12124    12123    12125    12131    12131    12124    12117 
   12117    12116    12118    12128    12133    12128    12123    12124 
   12132    12127    12113    12116    12129    12131    12120    12112 
   12125    12141    12129    12112    12109    12114    12125    12140 
   12140    12125    12114    12116    12121    12120    12117    12127 
   12133    12131    12125    12121    12118    12116    12121    12132 
   12132    12121    12113    12123    12139    12132    12121    12117 
   12112    12121    12137    12133    12128    12125    12121    12129 
   12124    12106    12114    12139    12143    12128    12110    12109 
   12125    12137    12135    12123    12113    12114    12123    12133 
   12132    12121    12120    12128    12131    12124    12110    12110 
   12131    12143    12137    12116    12097    12116    12137    12133 
   12132    12131    12118    12116    12125    12127    12121    12118 
   12124    12136    12135    12118    12118    12136    12141    12124 
   12104    12108    12128    12140    12133    12113    12105    12131 
   12148    12128    12112    12124    12133    12124    12112    12117 
   12139    12139    12118    12110    12120    12131    12128    12121 
   12125    12124    12113    12118    12139    12139    12120    12110 
   12118    12127    12129    12128    12132    12135    12123    12101 
   12105    12128    12140    12135    12127    12116    12114    12129 
   12143    12129    12106    12112    12139    12140    12113    12097 
   12120    12148    12144    12127    12112    12105    12113    12129 
   12140    12133    12114    12110    12123    12132    12129    12121 
   12127    12136    12128    12112    12109    12129    12151    12136 
   12106    12110    12133    12128    12120    12129    12125    12116 
   12124    12129    12125    12121    12116    12123    12137    12131 
   12114    12128    12144    12129    12108    12108    12121    12128 
   12129    12131    12125    12120    12123    12118    12116    12131 
   12141    12133    12127    12123    12114    12113    12117    12117 
   12118    12127    12125    12094    12064    12067    12078    12062 
   12023    11983    11961    11955    11927    11874    11828    11788 
   11759    11763    11804    11865    11908    11912    11885    11848 
   11873    12024    12272    12568    12892    13190    13350    13285 
   13062    12897    12993    13383    13875    14168    13999    13342 
   12519    11927    11674    11681    11875    12006    11593    10535 
    9494     9194     9590    10081    10316    10320    10174    10018 
   10242    11090    12280    13459    14391    14602    13919    13243 
   13452    13794    13081    11885    11608    12070    11951    11172 
   11003    12064    13900    15651    15851    13690    11159    10781 
   11969    12768    12606    11678    10740    10908    11763    11751 
   10747    10289    10953    11323    10967    11446    12606    12376 
   11067    10924    12333    14146    15491    15762    15159    14303 
   12895    10872     9355     8784     8388     8125     8773    10071 
   11275    12698    14719    16484    16858    16152    15209    13618 
   11503    10655    11340    11676    11279    11335    11650    11237 
   10596    10797    11647    12332    12548    12324    11982    12013 
   12401    12892    13128    12282    10660    10018    10528    10592 
    9879     9938    11874    14509    15719    15183    14265    13745 
   13244    12249    10990    10330    10700    11738    12657    12602 
   11854    11935    13269    14299    13749    12244    10935     9994 
    9664    10539    11944    12596    12513    12479    12607    12468 
   12233    12351    12302    11539    10771    10704    11013    11425 
   11961    12461    13234    14436    14928    13867    12252    11654 
   12205    12406    11443    10579    10978    12226    13447    13722 
   12645    11483    11565    12071    11699    11001    11115    11846 
   12264    12075    11716    11662    12177    13045    13406    12930 
   12280    11757    11124    10462     9998    10076    11079    12324 
   12600    12210    12518    13709    14625    14562    13782    12627 
   11661    11499    11708    11724    11911    12318    12310    11684 
   11079    11236    11963    12673    13338    13626    13116    12598 
   12622    12388    11726    11466    11492    10974    10122     9894 
   10623    11773    12357    11942    11302    11340    12187    13424 
   14229    14154    13543    12762    12069    11696    11797    12623 
   13706    13882    12981    11686    10478     9813    10106    11365 
   12750    13149    12748    12445    12429    12652    12942    12752 
   12050    11317    10697    10330    10395    10627    10886    11488 
   12430    13035    12812    12438    12857    13807    14388    14118 
   13169    12252    11882    11896    11817    11561    11620    11971 
   11705    10689    10191    11018    12355    13190    13302    12773 
   11988    11522    11655    12137    12253    11866    11580    11419 
   11350    12004    13323    14262    13883    12208    10768    10949 
   11763    11875    11934    12372    12456    12415    12870    13267 
   13050    12658    12474    12054    11198    10640    10786    11238 
   11840    12609    12966    12529    12160    12636    13177    12754 
   11727    11053    11022    11464    12032    12289    12337    12646 
   13026    12841    11973    10993    10521    10687    11206    11819 
   12536    13144    12962    12013    11680    12865    14377    14523 
   13366    12070    11234    10987    11565    12494    12556    11848 
   11718    12397    12954    12839    12324    11820    11341    10926 
   10798    10955    11404    12039    12168    11497    10875    11196 
   12415    13632    13520    11803    10401    11044    12673    13454 
   13271    13014    13201    13385    12746    11626    10983    10979 
   11543    12510    13081    12908    12684    12837    12746    11986 
   11564    12376    13421    13255    11920    10628    10461    11367 
   12464    12950    12363    11092    10179    10118    11010    12587 
   13653    13443    12422    11368    11203    12229    13162    12846 
   11777    11196    11726    12660    12820    12058    11371    11745 
   12814    13325    13047    12922    13252    13180    12336    11400 
   10991    11333    12063    12140    11227    10521    11111    12361 
   12893    12536    12178    12193    12272    12220    12066    11998 
   12129    12214    12245    12556    12951    12799    12000    11240 
   11086    11218    11287    11610    12213    12668    12873    12877 
   12702    12501    12364    12225    11938    11691    11921    12467 
   12852    12864    12483    12047    11743    11458    11477    11952 
   12405    12429    12085    11911    12167    12136    11624    11597 
   12128    12391    12208    11762    11454    11785    12329    12243 
   11716    11686    12299    12617    12178    11835    12271    12924 
   13020    12641    12375    12451    12637    12671    12334    11805 
   11614    11700    11674    11661    11815    11888    11740    11607 
   11659    11736    11742    11920    12366    12731    12734    12449 
   12066    11755    11630    11723    11985    12310    12803    13390 
   13444    12758    12093    12074    12280    11961    11354    11292 
   11828    12509    13049    13039    12360    11678    11630    11939 
   11967    11759    11799    12056    12051    11931    12367    12864 
   12286    11111    10746    11375    12174    12658    12717    12236 
   11666    11703    12275    12722    12509    11871    11662    11985 
   12136    12078    12467    13100    12981    12105    11484    11604 
   12197    12775    12815    12174    11574    11900    12842    13112 
   12224    11232    11290    12202    13003    13100    12434    11507 
   11140    11421    11709    11634    11333    11167    11402    11992 
   12667    13139    13205    12793    12178    11875    11997    12156 
   12037    11755    11655    11881    12287    12603    12764    12777 
   12414    11757    11272    11304    12069    13053    13205    12459 
   11695    11527    11865    12267    12521    12603    12511    12371 
   12162    11826    11685    11966    12278    12209    11870    11650 
   11674    11686    11693    11996    12495    12818    12702    12260 
   12019    12127    12262    12272    12145    12015    12094    12195 
   12012    11703    11628    11758    11858    12005    12128    11821 
   11512    12112    13155    13394    12771    12118    11842    11838 
   11943    11978    11902    11923    12102    12332    12594    12637 
   12248    11939    12060    12054    11708    11623    11917    12217 
   12463    12668    12617    12202    11765    11678    11896    12195 
   12390    12343    12086    11797    11735    11969    12177    12147 
   12085    12213    12361    12127    11529    11298    11944    12777 
