Origin Time       2025/03/30 10:18:00
Lat.              34.667
Long.             140.825
Depth. (km)       69
Mag.              4.9
Station Code      TKY029
Station Lat.      34.0757
Station Long.     139.4789
Station Height(m) 32
Record Time       2025/03/30 10:19:08
Sampling Freq(Hz) 100Hz
Duration Time(s)  60
Dir.              E-W
Scale Factor      7845(gal)/8223790
Max. Acc. (gal)   2.686
Last Correction   2025/03/30 10:19:08
Memo.             
[...]
   -1293    -1490    -1690    -1857    -1804    -1517    -1173     -947 
    -980    -1243    -1498    -1556    -1431    -1258    -1224    -1364 
   -1397    -1152     -985    -1289    -1884    -2292    -2317    -2084 
   -1802    -1594    -1429    -1297    -1320    -1495    -1620    -1617 
   -1512    -1228     -831     -606     -715    -1105    -1614    -1995 
   -2022    -1698    -1262    -1024    -1156    -1557    -1904    -1929 
   -1687    -1451    -1387    -1452    -1506    -1539    -1661    -1850 
   -1939    -1904    -1844    -1722    -1486    -1231    -1065     -986 
    -950     -928     -963    -1117    -1317    -1422    -1441    -1532 
   -1771    -2002    -2015    -1817    -1598    -1528    -1649    -1845 
   -1938    -1842    -1587    -1294    -1113    -1102    -1209    -1389 
   -1632    -1834    -1825    -1603    -1344    -1167    -1094    -1159 
   -1325    -1426    -1378    -1304    -1339    -1464    -1597    -1663 
   -1607    -1474    -1428    -1579    -1810    -1857    -1621    -1321 
   -1170    -1170    -1305    -1495    -1559    -1476    -1393    -1391 
   -1464    -1551    -1594    -1566    -1440    -1270    -1215    -1328 
   -1495    -1626    -1703    -1691    -1593    -1494    -1417    -1356 
   -1393    -1547    -1676    -1692    -1675    -1640    -1518    -1386 
   -1362    -1393    -1378    -1314    -1273    -1318    -1405    -1421 
   -1372    -1362    -1436    -1548    -1633    -1638    -1547    -1495 
   -1626    -1800    -1803    -1702    -1678    -1725    -1718    -1638 
   -1579    -1591    -1628    -1602    -1471    -1300    -1174    -1098 
   -1048    -1034    -1117    -1309    -1452    -1455    -1422    -1395 
   -1348    -1406    -1649    -1858    -1829    -1707    -1676    -1676 
   -1626    -1528    -1435    -1429    -1540    -1656    -1584    -1287 
   -1005     -980    -1154    -1318    -1416    -1458    -1409    -1362 
   -1443    -1557    -1580    -1593    -1683    -1753    -1684    -1499 
   -1345    -1398    -1583    -1597    -1408    -1331    -1532    -1807 
   -1840    -1593    -1339    -1291    -1393    -1471    -1462    -1436 
   -1409    -1358    -1401    -1547    -1590    -1476    -1386    -1397 
   -1372    -1237    -1174    -1382    -1728    -1890    -1776    -1615 
   -1675    -1894    -1888    -1525    -1154    -1101    -1321    -1526 
   -1487    -1336    -1363    -1525    -1606    -1620    -1667    -1653 
   -1455    -1223    -1208    -1435    -1675    -1706    -1578    -1466 
   -1320    -1109    -1012    -1075    -1210    -1395    -1603    -1787 
   -1884    -1814    -1617    -1475    -1483    -1543    -1534    -1463 
   -1394    -1394    -1476    -1580    -1618    -1528    -1371    -1266 
   -1250    -1332    -1462    -1524    -1524    -1543    -1560    -1551 
   -1567    -1582    -1533    -1471    -1418    -1333    -1273    -1368 
   -1590    -1745    -1765    -1730    -1648    -1521    -1435    -1435 
   -1522    -1648    -1660    -1497    -1381    -1468    -1587    -1575 
   -1448    -1300    -1283    -1404    -1459    -1406    -1393    -1445 
   -1451    -1414    -1455    -1547    -1563    -1486    -1401    -1391 
   -1448    -1489    -1460    -1443    -1510    -1524    -1360    -1239 
   -1381    -1625    -1723    -1692    -1644    -1590    -1498    -1329 
   -1159    -1209    -1463    -1642    -1676    -1679    -1632    -1509 
   -1409    -1418    -1516    -1610    -1599    -1524    -1495    -1491 
   -1429    -1291    -1170    -1206    -1358    -1464    -1462    -1374 
   -1302    -1337    -1402    -1417    -1447    -1580    -1804    -1964 
   -1846    -1520    -1304    -1341    -1490    -1606    -1678    -1732 
   -1728    -1621    -1436    -1255    -1167    -1224    -1377    -1528 
   -1671    -1769    -1707    -1509    -1320    -1183    -1138    -1256 
   -1468    -1599    -1628    -1610    -1552    -1480    -1436    -1439 
   -1528    -1652    -1642    -1505    -1441    -1509    -1593    -1622 
   -1605    -1613    -1661    -1580    -1267     -997    -1107    -1445 
   -1649    -1674    -1628    -1557    -1529    -1557    -1572    -1498 
   -1367    -1290    -1298    -1352    -1448    -1507    -1436    -1335 
   -1347    -1422    -1479    -1528    -1559    -1559    -1557    -1552 
   -1536    -1510    -1475    -1483    -1516    -1470    -1325    -1146 
   -1019    -1093    -1437    -1883    -2111    -2000    -1773    -1660 
   -1610    -1520    -1440    -1418    -1418    -1417    -1405    -1385 
   -1360    -1304    -1179    -1023     -970    -1146    -1452    -1652 
   -1691    -1676    -1640    -1560    -1490    -1501    -1599    -1695 
   -1710    -1682    -1622    -1512    -1417    -1385    -1398    -1478 
   -1601    -1637    -1566    -1490    -1458    -1437    -1439    -1506 
   -1609    -1663    -1645    -1583    -1490    -1355    -1213    -1140 
   -1165    -1286    -1470    -1576    -1517    -1420    -1433    -1530 
   -1633    -1683    -1648    -1564    -1490    -1452    -1464    -1479 
   -1426    -1383    -1451    -1543    -1574    -1590    -1572    -1452 
   -1323    -1287    -1281    -1259    -1308    -1460    -1625    -1684 
   -1611    -1490    -1433    -1474    -1537    -1541    -1556    -1671 
   -1756    -1660    -1453    -1294    -1282    -1412    -1547    -1591 
   -1615    -1626    -1507    -1290    -1135    -1129    -1266    -1470 
   -1637    -1698    -1611    -1408    -1233    -1251    -1409    -1493 
   -1435    -1414    -1563    -1784    -1910    -1850    -1642    -1421 
   -1325    -1360    -1413    -1432    -1467    -1541    -1602    -1559 
   -1408    -1290    -1300    -1383    -1509    -1668    -1773    -1760 
   -1652    -1480    -1305    -1242    -1333    -1518    -1660    -1629 
   -1467    -1360    -1382    -1443    -1472    -1485    -1516    -1549 
   -1534    -1460    -1335    -1221    -1266    -1489    -1675    -1645 
   -1459    -1275    -1228    -1347    -1478    -1476    -1429    -1482 
   -1576    -1560    -1433    -1356    -1428    -1574    -1669    -1671 
   -1602    -1505    -1456    -1472    -1453    -1343    -1271    -1377 
   -1566    -1647    -1545    -1328    -1151    -1166    -1367    -1665 
   -1927    -1966    -1760    -1532    -1449    -1490    -1580    -1651 
   -1644    -1580    -1524    -1514    -1530    -1551    -1584    -1584 
   -1476    -1325    -1255    -1254    -1240    -1236    -1300    -1422 
   -1584    -1723    -1713    -1559    -1399    -1269    -1181    -1228 
   -1401    -1615    -1822    -1885    -1726    -1549    -1555    -1618 
   -1564    -1491    -1544    -1645    -1611    -1408    -1186    -1120 
   -1229    -1360    -1345    -1254    -1293    -1453    -1518    -1420 
   -1287    -1252    -1355    -1539    -1674    -1709    -1671    -1598 
   -1514    -1432    -1377    -1393    -1502    -1667    -1783    -1733 
   -1553    -1426    -1435    -1474    -1431    -1359    -1393    -1529 
   -1598    -1499    -1341    -1262    -1282    -1358    -1452    -1544 
   -1625    -1675    -1692    -1661    -1530    -1355    -1308    -1452 
   -1624    -1630    -1536    -1544    -1655    -1692    -1605    -1490 
   -1436    -1447    -1467    -1456    -1395    -1321    -1321    -1435 
   -1583    -1634    -1518    -1345    -1332    -1514    -1686    -1659 
   -1480    -1324    -1306    -1422    -1526    -1483    -1374    -1366 
   -1468    -1590    -1610    -1476    -1305    -1258    -1328    -1401 
   -1421    -1387    -1356    -1402    -1503    -1587    -1655    -1682 
   -1624    -1520    -1417    -1370    -1458    -1591    -1620    -1611 
   -1667    -1706    -1676    -1609    -1512    -1418    -1389    -1413 
   -1474    -1570    -1607    -1505    -1336    -1266    -1344    -1475 
   -1541    -1514    -1471    -1460    -1437    -1386    -1332    -1306 
   -1375    -1534    -1620    -1521    -1364    -1328    -1455    -1667 
   -1800    -1721    -1467    -1240    -1217    -1355    -1447    -1421 
   -1444    -1601    -1721    -1634    -1426    -1312    -1377    -1541 
   -1683    -1718    -1684    -1668    -1649    -1574    -1475    -1408 
   -1386    -1416    -1485    -1510    -1428    -1309    -1298    -1414 
   -1514    -1482    -1401    -1397    -1426    -1397    -1337    -1318 
   -1371    -1485    -1570    -1572    -1571    -1614    -1629    -1547 
   -1378    -1235    -1248    -1386    -1501    -1525    -1470    -1389 
   -1364    -1417    -1490    -1529    -1544    -1594    -1714    -1792 
   -1683    -1453    -1344    -1489    -1737    -1807    -1626    -1410 
   -1336    -1339    -1323    -1297    -1273    -1279    -1358    -1475 
   -1540    -1518    -1501    -1572    -1660    -1653    -1571    -1494 
   -1431    -1385    -1431    -1580    -1721    -1733    -1609    -1424 
   -1296    -1310    -1441    -1571    -1606    -1539    -1456    -1432 
   -1445    -1435    -1402    -1387    -1436    -1543    -1571    -1453 
   -1374    -1475    -1640    -1684    -1567    -1385    -1300    -1364 
   -1458    -1475    -1476    -1509    -1516    -1482    -1452    -1385 
   -1274    -1239    -1318    -1404    -1448    -1474    -1482    -1467 
   -1486    -1564    -1605    -1559    -1536    -1611    -1703    -1711 
   -1634    -1549    -1509    -1474    -1414    -1401    -1483    -1609 
   -1675    -1607    -1444    -1333    -1339    -1332    -1247    -1213 
   -1321    -1495    -1637    -1671    -1588    -1483    -1441    -1456 
   -1482    -1507    -1551    -1587    -1591    -1598    -1601    -1528 
   -1395    -1323    -1386    -1539    -1603    -1493    -1377    -1402 
   -1467    -1455    -1391    -1332    -1325    -1405    -1526    -1614 
   -1645    -1636    -1638    -1682    -1694    -1637    -1594    -1629 
   -1655    -1537    -1306    -1150    -1166    -1287    -1399    -1433 
   -1433    -1474    -1525    -1518    -1441    -1356    -1332    -1359 
   -1371    -1398    -1499    -1648    -1744    -1692    -1499    -1312 
   -1256    -1345    -1522    -1678    -1707    -1637    -1570    -1533 
   -1516    -1521    -1506    -1448    -1421    -1433    -1420    -1417 
   -1475    -1533    -1540    -1549    -1610    -1655    -1583    -1426 
   -1337    -1395    -1462    -1398    -1309    -1341    -1460    -1552 
   -1566    -1506    -1429    -1377    -1363    -1424    -1564    -1706 
   -1745    -1644    -1431    -1224    -1150    -1225    -1378    -1553 
   -1702    -1763    -1714    -1597    -1475    -1387    -1360    -1391 
   -1425    -1432    -1462    -1521    -1529    -1472    -1431    -1445 
   -1516    -1601    -1615    -1548    -1509    -1555    -1602    -1580 
   -1502    -1406    -1339    -1312    -1324    -1382    -1462    -1502 
   -1502    -1512    -1539    -1578    -1605    -1556    -1445    -1405 
   -1485    -1568    -1559    -1476    -1401    -1404    -1471    -1532 
   -1560    -1536    -1453    -1382    -1333    -1267    -1229    -1273 
   -1385    -1534    -1667    -1719    -1652    -1471    -1278    -1220 
   -1329    -1490    -1602    -1674    -1733    -1738    -1645    -1491 
   -1370    -1343    -1421    -1571    -1703    -1715    -1586    -1410 
   -1341    -1404    -1476    -1451    -1356    -1341    -1471    -1611 
   -1611    -1494    -1418    -1452    -1483    -1436    -1401    -1455 
   -1567    -1684    -1719    -1620    -1479    -1406    -1372    -1366 
   -1441    -1548    -1613    -1648    -1652    -1598    -1512    -1413 
   -1312    -1279    -1360    -1472    -1528    -1533    -1533    -1529 
   -1490    -1416    -1363    -1359    -1362    -1340    -1309    -1279 
   -1271    -1335    -1470    -1580    -1567    -1447    -1313    -1247 
   -1263    -1336    -1480    -1698    -1864    -1852    -1687    -1506 
   -1436    -1480    -1556    -1599    -1595    -1559    -1544    -1607 
   -1672    -1597    -1418    -1287    -1251    -1243    -1232    -1278 
   -1402    -1506    -1480    -1355    -1267    -1321    -1479    -1621 
   -1667    -1656    -1652    -1667    -1656    -1570    -1444    -1431 
   -1566    -1721    -1795    -1777    -1709    -1647    -1580    -1506 
   -1537    -1725    -1904    -1898    -1767    -1703    -1748    -1779 
   -1722    -1614    -1497    -1390    -1281    -1123     -930     -815 
    -878    -1093    -1296    -1285    -1034     -768     -730     -932 
   -1139    -1158    -1069    -1039    -1094    -1193    -1270    -1232 
   -1104    -1061    -1162    -1296    -1404    -1517    -1657    -1837 
   -2070    -2273    -2288    -2068    -1745    -1463    -1233    -1057 
   -1048    -1317    -1782    -2266    -2636    -2797    -2694    -2394 
   -2043    -1763    -1610    -1590    -1598    -1510    -1352    -1283 
   -1401    -1595    -1667    -1560    -1393    -1350    -1549    -1849 
   -1958    -1803    -1552    -1356    -1229    -1119     -990     -845 
    -672     -514     -487     -692    -1093    -1478    -1669    -1726 
   -1749    -1683    -1444    -1109     -892     -949    -1287    -1822 
   -2339    -2515    -2160    -1455     -839     -654     -876    -1196 
   -1425    -1645    -1888    -1971    -1696    -1078     -415     -108 
    -329     -954    -1734    -2407    -2816    -2972    -2917    -2681 
   -2396    -2182    -2008    -1836    -1715    -1597    -1302     -874 
    -630     -757    -1131    -1475    -1625    -1626    -1549    -1428 
   -1386    -1572    -1896    -2049    -1825    -1306     -715     -241 
       8       79       62      -68     -422    -1021    -1710    -2304 
   -2778    -3121    -3121    -2629    -1830    -1101     -765     -950 
   -1547    -2326    -3051    -3470    -3396    -2903    -2228    -1556 
   -1031     -774     -812    -1055    -1333    -1455    -1266     -715 
      99      918     1332     1102      342     -658    -1624    -2334 
   -2697    -2787    -2744    -2633    -2490    -2469    -2619    -2681 
   -2392    -1838    -1283     -904     -810    -1039    -1425    -1668 
   -1598    -1285     -889     -534     -376     -587    -1112    -1628 
   -1771    -1414     -868     -666    -1031    -1628    -1888    -1606 
   -1146     -903     -947    -1216    -1640    -2127    -2544    -2724 
   -2556    -2096    -1615    -1435    -1613    -1989    -2417    -2755 
   -2803    -2493    -1950    -1356     -900     -718     -722     -679 
    -538     -460     -533     -696     -853     -955    -1048    -1182 
   -1314    -1422    -1509    -1584    -1737    -2070    -2521    -2837 
   -2808    -2462    -2034    -1722    -1536    -1402    -1306    -1283 
   -1397    -1599    -1665    -1463    -1059     -660     -548     -828 
   -1293    -1618    -1582    -1182     -677     -461     -723    -1260 
   -1804    -2196    -2300    -2127    -1863    -1620    -1354    -1046 
    -886    -1108    -1645    -2100    -2045    -1452     -723     -268 
    -271     -642    -1108    -1475    -1726    -1875    -1912    -1871 
   -1822    -1814    -1848    -1921    -2002    -2035    -1980    -1838 
   -1729    -1844    -2178    -2439    -2336    -1863    -1287     -999 
   -1204    -1713    -2145    -2226    -1899    -1360     -865     -523 
    -368     -440     -751    -1217    -1683    -2033    -2189    -2080 
   -1722    -1325    -1119    -1146    -1347    -1657    -1969    -2141 
   -2089    -1891    -1634    -1240     -724     -373     -423     -770 
   -1063    -1080     -955     -901     -889     -781     -614     -591 
    -855    -1412    -2118    -2636    -2620    -2061    -1364    -1035 
   -1231    -1640    -1896    -1930    -1826    -1624    -1336    -1035 
    -861     -973    -1437    -2107    -2652    -2803    -2500    -1933 
   -1437    -1212    -1225    -1350    -1437    -1374    -1189    -1044 
   -1069    -1212    -1309    -1344    -1460    -1688    -1902    -1950 
   -1744    -1421    -1344    -1656    -2026    -2089    -1830    -1478 
   -1289    -1371    -1628    -1895    -2064    -2095    -1965    -1679 
   -1333    -1021     -788     -731     -939    -1291    -1479    -1331 
   -1001     -746     -696     -831    -1048    -1293    -1556    -1753 
   -1821    -1877    -2083    -2381    -2546    -2459    -2216    -1918 
   -1529    -1019     -487     -108      -94     -568    -1318    -1898 
   -2056    -1899    -1655    -1398    -1123     -911     -866    -1039 
   -1410    -1865    -2207    -2266    -2038    -1695    -1418    -1308 
   -1422    -1695    -1933    -2038    -2041    -1949    -1787    -1653 
   -1590    -1566    -1475    -1217     -865     -579     -406     -387 
    -600    -1005    -1452    -1829    -2058    -2039    -1794    -1509 
   -1302    -1152    -1059    -1080    -1246    -1537    -1867    -2088 
   -2128    -2076    -2065    -2153    -2296    -2354    -2207    -1911 
   -1675    -1647    -1738    -1725    -1534    -1304    -1216    -1293 
   -1339    -1140     -737     -426     -468     -837    -1286    -1564 
   -1632    -1617    -1539    -1337    -1094     -934     -903    -1021 
   -1273    -1537    -1709    -1811    -1890    -1902    -1798    -1597 
   -1379    -1275    -1327    -1435    -1495    -1480    -1410    -1355 
   -1363    -1355    -1274    -1243    -1341    -1452    -1466    -1390 
   -1298    -1298    -1399    -1466    -1426    -1398    -1498    -1721 
   -1964    -2070    -1950    -1691    -1444    -1291    -1252    -1328 
   -1489    -1667    -1796    -1829    -1767    -1692    -1671    -1674 
   -1655    -1588    -1463    -1325    -1301    -1451    -1667    -1752 
   -1617    -1391    -1285    -1329    -1421    -1522    -1680    -1907 
   -2130    -2241    -2143    -1796    -1275     -781     -560     -691 
    -967    -1159    -1242    -1317    -1428    -1532    -1556    -1458 
   -1289    -1185    -1225    -1363    -1502    -1602    -1680    -1741 
   -1765    -1709    -1602    -1561    -1657    -1799    -1776    -1503 
   -1175    -1011    -1009    -1074    -1163    -1266    -1359    -1399 
   -1362    -1283    -1227    -1258    -1433    -1701    -1885    -1856 
   -1664    -1474    -1362    -1308    -1310    -1424    -1652    -1881 
   -2016    -2095    -2124    -2007    -1734    -1471    -1350    -1343 
   -1358    -1351    -1333    -1285    -1220    -1236    -1344    -1421 
   -1418    -1382    -1305    -1209    -1220    -1385    -1606    -1779 
   -1895    -1985    -2000    -1848    -1549    -1256    -1069     -973 
    -988    -1169    -1474    -1765    -1922    -1918    -1798    -1615 
   -1433    -1327    -1337    -1421    -1494    -1533    -1587    -1656 
   -1656    -1570    -1456    -1335    -1174     -982     -845     -842 
    -940    -1024    -1055    -1109    -1286    -1591    -1860    -1891 
   -1742    -1669    -1776    -1898    -1841    -1653    -1556    -1692 
   -1966    -2131    -2065    -1840    -1556    -1317    -1227    -1313 
   -1498    -1633    -1601    -1410    -1151     -905     -750     -765 
    -943    -1221    -1568    -1931    -2234    -2420    -2424    -2209 
   -1854    -1489    -1225    -1154    -1252    -1421    -1636    -1840 
   -1864    -1651    -1317     -984     -761     -731     -857    -1028 
   -1192    -1336    -1467    -1621    -1804    -1954    -2010    -1941 
   -1722    -1402    -1107     -930     -939    -1170    -1501    -1705 
   -1682    -1485    -1233    -1080    -1115    -1293    -1503    -1683 
   -1809    -1863    -1827    -1714    -1629    -1696    -1890    -2023 
   -1984    -1811    -1624    -1493    -1393    -1262    -1116    -1027 
   -1015    -1026    -1030    -1050    -1108    -1190    -1243    -1232 
   -1188    -1171    -1229    -1370    -1572    -1788    -1948    -1991 
   -1945    -1931    -2000    -2025    -1919    -1753    -1606    -1495 
