Origin Time       2025/03/30 10:18:00
Lat.              34.667
Long.             140.825
Depth. (km)       69
Mag.              4.9
Station Code      TKY029
Station Lat.      34.0757
Station Long.     139.4789
Station Height(m) 32
Record Time       2025/03/30 10:19:08
Sampling Freq(Hz) 100Hz
Duration Time(s)  60
Dir.              U-D
Scale Factor      7845(gal)/8223790
Max. Acc. (gal)   0.912
Last Correction   2025/03/30 10:19:08
Memo.             
[...]
    9432     9342     9223     9200     9292     9437     9552     9605 
    9621     9612     9563     9425     9208     9073     9155     9344 
    9418     9302     9175     9323     9682     9795     9475     9082 
    8970     9140     9427     9575     9441     9204     9126     9275 
    9467     9423     9201     9144     9316     9448     9375     9256 
    9312     9471     9539     9489     9356     9212     9189     9278 
    9352     9332     9224     9150     9248     9498     9679     9558 
    9208     8985     9105     9404     9504     9286     9104     9289 
    9606     9626     9362     9096     9027     9256     9676     9941 
    9829     9455     9109     9020     9224     9504     9544     9270 
    8985     9019     9319     9540     9464     9204     9107     9374 
    9711     9607     9105     8851     9196     9711     9855     9603 
    9298     9194     9247     9270     9239     9254     9328     9417 
    9454     9348     9147     9061     9188     9401     9521     9513 
    9454     9346     9174     9077     9189     9425     9579     9516 
    9320     9228     9302     9351     9278     9248     9385     9522 
    9489     9347     9225     9208     9346     9512     9528     9451 
    9440     9445     9333     9225     9333     9494     9394     9148 
    9130     9389     9616     9525     9167     8911     9045     9400 
    9543     9377     9219     9267     9409     9498     9466     9366 
    9352     9477     9609     9612     9477     9283     9092     8978 
    9084     9364     9524     9373     9082     8972     9208     9607 
    9760     9562     9336     9306     9386     9418     9336     9231 
    9255     9351     9335     9197     9086     9112     9231     9350 
    9427     9441     9437     9489     9559     9555     9459     9367 
    9424     9582     9589     9356     9097     9039     9185     9387 
    9489     9394     9200     9151     9273     9371     9340     9225 
    9142     9185     9319     9441     9540     9609     9562     9429 
    9420     9540     9512     9259     9074     9190     9441     9490 
    9316     9208     9281     9393     9427     9398     9387     9429 
    9424     9270     9040     8955     9111     9360     9524     9545 
    9441     9289     9227     9304     9427     9526     9548     9412 
    9196     9123     9270     9444     9404     9162     9053     9288 
    9593     9616     9348     9069     9117     9490     9724     9524 
    9200     9162     9355     9451     9364     9271     9281     9336 
    9354     9331     9298     9258     9235     9347     9610     9756 
    9558     9243     9158     9277     9390     9400     9370     9401 
    9454     9431     9331     9185     9105     9238     9495     9593 
    9405     9123     8958     8959     9127     9319     9339     9324 
    9424     9447     9313     9256     9364     9493     9548     9529 
    9490     9509     9498     9306     9073     9024     9124     9252 
    9374     9440     9412     9331     9250     9208     9301     9540 
    9703     9626     9463     9360     9292     9246     9248     9286 
    9337     9396     9405     9328     9281     9316     9335     9364 
    9487     9537     9366     9177     9139     9161     9232     9369 
    9408     9329     9348     9486     9558     9505     9417     9379 
    9427     9464     9342     9136     9123     9359     9559     9483 
    9261     9158     9234     9367     9458     9467     9346     9153 
    9100     9256     9487     9626     9522     9235     9092     9225 
    9359     9282     9171     9270     9497     9590     9502     9386 
    9297     9220     9175     9190     9313     9494     9563     9506 
    9425     9324     9234     9220     9243     9282     9387     9464 
    9383     9240     9189     9261     9401     9504     9468     9325 
    9251     9306     9348     9339     9366     9402     9458     9562 
    9533     9259     9020     9112     9377     9498     9401     9182 
    9051     9181     9420     9451     9279     9190     9308     9520 
    9656     9590     9370     9229     9336     9563     9645     9486 
    9232     9121     9266     9486     9463     9174     9008     9205 
    9477     9474     9267     9139     9186     9329     9475     9522 
    9436     9329     9315     9387     9459     9410     9254     9189 
    9340     9549     9556     9389     9290     9285     9224     9150 
    9138     9147     9220     9374     9466     9427     9344     9301 
    9316     9387     9474     9477     9347     9220     9301     9509 
    9563     9404     9256     9313     9491     9579     9445     9143 
    8957     9101     9389     9526     9482     9377     9347     9410 
    9431     9317     9139     9042     9165     9471     9671     9583 
    9359     9200     9181     9296     9387     9329     9238     9258 
    9374     9509     9576     9509     9350     9251     9315     9455 
    9502     9389     9248     9238     9324     9348     9255     9175 
    9209     9304     9386     9435     9414     9323     9244     9236 
    9239     9238     9313     9437     9479     9421     9362     9366 
    9424     9464     9460     9451     9396     9296     9248     9225 
    9182     9224     9359     9441     9429     9400     9367     9285 
    9219     9267     9364     9460     9579     9583     9389     9224 
    9267     9342     9263     9181     9294     9470     9481     9360 
    9269     9242     9239     9247     9269     9300     9328     9325 
    9305     9346     9452     9524     9490     9387     9329     9383 
    9471     9458     9339     9240     9229     9262     9298     9344 
    9374     9351     9344     9397     9404     9346     9335     9329 
    9246     9197     9288     9417     9467     9391     9227     9155 
    9331     9556     9555     9420     9401     9466     9454     9370 
    9289     9248     9294     9406     9443     9325     9157     9085 
    9167     9332     9414     9382     9358     9386     9390     9342 
    9289     9262     9263     9306     9377     9373     9246     9135 
    9197     9367     9483     9514     9513     9481     9427     9404 
    9378     9290     9247     9340     9424     9359     9262     9270 
    9342     9416     9482     9464     9319     9217     9342     9513 
    9452     9228     9093     9173     9391     9524     9459     9351 
    9366     9470     9518     9410     9190     9045     9119     9305 
    9374     9298     9259     9383     9586     9664     9513     9252 
    9130     9252     9463     9518     9373     9194     9166     9305 
    9455     9439     9292     9238     9348     9423     9350     9217 
    9135     9181     9354     9506     9495     9319     9127     9138 
    9354     9526     9478     9321     9297     9435     9505     9393 
    9242     9217     9324     9459     9493     9398     9325     9394 
    9513     9560     9504     9358     9229     9225     9296     9340 
    9340     9292     9232     9262     9389     9463     9397     9278 
    9204     9201     9274     9336     9266     9181     9298     9536 
    9618     9481     9316     9292     9366     9391     9327     9248 
    9240     9306     9354     9312     9243     9228     9259     9308 
    9364     9371     9327     9323     9386     9447     9439     9355 
    9297     9387     9553     9603     9499     9393     9381     9377 
    9300     9242     9277     9337     9336     9255     9165     9170 
    9262     9340     9355     9335     9336     9383     9452     9460 
    9374     9337     9477     9636     9575     9301     9057     9045 
    9205     9320     9319     9312     9408     9568     9612     9401 
    9078     8911     9005     9306     9616     9655     9396     9151 
    9181     9390     9490     9362     9186     9188     9358     9485 
    9424     9259     9161     9223     9406     9539     9447     9221 
    9143     9297     9497     9545     9429     9308     9327     9460 
    9528     9390     9171     9123     9282     9482     9556     9466 
    9354     9356     9405     9379     9286     9234     9306     9470 
    9560     9460     9279     9229     9358     9472     9396     9232 
    9190     9271     9398     9525     9535     9369     9200     9223 
    9364     9412     9306     9177     9190     9379     9525     9428 
    9217     9111     9146     9262     9369     9385     9320     9270 
    9343     9504     9567     9470     9371     9412     9535     9544 
    9351     9139     9124     9278     9402     9356     9234     9256 
    9423     9489     9348     9205     9240     9377     9458     9408 
    9252     9151     9244     9439     9512     9401     9281     9293 
    9360     9385     9369     9313     9246     9269     9370     9406 
    9364     9369     9424     9427     9375     9352     9394     9464 
    9494     9437     9324     9255     9278     9328     9317     9251 
    9213     9262     9373     9456     9452     9396     9344     9319 
    9335     9362     9354     9306     9262     9263     9316     9378 
    9382     9296     9221     9297     9439     9459     9363     9281 
    9262     9289     9347     9385     9358     9323     9336     9367 
    9369     9331     9281     9265     9328     9445     9482     9358 
    9221     9263     9452     9589     9537     9369     9256     9285 
    9370     9387     9313     9234     9248     9336     9373     9333 
    9293     9279     9302     9383     9437     9337     9173     9173 
    9367     9549     9549     9412     9321     9373     9441     9385 
    9254     9171     9216     9377     9497     9428     9244     9153 
    9227     9394     9535     9518     9354     9273     9441     9637 
    9551     9236     9031     9140     9412     9551     9451     9277 
    9243     9337     9397     9379     9328     9255     9235     9336 
    9478     9502     9352     9174     9185     9390     9553     9498 
    9344     9325     9452     9506     9354     9115     9003     9116 
    9350     9466     9375     9273     9305     9381     9402     9364 
    9294     9252     9282     9337     9352     9323     9275     9225 
    9238     9370     9489     9431     9265     9181     9248     9418 
    9555     9514     9346     9281     9398     9543     9553     9435 
    9306     9273     9329     9394     9389     9279     9142     9120 
    9239     9363     9363     9267     9235     9355     9520     9590 
    9529     9405     9340     9413     9541     9551     9393     9252 
    9285     9385     9364     9207     9084     9124     9238     9273 
    9247     9292     9427     9518     9491     9425     9371     9293 
    9225     9282     9464     9603     9566     9396     9219     9157 
    9229     9296     9271     9234     9244     9301     9360     9343 
    9267     9235     9262     9325     9394     9396     9350     9354 
    9427     9510     9528     9432     9312     9313     9433     9536 
    9504     9374     9286     9256     9193     9127     9147     9246 
    9371     9455     9436     9351     9278     9259     9342     9505 
    9617     9575     9402     9224     9155     9186     9246     9317 
    9414     9483     9462     9375     9319     9356     9455     9485 
    9356     9182     9170     9317     9391     9290     9182     9224 
    9354     9425     9375     9274     9255     9352     9458     9466 
    9409     9359     9300     9221     9220     9319     9393     9383 
    9356     9371     9439     9502     9437     9259     9171     9281 
    9443     9433     9208     9023     9138     9427     9525     9325 
    9097     9108     9346     9593     9652     9547     9433     9418 
    9505     9576     9526     9386     9255     9174     9132     9135 
    9174     9194     9193     9232     9305     9312     9219     9147 
    9201     9346     9471     9520     9528     9540     9553     9566 
    9540     9447     9359     9347     9348     9315     9281     9277 
    9290     9315     9327     9275     9171     9099     9099     9175 
    9355     9549     9607     9540     9478     9455     9440     9424 
    9373     9305     9306     9354     9343     9286     9247     9267 
    9360     9439     9412     9346     9321     9300     9239     9213 
    9294     9414     9454     9429     9464     9567     9598     9474 
    9279     9166     9182     9261     9313     9300     9256     9278 
    9394     9459     9359     9198     9150     9234     9327     9316 
    9225     9212     9367     9590     9695     9622     9458     9324 
    9306     9393     9455     9370     9165     9001     9022     9220 
    9452     9553     9485     9382     9429     9612     9721     9606 
    9324     9074     9054     9262     9440     9378     9200     9161 
    9290     9386     9306     9142     9099     9266     9516     9618 
    9474     9250     9207     9401     9612     9630     9521     9401 
    9263     9120     9065     9121     9239     9379     9508     9593 
    9634     9649     9598     9474     9371     9373     9436     9439 
    9315     9167     9108     9076     9026     9088     9300     9470 
    9448     9282     9126     9113     9190     9166     9043     9042 
    9238     9475     9601     9570     9409     9208     9096     9142 
    9266     9350     9374     9420     9570     9767     9814     9599 
    9223     8955     9039     9414     9737     9718     9444     9275 
    9396     9574     9486     9123     8787     8757     9030     9364 
    9472     9324     9266     9568    10034    10301    10224     9880 
    9455     9162     9063     9008     8892     8812     8883     9094 
    9271     9250     9130     9113     9221     9342     9401     9389 
    9328     9305     9413     9559     9563     9414     9244     9148 
    9175     9281     9332     9333     9432     9639     9759     9660 
    9425     9240     9223     9335     9402     9292     9113     9147 
    9468     9798     9829     9570     9288     9193     9244     9310 
    9370     9420     9414     9381     9374     9355     9236     9049 
    8932     8941     8992     9062     9180     9304     9393     9464 
    9541     9586     9559     9499     9429     9267     9032     8946 
    9150     9482     9591     9320     8939     8873     9220     9694 
    9892     9684     9328     9162     9250     9405     9413     9258 
    9148     9254     9562     9900     9981     9686     9298     9224 
    9528     9875     9849     9412     9055     9185     9517     9545 
    9208     8807     8661     8839     9089     9180     9186     9321 
    9599     9786     9697     9421     9189     9115     9166     9225 
    9198     9113     9073     9143     9320     9498     9544     9506 
    9536     9605     9541     9371     9288     9362     9499     9572 
    9516     9366     9235     9175     9148     9138     9174     9275 
    9425     9521     9414     9121     8885     8900     9126     9396 
    9586     9641     9560     9436     9354     9332     9337     9325 
    9335     9441     9594     9653     9536     9304     9124     9120 
    9261     9387     9381     9296     9289     9444     9676     9806 
    9722     9479     9301     9342     9504     9597     9494     9213 
    8973     8964     9066     9061     8973     8995     9200     9458 
    9559     9414     9157     8999     9082     9401     9740     9873 
    9792     9587     9343     9182     9181     9282     9342     9301 
    9273     9327     9385     9362     9298     9305     9405     9482 
    9424     9228     8999     8883     8957     9165     9389     9551 
    9605     9556     9474     9440     9485     9540     9508     9363 
    9198     9154     9267     9381     9348     9215     9115     9120 
    9243     9405     9440     9294     9162     9239     9489     9680 
    9595     9252     8947     8980     9323     9609     9544     9274 
    9202     9466     9791     9845     9612     9362     9285     9371 
    9552     9686     9606     9373     9263     9408     9578     9499 
    9221     9007     9035     9259     9467     9498     9423     9423 
    9529     9568     9398     9104     8903     8934     9142     9292 
    9188     8922     8785     8945     9282     9549     9598     9481 
    9386     9437     9537     9528     9408     9300     9302     9418 
    9535     9499     9302     9099     9036     9108     9184     9212 
    9290     9467     9618     9606     9439     9271     9252     9371 
    9499     9512     9425     9366     9385     9408     9401     9396 
    9390     9375     9396     9425     9348     9165     9039     9108 
    9316     9481     9517     9493     9467     9458     9432     9362 
    9306     9325     9389     9420     9366     9277     9254     9274 
    9270     9259     9243     9186     9128     9111     9111     9128 
    9225     9400     9540     9572     9555     9566     9595     9594 
    9499     9286     9088     9097     9274     9385     9337     9234 
    9173     9250     9485     9699     9698     9545     9466     9525 
    9601     9566     9402     9238     9211     9229     9151     9053 
    9066     9212     9445     9621     9562     9309     9113     9107 
    9234     9362     9366     9252     9167     9209     9305     9342 
    9304     9232     9211     9333     9478     9394     9124     8999 
    9189     9525     9701     9571     9290     9150     9248     9408 
    9439     9339     9250     9317     9509     9605     9490     9321 
    9275     9312     9285     9205     9207     9317     9463     9580 
    9614     9537     9390     9265     9255     9329     9329     9185 
    9057     9142     9394     9605     9655     9580     9521     9593 
    9726     9734     9539     9274     9154     9202     9220     9080 
    8907     8916     9144     9370     9374     9242     9180     9229 
    9339     9458     9528     9528     9467     9386     9344     9336 
    9304     9231     9166     9194     9317     9393     9313     9148 
    9049     9070     9175     9315     9418     9466     9541     9724 
    9927     9971     9765     9452     9270     9286     9377     9421 
    9424     9447     9489     9509     9518     9489     9336     9120 
    9034     9119     9263     9386     9436     9373     9220     9061 
    8997     9042     9100     9150     9232     9297     9304     9289 
    9301     9386     9528     9629     9591     9418     9227     9159 
    9231     9320     9340     9317     9286     9267     9283     9325 
    9363     9383     9390     9412     9447     9439     9363     9293 
    9305     9375     9440     9477     9481     9451     9423     9433 
    9452     9423     9364     9342     9348     9336     9305     9301 
    9320     9319     9302     9312     9347     9370     9367     9369 
    9405     9464     9441     9273     9072     8996     9020     9035 
    9040     9104     9247     9414     9485     9408     9275     9216 
    9273     9364     9396     9378     9375     9421     9490     9525 
    9502     9437     9367     9350     9398     9413     9331     9281 
    9389     9555     9617     9522     9342     9208     9220     9332 
    9414     9431     9452     9520     9606     9651     9591     9454 
    9332     9277     9279     9296     9288     9279     9301     9328 
    9300     9196     9104     9138     9265     9347     9308     9217 
