Origin Time       2025/03/30 10:18:00
Lat.              34.667
Long.             140.825
Depth. (km)       69
Mag.              4.9
Station Code      YMN002
Station Lat.      35.6133
Station Long.     138.9473
Station Height(m) 365
Record Time       2025/03/30 10:19:23
Sampling Freq(Hz) 100Hz
Duration Time(s)  60
Dir.              N-S
Scale Factor      7845(gal)/8223790
Max. Acc. (gal)   2.138
Last Correction   2025/03/30 10:19:23
Memo.             
[...]
    2458     2292     2092     1975     1973     2083     2173     2209 
    2290     2349     2339     2344     2343     2288     2245     2228 
    2160     2052     2026     2131     2290     2362     2274     2149 
    2123     2207     2353     2417     2332     2214     2172     2246 
    2367     2370     2249     2142     2069     2006     2012     2038 
    2035     2143     2400     2658     2722     2546     2276     2065 
    2030     2093     2057     1996     2027     2095     2200     2327 
    2377     2355     2320     2332     2394     2411     2370     2324 
    2234     2072     1910     1837     1877     1988     2141     2331 
    2474     2473     2362     2269     2255     2280     2293     2278 
    2189     2091     2176     2361     2403     2308     2168     2056 
    2062     2101     2058     2029     2115     2278     2438     2497 
    2444     2376     2307     2231     2200     2150     2035     2020 
    2174     2374     2511     2498     2367     2239     2151     2106 
    2074     2049     2070     2137     2224     2285     2258     2204 
    2184     2189     2238     2253     2188     2133     2154     2288 
    2473     2501     2389     2362     2355     2228     2127     2072 
    1973     2006     2196     2277     2258     2269     2242     2207 
    2231     2228     2153     2111     2203     2344     2389     2358 
    2301     2232     2211     2219     2195     2188     2212     2227 
    2239     2223     2166     2100     2054     2079     2153     2203 
    2201     2189     2254     2376     2444     2450     2335     2099 
    2038     2196     2307     2398     2489     2440     2386     2311 
    2061     1895     1964     2064     2147     2235     2261     2246 
    2259     2323     2380     2338     2211     2122     2133     2188 
    2249     2309     2290     2155     2043     2083     2238     2347 
    2332     2277     2212     2162     2220     2334     2358     2295 
    2227     2185     2111     2000     2029     2246     2347     2274 
    2290     2311     2269     2367     2398     2185     2047     2084 
    2131     2176     2181     2141     2160     2222     2297     2376 
    2365     2336     2404     2442     2326     2157     2049     2037 
    2146     2266     2289     2305     2297     2185     2089     2053 
    2047     2133     2265     2359     2392     2315     2149     2004 
    1971     2084     2304     2512     2558     2409     2290     2299 
    2219     2100     2119     2169     2235     2338     2297     2154 
    2116     2162     2182     2192     2204     2222     2274     2344 
    2362     2253     2045     1917     1966     2138     2292     2342 
    2323     2274     2242     2280     2301     2235     2218     2328 
    2436     2373     2145     2007     2111     2297     2419     2438 
    2323     2232     2292     2261     2039     1930     2029     2162 
    2292     2339     2276     2243     2200     2108     2076     2076 
    2084     2158     2289     2428     2512     2461     2263     2085 
    2106     2285     2440     2470     2367     2153     1976     1977 
    2092     2200     2208     2139     2138     2238     2388     2519 
    2479     2268     2066     1981     2010     2084     2151     2241 
    2336     2389     2404     2381     2339     2320     2319     2323 
    2238     2016     1879     1935     2056     2170     2253     2274 
    2263     2290     2367     2398     2335     2242     2154     2091 
    2108     2141     2135     2214     2392     2513     2512     2403 
    2296     2340     2448     2393     2160     1930     1811     1823 
    1979     2189     2276     2249     2266     2300     2273     2268 
    2277     2220     2180     2187     2173     2187     2242     2285 
    2319     2316     2292     2282     2230     2188     2236     2274 
    2214     2103     2070     2196     2370     2443     2385     2227 
    2062     2016     2060     2093     2126     2193     2280     2367 
    2417     2380     2282     2254     2317     2349     2282     2177 
    2110     2107     2158     2208     2181     2119     2118     2178 
    2246     2265     2245     2257     2277     2266     2282     2312 
    2334     2370     2347     2236     2111     2031     2049     2130 
    2173     2151     2093     2056     2123     2259     2366     2432 
    2428     2390     2431     2498     2467     2327     2143     2035 
    2019     2054     2150     2188     2124     2141     2195     2122 
    2027     2046     2169     2361     2525     2585     2536     2377 
    2197     2112     2103     2130     2173     2195     2185     2139 
    2096     2074     2056     2084     2193     2326     2409     2409 
    2315     2219     2232     2312     2371     2394     2377     2339 
    2308     2265     2192     2115     2080     2118     2191     2176 
    2087     2062     2096     2104     2112     2142     2193     2284 
    2369     2384     2309     2223     2236     2351     2478     2536 
    2461     2266     2029     1853     1836     1958     2084     2110 
    2133     2301     2515     2631     2671     2562     2253     2003 
    2030     2207     2309     2236     2057     1915     1895     2031 
    2246     2417     2512     2536     2513     2398     2134     1891 
    1838     1899     2004     2141     2228     2250     2274     2327 
    2400     2479     2555     2602     2560     2438     2295     2137 
    2000     1921     1873     1880     1961     2106     2278     2330 
    2220     2165     2261     2403     2512     2513     2369     2231 
    2254     2342     2342     2216     2015     1927     2070     2270 
    2335     2192     1927     1822     2008     2303     2439     2344 
    2204     2226     2377     2478     2485     2425     2317     2285 
    2313     2219     2049     1995     2072     2151     2147     2101 
    2099     2143     2223     2353     2446     2411     2316     2230 
    2142     2095     2126     2191     2195     2173     2227     2332 
    2408     2390     2288     2195     2147     2178     2272     2323 
    2289     2169     2018     1966     2015     2096     2201     2292 
    2373     2494     2616     2673     2593     2376     2151     2008 
    1871     1715     1694     1842     2061     2307     2484     2482 
    2393     2332     2343     2388     2334     2187     2073     1998 
    2043     2299     2527     2521     2377     2266     2277     2357 
    2408     2365     2161     1958     1971     2057     2033     1965 
    1949     1999     2085     2178     2296     2407     2459     2494 
    2489     2388     2289     2280     2296     2276     2212     2104 
    2002     1964     2010     2143     2261     2251     2215     2296 
    2458     2546     2438     2181     1953     1911     2039     2169 
    2265     2373     2435     2478     2513     2398     2220     2189 
    2201     2107     2006     2000     2069     2165     2250     2269 
    2182     2089     2126     2227     2270     2313     2388     2369 
    2292     2343     2484     2490     2366     2242     2108     1953 
    1883     1956     2108     2250     2322     2323     2263     2192 
    2234     2357     2374     2292     2230     2192     2147     2108 
    2103     2108     2089     2110     2189     2242     2319     2466 
    2508     2371     2209     2122     2115     2130     2099     2110 
    2220     2378     2555     2643     2539     2371     2224     2068 
    1991     2047     2096     2033     1956     1987     2110     2247 
    2335     2330     2255     2172     2143     2205     2290     2311 
    2305     2299     2242     2204     2250     2286     2299     2307 
    2253     2184     2165     2187     2246     2278     2232     2176 
    2147     2189     2317     2376     2293     2205     2201     2236 
    2216     2131     2061     2064     2154     2293     2397     2393 
    2273     2155     2131     2155     2208     2259     2251     2231 
    2241     2204     2131     2122     2151     2184     2280     2353 
    2301     2276     2358     2450     2505     2447     2261     2088 
    2035     2101     2192     2181     2068     1933     1888     2030 
    2253     2382     2413     2377     2284     2212     2164     2135 
    2222     2322     2297     2309     2401     2427     2398     2324 
    2176     2052     2000     2025     2126     2243     2350     2416 
    2412     2401     2393     2336     2223     2054     1899     1842 
    1881     2014     2231     2435     2513     2440     2308     2208 
    2184     2216     2200     2145     2138     2127     2138     2228 
    2292     2324     2388     2396     2335     2305     2340     2359 
    2266     2092     1983     2018     2112     2153     2161     2154 
    2126     2150     2200     2203     2214     2262     2328     2415 
    2452     2411     2334     2238     2165     2180     2270     2365 
    2343     2174     2026     2022     2118     2216     2223     2149 
    2112     2154     2226     2272     2278     2326     2427     2434 
    2327     2226     2172     2162     2160     2120     2080     2076 
    2149     2340     2506     2452     2307     2251     2209     2124 
    2069     2033     1984     1976     2064     2200     2296     2385 
    2505     2562     2516     2409     2304     2265     2238     2139 
    2004     1902     1892     1981     2088     2146     2168     2195 
    2280     2439     2575     2565     2421     2273     2243     2305 
    2313     2227     2120     2072     2120     2227     2308     2303 
    2246     2195     2131     2091     2099     2111     2146     2173 
    2138     2131     2227     2371     2462     2432     2354     2316 
    2290     2262     2269     2285     2238     2133     2039     1961 
    1938     2038     2178     2272     2316     2285     2212     2191 
    2263     2415     2502     2407     2255     2192     2189     2222 
    2258     2195     2046     1980     2096     2303     2408     2353 
    2219     2092     2068     2162     2232     2208     2176     2235 
    2367     2469     2505     2470     2361     2259     2232     2195 
    2111     2084     2093     2057     2039     2092     2166     2184 
    2115     2061     2068     2127     2273     2407     2466     2505 
    2457     2359     2371     2415     2384     2308     2192     2074 
    2020     2027     2064     2068     2004     1979     2069     2195 
    2293     2374     2448     2493     2467     2396     2351     2292 
    2160     2018     1939     1961     2127     2342     2432     2386 
    2281     2196     2182     2192     2178     2149     2089     2064 
    2127     2211     2304     2425     2489     2417     2263     2160 
    2161     2234     2327     2331     2226     2137     2115     2131 
    2119     2045     1991     2003     2054     2177     2349     2444 
    2432     2389     2346     2317     2301     2263     2228     2193 
    2112     2050     2083     2165     2259     2343     2366     2353 
    2304     2214     2155     2123     2106     2200     2349     2411 
    2413     2419     2465     2546     2546     2416     2211     2003 
    1895     1907     1910     1838     1780     1848     2066     2347 
    2558     2600     2509     2408     2307     2216     2219     2265 
    2304     2377     2413     2362     2263     2128     2019     1984 
    1999     2060     2133     2165     2215     2324     2428     2469 
    2439     2400     2417     2440     2417     2371     2309     2270 
    2303     2305     2118     1783     1521     1455     1526     1652 
    1796     1992     2286     2633     2924     3056     2964     2710 
    2493     2400     2280     1999     1674     1475     1412     1495 
    1744     2035     2289     2560     2840     3019     3019     2864 
    2704     2652     2636     2550     2415     2242     2047     1869 
    1664     1441     1320     1335     1471     1715     1979     2191 
    2358     2471     2479     2373     2223     2119     2087     2143 
    2290     2431     2500     2586     2712     2787     2806     2775 
    2635     2380     2091     1888     1849     1912     1979     1961 
    1802     1630     1667     1911     2253     2612     2862     2991 
    3106     3126     2943     2637     2319     2052     1842     1641 
    1476     1378     1389     1588     1792     1772     1678     1710 
    1929     2390     2984     3408     3485     3314     3091     2855 
    2502     2003     1490     1148     1075     1247     1578     1945 
    2224     2396     2535     2679     2790     2817     2767     2716 
    2664     2552     2415     2276     2069     1865     1777     1761 
    1749     1806     1991     2160     2182     2170     2293     2513 
    2690     2754     2694     2606     2605     2621     2529     2320 
    2065     1880     1736     1576     1526     1617     1749     1938 
    2162     2363     2589     2799     2889     2835     2679     2508 
    2336     2128     1964     1930     1999     2049     1934     1723 
    1637     1722     1942     2236     2416     2438     2521     2701 
    2776     2708     2613     2538     2434     2293     2182     2123 
    2127     2284     2501     2488     2185     1864     1733     1780 
    1954     2116     2038     1773     1634     1702     1821     1917 
    2027     2199     2450     2743     2960     3017     2968     2874 
    2654     2300     1944     1598     1269     1070     1040     1179 
    1505     1998     2670     3443     4077     4436     4468     4075 
    3334     2492     1710     1034      508      260      330      595 
     997     1579     2228     2741     3064     3175     3083     2952 
    2864     2722     2465     2073     1647     1414     1436     1647 
    2010     2393     2639     2681     2558     2473     2524     2546 
    2411     2126     1804     1671     1830     2146     2403     2500 
    2493     2471     2515     2674     2899     3051     3036     2884 
    2621     2273     1965     1752     1609     1566     1566     1547 
    1588     1729     1934     2077     1971     1683     1441     1317 
    1409     1817     2365     2849     3260     3609     3782     3609 
    3123     2582     2158     1827     1607     1559     1647     1794 
    2025     2328     2519     2523     2461     2366     2239     2108 
    1937     1794     1826     2042     2301     2415     2342     2227 
    2188     2308     2569     2700     2523     2223     2038     2022 
    2114     2204     2184     2091     2126     2335     2578     2721 
    2616     2263     1903     1634     1436     1404     1522     1648 
    1802     2066     2425     2856     3265     3480     3372     2968 
    2550     2367     2299     2158     1941     1711     1601     1709 
    1965     2209     2317     2312     2313     2363     2425     2455 
    2377     2133     1829     1659     1687     1764     1734     1638 
    1647     1902     2361     2782     2965     2986     3029     3146 
    3244     3133     2701     2127     1668     1356     1075      761 
     498      484      831     1439     2161     2884     3437     3700 
    3774     3757     3609     3350     3076     2808     2548     2361 
    2223     2069     1871     1599     1343     1227     1224     1347 
    1674     2004     2056     1998     2154     2462     2724     2836 
    2702     2419     2276     2296     2215     1960     1749     1765 
    1968     2191     2307     2350     2444     2629     2848     3015 
    3048     2901     2596     2212     1821     1440     1147     1035 
    1086     1277     1583     1884     2134     2385     2604     2752 
    2857     2955     3003     2828     2498     2359     2475     2647 
    2712     2490     1981     1553     1547     1908     2286     2373 
    2187     1944     1877     2158     2646     2994     3059     2857 
    2423     1956     1741     1738     1698     1611     1613     1676 
    1792     2049     2378     2589     2619     2535     2396     2238 
    2165     2285     2520     2668     2682     2646     2533     2266 
    1858     1498     1428     1668     2046     2417     2620     2548 
    2334     2142     1993     1903     1937     2083     2282     2496 
    2646     2682     2609     2428     2218     2073     1976     1934 
    2038     2262     2421     2440     2362     2255     2227     2265 
    2255     2191     2093     2011     1998     2012     2003     1964 
    1954     2095     2428     2867     3204     3285     3133     2889 
    2685     2477     2126     1671     1212      853      799     1073 
    1448     1834     2199     2401     2462     2552     2691     2852 
    3022     3068     2911     2697     2574     2512     2386     2142 
    1817     1505     1328     1329     1428     1533     1610     1723 
    1977     2307     2519     2609     2686     2752     2826     2949 
    3105     3252     3227     2916     2492     2124     1830     1632 
    1459     1279     1223     1321     1586     2014     2354     2435 
    2404     2420     2475     2462     2382     2384     2434     2430 
    2423     2411     2331     2234     2173     2135     2076     2006 
    2014     2168     2431     2705     2897     2968     2852     2486 
    1995     1601     1402     1421     1599     1829     2074     2255 
    2300     2346     2463     2577     2690     2740     2646     2463 
    2212     1956     1802     1663     1532     1594     1850     2165 
    2432     2590     2673     2708     2694     2655     2524     2249 
    1965     1799     1773     1857     1957     2046     2133     2166 
    2187     2282     2397     2496     2667     2867     2847     2554 
    2277     2181     2122     2023     1910     1723     1536     1575 
    1917     2388     2718     2767     2616     2451     2397     2442 
    2447     2311     2074     1880     1822     1838     1861     1956 
    2174     2482     2798     2967     2870     2565     2200     1965 
    2015     2230     2344     2253     1956     1609     1501     1682 
    1976     2250     2411     2404     2342     2324     2288     2234 
    2261     2289     2220     2128     2111     2204     2370     2533 
    2582     2424     2189     2066     2039     2043     2066     2068 
    2033     2015     2061     2112     2137     2209     2324     2428 
    2551     2694     2802     2816     2677     2447     2254     2185 
    2288     2376     2188     1826     1580     1579     1771     1965 
    2035     2068     2135     2239     2412     2554     2515     2439 
    2455     2404     2315     2350     2386     2305     2170     2084 
    2120     2181     2184     2192     2181     2137     2114     2079 
    2020     1976     1952     1996     2116     2259     2425     2574 
    2613     2569     2528     2505     2435     2282     2092     1929 
    1848     1914     2097     2253     2308     2332     2397     2477 
    2504     2474     2392     2207     1938     1706     1567     1534 
    1653     1884     2131     2362     2547     2691     2845     3019 
    3168     3181     2944     2506     2034     1669     1505     1521 
    1617     1698     1745     1868     2068     2222     2363     2520 
    2608     2623     2548     2446     2430     2393     2249     2041 
    1765     1563     1656     1984     2273     2351     2305     2261 
