Origin Time       2025/03/30 10:18:00
Lat.              34.667
Long.             140.825
Depth. (km)       69
Mag.              4.9
Station Code      YMN002
Station Lat.      35.6133
Station Long.     138.9473
Station Height(m) 365
Record Time       2025/03/30 10:19:23
Sampling Freq(Hz) 100Hz
Duration Time(s)  60
Dir.              E-W
Scale Factor      7845(gal)/8223790
Max. Acc. (gal)   1.736
Last Correction   2025/03/30 10:19:23
Memo.             
[...]
    7870     7819     7858     8023     8298     8375     8257     8185 
    8077     7882     7819     7912     7993     8108     8280     8298 
    8187     8189     8228     8139     8070     8171     8291     8301 
    8271     8235     8160     8052     7993     8048     8156     8214 
    8140     7989     7990     8132     8185     8190     8229     8167 
    8046     8024     8058     8023     7946     7913     7932     8001 
    8125     8276     8386     8391     8294     8152     8064     8089 
    8118     8098     8172     8332     8348     8208     8118     8063 
    7921     7816     7855     8025     8295     8500     8486     8305 
    8051     7798     7773     8024     8185     8179     8262     8333 
    8245     8077     7927     7916     8029     8149     8266     8290 
    8174     8112     8141     8097     8079     8216     8309     8275 
    8243     8160     7978     7871     7909     7973     8062     8225 
    8370     8361     8220     8086     8082     8147     8101     8036 
    8110     8159     8182     8225     8074     7866     7873     7971 
    8071     8203     8290     8317     8294     8191     8135     8201 
    8216     8097     7933     7781     7751     7911     8127     8294 
    8397     8343     8151     8058     8154     8235     8201     8124 
    8052     8067     8209     8320     8301     8239     8141     7997 
    7923     7978     8094     8178     8176     8164     8168     8104 
    8046     8078     8070     8063     8174     8232     8170     8158 
    8174     8140     8121     8104     8046     8051     8151     8209 
    8171     8124     8095     8066     8098     8149     8118     8124 
    8247     8344     8352     8291     8175     8054     7950     7912 
    7997     8113     8147     8090     8020     8021     8122     8251 
    8299     8221     8089     7978     7915     7992     8195     8303 
    8318     8318     8116     7835     7854     8058     8194     8268 
    8270     8195     8108     8060     8124     8262     8302     8205 
    8094     8029     8012     8028     8036     8067     8167     8266 
    8266     8199     8151     8094     8000     7952     8016     8179 
    8320     8274     8168     8148     8009     7854     7962     8117 
    8154     8170     8197     8232     8225     8221     8271     8255 
    8212     8202     8135     8036     7966     7917     7943     8063 
    8162     8186     8216     8253     8259     8199     8098     8058 
    8036     8002     8082     8159     8091     8102     8240     8241 
    8168     8164     8086     8006     8068     8118     8114     8081 
    7932     7788     7858     8104     8336     8476     8588     8594 
    8376     8121     7954     7878     7989     8155     8233     8287 
    8179     7912     7820     7913     8021     8198     8417     8499 
    8395     8137     7846     7685     7670     7815     8148     8440 
    8419     8198     8073     8094     8149     8213     8266     8230 
    8195     8263     8293     8172     7940     7715     7719     7962 
    8156     8275     8425     8401     8181     8102     8149     8151 
    8260     8384     8251     8033     7935     7892     7900     8001 
    8086     8071     8094     8256     8428     8448     8306     8132 
    7977     7797     7796     8113     8361     8289     8136     8033 
    7952     7971     8094     8243     8325     8280     8203     8162 
    8100     8052     8025     7983     8016     8108     8182     8235 
    8217     8168     8187     8172     8124     8131     8122     8122 
    8159     8121     8004     7885     7844     7948     8133     8244 
    8241     8217     8247     8299     8297     8252     8225     8213 
    8198     8149     8064     8004     7956     7923     7956     7987 
    7985     8028     8105     8225     8405     8475     8356     8193 
    8079     8037     8098     8190     8179     8120     8152     8194 
    8085     8013     8164     8251     8152     8077     7990     7875 
    7890     7985     8062     8132     8187     8228     8226     8170 
    8163     8206     8170     8118     8174     8298     8383     8352 
    8216     8043     7906     7874     7933     8041     8158     8189 
    8145     8152     8186     8127     8001     7947     7994     8033 
    8039     8118     8235     8241     8183     8168     8198     8255 
    8318     8313     8225     8079     7936     7986     8203     8338 
    8347     8232     7994     7843     7875     7942     8000     8087 
    8156     8190     8225     8298     8364     8264     8056     7951 
    7962     8043     8163     8251     8276     8202     8056     8004 
    8066     8133     8171     8187     8216     8262     8267     8282 
    8282     8117     7885     7781     7801     7912     8085     8205 
    8191     8095     8044     8100     8229     8406     8526     8460 
    8260     8041     7875     7815     7851     7959     8100     8194 
    8241     8247     8154     8025     8004     8054     8118     8236 
    8353     8391     8322     8102     7882     7890     8056     8247 
    8432     8463     8255     7982     7812     7773     7878     8093 
    8267     8270     8149     8082     8108     8129     8164     8286 
    8401     8384     8225     8078     8047     7997     7898     7889 
    7982     8145     8317     8348     8181     7950     7885     8028 
    8195     8279     8279     8191     8059     7950     7929     7992 
    8046     8128     8337     8549     8571     8425     8220     7981 
    7803     7807     7939     8029     8089     8163     8141     8102 
    8181     8220     8145     8113     8178     8259     8235     8073 
    7905     7821     7813     7948     8201     8379     8456     8545 
    8549     8356     8101     7929     7873     7927     8036     8102 
    8055     7946     7896     7928     8024     8182     8357     8527 
    8633     8541     8271     7989     7819     7784     7825     7882 
    7990     8117     8135     8114     8182     8239     8252     8325 
    8411     8392     8286     8113     7948     7978     8097     8046 
    7928     7908     7920     7955     8054     8162     8279     8397 
    8399     8284     8199     8145     8047     7974     8004     8112 
    8240     8282     8178     8008     7909     7956     8093     8201 
    8251     8260     8243     8224     8228     8237     8174     8013 
    7900     7936     8016     8094     8168     8129     8050     8077 
    8166     8259     8298     8172     7983     7920     7956     8066 
    8259     8422     8464     8299     8010     7884     7950     8085 
    8218     8182     7965     7866     8002     8182     8338     8479 
    8419     8143     7950     7989     8098     8132     8144     8128 
    8008     7923     8029     8228     8336     8324     8330     8361 
    8266     8140     8098     7970     7782     7773     7897     8017 
    8132     8206     8220     8217     8221     8280     8353     8270 
    8144     8187     8253     8176     8047     7973     7971     8014 
    8044     8046     8086     8218     8307     8264     8201     8109 
    8013     8077     8141     8055     8016     8067     8048     7996 
    8023     8105     8162     8185     8244     8325     8278     8159 
    8175     8197     8058     7982     8078     8124     8068     8059 
    8077     8055     8110     8241     8307     8343     8370     8284 
    8122     8004     7935     7909     7912     7929     8027     8174 
    8224     8183     8179     8241     8305     8333     8359     8343 
    8224     8078     7940     7786     7740     7859     7974     8004 
    8048     8162     8284     8303     8280     8367     8415     8278 
    8120     8059     8032     8013     8016     8037     8054     8077 
    8135     8171     8183     8239     8284     8259     8197     8124 
    8074     8066     8033     7965     7979     8113     8210     8201 
    8167     8132     8091     8079     8110     8222     8360     8310 
    8112     8046     8070     8002     8021     8222     8268     8089 
    8010     8081     8091     8021     8020     8141     8262     8310 
    8313     8222     8048     7992     8078     8121     8102     8067 
    7967     7923     8020     8089     8086     8176     8321     8345 
    8359     8453     8432     8270     8127     7966     7793     7753 
    7861     8023     8128     8144     8131     8087     8071     8174 
    8332     8428     8403     8262     8097     8021     8023     8021 
    7951     7861     7894     8012     8114     8280     8428     8386 
    8303     8283     8214     8145     8117     8071     8060     8051 
    7974     7920     7946     8025     8159     8272     8297     8271 
    8181     8059     8051     8158     8259     8318     8314     8198 
    8010     7873     7852     7943     8064     8129     8136     8124 
    8143     8201     8203     8152     8181     8270     8295     8247 
    8129     7963     7858     7866     7967     8158     8374     8480 
    8405     8229     8114     8154     8221     8162     8085     8071 
    8016     7975     7979     7882     7773     7854     8043     8203 
    8307     8345     8320     8240     8166     8185     8237     8236 
    8214     8195     8132     8050     7990     7938     7909     7965 
    8070     8132     8151     8182     8235     8286     8279     8183 
    8109     8124     8127     8116     8148     8148     8141     8210 
    8236     8168     8097     8041     8046     8102     8120     8154 
    8244     8287     8232     8139     8032     7929     7901     7967 
    8041     8021     7944     7917     7967     8128     8348     8487 
    8503     8402     8259     8210     8209     8144     8062     7981 
    7917     7962     8024     7973     7950     8050     8122     8106 
    8097     8197     8372     8429     8341     8301     8311     8225 
    8105     8048     8014     7997     7960     7878     7888     8041 
    8172     8210     8243     8245     8199     8201     8197     8091 
    8010     8009     8019     8098     8208     8216     8198     8217 
    8186     8136     8139     8152     8162     8162     8175     8257 
    8287     8205     8148     8095     7960     7905     8013     8093 
    8101     8149     8171     8093     8046     8112     8148     8050 
    7927     7905     7973     8074     8209     8392     8478     8363 
    8251     8226     8176     8159     8174     8129     8090     8059 
    8009     8017     8028     7962     7917     7963     8046     8127 
    8233     8333     8275     8078     7987     8095     8279     8374 
    8274     8075     7959     7978     8131     8321     8383     8303 
    8148     7969     7904     7983     8060     8094     8125     8112 
    8095     8113     8116     8120     8097     8068     8179     8309 
    8284     8264     8271     8179     8117     8132     8116     8104 
    8083     7986     7905     7894     7932     8070     8271     8374 
    8370     8352     8289     8171     8090     8040     8009     8047 
    8081     8055     8060     8048     8024     8194     8387     8344 
    8245     8164     7994     7886     7950     8083     8233     8302 
    8216     8149     8183     8198     8218     8305     8402     8425 
    8333     8185     8062     7981     7965     7944     7844     7781 
    7808     7858     7921     7973     8004     8110     8262     8405 
    8561     8635     8576     8437     8217     8020     8002     8082 
    8120     8137     8090     7944     7901     8013     8043     7986 
    8081     8225     8179     8086     8105     8132     8128     8135 
    8163     8156     8002     7821     7807     7866     7960     8151 
    8245     8144     8043     8039     8102     8202     8226     8176 
    8166     8151     8108     8158     8282     8359     8402     8428 
    8410     8432     8498     8471     8333     8147     7861     7549 
    7372     7344     7450     7638     7773     7861     8029     8252 
    8469     8712     8864     8810     8695     8586     8361     7998 
    7626     7372     7311     7446     7681     7912     8075     8120 
    8143     8314     8571     8753     8874     8942     8846     8594 
    8302     8008     7788     7766     7915     8101     8245     8318 
    8240     8017     7823     7730     7645     7595     7685     7842 
    7986     8133     8256     8343     8417     8494     8580     8598 
    8544     8511     8425     8194     7958     7753     7550     7539 
    7690     7743     7794     7960     8122     8344     8684     8935 
    8935     8784     8626     8428     8148     7878     7636     7385 
    7294     7489     7794     8059     8276     8388     8397     8371 
    8317     8232     8132     8094     8168     8213     8148     8036 
    7852     7670     7673     7857     8064     8235     8410     8550 
    8521     8398     8347     8221     7975     7932     8174     8483 
    8731     8800     8614     8316     8074     7925     7859     7801 
    7692     7576     7527     7578     7703     7835     7929     7958 
    7959     8036     8166     8256     8266     8181     8085     8023 
    7971     8012     8170     8317     8432     8541     8572     8588 
    8683     8772     8804     8760     8591     8334     8048     7723 
    7310     6961     6991     7344     7736     8160     8575     8760 
    8802     8910     9007     8926     8618     8235     7902     7515 
    7123     6922     6794     6623     6670     7101     7742     8440 
    9116     9628     9896     9949     9807     9548     9228     8725 
    8012     7350     6926     6787     6997     7391     7623     7577 
    7541     7842     8395     8899     9236     9386     9248     8795 
    8210     7782     7582     7425     7264     7234     7308     7388 
    7522     7662     7669     7651     7759     8017     8397     8698 
    8810     8853     8806     8676     8649     8707     8734     8698 
    8542     8279     7973     7631     7346     7295     7533     8020 
    8571     8907     9015     8950     8676     8349     8085     7773 
    7425     7204     7171     7211     7257     7423     7674     7776 
    7827     8056     8368     8660     8924     8986     8734     8328 
    7998     7923     8056     8181     8270     8357     8401     8579 
    9022     9362     9238     8756     8176     7690     7411     7292 
    7261     7304     7317     7287     7472     7928     8306     8353 
    8189     7982     7863     7993     8316     8548     8568     8483 
    8433     8502     8579     8498     8299     8095     7981     8012 
    8029     7921     7770     7618     7562     7751     8133     8541 
    8856     9026     9058     8915     8565     8140     7778     7524 
    7452     7620     7882     7994     7912     7793     7800     7985 
    8240     8367     8293     8075     7863     7782     7815     7967 
    8214     8372     8419     8480     8572     8719     8927     9030 
    8947     8676     8167     7546     7005     6631     6546     6825 
    7339     7886     8337     8580     8542     8409     8500     8834 
    9130     9202     9020     8608     8070     7576     7323     7396 
    7713     8152     8537     8680     8530     8144     7761     7703 
    7938     8139     8145     7998     7736     7524     7582     7878 
    8236     8549     8768     8892     8934     8777     8388     7948 
    7596     7375     7321     7437     7654     7855     8056     8276 
    8334     8163     8006     8136     8537     8895     8996     8877 
    8511     7933     7484     7338     7273     7236     7433     7832 
    8259     8684     9045     9234     9215     8943     8560     8333 
    8195     7986     7790     7607     7388     7299     7453     7742 
    8039     8235     8202     8006     7911     8019     8213     8410 
    8573     8716     8868     8926     8820     8569     8114     7491 
    6993     6870     7015     7219     7503     7862     8149     8394 
    8665     8887     8992     8934     8745     8521     8218     7820 
    7479     7296     7226     7299     7585     8028     8464     8833 
    9235     9591     9634     9371     8954     8378     7715     7213 
    6974     6929     7022     7196     7402     7739     8239     8629 
    8756     8776     8827     8903     8932     8814     8502     8131 
    7878     7755     7647     7479     7377     7485     7622     7632 
    7699     7929     8199     8513     8874     9088     9061     8930 
    8789     8638     8391     7979     7628     7530     7526     7623 
    7916     8160     8229     8218     8023     7614     7263     7206 
    7434     7769     8048     8245     8383     8401     8297     8206 
    8193     8195     8252     8476     8791     8951     8866     8625 
    8298     7965     7821     7925     8027     7971     7882     7866 
    7925     8004     7977     7871     7874     7967     8002     8006 
    8035     8062     8097     8112     8109     8214     8399     8509 
    8556     8553     8479     8469     8577     8602     8437     8206 
    7992     7742     7551     7581     7740     7843     7854     7847 
    7956     8197     8413     8513     8480     8351     8209     8071 
    7971     8044     8168     8140     8100     8125     8093     8036 
    7986     7902     7874     7935     8032     8110     8101     8106 
    8249     8437     8559     8557     8432     8297     8160     7971 
    7844     7801     7794     7869     7942     7893     7821     7890 
    8097     8275     8336     8341     8243     8074     8041     8127 
    8256     8392     8372     8268     8268     8320     8382     8422 
    8305     8125     8000     7863     7800     7893     8032     8154 
    8191     8110     8047     8029     8041     8186     8352     8405 
    8464     8590     8645     8478     8140     7842     7641     7522 
    7576     7742     7743     7641     7819     8270     8629     8762 
    8780     8703     8505     8293     8143     7998     7788     7555 
    7510     7635     7655     7565     7539     7657     8021     8548 
    8920     9084     9123     8930     8514     8047     7676     7577 
    7700     7863     8127     8403     8384     8059     7726     7618 
    7746     8014     8336     8533     8511     8494     8595     8553 
    8320     8156     8137     8189     8210     8079     7865     7676 
    7501     7469     7728     8125     8361     8387     8344     8274 
    8164     8094     8108     8181     8343     8556     8631     8510 
    8313     8059     7705     7329     7090     7133     7443     7881 
    8278     8510     8662     8881     9089     9109     9005     8943 
    8812     8480     8027     7511     7065     6952     7153     7416 
    7666     7924     8144     8357     8572     8676     8689     8618 
    8318     7948     7767     7680     7626     7712     7857     7983 
    8151     8314     8509     8834     9061     8926     8510     8075 
    7825     7762     7769     7801     7830     7852     7923     8032 
    8141     8283     8444     8499     8433     8340     8209     8036 
    7942     7943     7929     7888     7875     7861     7877     8016 
    8189     8264     8221     8085     7978     8020     8164     8311 
    8352     8226     8090     8075     8093     8154     8302     8353 
    8162     7848     7716     7909     8105     8054     7992     8097 
