Origin Time       2025/03/30 10:18:00
Lat.              34.667
Long.             140.825
Depth. (km)       69
Mag.              4.9
Station Code      YMN002
Station Lat.      35.6133
Station Long.     138.9473
Station Height(m) 365
Record Time       2025/03/30 10:19:23
Sampling Freq(Hz) 100Hz
Duration Time(s)  60
Dir.              U-D
Scale Factor      7845(gal)/8223790
Max. Acc. (gal)   0.740
Last Correction   2025/03/30 10:19:23
Memo.             
[...]
  -14527   -14377   -14453   -14681   -14871   -14990   -15153   -15311 
  -15229   -14914   -14659   -14589   -14571   -14554   -14619   -14756 
  -14886   -14998   -15091   -15118   -15068   -14958   -14801   -14671 
  -14661   -14746   -14829   -14854   -14847   -14848   -14825   -14750 
  -14701   -14758   -14875   -14959   -14955   -14904   -14889   -14868 
  -14735   -14590   -14629   -14791   -14928   -15007   -14978   -14885 
  -14909   -14933   -14767   -14625   -14681   -14762   -14750   -14744 
  -14856   -15001   -15005   -14941   -14940   -14899   -14779   -14705 
  -14715   -14746   -14790   -14889   -15025   -15080   -14995   -14872 
  -14823   -14796   -14679   -14553   -14611   -14821   -14958   -14958 
  -14921   -14872   -14789   -14743   -14773   -14740   -14638   -14663 
  -14825   -14978   -15075   -15091   -15052   -15005   -14885   -14709 
  -14597   -14575   -14647   -14759   -14891   -15047   -15048   -14881 
  -14790   -14821   -14821   -14754   -14717   -14748   -14774   -14802 
  -14889   -14994   -15040   -14999   -14894   -14767   -14639   -14571 
  -14640   -14755   -14801   -14808   -14852   -14958   -15059   -15071 
  -14990   -14856   -14682   -14567   -14631   -14786   -14889   -14931 
  -14917   -14944   -15036   -15029   -14940   -14827   -14696   -14644 
  -14629   -14586   -14631   -14781   -14926   -15013   -15021   -14983 
  -14928   -14817   -14705   -14700   -14751   -14778   -14797   -14790 
  -14755   -14797   -14924   -14990   -14968   -14929   -14874   -14808 
  -14746   -14693   -14708   -14816   -14960   -15018   -14949   -14883 
  -14863   -14805   -14760   -14813   -14904   -14948   -14931   -14886 
  -14840   -14773   -14731   -14746   -14704   -14632   -14696   -14866 
  -14995   -15005   -14962   -14971   -14937   -14755   -14613   -14651 
  -14689   -14642   -14666   -14836   -14978   -14949   -14894   -14951 
  -15018   -15024   -14994   -14890   -14671   -14465   -14519   -14806 
  -14958   -14893   -14913   -15039   -15026   -14891   -14809   -14771 
  -14692   -14612   -14635   -14751   -14851   -14956   -15102   -15113 
  -14922   -14774   -14759   -14709   -14661   -14721   -14796   -14835 
  -14818   -14770   -14832   -14971   -14995   -14881   -14775   -14773 
  -14804   -14823   -14890   -14974   -14955   -14831   -14702   -14682 
  -14759   -14824   -14872   -14902   -14859   -14818   -14818   -14831 
  -14872   -14904   -14866   -14769   -14669   -14706   -14885   -14978 
  -14926   -14870   -14833   -14789   -14762   -14759   -14783   -14785 
  -14739   -14736   -14790   -14852   -14931   -15002   -15029   -14998 
  -14912   -14829   -14781   -14767   -14794   -14810   -14818   -14850 
  -14852   -14804   -14758   -14762   -14837   -14904   -14863   -14805 
  -14831   -14860   -14817   -14775   -14816   -14852   -14794   -14744 
  -14789   -14889   -15028   -15111   -15016   -14828   -14725   -14706 
  -14682   -14659   -14708   -14835   -14916   -14878   -14836   -14871 
  -14913   -14914   -14852   -14756   -14754   -14837   -14918   -14975 
  -14964   -14877   -14770   -14685   -14656   -14704   -14801   -14883 
  -14871   -14824   -14848   -14885   -14858   -14818   -14856   -14929 
  -14867   -14717   -14709   -14850   -14956   -14936   -14841   -14787 
  -14767   -14700   -14634   -14643   -14736   -14862   -14932   -14921 
  -14902   -14935   -14993   -15018   -14998   -14897   -14715   -14582 
  -14601   -14715   -14868   -15036   -15098   -14990   -14812   -14716 
  -14729   -14733   -14724   -14779   -14855   -14904   -14924   -14945 
  -14978   -14931   -14785   -14673   -14686   -14808   -14920   -14926 
  -14905   -14906   -14848   -14785   -14827   -14881   -14829   -14708 
  -14629   -14666   -14728   -14748   -14827   -14960   -15014   -14943 
  -14823   -14771   -14833   -14928   -14970   -14929   -14859   -14797 
  -14689   -14624   -14719   -14821   -14828   -14848   -14916   -14953 
  -14909   -14836   -14816   -14793   -14728   -14744   -14860   -14912 
  -14858   -14829   -14833   -14798   -14809   -14890   -14886   -14800 
  -14797   -14870   -14867   -14794   -14801   -14889   -14878   -14771 
  -14764   -14852   -14895   -14875   -14852   -14863   -14871   -14879 
  -14948   -14987   -14889   -14751   -14731   -14798   -14805   -14748 
  -14719   -14675   -14644   -14763   -15007   -15155   -15028   -14766 
  -14642   -14671   -14755   -14875   -14967   -14958   -14864   -14791 
  -14800   -14796   -14728   -14740   -14864   -14943   -14895   -14796 
  -14769   -14809   -14800   -14777   -14844   -14945   -14960   -14862 
  -14801   -14872   -14904   -14818   -14763   -14760   -14724   -14708 
  -14793   -14921   -14947   -14854   -14832   -14933   -14951   -14856 
  -14804   -14766   -14693   -14717   -14847   -14925   -14864   -14751 
  -14774   -14917   -14979   -14940   -14889   -14813   -14750   -14782 
  -14889   -14951   -14902   -14813   -14794   -14801   -14724   -14628 
  -14627   -14706   -14793   -14866   -14958   -15032   -15009   -14882 
  -14752   -14733   -14777   -14763   -14704   -14725   -14901   -15088 
  -15101   -15003   -14910   -14773   -14611   -14544   -14617   -14779 
  -14916   -14980   -15043   -15101   -15083   -14976   -14836   -14671 
  -14507   -14459   -14566   -14716   -14859   -15016   -15132   -15125 
  -15007   -14867   -14737   -14654   -14678   -14755   -14775   -14775 
  -14821   -14871   -14901   -14898   -14852   -14812   -14816   -14863 
  -14929   -14978   -14966   -14872   -14769   -14756   -14832   -14854 
  -14744   -14652   -14678   -14760   -14894   -15025   -14999   -14859 
  -14770   -14747   -14744   -14777   -14831   -14850   -14798   -14742 
  -14773   -14823   -14831   -14855   -14878   -14850   -14817   -14841 
  -14894   -14917   -14899   -14871   -14864   -14894   -14906   -14850 
  -14794   -14813   -14829   -14796   -14814   -14901   -14908   -14783 
  -14685   -14756   -14885   -14887   -14821   -14820   -14848   -14821 
  -14744   -14701   -14766   -14905   -14995   -14956   -14839   -14778 
  -14794   -14817   -14856   -14872   -14783   -14719   -14781   -14843 
  -14840   -14879   -14990   -14990   -14809   -14689   -14744   -14783 
  -14759   -14841   -14985   -15026   -15012   -14982   -14868   -14705 
  -14611   -14619   -14627   -14600   -14624   -14748   -14943   -15118 
  -15180   -15114   -14962   -14770   -14581   -14482   -14567   -14750 
  -14862   -14931   -15044   -15111   -15056   -14940   -14809   -14677 
  -14604   -14638   -14747   -14850   -14912   -14982   -15041   -14975 
  -14805   -14713   -14756   -14823   -14814   -14817   -14926   -14985 
  -14862   -14737   -14732   -14758   -14751   -14739   -14763   -14824 
  -14879   -14897   -14889   -14904   -14941   -14918   -14827   -14770 
  -14793   -14825   -14827   -14854   -14918   -14908   -14805   -14754 
  -14790   -14798   -14764   -14787   -14850   -14840   -14786   -14797 
  -14852   -14886   -14885   -14858   -14812   -14775   -14796   -14843 
  -14843   -14855   -14922   -14926   -14848   -14804   -14785   -14748 
  -14743   -14759   -14752   -14773   -14874   -14972   -14979   -14936 
  -14891   -14821   -14781   -14823   -14841   -14804   -14798   -14818 
  -14828   -14887   -14997   -14997   -14818   -14615   -14534   -14581 
  -14682   -14796   -14926   -15021   -15032   -15006   -14937   -14820 
  -14732   -14708   -14767   -14885   -14945   -14929   -14914   -14936 
  -14967   -14920   -14804   -14728   -14642   -14484   -14453   -14632 
  -14832   -14952   -15039   -15106   -15090   -14952   -14827   -14814 
  -14796   -14710   -14674   -14732   -14840   -14937   -14947   -14902 
  -14871   -14844   -14813   -14760   -14683   -14685   -14770   -14829 
  -14855   -14904   -14960   -14974   -14931   -14864   -14791   -14735 
  -14702   -14715   -14809   -14932   -15007   -15045   -15001   -14836 
  -14708   -14740   -14800   -14751   -14647   -14632   -14739   -14839 
  -14917   -15033   -15079   -14980   -14820   -14706   -14704   -14742 
  -14748   -14786   -14871   -14902   -14843   -14812   -14872   -14916 
  -14863   -14791   -14770   -14727   -14638   -14677   -14874   -14995 
  -14956   -14937   -14993   -14989   -14895   -14828   -14797   -14708 
  -14592   -14580   -14683   -14813   -14958   -15101   -15118   -14968 
  -14760   -14643   -14640   -14690   -14786   -14921   -15017   -15028 
  -14976   -14920   -14868   -14820   -14793   -14760   -14678   -14616 
  -14688   -14824   -14895   -14908   -14904   -14867   -14791   -14750 
  -14778   -14779   -14724   -14748   -14885   -14964   -14935   -14932 
  -14987   -14983   -14886   -14825   -14860   -14837   -14686   -14577 
  -14638   -14809   -14978   -15026   -14940   -14874   -14891   -14852 
  -14724   -14679   -14769   -14797   -14702   -14709   -14933   -15122 
  -15064   -14912   -14845   -14794   -14692   -14616   -14611   -14675 
  -14791   -14895   -14962   -15002   -15043   -15076   -15022   -14859 
  -14688   -14602   -14607   -14646   -14754   -14944   -15072   -15033 
  -14916   -14860   -14859   -14802   -14678   -14605   -14634   -14715 
  -14825   -14943   -15040   -15113   -15101   -14971   -14812   -14733 
  -14716   -14663   -14612   -14679   -14833   -14945   -14945   -14862 
  -14775   -14740   -14743   -14775   -14800   -14783   -14774   -14797 
  -14840   -14931   -15002   -14999   -14980   -14933   -14840   -14805 
  -14843   -14864   -14812   -14704   -14654   -14705   -14758   -14773 
  -14810   -14887   -14953   -14947   -14898   -14887   -14886   -14804 
  -14690   -14659   -14713   -14786   -14845   -14906   -14990   -15082 
  -15111   -15020   -14881   -14791   -14712   -14623   -14578   -14585 
  -14667   -14836   -15003   -15066   -15025   -14945   -14852   -14752 
  -14647   -14586   -14629   -14729   -14856   -14990   -15032   -14989 
  -14962   -14901   -14775   -14702   -14727   -14775   -14782   -14758 
  -14797   -14904   -14985   -15051   -15086   -14985   -14796   -14658 
  -14593   -14577   -14631   -14736   -14824   -14878   -14912   -14913 
  -14912   -14966   -14990   -14877   -14708   -14650   -14725   -14814 
  -14859   -14933   -15047   -15066   -14960   -14872   -14836   -14747 
  -14604   -14509   -14574   -14764   -14910   -15017   -15122   -15121 
  -15032   -14939   -14810   -14658   -14563   -14580   -14683   -14760 
  -14773   -14827   -14944   -15045   -15072   -14976   -14797   -14619 
  -14494   -14535   -14736   -14914   -15016   -15064   -15013   -14883 
  -14786   -14770   -14766   -14688   -14615   -14669   -14794   -14921 
  -15094   -15294   -15341   -15134   -14840   -14644   -14535   -14503 
  -14589   -14731   -14833   -14859   -14889   -15005   -15079   -14976 
  -14827   -14793   -14794   -14698   -14571   -14559   -14642   -14704 
  -14748   -14841   -14929   -14937   -14945   -15048   -15145   -15090 
  -14949   -14868   -14800   -14705   -14692   -14790   -14844   -14747 
  -14628   -14638   -14701   -14733   -14814   -14959   -15016   -14944 
  -14890   -14951   -15047   -15088   -15087   -15045   -14910   -14710 
  -14557   -14526   -14607   -14709   -14771   -14854   -14972   -15036 
  -15002   -14939   -14874   -14763   -14628   -14562   -14590   -14652 
  -14717   -14802   -14901   -14995   -15020   -14945   -14906   -14983 
  -15051   -15006   -14910   -14839   -14740   -14555   -14426   -14500 
  -14670   -14820   -14980   -15133   -15178   -15082   -14929   -14810 
  -14697   -14561   -14512   -14674   -14937   -15094   -15138   -15133 
  -15030   -14828   -14635   -14540   -14523   -14534   -14642   -14877 
  -15057   -15111   -15171   -15233   -15140   -14860   -14550   -14395 
  -14404   -14459   -14574   -14794   -14972   -14970   -14858   -14801 
  -14833   -14883   -14921   -14935   -14898   -14855   -14899   -15043 
  -15159   -15138   -15012   -14818   -14570   -14353   -14308   -14492 
  -14755   -14912   -14962   -15005   -15067   -15043   -14872   -14704 
  -14688   -14766   -14804   -14770   -14737   -14764   -14839   -14943 
  -15034   -15034   -14974   -14902   -14790   -14670   -14608   -14642 
  -14708   -14685   -14673   -14868   -15152   -15288   -15246   -15144 
  -15041   -14874   -14608   -14346   -14202   -14257   -14517   -14836 
  -15084   -15237   -15294   -15296   -15215   -14994   -14719   -14508 
  -14384   -14318   -14314   -14440   -14700   -14968   -15152   -15256 
  -15296   -15287   -15196   -14982   -14754   -14673   -14733   -14840 
  -14947   -15028   -15048   -15024   -14986   -14862   -14586   -14339 
  -14337   -14476   -14586   -14742   -14991   -15184   -15214   -15164 
  -15120   -15009   -14737   -14403   -14272   -14457   -14729   -14875 
  -14948   -15018   -15022   -14901   -14715   -14666   -14831   -15006 
  -15066   -15090   -15099   -15036   -14899   -14763   -14694   -14639 
  -14521   -14435   -14459   -14544   -14735   -15078   -15368   -15400 
  -15203   -14926   -14683   -14481   -14332   -14308   -14407   -14561 
  -14800   -15120   -15377   -15468   -15342   -15025   -14674   -14428 
  -14349   -14413   -14534   -14737   -15016   -15176   -15172   -15080 
  -14943   -14887   -14958   -15006   -14926   -14750   -14620   -14598 
  -14550   -14505   -14613   -14785   -14914   -15040   -15145   -15194 
  -15206   -15137   -14949   -14732   -14588   -14528   -14569   -14677 
  -14763   -14874   -15053   -15101   -14906   -14656   -14516   -14478 
  -14532   -14729   -15043   -15302   -15384   -15317   -15129   -14851 
  -14619   -14548   -14544   -14492   -14505   -14682   -14906   -15091 
  -15240   -15240   -15009   -14639   -14273   -14057   -14123   -14415 
  -14735   -15007   -15238   -15349   -15280   -15153   -15066   -14883 
  -14586   -14469   -14631   -14791   -14837   -14916   -15033   -15086 
  -14995   -14796   -14662   -14658   -14667   -14670   -14766   -14922 
  -15012   -14975   -14817   -14650   -14654   -14860   -15125   -15236 
  -15114   -14882   -14675   -14548   -14530   -14557   -14607   -14743 
  -14875   -14951   -15113   -15336   -15435   -15345   -15087   -14727 
  -14395   -14266   -14388   -14571   -14715   -14904   -15074   -15070 
  -14940   -14793   -14647   -14544   -14570   -14688   -14739   -14759 
  -14909   -15149   -15356   -15464   -15445   -15300   -15030   -14670 
  -14355   -14234   -14339   -14538   -14688   -14812   -14959   -15026 
  -14926   -14724   -14513   -14415   -14539   -14832   -15094   -15219 
  -15232   -15138   -14941   -14689   -14509   -14534   -14690   -14818 
  -14948   -15183   -15396   -15350   -15097   -14859   -14693   -14555 
  -14419   -14328   -14385   -14548   -14689   -14820   -14960   -15033 
  -15026   -14982   -14909   -14833   -14825   -14964   -15155   -15147 
  -14964   -14848   -14845   -14855   -14824   -14781   -14743   -14666 
  -14532   -14434   -14478   -14655   -14858   -14991   -15017   -14964 
  -14886   -14824   -14804   -14816   -14847   -14976   -15169   -15167 
  -14932   -14733   -14696   -14673   -14539   -14430   -14538   -14789 
  -15052   -15287   -15422   -15399   -15218   -14912   -14608   -14416 
  -14288   -14215   -14272   -14461   -14762   -15070   -15241   -15275 
  -15168   -14925   -14690   -14605   -14696   -14893   -15029   -14989 
  -14802   -14639   -14646   -14754   -14841   -14908   -14914   -14858 
  -14840   -14895   -14953   -14964   -14949   -14922   -14817   -14656 
  -14640   -14833   -15005   -15002   -14910   -14779   -14616   -14499 
  -14519   -14675   -14843   -14933   -14975   -14989   -14964   -14916 
  -14890   -14912   -14948   -14983   -14989   -14922   -14866   -14879 
  -14858   -14778   -14728   -14710   -14685   -14652   -14629   -14642 
  -14689   -14771   -14893   -14974   -14985   -15022   -15040   -14898 
  -14682   -14594   -14678   -14801   -14898   -15045   -15217   -15245 
  -15066   -14798   -14593   -14453   -14354   -14391   -14571   -14737 
  -14841   -14993   -15144   -15102   -14860   -14651   -14601   -14601 
  -14609   -14729   -14931   -15060   -15088   -15094   -15087   -14982 
  -14820   -14744   -14748   -14760   -14820   -14912   -14971   -15021 
  -15044   -15010   -14983   -14947   -14821   -14661   -14571   -14580 
  -14623   -14650   -14690   -14767   -14841   -14881   -14886   -14902 
  -14943   -14913   -14813   -14779   -14824   -14856   -14844   -14804 
  -14771   -14740   -14720   -14804   -14970   -15070   -15070   -15016 
  -14947   -14871   -14766   -14678   -14678   -14737   -14791   -14845 
  -14920   -14975   -14971   -14912   -14813   -14682   -14577   -14569 
  -14647   -14773   -14893   -14940   -14986   -15076   -15087   -14994 
  -14868   -14713   -14569   -14516   -14584   -14751   -14917   -15007 
  -15053   -15022   -14902   -14771   -14665   -14613   -14661   -14789 
  -14980   -15151   -15148   -15003   -14835   -14658   -14523   -14499 
  -14580   -14712   -14829   -14935   -15059   -15110   -15028   -14918 
  -14825   -14679   -14534   -14504   -14588   -14721   -14875   -15044 
  -15191   -15236   -15174   -15053   -14890   -14708   -14608   -14650 
  -14760   -14877   -14997   -15051   -14975   -14818   -14646   -14553 
  -14574   -14624   -14694   -14833   -14953   -14991   -14989   -14967 
  -14895   -14742   -14562   -14512   -14611   -14752   -14909   -15057 
  -15105   -15016   -14852   -14713   -14667   -14694   -14746   -14802 
  -14867   -14932   -14956   -14935   -14926   -14944   -14947   -14910 
  -14820   -14705   -14643   -14685   -14800   -14922   -15013   -15075 
  -15113   -15079   -14931   -14756   -14675   -14661   -14627   -14632 
  -14755   -14889   -14916   -14881   -14818   -14693   -14574   -14550 
  -14590   -14669   -14816   -14995   -15080   -15049   -15005   -14924 
  -14760   -14662   -14728   -14851   -14926   -14972   -15043   -15142 
  -15165   -15017   -14805   -14650   -14509   -14411   -14465   -14632 
  -14798   -14912   -14972   -15013   -15048   -15061   -15055   -15016 
  -14902   -14735   -14598   -14575   -14616   -14601   -14619   -14781 
  -14937   -14943   -14872   -14805   -14735   -14666   -14651   -14719 
  -14825   -14922   -14986   -15020   -15064   -15134   -15179   -15157 
  -15049   -14860   -14673   -14609   -14663   -14704   -14698   -14756 
  -14871   -14902   -14845   -14805   -14758   -14656   -14607   -14694 
  -14828   -14933   -15061   -15191   -15186   -15063   -14936   -14797 
  -14617   -14494   -14501   -14578   -14669   -14789   -14925   -15016 
  -15053   -15094   -15071   -14879   -14663   -14604   -14671   -14764 
  -14828   -14840   -14821   -14786   -14763   -14810   -14917   -14994 
  -14960   -14855   -14801   -14805   -14836   -14909   -14933   -14840 
  -14723   -14682   -14742   -14850   -14898   -14872   -14868   -14894 
  -14866   -14774   -14719   -14733   -14733   -14716   -14762   -14823 
  -14827   -14837   -14895   -14909   -14828   -14736   -14739   -14839 
  -14963   -15066   -15105   -15052   -14951   -14840   -14728   -14650 
  -14661   -14743   -14818   -14852   -14852   -14859   -14909   -14945 
  -14870   -14727   -14666   -14710   -14760   -14808   -14886   -14928 
  -14893   -14870   -14894   -14897   -14866   -14820   -14759   -14705 
  -14713   -14812   -14931   -15007   -15059   -15024   -14859   -14713 
  -14696   -14759   -14823   -14854   -14839   -14756   -14666   -14704 
  -14836   -14905   -14901   -14890   -14828   -14743   -14756   -14852 
  -14897   -14858   -14813   -14778   -14708   -14673   -14762   -14864 
