Origin Time       2025/03/30 21:30:00
Lat.              38.535
Long.             142.295
Depth. (km)       44
Mag.              4.3
Station Code      FKSH19
Station Lat.      37.4703
Station Long.     140.7227
Station Height(m) 410
Record Time       2025/03/30 21:31:44
Sampling Freq(Hz) 100Hz
Duration Time(s)  120
Dir.              3
Scale Factor      2942(gal)/8224139
Max. Acc. (gal)   0.147
Last Correction   2025/03/30 21:31:44
Memo.             
[...]
 -102895  -102882  -102878  -102864  -102864  -102913  -102934  -102897 
 -102871  -102891  -102913  -102898  -102870  -102872  -102878  -102879 
 -102917  -102941  -102890  -102851  -102870  -102874  -102888  -102917 
 -102892  -102882  -102928  -102933  -102879  -102851  -102878  -102886 
 -102852  -102868  -102911  -102879  -102841  -102898  -102937  -102884 
 -102859  -102888  -102898  -102898  -102884  -102841  -102859  -102933 
 -102922  -102841  -102828  -102902  -102945  -102872  -102821  -102890 
 -102901  -102818  -102849  -102948  -102942  -102880  -102848  -102864 
 -102892  -102871  -102852  -102897  -102925  -102872  -102836  -102883 
 -102897  -102856  -102895  -102961  -102937  -102902  -102911  -102902 
 -102876  -102868  -102855  -102848  -102880  -102907  -102890  -102878 
 -102898  -102903  -102872  -102875  -102911  -102880  -102834  -102874 
 -102922  -102934  -102928  -102894  -102887  -102888  -102853  -102844 
 -102871  -102886  -102901  -102933  -102910  -102855  -102902  -102963 
 -102911  -102878  -102907  -102888  -102832  -102817  -102849  -102883 
 -102905  -102919  -102907  -102870  -102847  -102856  -102863  -102861 
 -102878  -102886  -102882  -102864  -102821  -102832  -102901  -102909 
 -102884  -102913  -102917  -102874  -102864  -102892  -102899  -102882 
 -102894  -102921  -102886  -102833  -102863  -102953  -102959  -102852 
 -102840  -102955  -102944  -102861  -102917  -102973  -102925  -102901 
 -102906  -102871  -102843  -102838  -102832  -102821  -102811  -102861 
 -102946  -102938  -102880  -102868  -102856  -102851  -102888  -102902 
 -102878  -102894  -102915  -102909  -102907  -102891  -102876  -102890 
 -102888  -102864  -102837  -102844  -102886  -102894  -102870  -102907 
 -102990  -102980  -102887  -102848  -102855  -102853  -102865  -102882 
 -102875  -102855  -102872  -102940  -102933  -102860  -102867  -102891 
 -102868  -102871  -102876  -102861  -102875  -102905  -102910  -102878 
 -102872  -102905  -102902  -102886  -102888  -102882  -102883  -102890 
 -102875  -102859  -102878  -102934  -102946  -102880  -102855  -102890 
 -102886  -102849  -102840  -102872  -102905  -102884  -102879  -102922 
 -102895  -102860  -102932  -102944  -102860  -102857  -102907  -102914 
 -102886  -102852  -102856  -102890  -102924  -102890  -102798  -102826 
 -102944  -102925  -102856  -102892  -102945  -102945  -102915  -102884 
 -102874  -102860  -102834  -102826  -102825  -102829  -102871  -102924 
 -102938  -102929  -102913  -102895  -102906  -102932  -102911  -102856 
 -102836  -102856  -102865  -102843  -102847  -102887  -102909  -102913 
 -102910  -102898  -102906  -102921  -102890  -102855  -102845  -102849 
 -102882  -102911  -102892  -102887  -102913  -102888  -102855  -102874 
 -102883  -102884  -102922  -102957  -102942  -102897  -102880  -102852 
 -102776  -102770  -102829  -102851  -102886  -102955  -102957  -102914 
 -102895  -102898  -102910  -102890  -102829  -102833  -102890  -102875 
 -102855  -102880  -102849  -102847  -102944  -102934  -102824  -102857 
 -102963  -102933  -102843  -102841  -102922  -102973  -102944  -102905 
 -102902  -102905  -102894  -102847  -102809  -102865  -102897  -102832 
 -102817  -102853  -102874  -102914  -102932  -102899  -102906  -102933 
 -102890  -102807  -102807  -102898  -102924  -102865  -102855  -102871 
 -102884  -102941  -102955  -102874  -102851  -102895  -102867  -102849 
 -102909  -102918  -102894  -102921  -102924  -102879  -102874  -102880 
 -102867  -102894  -102917  -102899  -102880  -102870  -102905  -102932 
 -102855  -102799  -102861  -102903  -102851  -102825  -102894  -102965 
 -102949  -102872  -102874  -102979  -102972  -102811  -102766  -102864 
 -102898  -102855  -102838  -102876  -102914  -102888  -102849  -102887 
 -102938  -102930  -102913  -102909  -102897  -102902  -102914  -102906 
 -102882  -102855  -102859  -102876  -102868  -102876  -102884  -102861 
 -102888  -102924  -102879  -102861  -102901  -102890  -102841  -102865 
 -102946  -102949  -102876  -102853  -102863  -102847  -102849  -102883 
 -102902  -102883  -102860  -102891  -102938  -102906  -102848  -102855 
 -102871  -102880  -102915  -102882  -102805  -102856  -102946  -102913 
 -102859  -102910  -102959  -102891  -102844  -102910  -102901  -102807 
 -102847  -102948  -102946  -102914  -102915  -102918  -102914  -102903 
 -102874  -102844  -102876  -102932  -102906  -102848  -102856  -102888 
 -102870  -102849  -102897  -102894  -102821  -102849  -102910  -102867 
 -102855  -102940  -102979  -102907  -102847  -102894  -102941  -102880 
 -102838  -102894  -102924  -102906  -102909  -102919  -102932  -102937 
 -102897  -102875  -102888  -102849  -102822  -102861  -102867  -102851 
 -102878  -102937  -102982  -102946  -102880  -102888  -102888  -102820 
 -102801  -102855  -102867  -102845  -102852  -102853  -102837  -102844 
 -102880  -102924  -102926  -102910  -102919  -102905  -102876  -102910 
 -102921  -102867  -102868  -102903  -102910  -102915  -102870  -102849 
 -102936  -102934  -102821  -102828  -102952  -102990  -102907  -102864 
 -102907  -102894  -102834  -102828  -102829  -102829  -102861  -102880 
 -102855  -102834  -102883  -102922  -102894  -102883  -102861  -102794 
 -102811  -102876  -102838  -102828  -102942  -103010  -102967  -102924 
 -102938  -102952  -102897  -102830  -102844  -102888  -102868  -102820 
 -102830  -102876  -102898  -102917  -102957  -102971  -102919  -102874 
 -102917  -102936  -102849  -102824  -102875  -102853  -102828  -102895 
 -102948  -102890  -102857  -102934  -102919  -102811  -102807  -102878 
 -102921  -102909  -102871  -102884  -102926  -102911  -102864  -102878 
 -102918  -102867  -102814  -102876  -102940  -102917  -102860  -102834 
 -102851  -102857  -102820  -102803  -102884  -102942  -102890  -102890 
 -102964  -102940  -102891  -102949  -102982  -102892  -102817  -102848 
 -102870  -102830  -102861  -102946  -102930  -102875  -102903  -102936 
 -102919  -102901  -102875  -102849  -102859  -102876  -102882  -102899 
 -102884  -102856  -102876  -102864  -102806  -102848  -102924  -102872 
 -102824  -102907  -102928  -102838  -102856  -102917  -102856  -102828 
 -102895  -102897  -102857  -102870  -102911  -102957  -102944  -102884 
 -102899  -102938  -102902  -102870  -102909  -102932  -102883  -102859 
 -102918  -102925  -102833  -102810  -102897  -102915  -102841  -102847 
 -102929  -102918  -102872  -102918  -102945  -102891  -102865  -102890 
 -102894  -102875  -102867  -102860  -102845  -102852  -102868  -102887 
 -102918  -102907  -102871  -102894  -102911  -102834  -102771  -102837 
 -102938  -102933  -102870  -102864  -102899  -102905  -102891  -102905 
 -102917  -102914  -102934  -102941  -102879  -102840  -102901  -102918 
 -102822  -102794  -102884  -102897  -102825  -102868  -102972  -102956 
 -102925  -102999  -103007  -102888  -102834  -102864  -102847  -102829 
 -102874  -102890  -102853  -102836  -102852  -102883  -102925  -102928 
 -102905  -102926  -102922  -102879  -102897  -102934  -102905  -102833 
 -102818  -102868  -102857  -102817  -102851  -102884  -102878  -102879 
 -102892  -102898  -102874  -102865  -102903  -102898  -102841  -102841 
 -102879  -102871  -102859  -102871  -102891  -102925  -102917  -102863 
 -102897  -102978  -102934  -102865  -102924  -102975  -102926  -102875 
 -102863  -102875  -102874  -102836  -102841  -102917  -102940  -102909 
 -102913  -102926  -102902  -102876  -102883  -102892  -102891  -102884 
 -102878  -102891  -102892  -102871  -102883  -102899  -102875  -102878 
 -102892  -102859  -102833  -102849  -102847  -102863  -102937  -102946 
 -102874  -102863  -102911  -102936  -102903  -102821  -102818  -102890 
 -102870  -102802  -102825  -102901  -102906  -102847  -102845  -102902 
 -102914  -102913  -102919  -102894  -102897  -102913  -102867  -102829 
 -102870  -102913  -102891  -102830  -102822  -102907  -102983  -102936 
 -102876  -102941  -102988  -102899  -102847  -102917  -102925  -102826 
 -102828  -102915  -102894  -102829  -102833  -102847  -102860  -102884 
 -102894  -102902  -102926  -102946  -102905  -102841  -102857  -102870 
 -102805  -102770  -102856  -102965  -102945  -102880  -102905  -102936 
 -102907  -102875  -102895  -102936  -102913  -102872  -102891  -102884 
 -102813  -102810  -102907  -102924  -102828  -102822  -102922  -102922 
 -102847  -102902  -102990  -102922  -102891  -102999  -103000  -102878 
 -102829  -102834  -102814  -102826  -102884  -102895  -102857  -102884 
 -102929  -102922  -102910  -102879  -102852  -102861  -102801  -102730 
 -102825  -102936  -102913  -102890  -102891  -102899  -102945  -102890 
 -102803  -102875  -102936  -102868  -102847  -102914  -102959  -102941 
 -102880  -102833  -102864  -102876  -102814  -102852  -103005  -103046 
 -102979  -102965  -102941  -102853  -102832  -102852  -102838  -102845 
 -102810  -102801  -102913  -102915  -102845  -102917  -102932  -102844 
 -102861  -102886  -102814  -102784  -102848  -102857  -102841  -102918 
 -102940  -102888  -102917  -102967  -102961  -102921  -102907  -102909 
 -102867  -102852  -102865  -102849  -102878  -102933  -102879  -102821 
 -102878  -102910  -102887  -102910  -102955  -102964  -102906  -102834 
 -102876  -102928  -102837  -102805  -102907  -102917  -102864  -102859 
 -102832  -102834  -102892  -102891  -102859  -102892  -102924  -102859 
 -102836  -102925  -102941  -102849  -102805  -102859  -102944  -102937 
 -102887  -102934  -102988  -102940  -102890  -102906  -102915  -102880 
 -102855  -102874  -102906  -102897  -102861  -102899  -102946  -102903 
 -102876  -102887  -102859  -102840  -102867  -102883  -102860  -102871 
 -102933  -102930  -102891  -102892  -102882  -102820  -102762  -102820 
 -102898  -102843  -102813  -102907  -102972  -102944  -102892  -102898 
 -102948  -102922  -102794  -102772  -102940  -102996  -102867  -102837 
 -102915  -102914  -102857  -102851  -102879  -102867  -102865  -102924 
 -102930  -102890  -102930  -102976  -102891  -102813  -102897  -102968 
 -102891  -102822  -102855  -102863  -102797  -102802  -102883  -102882 
 -102882  -102976  -102975  -102845  -102809  -102906  -102936  -102860 
 -102872  -102919  -102865  -102849  -102907  -102909  -102886  -102925 
 -102956  -102898  -102888  -102967  -102948  -102895  -102915  -102867 
 -102795  -102836  -102903  -102880  -102814  -102833  -102918  -102941 
 -102868  -102799  -102824  -102848  -102805  -102798  -102878  -102968 
 -102961  -102895  -102905  -102925  -102898  -102914  -102933  -102876 
 -102841  -102837  -102776  -102787  -102899  -102899  -102872  -102949 
 -102965  -102921  -102934  -102967  -102949  -102894  -102860  -102865 
 -102837  -102803  -102826  -102867  -102882  -102886  -102944  -103018 
 -102982  -102891  -102871  -102910  -102936  -102887  -102843  -102922 
 -103002  -102929  -102803  -102786  -102859  -102853  -102772  -102807 
 -102925  -102952  -102921  -102915  -102961  -102994  -102909  -102844 
 -102892  -102864  -102799  -102840  -102860  -102871  -102944  -102928 
 -102818  -102799  -102837  -102803  -102778  -102879  -103018  -103038 
 -102976  -102982  -103029  -102987  -102906  -102863  -102803  -102753 
 -102720  -102658  -102676  -102802  -102895  -102909  -102903  -102949 
 -103017  -102980  -102897  -102928  -102976  -102933  -102914  -102918 
 -102863  -102801  -102772  -102878  -103079  -103084  -102940  -102898 
 -102876  -102867  -102955  -102899  -102685  -102639  -102739  -102748 
 -102736  -102853  -103002  -103041  -103037  -102995  -102921  -102925 
 -102969  -102994  -102994  -102914  -102775  -102714  -102757  -102787 
 -102789  -102851  -102951  -102971  -102913  -102894  -102913  -102915 
 -102934  -102965  -102965  -102918  -102844  -102814  -102787  -102732 
 -102770  -102872  -102876  -102816  -102838  -102921  -102888  -102755 
 -102770  -102929  -102967  -102870  -102789  -102776  -102860  -102973 
 -102990  -102973  -102973  -102897  -102825  -102868  -102942  -103011 
 -103036  -102980  -102963  -102921  -102783  -102816  -103026  -103061 
 -102919  -102837  -102802  -102787  -102859  -102911  -102895  -102942 
 -103023  -103023  -102983  -102956  -102925  -102874  -102828  -102775 
 -102686  -102668  -102728  -102755  -102816  -102914  -102942  -102898 
 -102779  -102671  -102748  -102926  -102946  -102830  -102789  -102802 
 -102820  -102949  -103087  -103102  -103084  -103049  -103048  -103127 
 -103072  -102894  -102886  -102975  -102941  -102870  -102859  -102882 
 -102917  -102915  -102844  -102732  -102667  -102724  -102789  -102778 
 -102836  -102945  -102998  -103057  -103054  -102929  -102845  -102834 
 -102790  -102798  -102851  -102814  -102776  -102813  -102838  -102841 
 -102851  -102875  -102924  -103026  -103137  -103117  -102975  -102863 
 -102821  -102782  -102720  -102674  -102726  -102871  -102960  -102914 
 -102832  -102787  -102801  -102899  -102967  -102872  -102784  -102863 
 -102969  -102972  -102902  -102871  -102905  -102924  -102915  -102883 
 -102871  -102934  -102934  -102848  -102840  -102847  -102762  -102702 
 -102793  -102956  -102951  -102867  -102976  -103079  -103022  -103023 
 -103036  -102964  -102955  -102944  -102799  -102703  -102768  -102849 
 -102855  -102802  -102779  -102852  -102901  -102871  -102860  -102859 
 -102852  -102878  -102879  -102865  -102905  -102953  -102986  -103014 
 -102961  -102901  -102928  -102941  -102932  -102942  -102928  -102895 
 -102855  -102794  -102729  -102689  -102733  -102821  -102884  -103019 
 -103235  -103297  -103088  -102938  -103041  -103048  -102865  -102770 
 -102736  -102675  -102695  -102778  -102826  -102787  -102699  -102772 
 -102960  -102952  -102843  -102872  -102884  -102814  -102879  -103005 
 -102972  -102938  -103000  -102984  -102930  -102887  -102763  -102663 
 -102663  -102695  -102805  -102888  -102801  -102747  -102887  -103030 
 -103030  -103007  -103023  -103017  -103040  -103052  -102964  -102899 
 -102856  -102766  -102756  -102807  -102790  -102787  -102863  -102946 
 -102986  -102961  -102910  -102918  -102973  -102940  -102838  -102798 
 -102798  -102828  -102895  -102906  -102863  -102868  -102898  -102909 
 -102899  -102856  -102841  -102878  -102921  -102918  -102829  -102763 
 -102817  -102838  -102720  -102667  -102801  -102929  -102964  -102986 
 -102991  -102976  -102988  -103013  -103049  -103090  -103067  -102969 
 -102852  -102752  -102713  -102737  -102782  -102836  -102872  -102894 
 -102945  -102967  -102871  -102755  -102787  -102894  -102949  -102971 
 -102942  -102897  -102907  -102909  -102875  -102883  -102898  -102828 
 -102763  -102782  -102779  -102764  -102859  -102976  -102973  -102922 
 -102932  -102967  -103048  -103160  -103103  -102926  -102870  -102940 
 -103003  -102934  -102771  -102739  -102856  -102879  -102737  -102654 
 -102744  -102832  -102826  -102807  -102801  -102806  -102826  -102878 
 -102987  -103042  -102990  -102946  -102936  -102933  -102969  -102976 
 -102898  -102864  -102913  -102936  -102909  -102863  -102847  -102882 
 -102897  -102886  -102876  -102837  -102820  -102853  -102868  -102907 
 -103010  -103063  -103037  -102983  -102910  -102874  -102876  -102817 
 -102748  -102772  -102779  -102705  -102730  -102891  -102945  -102832 
 -102797  -102928  -102976  -102861  -102844  -102937  -102903  -102822 
 -102811  -102760  -102698  -102749  -102844  -102888  -102921  -102941 
 -102963  -103038  -103081  -103029  -102952  -102918  -102967  -103025 
 -102984  -102909  -102884  -102863  -102859  -102944  -103036  -103040 
 -102983  -102957  -102979  -102951  -102847  -102766  -102743  -102706 
 -102668  -102752  -102911  -102940  -102867  -102876  -102910  -102882 
 -102887  -102888  -102807  -102741  -102751  -102778  -102767  -102757 
 -102874  -103040  -103014  -102863  -102824  -102852  -102865  -102887 
 -102880  -102890  -102955  -102936  -102849  -102864  -102922  -102902 
 -102874  -102871  -102852  -102872  -102922  -102938  -102979  -103040 
 -103023  -102968  -103006  -103073  -102995  -102876  -102883  -102901 
 -102844  -102802  -102806  -102838  -102863  -102832  -102786  -102802 
 -102859  -102880  -102840  -102775  -102747  -102784  -102833  -102853 
 -102880  -102895  -102872  -102848  -102801  -102775  -102878  -102987 
 -102971  -102933  -102921  -102903  -102910  -102917  -102913  -102890 
 -102848  -102879  -102922  -102878  -102892  -102992  -103027  -103000 
 -102973  -102949  -102941  -102934  -102903  -102875  -102855  -102857 
 -102871  -102838  -102816  -102856  -102867  -102832  -102844  -102872 
 -102840  -102826  -102871  -102863  -102822  -102879  -102959  -102894 
 -102811  -102876  -102940  -102921  -102876  -102832  -102852  -102905 
 -102914  -102919  -102934  -102926  -102879  -102851  -102890  -102909 
 -102875  -102883  -102924  -102915  -102871  -102860  -102882  -102884 
 -102836  -102825  -102898  -102911  -102884  -102924  -102933  -102926 
 -102982  -102955  -102836  -102840  -102892  -102821  -102794  -102865 
 -102863  -102847  -102883  -102870  -102826  -102830  -102871  -102955 
 -103057  -103046  -102906  -102814  -102817  -102802  -102770  -102774 
 -102806  -102844  -102870  -102891  -102918  -102930  -102949  -102988 
 -102984  -102933  -102884  -102853  -102852  -102884  -102909  -102902 
 -102882  -102855  -102852  -102907  -102932  -102894  -102911  -102930 
 -102876  -102876  -102910  -102907  -102890  -102833  -102833  -102937 
 -102976  -102922  -102882  -102859  -102855  -102888  -102898  -102852 
 -102822  -102859  -102914  -102949  -102969  -102967  -102914  -102887 
 -102946  -102986  -102929  -102852  -102818  -102790  -102755  -102799 
 -102856  -102833  -102855  -102925  -102942  -102940  -102913  -102860 
 -102828  -102801  -102811  -102834  -102797  -102783  -102837  -102906 
 -102968  -102971  -102955  -102955  -102906  -102897  -102972  -102990 
 -102921  -102848  -102821  -102859  -102911  -102914  -102891  -102913 
 -102945  -102924  -102898  -102905  -102861  -102779  -102813  -102924 
 -102888  -102762  -102791  -102909  -102895  -102851  -102915  -102990 
 -102994  -102959  -102906  -102836  -102824  -102867  -102840  -102784 
 -102803  -102859  -102930  -102972  -102963  -102941  -102897  -102883 
 -102926  -102897  -102822  -102829  -102843  -102806  -102821  -102919 
 -102980  -102938  -102894  -102919  -102921  -102868  -102853  -102864 
 -102864  -102913  -102967  -102936  -102876  -102878  -102922  -102903 
 -102811  -102787  -102816  -102795  -102783  -102825  -102891  -102964 
 -102982  -102936  -102952  -103027  -103013  -102951  -102918  -102857 
 -102794  -102813  -102901  -102951  -102918  -102874  -102825  -102806 
 -102859  -102878  -102838  -102882  -102963  -102944  -102907  -102940 
 -102968  -102951  -102919  -102878  -102830  -102805  -102798  -102802 
 -102830  -102861  -102875  -102905  -102936  -102949  -102967  -102929 
 -102857  -102892  -102914  -102826  -102803  -102860  -102867  -102811 
 -102755  -102780  -102887  -102957  -102925  -102871  -102892  -102921 
 -102871  -102826  -102851  -102879  -102897  -102919  -102934  -102909 
 -102840  -102816  -102852  -102867  -102865  -102914  -102953  -102880 
 -102838  -102924  -102921  -102825  -102843  -102895  -102875  -102867 
 -102882  -102905  -102955  -102941  -102891  -102930  -102933  -102849 
 -102861  -102926  -102918  -102902  -102918  -102942  -102948  -102941 
