Origin Time       2025/03/30 21:30:00
Lat.              38.535
Long.             142.295
Depth. (km)       44
Mag.              4.3
Station Code      FKSH11
Station Lat.      37.2006
Station Long.     140.3386
Station Height(m) 170.5
Record Time       2025/03/30 21:31:55
Sampling Freq(Hz) 100Hz
Duration Time(s)  120
Dir.              2
Scale Factor      2942(gal)/8224139
Max. Acc. (gal)   0.156
Last Correction   2025/03/30 21:31:56
Memo.             
[...]
   37542    37497    37463    37471    37500    37520    37501    37462 
   37449    37455    37482    37530    37538    37492    37461    37477 
   37501    37516    37498    37442    37438    37493    37504    37476 
   37442    37430    37484    37546    37543    37517    37490    37466 
   37492    37523    37490    37450    37449    37485    37557    37566 
   37497    37467    37480    37486    37525    37552    37503    37428 
   37399    37413    37440    37443    37442    37476    37519    37532 
   37527    37532    37531    37524    37540    37543    37500    37454 
   37467    37490    37440    37400    37462    37538    37550    37527 
   37498    37476    37466    37474    37493    37497    37488    37484 
   37458    37423    37434    37478    37512    37531    37524    37504 
   37493    37484    37481    37494    37484    37447    37446    37453 
   37434    37455    37507    37517    37542    37585    37550    37503 
   37540    37567    37521    37488    37481    37462    37455    37492 
   37527    37509    37461    37451    37478    37463    37426    37438 
   37471    37503    37530    37519    37471    37442    37465    37490 
   37455    37415    37435    37455    37454    37476    37497    37498 
   37505    37517    37497    37451    37439    37458    37489    37528 
   37512    37449    37435    37470    37489    37489    37507    37546 
   37561    37530    37501    37494    37485    37474    37471    37477 
   37484    37482    37492    37497    37484    37488    37505    37492 
   37489    37532    37538    37493    37467    37457    37458    37482 
   37484    37450    37428    37447    37474    37459    37455    37493 
   37501    37496    37531    37544    37507    37482    37478    37466 
   37458    37459    37467    37497    37528    37543    37559    37554 
   37497    37430    37420    37469    37505    37501    37490    37485 
   37474    37467    37480    37515    37559    37550    37490    37465 
   37462    37423    37400    37428    37459    37481    37513    37540 
   37532    37498    37484    37508    37525    37494    37451    37444 
   37473    37512    37538    37535    37494    37440    37451    37515 
   37539    37515    37494    37494    37496    37493    37501    37508 
   37486    37454    37449    37465    37469    37444    37430    37465 
   37504    37504    37498    37500    37485    37482    37497    37458 
   37377    37373    37436    37469    37478    37490    37485    37493 
   37516    37504    37453    37426    37459    37517    37515    37457 
   37457    37530    37569    37550    37528    37521    37539    37567 
   37555    37527    37508    37476    37439    37432    37465    37497 
   37477    37458    37496    37498    37450    37442    37469    37480 
   37490    37511    37501    37489    37504    37488    37430    37389 
   37397    37436    37446    37426    37427    37449    37480    37539 
   37575    37542    37501    37501    37498    37486    37501    37535 
   37544    37493    37440    37457    37484    37509    37559    37567 
   37535    37527    37542    37548    37531    37492    37477    37501 
   37511    37492    37476    37454    37436    37474    37531    37520 
   37476    37474    37496    37473    37423    37427    37477    37498 
   37497    37508    37485    37424    37415    37471    37504    37489 
   37462    37455    37507    37575    37589    37539    37478    37476 
   37527    37544    37492    37443    37449    37451    37438    37451 
   37489    37517    37509    37489    37489    37486    37494    37547 
   37612    37617    37548    37486    37469    37438    37399    37389 
   37407    37427    37419    37412    37435    37458    37498    37571 
   37582    37517    37513    37547    37490    37424    37435    37457 
   37457    37438    37409    37427    37481    37494    37489    37508 
   37517    37523    37550    37540    37508    37504    37492    37469 
   37458    37459    37463    37451    37443    37453    37477    37513 
   37527    37508    37492    37480    37474    37478    37485    37493 
   37497    37493    37496    37497    37517    37542    37519    37494 
   37478    37438    37435    37457    37436    37434    37476    37486 
   37476    37458    37455    37511    37548    37530    37542    37557 
   37527    37511    37492    37455    37436    37420    37450    37535 
   37546    37492    37504    37536    37520    37500    37476    37426 
   37417    37474    37523    37528    37516    37505    37516    37550 
   37551    37509    37494    37515    37511    37484    37469    37465 
   37462    37497    37547    37517    37435    37436    37515    37551 
   37527    37486    37436    37469    37578    37581    37509    37494 
   37462    37423    37430    37413    37411    37459    37482    37498 
   37512    37474    37455    37496    37493    37430    37419    37478 
   37509    37496    37493    37476    37466    37527    37558    37496 
   37454    37457    37459    37490    37504    37463    37481    37543 
   37542    37525    37490    37417    37442    37536    37547    37511 
   37481    37458    37477    37507    37515    37507    37474    37469 
   37509    37524    37524    37519    37447    37412    37489    37511 
   37451    37440    37442    37435    37476    37511    37523    37520 
   37446    37381    37450    37534    37496    37435    37439    37476 
   37517    37515    37480    37466    37434    37405    37454    37521 
   37504    37428    37419    37484    37521    37525    37512    37477 
   37476    37515    37523    37512    37513    37501    37503    37523 
   37486    37450    37482    37485    37455    37496    37542    37525 
   37528    37546    37515    37484    37505    37508    37459    37430 
   37459    37515    37530    37482    37427    37422    37454    37476 
   37480    37461    37434    37457    37550    37627    37598    37516 
   37496    37496    37450    37420    37413    37404    37409    37419 
   37436    37462    37471    37519    37597    37581    37500    37485 
   37516    37498    37480    37515    37531    37501    37496    37532 
   37520    37423    37392    37476    37505    37469    37484    37523 
   37539    37525    37496    37509    37542    37542    37536    37492 
   37447    37480    37504    37489    37496    37486    37444    37423 
   37440    37467    37476    37450    37451    37493    37458    37397 
   37405    37416    37422    37473    37534    37538    37500    37481 
   37489    37511    37543    37554    37528    37485    37447    37449 
   37501    37520    37511    37532    37547    37535    37519    37509 
   37507    37489    37473    37485    37490    37463    37470    37530 
   37557    37534    37551    37597    37588    37528    37457    37408 
   37420    37467    37478    37455    37442    37450    37469    37467 
   37457    37473    37493    37519    37550    37530    37469    37435 
   37450    37486    37477    37404    37378    37462    37538    37532 
   37525    37534    37508    37469    37451    37463    37477    37459 
   37446    37478    37485    37446    37482    37566    37563    37504 
   37493    37521    37521    37494    37463    37428    37434    37497 
   37557    37547    37489    37454    37462    37470    37442    37417 
   37461    37534    37542    37498    37453    37400    37409    37497 
   37546    37534    37521    37531    37547    37511    37416    37362 
   37389    37430    37427    37390    37405    37490    37555    37582 
   37554    37476    37470    37516    37515    37525    37543    37494 
   37440    37451    37496    37516    37486    37470    37485    37484 
   37482    37485    37474    37478    37485    37474    37476    37477 
   37459    37450    37469    37498    37536    37557    37530    37498 
   37492    37508    37540    37551    37520    37473    37477    37542 
   37543    37486    37507    37525    37455    37419    37455    37481 
   37492    37507    37516    37498    37454    37461    37509    37501 
   37476    37474    37432    37408    37477    37532    37515    37504 
   37504    37463    37420    37442    37490    37489    37471    37492 
   37511    37516    37523    37504    37488    37498    37465    37415 
   37440    37486    37474    37469    37507    37521    37516    37515 
   37508    37504    37474    37438    37442    37450    37439    37467 
   37528    37531    37476    37457    37477    37493    37528    37552 
   37515    37482    37494    37473    37440    37455    37449    37447 
   37497    37515    37515    37548    37535    37459    37427    37440 
   37474    37519    37511    37450    37440    37498    37557    37566 
   37546    37527    37505    37500    37515    37501    37461    37444 
   37439    37440    37466    37485    37496    37500    37471    37444 
   37478    37517    37489    37477    37504    37490    37473    37474 
   37436    37403    37453    37543    37566    37496    37451    37509 
   37581    37586    37554    37539    37524    37462    37432    37471 
   37473    37431    37458    37527    37527    37474    37434    37432 
   37486    37527    37481    37434    37458    37449    37399    37417 
   37454    37455    37508    37577    37559    37504    37478    37481 
   37485    37488    37507    37523    37493    37443    37435    37453 
   37471    37494    37496    37501    37539    37569    37559    37504 
   37444    37459    37508    37485    37431    37417    37424    37461 
   37525    37534    37488    37485    37531    37562    37557    37515 
   37465    37463    37500    37503    37471    37455    37461    37454 
   37432    37409    37400    37423    37446    37449    37474    37509 
   37490    37473    37511    37542    37539    37550    37567    37538 
   37474    37444    37457    37458    37438    37447    37486    37498 
   37486    37516    37571    37570    37521    37489    37482    37503 
   37532    37530    37481    37427    37434    37501    37540    37528 
   37523    37520    37507    37497    37473    37419    37381    37395 
   37454    37513    37504    37444    37434    37461    37463    37450 
   37436    37450    37505    37530    37488    37458    37485    37521 
   37524    37523    37542    37542    37513    37500    37507    37505 
   37494    37485    37481    37490    37496    37493    37497    37492 
   37489    37503    37507    37523    37530    37490    37466    37453 
   37423    37458    37513    37477    37447    37476    37457    37447 
   37511    37535    37488    37449    37449    37496    37566    37554 
   37489    37494    37507    37482    37492    37462    37400    37428 
   37490    37509    37535    37540    37489    37470    37527    37569 
   37531    37455    37395    37355    37377    37462    37494    37484 
   37523    37547    37521    37536    37558    37512    37476    37494 
   37497    37493    37507    37480    37420    37411    37463    37528 
   37524    37446    37417    37484    37535    37525    37517    37519 
   37505    37501    37528    37536    37500    37482    37486    37488 
   37511    37509    37465    37466    37509    37503    37454    37420 
   37407    37428    37480    37488    37446    37454    37515    37552 
   37571    37571    37515    37435    37393    37396    37395    37378 
   37378    37413    37473    37519    37493    37432    37442    37521 
   37584    37578    37521    37476    37473    37505    37547    37542 
   37471    37420    37453    37505    37507    37482    37478    37482 
   37494    37542    37567    37523    37478    37481    37492    37486 
   37473    37453    37436    37458    37503    37530    37542    37551 
   37544    37520    37486    37467    37467    37462    37454    37461 
   37484    37508    37504    37451    37416    37458    37501    37509 
   37516    37469    37393    37400    37439    37467    37540    37601 
   37605    37606    37613    37584    37520    37466    37447    37467 
   37482    37442    37420    37466    37503    37524    37567    37586 
   37558    37530    37536    37551    37489    37388    37370    37403 
   37424    37485    37561    37575    37569    37582    37579    37531 
   37463    37434    37449    37457    37430    37397    37404    37434 
   37457    37488    37516    37492    37458    37459    37466    37450 
   37413    37378    37365    37385    37434    37480    37497    37476 
   37439    37444    37484    37512    37546    37570    37538    37484 
   37471    37478    37478    37459    37430    37442    37511    37571 
   37579    37596    37655    37683    37655    37611    37508    37370 
   37361    37457    37459    37403    37442    37540    37601    37623 
   37605    37546    37490    37432    37359    37316    37331    37400 
   37498    37551    37528    37470    37435    37471    37531    37505 
   37426    37369    37357    37368    37341    37309    37374    37463 
   37474    37444    37409    37417    37523    37620    37617    37586 
   37558    37493    37432    37454    37540    37584    37530    37484 
   37581    37743    37783    37719    37674    37617    37503    37409 
   37389    37362    37281    37242    37328    37447    37490    37519 
   37571    37593    37578    37538    37444    37349    37359    37454 
   37489    37443    37432    37470    37482    37494    37508    37461 
   37403    37403    37440    37459    37416    37366    37416    37521 
   37535    37486    37519    37605    37640    37570    37453    37400 
   37385    37380    37467    37573    37547    37482    37546    37735 
   37914    37922    37747    37542    37436    37446    37494    37508 
   37496    37501    37520    37503    37424    37353    37385    37511 
   37600    37586    37497    37382    37278    37233    37285    37382 
   37436    37497    37574    37547    37454    37426    37443    37439 
   37431    37467    37528    37559    37571    37567    37540    37527 
   37551    37590    37585    37489    37355    37273    37277    37363 
   37470    37493    37447    37459    37547    37612    37628    37677 
   37740    37704    37562    37417    37318    37247    37189    37162 
   37204    37301    37403    37508    37592    37617    37590    37538 
   37496    37459    37409    37350    37291    37272    37341    37466 
   37558    37584    37609    37655    37658    37628    37624    37596 
   37508    37446    37440    37432    37390    37366    37417    37490 
   37503    37509    37602    37719    37787    37848    37854    37700 
   37430    37218    37196    37316    37476    37625    37683    37666 
   37709    37773    37748    37646    37500    37343    37208    37143 
   37187    37273    37331    37392    37486    37531    37463    37366 
   37322    37334    37384    37467    37509    37461    37465    37578 
   37644    37605    37504    37372    37304    37328    37368    37424 
   37493    37513    37546    37652    37717    37667    37570    37470 
   37422    37455    37504    37523    37498    37451    37470    37532 
   37525    37481    37482    37501    37503    37525    37586    37629 
   37604    37528    37470    37458    37424    37316    37215    37243 
   37363    37426    37403    37385    37422    37482    37519    37520 
   37535    37571    37547    37466    37450    37480    37447    37426 
   37500    37588    37596    37532    37481    37504    37562    37646 
   37763    37750    37509    37293    37327    37485    37565    37523 
   37431    37385    37443    37613    37802    37876    37840    37773 
   37686    37539    37326    37149    37149    37295    37399    37420 
   37440    37478    37551    37631    37623    37559    37481    37353 
   37280    37327    37350    37301    37303    37380    37451    37490 
   37551    37639    37681    37658    37604    37544    37512    37525 
   37509    37443    37442    37527    37579    37592    37589    37540 
   37470    37436    37424    37374    37266    37218    37330    37442 
   37408    37396    37500    37609    37685    37736    37697    37543 
   37357    37276    37361    37473    37461    37395    37380    37386 
   37370    37349    37376    37451    37524    37565    37544    37477 
   37423    37420    37492    37586    37613    37593    37604    37617 
   37578    37563    37600    37567    37446    37385    37443    37494 
   37434    37330    37318    37427    37577    37687    37708    37633 
   37530    37504    37581    37651    37663    37631    37532    37428 
   37389    37349    37276    37253    37335    37471    37554    37544 
   37474    37386    37347    37350    37361    37431    37498    37469 
   37435    37457    37498    37563    37575    37504    37489    37536 
   37528    37498    37493    37473    37469    37538    37655    37758 
   37739    37562    37390    37370    37403    37401    37424    37501 
   37555    37531    37504    37511    37476    37393    37363    37416 
   37478    37513    37515    37432    37307    37265    37304    37363 
   37450    37542    37579    37548    37488    37443    37457    37554 
   37665    37681    37625    37575    37512    37427    37369    37334 
   37332    37420    37525    37527    37476    37458    37490    37585 
   37683    37698    37662    37644    37602    37484    37341    37284 
   37382    37530    37565    37513    37440    37362    37357    37444 
   37512    37517    37548    37598    37598    37539    37467    37474 
   37534    37527    37496    37485    37424    37330    37299    37368 
   37478    37563    37639    37692    37644    37532    37465    37482 
   37567    37612    37548    37496    37513    37490    37430    37461 
   37546    37528    37432    37374    37386    37419    37422    37447 
   37519    37531    37480    37446    37380    37274    37251    37312 
   37373    37412    37415    37386    37369    37377    37423    37484 
   37508    37528    37563    37554    37543    37592    37629    37640 
   37655    37620    37578    37571    37521    37473    37497    37511 
   37509    37574    37620    37547    37455    37461    37503    37505 
   37492    37459    37382    37341    37395    37458    37469    37509 
   37619    37689    37674    37615    37546    37524    37544    37489 
   37353    37231    37179    37227    37349    37453    37527    37586 
   37600    37605    37628    37570    37436    37339    37272    37243 
   37326    37430    37450    37451    37504    37588    37652    37666 
   37608    37513    37446    37422    37386    37322    37273    37281 
   37350    37474    37602    37682    37706    37687    37647    37581 
   37471    37380    37392    37449    37446    37415    37457    37584 
   37678    37629    37517    37473    37454    37374    37327    37374 
   37419    37444    37496    37524    37520    37539    37590    37623 
   37584    37534    37554    37534    37386    37255    37255    37345 
   37446    37498    37490    37469    37513    37616    37666    37625 
   37574    37534    37488    37449    37377    37319    37385    37490 
   37555    37652    37709    37605    37482    37494    37552    37551 
   37539    37579    37619    37566    37476    37431    37409    37432 
   37543    37629    37582    37515    37507    37462    37373    37307 
   37289    37347    37416    37417    37417    37459    37505    37559 
   37582    37538    37503    37492    37469    37486    37542    37558 
   37586    37660    37697    37654    37540    37401    37343    37390 
