Origin Time       2025/03/30 21:30:00
Lat.              38.535
Long.             142.295
Depth. (km)       44
Mag.              4.3
Station Code      FKSH11
Station Lat.      37.2006
Station Long.     140.3386
Station Height(m) 285.7
Record Time       2025/03/30 21:31:55
Sampling Freq(Hz) 100Hz
Duration Time(s)  120
Dir.              4
Scale Factor      7845(gal)/8223790
Max. Acc. (gal)   0.603
Last Correction   2025/03/30 21:31:56
Memo.             
[...]
   -8163    -8097    -8043    -8027    -8059    -8106    -8125    -8136 
   -8151    -8137    -8085    -8023    -7998    -8023    -8059    -8097 
   -8139    -8156    -8127    -8052    -7979    -7960    -7987    -8024 
   -8054    -8087    -8140    -8160    -8129    -8101    -8073    -8029 
   -8014    -8037    -8067    -8085    -8086    -8095    -8116    -8136 
   -8144    -8122    -8081    -8060    -8068    -8083    -8108    -8151 
   -8197    -8222    -8210    -8174    -8129    -8081    -8035    -7997 
   -7981    -8013    -8075    -8122    -8159    -8179    -8149    -8094 
   -8063    -8048    -8031    -8016    -8024    -8056    -8086    -8086 
   -8075    -8095    -8114    -8090    -8064    -8050    -8027    -8016 
   -8019    -8027    -8062    -8109    -8141    -8170    -8189    -8178 
   -8136    -8101    -8091    -8083    -8083    -8098    -8116    -8143 
   -8159    -8128    -8097    -8120    -8160    -8170    -8151    -8137 
   -8129    -8100    -8054    -8010    -7998    -8032    -8074    -8094 
   -8102    -8117    -8133    -8106    -8041    -7992    -7977    -8009 
   -8075    -8121    -8121    -8095    -8073    -8048    -8020    -8019 
   -8047    -8077    -8100    -8110    -8095    -8066    -8044    -8027 
   -8028    -8070    -8136    -8178    -8185    -8168    -8131    -8082 
   -8064    -8100    -8137    -8143    -8143    -8144    -8135    -8118 
   -8082    -8017    -7965    -7966    -8014    -8079    -8151    -8209 
   -8212    -8159    -8087    -8016    -7977    -7993    -8039    -8087 
   -8124    -8133    -8117    -8081    -8037    -8008    -7998    -8014 
   -8075    -8135    -8143    -8118    -8105    -8108    -8109    -8100 
   -8090    -8094    -8106    -8094    -8062    -8041    -8044    -8064 
   -8098    -8132    -8159    -8172    -8166    -8162    -8178    -8182 
   -8132    -8056    -8019    -8029    -8051    -8046    -8025    -8048 
   -8114    -8148    -8140    -8117    -8100    -8114    -8125    -8102 
   -8091    -8094    -8098    -8131    -8144    -8086    -8025    -8019 
   -8051    -8090    -8109    -8093    -8074    -8087    -8110    -8106 
   -8087    -8087    -8114    -8132    -8132    -8129    -8097    -8019 
   -7955    -7938    -7939    -7989    -8100    -8185    -8201    -8187 
   -8156    -8102    -8040    -8001    -8004    -8031    -8050    -8074 
   -8110    -8125    -8110    -8085    -8068    -8090    -8116    -8121 
   -8132    -8148    -8137    -8087    -8033    -8041    -8098    -8155 
   -8202    -8201    -8162    -8136    -8105    -8050    -8001    -7982 
   -8010    -8060    -8106    -8152    -8176    -8158    -8121    -8086 
   -8060    -8062    -8073    -8056    -8021    -8020    -8074    -8122 
   -8122    -8109    -8124    -8145    -8148    -8113    -8043    -7994 
   -7996    -8014    -8040    -8067    -8094    -8140    -8160    -8133 
   -8116    -8116    -8108    -8104    -8102    -8071    -8032    -8048 
   -8095    -8117    -8145    -8186    -8193    -8176    -8140    -8064 
   -7998    -7985    -7993    -7998    -8043    -8128    -8174    -8144 
   -8108    -8112    -8113    -8086    -8064    -8068    -8100    -8133 
   -8124    -8082    -8079    -8106    -8097    -8064    -8052    -8060 
   -8056    -8020    -8014    -8059    -8090    -8109    -8144    -8174 
   -8182    -8148    -8068    -8019    -8047    -8071    -8039    -8024 
   -8055    -8074    -8082    -8110    -8118    -8100    -8079    -8059 
   -8075    -8127    -8152    -8144    -8147    -8158    -8114    -8029 
   -7998    -8013    -8020    -8052    -8098    -8148    -8197    -8158 
   -8068    -8054    -8091    -8124    -8133    -8137    -8174    -8197 
   -8156    -8075    -8006    -8006    -8033    -8039    -8067    -8109 
   -8125    -8120    -8108    -8095    -8073    -8066    -8089    -8110 
   -8116    -8098    -8064    -8056    -8083    -8102    -8081    -8044 
   -8051    -8089    -8091    -8058    -8035    -8033    -8051    -8081 
   -8091    -8070    -8070    -8132    -8194    -8166    -8110    -8120 
   -8133    -8102    -8086    -8082    -8079    -8081    -8064    -8068 
   -8116    -8140    -8140    -8168    -8195    -8175    -8113    -8035 
   -7990    -8009    -8051    -8067    -8087    -8120    -8122    -8105 
   -8097    -8108    -8129    -8137    -8118    -8093    -8074    -8043 
   -7993    -7944    -7936    -7975    -8021    -8036    -8043    -8054 
   -8071    -8110    -8147    -8158    -8162    -8164    -8170    -8172 
   -8154    -8127    -8112    -8081    -8044    -8056    -8090    -8067 
   -8041    -8087    -8137    -8147    -8140    -8127    -8137    -8164 
   -8151    -8118    -8125    -8160    -8156    -8085    -8025    -8029 
   -8031    -7996    -7971    -7997    -8050    -8067    -8067    -8113 
   -8145    -8124    -8101    -8087    -8073    -8060    -8035    -8010 
   -8016    -8047    -8068    -8068    -8079    -8112    -8118    -8095 
   -8098    -8125    -8136    -8144    -8164    -8175    -8166    -8140 
   -8097    -8054    -8052    -8070    -8048    -8046    -8105    -8156 
   -8156    -8143    -8124    -8087    -8046    -8028    -8025    -8014 
   -8025    -8082    -8144    -8167    -8143    -8087    -8036    -8014 
   -8013    -8020    -8040    -8083    -8129    -8132    -8085    -8052 
   -8070    -8093    -8100    -8098    -8098    -8113    -8132    -8131 
   -8110    -8082    -8058    -8062    -8091    -8133    -8168    -8175 
   -8162    -8141    -8100    -8050    -8025    -8021    -8039    -8097 
   -8160    -8163    -8114    -8071    -8044    -8005    -7978    -8012 
   -8106    -8201    -8218    -8179    -8148    -8122    -8073    -7996 
   -7939    -7973    -8058    -8089    -8082    -8089    -8102    -8105 
   -8090    -8089    -8110    -8129    -8149    -8162    -8151    -8128 
   -8091    -8070    -8117    -8190    -8194    -8137    -8102    -8110 
   -8102    -8039    -7975    -7973    -8013    -8060    -8085    -8094 
   -8128    -8140    -8106    -8077    -8060    -8073    -8112    -8127 
   -8122    -8104    -8046    -7997    -7998    -8029    -8071    -8089 
   -8105    -8156    -8193    -8178    -8139    -8110    -8104    -8089 
   -8081    -8106    -8100    -8047    -8032    -8067    -8117    -8164 
   -8186    -8186    -8182    -8149    -8089    -8046    -8043    -8070 
   -8117    -8148    -8147    -8132    -8094    -8035    -8004    -8012 
   -8033    -8036    -8028    -8055    -8101    -8097    -8060    -8063 
   -8109    -8151    -8151    -8110    -8055    -7993    -7950    -7970 
   -8023    -8040    -8029    -8046    -8121    -8199    -8224    -8205 
   -8149    -8055    -7997    -8020    -8074    -8110    -8136    -8163 
   -8190    -8189    -8129    -8024    -7942    -7958    -8073    -8193 
   -8232    -8209    -8172    -8118    -8075    -8097    -8112    -8063 
   -8005    -7973    -7977    -8019    -8079    -8168    -8218    -8118 
   -7952    -7879    -7939    -8079    -8203    -8230    -8176    -8113 
   -8086    -8101    -8144    -8167    -8095    -7962    -7904    -7946 
   -8028    -8129    -8206    -8225    -8218    -8167    -8059    -7993 
   -8051    -8167    -8226    -8212    -8179    -8152    -8133    -8097 
   -8017    -7929    -7884    -7916    -8055    -8217    -8284    -8264 
   -8221    -8176    -8098    -8004    -7973    -8017    -8063    -8067 
   -8036    -8023    -8051    -8079    -8100    -8113    -8086    -8047 
   -8039    -8064    -8125    -8166    -8110    -8020    -7997    -8009 
   -8002    -8024    -8114    -8202    -8208    -8164    -8118    -8067 
   -8031    -8031    -8056    -8109    -8156    -8162    -8131    -8095 
   -8078    -8070    -8063    -8039    -8010    -8033    -8091    -8124 
   -8136    -8137    -8116    -8095    -8117    -8133    -8117    -8118 
   -8135    -8122    -8097    -8071    -8041    -8013    -8009    -8040 
   -8109    -8174    -8181    -8155    -8135    -8094    -8055    -8046 
   -8036    -8059    -8129    -8164    -8137    -8100    -8106    -8151 
   -8143    -8071    -8016    -7990    -7986    -8024    -8081    -8098 
   -8073    -8063    -8112    -8168    -8179    -8133    -8048    -8001 
   -8023    -8035    -8005    -8006    -8083    -8163    -8198    -8229 
   -8235    -8168    -8108    -8117    -8143    -8129    -8112    -8133 
   -8156    -8120    -8058    -8031    -8035    -8051    -8070    -8066 
   -8043    -8068    -8159    -8222    -8198    -8129    -8093    -8116 
   -8118    -8035    -7951    -7959    -8024    -8068    -8066    -8046 
   -8064    -8121    -8152    -8133    -8087    -8032    -8004    -8012 
   -8040    -8070    -8082    -8077    -8079    -8109    -8117    -8024 
   -7929    -7998    -8140    -8170    -8132    -8148    -8178    -8155 
   -8124    -8129    -8155    -8186    -8181    -8094    -7990    -7975 
   -8062    -8144    -8110    -8020    -8005    -8075    -8160    -8208 
   -8170    -8105    -8137    -8181    -8102    -8028    -8054    -8085 
   -8093    -8071    -7996    -7974    -8051    -8090    -8021    -7901 
   -7865    -8035    -8299    -8349    -8151    -8021    -8114    -8237 
   -8209    -8056    -7958    -8010    -8047    -7974    -7931    -7998 
   -8160    -8316    -8301    -8148    -8066    -8087    -8081    -8044 
   -8050    -8043    -8036    -8124    -8233    -8264    -8203    -8068 
   -7966    -7963    -7979    -8027    -8168    -8236    -8109    -7997 
   -8089    -8226    -8170    -7986    -7917    -7971    -8027    -8056 
   -8101    -8095    -7989    -7971    -8122    -8187    -8120    -8137 
   -8185    -8114    -8050    -8094    -8101    -7969    -7892    -8089 
   -8320    -8257    -8078    -7989    -7960    -8025    -8149    -8181 
   -8068    -7951    -8033    -8221    -8244    -8136    -8120    -8183 
   -8199    -8154    -7997    -7835    -7902    -8035    -7993    -7902 
   -7994    -8253    -8406    -8260    -7986    -7954    -8185    -8278 
   -8062    -7844    -7923    -8179    -8317    -8209    -8039    -8036 
   -8122    -8222    -8267    -8073    -7886    -8013    -8187    -8170 
   -8062    -7975    -8044    -8222    -8240    -8140    -8109    -8090 
   -8098    -8152    -8106    -8023    -8066    -8133    -8082    -7959 
   -7885    -7956    -8105    -8135    -8093    -8120    -8152    -8129 
   -8109    -8093    -8021    -8020    -8182    -8271    -8202    -8155 
   -8075    -7932    -7901    -7958    -8048    -8183    -8228    -8240 
   -8260    -8164    -8172    -8266    -8137    -7996    -7977    -8002 
   -8166    -8209    -7996    -7982    -8139    -8046    -7921    -8066 
   -8257    -8270    -8149    -8070    -8079    -8040    -7948    -7898 
   -7854    -7875    -8048    -8162    -8098    -8062    -8122    -8113 
   -8033    -8063    -8149    -8079    -7912    -7901    -8051    -8137 
   -8120    -8122    -8149    -8166    -8183    -8172    -8117    -8066 
   -8035    -8012    -7998    -8012    -8100    -8222    -8225    -8158 
   -8172    -8228    -8259    -8280    -8244    -8108    -7917    -7785 
   -7784    -7821    -7865    -8012    -8203    -8299    -8337    -8383 
   -8424    -8386    -8225    -8024    -7892    -7857    -7898    -8002 
   -8113    -8172    -8183    -8178    -8117    -8024    -8017    -8110 
   -8191    -8225    -8224    -8206    -8203    -8155    -8039    -7969 
   -7951    -7936    -7992    -8052    -7987    -7919    -7967    -8004 
   -7959    -7967    -8063    -8143    -8178    -8209    -8213    -8154 
   -8085    -8036    -7986    -7973    -8040    -8129    -8172    -8183 
   -8160    -8087    -8021    -8008    -7997    -7960    -7954    -7993 
   -8067    -8220    -8399    -8463    -8395    -8268    -8104    -7946 
   -7847    -7784    -7738    -7765    -7925    -8156    -8293    -8341 
   -8392    -8363    -8164    -7913    -7765    -7755    -7823    -7890 
   -7958    -8058    -8189    -8299    -8338    -8301    -8212    -8059 
   -7870    -7749    -7739    -7773    -7839    -7994    -8199    -8378 
   -8530    -8654    -8691    -8594    -8382    -8167    -8029    -7932 
   -7828    -7758    -7804    -7990    -8247    -8463    -8575    -8552 
   -8409    -8214    -8043    -7940    -7915    -7919    -7955    -8040 
   -8102    -8094    -8054    -7993    -7902    -7771    -7659    -7684 
   -7854    -8093    -8325    -8464    -8468    -8355    -8149    -7906 
   -7738    -7689    -7713    -7789    -7933    -8100    -8187    -8148 
   -8060    -8017    -8009    -8035    -8114    -8214    -8320    -8419 
   -8449    -8388    -8270    -8101    -7913    -7803    -7811    -7871 
   -7936    -8013    -8097    -8145    -8109    -8036    -8051    -8190 
   -8367    -8476    -8494    -8440    -8290    -8081    -7931    -7867 
   -7851    -7866    -7905    -8000    -8140    -8221    -8201    -8152 
   -8160    -8240    -8322    -8349    -8337    -8332    -8340    -8310 
   -8212    -8066    -7915    -7819    -7861    -8017    -8162    -8235 
   -8262    -8244    -8149    -7977    -7792    -7690    -7716    -7850 
   -8024    -8178    -8282    -8301    -8222    -8063    -7827    -7596 
   -7506    -7582    -7771    -7989    -8139    -8237    -8368    -8503 
   -8538    -8438    -8237    -7998    -7805    -7704    -7686    -7742 
   -7879    -8091    -8332    -8513    -8546    -8441    -8289    -8131 
   -8000    -7956    -8009    -8124    -8260    -8364    -8403    -8355 
   -8172    -7924    -7749    -7686    -7716    -7819    -7958    -8125 
   -8298    -8417    -8426    -8314    -8156    -8032    -7946    -7875 
   -7827    -7824    -7900    -8031    -8147    -8222    -8248    -8189 
   -8074    -7958    -7855    -7797    -7831    -7955    -8162    -8422 
   -8642    -8722    -8635    -8425    -8170    -7951    -7809    -7754 
   -7777    -7866    -7986    -8089    -8181    -8313    -8424    -8390 
   -8193    -7942    -7751    -7677    -7684    -7758    -7943    -8191 
   -8402    -8499    -8441    -8289    -8129    -7952    -7784    -7731 
   -7834    -8016    -8176    -8275    -8291    -8213    -8077    -7946 
   -7859    -7831    -7857    -7921    -8027    -8154    -8274    -8364 
   -8409    -8386    -8278    -8117    -7940    -7801    -7766    -7817 
   -7884    -7929    -7987    -8125    -8333    -8468    -8424    -8256 
   -8048    -7859    -7751    -7724    -7765    -7924    -8193    -8433 
   -8541    -8513    -8391    -8244    -8131    -8041    -7978    -7989 
   -8068    -8156    -8210    -8218    -8221    -8225    -8203    -8182 
   -8193    -8224    -8237    -8172    -8074    -8066    -8143    -8201 
   -8208    -8202    -8202    -8171    -8106    -8041    -7982    -7931 
   -7902    -7873    -7835    -7824    -7866    -7936    -8035    -8178 
   -8299    -8332    -8311    -8262    -8136    -7927    -7709    -7566 
   -7520    -7557    -7645    -7755    -7885    -8019    -8124    -8190 
   -8206    -8189    -8187    -8216    -8245    -8247    -8216    -8167 
   -8095    -8005    -7948    -7983    -8105    -8253    -8367    -8422 
   -8394    -8276    -8160    -8141    -8199    -8278    -8375    -8494 
   -8598    -8592    -8388    -8051    -7750    -7558    -7469    -7497 
   -7673    -7946    -8221    -8432    -8494    -8382    -8198    -8020 
   -7863    -7770    -7751    -7800    -7923    -8058    -8121    -8112 
   -8050    -7947    -7847    -7801    -7812    -7852    -7942    -8095 
   -8275    -8440    -8529    -8503    -8411    -8317    -8209    -8095 
   -8019    -7978    -7956    -7970    -8052    -8160    -8203    -8216 
   -8283    -8361    -8379    -8340    -8267    -8190    -8133    -8054 
   -7946    -7874    -7882    -7983    -8148    -8301    -8378    -8356 
   -8248    -8097    -7928    -7780    -7719    -7773    -7905    -8056 
   -8159    -8176    -8108    -7956    -7766    -7614    -7569    -7654 
   -7831    -8040    -8224    -8345    -8413    -8440    -8409    -8275 
   -8055    -7870    -7777    -7715    -7685    -7762    -7971    -8259 
   -8517    -8626    -8590    -8488    -8338    -8160    -8054    -8060 
   -8160    -8294    -8360    -8318    -8182    -7992    -7851    -7842 
   -7902    -7977    -8089    -8228    -8295    -8222    -8073    -7986 
   -8017    -8117    -8212    -8262    -8287    -8289    -8178    -7950 
   -7758    -7680    -7668    -7712    -7803    -7911    -8032    -8118 
   -8129    -8116    -8132    -8174    -8193    -8155    -8106    -8086 
   -8033    -7932    -7867    -7862    -7901    -8021    -8167    -8262 
   -8318    -8321    -8253    -8174    -8101    -8052    -8077    -8151 
   -8233    -8303    -8317    -8268    -8214    -8175    -8144    -8116 
   -8070    -8041    -8077    -8133    -8139    -8112    -8117    -8147 
   -8143    -8093    -8046    -8028    -7993    -7915    -7869    -7915 
   -8027    -8143    -8208    -8214    -8179    -8112    -8039    -7992 
   -7948    -7902    -7879    -7904    -7973    -8051    -8109    -8191 
   -8310    -8375    -8337    -8259    -8181    -8098    -8040    -8036 
   -8087    -8182    -8248    -8201    -8098    -8056    -8054    -8040 
   -8068    -8140    -8179    -8141    -8079    -8075    -8125    -8143 
   -8101    -8100    -8202    -8306    -8278    -8125    -7948    -7798 
   -7678    -7600    -7585    -7669    -7844    -8027    -8155    -8214 
   -8226    -8225    -8226    -8216    -8160    -8062    -7978    -7946 
   -7963    -8010    -8078    -8167    -8239    -8260    -8235    -8174 
   -8097    -8021    -7962    -7992    -8140    -8305    -8376    -8360 
   -8330    -8314    -8263    -8175    -8073    -7973    -7944    -8005 
   -8086    -8152    -8187    -8190    -8178    -8125    -8031    -7963 
   -7933    -7897    -7881    -7916    -7950    -7966    -8029    -8128 
   -8176    -8171    -8174    -8183    -8149    -8087    -8060    -8090 
   -8158    -8249    -8320    -8306    -8228    -8143    -8050    -7944 
   -7865    -7828    -7834    -7878    -7946    -8035    -8136    -8222 
   -8282    -8306    -8306    -8271    -8168    -8019    -7881    -7781 
   -7758    -7828    -7944    -8035    -8066    -8060    -8082    -8148 
   -8214    -8240    -8213    -8144    -8077    -8031    -7994    -7973 
   -8008    -8131    -8282    -8347    -8294    -8174    -8036    -7946 
   -7951    -8025    -8121    -8218    -8309    -8361    -8351    -8260 
   -8104    -7943    -7857    -7882    -7974    -8063    -8104    -8063 
   -7978    -7942    -7983    -8046    -8067    -8051    -8050    -8094 
   -8141    -8139    -8091    -8025    -7936    -7839    -7774    -7790 
   -7889    -8005    -8098    -8193    -8237    -8182    -8106    -8079 
   -8068    -8032    -8009    -8052    -8164    -8318    -8444    -8486 
   -8494    -8510    -8494    -8406    -8256    -8113    -8013    -7939 
   -7924    -8010    -8179    -8348    -8437    -8433    -8345    -8183 
   -8009    -7889    -7830    -7813    -7819    -7838    -7923    -8082 
   -8206    -8237    -8213    -8129    -7994    -7859    -7747    -7704 
   -7757    -7857    -7965    -8077    -8167    -8182    -8101    -8001 
   -7955    -7935    -7915    -7927    -7971    -8025    -8071    -8128 
   -8185    -8199    -8163    -8110    -8056    -8010    -7981    -7962 
   -7978    -8067    -8208    -8333    -8411    -8471    -8513    -8499 
   -8418    -8291    -8158    -8078    -8059    -8058    -8081    -8137 
   -8186    -8210    -8216    -8163    -8051    -7950    -7916    -7943 
   -7987    -8052    -8149    -8218    -8218    -8176    -8110    -8023 
   -7946    -7890    -7854    -7862    -7917    -7987    -8033    -8040 
   -8019    -8010    -8035    -8066    -8089    -8136    -8205    -8249 
