Origin Time       2025/03/30 21:30:00
Lat.              38.535
Long.             142.295
Depth. (km)       44
Mag.              4.3
Station Code      FKSH11
Station Lat.      37.2006
Station Long.     140.3386
Station Height(m) 170.5
Record Time       2025/03/30 21:31:55
Sampling Freq(Hz) 100Hz
Duration Time(s)  120
Dir.              3
Scale Factor      2942(gal)/8224139
Max. Acc. (gal)   0.102
Last Correction   2025/03/30 21:31:56
Memo.             
[...]
  -25504   -25470   -25465   -25519   -25586   -25598   -25566   -25547 
  -25521   -25492   -25539   -25605   -25570   -25504   -25510   -25558 
  -25566   -25556   -25605   -25616   -25513   -25448   -25475   -25537 
  -25594   -25567   -25560   -25654   -25650   -25570   -25560   -25548 
  -25551   -25551   -25488   -25508   -25550   -25477   -25455   -25528 
  -25575   -25606   -25620   -25609   -25578   -25560   -25578   -25527 
  -25421   -25443   -25523   -25486   -25401   -25419   -25577   -25713 
  -25652   -25504   -25431   -25436   -25485   -25496   -25494   -25567 
  -25600   -25536   -25512   -25552   -25559   -25528   -25486   -25463 
  -25509   -25531   -25496   -25551   -25627   -25573   -25506   -25508 
  -25544   -25593   -25551   -25474   -25532   -25610   -25602   -25569 
  -25502   -25494   -25593   -25620   -25543   -25500   -25527   -25550 
  -25515   -25501   -25535   -25510   -25477   -25548   -25624   -25569 
  -25501   -25551   -25594   -25563   -25548   -25566   -25583   -25512 
  -25438   -25551   -25629   -25555   -25547   -25531   -25463   -25488 
  -25506   -25508   -25542   -25517   -25515   -25546   -25540   -25606 
  -25621   -25485   -25469   -25560   -25540   -25478   -25456   -25462 
  -25510   -25563   -25570   -25554   -25519   -25497   -25532   -25536 
  -25502   -25523   -25536   -25531   -25558   -25571   -25600   -25668 
  -25668   -25594   -25520   -25474   -25486   -25510   -25486   -25486 
  -25525   -25528   -25513   -25512   -25529   -25573   -25550   -25471 
  -25512   -25587   -25570   -25554   -25515   -25456   -25474   -25463 
  -25452   -25564   -25644   -25597   -25559   -25586   -25632   -25650 
  -25602   -25520   -25463   -25435   -25467   -25552   -25583   -25567 
  -25563   -25535   -25527   -25571   -25597   -25596   -25581   -25536 
  -25481   -25478   -25537   -25552   -25547   -25610   -25606   -25489 
  -25427   -25482   -25567   -25546   -25456   -25510   -25600   -25544 
  -25497   -25544   -25605   -25629   -25593   -25513   -25450   -25489 
  -25581   -25573   -25501   -25525   -25636   -25616   -25459   -25466 
  -25587   -25562   -25494   -25512   -25573   -25596   -25505   -25446 
  -25524   -25562   -25546   -25535   -25466   -25470   -25555   -25528 
  -25510   -25604   -25644   -25598   -25560   -25559   -25570   -25525 
  -25470   -25485   -25467   -25454   -25554   -25579   -25528   -25600 
  -25656   -25560   -25466   -25462   -25471   -25428   -25408   -25496 
  -25586   -25617   -25627   -25586   -25540   -25550   -25543   -25520 
  -25519   -25533   -25559   -25555   -25535   -25519   -25483   -25471 
  -25516   -25529   -25471   -25455   -25543   -25612   -25609   -25610 
  -25605   -25547   -25488   -25489   -25512   -25494   -25446   -25432 
  -25486   -25502   -25477   -25532   -25597   -25581   -25542   -25498 
  -25475   -25498   -25525   -25535   -25525   -25523   -25589   -25689 
  -25708   -25639   -25578   -25550   -25513   -25512   -25551   -25560 
  -25562   -25609   -25632   -25564   -25469   -25461   -25551   -25582 
  -25504   -25519   -25658   -25689   -25573   -25528   -25605   -25623 
  -25497   -25380   -25408   -25489   -25486   -25465   -25509   -25598 
  -25637   -25573   -25523   -25579   -25627   -25601   -25547   -25477 
  -25451   -25477   -25467   -25438   -25469   -25586   -25683   -25624 
  -25548   -25601   -25617   -25537   -25505   -25500   -25485   -25482 
  -25456   -25492   -25564   -25544   -25527   -25509   -25458   -25523 
  -25600   -25559   -25536   -25505   -25458   -25494   -25523   -25521 
  -25533   -25506   -25498   -25552   -25594   -25604   -25567   -25523 
  -25519   -25510   -25527   -25586   -25570   -25483   -25466   -25506 
  -25515   -25489   -25510   -25609   -25629   -25528   -25505   -25563 
  -25552   -25500   -25470   -25497   -25527   -25475   -25497   -25641 
  -25682   -25605   -25554   -25501   -25446   -25459   -25523   -25591 
  -25605   -25548   -25559   -25601   -25550   -25531   -25566   -25517 
  -25459   -25494   -25589   -25670   -25675   -25639   -25582   -25470 
  -25390   -25450   -25546   -25547   -25523   -25554   -25575   -25544 
  -25513   -25533   -25535   -25473   -25452   -25513   -25551   -25560 
  -25618   -25641   -25554   -25466   -25439   -25447   -25498   -25544 
  -25547   -25542   -25536   -25559   -25606   -25593   -25540   -25520 
  -25482   -25431   -25451   -25558   -25660   -25633   -25546   -25543 
  -25567   -25582   -25583   -25512   -25459   -25486   -25501   -25528 
  -25585   -25586   -25560   -25556   -25546   -25570   -25593   -25531 
  -25463   -25443   -25444   -25496   -25582   -25667   -25672   -25551 
  -25448   -25483   -25550   -25552   -25512   -25478   -25463   -25447 
  -25456   -25515   -25591   -25612   -25558   -25500   -25440   -25416 
  -25490   -25525   -25467   -25508   -25620   -25620   -25551   -25531 
  -25562   -25563   -25509   -25517   -25555   -25497   -25455   -25537 
  -25637   -25650   -25608   -25596   -25609   -25577   -25533   -25550 
  -25571   -25564   -25571   -25571   -25543   -25523   -25504   -25473 
  -25483   -25544   -25593   -25620   -25617   -25569   -25532   -25531 
  -25512   -25482   -25473   -25456   -25488   -25587   -25604   -25524 
  -25497   -25548   -25589   -25516   -25425   -25482   -25551   -25517 
  -25505   -25543   -25573   -25573   -25550   -25543   -25559   -25550 
  -25509   -25490   -25489   -25474   -25477   -25493   -25485   -25501 
  -25571   -25625   -25644   -25648   -25609   -25542   -25504   -25509 
  -25536   -25537   -25517   -25513   -25521   -25550   -25587   -25590 
  -25601   -25635   -25593   -25505   -25494   -25509   -25481   -25470 
  -25498   -25517   -25551   -25600   -25578   -25521   -25556   -25629 
  -25591   -25481   -25452   -25512   -25533   -25494   -25502   -25547 
  -25532   -25519   -25556   -25552   -25542   -25571   -25535   -25452 
  -25429   -25486   -25556   -25524   -25462   -25535   -25613   -25571 
  -25551   -25577   -25559   -25528   -25494   -25469   -25486   -25490 
  -25483   -25520   -25544   -25562   -25598   -25573   -25532   -25559 
  -25555   -25489   -25456   -25500   -25564   -25579   -25562   -25577 
  -25570   -25502   -25493   -25564   -25604   -25586   -25542   -25513 
  -25537   -25574   -25602   -25598   -25510   -25428   -25456   -25567 
  -25664   -25655   -25578   -25537   -25520   -25508   -25524   -25521 
  -25482   -25466   -25492   -25543   -25587   -25560   -25482   -25459 
  -25500   -25498   -25489   -25573   -25623   -25546   -25494   -25542 
  -25610   -25596   -25469   -25416   -25506   -25546   -25513   -25529 
  -25594   -25640   -25608   -25586   -25641   -25627   -25539   -25510 
  -25505   -25519   -25562   -25521   -25465   -25537   -25629   -25624 
  -25571   -25537   -25505   -25455   -25451   -25513   -25570   -25544 
  -25482   -25492   -25544   -25575   -25591   -25542   -25469   -25485 
  -25529   -25512   -25475   -25500   -25587   -25650   -25625   -25567 
  -25512   -25481   -25493   -25497   -25479   -25486   -25513   -25562 
  -25618   -25639   -25614   -25562   -25529   -25554   -25559   -25523 
  -25519   -25548   -25589   -25594   -25521   -25479   -25525   -25537 
  -25510   -25535   -25590   -25585   -25501   -25479   -25559   -25608 
  -25556   -25446   -25417   -25531   -25610   -25593   -25575   -25558 
  -25485   -25417   -25454   -25532   -25528   -25486   -25506   -25559 
  -25571   -25556   -25591   -25648   -25617   -25539   -25521   -25554 
  -25583   -25571   -25532   -25490   -25454   -25479   -25546   -25585 
  -25609   -25628   -25618   -25579   -25543   -25579   -25617   -25542 
  -25459   -25488   -25532   -25520   -25536   -25614   -25644   -25558 
  -25439   -25435   -25532   -25546   -25470   -25469   -25524   -25539 
  -25498   -25455   -25505   -25564   -25508   -25435   -25417   -25444 
  -25493   -25478   -25424   -25439   -25492   -25516   -25558   -25632 
  -25660   -25610   -25571   -25558   -25508   -25489   -25560   -25596 
  -25531   -25467   -25494   -25594   -25664   -25682   -25690   -25632 
  -25533   -25531   -25566   -25537   -25515   -25536   -25524   -25470 
  -25462   -25515   -25552   -25537   -25525   -25554   -25552   -25482 
  -25413   -25381   -25394   -25473   -25563   -25609   -25585   -25505 
  -25446   -25439   -25451   -25466   -25465   -25482   -25560   -25613 
  -25598   -25636   -25708   -25683   -25574   -25486   -25488   -25537 
  -25559   -25569   -25552   -25488   -25482   -25600   -25697   -25654 
  -25548   -25556   -25682   -25685   -25527   -25471   -25519   -25519 
  -25513   -25552   -25575   -25520   -25462   -25477   -25483   -25471 
  -25498   -25543   -25598   -25645   -25652   -25601   -25509   -25461 
  -25446   -25401   -25409   -25470   -25486   -25502   -25547   -25609 
  -25689   -25671   -25556   -25508   -25524   -25528   -25498   -25434 
  -25439   -25543   -25613   -25617   -25578   -25504   -25458   -25452 
  -25466   -25529   -25618   -25656   -25668   -25690   -25612   -25459 
  -25431   -25506   -25515   -25451   -25427   -25485   -25569   -25621 
  -25629   -25586   -25543   -25574   -25612   -25590   -25579   -25570 
  -25502   -25465   -25496   -25535   -25555   -25528   -25489   -25509 
  -25509   -25462   -25463   -25496   -25527   -25608   -25701   -25745 
  -25717   -25627   -25554   -25517   -25438   -25353   -25375   -25451 
  -25483   -25490   -25488   -25512   -25578   -25586   -25586   -25670 
  -25670   -25551   -25494   -25552   -25652   -25658   -25527   -25436 
  -25413   -25326   -25301   -25421   -25489   -25474   -25505   -25589 
  -25654   -25670   -25652   -25579   -25474   -25479   -25566   -25555 
  -25492   -25519   -25567   -25497   -25396   -25434   -25547   -25560 
  -25515   -25563   -25629   -25586   -25559   -25633   -25710   -25705 
  -25587   -25423   -25338   -25361   -25424   -25467   -25512   -25578 
  -25618   -25627   -25593   -25574   -25637   -25655   -25524   -25373 
  -25327   -25400   -25473   -25467   -25490   -25537   -25517   -25471 
  -25494   -25618   -25724   -25685   -25612   -25604   -25577   -25547 
  -25567   -25554   -25477   -25444   -25502   -25564   -25569   -25559 
  -25600   -25621   -25529   -25451   -25498   -25563   -25581   -25589 
  -25601   -25600   -25567   -25527   -25478   -25439   -25447   -25461 
  -25474   -25563   -25668   -25670   -25569   -25488   -25512   -25563 
  -25548   -25510   -25458   -25378   -25357   -25442   -25559   -25594 
  -25533   -25513   -25598   -25664   -25631   -25551   -25492   -25463 
  -25444   -25466   -25583   -25705   -25679   -25563   -25494   -25456 
  -25436   -25424   -25419   -25506   -25624   -25668   -25683   -25678 
  -25670   -25631   -25532   -25504   -25510   -25429   -25373   -25411 
  -25477   -25552   -25623   -25675   -25699   -25679   -25632   -25563 
  -25486   -25417   -25390   -25428   -25479   -25512   -25542   -25616 
  -25710   -25672   -25542   -25540   -25610   -25564   -25482   -25471 
  -25482   -25485   -25486   -25483   -25517   -25571   -25609   -25647 
  -25635   -25579   -25618   -25663   -25547   -25384   -25303   -25305 
  -25378   -25470   -25547   -25601   -25604   -25575   -25593   -25660 
  -25722   -25749   -25666   -25486   -25369   -25309   -25255   -25311 
  -25434   -25490   -25504   -25533   -25587   -25640   -25668   -25655 
  -25596   -25515   -25465   -25510   -25600   -25650   -25656   -25574 
  -25458   -25446   -25502   -25540   -25517   -25428   -25365   -25411 
  -25520   -25610   -25617   -25578   -25641   -25782   -25775   -25574 
  -25386   -25347   -25375   -25370   -25431   -25605   -25616   -25388 
  -25297   -25466   -25610   -25639   -25648   -25631   -25548   -25490 
  -25577   -25728   -25712   -25528   -25398   -25411   -25504   -25587 
  -25574   -25500   -25506   -25589   -25632   -25667   -25722   -25698 
  -25621   -25564   -25500   -25447   -25402   -25373   -25423   -25494 
  -25559   -25652   -25704   -25718   -25683   -25527   -25409   -25421 
  -25438   -25440   -25444   -25448   -25516   -25613   -25666   -25664 
  -25602   -25564   -25625   -25645   -25563   -25508   -25512   -25504 
  -25466   -25435   -25448   -25458   -25434   -25452   -25517   -25537 
  -25509   -25519   -25573   -25567   -25489   -25440   -25459   -25537 
  -25635   -25668   -25628   -25591   -25573   -25506   -25425   -25404 
  -25427   -25478   -25517   -25465   -25411   -25510   -25721   -25816 
  -25647   -25451   -25483   -25591   -25593   -25517   -25493   -25571 
  -25581   -25517   -25550   -25583   -25554   -25558   -25520   -25408 
  -25378   -25463   -25560   -25597   -25591   -25612   -25652   -25672 
  -25689   -25660   -25539   -25442   -25489   -25566   -25504   -25378 
  -25374   -25498   -25598   -25577   -25543   -25578   -25562   -25479 
  -25462   -25500   -25535   -25610   -25683   -25635   -25569   -25581 
  -25552   -25462   -25417   -25444   -25494   -25516   -25551   -25606 
  -25587   -25543   -25555   -25520   -25442   -25461   -25523   -25523 
  -25512   -25544   -25591   -25586   -25513   -25477   -25535   -25594 
  -25596   -25600   -25643   -25655   -25594   -25525   -25492   -25486 
  -25501   -25488   -25451   -25481   -25552   -25582   -25578   -25569 
  -25555   -25547   -25554   -25600   -25656   -25618   -25523   -25504 
  -25560   -25627   -25578   -25413   -25363   -25397   -25380   -25432 
  -25542   -25579   -25540   -25477   -25500   -25583   -25596   -25594 
  -25632   -25614   -25527   -25461   -25505   -25629   -25606   -25384 
  -25251   -25323   -25416   -25474   -25554   -25613   -25609   -25610 
  -25670   -25716   -25668   -25614   -25640   -25620   -25524   -25528 
  -25596   -25569   -25496   -25456   -25451   -25510   -25602   -25620 
  -25578   -25546   -25527   -25547   -25586   -25558   -25498   -25471 
  -25463   -25467   -25471   -25473   -25486   -25482   -25490   -25564 
  -25621   -25598   -25564   -25547   -25477   -25350   -25289   -25389 
  -25533   -25542   -25477   -25504   -25570   -25566   -25542   -25581 
  -25609   -25559   -25515   -25529   -25552   -25573   -25600   -25605 
  -25559   -25515   -25524   -25543   -25571   -25639   -25650   -25548 
  -25465   -25475   -25500   -25513   -25581   -25683   -25778   -25794 
  -25687   -25602   -25616   -25583   -25483   -25452   -25505   -25531 
  -25515   -25544   -25616   -25637   -25593   -25548   -25560   -25601 
  -25579   -25481   -25420   -25465   -25521   -25510   -25500   -25564 
  -25633   -25618   -25559   -25542   -25571   -25544   -25431   -25385 
  -25435   -25427   -25408   -25485   -25548   -25524   -25529   -25624 
  -25645   -25513   -25421   -25494   -25581   -25587   -25600   -25600 
  -25516   -25455   -25496   -25509   -25429   -25366   -25371   -25370 
  -25362   -25421   -25516   -25582   -25612   -25605   -25589   -25574 
  -25523   -25488   -25483   -25452   -25483   -25582   -25559   -25470 
  -25469   -25474   -25492   -25585   -25628   -25583   -25510   -25451 
  -25492   -25589   -25585   -25531   -25543   -25602   -25679   -25693 
  -25613   -25617   -25683   -25614   -25494   -25477   -25516   -25560 
  -25616   -25645   -25627   -25600   -25596   -25610   -25597   -25544 
  -25527   -25547   -25533   -25513   -25506   -25488   -25483   -25496 
  -25500   -25550   -25629   -25617   -25551   -25540   -25536   -25516 
  -25512   -25493   -25462   -25448   -25469   -25551   -25636   -25621 
  -25532   -25469   -25473   -25537   -25604   -25625   -25594   -25546 
  -25578   -25641   -25609   -25563   -25543   -25447   -25367   -25432 
  -25501   -25482   -25486   -25564   -25621   -25573   -25521   -25596 
  -25667   -25587   -25465   -25458   -25515   -25474   -25365   -25326 
  -25348   -25361   -25370   -25428   -25508   -25505   -25444   -25427 
  -25475   -25547   -25531   -25452   -25459   -25520   -25558   -25590 
  -25623   -25629   -25587   -25536   -25563   -25621   -25618   -25585 
  -25564   -25570   -25586   -25585   -25583   -25586   -25598   -25605 
  -25548   -25494   -25554   -25663   -25718   -25699   -25690   -25725 
  -25687   -25556   -25477   -25523   -25591   -25582   -25562   -25591 
  -25610   -25586   -25562   -25539   -25492   -25502   -25563   -25556 
  -25528   -25501   -25440   -25417   -25428   -25450   -25486   -25450 
  -25411   -25454   -25474   -25483   -25531   -25559   -25556   -25502 
  -25448   -25515   -25604   -25573   -25488   -25448   -25471   -25515 
  -25532   -25570   -25605   -25571   -25535   -25542   -25516   -25481 
  -25529   -25582   -25558   -25564   -25650   -25678   -25604   -25543 
  -25577   -25618   -25586   -25554   -25556   -25529   -25489   -25475 
  -25454   -25427   -25448   -25500   -25512   -25489   -25506   -25593 
  -25647   -25616   -25591   -25604   -25582   -25515   -25461   -25444 
  -25428   -25438   -25517   -25571   -25519   -25448   -25459   -25539 
  -25608   -25610   -25562   -25539   -25540   -25524   -25551   -25625 
  -25671   -25675   -25631   -25566   -25554   -25529   -25485   -25512 
  -25540   -25489   -25431   -25411   -25458   -25543   -25586   -25602 
  -25601   -25542   -25506   -25527   -25516   -25492   -25488   -25481 
  -25504   -25563   -25614   -25623   -25550   -25470   -25489   -25513 
  -25447   -25396   -25451   -25532   -25542   -25524   -25587   -25667 
  -25641   -25596   -25609   -25604   -25562   -25523   -25510   -25537 
  -25542   -25474   -25385   -25350   -25439   -25582   -25631   -25631 
  -25671   -25708   -25716   -25679   -25593   -25477   -25378   -25361 
  -25427   -25525   -25593   -25625   -25651   -25635   -25579   -25558 
  -25536   -25482   -25466   -25498   -25496   -25439   -25420   -25467 
  -25506   -25498   -25483   -25512   -25548   -25533   -25546   -25633 
  -25666   -25620   -25610   -25596   -25516   -25456   -25482   -25560 
  -25598   -25575   -25573   -25577   -25508   -25438   -25492   -25582 
  -25570   -25532   -25556   -25581   -25566   -25540   -25532   -25537 
  -25482   -25392   -25385   -25444   -25474   -25482   -25524   -25573 
  -25583   -25567   -25543   -25550   -25586   -25562   -25485   -25465 
  -25517   -25542   -25512   -25513   -25542   -25547   -25539   -25540 
  -25546   -25532   -25527   -25570   -25602   -25600   -25606   -25596 
  -25579   -25606   -25635   -25660   -25668   -25608   -25570   -25610 
  -25597   -25515   -25466   -25490   -25581   -25647   -25616   -25583 
  -25559   -25494   -25497   -25537   -25471   -25396   -25402   -25413 
  -25420   -25452   -25492   -25513   -25475   -25444   -25490   -25517 
  -25496   -25537   -25574   -25525   -25492   -25465   -25431   -25447 
  -25471   -25467   -25459   -25466   -25493   -25509   -25508   -25517 
  -25519   -25520   -25542   -25571   -25610   -25643   -25636   -25594 
  -25546   -25552   -25591   -25573   -25544   -25575   -25616   -25641 
  -25666   -25660   -25621   -25558   -25529   -25613   -25701   -25686 
  -25667   -25685   -25659   -25598   -25558   -25521   -25451   -25393 
  -25394   -25432   -25470   -25483   -25490   -25510   -25515   -25523 
  -25562   -25567   -25536   -25512   -25463   -25443   -25485   -25471 
  -25427   -25471   -25517   -25483   -25459   -25473   -25479   -25497 
  -25525   -25537   -25540   -25525   -25523   -25577   -25641   -25683 
  -25686   -25623   -25560   -25509   -25456   -25481   -25533   -25548 
  -25590   -25652   -25677   -25666   -25636   -25600   -25543   -25489 
