Origin Time       2025/03/30 21:30:00
Lat.              38.535
Long.             142.295
Depth. (km)       44
Mag.              4.3
Station Code      FKSH14
Station Lat.      37.0264
Station Long.     140.9702
Station Height(m) -144
Record Time       2025/03/30 21:31:46
Sampling Freq(Hz) 100Hz
Duration Time(s)  120
Dir.              3
Scale Factor      2942(gal)/8224139
Max. Acc. (gal)   0.075
Last Correction   2025/03/30 21:31:47
Memo.             
[...]
  106859   106863   106910   106959   106942   106888   106860   106866 
  106875   106878   106874   106860   106861   106879   106890   106876 
  106857   106871   106897   106891   106875   106886   106901   106888 
  106871   106864   106861   106876   106913   106928   106893   106859 
  106871   106895   106897   106893   106909   106928   106914   106879 
  106864   106870   106879   106886   106886   106884   106890   106894 
  106893   106886   106888   106899   106898   106886   106866   106848 
  106868   106915   106929   106910   106915   106933   106925   106893 
  106859   106843   106848   106851   106845   106843   106857   106902 
  106948   106964   106956   106940   106926   106911   106883   106863 
  106860   106855   106851   106855   106861   106886   106907   106883 
  106847   106849   106863   106855   106855   106874   106883   106897 
  106910   106897   106888   106899   106887   106871   106880   106879 
  106860   106845   106843   106863   106897   106905   106884   106890 
  106933   106961   106955   106948   106938   106909   106876   106852 
  106824   106814   106841   106870   106860   106860   106911   106947 
  106920   106886   106876   106875   106872   106864   106861   106855 
  106825   106818   106860   106899   106910   106924   106924   106888 
  106847   106840   106860   106876   106883   106878   106866   106874 
  106903   106925   106924   106905   106891   106890   106887   106882 
  106874   106880   106909   106920   106899   106891   106913   106924 
  106909   106894   106890   106890   106890   106863   106829   106844 
  106893   106909   106875   106841   106855   106899   106905   106875 
  106871   106879   106849   106816   106817   106828   106841   106879 
  106901   106872   106841   106849   106863   106863   106876   106905 
  106905   106871   106845   106853   106886   106906   106901   106901 
  106920   106924   106905   106898   106910   106907   106903   106913 
  106882   106821   106830   106893   106901   106863   106856   106901 
  106944   106947   106922   106899   106891   106894   106876   106826 
  106798   106814   106836   106840   106848   106878   106920   106936 
  106915   106897   106893   106879   106857   106848   106848   106844 
  106847   106866   106884   106901   106926   106936   106922   106914 
  106925   106930   106906   106857   106834   106855   106872   106866 
  106868   106886   106887   106878   106884   106897   106902   106907 
  106901   106874   106860   106872   106880   106880   106887   106882 
  106856   106840   106843   106852   106857   106863   106874   106880 
  106884   106894   106897   106891   106888   106894   106901   106886 
  106863   106872   106886   106866   106855   106868   106874   106879 
  106880   106864   106880   106929   106948   106929   106886   106853 
  106875   106894   106863   106852   106863   106861   106887   106929 
  106928   106906   106906   106913   106897   106864   106849   106870 
  106891   106888   106866   106833   106826   106864   106911   106918 
  106895   106884   106899   106906   106884   106868   106887   106906 
  106897   106879   106867   106863   106874   106884   106884   106893 
  106914   106934   106947   106929   106906   106933   106961   106914 
  106851   106855   106911   106934   106890   106852   106863   106866 
  106855   106868   106899   106928   106934   106907   106866   106855 
  106883   106915   106914   106891   106882   106886   106876   106871 
  106882   106878   106863   106859   106851   106836   106828   106830 
  106853   106884   106898   106905   106914   106918   106917   106922 
  106915   106882   106849   106841   106832   106825   106832   106837 
  106853   106880   106888   106887   106902   106928   106952   106953 
  106911   106875   106871   106874   106876   106874   106864   106893 
  106938   106944   106928   106918   106909   106890   106870   106870 
  106891   106905   106903   106895   106887   106901   106930   106913 
  106852   106826   106856   106903   106926   106917   106905   106905 
  106894   106886   106903   106926   106920   106894   106853   106813 
  106837   106915   106953   106933   106902   106868   106826   106813 
  106852   106888   106891   106898   106909   106888   106870   106891 
  106915   106893   106853   106847   106855   106841   106828   106844 
  106879   106902   106893   106888   106911   106925   106906   106893 
  106897   106890   106871   106867   106872   106879   106893   106894 
  106859   106830   106845   106880   106921   106953   106951   106911 
  106870   106859   106878   106898   106903   106890   106847   106805 
  106807   106826   106848   106901   106941   106924   106899   106911 
  106925   106902   106871   106870   106857   106832   106830   106826 
  106813   106839   106897   106925   106905   106880   106894   106910 
  106880   106843   106843   106863   106861   106837   106829   106847 
  106875   106921   106959   106942   106909   106897   106888   106878 
  106876   106879   106874   106868   106883   106905   106906   106891 
  106888   106898   106914   106926   106911   106883   106880   106902 
  106926   106936   106905   106856   106843   106860   106867   106856 
  106848   106861   106890   106894   106878   106899   106961   106996 
  106976   106932   106884   106851   106837   106829   106810   106801 
  106841   106888   106883   106871   106894   106928   106960   106982 
  106971   106934   106906   106891   106867   106826   106797   106809 
  106844   106843   106822   106852   106905   106925   106928   106921 
  106901   106875   106856   106857   106864   106856   106856   106878 
  106894   106899   106903   106895   106891   106899   106893   106860 
  106834   106845   106876   106897   106895   106884   106886   106902 
  106903   106894   106913   106942   106926   106871   106837   106851 
  106867   106871   106887   106902   106884   106859   106857   106866 
  106868   106871   106879   106893   106903   106902   106888   106882 
  106878   106879   106890   106899   106893   106876   106860   106848 
  106843   106836   106841   106882   106928   106936   106920   106903 
  106903   106906   106891   106887   106897   106887   106861   106833 
  106816   106829   106847   106855   106855   106867   106918   106948 
  106907   106883   106909   106922   106910   106872   106825   106820 
  106834   106826   106829   106861   106894   106911   106905   106878 
  106876   106926   106959   106913   106843   106832   106874   106899 
  106897   106913   106941   106924   106880   106866   106864   106864 
  106871   106867   106866   106883   106899   106902   106888   106876 
  106887   106902   106884   106860   106860   106855   106826   106817 
  106840   106870   106903   106915   106884   106852   106861   106893 
  106914   106905   106874   106856   106866   106883   106882   106871 
  106888   106917   106907   106874   106861   106888   106910   106886 
  106847   106841   106861   106880   106897   106909   106910   106921 
  106932   106910   106875   106883   106922   106914   106871   106856 
  106836   106797   106818   106901   106953   106953   106933   106902 
  106875   106888   106922   106918   106888   106861   106826   106805 
  106829   106860   106882   106897   106866   106826   106849   106883 
  106891   106903   106894   106852   106837   106866   106898   106907 
  106913   106914   106897   106883   106887   106874   106863   106890 
  106913   106872   106807   106803   106871   106929   106930   106910 
  106909   106914   106901   106893   106909   106911   106870   106829 
  106834   106848   106851   106876   106907   106914   106907   106903 
  106914   106932   106922   106879   106833   106822   106845   106859 
  106857   106870   106894   106886   106868   106886   106894   106864 
  106875   106925   106922   106876   106855   106855   106868   106890 
  106894   106890   106902   106915   106897   106853   106852   106895 
  106909   106888   106875   106863   106855   106876   106911   106918 
  106910   106922   106926   106899   106878   106871   106848   106822 
  106841   106886   106907   106905   106910   106920   106914   106887 
  106859   106856   106866   106861   106871   106890   106893   106894 
  106882   106861   106872   106913   106944   106925   106868   106853 
  106883   106888   106876   106891   106905   106890   106882   106884 
  106872   106872   106897   106901   106876   106874   106918   106961 
  106928   106859   106834   106841   106857   106864   106848   106855 
  106895   106894   106832   106798   106841   106891   106890   106870 
  106878   106888   106893   106907   106884   106829   106847   106914 
  106922   106880   106852   106864   106891   106879   106866   106909 
  106936   106914   106903   106907   106898   106898   106907   106895 
  106876   106887   106895   106870   106864   106906   106934   106911 
  106866   106849   106853   106855   106867   106886   106879   106851 
  106834   106863   106910   106930   106928   106928   106913   106880 
  106849   106833   106833   106855   106890   106883   106853   106875 
  106913   106915   106917   106918   106893   106871   106886   106921 
  106933   106928   106920   106899   106887   106905   106930   106909 
  106845   106812   106818   106829   106864   106924   106944   106924 
  106897   106856   106848   106915   106969   106925   106841   106813 
  106848   106890   106905   106907   106907   106906   106905   106888 
  106876   106918   106979   106972   106903   106849   106863   106909 
  106932   106925   106897   106876   106898   106920   106890   106853 
  106857   106888   106913   106902   106852   106816   106822   106843 
  106851   106843   106848   106901   106936   106883   106826   106843 
  106882   106906   106929   106921   106874   106861   106897   106897 
  106872   106907   106955   106915   106845   106841   106884   106911 
  106905   106880   106875   106899   106921   106928   106933   106930 
  106914   106886   106848   106833   106886   106957   106945   106876 
  106856   106875   106870   106857   106875   106893   106886   106879 
  106867   106837   106839   106879   106887   106856   106849   106855 
  106849   106870   106902   106895   106870   106870   106872   106853 
  106833   106829   106833   106851   106882   106898   106893   106913 
  106956   106965   106933   106894   106872   106866   106849   106839 
  106860   106895   106937   106983   106978   106903   106856   106880 
  106907   106874   106809   106786   106817   106845   106848   106857 
  106895   106944   106968   106949   106906   106875   106870   106866 
  106829   106793   106801   106818   106817   106817   106821   106836 
  106867   106901   106937   106949   106917   106876   106859   106845 
  106836   106832   106821   106809   106824   106868   106884   106844 
  106832   106886   106918   106880   106818   106806   106855   106894 
  106898   106910   106929   106926   106921   106924   106911   106886 
  106857   106821   106799   106824   106855   106872   106925   106983 
  106980   106951   106949   106955   106925   106894   106901   106880 
  106805   106768   106790   106790   106798   106878   106948   106929 
  106880   106875   106907   106929   106915   106883   106851   106822 
  106805   106810   106840   106863   106867   106870   106883   106882 
  106868   106920   107009   106994   106897   106847   106868   106917 
  106925   106888   106871   106855   106812   106785   106795   106839 
  106918   106986   106995   106965   106952   106948   106909   106843 
  106803   106801   106812   106824   106832   106841   106878   106924 
  106944   106953   106983   107009   106999   106955   106884   106826 
  106825   106852   106849   106829   106814   106802   106809   106855 
  106928   106972   106974   106980   106968   106883   106805   106810 
  106855   106876   106853   106816   106821   106866   106897   106911 
  106913   106897   106898   106918   106925   106940   106978   106986 
  106948   106890   106848   106867   106905   106888   106861   106867 
  106868   106855   106844   106847   106882   106920   106906   106860 
  106830   106832   106856   106880   106890   106888   106899   106917 
  106913   106899   106888   106866   106847   106856   106884   106913 
  106930   106951   106952   106910   106860   106851   106878   106903 
  106915   106917   106910   106913   106941   106949   106888   106813 
  106793   106812   106818   106807   106797   106799   106810   106825 
  106851   106893   106934   106961   106938   106871   106822   106814 
  106841   106884   106905   106907   106911   106917   106938   106971 
  106995   107001   106967   106917   106903   106903   106857   106830 
  106903   107002   107045   107061   107055   107019   106986   106933 
  106847   106791   106798   106812   106786   106741   106716   106728 
  106762   106789   106798   106783   106771   106786   106775   106740 
  106763   106833   106883   106917   106947   106941   106918   106910 
  106902   106893   106888   106867   106861   106905   106922   106901 
  106938   106995   107003   106999   106990   106961   106959   106986 
  106953   106848   106764   106751   106770   106809   106864   106898 
  106890   106887   106925   106952   106956   107007   107079   107087 
  107046   106998   106926   106853   106841   106884   106920   106922 
  106907   106891   106894   106907   106915   106930   106929   106875 
  106798   106749   106721   106685   106678   106713   106728   106721 
  106775   106852   106855   106825   106840   106849   106825   106832 
  106875   106890   106878   106872   106860   106851   106875   106894 
  106872   106864   106905   106947   106953   106917   106861   106876 
  106975   107065   107096   107080   107033   106960   106887   106857 
  106875   106925   106987   106991   106905   106824   106824   106874 
  106924   106926   106860   106791   106789   106807   106791   106766 
  106759   106779   106816   106833   106836   106849   106855   106847 
  106841   106856   106897   106930   106938   106918   106880   106880 
  106951   107009   106994   106949   106920   106905   106886   106867 
  106893   106961   106991   106937   106871   106870   106907   106911 
  106875   106841   106837   106863   106886   106886   106875   106868 
  106871   106876   106884   106893   106887   106876   106867   106843 
  106806   106789   106778   106768   106799   106864   106894   106882 
  106872   106870   106891   106957   106995   106945   106876   106844 
  106836   106841   106839   106817   106803   106824   106871   106915 
  106953   106998   107028   107006   106944   106884   106848   106830 
  106840   106853   106843   106848   106863   106851   106863   106909 
  106925   106936   106955   106926   106875   106876   106928   106953 
  106909   106874   106905   106932   106918   106891   106845   106805 
  106828   106870   106866   106833   106822   106861   106914   106922 
  106902   106906   106906   106852   106786   106780   106834   106888 
  106899   106891   106888   106901   106928   106937   106929   106949 
  106974   106951   106909   106883   106879   106895   106883   106845 
  106860   106925   106941   106876   106790   106768   106836   106905 
  106903   106875   106876   106886   106879   106861   106847   106845 
  106841   106809   106760   106741   106793   106883   106924   106891 
  106853   106848   106848   106857   106887   106883   106837   106822 
  106844   106839   106825   106871   106955   106994   106972   106924 
  106901   106933   106988   106998   106956   106942   106978   106972 
  106913   106888   106901   106921   106944   106933   106898   106905 
  106936   106914   106836   106793   106826   106859   106834   106795 
  106767   106759   106797   106861   106880   106852   106857   106899 
  106913   106911   106929   106947   106937   106911   106897   106888 
  106894   106917   106910   106894   106938   106982   106952   106917 
  106934   106975   106990   106944   106879   106864   106879   106872 
  106863   106883   106942   107014   107026   106983   106963   106963 
  106925   106875   106828   106780   106756   106752   106744   106763 
  106818   106866   106880   106864   106833   106812   106797   106787 
  106787   106774   106758   106749   106740   106748   106766   106752 
  106755   106817   106866   106864   106875   106918   106951   106951 
  106949   106980   107018   107022   106998   106948   106891   106902 
  106972   107010   107021   107055   107092   107094   107065   107033 
  107007   106991   106965   106914   106871   106868   106902   106936 
  106922   106884   106891   106910   106871   106794   106747   106763 
  106805   106822   106826   106820   106802   106821   106849   106825 
  106776   106745   106720   106704   106722   106774   106821   106847 
  106868   106886   106878   106856   106856   106874   106880   106870 
  106866   106870   106867   106867   106888   106920   106941   106957 
  106975   106978   106969   106976   106987   106995   107009   106999 
  106967   106955   106969   106959   106917   106917   106952   106955 
  106937   106937   106938   106907   106848   106814   106826   106812 
  106758   106728   106720   106709   106717   106774   106860   106932 
  106968   106978   106971   106951   106922   106922   106933   106883 
  106826   106864   106918   106917   106947   106995   106964   106890 
  106870   106888   106898   106906   106888   106840   106814   106805 
  106798   106809   106825   106836   106849   106857   106824   106775 
  106786   106830   106847   106851   106866   106897   106922   106913 
  106880   106848   106849   106913   106976   106956   106888   106845 
  106832   106829   106843   106866   106872   106878   106901   106928 
  106925   106882   106847   106859   106870   106864   106879   106897 
  106901   106913   106917   106890   106860   106867   106903   106917 
  106878   106824   106822   106876   106932   106978   107015   107028 
  107023   106996   106937   106910   106948   106969   106913   106839 
  106821   106834   106816   106798   106844   106883   106859   106843 
  106859   106840   106824   106855   106861   106821   106806   106806 
  106785   106791   106841   106887   106907   106899   106901   106945 
  106974   106949   106926   106917   106890   106867   106879   106898 
  106883   106874   106909   106926   106872   106839   106874   106891 
  106866   106834   106816   106826   106851   106853   106839   106818 
  106807   106820   106833   106825   106824   106845   106864   106890 
  106926   106959   106974   106951   106918   106940   106984   106986 
  106979   107007   107007   106947   106926   106990   107033   106999 
  106956   106942   106899   106816   106807   106907   106983   106964 
  106924   106890   106853   106840   106852   106857   106839   106834 
  106891   106936   106887   106836   106852   106859   106805   106747 
  106735   106741   106751   106782   106824   106845   106861   106898 
  106926   106917   106893   106886   106867   106810   106763   106760 
  106772   106795   106828   106852   106859   106851   106864   106918 
  106951   106944   106947   106941   106910   106934   107017   107042 
  107003   106980   106978   106957   106914   106871   106867   106887 
