Origin Time       2025/03/30 21:30:00
Lat.              38.535
Long.             142.295
Depth. (km)       44
Mag.              4.3
Station Code      FKSH11
Station Lat.      37.2006
Station Long.     140.3386
Station Height(m) 170.5
Record Time       2025/03/30 21:31:55
Sampling Freq(Hz) 100Hz
Duration Time(s)  120
Dir.              1
Scale Factor      2942(gal)/8224139
Max. Acc. (gal)   0.143
Last Correction   2025/03/30 21:31:56
Memo.             
[...]
  135923   135954   135949   135930   135922   135913   135896   135877 
  135878   135903   135884   135830   135823   135865   135900   135911 
  135905   135880   135850   135859   135891   135893   135866   135847 
  135865   135905   135927   135924   135934   135942   135913   135869 
  135857   135866   135865   135862   135884   135911   135912   135892 
  135889   135920   135943   135943   135940   135930   135905   135893 
  135888   135862   135850   135884   135922   135919   135895   135895 
  135913   135913   135892   135901   135957   135976   135939   135928 
  135927   135881   135839   135839   135858   135878   135893   135884 
  135864   135876   135911   135922   135904   135907   135934   135934 
  135901   135888   135909   135920   135885   135864   135904   135946 
  135927   135891   135891   135899   135885   135886   135895   135878 
  135864   135885   135908   135912   135939   135977   135965   135934 
  135923   135918   135915   135920   135916   135896   135857   135841 
  135900   135966   135961   135934   135931   135940   135954   135938 
  135884   135854   135866   135872   135854   135853   135882   135905 
  135884   135859   135884   135930   135935   135900   135873   135884 
  135911   135903   135878   135882   135897   135889   135895   135939 
  135947   135896   135857   135841   135832   135850   135882   135893 
  135889   135891   135881   135864   135873   135911   135938   135920 
  135899   135924   135959   135962   135942   135916   135904   135905 
  135907   135888   135851   135862   135903   135905   135904   135935 
  135957   135932   135899   135881   135855   135841   135853   135850 
  135846   135869   135882   135880   135907   135943   135943   135919 
  135885   135857   135869   135899   135881   135832   135823   135865 
  135904   135915   135924   135945   135954   135924   135893   135905 
  135934   135942   135924   135897   135897   135897   135904   135938 
  135943   135904   135884   135916   135947   135922   135886   135882 
  135886   135900   135915   135895   135847   135846   135896   135908 
  135868   135851   135874   135892   135872   135838   135855   135907 
  135922   135904   135912   135931   135885   135816   135822   135854 
  135858   135857   135849   135855   135905   135945   135935   135922 
  135934   135958   135977   135959   135908   135893   135922   135913 
  135899   135945   135963   135913   135870   135842   135835   135869 
  135895   135882   135882   135945   135977   135911   135866   135888 
  135908   135915   135901   135874   135897   135930   135907   135881 
  135870   135849   135861   135882   135869   135877   135909   135899 
  135904   135977   135994   135916   135876   135899   135893   135847 
  135819   135847   135901   135926   135932   135945   135942   135904 
  135861   135865   135888   135869   135859   135889   135893   135868 
  135868   135897   135908   135900   135903   135895   135873   135880 
  135893   135889   135892   135903   135928   135932   135882   135869 
  135918   135962   135972   135951   135924   135900   135876   135859 
  135861   135891   135927   135905   135876   135903   135945   135953 
  135920   135876   135872   135905   135927   135900   135838   135807 
  135826   135874   135926   135943   135913   135859   135847   135880 
  135885   135886   135897   135858   135834   135861   135854   135831 
  135858   135901   135923   135935   135945   135930   135911   135924 
  135932   135899   135862   135858   135874   135899   135928   135922 
  135907   135945   135974   135957   135947   135942   135931   135931 
  135947   135961   135936   135888   135862   135862   135880   135888 
  135859   135831   135849   135888   135911   135939   135950   135881 
  135819   135858   135899   135864   135834   135857   135880   135897 
  135938   135951   135923   135889   135861   135851   135869   135872 
  135851   135851   135882   135913   135940   135974   135986   135963 
  135935   135891   135851   135864   135888   135889   135877   135888 
  135951   136001   135972   135922   135919   135918   135877   135857 
  135892   135911   135908   135938   135963   135928   135849   135807 
  135857   135915   135905   135857   135814   135808   135853   135893 
  135889   135868   135884   135927   135939   135913   135897   135916 
  135938   135936   135939   135934   135905   135878   135865   135876 
  135908   135931   135940   135947   135942   135934   135936   135939 
  135926   135897   135884   135892   135896   135895   135909   135920 
  135905   135882   135878   135892   135901   135893   135878   135869 
  135869   135874   135870   135870   135892   135918   135936   135926 
  135873   135820   135826   135908   135996   135980   135889   135851 
  135877   135900   135896   135872   135854   135900   135982   135990 
  135954   135974   135978   135909   135855   135855   135865   135862 
  135831   135811   135859   135915   135909   135918   135958   135967 
  135953   135936   135886   135815   135781   135792   135832   135886 
  135900   135865   135858   135899   135920   135911   135922   135957 
  135967   135936   135901   135901   135922   135901   135841   135818 
  135873   135923   135900   135858   135868   135913   135938   135905 
  135865   135869   135880   135870   135877   135889   135891   135905 
  135916   135900   135880   135870   135884   135922   135926   135891 
  135864   135868   135892   135892   135870   135873   135893   135915 
  135905   135866   135849   135854   135861   135878   135897   135892 
  135858   135831   135873   135932   135922   135900   135926   135950 
  135950   135928   135903   135903   135897   135865   135846   135854 
  135881   135924   135961   135993   135996   135931   135874   135886 
  135895   135876   135878   135885   135872   135845   135846   135895 
  135924   135909   135899   135892   135896   135939   135963   135926 
  135889   135886   135884   135889   135895   135874   135862   135881 
  135912   135946   135946   135916   135934   135976   135961   135923 
  135924   135942   135943   135935   135932   135918   135897   135905 
  135926   135915   135880   135842   135818   135832   135881   135895 
  135869   135877   135912   135909   135886   135897   135920   135928 
  135946   135940   135881   135843   135865   135877   135858   135864 
  135900   135942   135959   135928   135881   135870   135874   135862 
  135859   135858   135843   135849   135880   135909   135939   135969 
  135969   135928   135891   135900   135949   135967   135913   135857 
  135861   135888   135903   135912   135895   135855   135859   135901 
  135904   135874   135889   135928   135938   135930   135909   135873 
  135874   135895   135874   135868   135909   135936   135954   135965 
  135918   135841   135826   135870   135900   135904   135904   135876 
  135841   135857   135900   135932   135963   135947   135893   135886 
  135903   135884   135874   135893   135900   135909   135943   135958 
  135936   135920   135920   135916   135903   135880   135866   135876 
  135886   135908   135946   135957   135923   135882   135865   135870 
  135884   135897   135895   135899   135932   135945   135903   135873 
  135885   135895   135905   135905   135864   135834   135834   135835 
  135874   135926   135928   135920   135934   135927   135909   135911 
  135897   135847   135828   135865   135880   135851   135845   135865 
  135889   135905   135884   135849   135869   135922   135930   135913 
  135901   135854   135812   135851   135880   135849   135853   135888 
  135904   135927   135950   135942   135931   135931   135918   135897 
  135891   135880   135869   135882   135892   135877   135870   135889 
  135930   135945   135903   135861   135847   135849   135862   135872 
  135882   135913   135940   135932   135905   135903   135916   135919 
  135920   135927   135928   135911   135870   135859   135892   135896 
  135855   135835   135847   135870   135916   135957   135945   135912 
  135928   135984   135988   135922   135870   135880   135901   135897 
  135885   135893   135909   135919   135932   135918   135835   135776 
  135827   135909   135950   135962   135950   135923   135915   135911 
  135884   135855   135853   135854   135845   135862   135922   135963 
  135976   135965   135930   135918   135922   135893   135864   135869 
  135870   135857   135874   135919   135932   135911   135900   135905 
  135907   135900   135884   135853   135842   135886   135953   135985 
  135966   135904   135824   135797   135841   135891   135916   135922 
  135912   135913   135916   135895   135893   135919   135913   135901 
  135924   135930   135892   135865   135886   135931   135957   135946 
  135903   135877   135908   135939   135939   135928   135909   135888 
  135882   135899   135927   135947   135920   135859   135842   135857 
  135845   135864   135916   135912   135889   135915   135950   135963 
  135963   135947   135938   135943   135926   135896   135888   135880 
  135869   135881   135901   135885   135850   135855   135901   135939 
  135947   135934   135919   135907   135864   135812   135832   135905 
  135930   135913   135915   135911   135895   135908   135934   135923 
  135889   135857   135820   135785   135791   135834   135850   135842 
  135888   135969   136013   136005   135951   135895   135909   135974 
  135986   135934   135878   135853   135842   135822   135787   135777 
  135835   135905   135901   135862   135868   135901   135924   135942 
  135943   135922   135873   135815   135796   135811   135804   135799 
  135826   135849   135868   135924   135978   135981   135963   135972 
  135959   135896   135854   135839   135784   135739   135789   135868 
  135900   135918   135981   136074   136094   136036   135988   135965 
  135930   135878   135814   135761   135766   135822   135891   135973 
  136040   136031   135976   135946   135942   135915   135868   135811 
  135758   135733   135742   135797   135877   135915   135942   136026 
  136113   136134   136074   135928   135764   135687   135697   135718 
  135738   135803   135922   136058   136154   136196   136179   136080 
  135936   135824   135753   135738   135769   135801   135811   135811 
  135838   135882   135907   135946   136017   136023   135940   135870 
  135834   135792   135746   135715   135766   135919   136048   136035 
  135901   135754   135724   135845   135980   136047   136074   136027 
  135927   135886   135913   135927   135904   135885   135928   135994 
  135963   135849   135801   135832   135872   135940   135977   135885 
  135778   135770   135776   135770   135811   135870   135950   136075 
  136150   136094   135996   135922   135862   135858   135908   135891 
  135773   135706   135777   135895   135953   135950   135935   135940 
  135959   135939   135885   135870   135905   135930   135932   135970 
  136061   136092   135977   135851   135835   135869   135885   135872 
  135891   136020   136148   136105   135989   135989   136038   135985 
  135911   135919   135924   135832   135669   135526   135511   135619 
  135762   135908   136023   136057   136032   135994   135973   135982 
  135978   135908   135796   135696   135627   135607   135695   135877 
  136065   136212   136281   136217   136054   135896   135823   135832 
  135865   135862   135831   135788   135747   135726   135756   135864 
  135985   136011   135955   135918   135936   135916   135834   135843 
  135955   135990   135915   135899   135988   136016   135950   135958 
  136040   135980   135766   135622   135618   135645   135668   135746 
  135859   135896   135864   135882   135955   136034   136098   136094 
  136040   136036   136030   135932   135855   135905   135969   135918 
  135792   135735   135831   135955   135955   135926   136003   136080 
  136017   135885   135820   135807   135804   135816   135792   135746 
  135758   135803   135854   135888   135843   135760   135738   135770 
  135784   135799   135864   135932   135973   135994   136009   136027 
  135996   135905   135838   135831   135841   135822   135804   135865 
  135976   136026   136036   136084   136107   136035   135969   135984 
  135961   135797   135646   135677   135795   135858   135940   136084 
  136142   136044   135907   135824   135783   135751   135753   135789 
  135828   135878   135935   135924   135850   135815   135828   135830 
  135803   135780   135799   135839   135866   135918   135986   135962 
  135881   135900   135978   135961   135882   135889   136005   136134 
  136210   136217   136144   136046   135978   135932   135886   135807 
  135707   135664   135710   135859   136055   136112   135997   135891 
  135861   135851   135859   135878   135896   135940   135977   135896 
  135718   135646   135751   135855   135876   135882   135874   135846 
  135851   135892   135981   136124   136208   136159   136100   136081 
  135973   135773   135633   135623   135716   135834   135885   135877 
  135886   135915   135920   135918   135928   135943   135955   135967 
  135958   135896   135838   135855   135913   135996   136111   136150 
  136011   135800   135704   135751   135847   135903   135903   135920 
  135965   135946   135893   135930   136067   136188   136192   136098 
  135977   135845   135710   135631   135665   135781   135904   135962 
  135959   135932   135886   135878   135936   135965   135916   135803 
  135629   135500   135510   135575   135672   135862   136088   136217 
  136192   136081   135966   135861   135783   135754   135724   135666 
  135646   135735   135878   135943   135939   135989   136051   135981 
  135862   135882   135970   135962   135928   135993   136071   136050 
  135951   135857   135832   135920   136008   135939   135783   135734 
  135826   135904   135892   135878   135884   135851   135832   135876 
  135928   135930   135920   135961   136004   135935   135768   135688 
  135768   135884   136003   136128   136124   135970   135820   135754 
  135751   135777   135832   135904   135884   135765   135719   135787 
  135858   135920   135954   135905   135864   135932   136070   136147 
  136098   135984   135938   136034   136156   136116   135972   135891 
  135857   135835   135868   135951   136039   136108   136127   136053 
  135939   135880   135853   135835   135869   135932   135978   135993 
  135972   135950   135916   135800   135683   135653   135638   135656 
  135766   135846   135795   135741   135799   135897   135932   135907 
  135916   135978   135953   135815   135749   135819   135909   135943 
  135915   135842   135819   135923   136044   136061   136000   135918 
  135827   135804   135889   135950   135920   135895   135899   135901 
  135896   135889   135916   135958   135947   135885   135807   135751 
  135777   135859   135912   135943   135973   135936   135837   135747 
  135685   135697   135835   135996   136090   136155   136166   136101 
  136055   136039   135986   135938   135913   135866   135827   135832 
  135841   135832   135824   135816   135839   135951   136092   136116 
  136017   135884   135765   135718   135773   135835   135793   135712 
  135749   135900   136028   136039   135966   135880   135838   135881 
  135926   135859   135739   135679   135714   135823   135945   136031 
  136075   136047   135994   136036   136088   136011   135889   135804 
  135750   135785   135922   136034   136044   136019   136040   136082 
  136055   135965   135896   135878   135892   135897   135855   135792 
  135776   135810   135847   135904   136012   136088   136021   135862 
  135733   135648   135585   135627   135796   135919   135905   135872 
  135870   135830   135783   135832   135955   136020   136003   135973 
  135969   136001   136030   135993   135942   135927   135919   135932 
  135966   135945   135865   135823   135843   135912   135993   135988 
  135908   135918   136009   136019   135965   135950   135897   135795 
  135749   135720   135649   135608   135642   135719   135812   135909 
  135996   136021   135988   135943   135873   135822   135874   135939 
  135896   135845   135889   135932   135907   135896   135915   135881 
  135818   135816   135849   135847   135839   135859   135892   135945 
  136026   136078   136051   135972   135881   135839   135895   135959 
  135936   135868   135815   135820   135889   135904   135831   135814 
  135866   135877   135869   135930   135994   135967   135927   135985 
  136053   136001   135877   135805   135818   135843   135841   135889 
  135994   136021   135949   135911   135896   135778   135641   135657 
  135770   135859   135936   135993   135999   135982   135957   135930 
  135959   136047   136073   135980   135896   135935   136011   135997 
  135916   135859   135873   135935   135980   135980   135918   135774 
  135646   135675   135835   135963   135966   135889   135824   135846 
  135935   135978   135926   135872   135893   135915   135876   135820 
  135765   135729   135783   135911   136031   136084   136008   135855 
  135785   135819   135808   135738   135756   135837   135845   135841 
  135908   135994   136069   136125   136143   136086   135940   135791 
  135726   135741   135828   135932   135967   135984   136017   135999 
  135954   135920   135835   135735   135729   135770   135788   135819 
  135865   135881   135915   136012   136094   136101   136065   136009 
  135953   135934   135965   135988   135953   135895   135878   135947 
  136062   136101   136047   136030   136082   136105   136051   135957 
  135842   135749   135753   135819   135864   135893   135932   135951 
  135961   136005   136021   135919   135723   135567   135564   135661 
  135716   135756   135838   135895   135907   135942   135980   135958 
  135924   135918   135868   135788   135778   135838   135895   135923 
  135920   135899   135897   135888   135820   135753   135778   135865 
  135911   135915   135915   135876   135804   135769   135788   135843 
  135920   135990   136020   136007   135989   135990   135982   135935 
  135893   135886   135853   135788   135778   135830   135900   135994 
  136085   136101   136050   136019   136039   136042   135961   135814 
  135708   135703   135702   135646   135652   135760   135859   135888 
  135905   135977   136027   135989   135966   136063   136174   136147 
  136027   135924   135815   135703   135681   135729   135762   135804 
  135878   135932   135930   135931   135980   135994   135918   135837 
  135824   135831   135832   135876   135967   136048   136082   136066 
  136003   135922   135855   135826   135832   135835   135827   135828 
  135830   135846   135895   135885   135788   135761   135839   135857 
  135801   135780   135823   135886   135909   135913   135953   135949 
  135830   135751   135831   135912   135878   135864   135940   136001 
  135969   135884   135858   135919   135972   135961   135918   135886 
  135896   135947   135977   135911   135808   135811   135920   136021 
  136070   136088   136051   135953   135862   135834   135837   135838 
  135820   135780   135761   135807   135904   136031   136128   136131 
  136071   135999   135912   135845   135847   135915   136001   136030 
  135950   135866   135895   135943   135919   135896   135903   135854 
