Origin Time       2025/03/30 21:30:00
Lat.              38.535
Long.             142.295
Depth. (km)       44
Mag.              4.3
Station Code      FKSH14
Station Lat.      37.0264
Station Long.     140.9702
Station Height(m) -144
Record Time       2025/03/30 21:31:46
Sampling Freq(Hz) 100Hz
Duration Time(s)  120
Dir.              2
Scale Factor      2942(gal)/8224139
Max. Acc. (gal)   0.112
Last Correction   2025/03/30 21:31:47
Memo.             
[...]
   -7431    -7431    -7427    -7418    -7419    -7422    -7412    -7408 
   -7414    -7422    -7439    -7461    -7466    -7450    -7437    -7439 
   -7431    -7406    -7398    -7400    -7395    -7400    -7420    -7441 
   -7452    -7452    -7447    -7434    -7416    -7400    -7395    -7407 
   -7415    -7407    -7399    -7396    -7403    -7423    -7437    -7429 
   -7411    -7396    -7396    -7411    -7420    -7420    -7414    -7410 
   -7419    -7431    -7431    -7418    -7410    -7410    -7408    -7414 
   -7429    -7426    -7419    -7422    -7419    -7412    -7414    -7418 
   -7423    -7430    -7435    -7435    -7433    -7425    -7422    -7430 
   -7431    -7416    -7412    -7419    -7422    -7423    -7426    -7429 
   -7430    -7426    -7426    -7427    -7429    -7433    -7430    -7425 
   -7426    -7422    -7403    -7392    -7399    -7403    -7411    -7422 
   -7419    -7419    -7427    -7426    -7414    -7399    -7396    -7412 
   -7422    -7426    -7430    -7429    -7420    -7418    -7425    -7434 
   -7437    -7437    -7435    -7429    -7431    -7442    -7433    -7407 
   -7403    -7418    -7426    -7425    -7429    -7434    -7429    -7416 
   -7414    -7418    -7425    -7420    -7410    -7416    -7433    -7434 
   -7422    -7411    -7402    -7407    -7426    -7442    -7443    -7433 
   -7422    -7412    -7404    -7399    -7398    -7399    -7399    -7407 
   -7426    -7437    -7437    -7438    -7435    -7415    -7396    -7387 
   -7389    -7410    -7433    -7433    -7420    -7415    -7419    -7431 
   -7442    -7433    -7420    -7422    -7420    -7418    -7422    -7423 
   -7419    -7414    -7429    -7447    -7441    -7420    -7408    -7400 
   -7402    -7415    -7434    -7441    -7431    -7427    -7422    -7399 
   -7379    -7381    -7392    -7398    -7395    -7395    -7403    -7414 
   -7418    -7419    -7414    -7404    -7398    -7402    -7416    -7429 
   -7426    -7427    -7443    -7445    -7426    -7418    -7420    -7415 
   -7410    -7416    -7423    -7419    -7414    -7427    -7449    -7453 
   -7443    -7439    -7431    -7425    -7435    -7449    -7454    -7447 
   -7429    -7416    -7406    -7392    -7395    -7411    -7418    -7412 
   -7411    -7414    -7415    -7430    -7446    -7443    -7433    -7423 
   -7414    -7416    -7423    -7420    -7422    -7422    -7412    -7411 
   -7416    -7414    -7411    -7425    -7434    -7427    -7423    -7430 
   -7426    -7415    -7426    -7443    -7441    -7426    -7415    -7411 
   -7422    -7435    -7433    -7419    -7408    -7406    -7422    -7445 
   -7456    -7450    -7437    -7433    -7439    -7445    -7449    -7456 
   -7460    -7447    -7422    -7403    -7395    -7388    -7387    -7399 
   -7415    -7429    -7442    -7442    -7423    -7406    -7402    -7414 
   -7423    -7427    -7438    -7449    -7450    -7442    -7430    -7419 
   -7414    -7407    -7403    -7412    -7427    -7423    -7411    -7419 
   -7442    -7449    -7443    -7434    -7415    -7408    -7412    -7411 
   -7410    -7411    -7408    -7406    -7400    -7402    -7423    -7445 
   -7439    -7420    -7410    -7407    -7412    -7429    -7439    -7431 
   -7414    -7402    -7406    -7423    -7434    -7430    -7422    -7418 
   -7422    -7443    -7456    -7445    -7430    -7430    -7435    -7425 
   -7407    -7402    -7412    -7425    -7425    -7419    -7415    -7406 
   -7406    -7419    -7429    -7430    -7425    -7418    -7414    -7408 
   -7402    -7402    -7400    -7402    -7414    -7423    -7425    -7414 
   -7403    -7412    -7425    -7422    -7414    -7412    -7407    -7389 
   -7389    -7416    -7434    -7431    -7426    -7425    -7419    -7412 
   -7407    -7407    -7418    -7426    -7425    -7430    -7439    -7427 
   -7407    -7411    -7430    -7430    -7411    -7404    -7404    -7389 
   -7388    -7420    -7446    -7442    -7439    -7453    -7449    -7426 
   -7418    -7414    -7402    -7403    -7415    -7425    -7427    -7415 
   -7396    -7389    -7398    -7420    -7435    -7426    -7416    -7419 
   -7420    -7414    -7406    -7414    -7414    -7392    -7385    -7403 
   -7414    -7416    -7425    -7420    -7406    -7402    -7404    -7404 
   -7416    -7430    -7433    -7437    -7437    -7418    -7411    -7426 
   -7431    -7425    -7423    -7426    -7429    -7429    -7427    -7426 
   -7423    -7425    -7423    -7407    -7402    -7418    -7427    -7426 
   -7438    -7446    -7430    -7410    -7410    -7418    -7416    -7402 
   -7396    -7415    -7435    -7419    -7398    -7399    -7400    -7392 
   -7410    -7437    -7433    -7418    -7416    -7416    -7416    -7418 
   -7415    -7414    -7415    -7411    -7404    -7414    -7434    -7434 
   -7410    -7392    -7393    -7408    -7441    -7462    -7454    -7450 
   -7454    -7445    -7431    -7423    -7418    -7411    -7407    -7402 
   -7392    -7395    -7410    -7420    -7427    -7431    -7422    -7411 
   -7425    -7453    -7460    -7438    -7408    -7391    -7393    -7406 
   -7412    -7406    -7407    -7427    -7431    -7422    -7423    -7419 
   -7412    -7423    -7430    -7420    -7415    -7419    -7430    -7442 
   -7438    -7425    -7412    -7402    -7393    -7404    -7419    -7410 
   -7395    -7406    -7429    -7445    -7456    -7456    -7453    -7457 
   -7454    -7458    -7472    -7464    -7434    -7404    -7389    -7395 
   -7402    -7402    -7418    -7447    -7454    -7437    -7437    -7456 
   -7453    -7427    -7414    -7415    -7408    -7399    -7395    -7396 
   -7411    -7427    -7426    -7418    -7407    -7402    -7407    -7415 
   -7431    -7439    -7430    -7420    -7400    -7376    -7391    -7418 
   -7416    -7414    -7415    -7412    -7420    -7438    -7438    -7423 
   -7420    -7431    -7441    -7439    -7435    -7431    -7419    -7411 
   -7425    -7438    -7437    -7434    -7431    -7422    -7437    -7462 
   -7450    -7422    -7420    -7430    -7422    -7402    -7387    -7387 
   -7398    -7406    -7414    -7420    -7418    -7411    -7411    -7412 
   -7416    -7416    -7411    -7403    -7410    -7419    -7416    -7411 
   -7414    -7411    -7396    -7396    -7418    -7430    -7423    -7419 
   -7423    -7425    -7425    -7416    -7412    -7430    -7443    -7431 
   -7418    -7416    -7416    -7410    -7412    -7423    -7433    -7446 
   -7461    -7454    -7427    -7407    -7406    -7414    -7423    -7430 
   -7434    -7427    -7403    -7388    -7398    -7425    -7435    -7418 
   -7416    -7439    -7441    -7422    -7410    -7412    -7420    -7418 
   -7411    -7415    -7430    -7438    -7434    -7431    -7435    -7437 
   -7426    -7408    -7410    -7427    -7441    -7452    -7446    -7422 
   -7398    -7387    -7391    -7412    -7438    -7452    -7445    -7426 
   -7420    -7434    -7438    -7425    -7411    -7399    -7388    -7384 
   -7395    -7414    -7434    -7454    -7458    -7443    -7434    -7442 
   -7450    -7434    -7407    -7395    -7395    -7406    -7415    -7400 
   -7384    -7388    -7399    -7407    -7419    -7434    -7439    -7433 
   -7412    -7403    -7420    -7446    -7446    -7418    -7389    -7393 
   -7410    -7420    -7437    -7442    -7430    -7422    -7425    -7434 
   -7433    -7419    -7407    -7395    -7384    -7388    -7410    -7438 
   -7450    -7454    -7472    -7484    -7468    -7423    -7375    -7360 
   -7371    -7379    -7392    -7410    -7410    -7410    -7426    -7441 
   -7442    -7431    -7423    -7422    -7422    -7420    -7412    -7404 
   -7411    -7425    -7423    -7414    -7414    -7419    -7435    -7446 
   -7426    -7406    -7410    -7415    -7419    -7416    -7414    -7429 
   -7433    -7411    -7391    -7385    -7389    -7406    -7429    -7453 
   -7461    -7439    -7419    -7422    -7430    -7427    -7414    -7396 
   -7392    -7399    -7398    -7402    -7416    -7412    -7403    -7419 
   -7426    -7416    -7418    -7425    -7422    -7412    -7410    -7418 
   -7426    -7423    -7423    -7437    -7446    -7433    -7414    -7414 
   -7423    -7433    -7430    -7423    -7419    -7403    -7398    -7423 
   -7442    -7437    -7433    -7434    -7431    -7418    -7396    -7383 
   -7395    -7407    -7398    -7387    -7391    -7399    -7408    -7431 
   -7453    -7460    -7458    -7449    -7425    -7400    -7398    -7403 
   -7402    -7406    -7418    -7414    -7399    -7402    -7418    -7420 
   -7410    -7403    -7408    -7425    -7445    -7453    -7442    -7423 
   -7411    -7415    -7426    -7427    -7422    -7416    -7422    -7453 
   -7469    -7450    -7437    -7442    -7437    -7426    -7411    -7406 
   -7425    -7445    -7443    -7437    -7429    -7415    -7416    -7434 
   -7437    -7418    -7403    -7396    -7389    -7400    -7422    -7430 
   -7435    -7442    -7434    -7416    -7411    -7414    -7411    -7403 
   -7398    -7395    -7400    -7406    -7411    -7431    -7457    -7458 
   -7434    -7402    -7388    -7402    -7419    -7438    -7456    -7438 
   -7415    -7425    -7442    -7452    -7460    -7453    -7439    -7443 
   -7443    -7430    -7415    -7406    -7408    -7423    -7425    -7425 
   -7446    -7458    -7442    -7420    -7406    -7391    -7379    -7381 
   -7393    -7402    -7416    -7437    -7454    -7461    -7446    -7422 
   -7412    -7425    -7437    -7443    -7454    -7465    -7457    -7441 
   -7441    -7453    -7457    -7446    -7425    -7400    -7399    -7414 
   -7418    -7414    -7412    -7412    -7414    -7410    -7402    -7392 
   -7392    -7408    -7419    -7410    -7402    -7395    -7381    -7366 
   -7361    -7358    -7337    -7315    -7323    -7346    -7380    -7420 
   -7439    -7437    -7439    -7449    -7462    -7480    -7489    -7489 
   -7488    -7484    -7470    -7462    -7456    -7454    -7466    -7470 
   -7473    -7487    -7488    -7470    -7443    -7420    -7410    -7398 
   -7383    -7385    -7400    -7411    -7425    -7439    -7438    -7419 
   -7393    -7368    -7353    -7373    -7408    -7434    -7465    -7483 
   -7470    -7460    -7456    -7425    -7375    -7342    -7327    -7321 
   -7321    -7326    -7335    -7344    -7333    -7314    -7318    -7326 
   -7325    -7337    -7372    -7416    -7447    -7464    -7476    -7480 
   -7465    -7435    -7395    -7366    -7371    -7384    -7381    -7393 
   -7435    -7483    -7539    -7588    -7599    -7589    -7593    -7577 
   -7519    -7472    -7454    -7427    -7391    -7372    -7371    -7373 
   -7381    -7403    -7446    -7493    -7531    -7551    -7542    -7519 
   -7512    -7497    -7468    -7437    -7391    -7322    -7277    -7273 
   -7277    -7281    -7291    -7287    -7264    -7245    -7246    -7267 
   -7288    -7302    -7326    -7380    -7442    -7461    -7420    -7356 
   -7312    -7304    -7319    -7349    -7388    -7422    -7458    -7497 
   -7515    -7516    -7514    -7504    -7508    -7546    -7592    -7620 
   -7636    -7631    -7584    -7531    -7516    -7514    -7507    -7506 
   -7480    -7425    -7392    -7389    -7373    -7330    -7279    -7233 
   -7214    -7252    -7312    -7356    -7406    -7480    -7524    -7503 
   -7457    -7403    -7333    -7277    -7276    -7308    -7344    -7406 
   -7489    -7539    -7561    -7562    -7522    -7460    -7415    -7383 
   -7360    -7346    -7335    -7344    -7373    -7400    -7406    -7396 
   -7403    -7429    -7445    -7447    -7458    -7452    -7412    -7388 
   -7400    -7420    -7446    -7485    -7512    -7511    -7496    -7484 
   -7477    -7469    -7461    -7465    -7479    -7474    -7435    -7402 
   -7416    -7446    -7427    -7371    -7330    -7308    -7298    -7331 
   -7404    -7468    -7501    -7523    -7527    -7493    -7435    -7371 
   -7318    -7322    -7379    -7438    -7493    -7550    -7596    -7623 
   -7601    -7526    -7441    -7371    -7312    -7298    -7326    -7356 
   -7376    -7398    -7408    -7396    -7395    -7438    -7477    -7476 
   -7465    -7464    -7461    -7449    -7423    -7385    -7364    -7366 
   -7376    -7388    -7411    -7433    -7427    -7406    -7384    -7377 
   -7389    -7396    -7383    -7368    -7366    -7368    -7345    -7312 
   -7310    -7330    -7350    -7376    -7393    -7395    -7404    -7423 
   -7425    -7429    -7454    -7476    -7469    -7431    -7383    -7358 
   -7371    -7402    -7450    -7524    -7570    -7535    -7461    -7404 
   -7376    -7368    -7379    -7404    -7426    -7423    -7426    -7473 
   -7542    -7589    -7601    -7569    -7499    -7431    -7399    -7400 
   -7412    -7410    -7387    -7368    -7369    -7372    -7366    -7381 
   -7411    -7411    -7392    -7388    -7388    -7387    -7404    -7429 
   -7439    -7447    -7460    -7457    -7433    -7408    -7393    -7387 
   -7384    -7372    -7372    -7383    -7387    -7410    -7460    -7485 
   -7469    -7427    -7376    -7339    -7322    -7295    -7258    -7245 
   -7265    -7312    -7350    -7357    -7373    -7411    -7442    -7472 
   -7504    -7515    -7508    -7511    -7511    -7487    -7456    -7438 
   -7419    -7392    -7372    -7373    -7404    -7468    -7537    -7565 
   -7553    -7538    -7528    -7511    -7514    -7535    -7526    -7491 
   -7462    -7439    -7420    -7414    -7429    -7465    -7504    -7530 
   -7522    -7484    -7439    -7404    -7385    -7376    -7361    -7354 
   -7365    -7379    -7393    -7400    -7366    -7300    -7241    -7211 
   -7209    -7219    -7237    -7268    -7311    -7357    -7393    -7385 
   -7329    -7292    -7281    -7249    -7225    -7248    -7276    -7280 
   -7298    -7354    -7416    -7461    -7500    -7523    -7523    -7507 
   -7488    -7493    -7528    -7558    -7557    -7554    -7585    -7620 
   -7630    -7643    -7689    -7734    -7734    -7716    -7719    -7705 
   -7659    -7628    -7620    -7589    -7538    -7493    -7462    -7439 
   -7399    -7352    -7333    -7317    -7277    -7248    -7245    -7229 
   -7211    -7227    -7242    -7244    -7258    -7277    -7287    -7292 
   -7280    -7272    -7284    -7283    -7268    -7257    -7238    -7223 
   -7241    -7272    -7292    -7319    -7349    -7364    -7368    -7389 
   -7426    -7454    -7477    -7488    -7479    -7476    -7488    -7504 
   -7549    -7611    -7639    -7627    -7608    -7589    -7569    -7562 
   -7578    -7612    -7636    -7636    -7620    -7591    -7558    -7539 
   -7527    -7488    -7430    -7392    -7358    -7307    -7284    -7312 
   -7376    -7447    -7487    -7479    -7454    -7443    -7435    -7411 
   -7380    -7362    -7353    -7348    -7334    -7294    -7253    -7229 
   -7207    -7204    -7233    -7283    -7342    -7372    -7371    -7377 
   -7380    -7354    -7329    -7307    -7272    -7246    -7260    -7322 
   -7402    -7462    -7508    -7539    -7531    -7508    -7492    -7460 
   -7400    -7349    -7335    -7369    -7420    -7447    -7461    -7483 
   -7501    -7511    -7527    -7557    -7578    -7578    -7573    -7564 
   -7531    -7492    -7452    -7406    -7384    -7412    -7470    -7527 
   -7572    -7607    -7614    -7585    -7542    -7503    -7476    -7445 
   -7403    -7369    -7356    -7352    -7354    -7368    -7388    -7392 
   -7380    -7366    -7361    -7371    -7399    -7419    -7420    -7410 
   -7396    -7379    -7352    -7314    -7299    -7329    -7357    -7353 
   -7345    -7353    -7372    -7393    -7395    -7350    -7304    -7290 
   -7290    -7310    -7353    -7395    -7430    -7470    -7495    -7479 
   -7447    -7439    -7434    -7419    -7419    -7442    -7462    -7461 
   -7460    -7460    -7453    -7464    -7499    -7526    -7526    -7484 
   -7407    -7335    -7308    -7310    -7315    -7319    -7323    -7327 
   -7348    -7391    -7419    -7402    -7373    -7368    -7385    -7408 
   -7419    -7422    -7430    -7452    -7480    -7496    -7499    -7484 
   -7464    -7450    -7435    -7438    -7473    -7515    -7550    -7568 
   -7560    -7557    -7564    -7542    -7511    -7506    -7518    -7539 
   -7554    -7533    -7487    -7453    -7425    -7377    -7318    -7280 
   -7269    -7257    -7252    -7271    -7299    -7315    -7326    -7331 
   -7330    -7323    -7298    -7254    -7214    -7187    -7176    -7182 
   -7196    -7210    -7242    -7303    -7353    -7377    -7403    -7423 
   -7423    -7431    -7456    -7468    -7474    -7491    -7508    -7537 
   -7581    -7620    -7636    -7646    -7649    -7651    -7668    -7693 
   -7717    -7730    -7713    -7673    -7627    -7588    -7578    -7591 
   -7589    -7560    -7520    -7479    -7431    -7398    -7389    -7376 
   -7350    -7331    -7307    -7275    -7253    -7234    -7210    -7190 
   -7176    -7167    -7156    -7148    -7156    -7180    -7215    -7254 
   -7284    -7314    -7342    -7373    -7389    -7371    -7357    -7379 
   -7407    -7430    -7458    -7500    -7553    -7604    -7626    -7601 
   -7538    -7468    -7438    -7461    -7499    -7530    -7562    -7581 
   -7581    -7591    -7609    -7601    -7565    -7519    -7484    -7476 
   -7484    -7481    -7454    -7414    -7384    -7371    -7358    -7357 
   -7369    -7377    -7387    -7395    -7391    -7380    -7369    -7338 
   -7288    -7246    -7227    -7229    -7249    -7284    -7307    -7317 
   -7334    -7349    -7366    -7402    -7423    -7425    -7434    -7450 
   -7473    -7510    -7539    -7573    -7620    -7647    -7628    -7592 
   -7572    -7560    -7534    -7492    -7445    -7414    -7403    -7389 
   -7372    -7364    -7353    -7335    -7337    -7349    -7353    -7360 
   -7361    -7338    -7315    -7310    -7290    -7258    -7264    -7308 
   -7346    -7366    -7391    -7420    -7429    -7410    -7389    -7376 
   -7364    -7361    -7365    -7371    -7371    -7369    -7381    -7408 
   -7450    -7512    -7570    -7578    -7538    -7504    -7492    -7480 
   -7477    -7474    -7446    -7418    -7415    -7422    -7442    -7497 
   -7557    -7581    -7572    -7557    -7546    -7528    -7495    -7447 
   -7414    -7396    -7366    -7345    -7361    -7389    -7391    -7376 
   -7389    -7435    -7461    -7452    -7433    -7412    -7389    -7376 
   -7377    -7373    -7368    -7373    -7388    -7399    -7396    -7387 
   -7383    -7381    -7388    -7407    -7427    -7418    -7372    -7337 
   -7341    -7353    -7353    -7348    -7350    -7373    -7399    -7415 
   -7434    -7447    -7439    -7445    -7457    -7458    -7458    -7434 
   -7376    -7334    -7322    -7335    -7375    -7414    -7434    -7458 
   -7489    -7504    -7499    -7487    -7461    -7426    -7404    -7398 
   -7410    -7447    -7492    -7518    -7519    -7500    -7476    -7457 
   -7452    -7460    -7466    -7461    -7464    -7474    -7474    -7466 
   -7450    -7419    -7388    -7365    -7344    -7329    -7331    -7342 
   -7356    -7376    -7396    -7406    -7406    -7396    -7385    -7383 
   -7379    -7361    -7350    -7369    -7399    -7423    -7442    -7449 
   -7435    -7420    -7406    -7395    -7399    -7414    -7426    -7439 
   -7437    -7418    -7410    -7439    -7481    -7501    -7497    -7468 
   -7411    -7356    -7335    -7348    -7381    -7426    -7465    -7477 
   -7465    -7439    -7408    -7377    -7358    -7354    -7356    -7369 
   -7407    -7430    -7426    -7430    -7437    -7430    -7422    -7425 
   -7419    -7404    -7395    -7388    -7380    -7385    -7415    -7447 
   -7462    -7469    -7481    -7491    -7483    -7460    -7427    -7414 
   -7427    -7435    -7445    -7469    -7488    -7491    -7484    -7473 
   -7457    -7442    -7446    -7457    -7456    -7461    -7469    -7442 
   -7406    -7414    -7449    -7479    -7497    -7495    -7474    -7456 
