Origin Time       2025/03/30 21:30:00
Lat.              38.535
Long.             142.295
Depth. (km)       44
Mag.              4.3
Station Code      FKSH19
Station Lat.      37.4703
Station Long.     140.7227
Station Height(m) 510
Record Time       2025/03/30 21:31:44
Sampling Freq(Hz) 100Hz
Duration Time(s)  120
Dir.              6
Scale Factor      7845(gal)/8223790
Max. Acc. (gal)   1.048
Last Correction   2025/03/30 21:31:44
Memo.             
[...]
  -22099   -22115   -22167   -22156   -22140   -22165   -22158   -22131 
  -22192   -22302   -22310   -22181   -22050   -22068   -22211   -22300 
  -22252   -22149   -22092   -22099   -22140   -22192   -22226   -22215 
  -22179   -22160   -22196   -22238   -22192   -22125   -22157   -22188 
  -22110   -22073   -22198   -22327   -22292   -22167   -22081   -22060 
  -22115   -22216   -22231   -22149   -22134   -22202   -22258   -22285 
  -22230   -22111   -22084   -22140   -22157   -22148   -22152   -22194 
  -22280   -22312   -22200   -22096   -22158   -22204   -22135   -22126 
  -22131   -22056   -22061   -22206   -22322   -22334   -22280   -22149 
  -22023   -22069   -22215   -22264   -22208   -22135   -22068   -22045 
  -22119   -22192   -22176   -22191   -22269   -22269   -22200   -22153 
  -22133   -22169   -22276   -22338   -22239   -22092   -22054   -22050 
  -22050   -22150   -22300   -22347   -22194   -21965   -21988   -22265 
  -22447   -22415   -22307   -22173   -22064   -22077   -22137   -22108 
  -22061   -22071   -22042   -22013   -22144   -22349   -22392   -22272 
  -22167   -22125   -22133   -22237   -22331   -22237   -22088   -22098 
  -22198   -22253   -22235   -22145   -22030   -21983   -22044   -22133 
  -22198   -22291   -22350   -22275   -22160   -22169   -22253   -22241 
  -22119   -22022   -22026   -22122   -22250   -22308   -22246   -22154 
  -22184   -22297   -22261   -22073   -21968   -21996   -22118   -22265 
  -22272   -22177   -22192   -22262   -22207   -22122   -22187   -22280 
  -22241   -22180   -22185   -22167   -22107   -22071   -22092   -22154 
  -22214   -22219   -22113   -22014   -22106   -22273   -22331   -22299 
  -22234   -22176   -22156   -22181   -22229   -22212   -22123   -22113 
  -22189   -22169   -22037   -21988   -22083   -22222   -22315   -22304 
  -22214   -22200   -22254   -22154   -22005   -22114   -22326   -22320 
  -22171   -22095   -22140   -22234   -22269   -22156   -22003   -21998 
  -22088   -22153   -22225   -22283   -22243   -22198   -22243   -22275 
  -22218   -22164   -22171   -22210   -22207   -22096   -22019   -22106 
  -22187   -22157   -22134   -22141   -22146   -22175   -22208   -22253 
  -22306   -22308   -22233   -22153   -22164   -22221   -22239   -22179 
  -22027   -21924   -21984   -22107   -22226   -22304   -22249   -22181 
  -22265   -22366   -22319   -22215   -22148   -22002   -21838   -21910 
  -22133   -22307   -22422   -22374   -22167   -22069   -22156   -22248 
  -22276   -22235   -22111   -22033   -22104   -22218   -22245   -22149 
  -21994   -22019   -22222   -22275   -22189   -22227   -22334   -22320 
  -22214   -22179   -22242   -22241   -22121   -21987   -21945   -22060 
  -22199   -22179   -22114   -22168   -22265   -22307   -22291   -22252 
  -22226   -22202   -22130   -22049   -22076   -22167   -22142   -22050 
  -22087   -22231   -22324   -22331   -22272   -22157   -22131   -22248 
  -22250   -22064   -21982   -22075   -22169   -22249   -22264   -22140 
  -22102   -22260   -22308   -22191   -22171   -22215   -22189   -22189 
  -22208   -22129   -22044   -22108   -22243   -22235   -22077   -21975 
  -22042   -22192   -22283   -22288   -22279   -22291   -22258   -22177 
  -22222   -22353   -22233   -21906   -21824   -22079   -22316   -22297 
  -22106   -21995   -22086   -22221   -22268   -22311   -22361   -22289 
  -22137   -22069   -22150   -22302   -22364   -22266   -22088   -21945 
  -21913   -21994   -22148   -22273   -22250   -22168   -22196   -22246 
  -22226   -22253   -22311   -22254   -22135   -22099   -22144   -22173 
  -22153   -22084   -22027   -22110   -22288   -22351   -22261   -22158 
  -22126   -22156   -22185   -22145   -22064   -22025   -22071   -22230 
  -22376   -22284   -22091   -22138   -22330   -22334   -22212   -22168 
  -22122   -22063   -22131   -22207   -22125   -22027   -22054   -22149 
  -22260   -22341   -22292   -22162   -22168   -22270   -22241   -22153 
  -22200   -22280   -22204   -22060   -22007   -22007   -22019   -22125 
  -22266   -22234   -22103   -22118   -22227   -22314   -22393   -22408 
  -22275   -22068   -22000   -22113   -22183   -22152   -22123   -22073 
  -22060   -22204   -22385   -22395   -22260   -22130   -22057   -22065 
  -22144   -22189   -22142   -22069   -22088   -22222   -22351   -22396 
  -22337   -22167   -22011   -22011   -22094   -22148   -22175   -22149 
  -22094   -22127   -22208   -22199   -22138   -22123   -22160   -22216 
  -22276   -22345   -22369   -22303   -22223   -22141   -22021   -21972 
  -22041   -22125   -22206   -22222   -22104   -22087   -22292   -22389 
  -22233   -22121   -22200   -22285   -22262   -22165   -22025   -21965 
  -22063   -22140   -22134   -22185   -22249   -22211   -22161   -22214 
  -22283   -22239   -22176   -22160   -22068   -21994   -22095   -22180 
  -22137   -22177   -22333   -22393   -22311   -22200   -22160   -22211 
  -22258   -22175   -22053   -22065   -22118   -22049   -21972   -22059 
  -22239   -22349   -22334   -22237   -22156   -22204   -22308   -22273 
  -22145   -22118   -22114   -22048   -22087   -22226   -22215   -22072 
  -22091   -22241   -22225   -22138   -22200   -22299   -22330   -22257 
  -22060   -21936   -22059   -22254   -22299   -22233   -22125   -22015 
  -22075   -22342   -22565   -22500   -22158   -21832   -21805   -21995 
  -22099   -22087   -22125   -22167   -22177   -22302   -22476   -22505 
  -22431   -22334   -22164   -21983   -21967   -22060   -22103   -22131 
  -22144   -22045   -21969   -22095   -22296   -22392   -22384   -22284 
  -22104   -22018   -22149   -22338   -22361   -22200   -22019   -21976 
  -22065   -22161   -22233   -22304   -22285   -22141   -22079   -22157 
  -22152   -22088   -22140   -22153   -22065   -22103   -22230   -22252 
  -22250   -22307   -22320   -22288   -22270   -22229   -22157   -22107 
  -22068   -22036   -22088   -22160   -22121   -22100   -22175   -22157 
  -22083   -22145   -22261   -22292   -22295   -22330   -22310   -22211 
  -22168   -22180   -22133   -22086   -22102   -22122   -22145   -22198 
  -22167   -22025   -21979   -22115   -22257   -22291   -22250   -22168 
  -22130   -22226   -22320   -22238   -22103   -22131   -22268   -22302 
  -22187   -22064   -22067   -22175   -22234   -22161   -22044   -22056 
  -22222   -22315   -22212   -22127   -22198   -22243   -22203   -22237 
  -22281   -22157   -22057   -22176   -22272   -22202   -22175   -22196 
  -22084   -21967   -22036   -22152   -22176   -22210   -22269   -22239 
  -22207   -22262   -22268   -22206   -22194   -22171   -22092   -22061 
  -22107   -22204   -22292   -22261   -22106   -21982   -22027   -22149 
  -22198   -22237   -22270   -22230   -22218   -22257   -22264   -22246 
  -22203   -22156   -22115   -22011   -21901   -21938   -22110   -22292 
  -22383   -22329   -22223   -22195   -22216   -22221   -22239   -22277 
  -22237   -22141   -22119   -22142   -22119   -22049   -21973   -21990 
  -22108   -22215   -22307   -22412   -22437   -22345   -22203   -22098 
  -22107   -22185   -22214   -22144   -22042   -22009   -22057   -22141 
  -22214   -22245   -22219   -22146   -22106   -22158   -22242   -22281 
  -22276   -22215   -22130   -22144   -22233   -22218   -22079   -21992 
  -22091   -22254   -22241   -22095   -22056   -22162   -22262   -22252 
  -22196   -22179   -22167   -22145   -22144   -22196   -22289   -22312 
  -22202   -22088   -22125   -22196   -22141   -22100   -22187   -22234 
  -22157   -22054   -22049   -22199   -22333   -22250   -22118   -22158 
  -22260   -22272   -22262   -22277   -22192   -22015   -22002   -22137 
  -22169   -22117   -22091   -22111   -22194   -22248   -22206   -22207 
  -22331   -22354   -22134   -21963   -22053   -22181   -22180   -22183 
  -22281   -22346   -22226   -22050   -22069   -22242   -22288   -22158 
  -22091   -22119   -22118   -22119   -22150   -22156   -22148   -22189 
  -22252   -22204   -22103   -22146   -22264   -22296   -22284   -22283 
  -22222   -22141   -22207   -22297   -22152   -21930   -21871   -21909 
  -22032   -22292   -22468   -22345   -22175   -22234   -22303   -22235 
  -22188   -22138   -22049   -22034   -22030   -22029   -22164   -22308 
  -22266   -22094   -21984   -22133   -22410   -22450   -22283   -22184 
  -22150   -22091   -22130   -22308   -22385   -22181   -21843   -21682 
  -21907   -22310   -22485   -22430   -22388   -22364   -22264   -22179 
  -22133   -22038   -21965   -21971   -22018   -22090   -22110   -22164 
  -22343   -22399   -22256   -22137   -22122   -22214   -22326   -22249 
  -22030   -21973   -22090   -22107   -22119   -22265   -22268   -22135 
  -22165   -22308   -22366   -22331   -22275   -22148   -22059   -22161 
  -22169   -22002   -22000   -22099   -22046   -22011   -22152   -22269 
  -22270   -22307   -22393   -22414   -22330   -22223   -22216   -22215 
  -22064   -21910   -21902   -21963   -22060   -22140   -22113   -22144 
  -22310   -22365   -22284   -22308   -22366   -22239   -22113   -22175 
  -22180   -22014   -21929   -22045   -22230   -22320   -22272   -22218 
  -22253   -22283   -22225   -22160   -22179   -22198   -22142   -22079 
  -22048   -22038   -22065   -22130   -22229   -22319   -22285   -22140 
  -22119   -22269   -22356   -22268   -22119   -22067   -22111   -22108 
  -22067   -22098   -22146   -22104   -22095   -22242   -22331   -22252 
  -22204   -22250   -22320   -22319   -22172   -22025   -22057   -22133 
  -22040   -21983   -22219   -22419   -22297   -22118   -22100   -22146 
  -22142   -22138   -22189   -22226   -22233   -22187   -22108   -22187 
  -22360   -22318   -22076   -21987   -22169   -22310   -22233   -22113 
  -22032   -21944   -21982   -22226   -22381   -22280   -22262   -22393 
  -22306   -22050   -21994   -22127   -22219   -22225   -22171   -22033 
  -22007   -22238   -22391   -22272   -22127   -22118   -22149   -22146 
  -22242   -22374   -22300   -22189   -22161   -22007   -21899   -22084 
  -22287   -22223   -22063   -22052   -22169   -22300   -22337   -22215 
  -22107   -22142   -22167   -22110   -22129   -22221   -22235   -22191 
  -22173   -22198   -22273   -22287   -22125   -21990   -22067   -22171 
  -22198   -22292   -22315   -22121   -22034   -22176   -22249   -22203 
  -22194   -22194   -22140   -22104   -22140   -22180   -22204   -22256 
  -22287   -22233   -22137   -22075   -22099   -22141   -22123   -22119 
  -22177   -22269   -22343   -22299   -22200   -22218   -22275   -22180 
  -21995   -21956   -22076   -22122   -22075   -22107   -22227   -22342 
  -22374   -22320   -22260   -22161   -22019   -22038   -22179   -22185 
  -22133   -22134   -22118   -22211   -22415   -22362   -22068   -21952 
  -22038   -22068   -22104   -22257   -22333   -22254   -22192   -22246 
  -22366   -22411   -22296   -22075   -21897   -21937   -22049   -21980 
  -21910   -22025   -22169   -22231   -22291   -22424   -22492   -22341 
  -22152   -22148   -22242   -22239   -22177   -22187   -22226   -22194 
  -22088   -22086   -22285   -22424   -22319   -22068   -21776   -21674 
  -21878   -22110   -22245   -22368   -22335   -22081   -21946   -22158 
  -22474   -22639   -22634   -22383   -22005   -21942   -22264   -22512 
  -22380   -21925   -21470   -21478   -21915   -22199   -22191   -22239 
  -22414   -22520   -22476   -22327   -22204   -22270   -22466   -22482 
  -22287   -22107   -21975   -21853   -21782   -21768   -21818   -21902 
  -21960   -21991   -22069   -22203   -22326   -22492   -22767   -22921 
  -22696   -22266   -21925   -21802   -22022   -22377   -22383   -22067 
  -21811   -21689   -21722   -22027   -22411   -22581   -22524   -22403 
  -22314   -22191   -22069   -22144   -22330   -22345   -22162   -21926 
  -21763   -21872   -22210   -22350   -22181   -22111   -22297   -22422 
  -22327   -22204   -22113   -22015   -22011   -22094   -22149   -22180 
  -22157   -22059   -22005   -22088   -22293   -22432   -22374   -22297 
  -22285   -22191   -22091   -22148   -22177   -21968   -21749   -21844 
  -22237   -22628   -22639   -22283   -22069   -22203   -22372   -22357 
  -22173   -21932   -21887   -22180   -22557   -22671   -22472   -22005 
  -21428   -21219   -21602   -22161   -22423   -22405   -22377   -22486 
  -22658   -22662   -22387   -22030   -21849   -21963   -22268   -22446 
  -22268   -21891   -21666   -21772   -22111   -22347   -22264   -22044 
  -21964   -22113   -22383   -22609   -22700   -22590   -22362   -22161 
  -21975   -21841   -21794   -21753   -21775   -21853   -21848   -21937 
  -22360   -22832   -22887   -22531   -22152   -22023   -22184   -22447 
  -22450   -22156   -21932   -21930   -21986   -22009   -22053   -22153 
  -22226   -22198   -22102   -22053   -22152   -22345   -22489   -22411 
  -22073   -21856   -22002   -22137   -22122   -22206   -22351   -22480 
  -22623   -22609   -22280   -21878   -21776   -21883   -21891   -21837 
  -21814   -21805   -21956   -22338   -22693   -22840   -22817   -22659 
  -22422   -22245   -22129   -21996   -21922   -21853   -21627   -21443 
  -21614   -22068   -22507   -22692   -22599   -22412   -22331   -22323 
  -22162   -21921   -21940   -22187   -22369   -22447   -22451   -22276 
  -21982   -21922   -22222   -22497   -22459   -22211   -21942   -21795 
  -21799   -21914   -22053   -22081   -22080   -22215   -22303   -22211 
  -22169   -22270   -22389   -22461   -22396   -22179   -22092   -22310 
  -22420   -22069   -21643   -21640   -21960   -22284   -22488   -22492 
  -22238   -21861   -21683   -21917   -22303   -22377   -22214   -22310 
  -22646   -22765   -22616   -22403   -22233   -22242   -22342   -22202 
  -21778   -21328   -21077   -21239   -21837   -22412   -22543   -22403 
  -22366   -22547   -22797   -22894   -22735   -22322   -21903   -21860 
  -22091   -22146   -21917   -21629   -21523   -21681   -22023   -22400 
  -22634   -22647   -22534   -22380   -22253   -22276   -22401   -22320 
  -21903   -21500   -21514   -21971   -22520   -22702   -22443   -22110 
  -22022   -22192   -22380   -22350   -22079   -21762   -21682   -21945 
  -22335   -22540   -22493   -22397   -22351   -22223   -22068   -22061 
  -22099   -22081   -22117   -22192   -22245   -22230   -22030   -21772 
  -21751   -21972   -22316   -22665   -22801   -22657   -22383   -22125 
  -21940   -21887   -22017   -22156   -22050   -21802   -21717   -21928 
  -22380   -22812   -22871   -22562   -22256   -22122   -22052   -22009 
  -22007   -21988   -21959   -21910   -21770   -21702   -21948   -22330 
  -22553   -22584   -22489   -22399   -22419   -22428   -22289   -22076 
  -21915   -21865   -21973   -22214   -22416   -22418   -22238   -22077 
  -22079   -22185   -22241   -22126   -21913   -21798   -21861   -22048 
  -22254   -22397   -22509   -22580   -22492   -22284   -22141   -22133 
  -22153   -22077   -21964   -21953   -22022   -22098   -22204   -22280 
  -22188   -21988   -21913   -22021   -22165   -22288   -22414   -22455 
  -22404   -22403   -22443   -22314   -21975   -21710   -21706   -21857 
  -22067   -22275   -22353   -22322   -22296   -22239   -22134   -22086 
  -22095   -22087   -22141   -22391   -22671   -22648   -22314   -21995 
  -21944   -22069   -22123   -22072   -22084   -22226   -22407   -22473 
  -22293   -21978   -21834   -21960   -22179   -22281   -22146   -21897 
  -21857   -22141   -22474   -22543   -22304   -22044   -22095   -22312 
  -22256   -21914   -21682   -21797   -22153   -22481   -22628   -22561 
  -22260   -21861   -21660   -21825   -22306   -22763   -22763   -22362 
  -22061   -22063   -22134   -22106   -22029   -21967   -21940   -21965 
  -22036   -22113   -22180   -22295   -22474   -22580   -22480   -22306 
  -22256   -22223   -22073   -21961   -21998   -22107   -22212   -22231 
  -22146   -22067   -22034   -22013   -22040   -22134   -22207   -22211 
  -22207   -22230   -22246   -22246   -22216   -22168   -22158   -22172 
  -22113   -22034   -22061   -22158   -22315   -22466   -22357   -22010 
  -21799   -21897   -22146   -22369   -22468   -22370   -22194   -22173 
  -22254   -22306   -22383   -22377   -22184   -21998   -21944   -21969 
  -22079   -22222   -22185   -21941   -21811   -21978   -22231   -22360 
  -22353   -22279   -22302   -22477   -22563   -22351   -21988   -21870 
  -22053   -22149   -22046   -22010   -22114   -22222   -22230   -22161 
  -22121   -22122   -22103   -22100   -22171   -22256   -22277   -22261 
  -22307   -22393   -22365   -22223   -22158   -22191   -22115   -21919 
  -21841   -21964   -22161   -22303   -22302   -22176   -22025   -21930 
  -21984   -22239   -22578   -22736   -22590   -22351   -22221   -22108 
  -21969   -21938   -21968   -21898   -21847   -21940   -22075   -22194 
  -22273   -22248   -22185   -22235   -22381   -22473   -22499   -22455 
  -22214   -21919   -21892   -22063   -22173   -22183   -22113   -21964 
  -21870   -21964   -22176   -22389   -22527   -22481   -22312   -22219 
  -22241   -22272   -22242   -22146   -22030   -21940   -21894   -21905 
  -21963   -22046   -22152   -22288   -22454   -22534   -22419   -22245 
  -22185   -22203   -22214   -22216   -22225   -22158   -22005   -21914 
  -21968   -22107   -22238   -22264   -22194   -22183   -22261   -22268 
  -22183   -22191   -22322   -22385   -22260   -22061   -22022   -22157 
  -22219   -22107   -21969   -21890   -21876   -22033   -22284   -22381 
  -22330   -22249   -22144   -22126   -22279   -22435   -22423   -22292 
  -22164   -22038   -22005   -22122   -22188   -22130   -22050   -21953 
  -21968   -22160   -22291   -22283   -22284   -22318   -22302   -22237 
  -22154   -22090   -22161   -22315   -22338   -22262   -22148   -21963 
  -21892   -22048   -22215   -22262   -22280   -22242   -22019   -21806 
  -21919   -22226   -22420   -22474   -22445   -22353   -22287   -22273 
  -22185   -22019   -21999   -22133   -22146   -22037   -21990   -21978 
  -21972   -22073   -22227   -22262   -22234   -22333   -22482   -22472 
  -22324   -22177   -22077   -22071   -22157   -22243   -22248   -22138 
  -21965   -21833   -21821   -22005   -22333   -22558   -22536   -22356 
  -22172   -22072   -22084   -22219   -22346   -22254   -22006   -21867 
  -21937   -22077   -22130   -22156   -22265   -22358   -22365   -22297 
  -22140   -22022   -22086   -22248   -22368   -22372   -22237   -22069 
  -22033   -22095   -22135   -22149   -22141   -22127   -22169   -22242 
  -22285   -22323   -22337   -22216   -22061   -22083   -22179   -22161 
  -22110   -22106   -22084   -22044   -22064   -22180   -22302   -22291 
  -22162   -22087   -22175   -22381   -22441   -22194   -21956   -22013 
  -22172   -22188   -22096   -22030   -22056   -22191   -22338   -22341 
  -22292   -22283   -22173   -22049   -22071   -22113   -22133   -22218 
  -22289   -22258   -22156   -22050   -22022   -22076   -22156   -22204 
  -22222   -22275   -22338   -22366   -22342   -22180   -21971   -21917 
  -21934   -21933   -22007   -22135   -22221   -22265   -22351   -22488 
  -22566   -22468   -22261   -22133   -22060   -21953   -21910   -21957 
  -22048   -22183   -22254   -22230   -22283   -22431   -22430   -22207 
  -22076   -22188   -22289   -22219   -22075   -21968   -21946   -22003 
  -22094   -22202   -22268   -22189   -22048   -22083   -22295   -22439 
  -22410   -22312   -22262   -22226   -22102   -21906   -21786   -21906 
  -22172   -22276   -22216   -22237   -22297   -22254   -22225   -22324 
  -22389   -22275   -22121   -22049   -22027   -22050   -22075   -22046 
  -22033   -22095   -22181   -22221   -22198   -22185   -22258   -22339 
