Origin Time       2025/03/30 21:30:00
Lat.              38.535
Long.             142.295
Depth. (km)       44
Mag.              4.3
Station Code      FKSH19
Station Lat.      37.4703
Station Long.     140.7227
Station Height(m) 410
Record Time       2025/03/30 21:31:44
Sampling Freq(Hz) 100Hz
Duration Time(s)  120
Dir.              1
Scale Factor      2942(gal)/8224139
Max. Acc. (gal)   0.195
Last Correction   2025/03/30 21:31:44
Memo.             
[...]
   19029    19035    19032    19052    19067    19029    19032    19076 
   19076    19055    19032    19005    19018    19066    19086    19053 
   19032    19070    19098    19074    19048    19051    19067    19062 
   19026    19040    19064    19047    19052    19055    19025    19037 
   19072    19049    19022    19057    19045    18986    19018    19074 
   19040    18995    19022    19079    19078    19010    18985    19026 
   19056    19068    19057    19037    19067    19062    19005    19030 
   19090    19070    19033    19030    19035    19016    18987    19028 
   19105    19105    19063    19060    19070    19067    19059    19028 
   19025    19063    19051    19021    19057    19093    19068    19026 
   19035    19076    19066    19039    19056    19048    18999    18991 
   19049    19084    19033    18989    19044    19094    19067    19028 
   19030    19044    19052    19059    19018    18995    19071    19087 
   19021    19051    19103    19064    19016    19029    19051    19053 
   19079    19084    19030    19008    19037    19078    19084    19036 
   19016    19037    19025    19026    19064    19044    19016    19076 
   19114    19052    18995    19002    19020    19032    19060    19063 
   19036    19017    19017    19051    19079    19064    19039    19021 
   19033    19074    19094    19076    19053    19063    19075    19053 
   19055    19082    19057    19010    19002    19003    19020    19062 
   19074    19052    19036    19047    19056    19057    19068    19056 
   19043    19056    19051    19043    19048    19060    19087    19078 
   19041    19036    19028    19025    19048    19051    19025    19032 
   19080    19078    18999    18978    19064    19110    19051    19028 
   19029    18979    19010    19116    19094    18987    18970    19030 
   19090    19097    19049    19029    19047    19053    19063    19066 
   19040    19030    19068    19076    19025    19013    19044    19032 
   18998    19020    19056    19071    19093    19097    19062    19036 
   19056    19068    19033    19020    19039    19032    19055    19087 
   19040    19012    19057    19075    19074    19083    19060    19043 
   19040    19016    19006    19041    19079    19030    18948    19018 
   19133    19094    19028    19033    19057    19086    19068    19025 
   19035    19049    19032    19008    18998    19044    19103    19078 
   19025    19043    19070    19079    19091    19070    19049    19035 
   18999    19016    19057    19047    19032    19025    19024    19053 
   19066    19052    19047    19057    19071    19045    18998    19014 
   19084    19113    19067    19016    19012    19026    19035    19056 
   19066    19044    19036    19068    19087    19021    18975    19045 
   19082    19013    18991    19040    19071    19087    19068    19032 
   19045    19053    19041    19051    19041    19024    19025    19018 
   19029    19059    19056    19049    19075    19083    19047    19026 
   19045    19057    19060    19060    19052    19066    19078    19049 
   19033    19060    19080    19057    19032    19035    19028    19024 
   19040    19044    19052    19057    19022    18989    19018    19076 
   19071    19018    19041    19114    19079    18987    18985    19045 
   19080    19060    19048    19057    19035    19016    19047    19086 
   19082    19049    19045    19071    19091    19060    19026    19052 
   19070    19052    19035    19035    19041    19059    19105    19076 
   18968    18960    19049    19091    19053    19014    19033    19079 
   19089    19037    19040    19147    19148    19009    18949    19020 
   19078    19039    18981    18991    19045    19094    19089    19056 
   19062    19075    19067    19029    19010    19074    19094    19017 
   19009    19063    19056    19032    19048    19051    19035    19049 
   19072    19059    19030    19032    19055    19070    19066    19060 
   19056    19032    19021    19044    19045    19032    19056    19105 
   19111    19033    18975    19036    19105    19067    18999    19005 
   19066    19117    19121    19051    18974    19001    19087    19097 
   19017    18990    19037    19045    19026    19049    19076    19070 
   19059    19068    19090    19090    19056    19036    19056    19056 
   19013    19006    19033    19043    19049    19052    19068    19072 
   19022    18998    19051    19076    19036    19008    19005    19005 
   19048    19113    19105    19021    18976    19030    19091    19075 
   19040    19032    19016    19013    19041    19066    19079    19066 
   19052    19099    19106    19045    19045    19070    19047    19045 
   19076    19071    19035    19030    19052    19051    19068    19089 
   19067    19057    19056    19045    19045    19025    19021    19060 
   19070    19032    18993    19006    19052    19043    19035    19062 
   19020    18982    19064    19118    19072    19053    19053    19043 
   19071    19082    19043    19041    19089    19087    19045    19037 
   19041    19056    19098    19090    19014    18986    19044    19089 
   19060    19055    19093    19091    19067    19043    19006    19028 
   19083    19044    18945    18939    19021    19064    19039    18989 
   18979    19066    19128    19087    19082    19128    19102    19026 
   18999    19025    19056    19064    19047    19016    18995    19017 
   19090    19124    19057    19008    19045    19093    19089    19078 
   19083    19067    19072    19110    19079    19006    18968    18966 
   19022    19075    19017    18954    19024    19082    19021    19014 
   19083    19079    19053    19056    19072    19086    19051    19037 
   19059    19041    19006    18982    18997    19017    18983    19010 
   19063    19036    19063    19145    19148    19102    19055    19049 
   19078    19051    19025    19028    18972    18935    19006    19082 
   19078    19066    19086    19086    19057    19045    19057    19057 
   19044    19044    19030    19032    19083    19124    19111    19062 
   19056    19113    19102    19059    19071    19062    19032    19036 
   19022    19008    19013    19018    19074    19111    19052    19016 
   19067    19105    19062    19009    19026    19047    19012    19005 
   19047    19033    18978    18981    19044    19064    18991    18959 
   19003    19010    19010    19028    19045    19071    19059    19074 
   19140    19140    19099    19084    19078    19055    19032    19055 
   19083    19037    18968    18994    19074    19074    19036    19055 
   19089    19070    19021    18994    18985    19006    19056    19048 
   18970    18956    19053    19122    19090    19035    19030    19078 
   19093    19030    18993    19017    19037    19078    19137    19133 
   19091    19075    19083    19090    19059    19037    19080    19097 
   19064    19048    19033    19033    19062    19060    19055    19052 
   19013    19016    19071    19059    18995    18983    19018    19037 
   19022    19006    19005    19018    19032    19016    19006    19051 
   19093    19070    19018    19032    19109    19114    19045    19029 
   19067    19093    19070    19030    19025    19030    19029    19060 
   19097    19079    19062    19102    19091    19037    19070    19078 
   19041    19072    19039    18954    18997    19076    19075    19014 
   18967    18991    19032    19062    19084    19048    18997    18998 
   19014    19039    19082    19080    19016    19005    19105    19125 
   19028    19025    19044    18982    19006    19090    19090    19060 
   19053    19044    19051    19080    19091    19072    19044    19029 
   19053    19056    19020    19036    19062    19047    19051    19051 
   19045    19078    19068    19009    19010    19066    19067    19036 
   19075    19093    19010    18972    19026    19067    19071    19045 
   19018    19033    19060    19086    19098    19071    19056    19053 
   19043    19066    19064    19010    19009    19056    19047    18993 
   18983    19033    19107    19136    19057    19013    19074    19067 
   18990    19020    19107    19095    19035    19045    19064    19039 
   19057    19097    19067    19022    19010    19020    19063    19098 
   19062    19024    19059    19071    19026    19052    19094    19013 
   18967    19056    19106    19074    19064    19052    18998    19005 
   19066    19075    19056    19040    19010    19017    19056    19083 
   19097    19095    19080    19068    19074    19067    19024    18982 
   19006    19043    19014    18989    18995    19021    19075    19094 
   19053    19032    19076    19094    19026    19020    19109    19122 
   19037    19016    19063    19053    19051    19083    19076    19067 
   19052    19022    19017    19026    19048    19087    19101    19039 
   18974    19049    19134    19080    19045    19070    19047    19037 
   19056    19047    19029    19017    19016    19006    19008    19040 
   19025    18995    19044    19114    19090    19002    19012    19071 
   19084    19098    19059    19006    19040    19048    19013    19033 
   19039    19017    19045    19043    19017    19083    19111    19040 
   19028    19098    19109    19044    19037    19062    19025    19006 
   19041    19087    19120    19098    19043    19008    18997    19012 
   18998    18989    19055    19055    18993    19057    19133    19072 
   19025    19045    19060    19097    19113    19057    19041    19067 
   19052    19055    19095    19082    19030    19040    19062    19045 
   19052    19062    19057    19066    19063    19029    19002    19024 
   19048    19045    19049    19047    19048    19028    18997    19033 
   19045    18991    18975    19002    19047    19067    19040    19041 
   19097    19106    19006    18971    19072    19098    19040    19014 
   19017    19070    19124    19082    19029    19098    19184    19121 
   19043    19064    19048    19021    19060    19074    19041    19039 
   19074    19055    18990    19005    19035    19003    19043    19103 
   19047    18979    18990    19018    19053    19082    19062    19056 
   19083    19020    18958    19026    19067    19033    18999    18979 
   19040    19074    19029    19051    19074    19051    19084    19130 
   19098    19063    19090    19053    18983    19032    19105    19097 
   19067    19032    19012    19086    19148    19037    18949    19059 
   19109    19032    19039    19070    19035    19040    19056    19008 
   18981    18995    19022    19082    19068    18974    18968    19033 
   19099    19130    19080    19041    19047    19051    19078    19075 
   19037    19032    19063    19094    19078    19051    19089    19114 
   19056    18991    18989    19063    19129    19089    19048    19099 
   19151    19126    19087    19113    19118    19026    18952    18931 
   18901    18895    18927    18974    19079    19168    19138    19099 
   19114    19090    19030    19002    18985    18968    18974    18995 
   19012    18994    18975    19040    19122    19078    18958    18908 
   18970    19059    19106    19155    19218    19213    19125    19045 
   19028    19053    19070    18989    18854    18781    18800    18917 
   19075    19121    19043    19017    19121    19164    19062    19022 
   19116    19211    19191    19043    18867    18771    18897    19178 
   19284    19171    19066    19103    19214    19182    19062    19057 
   19090    19002    18810    18720    18859    19068    19179    19133 
   19006    18981    19051    19066    19064    19164    19206    19076 
   18944    18895    18889    18897    18955    19091    19202    19218 
   19215    19203    19191    19218    19241    19206    19160    19152 
   19110    18982    18908    18954    18939    18836    18882    19068 
   19097    18901    18754    18887    19175    19268    19138    19013 
   18970    19037    19110    19053    19009    19040    19036    18971 
   18901    18985    19175    19210    19179    19233    19176    18987 
   18936    19090    19211    19170    19117    19101    19012    18904 
   18873    18904    18941    19009    19145    19206    19097    18993 
   19014    19048    18959    18847    18862    18918    18982    19107 
   19147    19049    19014    19082    19182    19271    19255    19134 
   19048    18990    18882    18835    18937    19064    19111    19074 
   18990    18976    19070    19099    19028    19090    19201    19147 
   19111    19155    19121    19110    19183    19186    19121    19037 
   18840    18712    18863    18962    18859    18936    19159    19187 
   19149    19222    19222    19134    19130    19103    18993    18978 
   19018    18976    18913    18909    18908    18897    19012    19168 
   19174    19160    19245    19288    19224    19083    18962    18981 
   19035    19021    19033    19041    19051    19186    19255    19041 
   18821    18862    18976    18964    18943    19064    19141    19002 
   18927    19041    19144    19210    19234    19167    19071    18952 
   18901    18987    19003    18945    18997    19039    18967    18941 
   19040    19170    19252    19211    19043    18955    18997    18966 
   18935    19045    19155    19121    19006    19001    19086    19093 
   19110    19182    19101    18990    19099    19168    19016    18917 
   18921    18851    18758    18786    18883    18944    19026    19164 
   19337    19460    19337    19102    19051    19051    18898    18704 
   18644    18756    18921    19039    19089    19084    19063    19130 
   19392    19593    19399    19076    19022    19170    19300    19241 
   18981    18808    18856    18945    19002    18990    18878    18816 
   18916    19062    19044    18935    18968    19114    19279    19344 
   19230    19156    19155    19045    18860    18747    18809    18870 
   18794    18825    18958    19018    19109    19265    19338    19252 
   19174    19240    19253    19151    19165    19280    19183    18947 
   18975    19097    18974    18909    19033    19016    18877    18893 
   19036    19037    18886    18862    19018    19117    19097    19067 
   18979    18851    18837    18901    18943    18995    19066    19179 
   19334    19408    19377    19310    19179    19067    19029    18906 
   18851    19021    19022    18819    18881    19094    19072    19005 
   19179    19390    19319    19053    18916    18976    19026    18960 
   18890    18947    19076    19118    19043    18928    18897    18964 
   19014    18998    18925    18889    18956    18986    18944    19020 
   19194    19313    19318    19175    18985    18949    19049    19121 
   19149    19149    19009    18846    18928    19141    19234    19246 
   19224    19083    18968    19028    19039    18922    18933    19084 
   19172    19111    18972    18893    18928    18998    19071    19133 
   19044    18856    18843    18947    18972    19033    19157    19157 
   19078    19102    19163    19180    19192    19157    19078    19072 
   19122    19129    19133    19190    19225    19163    19030    18901 
   18836    18862    18941    18987    18979    19013    19093    19109 
   19099    19167    19143    18940    18859    18970    19006    18939 
   18878    18828    18855    19028    19184    19152    19025    18960 
   19068    19311    19380    19217    19148    19126    18964    18885 
   18943    18935    18863    18900    19109    19261    19237    19197 
   19130    19021    19040    19160    19117    18796    18611    18868 
   19080    19014    19048    19148    19110    19097    19198    19271 
   19197    18990    18810    18855    19039    19118    19075    19008 
   19012    19086    19056    18995    19067    19111    19078    19079 
   19063    19002    19024    19145    19183    19102    19047    19041 
   19035    19021    19055    19117    19132    19107    19025    18935 
   18966    19072    19151    19144    19021    18890    18897    18997 
   19039    19024    19035    18998    18927    18993    19110    19064 
   18959    18993    19072    19028    18958    19012    19087    19083 
   19118    19191    19172    19165    19232    19178    19013    18959 
   19030    19110    19148    19105    19017    18997    18987    18960 
   19040    19102    19020    18940    18979    19111    19168    19068 
   18964    18955    19026    19064    18968    18921    19012    19040 
   19016    19118    19179    19051    18997    19068    19089    19120 
   19110    18975    18959    19095    19120    19029    18986    18986 
   18968    18975    19051    19148    19199    19151    19071    19101 
   19207    19215    19097    19016    18998    18943    18941    19003 
   18945    18885    18968    19029    19068    19153    19136    19113 
   19213    19240    19163    19138    19163    19156    19124    19056 
   18931    18854    18881    18921    18968    19003    18985    18976 
   19003    19024    19051    19039    18985    19021    19078    19003 
   18954    19010    19033    19012    19008    19032    19064    19043 
   18982    19012    19078    19045    19030    19101    19144    19157 
   19129    19059    19075    19099    19002    18939    18947    18963 
   19051    19041    18964    19149    19302    19107    18958    19035 
   19126    19174    19148    19025    18954    18987    19047    19137 
   19207    19153    19089    19080    19049    19079    19144    19084 
   19030    19076    19070    18972    18954    19001    18925    18901 
   19080    19156    19018    18937    19037    19134    19099    19074 
   19132    19097    18959    18964    19072    19056    18967    18924 
   18966    19047    19040    19002    19041    19078    19086    19078 
   19026    19056    19151    19132    19130    19236    19195    19026 
   18964    18968    18971    19020    19052    19016    18935    18829 
   18891    19168    19272    19130    19018    18955    18964    19036 
   19055    19093    19074    18964    18990    19075    19094    19175 
   19226    19143    19066    18991    18940    19029    19116    19089 
   19017    18970    19072    19238    19174    19008    18993    18990 
   18995    19062    19035    19005    19049    18993    18914    18958 
   18982    18983    19072    19170    19172    19076    18986    19009 
   19028    18963    18979    19080    19080    19035    19076    19097 
   19026    19029    19140    19136    18989    18964    19053    19124 
   19237    19251    19170    19225    19194    19033    19075    19144 
   19026    18956    18991    19002    18979    18948    18951    18997 
   19072    19128    19057    18968    19005    19016    19002    19107 
   19083    18877    18863    19002    19022    18952    18886    18941 
   19056    19049    19039    19118    19174    19174    19138    19071 
   19022    19032    19030    19048    19120    19057    18904    18933 
   19076    19138    19143    19109    19084    19111    19080    19030 
   19121    19230    19183    19066    19022    19029    19016    19036 
   19083    19056    19032    19036    18962    18994    19188    19205 
   19076    19056    19052    19003    19014    19079    19075    19047 
   19107    19086    18963    19016    19110    19043    18970    18918 
   18867    18917    18997    19016    19003    18974    18989    19078 
   19133    19094    19039    19040    19052    19006    19028    19172 
   19178    19030    19013    19116    19109    18985    18960    19109 
