Origin Time       2025/03/30 21:30:00
Lat.              38.535
Long.             142.295
Depth. (km)       44
Mag.              4.3
Station Code      FKSH14
Station Lat.      37.0264
Station Long.     140.9702
Station Height(m) 3
Record Time       2025/03/30 21:31:46
Sampling Freq(Hz) 100Hz
Duration Time(s)  120
Dir.              5
Scale Factor      7845(gal)/8223790
Max. Acc. (gal)   0.630
Last Correction   2025/03/30 21:31:47
Memo.             
[...]
   -1830    -1814    -1822    -1844    -1848    -1849    -1836    -1819 
   -1834    -1837    -1825    -1837    -1837    -1810    -1791    -1791 
   -1811    -1821    -1799    -1776    -1756    -1764    -1817    -1848 
   -1833    -1804    -1783    -1779    -1784    -1800    -1818    -1817 
   -1810    -1810    -1804    -1810    -1817    -1806    -1792    -1776 
   -1790    -1840    -1858    -1840    -1823    -1819    -1833    -1844 
   -1841    -1831    -1809    -1790    -1798    -1807    -1800    -1775 
   -1749    -1748    -1763    -1773    -1787    -1803    -1823    -1857 
   -1884    -1884    -1854    -1830    -1827    -1833    -1821    -1788 
   -1765    -1759    -1768    -1804    -1841    -1852    -1840    -1817 
   -1803    -1806    -1809    -1794    -1777    -1787    -1811    -1834 
   -1844    -1831    -1822    -1811    -1764    -1728    -1740    -1760 
   -1773    -1784    -1792    -1807    -1827    -1844    -1840    -1818 
   -1799    -1792    -1815    -1848    -1842    -1815    -1806    -1806 
   -1803    -1807    -1844    -1869    -1842    -1802    -1768    -1745 
   -1753    -1763    -1760    -1764    -1767    -1782    -1815    -1841 
   -1849    -1833    -1811    -1813    -1825    -1844    -1852    -1829 
   -1815    -1813    -1803    -1817    -1840    -1822    -1776    -1737 
   -1730    -1749    -1782    -1813    -1815    -1814    -1844    -1873 
   -1890    -1890    -1852    -1811    -1792    -1776    -1769    -1780 
   -1786    -1783    -1792    -1811    -1825    -1826    -1830    -1834 
   -1819    -1794    -1799    -1826    -1825    -1804    -1800    -1802 
   -1806    -1818    -1817    -1799    -1790    -1799    -1809    -1814 
   -1829    -1829    -1819    -1825    -1804    -1768    -1786    -1825 
   -1837    -1845    -1856    -1856    -1825    -1771    -1750    -1771 
   -1803    -1831    -1844    -1849    -1842    -1811    -1799    -1809 
   -1791    -1772    -1777    -1783    -1779    -1800    -1846    -1860 
   -1844    -1854    -1857    -1818    -1795    -1787    -1769    -1767 
   -1759    -1748    -1768    -1791    -1800    -1819    -1826    -1818 
   -1807    -1787    -1777    -1790    -1827    -1867    -1871    -1864 
   -1858    -1836    -1822    -1825    -1809    -1769    -1726    -1710 
   -1728    -1777    -1846    -1885    -1894    -1908    -1902    -1887 
   -1890    -1872    -1825    -1765    -1726    -1722    -1734    -1764 
   -1799    -1799    -1794    -1788    -1769    -1782    -1796    -1795 
   -1811    -1826    -1821    -1788    -1737    -1719    -1730    -1779 
   -1856    -1899    -1926    -1931    -1873    -1840    -1842    -1822 
   -1802    -1782    -1759    -1748    -1740    -1773    -1845    -1900 
   -1923    -1888    -1840    -1830    -1813    -1788    -1782    -1756 
   -1719    -1713    -1749    -1800    -1831    -1848    -1848    -1825 
   -1794    -1757    -1742    -1767    -1776    -1771    -1799    -1836 
   -1842    -1823    -1804    -1776    -1740    -1760    -1811    -1827 
   -1831    -1834    -1830    -1842    -1837    -1796    -1759    -1744 
   -1757    -1771    -1782    -1811    -1827    -1840    -1872    -1884 
   -1894    -1925    -1925    -1890    -1837    -1767    -1717    -1710 
   -1730    -1746    -1756    -1777    -1798    -1827    -1883    -1903 
   -1895    -1900    -1873    -1822    -1782    -1729    -1667    -1625 
   -1641    -1728    -1799    -1817    -1811    -1798    -1800    -1830 
   -1858    -1894    -1912    -1884    -1849    -1837    -1833    -1822 
   -1809    -1795    -1787    -1782    -1773    -1792    -1842    -1858 
   -1842    -1858    -1881    -1863    -1831    -1800    -1749    -1702 
   -1714    -1772    -1814    -1829    -1836    -1833    -1815    -1795 
   -1786    -1784    -1769    -1738    -1715    -1719    -1759    -1807 
   -1833    -1846    -1857    -1864    -1864    -1838    -1799    -1783 
   -1790    -1804    -1798    -1773    -1764    -1767    -1784    -1814 
   -1831    -1856    -1883    -1881    -1861    -1818    -1772    -1769 
   -1798    -1833    -1854    -1850    -1837    -1802    -1763    -1768 
   -1791    -1791    -1780    -1773    -1790    -1818    -1833    -1831 
   -1817    -1809    -1813    -1803    -1783    -1771    -1776    -1806 
   -1844    -1864    -1858    -1830    -1795    -1783    -1813    -1853 
   -1858    -1853    -1863    -1844    -1804    -1792    -1782    -1763 
   -1769    -1796    -1814    -1825    -1841    -1854    -1844    -1807 
   -1764    -1737    -1738    -1745    -1748    -1769    -1803    -1823 
   -1838    -1860    -1871    -1852    -1829    -1827    -1829    -1810 
   -1783    -1768    -1768    -1775    -1780    -1784    -1772    -1749 
   -1757    -1807    -1861    -1888    -1887    -1857    -1819    -1798 
   -1799    -1809    -1815    -1809    -1780    -1744    -1733    -1761 
   -1806    -1841    -1861    -1864    -1857    -1852    -1857    -1867 
   -1869    -1856    -1809    -1761    -1759    -1775    -1787    -1822 
   -1877    -1915    -1915    -1890    -1845    -1776    -1717    -1698 
   -1711    -1737    -1753    -1736    -1713    -1730    -1780    -1822 
   -1841    -1852    -1841    -1809    -1794    -1814    -1845    -1865 
   -1852    -1803    -1761    -1763    -1794    -1817    -1807    -1784 
   -1775    -1784    -1804    -1833    -1864    -1871    -1864    -1887 
   -1923    -1927    -1881    -1829    -1799    -1753    -1715    -1744 
   -1794    -1803    -1799    -1799    -1798    -1803    -1827    -1854 
   -1852    -1814    -1760    -1713    -1691    -1688    -1692    -1725 
   -1782    -1817    -1831    -1840    -1844    -1846    -1838    -1818 
   -1800    -1788    -1779    -1771    -1767    -1763    -1764    -1802 
   -1854    -1850    -1821    -1834    -1860    -1868    -1884    -1891 
   -1868    -1837    -1815    -1827    -1863    -1875    -1845    -1802 
   -1773    -1769    -1784    -1804    -1815    -1814    -1822    -1856 
   -1895    -1904    -1884    -1841    -1783    -1744    -1738    -1728 
   -1703    -1692    -1699    -1709    -1738    -1787    -1818    -1844 
   -1881    -1900    -1880    -1850    -1845    -1849    -1814    -1763 
   -1749    -1752    -1746    -1765    -1814    -1861    -1896    -1899 
   -1872    -1841    -1823    -1819    -1811    -1792    -1788    -1791 
   -1776    -1763    -1767    -1782    -1804    -1837    -1865    -1852 
   -1814    -1811    -1827    -1826    -1818    -1810    -1791    -1763 
   -1750    -1760    -1771    -1784    -1810    -1822    -1825    -1827 
   -1823    -1831    -1844    -1823    -1795    -1800    -1815    -1804 
   -1764    -1728    -1732    -1761    -1787    -1803    -1826    -1848 
   -1863    -1883    -1891    -1880    -1869    -1852    -1819    -1784 
   -1759    -1748    -1736    -1736    -1780    -1829    -1842    -1842 
   -1825    -1791    -1802    -1864    -1896    -1877    -1840    -1800 
   -1772    -1792    -1840    -1840    -1779    -1719    -1715    -1768 
   -1800    -1782    -1775    -1800    -1829    -1854    -1853    -1819 
   -1803    -1810    -1803    -1780    -1767    -1775    -1792    -1813 
   -1833    -1837    -1831    -1819    -1799    -1784    -1783    -1787 
   -1779    -1756    -1756    -1803    -1846    -1838    -1810    -1806 
   -1833    -1876    -1923    -1937    -1883    -1798    -1753    -1763 
   -1792    -1817    -1817    -1806    -1799    -1796    -1798    -1791 
   -1769    -1767    -1798    -1822    -1806    -1768    -1755    -1787 
   -1822    -1829    -1827    -1819    -1802    -1795    -1799    -1807 
   -1806    -1786    -1777    -1787    -1799    -1803    -1803    -1825 
   -1857    -1876    -1895    -1900    -1854    -1794    -1765    -1764 
   -1763    -1749    -1734    -1734    -1756    -1800    -1850    -1877 
   -1869    -1845    -1854    -1896    -1910    -1877    -1819    -1764 
   -1752    -1769    -1775    -1768    -1763    -1769    -1792    -1818 
   -1840    -1848    -1834    -1821    -1814    -1795    -1771    -1752 
   -1729    -1725    -1761    -1811    -1841    -1850    -1836    -1821 
   -1840    -1873    -1879    -1840    -1780    -1741    -1744    -1783 
   -1842    -1887    -1887    -1857    -1834    -1845    -1868    -1858 
   -1826    -1799    -1782    -1782    -1782    -1763    -1760    -1788 
   -1819    -1850    -1863    -1837    -1800    -1786    -1796    -1821 
   -1848    -1863    -1853    -1833    -1823    -1809    -1784    -1768 
   -1771    -1790    -1823    -1857    -1868    -1842    -1791    -1745 
   -1730    -1738    -1745    -1742    -1757    -1798    -1840    -1871 
   -1883    -1869    -1836    -1794    -1764    -1746    -1718    -1695 
   -1713    -1757    -1814    -1880    -1921    -1918    -1891    -1848 
   -1810    -1786    -1757    -1730    -1719    -1733    -1772    -1818 
   -1871    -1914    -1906    -1880    -1879    -1876    -1849    -1822 
   -1822    -1846    -1852    -1845    -1854    -1848    -1803    -1764 
   -1764    -1802    -1842    -1850    -1841    -1829    -1813    -1803 
   -1804    -1819    -1825    -1803    -1782    -1764    -1745    -1767 
   -1822    -1830    -1782    -1736    -1725    -1722    -1703    -1687 
   -1703    -1729    -1723    -1701    -1688    -1688    -1710    -1753 
   -1810    -1879    -1935    -1931    -1879    -1849    -1864    -1887 
   -1908    -1922    -1910    -1896    -1899    -1888    -1881    -1900 
   -1911    -1894    -1840    -1755    -1687    -1674    -1698    -1721 
   -1721    -1740    -1782    -1796    -1807    -1857    -1900    -1907 
   -1904    -1880    -1833    -1810    -1829    -1867    -1903    -1926 
   -1930    -1919    -1883    -1803    -1713    -1667    -1675    -1711 
   -1775    -1837    -1837    -1790    -1742    -1682    -1613    -1578 
   -1568    -1574    -1605    -1659    -1737    -1856    -1950    -1935 
   -1845    -1769    -1707    -1634    -1595    -1595    -1610    -1695 
   -1876    -2053    -2151    -2187    -2169    -2103    -2034    -2008 
   -1988    -1937    -1869    -1804    -1757    -1748    -1748    -1740 
   -1729    -1705    -1682    -1714    -1799    -1887    -1944    -1980 
   -2004    -1981    -1902    -1783    -1634    -1521    -1501    -1517 
   -1544    -1605    -1682    -1769    -1868    -1949    -1993    -2020 
   -2043    -2043    -2033    -2047    -2034    -1925    -1783    -1698 
   -1674    -1683    -1725    -1769    -1773    -1777    -1810    -1827 
   -1818    -1807    -1790    -1746    -1694    -1698    -1755    -1775 
   -1742    -1691    -1633    -1610    -1656    -1737    -1802    -1821 
   -1804    -1763    -1691    -1625    -1591    -1575    -1553    -1549 
   -1618    -1757    -1899    -2012    -2074    -2070    -2019    -1937 
   -1872    -1857    -1864    -1899    -1944    -1965    -1981    -1999 
   -2023    -2042    -2034    -2014    -1964    -1861    -1773    -1721 
   -1696    -1726    -1794    -1887    -1992    -2069    -2089    -2041 
   -1968    -1931    -1911    -1911    -1907    -1819    -1711    -1686 
   -1721    -1792    -1861    -1858    -1788    -1707    -1660    -1615 
   -1547    -1489    -1414    -1320    -1298    -1359    -1441    -1524 
   -1602    -1660    -1691    -1718    -1744    -1750    -1782    -1849 
   -1910    -1971    -2023    -2038    -2034    -2015    -1985    -1972 
   -1989    -2038    -2087    -2122    -2166    -2215    -2239    -2200 
   -2054    -1836    -1611    -1439    -1374    -1412    -1522    -1694 
   -1863    -1977    -2056    -2124    -2188    -2162    -1976    -1723 
   -1512    -1383    -1399    -1506    -1590    -1649    -1705    -1737 
   -1744    -1709    -1626    -1517    -1394    -1297    -1310    -1440 
   -1605    -1767    -1933    -2076    -2142    -2127    -2083    -2038 
   -1993    -1941    -1863    -1800    -1821    -1919    -2065    -2203 
   -2250    -2205    -2131    -2038    -1917    -1822    -1790    -1777 
   -1796    -1868    -1942    -1976    -1946    -1867    -1773    -1687 
   -1632    -1614    -1610    -1614    -1625    -1659    -1736    -1807 
   -1830    -1818    -1767    -1652    -1466    -1270    -1181    -1242 
   -1402    -1601    -1772    -1895    -1984    -2050    -2100    -2122 
   -2079    -1987    -1907    -1877    -1896    -1927    -1948    -1984 
   -2041    -2085    -2087    -2022    -1910    -1811    -1760    -1764 
   -1798    -1815    -1833    -1869    -1891    -1849    -1719    -1551 
   -1424    -1378    -1397    -1456    -1537    -1622    -1707    -1799 
   -1869    -1894    -1873    -1818    -1764    -1756    -1787    -1819 
   -1849    -1904    -1979    -2026    -2046    -2035    -1968    -1877 
   -1822    -1822    -1871    -1958    -2072    -2124    -2054    -1938 
   -1846    -1783    -1779    -1826    -1879    -1921    -1946    -1948 
   -1929    -1888    -1815    -1702    -1584    -1503    -1449    -1417 
   -1394    -1393    -1466    -1594    -1710    -1811    -1908    -1989 
   -2047    -2080    -2026    -1844    -1625    -1486    -1451    -1518 
   -1660    -1790    -1857    -1904    -1968    -2045    -2091    -2074 
   -2010    -1923    -1865    -1844    -1799    -1715    -1630    -1587 
   -1618    -1701    -1792    -1876    -1908    -1894    -1899    -1918 
   -1902    -1852    -1773    -1659    -1563    -1528    -1537    -1555 
   -1578    -1655    -1803    -1971    -2110    -2204    -2247    -2231 
   -2178    -2089    -1935    -1763    -1652    -1602    -1602    -1679 
   -1800    -1915    -2029    -2088    -2043    -1976    -1946    -1945 
   -1972    -2019    -2087    -2135    -2106    -2033    -1980    -1945 
   -1922    -1925    -1912    -1848    -1761    -1691    -1603    -1494 
   -1414    -1372    -1332    -1294    -1250    -1192    -1148    -1166 
   -1279    -1466    -1638    -1740    -1788    -1831    -1910    -2035 
   -2158    -2188    -2085    -1900    -1715    -1586    -1532    -1540 
   -1582    -1642    -1721    -1767    -1750    -1750    -1826    -1919 
   -1979    -1993    -1953    -1871    -1803    -1813    -1917    -2065 
   -2177    -2228    -2249    -2247    -2246    -2289    -2319    -2246 
   -2089    -1933    -1833    -1803    -1823    -1844    -1804    -1706 
   -1610    -1552    -1541    -1587    -1679    -1788    -1885    -1949 
   -1972    -1933    -1837    -1734    -1634    -1552    -1556    -1638 
   -1715    -1763    -1794    -1811    -1834    -1872    -1903    -1884 
   -1804    -1723    -1686    -1688    -1734    -1790    -1803    -1761 
   -1687    -1618    -1568    -1526    -1510    -1530    -1580    -1653 
   -1732    -1802    -1875    -1929    -1941    -1938    -1945    -1921 
   -1844    -1728    -1588    -1490    -1483    -1552    -1707    -1937 
   -2107    -2131    -2073    -2030    -2006    -1960    -1895    -1829 
   -1765    -1736    -1769    -1868    -1985    -2037    -2045    -2112 
   -2215    -2251    -2192    -2096    -2015    -1931    -1850    -1823 
   -1831    -1792    -1701    -1615    -1567    -1541    -1520    -1502 
   -1498    -1509    -1556    -1653    -1755    -1790    -1749    -1682 
   -1598    -1505    -1462    -1512    -1647    -1815    -1945    -2004 
   -2014    -2004    -1996    -1996    -1977    -1896    -1760    -1622 
   -1524    -1499    -1580    -1715    -1815    -1895    -1988    -2068 
   -2134    -2209    -2246    -2209    -2131    -2012    -1869    -1769 
   -1707    -1632    -1583    -1626    -1709    -1732    -1707    -1684 
   -1657    -1647    -1686    -1749    -1827    -1857    -1772    -1695 
   -1750    -1849    -1880    -1860    -1823    -1787    -1761    -1759 
   -1787    -1846    -1910    -1931    -1929    -1945    -1915    -1787 
   -1671    -1663    -1709    -1723    -1737    -1826    -1962    -2049 
   -2060    -2034    -2000    -1926    -1788    -1707    -1745    -1760 
   -1695    -1676    -1726    -1741    -1717    -1717    -1729    -1722 
   -1709    -1723    -1827    -2002    -2092    -2033    -1934    -1873 
   -1822    -1753    -1686    -1610    -1526    -1498    -1552    -1642 
   -1759    -1884    -1984    -2092    -2207    -2223    -2099    -1926 
   -1796    -1680    -1564    -1507    -1509    -1553    -1669    -1849 
   -2039    -2172    -2177    -2064    -1935    -1884    -1903    -1918 
   -1869    -1728    -1539    -1413    -1382    -1402    -1467    -1567 
   -1672    -1796    -1926    -1993    -1993    -1964    -1937    -1961 
   -2025    -2030    -1956    -1896    -1898    -1922    -1946    -1945 
   -1880    -1787    -1759    -1803    -1877    -1938    -1939    -1872 
   -1784    -1701    -1620    -1533    -1456    -1422    -1458    -1561 
   -1710    -1837    -1902    -1937    -1984    -2038    -2050    -2004 
   -1914    -1779    -1637    -1576    -1613    -1680    -1722    -1737 
   -1760    -1817    -1904    -1995    -2046    -2019    -1917    -1796 
   -1719    -1696    -1709    -1736    -1750    -1738    -1728    -1737 
   -1767    -1819    -1864    -1865    -1819    -1723    -1630    -1620 
   -1656    -1682    -1706    -1726    -1753    -1791    -1814    -1810 
   -1779    -1748    -1777    -1868    -1956    -2023    -2092    -2162 
   -2209    -2230    -2219    -2141    -1993    -1850    -1750    -1710 
   -1729    -1764    -1807    -1873    -1911    -1894    -1834    -1741 
   -1665    -1641    -1630    -1632    -1665    -1694    -1702    -1729 
   -1773    -1788    -1779    -1773    -1753    -1702    -1663    -1683 
   -1741    -1790    -1827    -1856    -1890    -1956    -2020    -2026 
   -1975    -1907    -1840    -1765    -1682    -1598    -1522    -1482 
   -1491    -1537    -1625    -1737    -1826    -1879    -1903    -1903 
   -1904    -1899    -1852    -1776    -1714    -1675    -1675    -1738 
   -1831    -1887    -1891    -1864    -1822    -1788    -1760    -1749 
   -1799    -1888    -1944    -1958    -1964    -1957    -1950    -1987 
   -2045    -2074    -2072    -2057    -2045    -2043    -2050    -2064 
   -2065    -2025    -1946    -1854    -1790    -1755    -1688    -1580 
   -1499    -1491    -1537    -1606    -1665    -1691    -1687    -1659 
   -1614    -1575    -1545    -1501    -1456    -1466    -1530    -1624 
   -1730    -1788    -1749    -1660    -1597    -1595    -1659    -1746 
   -1817    -1875    -1941    -2003    -2047    -2080    -2110    -2112 
   -2080    -2050    -2033    -1996    -1945    -1895    -1872    -1907 
   -1981    -2072    -2151    -2161    -2106    -2030    -1934    -1826 
   -1741    -1682    -1641    -1621    -1630    -1665    -1698    -1729 
   -1769    -1791    -1799    -1807    -1788    -1756    -1732    -1705 
   -1707    -1752    -1796    -1815    -1798    -1715    -1586    -1436 
   -1309    -1255    -1296    -1422    -1575    -1694    -1776    -1821 
   -1833    -1822    -1782    -1726    -1713    -1772    -1869    -1971 
   -2069    -2153    -2212    -2254    -2259    -2216    -2157    -2115 
   -2092    -2076    -2054    -1998    -1933    -1898    -1872    -1850 
   -1845    -1841    -1817    -1773    -1753    -1772    -1773    -1740 
   -1726    -1726    -1723    -1753    -1776    -1730    -1668    -1625 
   -1568    -1556    -1642    -1761    -1830    -1829    -1772    -1730 
   -1750    -1771    -1732    -1686    -1678    -1705    -1791    -1908 
   -1953    -1914    -1849    -1782    -1757    -1811    -1873    -1883 
   -1871    -1848    -1796    -1773    -1815    -1861    -1852    -1804 
   -1772    -1782    -1810    -1818    -1787    -1746    -1749    -1817 
   -1904    -1931    -1861    -1740    -1633    -1567    -1541    -1552 
   -1584    -1613    -1657    -1756    -1888    -1979    -1980    -1927 
