Origin Time       2025/03/30 21:30:00
Lat.              38.535
Long.             142.295
Depth. (km)       44
Mag.              4.3
Station Code      FKSH19
Station Lat.      37.4703
Station Long.     140.7227
Station Height(m) 510
Record Time       2025/03/30 21:31:44
Sampling Freq(Hz) 100Hz
Duration Time(s)  120
Dir.              5
Scale Factor      7845(gal)/8223790
Max. Acc. (gal)   1.332
Last Correction   2025/03/30 21:31:44
Memo.             
   12699    12680    12627    12630    12683    12694    12708    12746 
   12660    12517    12509    12529    12476    12513    12629    12657 
   12645    12650    12609    12606    12698    12737    12699    12695 
   12683    12623    12609    12606    12556    12555    12568    12519 
   12529    12614    12668    12726    12757    12672    12634    12681 
   12615    12529    12564    12587    12592    12656    12644    12546 
   12540    12610    12667    12748    12795    12695    12583    12591 
   12613    12606    12649    12657    12569    12530    12614    12700 
   12688    12629    12564    12484    12510    12680    12761    12719 
   12669    12580    12529    12575    12599    12572    12544    12556 
   12619    12692    12738    12708    12565    12456    12503    12600 
   12695    12798    12833    12769    12661    12580    12556    12587 
   12634    12629    12610    12657    12714    12708    12630    12534 
   12530    12579    12586    12613    12636    12591    12621    12715 
   12653    12506    12515    12602    12618    12636    12699    12708 
   12669    12692    12707    12583    12479    12518    12576    12669 
   12781    12718    12568    12579    12663    12644    12549    12505 
   12584    12683    12669    12633    12617    12530    12487    12603 
   12735    12772    12698    12538    12484    12627    12746    12730 
   12694    12617    12537    12621    12758    12764    12692    12606 
   12518    12538    12656    12706    12667    12613    12534    12447 
   12459    12599    12721    12696    12634    12638    12621    12557 
   12537    12552    12569    12627    12688    12706    12696    12625 
   12559    12629    12712    12680    12637    12596    12561    12672 
   12820    12833    12806    12715    12469    12307    12343    12426 
   12575    12746    12775    12725    12725    12706    12641    12582 
   12517    12502    12602    12712    12710    12614    12533    12511 
   12534    12604    12698    12721    12644    12584    12618    12695 
   12766    12792    12691    12536    12480    12491    12513    12559 
   12579    12621    12737    12748    12626    12609    12696    12746 
   12799    12810    12654    12475    12401    12375    12445    12619 
   12672    12588    12563    12617    12718    12827    12829    12715 
   12571    12495    12550    12587    12521    12522    12599    12665 
   12764    12816    12717    12595    12573    12586    12611    12665 
   12684    12650    12606    12564    12563    12606    12592    12519 
   12529    12625    12687    12700    12675    12579    12545    12714 
   12854    12742    12567    12430    12313    12402    12658    12802 
   12831    12815    12673    12505    12499    12619    12733    12783 
   12735    12653    12637    12626    12565    12506    12449    12442 
   12541    12625    12641    12676    12707    12721    12744    12714 
   12654    12591    12510    12544    12690    12723    12668    12613 
   12487    12415    12544    12690    12733    12717    12618    12559 
   12712    12834    12675    12486    12496    12573    12618    12675 
   12683    12638    12654    12684    12629    12556    12510    12440 
   12403    12522    12731    12872    12870    12757    12622    12556 
   12583    12658    12664    12536    12411    12472    12644    12761 
   12795    12704    12567    12556    12621    12657    12729    12806 
   12748    12607    12510    12409    12386    12556    12664    12591 
   12587    12661    12667    12696    12762    12739    12691    12691 
   12603    12438    12441    12555    12528    12487    12564    12626 
   12711    12870    12903    12789    12737    12704    12567    12440 
   12378    12359    12469    12654    12793    12877    12769    12536 
   12523    12631    12615    12631    12698    12685    12661    12623 
   12571    12603    12619    12505    12402    12480    12702    12854 
   12820    12714    12631    12579    12598    12649    12629    12577 
   12560    12522    12523    12646    12750    12699    12575    12499 
   12480    12507    12614    12702    12669    12692    12788    12690 
   12526    12604    12706    12668    12717    12745    12568    12467 
   12521    12501    12534    12742    12874    12831    12744    12653 
   12583    12571    12594    12595    12510    12374    12357    12469 
   12583    12672    12702    12717    12860    12920    12727    12622 
   12681    12553    12345    12359    12471    12584    12714    12744 
   12744    12831    12811    12656    12614    12644    12607    12565 
   12533    12545    12629    12664    12629    12563    12461    12442 
   12544    12679    12799    12799    12719    12696    12644    12515 
   12467    12522    12565    12598    12685    12757    12735    12642 
   12540    12563    12702    12757    12694    12630    12559    12532 
   12664    12779    12672    12490    12393    12411    12615    12820 
   12733    12563    12614    12675    12600    12622    12726    12667 
   12518    12475    12521    12622    12752    12745    12606    12571 
   12648    12669    12679    12729    12685    12555    12548    12717 
   12812    12681    12482    12452    12525    12522    12607    12753 
   12664    12564    12668    12723    12663    12596    12559    12576 
   12582    12568    12615    12629    12553    12518    12559    12634 
   12718    12727    12710    12746    12680    12472    12411    12559 
   12677    12754    12860    12842    12692    12602    12631    12673 
   12602    12479    12421    12426    12530    12663    12688    12712 
   12760    12700    12630    12602    12513    12433    12464    12579 
   12761    12889    12815    12636    12467    12357    12434    12592 
   12657    12761    12884    12829    12744    12738    12583    12364 
   12410    12610    12704    12706    12648    12544    12515    12586 
   12657    12696    12730    12737    12653    12565    12580    12575 
   12480    12501    12650    12710    12727    12796    12711    12502 
   12480    12619    12691    12695    12618    12436    12368    12492 
   12600    12667    12764    12798    12746    12742    12834    12860 
   12690    12492    12403    12355    12452    12673    12704    12565 
   12509    12560    12656    12771    12885    12876    12704    12582 
   12537    12452    12407    12441    12507    12607    12637    12579 
   12658    12874    12884    12706    12658    12650    12542    12541 
   12630    12625    12615    12613    12548    12548    12583    12546 
   12569    12654    12649    12610    12637    12695    12735    12753 
   12717    12580    12442    12499    12676    12775    12798    12765 
   12636    12537    12595    12648    12577    12518    12503    12496 
   12586    12695    12673    12600    12588    12606    12637    12640 
   12533    12441    12553    12725    12758    12758    12750    12607 
   12507    12598    12658    12692    12833    12857    12753    12723 
   12646    12534    12573    12598    12498    12482    12591    12664 
   12676    12707    12710    12559    12340    12267    12326    12414 
   12565    12721    12704    12627    12714    12835    12830    12756 
   12668    12621    12653    12715    12754    12753    12676    12537 
   12442    12464    12544    12594    12631    12695    12718    12707 
   12746    12733    12588    12513    12580    12598    12498    12386 
   12374    12532    12733    12798    12730    12595    12530    12665 
   12793    12741    12688    12699    12591    12407    12421    12606 
   12685    12671    12729    12742    12656    12679    12800    12804 
   12721    12650    12534    12455    12538    12615    12610    12654 
   12664    12561    12560    12625    12532    12428    12509    12660 
   12753    12806    12776    12569    12379    12440    12544    12541 
   12563    12587    12636    12752    12820    12845    12815    12671 
   12595    12636    12594    12522    12548    12619    12744    12877 
   12849    12681    12515    12349    12247    12391    12642    12739 
   12752    12733    12641    12556    12501    12499    12594    12669 
   12687    12729    12771    12775    12727    12614    12522    12514 
   12536    12550    12587    12646    12669    12675    12690    12673 
   12675    12723    12691    12586    12559    12575    12564    12573 
   12550    12494    12526    12587    12591    12569    12526    12599 
   12816    12870    12723    12661    12694    12665    12633    12669 
   12667    12567    12459    12433    12537    12742    12862    12744 
   12542    12478    12498    12545    12672    12822    12849    12738 
   12592    12523    12615    12702    12611    12519    12538    12559 
   12534    12537    12607    12631    12579    12577    12595    12600 
   12710    12823    12796    12730    12633    12479    12501    12679 
   12688    12548    12456    12432    12464    12534    12646    12837 
   12976    12961    12831    12672    12633    12696    12652    12549 
   12529    12461    12324    12353    12521    12579    12619    12744 
   12712    12583    12663    12835    12837    12738    12656    12523 
   12449    12569    12633    12496    12421    12468    12517    12648 
   12853    12933    12893    12897    12858    12675    12519    12406 
   12262    12297    12459    12495    12561    12723    12776    12737 
   12640    12538    12645    12766    12596    12461    12587    12649 
   12634    12762    12897    12912    12810    12541    12312    12379 
   12555    12637    12761    12910    12888    12762    12633    12471 
   12405    12430    12428    12537    12661    12604    12609    12648 
   12496    12425    12541    12583    12645    12818    12787    12591 
   12595    12598    12421    12451    12680    12789    12868    12962 
   12893    12733    12700    12711    12622    12590    12591    12442 
   12334    12415    12487    12509    12637    12787    12819    12766 
   12669    12575    12563    12537    12480    12526    12495    12337 
   12422    12677    12838    12992    12995    12773    12703    12753 
   12622    12475    12496    12498    12486    12626    12706    12590 
   12509    12507    12586    12806    12922    12793    12633    12545 
   12491    12410    12345    12448    12591    12606    12677    12820 
   12807    12714    12675    12613    12573    12591    12609    12691 
   12798    12758    12640    12611    12685    12719    12576    12379 
   12384    12505    12544    12610    12656    12582    12560    12604 
   12649    12785    12903    12829    12707    12688    12563    12283 
   12299    12621    12745    12658    12609    12540    12448    12525 
   12789    12934    12877    12823    12717    12560    12588    12657 
   12523    12364    12344    12472    12723    12843    12752    12687 
   12613    12502    12590    12699    12587    12538    12683    12757 
   12737    12723    12580    12333    12297    12448    12586    12789 
   12961    12873    12690    12613    12599    12561    12556    12652 
   12652    12542    12588    12618    12486    12499    12630    12657 
   12699    12756    12698    12700    12838    12830    12619    12463 
   12375    12225    12183    12406    12648    12738    12800    12831 
   12784    12795    12861    12793    12673    12717    12744    12637 
   12607    12541    12322    12287    12503    12711    12852    12862 
   12685    12486    12378    12356    12445    12577    12645    12650 
   12637    12644    12669    12609    12503    12525    12595    12658 
   12846    12949    12748    12556    12600    12718    12757    12730 
   12712    12675    12596    12576    12595    12617    12712    12712 
   12514    12430    12430    12298    12310    12542    12715    12830 
   12880    12768    12652    12661    12729    12838    12918    12808 
   12576    12386    12256    12259    12357    12407    12567    12873 
   13062    13045    12850    12645    12648    12764    12798    12677 
   12447    12258    12247    12472    12788    12881    12715    12544 
   12501    12546    12600    12568    12475    12513    12645    12715 
   12808    12814    12559    12383    12451    12498    12567    12641 
   12441    12291    12614    13016    13107    13007    12758    12437 
   12360    12642    13077    13335    13107    12472    11969    11955 
   12194    12421    12580    12469    12193    12267    12823    13482 
   13806    13576    12968    12403    12108    11943    11866    11993 
   12154    12191    12445    12997    13259    13082    12897    12834 
   12914    13135    13231    13003    12513    12028    11745    11622 
   11739    12160    12648    13049    13270    13192    12955    12685 
   12480    12575    12772    12706    12552    12483    12453    12650 
   12941    12899    12714    12665    12663    12780    13086    13379 
   13381    12830    11959    11484    11651    12074    12329    12329 
   12345    12498    12529    12390    12388    12586    12742    12846 
   13032    13143    13009    12758    12610    12744    13123    13437 
   13435    13090    12518    11969    11835    12183    12615    13030 
   13517    13678    13325    12806    12247    11722    11480    11512 
   11735    12171    12606    12795    12727    12471    12216    12114 
   12085    12120    12268    12507    12910    13478    13944    14021 
   13601    12893    12459    12517    12702    12829    12826    12564 
   12332    12440    12731    12895    12777    12568    12510    12588 
   12692    12742    12718    12530    12179    11974    11901    11681 
   11539    11755    12168    12626    13030    13265    13329    13286 
   13140    12860    12549    12384    12424    12573    12653    12738 
   13030    13336    13446    13452    13348    13153    13007    12874 
   12615    12264    11989    11763    11508    11504    11878    12266 
   12532    12756    12792    12648    12475    12258    12116    12248 
   12561    12937    13327    13502    13386    13220    13068    12787 
   12503    12399    12321    12222    12384    12746    12919    12945 
   13041    12997    12735    12536    12364    12131    12114    12406 
   12788    13007    12849    12421    12051    11869    11848    12062 
   12559    13074    13275    13174    13023    12937    12869    12976 
   13293    13263    12633    11932    11538    11533    12002    12571 
   12889    13207    13470    13377    13154    12846    12247    11742 
   11767    12178    12664    12943    12879    12731    12637    12457 
   12418    12680    12830    12696    12594    12594    12664    12826 
   12849    12661    12594    12654    12607    12648    12835    12739 
   12372    12187    12216    12353    12695    12935    12753    12546 
   12646    12877    13128    13217    12941    12556    12289    12039 
   11826    11677    11678    12120    12937    13687    14014    13729 
   13099    12692    12563    12451    12316    12158    12128    12382 
   12757    13031    13005    12622    12147    11866    11902    12280 
   12846    13339    13495    13158    12606    12422    12752    13090 
   12989    12600    12263    12046    11925    11919    12073    12444 
   12883    13162    13248    13095    12706    12403    12393    12536 
   12664    12626    12482    12490    12509    12339    12235    12325 
   12467    12646    12942    13285    13409    13296    13149    12877 
   12523    12432    12569    12727    12930    13127    13111    12738 
   12117    11704    11786    12116    12305    12202    12017    12102 
   12472    12916    13200    13062    12625    12225    12063    12343 
   12853    13153    13285    13328    13194    13062    13093    13080 
   12769    12240    11759    11573    11838    12432    12943    13000 
   12640    12286    12303    12668    13058    13236    13159    12837 
   12575    12707    12939    12889    12652    12312    12039    12160 
   12503    12649    12586    12528    12532    12491    12405    12332 
   12214    12152    12383    12757    13036    13373    13740    13730 
   13288    12715    12183    11832    11823    12035    12322    12746 
   13159    13298    13246    13115    12857    12525    12210    12009 
   12039    12248    12464    12560    12457    12224    12079    12217 
   12599    12897    12935    12891    12835    12730    12695    12791 
   12862    12771    12553    12339    12264    12414    12683    12935 
   13190    13443    13563    13495    13281    12873    12233    11607 
   11394    11695    12249    12714    12788    12494    12256    12272 
   12413    12679    12970    13041    12916    12849    13045    13304 
   13186    12741    12260    11959    12140    12584    12723    12563 
   12283    11909    11808    12279    12861    13016    12900    12807 
   12696    12580    12604    12710    12766    12891    13076    13036 
   12853    12792    12668    12448    12495    12731    12792    12820 
   12968    12860    12501    12337    12264    12066    12069    12313 
   12467    12575    12780    12888    12808    12702    12587    12442 
   12378    12428    12602    12874    13007    12910    12730    12472 
   12217    12129    12170    12363    12753    13144    13379    13428 
   13217    12860    12595    12421    12237    12159    12309    12583 
   12808    12927    12895    12625    12264    12152    12329    12495 
   12459    12374    12464    12700    13019    13286    13180    12826 
   12584    12356    12182    12299    12422    12357    12380    12495 
   12569    12690    12833    12915    12858    12653    12564    12673 
   12779    12764    12629    12594    12789    12920    12869    12791 
   12625    12420    12343    12324    12440    12671    12638    12534 
   12717    12812    12698    12650    12550    12391    12397    12519 
   12748    13030    13078    12830    12496    12266    12241    12357 
   12453    12455    12386    12313    12409    12788    13176    13267 
   13155    13007    12877    12814    12749    12560    12297    12202 
   12393    12681    12838    12764    12495    12309    12440    12671 
   12650    12418    12248    12260    12353    12444    12538    12529 
   12371    12320    12518    12816    13159    13454    13417    13132 
   12972    12950    12885    12793    12658    12360    12086    12140 
   12410    12660    12834    12811    12559    12291    12171    12210 
   12417    12687    12796    12773    12792    12789    12667    12507 
   12341    12199    12252    12517    12734    12812    12901    12964 
   12964    12976    12895    12775    12712    12598    12604    12762 
   12739    12553    12313    12075    12087    12282    12375    12403 
   12448    12513    12676    12922    13095    13063    12868    12788 
   12914    12941    12737    12483    12278    12166    12253    12482 
   12699    12919    13049    12945    12810    12761    12595    12349 
   12333    12532    12626    12549    12388    12096    11969    12313 
   12708    12893    13066    13093    12978    12919    12719    12399 
   12276    12387    12622    12870    12996    12941    12785    12685 
   12630    12538    12451    12401    12455    12644    12787    12784 
   12727    12648    12571    12568    12609    12590    12514    12433 
   12364    12380    12421    12336    12255    12316    12456    12695 
   13003    13147    13034    12862    12757    12691    12677    12661 
