Origin Time       2025/03/30 21:30:00
Lat.              38.535
Long.             142.295
Depth. (km)       44
Mag.              4.3
Station Code      FKSH14
Station Lat.      37.0264
Station Long.     140.9702
Station Height(m) -144
Record Time       2025/03/30 21:31:46
Sampling Freq(Hz) 100Hz
Duration Time(s)  120
Dir.              1
Scale Factor      2942(gal)/8224139
Max. Acc. (gal)   0.182
Last Correction   2025/03/30 21:31:47
Memo.             
[...]
   16926    16927    16930    16942    16956    16968    16960    16937 
   16926    16930    16931    16933    16938    16941    16931    16922 
   16923    16933    16941    16946    16943    16934    16934    16939 
   16934    16931    16941    16942    16933    16935    16949    16950 
   16937    16927    16933    16939    16935    16933    16943    16956 
   16956    16949    16949    16953    16942    16915    16900    16907 
   16923    16931    16929    16931    16941    16941    16941    16942 
   16934    16927    16933    16943    16942    16934    16929    16924 
   16918    16912    16923    16937    16935    16937    16945    16942 
   16935    16939    16943    16943    16937    16933    16930    16922 
   16923    16942    16956    16946    16929    16927    16941    16942 
   16929    16922    16931    16942    16942    16934    16935    16946 
   16958    16950    16920    16891    16892    16919    16935    16929 
   16926    16933    16938    16937    16934    16933    16933    16930 
   16931    16942    16946    16938    16939    16943    16933    16931 
   16943    16942    16926    16908    16902    16912    16929    16924 
   16918    16927    16938    16950    16970    16970    16945    16933 
   16934    16929    16918    16910    16907    16907    16907    16912 
   16926    16946    16958    16957    16954    16954    16942    16918 
   16904    16912    16919    16918    16926    16938    16939    16939 
   16939    16938    16927    16906    16891    16907    16935    16950 
   16951    16943    16935    16923    16920    16935    16946    16937 
   16935    16947    16957    16950    16933    16920    16902    16887 
   16899    16923    16934    16935    16934    16939    16954    16961 
   16954    16947    16943    16927    16906    16888    16889    16903 
   16922    16941    16951    16954    16957    16953    16947    16941 
   16929    16924    16931    16937    16938    16933    16939    16947 
   16939    16927    16924    16926    16931    16937    16938    16949 
   16954    16949    16951    16957    16951    16941    16920    16899 
   16906    16937    16958    16958    16946    16938    16942    16946 
   16935    16931    16934    16927    16926    16934    16931    16930 
   16941    16946    16939    16935    16938    16945    16949    16946 
   16949    16951    16933    16912    16912    16922    16941    16958 
   16956    16950    16950    16945    16946    16960    16949    16910 
   16895    16916    16946    16958    16951    16930    16926    16947 
   16964    16964    16960    16953    16941    16935    16937    16935 
   16929    16914    16906    16924    16946    16950    16954    16960 
   16962    16961    16953    16951    16957    16956    16943    16927 
   16915    16906    16914    16942    16961    16954    16949    16953 
   16965    16961    16924    16896    16903    16916    16926    16937 
   16949    16960    16949    16927    16938    16961    16956    16941 
   16942    16954    16958    16943    16927    16927    16927    16918 
   16911    16923    16938    16945    16958    16974    16972    16953 
   16937    16937    16939    16922    16903    16915    16923    16912 
   16918    16941    16954    16960    16960    16950    16947    16951 
   16939    16915    16904    16906    16910    16922    16943    16957 
   16947    16926    16919    16942    16957    16938    16914    16915 
   16930    16949    16961    16950    16926    16914    16911    16922 
   16942    16953    16942    16926    16935    16957    16961    16956 
   16938    16916    16914    16920    16924    16929    16918    16903 
   16912    16933    16939    16934    16939    16956    16947    16922 
   16915    16923    16919    16911    16910    16904    16907    16927 
   16951    16969    16966    16943    16927    16920    16919    16931 
   16943    16939    16935    16939    16941    16939    16942    16946 
   16931    16916    16924    16938    16945    16957    16969    16976 
   16970    16946    16919    16908    16914    16923    16927    16912 
   16899    16910    16938    16960    16956    16934    16930    16942 
   16951    16949    16939    16920    16902    16903    16924    16939 
   16947    16953    16935    16907    16888    16881    16893    16926 
   16954    16968    16962    16947    16942    16934    16914    16904 
   16908    16908    16908    16914    16926    16938    16943    16934 
   16927    16942    16962    16965    16950    16922    16904    16910 
   16923    16934    16941    16947    16960    16962    16949    16930 
   16915    16912    16918    16929    16951    16969    16968    16976 
   16983    16961    16934    16924    16910    16895    16904    16926 
   16935    16926    16910    16914    16927    16930    16926    16923 
   16926    16937    16946    16943    16924    16907    16907    16916 
   16930    16933    16929    16938    16954    16965    16973    16958 
   16934    16945    16962    16953    16945    16935    16924    16935 
   16943    16930    16924    16926    16931    16943    16954    16953 
   16946    16941    16931    16930    16946    16951    16947    16949 
   16943    16927    16920    16923    16924    16927    16933    16941 
   16945    16943    16945    16950    16945    16920    16903    16918 
   16941    16949    16960    16965    16945    16924    16919    16915 
   16919    16931    16943    16962    16977    16974    16970    16977 
   16983    16976    16960    16941    16918    16906    16906    16910 
   16924    16945    16953    16951    16954    16951    16942    16937 
   16938    16941    16939    16930    16929    16941    16935    16914 
   16904    16912    16930    16949    16961    16954    16934    16929 
   16939    16951    16960    16957    16945    16938    16946    16956 
   16942    16915    16907    16920    16943    16960    16958    16946 
   16933    16934    16947    16950    16945    16941    16938    16937 
   16930    16924    16926    16922    16919    16934    16953    16951 
   16939    16935    16939    16945    16943    16937    16938    16949 
   16953    16941    16927    16929    16938    16931    16916    16911 
   16908    16916    16935    16947    16960    16974    16972    16947 
   16923    16915    16912    16910    16908    16916    16931    16943 
   16951    16957    16951    16950    16957    16946    16929    16923 
   16918    16914    16915    16920    16935    16947    16956    16968 
   16969    16950    16930    16922    16919    16924    16937    16941 
   16931    16923    16920    16916    16919    16924    16929    16946 
   16969    16973    16968    16968    16964    16949    16929    16912 
   16904    16904    16915    16934    16943    16939    16938    16938 
   16930    16916    16904    16907    16927    16939    16935    16930 
   16934    16942    16941    16930    16919    16918    16926    16931 
   16934    16935    16931    16924    16915    16899    16883    16889 
   16919    16946    16961    16972    16977    16962    16926    16903 
   16910    16920    16930    16950    16951    16923    16916    16941 
   16951    16935    16927    16939    16957    16970    16972    16956 
   16937    16927    16926    16938    16949    16941    16920    16910 
   16911    16908    16906    16915    16923    16933    16942    16949 
   16956    16953    16941    16933    16937    16950    16949    16927 
   16907    16903    16907    16915    16922    16929    16934    16933 
   16927    16926    16924    16931    16949    16956    16950    16950 
   16957    16958    16946    16929    16923    16933    16941    16950 
   16960    16951    16931    16938    16957    16947    16933    16937 
   16945    16951    16954    16941    16924    16911    16904    16908 
   16916    16920    16926    16931    16926    16922    16922    16922 
   16931    16946    16946    16934    16924    16924    16930    16934 
   16941    16953    16957    16937    16919    16926    16929    16922 
   16931    16945    16935    16931    16945    16943    16930    16931 
   16938    16938    16947    16949    16931    16935    16962    16961 
   16937    16919    16924    16938    16942    16947    16951    16941 
   16930    16920    16912    16911    16916    16929    16935    16937 
   16943    16951    16949    16949    16953    16941    16919    16900 
   16887    16904    16930    16935    16946    16961    16949    16947 
   16977    16992    16973    16954    16942    16930    16920    16922 
   16924    16934    16942    16927    16920    16931    16933    16945 
   16973    16983    16969    16945    16933    16941    16945    16938 
   16923    16903    16893    16915    16954    16968    16946    16920 
   16911    16927    16949    16947    16934    16933    16926    16914 
   16915    16911    16896    16889    16895    16915    16939    16954 
   16964    16966    16961    16951    16935    16919    16912    16920 
   16945    16964    16962    16949    16934    16941    16960    16946 
   16915    16914    16924    16923    16924    16943    16970    16976 
   16965    16960    16949    16927    16907    16897    16908    16931 
   16947    16946    16942    16943    16937    16931    16918    16906 
   16938    16981    16987    16972    16950    16927    16911    16903 
   16891    16876    16879    16902    16933    16968    16984    16972 
   16951    16934    16934    16949    16954    16953    16953    16938 
   16911    16904    16908    16903    16912    16943    16966    16976 
   16984    16976    16954    16950    16954    16946    16946    16942 
   16912    16889    16887    16888    16904    16939    16957    16954 
   16962    16984    16991    16968    16938    16911    16899    16922 
   16938    16922    16919    16924    16914    16912    16918    16914 
   16915    16920    16923    16943    16969    16966    16938    16915 
   16920    16930    16904    16885    16907    16931    16933    16934 
   16939    16933    16918    16915    16930    16951    16956    16945 
   16954    16974    16962    16931    16910    16908    16926    16947 
   16961    16968    16958    16934    16943    16978    16978    16941 
   16916    16915    16919    16923    16930    16939    16943    16939 
   16937    16946    16954    16933    16900    16897    16911    16916 
   16929    16935    16926    16923    16926    16924    16937    16953 
   16949    16937    16922    16910    16915    16933    16933    16922 
   16919    16916    16919    16935    16949    16958    16964    16960 
   16966    16977    16976    16974    16958    16916    16883    16888 
   16926    16956    16958    16953    16954    16960    16957    16935 
   16911    16904    16926    16956    16961    16949    16941    16929 
   16920    16923    16919    16914    16914    16920    16934    16937 
   16930    16937    16942    16926    16916    16927    16938    16935 
   16930    16929    16930    16927    16922    16918    16911    16903 
   16902    16920    16943    16949    16939    16930    16927    16929 
   16947    16978    16984    16968    16956    16930    16900    16915 
   16946    16946    16935    16939    16950    16972    16989    16981 
   16947    16914    16915    16938    16941    16935    16947    16958 
   16951    16935    16915    16892    16888    16897    16908    16933 
   16949    16945    16946    16956    16957    16950    16930    16914 
   16919    16923    16916    16914    16924    16931    16935    16953 
   16968    16968    16957    16942    16935    16937    16939    16946 
   16951    16949    16946    16943    16937    16933    16930    16920 
   16918    16926    16935    16951    16969    16974    16960    16934 
   16923    16927    16918    16897    16900    16923    16949    16964 
   16969    16976    16970    16937    16907    16903    16914    16920 
   16929    16953    16968    16953    16938    16931    16920    16912 
   16920    16945    16960    16942    16920    16908    16891    16877 
   16884    16916    16950    16972    16992    17001    16976    16942 
   16926    16908    16889    16889    16908    16929    16939    16943 
   16947    16962    16984    16987    16966    16956    16947    16930 
   16923    16927    16923    16906    16883    16872    16893    16933 
   16947    16941    16947    16958    16953    16960    16983    16981 
   16945    16904    16889    16899    16911    16914    16915    16923 
   16916    16893    16910    16953    16974    16989    17010    16992 
   16953    16939    16923    16893    16889    16893    16877    16868 
   16889    16927    16945    16947    16947    16935    16924    16923 
   16915    16916    16926    16904    16861    16853    16872    16881 
   16889    16903    16916    16945    16987    17019    17039    17039 
   17011    16973    16962    16980    17007    17032    17043    17042 
   17046    17053    17070    17095    17108    17103    17064    17023 
   17024    17045    17043    17022    16989    16958    16934    16910 
   16891    16888    16887    16872    16849    16822    16802    16807 
   16803    16772    16760    16776    16784    16771    16754    16757 
   16757    16721    16688    16698    16729    16776    16837    16883 
   16902    16895    16891    16911    16946    16966    16974    16985 
   17004    17039    17086    17130    17177    17240    17296    17325 
   17346    17343    17297    17239    17199    17176    17159    17128 
   17069    17001    16939    16879    16827    16814    16835    16853 
   16857    16846    16787    16676    16563    16483    16440    16426 
   16451    16514    16602    16694    16762    16804    16835    16861 
   16889    16931    16961    16961    16961    16980    16991    16985 
   16985    17010    17049    17093    17142    17189    17207    17176 
   17116    17066    17023    16978    16938    16916    16939    17007 
   17076    17111    17115    17097    17085    17101    17112    17082 
   17046    17024    16987    16938    16914    16903    16869    16808 
   16719    16640    16626    16659    16687    16691    16681    16688 
   16731    16789    16845    16891    16924    16956    16987    17027 
   17073    17103    17123    17146    17150    17128    17101    17062 
   17014    16980    16956    16935    16935    16950    16958    16946 
   16930    16915    16910    16918    16922    16904    16879    16857 
   16845    16854    16892    16938    16964    16984    17028    17076 
   17097    17084    17031    16977    16958    16965    16985    17000 
   16980    16923    16866    16831    16814    16795    16776    16788 
   16826    16854    16884    16919    16929    16900    16879    16903 
   16965    17023    17026    16991    16981    16997    17020    17043 
   17041    17015    16996    16983    16969    16946    16892    16826 
   16777    16764    16792    16846    16895    16939    16983    16997 
   16984    16968    16961    16970    16989    16977    16938    16920 
   16942    16978    17004    17007    16996    16985    16962    16945 
   16949    16960    16956    16951    16954    16935    16897    16887 
   16897    16879    16852    16866    16888    16879    16853    16834 
   16835    16856    16889    16946    17005    17026    17020    17022 
   17012    16972    16922    16900    16902    16902    16887    16846 
   16814    16819    16841    16862    16883    16892    16931    17014 
   17068    17054    17011    16965    16919    16876    16856    16872 
   16910    16945    16983    17008    16997    16977    16987    17012 
   17018    17016    17032    17049    17043    17024    17003    16980 
   16947    16914    16900    16910    16926    16941    16934    16914 
   16908    16920    16935    16961    16985    16977    16947    16920 
   16906    16899    16879    16839    16815    16816    16822    16829 
   16856    16899    16924    16929    16953    16988    17012    17037 
   17050    17031    16992    16960    16958    16981    16989    16964 
   16937    16938    16950    16951    16960    16970    16956    16908 
   16852    16842    16877    16907    16929    16960    16977    16969 
   16945    16919    16902    16892    16895    16904    16900    16893 
   16920    16961    16992    17042    17116    17169    17165    17100 
   17000    16908    16860    16852    16856    16866    16879    16862 
   16843    16853    16868    16865    16849    16839    16841    16845 
   16857    16868    16861    16850    16838    16808    16787    16810 
   16865    16892    16876    16861    16860    16865    16881    16904 
   16934    16943    16916    16897    16897    16897    16902    16900 
   16895    16915    16961    17004    17045    17093    17154    17224 
   17269    17258    17224    17190    17136    17072    17032    17012 
   16980    16951    16966    17010    17042    17055    17047    17023 
   17003    16976    16923    16857    16794    16752    16738    16749 
   16781    16814    16819    16819    16848    16891    16922    16926 
   16892    16843    16842    16879    16911    16956    17003    17007 
   16988    16985    17005    17010    16950    16842    16764    16750 
   16775    16830    16918    16977    16978    16962    16966    16978 
   16981    16987    17010    17030    17022    16987    16938    16895 
   16858    16831    16848    16896    16943    16988    17035    17077 
   17099    17095    17062    17010    16953    16906    16883    16875 
   16846    16825    16846    16873    16885    16916    16976    17043 
   17088    17091    17062    17010    16947    16900    16865    16839 
   16823    16812    16810    16814    16830    16872    16896    16873 
   16852    16866    16879    16866    16866    16884    16895    16893 
   16883    16869    16854    16830    16806    16804    16800    16792 
   16830    16915    16973    16977    16970    16977    16984    17007 
   17055    17088    17084    17055    17004    16961    16953    16954 
   16947    16946    16956    16999    17084    17166    17200    17181 
   17135    17080    17028    17003    16991    16966    16941    16931 
   16935    16954    16974    16964    16931    16923    16924    16907 
   16887    16864    16814    16765    16760    16779    16795    16827 
   16873    16907    16915    16899    16875    16864    16888    16939 
   16972    16973    16978    16985    16973    16949    16918    16902 
   16919    16938    16956    16989    17035    17066    17057    17008 
   16958    16933    16934    16954    16965    16965    16966    16960 
   16957    16978    17004    17005    16969    16933    16927    16935 
   16934    16924    16910    16883    16860    16860    16873    16869 
   16845    16821    16823    16843    16838    16795    16753    16750 
   16777    16815    16862    16907    16927    16946    16993    17046 
   17065    17068    17089    17115    17127    17126    17112    17077 
   17018    16970    16973    17007    17035    17042    17031    17019 
   17015    17019    17015    16991    16949    16906    16892    16924 
   16962    16970    16965    16957    16941    16911    16875    16850 
   16848    16862    16880    16891    16892    16884    16868    16846 
   16815    16783    16769    16791    16827    16846    16848    16845 
   16853    16883    16919    16943    16949    16945    16949    16960 
   16966    16969    16958    16929    16914    16906    16881    16881 
