Origin Time       2025/03/30 21:30:00
Lat.              38.535
Long.             142.295
Depth. (km)       44
Mag.              4.3
Station Code      FKSH14
Station Lat.      37.0264
Station Long.     140.9702
Station Height(m) 3
Record Time       2025/03/30 21:31:46
Sampling Freq(Hz) 100Hz
Duration Time(s)  120
Dir.              4
Scale Factor      7845(gal)/8223790
Max. Acc. (gal)   0.790
Last Correction   2025/03/30 21:31:47
Memo.             
[...]
  -14409   -14405   -14418   -14469   -14519   -14535   -14530   -14511 
  -14472   -14423   -14389   -14364   -14347   -14373   -14422   -14430 
  -14411   -14422   -14451   -14450   -14430   -14436   -14457   -14457 
  -14458   -14473   -14463   -14419   -14391   -14399   -14409   -14413 
  -14416   -14389   -14343   -14349   -14404   -14427   -14423   -14446 
  -14476   -14485   -14496   -14513   -14494   -14439   -14396   -14397 
  -14412   -14416   -14415   -14409   -14409   -14432   -14463   -14466 
  -14457   -14477   -14509   -14507   -14493   -14482   -14447   -14409 
  -14400   -14377   -14346   -14357   -14392   -14427   -14466   -14482 
  -14476   -14481   -14486   -14462   -14423   -14408   -14418   -14422 
  -14427   -14449   -14454   -14419   -14386   -14386   -14393   -14393 
  -14419   -14454   -14458   -14436   -14432   -14453   -14445   -14419 
  -14439   -14477   -14462   -14424   -14427   -14458   -14476   -14478 
  -14469   -14442   -14412   -14404   -14412   -14431   -14453   -14462 
  -14453   -14436   -14426   -14416   -14407   -14407   -14401   -14395 
  -14418   -14465   -14501   -14520   -14524   -14500   -14457   -14420 
  -14401   -14373   -14339   -14341   -14369   -14399   -14427   -14458 
  -14480   -14488   -14478   -14454   -14422   -14395   -14395   -14413 
  -14411   -14396   -14411   -14436   -14445   -14462   -14490   -14496 
  -14477   -14451   -14424   -14407   -14412   -14419   -14407   -14391 
  -14384   -14389   -14416   -14438   -14436   -14449   -14474   -14474 
  -14485   -14516   -14515   -14493   -14473   -14443   -14416   -14391 
  -14359   -14364   -14407   -14432   -14430   -14440   -14470   -14493 
  -14490   -14474   -14467   -14453   -14416   -14372   -14334   -14332 
  -14365   -14384   -14382   -14399   -14432   -14466   -14484   -14485 
  -14492   -14484   -14446   -14424   -14426   -14408   -14386   -14403 
  -14432   -14426   -14422   -14443   -14446   -14445   -14469   -14478 
  -14454   -14440   -14457   -14454   -14422   -14413   -14424   -14411 
  -14405   -14430   -14443   -14446   -14455   -14454   -14438   -14427 
  -14435   -14428   -14384   -14362   -14385   -14395   -14386   -14385 
  -14391   -14399   -14400   -14393   -14415   -14462   -14489   -14499 
  -14503   -14472   -14432   -14432   -14445   -14446   -14446   -14445 
  -14434   -14434   -14458   -14476   -14462   -14438   -14411   -14380 
  -14353   -14345   -14366   -14401   -14439   -14496   -14554   -14555 
  -14523   -14494   -14445   -14407   -14413   -14415   -14411   -14445 
  -14484   -14486   -14457   -14413   -14374   -14369   -14393   -14403 
  -14395   -14389   -14391   -14401   -14426   -14458   -14486   -14496 
  -14492   -14482   -14465   -14434   -14395   -14378   -14384   -14389 
  -14393   -14405   -14419   -14435   -14472   -14507   -14505   -14481 
  -14469   -14455   -14432   -14412   -14393   -14369   -14368   -14386 
  -14399   -14408   -14424   -14443   -14462   -14465   -14449   -14418 
  -14385   -14377   -14391   -14397   -14411   -14458   -14511   -14524 
  -14494   -14469   -14463   -14434   -14384   -14359   -14358   -14377 
  -14411   -14436   -14458   -14477   -14497   -14532   -14543   -14496 
  -14426   -14366   -14350   -14376   -14397   -14415   -14465   -14508 
  -14501   -14467   -14451   -14435   -14401   -14393   -14418   -14445 
  -14476   -14499   -14493   -14476   -14469   -14447   -14396   -14358 
  -14342   -14332   -14351   -14377   -14392   -14427   -14462   -14470 
  -14469   -14459   -14439   -14424   -14438   -14454   -14446   -14434 
  -14423   -14405   -14395   -14407   -14442   -14476   -14499   -14526 
  -14527   -14497   -14474   -14449   -14427   -14435   -14435   -14419 
  -14407   -14380   -14359   -14376   -14405   -14449   -14515   -14563 
  -14558   -14516   -14467   -14420   -14384   -14370   -14364   -14342 
  -14337   -14351   -14368   -14399   -14432   -14458   -14480   -14494 
  -14489   -14458   -14430   -14411   -14381   -14386   -14415   -14396 
  -14378   -14416   -14462   -14467   -14450   -14461   -14488   -14489 
  -14484   -14480   -14461   -14434   -14393   -14361   -14378   -14418 
  -14438   -14450   -14474   -14485   -14461   -14430   -14427   -14439 
  -14438   -14445   -14457   -14435   -14401   -14403   -14432   -14455 
  -14462   -14450   -14436   -14430   -14419   -14413   -14413   -14415 
  -14431   -14457   -14472   -14472   -14435   -14377   -14347   -14368 
  -14409   -14438   -14458   -14485   -14503   -14488   -14454   -14432 
  -14424   -14426   -14428   -14404   -14369   -14376   -14415   -14426 
  -14423   -14463   -14500   -14493   -14499   -14528   -14526   -14492 
  -14462   -14420   -14358   -14320   -14312   -14319   -14357   -14415 
  -14461   -14490   -14507   -14505   -14476   -14434   -14428   -14443 
  -14431   -14426   -14435   -14415   -14384   -14385   -14392   -14393 
  -14415   -14447   -14465   -14462   -14449   -14431   -14408   -14384 
  -14381   -14392   -14407   -14442   -14493   -14526   -14524   -14494 
  -14462   -14438   -14405   -14388   -14401   -14416   -14432   -14459 
  -14486   -14508   -14509   -14493   -14472   -14440   -14411   -14401 
  -14399   -14393   -14388   -14385   -14389   -14413   -14451   -14477 
  -14477   -14455   -14419   -14396   -14397   -14393   -14381   -14384 
  -14381   -14377   -14409   -14439   -14449   -14472   -14486   -14472 
  -14461   -14443   -14404   -14381   -14391   -14396   -14396   -14430 
  -14484   -14507   -14492   -14485   -14489   -14478   -14451   -14430 
  -14432   -14459   -14467   -14434   -14397   -14388   -14397   -14409 
  -14423   -14447   -14457   -14446   -14454   -14481   -14492   -14493 
  -14484   -14463   -14457   -14451   -14419   -14377   -14353   -14334 
  -14311   -14307   -14339   -14409   -14489   -14538   -14551   -14553 
  -14542   -14497   -14451   -14432   -14422   -14400   -14386   -14397 
  -14409   -14393   -14391   -14434   -14480   -14501   -14513   -14509 
  -14470   -14416   -14380   -14355   -14332   -14339   -14373   -14395 
  -14401   -14420   -14445   -14457   -14455   -14451   -14454   -14440 
  -14409   -14409   -14443   -14457   -14439   -14431   -14445   -14457 
  -14453   -14449   -14458   -14469   -14469   -14446   -14405   -14377 
  -14373   -14373   -14374   -14393   -14415   -14422   -14420   -14418 
  -14412   -14416   -14447   -14499   -14521   -14501   -14465   -14431 
  -14401   -14397   -14445   -14504   -14508   -14482   -14459   -14435 
  -14453   -14505   -14501   -14455   -14446   -14449   -14428   -14423 
  -14424   -14393   -14368   -14396   -14439   -14459   -14454   -14440 
  -14438   -14436   -14422   -14404   -14395   -14408   -14453   -14494 
  -14485   -14455   -14436   -14409   -14382   -14380   -14388   -14401 
  -14428   -14462   -14472   -14449   -14434   -14447   -14453   -14434 
  -14427   -14440   -14431   -14391   -14366   -14372   -14389   -14420 
  -14481   -14548   -14571   -14542   -14496   -14445   -14391   -14332 
  -14297   -14319   -14362   -14397   -14420   -14419   -14428   -14463 
  -14476   -14478   -14497   -14472   -14407   -14388   -14411   -14409 
  -14388   -14395   -14411   -14397   -14392   -14426   -14455   -14459 
  -14469   -14481   -14482   -14477   -14470   -14461   -14455   -14462 
  -14445   -14401   -14385   -14384   -14368   -14378   -14438   -14488 
  -14499   -14500   -14523   -14547   -14528   -14486   -14454   -14436 
  -14442   -14438   -14391   -14343   -14343   -14384   -14436   -14466 
  -14472   -14459   -14446   -14463   -14492   -14500   -14497   -14480 
  -14450   -14427   -14373   -14284   -14245   -14283   -14335   -14388 
  -14449   -14466   -14454   -14476   -14500   -14477   -14443   -14424 
  -14399   -14378   -14377   -14382   -14395   -14409   -14442   -14486 
  -14520   -14535   -14520   -14484   -14461   -14449   -14463   -14503 
  -14482   -14396   -14357   -14377   -14395   -14426   -14481   -14503 
  -14470   -14438   -14432   -14423   -14407   -14396   -14400   -14439 
  -14478   -14451   -14385   -14350   -14365   -14400   -14420   -14411 
  -14391   -14405   -14463   -14503   -14513   -14517   -14482   -14426 
  -14403   -14400   -14384   -14373   -14382   -14405   -14451   -14492 
  -14466   -14399   -14369   -14385   -14423   -14493   -14562   -14565 
  -14507   -14457   -14443   -14426   -14392   -14365   -14349   -14354 
  -14385   -14420   -14455   -14469   -14447   -14432   -14451   -14488 
  -14524   -14528   -14497   -14480   -14472   -14436   -14385   -14350 
  -14345   -14368   -14403   -14423   -14439   -14458   -14462   -14447 
  -14427   -14416   -14415   -14412   -14408   -14418   -14432   -14443 
  -14445   -14434   -14422   -14420   -14427   -14447   -14465   -14451 
  -14420   -14411   -14419   -14427   -14431   -14431   -14423   -14422 
  -14436   -14440   -14422   -14395   -14378   -14381   -14407   -14458 
  -14520   -14540   -14523   -14532   -14557   -14539   -14494   -14459 
  -14432   -14404   -14369   -14357   -14378   -14401   -14408   -14397 
  -14391   -14409   -14422   -14436   -14473   -14503   -14509   -14496 
  -14453   -14401   -14381   -14380   -14372   -14362   -14353   -14354 
  -14393   -14451   -14484   -14501   -14513   -14503   -14490   -14484 
  -14461   -14442   -14426   -14400   -14391   -14400   -14401   -14397 
  -14411   -14427   -14423   -14418   -14432   -14450   -14439   -14420 
  -14436   -14457   -14462   -14478   -14484   -14463   -14454   -14443 
  -14419   -14423   -14447   -14449   -14454   -14493   -14532   -14538 
  -14530   -14519   -14492   -14451   -14396   -14341   -14322   -14346 
  -14396   -14463   -14516   -14517   -14474   -14400   -14328   -14283 
  -14238   -14219   -14245   -14268   -14257   -14262   -14307   -14347 
  -14372   -14381   -14373   -14357   -14339   -14322   -14307   -14293 
  -14299   -14310   -14304   -14341   -14430   -14507   -14575   -14640 
  -14669   -14661   -14647   -14654   -14674   -14669   -14647   -14638 
  -14631   -14635   -14634   -14601   -14575   -14586   -14613   -14634 
  -14655   -14673   -14663   -14638   -14594   -14515   -14428   -14380 
  -14372   -14369   -14350   -14342   -14354   -14355   -14365   -14415 
  -14446   -14400   -14305   -14188   -14075   -14003   -13942   -13888 
  -13902   -13983   -14077   -14177   -14289   -14401   -14508   -14623 
  -14719   -14736   -14688   -14632   -14570   -14466   -14349   -14281 
  -14291   -14381   -14542   -14713   -14851   -14951   -14967   -14856 
  -14667   -14490   -14365   -14262   -14148   -14031   -13969   -13995 
  -14069   -14158   -14264   -14374   -14476   -14551   -14571   -14571 
  -14590   -14585   -14534   -14485   -14469   -14467   -14472   -14513 
  -14611   -14700   -14729   -14727   -14709   -14665   -14612   -14574 
  -14543   -14509   -14470   -14403   -14281   -14162   -14084   -14004 
  -13954   -13992   -14065   -14139   -14245   -14366   -14481   -14634 
  -14817   -14951   -14971   -14870   -14693   -14503   -14338   -14215 
  -14152   -14138   -14157   -14216   -14305   -14385   -14467   -14574 
  -14652   -14640   -14559   -14422   -14234   -14049   -13921   -13878 
  -13933   -14056   -14224   -14440   -14667   -14824   -14877   -14852 
  -14785   -14690   -14601   -14540   -14501   -14497   -14542   -14592 
  -14578   -14492   -14401   -14351   -14345   -14376   -14404   -14419 
  -14459   -14543   -14648   -14712   -14686   -14594   -14446   -14262 
  -14130   -14088   -14111   -14160   -14219   -14304   -14386   -14403 
  -14385   -14397   -14443   -14517   -14571   -14543   -14440   -14277 
  -14092   -13972   -13967   -14073   -14237   -14380   -14513   -14662 
  -14787   -14882   -14953   -14958   -14870   -14747   -14643   -14551 
  -14474   -14440   -14432   -14416   -14418   -14458   -14496   -14521 
  -14575   -14635   -14663   -14683   -14679   -14611   -14505   -14386 
  -14246   -14125   -14065   -14057   -14088   -14148   -14189   -14204 
  -14211   -14216   -14238   -14278   -14296   -14278   -14215   -14111 
  -14030   -14023   -14075   -14172   -14315   -14470   -14612   -14717 
  -14760   -14733   -14655   -14563   -14494   -14457   -14443   -14458 
  -14511   -14607   -14736   -14852   -14920   -14971   -15018   -15025 
  -14993   -14929   -14835   -14758   -14688   -14555   -14404   -14316 
  -14297   -14324   -14361   -14358   -14316   -14265   -14202   -14134 
  -14075   -14007   -13949   -13948   -13986   -14004   -13990   -13945 
  -13895   -13914   -13994   -14081   -14188   -14296   -14359   -14393 
  -14466   -14588   -14670   -14642   -14574   -14557   -14578   -14581 
  -14532   -14465   -14415   -14384   -14426   -14566   -14731   -14886 
  -15021   -15105   -15130   -15076   -14939   -14762   -14602   -14477 
  -14370   -14299   -14278   -14293   -14347   -14405   -14418   -14411 
  -14413   -14431   -14459   -14466   -14428   -14343   -14226   -14127 
  -14077   -14085   -14162   -14287   -14396   -14463   -14516   -14554 
  -14554   -14534   -14505   -14454   -14391   -14342   -14305   -14277 
  -14264   -14262   -14277   -14305   -14322   -14316   -14300   -14268 
  -14241   -14245   -14253   -14230   -14189   -14162   -14184   -14270 
  -14374   -14484   -14629   -14759   -14825   -14866   -14890   -14901 
  -14886   -14818   -14747   -14706   -14640   -14570   -14563   -14589 
  -14584   -14569   -14601   -14665   -14688   -14632   -14536   -14478 
  -14469   -14461   -14450   -14454   -14454   -14430   -14350   -14256 
  -14242   -14283   -14319   -14380   -14455   -14488   -14493   -14484 
  -14434   -14341   -14231   -14112   -13946   -13740   -13606   -13625 
  -13749   -13917   -14087   -14226   -14346   -14457   -14527   -14543 
  -14508   -14428   -14331   -14251   -14222   -14234   -14270   -14361 
  -14499   -14646   -14779   -14862   -14860   -14814   -14779   -14725 
  -14612   -14482   -14384   -14327   -14332   -14419   -14574   -14751 
  -14895   -14990   -15026   -14966   -14797   -14589   -14419   -14326 
  -14292   -14288   -14326   -14428   -14566   -14659   -14681   -14662 
  -14577   -14399   -14210   -14079   -14014   -14027   -14112   -14227 
  -14337   -14432   -14499   -14508   -14469   -14427   -14413   -14424 
  -14454   -14458   -14385   -14293   -14285   -14350   -14415   -14455 
  -14480   -14512   -14570   -14612   -14619   -14615   -14597   -14559 
  -14511   -14470   -14469   -14492   -14490   -14436   -14332   -14212 
  -14094   -14006   -14018   -14133   -14281   -14408   -14501   -14551 
  -14565   -14563   -14539   -14497   -14458   -14381   -14256   -14153 
  -14111   -14126   -14192   -14312   -14434   -14494   -14526   -14563 
  -14596   -14623   -14625   -14565   -14478   -14408   -14346   -14315 
  -14350   -14458   -14611   -14724   -14744   -14727   -14713   -14682 
  -14654   -14652   -14646   -14602   -14544   -14488   -14422   -14354 
  -14318   -14304   -14291   -14288   -14292   -14274   -14265   -14283 
  -14291   -14281   -14281   -14299   -14326   -14355   -14380   -14377 
  -14339   -14274   -14196   -14175   -14256   -14380   -14488   -14600 
  -14735   -14843   -14864   -14821   -14751   -14627   -14447   -14272 
  -14141   -14072   -14072   -14134   -14218   -14270   -14295   -14323 
  -14377   -14473   -14604   -14732   -14817   -14818   -14732   -14620 
  -14530   -14457   -14399   -14318   -14214   -14175   -14218   -14293 
  -14409   -14532   -14615   -14677   -14701   -14639   -14516   -14391 
  -14295   -14233   -14210   -14218   -14257   -14353   -14486   -14597 
  -14669   -14731   -14773   -14736   -14621   -14504   -14423   -14369 
  -14359   -14408   -14478   -14536   -14575   -14584   -14548   -14490 
  -14446   -14431   -14412   -14349   -14270   -14207   -14156   -14142 
  -14161   -14173   -14197   -14235   -14230   -14183   -14169   -14210 
  -14223   -14196   -14184   -14188   -14196   -14241   -14330   -14418 
  -14462   -14462   -14431   -14401   -14366   -14316   -14304   -14359 
  -14442   -14482   -14472   -14482   -14547   -14634   -14736   -14837 
  -14877   -14885   -14917   -14918   -14898   -14883   -14814   -14708 
  -14655   -14651   -14636   -14604   -14617   -14682   -14713   -14682 
  -14650   -14628   -14593   -14543   -14497   -14489   -14499   -14492 
  -14497   -14516   -14507   -14480   -14434   -14347   -14266   -14199 
  -14099   -14010   -13994   -14008   -13996   -13980   -13979   -13968 
  -13971   -14003   -14029   -14073   -14183   -14307   -14392   -14439 
  -14422   -14326   -14224   -14175   -14181   -14208   -14202   -14184 
  -14235   -14337   -14434   -14557   -14712   -14812   -14805   -14731 
  -14627   -14493   -14355   -14273   -14245   -14241   -14270   -14350 
  -14466   -14623   -14801   -14913   -14939   -14926   -14882   -14775 
  -14616   -14454   -14342   -14312   -14373   -14508   -14686   -14839 
  -14889   -14843   -14740   -14589   -14427   -14316   -14292   -14346 
  -14416   -14443   -14442   -14426   -14381   -14323   -14243   -14145 
  -14079   -14049   -14031   -14048   -14142   -14320   -14538   -14719 
  -14794   -14756   -14631   -14449   -14264   -14116   -14033   -14037 
  -14130   -14280   -14472   -14674   -14828   -14914   -14937   -14883 
  -14748   -14557   -14378   -14281   -14281   -14358   -14478   -14605 
  -14701   -14733   -14702   -14608   -14445   -14264   -14107   -13953 
  -13814   -13760   -13845   -14046   -14295   -14539   -14754   -14866 
  -14828   -14682   -14485   -14291   -14145   -14042   -13994   -14030 
  -14129   -14265   -14426   -14567   -14643   -14624   -14526   -14405 
  -14311   -14269   -14264   -14287   -14355   -14446   -14513   -14535 
  -14501   -14445   -14404   -14392   -14426   -14494   -14561   -14611 
  -14647   -14675   -14696   -14697   -14698   -14720   -14735   -14709 
  -14650   -14588   -14535   -14493   -14474   -14504   -14581   -14669 
  -14739   -14782   -14771   -14704   -14612   -14513   -14403   -14301 
  -14235   -14214   -14233   -14268   -14296   -14331   -14362   -14353 
  -14297   -14230   -14176   -14115   -14033   -13984   -14002   -14068 
  -14149   -14206   -14238   -14258   -14270   -14278   -14269   -14256 
  -14257   -14260   -14288   -14368   -14476   -14585   -14693   -14767 
  -14775   -14721   -14635   -14536   -14457   -14419   -14403   -14404 
  -14458   -14584   -14736   -14835   -14850   -14831   -14806   -14754 
  -14665   -14561   -14473   -14416   -14377   -14355   -14382   -14418 
  -14408   -14407   -14435   -14418   -14341   -14278   -14285   -14331 
  -14373   -14397   -14389   -14354   -14323   -14314   -14316   -14295 
  -14224   -14168   -14160   -14173   -14226   -14312   -14385   -14463 
  -14561   -14621   -14619   -14570   -14477   -14358   -14257   -14206 
  -14191   -14199   -14262   -14378   -14489   -14588   -14666   -14686 
  -14675   -14686   -14696   -14666   -14635   -14642   -14647   -14634 
  -14634   -14635   -14625   -14642   -14677   -14677   -14646   -14611 
  -14581   -14562   -14544   -14517   -14450   -14316   -14184   -14111 
  -14108   -14165   -14222   -14235   -14224   -14168   -14064   -13984 
  -13964   -13988   -14077   -14222   -14337   -14374   -14358   -14323 
  -14297   -14296   -14324   -14373   -14413   -14435   -14449   -14490 
  -14578   -14674   -14751   -14813   -14825   -14763   -14659   -14555 
  -14472   -14416   -14400   -14416   -14438   -14482   -14561   -14625 
  -14666   -14697   -14693   -14640   -14559   -14480   -14415   -14349 
