Origin Time       2025/03/30 21:30:00
Lat.              38.535
Long.             142.295
Depth. (km)       44
Mag.              4.3
Station Code      FKSH19
Station Lat.      37.4703
Station Long.     140.7227
Station Height(m) 410
Record Time       2025/03/30 21:31:44
Sampling Freq(Hz) 100Hz
Duration Time(s)  120
Dir.              2
Scale Factor      2942(gal)/8224139
Max. Acc. (gal)   0.129
Last Correction   2025/03/30 21:31:44
Memo.             
   81352    81390    81409    81390    81353    81341    81355    81369 
   81369    81342    81334    81360    81363    81349    81369    81372 
   81332    81328    81365    81375    81364    81369    81378    81368 
   81365    81368    81378    81391    81346    81306    81351    81382 
   81371    81359    81349    81365    81384    81383    81388    81395 
   81386    81359    81342    81360    81380    81371    81341    81337 
   81364    81392    81418    81405    81357    81349    81380    81395 
   81364    81330    81357    81383    81356    81333    81348    81368 
   81361    81349    81340    81337    81351    81353    81359    81357 
   81342    81356    81364    81342    81353    81388    81392    81386 
   81376    81340    81326    81375    81406    81380    81355    81365 
   81403    81415    81372    81332    81334    81355    81376    81399 
   81395    81369    81386    81414    81379    81341    81368    81403 
   81382    81346    81352    81363    81361    81365    81359    81344 
   81352    81375    81367    81364    81388    81365    81325    81340 
   81363    81346    81324    81338    81376    81373    81348    81361 
   81357    81329    81349    81388    81418    81417    81332    81280 
   81351    81417    81422    81388    81329    81313    81349    81383 
   81403    81392    81368    81392    81414    81388    81357    81344 
   81367    81382    81372    81390    81379    81334    81330    81348 
   81383    81406    81369    81344    81356    81336    81309    81332 
   81372    81396    81387    81342    81328    81363    81386    81367 
   81340    81340    81359    81372    81379    81369    81364    81380 
   81386    81384    81380    81368    81364    81351    81341    81382 
   81423    81413    81365    81321    81330    81383    81417    81403 
   81368    81338    81325    81345    81352    81334    81356    81380 
   81383    81378    81341    81332    81357    81368    81387    81384 
   81363    81359    81328    81310    81346    81396    81417    81360 
   81303    81360    81430    81421    81379    81351    81371    81407 
   81376    81329    81340    81351    81353    81359    81342    81346 
   81391    81411    81369    81333    81348    81368    81379    81373 
   81357    81369    81351    81332    81392    81403    81364    81376 
   81383    81356    81340    81367    81399    81369    81326    81334 
   81383    81387    81318    81313    81365    81368    81372    81394 
   81392    81379    81342    81355    81403    81371    81310    81295 
   81356    81438    81398    81315    81332    81364    81387    81407 
   81367    81328    81364    81407    81387    81359    81356    81326 
   81313    81348    81375    81398    81407    81373    81361    81361 
   81345    81376    81390    81348    81355    81369    81365    81390 
   81368    81321    81334    81361    81386    81399    81356    81329 
   81379    81407    81356    81330    81378    81387    81318    81309 
   81400    81438    81369    81324    81348    81392    81409    81375 
   81329    81313    81329    81357    81363    81352    81364    81384 
   81386    81373    81364    81351    81334    81372    81419    81369 
   81311    81334    81361    81383    81388    81356    81352    81367 
   81361    81379    81388    81373    81392    81390    81330    81317 
   81375    81432    81421    81334    81268    81311    81396    81407 
   81351    81330    81378    81407    81378    81338    81332    81349 
   81330    81314    81356    81376    81373    81396    81395    81351 
   81330    81376    81399    81355    81330    81334    81329    81346 
   81392    81410    81357    81321    81378    81421    81414    81406 
   81346    81301    81329    81356    81380    81394    81369    81349 
   81351    81373    81410    81419    81392    81373    81361    81337 
   81311    81321    81375    81409    81386    81342    81328    81359 
   81387    81359    81321    81337    81352    81340    81346    81346 
   81349    81407    81421    81344    81325    81373    81373    81364 
   81382    81378    81364    81375    81386    81372    81344    81326 
   81351    81422    81432    81373    81348    81337    81369    81423 
   81376    81314    81309    81325    81384    81413    81371    81372 
   81400    81367    81348    81427    81449    81340    81272    81284 
   81336    81411    81390    81307    81336    81403    81391    81363 
   81378    81387    81380    81371    81349    81346    81367    81356 
   81348    81361    81368    81379    81382    81376    81367    81361 
   81386    81391    81330    81288    81322    81363    81388    81417 
   81398    81355    81373    81378    81325    81345    81415    81410 
   81369    81332    81315    81363    81387    81371    81368    81340 
   81334    81390    81421    81378    81299    81286    81364    81432 
   81413    81351    81326    81326    81334    81371    81372    81360 
   81387    81382    81386    81419    81369    81314    81348    81394 
   81410    81367    81305    81346    81419    81392    81360    81375 
   81371    81378    81398    81398    81376    81322    81295    81326 
   81355    81375    81368    81351    81349    81341    81368    81403 
   81361    81314    81324    81356    81373    81368    81375    81373 
   81340    81337    81357    81371    81402    81392    81324    81337 
   81419    81430    81387    81353    81336    81336    81333    81353 
   81417    81441    81396    81371    81373    81353    81341    81349 
   81355    81359    81349    81348    81372    81357    81326    81341 
   81352    81363    81395    81379    81378    81422    81380    81318 
   81359    81379    81333    81330    81371    81390    81379    81345 
   81321    81342    81384    81417    81411    81369    81355    81371 
   81368    81360    81375    81361    81318    81338    81390    81390 
   81379    81388    81365    81334    81368    81417    81395    81305 
   81232    81265    81360    81409    81390    81363    81382    81406 
   81396    81399    81407    81384    81375    81371    81355    81332 
   81295    81313    81338    81310    81330    81373    81373    81400 
   81436    81405    81382    81413    81391    81326    81324    81351 
   81390    81410    81340    81307    81353    81363    81355    81359 
   81369    81363    81348    81373    81373    81383    81421    81349 
   81276    81332    81400    81405    81344    81286    81297    81330 
   81351    81352    81346    81375    81406    81406    81432    81449 
   81410    81395    81403    81361    81319    81309    81297    81307 
   81361    81406    81392    81356    81351    81376    81400    81367 
   81324    81368    81409    81338    81275    81328    81396    81383 
   81340    81352    81410    81432    81394    81346    81340    81398 
   81427    81383    81372    81406    81414    81405    81371    81353 
   81353    81334    81371    81386    81314    81340    81437    81427 
   81357    81349    81365    81342    81326    81333    81334    81325 
   81307    81326    81378    81382    81360    81372    81394    81398 
   81364    81333    81367    81383    81322    81283    81287    81322 
   81400    81417    81341    81341    81422    81434    81390    81367 
   81398    81426    81383    81326    81295    81299    81356    81398 
   81365    81306    81301    81360    81402    81372    81351    81388 
   81388    81351    81368    81388    81346    81338    81380    81403 
   81437    81425    81353    81361    81392    81357    81364    81414 
   81410    81380    81367    81369    81373    81371    81396    81407 
   81345    81324    81356    81348    81348    81363    81352    81344 
   81355    81379    81372    81341    81356    81384    81396    81402 
   81378    81340    81303    81282    81322    81371    81352    81317 
   81314    81355    81427    81430    81372    81346    81328    81348 
   81396    81413    81436    81411    81336    81324    81349    81352 
   81330    81336    81387    81386    81341    81357    81394    81384 
   81356    81344    81379    81410    81373    81349    81386    81410 
   81378    81340    81328    81329    81359    81380    81371    81363 
   81338    81319    81346    81336    81288    81326    81396    81409 
   81392    81353    81341    81390    81396    81363    81353    81352 
   81357    81353    81326    81328    81332    81337    81386    81388 
   81355    81386    81396    81349    81328    81368    81411    81388 
   81375    81422    81409    81337    81309    81322    81384    81436 
   81382    81328    81353    81386    81390    81372    81361    81360 
   81372    81387    81338    81319    81378    81365    81342    81379 
   81357    81326    81376    81414    81390    81345    81306    81307 
   81340    81311    81298    81388    81432    81398    81379    81364 
   81402    81450    81402    81359    81360    81332    81330    81371 
   81376    81372    81418    81407    81307    81294    81364    81391 
   81392    81394    81369    81363    81400    81395    81351    81353 
   81359    81338    81373    81418    81409    81372    81329    81324 
   81352    81356    81355    81334    81314    81357    81353    81294 
   81333    81405    81394    81341    81297    81319    81414    81407 
   81286    81278    81382    81407    81369    81372    81432    81454 
   81391    81333    81321    81336    81384    81417    81433    81423 
   81368    81333    81332    81357    81411    81427    81395    81368 
   81333    81329    81386    81384    81333    81346    81329    81280 
   81341    81391    81332    81292    81314    81314    81319    81380 
   81391    81359    81365    81382    81423    81440    81373    81313 
   81291    81353    81438    81386    81334    81348    81322    81368 
   81410    81359    81384    81433    81422    81427    81382    81322 
   81332    81353    81392    81411    81368    81338    81346    81371 
   81387    81361    81346    81380    81367    81328    81333    81353 
   81391    81388    81332    81338    81355    81336    81376    81427 
   81388    81303    81302    81380    81422    81380    81318    81338 
   81407    81405    81380    81375    81349    81361    81394    81383 
   81387    81355    81302    81356    81396    81355    81338    81346 
   81379    81411    81359    81315    81367    81395    81360    81367 
   81371    81334    81353    81363    81353    81400    81379    81341 
   81395    81415    81346    81272    81333    81446    81400    81329 
   81295    81261    81336    81413    81399    81379    81383    81409 
   81394    81378    81386    81337    81337    81371    81360    81413 
   81436    81364    81319    81329    81364    81388    81398    81383 
   81336    81355    81402    81364    81330    81336    81349    81392 
   81405    81349    81307    81345    81394    81386    81363    81337 
   81338    81386    81409    81400    81378    81361    81390    81398 
   81357    81318    81306    81319    81340    81345    81337    81363 
   81440    81442    81341    81292    81318    81346    81383    81359 
   81305    81329    81372    81386    81396    81411    81414    81356 
   81322    81378    81391    81359    81346    81334    81344    81364 
   81375    81390    81375    81333    81341    81378    81346    81310 
   81360    81376    81329    81334    81369    81379    81349    81309 
   81329    81341    81307    81324    81359    81353    81380    81427 
   81426    81398    81355    81328    81373    81394    81346    81330 
   81302    81295    81394    81441    81411    81414    81395    81372 
   81407    81405    81376    81373    81333    81302    81357    81426 
   81457    81465    81450    81440    81433    81373    81275    81199 
   81162    81218    81364    81434    81432    81472    81499    81535 
   81649    81635    81429    81274    81284    81348    81309    81183 
   81191    81337    81407    81409    81425    81392    81294    81236 
   81279    81429    81571    81480    81248    81153    81216    81372 
   81506    81469    81405    81368    81270    81278    81383    81376 
   81324    81287    81249    81241    81275    81392    81530    81560 
   81503    81403    81275    81202    81214    81267    81333    81351 
   81295    81310    81427    81514    81544    81560    81571    81545 
   81421    81260    81222    81232    81145    81149    81345    81480 
   81429    81321    81355    81506    81550    81548    81579    81436 
   81168    81087    81147    81136    81140    81210    81225    81244 
   81292    81303    81367    81477    81552    81587    81504    81375 
   81360    81383    81380    81415    81419    81342    81306    81329 
   81357    81473    81673    81726    81542    81298    81167    81172 
   81210    81163    81102    81194    81372    81471    81467    81415 
   81402    81402    81328    81317    81394    81326    81180    81221 
   81402    81549    81573    81479    81341    81280    81359    81490 
   81542    81459    81361    81438    81562    81554    81469    81349 
   81315    81383    81349    81291    81299    81276    81310    81415 
   81434    81395    81334    81244    81225    81248    81201    81195 
   81295    81328    81303    81340    81330    81274    81270    81301 
   81398    81508    81496    81390    81311    81342    81468    81515 
   81456    81445    81441    81383    81349    81332    81400    81534 
   81556    81526    81503    81383    81191    81076    81117    81233 
   81268    81232    81270    81326    81283    81218    81217    81253 
   81287    81371    81567    81666    81540    81410    81444    81585 
   81638    81481    81310    81245    81224    81272    81326    81282 
   81245    81287    81322    81333    81448    81631    81679    81622 
   81521    81324    81171    81162    81220    81325    81425    81442 
   81419    81400    81351    81295    81252    81209    81211    81251 
   81286    81329    81373    81434    81473    81421    81338    81330 
   81386    81442    81463    81467    81484    81448    81357    81334 
   81348    81344    81379    81414    81425    81387    81271    81171 
   81130    81159    81315    81521    81573    81441    81345    81419 
   81488    81460    81432    81406    81413    81436    81356    81283 
   81291    81244    81187    81228    81328    81398    81356    81310 
   81405    81461    81363    81325    81422    81490    81414    81286 
   81259    81267    81237    81267    81382    81488    81486    81395 
   81329    81332    81365    81336    81318    81392    81396    81329 
   81321    81349    81407    81464    81450    81449    81437    81309 
   81255    81348    81344    81243    81206    81243    81357    81517 
   81598    81533    81395    81337    81379    81405    81346    81270 
   81244    81270    81367    81423    81311    81220    81309    81436 
   81495    81499    81468    81457    81460    81432    81411    81341 
   81279    81436    81589    81479    81299    81195    81194    81302 
   81390    81487    81585    81498    81297    81141    81068    81122 
   81179    81194    81349    81548    81533    81369    81283    81328 
   81353    81303    81315    81372    81357    81359    81379    81365 
   81417    81502    81499    81438    81387    81395    81469    81471 
   81396    81406    81405    81295    81257    81330    81364    81360 
   81368    81454    81634    81653    81519    81504    81446    81259 
   81179    81171    81178    81237    81271    81298    81333    81290 
   81201    81198    81305    81368    81295    81124    81060    81259 
   81467    81472    81388    81305    81353    81513    81579    81585 
   81581    81518    81445    81392    81422    81525    81500    81357 
   81267    81202    81164    81253    81372    81383    81384    81418 
   81400    81387    81392    81346    81318    81333    81274    81210 
   81301    81446    81518    81519    81492    81460    81359    81233 
   81249    81392    81504    81500    81388    81286    81279    81338 
   81386    81353    81318    81380    81449    81449    81396    81345 
   81337    81301    81240    81305    81357    81226    81133    81135 
   81105    81201    81410    81510    81504    81445    81369    81383 
   81448    81433    81332    81259    81309    81440    81500    81461 
   81446    81450    81444    81492    81469    81353    81369    81436 
   81318    81180    81220    81315    81395    81486    81549    81606 
   81621    81545    81460    81387    81341    81290    81209    81233 
   81318    81288    81193    81160    81222    81280    81283    81279 
   81253    81278    81371    81336    81252    81367    81499    81475 
   81461    81486    81417    81338    81394    81394    81217    81149 
   81292    81419    81454    81463    81430    81387    81434    81526 
   81494    81387    81378    81457    81492    81425    81346    81321 
   81287    81270    81315    81338    81319    81336    81390    81391 
   81348    81372    81421    81388    81306    81248    81253    81305 
   81360    81388    81357    81298    81305    81410    81486    81395 
   81272    81324    81418    81365    81336    81415    81418    81388 
   81402    81423    81495    81502    81383    81310    81340    81432 
   81449    81313    81238    81310    81364    81365    81338    81332 
   81379    81351    81249    81241    81303    81291    81249    81261 
   81290    81333    81379    81378    81361    81369    81414    81471 
   81476    81441    81415    81392    81348    81311    81318    81340 
   81376    81398    81373    81380    81407    81402    81414    81433 
   81413    81364    81310    81330    81452    81525    81441    81325 
   81298    81330    81361    81306    81213    81244    81357    81373 
   81352    81427    81465    81445    81492    81484    81419    81409 
   81324    81206    81275    81433    81464    81403    81313    81230 
   81284    81400    81406    81338    81257    81247    81349    81368 
   81301    81356    81440    81417    81384    81357    81298    81298 
   81361    81372    81324    81319    81396    81467    81444    81376 
   81340    81337    81365    81390    81409    81444    81432    81410 
   81438    81410    81353    81386    81456    81495    81471    81413 
   81340    81221    81217    81360    81351    81243    81337    81472 
   81452    81388    81400    81467    81440    81322    81288    81267 
   81203    81229    81309    81380    81409    81311    81216    81249 
   81336    81383    81345    81309    81380    81473    81463    81353 
   81251    81247    81355    81502    81541    81449    81353    81310 
   81344    81427    81421    81392    81445    81395    81248    81232 
   81349    81403    81338    81345    81430    81402    81348    81361 
   81314    81291    81402    81429    81326    81302    81371    81391 
   81295    81225    81314    81410    81422    81406    81356    81345 
   81352    81317    81379    81513    81518    81438    81419    81471 
   81465    81324    81233    81336    81453    81442    81357    81311 
   81348    81369    81332    81329    81387    81396    81311    81233 
   81240    81288    81290    81286    81352    81371    81318    81345 
   81407    81429    81433    81417    81392    81361    81359    81432 
   81463    81411    81379    81382    81406    81387    81315    81365 
