Origin Time       2025/03/30 21:30:00
Lat.              38.535
Long.             142.295
Depth. (km)       44
Mag.              4.3
Station Code      FKSH11
Station Lat.      37.2006
Station Long.     140.3386
Station Height(m) 285.7
Record Time       2025/03/30 21:31:55
Sampling Freq(Hz) 100Hz
Duration Time(s)  120
Dir.              6
Scale Factor      7845(gal)/8223790
Max. Acc. (gal)   0.343
Last Correction   2025/03/30 21:31:56
Memo.             
[...]
  -19371   -19376   -19321   -19259   -19287   -19379   -19404   -19345 
  -19322   -19356   -19349   -19310   -19303   -19299   -19275   -19292 
  -19353   -19375   -19338   -19302   -19279   -19292   -19371   -19418 
  -19344   -19260   -19283   -19327   -19318   -19332   -19402   -19414 
  -19344   -19303   -19311   -19323   -19341   -19342   -19310   -19286 
  -19291   -19310   -19346   -19381   -19369   -19336   -19348   -19383 
  -19377   -19341   -19300   -19255   -19234   -19283   -19371   -19421 
  -19390   -19311   -19249   -19255   -19336   -19421   -19398   -19267 
  -19190   -19261   -19369   -19394   -19365   -19337   -19310   -19284 
  -19271   -19276   -19318   -19375   -19361   -19283   -19278   -19364 
  -19402   -19349   -19315   -19341   -19356   -19326   -19299   -19294 
  -19279   -19275   -19356   -19480   -19491   -19354   -19233   -19251 
  -19319   -19318   -19302   -19334   -19357   -19323   -19298   -19326 
  -19340   -19314   -19310   -19342   -19357   -19321   -19242   -19179 
  -19199   -19292   -19371   -19379   -19345   -19294   -19252   -19294 
  -19406   -19444   -19359   -19292   -19336   -19383   -19354   -19330 
  -19349   -19329   -19253   -19234   -19300   -19344   -19350   -19392 
  -19414   -19330   -19244   -19284   -19369   -19361   -19302   -19288 
  -19322   -19356   -19377   -19399   -19376   -19279   -19219   -19290 
  -19395   -19400   -19344   -19330   -19356   -19353   -19313   -19275 
  -19278   -19337   -19377   -19321   -19236   -19259   -19367   -19430 
  -19400   -19348   -19317   -19287   -19275   -19310   -19359   -19377 
  -19381   -19363   -19318   -19302   -19332   -19352   -19346   -19338 
  -19313   -19284   -19306   -19337   -19314   -19280   -19298   -19323 
  -19314   -19344   -19413   -19395   -19292   -19256   -19318   -19364 
  -19371   -19395   -19375   -19257   -19180   -19282   -19457   -19487 
  -19352   -19206   -19161   -19238   -19377   -19456   -19414   -19303 
  -19210   -19191   -19253   -19348   -19383   -19315   -19237   -19260 
  -19352   -19387   -19333   -19282   -19317   -19408   -19453   -19418 
  -19376   -19361   -19322   -19265   -19264   -19313   -19346   -19341 
  -19295   -19233   -19234   -19317   -19399   -19430   -19417   -19329 
  -19205   -19218   -19406   -19550   -19480   -19287   -19180   -19245 
  -19354   -19367   -19290   -19246   -19305   -19373   -19349   -19280 
  -19268   -19307   -19352   -19383   -19395   -19388   -19369   -19348 
  -19321   -19284   -19252   -19253   -19273   -19261   -19238   -19263 
  -19323   -19392   -19462   -19453   -19330   -19248   -19327   -19446 
  -19423   -19314   -19286   -19319   -19317   -19294   -19306   -19317 
  -19280   -19225   -19213   -19299   -19456   -19527   -19448   -19338 
  -19307   -19352   -19400   -19387   -19315   -19252   -19222   -19187 
  -19178   -19287   -19450   -19473   -19340   -19255   -19332   -19418 
  -19377   -19294   -19269   -19276   -19282   -19310   -19367   -19400 
  -19322   -19170   -19141   -19299   -19461   -19457   -19348   -19295 
  -19317   -19337   -19348   -19371   -19400   -19398   -19350   -19295 
  -19242   -19245   -19352   -19425   -19350   -19269   -19314   -19388 
  -19368   -19310   -19329   -19360   -19309   -19265   -19321   -19376 
  -19330   -19271   -19322   -19399   -19364   -19295   -19298   -19344 
  -19380   -19386   -19348   -19305   -19278   -19251   -19261   -19357 
  -19450   -19440   -19364   -19279   -19218   -19248   -19336   -19319 
  -19230   -19287   -19406   -19333   -19179   -19228   -19437   -19531 
  -19413   -19238   -19179   -19271   -19410   -19435   -19368   -19361 
  -19367   -19280   -19229   -19315   -19383   -19305   -19241   -19329 
  -19419   -19368   -19288   -19311   -19360   -19348   -19314   -19291 
  -19303   -19346   -19325   -19240   -19249   -19350   -19363   -19288 
  -19278   -19349   -19399   -19365   -19318   -19352   -19421   -19394 
  -19295   -19282   -19337   -19323   -19299   -19380   -19434   -19323 
  -19224   -19276   -19340   -19305   -19298   -19400   -19430   -19299 
  -19219   -19298   -19365   -19326   -19294   -19307   -19305   -19305 
  -19329   -19322   -19299   -19325   -19371   -19377   -19376   -19354 
  -19257   -19183   -19298   -19460   -19427   -19294   -19251   -19279 
  -19322   -19369   -19373   -19306   -19261   -19336   -19404   -19337 
  -19268   -19329   -19440   -19458   -19372   -19296   -19296   -19341 
  -19352   -19278   -19198   -19246   -19396   -19438   -19311   -19219 
  -19242   -19271   -19267   -19284   -19349   -19406   -19365   -19287 
  -19290   -19353   -19379   -19353   -19325   -19303   -19288   -19303 
  -19360   -19438   -19435   -19321   -19278   -19390   -19476   -19414 
  -19300   -19253   -19269   -19298   -19327   -19342   -19333   -19317 
  -19283   -19260   -19298   -19367   -19394   -19352   -19296   -19269 
  -19272   -19323   -19381   -19375   -19359   -19417   -19433   -19298 
  -19188   -19260   -19352   -19294   -19230   -19345   -19454   -19336 
  -19175   -19222   -19361   -19418   -19398   -19315   -19248   -19317 
  -19434   -19399   -19276   -19305   -19398   -19319   -19213   -19290 
  -19392   -19345   -19290   -19372   -19448   -19383   -19295   -19302 
  -19348   -19352   -19306   -19230   -19194   -19248   -19296   -19264 
  -19280   -19404   -19461   -19392   -19357   -19387   -19356   -19257 
  -19236   -19317   -19384   -19408   -19417   -19352   -19261   -19280 
  -19336   -19280   -19202   -19242   -19315   -19288   -19257   -19340 
  -19457   -19491   -19421   -19276   -19198   -19296   -19423   -19421 
  -19379   -19380   -19375   -19332   -19294   -19276   -19259   -19284 
  -19373   -19402   -19280   -19170   -19219   -19338   -19380   -19342 
  -19290   -19263   -19290   -19350   -19344   -19241   -19163   -19228 
  -19379   -19457   -19437   -19400   -19348   -19272   -19249   -19309 
  -19376   -19408   -19415   -19383   -19326   -19314   -19364   -19398 
  -19344   -19241   -19199   -19271   -19386   -19460   -19462   -19394 
  -19322   -19353   -19407   -19317   -19160   -19180   -19353   -19422 
  -19326   -19267   -19314   -19303   -19242   -19309   -19453   -19449 
  -19306   -19242   -19306   -19334   -19271   -19237   -19319   -19433 
  -19427   -19303   -19240   -19327   -19411   -19360   -19282   -19291 
  -19361   -19403   -19363   -19295   -19307   -19380   -19395   -19334 
  -19309   -19334   -19310   -19259   -19276   -19310   -19284   -19251 
  -19268   -19313   -19329   -19300   -19264   -19261   -19323   -19408 
  -19427   -19354   -19295   -19306   -19332   -19340   -19338   -19325 
  -19319   -19333   -19368   -19410   -19413   -19344   -19256   -19238 
  -19300   -19375   -19426   -19426   -19330   -19219   -19226   -19298 
  -19309   -19292   -19365   -19471   -19407   -19218   -19167   -19273 
  -19334   -19305   -19305   -19350   -19337   -19272   -19303   -19437 
  -19475   -19357   -19267   -19279   -19302   -19322   -19381   -19441 
  -19413   -19322   -19267   -19255   -19261   -19309   -19365   -19353 
  -19292   -19315   -19429   -19480   -19399   -19284   -19214   -19205 
  -19278   -19394   -19427   -19345   -19292   -19340   -19364   -19313 
  -19282   -19275   -19225   -19201   -19311   -19452   -19452   -19354 
  -19280   -19232   -19187   -19215   -19342   -19472   -19512   -19440 
  -19302   -19213   -19248   -19372   -19464   -19445   -19350   -19267 
  -19197   -19148   -19229   -19431   -19530   -19408   -19241   -19228 
  -19332   -19402   -19363   -19257   -19210   -19287   -19406   -19442 
  -19368   -19267   -19236   -19309   -19425   -19467   -19375   -19228 
  -19167   -19230   -19319   -19365   -19413   -19471   -19429   -19265 
  -19165   -19232   -19345   -19399   -19417   -19399   -19329   -19248 
  -19206   -19217   -19275   -19357   -19391   -19325   -19241   -19260 
  -19344   -19361   -19329   -19380   -19460   -19398   -19246   -19210 
  -19283   -19330   -19342   -19360   -19340   -19296   -19325   -19429 
  -19480   -19413   -19310   -19298   -19350   -19361   -19342   -19349 
  -19341   -19302   -19291   -19287   -19257   -19272   -19309   -19286 
  -19257   -19311   -19396   -19425   -19406   -19357   -19282   -19259 
  -19322   -19371   -19350   -19323   -19352   -19372   -19300   -19207 
  -19241   -19398   -19468   -19352   -19203   -19184   -19290   -19380 
  -19391   -19380   -19360   -19325   -19311   -19334   -19346   -19295 
  -19251   -19290   -19346   -19337   -19291   -19267   -19307   -19415 
  -19496   -19457   -19360   -19314   -19332   -19353   -19336   -19286 
  -19255   -19273   -19300   -19299   -19295   -19311   -19336   -19365 
  -19394   -19373   -19299   -19255   -19302   -19377   -19381   -19309 
  -19215   -19197   -19309   -19414   -19334   -19195   -19264   -19467 
  -19484   -19305   -19203   -19271   -19386   -19477   -19494   -19368 
  -19202   -19202   -19360   -19453   -19390   -19307   -19276   -19260 
  -19292   -19371   -19360   -19259   -19273   -19427   -19453   -19273 
  -19152   -19242   -19363   -19357   -19265   -19174   -19172   -19279 
  -19383   -19377   -19329   -19357   -19421   -19423   -19383   -19349 
  -19313   -19278   -19354   -19511   -19515   -19337   -19182   -19157 
  -19206   -19313   -19462   -19499   -19371   -19232   -19191   -19237 
  -19325   -19438   -19494   -19404   -19241   -19161   -19252   -19440 
  -19539   -19407   -19160   -19097   -19280   -19461   -19425   -19246 
  -19141   -19187   -19345   -19498   -19473   -19249   -19063   -19133 
  -19371   -19543   -19533   -19380   -19209   -19149   -19294   -19537 
  -19610   -19398   -19124   -19130   -19391   -19535   -19408   -19241 
  -19261   -19372   -19384   -19332   -19336   -19369   -19330   -19294 
  -19330   -19337   -19257   -19225   -19356   -19465   -19346   -19171 
  -19219   -19429   -19496   -19360   -19219   -19215   -19315   -19394 
  -19383   -19323   -19276   -19238   -19229   -19286   -19340   -19353 
  -19318   -19248   -19282   -19417   -19461   -19359   -19278   -19300 
  -19330   -19352   -19365   -19338   -19321   -19350   -19423   -19458 
  -19363   -19238   -19238   -19294   -19333   -19414   -19441   -19332 
  -19260   -19332   -19408   -19305   -19130   -19190   -19388   -19441 
  -19395   -19325   -19186   -19118   -19276   -19507   -19556   -19369 
  -19172   -19171   -19318   -19450   -19429   -19305   -19279   -19372 
  -19367   -19248   -19286   -19442   -19390   -19153   -19124   -19380 
  -19541   -19446   -19296   -19255   -19315   -19365   -19404   -19438 
  -19364   -19286   -19319   -19330   -19213   -19147   -19303   -19511 
  -19543   -19386   -19215   -19188   -19273   -19394   -19404   -19255 
  -19201   -19371   -19514   -19399   -19195   -19226   -19423   -19441 
  -19241   -19176   -19306   -19346   -19314   -19298   -19248   -19268 
  -19356   -19340   -19271   -19303   -19309   -19246   -19330   -19431 
  -19364   -19233   -19178   -19313   -19448   -19295   -19165   -19375 
  -19542   -19427   -19327   -19315   -19306   -19402   -19545   -19539 
  -19310   -19091   -19278   -19572   -19462   -19261   -19286   -19330 
  -19272   -19210   -19260   -19375   -19377   -19234   -19121   -19222 
  -19426   -19438   -19234   -19153   -19336   -19457   -19360   -19232 
  -19167   -19147   -19191   -19365   -19569   -19580   -19435   -19249 
  -19083   -19122   -19398   -19618   -19510   -19221   -19138   -19255 
  -19367   -19492   -19587   -19477   -19236   -19195   -19398   -19484 
  -19381   -19309   -19269   -19172   -19199   -19488   -19641   -19391 
  -19121   -19152   -19344   -19427   -19354   -19260   -19203   -19217 
  -19327   -19395   -19299   -19186   -19273   -19448   -19426   -19286 
  -19268   -19419   -19556   -19450   -19210   -19145   -19296   -19431 
  -19344   -19167   -19205   -19426   -19556   -19461   -19264   -19222 
  -19352   -19390   -19272   -19226   -19296   -19298   -19244   -19290 
  -19380   -19430   -19415   -19296   -19118   -19057   -19234   -19502 
  -19619   -19531   -19326   -19171   -19219   -19406   -19479   -19344 
  -19219   -19226   -19242   -19265   -19348   -19417   -19415   -19377 
  -19352   -19314   -19288   -19346   -19411   -19404   -19342   -19275 
  -19298   -19423   -19494   -19360   -19157   -19187   -19426   -19529 
  -19352   -19116   -19091   -19268   -19440   -19468   -19363   -19232 
  -19171   -19203   -19309   -19386   -19340   -19252   -19280   -19417 
  -19495   -19452   -19360   -19273   -19219   -19224   -19321   -19480 
  -19507   -19360   -19295   -19402   -19461   -19341   -19228   -19269 
  -19298   -19210   -19164   -19260   -19383   -19392   -19330   -19278 
  -19260   -19319   -19376   -19300   -19179   -19207   -19372   -19483 
  -19514   -19489   -19300   -19036   -18995   -19237   -19464   -19465 
  -19381   -19359   -19365   -19387   -19430   -19454   -19395   -19278 
  -19192   -19126   -19106   -19195   -19325   -19408   -19435   -19438 
  -19440   -19400   -19346   -19363   -19430   -19426   -19282   -19133 
  -19157   -19296   -19353   -19286   -19229   -19276   -19359   -19395 
  -19395   -19375   -19319   -19290   -19363   -19425   -19353   -19259 
  -19278   -19359   -19400   -19426   -19454   -19422   -19332   -19251 
  -19190   -19134   -19149   -19300   -19481   -19523   -19407   -19245 
  -19176   -19248   -19368   -19417   -19361   -19272   -19226   -19279 
  -19430   -19552   -19518   -19340   -19172   -19222   -19473   -19639 
  -19539   -19309   -19168   -19178   -19290   -19423   -19415   -19197 
  -18968   -18998   -19259   -19430   -19377   -19292   -19322   -19408 
  -19435   -19398   -19376   -19356   -19264   -19174   -19183   -19234 
  -19242   -19251   -19323   -19435   -19502   -19464   -19380   -19346 
  -19369   -19381   -19352   -19298   -19232   -19230   -19352   -19468 
  -19442   -19371   -19379   -19415   -19390   -19314   -19272   -19319 
  -19398   -19399   -19311   -19228   -19222   -19273   -19322   -19327 
  -19292   -19280   -19359   -19449   -19421   -19321   -19291   -19329 
  -19295   -19164   -19099   -19187   -19323   -19388   -19365   -19325 
  -19348   -19469   -19591   -19535   -19310   -19120   -19124   -19253 
  -19311   -19265   -19242   -19305   -19399   -19433   -19396   -19386 
  -19402   -19336   -19194   -19122   -19192   -19315   -19411   -19488 
  -19521   -19442   -19340   -19344   -19376   -19338   -19306   -19340 
  -19379   -19372   -19365   -19375   -19338   -19303   -19323   -19317 
  -19251   -19210   -19225   -19233   -19197   -19171   -19206   -19276 
  -19383   -19477   -19417   -19238   -19219   -19425   -19522   -19346 
  -19164   -19164   -19230   -19291   -19411   -19488   -19323   -19071 
  -19132   -19488   -19681   -19548   -19380   -19319   -19287   -19346 
  -19515   -19538   -19264   -19001   -19076   -19375   -19570   -19515 
  -19303   -19164   -19253   -19453   -19527   -19434   -19272   -19094 
  -19003   -19125   -19373   -19515   -19476   -19354   -19261   -19265 
  -19357   -19426   -19418   -19375   -19302   -19215   -19238   -19394 
  -19488   -19445   -19426   -19461   -19390   -19213   -19094   -19080 
  -19124   -19240   -19383   -19406   -19317   -19284   -19367   -19440 
  -19399   -19313   -19296   -19340   -19346   -19305   -19275   -19267 
  -19257   -19273   -19321   -19367   -19380   -19350   -19332   -19384 
  -19465   -19467   -19375   -19330   -19368   -19346   -19249   -19209 
  -19269   -19350   -19363   -19300   -19230   -19214   -19264   -19299 
  -19260   -19237   -19309   -19377   -19363   -19369   -19468   -19507 
  -19402   -19309   -19315   -19311   -19255   -19218   -19207   -19225 
  -19326   -19472   -19522   -19431   -19341   -19359   -19381   -19325 
  -19273   -19275   -19245   -19191   -19265   -19431   -19457   -19342 
  -19310   -19356   -19323   -19273   -19325   -19388   -19340   -19263 
  -19303   -19417   -19476   -19460   -19380   -19264   -19211   -19249 
  -19259   -19195   -19156   -19194   -19260   -19309   -19327   -19342 
  -19407   -19514   -19564   -19481   -19364   -19357   -19415   -19377 
  -19261   -19225   -19284   -19298   -19238   -19210   -19219   -19194 
  -19178   -19279   -19434   -19469   -19364   -19298   -19415   -19591 
  -19595   -19422   -19278   -19303   -19388   -19336   -19179   -19117 
  -19240   -19444   -19548   -19503   -19360   -19188   -19137   -19268 
  -19440   -19450   -19265   -19103   -19152   -19292   -19326   -19303 
  -19341   -19341   -19201   -19087   -19183   -19390   -19472   -19421 
  -19392   -19395   -19330   -19252   -19290   -19383   -19333   -19182 
  -19161   -19299   -19419   -19433   -19379   -19311   -19284   -19373 
  -19523   -19560   -19437   -19292   -19253   -19306   -19376   -19408 
  -19352   -19255   -19245   -19305   -19315   -19319   -19394   -19464 
  -19461   -19423   -19402   -19386   -19311   -19183   -19086   -19056 
  -19106   -19244   -19391   -19422   -19332   -19275   -19338   -19433 
  -19402   -19238   -19130   -19167   -19209   -19195   -19232   -19334 
  -19365   -19306   -19333   -19477   -19534   -19422   -19313   -19323 
  -19372   -19392   -19435   -19487   -19468   -19441   -19473   -19472 
  -19371   -19263   -19222   -19264   -19399   -19525   -19464   -19253 
  -19141   -19221   -19319   -19344   -19365   -19398   -19369   -19263 
  -19176   -19214   -19303   -19279   -19182   -19195   -19296   -19315 
  -19252   -19245   -19284   -19269   -19261   -19368   -19533   -19603 
  -19487   -19271   -19205   -19371   -19535   -19475   -19300   -19275 
  -19377   -19399   -19322   -19263   -19217   -19148   -19170   -19356 
  -19503   -19441   -19344   -19384   -19413   -19300   -19218   -19248 
  -19207   -19107   -19176   -19359   -19400   -19307   -19278   -19325 
  -19363   -19395   -19383   -19272   -19165   -19201   -19323   -19373 
  -19346   -19364   -19434   -19483   -19476   -19386   -19249   -19190 
  -19256   -19323   -19279   -19219   -19302   -19437   -19398   -19238 
  -19211   -19344   -19481   -19548   -19487   -19322   -19206   -19233 
  -19309   -19302   -19232   -19209   -19284   -19410   -19438   -19310 
  -19198   -19269   -19417   -19433   -19348   -19342   -19429   -19489 
  -19481   -19430   -19373   -19353   -19372   -19364   -19265   -19128 
  -19083   -19183   -19319   -19346   -19284   -19280   -19361   -19434 
  -19457   -19461   -19445   -19369   -19282   -19259   -19298   -19361 
  -19400   -19372   -19311   -19283   -19329   -19411   -19392   -19215 
  -19037   -19025   -19153   -19292   -19361   -19340   -19287   -19307 
  -19410   -19491   -19483   -19442   -19392   -19287   -19226   -19306 
  -19372   -19313   -19268   -19346   -19417   -19367   -19318   -19361 
  -19363   -19269   -19257   -19399   -19473   -19327   -19144   -19151 
  -19291   -19354   -19282   -19176   -19149   -19201   -19244   -19267 
  -19325   -19350   -19261   -19203   -19322   -19458   -19438   -19377 
  -19418   -19475   -19460   -19398   -19350   -19373   -19446   -19483 
  -19427   -19326   -19276   -19296   -19322   -19336   -19353   -19372 
  -19377   -19381   -19398   -19392   -19341   -19286   -19265   -19259 
  -19224   -19178   -19207   -19305   -19367   -19365   -19376   -19431 
  -19435   -19329   -19228   -19225   -19298   -19376   -19372   -19305 
  -19276   -19284   -19265   -19267   -19364   -19467   -19435   -19311 
  -19244   -19278   -19322   -19349   -19403   -19427   -19359   -19267 
