Origin Time       2025/03/30 21:30:00
Lat.              38.535
Long.             142.295
Depth. (km)       44
Mag.              4.3
Station Code      FKSH14
Station Lat.      37.0264
Station Long.     140.9702
Station Height(m) 3
Record Time       2025/03/30 21:31:46
Sampling Freq(Hz) 100Hz
Duration Time(s)  120
Dir.              6
Scale Factor      7845(gal)/8223790
Max. Acc. (gal)   0.443
Last Correction   2025/03/30 21:31:47
Memo.             
[...]
  -27454   -27459   -27438   -27406   -27445   -27487   -27444   -27400 
  -27415   -27441   -27464   -27486   -27502   -27502   -27492   -27494 
  -27506   -27511   -27503   -27488   -27465   -27432   -27411   -27444 
  -27494   -27471   -27396   -27396   -27463   -27480   -27441   -27436 
  -27477   -27499   -27495   -27514   -27530   -27503   -27467   -27448 
  -27430   -27402   -27368   -27379   -27427   -27459   -27479   -27508 
  -27544   -27569   -27533   -27473   -27477   -27495   -27492   -27498 
  -27506   -27517   -27522   -27519   -27525   -27477   -27376   -27333 
  -27357   -27405   -27457   -27479   -27480   -27488   -27483   -27483 
  -27495   -27481   -27460   -27440   -27436   -27463   -27465   -27472 
  -27514   -27488   -27427   -27429   -27422   -27409   -27429   -27413 
  -27421   -27506   -27556   -27537   -27515   -27499   -27473   -27432 
  -27411   -27444   -27476   -27476   -27484   -27503   -27517   -27529 
  -27550   -27553   -27477   -27375   -27340   -27345   -27348   -27386 
  -27446   -27479   -27473   -27454   -27459   -27472   -27498   -27527 
  -27492   -27444   -27486   -27538   -27522   -27498   -27503   -27494 
  -27452   -27438   -27471   -27471   -27440   -27460   -27487   -27464 
  -27467   -27499   -27481   -27432   -27409   -27433   -27463   -27450 
  -27438   -27467   -27511   -27530   -27499   -27479   -27481   -27429 
  -27386   -27442   -27498   -27487   -27480   -27484   -27471   -27473 
  -27492   -27511   -27517   -27496   -27449   -27414   -27410   -27405 
  -27402   -27426   -27444   -27434   -27450   -27507   -27561   -27553 
  -27494   -27479   -27499   -27454   -27403   -27433   -27460   -27441 
  -27456   -27519   -27545   -27510   -27486   -27494   -27503   -27506 
  -27495   -27446   -27394   -27375   -27400   -27450   -27473   -27471 
  -27492   -27508   -27492   -27487   -27494   -27484   -27465   -27453 
  -27437   -27386   -27337   -27369   -27434   -27476   -27533   -27583 
  -27565   -27523   -27499   -27475   -27461   -27463   -27450   -27440 
  -27434   -27434   -27467   -27503   -27503   -27490   -27467   -27422 
  -27373   -27390   -27483   -27542   -27515   -27486   -27486   -27472 
  -27448   -27432   -27421   -27430   -27445   -27429   -27413   -27421 
  -27430   -27453   -27486   -27490   -27471   -27454   -27481   -27530 
  -27531   -27506   -27510   -27503   -27464   -27438   -27433   -27423 
  -27434   -27473   -27484   -27457   -27454   -27494   -27530   -27531 
  -27506   -27495   -27483   -27425   -27399   -27446   -27472   -27469 
  -27500   -27537   -27523   -27441   -27372   -27399   -27444   -27437 
  -27427   -27432   -27442   -27448   -27417   -27409   -27479   -27535 
  -27523   -27513   -27544   -27548   -27496   -27487   -27525   -27513 
  -27463   -27434   -27418   -27413   -27422   -27434   -27453   -27463 
  -27454   -27444   -27440   -27450   -27463   -27479   -27518   -27541 
  -27523   -27495   -27463   -27440   -27429   -27400   -27394   -27427 
  -27445   -27452   -27463   -27467   -27473   -27475   -27486   -27523 
  -27552   -27550   -27522   -27464   -27419   -27444   -27495   -27486 
  -27423   -27410   -27449   -27444   -27433   -27473   -27487   -27471 
  -27473   -27483   -27513   -27534   -27490   -27437   -27423   -27430 
  -27457   -27464   -27454   -27450   -27441   -27488   -27552   -27510 
  -27459   -27463   -27425   -27396   -27441   -27461   -27459   -27490 
  -27500   -27465   -27461   -27503   -27503   -27438   -27402   -27432 
  -27457   -27453   -27469   -27506   -27515   -27496   -27499   -27517 
  -27502   -27461   -27423   -27405   -27429   -27471   -27491   -27484 
  -27450   -27433   -27476   -27504   -27456   -27426   -27456   -27463 
  -27464   -27488   -27483   -27468   -27483   -27495   -27472   -27445 
  -27457   -27490   -27503   -27486   -27454   -27440   -27467   -27498 
  -27480   -27459   -27503   -27552   -27511   -27437   -27437   -27473 
  -27461   -27442   -27442   -27411   -27373   -27353   -27346   -27383 
  -27444   -27487   -27513   -27507   -27480   -27492   -27518   -27510 
  -27507   -27522   -27488   -27417   -27403   -27457   -27491   -27494 
  -27496   -27464   -27415   -27422   -27464   -27483   -27484   -27473 
  -27469   -27484   -27483   -27467   -27483   -27499   -27486   -27496 
  -27500   -27465   -27453   -27476   -27473   -27440   -27434   -27468 
  -27480   -27448   -27421   -27433   -27467   -27471   -27461   -27481 
  -27515   -27556   -27577   -27537   -27472   -27427   -27398   -27376 
  -27349   -27349   -27406   -27442   -27444   -27469   -27500   -27490 
  -27454   -27453   -27486   -27492   -27483   -27476   -27460   -27453 
  -27450   -27449   -27480   -27513   -27523   -27523   -27517   -27530 
  -27552   -27511   -27454   -27459   -27460   -27413   -27427   -27504 
  -27494   -27413   -27409   -27475   -27506   -27475   -27429   -27418 
  -27441   -27453   -27437   -27430   -27456   -27472   -27461   -27484 
  -27553   -27569   -27481   -27410   -27437   -27473   -27457   -27441 
  -27432   -27400   -27383   -27418   -27487   -27523   -27506   -27481 
  -27487   -27488   -27473   -27467   -27472   -27467   -27459   -27487 
  -27526   -27510   -27471   -27471   -27481   -27486   -27467   -27429 
  -27446   -27486   -27472   -27453   -27446   -27437   -27446   -27441 
  -27442   -27496   -27511   -27464   -27467   -27510   -27495   -27452 
  -27446   -27450   -27442   -27446   -27477   -27492   -27448   -27418 
  -27479   -27541   -27511   -27461   -27448   -27463   -27500   -27483 
  -27402   -27394   -27471   -27492   -27463   -27479   -27511   -27481 
  -27421   -27421   -27452   -27432   -27422   -27469   -27453   -27392 
  -27426   -27500   -27523   -27517   -27511   -27526   -27519   -27459 
  -27430   -27457   -27471   -27467   -27471   -27494   -27521   -27510 
  -27486   -27496   -27514   -27504   -27445   -27378   -27384   -27445 
  -27472   -27459   -27457   -27472   -27442   -27399   -27459   -27564 
  -27544   -27438   -27407   -27434   -27430   -27403   -27400   -27438 
  -27486   -27511   -27518   -27491   -27440   -27456   -27522   -27541 
  -27529   -27491   -27414   -27398   -27463   -27457   -27365   -27333 
  -27390   -27449   -27503   -27556   -27540   -27475   -27460   -27503 
  -27554   -27554   -27499   -27465   -27456   -27452   -27481   -27502 
  -27492   -27484   -27452   -27422   -27460   -27521   -27510   -27414 
  -27334   -27349   -27399   -27432   -27463   -27464   -27434   -27446 
  -27473   -27450   -27430   -27459   -27504   -27519   -27500   -27502 
  -27514   -27477   -27441   -27429   -27394   -27373   -27407   -27453 
  -27473   -27481   -27494   -27514   -27535   -27538   -27504   -27463 
  -27450   -27476   -27499   -27464   -27421   -27441   -27459   -27454 
  -27514   -27552   -27494   -27467   -27498   -27488   -27446   -27436 
  -27444   -27433   -27437   -27499   -27544   -27481   -27407   -27421 
  -27473   -27490   -27457   -27427   -27432   -27423   -27405   -27418 
  -27423   -27430   -27484   -27494   -27403   -27357   -27437   -27504 
  -27468   -27449   -27515   -27533   -27472   -27444   -27463   -27487 
  -27517   -27534   -27530   -27504   -27463   -27449   -27488   -27535 
  -27531   -27460   -27414   -27438   -27438   -27425   -27467   -27513 
  -27530   -27535   -27519   -27476   -27406   -27378   -27450   -27511 
  -27473   -27411   -27383   -27400   -27440   -27472   -27522   -27535 
  -27456   -27382   -27352   -27329   -27375   -27480   -27522   -27494 
  -27490   -27527   -27561   -27541   -27502   -27523   -27548   -27495 
  -27440   -27434   -27433   -27417   -27422   -27454   -27452   -27425 
  -27445   -27486   -27503   -27538   -27569   -27558   -27535   -27500 
  -27475   -27480   -27448   -27383   -27360   -27390   -27454   -27487 
  -27463   -27471   -27518   -27546   -27542   -27492   -27452   -27467 
  -27468   -27467   -27519   -27540   -27480   -27413   -27398   -27423 
  -27429   -27409   -27403   -27400   -27390   -27398   -27442   -27495 
  -27510   -27515   -27534   -27522   -27515   -27533   -27492   -27436 
  -27450   -27487   -27468   -27427   -27434   -27449   -27426   -27459 
  -27553   -27562   -27502   -27464   -27434   -27399   -27388   -27427 
  -27494   -27508   -27454   -27410   -27415   -27445   -27465   -27472 
  -27465   -27453   -27454   -27480   -27510   -27506   -27481   -27499 
  -27531   -27472   -27380   -27405   -27483   -27496   -27469   -27463 
  -27496   -27530   -27508   -27486   -27510   -27519   -27496   -27476 
  -27449   -27406   -27369   -27342   -27352   -27406   -27461   -27506 
  -27523   -27495   -27477   -27488   -27476   -27471   -27479   -27460 
  -27440   -27427   -27407   -27400   -27411   -27444   -27503   -27526 
  -27494   -27469   -27486   -27529   -27583   -27603   -27571   -27507 
  -27452   -27423   -27418   -27414   -27434   -27487   -27500   -27445 
  -27407   -27433   -27484   -27506   -27459   -27391   -27384   -27407 
  -27421   -27465   -27500   -27471   -27433   -27400   -27371   -27394 
  -27442   -27469   -27500   -27513   -27494   -27487   -27477   -27475 
  -27506   -27541   -27568   -27573   -27531   -27496   -27513   -27548 
  -27572   -27540   -27436   -27368   -27396   -27444   -27442   -27414 
  -27398   -27382   -27386   -27448   -27515   -27506   -27446   -27418 
  -27441   -27446   -27394   -27365   -27407   -27434   -27413   -27400 
  -27406   -27398   -27361   -27322   -27334   -27384   -27438   -27492 
  -27517   -27511   -27537   -27592   -27611   -27587   -27584   -27603 
  -27592   -27550   -27517   -27522   -27579   -27618   -27608   -27622 
  -27639   -27591   -27514   -27469   -27465   -27472   -27460   -27442 
  -27450   -27460   -27456   -27452   -27422   -27387   -27411   -27426 
  -27332   -27236   -27230   -27255   -27302   -27367   -27364   -27318 
  -27311   -27329   -27332   -27338   -27349   -27332   -27314   -27349 
  -27425   -27513   -27589   -27626   -27611   -27598   -27634   -27657 
  -27606   -27588   -27627   -27592   -27513   -27514   -27554   -27573 
  -27603   -27646   -27703   -27731   -27621   -27467   -27465   -27513 
  -27471   -27459   -27498   -27459   -27372   -27353   -27357   -27303 
  -27255   -27290   -27345   -27356   -27357   -27368   -27371   -27387 
  -27450   -27480   -27440   -27453   -27484   -27405   -27338   -27378 
  -27423   -27454   -27498   -27506   -27452   -27403   -27433   -27487 
  -27492   -27502   -27521   -27514   -27537   -27585   -27607   -27629 
  -27606   -27498   -27441   -27481   -27480   -27438   -27469   -27503 
  -27423   -27349   -27426   -27507   -27456   -27417   -27469   -27506 
  -27483   -27472   -27519   -27557   -27494   -27394   -27387   -27460 
  -27480   -27387   -27306   -27349   -27441   -27534   -27606   -27554 
  -27440   -27406   -27459   -27562   -27649   -27626   -27553   -27540 
  -27595   -27615   -27525   -27453   -27492   -27541   -27556   -27549 
  -27464   -27359   -27356   -27413   -27414   -27357   -27299   -27256 
  -27230   -27233   -27226   -27199   -27202   -27238   -27294   -27372 
  -27425   -27406   -27390   -27440   -27502   -27533   -27548   -27521 
  -27488   -27573   -27733   -27785   -27719   -27685   -27753   -27822 
  -27828   -27785   -27704   -27630   -27562   -27476   -27441   -27453 
  -27392   -27315   -27344   -27421   -27475   -27508   -27491   -27399 
  -27275   -27201   -27194   -27178   -27125   -27124   -27257   -27480 
  -27626   -27599   -27496   -27434   -27399   -27378   -27409   -27459 
  -27448   -27409   -27380   -27342   -27371   -27500   -27621   -27712 
  -27801   -27789   -27677   -27585   -27513   -27427   -27392   -27409 
  -27407   -27415   -27490   -27585   -27625   -27599   -27548   -27486 
  -27426   -27426   -27468   -27452   -27417   -27442   -27453   -27417 
  -27411   -27426   -27422   -27459   -27500   -27465   -27434   -27469 
  -27513   -27521   -27475   -27414   -27394   -27387   -27365   -27319 
  -27272   -27311   -27418   -27490   -27479   -27388   -27317   -27348 
  -27384   -27384   -27448   -27529   -27517   -27479   -27498   -27542 
  -27581   -27594   -27562   -27518   -27526   -27589   -27614   -27557 
  -27502   -27492   -27503   -27556   -27623   -27637   -27610   -27562 
  -27507   -27506   -27533   -27514   -27467   -27429   -27392   -27371 
  -27373   -27346   -27292   -27301   -27368   -27425   -27446   -27417 
  -27373   -27388   -27427   -27438   -27421   -27383   -27376   -27423 
  -27449   -27436   -27413   -27357   -27319   -27384   -27477   -27507 
  -27561   -27689   -27766   -27730   -27664   -27633   -27623   -27607 
  -27546   -27452   -27400   -27430   -27490   -27511   -27490   -27490 
  -27503   -27463   -27422   -27411   -27348   -27263   -27245   -27265 
  -27274   -27271   -27294   -27351   -27376   -27383   -27437   -27484 
  -27483   -27463   -27413   -27398   -27483   -27552   -27541   -27531 
  -27546   -27550   -27531   -27527   -27581   -27643   -27653   -27684 
  -27745   -27768   -27769   -27710   -27568   -27490   -27500   -27446 
  -27355   -27344   -27376   -27402   -27436   -27440   -27383   -27314 
  -27265   -27218   -27180   -27172   -27164   -27145   -27141   -27182 
  -27278   -27371   -27433   -27496   -27558   -27602   -27607   -27542 
  -27479   -27486   -27498   -27494   -27495   -27473   -27479   -27565 
  -27646   -27673   -27661   -27638   -27658   -27700   -27743   -27818 
  -27803   -27629   -27496   -27498   -27473   -27391   -27368   -27413 
  -27421   -27396   -27450   -27557   -27579   -27538   -27540   -27552 
  -27518   -27446   -27357   -27249   -27133   -27040   -27002   -27037 
  -27105   -27140   -27197   -27337   -27480   -27552   -27545   -27506 
  -27518   -27554   -27553   -27567   -27600   -27587   -27549   -27546 
  -27583   -27616   -27619   -27634   -27691   -27718   -27696   -27660 
  -27594   -27523   -27502   -27498   -27456   -27383   -27337   -27338 
  -27326   -27288   -27288   -27326   -27346   -27349   -27380   -27422 
  -27418   -27386   -27386   -27411   -27411   -27368   -27332   -27349 
  -27418   -27513   -27600   -27635   -27616   -27598   -27588   -27558 
  -27534   -27490   -27388   -27363   -27488   -27604   -27630   -27665 
  -27727   -27746   -27714   -27693   -27676   -27577   -27450   -27441 
  -27498   -27491   -27419   -27355   -27332   -27307   -27265   -27245 
  -27238   -27193   -27133   -27151   -27220   -27211   -27183   -27265 
  -27346   -27326   -27346   -27436   -27450   -27430   -27521   -27638 
  -27608   -27494   -27461   -27499   -27567   -27656   -27696   -27677 
  -27662   -27666   -27697   -27737   -27722   -27692   -27737   -27804 
  -27791   -27724   -27661   -27580   -27471   -27369   -27321   -27288 
  -27228   -27236   -27345   -27413   -27382   -27349   -27334   -27270 
  -27207   -27226   -27256   -27237   -27240   -27279   -27313   -27356 
  -27446   -27557   -27608   -27615   -27661   -27665   -27553   -27456 
  -27422   -27399   -27445   -27562   -27627   -27603   -27561   -27564 
  -27591   -27576   -27508   -27446   -27422   -27395   -27332   -27297 
  -27315   -27334   -27353   -27379   -27382   -27423   -27541   -27619 
  -27587   -27550   -27588   -27599   -27508   -27448   -27472   -27442 
  -27390   -27441   -27494   -27453   -27437   -27496   -27572   -27622 
  -27616   -27561   -27491   -27403   -27332   -27356   -27392   -27355 
  -27348   -27394   -27392   -27388   -27433   -27437   -27396   -27384 
  -27390   -27386   -27409   -27453   -27484   -27518   -27558   -27598 
  -27634   -27661   -27665   -27637   -27607   -27585   -27554   -27548 
  -27549   -27487   -27454   -27499   -27468   -27384   -27388   -27396 
  -27364   -27380   -27429   -27476   -27508   -27442   -27336   -27337 
  -27372   -27336   -27321   -27368   -27380   -27378   -27457   -27549 
  -27535   -27452   -27415   -27457   -27492   -27468   -27463   -27507 
  -27523   -27498   -27467   -27422   -27390   -27409   -27460   -27488 
  -27459   -27427   -27456   -27471   -27460   -27496   -27531   -27526 
  -27530   -27542   -27533   -27499   -27460   -27456   -27465   -27444 
  -27417   -27400   -27367   -27337   -27368   -27469   -27581   -27649 
  -27666   -27611   -27503   -27449   -27504   -27618   -27681   -27642 
  -27575   -27506   -27415   -27392   -27448   -27433   -27368   -27394 
  -27459   -27453   -27432   -27471   -27533   -27534   -27459   -27384 
  -27352   -27332   -27326   -27353   -27382   -27382   -27378   -27373 
  -27340   -27310   -27328   -27368   -27391   -27409   -27434   -27453 
  -27471   -27510   -27526   -27464   -27398   -27444   -27544   -27584 
  -27610   -27665   -27685   -27654   -27592   -27568   -27618   -27612 
  -27513   -27473   -27492   -27444   -27380   -27423   -27527   -27560 
  -27556   -27611   -27652   -27634   -27614   -27598   -27573   -27502 
  -27363   -27261   -27249   -27240   -27197   -27180   -27216   -27259 
  -27274   -27290   -27337   -27380   -27392   -27418   -27471   -27499 
  -27475   -27434   -27422   -27415   -27395   -27405   -27426   -27423 
  -27446   -27507   -27565   -27608   -27637   -27684   -27719   -27669 
  -27618   -27642   -27629   -27544   -27510   -27518   -27467   -27413 
  -27457   -27538   -27565   -27560   -27568   -27580   -27550   -27507 
  -27496   -27476   -27460   -27517   -27553   -27494   -27436   -27409 
  -27353   -27305   -27286   -27251   -27206   -27187   -27209   -27282 
  -27330   -27329   -27383   -27468   -27481   -27456   -27449   -27437 
  -27392   -27338   -27303   -27292   -27307   -27355   -27441   -27554 
  -27643   -27681   -27718   -27760   -27762   -27729   -27670   -27592 
  -27541   -27530   -27517   -27508   -27519   -27553   -27606   -27621 
  -27615   -27656   -27702   -27708   -27670   -27588   -27486   -27349 
  -27224   -27218   -27271   -27265   -27249   -27280   -27318   -27337 
  -27341   -27332   -27313   -27286   -27272   -27286   -27286   -27297 
  -27368   -27449   -27506   -27553   -27576   -27577   -27541   -27479 
  -27479   -27502   -27445   -27390   -27417   -27452   -27463   -27486 
  -27518   -27529   -27517   -27502   -27495   -27481   -27465   -27484 
  -27562   -27649   -27669   -27635   -27585   -27523   -27480   -27480 
  -27486   -27445   -27384   -27390   -27433   -27445   -27498   -27585 
  -27591   -27562   -27599   -27610   -27546   -27515   -27508   -27422 
  -27290   -27238   -27290   -27365   -27406   -27445   -27499   -27544 
  -27567   -27553   -27515   -27473   -27398   -27307   -27267   -27263 
  -27259   -27267   -27309   -27376   -27459   -27553   -27600   -27553 
  -27490   -27473   -27449   -27411   -27405   -27399   -27378   -27395 
  -27450   -27481   -27500   -27552   -27583   -27557   -27519   -27499 
  -27494   -27503   -27541   -27581   -27579   -27569   -27599   -27611 
  -27577   -27546   -27517   -27484   -27460   -27463   -27494   -27498 
  -27471   -27484   -27487   -27413   -27340   -27299   -27268   -27292 
  -27352   -27360   -27351   -27365   -27373   -27371   -27373   -27406 
  -27479   -27514   -27498   -27510   -27518   -27486   -27481   -27533 
  -27599   -27610   -27556   -27506   -27488   -27491   -27500   -27481 
  -27465   -27464   -27426   -27386   -27367   -27346   -27383   -27452 
  -27442   -27388   -27391   -27453   -27531   -27592   -27634   -27649 
  -27622   -27610   -27618   -27592   -27565   -27525   -27441   -27398 
  -27433   -27460   -27441   -27414   -27425   -27467   -27486   -27468 
