Origin Time       2025/03/30 21:30:00
Lat.              38.535
Long.             142.295
Depth. (km)       44
Mag.              4.3
Station Code      FKSH11
Station Lat.      37.2006
Station Long.     140.3386
Station Height(m) 285.7
Record Time       2025/03/30 21:31:55
Sampling Freq(Hz) 100Hz
Duration Time(s)  120
Dir.              5
Scale Factor      7845(gal)/8223790
Max. Acc. (gal)   0.674
Last Correction   2025/03/30 21:31:56
Memo.             
[...]
   -3693    -3681    -3690    -3719    -3738    -3711    -3682    -3705 
   -3750    -3754    -3717    -3680    -3667    -3667    -3669    -3678 
   -3685    -3704    -3766    -3831    -3836    -3798    -3759    -3738 
   -3727    -3712    -3715    -3748    -3780    -3794    -3796    -3770 
   -3747    -3753    -3762    -3763    -3781    -3797    -3798    -3835 
   -3879    -3847    -3780    -3770    -3790    -3759    -3693    -3670 
   -3693    -3732    -3777    -3778    -3724    -3690    -3720    -3758 
   -3744    -3724    -3763    -3823    -3838    -3834    -3819    -3766 
   -3709    -3688    -3678    -3658    -3651    -3688    -3728    -3734 
   -3731    -3724    -3708    -3720    -3751    -3777    -3825    -3882 
   -3886    -3824    -3738    -3674    -3647    -3654    -3699    -3742 
   -3753    -3766    -3785    -3767    -3732    -3740    -3766    -3744 
   -3708    -3721    -3755    -3771    -3793    -3838    -3874    -3867 
   -3809    -3708    -3615    -3599    -3650    -3701    -3730    -3767 
   -3805    -3807    -3767    -3717    -3681    -3686    -3736    -3788 
   -3785    -3742    -3704    -3685    -3678    -3703    -3757    -3802 
   -3827    -3832    -3811    -3753    -3700    -3699    -3701    -3678 
   -3688    -3739    -3781    -3812    -3832    -3807    -3754    -3740 
   -3767    -3777    -3759    -3751    -3778    -3809    -3800    -3754 
   -3705    -3684    -3705    -3744    -3765    -3773    -3785    -3798 
   -3815    -3815    -3781    -3744    -3750    -3766    -3736    -3681 
   -3662    -3694    -3759    -3820    -3827    -3784    -3739    -3724 
   -3730    -3726    -3688    -3654    -3681    -3770    -3842    -3856 
   -3858    -3867    -3847    -3784    -3715    -3659    -3640    -3681 
   -3736    -3761    -3759    -3762    -3770    -3750    -3721    -3721 
   -3739    -3753    -3766    -3798    -3840    -3850    -3821    -3770 
   -3701    -3646    -3615    -3596    -3622    -3689    -3742    -3774 
   -3796    -3796    -3784    -3769    -3757    -3766    -3793    -3801 
   -3792    -3786    -3763    -3707    -3647    -3616    -3630    -3697 
   -3788    -3848    -3859    -3821    -3763    -3734    -3747    -3770 
   -3789    -3800    -3785    -3743    -3693    -3662    -3658    -3666 
   -3688    -3704    -3693    -3689    -3751    -3843    -3875    -3839 
   -3789    -3766    -3761    -3742    -3704    -3686    -3708    -3731 
   -3748    -3761    -3744    -3732    -3786    -3870    -3892    -3844 
   -3789    -3742    -3704    -3715    -3778    -3834    -3827    -3778 
   -3712    -3650    -3638    -3713    -3821    -3846    -3771    -3672 
   -3608    -3649    -3804    -3939    -3950    -3856    -3721    -3608 
   -3566    -3592    -3673    -3792    -3873    -3862    -3789    -3686 
   -3597    -3591    -3666    -3769    -3848    -3865    -3796    -3681 
   -3608    -3636    -3757    -3885    -3915    -3819    -3692    -3615 
   -3599    -3674    -3829    -3936    -3917    -3809    -3672    -3592 
   -3653    -3811    -3942    -3983    -3920    -3761    -3591    -3520 
   -3581    -3711    -3832    -3881    -3840    -3759    -3703    -3704 
   -3769    -3847    -3859    -3796    -3717    -3659    -3639    -3670 
   -3717    -3727    -3708    -3682    -3662    -3680    -3735    -3786 
   -3802    -3789    -3761    -3738    -3728    -3735    -3758    -3777 
   -3763    -3746    -3753    -3744    -3696    -3666    -3696    -3735 
   -3767    -3817    -3847    -3827    -3804    -3782    -3739    -3711 
   -3740    -3811    -3855    -3825    -3742    -3676    -3667    -3721 
   -3811    -3871    -3854    -3770    -3705    -3704    -3731    -3769 
   -3819    -3851    -3855    -3812    -3720    -3638    -3626    -3674 
   -3727    -3727    -3667    -3615    -3647    -3740    -3807    -3834 
   -3831    -3766    -3688    -3676    -3689    -3686    -3715    -3777 
   -3800    -3773    -3747    -3742    -3739    -3738    -3751    -3778 
   -3811    -3823    -3786    -3716    -3680    -3717    -3757    -3735 
   -3712    -3736    -3766    -3774    -3785    -3820    -3847    -3811 
   -3750    -3717    -3689    -3681    -3738    -3785    -3751    -3719 
   -3778    -3881    -3893    -3820    -3796    -3816    -3782    -3726 
   -3723    -3735    -3724    -3731    -3750    -3723    -3654    -3619 
   -3639    -3680    -3732    -3788    -3802    -3774    -3765    -3769 
   -3715    -3646    -3676    -3754    -3755    -3688    -3657    -3705 
   -3801    -3848    -3807    -3763    -3758    -3713    -3635    -3620 
   -3713    -3854    -3954    -3925    -3782    -3697    -3750    -3832 
   -3840    -3782    -3766    -3794    -3762    -3694    -3689    -3727 
   -3747    -3747    -3754    -3770    -3793    -3786    -3693    -3612 
   -3662    -3769    -3820    -3785    -3676    -3593    -3626    -3746 
   -3870    -3861    -3713    -3655    -3766    -3832    -3765    -3717 
   -3720    -3686    -3684    -3759    -3788    -3751    -3759    -3805 
   -3805    -3771    -3801    -3861    -3771    -3639    -3701    -3786 
   -3699    -3663    -3801    -3862    -3753    -3689    -3759    -3785 
   -3731    -3751    -3792    -3750    -3708    -3730    -3801    -3859 
   -3850    -3838    -3798    -3654    -3557    -3646    -3735    -3674 
   -3631    -3738    -3856    -3838    -3736    -3712    -3763    -3738 
   -3705    -3808    -3861    -3727    -3661    -3805    -3886    -3724 
   -3599    -3686    -3715    -3636    -3720    -3844    -3782    -3715 
   -3789    -3836    -3757    -3704    -3784    -3815    -3720    -3728 
   -3863    -3874    -3790    -3817    -3883    -3824    -3697    -3649 
   -3678    -3704    -3735    -3761    -3748    -3770    -3834    -3827 
   -3746    -3704    -3761    -3847    -3840    -3766    -3761    -3811 
   -3798    -3711    -3580    -3478    -3549    -3750    -3829    -3727 
   -3635    -3700    -3827    -3817    -3694    -3667    -3774    -3846 
   -3793    -3703    -3693    -3762    -3797    -3750    -3716    -3734 
   -3780    -3812    -3753    -3655    -3697    -3856    -3882    -3726 
   -3620    -3727    -3889    -3863    -3773    -3735    -3624    -3636 
   -3780    -3734    -3685    -3781    -3771    -3703    -3676    -3645 
   -3716    -3771    -3689    -3771    -3913    -3796    -3697    -3727 
   -3717    -3794    -3883    -3750    -3564    -3511    -3572    -3678 
   -3685    -3726    -3958    -4072    -3952    -3883    -3894    -3813 
   -3720    -3696    -3589    -3511    -3704    -3942    -3897    -3708 
   -3638    -3682    -3771    -3897    -3985    -3894    -3636    -3495 
   -3645    -3831    -3823    -3731    -3709    -3738    -3728    -3688 
   -3677    -3707    -3780    -3859    -3838    -3739    -3735    -3829 
   -3881    -3856    -3823    -3827    -3851    -3827    -3744    -3647 
   -3592    -3640    -3762    -3856    -3890    -3842    -3734    -3692 
   -3726    -3747    -3743    -3701    -3653    -3663    -3720    -3761 
   -3778    -3770    -3727    -3701    -3700    -3642    -3562    -3584 
   -3684    -3739    -3743    -3793    -3873    -3877    -3789    -3670 
   -3574    -3559    -3624    -3662    -3636    -3665    -3755    -3793 
   -3780    -3802    -3888    -3977    -3985    -3904    -3809    -3717 
   -3591    -3478    -3469    -3572    -3732    -3897    -4000    -4016 
   -4005    -4032    -4060    -3962    -3732    -3553    -3531    -3623 
   -3769    -3871    -3854    -3797    -3815    -3848    -3798    -3732 
   -3770    -3851    -3856    -3813    -3773    -3713    -3639    -3561 
   -3512    -3569    -3693    -3777    -3809    -3823    -3840    -3885 
   -3902    -3842    -3721    -3569    -3433    -3418    -3534    -3654 
   -3665    -3597    -3603    -3746    -3889    -3913    -3858    -3811 
   -3775    -3721    -3658    -3647    -3744    -3862    -3836    -3715 
   -3681    -3716    -3690    -3631    -3636    -3704    -3784    -3832 
   -3827    -3790    -3770    -3824    -3964    -4114    -4166    -4060 
   -3839    -3639    -3519    -3415    -3353    -3414    -3528    -3599 
   -3632    -3673    -3755    -3879    -3998    -4045    -4001    -3928 
   -3890    -3874    -3824    -3742    -3673    -3609    -3539    -3511 
   -3565    -3697    -3820    -3865    -3838    -3758    -3697    -3736 
   -3823    -3889    -3937    -3959    -3940    -3866    -3746    -3672 
   -3690    -3731    -3717    -3643    -3588    -3612    -3678    -3730 
   -3748    -3786    -3878    -3955    -3943    -3865    -3804    -3802 
   -3798    -3738    -3654    -3572    -3470    -3360    -3322    -3445 
   -3715    -4021    -4245    -4310    -4220    -4031    -3796    -3574 
   -3427    -3370    -3388    -3488    -3647    -3751    -3754    -3731 
   -3727    -3719    -3712    -3769    -3896    -4002    -4005    -3885 
   -3701    -3581    -3591    -3645    -3638    -3589    -3604    -3723 
   -3885    -4021    -4109    -4125    -4045    -3898    -3726    -3538 
   -3392    -3358    -3480    -3727    -3971    -4116    -4135    -4017 
   -3792    -3522    -3284    -3168    -3213    -3385    -3658    -3969 
   -4174    -4152    -3967    -3800    -3726    -3686    -3615    -3527 
   -3503    -3573    -3676    -3728    -3724    -3723    -3754    -3809 
   -3861    -3863    -3839    -3870    -3952    -4012    -4033    -4036 
   -4006    -3912    -3742    -3537    -3399    -3433    -3620    -3854 
   -4058    -4217    -4318    -4328    -4205    -3973    -3724    -3549 
   -3476    -3472    -3487    -3528    -3618    -3717    -3743    -3639 
   -3472    -3388    -3464    -3627    -3773    -3854    -3866    -3839 
   -3786    -3715    -3662    -3653    -3676    -3677    -3603    -3476 
   -3389    -3410    -3520    -3638    -3697    -3734    -3829    -3955 
   -4006    -3975    -3935    -3916    -3881    -3813    -3739    -3665 
   -3601    -3589    -3626    -3666    -3723    -3840    -3991    -4097 
   -4122    -4079    -3979    -3854    -3770    -3739    -3703    -3650 
   -3601    -3549    -3483    -3414    -3384    -3473    -3700    -3967 
   -4137    -4128    -3954    -3697    -3460    -3316    -3334    -3512 
   -3738    -3939    -4126    -4216    -4087    -3796    -3507    -3341 
   -3364    -3557    -3825    -4051    -4148    -4135    -4086    -4017 
   -3920    -3820    -3731    -3645    -3566    -3542    -3604    -3715 
   -3805    -3819    -3774    -3740    -3743    -3796    -3912    -4044 
   -4143    -4153    -4027    -3786    -3499    -3260    -3164    -3215 
   -3352    -3503    -3605    -3661    -3730    -3835    -3924    -3959 
   -3947    -3921    -3902    -3862    -3790    -3721    -3650    -3572 
   -3537    -3551    -3549    -3527    -3564    -3692    -3835    -3923 
   -3924    -3852    -3759    -3690    -3653    -3667    -3780    -3981 
   -4155    -4176    -4024    -3788    -3601    -3541    -3569    -3630 
   -3704    -3786    -3846    -3831    -3734    -3619    -3580    -3649 
   -3767    -3886    -3982    -4024    -4024    -3975    -3829    -3616 
   -3430    -3315    -3289    -3377    -3570    -3817    -4040    -4153 
   -4104    -3919    -3696    -3514    -3429    -3469    -3592    -3750 
   -3915    -4012    -3985    -3889    -3782    -3673    -3599    -3592 
   -3599    -3600    -3638    -3717    -3777    -3793    -3834    -3917 
   -3967    -3944    -3906    -3904    -3925    -3915    -3856    -3794 
   -3759    -3719    -3645    -3601    -3674    -3844    -4002    -4063 
   -4010    -3886    -3743    -3604    -3477    -3391    -3384    -3461 
   -3565    -3622    -3609    -3551    -3485    -3462    -3492    -3531 
   -3605    -3778    -4012    -4164    -4141    -3996    -3847    -3765 
   -3740    -3708    -3623    -3516    -3468    -3508    -3588    -3681 
   -3816    -4002    -4190    -4301    -4295    -4197    -4033    -3867 
   -3753    -3672    -3620    -3613    -3620    -3612    -3627    -3684 
   -3730    -3717    -3650    -3576    -3542    -3572    -3662    -3784 
   -3881    -3894    -3802    -3682    -3622    -3626    -3650    -3681 
   -3734    -3790    -3794    -3742    -3663    -3592    -3578    -3676 
   -3848    -4002    -4081    -4066    -3939    -3765    -3667    -3670 
   -3735    -3844    -3924    -3904    -3824    -3708    -3599    -3601 
   -3709    -3815    -3878    -3896    -3856    -3790    -3707    -3627 
   -3586    -3574    -3582    -3619    -3645    -3632    -3626    -3667 
   -3734    -3777    -3777    -3728    -3669    -3659    -3700    -3773 
   -3883    -3997    -4033    -3954    -3815    -3703    -3613    -3530 
   -3500    -3568    -3694    -3813    -3908    -3993    -4052    -4072 
   -4082    -4045    -3898    -3684    -3497    -3389    -3392    -3505 
   -3651    -3759    -3834    -3889    -3893    -3828    -3721    -3628 
   -3604    -3645    -3689    -3743    -3821    -3851    -3819    -3800 
   -3804    -3775    -3704    -3626    -3585    -3609    -3693    -3827 
   -3991    -4101    -4078    -3939    -3765    -3597    -3460    -3410 
   -3484    -3631    -3788    -3913    -3948    -3888    -3801    -3721 
   -3631    -3582    -3651    -3784    -3878    -3901    -3866    -3800 
   -3747    -3735    -3736    -3712    -3711    -3780    -3836    -3816 
   -3777    -3766    -3778    -3812    -3869    -3897    -3854    -3773 
   -3700    -3645    -3607    -3595    -3604    -3595    -3565    -3588 
   -3692    -3815    -3896    -3886    -3778    -3618    -3504    -3507 
   -3604    -3717    -3823    -3900    -3889    -3785    -3662    -3589 
   -3604    -3677    -3753    -3813    -3828    -3778    -3730    -3744 
   -3788    -3834    -3920    -4008    -3998    -3870    -3731    -3717 
   -3839    -3967    -3989    -3896    -3716    -3458    -3191    -3044 
   -3084    -3302    -3636    -3960    -4139    -4145    -4070    -3982 
   -3879    -3755    -3642    -3573    -3551    -3553    -3561    -3599 
   -3707    -3870    -3991    -3979    -3863    -3765    -3746    -3805 
   -3908    -4005    -4064    -4108    -4121    -4067    -3993    -3967 
   -3962    -3940    -3915    -3836    -3655    -3456    -3373    -3416 
   -3514    -3657    -3828    -3923    -3904    -3827    -3721    -3619 
   -3573    -3568    -3559    -3545    -3538    -3554    -3565    -3522 
   -3476    -3499    -3527    -3519    -3523    -3534    -3535    -3570 
   -3658    -3754    -3835    -3908    -3955    -3970    -3987    -3982 
   -3917    -3859    -3856    -3882    -3909    -3913    -3871    -3808 
   -3770    -3781    -3820    -3871    -3927    -3950    -3913    -3816 
   -3713    -3684    -3709    -3742    -3773    -3771    -3742    -3728 
   -3715    -3682    -3680    -3735    -3816    -3896    -3921    -3855 
   -3744    -3661    -3615    -3595    -3588    -3581    -3595    -3655 
   -3755    -3871    -3967    -3981    -3886    -3730    -3577    -3468 
   -3426    -3487    -3620    -3748    -3846    -3878    -3819    -3735 
   -3692    -3688    -3716    -3781    -3865    -3936    -3985    -4016 
   -4016    -3954    -3832    -3728    -3703    -3713    -3715    -3723 
   -3755    -3777    -3761    -3754    -3765    -3770    -3794    -3824 
   -3819    -3789    -3744    -3663    -3542    -3404    -3311    -3315 
   -3408    -3558    -3700    -3784    -3823    -3836    -3823    -3797 
   -3775    -3763    -3755    -3746    -3744    -3755    -3784    -3812 
   -3824    -3821    -3796    -3746    -3692    -3650    -3638    -3685 
   -3786    -3919    -4041    -4113    -4121    -4075    -3978    -3861 
   -3755    -3662    -3586    -3543    -3520    -3519    -3565    -3650 
   -3738    -3802    -3821    -3796    -3754    -3699    -3604    -3511 
   -3495    -3573    -3709    -3831    -3893    -3910    -3875    -3786 
   -3713    -3701    -3747    -3843    -3964    -4056    -4087    -4041 
   -3925    -3798    -3719    -3703    -3740    -3773    -3751    -3719 
   -3726    -3766    -3846    -3929    -3944    -3877    -3747    -3589 
   -3460    -3391    -3384    -3441    -3531    -3612    -3667    -3674 
   -3636    -3585    -3545    -3543    -3574    -3584    -3573    -3597 
   -3659    -3732    -3819    -3912    -3996    -4052    -4028    -3912 
   -3786    -3716    -3693    -3728    -3802    -3848    -3847    -3834 
   -3836    -3871    -3942    -4014    -4054    -4056    -4021    -3942 
   -3846    -3774    -3720    -3680    -3680    -3709    -3719    -3689 
   -3651    -3646    -3670    -3669    -3618    -3549    -3499    -3497 
   -3572    -3678    -3735    -3719    -3669    -3623    -3586    -3562 
   -3588    -3680    -3778    -3829    -3842    -3836    -3800    -3747 
   -3750    -3798    -3824    -3846    -3889    -3916    -3904    -3856 
   -3800    -3766    -3765    -3777    -3800    -3839    -3877    -3877 
   -3846    -3812    -3770    -3759    -3829    -3927    -3959    -3921 
   -3852    -3796    -3751    -3690    -3622    -3581    -3573    -3599 
   -3672    -3755    -3801    -3809    -3807    -3800    -3757    -3657 
   -3569    -3566    -3611    -3655    -3703    -3727    -3713    -3689 
   -3678    -3670    -3651    -3619    -3612    -3642    -3674    -3697 
   -3724    -3743    -3750    -3757    -3744    -3707    -3685    -3699 
   -3742    -3807    -3855    -3858    -3836    -3819    -3831    -3873 
   -3882    -3835    -3780    -3748    -3736    -3740    -3767    -3807 
   -3834    -3848    -3856    -3835    -3775    -3707    -3654    -3616 
   -3604    -3628    -3690    -3789    -3893    -3927    -3896    -3854 
   -3788    -3697    -3653    -3688    -3778    -3867    -3915    -3916 
   -3867    -3788    -3734    -3728    -3743    -3751    -3754    -3763 
   -3771    -3788    -3831    -3865    -3851    -3800    -3723    -3632 
   -3558    -3526    -3559    -3638    -3689    -3674    -3611    -3530 
   -3453    -3406    -3402    -3447    -3557    -3672    -3731    -3774 
   -3825    -3846    -3838    -3828    -3816    -3796    -3774    -3747 
   -3719    -3708    -3735    -3808    -3897    -3959    -4009    -4079 
   -4147    -4185    -4176    -4095    -3973    -3882    -3828    -3765 
   -3692    -3659    -3689    -3743    -3790    -3816    -3819    -3797 
   -3763    -3728    -3694    -3674    -3676    -3690    -3705    -3726 
   -3731    -3692    -3634    -3573    -3495    -3437    -3431    -3449 
   -3473    -3515    -3561    -3595    -3647    -3724    -3777    -3780 
   -3757    -3753    -3781    -3811    -3809    -3769    -3715    -3699 
   -3705    -3689    -3670    -3705    -3805    -3920    -4005    -4058 
   -4072    -4051    -4009    -3940    -3844    -3761    -3719    -3716 
   -3727    -3750    -3785    -3805    -3813    -3816    -3816    -3836 
   -3873    -3882    -3843    -3784    -3730    -3685    -3646    -3626 
   -3624    -3627    -3649    -3699    -3743    -3746    -3711    -3661 
   -3612    -3564    -3524    -3507    -3530    -3595    -3669    -3723 
   -3762    -3780    -3747    -3670    -3603    -3584    -3609    -3666 
   -3736    -3796    -3835    -3858    -3866    -3843    -3786    -3730 
   -3708    -3721    -3747    -3748    -3739    -3773    -3835    -3878 
   -3896    -3894    -3898    -3933    -3964    -3947    -3902    -3852 
   -3777    -3696    -3657    -3659    -3711    -3790    -3842    -3855 
   -3847    -3786    -3673    -3574    -3530    -3553    -3642    -3757 
   -3843    -3888    -3908    -3910    -3888    -3852    -3824    -3807 
   -3797    -3790    -3792    -3808    -3840    -3848    -3800    -3728 
   -3686    -3681    -3704    -3728    -3751    -3781    -3770    -3694 
   -3586    -3491    -3449    -3480    -3553    -3615    -3658    -3690 
