Origin Time       2025/03/30 21:30:00
Lat.              38.535
Long.             142.295
Depth. (km)       44
Mag.              4.3
Station Code      FKSH19
Station Lat.      37.4703
Station Long.     140.7227
Station Height(m) 510
Record Time       2025/03/30 21:31:44
Sampling Freq(Hz) 100Hz
Duration Time(s)  120
Dir.              4
Scale Factor      7845(gal)/8223790
Max. Acc. (gal)   1.586
Last Correction   2025/03/30 21:31:44
Memo.             
[...]
   -9533    -9583    -9543    -9486    -9448    -9402    -9414    -9472 
   -9494    -9486    -9424    -9315    -9286    -9363    -9452    -9495 
   -9487    -9486    -9522    -9526    -9462    -9390    -9337    -9332 
   -9404    -9491    -9556    -9625    -9610    -9481    -9364    -9308 
   -9316    -9412    -9499    -9498    -9479    -9504    -9535    -9520 
   -9467    -9445    -9474    -9467    -9416    -9378    -9414    -9514 
   -9537    -9456    -9420    -9468    -9478    -9424    -9414    -9435 
   -9401    -9370    -9421    -9526    -9564    -9482    -9413    -9439 
   -9491    -9520    -9485    -9424    -9428    -9423    -9393    -9436 
   -9462    -9428    -9447    -9466    -9427    -9401    -9401    -9412 
   -9450    -9517    -9587    -9644    -9649    -9520    -9339    -9293 
   -9348    -9367    -9360    -9367    -9373    -9387    -9450    -9535 
   -9590    -9589    -9572    -9572    -9513    -9427    -9429    -9447 
   -9398    -9351    -9367    -9441    -9509    -9512    -9478    -9425 
   -9385    -9459    -9582    -9524    -9377    -9364    -9396    -9396 
   -9421    -9420    -9423    -9479    -9478    -9401    -9367    -9400 
   -9471    -9555    -9574    -9575    -9629    -9587    -9409    -9305 
   -9332    -9424    -9545    -9544    -9398    -9348    -9435    -9502 
   -9541    -9566    -9529    -9447    -9369    -9305    -9292    -9370 
   -9517    -9625    -9575    -9433    -9378    -9378    -9323    -9297 
   -9408    -9520    -9510    -9450    -9387    -9389    -9543    -9678 
   -9633    -9564    -9514    -9396    -9331    -9362    -9406    -9491 
   -9552    -9551    -9547    -9466    -9366    -9394    -9405    -9355 
   -9394    -9433    -9359    -9304    -9342    -9423    -9555    -9682 
   -9644    -9466    -9342    -9358    -9447    -9499    -9522    -9594 
   -9657    -9607    -9501    -9394    -9269    -9224    -9310    -9394 
   -9445    -9559    -9672    -9597    -9391    -9329    -9412    -9470 
   -9481    -9416    -9281    -9262    -9398    -9528    -9572    -9568 
   -9572    -9571    -9514    -9440    -9413    -9414    -9416    -9432 
   -9432    -9402    -9429    -9517    -9533    -9491    -9505    -9505 
   -9420    -9337    -9292    -9285    -9355    -9470    -9566    -9547 
   -9414    -9359    -9428    -9548    -9664    -9641    -9536    -9536 
   -9522    -9391    -9336    -9413    -9440    -9354    -9282    -9328 
   -9431    -9501    -9518    -9531    -9614    -9697    -9598    -9404 
   -9304    -9269    -9263    -9286    -9271    -9279    -9391    -9518 
   -9585    -9639    -9691    -9680    -9605    -9522    -9451    -9391 
   -9369    -9377    -9408    -9428    -9427    -9466    -9535    -9537 
   -9460    -9405    -9440    -9485    -9431    -9316    -9262    -9323 
   -9436    -9506    -9526    -9517    -9474    -9474    -9475    -9355 
   -9312    -9504    -9674    -9628    -9541    -9566    -9586    -9506 
   -9366    -9240    -9216    -9293    -9413    -9549    -9659    -9705 
   -9663    -9540    -9397    -9305    -9290    -9279    -9236    -9286 
   -9412    -9428    -9450    -9607    -9661    -9549    -9459    -9413 
   -9401    -9406    -9346    -9333    -9516    -9713    -9728    -9624 
   -9508    -9435    -9402    -9360    -9325    -9363    -9424    -9404 
   -9315    -9317    -9521    -9732    -9710    -9526    -9352    -9306 
   -9362    -9391    -9414    -9482    -9521    -9482    -9375    -9337 
   -9481    -9575    -9493    -9455    -9475    -9454    -9483    -9487 
   -9363    -9344    -9499    -9517    -9401    -9414    -9467    -9443 
   -9441    -9448    -9452    -9501    -9526    -9528    -9571    -9547 
   -9400    -9329    -9383    -9404    -9377    -9377    -9450    -9536 
   -9487    -9405    -9508    -9687    -9730    -9612    -9400    -9250 
   -9258    -9251    -9157    -9267    -9602    -9720    -9574    -9481 
   -9487    -9490    -9456    -9402    -9379    -9359    -9344    -9417 
   -9514    -9576    -9648    -9628    -9486    -9386    -9366    -9396 
   -9456    -9464    -9433    -9478    -9576    -9564    -9439    -9371 
   -9364    -9331    -9319    -9363    -9397    -9435    -9514    -9575 
   -9606    -9618    -9559    -9433    -9331    -9298    -9286    -9286 
   -9424    -9613    -9553    -9383    -9463    -9630    -9591    -9471 
   -9425    -9451    -9497    -9470    -9410    -9398    -9409    -9464 
   -9525    -9499    -9485    -9497    -9424    -9352    -9401    -9478 
   -9454    -9348    -9283    -9315    -9409    -9564    -9717    -9680 
   -9506    -9478    -9518    -9458    -9432    -9427    -9333    -9270 
   -9312    -9418    -9537    -9594    -9582    -9551    -9505    -9450 
   -9429    -9437    -9447    -9451    -9410    -9346    -9358    -9428 
   -9482    -9516    -9498    -9427    -9352    -9297    -9350    -9483 
   -9522    -9540    -9607    -9545    -9400    -9373    -9404    -9425 
   -9482    -9572    -9643    -9585    -9441    -9404    -9429    -9443 
   -9495    -9520    -9459    -9397    -9377    -9389    -9440    -9504 
   -9528    -9490    -9391    -9350    -9433    -9428    -9279    -9251 
   -9342    -9386    -9450    -9547    -9609    -9632    -9547    -9390 
   -9391    -9548    -9613    -9499    -9359    -9310    -9333    -9404 
   -9513    -9597    -9634    -9671    -9657    -9540    -9400    -9374 
   -9458    -9477    -9377    -9316    -9333    -9335    -9301    -9288 
   -9386    -9555    -9597    -9522    -9490    -9501    -9520    -9518 
   -9450    -9387    -9359    -9310    -9306    -9371    -9431    -9497 
   -9541    -9487    -9471    -9597    -9663    -9559    -9463    -9441 
   -9405    -9458    -9590    -9585    -9509    -9466    -9377    -9337 
   -9400    -9400    -9343    -9394    -9505    -9474    -9360    -9354 
   -9418    -9454    -9475    -9514    -9575    -9617    -9572    -9506 
   -9491    -9417    -9285    -9229    -9216    -9234    -9332    -9435 
   -9518    -9597    -9640    -9670    -9691    -9674    -9622    -9576 
   -9524    -9405    -9259    -9204    -9238    -9279    -9308    -9393 
   -9535    -9612    -9624    -9671    -9675    -9564    -9436    -9306 
   -9144    -9039    -9049    -9162    -9347    -9509    -9580    -9587 
   -9589    -9639    -9737    -9775    -9693    -9558    -9435    -9309 
   -9184    -9180    -9290    -9374    -9470    -9586    -9626    -9668 
   -9751    -9749    -9634    -9435    -9248    -9236    -9324    -9377 
   -9447    -9512    -9468    -9397    -9366    -9347    -9366    -9416 
   -9414    -9364    -9332    -9356    -9441    -9520    -9517    -9478 
   -9516    -9605    -9663    -9653    -9545    -9427    -9406    -9408 
   -9358    -9294    -9255    -9297    -9416    -9485    -9514    -9616 
   -9751    -9805    -9734    -9618    -9522    -9440    -9389    -9298 
   -9161    -9224    -9425    -9387    -9205    -9243    -9435    -9512 
   -9463    -9389    -9296    -9220    -9243    -9324    -9404    -9605 
   -9900    -9981    -9809    -9629    -9494    -9408    -9397    -9375 
   -9343    -9397    -9487    -9481    -9412    -9406    -9409    -9381 
   -9437    -9531    -9528    -9443    -9410    -9533    -9641    -9603 
   -9536    -9435    -9286    -9221    -9261    -9347    -9447    -9479 
   -9459    -9475    -9478    -9440    -9386    -9310    -9301    -9379 
   -9474    -9574    -9560    -9406    -9398    -9564    -9586    -9520 
   -9610    -9691    -9570    -9401    -9377    -9444    -9458    -9472 
   -9570    -9578    -9436    -9340    -9313    -9296    -9369    -9481 
   -9522    -9520    -9479    -9393    -9342    -9385    -9447    -9468 
   -9470    -9418    -9328    -9309    -9429    -9570    -9613    -9625 
   -9580    -9455    -9390    -9373    -9339    -9379    -9486    -9543 
   -9505    -9455    -9517    -9586    -9483    -9377    -9481    -9618 
   -9586    -9447    -9319    -9319    -9482    -9575    -9455    -9351 
   -9408    -9423    -9305    -9258    -9333    -9406    -9447    -9440 
   -9405    -9443    -9526    -9526    -9510    -9589    -9649    -9598 
   -9522    -9529    -9574    -9509    -9408    -9435    -9499    -9494 
   -9416    -9292    -9263    -9344    -9390    -9435    -9490    -9428 
   -9354    -9420    -9485    -9525    -9613    -9586    -9450    -9378 
   -9282    -9174    -9263    -9466    -9553    -9548    -9586    -9651 
   -9664    -9620    -9506    -9386    -9363    -9382    -9370    -9352 
   -9391    -9493    -9521    -9481    -9521    -9571    -9517    -9409 
   -9317    -9312    -9428    -9595    -9637    -9517    -9456    -9485 
   -9397    -9238    -9186    -9235    -9310    -9421    -9533    -9567 
   -9547    -9544    -9589    -9644    -9648    -9587    -9462    -9321 
   -9282    -9401    -9528    -9474    -9402    -9516    -9540    -9351 
   -9305    -9458    -9510    -9458    -9418    -9428    -9525    -9571 
   -9439    -9297    -9254    -9262    -9343    -9458    -9543    -9657 
   -9752    -9671    -9486    -9400    -9393    -9364    -9309    -9228 
   -9212    -9354    -9521    -9645    -9749    -9732    -9624    -9585 
   -9536    -9356    -9266    -9356    -9340    -9294    -9389    -9394 
   -9375    -9516    -9634    -9632    -9593    -9504    -9369    -9336 
   -9404    -9431    -9429    -9440    -9468    -9479    -9406    -9363 
   -9420    -9445    -9402    -9397    -9455    -9501    -9460    -9398 
   -9436    -9526    -9563    -9522    -9440    -9413    -9447    -9443 
   -9489    -9674    -9733    -9556    -9485    -9564    -9482    -9328 
   -9277    -9204    -9184    -9335    -9460    -9501    -9545    -9475 
   -9340    -9366    -9475    -9489    -9463    -9459    -9458    -9459 
   -9408    -9347    -9383    -9467    -9543    -9571    -9509    -9456 
   -9460    -9486    -9563    -9674    -9684    -9578    -9493    -9486 
   -9504    -9502    -9506    -9560    -9516    -9329    -9192    -9130 
   -9150    -9262    -9332    -9401    -9498    -9460    -9362    -9416 
   -9553    -9578    -9522    -9512    -9504    -9471    -9427    -9362 
   -9408    -9567    -9603    -9497    -9437    -9491    -9563    -9582 
   -9514    -9391    -9389    -9499    -9479    -9379    -9409    -9472 
   -9413    -9374    -9416    -9394    -9425    -9566    -9551    -9460 
   -9543    -9617    -9487    -9286    -9208    -9275    -9433    -9605 
   -9613    -9493    -9435    -9425    -9404    -9377    -9412    -9518 
   -9518    -9462    -9475    -9406    -9352    -9506    -9648    -9616 
   -9537    -9477    -9390    -9265    -9109    -9117    -9409    -9645 
   -9587    -9478    -9489    -9532    -9543    -9529    -9495    -9508 
   -9601    -9585    -9437    -9412    -9481    -9474    -9454    -9472 
   -9450    -9373    -9344    -9363    -9340    -9355    -9494    -9602 
   -9545    -9420    -9347    -9331    -9292    -9252    -9340    -9427 
   -9391    -9424    -9520    -9525    -9570    -9722    -9842    -9902 
   -9864    -9589    -9212    -9008    -8981    -9057    -9234    -9428 
   -9549    -9590    -9526    -9499    -9680    -9828    -9687    -9436 
   -9285    -9178    -9051    -9090    -9400    -9709    -9859    -9910 
   -9792    -9618    -9512    -9292    -9099    -9201    -9354    -9347 
   -9313    -9337    -9462    -9657    -9744    -9652    -9499    -9350 
   -9221    -9143    -9173    -9424    -9717    -9755    -9701    -9684 
   -9533    -9331    -9244    -9312    -9499    -9593    -9464    -9340 
   -9390    -9498    -9644    -9821    -9774    -9424    -9019    -8896 
   -9248    -9713    -9811    -9580    -9189    -8915    -9066    -9325 
   -9304    -9317    -9575    -9752    -9714    -9678    -9803   -10003 
   -9996    -9671    -9292    -9073    -8982    -9005    -9177    -9562 
  -10026   -10130    -9695    -9135    -8954    -9215    -9625    -9850 
   -9725    -9352    -8919    -8557    -8463    -8792    -9343    -9607 
   -9456    -9340    -9490    -9697    -9946   -10300   -10408   -10085 
   -9769    -9742    -9749    -9578    -9328    -9194    -9175    -9111 
   -8922    -8779    -8999    -9559   -10015   -10096    -9888    -9594 
   -9431    -9405    -9262    -9028    -8958    -8907    -8731    -8654 
   -8768    -9086    -9613   -10044   -10183   -10170    -9996    -9752 
   -9724    -9803    -9787    -9730    -9617    -9549    -9679    -9730 
   -9441    -9070    -8970    -9101    -9202    -9288    -9528    -9764 
   -9757    -9601    -9412    -9046    -8554    -8382    -8723    -9323 
   -9873   -10075    -9828    -9513    -9509    -9761   -10083   -10273 
  -10068    -9455    -8829    -8575    -8695    -8996    -9354    -9707 
   -9949    -9888    -9583    -9439    -9504    -9491    -9580    -9841 
   -9792    -9441    -9173    -8953    -8989    -9521    -9981    -9898 
   -9471    -8872    -8394    -8548    -9228    -9869   -10208   -10262 
  -10111    -9811    -9574    -9595    -9640    -9487    -9320    -9285 
   -9246    -9051    -8734    -8483    -8575    -8968    -9246    -9408 
   -9706   -10000   -10150   -10158    -9999    -9844    -9795    -9718 
   -9508    -9115    -8762    -8911    -9563   -10188   -10422   -10399 
  -10282    -9848    -9059    -8424    -8262    -8417    -8715    -9008 
   -9124    -9134    -9193    -9350    -9634    -9961   -10169   -10133 
   -9813    -9401    -9182    -9286    -9549    -9640    -9444    -9162 
   -9057    -9309    -9802   -10239   -10521   -10489   -10033    -9522 
   -9198    -8974    -9032    -9390    -9521    -9198    -8796    -8583 
   -8507    -8587    -8961    -9443    -9597    -9498    -9521    -9660 
   -9871   -10164   -10278    -9992    -9410    -8854    -8722    -9261 
  -10153   -10789   -11021   -10930   -10368    -9343    -8279    -7792 
   -8089    -8650    -8993    -9094    -8905    -8590    -8815    -9705 
  -10505   -10700   -10316    -9610    -9012    -8783    -8980    -9456 
   -9713    -9613    -9567    -9607    -9505    -9421    -9576    -9923 
  -10226   -10215    -9888    -9391    -8916    -8777    -9061    -9478 
   -9774    -9917    -9904    -9718    -9462    -9173    -8814    -8545 
   -8486    -8448    -8476    -8939    -9579    -9771    -9771   -10025 
  -10212   -10125   -10002    -9914    -9725    -9355    -9062    -9196 
   -9522    -9651    -9656    -9559    -9344    -9467    -9999   -10219 
   -9828    -9298    -9038    -9093    -9267    -9383    -9525    -9722 
   -9842    -9714    -9254    -8714    -8349    -8232    -8472    -8973 
   -9431    -9705    -9718    -9558    -9501    -9528    -9563    -9787 
   -9999    -9856    -9657    -9738    -9909    -9919    -9840    -9909 
  -10139   -10269   -10127    -9798    -9389    -8914    -8469    -8280 
   -8380    -8595    -8968    -9396    -9413    -9185    -9270    -9563 
   -9860   -10161   -10226    -9958    -9528    -9023    -8633    -8695 
   -9320   -10050   -10269    -9988    -9612    -9262    -9080    -9286 
   -9553    -9481    -9224    -8982    -8811    -8860    -9227    -9796 
  -10299   -10542   -10427    -9958    -9431    -9116    -9047    -9261 
   -9687    -9994    -9888    -9468    -9189    -9252    -9333    -9242 
   -9108    -8935    -8761    -8742    -8779    -8806    -9020    -9466 
   -9852    -9888    -9780    -9882    -9999    -9859    -9612    -9463 
   -9458    -9495    -9466    -9501    -9720    -9949    -9972    -9742 
   -9418    -9175    -8985    -8951    -9297    -9768    -9950    -9972 
  -10037    -9914    -9574    -9369    -9254    -8959    -8640    -8446 
   -8325    -8469    -9032    -9670    -9967    -9801    -9335    -9027 
   -9097    -9320    -9648   -10042   -10246   -10287   -10260   -10081 
   -9749    -9375    -9178    -9194    -9239    -9347    -9560    -9668 
   -9721   -10006   -10328   -10160    -9483    -8818    -8406    -8182 
   -8310    -8843    -9369    -9517    -9383    -9320    -9483    -9701 
   -9755    -9620    -9412    -9316    -9435    -9477    -9316    -9360 
   -9695   -10008   -10174   -10131    -9933    -9865    -9815    -9391 
   -8926    -8946    -9185    -9271    -9236    -9217    -9300    -9308 
   -9105    -8977    -9116    -9387    -9679    -9880    -9825    -9560 
   -9355    -9355    -9506    -9684    -9849    -9984    -9918    -9666 
   -9566    -9609    -9490    -9278    -9166    -9038    -8838    -8862 
   -9170    -9364    -9431    -9644    -9737    -9439    -9139    -9132 
   -9215    -9359    -9643    -9840    -9810    -9644    -9435    -9320 
   -9378    -9499    -9709    -9994    -9957    -9501    -9163    -9244 
   -9531    -9736    -9722    -9539    -9370    -9366    -9360    -9215 
   -9178    -9298    -9316    -9240    -9174    -9065    -9030    -9217 
   -9335    -9223    -9283    -9660   -10026   -10206   -10255   -10146 
   -9856    -9614    -9531    -9401    -9261    -9293    -9346    -9251 
   -9117    -9076    -9192    -9300    -9219    -9166    -9267    -9342 
   -9342    -9339    -9463    -9702    -9821    -9726    -9409    -9013 
   -8945    -9221    -9610   -10060   -10258   -10065    -9863    -9699 
   -9483    -9440    -9537    -9597    -9622    -9613    -9549    -9275 
   -8772    -8448    -8429    -8521    -8841    -9346    -9724   -10000 
  -10185   -10111    -9952    -9865    -9745    -9680    -9675    -9536 
   -9378    -9277    -9178    -9262    -9455    -9431    -9270    -9277 
   -9362    -9289    -9223    -9336    -9502    -9624    -9697    -9724 
   -9711    -9714    -9778    -9778    -9518    -9116    -8927    -8901 
   -8766    -8818    -9277    -9652    -9617    -9417    -9273    -9278 
   -9563    -9922    -9994    -9828    -9649    -9490    -9396    -9467 
   -9655    -9763    -9674    -9524    -9479    -9377    -9180    -9202 
   -9408    -9463    -9451    -9487    -9298    -8966    -9040    -9475 
   -9732    -9701    -9555    -9352    -9151    -9111    -9369    -9705 
   -9730    -9566    -9517    -9524    -9504    -9481    -9491    -9576 
   -9612    -9545    -9551    -9602    -9603    -9583    -9456    -9236 
   -9147    -9148    -9147    -9315    -9516    -9502    -9532    -9647 
   -9506    -9321    -9460    -9686    -9701    -9508    -9244    -9096 
   -9088    -9211    -9526    -9855    -9929    -9736    -9432    -9240 
   -9236    -9342    -9570    -9756    -9598    -9279    -9216    -9374 
   -9566    -9744    -9775    -9537    -9173    -8934    -8901    -8927 
   -9072    -9501    -9859    -9844    -9725    -9641    -9628    -9779 
   -9864    -9775    -9682    -9526    -9292    -9162    -9100    -9018 
   -8984    -9036    -9247    -9578    -9833   -10017   -10115    -9902 
   -9522    -9323    -9225    -9136    -9194    -9344    -9363    -9266 
   -9282    -9369    -9374    -9447    -9481    -9243    -9034    -8993 
   -8966    -9170    -9633    -9995   -10146   -10083    -9834    -9639 
   -9589    -9614    -9718    -9768    -9586    -9251    -9028    -9165 
   -9537    -9786    -9888    -9844    -9493    -9157    -9099    -9047 
   -9009    -9232    -9563    -9678    -9468    -9177    -9062    -9066 
   -9119    -9216    -9297    -9436    -9683    -9815    -9756    -9717 
   -9710    -9593    -9440    -9367    -9450    -9720    -9915    -9848 
   -9688    -9526    -9401    -9413    -9435    -9359    -9316    -9251 
   -9050    -8935    -9067    -9244    -9270    -9248    -9320    -9401 
   -9512    -9729    -9775    -9535    -9374    -9441    -9524    -9539 
   -9636    -9838    -9884    -9653    -9329    -9085    -9085    -9342 
   -9576    -9701    -9811    -9832    -9688    -9505    -9431    -9412 
   -9320    -9267    -9279    -9279    -9400    -9545    -9509    -9481 
