Origin Time       2025/03/30 21:30:00
Lat.              38.535
Long.             142.295
Depth. (km)       44
Mag.              4.3
Station Code      IWTH17
Station Lat.      39.6442
Station Long.     141.5977
Station Height(m) 305
Record Time       2025/03/30 21:31:33
Sampling Freq(Hz) 100Hz
Duration Time(s)  120
Dir.              5
Scale Factor      7845(gal)/8223790
Max. Acc. (gal)   0.751
Last Correction   2025/03/30 21:31:33
Memo.             
[...]
    6540     6625     6520     6390     6318     6378     6521     6588 
    6462     6277     6311     6455     6438     6423     6529     6482 
    6301     6301     6411     6444     6462     6486     6484     6448 
    6357     6313     6438     6534     6439     6358     6415     6427 
    6349     6361     6493     6581     6486     6311     6280     6367 
    6454     6461     6361     6369     6448     6389     6458     6683 
    6600     6301     6265     6390     6423     6505     6555     6386 
    6301     6386     6424     6492     6590     6567     6423     6245 
    6257     6493     6551     6388     6365     6439     6431     6393 
    6399     6535     6635     6462     6308     6369     6415     6411 
    6388     6339     6405     6494     6436     6384     6430     6454 
    6446     6482     6492     6370     6270     6378     6569     6566 
    6357     6251     6378     6504     6508     6443     6408     6473 
    6469     6346     6307     6318     6330     6463     6534     6400 
    6384     6492     6421     6411     6659     6682     6280     6021 
    6250     6604     6652     6434     6280     6349     6465     6471 
    6434     6443     6469     6444     6374     6349     6411     6471 
    6488     6547     6598     6461     6299     6345     6365     6319 
    6469     6617     6467     6227     6214     6400     6583     6636 
    6485     6234     6262     6558     6640     6500     6440     6393 
    6313     6286     6296     6436     6615     6550     6390     6400 
    6427     6339     6347     6502     6502     6305     6262     6407 
    6454     6505     6696     6683     6334     6075     6216     6528 
    6651     6504     6288     6312     6515     6517     6370     6386 
    6458     6399     6358     6413     6438     6412     6438     6523 
    6539     6397     6261     6392     6670     6619     6259     6203 
    6473     6482     6249     6296     6575     6615     6412     6288 
    6376     6567     6539     6315     6336     6536     6450     6214 
    6323     6627     6628     6412     6311     6332     6424     6515 
    6453     6363     6396     6382     6369     6529     6606     6436 
    6276     6265     6397     6565     6498     6373     6490     6469 
    6255     6382     6624     6511     6365     6438     6489     6448 
    6366     6253     6332     6579     6539     6282     6299     6505 
    6535     6426     6392     6426     6416     6384     6409     6471 
    6485     6458     6412     6328     6339     6512     6574     6446 
    6339     6309     6336     6442     6558     6520     6300     6199 
    6451     6701     6546     6299     6370     6508     6417     6347 
    6469     6519     6417     6342     6309     6373     6569     6583 
    6385     6361     6457     6404     6308     6332     6488     6620 
    6524     6353     6339     6382     6401     6470     6511     6444 
    6377     6335     6318     6450     6596     6500     6350     6362 
    6361     6322     6496     6705     6543     6230     6230     6434 
    6492     6397     6354     6465     6590     6531     6370     6354 
    6443     6435     6346     6320     6393     6458     6435     6440 
    6569     6621     6453     6296     6377     6486     6396     6324 
    6417     6473     6443     6447     6457     6421     6404     6399 
    6366     6354     6377     6415     6475     6489     6415     6370 
    6420     6453     6404     6367     6411     6473     6461     6382 
    6430     6586     6528     6312     6305     6426     6440     6407 
    6439     6521     6501     6353     6280     6386     6536     6512 
    6347     6343     6475     6480     6478     6582     6516     6327 
    6322     6392     6378     6420     6493     6434     6332     6376 
    6535     6585     6421     6253     6266     6417     6542     6486 
    6365     6389     6430     6385     6417     6502     6535     6542 
    6421     6273     6370     6463     6326     6315     6520     6585 
    6399     6266     6428     6569     6378     6262     6508     6646 
    6400     6232     6443     6635     6502     6291     6274     6416 
    6471     6399     6447     6561     6431     6241     6363     6613 
    6527     6237     6291     6546     6500     6357     6465     6593 
    6501     6363     6385     6451     6442     6457     6439     6339 
    6358     6430     6384     6386     6489     6511     6365     6232 
    6311     6423     6450     6563     6608     6454     6416     6488 
    6432     6380     6428     6392     6320     6469     6604     6439 
    6282     6361     6457     6443     6378     6354     6388     6396 
    6440     6548     6520     6420     6467     6504     6434     6381 
    6345     6340     6389     6461     6540     6555     6474     6403 
    6413     6427     6332     6212     6262     6498     6671     6563 
    6311     6262     6463     6585     6457     6232     6227     6505 
    6604     6400     6367     6504     6490     6432     6412     6378 
    6413     6448     6396     6439     6535     6416     6268     6332 
    6405     6416     6527     6565     6359     6269     6463     6589 
    6555     6434     6197     6161     6450     6606     6517     6485 
    6467     6373     6396     6488     6378     6238     6374     6502 
    6428     6426     6403     6315     6489     6666     6507     6326 
    6304     6347     6465     6547     6507     6492     6484     6354 
    6286     6412     6480     6440     6523     6573     6394     6265 
    6315     6401     6498     6536     6424     6357     6485     6593 
    6497     6322     6276     6390     6463     6393     6362     6417 
    6424     6386     6392     6512     6613     6442     6239     6318 
    6362     6266     6386     6615     6612     6451     6291     6253 
    6404     6544     6509     6423     6393     6386     6412     6480 
    6481     6384     6363     6428     6378     6312     6470     6644 
    6585     6511     6505     6397     6318     6389     6466     6448 
    6338     6297     6434     6523     6463     6426     6446     6405 
    6305     6301     6430     6536     6524     6435     6351     6357 
    6404     6405     6470     6542     6419     6289     6361     6519 
    6598     6481     6308     6315     6401     6420     6400     6373 
    6380     6496     6639     6515     6265     6396     6675     6534 
    6215     6188     6347     6477     6586     6598     6417     6249 
    6338     6515     6489     6400     6459     6482     6366     6339 
    6442     6440     6340     6378     6471     6443     6448     6527 
    6523     6466     6438     6378     6253     6245     6455     6575 
    6446     6378     6494     6534     6401     6343     6471     6466 
    6276     6280     6461     6528     6515     6482     6385     6339 
    6405     6454     6444     6434     6444     6467     6439     6382 
    6380     6454     6556     6521     6322     6245     6308     6366 
    6493     6524     6342     6299     6443     6450     6428     6525 
    6465     6285     6396     6610     6462     6257     6428     6633 
    6567     6397     6280     6355     6546     6515     6347     6346 
    6431     6439     6419     6431     6454     6450     6415     6442 
    6501     6335     6116     6342     6705     6615     6401     6513 
    6612     6447     6355     6421     6362     6258     6297     6393 
    6493     6481     6361     6408     6494     6361     6274     6420 
    6554     6551     6488     6428     6466     6515     6323     6085 
    6226     6565     6619     6475     6524     6633     6488     6288 
    6288     6308     6214     6172     6334     6642     6824     6644 
    6339     6332     6471     6405     6296     6338     6443     6570 
    6637     6520     6343     6295     6322     6327     6323     6303 
    6313     6470     6651     6647     6548     6448     6258     6137 
    6334     6635     6666     6471     6408     6577     6637     6385 
    6173     6297     6463     6400     6291     6303     6404     6551 
    6655     6592     6407     6253     6192     6262     6454     6551 
    6477     6465     6520     6401     6289     6492     6681     6511 
    6289     6286     6359     6386     6392     6477     6606     6471 
    6184     6251     6565     6659     6477     6249     6258     6444 
    6442     6343     6484     6687     6617     6342     6184     6308 
    6529     6581     6482     6392     6359     6343     6332     6400 
    6528     6500     6276     6164     6327     6548     6610     6529 
    6415     6382     6442     6446     6400     6475     6613     6605 
    6448     6332     6365     6419     6382     6363     6444     6565 
    6529     6299     6218     6369     6372     6249     6336     6462 
    6423     6512     6697     6621     6442     6354     6218     6210 
    6482     6624     6467     6408     6488     6390     6304     6440 
    6430     6259     6343     6516     6473     6431     6509     6517 
    6448     6362     6258     6276     6436     6577     6619     6516 
    6366     6396     6512     6488     6413     6388     6320     6280 
    6443     6637     6517     6239     6285     6567     6579     6350 
    6251     6388     6585     6567     6388     6393     6539     6482 
    6257     6230     6466     6571     6415     6347     6448     6473 
    6382     6284     6355     6570     6504     6222     6299     6625 
    6640     6384     6326     6513     6529     6295     6241     6543 
    6741     6469     6195     6367     6536     6415     6346     6330 
    6257     6335     6498     6551     6511     6417     6328     6276 
    6340     6543     6571     6390     6365     6474     6543     6543 
    6385     6268     6455     6671     6571     6323     6268     6386 
    6411     6328     6323     6400     6516     6636     6609     6417 
    6278     6340     6455     6385     6203     6220     6511     6728 
    6616     6447     6462     6492     6450     6385     6297     6339 
    6502     6494     6358     6382     6493     6450     6307     6285 
    6430     6544     6474     6413     6497     6450     6280     6295 
    6407     6486     6540     6471     6396     6461     6485     6424 
    6407     6408     6370     6374     6489     6551     6470     6415 
    6450     6490     6427     6237     6147     6319     6521     6540 
    6443     6358     6382     6454     6354     6150     6195     6527 
    6723     6574     6384     6363     6358     6264     6223     6327 
    6399     6353     6338     6467     6639     6651     6504     6339 
    6268     6400     6567     6507     6434     6588     6685     6539 
    6421     6448     6413     6292     6297     6448     6474     6386 
    6482     6602     6432     6297     6534     6732     6631     6582 
    6635     6539     6424     6412     6359     6304     6326     6315 
    6319     6466     6556     6409     6224     6178     6185     6168 
    6145     6239     6548     6820     6759     6459     6254     6385 
    6637     6669     6590     6528     6404     6328     6400     6455 
    6378     6330     6419     6470     6440     6392     6309     6346 
    6475     6372     6010     5775     6050     6575     6713     6556 
    6536     6459     6203     6168     6443     6678     6693     6555 
    6477     6633     6795     6713     6613     6652     6585     6304 
    6027     5992     6308     6682     6546     6092     6050     6239 
    6076     5887     6150     6558     6709     6736     6818     6889 
    6921     6934     6844     6547     6160     6142     6555     6724 
    6465     6303     6334     6258     6079     5975     5929     5845 
    5825     6010     6392     6813     6967     6783     6520     6339 
    6326     6523     6736     6829     6860     6772     6497     6199 
    6087     6165     6307     6434     6478     6471     6567     6628 
    6394     6093     6025     6039     6027     6183     6548     6925 
    7160     7080     6658     6295     6245     6183     5983     6097 
    6528     6637     6458     6502     6677     6682     6475     6166 
    6048     6162     6192     6223     6512     6689     6501     6457 
    6686     6662     6490     6640     6766     6477     6210     6257 
    6278     6228     6318     6392     6389     6442     6451     6455 
    6628     6677     6303     5930     6056     6463     6612     6396 
    6201     6308     6532     6597     6543     6577     6644     6535 
    6293     6142     6162     6304     6565     6812     6655     6201 
    6142     6444     6515     6427     6493     6551     6405     6272 
    6423     6574     6440     6394     6539     6467     6327     6450 
    6662     6770     6620     6138     5832     6060     6339     6413 
    6552     6597     6326     6170     6478     6810     6700     6388 
    6297     6346     6216     6083     6357     6806     6886     6597 
    6307     6183     6282     6563     6660     6400     6204     6282 
    6330     6324     6493     6635     6489     6258     6234     6428 
    6681     6789     6640     6366     6223     6184     6111     6242 
    6697     6936     6583     6160     6214     6417     6453     6565 
    6636     6423     6326     6570     6779     6674     6373     6258 
    6427     6424     6160     6201     6602     6785     6610     6278 
    5969     6035     6370     6413     6312     6550     6767     6520 
    6237     6338     6513     6374     6123     6215     6548     6667 
    6682     6913     6988     6462     5786     5638     5988     6417 
    6644     6648     6485     6259     6305     6558     6583     6529 
    6524     6336     6211     6318     6428     6581     6745     6724 
    6540     6303     6174     6265     6377     6353     6401     6527 
    6389     6172     6353     6637     6442     5992     6045     6632 
    6909     6637     6453     6600     6744     6593     6250     6203 
    6547     6647     6282     6052     6189     6338     6428     6490 
    6382     6219     6149     6219     6538     6837     6781     6508 
    6226     6083     6235     6551     6786     6918     6895     6613 
    6253     6157     6401     6521     6270     6139     6251     6251 
    6291     6512     6656     6674     6592     6254     5877     6048 
    6709     6978     6606     6304     6207     6072     6235     6662 
    6836     6805     6677     6335     6183     6444     6565     6443 
    6412     6269     6038     6139     6469     6727     6748     6444 
    6154     6174     6320     6465     6625     6651     6494     6376 
    6438     6467     6346     6405     6640     6485     6089     6215 
    6658     6681     6378     6183     6181     6309     6435     6524 
    6567     6457     6426     6515     6334     6201     6416     6417 
    6297     6498     6593     6405     6354     6515     6644     6444 
    6062     6114     6466     6527     6417     6400     6408     6436 
    6505     6646     6794     6651     6291     6214     6417     6431 
    6239     6247     6489     6619     6551     6470     6457     6524 
    6575     6466     6355     6355     6363     6466     6573     6390 
    6205     6300     6412     6488     6573     6474     6278     6277 
    6380     6354     6355     6486     6525     6466     6428     6359 
    6285     6265     6336     6493     6511     6289     6143     6409 
    6763     6612     6247     6276     6462     6511     6550     6542 
    6436     6373     6359     6411     6538     6420     6083     6134 
    6588     6872     6804     6528     6272     6245     6416     6485 
    6381     6496     6754     6567     6234     6376     6529     6285 
    6223     6431     6382     6210     6237     6436     6683     6683 
    6388     6242     6318     6309     6412     6772     6783     6384 
    6382     6573     6265     6072     6438     6609     6334     6100 
    6073     6204     6481     6725     6793     6732     6548     6285 
    6168     6285     6415     6440     6515     6551     6380     6278 
    6458     6623     6555     6488     6516     6390     6193     6282 
    6551     6648     6620     6463     6072     5952     6443     6867 
    6710     6381     6270     6255     6247     6415     6673     6597 
    6282     6305     6582     6627     6536     6492     6330     6164 
    6264     6451     6442     6357     6469     6702     6669     6231 
    5840     6050     6660     6906     6589     6299     6494     6762 
    6482     6123     6354     6601     6347     6130     6282     6636 
    6822     6440     6004     6230     6531     6359     6276     6500 
    6627     6601     6531     6409     6358     6377     6355     6381 
    6420     6284     6158     6334     6635     6637     6393     6311 
    6322     6212     6257     6546     6721     6656     6511     6351 
    6238     6291     6427     6427     6326     6378     6581     6693 
    6635     6547     6516     6385     6146     6135     6354     6508 
    6555     6492     6374     6458     6642     6531     6277     6327 
    6500     6403     6254     6357     6470     6427     6434     6457 
    6369     6407     6659     6729     6411     6088     6107     6380 
    6704     6828     6675     6474     6215     5981     6199     6601 
    6555     6281     6303     6513     6577     6505     6446     6466 
    6588     6606     6331     6139     6374     6593     6550     6590 
    6644     6369     5989     6010     6390     6631     6612     6574 
    6492     6318     6280     6401     6394     6288     6416     6642 
    6480     6127     6197     6578     6737     6604     6416     6286 
    6303     6504     6573     6345     6204     6286     6362     6459 
    6544     6400     6274     6448     6485     6181     6201     6624 
    6675     6345     6262     6481     6654     6636     6496     6397 
    6407     6478     6612     6666     6372     5952     5972     6396 
    6678     6613     6376     6238     6465     6781     6594     6115 
    6049     6439     6675     6525     6474     6724     6782     6471 
    6222     6187     6176     6184     6284     6462     6552     6430 
    6354     6516     6635     6480     6249     6278     6502     6547 
    6454     6556     6612     6359     6203     6311     6357     6338 
    6421     6471     6405     6427     6563     6574     6427     6330 
    6357     6370     6334     6380     6512     6586     6540     6427 
    6367     6396     6412     6377     6343     6424     6615     6578 
    6293     6278     6515     6488     6303     6326     6388     6370 
    6509     6648     6501     6340     6330     6228     6172     6432 
    6694     6610     6408     6416     6585     6705     6619     6269 
    6016     6249     6528     6424     6382     6635     6758     6588 
    6372     6277     6243     6205     6261     6443     6536     6431 
    6354     6493     6735     6798     6481     6080     6135     6470 
    6517     6388     6454     6593     6523     6291     6245     6498 
    6588     6223     5961     6280     6717     6685     6461     6509 
    6573     6312     5981     6052     6536     6752     6431     6296 
    6582     6660     6438     6380     6507     6453     6154     6006 
    6355     6858     6880     6563     6447     6439     6307     6323 
    6524     6474     6214     6218     6451     6555     6481     6394 
