Origin Time       2025/03/30 21:30:00
Lat.              38.535
Long.             142.295
Depth. (km)       44
Mag.              4.3
Station Code      IWTH18
Station Lat.      39.4630
Station Long.     141.6775
Station Height(m) 552
Record Time       2025/03/30 21:31:28
Sampling Freq(Hz) 100Hz
Duration Time(s)  120
Dir.              4
Scale Factor      3920(gal)/6170801
Max. Acc. (gal)   2.346
Last Correction   2025/03/30 21:31:13
Memo.             
[...]
   26186    26300    26297    26236    26087    25848    25619    25522 
   25730    26166    26439    26449    26419    26394    26232    25863 
   25541    25582    25850    26165    26515    26600    26282    25941 
   25754    25630    25585    25594    25810    26424    27027    27087 
   26567    25827    25391    25303    25294    25646    26460    26951 
   26731    26344    26025    25650    25640    26099    26109    25611 
   25759    26468    26692    26459    26124    25674    25412    25531 
   25798    26201    26742    26947    26471    25755    25482    25638 
   25741    25926    26525    26906    26631    26371    26161    25513 
   25048    25166    25435    26061    26870    26955    26584    26386 
   26152    25840    25622    25538    25735    26034    26121    26294 
   26736    26799    26049    25181    25169    25942    26509    26432 
   26232    26289    26268    25923    25865    26315    26310    25717 
   25527    25860    26189    26347    26412    26473    26261    25668 
   25448    25958    26497    26550    26111    25655    25874    26266 
   26093    25987    26188    26078    26022    26336    26137    25436 
   25391    26069    26645    26714    26358    25952    25764    25841 
   26078    26131    25943    25840    25907    26036    26318    26744 
   26805    26216    25588    25447    25567    25814    26195    26280 
   26003    26017    26454    26690    26324    25672    25379    25595 
   25931    26221    26494    26533    26252    25945    25788    25819 
   26100    26232    25924    25836    26163    26235    26176    26262 
   26132    25874    25846    25997    26102    26035    25938    26012 
   26256    26412    26215    25933    25995    26101    25892    25869 
   26324    26478    25970    25770    26192    26139    25664    25947 
   26481    26177    25736    25931    26120    26072    26325    26457 
   25976    25575    25665    25992    26432    26611    26356    26155 
   26128    25942    25616    25532    25898    26237    26126    26146 
   26517    26425    26003    26083    26290    25990    25513    25507 
   26063    26405    26200    26161    26383    26394    26198    25794 
   25504    25839    26251    26191    26142    26145    25816    25753 
   26275    26460    26113    26005    26169    26237    26277    26214 
   25891    25792    26100    26043    25608    25731    26292    26387 
   26110    26125    26263    26083    25812    25794    26003    26170 
   26198    26322    26444    26203    25747    25648    26116    26330 
   25763    25473    25978    26396    26536    26591    26204    25652 
   25588    25784    25807    25961    26453    26650    26320    26106 
   26105    26074    26122    26019    25670    25505    25694    26156 
   26599    26751    26695    26350    25773    25390    25334    25684 
   26220    26241    26026    26314    26616    26333    25883    25790 
   25885    25846    25993    26490    26564    26048    25913    26168 
   25959    25653    25938    26278    26185    26020    26045    26137 
   26127    25979    25822    25699    25786    26261    26537    26325 
   26303    26370    25960    25556    25778    26397    26569    25977 
   25682    26159    26386    26131    25922    25681    25563    25878 
   26233    26321    26284    26195    26122    26174    26257    26082 
   25762    25887    26331    26416    26249    26040    25639    25546 
   26011    26339    26311    26142    25996    26221    26384    25849 
   25487    25975    26312    26069    26116    26438    26241    25795 
   25840    26230    26371    26093    25739    25683    25861    26015 
   26201    26501    26484    25956    25689    26086    26363    26047 
   25711    25830    26085    26059    26002    26378    26737    26161 
   25294    25573    26367    26365    26093    26235    26343    26031 
   25585    25690    26345    26522    26041    25876    26164    26229 
   26018    25972    26158    26067    25617    25613    26212    26535 
   26236    26010    26327    26388    25668    25323    25940    26394 
   26225    26127    26317    26444    26157    25734    25908    26199 
   25938    25881    26160    26073    25864    25911    26169    26394 
   26144    25744    25945    26443    26355    25797    25730    26262 
   26486    26042    25588    25734    26302    26655    26460    26019 
   25632    25397    25772    26619    26821    26161    25545    25538 
   25997    26331    26200    26006    26140    26471    26635    26274 
   25619    25464    25914    26266    26199    25984    25905    26107 
   26428    26384    26004    25828    25850    25750    25807    26246 
   26391    25920    25754    26373    26801    26307    25685    25683 
   25817    25890    26170    26251    26003    25949    26169    26257 
   26046    25978    26282    26405    26136    25811    25588    25694 
   26174    26501    26402    26162    26070    26164    26184    25930 
   25702    25790    25980    26085    26171    26303    26421    26311 
   26087    26039    25753    25230    25533    26491    26777    26384 
   25991    25900    26203    26210    25723    25815    26365    26274 
   25773    25654    26033    26496    26472    25963    25603    25701 
   25941    26116    26370    26536    26262    25925    25971    26106 
   26151    26038    25680    25712    26287    26613    26605    26454 
   25929    25359    25402    26013    26414    26166    26016    26325 
   26268    25970    26130    26177    25781    25628    25955    26458 
   26673    26294    25939    26166    26310    25831    25295    25553 
   26421    26619    26112    26062    26195    25866    25656    25821 
   25983    26070    26157    26368    26611    26391    25891    25811 
   25906    25781    25770    25966    26202    26351    26223    26044 
   26066    26092    25958    25660    25595    26168    26652    26402 
   26130    26177    26040    25861    25894    25953    26007    25929 
   25929    26383    26672    26436    26287    26136    25566    25181 
   25594    26310    26551    26284    26121    26323    26202    25619 
   25736    26491    26436    25707    25482    25894    26460    26665 
   26368    26167    26227    25953    25431    25340    25724    26161 
   26350    26271    26281    26583    26666    26101    25399    25312 
   25825    26296    26410    26456    26469    26159    25796    25827 
   26026    25946    25668    25747    26350    26718    26382    26069 
   26142    26009    25764    25894    26056    25962    25966    26266 
   26464    26119    25680    25798    26029    25958    25943    25967 
   26032    26395    26647    26465    26065    25653    25598    25834 
   25926    26093    26330    26308    26314    26301    25949    25692 
   25802    26005    26329    26639    26454    26074    26021    25964 
   25637    25409    25706    26387    26598    26130    26008    26545 
   26726    26130    25444    25243    25604    26192    26525    26600 
   26407    25821    25595    26195    26557    26057    25558    25636 
   25848    25994    26383    26757    26538    25904    25583    25795 
   25964    25938    26193    26361    26019    25897    26160    26023 
   25700    25899    26305    26406    26288    26119    25953    25842 
   25929    26167    26149    25941    26005    26183    26252    26474 
   26566    25975    25400    25636    25886    25766    26106    26578 
   26463    26316    26404    26226    25734    25525    25837    25932 
   25679    25996    26727    26812    26266    25890    25773    25561 
   25567    26057    26380    26140    25914    26198    26650    26540 
   25852    25431    25649    26034    26271    26370    26159    25764 
   25937    26586    26530    25769    25424    25637    26045    26615 
   26856    26363    25762    25724    25940    25793    25673    26096 
   26343    26232    26569    26866    26295    25585    25437    25578 
   25848    26151    26199    26116    26199    26445    26551    26153 
   25588    25596    25881    25893    26116    26502    26381    26116 
   26047    25893    25800    25887    25960    26026    26160    26217 
   26028    25963    26378    26560    25951    25442    25728    26241 
   26522    26657    26534    26048    25536    25327    25399    25891 
   26648    26802    26374    26243    26291    26013    25636    25525 
   25773    26208    26540    26474    25908    25604    26058    26354 
   26136    25998    25767    25451    25823    26580    26753    26438 
   26056    25720    25660    25860    26192    26489    26336    26017 
   25992    25940    25784    25785    25913    26050    26137    26210 
   26374    26530    26301    25767    25653    25980    26156    26228 
   26262    25945    25576    25884    26736    26959    26133    25423 
   25505    25823    26150    26473    26430    26187    26042    25897 
   26062    26402    26147    25793    26046    26264    26132    25943 
   25665    25618    26087    26408    26077    25744    26015    26345 
   26262    26124    26111    26010    25808    25884    26294    26264 
   25678    25603    26286    26801    26763    26494    26023    25353 
   24961    25165    25851    26561    26605    26189    26322    26866 
   26756    25938    25306    25366    25686    25761    26086    26853 
   27055    26555    26181    25967    25683    25386    25176    25475 
   26383    26988    26630    26090    26236    26475    25961    25180 
   25218    26035    26487    26448    26730    26843    26071    25284 
   25228    25463    25631    25991    26794    27461    26928    25623 
   25352    26098    26141    25559    25568    25864    25959    26423 
   27210    27316    26304    24934    24457    25201    26030    26190 
   26487    27224    27326    26485    25629    25281    25304    25661 
   26119    26297    26407    26432    26023    25863    26227    25980 
   25258    25361    26073    26595    26983    27122    26577    25533 
   24931    25220    25670    25927    26415    26982    27135    26716 
   25892    25184    24985    25264    25752    26028    26270    27026 
   27564    26956    26002    25481    25165    25200    25573    25838 
   26224    26817    26969    26701    26524    26092    25283    25080 
   25571    25896    26270    26925    27020    26286    25492    25257 
   25601    26032    26059    25951    26154    26445    26556    26423 
   25958    25528    25628    26122    26516    26441    26071    26077 
   26328    25912    25246    25421    25849    25865    26342    27129 
   26805    25862    25870    26418    26245    25529    25212    25644 
   26438    26839    26602    26333    26163    25755    25503    25557 
   25601    25944    26593    26740    26270    26048    26178    25815 
   25159    25278    26118    26707    26720    26627    26608    26269 
   25618    25268    25485    25791    25902    26221    26750    26836 
   26349    25908    25852    25761    25437    25445    26016    26525 
   26442    26244    26634    26855    26009    25313    25579    25671 
   25605    26148    26724    26946    26657    25648    25126    25732 
   26124    25971    26181    26504    26306    25886    25765    26018 
   26231    25999    25822    26406    27051    26657    25705    25270 
   25379    25582    25817    26192    26527    26504    26106    25869 
   26280    26635    26038    25240    25360    26065    26352    26131 
   26354    26948    26718    26034    25789    25556    25420    25858 
   26335    26441    26239    25838    25767    26127    26215    26044 
   25996    25816    25793    26422    26878    26328    25586    25626 
   25825    25625    25749    26210    26382    26513    26683    26358 
   25679    25488    25845    26012    26027    26107    26095    26480 
   26996    26703    26317    26314    25838    25242    25330    25707 
   25980    26246    26573    26637    25974    25222    25464    26148 
   26114    25703    25808    26340    26797    26993    26785    26282 
   25968    25700    25295    25597    26557    26763    26084    25700 
   25823    25693    25442    25808    26261    25977    25666    25912 
   26089    26183    26436    26302    25932    25801    25639    25741 
   26452    26868    26368    25761    25968    26448    26136    25540 
   25761    26627    27264    27036    26191    25670    25499    25180 
   25095    25562    26412    27313    27356    26371    25759    26048 
   25963    25245    25134    25569    25798    26276    27009    27253 
   27140    26648    25255    23942    24220    25565    26760    27670 
   27916    27080    26198    25995    25513    24471    24160    24975 
   25826    26532    27655    28102    26782    25338    25231    25186 
   24587    24784    25928    27083    28117    28633    27771    25912 
   24412    24214    25203    26180    26296    26200    26604    26836 
   25978    24680    24288    24965    26269    27540    27504    26356 
   26002    26591    26666    26039    25477    25341    25484    25928 
   26999    28004    27863    26680    24967    23547    23190    23508 
   24786    27536    29448    28407    26244    25427    25661    25557 
   25217    25599    26210    26254    26681    27684    27707    26759 
   25957    25152    24304    23998    24466    25914    27749    28382 
   27507    26125    24637    23502    23959    25922    27501    27764 
   27496    27330    27005    26059    24895    24772    25849    26437 
   25637    25074    25984    27035    27302    27451    26861    24567 
   22376    22776    25456    28068    28819    27640    26060    25891 
   26838    26796    25540    24946    25556    26530    27318    27243 
   26226    25313    24908    24787    24856    24867    25344    26582 
   26888    25875    25814    26954    27134    26138    25728    26401 
   26902    26821    27056    27242    26366    25113    24587    24871 
   25394    25454    25525    26579    27446    26613    25449    25496 
   25907    26094    26413    26434    26070    26157    26703    26824 
   26032    24812    24723    26625    28085    26725    25230    26141 
   26884    26183    26025    25588    23630    23272    26217    28662 
   27590    25314    25400    27192    27498    26166    25191    24997 
   25419    26552    27798    27979    26520    24906    24894    25719 
   25803    25161    25005    25808    25934    24905    25386    27534 
   27853    26308    26001    26549    26042    25783    26486    26372 
   25816    25908    25651    25564    26449    26540    25936    26506 
   27013    25699    24004    23936    25478    27228    27750    26767 
   25566    25700    26938    27504    26606    25281    24792    25377 
   26378    26785    26326    26181    26655    26350    25573    25787 
   26126    25447    25258    26780    27865    26374    24475    25178 
   26841    26707    25916    25822    25647    25483    25954    26401 
   25836    24927    25471    26930    27136    26200    25472    25368 
   26065    26991    26918    26219    26002    26020    25805    25671 
   26096    26554    25878    25093    25814    26664    26466    26138 
   26011    26354    27003    26236    24680    25006    26422    26675 
   26404    26568    26577    26353    26155    25355    24378    25030 
   26683    27136    27016    27407    26973    25399    24429    24676 
   25298    25957    26832    27412    26924    25962    25706    25867 
   25537    24944    25051    25829    26182    26229    26832    27448 
   27248    26305    25334    25218    25861    26268    26078    26034 
   26609    27141    26809    25592    24513    24494    25297    26537 
   27535    27158    26064    25889    26244    25760    24755    24687 
   25843    27194    27774    27123    25936    25670    25914    25471 
   25362    26186    26449    25998    26114    26925    27177    26106 
   25322    25822    25635    24688    24998    25908    26398    26889 
   26874    26404    26391    26235    25523    25234    25780    26753 
   27264    26595    25632    25314    25377    25957    26893    26822 
   25635    24976    25547    26371    26525    26136    25878    26055 
   26363    26413    26330    26417    26014    24925    24634    25225 
   25764    26875    28095    28107    27328    25980    24652    24794 
   25514    25562    25764    26180    26378    26863    27011    26310 
   25963    25606    24582    24755    25994    26218    26468    27893 
   28536    26902    24428    23925    25413    25882    25213    25887 
   27154    26964    26361    26785    26794    25127    24058    25620 
   27386    26846    25618    25552    26369    27223    26938    25694 
   25063    25109    25414    26270    27296    27739    27046    25484 
   24499    24807    25700    26321    26358    26334    26562    26356 
   25859    25752    25534    25319    25991    26860    26781    26176 
   26006    26148    26219    26182    25618    25292    26143    26501 
   26157    26781    26836    25391    24795    25450    26147    26539 
   26064    25340    26098    27310    26888    26034    26118    25893 
   25374    25856    26345    25770    25473    26327    27242    27070 
   25791    24846    25355    26330    26780    26526    25747    25605 
   25707    24758    24739    26684    27569    26719    26445    26852 
   26912    26469    25639    25172    25315    25406    25547    26051 
   26836    27571    27370    26171    25016    24514    24753    25448 
   26112    26720    27122    26868    26166    25706    25672    25785 
   26036    26440    26506    25991    25829    26894    27623    26232 
   24584    24758    25586    25930    26184    26693    27118    26726 
   25890    25474    24986    24538    25328    26544    26885    27233 
   27491    26376    25266    25514    25674    25315    25555    26381 
   27152    27135    26397    26500    26983    25592    23805    24467 
   26209    26794    26775    26977    26810    25701    24716    25189 
   26049    26007    26170    27081    27364    26823    26528    26080 
   25004    24742    25510    25547    25123    26019    27607    27607 
   26189    25587    25703    25096    24746    25659    26566    26815 
   27067    27052    26289    25624    25638    25595    25205    25358 
   26322    27050    26972    26643    26374    25824    25284    25705 
   26395    25887    25235    25903    26988    27295    26840    26215 
   25730    25266    25112    25448    25819    26091    26343    26563 
   26756    26650    26418    26234    25482    24588    24751    25934 
   27137    26979    25783    25931    26992    26485    25521    25970 
   26270    25477    25241    26095    26924    27030    26571    25955 
   25143    24609    25044    25825    26713    27602    27187    25944 
   25606    25872    25942    25966    25981    25773    25263    25201 
   26524    28054    27822    26346    25509    25617    25385    24593 
   25110    27102    27668    26375    25943    26376    25865    25116 
   25228    25556    25754    26098    26361    26470    26504    26334 
   26269    26426    26216    25518    25492    26859    27655    26369 
   25146    25291    25345    25305    26100    26805    26496    25998 
   26228    26646    26294    25495    25082    25192    25907    26703 
   26595    26543    27484    27487    25490    23828    24278    25538 
   26029    26175    26808    27528    27416    26442    25700    25717 
