Origin Time       2025/03/30 21:30:00
Lat.              38.535
Long.             142.295
Depth. (km)       44
Mag.              4.3
Station Code      IWTH16
Station Lat.      39.6436
Station Long.     140.9465
Station Height(m) 62
Record Time       2025/03/30 21:31:43
Sampling Freq(Hz) 100Hz
Duration Time(s)  120
Dir.              3
Scale Factor      2942(gal)/8224139
Max. Acc. (gal)   0.140
Last Correction   2025/03/30 21:31:44
Memo.             
[...]
  147591   147556   147510   147525   147563   147567   147546   147510 
  147475   147487   147523   147538   147568   147615   147627   147618 
  147584   147491   147437   147530   147653   147650   147561   147499 
  147513   147576   147611   147587   147561   147542   147503   147487 
  147506   147501   147475   147494   147544   147559   147528   147509 
  147534   147557   147563   147587   147596   147540   147475   147483 
  147536   147553   147528   147502   147491   147478   147460   147467 
  147509   147569   147622   147621   147577   147567   147580   147564 
  147532   147561   147665   147719   147652   147549   147490   147501 
  147569   147595   147532   147476   147482   147501   147523   147548 
  147571   147623   147683   147656   147565   147523   147555   147610 
  147648   147627   147565   147532   147537   147544   147523   147503 
  147518   147563   147613   147631   147609   147610   147649   147657 
  147623   147596   147611   147656   147664   147613   147571   147584 
  147609   147600   147592   147594   147560   147509   147491   147509 
  147553   147580   147548   147505   147484   147487   147561   147653 
  147663   147648   147657   147629   147579   147565   147544   147494 
  147464   147451   147449   147483   147518   147538   147567   147588 
  147599   147609   147596   147573   147576   147579   147523   147463 
  147488   147546   147540   147498   147487   147522   147573   147592 
  147567   147536   147542   147576   147583   147568   147584   147586 
  147529   147488   147499   147499   147502   147517   147514   147532 
  147557   147548   147564   147603   147582   147538   147546   147548 
  147533   147550   147563   147542   147532   147526   147542   147598 
  147636   147641   147636   147594   147537   147506   147501   147557 
  147634   147630   147588   147590   147590   147580   147603   147633 
  147621   147572   147560   147626   147668   147618   147583   147629 
  147665   147625   147553   147540   147606   147646   147602   147549 
  147522   147509   147563   147645   147626   147542   147538   147609 
  147630   147579   147540   147540   147567   147592   147579   147559 
  147550   147529   147526   147559   147536   147479   147501   147559 
  147561   147526   147484   147475   147509   147530   147525   147526 
  147532   147542   147564   147553   147521   147521   147536   147529 
  147521   147515   147496   147502   147530   147541   147549   147571 
  147588   147617   147630   147568   147503   147528   147552   147501 
  147468   147509   147575   147615   147596   147565   147592   147646 
  147677   147680   147646   147582   147538   147542   147565   147592 
  147596   147553   147495   147476   147514   147587   147653   147687 
  147707   147721   147712   147684   147631   147586   147603   147638 
  147626   147572   147514   147510   147546   147549   147511   147474 
  147461   147487   147515   147506   147499   147534   147595   147650 
  147650   147587   147556   147588   147615   147599   147544   147515 
  147542   147521   147442   147436   147522   147611   147629   147565 
  147494   147494   147529   147545   147557   147546   147528   147556 
  147587   147584   147576   147588   147642   147680   147619   147530 
  147513   147528   147519   147492   147465   147469   147525   147595 
  147627   147611   147590   147588   147595   147604   147610   147576 
  147506   147456   147463   147496   147522   147537   147553   147567 
  147568   147559   147567   147575   147548   147526   147537   147532 
  147496   147494   147556   147626   147641   147604   147563   147538 
  147548   147600   147653   147644   147599   147576   147563   147556 
  147596   147650   147650   147623   147611   147604   147594   147567 
  147537   147548   147582   147568   147506   147474   147514   147569 
  147571   147560   147582   147587   147556   147559   147600   147611 
  147584   147569   147586   147610   147619   147598   147528   147461 
  147469   147515   147529   147507   147472   147471   147529   147586 
  147591   147579   147591   147636   147679   147649   147565   147530 
  147542   147544   147549   147550   147503   147455   147499   147603 
  147658   147652   147622   147586   147572   147561   147518   147490 
  147502   147498   147475   147496   147569   147642   147699   147753 
  147773   147710   147610   147545   147519   147526   147557   147577 
  147592   147604   147583   147526   147488   147484   147498   147561 
  147641   147634   147548   147494   147532   147614   147667   147660 
  147587   147499   147488   147534   147569   147590   147577   147529 
  147505   147506   147483   147469   147499   147537   147560   147550 
  147476   147426   147483   147569   147615   147645   147642   147584 
  147533   147534   147528   147484   147472   147491   147492   147509 
  147544   147541   147515   147540   147619   147671   147648   147599 
  147565   147544   147536   147529   147526   147540   147542   147548 
  147594   147622   147606   147615   147644   147646   147618   147548 
  147467   147461   147511   147503   147451   147447   147479   147518 
  147606   147706   147706   147609   147528   147502   147487   147480 
  147513   147555   147572   147568   147546   147544   147584   147630 
  147653   147679   147725   147765   147752   147671   147577   147519 
  147487   147479   147496   147501   147502   147552   147615   147645 
  147644   147613   147564   147538   147561   147621   147658   147617 
  147559   147565   147594   147586   147564   147560   147569   147548 
  147487   147448   147474   147552   147640   147687   147668   147595 
  147519   147509   147542   147526   147480   147502   147552   147540 
  147522   147563   147619   147648   147657   147649   147602   147521 
  147456   147420   147415   147474   147541   147567   147591   147618 
  147615   147613   147621   147573   147490   147449   147447   147480 
  147557   147609   147634   147676   147691   147664   147640   147638 
  147627   147568   147495   147482   147513   147533   147548   147564 
  147556   147537   147553   147617   147641   147588   147564   147579 
  147532   147480   147507   147538   147532   147519   147510   147522 
  147538   147507   147490   147555   147625   147617   147559   147505 
  147488   147499   147498   147499   147533   147564   147590   147629 
  147626   147565   147510   147492   147487   147469   147441   147437 
  147491   147568   147582   147533   147511   147555   147600   147598 
  147579   147576   147571   147582   147636   147691   147684   147646 
  147657   147685   147630   147526   147510   147576   147602   147564 
  147546   147564   147580   147613   147694   147771   147744   147654 
  147642   147690   147681   147604   147549   147584   147652   147652 
  147595   147546   147519   147499   147502   147532   147548   147550 
  147546   147495   147445   147488   147553   147555   147546   147557 
  147553   147546   147541   147499   147449   147460   147501   147514 
  147503   147509   147557   147599   147572   147526   147510   147496 
  147502   147537   147556   147544   147526   147544   147584   147602 
  147610   147645   147656   147591   147503   147471   147509   147582 
  147626   147595   147523   147507   147542   147534   147532   147610 
  147664   147653   147653   147615   147509   147457   147506   147567 
  147598   147598   147572   147582   147634   147634   147583   147598 
  147676   147694   147633   147576   147559   147572   147610   147644 
  147640   147610   147579   147565   147572   147537   147464   147480 
  147576   147604   147559   147517   147501   147514   147540   147534 
  147511   147507   147487   147472   147526   147587   147577   147559 
  147542   147474   147405   147405   147442   147453   147430   147437 
  147519   147588   147555   147495   147514   147561   147582   147600 
  147609   147610   147618   147603   147594   147618   147615   147565 
  147521   147484   147461   147482   147522   147564   147598   147590 
  147564   147580   147615   147645   147665   147637   147588   147603 
  147636   147625   147614   147606   147591   147621   147665   147631 
  147550   147513   147515   147546   147609   147641   147613   147582 
  147590   147607   147604   147595   147590   147583   147569   147532 
  147505   147528   147577   147622   147645   147638   147606   147557 
  147530   147575   147644   147646   147579   147511   147495   147509 
  147513   147526   147546   147540   147528   147523   147521   147563 
  147627   147648   147642   147629   147590   147572   147592   147604 
  147602   147615   147623   147592   147559   147534   147492   147453 
  147430   147421   147456   147526   147579   147584   147556   147522 
  147521   147573   147621   147598   147572   147583   147582   147564 
  147536   147482   147460   147480   147475   147447   147460   147490 
  147464   147438   147502   147568   147567   147573   147622   147664 
  147654   147594   147568   147596   147600   147584   147577   147561 
  147556   147571   147587   147599   147577   147534   147541   147591 
  147625   147627   147617   147600   147604   147645   147692   147667 
  147559   147490   147513   147536   147521   147526   147559   147582 
  147584   147580   147586   147596   147599   147604   147634   147623 
  147553   147548   147596   147577   147523   147486   147479   147540 
  147602   147592   147571   147588   147627   147640   147599   147555 
  147560   147584   147582   147537   147484   147488   147550   147591 
  147563   147536   147580   147626   147602   147564   147572   147573 
  147537   147502   147475   147479   147538   147576   147572   147595 
  147627   147614   147573   147550   147553   147563   147542   147498 
  147492   147515   147510   147494   147492   147499   147541   147618 
  147658   147630   147568   147536   147540   147536   147537   147573 
  147592   147573   147550   147540   147576   147629   147618   147595 
  147592   147526   147451   147468   147501   147507   147560   147604 
  147576   147573   147646   147711   147696   147611   147545   147542 
  147514   147445   147452   147537   147587   147567   147526   147511 
  147529   147550   147552   147530   147492   147483   147552   147630 
  147623   147571   147572   147657   147756   147768   147717   147672 
  147617   147546   147484   147426   147393   147399   147436   147502 
  147550   147521   147498   147572   147646   147646   147638   147645 
  147638   147638   147658   147631   147569   147592   147668   147675 
  147638   147633   147621   147571   147541   147550   147538   147506 
  147492   147465   147445   147505   147575   147587   147607   147642 
  147641   147629   147603   147534   147467   147456   147480   147509 
  147530   147546   147556   147523   147472   147494   147571   147621 
  147614   147555   147474   147409   147386   147410   147460   147510 
  147565   147627   147657   147663   147685   147692   147675   147672 
  147661   147631   147606   147586   147569   147544   147513   147506 
  147506   147474   147426   147399   147383   147401   147498   147609 
  147650   147660   147712   147795   147829   147780   147684   147577 
  147475   147415   147418   147440   147452   147492   147560   147590 
  147584   147595   147613   147637   147653   147590   147464   147402 
  147422   147475   147546   147610   147629   147623   147645   147694 
  147721   147712   147688   147654   147615   147563   147509   147499 
  147533   147571   147584   147556   147503   147475   147467   147455 
  147420   147336   147264   147302   147422   147548   147668   147769 
  147796   147762   147758   147787   147760   147658   147534   147418 
  147344   147321   147324   147349   147405   147442   147422   147393 
  147407   147456   147537   147640   147692   147711   147781   147870 
  147885   147796   147638   147515   147510   147577   147641   147707 
  147787   147814   147784   147742   147653   147542   147502   147519 
  147536   147567   147638   147706   147712   147669   147603   147510 
  147395   147298   147267   147301   147366   147438   147519   147642 
  147810   147903   147812   147645   147534   147498   147502   147505 
  147501   147536   147607   147658   147669   147660   147640   147584 
  147488   147355   147206   147175   147324   147495   147573   147584 
  147586   147641   147738   147779   147708   147586   147528   147602 
  147710   147717   147661   147636   147634   147590   147461   147302 
  147228   147248   147252   147229   147283   147406   147465   147415 
  147356   147398   147528   147636   147684   147683   147627   147556 
  147541   147586   147640   147644   147596   147572   147603   147617 
  147573   147534   147518   147513   147549   147588   147545   147484 
  147488   147510   147541   147596   147641   147706   147795   147852 
  147876   147879   147841   147787   147714   147602   147509   147468 
  147432   147399   147455   147580   147648   147634   147629   147638 
  147588   147487   147461   147546   147606   147599   147621   147695 
  147765   147793   147756   147673   147623   147644   147696   147734 
  147722   147658   147582   147518   147480   147444   147378   147297 
  147245   147263   147363   147486   147533   147506   147496   147563 
  147669   147721   147702   147656   147609   147542   147417   147290 
  147291   147372   147442   147521   147553   147513   147503   147555 
  147583   147530   147413   147303   147251   147208   147172   147263 
  147471   147660   147784   147850   147877   147899   147884   147791 
  147681   147629   147588   147521   147472   147479   147514   147540 
  147542   147522   147469   147413   147418   147463   147475   147453 
  147464   147537   147600   147615   147656   147744   147798   147775 
  147714   147679   147711   147754   147710   147584   147459   147382 
  147394   147461   147490   147503   147538   147528   147491   147506 
  147538   147552   147556   147572   147656   147792   147870   147826 
  147731   147683   147656   147575   147492   147492   147538   147536 
  147476   147464   147542   147634   147658   147623   147594   147569 
  147548   147564   147576   147550   147534   147553   147588   147636 
  147692   147723   147699   147650   147625   147610   147561   147490 
  147457   147467   147463   147437   147432   147451   147455   147433 
  147413   147395   147409   147499   147599   147613   147590   147614 
  147664   147681   147657   147621   147604   147609   147633   147657 
  147633   147587   147590   147602   147571   147537   147532   147563 
  147641   147710   147725   147699   147649   147567   147479   147447 
  147449   147436   147452   147521   147599   147665   147677   147595 
  147491   147471   147496   147498   147529   147602   147610   147530 
  147448   147418   147426   147448   147463   147465   147465   147468 
  147484   147498   147478   147469   147510   147536   147530   147552 
  147590   147560   147487   147513   147637   147710   147676   147607 
  147576   147596   147600   147552   147518   147502   147425   147340 
  147390   147540   147642   147665   147636   147571   147511   147492 
  147523   147575   147591   147582   147584   147582   147546   147499 
  147478   147476   147476   147490   147546   147637   147723   147799 
  147866   147880   147776   147603   147496   147495   147511   147506 
  147545   147615   147641   147630   147629   147646   147669   147642 
  147557   147505   147528   147559   147579   147596   147576   147537 
  147559   147630   147633   147537   147453   147434   147456   147515 
  147584   147622   147631   147610   147592   147594   147586   147586 
  147614   147636   147638   147634   147595   147514   147449   147451 
  147507   147580   147609   147594   147587   147571   147542   147557 
  147582   147564   147548   147550   147534   147541   147654   147785 
  147777   147695   147656   147636   147599   147580   147586   147549 
  147460   147420   147455   147501   147549   147591   147591   147572 
  147517   147445   147448   147482   147488   147529   147586   147621 
  147696   147793   147803   147729   147652   147623   147648   147656 
  147618   147590   147555   147487   147441   147426   147384   147349 
  147361   147364   147352   147380   147432   147490   147560   147580 
  147530   147496   147494   147456   147407   147433   147517   147552 
  147521   147495   147478   147484   147559   147661   147725   147735 
  147712   147679   147592   147432   147307   147305   147363   147378 
  147370   147420   147498   147519   147514   147522   147523   147549 
  147638   147735   147788   147795   147771   147761   147792   147803 
  147775   147775   147804   147820   147804   147730   147609   147478 
  147375   147339   147374   147453   147544   147640   147730   147773 
  147735   147650   147607   147654   147699   147660   147610   147606 
  147609   147629   147665   147609   147457   147388   147449   147525 
  147564   147587   147592   147595   147614   147627   147636   147625 
  147555   147482   147484   147532   147550   147509   147441   147405 
  147402   147433   147478   147478   147449   147453   147475   147495 
  147530   147546   147542   147560   147583   147591   147602   147641 
  147681   147675   147640   147641   147663   147644   147563   147451 
  147383   147403   147449   147475   147490   147480   147440   147420 
  147428   147417   147399   147417   147437   147449   147476   147509 
  147568   147661   147698   147664   147649   147663   147687   147707 
  147668   147614   147615   147587   147511   147496   147540   147564 
  147528   147438   147384   147433   147511   147552   147579   147611 
  147596   147546   147550   147602   147617   147584   147556   147563 
  147582   147579   147567   147563   147560   147548   147530   147544 
  147591   147607   147583   147579   147609   147625   147619   147619 
  147610   147553   147526   147603   147684   147687   147679   147690 
  147684   147694   147723   147723   147704   147702   147700   147676 
  147634   147592   147557   147544   147555   147573   147602   147623 
  147626   147626   147611   147569   147517   147511   147552   147553 
  147518   147515   147537   147550   147559   147571   147584   147560 
  147486   147436   147433   147425   147407   147384   147355   147364 
  147440   147528   147572   147580   147591   147611   147640   147683 
  147706   147656   147567   147510   147509   147533   147546   147559 
  147561   147526   147488   147498   147534   147545   147522   147518 
  147522   147476   147436   147483   147550   147573   147587   147603 
  147588   147565   147569   147564   147509   147460   147509   147596 
  147618   147614   147641   147650   147613   147568   147567   147582 
  147532   147441   147391   147393   147413   147426   147428   147429 
  147469   147552   147591   147577   147598   147603   147537   147510 
  147552   147595   147673   147773   147796   147757   147723   147687 
  147653   147657   147645   147588   147550   147533   147519   147545 
  147564   147542   147540   147573   147572   147525   147525   147621 
  147715   147725   147681   147634   147588   147560   147583   147619 
  147638   147641   147609   147553   147513   147480   147465   147487 
