Origin Time       2025/03/30 21:30:00
Lat.              38.535
Long.             142.295
Depth. (km)       44
Mag.              4.3
Station Code      IWTH27
Station Lat.      39.0307
Station Long.     141.5320
Station Height(m) -20
Record Time       2025/03/30 21:31:21
Sampling Freq(Hz) 100Hz
Duration Time(s)  120
Dir.              3
Scale Factor      2942(gal)/8224139
Max. Acc. (gal)   0.588
Last Correction   2025/03/30 21:31:20
Memo.             
[...]
  -30354   -30356   -30356   -30356   -30356   -30354   -30353   -30356 
  -30358   -30357   -30356   -30354   -30354   -30354   -30354   -30357 
  -30358   -30356   -30354   -30357   -30354   -30353   -30356   -30356 
  -30354   -30357   -30357   -30356   -30354   -30354   -30357   -30358 
  -30354   -30353   -30353   -30353   -30354   -30356   -30354   -30354 
  -30356   -30356   -30356   -30357   -30356   -30354   -30353   -30353 
  -30353   -30354   -30356   -30354   -30354   -30353   -30352   -30353 
  -30354   -30356   -30354   -30353   -30353   -30353   -30353   -30352 
  -30352   -30353   -30353   -30352   -30350   -30352   -30350   -30349 
  -30350   -30353   -30350   -30348   -30349   -30350   -30352   -30353 
  -30353   -30352   -30353   -30356   -30356   -30352   -30352   -30353 
  -30352   -30352   -30354   -30356   -30356   -30353   -30352   -30354 
  -30357   -30356   -30354   -30354   -30354   -30354   -30357   -30356 
  -30353   -30352   -30353   -30354   -30354   -30353   -30352   -30353 
  -30356   -30354   -30353   -30353   -30352   -30350   -30353   -30353 
  -30352   -30353   -30353   -30350   -30352   -30353   -30352   -30350 
  -30353   -30350   -30350   -30353   -30352   -30349   -30352   -30353 
  -30350   -30350   -30350   -30352   -30353   -30350   -30350   -30354 
  -30354   -30350   -30352   -30353   -30350   -30349   -30352   -30352 
  -30350   -30349   -30349   -30350   -30350   -30353   -30354   -30350 
  -30352   -30353   -30352   -30350   -30353   -30353   -30354   -30354 
  -30354   -30356   -30354   -30353   -30354   -30354   -30354   -30354 
  -30356   -30356   -30354   -30353   -30353   -30356   -30357   -30357 
  -30356   -30356   -30356   -30354   -30354   -30357   -30357   -30354 
  -30354   -30354   -30353   -30356   -30358   -30358   -30358   -30360 
  -30358   -30357   -30357   -30356   -30353   -30354   -30357   -30358 
  -30356   -30356   -30357   -30353   -30353   -30358   -30358   -30354 
  -30353   -30354   -30354   -30356   -30358   -30356   -30352   -30354 
  -30356   -30354   -30354   -30354   -30354   -30356   -30356   -30356 
  -30357   -30356   -30356   -30357   -30358   -30357   -30356   -30354 
  -30356   -30356   -30356   -30354   -30354   -30360   -30360   -30356 
  -30354   -30354   -30356   -30358   -30357   -30353   -30353   -30358 
  -30358   -30354   -30356   -30358   -30358   -30356   -30356   -30356 
  -30354   -30357   -30358   -30360   -30361   -30361   -30356   -30354 
  -30360   -30358   -30356   -30356   -30356   -30356   -30357   -30356 
  -30354   -30356   -30357   -30356   -30356   -30357   -30357   -30354 
  -30352   -30353   -30354   -30356   -30354   -30356   -30356   -30354 
  -30354   -30354   -30353   -30354   -30356   -30354   -30354   -30353 
  -30353   -30357   -30356   -30353   -30354   -30358   -30357   -30353 
  -30356   -30357   -30356   -30356   -30354   -30352   -30352   -30354 
  -30356   -30354   -30354   -30356   -30354   -30354   -30356   -30356 
  -30357   -30357   -30354   -30356   -30357   -30356   -30356   -30358 
  -30357   -30356   -30356   -30356   -30356   -30357   -30354   -30354 
  -30356   -30354   -30354   -30356   -30356   -30356   -30354   -30356 
  -30356   -30353   -30354   -30358   -30361   -30366   -30373   -30380 
  -30383   -30380   -30369   -30357   -30352   -30343   -30318   -30298 
  -30289   -30280   -30302   -30333   -30311   -30331   -30447   -30480 
  -30381   -30360   -30397   -30318   -30302   -30480   -30527   -30462 
  -30547   -30515   -30365   -30419   -30361   -30122   -30136   -30235 
  -30249   -30291   -30245   -30226   -30323   -30337   -30245   -30130 
  -30171   -30412   -30680   -30739   -30410   -30252   -30537   -30491 
  -30298   -30613   -30688   -30090   -29920   -30368   -30430   -30213 
  -30046   -29820   -30069   -30624   -30585   -30333   -30416   -30383 
  -30233   -30302   -30377   -30592   -30809   -30457   -30269   -30611 
  -30551   -30217   -30113   -30248   -30458   -30354   -30393   -30630 
  -30350   -30250   -30497   -30331   -30295   -30380   -30091   -30184 
  -30531   -30357   -30241   -30364   -30298   -30505   -30611   -30125 
  -30206   -30738   -30524   -30115   -30248   -30369   -30237   -30292 
  -30385   -30414   -30592   -30597   -30387   -30326   -30469   -30388 
  -30141   -30370   -30470   -30079   -30040   -30188   -30383   -30577 
  -30198   -30072   -30526   -30392   -29983   -30233   -30701   -30578 
  -30202   -30321   -30430   -30295   -30527   -30682   -30352   -30222 
  -30569   -30673   -30241   -30187   -30412   -30094   -30013   -30302 
  -30227   -30295   -30470   -30334   -30191   -30165   -30323   -30469 
  -30488   -30589   -30618   -30531   -30392   -30199   -30110   -30191 
  -30373   -30275   -29999   -30261   -30690   -30562   -30329   -30527 
  -30631   -30215   -30057   -30338   -30411   -30495   -30535   -30211 
  -30123   -30407   -30377   -30007   -30092   -30566   -30439   -30084 
  -30434   -30708   -30385   -30411   -30640   -30325   -30146   -30480 
  -30505   -30190   -30176   -30314   -30325   -30384   -30446   -30369 
  -30296   -30314   -30285   -30306   -30460   -30460   -30335   -30283 
  -30362   -30565   -30562   -30414   -30402   -30314   -30284   -30514 
  -30508   -30137   -30137   -30573   -30564   -30338   -30476   -30298 
  -30063   -30472   -30623   -30362   -30334   -30285   -30191   -30334 
  -30500   -30261   -30019   -30356   -30514   -30222   -30180   -30311 
  -30418   -30496   -30438   -30434   -30478   -30302   -30233   -30480 
  -30416   -30106   -30100   -30227   -30264   -30169   -30171   -30456 
  -30476   -30244   -30353   -30461   -30402   -30550   -30530   -30203 
  -30028   -30172   -30585   -30688   -30353   -30366   -30569   -30501 
  -30461   -30400   -30235   -30221   -30249   -30163   -30153   -30366 
  -30426   -30173   -30218   -30485   -30487   -30415   -30322   -30391 
  -30666   -30439   -30161   -30526   -30603   -30275   -30350   -30402 
  -30288   -30373   -30261   -30117   -30312   -30462   -30429   -30295 
  -30219   -30331   -30361   -30402   -30557   -30451   -30265   -30372 
  -30416   -30327   -30406   -30318   -30156   -30369   -30412   -30210 
  -30284   -30373   -30342   -30322   -30219   -30249   -30469   -30553 
  -30582   -30555   -30279   -30277   -30531   -30380   -30267   -30441 
  -30353   -30233   -30392   -30361   -30146   -30357   -30612   -30218 
  -29968   -30439   -30651   -30306   -30221   -30512   -30541   -30221 
  -30203   -30478   -30465   -30262   -30214   -30353   -30427   -30264 
  -30169   -30269   -30391   -30468   -30362   -30252   -30450   -30615 
  -30430   -30321   -30449   -30326   -30123   -30304   -30295   -30150 
  -30539   -30524   -29999   -30225   -30547   -30329   -30300   -30393 
  -30473   -30581   -30380   -30283   -30481   -30438   -30277   -30287 
  -30370   -30330   -30161   -30254   -30477   -30416   -30271   -30237 
  -30348   -30493   -30400   -30279   -30406   -30484   -30308   -30295 
  -30601   -30553   -30159   -30302   -30597   -30241   -29972   -30396 
  -30685   -30377   -30186   -30407   -30546   -30396   -30194   -30250 
  -30415   -30334   -30157   -30198   -30522   -30619   -30175   -30105 
  -30510   -30357   -30152   -30508   -30537   -30323   -30457   -30434 
  -30312   -30389   -30337   -30316   -30412   -30350   -30269   -30353 
  -30493   -30388   -30225   -30369   -30370   -30221   -30345   -30348 
  -30260   -30422   -30397   -30285   -30532   -30564   -30256   -30285 
  -30399   -30322   -30325   -30337   -30381   -30370   -30262   -30345 
  -30403   -30356   -30418   -30377   -30272   -30307   -30361   -30392 
  -30410   -30322   -30214   -30287   -30329   -30150   -30245   -30546 
  -30427   -30245   -30341   -30311   -30248   -30465   -30581   -30349 
  -30334   -30592   -30489   -30281   -30441   -30510   -30283   -30214 
  -30370   -30360   -30181   -30269   -30419   -30349   -30449   -30437 
  -30235   -30449   -30523   -30258   -30295   -30310   -30181   -30281 
  -30450   -30465   -30257   -30100   -30391   -30649   -30427   -30268 
  -30408   -30491   -30392   -30273   -30365   -30476   -30277   -30186 
  -30427   -30383   -30115   -30354   -30601   -30299   -30295   -30569 
  -30331   -30176   -30349   -30283   -30360   -30528   -30267   -30202 
  -30465   -30393   -30123   -30150   -30466   -30503   -30250   -30295 
  -30319   -30126   -30365   -30677   -30493   -30388   -30456   -30402 
  -30466   -30489   -30304   -30254   -30333   -30219   -30087   -30352 
  -30623   -30411   -30238   -30388   -30418   -30217   -30203   -30580 
  -30578   -30003   -30060   -30553   -30443   -30369   -30604   -30456 
  -30222   -30279   -30454   -30655   -30530   -30103   -30018   -30302 
  -30465   -30404   -30397   -30391   -30200   -30107   -30180   -30331 
  -30535   -30393   -30142   -30404   -30582   -30362   -30433   -30531 
  -30246   -30176   -30481   -30586   -30264   -30113   -30435   -30474 
  -30202   -30388   -30576   -30204   -30013   -30375   -30553   -30285 
  -30241   -30483   -30510   -30429   -30353   -30284   -30451   -30445 
  -30165   -30300   -30468   -30187   -30123   -30287   -30267   -30348 
  -30412   -30316   -30458   -30500   -30210   -30276   -30554   -30537 
  -30476   -30403   -30314   -30349   -30330   -30357   -30481   -30373 
  -30140   -30152   -30402   -30515   -30383   -30334   -30330   -30227 
  -30252   -30381   -30451   -30460   -30437   -30402   -30352   -30257 
  -30210   -30392   -30470   -30276   -30410   -30612   -30348   -30123 
  -30246   -30499   -30514   -30292   -30227   -30196   -30265   -30572 
  -30546   -30214   -30111   -30186   -30210   -30283   -30549   -30677 
  -30406   -30188   -30400   -30661   -30489   -30221   -30330   -30433 
  -30191   -30134   -30460   -30488   -30181   -30159   -30315   -30346 
  -30304   -30339   -30514   -30574   -30426   -30343   -30481   -30607 
  -30358   -30059   -30361   -30748   -30356   -29874   -30159   -30493 
  -30292   -30202   -30435   -30514   -30408   -30241   -30165   -30370 
  -30501   -30343   -30234   -30368   -30478   -30368   -30373   -30504 
  -30388   -30272   -30368   -30373   -30354   -30357   -30173   -30177 
  -30416   -30368   -30308   -30441   -30361   -30250   -30315   -30265 
  -30275   -30582   -30627   -30289   -30311   -30546   -30415   -30345 
  -30465   -30345   -30240   -30300   -30361   -30505   -30387   -29988 
  -30154   -30547   -30319   -30194   -30493   -30488   -30397   -30492 
  -30342   -30199   -30362   -30333   -30150   -30245   -30450   -30511 
  -30384   -30352   -30550   -30478   -30148   -30144   -30322   -30348 
  -30416   -30420   -30213   -30227   -30400   -30298   -30213   -30307 
  -30287   -30349   -30555   -30537   -30431   -30420   -30527   -30647 
  -30277   -29983   -30441   -30549   -30022   -30067   -30535   -30496 
  -30375   -30646   -30574   -30233   -30438   -30576   -30183   -30213 
  -30588   -30285   -29894   -30215   -30414   -30177   -30141   -30349 
  -30528   -30392   -30119   -30311   -30713   -30603   -30281   -30385 
  -30500   -30329   -30306   -30326   -30221   -30267   -30433   -30510 
  -30447   -30322   -30289   -30400   -30534   -30424   -30099   -30126 
  -30412   -30304   -30126   -30253   -30369   -30302   -30172   -30414 
  -30692   -30357   -30237   -30574   -30526   -30338   -30264   -30219 
  -30437   -30496   -30257   -30308   -30391   -30233   -30342   -30565 
  -30343   -30072   -30315   -30503   -30279   -30337   -30578   -30361 
  -30122   -30292   -30426   -30345   -30273   -30230   -30321   -30470 
  -30364   -30311   -30559   -30673   -30646   -30619   -30427   -30319 
  -30404   -30407   -30308   -30175   -30141   -30233   -30235   -30329 
  -30457   -30249   -30199   -30531   -30572   -30303   -30215   -30376 
  -30464   -30233   -30019   -30200   -30391   -30292   -30338   -30485 
  -30372   -30283   -30420   -30541   -30435   -30318   -30441   -30491 
  -30385   -30391   -30427   -30370   -30364   -30411   -30207   -30025 
  -30199   -30177   -30001   -30218   -30462   -30358   -30280   -30472 
  -30599   -30439   -30346   -30608   -30751   -30379   -30146   -30385 
  -30484   -30353   -30366   -30316   -29975   -30022   -30565   -30522 
  -30126   -30311   -30497   -30295   -30252   -30316   -30269   -30369 
  -30537   -30414   -30338   -30627   -30655   -30319   -30279   -30406 
  -30288   -30123   -30140   -30203   -30281   -30460   -30454   -30303 
  -30364   -30368   -30230   -30210   -30300   -30437   -30370   -30307 
  -30469   -30348   -30280   -30688   -30630   -30065   -29943   -29964 
  -29895   -30199   -30424   -30345   -30353   -30245   -30198   -30469 
  -30501   -30279   -30306   -30516   -30589   -30477   -30403   -30410 
  -30294   -30154   -30207   -30410   -30620   -30524   -30191   -30106 
  -30056   -29943   -30198   -30465   -30231   -30045   -30311   -30373 
  -30327   -30720   -30909   -30628   -30311   -30262   -30601   -30773 
  -30778   -31205   -31456   -30960   -30357   -30075   -29640   -29087 
  -29432   -30325   -30395   -30283   -30601   -30495   -30516   -31272 
  -31545   -31121   -30874   -30441   -29866   -30171   -30503   -30064 
  -30258   -30962   -30967   -30852   -30847   -30558   -30551   -30969 
  -30800   -29678   -28939   -29509   -30418   -30763   -30813   -30901 
  -30731   -30040   -29535   -29829   -30136   -30007   -30071   -30123 
  -29911   -30029   -30230   -30194   -30321   -30453   -30469   -30387 
  -30052   -29922   -29853   -29393   -29324   -29683   -29884   -30323 
  -30523   -30337   -31108   -31997   -31484   -30572   -29806   -29161 
  -29550   -30145   -29474   -28954   -30138   -31405   -31213   -30855 
  -31311   -31467   -30923   -30622   -30746   -30950   -30755   -29824 
  -29313   -29862   -30134   -29716   -29617   -30092   -30306   -30169 
  -30542   -30964   -30684   -30543   -30805   -30819   -30789   -30955 
  -31152   -31058   -30399   -30002   -30302   -30272   -29867   -29776 
  -29797   -29929   -30235   -30254   -30091   -30240   -30561   -30519 
  -30362   -30645   -30717   -30399   -30589   -30638   -29875   -29845 
  -30809   -30959   -30381   -30391   -30555   -30082   -29724   -30443 
  -31294   -30831   -29853   -29855   -30480   -30376   -29587   -29542 
  -30217   -30408   -30168   -30063   -30289   -30846   -30973   -30515 
  -30505   -30734   -30453   -30203   -30447   -30705   -30488   -30252 
  -30468   -30389   -29821   -29937   -30520   -30226   -29551   -29573 
  -30069   -30423   -30314   -30138   -30348   -30559   -30527   -30677 
  -31163   -31329   -30852   -30385   -30230   -30169   -30177   -30136 
  -30057   -30083   -30060   -29928   -29988   -30260   -30190   -30109 
  -30628   -30681   -30106   -30337   -30963   -30932   -30677   -30484 
  -30079   -29835   -30072   -30250   -30210   -30110   -29802   -29841 
  -30476   -30792   -30622   -30478   -30392   -30566   -30944   -30821 
  -30429   -30622   -31135   -31047   -30392   -30144   -30387   -30215 
  -29779   -29852   -30049   -29964   -30227   -30596   -30256   -29934 
  -30168   -30254   -30380   -30681   -30450   -30273   -30728   -30778 
  -30360   -30397   -30527   -30233   -29887   -29821   -30069   -30350 
  -30348   -30306   -30410   -30369   -30318   -30559   -30674   -30555 
  -30584   -30495   -30242   -30383   -30721   -30632   -30288   -30244 
  -30296   -30069   -30121   -30663   -30836   -30400   -29968   -29910 
  -30222   -30569   -30689   -30713   -30546   -30141   -30025   -30307 
  -30443   -30422   -30493   -30358   -30123   -30298   -30462   -30084 
  -29760   -29884   -29953   -29832   -29859   -30136   -30549   -30761 
  -30441   -30176   -30515   -30686   -30515   -30755   -31112   -30927 
  -30551   -30622   -30815   -30588   -30225   -29921   -29940   -30415 
  -30406   -30028   -30357   -30676   -30253   -30130   -30573   -30661 
  -30526   -30704   -30852   -30813   -30642   -30242   -30015   -30065 
  -30018   -30010   -29994   -29759   -29666   -29899   -30200   -30330 
  -30241   -30073   -30091   -30443   -30709   -30586   -30446   -30430 
  -30407   -30356   -30280   -30407   -30653   -30438   -30150   -30496 
  -30541   -29790   -29701   -30491   -30782   -30692   -30894   -30865 
  -30554   -30735   -31097   -30792   -30337   -30281   -30137   -30113 
  -30277   -29961   -29678   -29920   -30034   -29998   -30184   -30200 
  -30059   -30300   -30527   -30370   -30377   -30565   -30400   -30154 
  -30273   -30501   -30564   -30539   -30677   -30638   -30071   -29972 
  -30591   -30665   -30214   -30127   -30325   -30379   -30338   -30460 
  -30511   -30264   -30265   -30600   -30630   -30631   -31000   -30924 
  -30242   -29997   -30312   -30539   -30569   -30357   -29976   -29961 
  -30227   -30234   -30181   -30314   -30235   -30022   -30168   -30435 
  -30457   -30442   -30542   -30538   -30399   -30326   -30458   -30700 
  -30580   -30249   -30238   -30316   -30283   -30161   -30033   -30037 
  -29990   -30117   -30573   -30607   -30339   -30550   -30626   -30188 
  -30191   -30622   -30728   -30603   -30380   -30168   -30339   -30524 
  -30318   -30276   -30507   -30346   -29922   -29924   -30276   -30431 
  -30244   -29988   -30042   -30318   -30429   -30666   -31000   -30709 
  -30279   -30391   -30515   -30387   -30299   -30416   -30462   -30123 
  -29964   -30188   -30227   -30202   -30269   -30291   -30159   -29851 
  -30098   -30730   -30485   -29978   -30203   -30460   -30460   -30504 
  -30553   -30727   -30824   -30611   -30491   -30569   -30577   -30439 
  -30244   -30271   -30352   -30154   -30146   -30256   -30080   -30140 
  -30219   -30055   -30292   -30353   -30024   -30345   -30809   -30705 
  -30580   -30469   -30396   -30507   -30346   -30325   -30684   -30442 
  -30018   -30329   -30593   -30396   -30254   -30273   -30353   -30287 
  -30113   -30250   -30480   -30325   -30145   -30357   -30570   -30406 
  -30335   -30619   -30680   -30470   -30472   -30489   -30319   -30296 
  -30410   -30416   -30365   -30303   -30235   -30221   -30252   -30285 
  -30230   -30186   -30256   -30159   -30052   -30264   -30326   -30249 
  -30487   -30605   -30406   -30323   -30339   -30337   -30264   -30021 
  -30036   -30473   -30592   -30346   -30346   -30410   -30389   -30483 
  -30422   -30217   -30272   -30473   -30468   -30387   -30449   -30510 
  -30503   -30531   -30568   -30549   -30447   -30410   -30638   -30703 
  -30246   -29997   -30234   -30288   -30172   -30156   -30084   -30171 
  -30481   -30404   -29974   -30057   -30689   -30912   -30406   -29974 
  -30187   -30523   -30507   -30466   -30586   -30586   -30291   -30040 
  -30380   -30786   -30402   -29916   -30021   -30188   -30249   -30365 
  -30348   -30187   -30213   -30550   -30726   -30447   -30200   -30280 
  -30408   -30294   -30133   -30269   -30315   -30076   -30142   -30433 
  -30580   -30642   -30522   -30456   -30559   -30477   -30357   -30327 
  -30335   -30431   -30376   -30231   -30226   -30219   -30314   -30431 
  -30227   -30175   -30422   -30339   -30323   -30678   -30647   -30380 
  -30387   -30357   -30292   -30381   -30291   -30109   -30350   -30643 
  -30504   -30376   -30435   -30377   -30268   -30213   -30159   -30179 
  -30306   -30402   -30470   -30504   -30323   -30207   -30450   -30483 
  -30088   -30028   -30327   -30348   -30362   -30515   -30341   -30252 
  -30591   -30727   -30438   -30137   -30099   -30219   -30254   -30316 
