Origin Time       2025/03/30 21:30:00
Lat.              38.535
Long.             142.295
Depth. (km)       44
Mag.              4.3
Station Code      IWTH26
Station Lat.      38.9690
Station Long.     141.0013
Station Height(m) 125
Record Time       2025/03/30 21:31:30
Sampling Freq(Hz) 100Hz
Duration Time(s)  120
Dir.              6
Scale Factor      7845(gal)/8223790
Max. Acc. (gal)   2.027
Last Correction   2025/03/30 21:31:30
Memo.             
[...]
  -26453   -26231   -26207   -26439   -26603   -26524   -26377   -26283 
  -26249   -26302   -26343   -26296   -26262   -26284   -26330   -26387 
  -26374   -26250   -26148   -26211   -26347   -26327   -26154   -26099 
  -26299   -26596   -26723   -26550   -26217   -26021   -26110   -26338 
  -26450   -26383   -26293   -26304   -26379   -26427   -26419   -26346 
  -26253   -26250   -26350   -26406   -26368   -26329   -26295   -26190 
  -26072   -26121   -26330   -26481   -26464   -26377   -26364   -26410 
  -26408   -26379   -26388   -26369   -26279   -26163   -26092   -26163 
  -26354   -26528   -26553   -26388   -26167   -26098   -26235   -26427 
  -26450   -26237   -26056   -26180   -26474   -26615   -26480   -26222 
  -26123   -26289   -26474   -26418   -26183   -26041   -26154   -26418 
  -26570   -26466   -26180   -25994   -26177   -26574   -26720   -26468 
  -26090   -25924   -26110   -26449   -26595   -26472   -26279   -26217 
  -26312   -26407   -26360   -26246   -26256   -26424   -26577   -26522 
  -26287   -26092   -26114   -26287   -26407   -26404   -26369   -26379 
  -26416   -26438   -26411   -26322   -26217   -26180   -26235   -26334 
  -26403   -26379   -26306   -26246   -26177   -26136   -26199   -26342 
  -26482   -26508   -26339   -26109   -26044   -26175   -26349   -26437 
  -26465   -26546   -26635   -26559   -26318   -26129   -26118   -26198 
  -26265   -26320   -26349   -26323   -26295   -26329   -26369   -26331 
  -26256   -26273   -26411   -26541   -26531   -26400   -26276   -26241 
  -26277   -26293   -26215   -26107   -26133   -26339   -26581   -26682 
  -26603   -26399   -26158   -26022   -26076   -26261   -26451   -26480 
  -26331   -26233   -26272   -26334   -26384   -26415   -26350   -26187 
  -26092   -26250   -26546   -26655   -26509   -26285   -26117   -26061 
  -26100   -26163   -26262   -26401   -26478   -26465   -26404   -26312 
  -26190   -26071   -26061   -26200   -26372   -26472   -26527   -26563 
  -26528   -26377   -26206   -26152   -26239   -26373   -26447   -26401 
  -26295   -26289   -26408   -26450   -26281   -26037   -25986   -26217 
  -26530   -26694   -26634   -26372   -26088   -26019   -26171   -26347 
  -26403   -26322   -26238   -26281   -26423   -26553   -26581   -26457 
  -26258   -26115   -26100   -26258   -26454   -26426   -26206   -26091 
  -26187   -26352   -26414   -26331   -26257   -26349   -26558   -26692 
  -26576   -26238   -25971   -26001   -26230   -26420   -26439   -26342 
  -26295   -26342   -26395   -26399   -26356   -26280   -26229   -26253 
  -26306   -26288   -26221   -26231   -26338   -26407   -26361   -26272 
  -26256   -26342   -26443   -26477   -26449   -26420   -26411   -26377 
  -26304   -26212   -26104   -26046   -26190   -26508   -26705   -26574 
  -26260   -26061   -26126   -26339   -26464   -26393   -26253   -26233 
  -26401   -26599   -26509   -26107   -25817   -25972   -26362   -26566 
  -26482   -26312   -26235   -26291   -26366   -26314   -26207   -26279 
  -26516   -26690   -26658   -26404   -26072   -25949   -26118   -26352 
  -26461   -26424   -26345   -26349   -26366   -26248   -26077   -26063 
  -26257   -26489   -26522   -26331   -26154   -26179   -26376   -26547 
  -26492   -26264   -26153   -26315   -26554   -26569   -26338   -26107 
  -26073   -26214   -26397   -26487   -26404   -26273   -26256   -26331 
  -26407   -26419   -26319   -26195   -26181   -26295   -26414   -26401 
  -26283   -26173   -26142   -26250   -26461   -26612   -26572   -26320 
  -26044   -25986   -26142   -26368   -26535   -26526   -26400   -26320 
  -26287   -26233   -26164   -26149   -26244   -26388   -26511   -26589 
  -26545   -26347   -26142   -26075   -26202   -26451   -26620   -26599 
  -26462   -26310   -26206   -26173   -26169   -26146   -26125   -26190 
  -26358   -26482   -26426   -26287   -26248   -26330   -26404   -26369 
  -26273   -26275   -26410   -26516   -26451   -26254   -26118   -26203 
  -26403   -26493   -26430   -26298   -26192   -26202   -26318   -26424 
  -26427   -26352   -26292   -26279   -26260   -26229   -26244   -26308 
  -26380   -26416   -26366   -26268   -26239   -26283   -26335   -26377 
  -26327   -26175   -26111   -26299   -26605   -26700   -26461   -26136 
  -26001   -26099   -26318   -26462   -26428   -26327   -26302   -26334 
  -26318   -26217   -26148   -26235   -26427   -26562   -26531   -26389 
  -26279   -26245   -26223   -26192   -26204   -26296   -26430   -26499 
  -26435   -26330   -26307   -26365   -26433   -26407   -26233   -26073 
  -26113   -26271   -26395   -26433   -26383   -26307   -26288   -26335 
  -26384   -26369   -26312   -26279   -26269   -26269   -26264   -26253 
  -26272   -26322   -26354   -26361   -26361   -26385   -26476   -26576 
  -26551   -26358   -26103   -25984   -26129   -26360   -26388   -26250 
  -26185   -26268   -26415   -26509   -26450   -26241   -26055   -26146 
  -26505   -26758   -26661   -26365   -26114   -26079   -26268   -26406 
  -26277   -26056   -26030   -26238   -26496   -26597   -26454   -26204 
  -26133   -26312   -26473   -26462   -26377   -26262   -26165   -26250 
  -26462   -26523   -26337   -26119   -26156   -26485   -26793   -26719 
  -26300   -25955   -25971   -26226   -26435   -26453   -26326   -26192 
  -26191   -26356   -26505   -26458   -26341   -26298   -26225   -26131 
  -26183   -26347   -26454   -26422   -26288   -26160   -26167   -26292 
  -26380   -26362   -26307   -26289   -26358   -26509   -26590   -26442 
  -26181   -26092   -26238   -26470   -26615   -26536   -26268   -26025 
  -25990   -26161   -26401   -26549   -26480   -26242   -26098   -26200 
  -26380   -26414   -26298   -26217   -26330   -26596   -26785   -26643 
  -26218   -25914   -25967   -26203   -26365   -26300   -26090   -26013 
  -26202   -26476   -26551   -26339   -26114   -26208   -26568   -26813 
  -26689   -26357   -26153   -26165   -26261   -26329   -26329   -26253 
  -26173   -26217   -26372   -26419   -26266   -26106   -26118   -26268 
  -26406   -26458   -26473   -26489   -26476   -26404   -26302   -26257 
  -26285   -26284   -26264   -26357   -26499   -26511   -26427   -26384 
  -26334   -26249   -26225   -26212   -26136   -26127   -26241   -26365 
  -26451   -26450   -26322   -26164   -26140   -26277   -26446   -26514 
  -26408   -26148   -25975   -26129   -26442   -26558   -26395   -26160 
  -26134   -26353   -26558   -26559   -26424   -26276   -26192   -26202 
  -26242   -26254   -26322   -26509   -26640   -26523   -26262   -26115 
  -26158   -26281   -26356   -26338   -26311   -26369   -26455   -26481 
  -26464   -26396   -26248   -26119   -26148   -26296   -26406   -26420 
  -26399   -26334   -26214   -26115   -26138   -26295   -26428   -26385 
  -26272   -26272   -26403   -26558   -26574   -26374   -26136   -26099 
  -26273   -26455   -26482   -26358   -26218   -26234   -26389   -26416 
  -26222   -26079   -26173   -26380   -26496   -26400   -26154   -26033 
  -26206   -26451   -26469   -26288   -26150   -26210   -26453   -26701 
  -26712   -26434   -26125   -26061   -26231   -26420   -26461   -26300 
  -26061   -26019   -26245   -26461   -26462   -26361   -26370   -26518 
  -26617   -26480   -26164   -25910   -25890   -26111   -26370   -26416 
  -26275   -26230   -26395   -26557   -26500   -26307   -26210   -26276 
  -26392   -26473   -26485   -26384   -26218   -26173   -26327   -26516 
  -26561   -26478   -26404   -26342   -26223   -26114   -26134   -26253 
  -26361   -26424   -26428   -26353   -26258   -26245   -26303   -26339 
  -26316   -26304   -26376   -26488   -26520   -26415   -26266   -26191 
  -26172   -26188   -26246   -26253   -26179   -26156   -26241   -26341 
  -26370   -26353   -26366   -26392   -26373   -26358   -26373   -26334 
  -26242   -26191   -26241   -26419   -26572   -26488   -26284   -26215 
  -26296   -26391   -26404   -26308   -26177   -26168   -26327   -26454 
  -26346   -26142   -26104   -26260   -26464   -26582   -26516   -26287 
  -26104   -26145   -26314   -26437   -26484   -26501   -26499   -26469 
  -26403   -26287   -26142   -26019   -25974   -26063   -26246   -26389 
  -26447   -26439   -26357   -26276   -26312   -26415   -26462   -26427 
  -26361   -26377   -26487   -26565   -26535   -26381   -26157   -26067 
  -26244   -26522   -26582   -26312   -25994   -26013   -26343   -26526 
  -26275   -25899   -25899   -26372   -26896   -26898   -26315   -25749 
  -25736   -26177   -26539   -26433   -26096   -26064   -26408   -26751 
  -26759   -26476   -26260   -26334   -26527   -26499   -26171   -25895 
  -25987   -26281   -26370   -26111   -25801   -25844   -26242   -26632 
  -26758   -26669   -26526   -26455   -26516   -26569   -26438   -26249 
  -26203   -26212   -26148   -26121   -26275   -26504   -26535   -26279 
  -25983   -25932   -26160   -26439   -26488   -26291   -26141   -26331 
  -26758   -26970   -26689   -26114   -25767   -26013   -26574   -26835 
  -26609   -26222   -26073   -26302   -26603   -26527   -26042   -25609 
  -25695   -26299   -26933   -27136   -26858   -26406   -26146   -26175 
  -26250   -26167   -26006   -26006   -26269   -26678   -26979   -26863 
  -26275   -25735   -25758   -26188   -26570   -26673   -26551   -26466 
  -26535   -26545   -26254   -25763   -25500   -25740   -26300   -26766 
  -26796   -26408   -26032   -25969   -26102   -26229   -26244   -26177 
  -26214   -26470   -26793   -26886   -26628   -26195   -25857   -25790 
  -25995   -26306   -26543   -26639   -26607   -26487   -26360   -26310 
  -26264   -26056   -25740   -25645   -26006   -26635   -27018   -26832 
  -26329   -26022   -26113   -26381   -26496   -26330   -26110   -26145 
  -26428   -26653   -26600   -26330   -26021   -25833   -25886   -26163 
  -26504   -26771   -26901   -26835   -26528   -26129   -26033   -26427 
  -26905   -26881   -26246   -25536   -25450   -26068   -26815   -27058 
  -26561   -25780   -25554   -26121   -26896   -27186   -26769   -26086 
  -25872   -26272   -26696   -26616   -26134   -25759   -25822   -26152 
  -26365   -26288   -26030   -25832   -25891   -26168   -26492   -26819 
  -27149   -27336   -27117   -26464   -25790   -25559   -25828   -26276 
  -26514   -26447   -26285   -26148   -26026   -25967   -26037   -26276 
  -26663   -27008   -27027   -26674   -26239   -26038   -26086   -26088 
  -25797   -25429   -25509   -26191   -27021   -27353   -26971   -26369 
  -26142   -26253   -26273   -26057   -25860   -25953   -26279   -26516 
  -26450   -26145   -25906   -26050   -26468   -26689   -26582   -26489 
  -26582   -26680   -26572   -26234   -25847   -25670   -25820   -26292 
  -26923   -27334   -27322   -27022   -26547   -25995   -25689   -25897 
  -26423   -26690   -26403   -26003   -26002   -26258   -26356   -26208 
  -26052   -26110   -26442   -26886   -27141   -27037   -26635   -26127 
  -25672   -25305   -25151   -25463   -26107   -26492   -26261   -25763 
  -25681   -26185   -26784   -27037   -26966   -26859   -26982   -27191 
  -27014   -26300   -25509   -25267   -25694   -26246   -26399   -26242 
  -26212   -26507   -26860   -26802   -26175   -25502   -25570   -26476 
  -27473   -27796   -27284   -26401   -25798   -25693   -25763   -25695 
  -25658   -26006   -26609   -26928   -26674   -26049   -25579   -25702 
  -26257   -26682   -26723   -26561   -26489   -26642   -26811   -26678 
  -26343   -26140   -26056   -25959   -25974   -26273   -26804   -27195 
  -26933   -26049   -25270   -25213   -25836   -26589   -26963   -26929 
  -26769   -26661   -26522   -26156   -25652   -25442   -25755   -26319 
  -26717   -26769   -26603   -26541   -26735   -26892   -26580   -25814 
  -25203   -25393   -26316   -27198   -27319   -26647   -25778   -25365 
  -25554   -25983   -26246   -26312   -26415   -26623   -26820   -26893 
  -26705   -26215   -25728   -25671   -26077   -26635   -27031   -27036 
  -26671   -26289   -26144   -26195   -26300   -26271   -26107   -26082 
  -26323   -26622   -26671   -26341   -25843   -25543   -25604   -25955 
  -26466   -26998   -27338   -27220   -26576   -25778   -25396   -25621 
  -26068   -26337   -26476   -26663   -26892   -27031   -26919   -26565 
  -26153   -25859   -25860   -26185   -26568   -26806   -26829   -26519 
  -26042   -25710   -25525   -25600   -26153   -26736   -26719   -26285 
  -25959   -25911   -26158   -26501   -26509   -26322   -26580   -27176 
  -27355   -26916   -26202   -25550   -25336   -25733   -26311   -26558 
  -26476   -26434   -26627   -26748   -26461   -25967   -25672   -25714 
  -26068   -26528   -26721   -26522   -26131   -25782   -25705   -26046 
  -26534   -26686   -26427   -26127   -26183   -26654   -27170   -27274 
  -26917   -26476   -26280   -26322   -26365   -26203   -25888   -25697 
  -25776   -25944   -25988   -26014   -26291   -26811   -27240   -27325 
  -27002   -26327   -25662   -25429   -25641   -25999   -26203   -26187 
  -26222   -26492   -26811   -26905   -26731   -26407   -26013   -25698 
  -25748   -26176   -26612   -26742   -26512   -26096   -25794   -25810 
  -26145   -26604   -26900   -26936   -26879   -26855   -26767   -26493 
  -26045   -25632   -25629   -26141   -26684   -26713   -26239   -25702 
  -25550   -25887   -26316   -26312   -25888   -25648   -26168   -27319 
  -28129   -27653   -26148   -24912   -24864   -25759   -26774   -27307 
  -27286   -27086   -27039   -26997   -26573   -25717   -24900   -24737 
  -25374   -26407   -27291   -27623   -27373   -26893   -26468   -26099 
  -25731   -25438   -25448   -25902   -26647   -27284   -27272   -26520 
  -25826   -25868   -26292   -26424   -26142   -25856   -26130   -26998 
  -27700   -27468   -26292   -24885   -24197   -24723   -26005   -26962 
  -26997   -26578   -26381   -26377   -26260   -26022   -25810   -25844 
  -26299   -26920   -27225   -27098   -26705   -26172   -25704   -25547 
  -25678   -25863   -26032   -26312   -26676   -26817   -26562   -26165 
  -26046   -26338   -26843   -27284   -27436   -27157   -26561   -26021 
  -25789   -25717   -25605   -25558   -25793   -26308   -26856   -27124 
  -27009   -26689   -26329   -26026   -25928   -26056   -26306   -26604 
  -26850   -26887   -26669   -26303   -26003   -25897   -25926   -25957 
  -25996   -26212   -26577   -26694   -26446   -26237   -26280   -26385 
  -26349   -26127   -25971   -26181   -26586   -26779   -26669   -26470 
  -26350   -26225   -25945   -25548   -25285   -25493   -26165   -26796 
  -26947   -26688   -26365   -26246   -26335   -26466   -26472   -26365 
  -26368   -26581   -26763   -26626   -26199   -25848   -25907   -26307 
  -26689   -26794   -26599   -26248   -25987   -26018   -26272   -26454 
  -26412   -26287   -26333   -26666   -27055   -27094   -26719   -26195 
  -25739   -25506   -25633   -25976   -26203   -26210   -26145   -26125 
  -26149   -26195   -26289   -26433   -26538   -26580   -26626   -26603 
  -26400   -26168   -26171   -26387   -26507   -26376   -26265   -26496 
  -26867   -26856   -26393   -25964   -25984   -26388   -26762   -26790 
  -26519   -26149   -25836   -25698   -25748   -25844   -25883   -25996 
  -26302   -26595   -26639   -26447   -26091   -25720   -25609   -25836 
  -26225   -26568   -26734   -26740   -26697   -26636   -26554   -26492 
  -26470   -26446   -26414   -26430   -26497   -26570   -26646   -26673 
  -26512   -26214   -26059   -26115   -26176   -26168   -26138   -26092 
  -26130   -26356   -26626   -26711   -26607   -26408   -26134   -25901 
  -25933   -26239   -26597   -26819   -26788   -26453   -25994   -25753 
  -25876   -26130   -26206   -26115   -26154   -26545   -27109   -27282 
  -26735   -25922   -25551   -25779   -26257   -26589   -26631   -26514 
  -26451   -26562   -26712   -26617   -26249   -25882   -25783   -25978 
  -26212   -26257   -26223   -26341   -26519   -26466   -26150   -25812 
  -25658   -25809   -26239   -26655   -26688   -26373   -26138   -26177 
  -26279   -26280   -26276   -26472   -26923   -27353   -27410   -26998 
  -26326   -25789   -25609   -25697   -25897   -26102   -26295   -26454 
  -26451   -26380   -26462   -26584   -26500   -26200   -25875   -25859 
  -26300   -26855   -27031   -26717   -26281   -26153   -26329   -26503 
  -26476   -26262   -26091   -26180   -26377   -26315   -25969   -25679 
  -25675   -25864   -26033   -26118   -26256   -26570   -27016   -27341 
  -27214   -26634   -26052   -25864   -26064   -26346   -26395   -26217 
  -26042   -25968   -26005   -26123   -26168   -26080   -26064   -26245 
  -26465   -26593   -26698   -26823   -26811   -26557   -26271   -26219 
  -26354   -26462   -26447   -26339   -26233   -26129   -25891   -25585 
  -25536   -25899   -26477   -26900   -26931   -26678   -26431   -26373 
  -26497   -26596   -26481   -26265   -26239   -26504   -26796   -26788 
  -26476   -26123   -25936   -25893   -25867   -25898   -26111   -26431 
  -26689   -26767   -26603   -26275   -26021   -26053   -26335   -26586 
  -26599   -26447   -26370   -26491   -26600   -26418   -26010   -25666 
  -25583   -25822   -26253   -26600   -26688   -26546   -26349   -26276 
  -26320   -26299   -26131   -25965   -25961   -26079   -26237   -26438 
  -26626   -26626   -26369   -26095   -26130   -26507   -26887   -26909 
  -26611   -26322   -26185   -26113   -26044   -25972   -25924   -25986 
  -26200   -26424   -26473   -26393   -26411   -26566   -26674   -26616 
  -26496   -26509   -26647   -26690   -26611   -26595   -26644   -26569 
  -26369   -26233   -26203   -26176   -26103   -26052   -26087   -26144 
  -26164   -26206   -26285   -26374   -26377   -26208   -26013   -25949 
  -26005   -26126   -26176   -26130   -26198   -26369   -26388   -26206 
  -26032   -26136   -26523   -26836   -26785   -26451   -26160   -26154 
  -26374   -26590   -26647   -26526   -26383   -26372   -26431   -26368 
  -26145   -26011   -26188   -26503   -26653   -26530   -26250   -26106 
  -26231   -26385   -26291   -25936   -25623   -25772   -26372   -26866 
  -26832   -26379   -25967   -25987   -26327   -26543   -26469   -26319 
  -26345   -26568   -26757   -26678   -26345   -26023   -26006   -26306 
  -26626   -26696   -26505   -26283   -26268   -26403   -26411   -26195 
  -25983   -26071   -26458   -26797   -26794   -26515   -26194   -26010 
  -26055   -26306   -26546   -26508   -26235   -26021   -26025   -26179 
  -26326   -26311   -26153   -26064   -26183   -26396   -26466   -26284 
  -25992   -25840   -25951   -26248   -26539   -26727   -26752   -26522 
  -26152   -25987   -26153   -26419   -26536   -26468   -26325   -26241 
  -26276   -26381   -26445   -26366   -26156   -25967   -25961   -26160 
  -26412   -26532   -26482   -26349   -26242   -26248   -26354   -26434 
  -26337   -26090   -25948   -26086   -26392   -26665   -26742   -26562 
  -26261   -26050   -26057   -26284   -26611   -26828   -26820   -26644 
  -26451   -26347   -26306   -26234   -26177   -26257   -26433   -26612 
  -26730   -26616   -26204   -25725   -25498   -25667   -26117   -26573 
  -26850   -26919   -26897   -26902   -26809   -26443   -25944   -25641 
  -25751   -26195   -26635   -26771   -26555   -26149   -25809   -25689 
  -25728   -25825   -25945   -26111   -26388   -26694   -26792   -26636 
  -26391   -26131   -25934   -25957   -26229   -26586   -26839   -26889 
  -26705   -26370   -26126   -26106   -26206   -26364   -26551   -26634 
  -26559   -26428   -26337   -26284   -26194   -26071   -26030   -26084 
  -26149   -26206   -26298   -26403   -26358   -26042   -25674   -25655 
  -26104   -26686   -26967   -26840   -26477   -26160   -26158   -26434 
