Origin Time       2025/03/30 21:30:00
Lat.              38.535
Long.             142.295
Depth. (km)       44
Mag.              4.3
Station Code      IWTH17
Station Lat.      39.6442
Station Long.     141.5977
Station Height(m) 305
Record Time       2025/03/30 21:31:33
Sampling Freq(Hz) 100Hz
Duration Time(s)  120
Dir.              6
Scale Factor      7845(gal)/8223790
Max. Acc. (gal)   0.405
Last Correction   2025/03/30 21:31:33
Memo.             
[...]
  -16526   -16301   -16282   -16433   -16397   -16268   -16320   -16484 
  -16509   -16343   -16264   -16402   -16494   -16416   -16324   -16314 
  -16386   -16499   -16525   -16407   -16264   -16209   -16263   -16313 
  -16340   -16448   -16482   -16359   -16309   -16386   -16494   -16499 
  -16339   -16274   -16402   -16418   -16357   -16447   -16443   -16330 
  -16472   -16552   -16240   -16093   -16355   -16518   -16422   -16355 
  -16393   -16390   -16330   -16362   -16430   -16375   -16432   -16634 
  -16497   -16239   -16402   -16522   -16243   -16154   -16463   -16595 
  -16312   -16101   -16293   -16583   -16605   -16393   -16239   -16313 
  -16448   -16432   -16363   -16407   -16436   -16359   -16336   -16357 
  -16297   -16303   -16459   -16536   -16499   -16461   -16360   -16329 
  -16452   -16409   -16245   -16237   -16271   -16387   -16595   -16540 
  -16305   -16312   -16455   -16399   -16294   -16363   -16410   -16374 
  -16461   -16565   -16428   -16214   -16229   -16370   -16378   -16279 
  -16309   -16461   -16445   -16329   -16420   -16592   -16600   -16406 
  -16175   -16204   -16368   -16348   -16372   -16549   -16515   -16345 
  -16341   -16394   -16375   -16352   -16349   -16293   -16241   -16428 
  -16613   -16426   -16306   -16479   -16448   -16312   -16367   -16303 
  -16217   -16524   -16768   -16449   -16083   -16155   -16422   -16548 
  -16460   -16289   -16136   -16204   -16546   -16599   -16274   -16326 
  -16600   -16395   -16218   -16525   -16602   -16289   -16222   -16383 
  -16424   -16428   -16460   -16328   -16163   -16305   -16540   -16509 
  -16353   -16341   -16410   -16390   -16379   -16407   -16320   -16291 
  -16441   -16491   -16430   -16453   -16420   -16281   -16325   -16470 
  -16399   -16318   -16395   -16336   -16248   -16445   -16545   -16329 
  -16272   -16457   -16540   -16483   -16402   -16256   -16164   -16348 
  -16476   -16325   -16387   -16565   -16393   -16306   -16534   -16536 
  -16298   -16251   -16283   -16289   -16432   -16451   -16301   -16380 
  -16438   -16324   -16430   -16541   -16402   -16340   -16343   -16298 
  -16425   -16545   -16403   -16297   -16348   -16353   -16362   -16383 
  -16363   -16405   -16406   -16330   -16374   -16416   -16399   -16441 
  -16394   -16306   -16329   -16422   -16599   -16619   -16345   -16227 
  -16386   -16422   -16348   -16393   -16391   -16325   -16345   -16301 
  -16216   -16341   -16565   -16582   -16368   -16267   -16409   -16472 
  -16443   -16478   -16372   -16241   -16353   -16406   -16336   -16444 
  -16525   -16351   -16243   -16375   -16464   -16367   -16286   -16320 
  -16407   -16528   -16534   -16306   -16162   -16355   -16559   -16476 
  -16353   -16374   -16344   -16241   -16291   -16463   -16483   -16356 
  -16391   -16515   -16370   -16232   -16438   -16513   -16297   -16322 
  -16538   -16457   -16240   -16302   -16465   -16447   -16401   -16368 
  -16285   -16349   -16517   -16505   -16366   -16255   -16274   -16440 
  -16461   -16298   -16275   -16397   -16488   -16465   -16351   -16379 
  -16534   -16494   -16294   -16266   -16414   -16464   -16356   -16297 
  -16416   -16524   -16440   -16305   -16281   -16294   -16294   -16384 
  -16483   -16452   -16432   -16401   -16287   -16351   -16494   -16352 
  -16244   -16437   -16470   -16312   -16420   -16563   -16430   -16330 
  -16359   -16328   -16386   -16529   -16399   -16179   -16333   -16546 
  -16401   -16227   -16283   -16363   -16397   -16467   -16467   -16389 
  -16401   -16441   -16370   -16306   -16389   -16487   -16432   -16328 
  -16355   -16444   -16445   -16374   -16309   -16330   -16402   -16394 
  -16401   -16398   -16278   -16351   -16573   -16499   -16340   -16374 
  -16379   -16379   -16449   -16362   -16266   -16360   -16306   -16233 
  -16505   -16621   -16389   -16359   -16432   -16326   -16329   -16384 
  -16286   -16341   -16495   -16378   -16308   -16491   -16491   -16295 
  -16282   -16397   -16448   -16405   -16268   -16254   -16429   -16488 
  -16409   -16370   -16344   -16384   -16487   -16456   -16356   -16366 
  -16393   -16316   -16293   -16457   -16502   -16247   -16162   -16497 
  -16652   -16333   -16143   -16339   -16470   -16387   -16386   -16514 
  -16484   -16302   -16286   -16394   -16451   -16513   -16517   -16389 
  -16299   -16335   -16407   -16452   -16441   -16375   -16282   -16262 
  -16393   -16499   -16393   -16290   -16378   -16413   -16345   -16379 
  -16386   -16359   -16494   -16487   -16235   -16305   -16583   -16471 
  -16268   -16370   -16459   -16337   -16227   -16337   -16470   -16360 
  -16297   -16420   -16428   -16386   -16429   -16411   -16394   -16441 
  -16399   -16341   -16405   -16451   -16432   -16380   -16321   -16417 
  -16521   -16363   -16262   -16411   -16417   -16259   -16301   -16425 
  -16395   -16393   -16457   -16406   -16318   -16305   -16312   -16403 
  -16494   -16391   -16357   -16510   -16465   -16291   -16364   -16486 
  -16394   -16297   -16316   -16366   -16456   -16475   -16341   -16314 
  -16401   -16341   -16345   -16464   -16383   -16293   -16394   -16429 
  -16416   -16488   -16433   -16255   -16325   -16578   -16572   -16337 
  -16240   -16299   -16320   -16376   -16484   -16390   -16225   -16310 
  -16401   -16324   -16355   -16433   -16389   -16386   -16474   -16492 
  -16432   -16421   -16410   -16326   -16329   -16438   -16464   -16407 
  -16345   -16218   -16189   -16443   -16572   -16370   -16283   -16326 
  -16308   -16437   -16526   -16393   -16389   -16476   -16391   -16298 
  -16325   -16459   -16533   -16306   -16191   -16515   -16614   -16279 
  -16194   -16422   -16475   -16344   -16316   -16406   -16386   -16270 
  -16309   -16437   -16470   -16455   -16411   -16395   -16483   -16457 
  -16318   -16341   -16411   -16379   -16397   -16456   -16420   -16356 
  -16343   -16337   -16359   -16418   -16429   -16340   -16268   -16366 
  -16488   -16453   -16383   -16410   -16436   -16352   -16312   -16372 
  -16310   -16260   -16461   -16542   -16329   -16272   -16434   -16475 
  -16409   -16357   -16278   -16301   -16479   -16506   -16391   -16374 
  -16352   -16337   -16414   -16416   -16364   -16367   -16387   -16468 
  -16451   -16224   -16240   -16560   -16567   -16306   -16295   -16421 
  -16405   -16364   -16368   -16387   -16422   -16380   -16362   -16461 
  -16432   -16303   -16302   -16329   -16384   -16510   -16472   -16285 
  -16308   -16513   -16530   -16374   -16256   -16251   -16328   -16370 
  -16456   -16586   -16432   -16200   -16309   -16433   -16407   -16525 
  -16497   -16191   -16193   -16459   -16488   -16370   -16351   -16372 
  -16333   -16344   -16409   -16391   -16461   -16551   -16351   -16271 
  -16472   -16384   -16239   -16457   -16501   -16305   -16391   -16483 
  -16341   -16343   -16438   -16374   -16339   -16422   -16372   -16260 
  -16387   -16513   -16421   -16444   -16528   -16387   -16313   -16406 
  -16378   -16322   -16359   -16364   -16406   -16411   -16244   -16293 
  -16579   -16459   -16178   -16371   -16596   -16444   -16301   -16317 
  -16328   -16421   -16559   -16499   -16352   -16335   -16352   -16367 
  -16398   -16403   -16410   -16316   -16205   -16359   -16522   -16456 
  -16395   -16398   -16397   -16407   -16364   -16328   -16394   -16397 
  -16329   -16357   -16330   -16272   -16416   -16467   -16312   -16352 
  -16540   -16567   -16441   -16325   -16336   -16401   -16356   -16318 
  -16418   -16495   -16422   -16294   -16255   -16351   -16405   -16324 
  -16321   -16357   -16349   -16472   -16502   -16297   -16247   -16386 
  -16429   -16384   -16378   -16420   -16474   -16499   -16430   -16333 
  -16383   -16505   -16468   -16371   -16352   -16287   -16235   -16379 
  -16545   -16453   -16268   -16329   -16468   -16383   -16303   -16391 
  -16403   -16374   -16452   -16448   -16337   -16397   -16482   -16289 
  -16167   -16471   -16700   -16464   -16274   -16407   -16426   -16270 
  -16279   -16379   -16364   -16329   -16409   -16514   -16457   -16367 
  -16433   -16425   -16262   -16281   -16443   -16440   -16370   -16380 
  -16330   -16290   -16426   -16507   -16406   -16348   -16325   -16278 
  -16371   -16472   -16356   -16293   -16465   -16503   -16335   -16312 
  -16393   -16399   -16390   -16339   -16314   -16436   -16465   -16321 
  -16332   -16464   -16386   -16279   -16421   -16517   -16409   -16363 
  -16410   -16397   -16349   -16421   -16533   -16438   -16251   -16278 
  -16470   -16532   -16367   -16260   -16352   -16362   -16359   -16533 
  -16517   -16291   -16364   -16515   -16344   -16285   -16498   -16448 
  -16205   -16276   -16467   -16425   -16406   -16464   -16386   -16343 
  -16348   -16298   -16391   -16497   -16352   -16245   -16330   -16321 
  -16303   -16470   -16490   -16340   -16405   -16492   -16372   -16340 
  -16356   -16206   -16229   -16513   -16540   -16364   -16416   -16453 
  -16310   -16329   -16467   -16447   -16393   -16371   -16333   -16406 
  -16459   -16379   -16401   -16445   -16339   -16298   -16387   -16436 
  -16447   -16416   -16336   -16397   -16546   -16455   -16266   -16348 
  -16486   -16422   -16411   -16532   -16476   -16286   -16310   -16448 
  -16413   -16325   -16308   -16268   -16321   -16511   -16445   -16182 
  -16287   -16544   -16463   -16362   -16416   -16353   -16344   -16517 
  -16530   -16368   -16328   -16407   -16420   -16294   -16194   -16293 
  -16437   -16402   -16258   -16235   -16359   -16434   -16368   -16291 
  -16418   -16588   -16453   -16309   -16472   -16571   -16445   -16397 
  -16411   -16256   -16166   -16382   -16502   -16299   -16214   -16437 
  -16532   -16391   -16421   -16555   -16437   -16239   -16276   -16447 
  -16463   -16335   -16293   -16429   -16588   -16524   -16313   -16271 
  -16364   -16368   -16312   -16295   -16374   -16513   -16491   -16330 
  -16335   -16441   -16414   -16340   -16339   -16416   -16530   -16509 
  -16353   -16321   -16428   -16449   -16293   -16141   -16236   -16398 
  -16389   -16386   -16449   -16430   -16402   -16386   -16387   -16521 
  -16584   -16378   -16213   -16295   -16429   -16487   -16414   -16310 
  -16403   -16455   -16247   -16195   -16421   -16479   -16359   -16318 
  -16341   -16445   -16544   -16430   -16244   -16255   -16460   -16517 
  -16316   -16294   -16505   -16476   -16260   -16294   -16464   -16441 
  -16382   -16417   -16368   -16345   -16426   -16387   -16330   -16391 
  -16339   -16248   -16436   -16603   -16391   -16241   -16420   -16475 
  -16382   -16480   -16509   -16317   -16308   -16428   -16386   -16371 
  -16410   -16363   -16380   -16444   -16411   -16416   -16425   -16312 
  -16241   -16298   -16424   -16615   -16598   -16208   -15970   -16272 
  -16668   -16613   -16299   -16297   -16479   -16370   -16225   -16328 
  -16413   -16437   -16426   -16356   -16421   -16498   -16353   -16243 
  -16332   -16402   -16340   -16276   -16333   -16445   -16503   -16459 
  -16348   -16352   -16463   -16399   -16241   -16317   -16484   -16447 
  -16322   -16357   -16503   -16502   -16359   -16266   -16321   -16501 
  -16498   -16291   -16343   -16492   -16402   -16352   -16353   -16293 
  -16421   -16538   -16359   -16241   -16410   -16492   -16351   -16316 
  -16406   -16384   -16409   -16480   -16310   -16217   -16444   -16455 
  -16236   -16324   -16502   -16384   -16268   -16399   -16542   -16515 
  -16401   -16320   -16318   -16374   -16409   -16420   -16448   -16434 
  -16402   -16437   -16440   -16314   -16235   -16326   -16359   -16299 
  -16401   -16470   -16379   -16441   -16533   -16416   -16345   -16422 
  -16425   -16364   -16444   -16545   -16409   -16231   -16317   -16534 
  -16533   -16310   -16270   -16438   -16452   -16379   -16336   -16231 
  -16320   -16564   -16467   -16245   -16370   -16505   -16386   -16328 
  -16386   -16406   -16409   -16349   -16313   -16430   -16436   -16262 
  -16237   -16332   -16330   -16329   -16402   -16428   -16378   -16313 
  -16260   -16337   -16555   -16614   -16394   -16275   -16478   -16646 
  -16557   -16370   -16244   -16267   -16324   -16313   -16310   -16283 
  -16235   -16268   -16386   -16463   -16457   -16502   -16528   -16384 
  -16321   -16472   -16552   -16482   -16471   -16511   -16506   -16484 
  -16463   -16398   -16252   -16144   -16185   -16210   -16163   -16236 
  -16416   -16441   -16317   -16353   -16559   -16640   -16548   -16445 
  -16429   -16480   -16474   -16399   -16402   -16457   -16425   -16389 
  -16380   -16239   -16154   -16318   -16362   -16186   -16205   -16386 
  -16429   -16426   -16459   -16405   -16268   -16247   -16499   -16654 
  -16391   -16208   -16363   -16440   -16375   -16390   -16397   -16345 
  -16330   -16299   -16321   -16464   -16472   -16428   -16526   -16484 
  -16316   -16316   -16407   -16501   -16546   -16405   -16229   -16237 
  -16308   -16387   -16398   -16195   -16193   -16475   -16409   -16182 
  -16382   -16667   -16641   -16487   -16393   -16434   -16579   -16576 
  -16330   -16229   -16457   -16492   -16225   -16247   -16436   -16241 
  -15985   -16143   -16421   -16405   -16287   -16413   -16584   -16556 
  -16555   -16659   -16600   -16383   -16305   -16447   -16563   -16497 
  -16394   -16417   -16487   -16372   -16097   -16033   -16218   -16228 
  -16058   -16200   -16576   -16687   -16630   -16632   -16532   -16441 
  -16522   -16424   -16116   -16119   -16353   -16366   -16290   -16360 
  -16362   -16167   -16129   -16343   -16402   -16397   -16582   -16588 
  -16428   -16511   -16549   -16332   -16328   -16567   -16615   -16487 
  -16395   -16352   -16353   -16314   -16121   -15962   -16087   -16312 
  -16399   -16518   -16731   -16717   -16436   -16275   -16297   -16287 
  -16340   -16428   -16379   -16438   -16584   -16461   -16335   -16356 
  -16231   -16198   -16414   -16530   -16546   -16519   -16335   -16210 
  -16313   -16347   -16174   -16175   -16465   -16600   -16482   -16460 
  -16487   -16329   -16248   -16391   -16447   -16413   -16494   -16509 
  -16406   -16441   -16563   -16588   -16502   -16368   -16320   -16332 
  -16335   -16339   -16254   -16187   -16317   -16410   -16348   -16310 
  -16287   -16275   -16436   -16575   -16440   -16371   -16472   -16310 
  -16075   -16212   -16475   -16499   -16401   -16409   -16414   -16370 
  -16474   -16538   -16326   -16220   -16403   -16491   -16459   -16461 
  -16368   -16317   -16449   -16421   -16168   -16123   -16368   -16502 
  -16422   -16459   -16521   -16270   -16198   -16591   -16637   -16275 
  -16256   -16428   -16394   -16301   -16272   -16363   -16599   -16723 
  -16560   -16393   -16391   -16351   -16332   -16382   -16282   -16258 
  -16434   -16382   -16193   -16222   -16316   -16337   -16333   -16329 
  -16391   -16407   -16301   -16291   -16441   -16556   -16525   -16452 
  -16487   -16515   -16426   -16480   -16619   -16372   -16087   -16335 
  -16537   -16302   -16191   -16302   -16344   -16378   -16383   -16414 
  -16630   -16680   -16359   -16171   -16386   -16559   -16459   -16418 
  -16429   -16278   -16222   -16305   -16312   -16345   -16360   -16295 
  -16376   -16533   -16474   -16293   -16256   -16402   -16556   -16545 
  -16414   -16254   -16147   -16260   -16398   -16351   -16370   -16421 
  -16362   -16375   -16356   -16299   -16468   -16609   -16393   -16154 
  -16254   -16421   -16434   -16445   -16376   -16340   -16553   -16563 
  -16272   -16268   -16445   -16367   -16178   -16160   -16405   -16715 
  -16679   -16337   -16287   -16586   -16571   -16260   -16294   -16533 
  -16453   -16254   -16332   -16417   -16294   -16367   -16532   -16344 
  -16209   -16348   -16330   -16293   -16465   -16544   -16433   -16348 
  -16390   -16514   -16646   -16600   -16297   -16232   -16536   -16476 
  -16144   -16298   -16602   -16418   -16074   -16123   -16418   -16483 
  -16366   -16335   -16321   -16366   -16530   -16514   -16314   -16322 
  -16476   -16482   -16403   -16325   -16299   -16393   -16351   -16175 
  -16310   -16510   -16387   -16430   -16623   -16448   -16276   -16330 
  -16306   -16372   -16492   -16328   -16208   -16456   -16591   -16351 
  -16218   -16389   -16471   -16360   -16308   -16368   -16444   -16467 
  -16430   -16348   -16309   -16480   -16542   -16241   -16283   -16706 
  -16606   -16216   -16251   -16470   -16468   -16337   -16355   -16366 
  -16197   -16271   -16429   -16275   -16364   -16579   -16370   -16326 
  -16530   -16395   -16310   -16456   -16335   -16210   -16398   -16422 
  -16299   -16445   -16576   -16490   -16480   -16513   -16378   -16216 
  -16312   -16497   -16322   -16114   -16409   -16618   -16256   -16046 
  -16312   -16533   -16510   -16357   -16243   -16384   -16576   -16494 
  -16389   -16456   -16352   -16193   -16422   -16572   -16293   -16249 
  -16467   -16353   -16255   -16437   -16386   -16201   -16310   -16421 
  -16317   -16340   -16510   -16457   -16336   -16464   -16534   -16406 
  -16347   -16322   -16380   -16602   -16625   -16437   -16410   -16452 
  -16344   -16266   -16324   -16328   -16322   -16407   -16357   -16276 
  -16448   -16468   -16221   -16344   -16603   -16417   -16249   -16356 
  -16386   -16461   -16598   -16467   -16309   -16414   -16452   -16324 
  -16345   -16428   -16360   -16279   -16305   -16345   -16328   -16313 
  -16286   -16333   -16509   -16486   -16335   -16433   -16509   -16357 
  -16382   -16564   -16487   -16351   -16476   -16497   -16285   -16294 
  -16370   -16228   -16276   -16406   -16275   -16343   -16482   -16244 
  -16258   -16545   -16402   -16301   -16607   -16629   -16270   -16198 
  -16538   -16614   -16252   -16159   -16399   -16448   -16306   -16170 
  -16218   -16494   -16578   -16375   -16364   -16509   -16407   -16279 
  -16362   -16394   -16357   -16405   -16424   -16394   -16406   -16401 
  -16357   -16372   -16414   -16347   -16249   -16302   -16453   -16522 
  -16455   -16362   -16379   -16491   -16524   -16349   -16255   -16464 
  -16511   -16249   -16189   -16321   -16383   -16411   -16364   -16299 
  -16339   -16380   -16434   -16490   -16378   -16328   -16605   -16706 
  -16378   -16200   -16325   -16483   -16544   -16347   -16205   -16443 
  -16486   -16229   -16329   -16502   -16297   -16244   -16459   -16510 
  -16464   -16444   -16409   -16461   -16509   -16434   -16389   -16390 
  -16333   -16232   -16252   -16449   -16472   -16302   -16325   -16399 
  -16363   -16347   -16267   -16216   -16393   -16544   -16507   -16438 
  -16391   -16420   -16463   -16268   -16021   -16194   -16519   -16474 
  -16380   -16501   -16397   -16205   -16336   -16434   -16389   -16507 
  -16511   -16208   -16183   -16526   -16546   -16309   -16293   -16295 
  -16266   -16498   -16699   -16506   -16285   -16314   -16333   -16312 
  -16416   -16526   -16444   -16259   -16239   -16301   -16349   -16553 
  -16592   -16271   -16244   -16534   -16449   -16285   -16511   -16551 
  -16216   -16131   -16352   -16517   -16522   -16421   -16340   -16382 
  -16538   -16560   -16335   -16281   -16443   -16407   -16305   -16406 
  -16480   -16386   -16333   -16352   -16329   -16325   -16429   -16529 
  -16401   -16243   -16359   -16490   -16401   -16271   -16353   -16522 
  -16426   -16243   -16274   -16378   -16483   -16533   -16355   -16159 
  -16255   -16459   -16448   -16352   -16413   -16471   -16456   -16503 
  -16468   -16310   -16302   -16432   -16448   -16344   -16320   -16395 
  -16347   -16243   -16380   -16541   -16436   -16281   -16255   -16362 
