Origin Time       2025/03/30 21:30:00
Lat.              38.535
Long.             142.295
Depth. (km)       44
Mag.              4.3
Station Code      IWTH23
Station Lat.      39.2741
Station Long.     141.8233
Station Height(m) -59
Record Time       2025/03/30 21:31:21
Sampling Freq(Hz) 100Hz
Duration Time(s)  120
Dir.              1
Scale Factor      2942(gal)/8224139
Max. Acc. (gal)   0.767
Last Correction   2025/03/30 21:31:21
Memo.             
[...]
   56926    56926    56928    56929    56930    56928    56928    56928 
   56928    56928    56926    56928    56928    56926    56925    56926 
   56928    56928    56926    56928    56928    56925    56924    56929 
   56930    56928    56926    56926    56928    56928    56928    56926 
   56924    56925    56928    56928    56926    56928    56928    56926 
   56929    56930    56926    56926    56928    56926    56928    56930 
   56929    56928    56926    56926    56928    56929    56928    56926 
   56926    56926    56928    56929    56928    56929    56929    56925 
   56926    56928    56928    56928    56928    56926    56926    56928 
   56926    56925    56926    56926    56924    56926    56929    56924 
   56924    56928    56925    56924    56926    56926    56928    56928 
   56928    56928    56928    56925    56926    56929    56928    56926 
   56928    56928    56928    56929    56929    56929    56929    56929 
   56929    56929    56929    56929    56929    56929    56928    56928 
   56929    56928    56925    56928    56930    56928    56929    56929 
   56925    56925    56929    56929    56926    56925    56926    56928 
   56926    56925    56925    56928    56928    56929    56928    56926 
   56928    56928    56925    56928    56928    56926    56929    56926 
   56925    56926    56928    56928    56929    56929    56926    56926 
   56928    56928    56926    56926    56926    56925    56925    56926 
   56926    56926    56925    56926    56928    56928    56925    56925 
   56928    56928    56924    56922    56926    56926    56926    56928 
   56926    56925    56926    56928    56926    56925    56926    56926 
   56924    56925    56929    56926    56924    56925    56928    56929 
   56926    56922    56926    56929    56926    56926    56928    56926 
   56926    56929    56929    56928    56929    56930    56932    56929 
   56928    56929    56929    56928    56926    56926    56929    56929 
   56926    56928    56929    56928    56926    56928    56928    56928 
   56929    56928    56928    56928    56926    56928    56928    56928 
   56929    56930    56932    56930    56929    56928    56929    56930 
   56926    56928    56930    56929    56928    56926    56926    56928 
   56928    56926    56929    56930    56928    56925    56925    56921 
   56913    56913    56914    56909    56911    56925    56918    56907 
   56920    56911    56884    56949    57045    57025    56971    56945 
   56910    56941    57019    57010    56895    56744    56698    56722 
   56744    56891    56999    56848    56749    56832    56906    57140 
   57304    56953    56759    57068    57177    57161    57194    57044 
   57084    57052    56650    56585    56563    56593    57144    56970 
   56457    56913    57279    57322    57240    56671    56650    57275 
   57500    57294    56921    56808    57226    57369    56735    56158 
   56255    56664    57113    57267    56825    56533    56660    56700 
   56952    57138    56960    57159    57375    57172    57041    56967 
   56786    56833    57095    56830    56550    56839    56890    56967 
   56960    56401    56270    56574    56863    57202    57285    57276 
   57172    56759    56813    57285    57041    56818    57279    57202 
   56997    57144    56825    56681    56685    56416    56610    56862 
   56856    56983    57127    57061    56702    56713    57091    57061 
   57011    57161    57226    57308    57191    56691    56438    56814 
   57127    57138    57007    56690    56771    56929    56681    56781 
   56959    56983    57191    57063    56787    56930    57315    57323 
   56652    56393    57075    57451    57076    56851    56901    56747 
   56681    56666    56546    56859    57221    57161    57064    56870 
   56623    56706    56960    57198    57240    56949    57006    57304 
   57009    56496    56519    57203    57489    56830    56457    56543 
   56755    57183    57169    56925    56867    56837    57090    57013 
   56505    56617    57064    57283    57165    56839    56895    57036 
   56857    56776    56965    57119    56980    56988    57117    56833 
   56732    56921    57028    57180    56826    56350    56751    57227 
   57122    56891    56830    56975    57114    56986    56641    56737 
   57217    57064    56751    56801    56876    57237    57146    56585 
   56855    57030    56724    56963    57017    56876    57109    56982 
   56748    56809    56816    56853    56799    56718    56876    57030 
   57056    57052    56926    56731    56932    57252    57037    56782 
   56988    57142    56921    56932    57119    56708    56316    56744 
   57207    57129    56955    56963    57129    57005    56511    56614 
   57098    57184    57392    57179    56342    56616    57356    57114 
   56902    56857    56704    57167    57434    56728    56393    56930 
   57203    57099    57045    56860    56708    56627    56587    56909 
   57281    57426    57159    56423    56331    56971    57208    57179 
   57109    56898    56924    57044    56847    56652    56916    57115 
   56756    56605    56867    56948    56980    57057    57102    57003 
   56627    56644    57118    57148    56808    56728    56937    57127 
   57130    56959    56670    56596    56970    57226    56997    56822 
   57024    57118    56843    56682    56659    56682    57086    57167 
   56772    56922    57294    57160    56793    56751    56938    56933 
   56937    56965    56992    57168    57110    56785    56660    56848 
   56976    56841    56752    56893    57091    56979    56806    57021 
   57063    56909    57078    57026    56635    56720    57199    57281 
   57042    56928    56868    56899    56936    56663    56616    57055 
   57161    56909    56932    57096    56880    56517    56704    57057 
   57088    57099    56951    56749    56975    57142    56893    56759 
   56840    56903    57011    56898    56648    56706    56864    57106 
   57296    57040    56733    56701    56961    57254    56995    56741 
   57018    57037    56951    57129    56898    56658    56870    56961 
   57033    57029    56686    56640    57071    57181    56847    56882 
   57114    56818    56679    57204    57415    57061    56798    56673 
   56913    57244    56905    56644    56857    57011    57099    56878 
   56573    56775    57154    57223    56949    56717    56627    56547 
   56794    57165    57180    57017    56862    56805    56947    57132 
   57094    56830    56737    56980    57203    57094    56756    56651 
   57011    57273    56943    56500    56565    57018    57308    57114 
   56709    56519    56733    57190    57114    56567    56775    57370 
   57196    56705    56690    57146    57314    56883    56664    56778 
   56970    57244    57103    56779    56925    56903    56512    56717 
   57196    57091    56876    56840    56851    57098    57111    56849 
   57060    57159    56717    56644    56938    57090    57122    56968 
   56766    56766    56853    56948    57072    57034    56805    56890 
   57132    56925    56706    56762    56916    57098    56965    56845 
   56921    56782    56941    57181    56905    56887    57028    56824 
   56934    57183    56947    56758    56978    57022    56890    57033 
   56980    56686    56774    57002    57032    56982    57048    57092 
   56843    56785    56835    56691    57030    57376    57024    56808 
   56934    56860    56787    56839    56741    56863    57308    57269 
   56817    56578    56590    56880    57258    57134    56633    56701 
   57078    56997    57055    57087    56643    56714    57210    57186 
   56795    56525    56655    56987    57117    57010    56853    56826 
   56808    56879    57191    57204    56835    56704    56790    56871 
   57183    57373    56949    56550    56662    56951    57161    57087 
   56906    56967    56940    56759    56776    57009    57125    56821 
   56744    57145    57029    56752    57041    57083    56864    56934 
   56925    56855    56986    57032    56872    56820    56952    57002 
   57073    57123    56909    56870    57003    56907    56789    56583 
   56523    57083    57441    57142    56928    56822    56636    56709 
   56863    56934    57033    56938    56832    56944    57009    57165 
   57226    56666    56423    56961    57141    57033    57075    56987 
   56948    56903    56938    56937    56593    56790    57200    56928 
   56856    56894    56610    56955    57453    57109    56689    56758 
   56917    56941    56907    57002    57053    56853    56852    57018 
   56860    56826    57099    57073    56735    56677    57152    57299 
   56744    56623    57106    57122    56751    56864    57221    57126 
   56740    56587    56822    57071    56965    56744    56728    56855 
   57086    57210    56936    56721    56799    56934    57136    57052 
   56863    57064    57034    56717    56817    57067    56938    56855 
   57082    56926    56629    56901    57172    57102    56963    56733 
   56632    56891    57240    57314    57006    56641    56666    56984 
   57192    57073    56799    56767    56878    56897    56875    56820 
   56860    56799    56779    57152    57094    56909    57253    56988 
   56554    56894    57129    57042    56920    56727    56745    57051 
   57190    56874    56631    56758    56909    57148    57187    56805 
   56700    56778    56776    56944    56992    57011    57137    57145 
   57099    56847    56704    56964    56937    56808    56998    57026 
   57001    57021    56930    57045    57051    56714    56695    56984 
   56933    56682    56872    57299    57349    57022    56574    56471 
   56903    57238    57211    57118    56894    56578    56517    56898 
   57261    56853    56600    57217    57267    56767    56798    56884 
   56770    56828    56932    56968    57014    56932    56758    56793 
   56998    57036    56739    56550    56841    57015    56955    57221 
   57280    56790    56544    56725    57132    57318    56825    56552 
   56899    57152    57118    56774    56648    57076    57252    57046 
   56867    56795    56886    56879    56825    57067    57230    57069 
   56943    56835    56714    56922    57269    57267    57061    56813 
   56650    56918    57245    57071    56617    56546    57129    57380 
   56879    56762    57018    56930    56797    56706    56821    57298 
   57304    56820    56695    56860    56879    56748    56697    56894 
   57260    57357    56995    56554    56376    56656    57056    57067 
   56953    56924    56978    57127    56972    56702    56925    57088 
   56686    56455    56700    57068    57492    57451    56687    56340 
   56937    57370    57037    56666    56768    57055    57214    57001 
   56548    56605    57026    57122    57092    56907    56639    56859 
   57029    56922    57033    56978    56776    56774    56812    56901 
   57036    57152    57088    56860    56762    56821    57032    57144 
   56944    56793    56913    57179    57142    56747    56749    57079 
   57184    57233    56994    56596    56905    57366    57049    56493 
   56494    57014    57365    57129    56693    56494    56744    57280 
   57442    57046    56587    56555    56813    56852    57033    57295 
   56774    56508    57291    57377    56725    56917    57145    56535 
   56270    56882    57383    57172    56934    56999    56686    56446 
   56974    57202    56860    56893    57079    57142    57210    57051 
   57015    57171    56870    56606    57006    57354    57198    56768 
   56466    56681    56880    56824    57064    57102    56547    56328 
   56852    57345    57235    56891    56766    56736    56745    56938 
   57244    57377    57136    56802    56666    56725    56925    57003 
   56879    56763    56767    56883    57136    57408    57134    56470 
   56563    57283    57450    57024    56690    56822    57235    57256 
   56748    56475    56670    56675    56701    57154    57126    56700 
   56987    57331    56874    56382    56585    57103    57176    56786 
   56601    56681    56662    56884    57373    57267    56763    56640 
   56606    56625    57094    57414    56986    56797    57393    57511 
   57011    56745    56640    56675    56805    57100    57543    57415 
   56925    56694    56523    56462    56670    56775    56675    56901 
   57322    57086    56407    56385    57268    58027    58122    58004 
   57574    57375    57847    57559    56577    56112    56112    56511 
   56745    56454    56384    56384    56227    56586    56789    55926 
   55345    55999    56772    56978    57354    58294    58430    57419 
   57273    58056    58191    58078    57901    56922    56269    56724 
   56643    55668    55518    56114    56193    55966    56008    56521 
   57323    57412    56647    56177    56199    56296    56926    58037 
   58371    57555    56987    57375    57418    56871    56937    57461 
   57902    57804    57137    56975    56762    56424    57364    57789 
   56349    55524    56297    56818    56465    56195    56053    56236 
   57254    57838    57271    56654    56821    57541    57584    57121 
   57599    58245    57951    57246    56928    57474    57955    57607 
   56926    56211    56068    56278    56173    56293    56752    57127 
   56805    55836    55269    55436    56643    57677    56957    56960 
   58357    58008    56832    57330    57739    56577    55964    56706 
   56601    55948    56628    57202    56786    56774    56978    56640 
   56614    57954    59071    57870    56421    57040    57460    56281 
   55863    56558    56704    56589    56666    56793    57194    57223 
   56721    56868    57250    56729    56258    56691    57169    57307 
   57288    56902    56741    57117    56975    56841    57233    56490 
   55734    56779    57264    56685    56920    56862    56047    56201 
   57443    58341    57468    56176    57119    58302    57708    57172 
   56818    56748    57770    57815    56579    56332    56932    57186 
   56909    56582    56716    56694    56266    56481    56960    56470 
   56435    57534    57403    56663    57284    57735    57115    56535 
   56818    57591    57215    56160    56550    57306    56922    56940 
   57545    57237    56795    56998    56698    56421    57149    57296 
   56694    56871    57338    57064    56166    55734    56170    56671 
   57215    57665    57240    56461    56886    57910    57207    56033 
   56520    57287    57751    57778    56668    56235    57163    57584 
   56949    56261    56598    57392    57245    56583    56482    56608 
   56312    56330    57087    57291    56913    56944    56601    56281 
   57191    57713    57288    57002    56403    56239    57315    57651 
   56543    56019    56936    57780    57462    56727    56508    56894 
   57464    57699    57546    57127    56579    56685    56972    56432 
   56559    57522    57086    55960    56258    57096    57069    57068 
   57418    57002    56475    56924    57468    57443    57161    56986 
   57080    57163    57276    57207    56598    56459    56752    56467 
   56457    56901    57098    57240    57138    57098    57046    56523 
   56682    57260    57098    56880    56814    56786    57138    57207 
   56872    56637    56223    56419    57346    57269    56698    56741 
   56434    56087    56990    57767    57040    56670    57156    56810 
   56635    57253    56933    56532    57134    57175    56982    57298 
   56775    56188    56731    57303    57465    57005    56525    57192 
   56974    55626    56204    57369    56835    56465    57292    57873 
   57402    56889    57111    57354    57283    57248    57402    57159 
   56397    56500    56887    56550    57149    57947    57045    55987 
   56096    56771    57036    56801    56926    56833    56552    57294 
   57699    56991    56664    56836    56929    57011    57280    57385 
   57024    56905    56887    56802    57311    57343    56425    56209 
   56859    57257    57122    56636    56457    56910    56918    56277 
   56307    57159    57400    56764    56768    57408    57761    57889 
   57276    56574    56957    56891    56081    56479    57289    56943 
   56586    56879    56878    56554    56664    56855    56411    56525 
   57383    57188    56871    57273    57052    56826    56898    56710 
   57115    57484    57169    57044    56906    56918    57165    56782 
   56461    56889    57246    57040    56663    56833    57357    57154 
   56589    56801    57030    56794    57113    57422    57122    57194 
   57219    56501    56187    56868    57515    57349    56837    56771 
   57146    57304    57006    56598    56192    56118    56852    57532 
   57362    56974    56532    56280    57032    57514    56754    56343 
   56532    56559    56816    57210    57524    57711    57173    56529 
   56852    57107    56674    56822    57114    56452    56212    56906 
   57346    57500    57195    56547    56648    57014    56937    56972 
   57130    56875    56547    56817    57095    56964    56949    57055 
   57214    56998    56434    56754    57300    57132    57154    56986 
   56563    57192    57673    56928    56608    56845    56563    56246 
   56465    57107    57314    56741    56690    57252    57277    56889 
   56898    57194    57071    56824    56886    57110    57427    57499 
   57249    56870    56474    56362    56581    56824    56748    56702 
   56922    56732    56593    57053    57052    56671    56855    57275 
   57242    56691    56648    57520    57823    57106    56482    56443 
   56889    57003    56380    56446    57115    56860    56502    57038 
   57550    57094    56172    56382    57423    57342    56782    57349 
   57739    57107    56930    56960    56636    56752    56817    56868 
   57233    56998    56733    56789    56700    57034    57017    56374 
   56762    57674    57418    56597    56689    57099    56936    57090 
   57250    56710    56633    57069    57213    57134    56821    56716 
   56918    56782    56760    56920    56629    56735    57311    57279 
   56910    56617    56619    56982    57034    56841    56814    56956 
   57144    57114    56957    56925    56925    56793    56878    57018 
   56556    56266    56721    57061    56956    56830    57106    57462 
   57227    57013    57179    56909    56631    56988    57331    57169 
   56803    56787    56681    56386    56809    57126    56867    56924 
   56729    56571    57206    57265    56727    56986    57500    57244 
   56751    56922    57295    57069    56647    56663    57323    57796 
   57018    56288    56755    56990    56662    56995    57489    56926 
   56142    56521    57261    57168    56767    56790    57056    57072 
   56949    57018    56893    56605    56745    56883    56500    56261 
   56797    57342    56883    56428    57134    57581    57037    56841 
   56848    56713    57163    57418    56907    56718    57075    57140 
   56894    57006    57111    56623    56350    56655    56791    56832 
   57102    57264    57195    56952    56747    56986    57304    57052 
   56650    56791    57248    57383    57168    57037    56924    56651 
   56604    56808    56677    56504    57142    57554    56709    56296 
   56830    56867    56721    57017    57281    57145    56809    56870 
   57079    56930    56859    56886    56610    56671    57165    57271 
