Origin Time       2025/03/30 21:30:00
Lat.              38.535
Long.             142.295
Depth. (km)       44
Mag.              4.3
Station Code      IWTH26
Station Lat.      38.9690
Station Long.     141.0013
Station Height(m) 125
Record Time       2025/03/30 21:31:30
Sampling Freq(Hz) 100Hz
Duration Time(s)  120
Dir.              5
Scale Factor      7845(gal)/8223790
Max. Acc. (gal)   3.221
Last Correction   2025/03/30 21:31:30
Memo.             
[...]
  -18555   -18366   -17998   -17577   -17354   -17510   -17925   -18304 
  -18482   -18488   -18404   -18264   -18056   -17807   -17686   -17818 
  -18050   -18187   -18218   -18129   -17929   -17818   -17960   -18208 
  -18322   -18274   -18198   -18117   -17976   -17813   -17752   -17852 
  -18072   -18310   -18403   -18243   -17930   -17714   -17737   -17887 
  -18000   -18121   -18366   -18608   -18578   -18246   -17875   -17678 
  -17620   -17624   -17724   -17915   -18149   -18382   -18544   -18558 
  -18399   -18137   -17914   -17832   -17882   -17971   -17992   -17986 
  -18025   -18060   -18029   -17994   -18056   -18188   -18249   -18211 
  -18161   -18100   -17988   -17890   -17894   -17934   -17896   -17851 
  -17938   -18145   -18357   -18474   -18414   -18204   -17980   -17848 
  -17844   -17937   -17991   -17961   -18010   -18169   -18225   -18115 
  -17972   -17905   -17996   -18227   -18382   -18281   -18053   -17940 
  -17975   -18037   -18030   -17992   -18049   -18162   -18142   -17971 
  -17853   -17894   -18014   -18157   -18250   -18204   -18084   -18011 
  -17953   -17807   -17667   -17767   -18114   -18484   -18647   -18511 
  -18226   -17990   -17806   -17697   -17756   -17950   -18091   -18077 
  -18038   -18088   -18126   -18037   -17913   -17948   -18160   -18347 
  -18395   -18345   -18204   -17957   -17740   -17722   -17817   -17842 
  -17891   -18103   -18337   -18385   -18266   -18154   -18085   -17969 
  -17892   -17983   -18115   -18129   -18071   -18069   -18119   -18118 
  -18041   -17953   -17915   -17949   -18071   -18265   -18407   -18385 
  -18242   -18052   -17863   -17697   -17594   -17685   -18011   -18378 
  -18577   -18526   -18279   -18004   -17820   -17730   -17759   -17901 
  -18077   -18196   -18226   -18239   -18270   -18180   -17959   -17833 
  -17848   -17830   -17834   -18026   -18293   -18393   -18311   -18206 
  -18117   -17963   -17755   -17676   -17911   -18357   -18671   -18648 
  -18347   -17946   -17617   -17509   -17639   -17863   -18069   -18227 
  -18273   -18211   -18141   -18118   -18098   -18031   -17986   -18048 
  -18153   -18144   -17996   -17867   -17903   -18053   -18193   -18277 
  -18235   -18042   -17848   -17793   -17848   -17946   -18075   -18189 
  -18223   -18212   -18266   -18362   -18304   -17999   -17656   -17550 
  -17699   -17957   -18233   -18457   -18523   -18373   -18085   -17784 
  -17582   -17602   -17899   -18283   -18474   -18399   -18173   -17977 
  -17925   -17979   -18069   -18152   -18171   -18131   -18075   -18030 
  -18013   -18033   -18090   -18119   -18102   -18161   -18300   -18283 
  -18017   -17739   -17695   -17842   -18021   -18157   -18231   -18249 
  -18188   -18022   -17855   -17811   -17887   -18072   -18314   -18395 
  -18212   -17964   -17861   -17863   -17868   -17926   -18122   -18389 
  -18504   -18324   -17976   -17733   -17739   -17926   -18133   -18226 
  -18195   -18145   -18148   -18153   -18053   -17838   -17701   -17829 
  -18115   -18316   -18339   -18235   -18088   -17986   -17988   -18090 
  -18206   -18234   -18185   -18139   -18049   -17845   -17633   -17582 
  -17732   -18022   -18401   -18713   -18679   -18287   -17892   -17751 
  -17760   -17791   -17907   -18111   -18274   -18357   -18341   -18166 
  -17895   -17691   -17714   -17956   -18181   -18222   -18160   -18103 
  -18052   -18007   -18006   -18000   -17942   -17969   -18180   -18408 
  -18449   -18274   -18014   -17783   -17587   -17516   -17730   -18157 
  -18542   -18713   -18646   -18343   -17818   -17300   -17165   -17486 
  -18006   -18469   -18733   -18786   -18667   -18365   -17937   -17531 
  -17273   -17274   -17613   -18200   -18725   -18887   -18685   -18343 
  -18041   -17786   -17545   -17455   -17686   -18176   -18655   -18847 
  -18662   -18220   -17741   -17494   -17574   -17764   -17876   -17984 
  -18166   -18300   -18216   -18009   -17922   -17957   -17961   -17938 
  -17980   -18108   -18287   -18469   -18544   -18388   -18102   -17952 
  -17910   -17782   -17645   -17717   -17994   -18246   -18274   -18153 
  -18119   -18207   -18191   -17988   -17802   -17786   -17883   -18018 
  -18154   -18249   -18264   -18249   -18273   -18254   -18129   -18011 
  -17995   -18036   -18031   -17906   -17744   -17732   -17895   -18106 
  -18280   -18416   -18468   -18361   -18108   -17833   -17678   -17718 
  -17937   -18203   -18338   -18270   -18122   -18023   -17953   -17841 
  -17734   -17766   -18003   -18310   -18443   -18380   -18295   -18225 
  -18049   -17805   -17687   -17752   -17937   -18191   -18396   -18424 
  -18257   -17986   -17821   -17863   -17961   -18033   -18138   -18214 
  -18135   -17983   -17953   -18010   -17965   -17921   -18072   -18265 
  -18260   -18085   -17902   -17797   -17794   -17871   -18010   -18188 
  -18300   -18306   -18292   -18219   -17996   -17755   -17699   -17896 
  -18258   -18576   -18643   -18400   -18009   -17724   -17626   -17668 
  -17859   -18180   -18488   -18635   -18558   -18269   -17878   -17587 
  -17566   -17752   -17896   -17925   -18007   -18164   -18198   -18079 
  -18013   -18141   -18370   -18470   -18327   -18064   -17853   -17756 
  -17771   -17903   -18117   -18306   -18395   -18339   -18131   -17869 
  -17712   -17743   -17972   -18238   -18311   -18200   -18080   -18004 
  -17921   -17807   -17756   -17886   -18169   -18463   -18607   -18512 
  -18231   -17874   -17552   -17436   -17617   -17979   -18333   -18527 
  -18519   -18357   -18065   -17720   -17493   -17520   -17830   -18297 
  -18678   -18779   -18566   -18173   -17797   -17604   -17658   -17856 
  -18081   -18291   -18378   -18285   -18090   -17913   -17853   -17876 
  -17880   -17859   -17891   -18033   -18212   -18242   -18084   -17944 
  -17999   -18161   -18189   -18038   -17932   -18003   -18172   -18326 
  -18343   -18179   -18017   -18040   -18127   -18048   -17801   -17622 
  -17732   -18098   -18439   -18562   -18542   -18426   -18152   -17801 
  -17545   -17462   -17570   -17899   -18360   -18658   -18603   -18314 
  -17990   -17730   -17570   -17579   -17887   -18374   -18632   -18462 
  -18090   -17861   -17855   -17878   -17884   -17987   -18171   -18333 
  -18385   -18284   -18091   -17919   -17855   -17913   -17987   -17963 
  -17925   -18025   -18203   -18284   -18274   -18260   -18210   -18092 
  -17941   -17847   -17875   -17973   -18053   -18072   -18019   -17923 
  -17817   -17775   -17865   -18033   -18218   -18426   -18573   -18520 
  -18277   -18049   -17971   -17977   -17965   -17932   -17899   -17880 
  -17913   -18025   -18133   -18148   -18112   -18096   -18080   -18031 
  -17987   -18026   -18131   -18183   -18181   -18183   -18099   -17940 
  -17894   -18045   -18283   -18424   -18366   -18127   -17805   -17595 
  -17667   -17933   -18168   -18219   -18129   -18095   -18148   -18098 
  -17925   -17828   -17910   -18100   -18266   -18296   -18148   -17928 
  -17811   -17857   -17976   -18022   -17955   -17972   -18250   -18584 
  -18635   -18362   -18021   -17805   -17656   -17575   -17716   -18026 
  -18261   -18351   -18381   -18330   -18138   -17928   -17880   -18011 
  -18195   -18291   -18284   -18272   -18219   -18041   -17818   -17712 
  -17747   -17826   -17913   -17986   -17996   -18009   -18117   -18233 
  -18207   -18063   -17961   -18002   -18165   -18350   -18409   -18285 
  -18072   -17828   -17591   -17518   -17732   -18114   -18436   -18570 
  -18513   -18312   -18075   -17905   -17784   -17687   -17689   -17821 
  -17988   -18111   -18196   -18287   -18353   -18318   -18210   -18096 
  -17957   -17802   -17743   -17864   -18057   -18134   -18112   -18135 
  -18220   -18260   -18179   -18058   -17957   -17859   -17888   -18088 
  -18242   -18231   -18176   -18202   -18252   -18202   -18083   -17988 
  -17922   -17836   -17736   -17734   -17906   -18131   -18247   -18222 
  -18196   -18253   -18256   -18121   -17946   -17826   -17841   -18014 
  -18222   -18333   -18289   -18108   -17898   -17795   -17833   -17945 
  -18085   -18252   -18354   -18306   -18168   -18004   -17852   -17828 
  -17961   -18103   -18168   -18212   -18296   -18381   -18304   -17994 
  -17656   -17570   -17779   -18100   -18343   -18450   -18415   -18235 
  -17982   -17755   -17612   -17604   -17787   -18084   -18323   -18434 
  -18441   -18353   -18146   -17856   -17670   -17741   -17973   -18145 
  -18166   -18141   -18150   -18122   -18025   -17963   -18056   -18285 
  -18420   -18314   -18091   -17871   -17660   -17544   -17659   -17980 
  -18322   -18544   -18562   -18292   -17841   -17493   -17423   -17659 
  -18069   -18403   -18566   -18596   -18447   -18126   -17833   -17752 
  -17811   -17888   -18041   -18315   -18565   -18608   -18400   -18060 
  -17751   -17581   -17593   -17790   -18108   -18376   -18405   -18222 
  -18033   -17972   -17996   -18009   -17999   -18053   -18210   -18372 
  -18382   -18172   -17824   -17579   -17635   -17878   -18053   -18126 
  -18215   -18304   -18276   -18130   -17983   -17901   -17942   -18122 
  -18262   -18203   -18048   -17963   -17929   -17859   -17828   -17959 
  -18171   -18283   -18258   -18162   -18036   -17872   -17741   -17783 
  -18010   -18245   -18376   -18463   -18459   -18227   -17891   -17710 
  -17717   -17784   -17887   -18067   -18254   -18335   -18281   -18161 
  -18126   -18173   -18126   -17976   -17869   -17855   -17915   -18010 
  -18041   -17952   -17868   -18036   -18423   -18608   -18353   -17945 
  -17748   -17815   -18010   -18154   -18220   -18311   -18397   -18322 
  -18045   -17671   -17392   -17424   -17798   -18220   -18391   -18354 
  -18320   -18310   -18234   -18095   -17964   -17919   -18018   -18212 
  -18297   -18131   -17847   -17682   -17757   -17986   -18171   -18180 
  -18034   -17911   -17959   -18114   -18212   -18200   -18196   -18272 
  -18269   -18125   -17992   -17903   -17783   -17733   -17871   -18088 
  -18207   -18252   -18324   -18320   -18102   -17856   -17872   -18087 
  -18211   -18165   -18077   -18018   -17950   -17901   -17942   -18015 
  -18019   -18019   -18122   -18261   -18269   -18133   -17963   -17783 
  -17635   -17674   -17973   -18378   -18647   -18704   -18570   -18260 
  -17871   -17562   -17442   -17562   -17852   -18176   -18427   -18536 
  -18484   -18310   -18045   -17747   -17575   -17664   -17948   -18231 
  -18412   -18551   -18666   -18532   -18033   -17494   -17277   -17415 
  -17736   -18085   -18368   -18488   -18427   -18311   -18172   -17942 
  -17720   -17699   -17845   -17955   -17998   -18087   -18202   -18220 
  -18135   -18023   -17925   -17837   -17776   -17814   -18022   -18362 
  -18688   -18883   -18827   -18404   -17768   -17305   -17224   -17436 
  -17774   -18141   -18480   -18712   -18770   -18631   -18270   -17766 
  -17390   -17354   -17637   -18111   -18588   -18827   -18612   -18046 
  -17544   -17266   -17181   -17431   -17972   -18500   -18837   -18894 
  -18592   -18003   -17366   -17034   -17212   -17759   -18358   -18805 
  -19064   -19043   -18547   -17718   -17026   -16764   -16956   -17532 
  -18293   -18931   -19206   -19049   -18512   -17809   -17302   -17271 
  -17768   -18585   -19299   -19561   -19344   -18797   -18021   -17145 
  -16503   -16430   -16943   -17797   -18636   -19151   -19242   -18976 
  -18476   -17925   -17450   -17050   -16823   -17011   -17653   -18408 
  -18902   -19009   -18783   -18347   -17878   -17618   -17697   -17933 
  -18073   -18094   -18084   -18017   -17805   -17502   -17355   -17621 
  -18238   -18781   -18966   -18906   -18789   -18619   -18269   -17766 
  -17439   -17490   -17694   -17829   -17890   -17880   -17875   -17987 
  -18168   -18256   -18154   -17957   -17887   -18002   -18112   -18044 
  -17809   -17586   -17556   -17724   -17979   -18284   -18603   -18751 
  -18609   -18341   -18173   -18134   -18095   -17990   -17902   -17879 
  -17888   -17949   -18076   -18145   -18050   -17894   -17890   -18095 
  -18343   -18534   -18723   -18808   -18520   -17898   -17284   -16941 
  -16985   -17463   -18233   -18910   -19156   -18987   -18617   -18107 
  -17460   -16974   -17046   -17670   -18462   -18994   -18963   -18377 
  -17563   -16992   -17020   -17602   -18458   -19350   -19913   -19807 
  -19155   -18365   -17618   -16949   -16557   -16623   -17080   -17741 
  -18382   -18762   -18715   -18274   -17783   -17591   -17695   -17976 
  -18416   -18851   -18895   -18333   -17429   -16684   -16425   -16769 
  -17652   -18739   -19530   -19688   -19241   -18470   -17628   -16804 
  -16233   -16389   -17352   -18553   -19392   -19597   -19149   -18354 
  -17695   -17437   -17494   -17660   -17952   -18532   -19202   -19480 
  -19168   -18416   -17525   -16838   -16627   -17043   -17936   -18740 
  -18871   -18243   -17336   -16808   -17073   -18002   -18963   -19465 
  -19561   -19356   -18802   -18052   -17442   -17177   -17236   -17443 
  -17566   -17524   -17575   -17946   -18322   -18198   -17491   -16684 
  -16610   -17664   -19236   -20322   -20340   -19427   -18285   -17544 
  -17280   -17300   -17662   -18450   -19309   -19759   -19575   -18661 
  -17188   -15691   -14825   -15037   -16191   -17691   -19012   -19948 
  -20553   -20825   -20549   -19635   -18283   -16962   -16303   -16560 
  -17377   -18165   -18504   -18283   -17612   -16745   -16100   -16094 
  -16902   -18318   -19769   -20594   -20483   -19642   -18509   -17409 
  -16551   -16212   -16641   -17764   -19080   -19862   -19606   -18372 
  -16753   -15581   -15458   -16502   -18346   -20206   -21236   -21010 
  -19637   -17637   -15750   -14688   -14921   -16443   -18604   -20348 
  -20910   -20223   -18708   -16976   -15654   -15275   -16069   -17707 
  -19498   -20817   -21328   -20991   -19931   -18400   -16829   -15658 
  -15187   -15572   -16698   -18123   -19276   -19769   -19581   -18968 
  -18280   -17806   -17656   -17829   -18233   -18592   -18702   -18646 
  -18482   -18162   -17761   -17455   -17431   -17763   -18121   -18072 
  -17678   -17319   -17297   -17729   -18373   -18800   -18885   -18777 
  -18507   -17965   -17180   -16465   -16197   -16564   -17558   -18844 
  -19857   -20198   -19834   -19005   -17995   -17031   -16479   -16672 
  -17471   -18450   -19265   -19635   -19390   -18632   -17597   -16595 
  -16001   -16051   -16756   -17844   -18806   -19202   -19053   -18783 
  -18670   -18635   -18536   -18270   -17806   -17288   -16893   -16609 
  -16371   -16451   -17261   -18685   -20015   -20594   -20224   -19140 
  -17832   -16812   -16329   -16374   -17005   -18200   -19502   -20317 
  -20299   -19390   -17925   -16540   -15789   -15970   -17038   -18515 
  -19766   -20409   -20355   -19604   -18307   -16954   -16190   -16360 
  -17261   -18315   -19074   -19342   -18979   -18045   -17031   -16448 
  -16418   -16866   -17641   -18474   -19168   -19538   -19276   -18326 
  -17127   -16239   -16046   -16679   -17890   -19156   -20050   -20345 
  -19934   -18824   -17277   -15954   -15608   -16445   -18050   -19781 
  -21039   -21336   -20449   -18740   -16981   -15758   -15259   -15410 
  -16185   -17635   -19449   -20879   -21247   -20349   -18547   -16602 
  -15340   -15232   -16151   -17591   -19008   -19950   -20140   -19510 
  -18235   -16785   -15817   -15855   -16865   -18214   -19203   -19467 
  -18932   -17822   -16691   -16073   -16148   -16914   -18265   -19742 
  -20656   -20611   -19720   -18426   -17167   -16349   -16397   -17382 
  -18773   -19812   -20056   -19537   -18535   -17451   -16740   -16710 
  -17398   -18547   -19588   -19953   -19503   -18559   -17617   -17043 
  -17018   -17518   -18258   -18901   -19261   -19106   -18193   -16669 
  -15230   -14716   -15410   -16887   -18478   -19541   -19643   -18914 
  -17914   -17172   -16941   -17211   -17882   -18852   -19785   -20137 
  -19739   -18932   -18114   -17525   -17385   -17722   -18188   -18324 
  -18038   -17666   -17591   -17888   -18284   -18350   -17968   -17463 
  -17209   -17419   -18073   -18825   -19209   -18993   -18380   -17780 
  -17397   -17204   -17092   -16992   -16976   -17084   -17383   -18031 
  -18824   -19242   -19048   -18500   -18046   -17880   -17936   -18160 
  -18387   -18438   -18360   -18234   -18079   -17928   -17896   -18173 
  -18666   -18995   -18999   -18779   -18369   -17747   -17153   -17031 
  -17516   -18295   -18894   -18908   -18343   -17703   -17447   -17613 
  -17913   -17986   -17722   -17451   -17574   -18009   -18393   -18623 
  -18773   -18796   -18598   -18211   -17767   -17366   -17055   -16950 
  -17154   -17586   -18127   -18754   -19376   -19680   -19337   -18422 
  -17371   -16584   -16335   -16729   -17513   -18212   -18613   -18908 
  -19218   -19184   -18408   -17217   -16530   -16821   -17616   -18131 
  -18177   -18165   -18423   -18870   -19229   -19232   -18848   -18404 
  -18219   -18242   -18254   -18164   -17976   -17743   -17504   -17188 
  -16850   -16861   -17466   -18414   -19238   -19591   -19307   -18527 
  -17639   -16992   -16750   -16916   -17355   -17892   -18399   -18777 
  -18852   -18457   -17713   -17027   -16811   -17257   -18145   -18852 
  -18962   -18755   -18755   -18943   -18824   -18171   -17307   -16667 
  -16507   -16977   -18041   -19329   -20274   -20478   -19926   -18859 
  -17590   -16430   -15708   -15665   -16324   -17525   -18895   -19832 
  -19917   -19226   -18179   -17246   -16704   -16664   -17145   -18023 
  -19003   -19575   -19283   -18341   -17397   -16792   -16553   -16768 
  -17568   -18763   -19791   -20216   -19969   -19124   -17946   -17065 
  -16953   -17397   -17917   -18319   -18659   -18940   -19009   -18702 
  -18067   -17358   -16893   -16856   -17232   -17892   -18632   -19284 
  -19715   -19639   -18878   -17797   -16999   -16729   -16872   -17170 
  -17354   -17309   -17147   -17100   -17338   -17793   -18242   -18493 
  -18543   -18588   -18679   -18600   -18284   -17968   -17871   -17955 
  -17998   -17878   -17705   -17698   -17998   -18499   -18867   -18831 
  -18469   -18118   -17945   -17875   -17828   -17822   -17929   -18145 
  -18324   -18322   -18031   -17510   -17147   -17277   -17836   -18603 
  -19284   -19535   -19240   -18613   -17957   -17442   -17186   -17390 
  -18004   -18528   -18551   -18168   -17649   -17092   -16565   -16245 
  -16348   -17005   -18102   -19252   -20027   -20137   -19597   -18717 
  -17874   -17386   -17471   -18115   -19025   -19789   -20089   -19799 
  -18979   -17925   -17037   -16491   -16249   -16321   -16808   -17655 
  -18482   -18904   -18920   -18671   -18192   -17659   -17462   -17756 
  -18277   -18732   -18993   -18902   -18387   -17633   -16860   -16266 
  -16106   -16460   -17128   -17828   -18370   -18692   -18751   -18528 
  -18107   -17694   -17505   -17594   -17865   -18211   -18496   -18586 
  -18513   -18360   -18138   -17926   -17859   -18017   -18408   -18922 
  -19333   -19408   -19037   -18318   -17560   -17217   -17498   -18061 
  -18418   -18457   -18378   -18323   -18185   -17901   -17659   -17656 
  -17894   -18229   -18488   -18592   -18500   -18239   -17987   -17880 
  -17875   -17905   -17983   -18073   -18030   -17782   -17478   -17296 
  -17267   -17388   -17693   -18096   -18326   -18223   -17944   -17749 
  -17693   -17643   -17631   -17826   -18202   -18565   -18751   -18693 
  -18401   -17961   -17599   -17550   -17768   -18034   -18225   -18322 
  -18347   -18362   -18408   -18436   -18405   -18365   -18393   -18496 
