Origin Time       2025/03/30 21:30:00
Lat.              38.535
Long.             142.295
Depth. (km)       44
Mag.              4.3
Station Code      IWTH27
Station Lat.      39.0307
Station Long.     141.5320
Station Height(m) -20
Record Time       2025/03/30 21:31:21
Sampling Freq(Hz) 100Hz
Duration Time(s)  120
Dir.              2
Scale Factor      2942(gal)/8224139
Max. Acc. (gal)   0.801
Last Correction   2025/03/30 21:31:20
Memo.             
[...]
 -125240  -125242  -125243  -125242  -125239  -125239  -125239  -125240 
 -125243  -125243  -125240  -125242  -125242  -125239  -125238  -125239 
 -125239  -125239  -125239  -125239  -125238  -125236  -125238  -125238 
 -125236  -125236  -125238  -125236  -125236  -125239  -125236  -125235 
 -125240  -125240  -125236  -125238  -125238  -125236  -125239  -125239 
 -125239  -125240  -125239  -125238  -125242  -125243  -125240  -125239 
 -125240  -125240  -125243  -125243  -125240  -125242  -125242  -125242 
 -125243  -125242  -125240  -125240  -125242  -125242  -125242  -125242 
 -125242  -125243  -125242  -125239  -125239  -125240  -125242  -125240 
 -125238  -125239  -125242  -125242  -125239  -125238  -125240  -125242 
 -125243  -125244  -125242  -125240  -125243  -125242  -125240  -125242 
 -125242  -125243  -125242  -125242  -125242  -125239  -125239  -125240 
 -125240  -125240  -125242  -125243  -125243  -125242  -125239  -125239 
 -125240  -125239  -125239  -125239  -125239  -125240  -125239  -125238 
 -125236  -125238  -125240  -125240  -125239  -125239  -125239  -125239 
 -125239  -125238  -125236  -125236  -125240  -125239  -125236  -125238 
 -125236  -125236  -125240  -125239  -125238  -125239  -125236  -125235 
 -125236  -125238  -125239  -125240  -125238  -125235  -125240  -125240 
 -125235  -125238  -125240  -125235  -125236  -125239  -125236  -125238 
 -125239  -125242  -125240  -125236  -125238  -125243  -125242  -125242 
 -125242  -125239  -125240  -125243  -125244  -125243  -125243  -125242 
 -125240  -125242  -125242  -125240  -125243  -125244  -125243  -125242 
 -125242  -125242  -125240  -125243  -125244  -125243  -125243  -125243 
 -125242  -125243  -125244  -125243  -125243  -125244  -125244  -125243 
 -125243  -125243  -125244  -125244  -125242  -125240  -125240  -125240 
 -125243  -125243  -125242  -125240  -125240  -125242  -125242  -125240 
 -125240  -125240  -125239  -125240  -125239  -125238  -125240  -125242 
 -125240  -125239  -125239  -125239  -125240  -125240  -125240  -125239 
 -125236  -125236  -125239  -125239  -125238  -125239  -125238  -125236 
 -125239  -125239  -125239  -125240  -125239  -125236  -125239  -125240 
 -125239  -125238  -125238  -125239  -125242  -125240  -125236  -125238 
 -125239  -125239  -125239  -125238  -125236  -125238  -125238  -125235 
 -125236  -125238  -125236  -125238  -125239  -125238  -125238  -125239 
 -125238  -125238  -125239  -125239  -125239  -125240  -125240  -125239 
 -125239  -125240  -125242  -125239  -125238  -125240  -125242  -125240 
 -125240  -125240  -125239  -125239  -125239  -125238  -125239  -125242 
 -125242  -125242  -125242  -125239  -125240  -125242  -125239  -125239 
 -125242  -125242  -125240  -125243  -125243  -125242  -125242  -125242 
 -125243  -125242  -125242  -125244  -125244  -125240  -125240  -125244 
 -125243  -125243  -125244  -125243  -125243  -125243  -125242  -125240 
 -125240  -125242  -125242  -125239  -125240  -125243  -125242  -125239 
 -125240  -125239  -125236  -125238  -125239  -125239  -125242  -125243 
 -125240  -125239  -125239  -125239  -125238  -125238  -125239  -125239 
 -125240  -125240  -125240  -125240  -125240  -125240  -125238  -125238 
 -125240  -125240  -125240  -125240  -125238  -125238  -125239  -125242 
 -125240  -125235  -125238  -125242  -125238  -125236  -125240  -125240 
 -125236  -125238  -125239  -125240  -125239  -125240  -125240  -125236 
 -125236  -125239  -125239  -125238  -125234  -125231  -125230  -125228 
 -125231  -125235  -125240  -125243  -125240  -125234  -125242  -125261 
 -125270  -125269  -125247  -125220  -125255  -125313  -125251  -125149 
 -125221  -125394  -125392  -125216  -125068  -125032  -125108  -125193 
 -125219  -125301  -125362  -125247  -125162  -125213  -125265  -125275 
 -125136  -125035  -125342  -125660  -125490  -125158  -125169  -125487 
 -125602  -125196  -124603  -124590  -125532  -126293  -125595  -124391 
 -124343  -125323  -125879  -125385  -124849  -125020  -125417  -125490 
 -125332  -125293  -125320  -125253  -125178  -125261  -125536  -125628 
 -125367  -125042  -124850  -124858  -124923  -125212  -125730  -125658 
 -124989  -124702  -125153  -125668  -125319  -124609  -124914  -125856 
 -125830  -124929  -124810  -125474  -125462  -124966  -124973  -125280 
 -125332  -125150  -125131  -125297  -125386  -125267  -125161  -125485 
 -125540  -124969  -124852  -125215  -125560  -125640  -125020  -124695 
 -125327  -125559  -125004  -124733  -125240  -125953  -125693  -124706 
 -124630  -125355  -125544  -125248  -125232  -125555  -125440  -124795 
 -124968  -125790  -125749  -125282  -125208  -125105  -124888  -124880 
 -125247  -125760  -125733  -125026  -124519  -124833  -125334  -125524 
 -125544  -125201  -124904  -125180  -125365  -125209  -125217  -125452 
 -125444  -124977  -124926  -125485  -125625  -125324  -125103  -125089 
 -125166  -125086  -125062  -125352  -125725  -125567  -124916  -124799 
 -125165  -125365  -125520  -125464  -125178  -125081  -125261  -125474 
 -125412  -125257  -125149  -125057  -125162  -125118  -124993  -125278 
 -125475  -125385  -125285  -125217  -125339  -125359  -125226  -125321 
 -125271  -124978  -125049  -125367  -125355  -125150  -125172  -125253 
 -125197  -125143  -125097  -125143  -125302  -125338  -125302  -125420 
 -125474  -125132  -124845  -125042  -125301  -125442  -125455  -125235 
 -125077  -125055  -125162  -125412  -125388  -125134  -125085  -125073 
 -125016  -125267  -125568  -125412  -125124  -125132  -125317  -125455 
 -125242  -124904  -125053  -125313  -125251  -125194  -125192  -125176 
 -125285  -125444  -125423  -125199  -125066  -125211  -125531  -125555 
 -125058  -124835  -125189  -125351  -125167  -125097  -125312  -125483 
 -125212  -124939  -125277  -125689  -125451  -125066  -125166  -125319 
 -125293  -125398  -125469  -125296  -125030  -124924  -125219  -125595 
 -125467  -124961  -124669  -124920  -125444  -125601  -125383  -125231 
 -125136  -125145  -125289  -125289  -125178  -125173  -125271  -125278 
 -125177  -125311  -125477  -125331  -125200  -125139  -125182  -125393 
 -125215  -124966  -125250  -125397  -125182  -125047  -125053  -125293 
 -125505  -125307  -125115  -125192  -125212  -125120  -125190  -125544 
 -125624  -125113  -124869  -125112  -125262  -125385  -125427  -125224 
 -125136  -125084  -124983  -125285  -125595  -125298  -125077  -125344 
 -125448  -125234  -125073  -125201  -125482  -125346  -124857  -124849 
 -125369  -125629  -125397  -125101  -125057  -125203  -125219  -125154 
 -125257  -125329  -125363  -125317  -125120  -125247  -125463  -125273 
 -125151  -125323  -125323  -125019  -125032  -125397  -125217  -124856 
 -125153  -125463  -125261  -125112  -125301  -125455  -125378  -125292 
 -125313  -125288  -125166  -125120  -125173  -125246  -125342  -125288 
 -125135  -125200  -125284  -125280  -125271  -125107  -125111  -125340 
 -125317  -125312  -125354  -125116  -125064  -125207  -125220  -125404 
 -125508  -125169  -124980  -125209  -125358  -125247  -125153  -125280 
 -125460  -125371  -125131  -125118  -125274  -125375  -125363  -125236 
 -125140  -125126  -125215  -125393  -125281  -125037  -125136  -125259 
 -125208  -125238  -125224  -125232  -125402  -125282  -125034  -125132 
 -125197  -125161  -125359  -125521  -125312  -124991  -125092  -125431 
 -125361  -125109  -125162  -125289  -125282  -125204  -125217  -125482 
 -125605  -125212  -124779  -124812  -125224  -125531  -125388  -125176 
 -125132  -125061  -125199  -125436  -125334  -125165  -125212  -125236 
 -125122  -125178  -125413  -125427  -125313  -125246  -125207  -125308 
 -125220  -124933  -125100  -125455  -125373  -125236  -125323  -125280 
 -125173  -125240  -125320  -125270  -125076  -125019  -125340  -125572 
 -125383  -125074  -125051  -125308  -125321  -125154  -125213  -125209 
 -125194  -125394  -125361  -125176  -125262  -125317  -125217  -125234 
 -125235  -125158  -125247  -125450  -125410  -125101  -125020  -125228 
 -125296  -125300  -125354  -125240  -125042  -124966  -125086  -125315 
 -125307  -125151  -125224  -125365  -125338  -125169  -125107  -125392 
 -125581  -125324  -125084  -125092  -125207  -125352  -125297  -125116 
 -125092  -125080  -125132  -125389  -125475  -125180  -124883  -125092 
 -125550  -125456  -125084  -125285  -125524  -125220  -125097  -125319 
 -125346  -125199  -125078  -125069  -125262  -125390  -125088  -124883 
 -125247  -125458  -125359  -125400  -125217  -125020  -125296  -125514 
 -125462  -125311  -125099  -125122  -125254  -125177  -125189  -125354 
 -125365  -125309  -125208  -124950  -124908  -125236  -125433  -125348 
 -125228  -125122  -125149  -125308  -125308  -125308  -125429  -125312 
 -124985  -124896  -125248  -125726  -125652  -125147  -124997  -125068 
 -125039  -125232  -125471  -125352  -125078  -125001  -125207  -125513 
 -125558  -125182  -124872  -125020  -125266  -125352  -125504  -125572 
 -125157  -124726  -125028  -125604  -125683  -125317  -124916  -124973 
 -125367  -125505  -125346  -125113  -125049  -125257  -125409  -125336 
 -125240  -125181  -125055  -125078  -125358  -125415  -125167  -125065 
 -125149  -125262  -125296  -125277  -125371  -125285  -124942  -125003 
 -125382  -125432  -125189  -124969  -125173  -125618  -125413  -124949 
 -125023  -125170  -125267  -125482  -125420  -125270  -125331  -125266 
 -125128  -125200  -125292  -125324  -125332  -125174  -125128  -125313 
 -125212  -125077  -125396  -125520  -125113  -124947  -125250  -125401 
 -125359  -125367  -125230  -125058  -125140  -125366  -125517  -125459 
 -125305  -125200  -125069  -125065  -125172  -125096  -125085  -125304 
 -125374  -125181  -124951  -124949  -125155  -125262  -125280  -125350 
 -125236  -124995  -125142  -125514  -125525  -125311  -125112  -124918 
 -125027  -125365  -125482  -125396  -125239  -125151  -125086  -124964 
 -125212  -125645  -125608  -125255  -125064  -125172  -125374  -125551 
 -125599  -125301  -125038  -125219  -125447  -125385  -125209  -125074 
 -125174  -125490  -125378  -124968  -124995  -125227  -125369  -125356 
 -125047  -124964  -125200  -125163  -125085  -125292  -125447  -125452 
 -125320  -125080  -125107  -125367  -125396  -125267  -125238  -125203 
 -125180  -125173  -125053  -125124  -125421  -125431  -125257  -125113 
 -124984  -125186  -125486  -125400  -125224  -125240  -125236  -125132 
 -125059  -124996  -125081  -125408  -125427  -125113  -125116  -125208 
 -125099  -125139  -125338  -125564  -125635  -125340  -125065  -125196 
 -125431  -125302  -125097  -125208  -125352  -125365  -125289  -125130 
 -124984  -125008  -125251  -125359  -125266  -125302  -125263  -125167 
 -125293  -125355  -125298  -125286  -125228  -125146  -125107  -125103 
 -125197  -125302  -125193  -125086  -125344  -125583  -125328  -124976 
 -125049  -125324  -125436  -125371  -125235  -125207  -125312  -125331 
 -125273  -125297  -125302  -125151  -125031  -125147  -125285  -125259 
 -125265  -125277  -125149  -125097  -125243  -125358  -125296  -125194 
 -125217  -125286  -125309  -125377  -125428  -125231  -124984  -125045 
 -125162  -125151  -125336  -125513  -125215  -124883  -125078  -125413 
 -125339  -125140  -125251  -125343  -125134  -125093  -125367  -125416 
 -125209  -125105  -125091  -125100  -125027  -125051  -125490  -125825 
 -125608  -125184  -124985  -125132  -125270  -125178  -125253  -125471 
 -125450  -125300  -125091  -124920  -125019  -125165  -125338  -125548 
 -125385  -125005  -124893  -125158  -125462  -125352  -125113  -125182 
 -125348  -125297  -125070  -125042  -125358  -125567  -125408  -125149 
 -125035  -125208  -125416  -125265  -125215  -125427  -125282  -125111 
 -125420  -125559  -125182  -124968  -125151  -125235  -125219  -125342 
 -125362  -125193  -125062  -125142  -125363  -125284  -125084  -125292 
 -125394  -125140  -125174  -125369  -125223  -125126  -125301  -125275 
 -125091  -125118  -125226  -125265  -125267  -125107  -124958  -125213 
 -125514  -125300  -124848  -124839  -125194  -125334  -125382  -125460 
 -125312  -125226  -125396  -125423  -125205  -125115  -125201  -125284 
 -125362  -125289  -125190  -125329  -125463  -125398  -125151  -124980 
 -125043  -125054  -125215  -125533  -125412  -125219  -125358  -125350 
 -125309  -125404  -125201  -125116  -125427  -125390  -125130  -125220 
 -125406  -125481  -125328  -124907  -124858  -125288  -125393  -125145 
 -125055  -125142  -125302  -125482  -125470  -125185  -124970  -125005 
 -125045  -125188  -125500  -125593  -125327  -124976  -125053  -125381 
 -125223  -125038  -125265  -125288  -125165  -125157  -125166  -125311 
 -125339  -125207  -125289  -125410  -125439  -125486  -125454  -125296 
 -125155  -125163  -125172  -125165  -125281  -125340  -125373  -125440 
 -125250  -124938  -125020  -125390  -125350  -125047  -125162  -125351 
 -125289  -125338  -125504  -125535  -125323  -125035  -124965  -125162 
 -125417  -125358  -125058  -125159  -125632  -125602  -125018  -124767 
 -125031  -125284  -125250  -124976  -124506  -124067  -124120  -124536 
 -124907  -125271  -125381  -125257  -125585  -125892  -125544  -125296 
 -125487  -125739  -125963  -126050  -125863  -125474  -125111  -124938 
 -125066  -125563  -125909  -125454  -124740  -124632  -124684  -124405 
 -124399  -124911  -125458  -125755  -125836  -125814  -125714  -125702 
 -126045  -126463  -126546  -126435  -125859  -124638  -124472  -125952 
 -126320  -124753  -123878  -124329  -124910  -125613  -125888  -124907 
 -123628  -123002  -123056  -123750  -124735  -125506  -125795  -126025 
 -126420  -126067  -125038  -124519  -124438  -124212  -124189  -124704 
 -125180  -125286  -125367  -125184  -124613  -124641  -125527  -125836 
 -125258  -125158  -125739  -126374  -126540  -125911  -125764  -126744 
 -127257  -126485  -125076  -124279  -124857  -125329  -124799  -124919 
 -125755  -125513  -124526  -124166  -124363  -124827  -125238  -124907 
 -124686  -125481  -125760  -124999  -124923  -125868  -126565  -125828 
 -124173  -123957  -125205  -125481  -124887  -125262  -125999  -125485 
 -124713  -125257  -125965  -125728  -125447  -125806  -126382  -126292 
 -125767  -126003  -126333  -125350  -124112  -124287  -125158  -125062 
 -124463  -124821  -125313  -124825  -124282  -124310  -124568  -124702 
 -124595  -124826  -125701  -126199  -125631  -125248  -125737  -126017 
 -125932  -125639  -124919  -124710  -125304  -125548  -125116  -124657 
 -124785  -125328  -125311  -124951  -125109  -125209  -124838  -124622 
 -124965  -125327  -124870  -124325  -124922  -126021  -126292  -125653 
 -125095  -125278  -125732  -125798  -125678  -125497  -124972  -124748 
 -125344  -125717  -125304  -124842  -124513  -124294  -124730  -125456 
 -125617  -125437  -125232  -125155  -125440  -125432  -124930  -124771 
 -125130  -125899  -126276  -125221  -124326  -124957  -125653  -125505 
 -125014  -124899  -125246  -125244  -125155  -125616  -125752  -125328 
 -125454  -125990  -125775  -124876  -124495  -125027  -125574  -125697 
 -125660  -125567  -125390  -124938  -124572  -124914  -125451  -125477 
 -124939  -124266  -124528  -125674  -125930  -125278  -125128  -125118 
 -125109  -125581  -125440  -124761  -125064  -125717  -125528  -125042 
 -125024  -125304  -125347  -125215  -125188  -125161  -125194  -125223 
 -125153  -125342  -125375  -124703  -124433  -125289  -125872  -125331 
 -124860  -125281  -125624  -125162  -124899  -125375  -125581  -125319 
 -125447  -125694  -125209  -124644  -125035  -125732  -125695  -125258 
 -125010  -125119  -125568  -125582  -125085  -125231  -125701  -125525 
 -125247  -125311  -125321  -125188  -125174  -125319  -125146  -124752 
 -124933  -125355  -125347  -125319  -125377  -125250  -125146  -125086 
 -125022  -124926  -124579  -124411  -124920  -125532  -125494  -125107 
 -125043  -124920  -124609  -124854  -125174  -125008  -125204  -125770 
 -125888  -125798  -125864  -125718  -125400  -125242  -125169  -125170 
 -125298  -125356  -125390  -125628  -125583  -124999  -124794  -125031 
 -124935  -124899  -125146  -125095  -124919  -125132  -125639  -125779 
 -125346  -125278  -125830  -125933  -125378  -125093  -125442  -125635 
 -125332  -125300  -125064  -124380  -124866  -125945  -125876  -125336 
 -125258  -125464  -125423  -124976  -124661  -124746  -125082  -125266 
 -125041  -125108  -125613  -125535  -124866  -124698  -125203  -125529 
 -125307  -124941  -124906  -125166  -125181  -124961  -125232  -125842 
 -125633  -124735  -124706  -125481  -125396  -124583  -124640  -125486 
 -125760  -125312  -125166  -125463  -125383  -125150  -125309  -125242 
 -124791  -124907  -125637  -125940  -125651  -125216  -124861  -125096 
 -125660  -125632  -125159  -124912  -125128  -125551  -125686  -125371 
 -124808  -124714  -125473  -125898  -125221  -124725  -125176  -125562 
 -125352  -125126  -125085  -124939  -124818  -125149  -125536  -125382 
 -125188  -125378  -125617  -125555  -125049  -124688  -125000  -125329 
 -125166  -124907  -124960  -125247  -125271  -124941  -125034  -125683 
 -125764  -125018  -124816  -125447  -125442  -124837  -125057  -125847 
 -126017  -125527  -125065  -124914  -125028  -125123  -124937  -124978 
 -125344  -125332  -125189  -125344  -125369  -125323  -125516  -125595 
 -125446  -125309  -125278  -125463  -125622  -125282  -124780  -124974 
 -125544  -125437  -125054  -125226  -125374  -125107  -124953  -124906 
 -124949  -125250  -125219  -125007  -125266  -125432  -125309  -125455 
 -125698  -125417  -124872  -124951  -125286  -125238  -125280  -125389 
 -125247  -125057  -124949  -125099  -125524  -125524  -124768  -124374 
 -124908  -125311  -125230  -125254  -125417  -125382  -125124  -125062 
 -125278  -125429  -125510  -125578  -125566  -125402  -125080  -125023 
 -125409  -125594  -125270  -124953  -124954  -125159  -125362  -125270 
 -125149  -125305  -125211  -124977  -125288  -125740  -125703  -125429 
 -125344  -125365  -125228  -125163  -125400  -125467  -125262  -125220 
 -125193  -125146  -125242  -125146  -125035  -125192  -125178  -125138 
 -125265  -125074  -124930  -125189  -125274  -125302  -125437  -125280 
 -125224  -125423  -125208  -124721  -124622  -125074  -125566  -125420 
 -125015  -125107  -125365  -125307  -125167  -125197  -125400  -125439 
 -125037  -124854  -125317  -125626  -125412  -125138  -125058  -125281 
 -125516  -125329  -125074  -125066  -125076  -125116  -125211  -125298 
 -125481  -125577  -125475  -125359  -125193  -125099  -125193  -125151 
 -125054  -125316  -125578  -125400  -125212  -125313  -125393  -125396 
 -125371  -125080  -124877  -125217  -125401  -125354  -125631  -125436 
 -124781  -124941  -125494  -125463  -125173  -124988  -124920  -125072 
 -125290  -125366  -125302  -125204  -125153  -125084  -124947  -125031 
 -125471  -125524  -124953  -124872  -125284  -125275  -125243  -125466 
 -125537  -125491  -125343  -125286  -125365  -125049  -124803  -125185 
 -125450  -125352  -125273  -125157  -125124  -125270  -125417  -125373 
 -125018  -124935  -125275  -125301  -125248  -125440  -125354  -125123 
 -125167  -125328  -125327  -125177  -125159  -125230  -125212  -125097 
 -124904  -125140  -125718  -125568  -125180  -125594  -125775  -125257 
 -125008  -124907  -124804  -125093  -125284  -125261  -125379  -125219 
 -124877  -124907  -125174  -125428  -125396  -125107  -125113  -125240 
