Origin Time       2025/03/30 21:30:00
Lat.              38.535
Long.             142.295
Depth. (km)       44
Mag.              4.3
Station Code      IWTH18
Station Lat.      39.4630
Station Long.     141.6775
Station Height(m) 552
Record Time       2025/03/30 21:31:28
Sampling Freq(Hz) 100Hz
Duration Time(s)  120
Dir.              5
Scale Factor      3920(gal)/6170801
Max. Acc. (gal)   2.015
Last Correction   2025/03/30 21:31:13
Memo.             
[...]
  -17320   -17313   -17319   -17342   -17354   -17345   -17318   -17280 
  -17266   -17279   -17287   -17295   -17327   -17351   -17325   -17274 
  -17267   -17327   -17391   -17399   -17358   -17318   -17305   -17302 
  -17316   -17344   -17328   -17272   -17252   -17309   -17358   -17294 
  -17235   -17314   -17386   -17369   -17338   -17302   -17295   -17314 
  -17310   -17353   -17409   -17341   -17212   -17121   -17107   -17234 
  -17436   -17597   -17665   -17494   -17110   -16912   -17060   -17299 
  -17500   -17626   -17569   -17383   -17240   -17198   -17098   -16878 
  -16866   -17177   -17580   -17957   -17970   -17474   -17124   -17136 
  -16971   -16786   -17117   -17659   -17900   -17794   -17369   -16875 
  -16739   -16965   -17323   -17568   -17550   -17604   -17700   -17296 
  -16865   -17010   -17156   -17237   -17681   -17841   -17413   -17166 
  -17154   -16957   -17001   -17439   -17493   -17161   -17250   -17584 
  -17529   -17261   -17101   -17128   -17422   -17634   -17390   -17147 
  -17229   -17307   -17322   -17365   -17483   -17647   -17335   -16664 
  -16664   -17350   -17828   -17850   -17704   -17505   -17116   -16584 
  -16456   -17114   -17936   -17979   -17460   -17409   -17682   -17317 
  -16698   -16695   -17033   -17319   -17620   -17855   -17869   -17555 
  -16973   -16704   -17034   -17370   -17486   -17558   -17413   -17284 
  -17312   -17154   -17129   -17339   -17183   -16968   -17320   -17742 
  -17720   -17568   -17313   -16867   -16874   -17435   -17690   -17486 
  -17332   -17328   -17338   -17262   -17151   -17156   -17105   -17001 
  -17223   -17604   -17731   -17727   -17627   -17169   -16739   -16884 
  -17203   -17392   -17758   -17954   -17520   -16986   -16885   -16954 
  -16968   -17216   -17678   -17874   -17671   -17199   -16761   -16753 
  -17178   -17821   -18177   -17795   -17182   -16833   -16654   -16878 
  -17480   -17722   -17586   -17641   -17471   -16751   -16529   -17216 
  -17788   -17701   -17415   -17426   -17524   -17277   -16958   -16894 
  -17076   -17503   -17755   -17525   -17339   -17364   -17061   -16777 
  -17157   -17481   -17385   -17645   -17942   -17497   -16898   -16856 
  -17079   -17087   -17150   -17697   -17965   -17319   -16834   -17113 
  -17351   -17337   -17430   -17522   -17476   -17377   -17282   -17277 
  -17383   -17379   -17195   -17073   -17096   -17235   -17431   -17504 
  -17513   -17476   -17124   -16856   -17280   -17720   -17540   -17288 
  -17205   -17197   -17344   -17371   -17259   -17219   -17202   -17296 
  -17348   -17329   -17502   -17415   -17132   -17310   -17439   -17309 
  -17433   -17514   -17345   -17171   -17042   -17080   -17330   -17550 
  -17464   -17163   -17064   -17246   -17464   -17590   -17578   -17267 
  -16820   -16951   -17582   -17854   -17675   -17295   -16904   -16923 
  -17249   -17426   -17443   -17490   -17416   -17013   -16808   -17244 
  -17787   -17952   -17668   -16972   -16507   -16935   -17599   -17647 
  -17534   -17559   -17327   -17147   -17293   -17302   -17161   -17201 
  -17231   -17090   -17138   -17556   -17788   -17473   -17215   -17309 
  -17248   -17097   -17194   -17280   -17304   -17396   -17419   -17418 
  -17441   -17442   -17363   -17083   -16997   -17283   -17304   -17179 
  -17364   -17447   -17395   -17586   -17726   -17298   -16557   -16516 
  -17257   -17749   -17778   -17731   -17554   -17201   -16896   -16970 
  -17448   -17771   -17566   -17132   -16935   -17170   -17523   -17394 
  -16972   -17062   -17397   -17385   -17525   -17821   -17597   -17101 
  -16795   -16742   -17153   -17863   -18202   -17808   -16963   -16468 
  -16701   -17069   -17466   -18167   -18312   -17512   -16723   -16377 
  -16612   -17470   -18029   -17907   -17546   -16967   -16652   -17099 
  -17570   -17624   -17568   -17292   -16922   -16995   -17387   -17647 
  -17685   -17523   -17211   -16990   -17195   -17623   -17515   -16939 
  -16794   -17135   -17443   -17668   -17703   -17481   -17299   -17038 
  -16829   -17204   -17629   -17607   -17542   -17447   -17232   -16978 
  -16720   -16908   -17545   -17789   -17501   -17345   -17398   -17283 
  -17095   -17140   -17448   -17724   -17541   -17173   -17160   -17122 
  -16899   -17083   -17502   -17631   -17534   -17259   -16986   -17135 
  -17477   -17547   -17436   -17310   -17266   -17444   -17566   -17323 
  -17059   -17110   -17309   -17453   -17432   -17287   -17278   -17289 
  -16980   -16819   -17343   -17863   -17812   -17586   -17254   -16859 
  -16883   -17288   -17734   -17913   -17527   -16902   -16569   -16687 
  -17283   -17884   -17957   -17769   -17492   -17010   -16761   -16976 
  -17224   -17348   -17495   -17606   -17547   -17305   -17100   -17157 
  -17268   -17225   -17230   -17387   -17524   -17508   -17416   -17299 
  -17056   -17022   -17426   -17574   -17317   -17344   -17465   -17258 
  -17052   -16965   -17128   -17687   -17902   -17484   -17121   -16971 
  -16961   -17210   -17430   -17564   -17826   -17725   -17108   -16896 
  -17121   -17087   -17242   -17690   -17564   -17175   -17274   -17378 
  -17061   -16919   -17290   -17612   -17538   -17377   -17362   -17345 
  -17198   -17157   -17308   -17366   -17377   -17460   -17443   -17368 
  -17252   -16968   -16754   -17003   -17636   -18004   -17783   -17363 
  -17024   -16918   -17177   -17349   -17277   -17452   -17617   -17339 
  -17067   -17108   -17355   -17587   -17460   -17171   -17174   -17393 
  -17442   -17175   -17006   -17265   -17514   -17466   -17530   -17683 
  -17343   -16821   -16844   -17063   -17204   -17568   -17757   -17488 
  -17273   -17305   -17310   -17174   -17107   -17286   -17533   -17549 
  -17284   -17025   -17044   -17274   -17525   -17644   -17558   -17383 
  -17177   -16969   -17082   -17451   -17482   -17301   -17349   -17343 
  -17189   -17266   -17532   -17588   -17215   -16894   -17182   -17599 
  -17715   -17631   -17237   -16951   -17095   -17072   -17032   -17579 
  -18063   -17708   -16954   -16613   -16975   -17586   -17690   -17405 
  -17328   -17330   -17183   -17049   -17106   -17440   -17660   -17462 
  -17244   -17167   -17175   -17351   -17361   -17112   -17070   -17299 
  -17490   -17527   -17533   -17508   -17290   -17030   -16900   -17018 
  -17626   -18089   -17602   -16926   -16962   -17225   -17194   -17183 
  -17492   -17779   -17490   -16909   -16792   -17197   -17624   -17646 
  -17495   -17520   -17360   -17102   -17172   -17173   -17007   -17112 
  -17347   -17493   -17748   -17900   -17471   -16835   -16633   -16849 
  -17213   -17535   -17815   -17928   -17586   -17042   -16682   -16677 
  -17286   -17995   -17963   -17546   -17234   -16853   -16681   -17105 
  -17722   -17991   -17786   -17230   -16736   -16660   -16862   -17223 
  -17673   -17905   -17883   -17646   -17128   -16738   -16838   -17168 
  -17432   -17600   -17730   -17744   -17411   -16967   -17020   -17276 
  -16991   -16722   -17263   -17833   -17642   -17330   -17409   -17447 
  -17188   -16956   -17127   -17508   -17511   -17226   -17248   -17517 
  -17535   -17296   -17239   -17384   -17275   -17056   -17177   -17283 
  -17155   -17234   -17527   -17768   -17742   -17268   -16835   -16949 
  -17280   -17518   -17751   -17762   -17304   -16828   -16810   -17093 
  -17424   -17539   -17280   -17126   -17427   -17751   -17710   -17355 
  -16931   -16776   -16954   -17223   -17531   -17891   -17839   -17200 
  -16738   -16872   -17231   -17545   -17597   -17428   -17394   -17323 
  -17090   -17122   -17433   -17640   -17599   -17287   -16954   -17020 
  -17252   -17258   -17374   -17669   -17601   -17215   -17043   -17166 
  -17435   -17686   -17504   -17018   -16919   -17182   -17454   -17677 
  -17618   -17304   -17096   -17038   -17107   -17404   -17758   -17716 
  -17120   -16557   -16822   -17674   -17944   -17461   -17182   -17213 
  -17083   -17020   -17307   -17685   -17699   -17336   -17102   -17203 
  -17408   -17532   -17463   -17144   -16912   -17158   -17441   -17392 
  -17450   -17515   -17224   -17035   -17133   -17203   -17316   -17471 
  -17490   -17531   -17579   -17434   -17304   -17196   -16924   -16970 
  -17391   -17368   -17140   -17496   -17842   -17532   -17156   -17086 
  -16997   -17059   -17427   -17471   -17168   -17197   -17458   -17497 
  -17387   -17495   -17754   -17545   -16940   -16635   -16740   -17125 
  -17681   -17973   -17759   -17369   -17110   -16822   -16655   -17155 
  -17836   -17846   -17560   -17482   -17347   -17023   -16898   -17163 
  -17369   -17351   -17491   -17640   -17410   -17119   -17060   -16989 
  -17040   -17441   -17671   -17523   -17523   -17516   -17105   -16920 
  -17289   -17555   -17541   -17436   -17184   -16911   -16843   -17150 
  -17724   -18178   -18168   -17308   -16240   -16353   -17227   -17711 
  -17925   -17852   -17310   -16841   -16801   -17145   -17567   -17613 
  -17377   -17112   -16907   -17158   -17748   -17843   -17362   -17023 
  -17051   -17195   -17375   -17544   -17579   -17391   -17110   -17136 
  -17479   -17742   -17602   -16960   -16431   -16661   -17260   -17551 
  -17480   -17449   -17497   -17405   -17444   -17670   -17717   -17577 
  -17241   -16784   -16772   -17182   -17371   -17501   -17788   -17515 
  -16885   -16880   -17169   -17362   -17637   -17532   -17187   -17261 
  -17282   -17114   -17447   -17779   -17396   -17028   -17160   -17244 
  -17162   -17147   -17207   -17390   -17449   -17390   -17783   -18033 
  -17333   -16696   -16828   -17056   -17288   -17605   -17460   -17055 
  -17020   -17120   -17224   -17646   -17992   -17670   -17085   -17005 
  -17236   -17184   -17241   -17721   -17846   -17377   -17059   -17089 
  -17064   -17030   -17128   -17139   -17206   -17586   -17789   -17502 
  -17364   -17566   -17345   -16848   -16966   -17408   -17519   -17448 
  -17454   -17484   -17351   -17316   -17564   -17390   -16832   -16718 
  -16891   -17180   -17646   -17804   -17803   -17793   -17105   -16253 
  -16550   -17546   -17886   -17614   -17444   -17360   -17215   -17118 
  -17068   -17145   -17436   -17686   -17656   -17504   -17289   -16951 
  -16883   -17203   -17392   -17405   -17485   -17392   -17023   -16924 
  -17506   -18080   -17780   -17098   -16903   -17016   -17023   -17148 
  -17454   -17629   -17682   -17533   -17280   -17429   -17439   -16885 
  -16746   -17152   -17526   -17923   -17930   -17292   -16643   -16504 
  -17094   -17768   -17752   -17682   -17757   -17128   -16455   -16891 
  -17524   -17445   -17268   -17120   -17089   -17619   -18052   -17914 
  -17418   -16672   -16462   -17068   -17603   -17830   -17924   -17696 
  -17118   -16603   -16670   -17117   -17435   -17493   -17210   -16957 
  -17142   -17506   -17881   -18017   -17532   -16924   -16834   -17067 
  -17416   -17771   -17801   -17629   -17385   -16946   -16741   -17037 
  -17305   -17230   -17293   -17665   -17675   -17468   -17635   -17499 
  -16852   -16536   -16603   -17028   -17883   -18391   -18099   -17272 
  -16459   -16399   -16973   -17478   -17762   -17854   -17696   -17352 
  -16898   -16730   -17278   -17859   -17565   -16975   -16932   -17202 
  -17484   -17662   -17637   -17638   -17523   -17058   -16756   -16839 
  -17026   -17380   -17795   -17753   -17287   -17122   -17383   -17371 
  -17074   -17023   -17207   -17447   -17588   -17477   -17292   -17194 
  -17133   -17207   -17527   -17686   -17403   -17170   -17081   -17023 
  -17401   -17715   -17426   -17238   -17262   -17070   -16852   -16969 
  -17494   -17804   -17627   -17646   -17642   -17126   -16811   -16918 
  -17003   -17241   -17574   -17694   -17701   -17406   -16843   -16782 
  -17308   -17759   -17930   -17809   -17335   -16997   -17092   -17046 
  -16856   -17158   -17667   -17869   -17783   -17280   -16753   -16925 
  -17242   -17152   -17381   -17749   -17252   -16733   -17149   -17442 
  -17319   -17598   -17846   -17602   -17263   -16832   -16519   -16996 
  -17905   -18280   -18041   -17555   -16960   -16439   -16377   -16959 
  -17580   -17778   -17922   -17780   -16946   -16312   -16566   -17129 
  -17503   -17898   -18194   -17826   -17276   -17305   -17400   -17326 
  -17511   -17641   -17404   -17138   -17045   -16997   -16979   -17135 
  -17214   -17008   -17083   -17595   -17820   -17535   -17161   -16993 
  -17104   -17538   -18072   -18066   -17452   -16961   -16948   -17297 
  -17816   -18020   -17611   -17044   -16703   -16386   -16318   -16959 
  -17731   -17746   -17235   -16992   -17115   -17321   -17545   -17558 
  -17309   -17339   -17699   -17849   -17904   -17928   -17373   -16537 
  -16181   -16372   -17001   -17803   -18134   -17613   -16677   -16127 
  -16016   -16098   -16798   -17908   -18186   -17611   -17351   -17576 
  -17767   -17924   -18173   -18278   -17817   -16901   -16249   -16226 
  -16865   -18105   -18997   -18488   -17253   -16609   -16659   -16892 
  -16966   -16900   -16870   -16809   -17103   -17948   -18430   -18250 
  -17736   -16944   -16779   -17778   -18797   -18931   -18264   -17224 
  -16318   -15851   -16159   -17127   -17642   -17351   -17094   -16732 
  -16221   -16846   -18085   -18093   -17224   -16495   -15969   -16080 
  -16962   -17906   -18666   -18890   -18122   -17387   -17389   -17374 
  -17260   -17004   -16285   -15947   -16351   -16868   -17380   -17711 
  -17784   -17880   -17799   -17797   -18364   -18676   -17923   -16614 
  -15820   -16269   -17275   -17589   -17404   -17441   -17459   -17018 
  -16675   -17323   -18284   -18154   -17306   -16795   -16613   -17081 
  -18576   -19668   -19032   -17628   -16533   -15265   -14143   -14967 
  -17583   -19460   -19292   -17962   -16797   -16429   -16499   -16586 
  -16872   -17443   -18115   -18522   -18456   -18293   -18032   -17308 
  -16309   -15480   -15447   -16441   -17730   -18519   -18478   -17823 
  -17085   -16761   -17204   -17972   -18242   -17802   -17005   -16809 
  -17525   -17832   -16991   -16118   -16244   -16890   -17161   -17255 
  -17784   -18301   -17911   -16938   -16650   -17225   -17743   -17838 
  -17411   -16673   -16745   -17704   -18233   -17863   -17029   -16200 
  -15891   -16466   -17863   -19019   -18547   -17006   -16022   -15966 
  -16752   -18202   -19125   -18531   -17351   -16977   -16806   -16208 
  -16339   -17284   -17749   -17438   -16936   -17153   -18307   -18960 
  -18278   -17269   -16826   -17099   -17812   -18061   -17372   -16387 
  -16009   -16772   -17965   -18081   -17187   -16424   -16151   -16495 
  -17270   -17789   -18037   -18132   -17656   -16907   -16819   -17425 
  -17985   -18074   -17589   -16650   -16030   -16580   -17732   -17871 
  -17005   -16917   -17757   -18013   -17599   -17257   -17058   -17078 
  -17125   -16975   -17073   -17414   -17630   -17762   -17588   -16829 
  -15900   -15902   -17337   -18729   -18789   -18254   -17513   -16509 
  -16464   -17573   -18013   -17273   -16799   -17109   -17379   -17372 
  -17462   -17537   -17269   -16850   -16618   -16713   -17433   -18291 
  -18169   -17504   -17265   -17146   -17099   -17538   -17863   -17668 
  -17601   -17392   -16605   -16429   -17151   -17617   -17675   -17479 
  -17082   -16963   -17123   -17474   -17892   -17797   -17416   -17449 
  -17516   -17262   -17377   -17485   -16389   -15450   -16598   -18435 
  -18719   -17752   -16919   -16397   -16167   -16798   -17925   -18501 
  -18176   -17605   -17293   -16742   -16572   -17674   -18437   -17743 
  -16577   -15887   -16352   -17406   -17647   -17423   -17411   -17010 
  -16277   -16363   -17567   -18548   -18467   -18216   -18222   -17923 
  -17347   -16845   -16320   -15928   -16559   -18050   -18582   -17721 
  -16853   -16471   -16658   -17627   -18229   -17781   -17193   -16533 
  -15902   -16678   -18723   -20025   -19257   -16972   -15329   -15609 
  -16700   -17617   -18326   -18280   -17440   -16840   -16796   -16852 
  -17027   -17333   -17556   -17693   -17698   -17844   -18207   -17877 
  -16594   -15525   -15633   -16602   -17760   -18803   -18953   -17791 
  -16470   -15897   -16056   -17197   -18580   -18500   -17127   -15835 
  -15615   -17271   -19548   -20048   -18869   -17248   -15512   -14480 
  -15482   -18017   -19510   -18630   -16953   -16161   -16133   -16614 
  -17795   -18597   -17908   -16844   -16612   -16911   -17587   -18570 
  -18908   -17847   -16208   -15712   -16711   -17962   -18539   -18153 
  -17062   -16277   -16417   -17144   -17859   -18093   -17702   -16884 
  -16292   -16967   -18479   -18863   -17813   -16462   -15526   -15849 
  -17256   -18346   -18653   -18140   -16819   -15736   -15949   -17337 
  -18741   -19042   -18034   -16198   -14979   -15828   -17864   -19114 
  -18997   -17912   -16705   -16275   -16509   -17104   -18082   -18338 
  -17088   -15989   -16470   -17880   -18992   -18784   -17174   -15489 
  -15213   -16508   -18121   -19043   -19021   -17721   -15941   -15795 
  -17417   -18425   -17975   -17292   -16545   -15994   -17024   -18781 
  -19049   -18029   -16861   -15885   -15832   -16999   -18413   -19119 
  -18347   -16419   -15677   -16789   -17568   -17462   -17299   -16685 
  -16192   -17111   -18410   -18564   -17955   -17182   -16411   -16254 
  -16995   -18009   -18295   -17547   -16793   -16920   -17547   -18102 
  -18298   -17654   -16325   -15610   -16236   -17573   -18642   -18530 
  -17285   -16330   -16480   -17339   -18426   -18792   -17668   -16127 
  -15689   -16453   -17674   -18430   -18028   -17059   -16610   -16546 
  -16845   -17961   -18745   -18045   -16876   -16588   -17181   -17748 
  -17855   -17819   -17501   -16866   -16687   -16876   -16795   -17052 
  -17821   -17828   -17066   -16962   -17585   -17760   -17098   -16395 
  -16545   -17329   -17898   -17995   -17740   -17366   -17158   -16863 
  -16450   -16737   -17914   -18919   -18661   -17383   -16434   -16477 
  -17114   -17694   -17736   -17307   -16773   -16519   -16676   -17054 
  -17742   -18321   -17971   -17275   -16918   -16505   -16438   -17370 
  -18277   -18152   -17814   -17863   -17453   -16521   -16174   -16561 
  -17204   -18018   -18381   -17932   -17349   -16685   -16053   -16608 
  -18080   -18734   -18060   -16880   -16217   -16630   -17749   -18677 
  -18596   -17379   -15867   -15202   -16024   -17767   -19135   -19461 
  -18501   -16554   -15202   -15535   -16806   -17996   -18638   -18406 
  -17542   -17094   -17402   -17378   -16670   -16325   -16709   -17207 
  -17519   -18004   -18676   -18453   -17007   -15963   -16193   -16591 
  -16876   -17769   -18329   -17693   -17408   -17976   -17657   -16583 
  -16260   -16405   -16535   -17030   -17697   -18129   -18166   -17867 
  -17639   -17357   -16913   -17013   -17458   -17480   -17487   -17776 
  -17620   -16888   -16569   -16865   -17161   -17718   -18173   -17452 
  -16371   -16250   -17015   -18073   -18657   -18188   -17100   -16385 
  -16343   -16968   -18236   -18935   -18175   -16834   -15802   -15892 
  -17371   -18592   -18392   -17500   -16661   -16220   -16687   -17915 
  -18539   -17889   -16993   -16487   -16253   -16765   -18060   -18663 
  -17775   -16869   -16939   -17162   -17357   -17648   -17412   -17005 
  -16888   -16609   -16606   -17384   -18090   -18036   -17511   -17109 
  -17143   -17300   -17218   -17141   -17394   -17826   -17878   -17276 
  -16797   -16837   -16724   -16913   -17948   -18451   -17742   -17034 
  -16932   -16850   -16810   -17422   -17997   -17483   -16783   -17050 
