Origin Time       2025/03/30 21:30:00
Lat.              38.535
Long.             142.295
Depth. (km)       44
Mag.              4.3
Station Code      IWTH22
Station Lat.      39.3340
Station Long.     141.3015
Station Height(m) 160
Record Time       2025/03/30 21:31:30
Sampling Freq(Hz) 100Hz
Duration Time(s)  120
Dir.              1
Scale Factor      3923(gal)/8224838
Max. Acc. (gal)   0.303
Last Correction   2025/03/30 21:31:30
Memo.             
[...]
   12820    12702    12685    12768    12843    12866    12843    12796 
   12764    12749    12772    12852    12901    12846    12752    12704 
   12738    12842    12931    12928    12841    12722    12664    12714 
   12816    12915    12954    12874    12727    12648    12726    12899 
   12988    12939    12833    12750    12750    12796    12845    12908 
   12935    12864    12722    12621    12671    12835    12961    12927 
   12783    12702    12722    12739    12760    12835    12931    12972 
   12889    12731    12652    12748    12918    12969    12880    12762 
   12690    12699    12784    12866    12889    12835    12750    12707 
   12726    12802    12893    12933    12900    12823    12722    12700 
   12791    12869    12903    12891    12785    12681    12708    12823 
   12900    12884    12825    12745    12688    12737    12823    12870 
   12877    12810    12741    12734    12760    12816    12881    12926 
   12915    12806    12698    12733    12847    12885    12845    12816 
   12796    12772    12753    12742    12768    12847    12891    12820 
   12749    12765    12806    12838    12866    12866    12861    12841 
   12780    12741    12775    12843    12874    12827    12739    12721 
   12816    12891    12842    12777    12771    12803    12842    12833 
   12829    12885    12896    12818    12707    12658    12756    12879 
   12896    12837    12780    12789    12816    12807    12806    12815 
   12858    12884    12773    12654    12734    12927    13005    12893 
   12756    12730    12781    12831    12831    12812    12831    12827 
   12754    12688    12730    12856    12922    12876    12795    12748 
   12772    12820    12826    12831    12861    12857    12816    12771 
   12771    12826    12856    12819    12762    12734    12792    12861 
   12852    12815    12803    12831    12849    12780    12727    12777 
   12845    12866    12830    12773    12781    12838    12835    12771 
   12757    12819    12854    12831    12791    12768    12792    12825 
   12806    12764    12785    12877    12916    12826    12722    12758 
   12896    12938    12795    12654    12715    12896    12973    12854 
   12690    12690    12814    12884    12837    12757    12795    12919 
   12903    12733    12658    12791    12965    12973    12816    12661 
   12684    12864    12951    12845    12735    12756    12816    12812 
   12766    12780    12862    12893    12847    12783    12742    12779 
   12820    12783    12750    12768    12819    12869    12849    12819 
   12822    12815    12810    12806    12823    12860    12850    12815 
   12792    12764    12781    12838    12850    12865    12885    12793 
   12673    12667    12775    12930    12977    12868    12750    12741 
   12803    12835    12816    12807    12829    12850    12823    12730 
   12680    12793    12953    12937    12756    12640    12710    12864 
   12947    12892    12765    12725    12800    12853    12820    12780 
   12815    12877    12847    12781    12768    12776    12839    12908 
   12850    12783    12789    12764    12742    12776    12807    12861 
   12918    12879    12753    12671    12744    12883    12928    12876 
   12792    12769    12823    12839    12814    12810    12811    12811 
   12793    12753    12749    12791    12842    12876    12865    12822 
   12783    12787    12833    12838    12789    12769    12784    12812 
   12845    12819    12761    12777    12841    12838    12777    12742 
   12785    12893    12939    12846    12746    12749    12827    12892 
   12827    12731    12777    12885    12895    12791    12687    12726 
   12853    12888    12793    12727    12814    12906    12858    12753 
   12708    12785    12915    12915    12779    12668    12719    12883 
   12950    12860    12757    12731    12783    12850    12826    12792 
   12868    12919    12826    12694    12658    12772    12919    12937 
   12856    12768    12714    12727    12798    12869    12900    12872 
   12819    12775    12748    12775    12847    12873    12816    12754 
   12758    12808    12845    12866    12852    12771    12712    12753 
   12830    12872    12865    12826    12788    12784    12799    12818 
   12858    12874    12852    12808    12721    12663    12742    12889 
   12928    12827    12721    12673    12702    12843    12953    12945 
   12923    12826    12677    12673    12780    12885    12943    12874 
   12765    12748    12772    12807    12849    12857    12835    12812 
   12787    12780    12822    12889    12901    12829    12733    12677 
   12706    12810    12903    12906    12838    12783    12768    12783 
   12789    12784    12826    12879    12841    12741    12676    12745 
   12899    12939    12866    12798    12753    12744    12760    12792 
   12852    12889    12860    12775    12707    12757    12864    12880 
   12811    12741    12721    12775    12857    12899    12897    12869 
   12800    12717    12733    12850    12937    12914    12796    12669 
   12685    12834    12930    12887    12789    12745    12771    12789 
   12792    12853    12922    12880    12779    12718    12723    12819 
   12927    12923    12837    12749    12707    12749    12846    12910 
   12891    12823    12754    12690    12683    12788    12908    12943 
   12896    12796    12710    12734    12847    12896    12846    12812 
   12802    12766    12761    12808    12837    12815    12796    12792 
   12775    12764    12768    12791    12849    12888    12861    12812 
   12779    12795    12838    12843    12788    12726    12761    12861 
   12853    12766    12731    12765    12854    12897    12818    12744 
   12780    12874    12928    12873    12785    12768    12808    12857 
   12850    12812    12822    12807    12742    12718    12737    12806 
   12911    12914    12787    12681    12694    12789    12869    12879 
   12846    12811    12802    12807    12812    12857    12911    12877 
   12776    12704    12731    12852    12924    12852    12731    12679 
   12698    12753    12831    12899    12920    12883    12787    12710 
   12745    12862    12946    12931    12811    12668    12650    12783 
   12914    12930    12879    12822    12754    12691    12703    12800 
   12900    12941    12891    12792    12757    12788    12830    12877 
   12866    12789    12748    12741    12742    12812    12892    12866 
   12780    12731    12749    12807    12841    12837    12850    12862 
   12843    12819    12800    12804    12822    12818    12791    12731 
   12722    12823    12899    12861    12779    12726    12748    12796 
   12834    12880    12880    12808    12753    12762    12811    12846 
   12838    12826    12819    12820    12864    12872    12789    12737 
   12765    12818    12827    12793    12818    12899    12914    12837 
   12739    12698    12745    12816    12837    12807    12762    12777 
   12842    12860    12847    12833    12787    12760    12777    12807 
   12850    12897    12885    12765    12657    12715    12839    12897 
   12895    12792    12679    12725    12827    12891    12945    12928 
   12823    12708    12704    12822    12908    12901    12825    12718 
   12698    12758    12818    12880    12895    12845    12812    12792 
   12783    12837    12911    12900    12820    12748    12698    12692 
   12766    12860    12887    12852    12781    12696    12685    12792 
   12877    12861    12846    12880    12860    12769    12749    12825 
   12879    12876    12826    12744    12726    12793    12856    12877 
   12856    12787    12715    12692    12726    12815    12927    12942 
   12822    12694    12685    12785    12887    12920    12891    12807 
   12718    12684    12710    12769    12868    12951    12915    12769 
   12650    12696    12879    12982    12930    12812    12737    12757 
   12795    12843    12922    12911    12799    12699    12671    12754 
   12869    12899    12862    12814    12775    12762    12793    12860 
   12916    12893    12789    12719    12721    12765    12870    12941 
   12880    12791    12757    12768    12815    12849    12866    12881 
   12841    12752    12683    12723    12872    12937    12820    12656 
   12629    12779    12915    12900    12812    12784    12854    12865 
   12760    12733    12842    12942    12891    12695    12588    12725 
   12931    12987    12887    12760    12733    12789    12799    12772 
   12793    12852    12887    12812    12664    12656    12831    12954 
   12861    12685    12660    12798    12939    12955    12852    12789 
   12843    12880    12808    12741    12804    12914    12892    12769 
   12657    12667    12852    12978    12883    12735    12695    12776 
   12888    12919    12899    12873    12826    12745    12668    12703 
   12852    12960    12922    12771    12681    12737    12822    12883 
   12922    12900    12822    12745    12710    12754    12873    12961 
   12910    12776    12691    12704    12768    12823    12874    12924 
   12916    12837    12769    12775    12825    12861    12826    12750 
   12741    12795    12835    12829    12814    12849    12873    12831 
   12773    12726    12754    12862    12881    12787    12717    12727 
   12785    12810    12804    12833    12822    12765    12752    12784 
   12838    12852    12787    12765    12789    12800    12853    12865 
   12806    12764    12712    12725    12823    12852    12845    12880 
   12915    12907    12812    12729    12769    12827    12847    12862 
   12853    12847    12857    12829    12760    12749    12861    12934 
   12884    12854    12854    12826    12816    12823    12819    12814 
   12799    12785    12779    12784    12807    12810    12757    12715 
   12749    12785    12806    12850    12827    12744    12729    12758 
   12776    12798    12812    12841    12864    12826    12793    12766 
   12722    12773    12856    12842    12819    12808    12784    12746 
   12692    12752    12908    12965    12920    12834    12757    12762 
   12783    12812    12920    12985    12935    12806    12648    12627 
   12795    12966    12992    12881    12761    12733    12752    12804 
   12891    12908    12845    12792    12715    12619    12684    12864 
   12916    12839    12750    12712    12772    12831    12811    12820 
   12885    12907    12819    12680    12699    12865    12958    12911 
   12762    12645    12707    12833    12869    12834    12795    12829 
   12834    12733    12725    12816    12841    12808    12758    12771 
   12861    12901    12873    12810    12776    12818    12829    12800 
   12820    12899    12989    12933    12746    12648    12661    12779 
   12916    12858    12733    12753    12800    12773    12725    12748 
   12881    12999    12943    12727    12590    12704    12883    12911 
   12823    12731    12754    12856    12862    12811    12860    12953 
   12964    12861    12704    12677    12838    12968    12930    12812 
   12718    12672    12719    12841    12888    12842    12798    12750 
   12739    12816    12892    12904    12862    12752    12652    12676 
   12802    12883    12874    12876    12899    12826    12691    12642 
   12746    12938    13023    12876    12677    12636    12733    12889 
   12970    12903    12804    12739    12669    12637    12710    12877 
   13027    13018    12870    12704    12629    12722    12885    12966 
   12941    12842    12765    12699    12626    12679    12816    12862 
   12810    12692    12602    12652    12775    12856    12889    12896 
   12870    12799    12730    12764    12911    13045    12997    12806 
   12711    12760    12839    12899    12861    12773    12798    12839 
   12814    12822    12865    12895    12899    12854    12796    12799 
   12872    12935    12915    12858    12833    12777    12660    12598 
   12652    12753    12819    12787    12664    12606    12733    12904 
   12907    12791    12741    12789    12816    12780    12757    12799 
   12865    12847    12691    12559    12637    12862    13045    13076 
   12978    12879    12869    12922    12988    13070    13109    12992 
   12783    12679    12725    12853    13004    13059    12989    12918 
   12883    12850    12858    12933    12982    12895    12726    12613 
   12560    12577    12708    12881    12964    12843    12536    12293 
   12332    12564    12789    12874    12772    12619    12559    12564 
   12606    12735    12896    12903    12712    12509    12495    12725 
   13018    13119    13009    12827    12707    12760    12896    13000 
   13104    13126    12985    12861    12879    12989    13134    13209 
   13146    12974    12818    12773    12775    12744    12757    12861 
   12910    12779    12649    12739    12930    12969    12820    12700 
   12775    12899    12887    12742    12625    12702    12847    12807 
   12623    12476    12402    12384    12406    12492    12725    13022 
   13136    12976    12671    12536    12725    12961    13051    13011 
   12803    12544    12425    12560    12945    13274    13257    12899 
   12444    12376    12806    13228    13336    13165    12876    12723 
   12691    12679    12760    12946    13074    12850    12374    12259 
   12629    13011    13127    12910    12555    12492    12750    13039 
   13200    13130    12896    12634    12407    12484    12941    13308 
   13171    12652    12309    12514    12978    13230    13108    12784 
   12560    12528    12596    12760    13011    13235    13188    12742 
   12287    12345    12908    13446    13389    12819    12411    12456 
   12644    12739    12819    13012    13180    13023    12600    12374 
   12606    13022    13136    12865    12617    12691    12922    13023 
   12896    12730    12752    12846    12788    12657    12687    12895 
   13055    12924    12530    12271    12491    12976    13193    12937 
   12606    12569    12626    12610    12681    12951    13304    13409 
   13120    12749    12646    12861    13081    12958    12642    12502 
   12602    12738    12722    12719    12881    12980    12892    12733 
   12704    12943    13155    13072    12860    12665    12614    12761 
   12834    12703    12556    12548    12692    12815    12816    12781 
   12783    12872    12923    12816    12733    12766    12847    12980 
   13055    12942    12777    12777    12950    13058    12939    12772 
   12680    12610    12681    12852    12876    12876    12918    12795 
   12661    12744    12888    12933    12847    12664    12537    12627 
   12877    13005    12908    12800    12787    12780    12739    12668 
   12636    12700    12737    12700    12702    12746    12780    12815 
   12900    13018    12995    12762    12588    12735    13046    13166 
   13014    12846    12868    12922    12856    12690    12550    12712 
   13081    13208    13059    12869    12753    12717    12698    12758 
   12862    12822    12783    12930    12980    12814    12690    12640 
   12599    12637    12700    12712    12684    12672    12722    12776 
   12773    12738    12712    12758    12833    12827    12788    12760 
   12698    12641    12668    12776    12941    13123    13258    13236 
   12970    12695    12702    12856    12945    12908    12756    12660 
   12673    12710    12818    12947    12931    12765    12629    12688 
   12861    12976    13005    12935    12788    12656    12646    12804 
   12985    13053    13000    12833    12680    12665    12691    12696 
   12703    12671    12652    12717    12769    12741    12722    12803 
   12906    12974    13070    13065    12846    12619    12557    12619 
   12683    12730    12858    13014    13053    12958    12857    12888 
   12961    12943    12877    12706    12445    12417    12719    13026 
   13092    12991    12854    12722    12671    12775    12953    13050 
   13001    12823    12586    12480    12679    13001    13105    12931 
   12679    12582    12744    12961    12923    12758    12783    12861 
   12765    12613    12622    12862    13108    13089    12876    12641 
   12546    12730    12981    13007    12838    12650    12584    12600 
   12625    12711    12839    12922    12911    12837    12819    12833 
   12799    12822    12903    12911    12853    12793    12704    12629 
   12730    12937    13000    12885    12730    12660    12648    12588 
   12583    12781    13030    13069    12858    12629    12609    12758 
   12916    12988    12978    12935    12852    12746    12739    12856 
   12934    12883    12795    12696    12602    12646    12833    13043 
   13169    13050    12811    12719    12746    12843    12989    13026 
   12895    12676    12488    12430    12530    12806    13076    13053 
   12822    12644    12663    12901    13078    12996    12850    12734 
   12648    12656    12669    12712    12850    12852    12699    12650 
   12749    12958    13185    13208    12977    12657    12478    12529 
   12695    12858    12868    12731    12729    12835    12853    12906 
   13012    12984    12815    12618    12534    12626    12799    13016 
   13182    13100    12852    12681    12631    12725    12953    13076 
   12964    12803    12749    12765    12787    12823    12906    12987 
   12955    12803    12715    12841    12965    12835    12602    12521 
   12613    12752    12831    12818    12753    12699    12681    12684 
   12707    12820    13051    13208    13095    12818    12675    12788 
   12968    13003    12862    12646    12528    12604    12760    12839 
   12857    12872    12854    12722    12526    12517    12780    13068 
   13143    13000    12803    12698    12727    12823    12812    12741 
   12764    12746    12606    12532    12640    12858    12999    12938 
   12733    12553    12629    12920    13050    12912    12752    12708 
   12775    12846    12808    12773    12852    12885    12785    12714 
   12779    12866    12887    12861    12789    12791    12958    13022 
   12901    12825    12796    12799    12829    12810    12829    12906 
   12910    12789    12649    12671    12820    12924    12946    12895 
   12812    12800    12833    12793    12756    12850    12926    12820 
   12654    12622    12795    12980    12916    12668    12515    12657 
   12962    13076    12901    12614    12461    12595    12769    12777 
   12846    13007    13005    12807    12606    12677    13022    13234 
   13078    12742    12553    12650    12839    12942    12992    12987 
   12922    12783    12582    12572    12803    12976    12978    12854 
   12708    12656    12653    12696    12804    12896    12935    12868 
   12796    12896    13003    12976    12915    12815    12688    12673 
   12781    12858    12827    12843    12946    12874    12661    12625 
   12799    12980    12942    12683    12582    12807    13019    12945 
   12737    12642    12665    12687    12696    12730    12815    12918 
   12923    12762    12610    12654    12791    12880    12887    12765 
   12634    12648    12744    12843    12904    12888    12872    12834 
   12712    12704    12884    12997    12939    12829    12789    12846 
   12881    12808    12780    12901    12976    12879    12698    12591 
   12730    12993    13024    12838    12734    12776    12781    12723 
   12726    12758    12807    12924    12973    12877    12795    12827 
   12895    12849    12668    12545    12650    12889    13012    12943 
