Origin Time       2025/03/30 21:30:00
Lat.              38.535
Long.             142.295
Depth. (km)       44
Mag.              4.3
Station Code      IWTH16
Station Lat.      39.6436
Station Long.     140.9465
Station Height(m) 212
Record Time       2025/03/30 21:31:43
Sampling Freq(Hz) 100Hz
Duration Time(s)  120
Dir.              4
Scale Factor      7845(gal)/8223790
Max. Acc. (gal)   0.447
Last Correction   2025/03/30 21:31:44
Memo.             
[...]
   -2982    -2929    -2883    -2868    -2906    -2979    -3019    -2991 
   -2960    -2987    -3026    -3030    -3017    -3002    -2983    -2984 
   -2997    -2968    -2929    -2945    -2983    -2975    -2945    -2963 
   -3014    -3040    -3034    -3015    -2961    -2918    -2943    -2983 
   -2983    -2982    -3013    -3046    -3029    -2979    -2953    -2967 
   -2976    -2951    -2914    -2897    -2906    -2937    -2970    -2998 
   -3024    -3044    -3064    -3061    -3045    -3032    -2988    -2917 
   -2872    -2876    -2916    -2978    -3013    -2976    -2934    -2938 
   -2952    -2991    -3067    -3087    -3025    -2956    -2938    -2984 
   -3040    -3025    -2976    -2967    -2967    -2961    -2971    -2988 
   -3001    -2983    -2949    -2952    -2990    -3018    -3036    -3028 
   -2982    -2941    -2943    -2965    -2974    -2975    -2968    -2953 
   -2957    -2968    -2975    -3007    -3025    -2979    -2943    -2978 
   -3038    -3073    -3056    -2970    -2886    -2899    -2960    -2974 
   -2957    -2944    -2925    -2905    -2918    -2968    -3014    -3022 
   -2983    -2936    -2943    -3009    -3053    -3037    -3014    -3003 
   -2976    -2959    -2975    -2988    -2991    -2983    -2945    -2913 
   -2932    -2975    -3013    -3015    -2961    -2905    -2905    -2951 
   -2997    -2988    -2929    -2910    -2951    -2997    -3037    -3064 
   -3014    -2934    -2925    -2951    -2972    -3032    -3068    -3018 
   -2965    -2978    -3021    -3045    -3026    -2980    -2961    -2970 
   -2957    -2944    -2965    -2968    -2941    -2957    -3018    -3046 
   -3018    -2990    -3009    -3017    -2960    -2916    -2933    -2967 
   -2995    -3017    -2994    -2916    -2866    -2909    -2994    -3052 
   -3045    -2980    -2941    -2965    -2990    -2988    -2994    -3001 
   -2992    -2980    -2955    -2924    -2928    -2965    -2991    -2986 
   -2960    -2929    -2941    -2999    -3046    -3048    -3014    -2991 
   -3030    -3079    -3078    -3048    -3005    -2944    -2882    -2870 
   -2921    -2984    -3017    -3014    -2994    -2980    -2965    -2925 
   -2898    -2906    -2920    -2913    -2890    -2909    -2992    -3072 
   -3102    -3072    -3005    -2965    -2984    -3013    -3017    -2994 
   -2967    -2949    -2930    -2925    -2949    -2984    -3030    -3069 
   -3056    -2984    -2914    -2909    -2961    -3001    -2984    -2945 
   -2928    -2937    -2948    -2949    -2947    -2948    -2963    -2992 
   -3026    -3028    -2982    -2955    -2988    -2997    -2945    -2913 
   -2926    -2951    -2971    -2988    -2992    -2975    -2970    -2988 
   -2983    -2951    -2920    -2913    -2975    -3065    -3091    -3055 
   -2992    -2944    -2971    -3036    -3037    -2976    -2943    -2952 
   -2953    -2948    -2949    -2940    -2951    -3002    -3041    -3032 
   -3025    -3044    -3025    -2964    -2926    -2920    -2929    -2955 
   -2949    -2916    -2926    -2988    -3057    -3105    -3103    -3068 
   -3013    -2949    -2934    -2982    -3026    -3044    -3057    -3061 
   -3014    -2947    -2938    -2994    -3038    -3018    -2934    -2868 
   -2866    -2901    -2953    -3001    -3019    -3017    -2988    -2943 
   -2921    -2952    -2992    -2979    -2925    -2907    -2929    -2944 
   -2959    -2991    -3011    -3001    -2994    -2991    -2980    -2994 
   -3026    -3022    -2970    -2911    -2889    -2901    -2940    -2978 
   -2982    -2980    -3017    -3052    -3026    -2978    -2941    -2898 
   -2891    -2934    -2944    -2910    -2906    -2949    -2992    -2984 
   -2938    -2928    -2974    -3017    -3045    -3055    -3028    -3002 
   -2998    -2994    -2998    -2997    -2970    -2956    -2992    -3021 
   -2986    -2940    -2933    -2934    -2944    -2964    -2976    -3001 
   -3025    -3030    -3041    -3046    -3036    -3036    -3033    -3010 
   -2984    -2976    -2994    -3017    -3013    -2975    -2937    -2933 
   -2945    -2968    -2990    -2968    -2936    -2956    -2978    -2972 
   -2965    -2943    -2925    -2949    -2978    -2983    -2971    -2951 
   -2961    -2997    -3022    -3049    -3065    -3046    -3019    -2990 
   -2924    -2864    -2889    -2956    -2970    -2952    -2959    -2976 
   -2980    -2974    -2974    -2991    -2990    -2968    -2953    -2945 
   -2930    -2922    -2930    -2952    -2991    -3009    -2984    -2975 
   -3006    -3006    -2956    -2937    -2956    -2949    -2928    -2913 
   -2882    -2872    -2911    -2963    -3005    -3052    -3095    -3107 
   -3082    -3026    -2980    -2974    -2982    -2972    -2956    -2945 
   -2957    -2999    -3048    -3076    -3069    -3056    -3063    -3057 
   -3029    -3015    -2984    -2932    -2929    -2938    -2920    -2951 
   -3022    -3061    -3052    -2979    -2909    -2921    -2947    -2916 
   -2883    -2895    -2925    -2961    -3009    -3049    -3078    -3096 
   -3092    -3067    -3036    -2997    -2965    -2944    -2899    -2862 
   -2879    -2911    -2920    -2940    -2975    -2980    -2987    -3034 
   -3064    -3032    -2999    -2991    -2964    -2914    -2863    -2829 
   -2835    -2866    -2905    -2943    -2986    -3061    -3137    -3134 
   -3053    -2982    -2965    -2976    -2990    -2983    -2922    -2855 
   -2876    -2941    -2938    -2917    -2956    -2997    -2995    -2998 
   -3001    -2988    -3005    -3046    -3059    -3037    -3028    -3025 
   -3005    -2997    -3003    -2979    -2943    -2943    -2959    -2964 
   -2970    -2970    -2975    -3013    -3049    -3032    -2992    -2971 
   -2955    -2944    -2940    -2910    -2883    -2926    -3018    -3068 
   -3052    -3026    -3038    -3069    -3065    -3028    -2997    -2955 
   -2937    -3002    -3061    -3038    -2987    -2948    -2924    -2914 
   -2902    -2891    -2924    -3002    -3057    -3053    -3046    -3065 
   -3073    -3056    -3009    -2938    -2895    -2898    -2918    -2928 
   -2920    -2907    -2905    -2922    -2957    -2956    -2916    -2891 
   -2903    -2911    -2907    -2955    -3036    -3044    -3010    -3033 
   -3067    -3030    -2955    -2911    -2901    -2897    -2924    -2964 
   -2948    -2917    -2957    -3026    -3065    -3073    -3056    -3042 
   -3029    -2980    -2944    -2956    -2994    -3018    -3001    -2980 
   -3002    -3030    -3038    -3038    -3026    -3005    -2974    -2941 
   -2929    -2924    -2911    -2936    -3001    -3038    -3036    -3025 
   -3006    -2995    -3006    -2995    -2937    -2884    -2889    -2926 
   -2947    -2951    -2975    -3003    -2999    -2961    -2916    -2872 
   -2855    -2897    -2944    -2933    -2922    -2963    -2992    -2999 
   -3049    -3106    -3084    -3030    -3003    -2990    -2980    -2963 
   -2911    -2866    -2895    -2951    -2957    -2978    -3030    -3036 
   -3019    -3028    -3009    -2957    -2955    -3017    -3064    -3042 
   -3002    -2971    -2940    -2955    -3010    -3030    -3025    -3001 
   -2948    -2971    -3057    -3052    -2984    -2974    -2978    -2974 
   -2984    -2952    -2898    -2929    -3009    -3036    -3049    -3061 
   -3017    -2983    -3009    -2988    -2917    -2903    -2941    -2957 
   -2955    -2948    -2934    -2936    -2957    -2959    -2947    -2963 
   -3006    -3051    -3042    -2960    -2874    -2863    -2932    -3005 
   -3007    -2940    -2880    -2903    -2975    -2992    -2955    -2933 
   -2932    -2924    -2907    -2889    -2894    -2956    -3038    -3087 
   -3057    -2994    -3011    -3088    -3107    -3067    -3025    -3010 
   -3014    -3011    -3001    -2990    -2986    -2999    -2987    -2922 
   -2880    -2924    -3007    -3064    -3060    -3011    -2967    -2972 
   -3021    -3049    -3015    -2951    -2917    -2944    -2990    -2992 
   -2961    -2926    -2887    -2860    -2876    -2922    -2948    -2967 
   -3018    -3055    -3056    -3082    -3092    -3067    -3064    -3051 
   -2976    -2903    -2866    -2879    -2965    -3028    -2967    -2887 
   -2926    -3034    -3090    -3080    -3059    -3044    -3025    -3002 
   -2982    -2960    -2940    -2953    -2990    -2980    -2957    -2982 
   -3011    -3014    -2980    -2910    -2875    -2916    -2974    -2984 
   -2956    -2933    -2934    -2975    -3048    -3069    -3019    -2965 
   -2922    -2901    -2925    -2930    -2893    -2891    -2914    -2897 
   -2913    -2998    -3049    -3038    -3026    -3018    -3002    -3013 
   -3057    -3076    -3026    -2936    -2880    -2880    -2884    -2882 
   -2925    -2995    -3019    -2988    -2943    -2933    -2975    -3024 
   -3040    -3045    -3010    -2936    -2956    -3069    -3091    -3003 
   -2953    -2970    -2995    -3003    -3014    -3040    -3046    -3022 
   -2991    -2988    -3030    -3064    -3063    -3072    -3052    -2955 
   -2889    -2924    -2970    -2964    -2944    -2949    -2963    -2955 
   -2951    -2951    -2921    -2884    -2901    -2970    -3030    -3022 
   -2965    -2932    -2934    -2936    -2933    -2938    -2922    -2889 
   -2893    -2951    -3015    -3049    -3048    -3032    -3029    -3014 
   -2955    -2894    -2891    -2933    -2978    -3010    -3002    -2956 
   -2972    -3069    -3113    -3076    -3032    -2982    -2947    -2960 
   -2968    -2926    -2890    -2916    -2941    -2924    -2955    -3044 
   -3079    -3056    -3029    -2999    -2967    -2944    -2937    -2953 
   -2999    -3044    -3037    -3024    -3036    -3024    -2994    -2968 
   -2918    -2879    -2899    -2968    -3032    -3034    -3011    -3021 
   -3014    -2965    -2940    -2928    -2899    -2902    -2953    -2983 
   -2967    -2967    -2990    -2975    -2948    -2965    -2979    -2956 
   -2959    -2992    -2998    -2991    -3006    -3010    -2975    -2928 
   -2903    -2940    -3009    -3010    -2957    -2944    -2967    -2967 
   -2922    -2866    -2849    -2868    -2925    -3013    -3063    -3046 
   -3001    -2986    -3025    -3046    -2984    -2909    -2918    -2982 
   -3011    -2975    -2913    -2901    -2971    -3063    -3061    -2960 
   -2883    -2883    -2910    -2925    -2920    -2917    -2951    -2999 
   -3007    -2998    -3051    -3133    -3175    -3188    -3167    -3105 
   -3083    -3114    -3110    -3073    -3045    -3003    -2947    -2901 
   -2867    -2848    -2862    -2897    -2930    -2960    -2994    -3021 
   -3040    -3046    -3005    -2937    -2895    -2879    -2874    -2874 
   -2853    -2828    -2829    -2853    -2878    -2874    -2867    -2910 
   -2976    -2998    -2971    -2930    -2926    -2974    -3025    -3013 
   -2943    -2928    -2995    -3060    -3115    -3168    -3172    -3150 
   -3149    -3156    -3164    -3175    -3163    -3119    -3069    -3018 
   -2968    -2960    -2986    -3005    -3018    -3017    -2963    -2875 
   -2801    -2755    -2737    -2740    -2766    -2832    -2943    -3053 
   -3127    -3176    -3184    -3115    -3010    -2928    -2870    -2809 
   -2752    -2754    -2839    -2943    -3006    -3005    -2947    -2899 
   -2914    -2953    -2968    -2992    -3048    -3092    -3107    -3110 
   -3087    -3038    -3024    -3068    -3109    -3114    -3125    -3153 
   -3172    -3176    -3152    -3067    -2934    -2813    -2782    -2860 
   -2945    -2938    -2848    -2708    -2616    -2673    -2806    -2889 
   -2895    -2859    -2845    -2911    -3005    -3036    -2999    -2980 
   -3015    -3055    -3082    -3123    -3127    -3068    -2988    -2882 
   -2762    -2713    -2760    -2836    -2874    -2895    -2934    -2988 
   -3078    -3156    -3146    -3121    -3181    -3284    -3327    -3291 
   -3227    -3161    -3091    -3051    -3045    -3029    -2999    -2955 
   -2875    -2817    -2852    -2933    -2972    -2941    -2848    -2736 
   -2709    -2839    -3053    -3188    -3122    -2934    -2863    -2980 
   -3129    -3204    -3206    -3146    -3073    -3022    -2936    -2809 
   -2736    -2748    -2781    -2830    -2911    -2970    -3009    -3082 
   -3137    -3095    -3003    -2940    -2941    -2972    -2936    -2835 
   -2787    -2848    -2991    -3117    -3130    -3084    -3086    -3114 
   -3082    -3007    -2976    -2995    -3030    -3083    -3168    -3256 
   -3252    -3102    -2899    -2808    -2836    -2859    -2801    -2713 
   -2700    -2741    -2763    -2805    -2893    -2940    -2940    -2949 
   -2968    -2988    -3007    -3030    -3053    -3055    -3029    -2972 
   -2894    -2835    -2779    -2724    -2759    -2886    -2961    -2933 
   -2862    -2797    -2820    -2955    -3076    -3096    -3078    -3098 
   -3165    -3218    -3218    -3159    -3056    -2990    -3003    -2991 
   -2910    -2882    -2971    -3071    -3072    -3014    -2991    -3022 
   -3044    -3030    -3019    -3014    -2968    -2934    -2984    -3048 
   -3069    -3069    -3015    -2914    -2903    -3045    -3225    -3311 
   -3265    -3117    -2975    -2972    -3117    -3237    -3202    -3041 
   -2853    -2751    -2756    -2731    -2621    -2582    -2673    -2752 
   -2756    -2772    -2860    -2960    -3007    -3002    -2978    -2970 
   -3002    -3068    -3145    -3156    -3059    -2952    -2928    -2926 
   -2843    -2712    -2689    -2828    -3013    -3107    -3119    -3173 
   -3273    -3310    -3245    -3096    -2932    -2867    -2925    -3041 
   -3141    -3164    -3092    -2972    -2902    -2891    -2867    -2860 
   -2921    -3005    -3090    -3177    -3233    -3253    -3262    -3218 
   -3059    -2856    -2745    -2718    -2662    -2562    -2543    -2690 
   -2925    -3090    -3109    -3030    -2947    -2936    -2936    -2853 
   -2755    -2751    -2836    -2932    -2978    -3032    -3173    -3356 
   -3446    -3380    -3204    -3038    -2968    -2974    -2956    -2884 
   -2839    -2891    -2994    -3065    -3098    -3045    -2856    -2677 
   -2655    -2717    -2793    -2902    -2988    -3019    -2983    -2903 
   -2916    -3013    -3019    -2982    -3003    -3001    -2968    -2975 
   -2986    -3015    -3117    -3192    -3118    -2937    -2803    -2825 
   -2971    -3099    -3083    -2944    -2871    -2930    -2971    -2968 
   -3005    -2976    -2879    -2921    -3084    -3167    -3125    -3025 
   -2945    -2974    -3092    -3163    -3111    -3021    -3013    -3118 
   -3241    -3223    -3049    -2894    -2903    -3010    -3017    -2868 
   -2713    -2691    -2797    -2938    -2994    -2911    -2803    -2830 
   -2999    -3171    -3203    -3102    -2995    -2951    -2929    -2903 
   -2883    -2893    -2920    -2945    -2975    -2960    -2902    -2921 
   -2998    -3011    -2995    -3029    -3109    -3207    -3238    -3184 
   -3153    -3123    -3021    -2898    -2820    -2824    -2914    -3003 
   -3024    -2975    -2909    -2889    -2862    -2810    -2845    -2916 
   -2862    -2755    -2760    -2829    -2839    -2830    -2884    -2937 
   -2925    -2899    -2934    -3056    -3244    -3388    -3358    -3225 
   -3148    -3099    -2971    -2808    -2722    -2744    -2833    -2920 
   -2916    -2841    -2864    -2986    -2983    -2878    -2857    -2909 
   -2975    -3049    -3067    -3046    -3079    -3163    -3249    -3311 
   -3304    -3215    -3123    -3091    -3083    -3038    -2970    -2930 
   -2905    -2875    -2878    -2879    -2829    -2768    -2740    -2781 
   -2895    -2990    -3006    -3006    -3055    -3113    -3114    -3069 
   -3029    -3005    -3002    -3001    -2959    -2890    -2836    -2775 
   -2718    -2786    -2957    -3038    -2976    -2886    -2871    -2970 
   -3073    -3083    -3057    -3013    -2916    -2812    -2741    -2732 
   -2816    -2983    -3164    -3213    -3088    -2978    -3001    -3072 
   -3134    -3192    -3223    -3188    -3086    -2991    -2978    -3013 
   -3003    -2911    -2835    -2871    -2914    -2840    -2763    -2835 
   -2991    -3118    -3168    -3107    -3003    -3011    -3090    -3107 
   -3082    -3022    -2925    -2870    -2843    -2835    -2944    -3096 
   -3113    -3045    -3038    -3073    -3107    -3159    -3203    -3171 
   -3076    -2976    -2914    -2934    -2975    -2911    -2791    -2732 
   -2739    -2787    -2875    -2965    -3015    -3029    -3059    -3094 
   -3040    -2925    -2884    -2938    -2999    -3017    -2961    -2875 
   -2848    -2872    -2852    -2826    -2893    -2980    -3028    -3100 
   -3134    -3038    -2971    -3015    -3026    -2956    -2867    -2774 
   -2716    -2748    -2832    -2898    -2941    -2972    -2963    -2940 
   -2992    -3073    -3067    -3030    -3067    -3105    -3052    -2964 
   -2948    -3014    -3038    -2924    -2755    -2686    -2776    -2925 
   -2992    -3011    -3056    -3079    -3086    -3114    -3106    -3048 
   -3005    -2983    -2978    -2995    -3011    -2987    -2932    -2928 
   -3046    -3207    -3250    -3192    -3181    -3229    -3195    -3053 
   -2920    -2878    -2905    -2928    -2897    -2868    -2909    -2970 
   -2955    -2868    -2860    -2991    -3082    -3028    -2929    -2867 
   -2874    -2956    -3048    -3075    -3032    -2949    -2907    -3009 
   -3165    -3186    -3115    -3088    -3107    -3169    -3215    -3145 
   -3033    -2978    -2940    -2898    -2856    -2786    -2714    -2691 
   -2720    -2747    -2728    -2714    -2763    -2824    -2884    -2988 
   -3079    -3096    -3078    -3040    -2987    -3005    -3087    -3091 
   -3005    -2951    -2901    -2798    -2756    -2824    -2879    -2884 
   -2897    -2899    -2907    -2992    -3082    -3084    -3059    -3025 
   -2945    -2902    -2987    -3134    -3196    -3130    -3021    -2956 
   -2945    -2972    -3006    -2990    -2934    -2917    -2949    -3001 
   -3094    -3207    -3261    -3235    -3145    -3010    -2913    -2928 
   -2974    -2961    -2922    -2886    -2856    -2876    -2940    -2956 
   -2902    -2860    -2872    -2891    -2907    -2957    -3018    -3037 
   -3026    -3019    -3017    -3018    -3026    -2991    -2922    -2907 
   -2936    -2929    -2907    -2925    -2978    -3036    -3072    -3065 
   -3051    -3111    -3219    -3204    -3046    -2943    -2970    -2992 
   -2955    -2922    -2940    -3009    -3115    -3172    -3118    -3053 
   -3057    -3055    -3007    -2978    -2959    -2905    -2878    -2944 
   -3032    -3046    -2986    -2902    -2874    -2907    -2930    -2911 
   -2890    -2905    -2926    -2906    -2847    -2813    -2855    -2920 
   -2953    -2976    -3003    -3028    -3028    -2961    -2871    -2840 
   -2884    -2938    -2930    -2868    -2845    -2924    -3025    -3055 
   -3068    -3113    -3086    -3011    -3015    -3048    -3049    -3040 
   -2997    -2953    -2940    -2880    -2813    -2826    -2884    -2944 
   -2995    -3040    -3076    -3075    -3071    -3092    -3064    -3002 
   -2987    -3002    -2995    -2960    -2887    -2805    -2799    -2866 
   -2910    -2956    -3037    -3056    -3010    -2991    -2999    -2992 
   -2976    -2970    -2979    -2998    -3032    -3071    -3079    -3059 
   -3049    -3063    -3100    -3119    -3044    -2913    -2851    -2890 
   -2948    -2947    -2910    -2909    -2960    -3015    -3011    -2984 
   -3034    -3137    -3156    -3051    -2937    -2930    -2979    -2982 
   -2938    -2907    -2911    -2938    -2955    -2944    -2943    -2974 
   -2990    -2976    -2983    -3006    -2986    -2926    -2895    -2947 
   -3042    -3076    -3033    -2997    -2974    -2937    -2925    -2940 
   -2913    -2847    -2790    -2785    -2847    -2920    -2963    -2999 
   -3034    -3053    -3036    -2964    -2889    -2855    -2863    -2924 
   -3025    -3075    -3006    -2895    -2875    -2952    -3009    -2956 
