Origin Time       2025/03/30 21:30:00
Lat.              38.535
Long.             142.295
Depth. (km)       44
Mag.              4.3
Station Code      IWTH04
Station Lat.      39.1809
Station Long.     141.3909
Station Height(m) 620
Record Time       2025/03/30 21:31:26
Sampling Freq(Hz) 100Hz
Duration Time(s)  120
Dir.              6
Scale Factor      7845(gal)/8223790
Max. Acc. (gal)   1.811
Last Correction   2025/03/30 21:31:26
Memo.             
[...]
    2766     2770     2776     2770     2771     2772     2767     2771 
    2771     2767     2770     2768     2768     2770     2768     2770 
    2771     2772     2774     2770     2767     2771     2768     2770 
    2774     2768     2767     2772     2767     2767     2774     2768 
    2767     2772     2770     2771     2771     2767     2771     2771 
    2768     2772     2770     2770     2772     2767     2770     2774 
    2770     2772     2775     2770     2770     2771     2768     2775 
    2774     2771     2779     2775     2768     2774     2772     2768 
    2775     2774     2772     2775     2771     2772     2775     2770 
    2770     2772     2766     2763     2762     2758     2762     2767 
    2772     2772     2768     2776     2791     2793     2791     2786 
    2774     2764     2759     2762     2755     2728     2732     2770 
    2779     2778     2766     2678     2619     2743     2928     2972 
    2879     2751     2660     2675     2829     3025     3006     2705 
    2496     2702     3057     3028     2632     2438     2666     2947 
    2944     2717     2640     2816     2876     2718     2612     2567 
    2628     3038     3360     2864     2085     2286     3319     3673 
    2845     1966     2006     2852     3708     3460     2174     1737 
    2687     3285     2992     2868     2995     2656     2311     2798 
    3254     2740     2309     2783     2995     2447     2608     3519 
    3192     1973     2204     3306     3168     2543     2770     2903 
    2393     2316     2883     3148     2903     2695     2664     2718 
    2760     2583     2663     3412     3483     2249     1914     3015 
    3198     2631     2916     3002     2371     2404     2978     3014 
    2700     2675     2763     2656     2878     3397     3113     2365 
    2398     2710     2617     2632     2906     3087     2797     2228 
    2583     3618     3406     2270     2131     2781     3109     3061 
    2731     2462     2686     2770     2500     2789     3272     2782 
    2181     2776     3366     2729     2178     2778     3611     3503 
    2353     1655     2609     3510     2791     2234     3006     3271 
    2393     2251     3145     3271     2446     2270     3105     3569 
    2830     2034     2454     3206     2887     2343     2853     3284 
    2678     2493     3049     2812     2172     2501     3241     3319 
    2787     2365     2563     2959     2903     2624     2501     2624 
    2982     3044     2706     2677     2787     2725     3040     3241 
    2596     2245     2683     2797     2720     2920     2867     2843 
    2965     2646     2492     2749     2712     2775     3056     2786 
    2485     2857     3098     2685     2479     2778     2729     2543 
    2926     3076     2702     2763     2934     2494     2295     2945 
    3426     2951     2223     2139     2790     3510     3254     2377 
    2393     2926     2843     2818     3152     2947     2394     2428 
    2910     2998     2616     2407     2579     2849     3078     3115 
    2771     2488     2799     3115     2708     2285     2755     3250 
    2818     2454     2772     2866     2682     2870     3100     2764 
    2243     2365     2986     3349     3252     2798     2354     2448 
    2791     2798     2660     2776     2952     2789     2656     3015 
    3078     2479     2346     2814     2994     2856     2562     2295 
    2651     3358     3433     2728     2150     2486     3096     3024 
    2867     3028     2619     2069     2612     3285     2748     2157 
    2652     3164     2914     2673     2910     3080     2806     2609 
    2835     2901     2601     2637     2891     2571     2278     2839 
    3365     3072     2509     2246     2579     3318     3391     2628 
    2327     2737     2907     2744     2644     2660     2826     3003 
    2955     2762     2581     2569     2911     3222     2805     2077 
    2211     3042     3280     2836     2729     2821     2438     2475 
    3257     3079     2231     2743     3561     2971     2312     2544 
    2678     2609     2890     3086     2756     2434     2686     3034 
    2741     2355     2813     3499     3157     2204     2164     3029 
    3227     2504     2458     3163     3029     2490     2739     2916 
    2525     2616     3180     3106     2471     2270     2558     2775 
    2926     3094     2982     2747     2843     2886     2506     2312 
    2601     2951     3160     3071     2612     2393     2786     3184 
    3094     2651     2282     2478     3038     3075     2571     2490 
    2891     2978     2830     2926     2894     2523     2504     2898 
    2882     2632     2907     3113     2635     2353     2678     2937 
    3003     2918     2598     2517     2708     2752     2860     3078 
    3053     2837     2624     2577     2794     2970     2775     2413 
    2334     2608     2924     3068     3034     2830     2774     3026 
    2924     2412     2380     2770     2965     2971     2787     2508 
    2606     2925     2916     2874     2992     2687     2332     2741 
    3049     2610     2575     3078     2949     2551     2801     3102 
    2821     2423     2459     2889     3024     2556     2420     3014 
    3281     2841     2624     2875     2785     2350     2467     3032 
    3078     2697     2610     2704     2674     2740     2961     3011 
    2836     2720     2737     2722     2586     2459     2585     3014 
    3315     3055     2631     2623     2751     2717     2727     2627 
    2455     2756     3051     2794     2735     2916     2837     2926 
    2978     2539     2466     2918     2857     2515     2817     3156 
    2674     2420     3092     3191     2413     2304     2789     2956 
    3019     2979     2609     2532     2964     3034     2513     2326 
    2714     2911     2787     2840     3002     2933     2705     2681 
    2841     2781     2691     2802     2713     2636     2910     2918 
    2605     2695     2909     2629     2471     2895     3083     2771 
    2631     2762     2828     2789     2803     2833     2614     2388 
    2602     3055     3204     2882     2617     2849     3018     2743 
    2631     2762     2563     2369     2748     3180     2975     2334 
    2220     3056     3630     3079     2466     2679     2990     2583 
    2234     2890     3318     2502     2149     2934     3065     2532 
    2829     3319     2883     2370     2614     2991     2930     2762 
    2624     2436     2575     3099     3437     3088     2182     1791 
    2650     3589     3304     2648     2644     2690     2697     3052 
    2970     2393     2315     2664     3024     3137     2556     2120 
    2803     3303     2770     2569     2960     2982     2874     2970 
    2794     2417     2417     2810     3106     3028     2668     2234 
    2303     3129     3520     2814     2340     2732     3033     2970 
    2812     2528     2497     2870     2956     2612     2538     2845 
    3011     2959     2857     2560     2301     2735     3348     3067 
    2548     2612     2639     2741     3165     2911     2257     2377 
    2818     2937     2991     2988     2749     2539     2623     2631 
    2448     2826     3469     3088     2289     2465     3007     3080 
    2955     2631     2300     2651     3261     3119     2554     2458 
    2686     2778     2874     2949     2737     2654     2922     2844 
    2465     2583     2967     2960     2718     2651     2776     2806 
    2744     2889     3013     2786     2465     2551     3105     3180 
    2425     2177     2914     3343     2863     2424     2679     2948 
    2812     2751     2754     2473     2239     2697     3657     3739 
    2550     1911     2627     3167     2797     2390     2598     3121 
    3107     2600     2592     2890     2592     2327     2901     3267 
    2740     2582     3082     2986     2506     2656     2960     2727 
    2466     2693     2943     2787     2597     2749     2974     2828 
    2679     2926     2914     2544     2673     3046     2983     2782 
    2559     2299     2540     3005     2866     2556     2795     3083 
    2910     2863     3121     2851     2284     2520     3010     2810 
    2666     2759     2394     2473     3353     3423     2656     2493 
    2754     2635     2469     2802     3227     3001     2442     2412 
    2847     3215     3102     2447     2172     2683     2968     2901 
    3018     2824     2459     2679     2979     3033     3123     2785 
    2170     2281     2924     3256     3096     2592     2246     2654 
    3296     3169     2506     2239     2463     2704     2905     3076 
    2924     2677     2763     2990     3113     2960     2540     2501 
    2833     2646     2236     2600     3300     3277     2701     2539 
    2801     2778     2659     2867     2916     2632     2673     3072 
    3021     2465     2366     2833     2941     2637     2674     2968 
    2894     2681     2772     2864     2805     2828     2882     2755 
    2505     2527     2725     2590     2623     3198     3208     2562 
    2613     3195     3265     2894     2397     2178     2701     3154 
    2808     2451     2636     3005     3010     2594     2598     3011 
    2839     2513     2851     3026     2608     2575     2983     3007 
    2683     2407     2439     2970     3422     3069     2452     2415 
    2778     3017     2886     2569     2542     2637     2543     2756 
    3150     2868     2335     2512     3092     3321     3140     2768 
    2435     2539     2793     2578     2486     2924     3084     2874 
    2763     2660     2654     2849     2880     2727     2814     3055 
    2894     2419     2340     2791     3148     3102     2790     2425 
    2523     3056     3115     2570     2259     2559     3100     3269 
    2880     2466     2381     2550     3030     3472     3194     2524 
    2344     2700     3042     2988     2620     2382     2523     2702 
    2643     2748     2997     2821     2639     2938     2982     2482 
    2397     3033     3329     2802     2424     2828     3231     2916 
    2551     2708     2686     2481     2872     3180     2589     2091 
    2527     3179     3213     2710     2359     2583     2953     3025 
    3049     3176     3037     2516     2381     3011     3260     2559 
    2168     2543     2698     2663     2906     2820     2552     2764 
    2829     2627     2963     3352     2953     2397     2610     3141 
    2920     2371     2627     3005     2625     2471     2798     2775 
    2787     2913     2651     2727     3248     3125     2492     2241 
    2496     3011     3302     2871     2245     2301     2891     3179 
    2749     2404     2918     3403     3148     2759     2513     2567 
    3130     3225     2278     1784     2593     3225     2910     2783 
    3002     2701     2354     2709     3225     3141     2625     2575 
    3079     3053     2423     2412     3005     3017     2675     2767 
    2570     1965     2365     3406     3352     2782     2884     2876 
    2612     2844     2895     2556     2727     2895     2509     2592 
    3121     2833     2309     2837     3429     2952     2351     2353 
    2550     2907     3327     3098     2373     2219     2752     3275 
    3375     2816     2120     2326     3013     2983     2571     2785 
    3113     2600     2081     2791     3813     3539     2281     1705 
    2490     3364     3083     2385     2405     2821     2883     2826 
    2982     2770     2284     2744     3765     3584     2493     2035 
    2340     2803     2911     2477     2212     2562     2984     3222 
    3276     2930     2627     2852     3061     2859     2637     2539 
    2527     2748     3001     3014     2880     2602     2281     2425 
    3002     3214     2816     2539     2880     3325     3125     2443 
    2245     2812     3123     2721     2481     2818     3249     3160 
    2435     2085     2643     3033     2916     3045     3095     2515 
    2162     2654     3073     2822     2620     2862     3017     2874 
    2837     3102     3222     2890     2481     2281     2500     3298 
    3739     2925     1919     2018     2478     2303     2304     3098 
    3466     2856     2461     2641     2679     2700     3137     3411 
    2774     1873     1977     2940     3335     2620     2103     2635 
    3007     2593     2407     2609     2718     2870     2701     2089 
    2081     2589     2621     2866     3870     4139     3130     2459 
    2978     3835     4083     3495     2371     1613     2076     2890 
    2808     2474     2408     2076     1865     2173     2689     3439 
    4044     3883     3261     2863     3184     3847     3632     2805 
    2679     2668     1987     1763     2303     2662     2677     2276 
    1622     1618     2182     2438     2513     3115     4110     4581 
    4224     3626     3021     2577     2666     2623     1837     1274 
    1707     2450     2560     2054     1931     2721     3547     3896 
    4158     3936     3013     2578     3056     3246     2511     1768 
    1718     1780     1989     3115     4220     3832     2621     2073 
    2363     2660     2586     2781     3312     3311     2953     2880 
    2623     2328     2874     3289     2497     2020     2805     3310 
    3144     3287     3206     2438     2141     2475     2413     2241 
    2763     3488     3622     3230     2558     1641     1181     1984 
    3272     3923     4064     3657     2629     2020     2349     3103 
    3804     3638     2478     1825     2407     2802     1883      874 
    1432     2964     3763     3500     3021     2698     2447     2786 
    3717     3908     3241     2941     2884     2605     2527     2598 
    2567     2488     2431     2664     2793     2290     2203     3080 
    3497     2988     2876     3640     4018     2948     1436     1266 
    2315     3206     3424     3211     2728     2245     2344     2937 
    3051     2666     2767     3171     3110     2967     3106     3218 
    3191     2874     2347     2097     2047     2038     2380     3041 
    3369     2637     1425     1533     3072     4310     4430     3781 
    3114     2928     2488     1622     1719     2706     2789     1973 
    2029     2964     3095     2415     2378     3091     3595     3580 
    3288     3037     2979     2911     2787     2760     2482     1800 
    1575     2218     2928     3057     2762     2608     2975     3376 
    3152     2797     3071     3551     3557     3072     2245     1761 
    2423     3169     2756     2354     2816     2967     2567     2741 
    3473     3429     2427     1998     2467     2581     2448     2963 
    3384     2897     2319     2376     2735     2955     2731     2377 
    2882     3786     3662     2932     2500     2085     2007     2647 
    3123     2980     2760     2694     2659     2798     3164     3276 
    2868     2594     2840     2970     2763     2740     2700     2309 
    2373     3086     3292     2932     2883     2902     2631     2610 
    2849     2798     2673     2693     2502     2327     2482     2569 
    2506     2760     3418     3767     3238     2548     2497     2527 
    2288     2546     3100     2772     2026     2222     3053     3362 
    3121     3049     3036     2546     2269     2868     3257     2805 
    2501     2501     2459     2936     3379     2647     1814     2249 
    2948     2782     2596     2952     3026     2887     3144     3288 
    3052     2716     2282     2230     2809     3140     2872     2593 
    2496     2548     2786     2910     2708     2589     2913     3167 
    2875     2567     2690     2984     3106     2917     2664     2758 
    2882     2542     2259     2376     2519     2957     3591     3392 
    2619     2400     2789     3393     3748     3130     2038     1887 
    2592     2963     2874     2735     2419     2232     2664     3119 
    3053     2918     2909     2739     2678     2975     3076     2704 
    2405     2577     2948     2978     2712     2794     3061     2871 
    2590     2570     2548     2668     2872     2771     2560     2446 
    2440     2737     3132     3179     3019     2975     2866     2678 
    2911     3180     2782     2478     2749     2767     2438     2334 
    2458     2575     2654     2747     2683     2523     2822     3357 
    3222     2718     2835     3240     2960     2255     2272     2997 
    3057     2397     2511     3257     3156     2421     2378     3055 
    3360     2847     2242     2197     2431     2623     2970     3308 
    3187     2866     2783     2745     2695     3019     3433     3075 
    2212     2045     2523     2586     2444     2890     3408     3141 
    2515     2616     3148     2879     2340     2701     3275     3156 
    2633     2330     2704     3237     2978     2405     2403     2601 
    2601     2805     3231     3107     2295     2068     2878     3257 
    2926     3129     3358     2589     1935     2457     3215     3260 
    2895     2551     2458     2794     3018     2755     2624     2710 
    2438     2116     2436     3144     3538     3388     2916     2681 
    2876     2884     2601     2605     2664     2412     2524     2988 
    2758     2112     2176     2762     3069     2965     2724     2760 
    3294     3676     3254     2469     2004     2049     2575     3169 
    3221     2717     2299     2493     3022     3225     3068     2938 
    2829     2617     2598     2845     2910     2686     2532     2670 
    2891     2853     2790     2949     2909     2704     2716     2597 
    2509     3029     3353     2906     2512     2349     2151     2390 
    2975     3248     3312     3241     2745     2245     2311     2786 
    3221     3271     2878     2446     2407     2610     2736     2785 
    2766     2797     3009     2978     2515     2382     2871     3226 
    3109     2822     2598     2635     2878     2891     2650     2632 
    2679     2448     2555     3161     3281     2775     2528     2748 
    2867     2508     2083     2226     2667     2824     2816     2963 
    3279     3495     3326     2934     2598     2382     2482     2828 
    2918     2749     2663     2566     2496     2658     2704     2637 
    2855     2884     2581     2682     3076     3300     3416     3199 
    2678     2388     2378     2509     2693     2754     2674     2488 
    2592     3183     3348     2778     2446     2613     2782     2922 
    3083     2916     2560     2662     2913     2579     2192     2479 
    2994     3160     3098     3013     2886     2727     2590     2581 
    2795     3029     2914     2565     2606     3075     3175     2782 
    2505     2574     2713     2506     2334     2864     3291     2863 
    2535     2779     2897     2762     2683     2628     2624     2812 
    2944     2806     2767     2886     2825     2797     2839     2654 
    2556     2714     2794     2767     2749     2605     2382     2496 
    2872     2922     2710     2785     3095     3126     2916     2937 
    2905     2490     2405     2876     3024     2643     2470     2745 
    3071     3071     2679     2365     2600     3059     3175     2937 
    2678     2502     2393     2536     2794     2754     2659     2856 
    3082     3113     3069     3092     3063     2847     2627     2474 
    2357     2504     2828     2909     2772     2806     3049     3130 
