Origin Time       2025/03/30 21:30:00
Lat.              38.535
Long.             142.295
Depth. (km)       44
Mag.              4.3
Station Code      IWTH26
Station Lat.      38.9690
Station Long.     141.0013
Station Height(m) 17.5
Record Time       2025/03/30 21:31:30
Sampling Freq(Hz) 100Hz
Duration Time(s)  120
Dir.              1
Scale Factor      3923(gal)/8224838
Max. Acc. (gal)   0.442
Last Correction   2025/03/30 21:31:30
Memo.             
[...]
   -6593    -6588    -6586    -6590    -6565    -6527    -6490    -6471 
   -6486    -6507    -6516    -6529    -6542    -6540    -6528    -6521 
   -6539    -6567    -6570    -6540    -6517    -6515    -6539    -6606 
   -6640    -6592    -6543    -6542    -6562    -6573    -6543    -6486 
   -6459    -6466    -6494    -6521    -6532    -6551    -6563    -6556 
   -6571    -6578    -6539    -6524    -6540    -6540    -6544    -6558 
   -6552    -6515    -6481    -6502    -6573    -6633    -6640    -6588 
   -6528    -6490    -6461    -6453    -6478    -6505    -6511    -6519 
   -6524    -6502    -6501    -6544    -6574    -6579    -6594    -6601 
   -6582    -6559    -6554    -6563    -6571    -6562    -6532    -6502 
   -6475    -6471    -6509    -6544    -6547    -6538    -6524    -6521 
   -6532    -6534    -6523    -6516    -6527    -6556    -6573    -6574 
   -6577    -6574    -6582    -6596    -6583    -6562    -6540    -6511 
   -6496    -6484    -6477    -6498    -6529    -6559    -6590    -6598 
   -6578    -6550    -6543    -6577    -6610    -6598    -6544    -6484 
   -6475    -6517    -6540    -6547    -6569    -6579    -6567    -6550 
   -6509    -6488    -6525    -6567    -6565    -6531    -6490    -6478 
   -6509    -6538    -6538    -6527    -6523    -6527    -6550    -6565 
   -6552    -6540    -6543    -6555    -6574    -6597    -6605    -6547 
   -6453    -6428    -6486    -6556    -6596    -6593    -6566    -6546 
   -6529    -6524    -6534    -6544    -6534    -6496    -6481    -6529 
   -6594    -6615    -6596    -6571    -6550    -6513    -6481    -6480 
   -6486    -6473    -6475    -6539    -6619    -6640    -6608    -6585 
   -6593    -6586    -6547    -6497    -6465    -6471    -6490    -6481 
   -6480    -6520    -6569    -6593    -6590    -6577    -6573    -6571 
   -6559    -6548    -6551    -6546    -6519    -6500    -6525    -6585 
   -6628    -6637    -6636    -6625    -6594    -6569    -6567    -6558 
   -6496    -6419    -6405    -6451    -6501    -6523    -6498    -6455 
   -6458    -6509    -6544    -6558    -6619    -6685    -6690    -6667 
   -6643    -6600    -6561    -6552    -6555    -6521    -6461    -6436 
   -6471    -6519    -6539    -6547    -6550    -6535    -6486    -6423 
   -6413    -6484    -6547    -6547    -6529    -6548    -6589    -6597 
   -6575    -6574    -6573    -6534    -6481    -6469    -6511    -6555 
   -6555    -6534    -6529    -6544    -6544    -6521    -6519    -6552 
   -6579    -6555    -6513    -6509    -6524    -6511    -6478    -6475 
   -6520    -6569    -6575    -6546    -6521    -6529    -6550    -6556 
   -6554    -6569    -6578    -6543    -6494    -6466    -6438    -6432 
   -6474    -6520    -6561    -6610    -6633    -6606    -6566    -6566 
   -6609    -6623    -6561    -6490    -6462    -6470    -6520    -6575 
   -6588    -6570    -6562    -6586    -6629    -6636    -6581    -6511 
   -6475    -6473    -6477    -6481    -6494    -6515    -6538    -6554 
   -6548    -6535    -6527    -6519    -6534    -6579    -6605    -6577 
   -6554    -6583    -6608    -6597    -6582    -6567    -6548    -6538 
   -6520    -6497    -6474    -6463    -6494    -6534    -6535    -6515 
   -6508    -6509    -6494    -6488    -6525    -6579    -6590    -6583 
   -6608    -6623    -6574    -6505    -6477    -6490    -6527    -6567 
   -6590    -6582    -6561    -6563    -6605    -6621    -6570    -6520 
   -6517    -6529    -6534    -6534    -6525    -6507    -6470    -6447 
   -6492    -6575    -6615    -6586    -6550    -6548    -6554    -6535 
   -6512    -6504    -6488    -6457    -6442    -6480    -6547    -6590 
   -6604    -6598    -6573    -6566    -6596    -6596    -6555    -6534 
   -6523    -6486    -6457    -6450    -6462    -6513    -6570    -6578 
   -6579    -6593    -6583    -6563    -6562    -6578    -6592    -6566 
   -6512    -6481    -6482    -6493    -6500    -6513    -6547    -6573 
   -6581    -6578    -6542    -6498    -6507    -6542    -6570    -6582 
   -6563    -6532    -6528    -6547    -6556    -6570    -6590    -6581 
   -6562    -6558    -6555    -6544    -6542    -6561    -6566    -6528 
   -6496    -6508    -6523    -6515    -6511    -6528    -6535    -6523 
   -6528    -6540    -6528    -6511    -6500    -6482    -6486    -6529 
   -6573    -6582    -6567    -6540    -6517    -6511    -6515    -6532 
   -6567    -6596    -6602    -6608    -6608    -6581    -6552    -6550 
   -6555    -6552    -6543    -6523    -6508    -6521    -6539    -6543 
   -6547    -6552    -6548    -6540    -6546    -6563    -6567    -6571 
   -6593    -6571    -6515    -6501    -6519    -6517    -6511    -6517 
   -6509    -6501    -6527    -6550    -6536    -6529    -6544    -6540 
   -6515    -6500    -6489    -6477    -6485    -6504    -6509    -6517 
   -6540    -6571    -6597    -6610    -6610    -6597    -6578    -6577 
   -6594    -6586    -6529    -6471    -6466    -6494    -6517    -6521 
   -6525    -6559    -6613    -6652    -6647    -6605    -6563    -6543 
   -6544    -6542    -6536    -6547    -6551    -6534    -6531    -6547 
   -6562    -6570    -6543    -6505    -6517    -6558    -6575    -6570 
   -6562    -6542    -6489    -6434    -6407    -6399    -6403    -6434 
   -6475    -6511    -6555    -6610    -6643    -6646    -6637    -6617 
   -6573    -6521    -6500    -6511    -6497    -6459    -6469    -6523 
   -6547    -6521    -6496    -6513    -6544    -6563    -6573    -6574 
   -6579    -6590    -6563    -6502    -6481    -6502    -6513    -6516 
   -6525    -6540    -6563    -6574    -6588    -6621    -6631    -6583 
   -6516    -6457    -6417    -6423    -6462    -6497    -6523    -6556 
   -6589    -6593    -6571    -6574    -6589    -6555    -6517    -6523 
   -6523    -6519    -6540    -6566    -6582    -6589    -6569    -6528 
   -6498    -6508    -6550    -6563    -6539    -6524    -6531    -6531 
   -6515    -6523    -6575    -6592    -6523    -6465    -6481    -6502 
   -6496    -6512    -6558    -6596    -6612    -6589    -6546    -6544 
   -6578    -6577    -6536    -6519    -6540    -6554    -6531    -6516 
   -6540    -6578    -6598    -6594    -6562    -6517    -6497    -6524 
   -6579    -6606    -6592    -6567    -6547    -6521    -6489    -6471 
   -6477    -6485    -6494    -6516    -6540    -6565    -6585    -6588 
   -6554    -6494    -6450    -6442    -6450    -6486    -6569    -6639 
   -6639    -6598    -6575    -6573    -6561    -6559    -6578    -6559 
   -6501    -6470    -6475    -6496    -6529    -6555    -6552    -6528 
   -6512    -6520    -6546    -6574    -6559    -6519    -6523    -6551 
   -6566    -6566    -6536    -6515    -6548    -6589    -6583    -6548 
   -6519    -6500    -6492    -6505    -6539    -6552    -6531    -6515 
   -6521    -6520    -6508    -6511    -6519    -6527    -6550    -6573 
   -6574    -6577    -6596    -6606    -6593    -6551    -6494    -6478 
   -6524    -6574    -6571    -6521    -6475    -6465    -6481    -6508 
   -6547    -6570    -6546    -6517    -6521    -6525    -6534    -6586 
   -6648    -6658    -6610    -6583    -6601    -6604    -6578    -6547 
   -6527    -6538    -6559    -6558    -6546    -6534    -6529    -6546 
   -6544    -6509    -6500    -6525    -6544    -6552    -6535    -6511 
   -6529    -6569    -6582    -6570    -6527    -6486    -6492    -6517 
   -6531    -6535    -6539    -6559    -6573    -6555    -6544    -6573 
   -6610    -6610    -6567    -6517    -6493    -6492    -6508    -6543 
   -6563    -6550    -6516    -6473    -6477    -6539    -6597    -6631 
   -6631    -6574    -6512    -6490    -6485    -6473    -6444    -6432 
   -6489    -6563    -6574    -6535    -6512    -6519    -6529    -6529 
   -6534    -6558    -6588    -6598    -6585    -6561    -6538    -6519 
   -6500    -6471    -6440    -6459    -6546    -6619    -6617    -6581 
   -6552    -6551    -6579    -6596    -6558    -6502    -6501    -6527 
   -6521    -6500    -6493    -6525    -6581    -6601    -6596    -6590 
   -6573    -6552    -6543    -6543    -6559    -6573    -6566    -6544 
   -6504    -6480    -6504    -6540    -6563    -6566    -6542    -6524 
   -6531    -6528    -6515    -6517    -6532    -6528    -6482    -6457 
   -6508    -6546    -6508    -6480    -6509    -6555    -6569    -6563 
   -6585    -6620    -6629    -6619    -6589    -6542    -6511    -6509 
   -6515    -6509    -6507    -6525    -6532    -6504    -6489    -6492 
   -6494    -6550    -6627    -6632    -6602    -6601    -6606    -6608 
   -6594    -6550    -6527    -6555    -6585    -6578    -6535    -6498 
   -6500    -6509    -6507    -6501    -6486    -6477    -6509    -6569 
   -6590    -6566    -6535    -6521    -6534    -6558    -6570    -6563 
   -6546    -6543    -6550    -6527    -6500    -6485    -6450    -6426 
   -6450    -6507    -6582    -6640    -6640    -6612    -6583    -6547 
   -6512    -6484    -6469    -6474    -6475    -6471    -6500    -6544 
   -6589    -6617    -6583    -6525    -6520    -6544    -6547    -6543 
   -6555    -6585    -6617    -6605    -6524    -6440    -6412    -6426 
   -6461    -6512    -6565    -6594    -6628    -6693    -6720    -6656 
   -6577    -6527    -6474    -6453    -6484    -6502    -6500    -6508 
   -6523    -6552    -6581    -6579    -6579    -6578    -6565    -6550 
   -6544    -6570    -6620    -6627    -6565    -6475    -6396    -6358 
   -6388    -6466    -6551    -6592    -6582    -6583    -6598    -6605 
   -6613    -6623    -6623    -6615    -6586    -6567    -6570    -6534 
   -6446    -6389    -6403    -6440    -6457    -6450    -6474    -6548 
   -6632    -6679    -6664    -6597    -6532    -6527    -6574    -6616 
   -6605    -6547    -6470    -6428    -6436    -6450    -6440    -6427 
   -6450    -6497    -6523    -6551    -6577    -6563    -6570    -6624 
   -6631    -6594    -6575    -6570    -6575    -6573    -6550    -6539 
   -6520    -6473    -6450    -6477    -6509    -6516    -6539    -6593 
   -6617    -6604    -6583    -6562    -6574    -6606    -6597    -6555 
   -6516    -6485    -6497    -6544    -6566    -6558    -6542    -6531 
   -6532    -6528    -6520    -6521    -6524    -6536    -6563    -6567 
   -6548    -6546    -6552    -6521    -6447    -6408    -6480    -6586 
   -6606    -6555    -6523    -6536    -6583    -6631    -6640    -6624 
   -6585    -6532    -6523    -6552    -6552    -6515    -6493    -6494 
   -6481    -6446    -6420    -6407    -6415    -6463    -6548    -6629 
   -6659    -6650    -6621    -6571    -6529    -6538    -6556    -6550 
   -6538    -6540    -6547    -6559    -6592    -6636    -6663    -6673 
   -6690    -6712    -6701    -6669    -6651    -6651    -6673    -6696 
   -6633    -6494    -6389    -6357    -6396    -6462    -6473    -6451 
   -6444    -6436    -6473    -6586    -6698    -6755    -6750    -6716 
   -6702    -6714    -6716    -6646    -6498    -6338    -6207    -6133 
   -6110    -6103    -6146    -6278    -6453    -6589    -6683    -6774 
   -6893    -6988    -6995    -6914    -6775    -6593    -6397    -6212 
   -6043    -5933    -5953    -6096    -6278    -6455    -6627    -6771 
   -6831    -6774    -6664    -6592    -6535    -6420    -6281    -6200 
   -6177    -6189    -6282    -6416    -6507    -6586    -6679    -6755 
   -6829    -6897    -6914    -6874    -6783    -6648    -6474    -6297 
   -6192    -6168    -6180    -6230    -6336    -6474    -6609    -6708 
   -6763    -6777    -6706    -6556    -6367    -6196    -6126    -6170 
   -6259    -6363    -6525    -6735    -6905    -6990    -7034    -7065 
   -7036    -6872    -6610    -6366    -6222    -6216    -6339    -6484 
   -6552    -6562    -6571    -6609    -6687    -6768    -6816    -6808 
   -6748    -6701    -6689    -6643    -6516    -6350    -6250    -6318 
   -6500    -6636    -6664    -6633    -6588    -6552    -6507    -6419 
   -6362    -6408    -6511    -6613    -6685    -6673    -6596    -6565 
   -6601    -6612    -6586    -6610    -6654    -6663    -6690    -6740 
   -6733    -6636    -6547    -6562    -6642    -6687    -6659    -6544 
   -6353    -6130    -5937    -5807    -5773    -5875    -6122    -6455 
   -6790    -7055    -7183    -7145    -6982    -6826    -6799    -6789 
   -6633    -6435    -6388    -6442    -6399    -6258    -6214    -6327 
   -6447    -6477    -6490    -6561    -6669    -6751    -6787    -6783 
   -6733    -6679    -6635    -6496    -6251    -6062    -6056    -6215 
   -6417    -6548    -6628    -6710    -6735    -6640    -6500    -6408 
   -6407    -6493    -6609    -6712    -6778    -6798    -6866    -7053 
   -7203    -7110    -6777    -6385    -6129    -6046    -6056    -6114 
   -6224    -6351    -6453    -6561    -6729    -6924    -6971    -6751 
   -6392    -6100    -5931    -5884    -5945    -6039    -6161    -6386 
   -6701    -6986    -7157    -7194    -7126    -7017    -6921    -6833 
   -6714    -6579    -6471    -6388    -6284    -6188    -6174    -6207 
   -6224    -6246    -6264    -6304    -6453    -6655    -6797    -6872 
   -6875    -6782    -6675    -6631    -6621    -6574    -6443    -6316 
   -6346    -6517    -6654    -6709    -6759    -6767    -6652    -6440 
   -6219    -6093    -6112    -6232    -6378    -6520    -6691    -6902 
   -7053    -7005    -6758    -6490    -6330    -6257    -6227    -6268 
   -6420    -6628    -6777    -6812    -6727    -6540    -6394    -6361 
   -6305    -6200    -6173    -6241    -6322    -6405    -6466    -6463 
   -6469    -6540    -6642    -6777    -6967    -7118    -7198    -7269 
   -7294    -7192    -6978    -6674    -6315    -5984    -5741    -5614 
   -5640    -5838    -6142    -6427    -6691    -7006    -7275    -7358 
   -7291    -7121    -6862    -6590    -6384    -6250    -6172    -6153 
   -6189    -6259    -6339    -6388    -6380    -6351    -6318    -6257 
   -6226    -6288    -6408    -6573    -6741    -6750    -6598    -6520 
   -6546    -6556    -6575    -6600    -6577    -6539    -6555    -6704 
   -6907    -6948    -6820    -6704    -6635    -6520    -6338    -6162 
   -6079    -6116    -6201    -6246    -6323    -6558    -6870    -7092 
   -7167    -7109    -6947    -6752    -6605    -6528    -6498    -6525 
   -6592    -6605    -6581    -6635    -6731    -6750    -6691    -6579 
   -6409    -6231    -6108    -6077    -6147    -6268    -6331    -6334 
   -6370    -6459    -6585    -6759    -6886    -6876    -6835    -6825 
   -6786    -6675    -6508    -6365    -6304    -6261    -6192    -6173 
   -6269    -6417    -6498    -6544    -6651    -6801    -6940    -6998 
   -6916    -6744    -6600    -6570    -6646    -6727    -6745    -6727 
   -6709    -6687    -6652    -6617    -6578    -6534    -6525    -6536 
   -6469    -6311    -6169    -6099    -6058    -6007    -5958    -5952 
   -5998    -6088    -6224    -6435    -6670    -6781    -6759    -6716 
   -6704    -6748    -6809    -6767    -6648    -6582    -6573    -6573 
   -6582    -6583    -6543    -6475    -6439    -6450    -6478    -6502 
   -6535    -6596    -6701    -6810    -6845    -6804    -6768    -6787 
   -6787    -6693    -6577    -6540    -6547    -6523    -6461    -6432 
   -6484    -6570    -6639    -6678    -6686    -6643    -6528    -6421 
   -6440    -6556    -6627    -6579    -6486    -6405    -6324    -6282 
   -6334    -6447    -6573    -6669    -6708    -6716    -6745    -6812 
   -6856    -6767    -6517    -6247    -6124    -6145    -6199    -6264 
   -6373    -6478    -6544    -6583    -6571    -6532    -6519    -6516 
   -6516    -6529    -6563    -6642    -6731    -6747    -6706    -6678 
   -6679    -6690    -6673    -6624    -6561    -6458    -6315    -6201 
   -6169    -6214    -6285    -6299    -6269    -6266    -6289    -6339 
   -6419    -6481    -6488    -6465    -6470    -6551    -6694    -6798 
   -6806    -6785    -6736    -6625    -6562    -6609    -6647    -6628 
   -6620    -6589    -6473    -6340    -6308    -6385    -6459    -6446 
   -6401    -6416    -6484    -6524    -6520    -6570    -6705    -6816 
   -6871    -6925    -6956    -6932    -6836    -6643    -6446    -6396 
   -6496    -6605    -6633    -6659    -6771    -6875    -6848    -6745 
   -6658    -6596    -6548    -6511    -6488    -6521    -6616    -6679 
   -6663    -6621    -6601    -6578    -6552    -6567    -6593    -6562 
   -6477    -6384    -6327    -6322    -6313    -6239    -6131    -6091 
   -6143    -6247    -6416    -6615    -6747    -6783    -6756    -6709 
   -6629    -6500    -6408    -6419    -6471    -6458    -6374    -6336 
   -6372    -6399    -6412    -6443    -6482    -6524    -6592    -6675 
   -6718    -6701    -6714    -6764    -6724    -6588    -6486    -6492 
   -6562    -6588    -6529    -6432    -6372    -6397    -6432    -6389 
   -6322    -6309    -6347    -6394    -6454    -6567    -6716    -6836 
   -6894    -6876    -6821    -6759    -6644    -6504    -6469    -6517 
   -6519    -6461    -6385    -6300    -6301    -6411    -6461    -6416 
   -6405    -6466    -6577    -6687    -6732    -6705    -6631    -6528 
   -6434    -6373    -6353    -6385    -6475    -6589    -6656    -6655 
   -6650    -6694    -6762    -6781    -6733    -6659    -6577    -6547 
   -6623    -6721    -6737    -6705    -6712    -6750    -6743    -6656 
   -6511    -6369    -6308    -6297    -6297    -6340    -6407    -6442 
   -6442    -6407    -6393    -6436    -6463    -6434    -6373    -6323 
   -6322    -6332    -6334    -6381    -6481    -6592    -6700    -6779 
   -6814    -6825    -6808    -6737    -6670    -6696    -6750    -6696 
   -6594    -6563    -6554    -6515    -6444    -6340    -6286    -6335 
   -6435    -6552    -6651    -6714    -6793    -6860    -6863    -6804 
   -6660    -6463    -6330    -6295    -6273    -6238    -6210    -6189 
   -6201    -6249    -6304    -6389    -6501    -6567    -6589    -6631 
   -6685    -6687    -6616    -6492    -6405    -6430    -6500    -6523 
   -6521    -6538    -6567    -6621    -6721    -6844    -6939    -6970 
   -6945    -6870    -6735    -6600    -6524    -6481    -6424    -6355 
   -6303    -6297    -6326    -6358    -6396    -6411    -6386    -6388 
   -6463    -6579    -6673    -6706    -6701    -6674    -6628    -6581 
   -6555    -6547    -6512    -6411    -6292    -6264    -6335    -6413 
   -6466    -6540    -6613    -6633    -6635    -6664    -6720    -6763 
   -6771    -6760    -6717    -6644    -6625    -6663    -6663    -6619 
   -6594    -6598    -6600    -6571    -6534    -6523    -6509    -6490 
   -6513    -6552    -6573    -6593    -6605    -6582    -6519    -6424 
   -6359    -6362    -6399    -6440    -6478    -6511    -6569    -6629 
   -6635    -6596    -6542    -6458    -6369    -6342    -6382    -6413 
   -6389    -6367    -6403    -6490    -6605    -6686    -6721    -6743 
   -6704    -6589    -6497    -6475    -6475    -6455    -6423    -6415 
   -6428    -6443    -6488    -6546    -6563    -6571    -6605    -6615 
   -6605    -6637    -6717    -6805    -6847    -6795    -6667    -6529 
   -6438    -6389    -6346    -6312    -6342    -6436    -6517    -6552 
   -6583    -6621    -6651    -6659    -6620    -6531    -6438    -6362 
   -6305    -6289    -6305    -6327    -6345    -6365    -6415    -6486 
   -6548    -6604    -6667    -6725    -6764    -6768    -6739    -6698 
   -6664    -6651    -6648    -6640    -6636    -6616    -6520    -6409 
   -6388    -6434    -6509    -6596    -6636    -6639    -6656    -6691 
