Origin Time       2025/03/30 21:30:00
Lat.              38.535
Long.             142.295
Depth. (km)       44
Mag.              4.3
Station Code      IWTH27
Station Lat.      39.0307
Station Long.     141.5320
Station Height(m) 80
Record Time       2025/03/30 21:31:21
Sampling Freq(Hz) 100Hz
Duration Time(s)  120
Dir.              4
Scale Factor      7845(gal)/8223790
Max. Acc. (gal)   6.626
Last Correction   2025/03/30 21:31:20
Memo.             
[...]
   -6913    -6920    -6914    -6913    -6917    -6913    -6916    -6917 
   -6914    -6916    -6913    -6914    -6914    -6912    -6914    -6913 
   -6913    -6917    -6913    -6914    -6914    -6912    -6916    -6913 
   -6912    -6917    -6913    -6913    -6913    -6910    -6914    -6914 
   -6913    -6916    -6912    -6913    -6914    -6912    -6917    -6916 
   -6912    -6916    -6913    -6913    -6917    -6914    -6916    -6913 
   -6912    -6916    -6913    -6914    -6917    -6913    -6916    -6914 
   -6913    -6916    -6912    -6913    -6917    -6912    -6916    -6916 
   -6912    -6916    -6914    -6913    -6914    -6910    -6913    -6914 
   -6912    -6916    -6916    -6913    -6912    -6912    -6916    -6913 
   -6910    -6916    -6912    -6913    -6918    -6912    -6910    -6914 
   -6912    -6914    -6913    -6912    -6916    -6912    -6914    -6917 
   -6912    -6913    -6913    -6913    -6916    -6912    -6913    -6916 
   -6912    -6912    -6912    -6916    -6920    -6912    -6913    -6918 
   -6916    -6917    -6913    -6912    -6916    -6913    -6914    -6916 
   -6912    -6916    -6914    -6912    -6916    -6912    -6912    -6917 
   -6913    -6914    -6913    -6913    -6918    -6913    -6912    -6914 
   -6910    -6913    -6914    -6912    -6914    -6913    -6913    -6913 
   -6910    -6916    -6916    -6912    -6914    -6913    -6912    -6914 
   -6910    -6913    -6913    -6913    -6917    -6912    -6912    -6918 
   -6913    -6912    -6913    -6912    -6916    -6914    -6912    -6916 
   -6914    -6916    -6913    -6909    -6914    -6913    -6910    -6914 
   -6914    -6916    -6916    -6912    -6916    -6914    -6913    -6914 
   -6910    -6913    -6916    -6913    -6917    -6914    -6910    -6912 
   -6910    -6914    -6916    -6910    -6914    -6914    -6913    -6916 
   -6912    -6912    -6914    -6913    -6918    -6913    -6910    -6916 
   -6912    -6913    -6916    -6912    -6916    -6917    -6912    -6913 
   -6913    -6916    -6916    -6913    -6916    -6913    -6912    -6916 
   -6912    -6912    -6914    -6909    -6913    -6917    -6912    -6916 
   -6914    -6913    -6914    -6913    -6913    -6913    -6913    -6916 
   -6912    -6913    -6918    -6913    -6916    -6917    -6913    -6914 
   -6913    -6912    -6914    -6912    -6916    -6917    -6914    -6916 
   -6914    -6913    -6914    -6912    -6914    -6917    -6914    -6917 
   -6914    -6913    -6916    -6910    -6912    -6913    -6912    -6917 
   -6916    -6913    -6917    -6914    -6916    -6916    -6910    -6916 
   -6916    -6912    -6918    -6916    -6916    -6918    -6916    -6916 
   -6914    -6914    -6920    -6916    -6914    -6917    -6913    -6914 
   -6916    -6913    -6916    -6913    -6914    -6918    -6916    -6917 
   -6914    -6912    -6917    -6916    -6914    -6917    -6917    -6920 
   -6916    -6912    -6916    -6913    -6917    -6920    -6913    -6913 
   -6913    -6910    -6914    -6913    -6914    -6917    -6910    -6914 
   -6917    -6914    -6916    -6914    -6914    -6917    -6914    -6914 
   -6914    -6910    -6916    -6916    -6912    -6917    -6914    -6914 
   -6914    -6912    -6917    -6916    -6913    -6917    -6913    -6914 
   -6917    -6914    -6916    -6913    -6912    -6917    -6914    -6914 
   -6916    -6913    -6917    -6916    -6913    -6917    -6913    -6913 
   -6917    -6913    -6913    -6913    -6914    -6918    -6912    -6913 
   -6918    -6912    -6914    -6916    -6914    -6917    -6913    -6914 
   -6920    -6914    -6914    -6913    -6910    -6917    -6916    -6913 
   -6914    -6913    -6916    -6916    -6913    -6914    -6913    -6916 
   -6917    -6912    -6916    -6917    -6913    -6917    -6914    -6912 
   -6916    -6914    -6916    -6916    -6913    -6917    -6916    -6916 
   -6920    -6918    -6924    -6928    -6925    -6925    -6917    -6906 
   -6895    -6883    -6885    -6885    -6886    -6897    -6902    -6921 
   -6941    -6937    -6976    -7034    -6974    -6855    -6835    -6847 
   -6777    -6786    -6972    -7142    -7218    -7165    -6897    -6675 
   -6663    -6651    -6727    -6971    -7087    -7005    -6903    -6910 
   -7042    -7078    -6860    -6604    -6631    -6924    -7132    -7134 
   -7022    -6933    -7029    -6971    -6513    -6458    -7233    -7693 
   -7095    -6377    -6238    -6459    -6916    -7318    -7414    -7404 
   -7094    -6390    -6264    -7051    -7458    -6932    -6442    -6620 
   -7257    -7674    -7288    -6524    -6285    -6508    -6492    -6658 
   -7574    -8077    -7522    -6748    -6151    -6129    -6826    -7400 
   -7454    -7105    -6501    -6242    -6696    -7292    -7353    -7064 
   -6756    -6629    -7072    -7457    -6905    -6324    -6598    -6879 
   -6826    -7209    -7580    -7094    -6502    -6542    -6951    -7399 
   -7383    -6698    -6355    -6670    -6465    -6372    -7596    -8230 
   -7047    -5958    -6166    -7011    -7549    -7403    -7134    -6945 
   -6407    -5991    -6443    -7308    -7685    -7404    -6754    -6264 
   -6690    -7527    -7430    -6926    -6967    -6675    -5852    -6060 
   -7438    -8141    -7657    -6828    -6068    -6131    -7076    -7688 
   -7578    -6944    -6195    -6050    -6512    -7171    -7593    -7476 
   -7049    -6643    -6413    -6451    -7007    -7778    -7616    -6592 
   -5961    -6154    -6853    -7514    -7672    -7371    -6810    -6264 
   -6332    -7086    -7585    -7427    -7028    -6612    -6386    -6253 
   -6336    -7103    -7676    -7253    -6651    -6633    -7083    -7506 
   -7558    -7098    -6394    -6257    -6629    -6802    -6853    -6918 
   -6917    -6975    -7179    -7438    -7377    -6934    -6424    -6177 
   -6643    -7362    -7425    -7088    -6770    -6454    -6500    -6984 
   -7389    -7480    -7236    -6596    -6133    -6459    -7041    -7275 
   -7333    -7258    -6905    -6439    -6380    -6894    -7277    -7292 
   -7376    -7223    -6555    -6137    -6593    -7199    -7101    -6835 
   -6843    -6790    -6831    -7048    -7137    -7115    -6984    -6798 
   -6924    -7160    -6882    -6378    -6354    -6739    -7098    -7360 
   -7657    -7507    -6639    -6048    -6288    -6812    -7195    -7258 
   -7087    -6951    -6785    -6693    -6976    -7285    -7113    -6536 
   -6346    -7132    -7831    -7362    -6552    -6212    -6141    -6469 
   -7198    -7549    -7311    -6998    -6868    -6976    -7167    -7101 
   -6744    -6457    -6447    -6563    -6878    -7337    -7311    -6972 
   -7072    -7230    -6976    -6831    -7037    -7052    -6624    -6335 
   -6431    -6654    -7109    -7414    -7094    -6772    -6853    -7014 
   -7155    -7362    -7462    -7042    -6177    -5832    -6438    -7138 
   -7422    -7534    -7330    -6743    -6318    -6426    -6961    -7485 
   -7445    -6825    -6309    -6482    -7136    -7558    -7306    -6675 
   -6191    -6129    -6810    -7796    -7936    -7263    -6592    -6278 
   -6458    -6849    -7102    -7184    -6835    -6303    -6565    -7488 
   -7879    -7457    -6775    -6191    -6174    -6674    -7017    -7356 
   -7527    -6897    -6373    -6685    -7056    -7007    -6774    -6839 
   -7248    -7132    -6577    -6901    -7584    -7109    -6340    -6544 
   -6905    -6802    -6867    -7215    -7312    -6967    -6513    -6474 
   -6947    -7410    -7267    -6650    -6444    -6918    -7221    -6971 
   -6828    -7047    -7010    -6577    -6575    -7188    -7346    -6868 
   -6743    -6986    -6907    -6689    -6791    -6953    -6928    -6967 
   -7011    -6891    -6937    -7134    -7030    -6809    -6860    -6901 
   -6693    -6606    -6810    -7071    -7172    -7129    -7196    -7248 
   -6959    -6596    -6420    -6477    -6858    -7326    -7466    -7118 
   -6685    -6619    -6570    -6523    -6945    -7227    -7047    -7155 
   -7249    -6937    -6928    -6971    -6543    -6415    -6889    -7290 
   -7246    -6991    -6756    -6427    -6462    -7182    -7611    -7429 
   -7141    -6616    -6146    -6415    -6968    -7080    -6963    -6889 
   -6844    -7038    -7341    -7354    -7117    -6674    -6142    -6085 
   -6782    -7620    -7811    -7321    -6679    -6407    -6669    -6986 
   -7055    -7069    -6948    -6693    -6629    -6750    -6899    -7094 
   -7268    -7157    -6816    -6789    -6944    -6754    -6621    -6779 
   -6862    -7096    -7496    -7422    -6886    -6497    -6473    -6516 
   -6644    -7211    -7642    -7362    -7015    -6845    -6477    -6168 
   -6350    -7042    -7777    -7765    -6939    -6315    -6376    -6640 
   -7049    -7407    -7226    -6924    -6762    -6527    -6673    -7132 
   -7088    -6783    -6891    -7153    -7090    -6909    -6999    -6991 
   -6543    -6407    -6960    -7298    -7061    -6967    -7101    -6994 
   -6878    -6979    -6932    -6588    -6336    -6682    -7306    -7287 
   -6878    -6855    -6953    -7056    -7300    -7098    -6370    -6156 
   -6893    -7510    -7188    -6779    -6926    -6845    -6432    -6667 
   -7322    -7476    -7281    -6901    -6390    -6492    -6953    -7001 
   -7172    -7246    -6534    -6241    -6683    -6928    -7426    -7873 
   -7425    -6953    -6508    -5899    -6322    -7103    -7052    -7013 
   -7191    -7182    -7141    -7168    -7368    -7037    -5917    -5759 
   -6970    -7684    -7406    -7002    -6602    -6151    -6276    -7337 
   -8195    -7819    -6890    -6073    -5788    -6697    -7878    -7912 
   -7125    -6193    -5632    -6178    -7344    -7906    -7685    -7126 
   -6482    -6266    -6799    -7204    -6957    -6777    -6855    -6858 
   -7020    -7319    -7136    -6569    -6401    -6736    -7207    -7557 
   -7264    -6477    -6313    -6766    -6970    -7026    -7080    -6878 
   -6663    -6728    -7094    -7520    -7321    -6532    -6242    -6723 
   -7140    -7075    -6960    -7042    -7132    -7211    -7263    -7101 
   -6697    -6419    -6540    -6714    -6840    -7176    -7315    -6835 
   -6323    -6485    -7078    -7426    -7256    -6831    -6558    -6596 
   -7053    -7573    -7566    -7273    -6674    -5925    -6218    -7078 
   -7253    -7238    -7169    -6590    -6108    -6421    -7261    -7763 
   -7537    -6853    -6239    -6521    -7479    -7704    -7121    -6642 
   -6285    -6021    -6492    -7632    -8143    -7333    -6286    -6123 
   -6482    -6696    -6982    -7616    -7917    -7109    -6081    -6119 
   -6540    -6643    -7084    -7689    -7607    -7045    -6864    -7038 
   -6772    -6304    -6349    -6732    -7109    -7226    -7111    -7152 
   -7088    -6704    -6702    -7209    -7396    -7140    -6789    -6378 
   -6332    -6586    -6473    -6565    -7303    -7886    -7906    -7387 
   -6794    -6646    -6407    -6161    -6647    -7153    -7042    -6735 
   -6295    -6212    -6963    -7676    -7938    -7873    -7264    -6737 
   -6762    -6663    -6342    -6183    -6165    -6543    -7476    -8121 
   -7749    -6917    -6327    -6070    -6440    -7371    -7927    -7628 
   -6890    -6332    -6189    -6173    -6475    -7287    -7585    -7067 
   -6891    -7280    -7546    -7366    -6794    -6281    -5925    -5795 
   -6492    -7354    -7501    -7622    -7695    -7225    -6833    -6687 
   -6639    -6839    -6786    -6335    -6187    -6461    -6885    -7600 
   -8253    -7852    -6581    -6069    -6775    -7281    -7028    -6744 
   -6652    -6673    -6918    -7165    -6937    -6327    -6107    -6736 
   -7684    -8113    -7909    -7280    -6342    -5671    -5701    -6392 
   -7468    -7874    -7294    -7015    -7227    -7042    -6794    -6959 
   -6952    -6451    -6081    -6443    -7064    -7167    -7096    -7150 
   -6994    -7155    -7749    -7754    -7117    -6442    -5879    -5593 
   -5913    -6913    -7866    -8020    -7542    -6790    -6404    -6918 
   -7445    -7364    -7071    -6559    -6129    -6223    -6574    -6847 
   -6860    -6976    -7441    -7553    -7406    -7430    -6878    -5922 
   -5772    -6509    -7353    -7500    -7040    -6891    -7025    -6880 
   -6710    -6939    -7292    -7053    -6531    -6762    -7292    -7179 
   -6643    -6384    -6870    -7250    -6825    -6947    -7681    -7557 
   -7083    -6957    -6555    -6012    -5938    -6401    -7169    -7499 
   -7146    -7038    -7211    -7038    -6998    -7149    -6930    -6774 
   -6817    -6547    -6361    -6713    -7152    -7380    -7546    -7668 
   -7457    -6733    -6010    -5823    -6222    -6968    -7276    -6906 
   -6770    -7080    -7136    -7048    -7393    -7647    -7134    -6573 
   -6698    -6887    -6636    -6534    -6774    -6862    -6928    -7268 
   -7304    -6789    -6521    -6651    -6705    -6917    -7314    -7368 
   -6934    -6430    -6478    -6907    -6906    -6840    -7171    -7063 
   -6743    -7180    -7680    -7416    -6875    -6527    -6095    -5722 
   -6197    -7314    -7994    -7786    -7129    -6812    -7047    -7335 
   -7218    -6532    -5757    -5694    -6349    -7217    -8019    -8275 
   -7473    -6345    -6177    -6826    -7285    -7252    -6979    -6488 
   -5805    -5751    -6812    -8047    -8541    -8052    -6814    -5848 
   -5806    -6492    -7321    -7314    -6809    -6912    -7017    -6991 
   -7515    -7719    -7284    -6943    -6706    -6963    -7701    -7593 
   -6654    -5745    -4679    -4191    -5374    -7277    -8804    -9798 
   -9520    -7746    -5868    -5035    -5178    -5954    -7227    -8428 
   -8627    -7959    -7165    -6304    -5594    -5313    -5081    -5323 
   -6663    -8012    -8699    -9217    -8796    -7044    -5664    -5200 
   -4581    -4525    -5999    -7797    -9204   -10420   -10642    -9347 
   -6845    -3635    -1043     -583    -2960    -7530   -11785   -13860 
  -13458    -9985    -5319    -3831    -5611    -6966    -6561    -5047 
   -3080    -2443    -5184   -10035   -12425   -10525    -6975    -4018 
   -2918    -4646    -7461    -8846    -8765    -7975    -7418    -8221 
   -9144    -8513    -7573    -7169    -6084    -4557    -3692    -3643 
   -4918    -7236    -8734    -8421    -6993    -5867    -5775    -6551 
   -8388   -10328   -10210    -8517    -6891    -5111    -3820    -4158 
   -4928    -5736    -7797    -9844    -9948    -8795    -7330    -5464 
   -3993    -4321    -5752    -7006    -8446    -9105    -7717    -6033 
   -5875    -6681    -7145    -7330    -8194    -8297    -5803    -3761 
   -5424    -8170    -9119    -9281    -9069    -7639    -6438    -6970 
   -7001    -5020    -3497    -3420    -4234    -7119   -10716   -11353 
   -9135    -7042    -6335    -5815    -4846    -4642    -5449    -6698 
   -9103   -11699   -11179    -7445    -4399    -4054    -4900    -5952 
   -7186    -7240    -5925    -5790    -7213    -7587    -6889    -7103 
   -7666    -7545    -7577    -8044    -8122    -7175    -5281    -3539 
   -3461    -5547    -8357   -10303   -11419   -10878    -7283    -3279 
   -2574    -3871    -4943    -6604    -8283    -8055    -7226    -8064 
   -9417    -8784    -6539    -4819    -4406    -5688    -8390    -9531 
   -8039    -7074    -7188    -6374    -6033    -7457    -8171    -6994 
   -5586    -4773    -4483    -5458    -8005    -9841    -8861    -7126 
   -6457    -5201    -4218    -6200    -8698    -8841    -8703    -9001 
   -8224    -7102    -6340    -5643    -5084    -4556    -4927    -6802 
   -8128    -7893    -7543    -7249    -6586    -6423    -7148    -7803 
   -7643    -7222    -7252    -7693    -7558    -5875    -4390    -5378 
   -7476    -8299    -7935    -7596    -7481    -6974    -6345    -6057 
   -5584    -5310    -6243    -7863    -8824    -8298    -6898    -6349 
   -7187    -8244    -8046    -6332    -5007    -5383    -6147    -6507 
   -7327    -8406    -8364    -7358    -6574    -6025    -5877    -6531 
   -7196    -7504    -7562    -6856    -5648    -4841    -5024    -6457 
   -8071    -8874    -9463    -9570    -8074    -5838    -4847    -5027 
   -4976    -5425    -7268    -8374    -7803    -7608    -8329    -8959 
   -8633    -6615    -4093    -3190    -4310    -6619    -8829    -9579 
   -8360    -6265    -5427    -6566    -8361    -9327    -8603    -6183 
   -3882    -4224    -6428    -7437    -7408    -8025    -8370    -7657 
   -7237    -7461    -7036    -5497    -4077    -4688    -7113    -9099 
   -9876    -9300    -6805    -4151    -4086    -6334    -8109    -8128 
   -7757    -7635    -7167    -6982    -7091    -6247    -5282    -5524 
   -5903    -5979    -7348    -9540    -9520    -7191    -5813    -6299 
   -6887    -7059    -7427    -7325    -5908    -4965    -6038    -7159 
   -7395    -7992    -8257    -7723    -7245    -6521    -5759    -5503 
   -5188    -5539    -7449    -9293    -9424    -8086    -6677    -6288 
   -6327    -6214    -6320    -6474    -6822    -7619    -7777    -6967 
   -6351    -6299    -6280    -6504    -7669    -8869    -8297    -6459 
   -5252    -5360    -6485    -7414    -7106    -6570    -6866    -7462 
   -7947    -8136    -7751    -7260    -6887    -5968    -4780    -4872 
   -6416    -7520    -7628    -8156    -8537    -7393    -6521    -7096 
   -7068    -6231    -6069    -6014    -5876    -6412    -6821    -6956 
   -7785    -8532    -8039    -6929    -6408    -6574    -6701    -6678 
   -6741    -6767    -6790    -6937    -7146    -7024    -6301    -6018 
   -6963    -7970    -8083    -7653    -6941    -6212    -5962    -5954 
   -6077    -6814    -7422    -7300    -7333    -7433    -7153    -7202 
   -7396    -6961    -6300    -5829    -5698    -6199    -7183    -8367 
   -9100    -8607    -7123    -5594    -5088    -5918    -7165    -7884 
   -7344    -5644    -5004    -6598    -8144    -8179    -7754    -7384 
   -7075    -7051    -6929    -6494    -6313    -6534    -6574    -6828 
   -7641    -7399    -6235    -6315    -6939    -7003    -7730    -8538 
   -7674    -6139    -5499    -5448    -5557    -6285    -7589    -8522 
   -8519    -7951    -7618    -7338    -6385    -5680    -5780    -5562 
   -5543    -6955    -8460    -8309    -7157    -6467    -6293    -6266 
   -7001    -8272    -8293    -6910    -5922    -5894    -6184    -6523 
   -6747    -6970    -7480    -7743    -7519    -7264    -6681    -6019 
   -6467    -7364    -7443    -7099    -6655    -6278    -6384    -6728 
   -7468    -8243    -7609    -6527    -6964    -7636    -6872    -5709 
   -5358    -5711    -6394    -7372    -8415    -8641    -7950    -7156 
   -6494    -6162    -6235    -6322    -6490    -6824    -7030    -7086 
   -7141    -7142    -7078    -6993    -6747    -6631    -6905    -7171 
   -7373    -7516    -7003    -5995    -5942    -6843    -6984    -7013 
   -7830    -7425    -5892    -5950    -7315    -7599    -6902    -6929 
   -7164    -6370    -5913    -7022    -8102    -7858    -7126    -6504 
   -6026    -6377    -7400    -7913    -7874    -7651    -6805    -5499 
   -5047    -6110    -7283    -7315    -7273    -7566    -7083    -6571 
   -7149    -7568    -6879    -6227    -6524    -6847    -6627    -6955 
   -7636    -7500    -7306    -7522    -7134    -6343    -6208    -6331 
   -5756    -5435    -6505    -7732    -8059    -7975    -7611    -6975 
   -6683    -6826    -6682    -6257    -6463    -7219    -7250    -6585 
   -6650    -7091    -6879    -6785    -7080    -7334    -7754    -7738 
   -6903    -6359    -6478    -6642    -6658    -6644    -6909    -7376 
   -7435    -7218    -7345    -7407    -6598    -5776    -6104    -6669 
   -6493    -6254    -6740    -7607    -8122    -8247    -8058    -7609 
   -7030    -6114    -5545    -5933    -6052    -5749    -6442    -7533 
