Origin Time       2025/03/30 21:30:00
Lat.              38.535
Long.             142.295
Depth. (km)       44
Mag.              4.3
Station Code      IWTH14
Station Lat.      39.7435
Station Long.     141.9087
Station Height(m) 200
Record Time       2025/03/30 21:31:33
Sampling Freq(Hz) 100Hz
Duration Time(s)  120
Dir.              4
Scale Factor      7845(gal)/8223790
Max. Acc. (gal)   2.163
Last Correction   2025/03/30 21:31:33
Memo.             
[...]
   -2246    -1995    -1614    -1593    -1833    -2007    -2072    -2020 
   -1767    -1547    -1552    -1647    -1937    -2339    -2344    -2084 
   -1884    -1486    -1127    -1405    -1929    -2095    -2205    -2479 
   -2393    -1827    -1360    -1237    -1340    -1615    -1999    -2428 
   -2641    -2411    -1926    -1339    -1028    -1375    -1772    -1888 
   -2236    -2509    -2255    -1891    -1633    -1521    -1622    -1629 
   -1601    -1845    -2107    -2184    -2197    -2118    -1879    -1620 
   -1524    -1548    -1575    -1702    -2050    -2463    -2451    -1868 
   -1449    -1522    -1548    -1613    -1964    -2084    -2029    -2263 
   -2308    -1790    -1345    -1378    -1529    -1705    -2065    -2261 
   -2130    -2006    -1964    -1904    -1736    -1452    -1390    -1755 
   -2160    -2172    -1995    -2061    -2162    -1890    -1460    -1363 
   -1579    -1725    -1883    -2300    -2475    -2112    -1795    -1703 
   -1547    -1441    -1480    -1680    -2253    -2767    -2409    -1610 
   -1395    -1557    -1522    -1571    -1864    -2101    -2261    -2358 
   -2218    -1817    -1306    -1077    -1462    -2111    -2381    -2189 
   -2052    -2131    -1854    -1277    -1275    -1831    -2168    -2161 
   -2114    -2003    -1745    -1566    -1613    -1733    -1826    -1914 
   -1979    -2014    -2030    -1929    -1675    -1633    -1883    -1902 
   -1767    -1884    -1962    -1900    -1950    -1962    -1865    -1815 
   -1767    -1706    -1719    -1725    -1740    -1922    -2187    -2280 
   -2022    -1637    -1570    -1655    -1625    -1802    -2124    -2147 
   -2084    -2122    -1849    -1463    -1498    -1574    -1529    -1948 
   -2450    -2288    -1993    -1969    -1715    -1382    -1478    -1717 
   -1821    -2039    -2297    -2226    -1925    -1730    -1725    -1799 
   -1773    -1679    -1721    -1850    -1933    -1996    -2022    -1957 
   -1876    -1883    -1854    -1607    -1399    -1632    -2092    -2319 
   -2228    -1991    -1802    -1748    -1688    -1593    -1586    -1714 
   -2018    -2274    -2123    -1802    -1718    -1773    -1814    -1860 
   -1838    -1729    -1736    -1979    -2114    -1904    -1749    -1836 
   -1877    -1888    -1921    -1811    -1710    -1784    -1788    -1738 
   -1921    -2026    -1860    -1971    -2155    -1833    -1637    -1827 
   -1684    -1528    -1872    -2108    -2057    -2149    -2172    -1802 
   -1456    -1557    -1718    -1626    -1752    -2174    -2315    -2150 
   -1960    -1722    -1633    -1736    -1624    -1502    -1902    -2326 
   -2133    -1827    -1857    -1748    -1548    -1803    -2073    -1971 
   -2016    -2097    -1703    -1340    -1526    -1836    -2016    -2272 
   -2308    -1887    -1644    -1837    -1748    -1352    -1444    -1917 
   -2168    -2284    -2278    -1908    -1536    -1524    -1642    -1710 
   -1806    -2031    -2292    -2319    -2119    -1755    -1274    -1229 
   -1787    -2149    -1993    -1911    -2120    -2238    -2065    -1659 
   -1254    -1333    -1892    -2243    -2095    -1857    -1894    -2081 
   -2074    -1810    -1549    -1490    -1629    -1906    -2173    -2192 
   -1938    -1775    -1807    -1695    -1611    -1817    -1939    -1954 
   -2037    -1988    -1872    -1765    -1675    -1815    -1975    -1902 
   -1846    -1836    -1759    -1764    -1861    -1957    -2039    -1971 
   -1717    -1625    -1807    -1948    -1962    -1952    -1906    -1903 
   -1821    -1576    -1606    -1971    -2158    -2126    -2062    -1846 
   -1520    -1425    -1684    -2011    -2130    -2064    -1954    -1966 
   -1958    -1570    -1232    -1572    -2104    -2309    -2330    -2096 
   -1714    -1610    -1636    -1564    -1636    -1885    -2080    -2155 
   -2088    -1899    -1745    -1682    -1695    -1794    -1831    -1794 
   -1949    -2204    -2097    -1718    -1561    -1629    -1740    -1933 
   -2000    -1895    -1968    -2101    -1976    -1764    -1595    -1506 
   -1769    -2188    -2151    -1799    -1740    -1944    -1965    -1757 
   -1624    -1703    -1875    -1980    -1938    -1814    -1831    -2027 
   -2016    -1788    -1772    -1807    -1661    -1772    -2104    -2053 
   -1814    -1850    -1845    -1684    -1690    -1741    -1837    -2114 
   -2120    -1806    -1814    -2010    -1775    -1480    -1638    -1899 
   -2023    -2114    -2141    -2064    -1757    -1453    -1655    -1952 
   -1842    -1787    -2038    -2193    -2056    -1748    -1494    -1506 
   -1715    -1841    -1956    -2236    -2343    -2068    -1740    -1530 
   -1389    -1444    -1826    -2250    -2324    -2131    -1956    -1794 
   -1559    -1487    -1703    -1904    -2027    -2065    -1823    -1698 
   -1960    -2065    -1872    -1838    -1902    -1719    -1580    -1742 
   -1868    -1907    -2052    -2188    -2185    -1881    -1382    -1273 
   -1655    -2002    -2092    -2123    -2169    -2062    -1757    -1507 
   -1502    -1682    -1921    -2083    -2072    -2018    -1985    -1796 
   -1553    -1626    -1899    -1992    -1981    -1989    -1854    -1750 
   -1885    -1911    -1701    -1640    -1850    -2092    -2122    -1958 
   -1803    -1651    -1603    -1827    -1964    -1850    -1864    -2041 
   -2126    -2014    -1687    -1414    -1479    -1752    -2041    -2219 
   -2214    -2072    -1782    -1561    -1610    -1572    -1528    -1952 
   -2424    -2384    -2073    -1749    -1441    -1336    -1563    -1864 
   -2029    -2236    -2369    -2119    -1802    -1622    -1402    -1410 
   -1795    -2092    -2135    -2166    -2119    -1852    -1626    -1609 
   -1607    -1621    -1791    -2069    -2309    -2262    -1887    -1559 
   -1556    -1715    -1792    -1891    -2035    -1904    -1692    -1884 
   -2083    -1899    -1879    -2066    -1834    -1487    -1578    -1776 
   -1915    -2170    -2263    -2053    -1794    -1571    -1478    -1590 
   -1759    -1979    -2200    -2242    -2185    -1904    -1335    -1165 
   -1656    -2145    -2285    -2263    -2146    -1895    -1698    -1595 
   -1399    -1439    -1911    -2232    -2231    -2169    -1985    -1782 
   -1651    -1474    -1420    -1669    -2047    -2246    -2158    -2012 
   -1896    -1659    -1482    -1642    -1915    -2029    -2103    -2108 
   -1875    -1652    -1618    -1553    -1613    -2066    -2359    -2074 
   -1764    -1706    -1678    -1733    -1865    -1942    -2047    -2085 
   -1849    -1633    -1755    -1884    -1759    -1767    -2050    -2154 
   -1979    -1875    -1844    -1714    -1652    -1756    -1838    -1813 
   -1790    -1929    -2107    -2091    -1988    -1871    -1709    -1688 
   -1733    -1661    -1707    -2004    -2203    -1998    -1714    -1795 
   -1958    -1850    -1717    -1733    -1761    -1821    -1954    -2006 
   -1884    -1810    -1934    -1981    -1803    -1713    -1798    -1833 
   -1783    -1804    -1971    -2062    -1958    -1852    -1765    -1696 
   -1771    -1880    -1991    -2076    -1965    -1810    -1750    -1664 
   -1594    -1714    -2057    -2292    -2174    -2007    -1780    -1343 
   -1291    -1856    -2249    -2118    -1954    -1975    -1911    -1730 
   -1602    -1547    -1660    -1968    -2211    -2238    -2060    -1788 
   -1687    -1732    -1696    -1763    -1992    -2019    -1908    -1939 
   -1867    -1688    -1791    -1888    -1695    -1764    -2107    -2031 
   -1764    -1912    -2076    -1755    -1406    -1520    -1804    -2012 
   -2258    -2346    -2116    -1800    -1463    -1248    -1509    -1980 
   -2135    -2127    -2247    -2185    -1750    -1401    -1447    -1684 
   -1907    -2123    -2232    -2068    -1784    -1618    -1540    -1564 
   -1799    -2150    -2330    -2195    -1925    -1668    -1455    -1482 
   -1744    -1935    -1988    -2041    -2106    -2045    -1813    -1657 
   -1744    -1834    -1740    -1706    -1922    -2142    -2108    -1848 
   -1559    -1486    -1723    -2015    -2008    -1875    -2025    -2180 
   -1991    -1717    -1551    -1510    -1664    -1895    -2103    -2193 
   -2041    -1896    -1876    -1752    -1663    -1691    -1696    -1917 
   -2236    -2107    -1713    -1649    -1867    -1892    -1683    -1588 
   -1711    -1971    -2205    -2146    -1933    -1934    -2054    -1918 
   -1532    -1335    -1490    -1777    -2165    -2376    -2069    -1790 
   -1929    -1934    -1587    -1397    -1664    -2100    -2247    -1988 
   -1638    -1607    -1818    -1885    -1856    -1927    -1969    -1952 
   -1987    -1876    -1594    -1486    -1628    -1935    -2270    -2178 
   -1752    -1665    -1880    -1953    -1879    -1722    -1595    -1764 
   -2054    -2033    -1836    -1831    -1887    -1869    -1991    -2108 
   -1906    -1671    -1790    -1953    -1825    -1792    -1960    -1857 
   -1694    -1883    -2046    -1873    -1653    -1676    -1922    -2123 
   -2077    -1903    -1740    -1603    -1584    -1678    -1830    -2106 
   -2265    -2076    -1860    -1761    -1663    -1719    -1845    -1821 
   -1809    -1827    -1803    -1868    -1921    -1844    -1822    -1885 
   -1891    -1833    -1782    -1791    -1845    -1933    -2074    -2073 
   -1819    -1549    -1509    -1796    -2178    -2215    -1966    -1826 
   -1765    -1601    -1534    -1757    -2030    -2200    -2315    -2170 
   -1717    -1323    -1301    -1609    -1935    -2178    -2365    -2249 
   -1856    -1556    -1456    -1522    -1755    -2052    -2215    -2176 
   -2096    -1950    -1671    -1588    -1723    -1653    -1537    -1829 
   -2189    -2100    -1861    -1840    -1860    -1780    -1713    -1748 
   -1810    -1863    -1942    -1908    -1817    -1907    -1995    -1942 
   -1900    -1749    -1548    -1684    -2003    -2027    -1810    -1791 
   -1971    -1941    -1841    -1911    -1786    -1629    -1892    -2149 
   -2062    -1902    -1749    -1663    -1857    -2080    -1915    -1753 
   -1954    -1941    -1594    -1576    -1921    -2164    -2111    -1885 
   -1786    -1760    -1571    -1489    -1736    -1973    -2049    -2185 
   -2218    -1927    -1701    -1679    -1593    -1624    -1903    -2030 
   -1926    -1902    -1945    -1887    -1806    -1721    -1587    -1633 
   -1925    -2095    -2025    -1975    -1929    -1759    -1769    -2068 
   -2177    -1964    -1779    -1734    -1740    -1694    -1588    -1692 
   -2085    -2289    -2047    -1734    -1586    -1526    -1614    -1864 
   -2083    -2162    -2089    -1903    -1879    -2014    -1817    -1448 
   -1615    -2026    -2016    -1949    -2123    -1991    -1543    -1408 
   -1555    -1634    -1771    -2066    -2272    -2258    -2165    -1923 
   -1429    -1169    -1514    -2037    -2355    -2419    -2128    -1706 
   -1553    -1621    -1746    -1894    -1956    -1964    -1995    -1945 
   -1728    -1517    -1539    -1732    -2033    -2273    -2119    -1826 
   -1725    -1629    -1645    -1929    -2151    -2135    -2023    -1869 
   -1651    -1559    -1671    -1718    -1844    -2212    -2300    -2016 
   -1783    -1507    -1293    -1595    -2042    -2041    -1965    -2164 
   -2177    -1827    -1578    -1640    -1854    -2065    -2068    -1871 
   -1764    -1773    -1730    -1709    -1837    -1998    -1987    -1915 
   -1950    -1860    -1579    -1525    -1799    -2076    -2177    -2118 
   -1993    -1890    -1757    -1593    -1578    -1788    -1996    -1985 
   -1903    -1857    -1725    -1656    -1831    -1938    -1818    -1792 
   -1926    -2029    -2066    -1931    -1665    -1632    -1872    -2041 
   -1952    -1788    -1811    -1939    -1952    -1869    -1734    -1637 
   -1714    -1840    -1868    -1849    -1860    -1911    -1922    -1900 
   -1857    -1809    -1961    -2070    -1756    -1587    -1877    -1980 
   -1965    -2273    -2315    -1825    -1495    -1495    -1537    -1717 
   -2026    -2199    -2231    -2227    -2043    -1595    -1177    -1124 
   -1447    -1929    -2369    -2589    -2377    -1796    -1335    -1285 
   -1470    -1749    -2022    -2112    -2119    -2076    -1776    -1490 
   -1653    -1969    -2003    -1929    -1891    -1790    -1764    -1807 
   -1694    -1587    -1748    -2038    -2328    -2477    -2124    -1472 
   -1286    -1588    -1773    -1962    -2535    -2856    -2278    -1387 
   -1019    -1255    -1765    -2181    -2311    -2205    -1952    -1721 
   -1738    -1906    -1891    -1775    -1979    -2276    -2062    -1610 
   -1522    -1719    -1877    -1826    -1642    -1669    -1968    -2133 
   -1929    -1675    -1605    -1449    -1197    -1301    -1854    -2431 
   -2763    -2840    -2396    -1402     -756    -1039    -1611    -1817 
   -1799    -1985    -2405    -2559    -2149    -1549    -1166    -1098 
   -1453    -1976    -2176    -2235    -2462    -2704    -2818    -2500 
   -1529     -633     -754    -1730    -2498    -2520    -2270    -2089 
   -1749    -1244     -889     -976    -1652    -2596    -3195    -3109 
   -2270    -1046     -402     -827    -1734    -2473    -2839    -2871 
   -2731    -2377    -1594     -630     -287     -841    -1564    -1961 
   -2101    -1998    -1987    -2350    -2529    -2070    -1493    -1518 
   -2029    -2276    -2042    -1711    -1560    -1773    -2261    -2430 
   -2112    -1830    -1791    -1737    -1480    -1050     -878    -1456 
   -2444    -3038    -2911    -2204    -1451    -1231    -1374    -1476 
   -1632    -1899    -2097    -2134    -2023    -1803    -1629    -1728 
   -2041    -2351    -2496    -2219    -1667    -1385    -1414    -1398 
   -1256    -1318    -1775    -2155    -2139    -2050    -2015    -1931 
   -1881    -1684    -1161     -907    -1514    -2559    -3385    -3728 
   -3334    -2147     -672      245       72     -945    -2394    -3793 
   -4125    -3160    -1757     -421      311     -175    -1366    -2471 
   -3407    -3793    -2907    -1186     -144     -344    -1032    -1942 
   -3130    -3883    -3716    -2778    -1213      202      326     -715 
   -1995    -3149    -3855    -3366    -1775     -351       82     -372 
   -1602    -3133    -3933    -3489    -2110     -650       -6     -325 
   -1171    -2272    -3334    -3701    -3045    -1906    -1047     -723 
    -662     -791    -1397    -2227    -2845    -3262    -3086    -2085 
   -1174     -957    -1004    -1048    -1274    -1810    -2486    -2944 
   -2945    -2331    -1333     -838    -1196    -1680    -1894    -2130 
   -2297    -2268    -2358    -2312    -1717    -1173    -1206    -1493 
   -1765    -1972    -2015    -2050    -2308    -2546    -2296    -1614 
   -1077    -1102    -1597    -2184    -2562    -2556    -2141    -1571 
   -1283    -1431    -1598    -1640    -1962    -2297    -2131    -1903 
   -1930    -1941    -1980    -1987    -1715    -1620    -1988    -2099 
   -1695    -1499    -1701    -1881    -2027    -2153    -2056    -1876 
   -1765    -1611    -1468    -1331    -1112    -1161    -1809    -2787 
   -3516    -3532    -2791    -1633     -486       87     -267    -1209 
   -2272    -3207    -3577    -3036    -1950    -1059     -658     -621 
   -1012    -1876    -2893    -3584    -3314    -2020     -874     -567 
    -477     -615    -1556    -2775    -3492    -3622    -2947    -1539 
    -481     -286     -461    -1139    -2339    -3083    -3105    -2999 
   -2682    -1861    -1123     -942     -831     -909    -1850    -2782 
   -2660    -2292    -2288    -1926    -1143     -827    -1135    -1594 
   -2118    -2593    -2664    -2420    -2088    -1652    -1368    -1545 
   -1799    -1726    -1672    -1938    -2281    -2373    -1987    -1425 
   -1420    -1827    -1822    -1499    -1543    -1894    -2077    -2068 
   -2104    -2231    -2320    -2122    -1530    -1035    -1304    -2153 
   -2762    -2685    -1939    -1044     -745    -1042    -1597    -2259 
   -2610    -2582    -2420    -1902    -1216    -1123    -1825    -2691 
   -2774    -2054    -1476    -1212    -1004    -1285    -1902    -2116 
   -2188    -2469    -2474    -2089    -1625    -1167     -977    -1297 
   -1930    -2552    -2791    -2492    -2006    -1602    -1327    -1239 
   -1282    -1594    -2408    -3249    -3250    -2187     -793     -114 
    -400    -1173    -2153    -3113    -3462    -2902    -1912    -1069 
    -612     -643    -1152    -2043    -2975    -3323    -2844    -1934 
   -1107     -575     -537    -1275    -2498    -3350    -3322    -2617 
   -1821    -1208     -683     -494     -928    -1709    -2511    -3098 
   -3068    -2446    -1722    -1225    -1055    -1142    -1459    -2046 
   -2596    -2722    -2335    -1660    -1389    -1702    -1791    -1424 
   -1247    -1584    -2266    -2774    -2543    -1836    -1482    -1566 
   -1536    -1474    -1819    -2446    -2925    -2786    -1860     -754 
    -309     -781    -1696    -2524    -3096    -3033    -2289    -1593 
   -1042     -521     -774    -1764    -2501    -2803    -2782    -2319 
   -1827    -1651    -1539    -1399    -1371    -1483    -1749    -2092 
   -2371    -2423    -2096    -1728    -1713    -1777    -1638    -1398 
   -1336    -1745    -2316    -2401    -2089    -1926    -1929    -1757 
   -1460    -1323    -1429    -1791    -2232    -2428    -2413    -2355 
   -2126    -1729    -1467    -1371    -1358    -1665    -2300    -2686 
   -2477    -2026    -1633    -1188     -886    -1115    -1723    -2316 
   -2675    -2650    -2196    -1586    -1283    -1275    -1263    -1583 
   -2323    -2679    -2436    -2151    -1993    -1787    -1598    -1626 
   -1672    -1444    -1335    -1749    -2188    -2200    -2182    -2182 
   -1796    -1509    -1671    -1586    -1162    -1143    -1840    -2844 
   -3397    -3067    -2052    -1065     -731     -855    -1094    -1595 
   -2322    -2970    -3281    -2890    -1771     -560      -14     -519 
   -1792    -2979    -3419    -3065    -2263    -1572    -1293    -1183 
   -1150    -1356    -1686    -1988    -2305    -2536    -2428    -1900 
   -1317    -1259    -1694    -2022    -1996    -1857    -1898    -2106 
   -2103    -1752    -1374    -1300    -1718    -2358    -2567    -2307 
   -1958    -1605    -1402    -1414    -1478    -1767    -2196    -2332 
   -2385    -2481    -2193    -1601    -1101     -874    -1061    -1599 
   -2200    -2646    -2917    -2902    -2299    -1212     -333     -410 
   -1413    -2289    -2517    -2637    -2729    -2519    -2095    -1426 
    -723     -648    -1289    -2160    -2772    -2794    -2353    -1872 
   -1552    -1432    -1485    -1522    -1541    -1863    -2343    -2278 
   -1718    -1474    -1736    -2104    -2238    -1911    -1471    -1506 
   -1715    -1603    -1617    -2187    -2755    -2768    -2343    -1630 
    -923     -846    -1398    -1984    -2347    -2479    -2404    -2176 
   -1745    -1321    -1246    -1375    -1563    -1960    -2420    -2559 
   -2255    -1802    -1576    -1476    -1310    -1389    -1846    -2284 
   -2484    -2417    -2077    -1684    -1436    -1381    -1468    -1536 
   -1786    -2457    -2957    -2733    -2133    -1536     -993     -766 
   -1131    -1848    -2443    -2725    -2601    -2088    -1582    -1275 
   -1090    -1286    -1914    -2393    -2447    -2296    -2034    -1872 
   -1912    -1695    -1248    -1281    -1836    -2293    -2330    -2120 
   -2004    -1968    -1792    -1628    -1572    -1437    -1350    -1506 
   -1854    -2296    -2550    -2421    -2038    -1540    -1294    -1568 
   -1881    -1941    -2056    -2172    -2043    -1798    -1582    -1405 
   -1393    -1667    -2012    -2122    -2142    -2359    -2478    -2097 
   -1529    -1186    -1132    -1421    -1946    -2416    -2679    -2660 
   -2305    -1656     -942     -530     -727    -1583    -2605    -3106 
