Origin Time       2025/03/30 21:30:00
Lat.              38.535
Long.             142.295
Depth. (km)       44
Mag.              4.3
Station Code      IWTH21
Station Lat.      39.4734
Station Long.     141.9336
Station Height(m) -87
Record Time       2025/03/30 21:31:26
Sampling Freq(Hz) 100Hz
Duration Time(s)  120
Dir.              1
Scale Factor      2942(gal)/8224139
Max. Acc. (gal)   0.275
Last Correction   2025/03/30 21:31:26
Memo.             
[...]
   11893    12179    12748    12411    11670    11977    12630    12398 
   12112    12325    12320    12182    12367    12433    12054    11875 
   12388    12772    12298    11931    12382    12654    12280    11971 
   12087    12366    12330    12135    12252    12329    12189    12208 
   12324    12355    12236    12070    12182    12407    12402    12317 
   12368    12353    12159    12160    12364    12301    12136    12343 
   12588    12347    12021    12143    12328    12258    12313    12476 
   12449    12317    12120    12086    12303    12305    12155    12271 
   12425    12378    12295    12231    12210    12326    12383    12178 
   12047    12380    12594    12106    11838    12318    12602    12321 
   12102    12231    12357    12264    12212    12307    12411    12407 
   12224    12098    12303    12499    12244    11981    12286    12604 
   12306    11986    12195    12380    12229    12232    12387    12317 
   12283    12376    12283    12231    12290    12170    12164    12366 
   12233    11992    12224    12476    12351    12278    12330    12290 
   12245    12193    12201    12371    12363    12125    12175    12425 
   12294    12077    12264    12515    12483    12251    12069    12132 
   12336    12438    12312    12152    12168    12201    12243    12390 
   12378    12177    12172    12361    12359    12175    12123    12310 
   12492    12314    12019    12129    12415    12320    12074    12271 
   12568    12310    11951    12131    12453    12361    12178    12349 
   12426    12186    12118    12245    12349    12421    12374    12262 
   12237    12240    12195    12240    12406    12383    12141    12148 
   12393    12455    12299    12106    12124    12317    12324    12248 
   12316    12420    12407    12182    12044    12316    12465    12213 
   12178    12314    12229    12279    12386    12212    12136    12247 
   12317    12402    12411    12204    11950    12139    12706    12695 
   12060    11898    12336    12476    12220    12183    12309    12236 
   12151    12253    12391    12359    12189    12160    12387    12487 
   12189    12015    12285    12452    12270    12133    12189    12168 
   12199    12455    12436    12189    12217    12298    12297    12271 
   12133    12145    12299    12337    12361    12305    12109    12118 
   12422    12580    12344    12158    12328    12401    12177    12129 
   12328    12388    12312    12224    12191    12375    12502    12270 
   12109    12172    12178    12293    12409    12143    11978    12324 
   12569    12429    12260    12197    12214    12289    12363    12345 
   12267    12268    12205    12063    12236    12496    12291    12067 
   12310    12480    12208    12010    12258    12478    12339    12235 
   12294    12263    12293    12417    12337    12152    12172    12360 
   12453    12330    12079    11998    12249    12467    12361    12213 
   12329    12372    12078    12093    12506    12488    12087    12056 
   12403    12447    12093    12016    12322    12487    12366    12189 
   12112    12133    12236    12356    12376    12360    12301    12195 
   12274    12391    12329    12276    12267    12247    12285    12271 
   12198    12217    12240    12287    12343    12187    12106    12320 
   12405    12220    12167    12375    12399    12189    12262    12430 
   12263    12127    12325    12479    12306    12148    12271    12395 
   12333    12198    12133    12243    12351    12264    12185    12183 
   12144    12229    12403    12401    12313    12289    12278    12291 
   12333    12318    12244    12189    12152    12197    12364    12402 
   12232    12205    12360    12349    12280    12388    12374    12131 
   12020    12208    12375    12285    12226    12283    12253    12280 
   12367    12298    12233    12344    12422    12285    12127    12235 
   12428    12387    12232    12160    12191    12302    12312    12131 
   12078    12359    12573    12357    12063    12120    12357    12417 
   12282    12221    12325    12303    12178    12310    12440    12260 
   12212    12399    12326    12090    12120    12272    12361    12393 
   12291    12202    12202    12231    12286    12244    12183    12218 
   12271    12401    12425    12164    12069    12384    12563    12287 
   12071    12264    12492    12355    12091    12152    12293    12178 
   12187    12360    12274    12112    12221    12402    12353    12221 
   12249    12305    12312    12382    12322    12105    12139    12390 
   12399    12181    12154    12333    12394    12306    12205    12171 
   12231    12243    12222    12351    12424    12252    12210    12417 
   12378    12058    12024    12305    12448    12393    12267    12125 
   12168    12399    12467    12255    12124    12237    12318    12280 
   12312    12361    12204    12031    12274    12582    12394    12116 
   12160    12351    12479    12330    12093    12178    12399    12357 
   12112    12048    12225    12341    12363    12309    12191    12239 
   12366    12283    12185    12321    12411    12245    12175    12305 
   12318    12189    12152    12337    12476    12332    12182    12248 
   12399    12372    12174    12241    12433    12325    12249    12279 
   12162    12190    12390    12355    12167    12164    12299    12313 
   12156    12129    12320    12339    12226    12276    12305    12306 
   12418    12399    12259    12268    12258    12141    12191    12289 
   12249    12220    12267    12345    12326    12274    12332    12274 
   12129    12152    12251    12425    12469    12147    12054    12379 
   12453    12244    12140    12221    12401    12391    12098    12009 
   12353    12572    12364    12171    12195    12213    12214    12278 
   12333    12333    12280    12240    12217    12154    12225    12490 
   12455    12081    12109    12465    12449    12237    12258    12314 
   12291    12366    12420    12347    12279    12175    12069    12164 
   12339    12329    12232    12259    12294    12204    12185    12293 
   12371    12401    12310    12129    12143    12324    12351    12239 
   12177    12181    12272    12275    12102    12232    12540    12383 
   12108    12231    12371    12268    12245    12307    12237    12212 
   12251    12243    12291    12272    12213    12299    12367    12390 
   12341    12117    12116    12399    12455    12294    12224    12166 
   12052    12198    12598    12577    12102    11951    12262    12509 
   12432    12179    12032    12164    12380    12368    12271    12268 
   12235    12205    12291    12383    12348    12330    12403    12312 
   12168    12258    12337    12195    12163    12397    12351    12060 
   12193    12455    12429    12303    12118    12137    12430    12447 
   12183    12059    12179    12380    12359    12283    12339    12237 
   12155    12263    12258    12260    12425    12380    12056    11946 
   12259    12479    12309    12209    12303    12302    12236    12181 
   12077    12139    12482    12541    12168    12104    12403    12414 
   12162    12139    12278    12214    12174    12364    12355    12148 
   12193    12336    12355    12379    12329    12127    12121    12391 
   12451    12337    12348    12231    12097    12317    12603    12590 
   12306    12139    12286    12341    12229    12266    12344    12372 
   12339    12171    12181    12398    12425    12275    12148    12145 
   12191    12125    12187    12486    12505    12117    12015    12317 
   12374    12226    12282    12280    12054    12055    12352    12420 
   12237    12159    12228    12351    12301    12131    12248    12464 
   12337    12086    12172    12449    12356    12009    12087    12432 
   12367    12190    12347    12482    12376    12186    12147    12370 
   12464    12294    12177    12128    12266    12552    12293    11797 
   12101    12587    12289    11994    12289    12487    12366    12181 
   12120    12316    12425    12318    12271    12183    12100    12289 
   12486    12322    12064    12190    12461    12378    12198    12313 
   12544    12460    12089    12081    12434    12401    12151    12287 
   12405    12244    12332    12515    12322    12073    12048    12151 
   12274    12214    12087    12294    12533    12376    12206    12221 
   12264    12399    12367    12059    12031    12312    12380    12202 
   12083    12190    12305    12178    12177    12468    12476    12151 
   12054    12233    12384    12388    12251    12150    12186    12220 
   12241    12326    12409    12379    12310    12371    12384    12218 
   12181    12301    12337    12268    12190    12259    12353    12286 
   12221    12125    12086    12414    12676    12387    12035    12214 
   12575    12548    12326    12205    12141    12252    12451    12307 
   12004    12058    12263    12279    12283    12368    12299    12036 
   11956    12256    12491    12347    12128    12101    12208    12259 
   12274    12441    12491    12297    12298    12436    12329    12163 
   12233    12406    12425    12299    12239    12289    12263    12137 
   12124    12140    12085    12195    12343    12316    12271    12297 
   12440    12495    12297    12202    12348    12468    12409    12349 
   12437    12442    12329    12266    12287    12406    12376    12191 
   12197    12185    11974    11996    12313    12417    12216    12046 
   12055    12194    12241    12150    12174    12301    12271    12100 
   12177    12565    12648    12329    12224    12306    12267    12231 
   12232    12237    12322    12422    12364    12187    12247    12522 
   12498    12194    12067    12218    12387    12364    12283    12285 
   12313    12405    12456    12322    12253    12333    12279    12181 
   12313    12379    12166    12120    12275    12154    11977    12182 
   12360    12102    11963    12270    12367    12178    12259    12390 
   12256    12105    12174    12349    12332    12217    12355    12494 
   12252    12123    12388    12384    12175    12343    12371    12051 
   12144    12472    12337    12033    12085    12344    12386    12255 
   12316    12376    12224    12258    12471    12483    12380    12352 
   12325    12249    12233    12237    12224    12283    12247    12117 
   12135    12168    12121    12127    12264    12434    12376    12263 
   12360    12421    12394    12394    12363    12368    12409    12461 
   12544    12518    12417    12359    12297    12193    12098    12154 
   12320    12324    12137    11982    11908    11927    12100    12158 
   11928    11878    12190    12295    12101    12124    12262    12168 
   12163    12305    12229    12197    12379    12336    12129    12193 
   12421    12447    12359    12464    12586    12553    12587    12591 
   12344    12178    12351    12495    12348    12245    12339    12209 
   11927    12047    12283    12060    11832    12066    12268    12225 
   12325    12426    12302    12367    12642    12748    12754    12671 
   12422    12333    12441    12415    12361    12387    12097    11635 
   11647    12009    12131    11911    11784    12000    12205    12125 
   11921    11831    12081    12546    12532    12083    12263    12934 
   13005    12745    12806    12733    12394    12290    12353    12310 
   12202    12141    12108    12151    12351    12332    11990    11936 
   12158    12168    12208    12457    12464    12201    12205    12602 
   12831    12611    12434    12451    12344    12131    11911    11805 
   11840    11805    11680    11754    12067    12144    12081    12379 
   12684    12564    12299    12314    12480    12464    12456    12568 
   12772    12964    12613    12035    11993    12032    11839    11878 
   12118    12226    12235    12289    12191    11846    11827    12209 
   12312    12172    12278    12469    12375    12367    12758    12816 
   12455    12487    12702    12610    12488    12407    12236    12109 
   12020    11973    12051    11996    11878    12137    12393    12233 
   12083    12082    12073    12303    12631    12569    12324    12328 
   12448    12449    12414    12422    12403    12360    12340    12206 
   12036    12193    12332    12181    12217    12186    11834    11803 
   12135    12370    12428    12351    12252    12187    12096    12141 
   12403    12523    12272    11990    12048    12222    12251    12287 
   12352    12413    12553    12545    12318    12344    12507    12275 
   12144    12611    12814    12186    11790    12372    12779    12267 
   11858    11982    12058    12043    12280    12654    12536    11924 
   11608    11743    12096    12478    12422    12186    12352    12541 
   12478    12388    12191    12101    12484    12861    12656    12074 
   11834    12208    12496    12457    12514    12409    12070    12002 
   12010    11816    11823    11935    11970    12410    12803    12415 
   12029    12328    12757    12731    12440    12436    12663    12687 
   12507    12371    12209    11769    11560    12187    12810    12511 
   11870    11769    12190    12467    12231    12008    12209    12344 
   12240    12275    12447    12467    12348    12483    12692    12509 
   12398    12618    12753    12694    12330    11766    11560    11754 
   11959    11998    11865    11847    12191    12451    12302    12247 
   12519    12703    12506    12212    12258    12339    12108    12017 
   12144    12131    12152    12353    12482    12347    11907    11576 
   11924    12393    12322    12298    12378    12218    12255    12306 
   12063    12170    12793    13042    12519    12116    12255    12367 
   12339    12307    12249    12193    12163    12247    12290    12302 
   12515    12538    12324    12330    12410    12383    12332    12123 
   11862    11979    12266    12131    11917    12329    12830    12548 
   12150    12376    12407    11896    11746    12121    12542    12874 
   12802    12422    12344    12291    12060    12145    12280    12151 
   12182    12235    12008    12000    12290    12263    12027    12170 
   12509    12476    12062    11874    12233    12491    12460    12640 
   12607    12305    12433    12522    12256    12155    12056    11884 
   11982    12293    12534    12352    11902    11870    12056    11947 
   12017    12464    12557    12241    12191    12445    12559    12445 
   12459    12622    12472    12178    12231    12496    12510    12039 
   11701    12006    12224    12132    12364    12526    12217    12306 
   12842    12789    12352    12316    12326    12124    12140    12247 
   12251    12390    12526    12330    11977    11985    12239    12241 
   12237    12449    12407    12040    11897    12135    12309    12125 
   11977    12312    12675    12599    12424    12202    11911    12012 
   12228    12012    11851    12164    12415    12286    12232    12359 
   12434    12496    12353    12091    12120    12321    12482    12451 
   12226    12185    12248    12226    12384    12486    12186    12071 
   12472    12742    12480    12097    12027    12117    12152    12316 
   12525    12495    12464    12469    12289    12294    12421    12083 
   11819    12251    12576    12306    12181    12351    12303    12290 
   12434    12321    12179    12252    12260    12191    12229    12426 
   12460    12201    12189    12279    12024    11919    12052    11981 
   12009    12307    12372    12276    12413    12383    11992    12032 
   12599    12737    12249    11985    12374    12754    12507    12104 
   12070    12197    12231    12163    12241    12490    12413    12155 
   12299    12559    12457    12293    12301    12264    12210    12210 
   12028    11807    11969    12276    12364    12495    12661    12395 
   11932    12082    12532    12401    12151    12360    12475    12274 
   12226    12263    12113    12218    12548    12340    11998    12140 
   12070    11858    12143    12291    12189    12399    12484    12305 
   12475    12677    12345    12195    12437    12266    12187    12453 
   12202    12098    12503    12422    12154    12137    12042    12106 
   12309    12334    12341    12285    12218    12379    12356    12039 
   11982    12202    12399    12475    12391    12283    12306    12387 
   12218    12028    12282    12505    12484    12561    12457    12152 
   12116    12351    12440    12225    12202    12430    12231    11843 
   11982    12189    12110    12237    12376    12232    12235    12364 
   12253    12117    12276    12452    12343    12260    12384    12429 
   12322    12345    12474    12293    12017    12145    12286    12071 
   11927    12155    12332    12170    12113    12226    12175    12182 
   12428    12556    12348    12268    12571    12591    12222    12235 
   12550    12548    12355    12236    12174    12302    12526    12478 
   12216    12112    12206    12209    12131    12199    12159    11940 
   11969    12163    12298    12507    12592    12368    12236    12309 
   12263    12237    12353    12302    12235    12301    12178    12070 
   12194    12293    12364    12249    11934    12005    12415    12561 
   12349    12225    12455    12563    12216    11955    12162    12364 
   12224    12136    12274    12372    12421    12399    12282    12318 
   12393    12298    12251    12252    12191    12226    12429    12573 
   12441    12258    12233    12179    12117    12143    12167    12208 
   12279    12278    12093    11990    12252    12312    12023    12163 
   12463    12313    12256    12418    12349    12249    12289    12386 
   12483    12336    12151    12224    12159    12164    12650    12665 
   12040    11982    12343    12322    12120    12086    12239    12318 
   12220    12236    12355    12386    12353    12383    12451    12232 
   11989    12160    12275    12170    12221    12376    12507    12459 
   12221    12194    12379    12332    12008    11898    12137    12266 
   12213    12228    12258    12256    12285    12324    12299    12286 
   12375    12259    12015    12221    12511    12302    12070    12306 
   12672    12636    12282    12102    12139    12210    12344    12414 
   12420    12401    12198    12208    12579    12579    12302    12436 
   12611    12372    12191    12295    12318    12204    12094    12127 
   12193    11920    11799    12197    12287    12058    12201    12353 
   12202    12204    12279    12224    12334    12324    12043    12148 
   12468    12449    12318    12185    12195    12586    12699    12375 
   12299    12260    12058    12082    12245    12372    12357    12093 
   12037    12360    12442    12289    12276    12231    12221    12405 
   12488    12355    12186    12156    12278    12382    12334    12208 
   12198    12283    12263    12155    12198    12374    12260    12029 
   12220    12367    12116    12048    12307    12509    12468    12330 
   12312    12272    12206    12275    12199    12010    12163    12359 
   12162    12104    12401    12506    12440    12401    12194    12023 
   12276    12572    12455    12298    12321    12360    12478    12465 
   12140    11921    12063    12297    12328    12208    12226    12314 
   12129    12058    12441    12480    12037    12066    12453    12488 
   12363    12411    12529    12505    12222    12112    12414    12480 
   12209    12133    12185    12145    12082    12089    12232    12353 
   12326    12260    12212    12194    12194    12224    12384    12453 
