Origin Time       2025/03/30 21:30:00
Lat.              38.535
Long.             142.295
Depth. (km)       44
Mag.              4.3
Station Code      IWTH16
Station Lat.      39.6436
Station Long.     140.9465
Station Height(m) 212
Record Time       2025/03/30 21:31:43
Sampling Freq(Hz) 100Hz
Duration Time(s)  120
Dir.              6
Scale Factor      7845(gal)/8223790
Max. Acc. (gal)   0.259
Last Correction   2025/03/30 21:31:44
Memo.             
[...]
  -22179   -22169   -22204   -22246   -22245   -22230   -22237   -22241 
  -22245   -22276   -22315   -22324   -22283   -22235   -22235   -22260 
  -22289   -22326   -22295   -22206   -22191   -22254   -22261   -22189 
  -22150   -22185   -22231   -22243   -22226   -22222   -22270   -22318 
  -22315   -22296   -22266   -22223   -22235   -22307   -22323   -22265 
  -22234   -22264   -22295   -22279   -22215   -22180   -22225   -22273 
  -22272   -22266   -22262   -22266   -22306   -22331   -22310   -22288 
  -22266   -22239   -22264   -22316   -22320   -22285   -22266   -22270 
  -22272   -22262   -22246   -22238   -22254   -22287   -22300   -22288 
  -22273   -22273   -22284   -22279   -22253   -22231   -22207   -22191 
  -22211   -22226   -22207   -22208   -22239   -22256   -22280   -22349 
  -22392   -22338   -22257   -22253   -22291   -22295   -22264   -22221 
  -22200   -22223   -22239   -22223   -22211   -22237   -22257   -22229 
  -22214   -22246   -22277   -22276   -22237   -22194   -22196   -22218 
  -22216   -22221   -22238   -22256   -22291   -22315   -22289   -22257 
  -22268   -22299   -22296   -22238   -22189   -22195   -22229   -22264 
  -22279   -22272   -22281   -22322   -22338   -22280   -22196   -22175 
  -22233   -22289   -22279   -22246   -22246   -22283   -22330   -22327 
  -22266   -22242   -22285   -22314   -22276   -22225   -22243   -22316 
  -22343   -22289   -22234   -22249   -22306   -22330   -22288   -22227 
  -22202   -22212   -22241   -22216   -22134   -22121   -22208   -22269 
  -22269   -22281   -22308   -22316   -22306   -22293   -22273   -22253 
  -22250   -22245   -22243   -22291   -22342   -22310   -22249   -22262 
  -22329   -22350   -22291   -22229   -22243   -22299   -22315   -22272 
  -22219   -22215   -22238   -22225   -22192   -22202   -22262   -22318 
  -22308   -22248   -22214   -22207   -22192   -22204   -22246   -22275 
  -22280   -22252   -22207   -22207   -22252   -22289   -22285   -22257 
  -22252   -22264   -22237   -22195   -22208   -22250   -22249   -22223 
  -22237   -22283   -22306   -22297   -22269   -22234   -22222   -22227 
  -22215   -22204   -22246   -22314   -22341   -22307   -22250   -22221 
  -22241   -22284   -22310   -22307   -22295   -22303   -22329   -22327 
  -22312   -22299   -22268   -22257   -22299   -22307   -22235   -22173 
  -22188   -22227   -22219   -22184   -22181   -22237   -22306   -22316 
  -22285   -22283   -22304   -22308   -22293   -22269   -22227   -22181 
  -22167   -22188   -22230   -22252   -22223   -22208   -22258   -22312 
  -22327   -22327   -22318   -22295   -22269   -22239   -22198   -22162 
  -22176   -22227   -22266   -22308   -22342   -22308   -22242   -22202 
  -22184   -22196   -22238   -22281   -22299   -22296   -22289   -22276 
  -22256   -22256   -22287   -22295   -22253   -22214   -22216   -22257 
  -22320   -22329   -22249   -22192   -22214   -22239   -22226   -22227 
  -22272   -22314   -22342   -22354   -22327   -22280   -22257   -22254 
  -22257   -22257   -22262   -22272   -22270   -22275   -22285   -22277 
  -22253   -22238   -22249   -22265   -22242   -22207   -22223   -22256 
  -22257   -22246   -22262   -22285   -22257   -22204   -22187   -22191 
  -22204   -22233   -22257   -22275   -22307   -22341   -22343   -22314 
  -22280   -22256   -22241   -22248   -22284   -22322   -22345   -22361 
  -22353   -22324   -22291   -22264   -22252   -22241   -22234   -22227 
  -22191   -22157   -22167   -22206   -22222   -22195   -22184   -22222 
  -22261   -22275   -22289   -22322   -22338   -22315   -22276   -22264 
  -22289   -22281   -22204   -22153   -22192   -22257   -22262   -22214 
  -22181   -22212   -22254   -22241   -22206   -22206   -22233   -22258 
  -22280   -22288   -22296   -22324   -22329   -22265   -22195   -22206 
  -22250   -22258   -22265   -22291   -22319   -22330   -22303   -22262 
  -22245   -22231   -22199   -22152   -22134   -22191   -22293   -22350 
  -22327   -22287   -22293   -22333   -22334   -22273   -22227   -22257 
  -22300   -22281   -22222   -22194   -22218   -22266   -22312   -22319 
  -22262   -22226   -22235   -22237   -22242   -22253   -22234   -22223 
  -22260   -22302   -22316   -22316   -22306   -22276   -22248   -22234 
  -22239   -22238   -22198   -22146   -22138   -22168   -22196   -22219 
  -22285   -22369   -22362   -22299   -22292   -22307   -22299   -22315 
  -22338   -22323   -22293   -22261   -22239   -22233   -22208   -22177 
  -22171   -22194   -22235   -22283   -22319   -22323   -22307   -22296 
  -22279   -22250   -22229   -22198   -22188   -22246   -22329   -22372 
  -22346   -22283   -22248   -22246   -22241   -22242   -22239   -22227 
  -22253   -22296   -22295   -22275   -22272   -22262   -22230   -22215 
  -22230   -22258   -22315   -22358   -22315   -22260   -22307   -22374 
  -22333   -22227   -22187   -22226   -22235   -22183   -22148   -22154 
  -22158   -22158   -22196   -22248   -22261   -22234   -22229   -22280 
  -22315   -22292   -22265   -22243   -22211   -22216   -22262   -22257 
  -22199   -22180   -22211   -22235   -22223   -22196   -22208   -22280 
  -22356   -22358   -22308   -22316   -22369   -22380   -22347   -22300 
  -22261   -22270   -22292   -22258   -22200   -22188   -22218   -22238 
  -22249   -22269   -22272   -22250   -22234   -22219   -22208   -22222 
  -22242   -22230   -22215   -22260   -22341   -22368   -22318   -22256 
  -22226   -22235   -22261   -22254   -22234   -22245   -22279   -22289 
  -22265   -22233   -22211   -22233   -22303   -22358   -22331   -22252 
  -22216   -22258   -22306   -22297   -22261   -22252   -22264   -22261 
  -22234   -22218   -22277   -22368   -22365   -22287   -22238   -22235 
  -22254   -22276   -22253   -22188   -22164   -22207   -22246   -22229 
  -22188   -22181   -22229   -22269   -22246   -22188   -22173   -22211 
  -22242   -22245   -22241   -22246   -22262   -22291   -22303   -22275 
  -22250   -22268   -22312   -22351   -22351   -22320   -22306   -22316 
  -22295   -22238   -22215   -22231   -22243   -22264   -22284   -22284 
  -22297   -22326   -22330   -22314   -22302   -22303   -22292   -22249 
  -22215   -22237   -22295   -22304   -22239   -22184   -22181   -22208 
  -22250   -22260   -22234   -22239   -22261   -22277   -22308   -22311 
  -22261   -22241   -22265   -22265   -22245   -22234   -22219   -22222 
  -22264   -22288   -22254   -22199   -22176   -22207   -22246   -22241 
  -22229   -22243   -22270   -22283   -22266   -22243   -22245   -22289 
  -22345   -22326   -22242   -22211   -22246   -22253   -22223   -22204 
  -22206   -22212   -22218   -22222   -22231   -22262   -22296   -22283 
  -22249   -22252   -22250   -22229   -22248   -22281   -22276   -22277 
  -22312   -22314   -22268   -22231   -22226   -22233   -22235   -22262 
  -22326   -22345   -22297   -22256   -22235   -22242   -22270   -22257 
  -22208   -22195   -22211   -22223   -22231   -22241   -22254   -22262 
  -22252   -22216   -22215   -22287   -22334   -22311   -22303   -22318 
  -22323   -22315   -22264   -22195   -22184   -22225   -22257   -22266 
  -22272   -22266   -22246   -22264   -22304   -22291   -22260   -22281 
  -22327   -22366   -22377   -22341   -22311   -22315   -22287   -22238 
  -22234   -22230   -22183   -22154   -22185   -22225   -22227   -22208 
  -22225   -22265   -22266   -22258   -22296   -22326   -22300   -22268 
  -22264   -22257   -22250   -22258   -22266   -22248   -22212   -22207 
  -22241   -22241   -22194   -22171   -22179   -22185   -22198   -22249 
  -22339   -22389   -22354   -22302   -22289   -22306   -22318   -22302 
  -22265   -22249   -22239   -22206   -22177   -22176   -22177   -22185 
  -22204   -22227   -22265   -22314   -22345   -22361   -22327   -22237 
  -22199   -22256   -22304   -22273   -22221   -22211   -22226   -22225 
  -22207   -22180   -22189   -22246   -22279   -22277   -22273   -22266 
  -22268   -22257   -22222   -22237   -22307   -22334   -22310   -22308 
  -22333   -22342   -22322   -22265   -22214   -22238   -22288   -22268 
  -22225   -22238   -22288   -22310   -22276   -22237   -22252   -22300 
  -22316   -22291   -22280   -22310   -22323   -22258   -22185   -22192 
  -22225   -22237   -22246   -22245   -22242   -22243   -22210   -22177 
  -22195   -22233   -22260   -22261   -22243   -22238   -22258   -22276 
  -22283   -22295   -22300   -22283   -22266   -22265   -22246   -22238 
  -22272   -22277   -22238   -22233   -22269   -22295   -22276   -22234 
  -22252   -22307   -22292   -22207   -22160   -22210   -22289   -22302 
  -22273   -22276   -22318   -22360   -22368   -22330   -22262   -22210 
  -22215   -22243   -22219   -22144   -22103   -22140   -22200   -22237 
  -22237   -22227   -22257   -22323   -22373   -22368   -22330   -22315 
  -22342   -22370   -22327   -22227   -22181   -22218   -22269   -22297 
  -22304   -22288   -22250   -22219   -22203   -22176   -22148   -22145 
  -22150   -22142   -22154   -22231   -22312   -22318   -22283   -22284 
  -22315   -22341   -22339   -22297   -22265   -22264   -22245   -22212 
  -22189   -22162   -22167   -22250   -22338   -22341   -22307   -22320 
  -22347   -22341   -22331   -22331   -22303   -22246   -22216   -22230 
  -22245   -22229   -22218   -22249   -22281   -22269   -22227   -22206 
  -22214   -22239   -22269   -22262   -22239   -22266   -22299   -22279 
  -22256   -22245   -22222   -22194   -22198   -22261   -22329   -22342 
  -22345   -22342   -22289   -22253   -22265   -22234   -22177   -22211 
  -22289   -22318   -22295   -22239   -22196   -22229   -22285   -22284 
  -22276   -22297   -22287   -22245   -22229   -22206   -22158   -22171 
  -22238   -22245   -22206   -22194   -22206   -22260   -22318   -22292 
  -22211   -22177   -22227   -22307   -22331   -22299   -22245   -22176 
  -22138   -22162   -22221   -22268   -22270   -22253   -22254   -22292 
  -22361   -22399   -22392   -22407   -22435   -22414   -22358   -22320 
  -22343   -22396   -22370   -22252   -22154   -22149   -22177   -22154 
  -22125   -22175   -22266   -22293   -22243   -22188   -22167   -22164 
  -22164   -22198   -22303   -22408   -22410   -22362   -22377   -22396 
  -22324   -22189   -22068   -22017   -22036   -22048   -22022   -22045 
  -22157   -22281   -22329   -22316   -22323   -22353   -22376   -22388 
  -22378   -22360   -22350   -22341   -22324   -22289   -22249   -22237 
  -22218   -22188   -22187   -22188   -22145   -22086   -22067   -22110 
  -22206   -22293   -22327   -22349   -22388   -22416   -22437   -22447 
  -22397   -22306   -22258   -22250   -22223   -22183   -22144   -22118 
  -22115   -22135   -22169   -22204   -22242   -22296   -22343   -22331 
  -22276   -22260   -22299   -22299   -22227   -22177   -22212   -22292 
  -22319   -22253   -22221   -22326   -22438   -22408   -22319   -22273 
  -22260   -22261   -22258   -22234   -22223   -22270   -22319   -22289 
  -22219   -22210   -22260   -22307   -22310   -22284   -22288   -22370 
  -22458   -22445   -22385   -22373   -22349   -22266   -22230   -22281 
  -22300   -22246   -22223   -22253   -22248   -22188   -22135   -22154 
  -22206   -22180   -22090   -22052   -22095   -22171   -22226   -22233 
  -22216   -22223   -22239   -22257   -22302   -22331   -22283   -22185 
  -22146   -22227   -22335   -22351   -22306   -22268   -22231   -22219 
  -22253   -22257   -22184   -22123   -22122   -22118   -22131   -22204 
  -22277   -22310   -22323   -22316   -22299   -22302   -22296   -22221 
  -22126   -22145   -22279   -22393   -22410   -22369   -22350   -22343 
  -22308   -22302   -22370   -22403   -22302   -22160   -22126   -22183 
  -22223   -22231   -22256   -22279   -22283   -22297   -22288   -22237 
  -22223   -22252   -22230   -22160   -22126   -22165   -22264   -22368 
  -22400   -22374   -22341   -22318   -22334   -22387   -22431   -22419 
  -22356   -22295   -22273   -22265   -22225   -22188   -22194   -22175 
  -22106   -22077   -22167   -22297   -22338   -22307   -22307   -22339 
  -22330   -22272   -22243   -22276   -22291   -22237   -22175   -22168 
  -22198   -22242   -22296   -22302   -22237   -22181   -22199   -22252 
  -22257   -22215   -22239   -22341   -22404   -22387   -22350   -22329 
  -22295   -22235   -22199   -22218   -22265   -22299   -22297   -22264 
  -22218   -22177   -22160   -22157   -22152   -22154   -22168   -22157 
  -22125   -22115   -22138   -22157   -22175   -22243   -22345   -22397 
  -22395   -22368   -22350   -22384   -22422   -22383   -22283   -22215 
  -22195   -22168   -22131   -22121   -22137   -22154   -22150   -22152 
  -22195   -22269   -22337   -22366   -22342   -22273   -22235   -22275 
  -22320   -22338   -22353   -22333   -22287   -22299   -22335   -22304 
  -22242   -22222   -22212   -22189   -22206   -22273   -22339   -22364 
  -22349   -22327   -22323   -22345   -22343   -22269   -22177   -22133 
  -22146   -22169   -22145   -22108   -22134   -22181   -22191   -22188 
  -22229   -22284   -22288   -22266   -22289   -22341   -22395   -22424 
  -22397   -22351   -22360   -22389   -22323   -22161   -22050   -22041 
  -22071   -22117   -22171   -22208   -22258   -22323   -22362   -22381 
  -22396   -22392   -22381   -22384   -22354   -22283   -22262   -22311 
  -22335   -22289   -22226   -22180   -22180   -22227   -22243   -22212 
  -22202   -22204   -22216   -22254   -22295   -22312   -22315   -22314 
  -22318   -22303   -22239   -22169   -22173   -22226   -22231   -22204 
  -22214   -22261   -22295   -22281   -22218   -22168   -22207   -22296 
  -22327   -22307   -22287   -22242   -22173   -22172   -22242   -22268 
  -22252   -22295   -22405   -22516   -22530   -22403   -22252   -22223 
  -22291   -22306   -22202   -22086   -22052   -22071   -22075   -22057 
  -22115   -22307   -22486   -22512   -22454   -22423   -22423   -22381 
  -22270   -22171   -22125   -22094   -22073   -22103   -22157   -22164 
  -22125   -22080   -22073   -22142   -22216   -22225   -22226   -22256 
  -22300   -22347   -22381   -22422   -22457   -22462   -22447   -22418 
  -22368   -22285   -22184   -22129   -22117   -22122   -22164   -22219 
  -22269   -22323   -22351   -22342   -22333   -22341   -22327   -22248 
  -22138   -22086   -22117   -22165   -22196   -22253   -22296   -22269 
  -22225   -22221   -22266   -22353   -22420   -22396   -22281   -22216 
  -22276   -22331   -22296   -22249   -22226   -22196   -22164   -22133 
  -22099   -22107   -22184   -22237   -22214   -22202   -22219   -22227 
  -22252   -22288   -22302   -22311   -22335   -22366   -22393   -22380 
  -22334   -22307   -22314   -22296   -22191   -22060   -22041   -22104 
  -22141   -22171   -22219   -22250   -22303   -22400   -22461   -22443 
  -22395   -22372   -22383   -22403   -22391   -22343   -22306   -22289 
  -22264   -22216   -22188   -22226   -22275   -22270   -22266   -22292 
  -22288   -22266   -22284   -22297   -22234   -22142   -22083   -22065 
  -22103   -22173   -22227   -22260   -22275   -22266   -22242   -22237 
  -22291   -22366   -22403   -22391   -22339   -22283   -22256   -22237 
  -22215   -22218   -22223   -22227   -22264   -22266   -22198   -22169 
  -22214   -22254   -22264   -22276   -22311   -22346   -22345   -22307 
  -22252   -22194   -22161   -22171   -22194   -22188   -22160   -22149 
  -22171   -22210   -22200   -22125   -22115   -22203   -22230   -22188 
  -22215   -22279   -22299   -22327   -22377   -22392   -22381   -22376 
  -22369   -22342   -22289   -22221   -22160   -22140   -22172   -22219 
  -22253   -22264   -22252   -22238   -22257   -22330   -22418   -22464 
  -22461   -22427   -22391   -22366   -22341   -22297   -22239   -22162 
  -22119   -22145   -22165   -22149   -22145   -22165   -22187   -22198 
  -22198   -22207   -22260   -22341   -22373   -22329   -22279   -22291 
  -22323   -22310   -22296   -22342   -22380   -22366   -22361   -22360 
  -22339   -22306   -22226   -22127   -22103   -22126   -22130   -22146 
  -22184   -22219   -22258   -22285   -22281   -22273   -22266   -22246 
  -22235   -22242   -22266   -22293   -22280   -22227   -22194   -22196 
  -22199   -22206   -22231   -22239   -22237   -22273   -22319   -22310 
  -22293   -22315   -22324   -22319   -22347   -22370   -22329   -22264 
  -22237   -22246   -22277   -22291   -22265   -22242   -22225   -22195 
  -22191   -22234   -22287   -22326   -22364   -22378   -22366   -22350 
  -22315   -22270   -22261   -22264   -22252   -22223   -22169   -22108 
  -22069   -22038   -22019   -22060   -22144   -22189   -22177   -22177 
  -22221   -22257   -22269   -22279   -22281   -22293   -22331   -22341 
  -22270   -22180   -22165   -22237   -22323   -22337   -22291   -22280 
  -22318   -22319   -22273   -22265   -22304   -22323   -22310   -22303 
  -22308   -22297   -22272   -22246   -22230   -22258   -22310   -22285 
  -22196   -22188   -22285   -22361   -22347   -22306   -22307   -22337 
  -22339   -22287   -22227   -22227   -22262   -22257   -22200   -22148 
  -22145   -22167   -22177   -22184   -22194   -22211   -22222   -22230 
  -22291   -22366   -22341   -22249   -22227   -22285   -22333   -22323 
  -22297   -22311   -22364   -22397   -22373   -22300   -22245   -22227 
  -22188   -22125   -22113   -22179   -22257   -22287   -22273   -22268 
  -22285   -22281   -22235   -22212   -22280   -22369   -22369   -22322 
  -22320   -22345   -22347   -22320   -22280   -22266   -22281   -22270 
  -22254   -22266   -22245   -22169   -22117   -22126   -22165   -22181 
  -22183   -22218   -22289   -22341   -22311   -22222   -22149   -22134 
  -22175   -22225   -22258   -22293   -22338   -22350   -22302   -22231 
  -22204   -22239   -22285   -22293   -22273   -22245   -22208   -22173 
  -22137   -22091   -22087   -22168   -22293   -22391   -22432   -22427 
  -22389   -22357   -22351   -22337   -22287   -22231   -22208   -22222 
  -22245   -22246   -22243   -22268   -22276   -22233   -22211   -22233 
  -22233   -22185   -22115   -22072   -22094   -22160   -22225   -22266 
  -22300   -22346   -22395   -22410   -22353   -22272   -22258   -22302 
  -22327   -22310   -22291   -22303   -22316   -22319   -22327   -22318 
  -22280   -22257   -22270   -22287   -22268   -22233   -22230   -22262 
  -22288   -22289   -22308   -22360   -22378   -22312   -22239   -22239 
  -22246   -22206   -22157   -22119   -22098   -22104   -22134   -22180 
  -22231   -22273   -22292   -22310   -22334   -22318   -22272   -22261 
  -22258   -22248   -22265   -22289   -22281   -22265   -22264   -22258 
  -22216   -22152   -22110   -22114   -22158   -22222   -22269   -22288 
  -22323   -22383   -22400   -22358   -22331   -22322   -22266   -22188 
  -22164   -22183   -22181   -22195   -22266   -22312   -22287   -22277 
  -22314   -22318   -22308   -22342   -22378   -22370   -22327   -22292 
  -22279   -22248   -22199   -22184   -22218   -22245   -22218   -22157 
  -22122   -22135   -22160   -22169   -22203   -22272   -22330   -22378 
  -22430   -22422   -22347   -22291   -22277   -22285   -22312   -22326 
  -22295   -22281   -22306   -22306   -22273   -22238   -22200   -22188 
  -22218   -22237   -22222   -22204   -22211   -22227   -22226   -22218 
  -22221   -22243   -22275   -22276   -22252   -22252   -22268   -22257 
  -22218   -22194   -22206   -22233   -22268   -22291   -22283   -22287 
  -22339   -22387   -22372   -22320   -22265   -22225   -22208   -22211 
  -22225   -22250   -22288   -22315   -22304   -22280   -22280   -22302 
  -22296   -22250   -22211   -22195   -22204   -22233   -22237   -22230 
