Origin Time       2025/03/30 21:30:00
Lat.              38.535
Long.             142.295
Depth. (km)       44
Mag.              4.3
Station Code      IWTH22
Station Lat.      39.3340
Station Long.     141.3015
Station Height(m) 260
Record Time       2025/03/30 21:31:30
Sampling Freq(Hz) 100Hz
Duration Time(s)  120
Dir.              4
Scale Factor      7845(gal)/8223790
Max. Acc. (gal)   1.524
Last Correction   2025/03/30 21:31:30
Memo.             
[...]
   -2775    -2897    -3176    -3319    -3284    -3168    -3009    -2936 
   -3075    -3225    -3117    -2879    -2887    -3203    -3271    -2983 
   -3080    -3434    -3291    -2884    -2770    -2907    -3033    -3117 
   -3219    -3204    -3134    -3144    -3036    -2862    -2867    -2995 
   -3149    -3279    -3288    -3152    -3019    -3061    -3123    -3118 
   -3188    -3171    -2967    -2938    -3153    -3110    -2762    -2743 
   -3144    -3346    -3167    -3032    -3157    -3289    -3222    -3052 
   -2960    -2970    -2995    -3082    -3173    -3092    -3007    -3110 
   -3191    -3145    -3048    -2965    -3006    -3125    -3171    -3118 
   -3079    -3094    -3056    -3049    -3137    -3103    -3026    -3061 
   -3028    -3032    -3222    -3221    -2964    -2943    -3142    -3134 
   -3072    -3149    -3096    -2963    -2983    -3107    -3156    -3080 
   -3110    -3221    -3153    -3036    -2979    -2975    -3071    -3080 
   -3003    -3094    -3196    -3129    -3152    -3292    -3203    -2948 
   -2893    -2976    -2938    -2953    -3140    -3168    -3083    -3142 
   -3149    -3014    -2978    -3148    -3238    -3144    -3202    -3254 
   -3057    -2991    -3042    -2857    -2710    -2924    -3258    -3384 
   -3217    -3106    -3364    -3495    -3083    -2678    -2733    -2937 
   -2929    -2883    -3017    -3073    -3010    -3088    -3325    -3564 
   -3507    -3149    -2970    -3075    -3026    -2770    -2833    -3168 
   -3130    -2907    -2967    -3044    -3044    -3199    -3315    -3196 
   -3059    -3017    -2970    -3044    -3292    -3335    -3086    -2961 
   -3060    -3086    -2943    -2856    -2994    -3169    -3204    -3213 
   -3196    -3084    -3051    -3098    -3022    -3006    -3114    -2999 
   -2876    -3137    -3334    -3117    -2955    -3075    -3144    -3067 
   -3025    -3042    -3109    -3275    -3285    -3026    -2979    -3160 
   -3059    -2872    -2944    -3028    -3032    -3076    -3140    -3192 
   -3146    -3087    -3213    -3280    -3038    -2797    -2883    -3125 
   -3203    -3138    -3106    -3136    -3171    -3177    -3132    -2997 
   -2855    -2916    -3110    -3122    -2970    -3045    -3393    -3427 
   -3017    -2922    -3285    -3310    -2887    -2714    -2874    -2925 
   -2961    -3213    -3358    -3150    -2906    -2978    -3258    -3362 
   -3196    -3106    -3161    -3095    -2949    -2913    -3019    -3150 
   -3078    -2879    -2889    -3055    -3129    -3179    -3316    -3318 
   -3063    -2875    -2944    -3159    -3431    -3460    -3041    -2641 
   -2663    -2920    -3167    -3275    -3171    -2982    -2933    -3121 
   -3356    -3366    -3168    -2960    -2930    -3056    -3094    -3064 
   -3048    -2903    -2891    -3171    -3230    -3045    -3109    -3276 
   -3226    -3096    -3015    -2976    -3033    -3130    -3132    -3046 
   -2970    -2982    -3126    -3281    -3199    -2952    -2924    -3107 
   -3213    -3159    -2970    -2899    -3138    -3291    -3102    -2995 
   -3087    -2978    -2856    -3134    -3422    -3273    -2980    -2961 
   -3140    -3252    -3245    -3110    -2843    -2733    -2951    -3122 
   -3037    -3002    -3181    -3357    -3299    -3078    -2932    -2961 
   -3141    -3275    -3168    -2926    -2797    -2928    -3145    -3200 
   -3172    -3134    -3075    -3103    -3183    -3180    -3117    -3076 
   -3022    -2959    -3046    -3184    -3110    -2925    -2830    -2899 
   -3150    -3333    -3230    -3103    -3221    -3399    -3304    -2963 
   -2756    -2839    -2984    -3049    -3059    -3076    -3125    -3172 
   -3235    -3267    -3140    -2997    -3006    -3005    -2994    -3140 
   -3169    -2990    -2983    -3144    -3133    -2967    -2955    -3186 
   -3331    -3103    -2836    -2971    -3202    -3144    -3091    -3191 
   -3109    -2863    -2870    -3217    -3472    -3273    -2940    -2902 
   -2938    -2889    -3022    -3292    -3322    -3163    -3113    -2994 
   -2758    -2836    -3152    -3210    -3110    -3142    -3179    -3121 
   -3076    -3154    -3312    -3233    -2916    -2841    -3087    -3223 
   -2990    -2725    -2867    -3133    -3150    -3194    -3345    -3225 
   -3032    -3192    -3285    -2994    -2806    -2902    -3033    -3152 
   -3192    -3137    -3190    -3257    -3040    -2748    -2820    -3154 
   -3348    -3269    -3067    -2968    -3032    -3121    -3153    -3117 
   -3033    -2992    -3063    -3173    -3127    -2960    -2905    -2964 
   -3034    -3137    -3214    -3196    -3210    -3291    -3200    -2937 
   -2785    -2849    -3075    -3227    -3092    -2976    -3153    -3338 
   -3366    -3275    -2980    -2713    -2855    -3198    -3187    -2894 
   -2905    -3171    -3229    -3160    -3118    -2949    -2836    -3041 
   -3231    -3179    -3179    -3252    -3133    -3010    -3210    -3391 
   -3130    -2787    -2810    -3026    -3105    -3042    -3011    -3003 
   -2952    -2983    -3167    -3281    -3183    -3134    -3289    -3327 
   -3102    -2810    -2660    -2845    -3253    -3383    -3083    -2938 
   -3261    -3412    -3048    -2740    -2829    -3003    -2995    -2979 
   -3179    -3365    -3292    -3250    -3414    -3283    -2764    -2582 
   -2918    -3172    -3064    -2937    -3065    -3207    -3150    -3096 
   -3105    -3057    -3119    -3346    -3384    -3099    -2872    -2884 
   -2879    -2860    -2955    -3126    -3384    -3443    -3156    -2976 
   -3076    -3130    -3019    -3006    -3105    -2925    -2727    -3034 
   -3384    -3314    -3052    -2868    -2965    -3221    -3315    -3183 
   -2974    -2999    -3249    -3246    -2965    -2848    -2894    -2884 
   -2957    -3199    -3400    -3441    -3362    -3226    -3028    -2821 
   -2805    -2870    -2747    -2775    -3167    -3389    -3295    -3289 
   -3381    -3298    -3130    -3061    -2925    -2732    -2803    -3015 
   -3095    -3195    -3248    -3063    -2953    -3057    -3110    -3148 
   -3221    -3145    -3009    -3059    -3206    -3190    -3002    -2882 
   -2953    -3075    -3069    -3033    -3195    -3294    -3014    -2771 
   -3003    -3312    -3173    -2937    -3123    -3404    -3326    -3106 
   -3018    -2956    -2856    -2860    -3049    -3279    -3242    -3051 
   -3082    -3107    -2855    -2766    -3028    -3215    -3187    -3142 
   -3167    -3240    -3304    -3308    -3208    -3011    -2839    -2702 
   -2700    -3060    -3393    -3203    -2867    -3024    -3504    -3484 
   -2991    -2922    -3194    -3087    -2774    -2837    -3146    -3210 
   -3051    -2980    -3083    -3225    -3273    -3198    -3083    -3075 
   -3083    -2886    -2735    -2991    -3302    -3121    -2840    -3123 
   -3489    -3269    -2897    -2905    -3099    -3150    -3134    -3191 
   -3160    -3024    -2987    -3019    -3067    -3140    -3045    -2813 
   -2853    -3150    -3211    -3038    -3092    -3337    -3376    -3211 
   -3113    -3121    -2972    -2682    -2667    -2965    -3161    -3094 
   -3111    -3396    -3418    -3041    -3030    -3470    -3430    -2836 
   -2658    -2948    -3042    -2982    -2997    -2983    -2983    -3160 
   -3341    -3190    -2994    -3190    -3356    -3121    -2979    -3123 
   -3072    -2789    -2721    -2928    -3091    -3142    -3267    -3423 
   -3414    -3319    -3246    -3109    -2982    -2879    -2679    -2632 
   -2930    -3265    -3321    -3145    -2983    -2956    -3069    -3233 
   -3183    -2949    -2922    -3172    -3380    -3294    -3049    -3021 
   -3160    -3109    -2913    -2925    -3113    -3079    -2863    -2866 
   -3078    -3181    -3144    -3190    -3289    -3203    -3022    -3005 
   -3130    -3145    -3065    -3107    -3148    -3080    -2937    -2737 
   -2794    -3094    -3132    -3009    -3136    -3365    -3446    -3302 
   -3007    -2976    -3222    -3184    -2814    -2697    -3048    -3223 
   -2909    -2862    -3218    -3204    -2922    -3021    -3331    -3319 
   -3076    -3075    -3225    -3092    -2894    -3076    -3244    -2898 
   -2619    -2951    -3346    -3334    -3242    -3285    -3256    -3129 
   -3067    -3094    -3042    -2782    -2704    -3078    -3291    -3038 
   -2934    -3183    -3257    -3121    -3275    -3549    -3323    -2790 
   -2556    -2693    -3017    -3190    -3013    -2979    -3265    -3335 
   -3179    -3180    -3198    -2957    -2798    -3051    -3271    -3103 
   -2932    -3042    -3167    -3033    -2816    -2764    -2839    -3105 
   -3523    -3570    -3199    -2971    -2948    -2903    -2921    -3017 
   -3080    -3206    -3348    -3267    -3137    -3223    -3283    -3051 
   -2772    -2797    -3019    -3187    -3256    -3192    -3096    -3095 
   -3013    -2917    -3040    -3130    -2971    -2875    -3118    -3387 
   -3291    -3018    -2897    -3025    -3276    -3318    -3186    -3177 
   -3142    -2934    -2814    -2855    -2906    -2980    -3073    -3123 
   -3123    -3067    -3088    -3289    -3376    -3130    -2922    -2997 
   -3014    -2918    -2897    -2937    -3215    -3561    -3412    -2916 
   -2578    -2585    -2976    -3559    -3819    -3501    -3069    -3019 
   -3118    -2920    -2701    -2855    -2964    -2825    -2972    -3334 
   -3284    -2943    -2936    -3342    -3499    -3057    -2781    -3045 
   -3138    -3019    -3200    -3333    -3094    -2889    -2995    -3250 
   -3333    -3123    -2901    -2866    -2987    -3199    -3300    -3192 
   -2972    -2731    -2725    -3069    -3335    -3226    -3079    -3161 
   -3145    -2902    -2853    -3037    -3042    -3018    -3393    -3627 
   -3154    -2832    -3244    -3545    -3252    -2845    -2643    -2590 
   -2610    -2741    -3190    -3682    -3572    -3156    -3138    -3214 
   -3026    -3015    -3165    -2940    -2516    -2478    -2875    -3276 
   -3460    -3510    -3400    -3183    -3084    -3133    -3084    -2897 
   -2909    -3041    -2907    -2745    -2930    -3253    -3419    -3431 
   -3326    -3149    -2992    -2864    -2928    -3194    -3169    -2763 
   -2681    -3118    -3366    -3257    -3291    -3271    -2832    -2579 
   -2988    -3393    -3280    -3123    -3295    -3358    -3010    -2686 
   -2739    -2974    -3073    -3052    -3322    -3704    -3423    -2771 
   -2656    -2940    -3024    -2941    -3019    -3154    -3094    -3006 
   -3094    -3238    -3343    -3364    -3253    -3087    -2990    -3053 
   -3252    -3372    -3208    -2916    -2830    -2907    -2894    -2808 
   -2713    -2651    -2934    -3492    -3638    -3319    -3068    -3025 
   -3122    -3241    -3194    -2978    -2898    -3078    -3096    -2913 
   -2970    -3122    -3113    -3157    -3248    -3191    -3052    -2967 
   -2953    -2911    -2874    -2982    -3129    -3184    -3230    -3267 
   -3304    -3357    -3238    -3096    -3180    -3119    -2798    -2745 
   -3033    -3172    -3044    -3083    -3377    -3335    -2874    -2643 
   -2866    -3153    -3133    -2960    -3036    -3123    -2955    -2913 
   -3064    -3094    -3045    -2937    -2747    -2727    -3082    -3696 
   -4047    -3700    -2979    -2446    -2347    -2625    -2928    -3083 
   -3175    -3095    -2901    -2947    -3203    -3337    -3438    -3802 
   -4072    -3584    -2646    -2273    -2656    -3118    -3281    -3281 
   -3204    -3119    -3157    -3204    -3180    -3198    -3137    -3006 
   -3044    -3090    -2980    -3006    -3331    -3635    -3545    -3067 
   -2490    -2070    -1992    -2350    -2928    -3381    -3599    -3657 
   -3599    -3451    -3225    -2836    -2448    -2482    -2903    -3202 
   -3065    -2701    -2552    -2732    -3056    -3522    -3956    -3885 
   -3523    -3545    -3661    -3222    -2648    -2451    -2301    -2153 
   -2316    -2554    -2841    -3450    -3875    -3694    -3424    -3551 
   -3882    -4043    -3987    -3716    -3240    -2718    -2211    -1923 
   -2177    -2690    -2943    -2894    -2681    -2621    -3145    -3948 
   -4356    -4236    -3813    -3287    -2766    -2339    -1933    -1656 
   -2104    -3048    -3330    -3001    -3036    -3402    -3604    -3809 
   -4176    -4275    -3689    -2809    -2473    -2628    -2555    -2322 
   -2432    -2895    -3438    -3689    -3420    -2929    -2663    -2721 
   -2862    -2945    -3026    -3052    -3105    -3395    -3735    -3835 
   -3748    -3620    -3240    -2415    -1852    -2394    -3442    -3759 
   -3334    -2874    -2394    -1956    -2174    -2974    -3491    -3514 
   -3728    -4159    -3905    -2991    -2469    -2627    -2941    -3196 
   -3337    -3030    -2457    -2515    -3306    -3732    -3315    -2878 
   -3038    -3416    -3466    -3086    -2593    -2583    -3140    -3519 
   -3273    -2721    -2350    -2523    -3187    -3770    -3888    -3715 
   -3435    -3129    -3177    -3546    -3306    -2369    -1983    -2586 
   -3296    -3393    -3003    -2694    -2632    -2575    -2660    -3241 
   -3948    -3959    -3237    -2513    -2380    -2932    -3773    -4266 
   -4009    -3288    -2756    -2528    -2380    -2313    -2290    -2289 
   -2617    -3362    -3882    -3707    -3325    -3338    -3634    -3761 
   -3522    -3114    -2987    -3245    -3118    -2262    -1691    -2143 
   -3121    -3705    -3527    -3145    -3161    -3362    -3458    -3642 
   -3686    -3032    -2195    -2101    -2412    -2469    -2712    -3416 
   -3871    -3794    -3531    -3283    -3237    -3276    -2948    -2457 
   -2376    -2694    -3127    -3476    -3650    -3657    -3564    -3591 
   -3554    -3021    -2455    -2347    -2346    -2362    -2592    -2872 
   -3079    -3299    -3634    -4102    -4446    -4124    -3051    -2169 
   -2203    -2640    -2891    -3145    -3551    -3528    -2790    -2239 
   -2376    -2535    -2504    -2609    -2863    -3383    -4206    -4681 
   -4203    -3091    -2265    -2342    -2988    -3163    -2578    -2220 
   -2625    -3406    -4143    -4159    -3319    -2718    -2832    -3003 
   -2882    -2889    -3315    -3558    -3204    -2951    -3073    -2991 
   -2828    -3096    -3491    -3443    -3084    -2975    -3180    -3237 
   -3003    -2894    -3013    -2871    -2535    -2575    -2818    -2675 
   -2366    -2671    -3584    -4182    -3964    -3518    -3434    -3573 
   -3639    -3362    -2718    -2223    -2149    -2274    -2436    -2739 
   -3240    -3497    -3362    -3275    -3156    -2978    -3231    -3680 
   -3578    -2995    -2681    -2975    -3427    -3441    -2949    -2725 
   -3337    -3786    -3177    -2486    -2799    -3655    -3832    -2922 
   -1868    -1647    -2077    -2687    -3507    -4255    -4302    -3699 
   -3152    -3127    -3404    -3366    -2845    -2604    -2798    -2465 
   -1977    -2520    -3431    -3596    -3341    -3473    -3855    -3647 
   -2994    -2832    -2972    -2628    -2169    -2293    -2687    -2998 
   -3404    -3739    -3731    -3658    -3649    -3411    -3029    -2870 
   -2972    -2998    -2712    -2520    -2741    -3051    -3208    -3187 
   -3088    -3083    -3096    -3121    -3229    -3208    -2933    -2755 
   -3013    -3445    -3551    -3229    -2952    -3168    -3515    -3508 
   -3289    -2932    -2466    -2366    -2778    -3042    -2882    -2999 
   -3503    -3682    -3468    -2999    -2509    -2667    -3154    -3240 
   -3203    -3164    -2928    -2870    -3210    -3631    -3900    -3967 
   -3640    -2891    -2180    -1937    -2196    -2664    -2926    -2948 
   -3001    -3164    -3311    -3387    -3511    -3690    -3715    -3427 
   -2917    -2547    -2606    -2905    -3121    -3184    -3114    -2941 
   -2775    -2853    -3253    -3368    -2855    -2583    -3041    -3406 
   -3302    -3395    -3735    -3588    -3022    -2686    -2754    -3015 
   -3007    -2687    -2803    -3298    -3134    -2485    -2652    -3684 
   -4241    -3762    -3065    -2891    -3140    -3303    -2983    -2420 
   -2230    -2377    -2552    -2884    -3314    -3547    -3580    -3574 
   -3642    -3753    -3769    -3550    -3059    -2450    -2016    -2068 
   -2550    -3009    -3117    -2998    -3030    -3291    -3523    -3651 
   -3636    -3403    -3123    -2899    -2658    -2436    -2324    -2509 
   -3037    -3514    -3667    -3609    -3419    -3214    -3056    -2681 
   -2350    -2652    -3154    -3267    -3439    -3855    -3952    -3627 
   -3206    -2833    -2523    -2249    -2218    -2724    -3342    -3304 
   -2845    -2952    -3545    -3601    -3208    -3118    -3057    -2694 
   -2512    -2722    -3134    -3854    -4469    -3931    -2671    -2184 
   -2492    -2895    -3258    -3318    -3095    -3064    -3141    -3056 
   -2916    -2741    -2546    -2706    -3354    -3740    -3461    -3225 
   -3384    -3564    -3574    -3343    -2929    -2621    -2585    -2681 
   -2589    -2408    -2628    -3171    -3667    -4047    -4116    -3689 
   -3030    -2581    -2515    -2593    -2574    -2597    -2855    -3234 
   -3433    -3437    -3437    -3422    -3373    -3246    -2992    -2756 
   -2538    -2365    -2539    -3078    -3510    -3472    -3258    -3458 
   -3936    -3879    -3060    -2222    -1972    -2236    -2833    -3346 
   -3146    -2627    -2803    -3595    -4156    -4047    -3449    -2997 
   -3022    -3127    -2884    -2451    -2367    -2791    -3311    -3527 
   -3389    -3110    -2883    -2844    -3090    -3357    -3388    -3407 
   -3478    -3298    -2867    -2613    -2650    -2532    -2199    -2281 
   -2961    -3632    -3923    -3974    -3777    -3257    -2793    -2755 
   -2947    -3044    -3140    -3213    -2936    -2554    -2682    -3188 
   -3480    -3427    -3230    -2906    -2570    -2673    -3188    -3418 
   -3188    -2965    -2930    -3009    -3126    -3099    -3051    -3249 
   -3389    -3257    -3223    -3245    -2978    -2694    -2798    -3144 
   -3221    -2895    -2735    -2998    -3280    -3325    -3221    -3199 
   -3291    -3283    -3199    -3206    -3267    -3214    -3127    -3142 
   -2910    -2357    -2245    -2847    -3528    -3685    -3323    -3100 
   -3346    -3510    -3238    -2870    -2795    -2857    -2690    -2574 
   -2905    -3354    -3442    -3186    -2934    -2991    -3269    -3289 
   -2972    -2884    -3105    -3133    -3040    -3138    -3229    -3140 
   -2983    -2943    -3126    -3298    -3202    -2957    -2832    -2913 
   -2947    -2825    -2979    -3424    -3628    -3423    -2990    -2727 
   -2905    -3100    -3025    -2998    -3032    -3003    -3152    -3420 
   -3489    -3195    -2569    -2214    -2585    -3072    -3222    -3391 
   -3690    -3808    -3616    -3310    -3036    -2640    -2315    -2515 
   -2953    -3191    -3352    -3438    -3327    -3171    -3040    -2837 
   -2714    -2806    -2863    -2833    -3025    -3430    -3699    -3646 
   -3393    -3171    -3086    -3126    -3306    -3416    -3055    -2512 
   -2527    -2920    -3087    -3076    -3044    -2997    -3083    -3245 
   -3252    -3132    -3065    -3096    -3015    -2693    -2485    -2671 
   -3045    -3423    -3634    -3530    -3348    -3186    -2987    -3078 
   -3376    -3253    -2790    -2578    -2589    -2602    -2878    -3383 
   -3576    -3380    -3156    -3024    -2987    -2997    -3003    -3095 
   -3132    -2976    -2901    -3079    -3230    -3129    -3075    -3312 
   -3461    -3345    -3194    -2956    -2725    -2812    -3036    -2998 
   -2729    -2755    -3272    -3686    -3616    -3369    -3137    -2766 
   -2440    -2555    -2909    -3096    -3150    -3303    -3618    -3622 
   -3099    -2856    -3138    -3254    -3109    -2902    -2743    -2826 
   -2918    -3003    -3408    -3565    -3037    -2654    -2864    -3141 
   -3241    -3206    -3061    -3025    -3165    -3354    -3433    -3275 
