Origin Time       2025/03/30 21:30:00
Lat.              38.535
Long.             142.295
Depth. (km)       44
Mag.              4.3
Station Code      IWTH14
Station Lat.      39.7435
Station Long.     141.9087
Station Height(m) 100
Record Time       2025/03/30 21:31:33
Sampling Freq(Hz) 100Hz
Duration Time(s)  120
Dir.              1
Scale Factor      2942(gal)/8224139
Max. Acc. (gal)   0.162
Last Correction   2025/03/30 21:31:33
Memo.             
[...]
  182703   182625   182628   182679   182688   182710   182719   182638 
  182561   182628   182760   182807   182750   182672   182641   182653 
  182664   182645   182634   182677   182700   182703   182730   182703 
  182629   182614   182642   182668   182688   182698   182675   182640 
  182634   182634   182633   182657   182650   182613   182629   182671 
  182699   182715   182679   182642   182664   182692   182691   182652 
  182626   182656   182668   182692   182752   182706   182607   182601 
  182632   182649   182699   182744   182719   182648   182615   182661 
  182696   182659   182661   182738   182744   182661   182630   182668 
  182682   182644   182615   182650   182698   182706   182741   182783 
  182731   182667   182677   182676   182629   182603   182614   182673 
  182744   182737   182672   182621   182618   182672   182702   182645 
  182605   182655   182722   182761   182754   182684   182638   182640 
  182623   182644   182696   182702   182699   182679   182618   182614 
  182648   182641   182655   182694   182679   182644   182659   182686 
  182659   182636   182661   182677   182673   182679   182679   182665 
  182664   182683   182700   182692   182663   182623   182621   182665 
  182665   182619   182619   182659   182699   182715   182680   182650 
  182684   182726   182727   182711   182695   182680   182680   182692 
  182704   182699   182655   182641   182675   182672   182656   182645 
  182622   182638   182675   182686   182682   182676   182703   182727 
  182687   182669   182703   182694   182672   182691   182691   182653 
  182636   182641   182619   182626   182676   182657   182640   182714 
  182733   182667   182653   182676   182676   182680   182690   182683 
  182688   182713   182711   182683   182677   182687   182665   182619 
  182582   182579   182630   182694   182725   182725   182703   182669 
  182645   182646   182660   182671   182696   182719   182696   182660 
  182660   182664   182653   182664   182676   182644   182605   182634 
  182692   182704   182680   182663   182677   182680   182653   182655 
  182680   182694   182690   182679   182690   182710   182704   182668 
  182641   182667   182672   182630   182641   182688   182717   182744 
  182729   182652   182599   182638   182696   182703   182707   182719 
  182687   182668   182686   182671   182652   182667   182663   182645 
  182630   182621   182649   182707   182742   182694   182617   182652 
  182727   182698   182632   182626   182637   182649   182672   182661 
  182646   182691   182740   182713   182672   182664   182638   182617 
  182638   182669   182679   182677   182690   182706   182723   182719 
  182640   182582   182630   182683   182694   182707   182714   182718 
  182721   182698   182657   182619   182634   182721   182773   182731 
  182676   182665   182680   182672   182646   182648   182650   182646 
  182663   182661   182649   182686   182709   182663   182637   182645 
  182637   182652   182713   182741   182665   182582   182632   182726 
  182719   182653   182622   182629   182653   182692   182700   182657 
  182649   182700   182734   182698   182637   182617   182629   182659 
  182680   182673   182698   182754   182727   182622   182575   182628 
  182696   182692   182663   182686   182695   182661   182676   182714 
  182692   182650   182632   182648   182703   182703   182632   182602 
  182641   182725   182776   182706   182618   182618   182641   182657 
  182692   182692   182644   182630   182644   182640   182659   182707 
  182710   182687   182690   182692   182687   182702   182684   182611 
  182587   182646   182709   182717   182684   182655   182650   182656 
  182669   182688   182687   182664   182659   182682   182686   182680 
  182702   182690   182628   182628   182718   182758   182715   182694 
  182671   182632   182655   182679   182641   182638   182680   182694 
  182687   182668   182659   182676   182664   182649   182672   182684 
  182677   182675   182668   182676   182687   182680   182673   182682 
  182695   182700   182695   182669   182645   182645   182641   182640 
  182682   182695   182648   182660   182722   182706   182671   182683 
  182650   182603   182637   182707   182737   182723   182698   182695 
  182714   182721   182700   182644   182580   182599   182661   182668 
  182652   182665   182660   182640   182638   182634   182648   182699 
  182721   182699   182698   182711   182691   182653   182644   182649 
  182672   182699   182692   182669   182667   182657   182645   182663 
  182686   182679   182642   182603   182630   182680   182691   182738 
  182760   182672   182610   182622   182630   182657   182709   182704 
  182672   182710   182734   182667   182625   182637   182644   182663 
  182683   182700   182706   182660   182636   182679   182713   182706 
  182684   182663   182671   182699   182683   182630   182633   182691 
  182734   182725   182661   182607   182632   182675   182668   182646 
  182661   182691   182671   182634   182669   182727   182713   182648 
  182617   182645   182683   182690   182649   182614   182633   182671 
  182668   182644   182652   182680   182702   182733   182737   182669 
  182622   182665   182709   182684   182663   182676   182679   182682 
  182696   182677   182637   182629   182655   182680   182691   182703 
  182718   182711   182661   182628   182657   182667   182637   182669 
  182725   182702   182665   182673   182664   182613   182598   182660 
  182699   182677   182688   182719   182713   182683   182657   182667 
  182687   182664   182644   182663   182680   182686   182699   182706 
  182680   182667   182677   182637   182579   182622   182711   182734 
  182718   182695   182625   182580   182628   182691   182726   182727 
  182672   182638   182653   182648   182653   182682   182675   182671 
  182699   182702   182683   182649   182590   182588   182679   182733 
  182688   182641   182668   182715   182698   182619   182576   182640 
  182703   182684   182680   182711   182703   182673   182676   182684 
  182653   182648   182711   182768   182740   182664   182619   182619 
  182664   182737   182756   182722   182709   182686   182645   182640 
  182671   182711   182738   182710   182672   182677   182661   182629 
  182665   182695   182659   182640   182645   182648   182665   182667 
  182646   182655   182657   182619   182619   182669   182679   182672 
  182694   182679   182645   182642   182638   182641   182667   182680 
  182668   182645   182661   182729   182753   182688   182636   182644 
  182652   182652   182691   182715   182680   182679   182717   182710 
  182684   182682   182686   182675   182652   182663   182688   182684 
  182688   182695   182665   182646   182659   182671   182699   182729 
  182714   182661   182594   182565   182622   182700   182721   182690 
  182669   182687   182665   182601   182602   182641   182622   182626 
  182694   182734   182729   182722   182686   182614   182596   182669 
  182722   182687   182652   182672   182680   182675   182709   182726 
  182668   182582   182572   182653   182676   182625   182632   182667 
  182659   182665   182686   182657   182615   182646   182707   182703 
  182695   182696   182649   182642   182695   182709   182694   182688 
  182691   182668   182591   182575   182668   182741   182738   182722 
  182702   182671   182664   182664   182648   182660   182676   182645 
  182630   182667   182690   182680   182679   182702   182706   182650 
  182628   182692   182704   182655   182663   182668   182653   182703 
  182733   182702   182665   182637   182648   182669   182665   182665 
  182667   182652   182660   182710   182721   182671   182657   182679 
  182669   182659   182680   182698   182690   182700   182704   182657 
  182645   182692   182675   182618   182649   182722   182730   182690 
  182667   182665   182642   182632   182663   182673   182637   182623 
  182645   182665   182715   182748   182667   182595   182644   182691 
  182692   182717   182757   182736   182644   182584   182586   182586 
  182595   182634   182673   182699   182718   182729   182710   182667 
  182668   182704   182694   182659   182641   182619   182623   182680 
  182719   182706   182684   182684   182694   182699   182706   182719 
  182683   182613   182628   182714   182760   182756   182736   182710 
  182686   182657   182653   182669   182659   182646   182665   182696 
  182736   182752   182714   182652   182617   182642   182657   182629 
  182618   182605   182615   182680   182699   182671   182637   182591 
  182588   182618   182638   182668   182667   182652   182673   182669 
  182657   182679   182676   182655   182683   182717   182686   182648 
  182664   182680   182686   182687   182656   182615   182614   182656 
  182687   182686   182715   182775   182758   182692   182673   182692 
  182718   182745   182734   182704   182711   182707   182667   182637 
  182628   182642   182673   182668   182636   182621   182633   182679 
  182731   182742   182723   182694   182664   182648   182625   182607 
  182613   182618   182646   182704   182721   182680   182645   182657 
  182692   182700   182664   182632   182646   182676   182659   182623 
  182644   182676   182661   182656   182664   182637   182636   182686 
  182710   182695   182691   182679   182655   182677   182737   182749 
  182714   182711   182718   182673   182664   182727   182737   182660 
  182601   182630   182695   182727   182721   182686   182663   182675 
  182695   182688   182683   182703   182696   182653   182656   182694 
  182692   182667   182650   182628   182610   182590   182557   182563 
  182601   182632   182679   182690   182641   182642   182677   182667 
  182649   182645   182648   182684   182736   182727   182694   182717 
  182727   182667   182646   182682   182656   182615   182671   182704 
  182657   182668   182702   182663   182672   182741   182750   182714 
  182687   182690   182715   182733   182745   182711   182638   182601 
  182576   182569   182595   182598   182615   182645   182618   182633 
  182684   182655   182644   182700   182704   182684   182690   182679 
  182671   182709   182760   182741   182636   182565   182605   182650 
  182630   182601   182618   182664   182680   182661   182673   182721 
  182744   182731   182707   182675   182664   182714   182775   182758 
  182692   182675   182707   182706   182656   182610   182607   182637 
  182687   182733   182700   182602   182569   182638   182672   182611 
  182584   182672   182767   182736   182680   182706   182704   182700 
  182725   182688   182667   182669   182617   182594   182638   182688 
  182704   182683   182652   182614   182590   182617   182649   182664 
  182707   182736   182723   182753   182764   182672   182622   182646 
  182650   182675   182700   182665   182641   182650   182660   182646 
  182606   182601   182648   182672   182669   182682   182672   182641 
  182663   182700   182702   182729   182742   182667   182625   182669 
  182688   182661   182641   182637   182626   182592   182601   182655 
  182676   182667   182680   182719   182745   182736   182709   182713 
  182710   182655   182668   182742   182744   182738   182722   182610 
  182544   182618   182707   182706   182649   182633   182653   182677 
  182698   182661   182633   182691   182727   182707   182727   182777 
  182764   182699   182671   182656   182622   182649   182723   182707 
  182623   182564   182510   182499   182564   182625   182640   182636 
  182615   182582   182557   182568   182596   182617   182649   182680 
  182671   182663   182698   182753   182771   182764   182776   182746 
  182683   182715   182794   182806   182787   182761   182727   182737 
  182777   182776   182745   182729   182717   182723   182764   182792 
  182788   182758   182709   182657   182648   182691   182706   182671 
  182675   182703   182673   182622   182578   182488   182410   182457 
  182565   182618   182636   182595   182487   182471   182595   182682 
  182641   182565   182560   182586   182559   182513   182513   182530 
  182513   182511   182617   182746   182780   182731   182622   182513 
  182515   182619   182744   182892   183049   183116   183065   182931 
  182776   182690   182676   182695   182741   182754   182744   182792 
  182876   182900   182845   182773   182717   182680   182717   182800 
  182835   182783   182683   182645   182659   182622   182557   182526 
  182536   182568   182567   182502   182410   182401   182518   182594 
  182567   182551   182556   182536   182521   182509   182480   182529 
  182679   182810   182858   182842   182756   182660   182614   182586 
  182544   182472   182410   182479   182683   182831   182829   182811 
  182853   182848   182814   182856   182860   182741   182672   182709 
  182763   182799   182781   182749   182758   182745   182669   182545 
  182414   182320   182278   182340   182509   182703   182857   182900 
  182830   182711   182579   182494   182540   182675   182776   182834 
  182875   182860   182803   182746   182698   182650   182569   182483 
  182467   182536   182650   182740   182758   182717   182665   182650 
  182656   182699   182763   182742   182694   182725   182794   182876 
  182991   183065   183043   182972   182846   182645   182464   182363 
  182335   182429   182630   182830   182933   182857   182626   182368 
  182218   182263   182418   182513   182547   182578   182569   182572 
  182675   182780   182818   182868   182891   182841   182841   182872 
  182745   182506   182386   182439   182509   182538   182613   182671 
  182591   182447   182403   182505   182664   182799   182792   182622 
  182547   182660   182745   182768   182826   182869   182844   182808 
  182808   182817   182804   182737   182601   182459   182429   182548 
  182677   182707   182702   182713   182758   182829   182852   182841 
  182861   182829   182695   182583   182579   182652   182694   182667 
  182669   182731   182764   182748   182737   182729   182686   182650 
  182680   182719   182700   182650   182611   182561   182501   182484 
  182525   182618   182749   182780   182675   182592   182547   182488 
  182515   182617   182695   182723   182684   182575   182518   182601 
  182704   182740   182756   182779   182761   182698   182703   182777 
  182738   182599   182517   182494   182520   182634   182729   182676 
  182556   182559   182684   182769   182791   182758   182598   182451 
  182486   182592   182736   182933   183033   183026   182976   182837 
  182634   182441   182295   182291   182434   182598   182748   182885 
  182903   182757   182594   182569   182664   182764   182810   182792 
  182776   182799   182723   182551   182491   182521   182513   182530 
  182595   182679   182765   182792   182783   182749   182684   182700 
  182802   182838   182811   182815   182795   182698   182640   182664 
  182650   182571   182491   182428   182444   182563   182667   182676 
  182617   182591   182649   182641   182602   182736   182893   182881 
  182852   182822   182719   182683   182700   182641   182572   182561 
  182601   182642   182638   182668   182714   182657   182592   182655 
  182698   182618   182587   182665   182726   182725   182742   182811 
  182808   182691   182613   182641   182660   182607   182588   182592 
  182511   182490   182615   182700   182684   182649   182690   182781 
  182785   182761   182736   182650   182672   182803   182779   182587 
  182422   182417   182552   182684   182748   182734   182672   182663 
  182710   182731   182700   182628   182569   182623   182734   182756 
  182741   182767   182733   182659   182665   182723   182791   182826 
  182749   182610   182480   182390   182387   182475   182622   182758 
  182802   182796   182776   182710   182698   182748   182714   182621 
  182594   182683   182803   182812   182753   182717   182671   182657 
  182723   182761   182736   182703   182668   182630   182605   182596 
  182598   182584   182557   182596   182694   182734   182717   182692 
  182655   182676   182761   182757   182628   182532   182569   182617 
  182605   182636   182653   182617   182660   182744   182764   182790 
  182808   182707   182551   182530   182638   182700   182677   182672 
  182686   182671   182641   182540   182407   182433   182567   182626 
  182661   182771   182844   182769   182642   182605   182657   182715 
  182744   182787   182817   182767   182717   182757   182781   182721 
  182659   182626   182636   182663   182599   182557   182704   182862 
  182871   182787   182682   182633   182607   182582   182619   182667 
  182690   182719   182687   182606   182615   182718   182772   182725 
  182667   182653   182709   182815   182841   182780   182719   182636 
  182572   182568   182582   182640   182719   182723   182603   182433 
  182370   182449   182538   182571   182607   182648   182626   182605 
  182664   182737   182775   182767   182711   182703   182772   182819 
  182811   182787   182772   182741   182669   182621   182623   182614 
  182547   182475   182483   182575   182687   182738   182714   182669 
  182611   182618   182733   182812   182842   182923   182953   182807 
  182607   182540   182549   182556   182637   182742   182721   182628 
  182591   182603   182602   182598   182621   182634   182665   182768 
  182821   182767   182687   182583   182502   182526   182602   182665 
  182667   182637   182675   182740   182785   182810   182729   182598 
  182594   182691   182740   182704   182688   182737   182711   182599 
  182592   182655   182657   182686   182741   182707   182634   182622 
  182661   182671   182640   182679   182749   182721   182656   182661 
  182663   182549   182443   182498   182633   182721   182754   182750 
  182723   182660   182580   182548   182569   182641   182752   182848 
  182861   182752   182649   182671   182680   182605   182530   182520 
  182642   182795   182792   182737   182710   182655   182652   182691 
  182667   182645   182672   182706   182709   182679   182699   182771 
  182760   182669   182596   182565   182594   182684   182773   182845 
  182887   182854   182826   182823   182736   182613   182560   182548 
  182569   182642   182688   182628   182555   182588   182610   182542 
  182494   182538   182673   182790   182758   182686   182709   182742 
  182723   182749   182790   182730   182675   182731   182783   182725 
  182642   182626   182632   182607   182575   182595   182667   182656 
  182580   182595   182626   182602   182607   182618   182621   182690 
  182754   182725   182684   182718   182748   182711   182645   182568 
  182576   182700   182754   182679   182606   182603   182646   182695 
  182698   182648   182610   182632   182648   182625   182645   182715 
  182692   182549   182475   182552   182626   182650   182737   182839 
  182830   182758   182749   182764   182736   182713   182665   182564 
  182524   182615   182757   182800   182750   182738   182719   182640 
  182614   182679   182730   182714   182677   182672   182665   182684 
  182752   182753   182687   182650   182623   182592   182587   182603 
  182578   182511   182538   182659   182741   182794   182819   182769 
