Origin Time       2025/03/30 21:30:00
Lat.              38.535
Long.             142.295
Depth. (km)       44
Mag.              4.3
Station Code      IWTH20
Station Lat.      39.3434
Station Long.     141.0473
Station Height(m) 106
Record Time       2025/03/30 21:31:18
Sampling Freq(Hz) 100Hz
Duration Time(s)  120
Dir.              5
Scale Factor      7845(gal)/8223790
Max. Acc. (gal)   1.812
Last Correction   2025/03/30 21:31:18
Memo.             
[...]
    1320     1368     1383     1347     1266     1158     1024      900 
     814      777      803      876      988     1128     1247     1317 
    1348     1323     1256     1204     1182     1178     1173     1178 
    1188     1119      954      827      822      892      984     1057 
    1054      977      885      800      706      638      642      708 
     807      909     1000     1081     1174     1296     1387     1382 
    1304     1169      963      760      657      670      760      881 
    1004     1101     1147     1156     1155     1148     1165     1200 
    1189     1146     1098     1026      955      950      984      978 
     923      908      982     1080     1148     1196     1213     1177 
    1115     1078     1051      999      966      962      943      934 
     959      996     1026     1040     1050     1026      932      866 
     901      959     1007     1055     1051      977      886      838 
     853      912     1005     1134     1262     1364     1414     1374 
    1273     1147      982      828      760      751      753      799 
     942     1101     1158     1138     1097     1017      940      967 
    1111     1239     1224     1093      955      859      832      869 
     899      891      855      823      837      907     1021     1136 
    1183     1189     1202     1185     1131     1062      980      927 
     913      926      985     1070     1109     1088     1059     1070 
    1077     1026      973      997     1074     1134     1146     1100 
     986      891      891      949     1013     1069     1078     1042 
     993      955      945      977     1040     1086     1080     1061 
    1088     1111     1066     1005      978      949      889      845 
     874      949      993     1012     1026     1051     1135     1269 
    1368     1340     1179      989      859      822      870      943 
    1001     1059     1100     1097     1078     1063     1062     1042 
     985      945      940      923      886      859      854      882 
     949     1028     1078     1090     1092     1078     1053     1035 
    1008      957      908      889      930     1012     1043      996 
     965     1019     1127     1209     1235     1235     1197     1117 
    1048     1030     1050     1067     1054     1046     1059     1062 
    1035      990      970     1001     1057     1128     1210     1252 
    1227     1152     1053      946      843      789      811      862 
     919      981     1023     1038     1031     1005     1001     1027 
    1036     1023      994      962      966     1023     1086     1073 
     974      869      811      801      837      916     1013     1078 
    1108     1135     1155     1147     1109     1057     1007      963 
     915      884      900      947     1012     1088     1120     1096 
    1071     1073     1104     1161     1200     1173     1086      989 
     915      864      846      869      922      994     1065     1109 
    1127     1109     1088     1100     1121     1111     1053      980 
     945      935      938      993     1055     1055     1028      989 
     932      911      954     1015     1054     1073     1084     1081 
    1081     1112     1142     1131     1094     1059     1020      961 
     923      923      911      901      943     1011     1089     1181 
    1201     1108      980      889      839      832      897     1009 
    1069     1042      990      959      985     1075     1154     1185 
    1216     1254     1251     1192     1108     1043      982      923 
     885      847      814      800      797      823      880      950 
    1036     1125     1198     1237     1215     1146     1059      982 
     947      946      965     1012     1059     1102     1148     1165 
    1162     1161     1121     1051     1019     1048     1097     1100 
    1032      934      845      815      877      973     1039     1074 
    1097     1096     1034      940      909      936      963      986 
     993      961      923      922      966     1036     1108     1144 
    1105     1015      939      897      895      936     1004     1071 
    1107     1059      943      855      889     1024     1148     1183 
    1136     1065     1034     1057     1077     1050      993      945 
     904      877      900      977     1038     1040     1009      966 
     950      999     1098     1206     1275     1281     1216     1096 
     992      955      959     1000     1085     1156     1150     1061 
     950      872      814      778      828      959     1093     1188 
    1228     1189     1082      976      935      926      899      897 
     945      980      997     1054     1146     1202     1188     1143 
    1081      984      889      843      827      835      886      974 
    1063     1136     1169     1117     1003      923      922      970 
    1058     1154     1186     1148     1105     1080     1042      989 
     950      931      946     1013     1104     1151     1142     1094 
    1036      999     1011     1062     1107     1139     1147     1088 
    1009      978      976      976      961      943      966      997 
     977      935      908      885      874      922     1028     1102 
    1078     1011      951      904      909     1000     1134     1232 
    1243     1169     1053      966      949      959      973      996 
    1015     1026     1050     1089     1123     1127     1096     1042 
     984      949      959      982     1003     1054     1080     1034 
     993      997      992      980     1003     1034     1019      959 
     911      919      978     1061     1124     1129     1088     1011 
     930      904      935      969      981      982      980      989 
    1031     1105     1181     1236     1260     1237     1173     1059 
     905      778      739      804      959     1128     1215     1200 
    1139     1061      973      946      992     1019     1016     1036 
    1054     1032      966      859      769      754      824      955 
    1108     1233     1285     1247     1181     1139     1096     1032 
     967      908      851      831      873      931      951      963 
    1021     1102     1156     1175     1170     1142     1094     1054 
    1016      938      843      804      878     1048     1223     1285 
    1185      990      859      859      924      967      958      919 
     913      973     1080     1174     1193     1131     1081     1107 
    1167     1190     1148     1066      993      951      930      920 
     954     1031     1067     1051     1053     1046     1000      961 
     942      930      950      997     1016      970      878      800 
     801      924     1132     1274     1271     1189     1104     1042 
    1012     1027     1062     1055      997      938      881      842 
     877      969     1080     1201     1287     1305     1258     1152 
    1036      954      909      889      869      876      949     1063 
    1169     1219     1193     1107      996      896      834      810 
     822      858      889      919      965     1008     1019     1015 
    1047     1109     1132     1084      984      876      839      923 
    1069     1169     1158     1071      993      970     1004     1078 
    1155     1183     1143     1073     1027      981      891      805 
     797      869      992     1146     1290     1356     1318     1233 
    1152     1069      980      901      873      918      972      997 
    1015      985      889      834      892     1015     1123     1173 
    1135     1017      930      978     1090     1171     1213     1173 
    1042      904      834      851      903      943      988     1028 
    1053     1061     1005      905      857      878      945     1044 
    1158     1239     1247     1206     1140     1040      946      900 
     896      923      959      978      976      974      990     1023 
    1078     1156     1205     1204     1209     1224     1185     1084 
     959      843      772      769      805      847      885      947 
    1032     1078     1070     1046     1024     1048     1158     1300 
    1377     1335     1201     1020      845      768      839      961 
    1035     1057     1036      990      950      955     1035     1138 
    1186     1148     1024      897      857      915     1042     1178 
    1250     1246     1169     1043      909      789      739      800 
     891      934      942      950      992     1071     1144     1173 
    1144     1069      970      873      834      900      985      988 
     936      899      886      920     1027     1146     1196     1188 
    1182     1181     1154     1092     1019      957      920      916 
     947      989     1020     1046     1071     1092     1085     1050 
    1007      950      897      901      959     1050     1146     1188 
    1131     1038     1013     1058     1082     1070     1051     1024 
     980      924      880      872      893      946     1039     1120 
    1121     1069     1027     1016     1007      978      981     1065 
    1162     1182     1150     1128     1121     1093     1054     1020 
     966      903      832      760      754      842      954     1034 
    1069     1092     1115     1131     1154     1163     1134     1084 
    1005      900      845      899     1015     1108     1143     1154 
    1140     1089     1046     1047     1086     1140     1161     1129 
    1078     1009      924      868      882      954      990      946 
     882      881      972     1102     1200     1247     1242     1175 
    1066      955      895      882      873      880      924      939 
     920      954     1061     1186     1262     1232     1136     1042 
     963      945     1017     1123     1198     1201     1123      994 
     866      808      815      818      816      835      877      969 
    1104     1225     1277     1229     1128     1065     1067     1093 
    1077      996      920      900      897      892      901      916 
     931      959      993     1005     1016     1066     1139     1189 
    1227     1255     1200     1034      876      812      803      845 
     976     1096     1084     1012      994     1020     1048     1089 
    1138     1120     1012      920      911      955     1023     1044 
     965      868      880     1004     1136     1202     1227     1201 
    1084      953      891      869      870      903      930      922 
     911      939      972      954      923      924      945      982 
    1051     1116     1146     1154     1170     1190     1212     1223 
    1189     1125     1071     1012      958      934      912      884 
     872      896      942      963      985     1030     1038     1019 
    1048     1125     1227     1351     1441     1393     1200      993 
     868      789      720      675      637      615      684      855 
    1023     1098     1098     1086     1070     1051     1078     1155 
    1212     1220     1174     1090     1017      973      945      904 
     846      843      908      978     1067     1186     1290     1366 
    1416     1404     1298     1127      976      909      938     1046 
    1148     1166     1104     1004      908      822      743      708 
     714      746      820      900      961     1039     1136     1204 
    1224     1206     1152     1073     1038     1084     1152     1189 
    1156     1050      955      928      899      820      765      814 
     945     1058     1104     1092     1011      889      818      853 
     957     1058     1113     1152     1206     1232     1206     1159 
    1086      959      824      758      780      841      911      973 
    1007     1019     1026      997      908      804      762      780 
     797      811      827      814      787      805      892     1020 
    1147     1236     1263     1235     1236     1329     1459     1559 
    1563     1441     1301     1248     1291     1413     1570     1717 
    1807     1782     1665     1529     1395     1277     1143      958 
     753      585      461      345      229      184      255      411 
     629      897     1204     1512     1717     1742     1610     1352 
     992      614      324      143       32       -6       79      245 
     384      515      711      949     1131     1221     1260     1248 
    1152     1036      993     1054     1200     1402     1636     1857 
    2027     2139     2188     2153     2025     1787     1462     1144 
     870      577      265       -2      -98       79      450      888 
    1320     1630     1715     1591     1316      930      471       10 
    -344     -450     -183      411     1119     1744     2147     2243 
    2029     1532      822       81     -445     -581     -348      109 
     679     1254     1672     1848     1836     1767     1738     1701 
    1487     1024      452       20     -116       55      436      857 
    1171     1393     1637     1930     2180     2289     2239     2062 
    1802     1526     1301     1147     1021      815      503      198 
     -58     -297     -464     -433     -112      417      939     1308 
    1530     1680     1776     1790     1725     1626     1530     1486 
    1499     1512     1470     1350     1150      891      562      195 
    -105     -282     -318     -186       72      400      777     1171 
    1532     1794     1904     1911     1885     1890     1985     2110 
    2100     1952     1811     1757     1757     1744     1624     1287 
     738      117     -407     -743     -878     -803     -453      190 
    1011     1779     2280     2466     2439     2288     2060     1810 
    1559     1281      977      706      550      527      596      691 
     706      611      486      400      382      400      402      371 
     275       81     -120     -163       79      564     1125     1686 
    2185     2467     2488     2420     2450     2542     2502     2238 
    1769     1104      294     -444     -868     -847     -403      290 
     992     1501     1709     1644     1383     1017      693      522 
     513      666      958     1301     1576     1728     1802     1823 
    1728     1516     1264     1032      832      623      383      139 
    -113     -340     -403     -194      286      993     1794     2408 
    2592     2350     1867     1293      734      356      299      492 
     762     1053     1371     1663     1831     1811     1617     1359 
    1155     1055     1042     1028      893      615      317      195 
     383      835     1344     1710     1836     1729     1502     1306 
    1210     1148     1023      804      550      369      341      464 
     704     1026     1351     1575     1636     1555     1377     1094 
     741      367      -35     -388     -490     -267      187      772 
    1341     1717     1869     1892     1800     1560     1259     1057 
    1019     1098     1217     1291     1239     1069      911      839 
     820      838      847      761      595      453      440      598 
     892     1236     1529     1723     1850     1922     1915     1810 
    1579     1270     1011      888      901     1020     1200     1331 
    1252      915      440       -1     -283     -388     -324      -45 
     413      904     1344     1737     2035     2182     2211     2177 
    2120     2054     1980     1844     1491      869      164     -386 
    -650     -595     -313       81      549     1036     1422     1613 
    1605     1509     1432     1383     1328     1197      977      789 
     765      924     1182     1435     1602     1648     1598     1460 
    1246     1034      855      666      453      248      114       94 
     195      475      920     1355     1628     1695     1571     1354 
    1169     1040      927      832      783      753      704      662 
     724      924     1174     1372     1476     1455     1290     1032 
     788      693      838     1182     1571     1827     1881     1764 
    1509     1156      837      670      614      588      627      764 
     923     1012      980      834      627      465      465      648 
     920     1193     1417     1544     1533     1399     1206      986 
     726      415       82     -193     -317     -255      -33      278 
     600      880     1108     1336     1582     1771     1867     1906 
    1912     1902     1877     1799     1668     1564     1539     1555 
    1548     1490     1393     1227      961      676      523      529 
     607      688      754      795      846      989     1228     1476 
    1657     1713     1638     1487     1290     1075      905      807 
     699      502      279      109      -35     -128      -67      162 
     477      793     1077     1325     1506     1583     1567     1480 
    1348     1228     1179     1200     1213     1200     1220     1282 
    1302     1250     1189     1170     1158     1111     1031      927 
     815      731      688      693      791      981     1189     1360 
    1497     1587     1570     1399     1144      892      676      542 
     500      518      606      773      953     1112     1264     1394 
    1451     1394     1262     1119      993      926      924      928 
     922      919      938     1009     1105     1156     1142     1089 
    1061     1081     1071      984      831      658      540      523 
     573      631      642      598      575      635      788      996 
    1163     1220     1167     1026      851      761      859     1119 
    1398     1601     1690     1652     1524     1354     1200     1124 
    1127     1167     1192     1129      966      814      769      812 
     892      984     1038      996      882      778      738      768 
     841      905      923      908      919     1015     1154     1258 
    1294     1248     1139     1003      851      704      589      553 
     616      716      777      837      973     1185     1398     1539 
    1580     1517     1387     1296     1316     1458     1688     1890 
    1908     1709     1366      980      653      495      526      646 
     753      828      853      815      768      777      870     1015 
    1127     1182     1202     1167     1038      791      487      276 
     267      487      904     1368     1665     1722     1633     1499 
    1339     1148      973      859      822      838      847      807 
     722      630      585      631      768      945     1050     1026 
     949      897      907      976     1055     1140     1258     1375 
    1445     1421     1260     1026      849      807      862      932 
     990     1036     1028      963      855      731      660      689 
     824     1026     1196     1267     1266     1228     1202     1256 
    1394     1545     1621     1602     1548     1467     1363     1304 
    1279     1173      957      720      537      436      429      519 
     650      766      876      977     1054     1101     1111     1102 
    1104     1084      974      793      669      699      845     1020 
    1167     1246     1252     1239     1220     1171     1085      990 
     945      959     1007     1044     1058     1051     1005      896 
     758      648      571      522      503      542      668      827 
     947     1017     1071     1139     1201     1227     1223     1188 
    1163     1233     1393     1571     1674     1597     1363     1085 
