Origin Time       2025/03/30 21:30:00
Lat.              38.535
Long.             142.295
Depth. (km)       44
Mag.              4.3
Station Code      IWTH21
Station Lat.      39.4734
Station Long.     141.9336
Station Height(m) -87
Record Time       2025/03/30 21:31:26
Sampling Freq(Hz) 100Hz
Duration Time(s)  120
Dir.              3
Scale Factor      2942(gal)/8224139
Max. Acc. (gal)   0.246
Last Correction   2025/03/30 21:31:26
Memo.             
[...]
   -2201    -2119    -2079    -2131    -2269    -2118    -1888    -2084 
   -2323    -2188    -2041    -2097    -2174    -2204    -2128    -2020 
   -2142    -2265    -2154    -2188    -2293    -2119    -2006    -2146 
   -2174    -2083    -2120    -2142    -2108    -2201    -2220    -2127 
   -2226    -2323    -2164    -2085    -2160    -2010    -1912    -2195 
   -2268    -2065    -2142    -2224    -2101    -2164    -2259    -2158 
   -2154    -2205    -2131    -2038    -1948    -2111    -2450    -2331 
   -2031    -2069    -2153    -2126    -2149    -2226    -2223    -2112 
   -2074    -2155    -2154    -2088    -2219    -2328    -2138    -2018 
   -2076    -2174    -2305    -2211    -2042    -2212    -2285    -1971 
   -1958    -2292    -2273    -2127    -2181    -2191    -2187    -2157 
   -2089    -2138    -2239    -2219    -2023    -1962    -2139    -2189 
   -2147    -2174    -2154    -2065    -2045    -2160    -2218    -2172 
   -2145    -2088    -2101    -2224    -2160    -2029    -2209    -2331 
   -2038    -1914    -2146    -2222    -2162    -2153    -2142    -2165 
   -2158    -2122    -2145    -2174    -2157    -2080    -2068    -2219 
   -2274    -2066    -1995    -2250    -2377    -2139    -1912    -2065 
   -2297    -2169    -2014    -2211    -2342    -2126    -2037    -2245 
   -2268    -2101    -2057    -2057    -2157    -2235    -1956    -1918 
   -2366    -2293    -1917    -2122    -2270    -2076    -2180    -2351 
   -2242    -2133    -2137    -2092    -2034    -2092    -2101    -2074 
   -2189    -2269    -2266    -2191    -2072    -2191    -2296    -2065 
   -1907    -2041    -2160    -2096    -2039    -2158    -2350    -2353 
   -2151    -2123    -2231    -2191    -2161    -2135    -2074    -2131 
   -2114    -2097    -2193    -2069    -2088    -2458    -2308    -1869 
   -2027    -2172    -1968    -2053    -2200    -2128    -2133    -2176 
   -2182    -2197    -2246    -2354    -2278    -2066    -2065    -2072 
   -2006    -2141    -2286    -2174    -2020    -2104    -2226    -2154 
   -2118    -2155    -2062    -2023    -2187    -2261    -2122    -2030 
   -2162    -2320    -2272    -2131    -2118    -2226    -2261    -2061 
   -1853    -2074    -2377    -2134    -1887    -2184    -2380    -2116 
   -2031    -2324    -2309    -2058    -2150    -2187    -2019    -2130 
   -2261    -2182    -2185    -2195    -2061    -2042    -2276    -2335 
   -2053    -1979    -2142    -2111    -2116    -2230    -2120    -2084 
   -2276    -2235    -2087    -2141    -2170    -2141    -2154    -2188 
   -2208    -2128    -2049    -2103    -2231    -2220    -1973    -1941 
   -2208    -2207    -2045    -2119    -2218    -2169    -2151    -2151 
   -2074    -2097    -2214    -2219    -2189    -2178    -2174    -2205 
   -2207    -2236    -2226    -1984    -1911    -2174    -2199    -2033 
   -2149    -2255    -2138    -2209    -2331    -2164    -2092    -2181 
   -2131    -2111    -2135    -2123    -2146    -2070    -1984    -2120 
   -2300    -2234    -2107    -2155    -2137    -2134    -2247    -2093 
   -1948    -2142    -2197    -2046    -2095    -2261    -2266    -2191 
   -2166    -2141    -2135    -2170    -2209    -2174    -2083    -2205 
   -2359    -2128    -1933    -2177    -2303    -2041    -2023    -2238 
   -2143    -2037    -2181    -2288    -2254    -2110    -2070    -2208 
   -2146    -1971    -2072    -2209    -2138    -2116    -2185    -2197 
   -2218    -2176    -2107    -2170    -2141    -2007    -2065    -2164 
   -2106    -2104    -2192    -2200    -2223    -2182    -2033    -2130 
   -2276    -2087    -1988    -2222    -2288    -2072    -2108    -2346 
   -2265    -2074    -2069    -2052    -2062    -2157    -2127    -2054 
   -2089    -2170    -2201    -2120    -2181    -2347    -2155    -1988 
   -2243    -2296    -2077    -2199    -2347    -2093    -2012    -2195 
   -2155    -2149    -2205    -2006    -1983    -2188    -2083    -2012 
   -2232    -2208    -2074    -2219    -2245    -2041    -2146    -2420 
   -2239    -1949    -2099    -2262    -2091    -2045    -2288    -2289 
   -2012    -1998    -2226    -2220    -1975    -1972    -2246    -2246 
   -2056    -2083    -2139    -2188    -2220    -2081    -2070    -2209 
   -2251    -2274    -2212    -2143    -2228    -2222    -2123    -2111 
   -2066    -2057    -2168    -2142    -2068    -2228    -2297    -2150 
   -2145    -2204    -2135    -2010    -2026    -2231    -2236    -2057 
   -2057    -2158    -2207    -2169    -2141    -2173    -2084    -2077 
   -2282    -2189    -1964    -2197    -2347    -2073    -2096    -2277 
   -2099    -2030    -2155    -2142    -2155    -2205    -2173    -2123 
   -2079    -2088    -2123    -2097    -2091    -2139    -2209    -2247 
   -2146    -2118    -2308    -2311    -2076    -2053    -2211    -2188 
   -2070    -2182    -2282    -2060    -1962    -2227    -2262    -1969 
   -1984    -2242    -2218    -2035    -2101    -2322    -2270    -2070 
   -2076    -2124    -2127    -2157    -2058    -2023    -2243    -2266 
   -2034    -2079    -2243    -2170    -2155    -2234    -2131    -2070 
   -2214    -2218    -2100    -2154    -2176    -2096    -2139    -2203 
   -2151    -2064    -2128    -2272    -2165    -2074    -2273    -2309 
   -2112    -2111    -2209    -2114    -2041    -2135    -2155    -2068 
   -2018    -2027    -2092    -2089    -2004    -2092    -2211    -2120 
   -2155    -2285    -2226    -2313    -2409    -2099    -1972    -2207 
   -2106    -1922    -2154    -2251    -2052    -2127    -2316    -2196 
   -2135    -2211    -2068    -1996    -2138    -2142    -2029    -2050 
   -2220    -2280    -2191    -2199    -2199    -2080    -2110    -2305 
   -2316    -2089    -1996    -2134    -2197    -2130    -2085    -2080 
   -2106    -2166    -2177    -2118    -2185    -2250    -2080    -2046 
   -2223    -2165    -2012    -2096    -2196    -2088    -2022    -2195 
   -2304    -2199    -2266    -2417    -2181    -1944    -2142    -2262 
   -2022    -1954    -2123    -2084    -2076    -2195    -2091    -2052 
   -2170    -2157    -2150    -2235    -2277    -2146    -2118    -2412 
   -2393    -2077    -2176    -2313    -2064    -1977    -2164    -2165 
   -2120    -2160    -2033    -1961    -2135    -2168    -2065    -2192 
   -2323    -2128    -1984    -2216    -2361    -2166    -2080    -2220 
   -2254    -2092    -2007    -2197    -2309    -2104    -1995    -2041 
   -2011    -2062    -2112    -1988    -2062    -2307    -2173    -2010 
   -2327    -2393    -2054    -2173    -2438    -2228    -1991    -2033 
   -2137    -2147    -2087    -2127    -2219    -2112    -2034    -2181 
   -2188    -2114    -2161    -2097    -2104    -2219    -2079    -1998 
   -2223    -2332    -2235    -2110    -2039    -2168    -2269    -2185 
   -2174    -2160    -2099    -2161    -2176    -2104    -2103    -2141 
   -2182    -2209    -2187    -2145    -2114    -2060    -1996    -2053 
   -2212    -2250    -2139    -2166    -2365    -2404    -2177    -2037 
   -2224    -2295    -2030    -1964    -2058    -2023    -2099    -2124 
   -1977    -2106    -2340    -2239    -2116    -2173    -2222    -2265 
   -2200    -2046    -2097    -2176    -2076    -2033    -2069    -2143 
   -2220    -2100    -2046    -2230    -2289    -2211    -2155    -2127 
   -2145    -2145    -2065    -1926    -1968    -2205    -2191    -2025 
   -2118    -2319    -2336    -2160    -2076    -2173    -2130    -1991 
   -2128    -2307    -2095    -1949    -2246    -2392    -2238    -2195 
   -2104    -1988    -2135    -2112    -1858    -1984    -2177    -2052 
   -2097    -2262    -2220    -2292    -2386    -2234    -2187    -2257 
   -2193    -2151    -2178    -2187    -2128    -2011    -2062    -2207 
   -2124    -2131    -2274    -2116    -2064    -2288    -2247    -2155 
   -2231    -2169    -2104    -2209    -2197    -2025    -2050    -2215 
   -2184    -2060    -2047    -2099    -2104    -2065    -2065    -2058 
   -2070    -2201    -2255    -2178    -2166    -2169    -2126    -2088 
   -2037    -2031    -2062    -2052    -2137    -2211    -2106    -2174 
   -2309    -2099    -2020    -2239    -2192    -2043    -2161    -2273 
   -2226    -2155    -2177    -2274    -2220    -2085    -2165    -2280 
   -2211    -2118    -2138    -2197    -2138    -2018    -2097    -2212 
   -2052    -1942    -2119    -2196    -2114    -2091    -2073    -2122 
   -2216    -2196    -2162    -2165    -2196    -2307    -2353    -2246 
   -2112    -2157    -2286    -2176    -1992    -1985    -2034    -2027 
   -1915    -1923    -2164    -2212    -2080    -2222    -2432    -2231 
   -1999    -2241    -2431    -2199    -1988    -2039    -2201    -2277 
   -2246    -2250    -2273    -2145    -1941    -2003    -2204    -2157 
   -1972    -1899    -2037    -2246    -2257    -2199    -2207    -2203 
   -2212    -2161    -2081    -2053    -2033    -2166    -2208    -1845 
   -1749    -2157    -2332    -2214    -2204    -2189    -2139    -2259 
   -2322    -2169    -2127    -2192    -2114    -2052    -2146    -2150 
   -2070    -2204    -2236    -1981    -2072    -2376    -2212    -2031 
   -2270    -2408    -2211    -2065    -2189    -2234    -2006    -1965 
   -2146    -2200    -2239    -2243    -2146    -2224    -2346    -2168 
   -2025    -2145    -2123    -2018    -2046    -2018    -2053    -2173 
   -2106    -2095    -2303    -2313    -2101    -2127    -2272    -2077 
   -1879    -2073    -2162    -1971    -2068    -2251    -2080    -2045 
   -2204    -2119    -2104    -2169    -1945    -1902    -2174    -2153 
   -1968    -1996    -2069    -2101    -2112    -2061    -2126    -2293 
   -2209    -2057    -2154    -2199    -2154    -2249    -2261    -2165 
   -2205    -2281    -2343    -2401    -2328    -2270    -2330    -2307 
   -2184    -2114    -2093    -2119    -2228    -2201    -2072    -2188 
   -2317    -2214    -2143    -2154    -2178    -2165    -1996    -1877 
   -2037    -2242    -2216    -2047    -1987    -2069    -2110    -2077 
   -2072    -2106    -2145    -2169    -2292    -2439    -2308    -2191 
   -2377    -2362    -2161    -2270    -2361    -2128    -2011    -2143 
   -2122    -1930    -1995    -2142    -1937    -1783    -2019    -2180 
   -2054    -1996    -2242    -2527    -2550    -2382    -2273    -2430 
   -2540    -2308    -2254    -2474    -2396    -2146    -2161    -2270 
   -2203    -2066    -1925    -1759    -1796    -1964    -1777    -1499 
   -1788    -2130    -1891    -1694    -1894    -1971    -2006    -2359 
   -2587    -2358    -2141    -2289    -2477    -2403    -2282    -2230 
   -2155    -2178    -2187    -1903    -1745    -1981    -1954    -1675 
   -1900    -2235    -1964    -1719    -2068    -2374    -2380    -2452 
   -2481    -2478    -2648    -2722    -2504    -2226    -2188    -2274 
   -2200    -2101    -2096    -1912    -1699    -1914    -2137    -1976 
   -2002    -2141    -1935    -1918    -2313    -2390    -2053    -2114 
   -2556    -2573    -2245    -2091    -2114    -2207    -2344    -2351 
   -2056    -1773    -1926    -2164    -1966    -1644    -1672    -1825 
   -1834    -1883    -1989    -2080    -2191    -2274    -2475    -2727 
   -2560    -2251    -2411    -2694    -2654    -2440    -2228    -2251 
   -2316    -1922    -1640    -1958    -2164    -2114    -2062    -1784 
   -1757    -2228    -2357    -2168    -2257    -2338    -2242    -2178 
   -2012    -1945    -2254    -2427    -2173    -1869    -1825    -2096 
   -2197    -1885    -1890    -2166    -1999    -1775    -1933    -2161 
   -2323    -2447    -2371    -2154    -2168    -2320    -2262    -2108 
   -2081    -2058    -1825    -1574    -1601    -1834    -2099    -2204 
   -2189    -2353    -2479    -2322    -2254    -2339    -2363    -2361 
   -2262    -2191    -2339    -2501    -2405    -2126    -2158    -2501 
   -2362    -1948    -2158    -2477    -2200    -2018    -2216    -2158 
   -1923    -1904    -1911    -1869    -1952    -2046    -2072    -2119 
   -2169    -2192    -2285    -2448    -2479    -2344    -2085    -1728 
   -1719    -2107    -2226    -2084    -2039    -2002    -2142    -2409 
   -2226    -1875    -1887    -1950    -2018    -2199    -2220    -2141 
   -2070    -2172    -2552    -2501    -1915    -1787    -2218    -2435 
   -2182    -1929    -2101    -2421    -2434    -2326    -2475    -2585 
   -2347    -2110    -2112    -2236    -2232    -1992    -1830    -1871 
   -1961    -2103    -2184    -2111    -2027    -1995    -2061    -2178 
   -2254    -2358    -2385    -2315    -2246    -2068    -2074    -2304 
   -2093    -1734    -1898    -2162    -2095    -1922    -1807    -1838 
   -2131    -2389    -2211    -1868    -1972    -2447    -2569    -2150 
   -1904    -2138    -2203    -2022    -2165    -2334    -2139    -2033 
   -2192    -2266    -2211    -2162    -2027    -1954    -2147    -2242 
   -2130    -2191    -2334    -2370    -2411    -2274    -1993    -2046 
   -2236    -2031    -1744    -1799    -1895    -1868    -1965    -2138 
   -2176    -2239    -2486    -2517    -2257    -2377    -2675    -2353 
   -2007    -2323    -2467    -2170    -2137    -2230    -2278    -2397 
   -2145    -1829    -2034    -2069    -1661    -1669    -2242    -2489 
   -2176    -1973    -1980    -2030    -2282    -2303    -1900    -1807 
   -2106    -2176    -1933    -1895    -2269    -2508    -2419    -2420 
   -2354    -2099    -2241    -2621    -2412    -2004    -2196    -2408 
   -2197    -2142    -2169    -1877    -1714    -1898    -1937    -1699 
   -1671    -1950    -2058    -2073    -2261    -2319    -2323    -2351 
   -2234    -2419    -2835    -2809    -2496    -2342    -2317    -2285 
   -2176    -2042    -2018    -1948    -1804    -1892    -2008    -1833 
   -1615    -1707    -2000    -1930    -1665    -1949    -2366    -2324 
   -2304    -2450    -2366    -2211    -2195    -2207    -2128    -1989 
   -2092    -2334    -2235    -1991    -1964    -1984    -2114    -2378 
   -2270    -1937    -1929    -1958    -1860    -2007    -2215    -2089 
   -1948    -2115    -2340    -2463    -2404    -2227    -2292    -2396 
   -2235    -2124    -2172    -2269    -2253    -1996    -2004    -2386 
   -2492    -2371    -2332    -2201    -2155    -2338    -2253    -1962 
   -2029    -2158    -2057    -2031    -2056    -2025    -2045    -2123 
   -2223    -2220    -2130    -2065    -1952    -1937    -2106    -2081 
   -1991    -2277    -2494    -2208    -2043    -2261    -2289    -2108 
   -2065    -2155    -2215    -2052    -1922    -2123    -2235    -2130 
   -2126    -2031    -1883    -2053    -2110    -1846    -1923    -2154 
   -1977    -1875    -2164    -2389    -2411    -2400    -2357    -2281 
   -2168    -2060    -2173    -2312    -2182    -2153    -2266    -2243 
   -2365    -2435    -2056    -1957    -2400    -2405    -1904    -1775 
   -2004    -2022    -1948    -2042    -2022    -1949    -2169    -2249 
   -2054    -2141    -2263    -2151    -2270    -2450    -2288    -2220 
   -2359    -2228    -2060    -2200    -2168    -1899    -2003    -2231 
   -2104    -2020    -2224    -2338    -2227    -2218    -2317    -2173 
   -2014    -2176    -2201    -1925    -1933    -2178    -2116    -2031 
   -2203    -2226    -2169    -2295    -2280    -2111    -2122    -2193 
   -2204    -2281    -2326    -2239    -2133    -2087    -2184    -2268 
   -2165    -2203    -2307    -2070    -1914    -2104    -2135    -2023 
   -2093    -2111    -1934    -1896    -2116    -2289    -2232    -2116 
   -2120    -2168    -2226    -2393    -2420    -2142    -1938    -1892 
   -1853    -1984    -2160    -2141    -2060    -1971    -1966    -2135 
   -2193    -2220    -2334    -2141    -1900    -2070    -2285    -2274 
   -2218    -2246    -2204    -1995    -1960    -2201    -2301    -2160 
   -2033    -2022    -2046    -2050    -2099    -2161    -2166    -2124 
   -2089    -2238    -2393    -2328    -2265    -2227    -2180    -2209 
   -2212    -2150    -2088    -2068    -2081    -2069    -2103    -2160 
   -2176    -2232    -2227    -2146    -2150    -2157    -2143    -2207 
   -2284    -2354    -2336    -2204    -2209    -2327    -2336    -2307 
   -2232    -2035    -2022    -2270    -2263    -1983    -1949    -2134 
   -2208    -2177    -2150    -2127    -2154    -2219    -2173    -2065 
   -2123    -2281    -2209    -1996    -1953    -1945    -2000    -2238 
   -2169    -1887    -1983    -2154    -2103    -2074    -2091    -2092 
   -2079    -2084    -2193    -2232    -2050    -1919    -2064    -2168 
   -2033    -2047    -2128    -1972    -2037    -2307    -2235    -2127 
   -2281    -2334    -2155    -2077    -2261    -2343    -2162    -2093 
   -2164    -2147    -2118    -2128    -2184    -2257    -2141    -2027 
   -2176    -2189    -2054    -2100    -2103    -2042    -2146    -2253 
   -2277    -2273    -2154    -2123    -2351    -2434    -2266    -2259 
   -2301    -2101    -1948    -2085    -2257    -2165    -2018    -2114 
   -2122    -1983    -2192    -2405    -2083    -1790    -1980    -2209 
   -2199    -2130    -2127    -2195    -2212    -2128    -2084    -2143 
   -2208    -2128    -2050    -2247    -2389    -2143    -2061    -2354 
   -2369    -2174    -2209    -2176    -2033    -2037    -2029    -2038 
   -2128    -2027    -1880    -2049    -2258    -2174    -2069    -2133 
   -2155    -2139    -2223    -2250    -2150    -2166    -2315    -2277 
   -2066    -2126    -2374    -2301    -2118    -2142    -2089    -2058 
   -2262    -2255    -2031    -2149    -2354    -2138    -1875    -1968 
   -2188    -2234    -2161    -2139    -2128    -2091    -2126    -2231 
   -2280    -2151    -2003    -2092    -2174    -1999    -1925    -2081 
   -2157    -2153    -2084    -1975    -2119    -2338    -2290    -2185 
   -2101    -2022    -2139    -2262    -2220    -2207    -2201    -2157 
   -2178    -2201    -2157    -2095    -2042    -2026    -2007    -2011 
   -2196    -2266    -1993    -1966    -2301    -2313    -2128    -2253 
   -2347    -2154    -2015    -2068    -2147    -2164    -2166    -2153 
   -2103    -2178    -2343    -2259    -2081    -2241    -2382    -2097 
   -1910    -2065    -2114    -2093    -2165    -2119    -2176    -2413 
   -2299    -2068    -2222    -2193    -1919    -2092    -2322    -2089 
   -1908    -2100    -2343    -2292    -2052    -2020    -2192    -2212 
   -2058    -2020    -2112    -2130    -2096    -2096    -2080    -2077 
   -2104    -2060    -2020    -2095    -2151    -2114    -2100    -2205 
   -2255    -2114    -2064    -2172    -2131    -2069    -2188    -2285 
   -2303    -2332    -2292    -2208    -2250    -2270    -2114    -2115 
   -2295    -2162    -1840    -1846    -2096    -2219    -2184    -2133 
   -2166    -2203    -2168    -2290    -2466    -2350    -2241    -2245 
   -2026    -1938    -2188    -2226    -1996    -1938    -2041    -2025 
   -1998    -2178    -2308    -2193    -2097    -2173    -2277    -2285 
   -2227    -2168    -2100    -2101    -2204    -2208    -2143    -2214 
   -2247    -2081    -1942    -1988    -2120    -2232    -2219    -2120 
   -2154    -2185    -2080    -2101    -2199    -2162    -2085    -2016 
   -1999    -2081    -2182    -2250    -2193    -2080    -2119    -2153 
   -2068    -2137    -2268    -2187    -2087    -2127    -2203    -2268 
   -2295    -2307    -2332    -2238    -2093    -2145    -2246    -2209 
   -2145    -1976    -1857    -2115    -2281    -2046    -1954    -2080 
   -2108    -2195    -2261    -2077    -2020    -2169    -2150    -2104 
