Origin Time       2025/03/30 21:30:00
Lat.              38.535
Long.             142.295
Depth. (km)       44
Mag.              4.3
Station Code      IWTH27
Station Lat.      39.0307
Station Long.     141.5320
Station Height(m) 80
Record Time       2025/03/30 21:31:21
Sampling Freq(Hz) 100Hz
Duration Time(s)  120
Dir.              5
Scale Factor      7845(gal)/8223790
Max. Acc. (gal)   6.926
Last Correction   2025/03/30 21:31:20
Memo.             
[...]
    4915     4918     4915     4914     4915     4912     4915     4915 
    4914     4915     4912     4914     4916     4914     4915     4916 
    4912     4914     4916     4918     4915     4911     4912     4914 
    4909     4914     4912     4912     4915     4914     4912     4912 
    4911     4914     4911     4912     4918     4912     4912     4914 
    4909     4912     4914     4912     4912     4911     4912     4912 
    4911     4914     4912     4914     4915     4909     4909     4912 
    4911     4912     4914     4915     4916     4912     4912     4915 
    4914     4914     4911     4912     4916     4914     4912     4915 
    4911     4912     4914     4912     4915     4912     4915     4916 
    4911     4912     4915     4912     4915     4916     4915     4915 
    4912     4915     4915     4914     4915     4912     4912     4916 
    4915     4912     4912     4914     4915     4912     4914     4916 
    4912     4914     4915     4912     4915     4914     4914     4916 
    4915     4914     4912     4914     4916     4914     4914     4915 
    4912     4914     4914     4911     4915     4915     4914     4916 
    4914     4912     4915     4915     4916     4914     4911     4912 
    4914     4916     4915     4911     4914     4914     4911     4914 
    4911     4914     4915     4911     4911     4909     4909     4915 
    4912     4911     4915     4914     4915     4915     4911     4912 
    4911     4912     4915     4912     4911     4911     4911     4912 
    4911     4912     4915     4912     4914     4912     4909     4911 
    4912     4914     4914     4908     4911     4914     4909     4912 
    4911     4911     4914     4911     4914     4915     4912     4914 
    4911     4911     4915     4914     4914     4911     4909     4915 
    4915     4914     4915     4912     4916     4919     4912     4914 
    4915     4914     4915     4912     4912     4915     4914     4915 
    4915     4914     4916     4912     4911     4912     4912     4915 
    4912     4912     4916     4912     4914     4918     4914     4915 
    4914     4911     4915     4915     4915     4914     4912     4915 
    4915     4912     4914     4912     4914     4916     4915     4915 
    4916     4916     4916     4912     4912     4915     4914     4914 
    4914     4912     4914     4912     4915     4915     4911     4914 
    4915     4912     4916     4914     4912     4915     4912     4914 
    4915     4912     4914     4915     4915     4916     4914     4912 
    4911     4912     4916     4912     4912     4915     4911     4911 
    4915     4914     4914     4912     4912     4914     4912     4914 
    4911     4907     4914     4914     4912     4915     4911     4911 
    4915     4914     4915     4912     4909     4915     4915     4912 
    4912     4911     4914     4914     4914     4915     4911     4911 
    4914     4911     4915     4914     4911     4914     4912     4912 
    4914     4912     4915     4914     4911     4914     4912     4914 
    4914     4911     4914     4914     4912     4915     4912     4912 
    4915     4909     4912     4915     4911     4914     4915     4914 
    4914     4911     4912     4914     4912     4914     4912     4912 
    4915     4914     4914     4912     4912     4915     4912     4912 
    4916     4916     4922     4926     4927     4932     4927     4914 
    4901     4887     4878     4874     4865     4862     4876     4900 
    4915     4943     4988     5000     5022     5040     4912     4761 
    4816     4877     4804     4931     5188     5128     4980     4974 
    4779     4626     4792     4769     4683     4934     5078     4997 
    4957     4939     4963     4881     4692     4700     4939     5265 
    5397     5178     4827     4634     4853     4980     4468     4422 
    5344     5481     4583     4499     5062     5042     4849     4710 
    4542     4997     5598     5354     4824     4612     4561     4837 
    5177     5120     5097     5031     4654     4769     5080     4671 
    4419     4972     5425     5116     4737     5152     5381     4654 
    4464     4990     4897     4666     4800     4816     5042     5263 
    4970     4965     5067     4715     4897     5212     4760     4675 
    4930     4645     4800     5286     4629     4141     5096     5763 
    5589     5252     4824     4773     4972     4806     4241     4039 
    4776     5170     4770     4841     5301     5553     5377     4734 
    4553     4885     4730     4554     5184     5633     5054     4590 
    4558     4144     4406     5647     5979     5313     5027     5209 
    4916     4172     4113     4394     4371     4941     5830     5724 
    4842     4471     4949     5275     5085     4868     4807     5012 
    5047     4475     4133     4646     5155     4918     4700     5090 
    5368     5406     5611     5514     4761     4117     4298     4525 
    4222     4484     5312     5455     5239     5262     5047     4835 
    5089     5117     4714     4607     4762     4743     4818     5124 
    5053     4634     4648     4959     5175     5486     5528     4908 
    4365     4531     4847     4792     4804     4969     4796     4677 
    5050     5439     5539     5308     4756     4311     4361     4818 
    5135     4930     4812     5077     4923     4544     4822     5243 
    5343     5656     5660     4665     3932     4148     4347     4638 
    5278     5413     5182     5177     4990     4665     4905     5293 
    4989     4614     4693     4733     4849     5028     4796     4635 
    5027     5391     5279     4970     4834     5007     5036     4540 
    4190     4433     4746     4839     5008     5354     5555     5501 
    5325     4896     4380     4401     4677     4587     4579     5003 
    5452     5493     5098     4930     5073     4768     4437     4853 
    5178     4784     4460     4635     4901     5032     5065     4984 
    4909     5000     5157     5332     5332     4885     4579     4741 
    4638     4334     4460     4814     5225     5601     5506     5109 
    4789     4553     4629     4951     4980     4769     4742     4799 
    4796     5054     5397     5185     4696     4668     5036     5167 
    4923     4752     4710     4645     4726     4872     4930     5117 
    5427     5259     4541     4384     5147     5574     5082     4611 
    4618     4637     4623     4726     4860     5174     5413     5032 
    4654     5063     5390     4938     4580     4657     4750     4974 
    5085     4768     4641     4892     5035     5023     5078     5225 
    5105     4673     4536     4777     4958     5016     5028     4928 
    4826     4896     5005     4938     4788     4901     5204     5020 
    4405     4341     4943     5440     5381     4811     4671     5206 
    5077     4635     5012     5096     4618     4733     5012     4869 
    4672     4604     4828     5154     5134     5036     5147     5116 
    4796     4603     4727     4860     4932     5038     5042     4939 
    4870     4936     4963     4842     4943     5154     5023     4764 
    4606     4665     5034     5104     4820     5057     5404     4919 
    4430     4812     5125     4735     4510     4914     5209     4941 
    4743     4995     5238     5308     5074     4575     4626     4920 
    4618     4612     5158     5232     5051     5023     4962     5030 
    5047     4826     4625     4521     4712     5117     5184     4878 
    4685     4903     5100     4835     4691     5026     5165     5028 
    5103     5051     4816     4837     4758     4567     4615     4668 
    4947     5381     5374     5190     4941     4619     4760     4961 
    4603     4423     4904     5248     5213     5262     5108     4685 
    4576     4702     4795     4846     4904     5175     5235     4833 
    4743     4943     4892     4999     5332     5117     4580     4637 
    4874     4741     4822     5007     4803     4843     5422     5633 
    4974     4375     4606     4919     4978     5070     4595     4093 
    4752     5440     5162     4891     5108     5420     5464     5061 
    4687     4652     4517     4430     4695     4955     5189     5216 
    4743     4575     4984     5067     4770     4818     5312     5552 
    5030     4584     4912     4992     4541     4657     4928     4749 
    5015     5333     4800     4398     4585     4749     5001     5352 
    5391     5229     5236     5205     4696     4189     4453     5011 
    4989     4783     4870     4826     4789     5184     5632     5621 
    5078     4536     4465     4456     4260     4455     4997     5215 
    5238     5250     4957     4781     5024     5339     5516     5023 
    4314     4545     4866     4691     4849     4815     4383     4644 
    5304     5672     5746     5062     4175     4468     5231     5040 
    4554     4653     4692     4453     4617     5212     5779     5827 
    5216     4734     4708     4418     4166     4777     5378     4993 
    4518     4843     5224     5116     5209     5328     4873     4743 
    5094     4711     4029     4286     5146     5667     5560     5076 
    4661     4738     5035     4878     4546     4645     4920     5065 
    5138     4988     4664     4669     4951     5071     5094     5092 
    4938     4804     4757     4851     5181     5090     4549     4506 
    4789     4891     4936     5054     5518     5745     4872     3927 
    4082     4726     4943     4938     5278     5555     5266     4849 
    4642     4604     4892     5279     5239     4972     4769     4587 
    4747     5090     5113     4988     4915     4989     5124     4988 
    4710     4602     4666     4656     4681     5115     5367     4978 
    4737     5042     5294     5128     4926     4800     4522     4479 
    4760     5016     5313     5146     4357     4302     4951     4791 
    4357     4911     5621     5587     5293     5147     5101     5015 
    4787     4564     4376     4315     4874     5660     5493     4577 
    4270     4922     5350     4810     4491     5116     5373     4981 
    5051     5148     4753     4715     4874     4554     4347     4749 
    5250     5437     5348     4950     4598     4698     4916     5130 
    5316     5057     4706     4835     4789     4233     4245     5020 
    5659     5883     5463     4639     4531     4927     4874     4656 
    4523     4376     4639     5135     5038     4607     4806     5402 
    5502     5217     5004     5042     5217     4781     4108     4434 
    4873     4610     4968     5678     5165     4417     4756     5324 
    5437     5142     4637     4618     4997     4961     4502     4282 
    4669     5238     5474     5460     5242     4750     4472     4757 
    4896     4457     4307     4887     5404     5502     5328     4807 
    4449     4731     5151     5192     4912     4842     5101     4978 
    4599     4629     4747     4788     5078     5196     4895     4982 
    5394     5031     4430     4652     4869     4623     4708     4887 
    4847     5383     6010     5471     4607     4677     4907     4378 
    3983     4484     5082     5355     5567     5609     5184     4369 
    4198     4943     5194     4869     5005     5121     4723     4530 
    4731     4757     4536     4567     4966     5428     5784     5701 
    5205     4862     4507     4197     4564     5062     4873     4396 
    4676     5706     5892     4935     4326     4337     4618     5297 
    5680     5243     4650     4483     4699     4750     4433     4506 
    5098     5336     5008     4864     5201     5178     4715     4791 
    5100     4869     4546     4720     5323     5726     5247     4446 
    4552     5057     4720     4203     4449     4978     5335     5360 
    5066     4978     5103     4972     4630     4576     5115     5416 
    4866     4625     5062     4918     4360     4715     5514     5464 
    4868     4680     5017     5336     5163     4612     4054     4066 
    4865     5417     5125     4715     4746     5155     5448     5233 
    4866     4737     4688     4677     4746     4801     5032     5150 
    4889     5022     5424     5197     4677     4475     4471     4463 
    4469     4747     5341     5701     5620     5343     4676     4005 
    4087     4396     4739     5530     5879     5352     5054     5378 
    5422     4687     3925     3890     4479     5113     5302     5279 
    5400     5344     4760     4151     4380     5135     5545     5474 
    4972     4376     4365     4866     5212     5211     5047     4638 
    4450     5073     5298     4554     4328     4753     5090     5406 
    5397     5034     4723     4421     4486     4893     4752     4603 
    5049     5008     4761     5289     5787     5786     5625     5111 
    4355     3896     3905     4213     4518     4846     5314     5439 
    5324     5575     5510     4630     3986     4245     4750     5070 
    5598     6278     6339     5583     4984     5034     5228     5590 
    5652     4503     3075     2763     3616     4556     4275     3319 
    3407     4862     6355     6455     5857     6104     7125     7655 
    5798     2164      615     2042     4301     6868     8716     7831 
    5670     4845     4345     2909     1848     1813     2312     3406 
    4845     6108     6828     6642     5921     5505     5667     6012 
    6478     6986     6172     3769     2074     2128     2473     2767 
    4610     8291    11222    10696     7449     4513     2902     1482 
      81     -473      253     2547     6482    10643    12174    10080 
    6481     3757     3325     4932     5825     4075     1331      183 
    1525     4089     5104     3913     3435     5231     7095     7474 
    7291     7049     6706     6335     5383     4077     3145     1730 
     195     2038     7522    11302    10098     6092     3099     2709 
    2868     1917     1848     3867     5945     6783     7258     7909 
    8233     7323     4483     1499     1169     1907     1151     1598 
    5097     7778     7778     7668     7911     6930     5108     3569 
    2168      892     1273     4075     7177     8338     7975     7468 
    6806     5702     4889     4409     3550     2533     2203     2851 
    3763     4309     4729     5891     8004     8877     7052     4324 
    2396     2153     3804     5177     4573     3801     4993     6589 
    6315     5427     5597     5919     5571     5309     5274     4490 
    3462     3438     3751     3846     4272     4814     5327     5957 
    6174     5749     4916     4251     4401     4995     5836     6597 
    5470     3105     2878     4712     6216     6573     5040     2845 
    2975     4629     5854     6575     5753     4010     4351     5946 
    5748     4599     4396     4752     5093     5098     4965     5248 
    4924     3620     3424     5059     6301     5582     3871     2731 
    3141     5028     6613     6577     5967     6361     7136     6104 
    3561     2080     2246     3075     4402     6008     6879     6758 
    6520     5998     4365     2998     3360     3847     3797     5159 
    6710     5228     3164     4785     7249     6527     4935     4504 
    4105     4283     5148     5078     4614     4869     5088     5027 
    5281     5285     4631     4693     5665     5795     4734     3541 
    3154     3735     4483     5265     6077     6014     5493     5576 
    5544     4835     4128     3790     4010     4876     5737     5875 
    5319     4572     4133     4195     4379     4314     4440     5530 
    6967     6558     4228     3072     4163     5305     5373     4985 
    4884     5395     5840     5595     4935     4106     3925     5316 
    6566     5364     3655     4465     5857     5039     3792     4121 
    4853     4920     5023     5567     5960     5776     4986     4029 
    3507     3338     3576     4617     5972     6501     5904     5169 
    4977     4918     4768     4668     4591     4468     4336     4781 
    5832     6037     5219     4517     4266     4822     5458     4673 
    3825     4537     5193     4769     4449     4388     4189     4560 
    5613     6274     6066     5670     5680     5435     4503     3943 
    3518     2582     3001     5096     6493     6697     6540     6278 
    6331     5898     4009     2768     3308     3397     3252     4673 
    6088     6226     6268     6380     6084     5393     4332     3669 
    4189     5377     5676     4203     2845     3694     5113     5152 
    5100     5927     6534     6107     4949     4210     4386     4441 
    4274     4475     4363     3981     4340     5455     6431     6168 
    5061     4722     5069     4986     4434     3940     3742     4043 
    5047     6021     5952     5385     5285     5213     4737     4646 
    5047     4780     4047     4164     4830     5370     5958     5823 
    4765     4525     5128     4993     4495     4342     4348     4968 
    5898     5814     4935     4325     4120     4629     5485     4916 
    3813     4599     5656     5015     4718     5570     5444     4472 
    4495     5270     5620     5343     4860     4739     5027     5001 
    4241     3550     3539     3626     4341     6220     6905     5425 
    4465     5193     5942     5494     4635     4834     5475     4831 
    3788     4070     4542     4264     4891     6068     5579     4484 
    4618     5073     5034     5125     5568     5420     4477     4108 
    4411     4375     4310     4834     5767     6230     5776     5337 
    5030     4314     4116     4853     5347     5066     4785     4834 
    4635     4517     5024     5177     4544     4203     4662     5530 
    5999     5248     4097     4164     4853     4938     5150     5416 
    4743     4302     5067     5927     5930     5120     4510     4571 
    4198     3619     4118     5007     5134     5003     5379     5698 
    5046     4164     4337     4903     4943     5159     5463     5274 
    5533     6011     5248     4020     3812     4268     4657     4903 
    4828     4734     5260     5661     5112     4820     5552     5705 
    4611     4112     4951     5528     5062     4349     4125     4693 
    5398     5135     4531     4855     5348     5074     4654     4449 
    4637     5209     5235     4934     5093     5217     5287     5443 
    4895     4023     4037     4544     4623     4858     5657     5876 
    5219     4731     4549     4380     4479     4699     4789     5140 
    5514     4993     4174     4324     5062     5637     5904     5451 
    4538     4469     5309     5502     4664     3896     3591     3834 
    4715     5580     5999     5929     5647     5698     5574     4762 
    4005     3738     3751     4171     4962     5651     6025     5919 
    5383     5011     4830     4471     4270     4247     3888     3811 
    4781     5922     6100     5405     4781     5005     5668     5728 
    5080     4567     4356     3977     4081     4959     5040     4446 
    4723     5167     5277     5701     5726     5117     4791     4491 
    3973     4163     5096     5856     5864     4941     4009     4347 
    5293     5167     4328     4565     5175     4450     4199     5699 
    6291     5306     5047     5520     5134     3982     3478     4322 
    5409     5620     5259     4753     4464     4734     5094     5356 
    5741     5624     4747     3964     3839     4572     5437     5115 
