Origin Time       2025/03/30 21:30:00
Lat.              38.535
Long.             142.295
Depth. (km)       44
Mag.              4.3
Station Code      IWTH14
Station Lat.      39.7435
Station Long.     141.9087
Station Height(m) 100
Record Time       2025/03/30 21:31:33
Sampling Freq(Hz) 100Hz
Duration Time(s)  120
Dir.              3
Scale Factor      2942(gal)/8224139
Max. Acc. (gal)   0.110
Last Correction   2025/03/30 21:31:33
Memo.             
[...]
   88068    88005    87947    88005    88032    87978    87955    87987 
   87991    87960    87945    87936    87924    87936    87988    88022 
   87971    87917    87975    88040    87986    87930    87959    87964 
   87975    88069    88105    87987    87916    88026    88078    87956 
   87898    87964    88011    87982    87940    87974    88010    87983 
   87971    87983    87971    87960    87983    87999    87974    87971 
   88014    88034    88010    87999    88006    87984    87991    88040 
   87998    87910    87905    87956    88018    88007    87922    87936 
   88057    88074    87978    87988    88063    87998    87930    87968 
   87943    87894    87936    87949    87943    87991    87984    87912 
   87907    87993    88029    87937    87882    87974    88059    88051 
   88001    87951    87964    87997    87939    87891    87952    88001 
   87957    87949    88024    88028    87957    87957    87971    87956 
   88013    88026    87907    87894    88040    88065    87947    87916 
   87959    87951    87974    88048    88009    87932    88006    88065 
   87995    87983    88044    88060    88074    88086    88014    87933 
   87948    88005    87997    87922    87910    87978    87949    87875 
   87956    88038    87968    87961    88020    87945    87903    87997 
   88040    88013    87979    87941    87948    88013    88071    88034 
   87910    87864    87967    88056    88015    87943    87959    87978 
   87921    87933    88017    87987    87929    87988    88017    87986 
   88018    88041    87986    87929    87922    87948    87955    87944 
   87972    87971    87907    87943    88052    88068    88025    87988 
   87983    88052    88086    87976    87878    87880    87906    87975 
   88007    87929    87934    88014    87998    87976    88010    88041 
   88036    87975    87945    87978    87990    88006    88037    88014 
   87951    87909    87982    88105    88022    87863    87930    88048 
   88029    88011    87994    87963    87993    88021    88020    88015 
   87982    87964    87983    87968    87937    87959    87998    87978 
   87945    87941    87920    87922    88002    88029    87960    87956 
   88017    88018    87997    87984    87940    87929    87955    87941 
   87975    88028    87961    87886    87943    88038    88014    87899 
   87906    88028    88067    88017    87980    87995    88006    87978 
   87970    88005    88015    87944    87885    87979    88048    87945 
   87932    88037    87999    87914    87976    88036    87980    87966 
   88030    88086    88141    88114    87968    87922    88015    88034 
   87943    87870    87889    87951    87945    87932    87986    87990 
   87951    88011    88075    87988    87914    87984    88024    87972 
   87948    87960    88002    88041    87975    87893    87953    88034 
   87994    87932    87939    87967    87966    87972    88024    88051 
   88006    87971    88006    88020    87984    87991    88007    87990 
   87972    87960    87980    88030    88013    87933    87933    88003 
   87979    87906    87948    88026    88017    87963    87933    87978 
   88029    87972    87921    87972    87988    87926    87926    88011 
   88064    88017    87963    87980    88009    88045    88117    88079 
   87939    87903    87972    87976    87903    87906    87997    88011 
   87945    87924    87976    88063    88071    87964    87928    88011 
   88059    88029    88007    88037    88037    87976    87980    88014 
   87940    87872    87943    88021    87976    87928    87998    88040 
   87968    87949    87994    87984    87951    87967    88017    88029 
   87986    87974    88011    88007    87952    87957    88002    87970 
   87899    87913    87983    87980    87944    87978    88002    87976 
   87967    87966    87988    88007    87971    87960    87967    87930 
   87928    87986    87987    87921    87913    87990    88042    88028 
   88010    88009    87990    87998    88028    87972    87902    87949 
   87983    87929    87959    88007    87913    87902    88082    88121 
   87967    87910    87995    88052    88003    87956    88013    88024 
   87934    87979    88105    88071    87970    87947    87949    87982 
   88029    87979    87867    87852    87979    88102    88034    87859 
   87822    87933    88026    87994    87912    87951    88040    88034 
   87994    87972    87978    88015    88026    87982    87956    87984 
   87998    87980    87997    88007    87976    87974    87990    87937 
   87878    87928    87968    87898    87885    87976    87998    87960 
   87993    88047    88015    87970    87999    88041    88015    87957 
   87964    88029    88006    87920    87941    88036    88052    87972 
   87922    87991    88055    87990    87922    87971    88045    88037 
   87991    87986    87986    87956    87949    87957    87917    87902 
   87953    87980    87963    87955    87963    87961    87963    88013 
   88052    87988    87917    87953    87995    87964    87948    87967 
   87980    88006    88022    87978    87905    87921    88014    88011 
   87924    87948    88061    88067    87993    87975    87982    87976 
   87975    87967    87964    87970    88011    88069    88030    87959 
   87990    88028    87963    87909    87960    88013    87956    87910 
   88040    88165    88042    87875    87949    88082    88011    87897 
   87920    87979    87980    87978    88033    88061    87957    87864 
   87921    87960    87886    87914    88033    87982    87891    87976 
   88034    87944    87902    87955    87964    87949    87961    87951 
   87983    88036    87979    87913    87972    88069    88052    87963 
   87979    88022    87980    88002    88069    88047    88002    87998 
   87970    87933    87963    88003    87975    87929    87947    87991 
   87987    87967    87975    87982    87967    87948    87971    88017 
   88026    88022    87988    87913    87936    88010    87978    87945 
   87943    87875    87863    87957    88028    88022    87986    87991 
   88017    87994    87963    87975    87964    87887    87862    87963 
   88049    88036    88024    88017    87968    87984    88088    88086 
   87952    87910    88021    88092    88022    87964    88011    88014 
   87930    87914    87963    87979    87983    87979    87937    87926 
   87994    88014    87957    87970    87998    87933    87921    88024 
   88060    88010    87997    87993    87972    88029    88086    87998 
   87890    87928    87995    87924    87840    87907    87971    87943 
   87984    88032    87975    87945    87988    88022    87999    87928 
   87932    88007    87991    87934    87991    88064    88015    87947 
   87961    87991    88014    88060    88064    88017    87988    87993 
   88033    88061    87984    87886    87910    87982    87994    87984 
   87983    87952    87921    87967    88005    87968    87982    88034 
   88007    87974    88015    88047    87976    87903    87912    87914 
   87921    87941    87909    87912    87971    88002    88028    87998 
   87920    87956    88029    87998    87974    88010    88022    88022 
   88037    88013    87979    87976    87952    87898    87874    87903 
   87948    87948    87914    87930    87978    88003    88015    88020 
   88018    88034    88059    88024    87952    87974    88042    88010 
   87928    87928    87972    87956    87898    87883    87949    88048 
   88055    87960    87928    87997    88038    88002    87939    87922 
   87980    88057    88069    88013    87941    87921    87991    88032 
   87932    87855    87928    87990    87947    87909    87967    88052 
   88053    88015    88005    87984    87949    87963    88014    88033 
   88003    87972    88002    88049    88040    88021    88018    87994 
   87926    87870    87928    88009    87990    87968    88003    88042 
   88079    88099    88061    87980    87916    87879    87878    87932 
   87944    87851    87853    88021    88083    88003    87998    88033 
   87979    87926    87966    87988    87949    87951    87968    87980 
   88021    87993    87917    87913    87905    87879    87885    87867 
   87876    87943    87953    87986    88092    88094    88034    88094 
   88138    88068    88022    88024    87970    87921    87980    88009 
   87889    87835    87953    88022    87970    87944    87972    87987 
   87997    88038    88078    88063    88020    87978    87966    88018 
   88028    87955    87933    87947    87906    87856    87849    87875 
   87906    87912    87952    88037    88017    87928    87979    88091 
   88083    88034    88015    87960    87930    88018    88072    87978 
   87885    87902    87952    87966    87948    87912    87906    87971 
   88007    87974    87994    88064    88075    88029    87995    88003 
   88005    87986    88006    88020    87970    87939    87983    88036 
   88003    87932    87932    87960    87947    87937    87933    87902 
   87912    87988    88024    87963    87918    87961    87991    87987 
   87987    87960    87966    88002    87998    88022    88075    88052 
   87983    87972    87995    87947    87906    87987    88024    87940 
   87918    87988    88042    88074    88038    87929    87961    88087 
   88040    87967    88017    88032    88002    87974    87937    87940 
   87961    87979    87993    87963    87933    87964    87972    87952 
   87994    88006    87940    87944    88030    88069    88053    88025 
   88013    88017    87976    87916    87910    87945    87967    87972 
   87991    88007    87987    88007    88087    88101    88040    88003 
   87998    87983    87980    87998    87979    87937    87917    87914 
   87961    88010    87963    87906    87916    87926    87937    87957 
   87960    87930    87924    87998    88033    87974    87956    87998 
   87997    87943    87930    87945    87894    87886    87968    87937 
   87867    87964    88013    87922    87952    88059    88047    88002 
   87988    87990    88044    88084    88033    87948    87913    87960 
   88011    87964    87905    87949    87976    87895    87860    87939 
   87984    87944    87922    87967    87956    87855    87836    87972 
   88068    87966    87804    87809    87944    88003    87951    87891 
   87883    87932    87984    87995    87994    87986    87955    87980 
   88068    88086    88018    88007    88079    88087    88042    88105 
   88140    87988    87874    87930    87978    87944    87930    87948 
   87959    88007    88090    88152    88202    88204    88118    88059 
   88064    88044    88032    88036    88001    88007    88052    88024 
   87979    87998    87995    87913    87843    87852    87870    87883 
   87960    88060    88075    88034    88034    88040    87993    87940 
   87920    87902    87871    87839    87831    87870    87925    87947 
   88001    88092    88064    87967    87947    87937    87901    87898 
   87899    87906    87952    87979    87947    87928    87947    87941 
   87885    87856    87926    88021    88034    88001    88040    88156 
   88225    88229    88215    88152    88069    88078    88105    88013 
   87871    87843    87941    88022    87995    87894    87771    87740 
   87835    87867    87799    87843    87984    88049    88086    88187 
   88248    88145    88003    88037    88102    87999    87897    87895 
   87887    87870    87849    87829    87810    87763    87739    87751 
   87737    87740    87828    87941    88020    88092    88137    88123 
   88157    88190    88103    88038    88055    88025    87963    87937 
   87945    87956    87960    87975    87970    87917    87897    87916 
   87898    87890    87945    87972    87959    87991    88056    88103 
   88140    88128    88048    88042    88146    88171    88105    88099 
   88113    88056    87952    87847    87770    87709    87682    87783 
   87932    87971    87961    87956    87959    88041    88091    88020 
   87980    88010    87967    87905    87967    88069    88074    88079 
   88161    88187    88129    88107    88122    88117    88057    87901 
   87741    87740    87848    87899    87907    87932    87909    87880 
   87998    88167    88177    88096    88067    88049    88003    87995 
   88026    87967    87832    87862    88087    88188    88069    87968 
   87944    87902    87840    87750    87678    87714    87825    87928 
   87980    87979    87955    87964    88021    88044    88007    87984 
   87990    87988    87966    87943    87922    87872    87821    87828 
   87860    87909    87982    87991    87986    88095    88186    88130 
   88078    88071    88049    88057    88072    88049    88020    87988 
   88011    88090    88092    88014    88017    88084    88065    87993 
   87939    87863    87808    87860    87994    88083    88068    88069 
   88110    88049    87999    88076    88080    87967    87924    87948 
   87957    87957    87928    87837    87774    87848    87934    87897 
   87895    87976    87998    87930    87831    87826    87901    87901 
   87889    87976    88078    88102    88076    88086    88087    87979 
   87897    87937    87916    87786    87704    87762    87920    87980 
   87912    87925    88045    88117    88105    88092    88133    88163 
   88140    88145    88180    88134    88067    88099    88106    88013 
   87993    88015    87898    87764    87805    87853    87768    87739 
   87849    87951    88036    88134    88142    88105    88160    88200 
   88119    88074    88103    88079    88051    88057    87997    87890 
   87885    87907    87787    87673    87748    87829    87787    87812 
   87921    87936    87910    87982    88083    88107    88045    87994 
   88047    88076    88005    88025    88111    88090    88047    88015 
   87930    87880    87883    87851    87802    87794    87849    87936 
   87984    88022    88083    88064    87967    87983    88083    88069 
   87998    87997    88045    88060    87998    87953    87978    87984 
   87930    87895    87924    87947    87917    87872    87893    87982 
   88068    88126    88137    88096    88067    88095    88150    88115 
   87998    87941    87945    87937    87902    87859    87879    87918 
   87880    87864    87933    87966    87961    88009    88059    88024 
   87898    87822    87932    88044    87978    87909    87952    87974 
   87974    88036    88082    88047    88009    88010    88006    87980 
   87941    87886    87863    87922    87963    87920    87929    87982 
   87959    87960    87997    87983    87995    88028    88052    88071 
   88041    88028    88064    88090    88098    88083    88065    88055 
   87993    87932    87909    87870    87882    87943    87936    87914 
   87943    87937    87898    87913    87937    87912    87913    87955 
   88005    88103    88172    88087    87963    87961    87988    87928 
   87863    87855    87843    87885    88029    88094    88028    87974 
   87960    87964    87995    88011    87959    87902    87945    88042 
   88091    88095    88132    88191    88188    88121    88059    88013 
   87952    87898    87880    87891    87905    87905    87912    87894 
   87840    87870    87947    87914    87889    88003    88064    87967 
   87970    88123    88173    88090    88024    88017    88044    88063 
   88052    88018    87979    87934    87891    87853    87802    87813 
   87899    87941    87926    87879    87868    87974    88056    88006 
   87979    88033    88040    88020    88059    88078    87999    87925 
   88007    88159    88146    88064    88096    88119    88041    88003 
   88030    87972    87921    87947    87849    87697    87736    87841 
   87845    87852    87932    87967    87943    87968    88015    88018 
   88014    88065    88148    88179    88123    88026    87987    88063 
   88146    88132    88068    88020    88009    88013    87952    87867 
   87852    87852    87818    87829    87883    87917    87945    87970 
   87966    87972    88014    88026    87988    87963    87970    87975 
   87984    88036    88107    88096    88032    88060    88092    87997 
   87913    87916    87918    87885    87836    87786    87766    87845 
   87943    87917    87903    87978    88002    88041    88123    88069 
   87964    87983    88038    88055    88057    87995    87907    87937 
   88024    88040    88005    87964    87974    88048    88036    87917 
   87870    87907    87959    88051    88094    88021    87982    87998 
   87990    88006    88014    87967    87951    87939    87924    87986 
   88005    87925    87909    87988    88052    88052    88002    87990 
   88078    88137    88090    88076    88098    88025    87921    87909 
   87934    87886    87768    87701    87740    87839    87956    88010 
   87984    88014    88064    88048    88044    88049    88011    87978 
   87974    88010    88063    88056    88017    87994    87952    87924 
   87940    87918    87849    87816    87859    87940    87968    87968 
   88010    88030    87997    88010    88078    88107    88101    88074 
   88074    88169    88195    88063    88018    88065    87976    87866 
   87868    87868    87858    87882    87891    87894    87924    87951 
   87949    87975    88017    87955    87902    87979    88040    88045 
   88045    87980    87939    87999    88055    88047    87994    87925 
   87928    87966    87936    87932    87983    87949    87889    87909 
   87955    88011    88078    88099    88091    88080    88079    88126 
   88134    88029    87957    87959    87930    87937    87979    87903 
   87799    87851    87972    87997    87952    87939    87951    87957 
   87959    87917    87853    87871    87944    87960    87939    87939 
   87939    87925    87922    87933    87921    87897    87903    87947 
   88033    88111    88122    88122    88132    88161    88221    88177 
   88049    88014    88028    87984    87945    87922    87916    87966 
   87963    87889    87874    87922    87978    87979    87898    87889 
   87993    88036    87975    87945    88042    88133    88083    88061 
   88096    88013    87934    88007    88047    87956    87910    87951 
   87948    87913    87903    87899    87910    87945    87964    87913 
   87851    87889    87933    87868    87822    87885    87955    87991 
   88032    88067    88105    88129    88109    88109    88128    88084 
   88052    88092    88065    87974    87949    87925    87893    87963 
   88010    87951    87917    87956    87993    87998    88017    88057 
   88064    88041    88022    88007    88014    88018    88011    88030 
   88029    87988    87968    87961    87918    87886    87894    87893 
   87882    87916    88011    88041    87964    87984    88034    87964 
   87955    87979    87920    87902    87920    87895    87891    87916 
   87943    87953    87912    87926    88038    88074    88042    88055 
   88045    88037    88042    87943    87874    87978    88014    87902 
   87887    87963    88009    88051    88018    87928    87944    88013 
   88005    87974    87968    87978    88007    88030    88006    87943 
   87925    87963    87990    88011    88010    87983    88006    88044 
   88021    87986    87980    87999    88041    88064    88028    87980 
   87955    87936    87937    87925    87891    87933    88021    88049 
   88032    88001    87980    88029    88076    88042    88020    88041 
   88030    88038    88092    88055    87956    87930    87961    88002 
