Origin Time       2025/03/30 21:30:00
Lat.              38.535
Long.             142.295
Depth. (km)       44
Mag.              4.3
Station Code      IWTH23
Station Lat.      39.2741
Station Long.     141.8233
Station Height(m) -59
Record Time       2025/03/30 21:31:21
Sampling Freq(Hz) 100Hz
Duration Time(s)  120
Dir.              3
Scale Factor      2942(gal)/8224139
Max. Acc. (gal)   0.765
Last Correction   2025/03/30 21:31:21
Memo.             
[...]
   87473    87475    87480    87478    87474    87474    87480    87478 
   87473    87474    87477    87475    87473    87473    87474    87477 
   87475    87473    87474    87475    87478    87477    87473    87474 
   87474    87470    87470    87470    87470    87474    87473    87465 
   87465    87473    87475    87473    87470    87469    87471    87473 
   87474    87471    87469    87470    87474    87473    87470    87469 
   87469    87474    87474    87470    87470    87474    87474    87470 
   87471    87473    87471    87470    87471    87473    87471    87473 
   87473    87473    87471    87474    87475    87474    87473    87473 
   87473    87471    87470    87471    87474    87475    87474    87474 
   87474    87470    87473    87475    87473    87470    87470    87471 
   87474    87473    87470    87475    87475    87470    87474    87478 
   87473    87474    87478    87475    87473    87475    87478    87478 
   87477    87477    87480    87478    87477    87478    87480    87480 
   87478    87475    87477    87478    87477    87478    87477    87477 
   87477    87475    87474    87475    87478    87478    87477    87480 
   87480    87478    87480    87475    87473    87474    87477    87478 
   87474    87473    87475    87477    87475    87477    87477    87475 
   87475    87474    87474    87477    87477    87477    87477    87477 
   87474    87471    87475    87475    87473    87474    87475    87474 
   87474    87473    87475    87481    87480    87478    87477    87477 
   87478    87477    87475    87477    87480    87478    87475    87475 
   87477    87477    87475    87477    87478    87477    87475    87480 
   87477    87474    87475    87480    87480    87477    87477    87477 
   87477    87475    87480    87484    87478    87474    87477    87478 
   87475    87477    87477    87474    87474    87475    87475    87475 
   87474    87474    87474    87471    87470    87470    87466    87462 
   87462    87458    87451    87447    87450    87461    87457    87451 
   87473    87473    87447    87515    87613    87582    87543    87601 
   87604    87536    87505    87493    87396    87207    87123    87158 
   87111    87166    87377    87343    87320    87716    87949    87821 
   87833    87752    87621    87864    87802    87320    87346    87690 
   87708    87359    87022    87201    87320    87088    87210    87135 
   86998    87763    88225    87835    87772    87980    87916    87762 
   87631    87342    87008    87061    87338    87268    86992    87004 
   87251    87490    87728    87820    87593    87461    87652    87760 
   87655    87342    87118    87543    88032    87629    86968    87272 
   87833    87496    87176    87307    87272    87320    87532    87779 
   87636    86931    87004    87714    87532    87111    87366    87751 
   87930    87775    87427    87552    87764    87448    87423    87723 
   87601    87417    87384    87386    87377    87138    86896    86980 
   87299    87372    87234    87517    87940    88053    87949    87648 
   87674    88013    87794    87319    87311    87334    87091    87185 
   87527    87459    87192    87231    87574    87475    86952    87361 
   88126    87752    87224    87613    88079    87905    87666    87588 
   87200    87142    87658    87509    87006    87313    87571    87070 
   86948    87404    87407    87142    87324    87759    87849    87654 
   87836    88082    87755    87536    87689    87624    87459    87242 
   87011    87205    87442    87355    87405    87578    87434    87249 
   87390    87421    87343    87543    87593    87585    87895    87786 
   87318    87399    87729    87656    87291    87192    87488    87552 
   87305    87347    87705    87694    87127    87058    87602    87494 
   87130    87428    87705    87628    87552    87511    87585    87660 
   87548    87573    87772    87577    87131    87241    87527    87359 
   87210    87169    87246    87540    87552    87454    87420    87355 
   87691    87814    87440    87563    87751    87515    87500    87577 
   87562    87492    87232    87220    87413    87257    87168    87442 
   87457    87374    87608    87574    87416    87706    87799    87447 
   87454    87779    87694    87474    87505    87434    87370    87485 
   87474    87428    87420    87427    87579    87459    87072    87266 
   87710    87492    87257    87542    87675    87642    87646    87524 
   87498    87585    87609    87488    87318    87385    87351    87232 
   87548    87647    87309    87408    87575    87295    87320    87679 
   87609    87411    87511    87535    87488    87488    87342    87385 
   87685    87660    87394    87378    87542    87558    87494    87556 
   87488    87293    87428    87621    87451    87304    87486    87647 
   87473    87309    87477    87512    87215    87254    87629    87606 
   87336    87409    87654    87544    87394    87592    87527    87404 
   87835    87778    87056    87245    87902    87504    87089    87521 
   87566    87270    87463    87604    87498    87520    87403    87243 
   87475    87588    87323    87404    87721    87490    87119    87446 
   87886    87579    87079    87220    87841    87925    87129    86965 
   87882    87972    87232    87316    87687    87524    87453    87585 
   87559    87409    87353    87509    87546    87342    87361    87520 
   87428    87373    87575    87691    87554    87400    87447    87519 
   87419    87440    87527    87342    87301    87488    87403    87400 
   87642    87523    87362    87558    87573    87488    87602    87612 
   87536    87539    87574    87512    87264    87156    87299    87419 
   87475    87382    87392    87650    87507    87369    87781    87737 
   87288    87313    87490    87562    87467    87204    87438    87809 
   87380    87060    87643    87921    87432    87288    87561    87532 
   87470    87527    87386    87334    87563    87721    87542    87220 
   87257    87592    87636    87448    87544    87723    87521    87272 
   87416    87631    87488    87319    87485    87582    87453    87454 
   87454    87316    87430    87670    87567    87392    87394    87528 
   87785    87625    87110    87066    87354    87573    87574    87255 
   87223    87624    87678    87427    87376    87374    87516    87772 
   87554    87223    87490    87894    87675    87123    87066    87399 
   87601    87605    87353    87269    87616    87627    87415    87655 
   87779    87573    87521    87505    87509    87527    87362    87407 
   87627    87417    87147    87376    87652    87544    87334    87358 
   87536    87540    87394    87461    87610    87480    87301    87447 
   87720    87687    87412    87259    87469    87745    87480    87173 
   87484    87652    87399    87393    87515    87394    87405    87594 
   87536    87434    87443    87397    87535    87656    87448    87385 
   87556    87532    87327    87278    87443    87439    87361    87601 
   87713    87501    87439    87421    87378    87535    87543    87288 
   87378    87678    87480    87201    87373    87633    87732    87608 
   87419    87450    87655    87808    87616    87228    87149    87498 
   87710    87324    87079    87361    87461    87470    87582    87338 
   87154    87535    87764    87485    87458    87737    87700    87544 
   87511    87470    87524    87581    87467    87232    87168    87447 
   87593    87319    87164    87461    87697    87502    87270    87435 
   87793    87712    87358    87465    87633    87420    87374    87408 
   87339    87610    87775    87534    87446    87412    87497    87809 
   87590    87195    87474    87737    87426    87242    87434    87426 
   87365    87617    87610    87374    87563    87778    87501    87211 
   87361    87543    87426    87417    87516    87403    87312    87369 
   87473    87548    87430    87280    87373    87613    87682    87496 
   87440    87620    87713    87493    87218    87430    87597    87276 
   87386    87723    87396    87103    87462    87795    87539    87284 
   87501    87524    87234    87301    87637    87712    87478    87332 
   87484    87654    87507    87188    87224    87582    87601    87362 
   87559    87885    87616    87361    87671    87760    87396    87219 
   87318    87485    87569    87390    87292    87559    87598    87280 
   87278    87532    87565    87378    87224    87386    87640    87550 
   87466    87574    87507    87527    87723    87655    87613    87686 
   87412    87262    87597    87651    87343    87399    87498    87250 
   87251    87346    87220    87404    87666    87561    87442    87434 
   87438    87624    87867    87740    87416    87342    87473    87604 
   87505    87249    87357    87539    87355    87354    87403    87293 
   87471    87316    87092    87651    87790    87467    87712    87758 
   87524    87589    87416    87119    87289    87525    87497    87454 
   87455    87493    87516    87334    87242    87492    87524    87308 
   87462    87586    87397    87504    87654    87529    87538    87686 
   87760    87600    87463    87632    87532    87292    87470    87423 
   87165    87561    87875    87353    87145    87586    87567    87307 
   87475    87548    87404    87615    87885    87639    87354    87448 
   87396    87184    87451    87705    87320    87208    87548    87438 
   87246    87404    87509    87562    87563    87427    87486    87736 
   87615    87235    87339    87643    87512    87351    87436    87443 
   87426    87547    87451    87156    87257    87459    87404    87558 
   87671    87439    87419    87605    87556    87367    87342    87540 
   87625    87380    87284    87544    87652    87555    87496    87435 
   87540    87694    87477    87203    87311    87544    87625    87610 
   87493    87421    87547    87551    87451    87500    87512    87454 
   87511    87624    87517    87311    87430    87655    87640    87489 
   87389    87496    87571    87334    87211    87392    87443    87397 
   87517    87612    87592    87647    87679    87488    87247    87293 
   87548    87613    87550    87516    87455    87459    87280    87058 
   87358    87609    87355    87180    87335    87677    87855    87535 
   87241    87385    87497    87450    87428    87450    87594    87628 
   87478    87462    87497    87416    87277    87222    87450    87542 
   87165    87285    87963    87763    87181    87451    87704    87446 
   87388    87579    87636    87465    87401    87517    87486    87548 
   87725    87458    87219    87589    87723    87367    87412    87686 
   87494    87319    87616    87671    87342    87346    87566    87543 
   87385    87413    87585    87616    87512    87259    87085    87463 
   87779    87490    87285    87421    87567    87578    87484    87459 
   87376    87359    87674    87701    87357    87277    87419    87619 
   87662    87528    87529    87327    87134    87578    87809    87332 
   87146    87484    87651    87459    87247    87303    87497    87609 
   87606    87488    87448    87511    87462    87555    87745    87511 
   87249    87490    87639    87509    87575    87494    87270    87389 
   87413    87380    87689    87601    87146    87347    87801    87578 
   87269    87488    87565    87230    87195    87685    87798    87303 
   87349    87808    87677    87475    87694    87694    87282    87223 
   87609    87559    87254    87412    87552    87420    87588    87764 
   87373    87070    87380    87529    87220    87214    87551    87615 
   87436    87377    87535    87702    87600    87500    87712    87813 
   87539    87328    87439    87569    87494    87471    87659    87670 
   87573    87718    87682    87415    87390    87566    87786    87767 
   87536    87494    87517    87542    87643    87652    87515    87243 
   87242    87723    87901    87490    87207    87308    87316    86971 
   86899    87504    87751    87245    87131    87390    87239    87097 
   87255    87220    86969    86946    87025    86865    86846    87084 
   87246    87269    86958    86746    87139    87400    87297    87218 
   87122    87486    88148    87928    87212    87157    87555    87820 
   87864    87876    88177    88608    88331    87370    87165    87922 
   88053    87330    86942    87170    87713    88180    87760    86827 
   86806    87345    87548    87799    88086    88464    88848    88369 
   87804    88056    88191    87993    88179    88538    88099    87061 
   86989    87750    87685    87031    86686    86301    86209    86671 
   86721    86463    86603    86799    86950    87249    87185    86971 
   87438    88101    88106    87555    87334    87914    88314    87968 
   87569    87424    87520    87693    87565    87309    87153    86967 
   86786    86764    87025    87245    87088    87021    87015    86872 
   87219    87650    87588    87686    87882    88037    88290    88013 
   87907    88657    88792    88115    87714    87766    88107    87860 
   86985    87139    87891    87440    86872    87392    87484    87257 
   88032    88218    87166    86907    87420    87625    87764    87659 
   87107    86397    86305    87471    88080    87249    86921    87141 
   87089    87403    87914    87899    87629    87615    87517    87330 
   87493    87255    86756    87295    87835    87458    87509    87697 
   87431    88051    88596    87685    87079    87189    87168    87478 
   87374    86548    86389    86721    86902    87245    87636    87744 
   87258    86929    88267    89613    88477    87093    87714    88653 
   88812    88191    86864    86485    87377    87644    87138    86814 
   86443    86115    86447    87046    87211    87158    87412    87812 
   87629    87093    87361    88005    87967    87833    87983    88051 
   88123    87895    87357    87243    87247    87345    88030    88092 
   87382    87558    88041    87513    86941    87274    87763    87795 
   87581    87173    86871    87297    87906    87795    87548    87567 
   87465    87488    87805    88096    87782    86954    86827    87485 
   87914    87536    86520    86404    87619    88172    87473    86887 
   87064    87724    88092    87597    87060    87320    87554    87393 
   87538    87500    86956    86888    87328    87663    87755    87347 
   86904    86984    87172    87659    88280    87936    87326    87660 
   88175    88061    87824    87690    87276    87230    87879    87754 
   86736    86520    87100    87315    87316    87320    87308    87903 
   88191    87259    86763    87405    88029    87948    87497    87470 
   87524    87407    87809    88034    87467    87193    87423    87411 
   87320    87358    87274    87343    87466    87264    87372    87725 
   87642    87430    87162    87130    87583    87636    87519    87592 
   87234    87174    87771    87871    87467    87280    87342    87592 
   87794    87731    87687    87713    87615    87363    87160    87446 
   87868    87685    87235    87235    87400    87153    87156    87555 
   87292    87030    87386    87312    87311    87870    87704    87223 
   87647    88157    87806    86888    86680    87717    88011    87170 
   87459    88204    87704    87354    87682    87347    86751    86887 
   87382    87542    87327    87259    87421    87389    87254    87490 
   87775    87600    87718    88036    87525    87320    87936    88037 
   87866    87686    87365    87633    87939    87778    87654    87389 
   87245    87324    87273    87466    87628    87295    86984    87137 
   87436    87399    87340    87293    87045    87320    87605    87138 
   87177    87612    87255    87137    87747    87777    87390    87536 
   87652    87420    87583    87840    87566    87353    87281    87081 
   87268    87601    87439    87192    87224    87308    87416    87612 
   87554    87184    87552    88450    87964    86989    87498    88060 
   87604    87330    87451    87577    87635    87354    87210    87500 
   87426    87133    87343    87675    87623    87281    87181    87523 
   87643    87457    87493    87606    87511    87278    87157    87369 
   87720    87768    87440    87129    87087    87351    87687    87538 
   87303    87635    87822    87362    86956    87258    87832    87760 
   87462    87701    87921    87818    87871    87905    87679    87548 
   87517    87592    87912    87844    87262    87129    87500    87609 
   87469    87257    87077    87195    87104    86818    87147    87566 
   87570    87593    87386    87254    87604    87439    87281    87887 
   87712    87169    87554    87635    87315    87412    87457    87305 
   87077    87191    87654    87500    87258    87570    87643    87590 
   87675    87623    87705    87790    87528    87323    87378    87525 
   87706    87635    87471    87555    87462    87534    87907    87596 
   87153    87243    87299    87521    87677    87349    87335    87505 
   87357    87546    87716    87292    87284    87615    87431    87308 
   87492    87561    87623    87552    87259    87315    87671    87656 
   87362    87241    87380    87602    87501    87185    87172    87162 
   87170    87669    87867    87411    87235    87389    87474    87612 
   87565    87363    87492    87539    87358    87417    87369    87193 
   87372    87619    87655    87639    87632    87581    87504    87448 
   87419    87389    87380    87623    87785    87413    87311    87578 
   87413    87305    87415    87343    87312    87224    87376    87880 
   87909    87601    87601    87735    87771    87714    87574    87481 
   87559    87629    87322    87141    87642    87712    87056    86967 
   87323    87527    87727    87658    87408    87523    87650    87313 
   87143    87497    87613    87404    87350    87370    87594    87662 
   87259    87436    87828    87511    87466    87620    87351    87401 
   87544    87453    87700    87712    87261    87349    87635    87319 
   87200    87465    87239    86984    87114    87062    87138    87633 
   87898    87736    87585    87590    87660    87728    87592    87359 
   87480    87774    87728    87525    87536    87509    87372    87507 
   87667    87484    87312    87305    87276    87288    87285    87211 
   87380    87551    87253    87207    87654    87635    87462    87700 
   87737    87512    87369    87385    87521    87439    87284    87403 
   87489    87347    87320    87646    87839    87650    87633    87708 
   87505    87435    87544    87500    87458    87536    87625    87608 
   87554    87567    87362    87212    87525    87502    87089    87322 
   87732    87529    87396    87544    87504    87546    87654    87450 
   87389    87673    87577    87324    87527    87427    87079    87311 
   87436    87299    87431    87394    87299    87374    87363    87393 
   87238    86995    87362    87716    87373    87251    87640    87847 
   87905    87801    87458    87365    87597    87777    87633    87265 
   87232    87536    87520    87408    87671    87813    87523    87195 
   87211    87417    87404    87273    87214    87339    87709    87751 
   87463    87637    87851    87466    87384    87791    87548    87031 
   87326    87718    87462    87255    87489    87747    87674    87322 
   87219    87489    87609    87494    87351    87292    87439    87520 
   87359    87303    87386    87339    87385    87612    87475    87185 
