Origin Time       2025/03/30 21:30:00
Lat.              38.535
Long.             142.295
Depth. (km)       44
Mag.              4.3
Station Code      IWTH23
Station Lat.      39.2741
Station Long.     141.8233
Station Height(m) -59
Record Time       2025/03/30 21:31:21
Sampling Freq(Hz) 100Hz
Duration Time(s)  120
Dir.              2
Scale Factor      2942(gal)/8224139
Max. Acc. (gal)   0.673
Last Correction   2025/03/30 21:31:21
Memo.             
[...]
  124268   124270   124271   124268   124267   124268   124267   124268 
  124270   124268   124267   124270   124272   124270   124270   124270 
  124268   124267   124267   124267   124267   124268   124270   124268 
  124268   124270   124268   124267   124270   124270   124268   124270 
  124270   124267   124267   124268   124268   124267   124270   124271 
  124270   124267   124267   124270   124268   124267   124268   124268 
  124266   124267   124267   124268   124268   124267   124267   124268 
  124268   124267   124266   124264   124264   124264   124264   124264 
  124266   124267   124266   124264   124267   124267   124266   124266 
  124267   124267   124266   124264   124263   124264   124266   124266 
  124264   124267   124268   124268   124267   124267   124266   124266 
  124266   124266   124266   124264   124266   124266   124264   124267 
  124268   124266   124267   124268   124267   124267   124270   124268 
  124267   124267   124264   124264   124267   124266   124264   124264 
  124263   124264   124266   124263   124263   124264   124266   124264 
  124262   124263   124263   124262   124264   124264   124263   124264 
  124266   124266   124264   124264   124266   124266   124264   124264 
  124264   124266   124267   124267   124268   124267   124264   124264 
  124268   124268   124266   124264   124267   124267   124267   124270 
  124268   124266   124268   124271   124268   124268   124270   124270 
  124267   124267   124270   124271   124268   124270   124270   124267 
  124270   124270   124267   124270   124272   124270   124270   124270 
  124270   124270   124268   124267   124268   124270   124268   124268 
  124270   124270   124270   124268   124267   124266   124267   124270 
  124272   124271   124268   124268   124270   124268   124268   124271 
  124270   124268   124268   124266   124266   124267   124268   124268 
  124268   124268   124267   124267   124270   124270   124268   124270 
  124270   124270   124270   124270   124270   124271   124271   124268 
  124266   124267   124270   124268   124268   124271   124271   124268 
  124270   124271   124268   124268   124270   124268   124267   124268 
  124270   124270   124270   124271   124270   124268   124268   124270 
  124270   124270   124270   124270   124270   124268   124267   124270 
  124271   124272   124271   124270   124268   124270   124271   124274 
  124274   124270   124270   124270   124270   124270   124271   124270 
  124272   124274   124271   124270   124271   124271   124271   124271 
  124271   124270   124270   124271   124272   124270   124267   124268 
  124270   124270   124270   124270   124270   124270   124271   124270 
  124267   124268   124270   124270   124268   124268   124268   124267 
  124268   124270   124267   124267   124270   124266   124266   124267 
  124267   124270   124270   124267   124267   124270   124268   124266 
  124267   124268   124268   124268   124268   124267   124267   124268 
  124270   124268   124267   124270   124270   124268   124270   124268 
  124266   124270   124270   124267   124270   124271   124272   124274 
  124274   124275   124278   124278   124274   124274   124276   124279 
  124275   124278   124285   124260   124220   124216   124240   124271 
  124279   124256   124251   124258   124301   124383   124375   124343 
  124375   124281   124175   124301   124344   124212   124197   124131 
  124086   124355   124486   124290   124120   124040   124152   124389 
  124348   124185   124276   124380   124343   124313   124268   124324 
  124443   124303   124074   124112   124209   124148   124109   124074 
  124123   124457   124653   124409   124039   123834   124055   124592 
  124816   124571   124162   123958   124193   124461   124451   124306 
  124158   124197   124286   124275   124231   124102   124086   124133 
  124182   124310   124159   124159   124578   124641   124441   124329 
  124386   124497   124326   124294   124216   123862   124137   124653 
  124618   124185   123561   123550   124258   124618   124502   124353 
  124128   123917   124195   124699   124586   124370   124610   124534 
  124258   124201   124093   124143   124221   123942   123859   124177 
  124255   124144   124170   124221   124465   124698   124401   123959 
  124012   124556   124961   124722   124347   124147   123789   123793 
  124259   124210   124031   124320   124298   124131   124399   124368 
  124020   124101   124321   124391   124467   124499   124506   124374 
  124166   124271   124380   124340   124467   124252   123817   123967 
  124150   124063   124166   124272   124335   124438   124460   124387 
  124212   124233   124470   124434   124201   124163   124298   124255 
  124266   124565   124375   123859   123836   123992   124147   124318 
  124293   124239   124324   124534   124525   124220   124270   124467 
  124262   124186   124368   124309   124136   124213   124399   124316 
  124058   123979   124285   124610   124254   123871   124124   124297 
  124379   124432   124236   124299   124426   124380   124376   124263 
  124256   124355   124367   124308   124100   124150   124329   124181 
  124101   124158   124268   124407   124229   124167   124422   124321 
  124092   124177   124406   124738   124668   124043   124070   124667 
  124482   123851   123772   124048   124231   124372   124374   124100 
  124090   124432   124437   124178   124298   124559   124394   124241 
  124352   124276   124175   124232   124409   124492   124070   123898 
  124410   124456   124002   123955   124060   124038   124313   124576 
  124344   124187   124480   124653   124344   124092   124262   124252 
  124096   124318   124475   124340   124185   124060   124125   124232 
  124152   124131   124403   124623   124362   124090   124120   124181 
  124374   124486   124313   124290   124347   124294   124371   124357 
  124094   124123   124364   124256   124086   124143   124225   124294 
  124291   124225   124249   124132   124017   124407   124698   124448 
  124229   124239   124429   124468   124089   124009   124283   124254 
  124163   124222   124308   124464   124336   123975   124146   124494 
  124321   124082   124162   124379   124436   124249   124185   124391 
  124505   124232   124119   124456   124378   123992   124100   124317 
  124308   124204   124112   124320   124567   124389   124214   124375 
  124375   124051   123997   124353   124465   124270   124171   124128 
  124295   124530   124229   123897   124143   124409   124382   124254 
  124187   124298   124329   124324   124402   124291   124225   124321 
  124380   124371   124231   124255   124314   124038   123919   124135 
  124329   124479   124380   124094   124251   124518   124275   124078 
  124152   124220   124413   124441   124270   124340   124344   124166 
  124108   124156   124289   124340   124301   124249   124131   124156 
  124305   124384   124374   124322   124232   124065   124182   124488 
  124376   124195   124310   124335   124162   124100   124357   124544 
  124370   124194   124112   124117   124259   124212   124163   124449 
  124449   124129   124204   124325   124302   124402   124202   124074 
  124495   124490   124015   124114   124437   124370   124294   124222 
  124031   124092   124411   124521   124274   124154   124286   124267 
  124297   124425   124251   124094   124213   124202   124086   124320 
  124694   124618   124225   123934   123965   124239   124336   124248 
  124106   124121   124556   124688   124228   124031   124263   124448 
  124335   124066   124090   124440   124556   124268   124098   124178 
  124260   124357   124248   124105   124455   124573   124079   124043 
  124378   124164   123963   124383   124580   124256   124170   124287 
  124291   124355   124391   124275   124125   124087   124260   124472 
  124434   124137   123952   124144   124467   124509   124220   124055 
  124240   124383   124194   123982   124263   124641   124374   124021 
  124168   124378   124393   124198   124043   124229   124343   124299 
  124332   124252   124294   124483   124325   124058   124116   124244 
  124162   124248   124522   124397   124160   124205   124202   124247 
  124401   124357   124290   124259   124206   124340   124303   124083 
  124266   124453   124357   124344   124241   124132   124181   124160 
  124244   124363   124289   124276   124339   124333   124275   124187 
  124221   124368   124457   124424   124266   124158   124185   124344 
  124509   124281   123963   123981   124143   124463   124548   124170 
  124158   124367   124124   124101   124371   124217   124079   124232 
  124345   124368   124254   124293   124362   124197   124337   124506 
  124295   124291   124340   124065   124108   124497   124430   124090 
  123998   124166   124509   124476   124082   124160   124345   124085 
  124056   124372   124449   124330   124247   124236   124271   124227 
  124290   124522   124343   124013   124264   124499   124409   124352 
  124120   124002   124294   124483   124389   124252   124173   124063 
  124052   124201   124272   124220   124083   124206   124626   124582 
  124177   124117   124225   124255   124328   124290   124194   124339 
  124424   124270   124232   124259   124278   124394   124263   123996 
  124140   124336   124270   124410   124495   124166   124050   124249 
  124390   124482   124252   123954   124200   124438   124270   124190 
  124293   124332   124344   124317   124191   124218   124258   124125 
  124318   124671   124475   124009   123927   124281   124565   124335 
  124119   124243   124181   124209   124430   124301   124183   124258 
  124106   124075   124464   124557   124209   124131   124279   124357 
  124374   124210   124131   124309   124374   124299   124173   124044 
  124224   124375   124213   124260   124293   124051   124249   124606 
  124291   123871   124035   124495   124708   124506   124278   124258 
  124267   124205   124152   124274   124330   124087   124040   124353 
  124530   124457   124310   124128   124085   124235   124276   124272 
  124384   124433   124402   124231   124060   124266   124407   124275 
  124384   124402   124167   124321   124424   124097   124056   124210 
  124225   124263   124195   124154   124266   124378   124459   124249 
  124016   124279   124457   124217   124245   124312   124042   124131 
  124398   124371   124348   124287   124332   124380   124112   124200 
  124483   124218   124050   124271   124366   124317   124328   124328 
  124131   124020   124264   124389   124193   124120   124306   124501 
  124490   124241   124050   124082   124236   124347   124271   124407 
  124718   124378   124001   124340   124394   124004   124081   124402 
  124290   124044   124185   124406   124390   124232   124089   124179 
  124433   124487   124325   124245   124239   124186   124212   124337 
  124368   124267   124301   124309   124195   124345   124271   123992 
  124240   124282   124047   124212   124245   124200   124362   124362 
  124248   124204   124282   124236   124002   124240   124607   124271 
  124081   124514   124447   124013   124189   124402   124182   124170 
  124371   124364   124249   124291   124521   124503   124135   124047 
  124216   124094   124062   124501   124692   124328   124112   124335 
  124521   124362   124055   123881   124112   124518   124416   124197 
  124507   124706   124405   124170   124108   123990   124062   124249 
  124183   124181   124329   124390   124460   124318   124117   124162 
  124031   124046   124430   124456   124276   124289   124329   124433 
  124559   124464   124096   123890   124090   124279   124353   124291 
  124302   124594   124248   123773   124364   124683   124137   124098 
  124528   124426   124051   124039   124166   124343   124379   124024 
  123985   124251   124278   124411   124434   124178   124352   124614 
  124282   123984   124119   124237   124372   124506   124187   124128 
  124758   124748   124104   123954   123982   123971   124209   124329 
  124263   124403   124565   124326   124129   124399   124447   123982 
  123936   124494   124461   123947   124235   124707   124320   123830 
  123978   124370   124445   124344   124294   124221   124359   124429 
  124013   123886   124231   124282   124208   124384   124614   124498 
  123975   123894   124422   124521   124133   124024   124254   124397 
  124322   124370   124499   124432   124256   124044   124104   124371 
  124317   124147   124013   124033   124556   124822   124227   123871 
  124320   124502   124183   124121   124232   124216   124116   124062 
  124247   124387   124432   124484   124127   123911   124239   124411 
  124475   124403   124087   124158   124557   124695   124437   124106 
  124137   124407   124548   124306   123921   124202   124671   124337 
  124117   124397   124231   124177   124595   124498   124245   124344 
  124368   124644   124845   124322   123970   124245   124499   124278 
  123715   123552   124128   124648   124553   124376   124289   123919 
  123315   123010   123388   123747   123896   124464   124683   124281 
  124348   124591   124141   123655   124016   124348   123893   123722 
  124286   124931   125100   124328   123288   123302   124144   124332 
  123646   123643   124881   125799   125305   124460   124459   124714 
  124582   124752   125501   125988   125652   124677   123816   123979 
  124561   124131   123664   124429   125216   125166   124178   122914 
  123306   124379   123942   123067   123075   124166   125690   126148 
  125802   125351   124486   123618   123057   122906   123244   123369 
  123337   123880   124420   124209   123676   123210   123083   123777 
  124472   123896   123252   124009   124590   124332   124950   125637 
  124761   124206   125127   125329   124884   125076   124228   122886 
  123399   124600   125032   124943   124881   125089   124889   124443 
  124082   123101   122688   124137   125269   124498   123745   124135 
  124514   124572   124540   124333   124329   124344   124321   124428 
  123776   123406   124529   125216   125176   124953   123773   123114 
  123580   123639   123726   123835   123003   122669   123701   124438 
  124401   124775   125446   125374   124633   123898   123893   124495 
  124456   124035   124254   124908   125512   125336   124758   124854 
  124434   123028   122594   123265   123641   123789   124309   124726 
  124561   124534   124849   125366   125937   124969   123437   123944 
  124854   124569   123952   123417   123438   123493   123318   124267 
  125417   124938   123705   123211   123700   124398   124825   125023 
  124522   124228   124919   124780   124033   124555   125105   123998 
  122581   122685   123696   124490   124541   123668   123477   124564 
  125038   124472   124089   124070   123907   124117   124745   124846 
  124981   125420   125297   124756   124194   124194   125018   125024 
  123566   122985   124067   124336   123257   122678   122967   123946 
  124908   124210   123419   124617   125278   124248   123776   123977 
  124459   125424   125255   124082   124305   125182   124846   124363 
  124329   124151   124330   124440   124005   123981   124055   123853 
  123970   124225   124551   124491   123716   123576   124093   124081 
  123865   124060   124555   124568   124251   124899   125574   124845 
  124148   124487   124683   124517   124680   124476   123935   124310 
  124725   124147   123411   123435   124279   124302   123333   123596 
  124301   123873   123724   124152   124106   124178   124568   124448 
  124279   124510   124602   124170   123508   123867   124864   125081 
  125073   124721   123844   123894   124395   124329   124425   124513 
  124333   124440   124318   123896   123877   124063   124213   124322 
  124286   124295   124533   124397   123796   124364   125273   124058 
  123094   124355   125186   124688   124013   123871   124271   124245 
  124073   124437   124598   124247   123989   124065   124090   124127 
  124340   124120   123813   124298   124794   124509   124187   124505 
  124615   123861   123507   124123   124437   124079   123934   124278 
  124406   124260   124749   124980   123948   123720   124426   124071 
  124056   124953   124848   124583   124784   124158   123718   124131 
  124035   123951   124418   124568   124594   124405   123932   123909 
  123947   123970   124313   124444   124397   124519   124610   124499 
  124366   124221   123932   123998   124494   124549   124079   123940 
  124384   124641   124298   124067   124621   124958   123854   122886 
  123664   124596   124364   124000   124181   124317   124452   124996 
  125109   124398   124132   124324   123932   123823   124378   124313 
  124102   124480   124270   123774   124081   124345   124210   124070 
  123869   123924   124263   124383   124146   124071   124348   124299 
  124370   124852   124621   124333   124642   124432   124035   124167 
  124425   124472   124384   124669   124876   124139   123520   124073 
  124524   124070   123884   124143   124217   124337   124286   124012 
  124166   124341   124310   124368   124101   124306   125078   124672 
  124000   124135   123919   123942   124717   124930   124441   123826 
  123493   124060   125016   124973   124056   123770   124148   124079 
  123709   123907   124746   125215   124441   123597   124214   125064 
  124676   124047   123961   123935   123928   124178   124383   124441 
  124349   124140   124444   124626   124067   124293   125053   124688 
  123973   123774   123681   123925   124437   124363   124046   124217 
  124406   124337   124316   124173   124055   124318   124321   123909 
  123904   124216   124266   124102   124317   124837   124771   124314 
  124171   124262   124271   124042   124035   124537   124517   123893 
  124239   124973   124568   124171   124411   124375   124289   124155 
  123795   123823   124150   124372   124227   124047   124623   124717 
  123863   124093   124632   124179   124333   124638   124094   123993 
  124282   124359   124272   123840   123855   124564   124665   124158 
  124078   123973   123682   124227   124804   124347   123876   123952 
  124418   125149   125095   124360   124160   124090   124006   124370 
  124270   123832   124173   124552   124206   124140   124506   124282 
  124128   124474   124217   123948   124248   124293   124370   124553 
  124398   124341   124393   124305   124259   124216   124182   124378 
  124411   124159   124326   124594   124461   124424   124306   124043 
  124171   124286   123927   123718   124267   124579   123917   123959 
  124946   124792   123789   123703   124225   124303   124150   124213 
  124282   124270   124405   124804   124968   124301   123905   124293 
  123974   123655   124371   124514   124197   124370   124218   124006 
  124303   124498   124425   124046   123646   124098   124636   124344 
  124256   124444   124141   124075   124426   124417   124503   124783 
  124428   124168   124183   123687   123912   124822   124683   124362 
  124546   124266   123919   123931   123844   123939   124470   124634 
  124062   123924   124538   124599   124110   123966   124133   124394 
  124586   124653   124560   124108   123688   123847   124278   124440 
  124324   124310   124421   124318   124181   124148   124112   124140 
