Origin Time       2025/03/30 21:30:00
Lat.              38.535
Long.             142.295
Depth. (km)       44
Mag.              4.3
Station Code      IWTH16
Station Lat.      39.6436
Station Long.     140.9465
Station Height(m) 62
Record Time       2025/03/30 21:31:43
Sampling Freq(Hz) 100Hz
Duration Time(s)  120
Dir.              2
Scale Factor      2942(gal)/8224139
Max. Acc. (gal)   0.150
Last Correction   2025/03/30 21:31:44
Memo.             
[...]
  138384   138366   138411   138464   138435   138357   138310   138294 
  138298   138330   138365   138368   138325   138273   138275   138322 
  138356   138365   138368   138362   138368   138414   138474   138492 
  138446   138385   138348   138322   138298   138281   138302   138362 
  138404   138391   138348   138311   138295   138298   138311   138325 
  138335   138358   138411   138460   138457   138437   138441   138430 
  138370   138304   138249   138210   138203   138218   138244   138285 
  138316   138326   138339   138358   138354   138325   138314   138345 
  138392   138415   138387   138323   138280   138285   138316   138329 
  138321   138329   138337   138314   138273   138244   138252   138314 
  138379   138380   138353   138377   138404   138379   138341   138315 
  138300   138326   138383   138402   138375   138353   138335   138325 
  138353   138380   138356   138322   138308   138304   138316   138333 
  138323   138321   138364   138392   138362   138341   138372   138403 
  138403   138393   138366   138337   138350   138368   138350   138333 
  138329   138331   138354   138381   138387   138370   138357   138343 
  138308   138284   138289   138310   138339   138368   138389   138396 
  138388   138388   138387   138354   138318   138315   138333   138346 
  138337   138298   138250   138257   138316   138358   138366   138385 
  138396   138370   138346   138360   138375   138356   138322   138306 
  138323   138350   138341   138311   138311   138337   138330   138288 
  138277   138338   138416   138435   138403   138377   138388   138410 
  138397   138346   138295   138284   138296   138298   138312   138365 
  138396   138393   138395   138366   138310   138298   138325   138338 
  138331   138316   138325   138364   138388   138377   138362   138369 
  138376   138364   138352   138360   138393   138443   138464   138424 
  138361   138323   138306   138296   138312   138341   138354   138337 
  138289   138249   138248   138288   138358   138407   138400   138361 
  138319   138302   138342   138393   138369   138321   138339   138385 
  138391   138370   138357   138350   138343   138325   138288   138276 
  138296   138321   138337   138335   138325   138327   138338   138345 
  138352   138366   138361   138326   138318   138346   138350   138337 
  138335   138325   138312   138333   138342   138308   138287   138288 
  138277   138264   138288   138342   138377   138381   138385   138380 
  138341   138319   138354   138392   138400   138406   138396   138352 
  138325   138308   138279   138291   138329   138343   138397   138469 
  138464   138408   138368   138348   138358   138385   138389   138379 
  138356   138312   138284   138303   138339   138352   138346   138345 
  138343   138348   138357   138337   138291   138264   138289   138346 
  138364   138350   138357   138360   138364   138388   138388   138358 
  138346   138343   138319   138312   138349   138365   138330   138288 
  138292   138333   138365   138383   138395   138397   138402   138410 
  138388   138345   138315   138312   138327   138334   138315   138283 
  138273   138273   138271   138306   138370   138420   138447   138427 
  138360   138299   138262   138231   138226   138279   138360   138395 
  138377   138357   138333   138281   138242   138269   138333   138383 
  138406   138384   138352   138369   138402   138408   138397   138372 
  138353   138356   138350   138343   138360   138370   138345   138319 
  138345   138379   138358   138322   138333   138364   138379   138385 
  138388   138377   138350   138322   138329   138353   138345   138326 
  138304   138275   138285   138325   138333   138349   138395   138404 
  138352   138292   138280   138300   138308   138283   138256   138287 
  138368   138412   138385   138345   138338   138356   138376   138388 
  138388   138380   138372   138364   138346   138325   138303   138296 
  138306   138299   138291   138338   138400   138422   138426   138422 
  138402   138372   138330   138300   138304   138310   138314   138339 
  138381   138395   138354   138314   138314   138302   138258   138237 
  138261   138299   138322   138356   138408   138430   138427   138435 
  138420   138372   138323   138279   138252   138258   138280   138302 
  138333   138400   138483   138483   138411   138353   138304   138279 
  138304   138326   138314   138325   138375   138422   138439   138420 
  138360   138299   138307   138352   138342   138295   138281   138302 
  138341   138384   138360   138284   138291   138396   138472   138470 
  138449   138426   138393   138387   138411   138418   138387   138316 
  138222   138169   138225   138329   138372   138356   138356   138366 
  138345   138329   138330   138306   138291   138350   138433   138433 
  138377   138349   138325   138287   138277   138291   138284   138258 
  138225   138186   138171   138215   138285   138322   138339   138391 
  138445   138457   138445   138438   138415   138372   138360   138385 
  138389   138379   138393   138393   138357   138318   138302   138303 
  138296   138277   138295   138345   138375   138383   138395   138406 
  138393   138357   138327   138323   138329   138330   138335   138360 
  138379   138353   138316   138342   138399   138404   138356   138314 
  138308   138327   138350   138373   138383   138366   138353   138362 
  138375   138350   138291   138249   138237   138227   138241   138287 
  138331   138384   138423   138380   138318   138335   138358   138338 
  138345   138357   138323   138315   138352   138358   138354   138379 
  138365   138304   138302   138366   138381   138345   138341   138356 
  138353   138375   138429   138445   138407   138392   138408   138385 
  138348   138364   138412   138429   138385   138339   138343   138368 
  138352   138276   138221   138258   138325   138346   138360   138391 
  138384   138354   138369   138383   138352   138319   138323   138349 
  138343   138302   138279   138299   138341   138352   138314   138300 
  138345   138395   138415   138404   138366   138318   138285   138287 
  138310   138354   138403   138399   138357   138357   138381   138375 
  138341   138308   138291   138304   138339   138350   138314   138258 
  138237   138273   138329   138366   138389   138384   138341   138316 
  138343   138372   138361   138342   138335   138319   138289   138265 
  138258   138288   138323   138327   138312   138303   138327   138400 
  138472   138464   138372   138299   138310   138354   138384   138389 
  138364   138357   138400   138427   138418   138407   138377   138326 
  138302   138298   138279   138254   138262   138326   138400   138407 
  138379   138373   138370   138365   138373   138372   138354   138326 
  138298   138299   138318   138326   138360   138418   138431   138404 
  138406   138431   138415   138341   138289   138303   138341   138362 
  138368   138372   138358   138329   138326   138345   138358   138373 
  138391   138399   138387   138357   138311   138267   138265   138307 
  138314   138283   138294   138349   138381   138389   138397   138383 
  138350   138325   138303   138303   138333   138331   138287   138261 
  138287   138327   138352   138370   138370   138348   138362   138400 
  138381   138346   138349   138357   138373   138388   138357   138296 
  138246   138218   138237   138303   138341   138342   138342   138335 
  138329   138360   138400   138404   138375   138339   138314   138312 
  138339   138369   138380   138379   138389   138422   138434   138403 
  138343   138262   138218   138249   138298   138349   138411   138422 
  138388   138392   138449   138474   138407   138335   138335   138352 
  138358   138360   138322   138272   138284   138339   138357   138325 
  138310   138338   138362   138357   138352   138357   138343   138306 
  138279   138296   138346   138377   138353   138311   138292   138285 
  138295   138322   138339   138365   138408   138427   138415   138392 
  138352   138315   138314   138339   138361   138358   138361   138387 
  138391   138354   138311   138284   138280   138295   138327   138366 
  138399   138407   138391   138387   138406   138384   138306   138235 
  138222   138267   138302   138268   138222   138242   138298   138319 
  138311   138304   138295   138310   138362   138377   138360   138388 
  138429   138429   138400   138337   138254   138214   138229   138257 
  138277   138298   138326   138364   138395   138397   138393   138418 
  138435   138397   138362   138375   138404   138434   138434   138397 
  138368   138354   138342   138308   138265   138276   138323   138334 
  138322   138311   138322   138357   138362   138330   138307   138302 
  138299   138296   138308   138348   138376   138364   138368   138408 
  138422   138392   138357   138315   138284   138299   138342   138397 
  138457   138496   138503   138488   138476   138487   138497   138470 
  138419   138388   138396   138429   138442   138403   138335   138289 
  138289   138327   138353   138357   138372   138375   138353   138346 
  138348   138348   138380   138430   138445   138430   138423   138429 
  138422   138392   138356   138321   138280   138256   138268   138292 
  138287   138253   138218   138192   138194   138240   138284   138284 
  138288   138341   138429   138516   138539   138451   138338   138287 
  138246   138176   138136   138148   138165   138159   138149   138156 
  138163   138173   138219   138294   138365   138414   138423   138416 
  138439   138504   138559   138569   138580   138591   138530   138424 
  138318   138183   138082   138073   138094   138109   138146   138204 
  138276   138389   138510   138542   138480   138402   138339   138298 
  138260   138203   138149   138146   138188   138229   138271   138339 
  138410   138441   138415   138342   138283   138273   138279   138267 
  138283   138381   138519   138636   138720   138740   138684   138601 
  138541   138472   138349   138252   138256   138281   138277   138311 
  138403   138474   138484   138468   138451   138447   138469   138504 
  138530   138537   138462   138319   138245   138280   138308   138275 
  138230   138230   138269   138319   138319   138252   138207   138226 
  138199   138122   138132   138254   138364   138362   138306   138281 
  138285   138283   138280   138273   138231   138157   138119   138168 
  138244   138241   138186   138223   138357   138447   138464   138458 
  138433   138389   138335   138250   138157   138137   138206   138265 
  138252   138253   138377   138584   138734   138703   138507   138325 
  138268   138262   138256   138306   138407   138491   138523   138495 
  138418   138318   138248   138256   138285   138254   138200   138176 
  138180   138241   138384   138541   138600   138522   138391   138285 
  138222   138181   138134   138086   138092   138184   138316   138419 
  138465   138457   138411   138423   138522   138576   138543   138531 
  138558   138566   138538   138507   138524   138561   138542   138465 
  138389   138365   138364   138368   138408   138476   138526   138555 
  138569   138550   138477   138391   138312   138208   138118   138119 
  138188   138267   138334   138380   138372   138296   138194   138129 
  138106   138080   138048   138078   138229   138420   138501   138480 
  138465   138399   138210   138057   138106   138264   138366   138389 
  138377   138362   138384   138439   138443   138376   138310   138277 
  138268   138279   138318   138362   138391   138410   138399   138341 
  138244   138113   138025   138051   138132   138233   138373   138493 
  138553   138570   138538   138466   138379   138294   138273   138339 
  138406   138407   138391   138411   138445   138483   138526   138492 
  138361   138245   138231   138307   138424   138511   138539   138549 
  138572   138589   138588   138580   138516   138352   138204   138190 
  138217   138207   138211   138218   138187   138195   138298   138412 
  138442   138385   138319   138280   138237   138231   138307   138345 
  138280   138221   138254   138349   138393   138346   138303   138300 
  138258   138163   138107   138146   138214   138264   138341   138446 
  138497   138487   138488   138492   138450   138377   138303   138272 
  138348   138450   138423   138287   138175   138150   138187   138223 
  138246   138272   138291   138310   138306   138256   138249   138300 
  138322   138326   138350   138383   138415   138414   138362   138315 
  138330   138391   138420   138372   138299   138304   138364   138379 
  138321   138215   138156   138213   138307   138339   138333   138345 
  138375   138418   138460   138458   138429   138402   138343   138262 
  138257   138377   138515   138534   138465   138422   138443   138501 
  138541   138547   138546   138537   138520   138496   138438   138304 
  138156   138134   138225   138295   138318   138329   138331   138303 
  138258   138275   138329   138354   138387   138447   138483   138480 
  138474   138442   138349   138238   138172   138165   138222   138284 
  138273   138240   138275   138360   138446   138462   138348   138206 
  138176   138211   138250   138348   138504   138612   138597   138512 
  138443   138408   138377   138325   138262   138218   138190   138203 
  138273   138370   138469   138527   138477   138330   138184   138115 
  138115   138148   138240   138388   138534   138605   138561   138466 
  138430   138449   138422   138326   138226   138194   138246   138306 
  138288   138254   138258   138213   138057   137926   137972   138140 
  138306   138422   138450   138397   138370   138453   138573   138601 
  138549   138492   138438   138366   138299   138287   138342   138403 
  138426   138411   138346   138267   138242   138233   138206   138218 
  138271   138318   138373   138435   138465   138484   138523   138559 
  138559   138541   138545   138551   138478   138323   138215   138237 
  138308   138330   138323   138331   138334   138306   138289   138311 
  138296   138225   138192   138256   138353   138418   138442   138450 
  138499   138592   138620   138530   138419   138388   138410   138372 
  138272   138210   138214   138253   138271   138221   138164   138165 
  138210   138288   138339   138335   138362   138427   138478   138489 
  138423   138288   138176   138146   138153   138161   138187   138199 
  138208   138294   138396   138407   138326   138222   138186   138253 
  138329   138327   138319   138366   138433   138461   138420   138356 
  138346   138399   138442   138423   138388   138395   138406   138353 
  138218   138068   138051   138186   138321   138331   138273   138280 
  138354   138402   138392   138348   138292   138261   138291   138350 
  138376   138376   138372   138339   138295   138283   138318   138333 
  138292   138277   138283   138227   138196   138291   138443   138565 
  138643   138650   138572   138465   138404   138423   138496   138520 
  138416   138283   138273   138354   138384   138360   138342   138354 
  138400   138431   138416   138433   138496   138549   138569   138585 
  138612   138570   138416   138271   138221   138222   138223   138203 
  138190   138214   138250   138308   138388   138419   138373   138306 
  138261   138277   138342   138383   138397   138424   138442   138407 
  138334   138268   138200   138137   138148   138202   138195   138188 
  138249   138258   138196   138215   138310   138354   138337   138312 
  138327   138388   138419   138393   138366   138350   138316   138268 
  138214   138176   138184   138229   138268   138294   138335   138411 
  138505   138551   138503   138408   138319   138268   138291   138350 
  138392   138424   138414   138343   138300   138307   138269   138190 
  138173   138229   138310   138423   138539   138595   138586   138524 
  138431   138399   138450   138473   138419   138353   138325   138338 
  138406   138485   138474   138376   138331   138358   138358   138330 
  138352   138445   138542   138543   138491   138503   138554   138528 
  138433   138341   138275   138269   138323   138354   138354   138365 
  138370   138356   138338   138298   138231   138222   138295   138397 
  138514   138564   138485   138380   138296   138221   138194   138208 
  138221   138203   138180   138214   138269   138277   138249   138237 
  138258   138250   138160   138082   138098   138150   138188   138219 
  138248   138260   138248   138223   138248   138373   138522   138565 
  138501   138397   138333   138369   138418   138358   138257   138222 
  138244   138287   138330   138357   138370   138362   138319   138298 
  138345   138393   138424   138480   138507   138491   138516   138591 
  138636   138611   138541   138473   138408   138319   138237   138215 
  138219   138208   138238   138348   138445   138437   138388   138369 
  138330   138287   138285   138246   138150   138114   138181   138291 
  138360   138366   138343   138325   138337   138345   138285   138195 
  138157   138187   138242   138276   138307   138380   138462   138485 
  138456   138429   138416   138388   138314   138235   138204   138203 
  138202   138233   138321   138399   138393   138366   138442   138577 
  138615   138541   138460   138404   138370   138358   138358   138364 
  138343   138312   138345   138400   138372   138304   138322   138393 
  138396   138379   138441   138511   138526   138541   138553   138526 
  138483   138439   138379   138296   138240   138235   138244   138245 
  138252   138264   138287   138302   138262   138210   138207   138223 
  138213   138206   138256   138348   138410   138442   138464   138442 
  138397   138370   138329   138277   138275   138310   138319   138291 
  138277   138316   138341   138302   138262   138246   138217   138169 
  138114   138091   138173   138325   138397   138368   138353   138381 
  138387   138388   138434   138491   138489   138431   138383   138380 
  138410   138439   138429   138385   138366   138385   138437   138504 
  138541   138523   138453   138383   138373   138365   138299   138242 
  138260   138322   138369   138377   138385   138434   138491   138469 
  138358   138265   138246   138229   138180   138173   138261   138381 
  138415   138353   138304   138268   138190   138164   138223   138248 
  138219   138227   138281   138368   138474   138507   138443   138380 
  138348   138334   138346   138353   138358   138407   138443   138411 
  138387   138393   138377   138376   138433   138485   138458   138372 
  138326   138369   138438   138461   138429   138388   138375   138357 
  138308   138235   138165   138122   138113   138140   138214   138299 
  138346   138365   138379   138357   138306   138260   138199   138167 
  138231   138303   138304   138284   138291   138333   138380   138393 
  138391   138365   138319   138299   138335   138443   138555   138562 
  138507   138503   138553   138576   138504   138376   138303   138306 
  138330   138375   138430   138458   138462   138472   138496   138511 
  138488   138439   138395   138361   138322   138292   138311   138333 
  138265   138146   138109   138159   138184   138163   138149   138146 
  138160   138218   138284   138315   138342   138381   138399   138379 
  138357   138365   138365   138329   138302   138323   138342   138314 
  138284   138296   138329   138356   138361   138346   138356   138391 
