Origin Time       2025/03/30 21:30:00
Lat.              38.535
Long.             142.295
Depth. (km)       44
Mag.              4.3
Station Code      IWTH04
Station Lat.      39.1809
Station Long.     141.3909
Station Height(m) 620
Record Time       2025/03/30 21:31:26
Sampling Freq(Hz) 100Hz
Duration Time(s)  120
Dir.              4
Scale Factor      7845(gal)/8223790
Max. Acc. (gal)   2.805
Last Correction   2025/03/30 21:31:26
Memo.             
[...]
  -12579   -12577   -12579   -12579   -12576   -12576   -12577   -12576 
  -12577   -12577   -12576   -12577   -12577   -12575   -12576   -12579 
  -12577   -12577   -12579   -12579   -12577   -12576   -12577   -12577 
  -12575   -12575   -12577   -12577   -12575   -12575   -12577   -12579 
  -12577   -12577   -12577   -12579   -12579   -12576   -12579   -12579 
  -12576   -12575   -12575   -12577   -12580   -12579   -12576   -12577 
  -12579   -12579   -12577   -12576   -12575   -12577   -12582   -12579 
  -12576   -12579   -12582   -12579   -12579   -12580   -12582   -12579 
  -12576   -12576   -12579   -12577   -12576   -12579   -12582   -12580 
  -12577   -12577   -12580   -12577   -12576   -12577   -12577   -12577 
  -12579   -12579   -12580   -12579   -12576   -12576   -12576   -12575 
  -12577   -12579   -12577   -12579   -12579   -12577   -12579   -12579 
  -12577   -12579   -12580   -12582   -12580   -12579   -12580   -12580 
  -12579   -12580   -12582   -12580   -12577   -12576   -12577   -12580 
  -12583   -12586   -12586   -12579   -12579   -12582   -12576   -12571 
  -12571   -12565   -12573   -12606   -12618   -12590   -12553   -12534 
  -12555   -12622   -12681   -12668   -12580   -12468   -12438   -12542 
  -12677   -12696   -12584   -12445   -12394   -12461   -12586   -12667 
  -12673   -12623   -12483   -12353   -12456   -12710   -12861   -12815 
  -12550   -12244   -12278   -12665   -12977   -12918   -12563   -12252 
  -12294   -12621   -12907   -12889   -12592   -12368   -12376   -12380 
  -12476   -12823   -12912   -12509   -12093   -12114   -12563   -13011 
  -13138   -12879   -12291   -11935   -12353   -12997   -12961   -12538 
  -12484   -12561   -12428   -12514   -12838   -12834   -12652   -12627 
  -12507   -12374   -12492   -12607   -12549   -12472   -12491   -12587 
  -12623   -12553   -12452   -12479   -12816   -13124   -12811   -12274 
  -12210   -12329   -12409   -12586   -12626   -12691   -12888   -12690 
  -12320   -12318   -12436   -12598   -12856   -12837   -12555   -12320 
  -12285   -12652   -13101   -13054   -12584   -12106   -12110   -12636 
  -12988   -12934   -12664   -12178   -11942   -12355   -12860   -12999 
  -12954   -12650   -12147   -12148   -12661   -12897   -12722   -12502 
  -12360   -12393   -12592   -12675   -12745   -12978   -12815   -12298 
  -12220   -12318   -12247   -12573   -12991   -12734   -12361   -12413 
  -12530   -12684   -12891   -12807   -12604   -12594   -12550   -12480 
  -12638   -12785   -12690   -12532   -12348   -12178   -12293   -12685 
  -12934   -12762   -12488   -12459   -12521   -12563   -12596   -12548 
  -12586   -12696   -12603   -12517   -12509   -12325   -12405   -12814 
  -12791   -12571   -12604   -12541   -12575   -12818   -12735   -12564 
  -12592   -12451   -12353   -12517   -12528   -12533   -12648   -12483 
  -12496   -12866   -12775   -12495   -12518   -12367   -12397   -12899 
  -12997   -12665   -12484   -12312   -12178   -12357   -12615   -12652 
  -12625   -12698   -12644   -12517   -12654   -12864   -12831   -12607 
  -12382   -12451   -12726   -12746   -12548   -12432   -12402   -12403 
  -12476   -12673   -12792   -12680   -12565   -12484   -12459   -12695 
  -12866   -12688   -12475   -12309   -12166   -12361   -12826   -13031 
  -12850   -12513   -12190   -12172   -12573   -12930   -12887   -12721 
  -12591   -12297   -12104   -12343   -12679   -12830   -12800   -12633 
  -12510   -12528   -12653   -12787   -12734   -12592   -12530   -12421 
  -12372   -12530   -12573   -12366   -12301   -12565   -12802   -12754 
  -12692   -12649   -12442   -12447   -12654   -12637   -12688   -12800 
  -12582   -12460   -12604   -12654   -12671   -12660   -12602   -12622 
  -12475   -12251   -12421   -12723   -12744   -12627   -12475   -12236 
  -12170   -12506   -12879   -12943   -12788   -12525   -12379   -12509 
  -12731   -12891   -12781   -12353   -12187   -12495   -12600   -12471 
  -12575   -12609   -12484   -12580   -12671   -12576   -12667   -12942 
  -12991   -12704   -12326   -12150   -12272   -12459   -12573   -12719 
  -12722   -12515   -12540   -12777   -12760   -12660   -12681   -12444 
  -12143   -12289   -12564   -12629   -12613   -12573   -12602   -12671 
  -12714   -12845   -12771   -12492   -12641   -12856   -12532   -12287 
  -12372   -12378   -12475   -12673   -12650   -12590   -12618   -12645 
  -12695   -12582   -12394   -12569   -12889   -12843   -12536   -12295 
  -12248   -12417   -12653   -12780   -12792   -12657   -12452   -12333 
  -12280   -12432   -12823   -13007   -12741   -12398   -12436   -12729 
  -12777   -12552   -12417   -12384   -12348   -12521   -12784   -12669 
  -12394   -12460   -12703   -12771   -12717   -12733   -12717   -12491 
  -12264   -12301   -12479   -12640   -12827   -12897   -12629   -12326 
  -12394   -12607   -12664   -12653   -12595   -12460   -12425   -12582 
  -12829   -12935   -12745   -12480   -12351   -12263   -12312   -12521 
  -12587   -12559   -12568   -12483   -12488   -12681   -12789   -12812 
  -12750   -12552   -12534   -12714   -12733   -12626   -12557   -12468 
  -12414   -12456   -12503   -12563   -12654   -12664   -12499   -12351 
  -12528   -12733   -12596   -12507   -12652   -12756   -12792   -12685 
  -12448   -12405   -12501   -12482   -12525   -12691   -12677   -12571 
  -12630   -12641   -12542   -12617   -12700   -12569   -12519   -12537 
  -12343   -12255   -12442   -12534   -12565   -12652   -12579   -12600 
  -12895   -12993   -12798   -12587   -12380   -12290   -12478   -12734 
  -12781   -12609   -12475   -12544   -12541   -12360   -12345   -12567 
  -12717   -12702   -12649   -12550   -12444   -12518   -12691   -12712 
  -12627   -12567   -12511   -12529   -12658   -12704   -12625   -12568 
  -12496   -12409   -12544   -12725   -12571   -12405   -12467   -12510 
  -12694   -12885   -12626   -12386   -12528   -12618   -12604   -12687 
  -12798   -12793   -12568   -12351   -12361   -12476   -12587   -12622 
  -12630   -12695   -12646   -12507   -12460   -12413   -12372   -12428 
  -12494   -12579   -12700   -12735   -12703   -12687   -12733   -12779 
  -12737   -12702   -12596   -12372   -12325   -12399   -12390   -12425 
  -12480   -12502   -12544   -12518   -12561   -12847   -13031   -12854 
  -12636   -12571   -12521   -12507   -12530   -12517   -12552   -12572 
  -12447   -12360   -12522   -12775   -12766   -12561   -12498   -12484 
  -12390   -12442   -12657   -12754   -12721   -12675   -12577   -12542 
  -12622   -12556   -12371   -12343   -12538   -12783   -12843   -12775 
  -12695   -12577   -12533   -12480   -12280   -12298   -12564   -12525 
  -12313   -12487   -12795   -12879   -12961   -12988   -12703   -12341 
  -12314   -12584   -12749   -12614   -12372   -12307   -12432   -12546 
  -12661   -12746   -12638   -12447   -12406   -12515   -12637   -12748 
  -12785   -12569   -12351   -12461   -12615   -12699   -12846   -12718 
  -12378   -12394   -12511   -12502   -12816   -13011   -12568   -12278 
  -12417   -12459   -12586   -12888   -12927   -12672   -12355   -12210 
  -12340   -12441   -12471   -12607   -12600   -12513   -12695   -12880 
  -12834   -12730   -12559   -12386   -12460   -12661   -12656   -12418 
  -12225   -12294   -12571   -12868   -12992   -12804   -12502   -12444 
  -12522   -12544   -12567   -12421   -12189   -12241   -12456   -12722 
  -13028   -13011   -12787   -12681   -12541   -12496   -12665   -12664 
  -12476   -12364   -12351   -12480   -12645   -12631   -12590   -12579 
  -12509   -12533   -12640   -12690   -12756   -12825   -12769   -12542 
  -12305   -12343   -12587   -12688   -12617   -12486   -12318   -12278 
  -12384   -12469   -12568   -12711   -12803   -12757   -12563   -12523 
  -12711   -12744   -12750   -12933   -12887   -12550   -12328   -12418 
  -12667   -12703   -12457   -12276   -12363   -12496   -12506   -12548 
  -12610   -12552   -12436   -12355   -12492   -12791   -12838   -12704 
  -12592   -12394   -12426   -12808   -12955   -12846   -12722   -12459 
  -12407   -12677   -12692   -12518   -12432   -12267   -12175   -12363 
  -12618   -12779   -12841   -12688   -12360   -12285   -12596   -12888 
  -12938   -12789   -12486   -12236   -12224   -12382   -12653   -12918 
  -12835   -12552   -12567   -12648   -12515   -12506   -12591   -12528 
  -12560   -12708   -12646   -12502   -12488   -12511   -12580   -12704 
  -12776   -12707   -12511   -12463   -12644   -12704   -12588   -12492 
  -12325   -12171   -12295   -12555   -12789   -12896   -12646   -12372 
  -12417   -12503   -12646   -12830   -12692   -12529   -12700   -12893 
  -12856   -12536   -12152   -12205   -12499   -12536   -12499   -12583 
  -12660   -12627   -12459   -12536   -12927   -12857   -12382   -12355 
  -12602   -12730   -12906   -12837   -12410   -12283   -12533   -12729 
  -12868   -12776   -12297   -12017   -12231   -12533   -12769   -12876 
  -12652   -12348   -12472   -12849   -12879   -12680   -12641   -12553 
  -12351   -12336   -12465   -12638   -12771   -12660   -12523   -12583 
  -12595   -12522   -12501   -12518   -12604   -12723   -12718   -12584 
  -12464   -12418   -12405   -12441   -12575   -12710   -12683   -12588 
  -12627   -12688   -12634   -12565   -12536   -12607   -12691   -12530 
  -12301   -12295   -12515   -12768   -12733   -12584   -12707   -12746 
  -12549   -12599   -12731   -12611   -12609   -12657   -12426   -12332 
  -12487   -12499   -12428   -12329   -12333   -12595   -12603   -12361 
  -12513   -12835   -12989   -13112   -12981   -12555   -12379   -12540 
  -12658   -12663   -12559   -12386   -12413   -12609   -12641   -12553 
  -12526   -12509   -12555   -12584   -12368   -12289   -12576   -12702 
  -12592   -12519   -12424   -12522   -12841   -12872   -12698   -12703 
  -12629   -12367   -12424   -12723   -12613   -12325   -12383   -12571 
  -12807   -12962   -12680   -12432   -12525   -12513   -12457   -12573 
  -12684   -12793   -12750   -12371   -12159   -12415   -12706   -12718 
  -12487   -12306   -12447   -12602   -12553   -12665   -12992   -13062 
  -12742   -12421   -12356   -12395   -12430   -12580   -12754   -12698 
  -12623   -12761   -12711   -12375   -12197   -12290   -12490   -12691 
  -12752   -12521   -12258   -12421   -12761   -12798   -12712   -12772 
  -12812   -12648   -12405   -12383   -12606   -12698   -12584   -12590 
  -12607   -12460   -12491   -12690   -12718   -12681   -12625   -12472 
  -12417   -12415   -12328   -12421   -12652   -12623   -12505   -12575 
  -12685   -12710   -12603   -12452   -12453   -12544   -12595   -12607 
  -12636   -12702   -12663   -12456   -12366   -12525   -12614   -12637 
  -12841   -12841   -12488   -12363   -12555   -12734   -12807   -12668 
  -12363   -12186   -12266   -12631   -13020   -12931   -12630   -12476 
  -12179   -12128   -12708   -13149   -13008   -12552   -12085   -12059 
  -12440   -12729   -12910   -12943   -12571   -12183   -12170   -12325 
  -12731   -13227   -13081   -12567   -12441   -12630   -12903   -13024 
  -12744   -12356   -12141   -11970   -11979   -12367   -12746   -12734 
  -12569   -12487   -12383   -12394   -12638   -12887   -13042   -12974 
  -12675   -12586   -12685   -12596   -12502   -12496   -12351   -12278 
  -12433   -12449   -12429   -12773   -13084   -12831   -12433   -12361 
  -12334   -12309   -12484   -12510   -12482   -12804   -13046   -13031 
  -13085   -12920   -12422   -12112   -12151   -12287   -12434   -12592 
  -12629   -12506   -12390   -12438   -12650   -12850   -12920   -12881 
  -12717   -12471   -12312   -12393   -12692   -12891   -12688   -12267 
  -12077   -12328   -12753   -12872   -12596   -12332   -12468   -12862 
  -12914   -12559   -12375   -12413   -12374   -12420   -12641   -12702 
  -12501   -12364   -12494   -12808   -13109   -13089   -12690   -12395 
  -12471   -12571   -12563   -12542   -12452   -12410   -12468   -12475 
  -12537   -12631   -12517   -12525   -12910   -13065   -12796   -12664 
  -12750   -12850   -12841   -12387   -11747   -11651   -11944   -12236 
  -12644   -12900   -12748   -12640   -12784   -12978   -13174   -13196 
  -12884   -12595   -12657   -12757   -12646   -12602   -12518   -12118 
  -11781   -11765   -12037   -12583   -12926   -12830   -12631   -12355 
  -12172   -12503   -12924   -12934   -12912   -13082   -13057   -12789 
  -12675   -12807   -12927   -12710   -12133   -11742   -11838   -12154 
  -12599   -12974   -12783   -12079   -11491   -11507   -12121   -12735 
  -12733   -12289   -12131   -12611   -13312   -13687   -13670   -13359 
  -12868   -12341   -11834   -11551   -11788   -12402   -12883   -12982 
  -12845   -12654   -12734   -13319   -13844   -13726   -13387   -13119 
  -12577   -12051   -12062   -12359   -12471   -12059   -11337   -11341 
  -12367   -13405   -13815   -13655   -13003   -12181   -11691   -11869 
  -12553   -12900   -12410   -11604   -11358   -12078   -13008   -13167 
  -12808   -12366   -11873   -11724   -11892   -12212   -13177   -14072 
  -13452   -12229   -12287   -13556   -14648   -14295   -12609   -11361 
  -11360   -11572   -11477   -11515   -11763   -12017   -12509   -13428 
  -14079   -13905   -13498   -13231   -12938   -12796   -12541   -11939 
  -11789   -12287   -12638   -12560   -12334   -12430   -12962   -13070 
  -12349   -11870   -12329   -13155   -13532   -12918   -11746   -11276 
  -11867   -12577   -12649   -12409   -12440   -12665   -12808   -12733 
  -12422   -12479   -13273   -13941   -13972   -13649   -12812   -11749 
  -11273   -11165   -11192   -11691   -11927   -11190   -10615   -11423 
  -13204   -14843   -15518   -14974   -13922   -13500   -13756   -13554 
  -12434   -11442   -11403   -11553   -10936   -10127   -10228   -11321 
  -13007   -14673   -15253   -14461   -13124   -12217   -12393   -13312 
  -13882   -13703   -13147   -12557   -11786   -10629   -10003   -10732 
  -11793   -12043   -11942   -12387   -13196   -13590   -13698   -13865 
  -13556   -12849   -12627   -12885   -13018   -12837   -12560   -12441 
  -12467   -12619   -12650   -11946   -10955   -10860   -11550   -12190 
  -12515   -12603   -12807   -13270   -13423   -13100   -12924   -13216 
  -13707   -13772   -13147   -12599   -12650   -12656   -12177   -11634 
  -11527   -12060   -12769   -12892   -12460   -12024   -11961   -12248 
  -12652   -13147   -13333   -12877   -12471   -12502   -12673   -13032 
  -13369   -13011   -11942   -10993   -11095   -12297   -13552   -13929 
  -13261   -12112   -11597   -12023   -12644   -12935   -12798   -12550 
  -12631   -12781   -12572   -12387   -12769   -13267   -13077   -12437 
  -12082   -12204   -12615   -12923   -12744   -12121   -11422   -11079 
  -11402   -12217   -12899   -13105   -13204   -13495   -13768   -13883 
  -13832   -13540   -13162   -12733   -11954   -11215   -11330   -11880 
  -11961   -11907   -12201   -12549   -12812   -12723   -12225   -12401 
  -13440   -14161   -14154   -13617   -12903   -12596   -12496   -12071 
  -11529   -11232   -11306   -11718   -12042   -12032   -12101   -12456 
  -12876   -13436   -14053   -14014   -13169   -12391   -12249   -12482 
  -12676   -12664   -12518   -12274   -11996   -12062   -12479   -12741 
  -12712   -12569   -12541   -12857   -13139   -13011   -12772   -12479 
  -12074   -12124   -12723   -12974   -12484   -11952   -12051   -12631 
  -13016   -12823   -12361   -12251   -12600   -12920   -13047   -13049 
  -12706   -12239   -12125   -12159   -12029   -11813   -11759   -12097 
  -12627   -13057   -13490   -13757   -13613   -13490   -13506   -13073 
  -12272   -11871   -11954   -11865   -11562   -11854   -12695   -12982 
  -12580   -12513   -12993   -13297   -13149   -12676   -12195   -12151 
  -12201   -11816   -11647   -12162   -12455   -12209   -12465   -13321 
  -13612   -13078   -12571   -12537   -12711   -12866   -13135   -13447 
  -13305   -12712   -12376   -12437   -12348   -12164   -12339   -12623 
  -12503   -12132   -11974   -12128   -12386   -12340   -11962   -11959 
  -12438   -12685   -12656   -12783   -12938   -12984   -13140   -13093 
  -12490   -12042   -12285   -12734   -13235   -13809   -13890   -13475 
  -13050   -12576   -12120   -11836   -11519   -11303   -11530   -11934 
  -12193   -12414   -12537   -12437   -12425   -12706   -12984   -13051 
  -13065   -13035   -12843   -12752   -12889   -12946   -12901   -12787 
  -12472   -12345   -12499   -12452   -12334   -12236   -11934   -11885 
  -12239   -12498   -12765   -13119   -13227   -13147   -12961   -12649 
  -12507   -12676   -12853   -12769   -12541   -12321   -12264   -12488 
  -12465   -12085   -12150   -12484   -12486   -12649   -13081   -13066 
  -12641   -12221   -11834   -11767   -12289   -12974   -13277   -13163 
  -13093   -13288   -13282   -12787   -12102   -11591   -11492   -11921 
  -12730   -13267   -12910   -12271   -12487   -13155   -13197   -12861 
  -12630   -12220   -11827   -12023   -12667   -13105   -12957   -12461 
  -11997   -11727   -11758   -12071   -12579   -13120   -13344   -13167 
  -12937   -12856   -12846   -12640   -12117   -11908   -12370   -12717 
  -12658   -12702   -12829   -12877   -12826   -12474   -11913   -11568 
  -11800   -12598   -13404   -13637   -13165   -12426   -12253   -12842 
  -13292   -13061   -12573   -12090   -11857   -12355   -13081   -13197 
  -12973   -12769   -12275   -11742   -12054   -12914   -13066   -12429 
  -11981   -12104   -12349   -12424   -12559   -12737   -12630   -12484 
  -12726   -13031   -13016   -12958   -12996   -12868   -12603   -12428 
  -12329   -12287   -12322   -12170   -11858   -11807   -11977   -12337 
  -13128   -13832   -13647   -12825   -12279   -12409   -12845   -13016 
  -12764   -12340   -11996   -12005   -12609   -13386   -13481   -12766 
  -11954   -11630   -11848   -12302   -12625   -12737   -12734   -12549 
  -12360   -12600   -12958   -12862   -12521   -12325   -12552   -13224 
  -13508   -13084   -12849   -12765   -12090   -11338   -11294   -11854 
  -12514   -12745   -12703   -12881   -12783   -12181   -12075   -12657 
  -13146   -13356   -13221   -12680   -12461   -12837   -12897   -12514 
  -12502   -12683   -12405   -11847   -11601   -12008   -12680   -12981 
  -12989   -13026   -12901   -12569   -12513   -12812   -12854   -12471 
  -12222   -12297   -12449   -12687   -12814   -12614   -12595   -12885 
  -12849   -12583   -12602   -12633   -12226   -11604   -11481   -12128 
  -12868   -13104   -12949   -12679   -12594   -12880   -13236   -13281 
  -13045   -12730   -12438   -12224   -12109   -12194   -12496   -12590 
  -12321   -12183   -12297   -12440   -12629   -12719   -12691   -12829 
  -12961   -12931   -12962   -12987   -12870   -12580   -12143   -12012 
  -12305   -12563   -12621   -12467   -12286   -12425   -12626   -12530 
  -12395   -12479   -12537   -12352   -12229   -12379   -12583   -12820 
  -13061   -13144   -13282   -13338   -12807   -12132   -12062   -12409 
  -12702   -12765   -12631   -12494   -12343   -12133   -12048   -12073 
  -12109   -12137   -12118   -12336   -12870   -13320   -13602   -13622 
  -13165   -12711   -12672   -12807   -12803   -12479   -12206   -12326 
  -12305   -12048   -12248   -12799   -12927   -12528   -12241   -12312 
  -12345   -12301   -12432   -12663   -12795   -12710   -12448   -12240 
  -12239   -12432   -12707   -13001   -13279   -13354   -13070   -12746 
  -12877   -13108   -12719   -12048   -11835   -12075   -12376   -12452 
  -12366   -12577   -13009   -12845   -12228   -12187   -12619   -12652 
