Origin Time       2025/03/30 21:30:00
Lat.              38.535
Long.             142.295
Depth. (km)       44
Mag.              4.3
Station Code      IWTH23
Station Lat.      39.2741
Station Long.     141.8233
Station Height(m) 44
Record Time       2025/03/30 21:31:21
Sampling Freq(Hz) 100Hz
Duration Time(s)  120
Dir.              4
Scale Factor      7845(gal)/8223790
Max. Acc. (gal)   3.930
Last Correction   2025/03/30 21:31:21
Memo.             
[...]
     380      380      382      382      382      380      382      382 
     382      382      380      380      382      380      378      380 
     382      380      379      379      378      379      382      382 
     382      382      382      384      382      379      383      382 
     378      380      382      380      383      383      382      380 
     380      382      380      382      382      380      379      382 
     382      380      380      380      380      382      383      382 
     380      380      379      379      380      380      382      384 
     382      380      380      380      379      380      382      382 
     379      382      382      379      380      380      378      378 
     382      382      380      383      383      380      382      382 
     382      383      384      380      380      383      383      380 
     379      380      380      379      380      382      382      380 
     382      382      382      382      382      380      379      379 
     380      382      382      380      380      382      379      379 
     383      383      382      380      378      379      382      380 
     379      380      384      384      380      382      383      379 
     379      380      380      382      380      379      379      379 
     380      382      380      382      383      379      380      382 
     380      379      379      380      380      379      380      379 
     378      380      382      382      382      379      378      379 
     379      379      380      380      379      380      383      383 
     382      383      384      380      378      380      382      382 
     380      382      383      382      379      380      382      382 
     380      380      382      382      380      380      382      382 
     380      382      382      380      380      383      383      382 
     382      383      380      380      382      379      378      378 
     380      382      380      379      379      379      380      379 
     379      383      383      380      382      382      382      382 
     382      380      382      382      383      382      382      379 
     378      383      382      378      380      380      379      380 
     379      376      376      373      368      369      372      372 
     376      387      379      373      386      364      356      452 
     514      448      406      375      307      348      444      441 
     303       83       24      183      380      606      672      373 
     184      400      594      746      818      346      -22      178 
     315      568      854      548      152      -20       56      373 
     157       68      618      448      342      884      637      508 
     932      577      -20      -58      363      764      429     -126 
      62      530      592      371     -118     -302      533     1302 
    1032      197     -596     -422      893     1730     1086       -5 
    -238       -6      180      891      916     -315     -400      553 
     715      305      149      637      724      -70     -373      124 
     702     1156     1385      804     -201     -518       85     1161 
    1075     -195     -373      317      742      940      649      -31 
    -550     -152      716      930      719      180      137      878 
     616      248      602      -97     -507      680     1323      955 
     473     -256     -637      -55      822     1377     1102      132 
    -178       60        1      284      727      660      571      573 
     324       99      363      558      207       49      189      436 
    1004     1030      153     -345      112      545      314      151 
     515      841      769      378      -36       60      511      594 
     310      449      823      201     -390      410      931      589 
     438      319       75      -27      199      529      710      626 
     159      259      726      372      112      156      144      631 
     670      301      584      641      379      549      502     -132 
    -279      507      877      529      353      126      149      580 
     292      -37      479      868      791      565      251     -121 
    -211      459     1005      733      375      183      178      147 
      44      583      980      625      434       55     -378      176 
     841      706      288      348      781      491     -222     -210 
     299      868     1007      463       14       -2      198      623 
    1074      778     -284     -436      500      723      594      946 
     515     -368     -144      440      490      633      862      693 
     238     -307     -194      685      818      477      610      319 
     117      449      189      334     1043      611        9      110 
     175      329      562      720      685      237      -21      264 
     367       76      351      859      529      197      309      240 
     259      494      726      643      197      217      464      259 
     391      704      390      193      325       90     -124      190 
     689      996      884      306     -178      -27      382      587 
     708      731      526      132     -255      -98      657     1059 
     747      349        8     -112      276      491      449      726 
     525     -149       56      673      679      521      527      481 
     537      527     -113     -376      515      986      508      135 
     280      484      267      369      770      384     -193       40 
     634      718      534      649      399     -121      261      849 
     665      456      211     -103      353      603      233      459 
     664      395      133     -224       63      924     1228      861 
    -102     -571      166      676      805      891      255     -306 
     -40      437      912     1085      299     -496      -14      653 
     621      607      486      172      175      418      801      722 
      -8       -6      594      487      221      383      450      345 
     376      545      491      222      128      187      457      693 
     328      195      760      581      -37      507     1007      294 
    -108      369      576      234      118      418      730      703 
     171     -172       18      371      797      791      449      303 
     222      378      274     -148      268      874      745      406 
      56       63      541      811      733      445       66      -62 
     259      707      612      297      329      179       54      330 
     423      534      699      569      391      -47     -182      599 
     949      538      268       44      197      685      630      511 
     494      230      193      218      301      480      375      506 
     473     -137      194     1054      669       87      128      128 
     554      873      357      197      315      286      668      541 
     -25      279      529      355      567      411      -72      139 
     715      904      607      183      -75      118      568      526 
     456      561      214       97      355      356      417      576 
     616      457      156      259      591      633      373      -62 
      35      707      854      380       -2      128      533      529 
     252      182      445      872      896      368     -225     -314 
     187      892     1220      708       55     -143     -252       99 
     855     1026      665      226     -174     -124      561     1008 
     637      390      329     -237     -236      835     1271      419 
    -151      167      267      274      681      629      112      128 
     660      672      113       63      263      387      962     1058 
     284     -271     -334      121      851     1200     1055      216 
    -715     -361      668     1120      958      247     -187      171 
     379      467      619      410      449      549      224      221 
     202       75      774     1242      514     -174     -101       79 
     130      747     1298      580      -58      183      133      311 
     999      807        8     -297     -247      112      973     1385 
     669      -40      -21      126      217      483      711      540 
     202      307      602      395      226      583      510      -67 
     224      859      418       87      410      291      438      716 
     325      307      492      290      187      -33      -25      773 
    1309      859       63     -494     -238      899     1300      342 
    -183      198      328      407      881      753      -22        1 
     702      773      261        4      128      264      513      880 
     727       86     -267       33      702     1090      724     -114 
    -414      135      739      935      723      288      267      523 
     143     -133      507      776      398      309      364      457 
     523      248       41      295      580      396      305      691 
     581      106      332      669      407      193      276      244 
     386      639      340       60      321      695      920      338 
    -498       82      958      796      418     -106     -157      572 
     666      700      919      221     -226      184      530      591 
     363      248      346      309      492      569       87       21 
     476      746      869      612      -13     -256      145      675 
     847      661      286       99      155      348      810      643 
     -13      176      318      162      719      897      410      297 
     260      -20      -59      527      943      549      369      469 
     221      313      576      234     -113      160      895     1161 
     359     -307     -356     -174      820     1767     1104     -334 
    -643      193      799     1024      723     -279     -490      306 
     769      815      650      183      -22      392      629      175 
    -109      248      737      974      855      506      -76     -500 
      90      897      907      645      160     -183      224      496 
     560      793      591      294      372      367       31     -101 
     521      940      672      529      141     -197      344      730 
     653      634      409       63      -40      230      568      720 
     743      436      141      120      260      554      419      349 
     783      413     -449     -302      719     1467     1102      130 
    -514     -627      -32     1075     1609     1051      267     -264 
    -530     -117      448      835     1223      504     -606     -140 
     749     1044     1034      168     -418      -71       67      699 
    1478      988      355      -29     -642     -255     1007     1170 
     337       54      359      469      220      226      519      322 
     294      832      645      -83     -149      376      893      942 
     400      -82       70      336      341      329      494      818 
     568       79      319      548      333      167      341      615 
     402      182      186      247      905     1247      429     -113 
     -35     -225      202     1335     1036      -47      156      484 
     103      -74      240      924     1075      329     -214      -32 
     575      814      197     -230      454     1255      826     -179 
    -224      561     1058      799     -128     -907     -375     1094 
    1630      758      114      125      -27      260      768      203 
    -110      893     1329      600       49     -220     -270      589 
    1370      799      -21     -265     -180      341      845      980 
     502     -440     -340      515      868     1078      783      -25 
    -237       70      506      724      695      780      427     -117 
     -29      130      321      926      893      -36     -321      237 
     643      984     1116      414     -349     -210      286      607 
     976      988      403       25     -124     -243      440     1296 
     853     -252     -468      270      793      734      762      614 
    -205     -560      353     1135      792      168     -209     -279 
     232     1016     1300      780       71     -298     -324      315 
    1251     1297      394     -145      334      669      286      -83 
    -346     -153      770     1317     1134      837       24    -1028 
    -901     -160      427     1507     2023     1098       -2     -699 
    -849      210     1946     2547     1665      591     -461     -828 
     313      712     -414     -874     -322      642     1120      336 
    -126      260      121      143      745      345     -244      495 
     918      367      891     2362     2003       32     -684      -99 
     909     2061     1449    -1104    -3076    -2883     -688     2042 
    3362     2292     -440    -2382    -1536     1094     2863     2394 
     344    -1445    -1695     -615     1058     2768     3250     1468 
   -1240    -2963    -2714      -95     2843     3685     2963      774 
   -2272    -2691     -642     1220     2972     3230      838    -1726 
   -2816    -1969      784     3199     3111      822    -1507    -1750 
    -282      985     1560     1220      -10      190     1736     1327 
    -249     -383      731     1942     1224    -1073    -1645     -237 
    1170     1355      190     -490      465     1310      523     -660 
    -896     -531      499     1557     1129      622      949      110 
    -791      144      796      599      818     -129    -1968    -1009 
    1753     2529     2070     1281     -429    -1763    -1255     1587 
    3896     2511     -145    -2204    -3739    -2043     2188     3796 
    2215      137    -1622    -1557      888     2427     1378      -87 
    -298      329      317     -818     -908     1318     3191     2147 
    -738    -3150    -2905     1035     3927     1544     -985     -583 
    -365      765     2721     1771     -364     -761       90     1534 
    1730      449      133     -130     -469      988     1525      344 
    -454    -1729    -1266     1594     1340     -810     -207     1192 
    1861     1935      360    -1179    -1055     -324     1290     2795 
    1611      -99     -284     -369       58      553      132      378 
     783      444      305     -353    -1027      475     2843     2766 
     136    -2124    -2243       49     3003     2567     -297    -1009 
    -326     -494     -448      542     1501     1872     1669      294 
   -1830    -2076      711     2987     1996      656      -28    -1352 
    -554     1247      741     1019     1410    -1084    -1969      407 
    1999     1937      734    -1090    -1489     -375      778     1714 
    1927      812     -703    -1242     -506     1024     2211     1671 
     222     -550     -949     -422     1240     1551      275     -220 
     337     1088     1321      395     -450      -64      426      591 
    1129      977     -465    -1111     -835     -371     1705     3183 
    1232    -1001     -783      326      607      832     1560      719 
    -839     -263      197     -367      881     2174     1113     -341 
    -907     -735      554     1814     1104     -502     -919       -8 
    1529     2016      953      -52     -855     -812      702     1302 
     818      805      410     -283     -255      255      598      207 
    -329      -28      770     1277     1039      106     -783     -665 
     621     1809     1630      368     -764     -799      108      961 
    1377     1206      252     -600     -275      992     1370      -63 
   -1175     -426     1063     1844     1378       59    -1534    -1672 
     799     2559     1532      587      665      102     -448      278 
     820      440      807     1351      494     -685     -862     -135 
     423      595     1178     1120      -22     -573     -287      220 
     641     1048     1537      981      -14      194      290      -48 
     483      695      128      112      244       49      479      969 
     298       -4      913      928     -437    -1378     -461     1918 
    2805      839    -1012     -839     -149      475     1506     1800 
     579     -800     -788      376     1424     1683      693     -878 
   -1069     -287      209     1255     1707      198     -299      634 
    -124     -687      895     1086     -252      297     1309      756 
     510      535      -47      282      700       97      174      881 
     896      -24     -954     -287     1209     1861     1543      240 
    -989     -962     -170     1140     2263     1466     -523    -1348 
    -811      503     1949     1899      915      156    -1197    -1525 
     278     1624     2188     2197      368    -1655    -1734     -326 
    1325     1723      477     -417      -99      116      427     1055 
     751      211       56     -360      399     1845      931    -1034 
    -935      938     2386     1737      -39     -953    -1021     -338 
    1101     1567      729      220     -163     -446      329      985 
    1074     1405      639    -1343    -1605      606     2511     2011 
    -168    -1663    -1093      675     1946     1898      986     -290 
   -1105     -301      730      810     1302     1410      217     -480 
    -553     -407      630     1356      751     -172     -526     -276 
     183     1100     2046     1296     -307     -677      108     1043 
    1100      573      367       98      -83      252      463      260 
     259      453      -98     -760       72     1547     1784      780 
    -457    -1108     -257     1455     1760     1092      473     -959 
   -1198      731     1742     1275      128    -1035     -608      307 
     696     1336     1250      294     -583     -606      993     1721 
     502      247      241     -498      573     1984      718     -718 
    -330      108      507      835      197       25      406      538 
    1115      808     -332     -120      406      548      985      603 
    -299      -93      827      832     -214     -163     1162     1285 
     468       21     -436     -265      783     1321      905       78 
    -594     -445      481     1023      797      553      234      -62 
     243      446      398      645      669      557      303     -210 
     114      886      892      440      -25     -274       90      557 
     314      174      569      625      889      999     -191     -465 
     692      939      828      750      129      -12       97     -198 
    -382      271     1588     1614      522      -32     -800     -935 
     714     1836     1382      608      118     -361     -693      156 
    1494     1703      951      -35     -244     -144     -711       91 
    1638      918     -143      253      591      427       85      128 
     415      216      765     1576      225    -1506     -770     1155 
    1884     1013     -137     -360     -141       54      722      992 
     313      218      777      625     -124     -307      419     1127 
    1093      438     -240     -191      522      989      746      305 
     103      -45     -244     -203      479     1664     1799      297 
    -596     -376     -233      830     1734      625     -155      121 
      54      338      797      715      359     -230     -318      152 
     367      915     1506      710     -396     -190      356      359 
     449      841     1144      734     -302     -789     -444      530 
    1633     1159     -396     -653       36      774     1557     1127 
