Origin Time       2025/03/30 21:30:00
Lat.              38.535
Long.             142.295
Depth. (km)       44
Mag.              4.3
Station Code      IWTH21
Station Lat.      39.4734
Station Long.     141.9336
Station Height(m) -87
Record Time       2025/03/30 21:31:26
Sampling Freq(Hz) 100Hz
Duration Time(s)  120
Dir.              2
Scale Factor      2942(gal)/8224139
Max. Acc. (gal)   0.368
Last Correction   2025/03/30 21:31:26
Memo.             
[...]
   39668    39665    39665    39668    39664    39665    39669    39667 
   39667    39669    39669    39668    39665    39665    39668    39672 
   39669    39664    39665    39669    39667    39667    39667    39665 
   39668    39669    39664    39665    39668    39667    39667    39668 
   39665    39665    39667    39665    39665    39667    39664    39667 
   39671    39667    39663    39665    39665    39663    39668    39671 
   39664    39664    39669    39667    39665    39667    39661    39661 
   39664    39667    39667    39665    39667    39667    39668    39677 
   39685    39681    39673    39673    39683    39684    39677    39675 
   39673    39664    39653    39656    39665    39667    39665    39663 
   39660    39658    39665    39681    39673    39631    39627    39668 
   39680    39664    39667    39679    39668    39648    39660    39680 
   39663    39645    39658    39684    39681    39621    39594    39658 
   39702    39707    39715    39681    39646    39652    39669    39702 
   39700    39636    39604    39675    39712    39631    39621    39710 
   39706    39645    39633    39618    39617    39663    39684    39680 
   39685    39688    39725    39771    39695    39586    39627    39738 
   39748    39660    39609    39637    39648    39636    39660    39676 
   39636    39623    39690    39684    39602    39669    39779    39663 
   39557    39702    39765    39660    39698    39750    39671    39696 
   39735    39602    39549    39665    39700    39660    39703    39690 
   39514    39495    39780    39915    39664    39495    39634    39739 
   39727    39735    39669    39584    39656    39726    39711    39680 
   39556    39541    39768    39814    39618    39521    39537    39615 
   39702    39704    39706    39695    39626    39675    39781    39664 
   39523    39602    39708    39800    39796    39661    39613    39602 
   39622    39660    39580    39600    39733    39742    39710    39658 
   39550    39546    39625    39694    39795    39766    39630    39718 
   39791    39582    39503    39667    39741    39702    39687    39723 
   39723    39579    39537    39712    39712    39594    39618    39604 
   39636    39723    39607    39569    39746    39812    39734    39636 
   39615    39691    39764    39731    39584    39565    39702    39733 
   39681    39595    39560    39675    39694    39652    39715    39641 
   39533    39684    39825    39707    39557    39613    39746    39765 
   39653    39577    39742    39834    39613    39506    39665    39765 
   39667    39557    39654    39754    39707    39683    39654    39630 
   39664    39629    39657    39768    39695    39568    39629    39721 
   39738    39765    39749    39631    39544    39618    39715    39626 
   39569    39723    39780    39650    39596    39663    39681    39699 
   39750    39664    39595    39653    39634    39646    39717    39676 
   39626    39653    39684    39673    39634    39640    39700    39703 
   39642    39656    39698    39663    39654    39714    39737    39683 
   39576    39538    39677    39780    39680    39604    39625    39642 
   39687    39719    39692    39649    39621    39645    39702    39675 
   39606    39644    39733    39700    39546    39557    39756    39798 
   39684    39617    39627    39695    39690    39621    39665    39684 
   39603    39617    39687    39683    39644    39660    39738    39766 
   39691    39565    39549    39742    39822    39633    39568    39673 
   39738    39738    39582    39484    39726    39873    39646    39476 
   39594    39730    39703    39711    39810    39700    39533    39629 
   39764    39771    39665    39503    39595    39841    39779    39525 
   39533    39752    39800    39673    39580    39591    39683    39702 
   39634    39695    39749    39621    39622    39738    39656    39595 
   39703    39749    39706    39595    39507    39640    39793    39688 
   39572    39677    39717    39576    39619    39843    39798    39568 
   39567    39685    39729    39722    39598    39465    39626    39872 
   39752    39517    39602    39772    39739    39661    39637    39568 
   39544    39708    39829    39699    39569    39641    39758    39692 
   39569    39642    39741    39702    39648    39611    39591    39615 
   39637    39657    39667    39653    39664    39661    39650    39653 
   39641    39690    39756    39681    39588    39652    39711    39634 
   39652    39776    39669    39537    39771    39880    39563    39418 
   39619    39748    39731    39711    39656    39630    39753    39787 
   39619    39559    39646    39738    39808    39731    39549    39533 
   39694    39772    39668    39626    39702    39672    39623    39706 
   39754    39631    39513    39596    39742    39730    39619    39582 
   39663    39777    39746    39575    39561    39690    39687    39636 
   39681    39702    39599    39557    39752    39819    39594    39550 
   39707    39748    39742    39650    39480    39536    39741    39783 
   39669    39615    39695    39679    39559    39658    39827    39725 
   39575    39665    39837    39772    39529    39517    39735    39781 
   39687    39704    39714    39640    39633    39649    39604    39625 
   39707    39652    39557    39642    39717    39649    39673    39748 
   39698    39633    39610    39677    39784    39722    39598    39594 
   39618    39607    39637    39694    39698    39685    39658    39638 
   39717    39730    39618    39613    39660    39667    39692    39650 
   39622    39688    39661    39618    39680    39677    39675    39745 
   39698    39600    39637    39746    39764    39664    39613    39638 
   39637    39663    39726    39640    39521    39645    39819    39769 
   39592    39533    39669    39734    39652    39665    39699    39622 
   39614    39642    39618    39660    39729    39725    39657    39579 
   39611    39656    39634    39676    39738    39702    39567    39495 
   39630    39777    39729    39641    39694    39739    39634    39575 
   39699    39749    39627    39561    39623    39727    39738    39660 
   39652    39623    39555    39671    39784    39684    39637    39691 
   39676    39681    39677    39584    39625    39785    39779    39694 
   39676    39611    39572    39609    39637    39677    39673    39622 
   39602    39622    39717    39734    39591    39564    39771    39862 
   39652    39536    39715    39815    39677    39555    39577    39687 
   39769    39694    39561    39579    39690    39721    39675    39648 
   39653    39615    39599    39702    39764    39667    39548    39590 
   39761    39758    39600    39637    39718    39717    39773    39667 
   39487    39600    39758    39745    39715    39645    39607    39727 
   39703    39501    39548    39687    39631    39671    39761    39664 
   39563    39584    39723    39802    39642    39542    39667    39737 
   39680    39648    39702    39722    39595    39521    39630    39738 
   39735    39669    39617    39617    39677    39718    39676    39685 
   39739    39726    39694    39618    39573    39668    39710    39653 
   39658    39638    39582    39604    39610    39654    39807    39795 
   39625    39617    39766    39791    39583    39472    39640    39768 
   39734    39657    39557    39555    39707    39789    39630    39505 
   39650    39789    39702    39553    39559    39657    39681    39667 
   39660    39645    39665    39726    39704    39591    39642    39808 
   39754    39660    39748    39717    39598    39677    39754    39671 
   39603    39604    39671    39761    39727    39631    39609    39627 
   39645    39656    39734    39777    39669    39654    39699    39648 
   39718    39754    39549    39469    39650    39789    39718    39595 
   39650    39708    39595    39567    39738    39826    39685    39564 
   39598    39646    39665    39656    39652    39685    39679    39688 
   39710    39645    39623    39664    39613    39550    39631    39762 
   39750    39631    39598    39722    39806    39669    39560    39609 
   39637    39712    39795    39687    39579    39588    39588    39650 
   39748    39684    39582    39596    39654    39691    39633    39572 
   39675    39712    39596    39575    39626    39665    39688    39668 
   39699    39806    39808    39675    39649    39719    39638    39582 
   39712    39799    39749    39631    39603    39690    39661    39627 
   39640    39568    39649    39795    39714    39617    39656    39703 
   39684    39669    39711    39683    39607    39644    39685    39622 
   39602    39677    39708    39695    39696    39683    39671    39637 
   39606    39644    39609    39544    39661    39783    39718    39603 
   39532    39529    39607    39669    39721    39764    39722    39688 
   39663    39583    39619    39750    39802    39811    39745    39588 
   39556    39611    39572    39556    39615    39626    39594    39600 
   39695    39766    39699    39599    39579    39695    39831    39807 
   39741    39727    39684    39590    39513    39572    39691    39645 
   39572    39637    39623    39553    39642    39757    39680    39526 
   39573    39783    39877    39804    39703    39664    39694    39739 
   39737    39699    39673    39696    39729    39696    39609    39490 
   39445    39565    39688    39710    39706    39660    39538    39495 
   39710    39945    39812    39604    39748    39819    39619    39633 
   39762    39649    39498    39522    39645    39707    39629    39567 
   39664    39687    39640    39804    39812    39495    39472    39768 
   39752    39487    39548    39795    39752    39594    39617    39725 
   39707    39621    39745    39864    39649    39541    39772    39856 
   39725    39673    39631    39567    39660    39765    39654    39509 
   39513    39576    39617    39692    39781    39750    39642    39569 
   39559    39626    39722    39717    39641    39703    39760    39579 
   39538    39710    39725    39761    39852    39708    39572    39658 
   39731    39679    39596    39568    39591    39610    39645    39679 
   39640    39534    39474    39572    39768    39814    39669    39650 
   39768    39700    39567    39638    39765    39760    39737    39735 
   39656    39563    39506    39575    39768    39718    39546    39627 
   39649    39569    39622    39595    39576    39700    39725    39673 
   39702    39750    39676    39550    39611    39756    39753    39698 
   39698    39696    39619    39536    39667    39815    39636    39447 
   39544    39660    39688    39734    39690    39576    39640    39752 
   39712    39656    39681    39692    39604    39577    39683    39665 
   39544    39515    39576    39692    39739    39685    39696    39753 
   39739    39664    39623    39656    39683    39729    39802    39727 
   39572    39591    39688    39699    39672    39657    39663    39568 
   39461    39579    39673    39571    39548    39681    39788    39739 
   39572    39522    39702    39825    39758    39738    39777    39722 
   39598    39563    39630    39700    39748    39672    39536    39575 
   39688    39748    39838    39811    39622    39540    39576    39587 
   39592    39637    39711    39719    39675    39677    39672    39679 
   39725    39704    39738    39802    39633    39505    39638    39704 
   39687    39654    39523    39479    39560    39619    39638    39615 
   39584    39607    39667    39692    39690    39679    39653    39658 
   39657    39687    39796    39746    39587    39660    39807    39708 
   39536    39596    39726    39634    39526    39646    39777    39792 
   39779    39760    39775    39742    39598    39582    39787    39891 
   39753    39587    39550    39637    39673    39646    39665    39680 
   39688    39627    39509    39534    39618    39671    39692    39625 
   39587    39556    39546    39731    39811    39600    39472    39540 
   39599    39613    39576    39482    39453    39559    39676    39687 
   39627    39557    39525    39544    39525    39590    39775    39752 
   39609    39610    39598    39619    39772    39835    39783    39766 
   39773    39761    39687    39492    39375    39553    39811    39841 
   39665    39499    39544    39769    39856    39731    39712    39799 
   39812    39845    39849    39648    39496    39646    39802    39804 
   39857    39872    39718    39592    39580    39584    39567    39552 
   39613    39621    39486    39488    39625    39640    39641    39733 
   39699    39565    39641    39776    39679    39688    39955    39937 
   39572    39329    39253    39318    39564    39684    39559    39480 
   39598    39745    39777    39841    40042    40082    39920    39872 
   39780    39573    39615    39839    40003    40022    39699    39243 
   39110    39343    39746    39807    39337    39017    39127    39390 
   39679    39852    39903    40038    40274    40374    40181    39964 
   39934    39842    39626    39529    39557    39413    39143    39256 
   39648    39729    39582    39550    39553    39399    39285    39522 
   39862    39893    39663    39492    39559    39699    39789    39904 
   40074    40153    39941    39633    39584    39606    39388    39264 
   39505    39644    39424    39100    39052    39548    40009    39949 
   39779    39694    39626    39614    39617    39617    39518    39394 
   39507    39706    39789    39737    39509    39522    39931    40027 
   39630    39348    39398    39579    39668    39476    39179    39367 
   40158    40691    40305    39629    39503    39652    39627    39667 
   39725    39538    39557    39928    39900    39546    39592    39768 
   39735    39712    39672    39633    39649    39646    39717    39742 
   39629    39615    39610    39559    39779    39904    39486    39174 
   39348    39424    39356    39618    40036    40215    40077    39711 
   39503    39580    39479    39336    39461    39482    39464    39631 
   39654    39552    39586    39706    39915    40120    39916    39452 
   39384    39598    39681    39862    40203    40265    39918    39698 
   39839    39830    39646    39653    39569    39290    39307    39591 
   39727    39721    39549    39320    39352    39418    39509    39934 
   40131    39842    39661    39579    39482    39669    39850    39673 
   39407    39310    39532    39995    40111    39592    39124    39428 
   40000    39934    39460    39259    39401    39641    39846    40007 
   39873    39316    38982    39299    39791    40019    39930    39760 
   39808    39775    39587    39746    39943    39715    39592    39880 
   40097    39934    39681    39692    39750    39510    39263    39436 
   39752    39710    39487    39429    39532    39723    39788    39580 
   39361    39452    39835    40189    40194    39829    39494    39483 
   39607    39754    39776    39471    39302    39563    39621    39328 
   39343    39614    39654    39668    39729    39573    39583    39918 
   39919    39532    39336    39426    39507    39523    39625    39615 
   39364    39364    39845    40265    40171    39874    39744    39684 
   39758    39883    39683    39542    39760    39745    39499    39592 
   39761    39584    39464    39762    39955    39621    39383    39588 
   39614    39452    39644    39887    39685    39444    39626    39854 
   39756    39611    39584    39668    39830    39779    39592    39544 
   39475    39372    39326    39399    39707    39920    39873    39800 
   39660    39576    39711    39829    39712    39487    39621    39914 
   39707    39437    39537    39629    39721    39858    39880    39938 
   39857    39529    39555    39879    39808    39474    39410    39671 
   39841    39764    39744    39650    39491    39679    39857    39636 
   39378    39275    39302    39511    39816    39954    39768    39522 
   39505    39611    39645    39683    39960    40146    39773    39395 
   39556    39830    39822    39595    39441    39495    39464    39430 
   39700    39879    39676    39376    39226    39460    39856    39811 
   39599    39710    39783    39702    39685    39580    39487    39673 
   39760    39491    39449    39749    39845    39876    39897    39579 
   39447    39717    39691    39544    39723    39849    39849    39850 
   39714    39580    39447    39275    39434    39779    39899    39961 
   39907    39619    39472    39487    39540    39714    39816    39721 
   39579    39694    39918    39575    39205    39669    40117    39938 
   39744    39671    39563    39521    39545    39730    39981    39958 
   39799    39706    39586    39467    39417    39502    39683    39680 
   39604    39721    39676    39409    39498    39850    39987    39968 
   39900    39718    39528    39463    39449    39378    39464    39704 
   39541    39287    39671    39991    39727    39579    39672    39707 
   39723    39710    39664    39622    39600    39544    39501    39640 
   39816    39856    39664    39368    39495    39830    39729    39567 
   39708    39796    39745    39718    39707    39731    39908    40068 
   39862    39580    39671    39788    39762    39800    39623    39403 
   39550    39710    39630    39445    39322    39482    39780    39826 
   39667    39642    39792    39891    39933    39919    39645    39382 
   39370    39272    39341    39775    39765    39406    39433    39472 
   39405    39610    39769    39738    39636    39521    39667    39837 
   39703    39565    39650    39918    40061    39853    39654    39683 
   39667    39553    39568    39658    39637    39600    39480    39270 
   39426    39784    39780    39753    40086    40212    39779    39438 
   39530    39634    39753    39982    39864    39479    39457    39756 
   39923    39753    39444    39478    39781    39856    39664    39461 
   39451    39622    39680    39541    39463    39607    39789    39717 
   39614    39688    39718    39738    39710    39621    39800    39912 
   39609    39507    39762    39745    39498    39371    39280    39370 
   39634    39618    39507    39673    39750    39617    39590    39532 
   39530    39876    39968    39730    39825    39887    39723    39857 
   39989    39807    39658    39478    39268    39380    39469    39436 
   39721    39825    39540    39496    39503    39518    39830    39937 
   39846    39825    39604    39498    39712    39721    39545    39631 
   39789    39781    39761    39641    39545    39780    39908    39738 
   39660    39638    39671    39733    39577    39555    39808    39803 
   39582    39487    39414    39479    39811    39931    39645    39474 
   39513    39460    39548    39739    39699    39723    39835    39746 
   39680    39652    39522    39501    39594    39688    39796    39897 
   40011    39911    39444    39206    39491    39742    39652    39447 
   39528    39754    39648    39513    39688    39858    39868    39853 
   39830    39685    39511    39507    39642    39789    39815    39726 
   39598    39374    39395    39865    39954    39453    39341    39733 
   39893    39738    39654    39658    39565    39545    39803    40108 
   40023    39640    39465    39560    39722    39762    39602    39521 
   39602    39719    39775    39559    39329    39514    39849    39920 
   39721    39471    39490    39657    39564    39442    39604    39695 
   39611    39715    39803    39615    39626    39837    39760    39572 
