Origin Time       2025/03/30 21:30:00
Lat.              38.535
Long.             142.295
Depth. (km)       44
Mag.              4.3
Station Code      IWTH21
Station Lat.      39.4734
Station Long.     141.9336
Station Height(m) 13
Record Time       2025/03/30 21:31:26
Sampling Freq(Hz) 100Hz
Duration Time(s)  120
Dir.              4
Scale Factor      7845(gal)/8223790
Max. Acc. (gal)   2.096
Last Correction   2025/03/30 21:31:26
Memo.             
[...]
   13165    13166    13163    13166    13169    13162    13157    13165 
   13167    13159    13162    13167    13161    13161    13170    13165 
   13154    13162    13167    13158    13161    13165    13154    13155 
   13166    13165    13163    13169    13173    13173    13170    13169 
   13173    13170    13155    13147    13147    13142    13135    13134 
   13131    13135    13150    13159    13169    13185    13196    13201 
   13209    13212    13194    13173    13150    13111    13080    13095 
   13134    13140    13143    13194    13254    13236    13188    13209 
   13242    13188    13140    13153    13142    13113    13099    13096 
   13123    13112    13097    13232    13340    13251    13217    13271 
   13166    13058    13088    13054    13069    13190    13140    13127 
   13354    13305    12985    13082    13333    13139    12997    13174 
   13189    13200    13385    13332    13200    13248    13134    12930 
   12950    12999    13062    13290    13321    13076    13078    13346 
   13448    13279    13089    13134    13219    13059    12906    13036 
   13166    13047    13070    13328    13323    13166    13213    13177 
   13058    13186    13190    12995    13279    13570    13113    12874 
   13311    13297    12764    12719    13142    13336    13246    13288 
   13417    13297    13201    13251    13001    12684    12838    13320 
   13586    13340    13186    13597    13599    12811    12532    13000 
   13036    12687    12915    13414    13421    13293    13312    13207 
   13109    13181    13304    13354    13223    13080    13250    13470 
   13135    12695    12981    13362    13144    12947    13076    13100 
   13041    13190    13339    13277    13255    13374    13535    13585 
   13176    12653    12727    12939    12837    12945    13338    13591 
   13612    13462    13147    12792    12835    13236    13171    12856 
   13239    13613    13186    13012    13354    13155    12750    12961 
   13263    13281    13320    13270    13209    13390    13288    12893 
   12931    13250    13324    13131    12972    13115    13285    13112 
   12961    13159    13297    13232    13201    13104    13073    13300 
   13289    13054    13180    13274    13028    13105    13378    13173 
   12982    13122    12972    12947    13423    13425    13030    13095 
   13290    13277    13186    12965    12868    13171    13427    13312 
   13240    13252    13153    13213    13185    12869    12897    13220 
   13294    13271    13301    12995    12567    12831    13432    13624 
   13582    13428    13190    13070    13050    12970    12841    12942 
   13111    13151    13366    13386    12912    12814    13412    13693 
   13348    13124    13046    12861    12888    13186    13417    13448 
   13371    13174    12945    12889    12999    13170    13263    13282 
   13239    13053    12978    13122    13296    13369    13219    13130 
   13292    13273    13050    13015    13011    12874    13019    13470 
   13597    13274    13068    13124    13061    12941    13113    13306 
   13182    13003    13027    13270    13474    13294    12999    12989 
   13166    13336    13243    12945    13119    13597    13459    12992 
   12923    12987    12788    12791    13352    13648    13297    13062 
   13081    13143    13348    13342    13174    13319    13163    12685 
   12970    13382    13115    13138    13354    12895    12596    13109 
   13587    13649    13583    13274    12899    12880    12942    12980 
   13231    13308    13146    13215    13254    13016    13035    13340 
   13359    13227    13279    13298    13219    13049    12887    12995 
   13058    12996    13088    13169    13285    13495    13591    13468 
   12973    12611    12976    13254    13058    13186    13320    12947 
   12950    13479    13660    13468    13127    12690    12753    13293 
   13420    13051    12795    13026    13463    13456    13176    13112 
   13116    13124    13308    13385    13012    12726    13074    13543 
   13483    13058    12837    13026    13350    13545    13490    13063 
   12591    12717    13166    13180    13020    13200    13481    13639 
   13470    13015    13015    13367    13166    12730    12934    13294 
   13135    12965    13051    13140    13289    13311    13096    13069 
   13243    13275    13308    13439    13340    13124    13070    12969 
   12920    13113    13258    13297    13284    13134    12907    12725 
   12870    13273    13437    13362    13262    13238    13375    13321 
   12966    13030    13510    13423    12949    12942    12997    12815 
   12947    13302    13443    13423    13248    12919    12973    13432 
   13493    13165    12950    12896    12977    13051    13066    13196 
   13335    13297    13312    13437    13281    13023    13088    13225 
   13313    13278    12793    12542    13073    13369    13132    13124 
   13294    13401    13512    13439    13186    13113    13086    12858 
   12897    13119    12977    12874    13095    13342    13524    13468 
   13149    13074    13356    13437    13290    13223    13089    12937 
   12833    12688    12838    13193    13331    13340    13263    13155 
   13311    13574    13373    12953    13063    13262    13036    12919 
   13072    13254    13369    13252    13045    12973    13072    13377 
   13559    13251    12934    13034    13063    12896    12962    13215 
   13417    13396    13116    12934    12989    13093    13254    13535 
   13637    13354    12960    12739    12881    13242    13288    13158 
   13304    13292    12843    12838    13398    13381    12892    12870 
   13213    13444    13342    13099    13144    13266    13142    13073 
   13078    13047    13378    13640    13232    12941    13046    12879 
   12756    13109    13374    13397    13419    13267    13136    13139 
   12907    12768    13169    13489    13308    13267    13409    13242 
   13101    13070    12798    12748    13144    13344    13300    13394 
   13400    13073    12808    13015    13347    13354    13255    13209 
   13127    13143    13178    13045    12974    13147    13332    13321 
   13296    13289    13046    12907    13077    13003    12877    13092 
   13181    13219    13437    13302    13108    13477    13632    13180 
   12907    12923    13026    13170    13041    12958    13180    13163 
   12942    13047    13373    13517    13493    13416    13309    13176 
   12946    12868    13092    13242    13223    13143    12942    12847 
   13058    13219    13122    13273    13602    13365    12995    13086 
   13155    13130    13185    13030    12901    13232    13589    13441 
   13109    13035    13143    13184    12976    12793    13082    13402 
   13193    12927    12991    13108    13286    13635    13792    13339 
   12613    12610    13311    13591    13294    13097    12978    12820 
   12872    13073    13304    13406    13224    13144    13277    13171 
   12999    13138    13339    13468    13486    13026    12627    13028 
   13344    13128    13162    13197    12954    13032    13154    13019 
   13196    13510    13452    13277    13122    13116    13398    13398 
   13084    13103    13243    13074    12815    12717    12857    13068 
   13146    13284    13402    13316    13377    13437    13111    13009 
   13354    13420    13238    13184    13004    12820    12910    12938 
   12991    13151    12928    12868    13504    13775    13439    13350 
   13242    12920    13053    13398    13309    13104    13127    13046 
   12865    12868    12896    12999    13240    13406    13578    13487 
   13020    12872    13081    13244    13437    13497    13181    12896 
   13012    13247    13352    13255    12911    12711    12885    13153 
   13269    13235    13190    13126    13143    13336    13390    13267 
   13289    13491    13481    13182    13122    13100    12703    12633 
   12996    12968    12880    13312    13518    13194    13104    13370 
   13506    13432    13331    13285    13325    13259    12874    12541 
   12613    12827    12989    13258    13510    13373    13115    13257 
   13544    13500    13300    13275    13167    12923    12951    13004 
   12872    12941    13111    13117    13165    13324    13262    13000 
   13147    13487    13251    13000    13306    13504    13296    13047 
   13054    13132    12965    12904    13063    13116    13186    13317 
   13244    13047    13120    13290    13180    13189    13281    13080 
   13153    13471    13379    13159    13088    13049    13236    13451 
   13327    13221    13124    12699    12507    12779    13063    13350 
   13587    13630    13571    13320    12964    12965    13238    13186 
   12856    12764    13054    13385    13332    13043    12931    12992 
   13072    13254    13576    13662    13298    12849    12710    12896 
   13097    13262    13435    13413    13385    13454    13251    12883 
   12738    12784    12837    12960    13242    13494    13348    12961 
   13035    13510    13749    13647    13343    13104    13130    13177 
   13066    12874    12661    12614    12947    13246    13100    13061 
   13259    13207    13234    13547    13591    13308    13097    13198 
   13462    13343    12934    12846    12996    13030    13009    13112 
   13279    13312    13190    13018    12866    12897    13306    13743 
   13610    13240    13117    13051    13020    13139    13298    13263 
   13008    13057    13316    13038    12661    12951    13320    13213 
   13074    13119    13215    13371    13419    13390    13412    13193 
   12920    12992    13122    13169    13246    13088    12722    12684 
   12962    13166    13333    13402    13316    13379    13528    13463 
   13122    12879    13046    13136    13031    13081    13111    13103 
   13180    13170    13159    13396    13563    13275    12969    12928 
   12982    13275    13549    13302    12893    12833    12995    13068 
   12938    12874    13246    13733    13686    13257    13039    13113 
   13265    13315    13312    13413    13313    12931    12860    13072 
   12995    12706    12509    12669    13342    13818    13524    12962 
   12741    12933    13286    13509    13595    13680    13547    13235 
   13252    13406    13216    13065    13265    13054    12297    12156 
   12673    12977    13104    13339    13693    13853    13462    13039 
   13123    13289    13269    13378    13450    13104    12877    13078 
   13053    12830    12961    13327    13500    13317    13169    13342 
   13343    12993    12961    13302    13306    13078    13120    13134 
   12924    12793    12719    12892    13404    13462    13086    13082 
   13289    13278    13242    13329    13297    13271    13375    13088 
   12698    12911    13296    13485    13586    13370    12858    12650 
   12942    13220    13346    13421    13227    13112    13356    13382 
   12973    12645    12807    13234    13568    13610    13234    13023 
   13333    13495    13358    13290    13081    12738    12698    12873 
   13009    13154    13113    12812    12775    13201    13471    13230 
   13112    13508    13717    13466    13247    13138    13192    13181 
   12706    12542    12970    13185    13261    13406    13404    13313 
   13161    13020    13047    13247    13527    13462    12823    12414 
   12853    13190    13089    13474    13803    13425    13254    13419 
   13363    13171    12928    12675    12777    13297    13521    13163 
   12922    13041    13212    13242    12945    12833    13306    13575 
   13473    13348    12829    12386    12916    13594    13431    13143 
   13288    13381    13425    13614    13610    13386    13154    12874 
   12748    12845    12856    12950    13208    13178    12938    12865 
   12904    13100    13425    13378    13011    12765    12658    13011 
   13689    13728    13311    13173    13057    12961    13215    13166 
   12795    13231    13821    13266    12753    13059    13099    13115 
   13500    13344    12914    13119    13703    13961    13525    12897 
   12775    12822    12823    13140    13501    13532    13312    12789 
   12251    12382    13068    13562    13494    13068    12887    13230 
   13593    13513    13325    13558    13860    13729    13482    13427 
   13242    12738    12437    12803    13247    12879    12129    12087 
   12537    12806    13082    13366    13437    13671    13996    13776 
   13390    13401    13246    12946    13126    13277    13166    13346 
   13478    13412    13655    13802    13243    12576    12515    12712 
   12860    12864    12479    12397    13194    14006    13913    13184 
   12799    13084    13396    13369    13198    13014    12961    13204 
   13560    13787    13941    13826    13127    12550    12776    12976 
   12441    11790    11811    12398    12850    12949    13077    13684 
   14627    14993    14530    14041    13926    13707    13231    12885 
   12694    12688    12555    11672    11038    11692    12745    13483 
   13861    13797    13752    13898    13637    13095    13055    13439 
   13618    13740    13894    13655    13041    12357    12459    13494 
   13626    12631    12298    12712    13076    13201    12829    12347 
   12664    13374    13848    14431    14369    13351    13154    13522 
   12858    12036    12094    12733    13772    14596    14191    12669 
   11400    11858    13857    15148    14454    13032    12388    12780 
   13324    13078    12344    11925    12151    12776    13124    13186 
   13711    14581    14678    13846    13018    12532    12414    12856 
   13656    14280    13805    12077    10966    11971    13787    14223 
   13321    12640    12722    13305    13995    14304    14316    13755 
   12509    12229    13151    13306    12609    12353    12561    12843 
   13205    13410    13317    13263    13558    14212    14534    13637 
   12060    11145    11677    13425    14683    14122    12777    12206 
   12663    13413    13663    13616    13857    14166    13990    13105 
   12015    11785    12565    13332    13626    13528    12935    12398 
   12467    12792    13036    13028    12887    13463    14690    14920 
   13699    12625    12904    13821    13871    13124    12618    12387 
   12442    12978    13166    12415    11607    12039    13775    15028 
   14384    12884    12239    12810    13759    14204    14041    13525 
   13027    12908    13281    13815    13594    12621    12121    12220 
   12375    12885    13622    14027    14079    13470    12237    11545 
   11839    12583    13489    14143    14337    14346    13883    13086 
   13104    13690    13494    12704    12452    12804    13038    12741 
   12021    11681    12356    13316    13825    14138    14289    13829 
   12955    12737    13377    13810    13437    12676    12363    12637 
   13019    13772    14754    14655    13311    12255    12283    12640 
   12762    12664    12545    12779    12892    12587    12789    13664 
   14530    14999    14820    14130    13201    12337    12212    12553 
   12417    12239    12422    12229    12159    13135    14265    14422 
   13817    13641    14141    14023    13138    12546    12602    13181 
   13544    13113    12800    12992    12816    12515    12675    12641 
   12592    13262    13473    12754    12807    13563    13621    13652 
   14382    14787    14227    13196    12604    12649    12467    12372 
   12978    13166    12799    12696    12575    12629    12924    12804 
   13007    13990    14515    14189    13643    13034    12372    11813 
   11931    13294    14751    14550    13259    12753    13200    13624 
   13779    13505    12536    11688    11959    13127    14154    13846 
   12525    12220    13065    13443    13485    13676    13370    13150 
   13860    14157    13477    13257    13269    12650    12366    12565 
   12521    12756    13325    13394    12962    12567    12717    13516 
   14291    14372    13639    12604    12248    12769    13197    13123 
   13224    13513    13591    13690    13251    12024    11641    12540 
   13294    13406    13327    13579    13921    13332    12744    13599 
   14401    14003    13381    12712    12206    12622    13058    12636 
   12471    13076    13428    13379    13335    13181    13292    13467 
   13120    13311    14103    13740    12627    12475    12999    13466 
   14033    14110    13305    12406    11847    11985    12788    13074 
   12823    13435    14527    14292    12993    12529    13225    13869 
   13732    13072    12640    12908    13289    13070    12653    12649 
   13065    13197    12753    12969    13783    13467    12490    12391 
   12880    13061    12999    13568    14694    14839    13660    12687 
   12935    13644    13446    12420    11851    12312    13049    13159 
   13008    13161    13279    13304    13378    13473    13787    13909 
   13294    12719    12972    13340    13095    12758    12938    13460 
   13612    12858    11978    12081    12916    13771    14315    14183 
   13181    12166    12480    13545    13927    13905    13628    13019 
   13086    13360    12529    11758    12507    13398    13020    12672 
   12835    12442    12819    14635    15342    14605    13767    12424 
   11699    13184    14386    13335    12379    12336    12140    12760 
   13582    13124    12916    13409    13352    13319    13598    13352 
   13009    13282    13595    13478    13356    13285    12776    12054 
   12052    12951    13826    14092    13787    13117    12825    13004 
   12803    12594    13238    14137    14404    13795    12718    12332 
   12999    13667    13398    12357    11716    12258    13230    13495 
   13250    13250    13231    13255    13830    14268    14040    13479 
   12846    12609    12831    12796    12653    12980    13462    13864 
   13598    12289    11848    13041    13686    13312    13035    12615 
   12422    13458    14411    13895    13173    13128    13038    12926 
   13354    13965    13780    13053    13197    13512    12376    11431 
   12413    13601    13752    13527    13009    12667    13219    13848 
   13888    13671    13219    12877    13019    13107    12941    12545 
   12079    12368    13163    13807    14277    14003    13363    13408 
   13412    12899    12814    12849    12576    12957    13385    12991 
   12856    12950    12896    13458    13837    13482    13559    13660 
   13180    13088    13105    12626    12494    12656    12563    12820 
   13329    13478    13770    14158    13882    13277    12935    12861 
   13149    13554    13467    13084    12754    12177    11915    12888 
   14058    14116    13643    13080    12532    12847    13440    13088 
   12603    12795    13080    13193    13485    13775    13628    13373 
   13370    13270    12953    12877    13193    13541    13576    13119 
   12492    12131    12060    12729    13860    14052    13698    13760 
   13459    12958    13177    13393    12958    12560    12883    13474 
   13348    12781    12845    13230    13062    12996    13572    13639 
   12865    12614    13216    13624    13571    13373    13154    13171 
   13143    12846    12945    13235    12816    12555    13296    13613 
   13126    13011    12915    12630    12954    13651    13992    13791 
   13437    13188    12748    12548    13166    13671    13324    12978 
   13140    13324    13328    13039    12568    12737    13500    13714 
   13188    12822    12835    12869    13254    13957    14021    13594 
