Origin Time       2025/03/30 21:30:00
Lat.              38.535
Long.             142.295
Depth. (km)       44
Mag.              4.3
Station Code      IWTH18
Station Lat.      39.4630
Station Long.     141.6775
Station Height(m) 552
Record Time       2025/03/30 21:31:28
Sampling Freq(Hz) 100Hz
Duration Time(s)  120
Dir.              6
Scale Factor      3920(gal)/6170801
Max. Acc. (gal)   1.032
Last Correction   2025/03/30 21:31:13
Memo.             
[...]
  -17224   -17322   -17082   -16974   -17017   -17061   -17157   -17040 
  -16825   -17000   -17342   -17470   -17400   -17096   -16805   -16983 
  -17258   -17029   -16694   -16927   -17497   -17592   -17173   -16878 
  -16723   -16786   -17181   -17119   -16862   -17301   -17648   -17456 
  -17364   -17085   -16456   -16338   -16811   -17275   -17679   -17740 
  -17251   -16933   -16965   -16914   -16975   -16971   -16579   -16825 
  -17803   -17798   -17063   -16922   -16700   -16431   -17068   -17509 
  -17062   -17174   -17869   -17626   -16928   -16827   -16443   -16199 
  -17354   -17944   -17085   -16993   -17376   -17208   -17259   -16669 
  -15713   -16602   -17718   -17619   -17981   -17651   -16512   -17048 
  -17223   -16063   -16518   -17606   -17439   -17259   -17386   -17172 
  -17004   -17124   -16945   -16684   -16914   -16933   -16977   -17895 
  -18050   -16722   -16174   -16884   -17405   -17436   -16967   -16483 
  -16994   -17621   -17422   -17280   -16989   -16331   -16779   -17518 
  -17112   -17112   -17485   -16919   -16824   -17259   -16804   -16747 
  -17558   -17445   -16789   -16969   -17272   -17199   -17287   -17085 
  -16582   -16782   -17274   -17433   -17418   -16955   -16738   -17272 
  -17312   -16865   -16787   -16938   -17198   -17454   -17533   -17216 
  -16699   -16766   -17050   -16985   -17168   -17442   -17101   -16867 
  -17262   -17201   -16812   -17122   -17318   -17093   -16945   -16554 
  -16783   -17632   -17496   -17157   -17162   -16664   -16784   -17485 
  -17146   -16846   -17375   -17207   -16786   -17300   -17365   -16692 
  -16872   -17457   -17255   -16608   -16665   -17612   -17709   -16911 
  -16843   -16898   -16929   -17616   -17519   -16544   -16618   -17326 
  -17246   -17049   -17235   -17000   -16773   -17178   -17398   -17216 
  -16919   -16784   -17314   -17412   -16806   -17140   -17407   -16737 
  -16881   -17335   -16968   -16790   -17136   -17453   -17329   -16815 
  -16711   -17105   -17383   -17404   -17094   -16556   -16511   -17444 
  -18137   -17220   -16475   -17219   -17148   -16444   -17180   -17539 
  -16854   -17110   -17466   -17122   -16948   -16699   -16724   -17254 
  -17387   -17221   -16890   -16829   -17406   -17328   -16945   -17124 
  -16987   -16918   -17077   -17142   -17500   -17218   -16667   -17141 
  -17493   -17091   -16649   -16617   -17164   -17514   -17145   -16885 
  -17155   -17075   -16654   -17030   -17573   -17399   -17053   -16642 
  -16838   -17750   -17599   -16765   -16691   -17039   -17390   -17184 
  -16651   -16890   -17211   -17238   -17574   -17213   -16371   -16853 
  -17466   -16940   -16986   -17394   -16985   -17077   -17510   -17134 
  -16978   -17265   -17132   -16782   -16647   -17056   -17566   -17310 
  -16994   -17080   -17034   -17097   -17105   -16939   -17020   -16967 
  -17158   -17501   -16819   -16615   -17442   -17289   -17107   -17339 
  -16687   -16628   -17296   -17392   -17428   -17226   -16977   -16928 
  -16493   -16808   -17639   -17354   -16860   -16930   -17180   -17454 
  -17164   -16682   -16746   -16920   -17267   -17641   -17274   -17042 
  -17408   -16982   -16358   -17032   -17559   -17067   -16998   -17293 
  -17215   -17091   -16852   -16683   -17038   -17252   -17144   -17127 
  -16982   -17265   -17669   -16846   -16452   -17365   -17377   -16912 
  -17116   -16993   -17002   -17481   -17152   -16632   -16931   -17061 
  -17087   -17560   -17262   -16619   -17127   -17488   -16856   -16824 
  -17315   -17007   -16851   -17496   -17345   -16692   -17142   -17494 
  -16775   -16617   -17195   -17352   -17415   -17203   -16490   -16828 
  -17715   -17176   -16540   -17068   -17338   -17210   -17238   -17127 
  -17100   -16994   -16806   -17068   -17403   -17373   -16875   -16589 
  -17233   -17472   -16839   -16812   -17273   -17200   -16961   -17150 
  -17270   -16974   -16852   -17083   -17286   -17278   -17043   -16885 
  -17159   -17430   -17086   -16650   -16738   -17057   -17536   -17696 
  -16978   -16657   -17236   -17301   -16846   -16859   -16993   -16895 
  -17350   -17781   -16891   -16425   -17417   -17599   -16986   -16852 
  -16627   -16939   -17816   -17619   -16935   -16650   -16605   -17083 
  -17286   -17086   -17301   -17097   -16894   -17408   -17242   -16791 
  -16852   -16863   -17321   -17574   -16927   -16887   -17225   -16977 
  -16970   -17107   -17023   -17217   -17192   -16920   -17043   -17056 
  -17134   -17360   -16940   -16977   -17531   -16955   -16691   -17429 
  -17284   -16989   -17054   -16586   -16831   -17507   -17190   -17089 
  -17379   -17079   -16854   -17028   -17085   -17033   -17251   -17355 
  -16930   -16942   -17282   -16943   -16912   -17434   -17182   -16683 
  -17088   -17564   -17143   -16708   -16944   -17114   -17045   -17150 
  -17268   -17158   -17086   -17186   -16992   -16785   -17032   -17192 
  -17328   -17352   -16810   -16727   -17154   -17250   -17519   -17350 
  -16465   -16570   -17215   -17309   -17478   -17168   -16537   -17058 
  -17689   -17238   -16645   -16664   -17184   -17437   -17158   -17011 
  -17072   -17215   -17296   -16998   -16762   -16947   -17206   -17250 
  -17141   -17049   -16903   -16960   -17260   -17117   -16843   -16993 
  -17260   -17600   -17536   -16866   -16699   -17031   -17163   -17412 
  -17353   -16644   -16587   -17265   -17436   -17188   -17029   -16869 
  -16856   -17233   -17230   -16573   -16853   -17618   -17212   -16935 
  -17231   -17120   -17154   -17103   -16799   -16979   -17147   -17199 
  -17310   -17107   -17146   -17211   -16728   -16691   -17077   -17024 
  -17102   -17543   -17514   -16938   -16505   -16745   -17504   -17575 
  -16707   -16575   -17407   -17794   -17438   -16823   -16692   -17196 
  -17269   -16904   -17010   -17284   -17189   -17074   -17179   -17052 
  -16794   -16961   -16975   -16904   -17457   -17365   -16809   -17386 
  -17434   -16623   -17023   -17342   -16838   -16959   -17109   -17182 
  -17315   -16846   -17046   -17579   -17004   -16652   -16832   -17101 
  -17538   -17139   -16859   -17345   -17078   -16989   -17425   -16961 
  -16766   -17236   -16922   -16677   -17338   -17598   -17116   -16840 
  -17001   -17149   -16904   -16751   -17263   -17557   -17173   -17018 
  -17110   -17054   -17237   -17483   -17128   -16634   -16820   -17110 
  -16962   -17040   -17272   -17205   -17145   -17054   -16955   -17002 
  -16983   -17115   -17205   -17011   -17105   -17242   -17230   -17334 
  -17105   -16856   -16820   -16675   -17160   -17795   -17292   -16711 
  -16986   -17189   -16973   -16852   -17114   -17411   -17116   -16917 
  -17394   -17421   -16960   -16792   -16772   -16980   -17200   -17200 
  -17484   -17575   -16827   -16260   -16846   -17660   -17383   -16742 
  -16929   -17243   -17215   -17209   -17045   -17167   -17548   -17072 
  -16347   -16643   -17297   -17278   -17075   -17231   -17156   -17036 
  -17275   -17071   -16794   -16956   -16865   -17153   -17681   -17277 
  -17012   -17168   -16847   -16893   -17206   -16871   -16932   -17579 
  -17377   -16759   -16894   -17164   -17012   -16902   -16919   -17076 
  -17433   -17325   -16911   -17051   -17168   -17080   -17365   -17232 
  -16829   -17157   -17210   -16734   -17079   -17612   -17154   -16638 
  -16837   -17089   -17149   -17222   -17107   -16931   -17079   -17321 
  -17255   -16985   -16844   -16967   -17141   -17171   -17265   -17262 
  -16848   -16810   -17292   -17184   -16950   -17124   -16779   -16687 
  -17467   -17570   -17070   -16929   -16961   -17255   -17343   -16787 
  -16705   -17326   -17519   -17326   -17331   -17056   -16640   -16881 
  -16993   -16654   -17046   -17504   -17133   -17142   -17462   -17098 
  -16879   -17129   -17032   -16997   -17244   -17048   -17082   -17578 
  -17200   -16708   -17024   -16822   -16664   -17482   -17470   -16624 
  -16766   -17295   -17332   -17382   -17211   -16758   -16816   -17141 
  -17195   -17122   -17029   -17222   -17435   -17128   -16894   -16819 
  -16685   -17003   -17385   -17427   -17287   -16892   -16834   -17164 
  -17115   -16999   -17061   -17014   -17104   -17358   -17385   -17004 
  -16743   -17176   -17481   -17040   -16743   -16911   -17105   -17409 
  -17550   -16940   -16497   -17052   -17232   -16818   -17228   -17485 
  -16865   -16891   -17263   -17283   -17451   -17192   -16680   -16691 
  -16907   -17302   -17383   -17157   -17302   -16839   -16545   -17463 
  -17384   -16768   -17067   -16985   -17171   -17672   -17115   -16872 
  -17018   -16648   -16994   -17448   -16995   -16982   -17369   -17103 
  -16894   -17139   -17091   -16956   -17026   -17017   -17226   -17349 
  -17100   -17173   -17182   -16853   -16924   -17129   -17081   -17166 
  -17354   -17138   -16877   -17234   -17359   -16826   -16711   -17052 
  -17145   -17147   -17284   -17231   -17056   -17021   -16894   -17060 
  -17476   -17188   -16729   -16707   -16802   -17298   -17630   -17035 
  -16718   -17254   -17303   -16743   -16819   -17268   -17259   -17217 
  -17284   -17160   -17024   -16872   -16957   -17410   -17154   -16599 
  -17168   -17409   -16655   -16849   -17395   -17112   -16982   -17013 
  -17049   -17485   -17520   -17000   -16749   -16947   -17543   -17584 
  -16699   -16633   -17166   -16826   -16646   -17252   -17561   -17191 
  -16947   -17267   -17321   -16995   -16955   -16961   -16894   -17167 
  -17552   -17404   -17183   -17362   -16966   -16318   -16674   -17328 
  -17221   -16692   -16985   -17730   -17324   -16884   -17008   -16530 
  -16915   -17810   -17096   -16705   -17288   -17194   -17225   -17410 
  -16916   -16579   -16803   -17225   -17428   -17218   -17142   -17350 
  -17255   -16807   -16549   -16618   -16896   -17297   -17416   -17357 
  -17406   -17208   -17035   -17248   -17177   -16788   -16914   -17267 
  -17006   -16836   -17407   -17605   -17058   -16747   -16799   -16686 
  -16530   -16882   -17468   -17666   -17645   -17263   -16688   -16704 
  -16773   -17025   -17701   -17250   -16762   -17539   -17588   -17156 
  -17048   -16300   -16255   -17231   -17326   -17140   -17560   -17383 
  -16917   -17457   -17428   -16249   -16202   -16879   -17315   -17891 
  -17572   -17097   -17472   -17238   -16720   -16701   -16592   -16831 
  -17521   -17650   -17131   -16997   -17221   -17000   -16866   -16805 
  -16467   -16801   -17377   -17429   -17489   -17208   -16799   -17193 
  -17348   -16814   -16817   -16990   -17123   -17737   -17578   -16822 
  -16785   -16890   -16957   -16910   -16818   -17312   -17383   -17111 
  -17373   -16983   -16562   -17196   -17233   -16789   -17140   -17503 
  -17446   -17264   -16934   -16619   -16727   -17131   -17110   -17113 
  -17340   -17090   -17103   -17360   -17201   -17144   -16953   -16825 
  -17147   -17076   -16940   -17267   -17521   -17505   -17082   -16602 
  -16740   -16996   -16851   -16896   -17455   -17587   -16915   -16839 
  -17425   -17228   -16728   -16712   -16859   -17384   -17806   -17281 
  -16717   -17055   -17493   -17046   -16397   -16470   -16936   -17399 
  -17494   -17270   -17231   -17006   -16799   -17073   -17196   -16975 
  -16682   -17048   -17801   -17240   -16630   -17403   -17496   -16811 
  -16752   -16665   -16734   -17386   -17648   -17429   -17186   -16919 
  -16715   -16819   -17304   -17404   -17024   -17110   -17317   -17329 
  -17370   -16783   -16416   -17230   -17493   -16949   -17033   -17213 
  -17066   -17155   -17026   -16506   -16762   -17532   -17218   -16778 
  -17317   -17347   -16776   -16882   -17338   -17266   -16912   -16873 
  -16839   -16998   -17561   -17342   -16576   -16790   -17243   -16774 
  -16808   -17616   -17274   -16704   -17117   -17155   -17029   -17224 
  -17149   -17089   -16945   -16867   -17178   -17234   -17291   -17526 
  -17341   -16985   -16776   -16983   -17381   -17077   -16986   -17681 
  -17568   -17085   -17264   -16985   -16664   -17284   -17558   -17061 
  -16876   -17085   -17291   -17440   -17245   -16767   -16701   -16990 
  -17249   -17423   -17141   -17022   -17441   -17205   -17003   -17363 
  -16859   -16784   -17752   -17246   -16177   -16637   -17343   -17605 
  -17412   -16293   -16051   -17257   -17255   -16527   -16898   -16991 
  -16874   -17271   -17020   -16841   -17225   -17103   -17050   -17233 
  -17073   -17069   -17022   -16739   -17117   -17560   -17031   -16684 
  -17007   -17104   -17198   -17153   -16862   -17328   -17741   -17176 
  -16903   -16940   -16881   -17647   -17970   -16949   -16850   -17437 
  -17110   -16756   -16431   -16387   -17339   -17705   -17241   -17070 
  -16938   -17094   -17460   -17321   -17068   -16886   -16812   -17223 
  -17646   -17598   -17420   -17156   -16782   -16830   -16700   -16105 
  -16623   -17320   -16891   -17323   -17986   -17116   -16553   -16723 
  -16561   -16965   -17513   -17061   -17271   -18265   -17861   -17243 
  -17544   -16919   -15950   -16222   -17022   -17779   -18197   -17863 
  -16998   -16444   -16907   -16941   -15792   -15858   -17216   -17954 
  -18334   -17828   -16567   -16836   -17259   -16470   -16894   -17743 
  -17402   -17377   -17123   -16545   -17230   -17372   -16179   -15900 
  -16232   -16238   -16963   -18027   -18101   -17791   -17337   -16015 
  -15501   -16816   -17716   -17544   -17446   -17611   -17819   -17352 
  -16500   -16556   -17001   -17327   -17506   -16746   -16374   -17410 
  -17972   -17906   -17896   -17221   -16358   -16059   -16296   -17010 
  -17836   -18416   -18063   -16853   -16381   -16703   -16516   -16066 
  -16392   -17654   -18714   -18322   -17107   -16450   -16498   -16905 
  -17303   -17091   -16680   -16833   -16777   -16630   -17677   -18275 
  -17025   -16189   -16470   -16697   -17148   -17499   -17389   -17474 
  -17386   -17282   -17418   -16553   -15828   -16766   -17198   -16749 
  -17199   -17681   -17714   -17849   -17242   -16469   -16900   -17422 
  -17164   -17146   -17632   -17892   -17405   -16461   -16101   -16475 
  -16865   -16991   -16987   -17004   -16990   -17285   -17843   -17556 
  -16814   -16760   -16955   -17295   -17923   -17767   -16829   -16630 
  -17067   -16973   -16870   -17009   -16616   -16424   -17044   -17480 
  -17305   -17062   -16914   -16672   -16609   -16880   -17137   -17441 
  -17820   -17762   -17288   -17068   -17050   -16708   -16584   -17116 
  -17422   -17223   -17187   -17272   -17071   -17095   -17495   -16844 
  -15670   -16207   -17231   -17377   -17662   -17453   -16918   -17236 
  -17355   -17103   -17104   -17199   -17540   -17587   -17370   -17361 
  -16736   -16134   -16965   -17935   -17324   -16367   -16541   -16851 
  -17009   -17225   -16871   -16990   -17332   -16544   -16552   -17716 
  -17829   -17342   -17144   -16925   -16969   -17084   -17048   -17276 
  -17163   -16689   -17000   -17404   -17189   -17041   -16729   -16538 
  -16959   -17111   -17117   -17255   -17043   -17185   -17701   -17391 
  -16871   -17043   -16895   -16553   -17237   -17842   -17224   -16677 
  -17036   -17296   -17010   -17007   -16988   -16649   -17424   -18413 
  -17750   -16805   -16274   -16247   -17547   -18016   -17040   -17027 
  -17073   -16479   -16508   -16740   -17284   -17599   -16898   -17013 
  -17656   -17255   -16843   -16823   -17019   -17565   -17471   -16941 
  -17131   -17174   -16516   -16487   -17402   -17866   -17083   -16401 
  -16745   -16869   -16758   -17243   -17825   -18172   -17754   -16645 
  -16128   -16204   -16717   -17589   -17828   -17809   -17677   -16691 
  -16258   -16760   -16617   -16564   -17193   -17462   -17723   -17753 
  -17025   -17126   -17577   -16690   -16145   -16894   -17576   -17923 
  -17620   -16431   -16188   -17245   -17272   -16579   -16780   -16971 
  -16841   -17058   -17619   -17949   -17385   -16919   -16917   -16454 
  -16309   -16876   -17445   -17989   -18219   -17604   -16574   -16295 
  -16471   -16372   -17146   -18223   -17780   -17073   -17077   -16806 
  -16636   -17023   -17053   -16814   -17140   -17391   -17159   -17440 
  -17509   -16620   -16737   -17506   -17059   -16841   -17151   -16751 
  -16849   -17419   -17224   -17276   -17387   -16490   -16286   -17116 
  -17212   -17165   -17398   -16994   -16785   -17175   -17043   -16678 
  -17037   -17488   -17327   -17164   -17069   -16766   -17061   -17579 
  -17102   -16640   -16960   -17157   -17411   -17794   -17478   -16734 
  -16399   -16670   -16739   -16619   -17487   -18175   -17672   -17548 
  -17405   -16483   -16325   -16760   -16942   -17602   -18097   -17469 
  -16726   -16893   -17607   -17384   -16157   -15905   -16683   -17240 
  -17617   -17714   -17609   -17492   -16705   -16063   -16651   -17101 
  -17041   -17462   -17541   -17153   -17365   -17419   -16665   -16278 
  -16836   -17286   -17255   -17287   -17030   -16897   -17444   -17370 
  -16844   -16778   -16638   -16916   -17294   -16885   -17055   -17529 
  -17150   -17244   -17599   -16821   -16192   -16744   -17510   -18126 
  -18335   -17408   -16386   -16597   -17034   -16809   -16788   -17257 
  -17373   -17131   -17262   -17546   -17253   -16594   -16365   -16750 
  -17204   -17339   -17313   -17163   -16995   -17082   -16822   -16362 
  -16991   -17860   -17734   -17452   -17022   -16392   -16805   -17558 
  -17251   -16767   -16946   -17071   -16827   -16763   -16974   -17321 
  -17404   -16886   -16915   -17418   -17062   -16916   -17377   -17350 
  -17464   -17629   -16974   -16455   -16815   -17282   -16970   -16409 
  -16928   -17577   -17197   -17400   -17865   -16713   -15982   -16933 
  -17119   -16685   -17360   -18064   -17887   -17311   -16621   -16264 
  -16441   -17092   -17590   -17275   -17253   -17672   -17244   -16650 
  -16747   -17005   -16956   -16657   -16928   -17517   -17128   -16813 
  -17567   -17632   -16933   -16951   -16753   -16263   -17057   -17897 
  -17546   -17331   -17434   -17125   -16586   -16291   -16553   -17105 
  -17740   -18044   -17421   -16764   -16795   -16904   -17013   -17157 
  -17044   -16763   -16552   -17186   -18291   -17954   -16862   -16571 
  -16602   -16759   -16720   -16859   -18028   -18287   -16993   -16495 
  -17029   -17124   -16645   -16569   -16898   -16998   -17524   -18023 
  -17324   -16795   -16842   -16417   -16506   -17223   -17434   -17341 
  -17176   -17269   -17482   -16969   -16603   -16938   -16910   -16662 
  -16854   -17253   -17636   -17753   -17391   -16823   -16499   -16657 
  -17042   -17284   -17411   -17525   -17389   -16979   -16940   -17140 
  -16871   -16728   -17011   -17149   -17197   -17208   -17337   -17426 
  -16959   -16756   -17186   -17494   -17493   -16911   -16308   -16544 
  -16893   -17312   -17872   -17535   -16890   -16859   -16902   -16838 
  -16915   -17065   -17217   -17343   -17064   -16722   -17350   -17913 
  -17266   -16688   -16681   -16792   -17058   -17281   -17627   -17685 
  -17017   -16790   -16843   -16515   -16770   -16903   -16591   -17562 
  -18169   -16867   -16566   -17389   -17086   -16941   -17541   -17367 
  -16611   -16246   -16692   -17648   -18048   -17643   -17103   -16718 
  -16675   -16919   -16867   -16775   -17178   -17608   -17608   -17158 
  -16655   -16681   -17048   -17223   -17024   -16846   -17100   -17337 
  -17481   -17569   -16955   -16457   -16829   -17017   -17141   -17701 
  -17781   -17354   -17136   -16834   -16359   -16530   -17140   -17058 
  -16955   -17580   -17539   -17072   -17342   -17049   -16442   -16842 
