Origin Time       2025/03/30 21:30:00
Lat.              38.535
Long.             142.295
Depth. (km)       44
Mag.              4.3
Station Code      IWTH20
Station Lat.      39.3434
Station Long.     141.0473
Station Height(m) 106
Record Time       2025/03/30 21:31:18
Sampling Freq(Hz) 100Hz
Duration Time(s)  120
Dir.              6
Scale Factor      7845(gal)/8223790
Max. Acc. (gal)   0.790
Last Correction   2025/03/30 21:31:18
Memo.             
[...]
  -16584   -16522   -16686   -16900   -17058   -17142   -17128   -17037 
  -16929   -16949   -17057   -16987   -16829   -16771   -16737   -16811 
  -16978   -17022   -16970   -16834   -16649   -16592   -16575   -16586 
  -16777   -16919   -16858   -16798   -16753   -16690   -16748   -16891 
  -16945   -16892   -16787   -16684   -16688   -16841   -16992   -16988 
  -16889   -16792   -16781   -16892   -16907   -16744   -16610   -16578 
  -16644   -16769   -16839   -16910   -17010   -17030   -16972   -16827 
  -16695   -16769   -16899   -16926   -16957   -16939   -16839   -16773 
  -16700   -16638   -16692   -16799   -16900   -16915   -16822   -16800 
  -16800   -16748   -16819   -16895   -16846   -16888   -16931   -16773 
  -16630   -16636   -16680   -16798   -16977   -17026   -16900   -16771 
  -16735   -16750   -16744   -16788   -16939   -16991   -16862   -16771 
  -16764   -16780   -16825   -16808   -16706   -16695   -16784   -16815 
  -16816   -16821   -16833   -16918   -16976   -16970   -16961   -16846 
  -16740   -16799   -16838   -16794   -16822   -16918   -16960   -16833 
  -16611   -16599   -16830   -17004   -17026   -16954   -16744   -16567 
  -16690   -16899   -16888   -16783   -16738   -16734   -16773   -16819 
  -16850   -16895   -16941   -16964   -16887   -16762   -16814   -16883 
  -16781   -16795   -16899   -16812   -16764   -16833   -16754   -16687 
  -16816   -16907   -16872   -16865   -16906   -16853   -16723   -16725 
  -16838   -16858   -16815   -16841   -16924   -16954   -16841   -16710 
  -16676   -16638   -16645   -16815   -16945   -16877   -16811   -16891 
  -16985   -16949   -16838   -16735   -16657   -16708   -16879   -16957 
  -16918   -16849   -16792   -16775   -16757   -16781   -16873   -16889 
  -16872   -16858   -16764   -16767   -16837   -16765   -16772   -16889 
  -16903   -16922   -16947   -16839   -16727   -16760   -16877   -16899 
  -16775   -16699   -16798   -16883   -16811   -16729   -16704   -16706 
  -16811   -16933   -16942   -16935   -16916   -16804   -16708   -16733 
  -16839   -16951   -16949   -16845   -16803   -16768   -16718   -16830 
  -16918   -16757   -16646   -16757   -16876   -16910   -16906   -16896 
  -16860   -16772   -16749   -16839   -16922   -16950   -16949   -16896 
  -16775   -16679   -16698   -16691   -16596   -16626   -16796   -16937 
  -17019   -16984   -16831   -16798   -16893   -16889   -16810   -16787 
  -16822   -16848   -16791   -16707   -16745   -16839   -16842   -16830 
  -16883   -16912   -16880   -16808   -16740   -16756   -16821   -16848 
  -16880   -16908   -16846   -16789   -16838   -16869   -16848   -16862 
  -16872   -16848   -16833   -16806   -16794   -16803   -16794   -16804 
  -16848   -16872   -16827   -16729   -16683   -16726   -16773   -16789 
  -16780   -16787   -16841   -16848   -16800   -16852   -16977   -17034 
  -16997   -16912   -16833   -16783   -16757   -16735   -16692   -16696 
  -16789   -16834   -16794   -16704   -16592   -16688   -16939   -16991 
  -16933   -16946   -16885   -16839   -16962   -16999   -16848   -16702 
  -16594   -16583   -16744   -16910   -17005   -17047   -16938   -16758 
  -16754   -16879   -16900   -16796   -16695   -16686   -16767   -16860 
  -16907   -16906   -16825   -16733   -16787   -16896   -16950   -16999 
  -16947   -16837   -16858   -16862   -16749   -16702   -16696   -16681 
  -16767   -16856   -16827   -16795   -16791   -16714   -16665   -16772 
  -16869   -16879   -16937   -17001   -16978   -16922   -16884   -16865 
  -16773   -16661   -16730   -16826   -16831   -16881   -16819   -16605 
  -16611   -16803   -16888   -16934   -16976   -16906   -16808   -16761 
  -16731   -16742   -16775   -16777   -16776   -16718   -16698   -16945 
  -17162   -16977   -16715   -16649   -16627   -16698   -16904   -17022 
  -17016   -17003   -16919   -16777   -16750   -16868   -16941   -16829 
  -16683   -16633   -16622   -16729   -16888   -16888   -16864   -16888 
  -16825   -16800   -16864   -16888   -16926   -16926   -16794   -16675 
  -16661   -16694   -16750   -16823   -16879   -16891   -16893   -16912 
  -16880   -16811   -16785   -16826   -16903   -16924   -16899   -16891 
  -16854   -16837   -16862   -16792   -16715   -16735   -16706   -16671 
  -16694   -16653   -16713   -16978   -17162   -17115   -16949   -16815 
  -16787   -16775   -16726   -16754   -16870   -16893   -16795   -16757 
  -16775   -16703   -16661   -16745   -16765   -16756   -16892   -16977 
  -16873   -16785   -16833   -16949   -17001   -16911   -16756   -16664 
  -16719   -16876   -16981   -16987   -16923   -16815   -16752   -16781 
  -16816   -16819   -16868   -16947   -16931   -16838   -16826   -16849 
  -16785   -16757   -16849   -16915   -16862   -16746   -16679   -16737 
  -16857   -16960   -16997   -16879   -16722   -16708   -16737   -16775 
  -16852   -16845   -16750   -16664   -16606   -16594   -16630   -16753 
  -16957   -17043   -16960   -16884   -16853   -16841   -16812   -16702 
  -16636   -16691   -16729   -16767   -16873   -16892   -16776   -16757 
  -16897   -16951   -16914   -16968   -16947   -16764   -16741   -16850 
  -16785   -16684   -16704   -16750   -16814   -16877   -16907   -16916 
  -16889   -16891   -16914   -16834   -16737   -16749   -16796   -16852 
  -16911   -16880   -16802   -16839   -17001   -17055   -16919   -16846 
  -16856   -16784   -16749   -16795   -16803   -16834   -16879   -16880 
  -16911   -16943   -16902   -16842   -16841   -16825   -16704   -16598 
  -16630   -16764   -16907   -16954   -16902   -16818   -16741   -16769 
  -16883   -16939   -16939   -16869   -16791   -16875   -16864   -16565 
  -16474   -16744   -16864   -16769   -16765   -16792   -16752   -16783 
  -16891   -16922   -16885   -16888   -16918   -16915   -16861   -16785 
  -16772   -16826   -16857   -16776   -16664   -16700   -16822   -16887 
  -16927   -16918   -16789   -16667   -16681   -16779   -16841   -16823 
  -16785   -16825   -16845   -16812   -16902   -16995   -16893   -16834 
  -16945   -17007   -16954   -16823   -16646   -16594   -16642   -16656 
  -16725   -16849   -16835   -16726   -16762   -16933   -16992   -16956 
  -17007   -17018   -16883   -16772   -16744   -16769   -16810   -16799 
  -16810   -16846   -16777   -16669   -16707   -16857   -16922   -16881 
  -16885   -16902   -16794   -16722   -16823   -16830   -16675   -16641 
  -16677   -16710   -16976   -17226   -17108   -16953   -16911   -16726 
  -16613   -16761   -16842   -16803   -16815   -16758   -16700   -16823 
  -16934   -16887   -16825   -16825   -16875   -16920   -16900   -16877 
  -16839   -16696   -16603   -16727   -16896   -16927   -16887   -16822 
  -16734   -16696   -16760   -16896   -16973   -16931   -16893   -16904 
  -16904   -16870   -16858   -16885   -16845   -16727   -16665   -16673 
  -16729   -16802   -16819   -16814   -16835   -16842   -16839   -16877 
  -16935   -16937   -16876   -16838   -16816   -16785   -16781   -16819 
  -16897   -16935   -16821   -16684   -16669   -16633   -16578   -16702 
  -16875   -16814   -16621   -16545   -16626   -16835   -17068   -17088 
  -16957   -16931   -16974   -16974   -16924   -16804   -16654   -16590 
  -16690   -16865   -16915   -16875   -16902   -16941   -16919   -16888 
  -16872   -16823   -16698   -16587   -16671   -16884   -17035   -17073 
  -16950   -16771   -16703   -16673   -16715   -16915   -17037   -16984 
  -16889   -16795   -16784   -16911   -16984   -16854   -16673   -16654 
  -16802   -16919   -16833   -16659   -16653   -16839   -16995   -16960 
  -16835   -16764   -16700   -16652   -16735   -16885   -16930   -16877 
  -16776   -16671   -16691   -16825   -16916   -16927   -16914   -16883 
  -16815   -16752   -16753   -16798   -16787   -16687   -16649   -16788 
  -16942   -16908   -16753   -16737   -16876   -16943   -16911   -16834 
  -16688   -16636   -16745   -16806   -16816   -16919   -17018   -16999 
  -16899   -16800   -16826   -16991   -17086   -16914   -16680   -16708 
  -16775   -16687   -16754   -16915   -16843   -16702   -16695   -16692 
  -16695   -16911   -17173   -17128   -16951   -16895   -16814   -16730 
  -16727   -16725   -16806   -16910   -16848   -16764   -16783   -16792 
  -16730   -16664   -16735   -16857   -16800   -16715   -16802   -16872 
  -16807   -16769   -16812   -16868   -16999   -17126   -17039   -16875 
  -16812   -16788   -16810   -16816   -16741   -16753   -16837   -16804 
  -16698   -16607   -16598   -16742   -16864   -16783   -16710   -16814 
  -16924   -16964   -17007   -16995   -16919   -16853   -16780   -16694 
  -16649   -16714   -16833   -16839   -16776   -16833   -16974   -16980 
  -16845   -16769   -16779   -16756   -16784   -16926   -16999   -16907 
  -16764   -16700   -16756   -16814   -16829   -16888   -16912   -16875 
  -16822   -16731   -16771   -16951   -17007   -16958   -16868   -16675 
  -16590   -16694   -16796   -16868   -16870   -16819   -16868   -16906 
  -16846   -16858   -16897   -16864   -16830   -16827   -16796   -16707 
  -16717   -16911   -16996   -16911   -16869   -16757   -16607   -16691 
  -16825   -16796   -16775   -16764   -16700   -16752   -16930   -17038 
  -17012   -16927   -16819   -16754   -16825   -16899   -16839   -16814 
  -16869   -16861   -16814   -16735   -16605   -16594   -16765   -16838 
  -16687   -16627   -16788   -16877   -16839   -16862   -16927   -16945 
  -16923   -16870   -16821   -16852   -16906   -16837   -16737   -16772 
  -16802   -16771   -16858   -16953   -16876   -16821   -16870   -16891 
  -16893   -16888   -16845   -16858   -16830   -16677   -16700   -16892 
  -16902   -16857   -16973   -17000   -16848   -16785   -16807   -16785 
  -16825   -16834   -16746   -16779   -16860   -16825   -16821   -16858 
  -16791   -16667   -16671   -16804   -16858   -16835   -16857   -16811 
  -16696   -16691   -16795   -16896   -16891   -16779   -16737   -16808 
  -16839   -16796   -16765   -16803   -16857   -16815   -16711   -16700 
  -16841   -17008   -17042   -16923   -16737   -16660   -16798   -16912 
  -16873   -16843   -16818   -16794   -16854   -16877   -16838   -16850 
  -16873   -16873   -16845   -16794   -16799   -16833   -16788   -16725 
  -16740   -16816   -16895   -16848   -16704   -16761   -16931   -16922 
  -16915   -16983   -16912   -16835   -16839   -16768   -16673   -16645 
  -16694   -16791   -16794   -16753   -16837   -16926   -16926   -16881 
  -16754   -16665   -16727   -16810   -16864   -16923   -16958   -16954 
  -16896   -16854   -16845   -16785   -16792   -16857   -16762   -16641 
  -16734   -16900   -16935   -16850   -16781   -16777   -16742   -16725 
  -16835   -16888   -16803   -16821   -16949   -16941   -16842   -16881 
  -16930   -16825   -16757   -16800   -16810   -16826   -16861   -16819 
  -16718   -16638   -16713   -16883   -16893   -16830   -16853   -16822 
  -16740   -16776   -16895   -16907   -16821   -16830   -16816   -16637 
  -16619   -16818   -16896   -16911   -16950   -16838   -16715   -16762 
  -16827   -16846   -16850   -16806   -16741   -16746   -16892   -17070 
  -17068   -16906   -16764   -16719   -16777   -16923   -16980   -16853 
  -16792   -16856   -16865   -16926   -17032   -16996   -16895   -16799 
  -16680   -16594   -16556   -16618   -16711   -16708   -16771   -16964 
  -17054   -16953   -16825   -16818   -16848   -16771   -16707   -16815 
  -16957   -16939   -16854   -16835   -16795   -16691   -16663   -16713 
  -16740   -16740   -16746   -16721   -16677   -16730   -16834   -16891 
  -16969   -17007   -16929   -16870   -16870   -16872   -16845   -16818 
  -16852   -16811   -16663   -16710   -16907   -16927   -16854   -16880 
  -16915   -16880   -16807   -16749   -16744   -16784   -16853   -16889 
  -16856   -16784   -16734   -16767   -16850   -16938   -16953   -16800 
  -16657   -16708   -16806   -16842   -16869   -16869   -16848   -16870 
  -16903   -16843   -16740   -16749   -16808   -16788   -16794   -16822 
  -16758   -16742   -16852   -16920   -16939   -16974   -16933   -16827 
  -16775   -16740   -16692   -16699   -16729   -16711   -16733   -16841 
  -16926   -16962   -17024   -17078   -17030   -16923   -16897   -16875 
  -16761   -16714   -16761   -16746   -16667   -16630   -16707   -16853 
  -16954   -16956   -16911   -16881   -16881   -16927   -16972   -16938 
  -16891   -16862   -16767   -16677   -16734   -16814   -16792   -16796 
  -16891   -16903   -16831   -16857   -16846   -16687   -16633   -16623 
  -16480   -16499   -16733   -16937   -17115   -17181   -17070   -16980 
  -16945   -16858   -16748   -16661   -16542   -16406   -16438   -16633 
  -16837   -17062   -17167   -16997   -16831   -16908   -17042   -16972 
  -16648   -16372   -16416   -16569   -16629   -16764   -16970   -16984 
  -16835   -16850   -17147   -17435   -17455   -17293   -17026   -16694 
  -16517   -16618   -16754   -16634   -16443   -16553   -16849   -17004 
  -16981   -16869   -16729   -16606   -16594   -16789   -17050   -17093 
  -16877   -16626   -16536   -16602   -16686   -16753   -16914   -17054 
  -16996   -16838   -16694   -16671   -16772   -16726   -16561   -16556 
  -16686   -16873   -17028   -16976   -16825   -16858   -17069   -17248 
  -17290   -17207   -16930   -16548   -16416   -16490   -16475   -16503 
  -16690   -16889   -17142   -17361   -17231   -16877   -16730   -16822 
  -16877   -16816   -16838   -17024   -17159   -17073   -16854   -16642 
  -16519   -16591   -16823   -16969   -16946   -16960   -17005   -16848 
  -16519   -16254   -16241   -16572   -16931   -17000   -16995   -17082 
  -17138   -17154   -17138   -17018   -16781   -16506   -16364   -16497 
  -16866   -17271   -17473   -17359   -16943   -16390   -15996   -16000 
  -16360   -16698   -16741   -16665   -16646   -16637   -16684   -16900 
  -17215   -17402   -17323   -17082   -16808   -16499   -16312   -16376 
  -16468   -16565   -16866   -17154   -17288   -17408   -17385   -17101 
  -16687   -16362   -16425   -16764   -16941   -17010   -17126   -17113 
  -17064   -17165   -17181   -16961   -16745   -16684   -16718   -16767 
  -16807   -16912   -17065   -17097   -16962   -16750   -16542   -16409 
  -16393   -16505   -16722   -16950   -16972   -16785   -16707   -16807 
  -16903   -16942   -16949   -16964   -16951   -16825   -16667   -16555 
  -16486   -16553   -16779   -17041   -17134   -16953   -16638   -16428 
  -16501   -16749   -16883   -16942   -16983   -16906   -16883   -16999 
  -17014   -16864   -16700   -16664   -16764   -16819   -16783   -16807 
  -16783   -16606   -16521   -16660   -16900   -17035   -16918   -16680 
  -16480   -16395   -16564   -16873   -17092   -17300   -17491   -17470 
  -17263   -16927   -16529   -16312   -16303   -16393   -16586   -16811 
  -16991   -17165   -17348   -17429   -17300   -17057   -16825   -16567 
  -16335   -16293   -16417   -16556   -16653   -16741   -16823   -16822 
  -16756   -16803   -16976   -17127   -17207   -17190   -17086   -16964 
  -16781   -16546   -16406   -16395   -16465   -16596   -16806   -17142 
  -17450   -17447   -17182   -16895   -16714   -16721   -16831   -16887 
  -16876   -16833   -16748   -16637   -16633   -16833   -17042   -17019 
  -16783   -16564   -16534   -16650   -16808   -16934   -16974   -16981 
  -16969   -16830   -16691   -16811   -17104   -17235   -17064   -16807 
  -16711   -16722   -16806   -16995   -17007   -16742   -16664   -16816 
  -16710   -16360   -16197   -16343   -16638   -16895   -17001   -16951 
  -16837   -16825   -16922   -16885   -16718   -16665   -16748   -16983 
  -17329   -17386   -17051   -16699   -16479   -16372   -16503   -16773 
  -16872   -16834   -16850   -16819   -16713   -16699   -16733   -16788 
  -16915   -16916   -16779   -16767   -16821   -16816   -16804   -16756 
  -16679   -16553   -16447   -16617   -16920   -17020   -17004   -16961 
  -16837   -16833   -17008   -17038   -16906   -16862   -16831   -16756 
  -16742   -16772   -16822   -16899   -16961   -16978   -16900   -16848 
  -17026   -17185   -17045   -16865   -16804   -16744   -16744   -16839 
  -16991   -17134   -17103   -16929   -16825   -16833   -16884   -16942 
  -17001   -16980   -16879   -16841   -16861   -16825   -16703   -16650 
  -16822   -16981   -16846   -16584   -16471   -16583   -16744   -16696 
  -16533   -16499   -16607   -16764   -16861   -16758   -16538   -16533 
  -16811   -17091   -17153   -17030   -16930   -16914   -16796   -16626 
  -16609   -16664   -16741   -16857   -16776   -16536   -16541   -16831 
  -17142   -17289   -17244   -17108   -16933   -16781   -16783   -16845 
  -16800   -16733   -16726   -16672   -16551   -16513   -16598   -16698 
  -16752   -16752   -16777   -16930   -17105   -17215   -17302   -17230 
  -16929   -16669   -16626   -16758   -16949   -16962   -16780   -16696 
  -16773   -16831   -16861   -16875   -16791   -16644   -16532   -16452 
  -16364   -16384   -16602   -16821   -16931   -17058   -17170   -17169 
  -17091   -17010   -16951   -16858   -16745   -16772   -16908   -16947 
  -16830   -16660   -16514   -16371   -16336   -16590   -16933   -17093 
  -17166   -17181   -17024   -16800   -16691   -16744   -16930   -17128 
  -17158   -17064   -17005   -16939   -16854   -16906   -17035   -16970 
  -16748   -16668   -16734   -16749   -16725   -16695   -16661   -16745 
  -16918   -17030   -17082   -17035   -16822   -16646   -16661   -16677 
  -16626   -16706   -16895   -16964   -16910   -16864   -16837   -16753 
  -16626   -16567   -16564   -16549   -16618   -16781   -16866   -16846 
  -16833   -16854   -16906   -16978   -16983   -16904   -16868   -16880 
  -16845   -16799   -16839   -16953   -16985   -16891   -16823   -16831 
  -16845   -16877   -16887   -16841   -16831   -16815   -16775   -16791 
  -16814   -16845   -16849   -16718   -16623   -16683   -16737   -16777 
  -16823   -16843   -16902   -16973   -17011   -17026   -16931   -16761 
  -16702   -16713   -16696   -16696   -16719   -16806   -16918   -16908 
  -16822   -16788   -16810   -16853   -16861   -16891   -17022   -17091 
  -16961   -16768   -16667   -16645   -16617   -16599   -16600   -16572 
  -16561   -16534   -16436   -16382   -16472   -16754   -17155   -17373 
  -17277   -17095   -16973   -16873   -16811   -16780   -16744   -16754 
  -16791   -16717   -16555   -16502   -16634   -16825   -16922   -16893 
  -16825   -16794   -16798   -16870   -16989   -16980   -16889   -16930 
  -17045   -17126   -17213   -17305   -17351   -17285   -17061   -16831 
  -16737   -16683   -16619   -16606   -16584   -16505   -16484   -16565 
  -16665   -16757   -16810   -16823   -16923   -17134   -17284   -17246 
  -17095   -16939   -16784   -16703   -16802   -16911   -16860   -16788 
  -16772   -16748   -16731   -16702   -16664   -16723   -16811   -16789 
  -16708   -16663   -16680   -16808   -16953   -16966   -16950   -16980 
  -16927   -16830   -16765   -16633   -16486   -16471   -16565   -16719 
  -16899   -16999   -16969   -16881   -16804   -16772   -16810   -16889 
  -16946   -16993   -17016   -16995   -17030   -17080   -16973   -16741 
  -16509   -16409   -16519   -16673   -16735   -16761   -16750   -16792 
  -16969   -17076   -17022   -16993   -17024   -17027   -17005   -16972 
  -16864   -16704   -16572   -16441   -16398   -16522   -16564   -16518 
  -16642   -16727   -16633   -16649   -16783   -16873   -17011   -17163 
  -17108   -16858   -16708   -16791   -16877   -16839   -16818   -16821 
  -16777   -16764   -16811   -16916   -17072   -17165   -17109   -16930 
  -16764   -16729   -16814   -17011   -17247   -17298   -17092   -16849 
