Origin Time       2025/03/30 21:30:00
Lat.              38.535
Long.             142.295
Depth. (km)       44
Mag.              4.3
Station Code      IWTH20
Station Lat.      39.3434
Station Long.     141.0473
Station Height(m) -50.2
Record Time       2025/03/30 21:31:18
Sampling Freq(Hz) 100Hz
Duration Time(s)  120
Dir.              3
Scale Factor      2942(gal)/8224139
Max. Acc. (gal)   0.612
Last Correction   2025/03/30 21:31:18
Memo.             
[...]
  113563   113539   113670   113918   114012   113833   113482   113189 
  113089   113136   113211   113286   113382   113451   113479   113406 
  113205   113138   113292   113482   113659   113706   113611   113675 
  113788   113582   113225   113049   113046   113184   113385   113451 
  113428   113444   113444   113427   113417   113337   113216   113201 
  113377   113494   113278   113094   113231   113333   113386   113620 
  113709   113471   113328   113429   113521   113602   113671   113539 
  113374   113454   113594   113528   113366   113319   113320   113293 
  113374   113503   113444   113269   113266   113482   113655   113605 
  113481   113463   113486   113427   113346   113393   113495   113475 
  113395   113414   113517   113601   113491   113243   113179   113321 
  113408   113364   113336   113421   113472   113395   113314   113242 
  113165   113175   113281   113508   113764   113680   113339   113248 
  113374   113382   113386   113487   113404   113138   113077   113329 
  113614   113645   113447   113282   113401   113819   114049   113701 
  113271   113221   113316   113428   113541   113449   113208   113053 
  113054   113231   113447   113509   113543   113605   113552   113533 
  113630   113580   113364   113174   113059   113119   113296   113320 
  113310   113443   113502   113443   113410   113404   113428   113495 
  113587   113714   113842   113854   113632   113306   113150   113128 
  113105   113148   113251   113316   113343   113359   113366   113374 
  113412   113543   113715   113776   113734   113687   113616   113510 
  113337   113121   113105   113294   113371   113391   113549   113661 
  113595   113472   113373   113325   113305   113281   113323   113406 
  113428   113460   113560   113603   113506   113351   113309   113420 
  113467   113382   113382   113458   113410   113391   113517   113512 
  113317   113221   113328   113475   113456   113281   113212   113275 
  113274   113238   113254   113305   113400   113499   113537   113549 
  113626   113714   113701   113637   113540   113301   113063   112985 
  112966   113081   113360   113462   113398   113525   113805   113941 
  113752   113414   113300   113362   113360   113336   113363   113368 
  113327   113341   113459   113506   113379   113308   113455   113652 
  113810   113967   113933   113584   113158   112945   113055   113294 
  113329   113206   113242   113466   113656   113647   113439   113250 
  113269   113436   113610   113690   113610   113436   113302   113211 
  113101   113031   112973   112949   113124   113378   113530   113679 
  113799   113751   113599   113416   113231   113260   113560   113726 
  113560   113405   113367   113202   113070   113220   113421   113498 
  113549   113568   113583   113710   113807   113679   113431   113308 
  113363   113381   113304   113344   113404   113286   113166   113200 
  113301   113454   113649   113676   113524   113505   113586   113397 
  113131   113252   113539   113589   113526   113512   113471   113398 
  113339   113317   113340   113329   113320   113435   113557   113601 
  113636   113576   113452   113410   113324   113177   113169   113265 
  113337   113402   113398   113262   113130   113205   113521   113728 
  113590   113499   113622   113606   113501   113506   113432   113329 
  113394   113433   113360   113332   113346   113343   113368   113433 
  113404   113259   113250   113498   113732   113679   113447   113324 
  113408   113482   113418   113406   113441   113336   113202   113208 
  113305   113352   113283   113273   113421   113553   113509   113275 
  113051   113128   113429   113606   113601   113566   113501   113463 
  113536   113537   113366   113224   113208   113254   113424   113686 
  113717   113447   113205   113228   113495   113718   113645   113485 
  113406   113355   113374   113358   113254   113271   113341   113324 
  113387   113525   113557   113553   113567   113552   113566   113412 
  113073   113065   113371   113516   113509   113479   113452   113475 
  113481   113579   113805   113795   113559   113451   113412   113358 
  113381   113292   113051   113084   113427   113553   113404   113433 
  113610   113638   113613   113628   113491   113208   113182   113454 
  113482   113262   113293   113436   113447   113559   113629   113405 
  113211   113294   113432   113394   113259   113159   113058   113088 
  113394   113674   113714   113724   113717   113583   113449   113382 
  113279   113179   113175   113148   113117   113275   113501   113557 
  113468   113387   113383   113377   113371   113448   113497   113386 
  113165   112986   113063   113337   113433   113394   113641   113935 
  113799   113566   113582   113576   113427   113314   113302   113292 
  113221   113188   113240   113346   113483   113549   113510   113514 
  113536   113429   113414   113617   113684   113524   113391   113317 
  113267   113346   113479   113439   113244   113212   113505   113830 
  113829   113609   113424   113286   113255   113409   113463   113238 
  113082   113235   113486   113607   113570   113508   113549   113649 
  113707   113719   113652   113436   113140   112999   113092   113123 
  112959   112957   113270   113589   113670   113622   113605   113548 
  113454   113556   113844   113922   113598   113170   112996   113015 
  113039   113192   113370   113287   113321   113730   113965   113800 
  113520   113233   113090   113185   113247   113204   113355   113629 
  113644   113521   113514   113422   113209   113248   113552   113706 
  113629   113466   113170   112924   113024   113285   113436   113513 
  113602   113706   113722   113594   113432   113302   113225   113236 
  113274   113319   113402   113433   113329   113231   113285   113390 
  113470   113648   113900   113929   113638   113368   113383   113455 
  113321   113182   113256   113360   113339   113312   113336   113260 
  113119   113179   113417   113570   113634   113698   113657   113436 
  113231   113229   113314   113408   113613   113822   113807   113571 
  113355   113310   113367   113408   113347   113236   113251   113319 
  113286   113267   113309   113340   113414   113630   113891   113896 
  113678   113591   113610   113483   113243   113007   112864   112959 
  113265   113514   113580   113524   113359   113179   113247   113562 
  113741   113647   113518   113417   113283   113224   113244   113260 
  113314   113414   113486   113556   113688   113749   113544   113227 
  113171   113350   113440   113409   113341   113219   113169   113275 
  113408   113541   113656   113568   113364   113378   113551   113544 
  113332   113184   113282   113467   113470   113329   113223   113201 
  113308   113528   113699   113795   113860   113757   113471   113259 
  113247   113312   113259   113117   113177   113408   113528   113603 
  113671   113607   113566   113559   113422   113390   113543   113506 
  113306   113274   113282   113108   112977   113101   113274   113393 
  113593   113768   113788   113741   113626   113409   113269   113362 
  113466   113328   113143   113158   113289   113440   113599   113655 
  113526   113373   113289   113201   113240   113432   113431   113319 
  113433   113522   113370   113394   113721   113837   113651   113556 
  113555   113444   113259   113103   113063   113131   113255   113433 
  113517   113435   113391   113447   113447   113391   113393   113495 
  113672   113736   113536   113350   113418   113452   113287   113208 
  113227   113089   112939   113131   113486   113506   113351   113467 
  113657   113675   113657   113632   113545   113525   113595   113584 
  113481   113435   113414   113312   113227   113244   113306   113389 
  113400   113252   113220   113464   113668   113562   113246   113155 
  113401   113466   113310   113417   113657   113691   113626   113556 
  113472   113391   113229   113127   113204   113263   113348   113499 
  113536   113529   113497   113381   113358   113452   113512   113478 
  113359   113224   113171   113271   113530   113726   113617   113398 
  113329   113294   113282   113414   113514   113400   113200   113178 
  113362   113467   113364   113250   113296   113497   113698   113764 
  113732   113665   113611   113653   113641   113368   113067   113027 
  113132   113296   113517   113530   113197   112922   113076   113404 
  113536   113557   113622   113675   113737   113842   113779   113498 
  113358   113456   113535   113543   113532   113432   113267   113171 
  113211   113248   113138   113105   113316   113464   113454   113522 
  113539   113279   113078   113231   113452   113552   113678   113721 
  113495   113211   113142   113270   113432   113522   113443   113244 
  113228   113393   113394   113320   113445   113595   113598   113576 
  113551   113463   113347   113304   113398   113481   113383   113269 
  113366   113613   113725   113548   113296   113235   113306   113348 
  113427   113549   113545   113487   113494   113413   113317   113393 
  113520   113640   113719   113620   113448   113404   113455   113439 
  113337   113254   113132   113016   113127   113337   113464   113567 
  113516   113314   113300   113402   113436   113575   113647   113460 
  113421   113582   113563   113391   113273   113309   113491   113566 
  113468   113414   113385   113362   113418   113363   113221   113228 
  113252   113275   113460   113609   113545   113443   113458   113563 
  113572   113475   113476   113463   113352   113395   113445   113247 
  113162   113404   113567   113436   113290   113408   113690   113814 
  113690   113489   113278   113112   113127   113304   113482   113541 
  113378   113125   113190   113506   113572   113412   113383   113559 
  113738   113676   113495   113424   113270   113049   113108   113316 
  113331   113298   113397   113470   113439   113409   113482   113624 
  113707   113724   113655   113487   113336   113247   113213   113219 
  113219   113275   113421   113583   113667   113532   113231   113130 
  113286   113329   113300   113439   113522   113522   113660   113707 
  113497   113324   113370   113472   113460   113351   113217   113128 
  113205   113410   113529   113522   113490   113439   113395   113447 
  113547   113521   113360   113209   113136   113146   113215   113289 
  113373   113494   113591   113578   113510   113522   113549   113456 
  113400   113491   113562   113552   113556   113566   113513   113379 
  113271   113329   113467   113400   113181   113182   113374   113514 
  113613   113679   113709   113722   113672   113601   113548   113427 
  113238   113078   112978   113040   113305   113478   113427   113432 
  113599   113701   113644   113460   113186   113054   113202   113371 
  113328   113215   113302   113521   113578   113491   113404   113305 
  113263   113308   113302   113286   113391   113479   113510   113699 
  113898   113748   113418   113282   113333   113386   113309   113132 
  113105   113319   113491   113563   113702   113737   113556   113427 
  113386   113266   113058   112887   112930   113196   113506   113764 
  113884   113730   113501   113549   113755   113788   113628   113337 
  113054   113032   113213   113348   113476   113625   113643   113641 
  113697   113570   113278   113039   113004   113206   113327   113144 
  112958   112953   113032   113285   113624   113759   113850   113977 
  113891   113761   113675   113370   112985   112754   112649   112720 
  112936   113224   113718   114284   114629   114716   114416   113796 
  113305   113081   113026   113070   113049   112945   112966   113225 
  113570   113751   113737   113659   113537   113413   113367   113341 
  113225   113017   112845   112833   112968   113132   113247   113417 
  113741   114106   114446   114640   114426   113805   113128   112730 
  112526   112299   112321   112866   113625   114195   114443   114280 
  113737   113169   112946   113111   113358   113331   113097   113124 
  113589   114058   114011   113490   112996   112814   112974   113402 
  113713   113668   113568   113593   113562   113455   113368   113283 
  113258   113437   113741   113833   113595   113279   113039   112865 
  112784   112742   112754   113049   113684   114285   114450   114241 
  113903   113478   113178   113341   113695   113857   114010   114043 
  113499   112707   112379   112536   112652   112525   112534   112918 
  113566   114328   114694   114309   113771   113606   113640   113709 
  113687   113466   113310   113223   112862   112487   112533   112864 
  113246   113552   113593   113354   113043   112963   113271   113553 
  113405   113146   113159   113381   113786   114358   114706   114493 
  113913   113335   112953   112935   113412   114012   114120   113737 
  113197   112710   112588   112895   113283   113544   113660   113717 
  113837   113995   114134   114075   113540   112868   112716   112947 
  113116   113212   113185   113050   113139   113371   113433   113503 
  113579   113323   113030   113209   113564   113481   113103   113077 
  113432   113532   113232   113125   113383   113599   113648   113516 
  113204   113005   112926   112737   112738   113157   113606   113818 
  113854   113776   113702   113737   113848   114004   114104   113987 
  113730   113451   113202   113147   113189   113120   113092   113229 
  113362   113327   113085   112800   112834   113236   113633   113813 
  113794   113641   113637   114050   114740   115126   114685   113710 
  113011   112853   112934   112978   112870   112695   112576   112494 
  112634   113181   113776   114122   114274   114127   113763   113601 
  113687   113757   113679   113424   113140   112976   112903   113008 
  113306   113517   113514   113401   113265   113239   113439   113722 
  113692   113162   112565   112453   112870   113487   114014   114276 
  114210   114008   113890   113791   113718   113690   113495   113278 
  113420   113668   113617   113348   113046   112878   112869   112811 
  112753   112949   113314   113517   113479   113362   113270   113216 
  113209   113325   113481   113409   113181   113084   113084   113109 
  113275   113443   113366   113275   113439   113580   113521   113562 
  113783   113806   113512   113348   113437   113215   112683   112634 
  113228   113795   113865   113540   113323   113567   113975   114106 
  113940   113684   113524   113493   113576   113719   113690   113416 
  113113   112868   112623   112511   112760   113184   113359   113363 
  113459   113536   113505   113494   113541   113613   113710   113853 
  114137   114440   114430   114211   114075   113934   113706   113406 
  113128   113042   112945   112706   112710   112962   113132   113274 
  113406   113454   113584   113834   114026   114106   114083   113900 
  113603   113501   113655   113529   112988   112681   112777   112827 
  112835   113080   113394   113599   113742   113679   113339   113039 
  113035   113266   113498   113568   113533   113537   113578   113535 
  113327   113070   112978   113000   113031   113184   113348   113227 
  112876   112680   112912   113367   113586   113474   113287   113281 
  113520   113718   113553   113107   112761   112831   113217   113490 
  113452   113393   113574   113744   113568   113132   112726   112596 
  112881   113416   113871   114241   114625   114767   114507   114149 
  113949   113844   113787   113849   113983   114111   114214   114156 
  113877   113543   113314   113289   113470   113674   113663   113444 
  113344   113520   113624   113413   113050   112654   112364   112449 
  112818   112990   112696   112348   112588   113289   113657   113378 
  112872   112635   112746   112942   113108   113251   113250   113355 
  113904   114434   114443   114223   114056   113837   113560   113344 
  113235   113219   113301   113522   113807   113933   113810   113651 
  113632   113651   113599   113395   113053   112915   113175   113540 
  113755   113830   113773   113659   113591   113378   112973   112770 
  112758   112545   112352   112707   113367   113645   113532   113475 
  113502   113472   113398   113152   112851   112963   113316   113329 
  113173   113273   113491   113633   113737   113744   113733   113925 
  114122   114160   114234   114204   113894   113643   113553   113352 
  113098   112984   112946   112973   113209   113513   113555   113381 
  113238   113165   113181   113263   113325   113418   113513   113459 
  113354   113389   113498   113530   113370   113094   113086   113378 
  113567   113564   113498   113385   113323   113358   113367   113364 
  113478   113661   113683   113421   113140   113181   113448   113663 
  113783   113832   113780   113697   113583   113355   113171   113186 
  113206   113044   112837   112854   113128   113413   113606   113745 
  113713   113509   113460   113637   113622   113313   113167   113331 
  113449   113348   113193   113142   113231   113463   113749   113852 
  113730   113649   113706   113680   113530   113382   113274   113327 
  113567   113686   113447   113061   112980   113255   113498   113529 
  113512   113526   113540   113490   113233   112881   112824   113182 
  113732   114120   114073   113771   113614   113664   113670   113508 
  113406   113452   113324   112988   112823   112966   113190   113333 
  113459   113636   113818   113872   113736   113559   113525   113536 
  113405   113220   113109   112969   112819   112828   112990   113100 
  113074   113177   113454   113545   113528   113667   113707   113479 
  113235   113174   113297   113454   113471   113337   113196   113173 
  113217   113236   113220   113206   113231   113266   113350   113566 
  113760   113710   113497   113348   113366   113498   113570   113474 
  113370   113475   113790   114010   113910   113640   113463   113489 
  113606   113576   113379   113209   113147   113171   113254   113360 
  113478   113567   113641   113771   113888   113888   113800   113630 
  113418   113336   113394   113344   113125   112963   113051   113319 
  113452   113382   113347   113343   113287   113332   113439   113363 
  113177   113124   113202   113275   113304   113352   113475   113602 
  113628   113544   113454   113499   113634   113652   113682   113884 
  113934   113699   113495   113358   113227   113300   113512   113541 
  113464   113539   113595   113324   112909   112723   112783   112949 
  113140   113279   113300   113221   113132   113062   113073   113281 
  113547   113624   113552   113510   113595   113814   113987   113983 
  113906   113759   113472   113205   113093   113104   113130   113055 
  112949   113013   113258   113456   113513   113524   113487   113374 
  113328   113413   113482   113503   113621   113832   113960   113987 
  113969   113768   113510   113602   113848   113833   113691   113514 
  113163   112833   112795   112915   112945   112957   113123   113320 
  113320   113282   113505   113883   114176   114259   114080   113822 
  113618   113408   113260   113205   113146   113031   112841   112735 
  112870   113097   113251   113346   113432   113478   113393   113227 
  113204   113378   113563   113616   113559   113479   113408   113350 
  113336   113420   113571   113567   113351   113254   113427   113594 
