Origin Time       2025/03/30 21:30:00
Lat.              38.535
Long.             142.295
Depth. (km)       44
Mag.              4.3
Station Code      IWTH17
Station Lat.      39.6442
Station Long.     141.5977
Station Height(m) 202
Record Time       2025/03/30 21:31:33
Sampling Freq(Hz) 100Hz
Duration Time(s)  120
Dir.              3
Scale Factor      2942(gal)/8224139
Max. Acc. (gal)   0.166
Last Correction   2025/03/30 21:31:33
Memo.             
[...]
  -82618   -82584   -82543   -82568   -82648   -82684   -82634   -82599 
  -82645   -82683   -82645   -82571   -82570   -82649   -82684   -82653 
  -82649   -82648   -82566   -82476   -82451   -82449   -82487   -82556 
  -82584   -82561   -82553   -82626   -82676   -82622   -82603   -82663 
  -82641   -82579   -82625   -82663   -82609   -82625   -82711   -82672 
  -82530   -82525   -82642   -82641   -82529   -82505   -82574   -82613 
  -82618   -82634   -82599   -82578   -82688   -82759   -82659   -82609 
  -82699   -82728   -82621   -82579   -82683   -82702   -82547   -82451 
  -82526   -82647   -82663   -82557   -82512   -82609   -82648   -82586 
  -82593   -82634   -82620   -82615   -82649   -82621   -82512   -82499 
  -82647   -82757   -82732   -82656   -82628   -82690   -82714   -82617 
  -82533   -82487   -82485   -82621   -82737   -82649   -82537   -82583 
  -82671   -82676   -82614   -82544   -82553   -82647   -82750   -82772 
  -82632   -82445   -82437   -82571   -82645   -82594   -82494   -82482 
  -82548   -82584   -82655   -82771   -82753   -82624   -82584   -82609 
  -82580   -82580   -82634   -82640   -82625   -82638   -82617   -82582 
  -82599   -82640   -82609   -82494   -82485   -82638   -82692   -82605 
  -82578   -82609   -82645   -82672   -82614   -82529   -82598   -82788 
  -82806   -82582   -82433   -82537   -82686   -82683   -82557   -82417 
  -82421   -82601   -82674   -82528   -82463   -82588   -82672   -82645 
  -82649   -82692   -82699   -82667   -82647   -82684   -82684   -82603 
  -82549   -82540   -82553   -82594   -82617   -82606   -82591   -82620 
  -82648   -82609   -82561   -82545   -82545   -82603   -82663   -82661 
  -82676   -82676   -82617   -82620   -82655   -82621   -82591   -82599 
  -82595   -82576   -82587   -82624   -82591   -82506   -82537   -82686 
  -82780   -82742   -82622   -82526   -82541   -82587   -82567   -82574 
  -82607   -82572   -82583   -82698   -82755   -82711   -82638   -82560 
  -82551   -82591   -82560   -82510   -82526   -82571   -82610   -82630 
  -82637   -82634   -82620   -82614   -82645   -82671   -82641   -82605 
  -82607   -82615   -82617   -82610   -82590   -82582   -82567   -82548 
  -82593   -82642   -82597   -82541   -82559   -82603   -82641   -82633 
  -82621   -82705   -82771   -82701   -82611   -82630   -82709   -82722 
  -82657   -82591   -82567   -82572   -82525   -82449   -82475   -82591 
  -82668   -82603   -82505   -82576   -82707   -82734   -82728   -82694 
  -82610   -82610   -82664   -82642   -82633   -82667   -82632   -82541 
  -82533   -82606   -82590   -82499   -82514   -82580   -82602   -82637 
  -82661   -82601   -82557   -82638   -82698   -82637   -82584   -82613 
  -82630   -82593   -82566   -82572   -82572   -82557   -82559   -82590 
  -82628   -82680   -82691   -82584   -82532   -82634   -82691   -82607 
  -82570   -82663   -82717   -82655   -82607   -82586   -82594   -82683 
  -82691   -82564   -82495   -82549   -82649   -82679   -82568   -82479 
  -82520   -82603   -82661   -82642   -82602   -82661   -82734   -82694 
  -82617   -82588   -82614   -82653   -82634   -82607   -82638   -82664 
  -82611   -82526   -82525   -82567   -82561   -82556   -82586   -82638 
  -82671   -82609   -82557   -82609   -82625   -82556   -82551   -82620 
  -82633   -82620   -82667   -82706   -82645   -82563   -82587   -82709 
  -82765   -82648   -82526   -82586   -82686   -82636   -82499   -82463 
  -82543   -82593   -82578   -82568   -82594   -82620   -82622   -82636 
  -82651   -82632   -82617   -82657   -82692   -82659   -82617   -82611 
  -82625   -82636   -82618   -82593   -82584   -82601   -82622   -82593 
  -82576   -82651   -82672   -82618   -82615   -82642   -82688   -82718 
  -82615   -82520   -82571   -82579   -82512   -82563   -82653   -82628 
  -82587   -82614   -82644   -82653   -82610   -82517   -82549   -82684 
  -82669   -82553   -82561   -82644   -82629   -82566   -82597   -82678 
  -82663   -82525   -82445   -82539   -82628   -82613   -82584   -82533 
  -82530   -82651   -82729   -82678   -82633   -82636   -82610   -82579 
  -82618   -82667   -82593   -82480   -82553   -82702   -82651   -82490 
  -82452   -82540   -82610   -82605   -82613   -82653   -82644   -82603 
  -82618   -82687   -82723   -82684   -82648   -82682   -82729   -82696 
  -82645   -82661   -82665   -82584   -82514   -82566   -82651   -82609 
  -82547   -82578   -82578   -82551   -82583   -82568   -82533   -82629 
  -82732   -82660   -82557   -82595   -82660   -82663   -82675   -82672 
  -82597   -82529   -82552   -82598   -82540   -82462   -82524   -82614 
  -82611   -82609   -82625   -82613   -82629   -82647   -82613   -82628 
  -82714   -82729   -82655   -82610   -82657   -82722   -82680   -82576 
  -82563   -82607   -82590   -82541   -82549   -82597   -82597   -82563 
  -82586   -82634   -82595   -82505   -82529   -82629   -82637   -82625 
  -82682   -82686   -82628   -82633   -82674   -82653   -82611   -82591 
  -82576   -82607   -82655   -82618   -82555   -82564   -82586   -82601 
  -82638   -82606   -82522   -82537   -82622   -82659   -82651   -82618 
  -82576   -82621   -82745   -82767   -82660   -82599   -82621   -82618 
  -82571   -82564   -82588   -82534   -82464   -82499   -82545   -82526 
  -82526   -82572   -82614   -82653   -82698   -82687   -82647   -82637 
  -82645   -82678   -82688   -82659   -82682   -82694   -82594   -82485 
  -82501   -82602   -82601   -82490   -82453   -82536   -82626   -82634 
  -82595   -82605   -82657   -82680   -82626   -82579   -82663   -82742 
  -82629   -82520   -82655   -82790   -82665   -82503   -82529   -82599 
  -82582   -82548   -82570   -82582   -82525   -82509   -82590   -82629 
  -82599   -82607   -82657   -82707   -82703   -82660   -82686   -82723 
  -82653   -82595   -82632   -82648   -82622   -82610   -82606   -82610 
  -82611   -82598   -82588   -82579   -82574   -82595   -82649   -82668 
  -82630   -82632   -82659   -82611   -82537   -82505   -82505   -82567 
  -82657   -82634   -82522   -82518   -82615   -82661   -82657   -82615 
  -82540   -82570   -82699   -82722   -82621   -82551   -82584   -82645 
  -82649   -82607   -82555   -82530   -82606   -82706   -82644   -82506 
  -82536   -82679   -82707   -82595   -82543   -82625   -82696   -82687 
  -82645   -82610   -82605   -82617   -82610   -82595   -82595   -82594 
  -82582   -82591   -82640   -82656   -82561   -82493   -82620   -82757 
  -82683   -82520   -82483   -82593   -82682   -82647   -82617   -82618 
  -82560   -82551   -82614   -82657   -82719   -82698   -82525   -82466 
  -82586   -82659   -82620   -82556   -82534   -82566   -82614   -82620 
  -82568   -82574   -82659   -82653   -82583   -82632   -82688   -82630 
  -82628   -82653   -82566   -82572   -82694   -82682   -82621   -82615 
  -82564   -82551   -82644   -82661   -82559   -82557   -82659   -82660 
  -82625   -82664   -82675   -82638   -82647   -82684   -82676   -82598 
  -82540   -82595   -82638   -82532   -82470   -82632   -82721   -82560 
  -82501   -82649   -82713   -82621   -82557   -82593   -82644   -82679 
  -82702   -82675   -82632   -82622   -82638   -82653   -82649   -82638 
  -82591   -82499   -82497   -82584   -82651   -82664   -82607   -82570 
  -82617   -82634   -82605   -82618   -82636   -82593   -82560   -82552 
  -82518   -82528   -82576   -82572   -82555   -82588   -82652   -82703 
  -82690   -82649   -82680   -82688   -82607   -82593   -82668   -82696 
  -82633   -82559   -82557   -82607   -82610   -82555   -82490   -82466 
  -82543   -82617   -82555   -82472   -82517   -82609   -82617   -82567 
  -82572   -82660   -82706   -82668   -82667   -82713   -82717   -82691 
  -82678   -82674   -82649   -82606   -82599   -82622   -82617   -82561 
  -82521   -82578   -82653   -82633   -82564   -82524   -82557   -82676 
  -82717   -82609   -82574   -82633   -82601   -82547   -82610   -82710 
  -82721   -82664   -82638   -82655   -82641   -82613   -82625   -82630 
  -82559   -82499   -82570   -82664   -82663   -82640   -82626   -82598 
  -82606   -82649   -82629   -82561   -82543   -82522   -82510   -82606 
  -82683   -82624   -82557   -82559   -82582   -82594   -82588   -82561 
  -82548   -82602   -82638   -82591   -82591   -82674   -82660   -82574 
  -82572   -82564   -82513   -82559   -82622   -82609   -82617   -82606 
  -82548   -82574   -82644   -82664   -82661   -82644   -82625   -82626 
  -82651   -82748   -82815   -82680   -82499   -82520   -82668   -82714 
  -82630   -82568   -82541   -82564   -82690   -82737   -82607   -82566 
  -82686   -82714   -82637   -82620   -82626   -82590   -82552   -82539 
  -82537   -82598   -82694   -82663   -82549   -82529   -82583   -82651 
  -82701   -82648   -82553   -82528   -82510   -82472   -82517   -82587 
  -82545   -82513   -82607   -82663   -82620   -82598   -82568   -82522 
  -82553   -82606   -82611   -82634   -82651   -82610   -82614   -82660 
  -82625   -82572   -82606   -82649   -82667   -82687   -82695   -82669 
  -82617   -82572   -82588   -82660   -82671   -82588   -82551   -82601 
  -82660   -82721   -82709   -82582   -82540   -82663   -82756   -82746 
  -82752   -82753   -82659   -82606   -82682   -82714   -82642   -82548 
  -82489   -82549   -82653   -82617   -82485   -82455   -82560   -82617 
  -82559   -82545   -82603   -82640   -82653   -82671   -82701   -82710 
  -82672   -82661   -82649   -82548   -82483   -82537   -82575   -82517 
  -82414   -82372   -82445   -82510   -82491   -82507   -82607   -82680 
  -82680   -82676   -82702   -82711   -82690   -82676   -82660   -82625 
  -82626   -82647   -82566   -82448   -82499   -82622   -82598   -82572 
  -82687   -82748   -82661   -82605   -82659   -82706   -82651   -82547 
  -82545   -82675   -82733   -82644   -82584   -82633   -82687   -82649 
  -82543   -82493   -82549   -82602   -82574   -82557   -82614   -82656 
  -82640   -82611   -82632   -82740   -82779   -82624   -82521   -82601 
  -82679   -82648   -82559   -82520   -82532   -82505   -82480   -82506 
  -82537   -82597   -82651   -82621   -82636   -82744   -82757   -82672 
  -82638   -82667   -82688   -82651   -82594   -82603   -82622   -82566 
  -82493   -82505   -82570   -82605   -82584   -82520   -82506   -82582 
  -82644   -82628   -82583   -82607   -82684   -82655   -82540   -82533 
  -82614   -82637   -82624   -82624   -82628   -82660   -82687   -82652 
  -82606   -82584   -82568   -82575   -82603   -82570   -82493   -82566 
  -82730   -82703   -82574   -82584   -82618   -82590   -82676   -82791 
  -82692   -82563   -82614   -82682   -82656   -82621   -82615   -82625 
  -82634   -82663   -82713   -82686   -82563   -82487   -82516   -82582 
  -82667   -82706   -82591   -82431   -82447   -82626   -82718   -82607 
  -82525   -82610   -82663   -82586   -82514   -82551   -82651   -82652 
  -82560   -82559   -82644   -82630   -82518   -82529   -82657   -82651 
  -82512   -82445   -82512   -82611   -82630   -82559   -82548   -82661 
  -82715   -82630   -82595   -82649   -82661   -82607   -82556   -82591 
  -82679   -82678   -82607   -82606   -82660   -82672   -82659   -82655 
  -82632   -82586   -82556   -82532   -82520   -82615   -82748   -82725 
  -82609   -82571   -82618   -82640   -82602   -82576   -82566   -82578 
  -82649   -82651   -82530   -82475   -82540   -82598   -82605   -82566 
  -82485   -82464   -82560   -82682   -82733   -82688   -82634   -82636 
  -82653   -82664   -82652   -82614   -82607   -82638   -82671   -82690 
  -82659   -82606   -82630   -82661   -82588   -82521   -82529   -82509 
  -82493   -82567   -82668   -82726   -82726   -82694   -82687   -82719 
  -82764   -82769   -82698   -82622   -82659   -82737   -82684   -82599 
  -82655   -82698   -82624   -82541   -82474   -82482   -82605   -82642 
  -82548   -82516   -82584   -82632   -82621   -82613   -82636   -82660 
  -82629   -82559   -82530   -82553   -82583   -82582   -82529   -82472 
  -82474   -82514   -82547   -82576   -82583   -82530   -82518   -82617 
  -82701   -82647   -82536   -82579   -82753   -82848   -82796   -82701 
  -82640   -82622   -82613   -82547   -82382   -82263   -82337   -82502 
  -82614   -82671   -82713   -82728   -82679   -82640   -82692   -82771 
  -82800   -82798   -82767   -82749   -82821   -82914   -82871   -82667 
  -82463   -82417   -82420   -82328   -82262   -82296   -82378   -82487 
  -82571   -82644   -82748   -82811   -82783   -82707   -82663   -82683 
  -82717   -82780   -82899   -82934   -82807   -82649   -82556   -82487 
  -82437   -82422   -82355   -82264   -82296   -82445   -82595   -82659 
  -82611   -82509   -82482   -82603   -82695   -82584   -82431   -82458 
  -82583   -82663   -82710   -82701   -82636   -82628   -82630   -82587 
  -82609   -82665   -82714   -82796   -82755   -82559   -82462   -82574 
  -82764   -82814   -82638   -82451   -82480   -82578   -82593   -82629 
  -82582   -82395   -82356   -82475   -82545   -82587   -82640   -82719 
  -82799   -82773   -82732   -82794   -82850   -82787   -82687   -82647 
  -82622   -82576   -82582   -82641   -82553   -82290   -82215   -82432 
  -82587   -82518   -82424   -82486   -82661   -82806   -82850   -82814 
  -82744   -82736   -82823   -82890   -82852   -82782   -82744   -82742 
  -82740   -82653   -82547   -82547   -82556   -82405   -82205   -82163 
  -82277   -82445   -82601   -82709   -82799   -82873   -82865   -82777 
  -82699   -82638   -82563   -82479   -82397   -82335   -82255   -82213 
  -82337   -82539   -82684   -82761   -82709   -82548   -82520   -82698 
  -82844   -82867   -82894   -82945   -82930   -82863   -82807   -82732 
  -82590   -82391   -82200   -82147   -82228   -82305   -82418   -82637 
  -82773   -82687   -82563   -82578   -82665   -82725   -82711   -82626 
  -82605   -82722   -82802   -82729   -82678   -82718   -82709   -82615 
  -82516   -82490   -82557   -82559   -82462   -82449   -82517   -82525 
  -82522   -82582   -82651   -82701   -82701   -82590   -82441   -82406 
  -82545   -82753   -82815   -82734   -82730   -82823   -82883   -82919 
  -82930   -82836   -82730   -82732   -82742   -82695   -82622   -82528 
  -82440   -82391   -82344   -82323   -82355   -82397   -82463   -82552 
  -82603   -82601   -82626   -82718   -82760   -82642   -82480   -82470 
  -82532   -82503   -82474   -82489   -82495   -82621   -82814   -82792 
  -82624   -82517   -82486   -82588   -82737   -82736   -82714   -82782 
  -82763   -82625   -82522   -82513   -82522   -82458   -82329   -82312 
  -82448   -82629   -82813   -82900   -82813   -82682   -82638   -82647 
  -82567   -82421   -82499   -82802   -82908   -82772   -82748   -82869 
  -82887   -82763   -82647   -82583   -82529   -82501   -82483   -82416 
  -82336   -82345   -82425   -82490   -82509   -82482   -82468   -82478 
  -82463   -82522   -82676   -82725   -82655   -82652   -82722   -82746 
  -82780   -82871   -82841   -82702   -82696   -82783   -82745   -82636 
  -82566   -82514   -82499   -82487   -82475   -82603   -82745   -82678 
  -82572   -82648   -82763   -82744   -82688   -82703   -82698   -82603 
  -82541   -82620   -82668   -82530   -82405   -82443   -82502   -82483 
  -82429   -82418   -82540   -82717   -82759   -82696   -82614   -82537 
  -82564   -82598   -82502   -82445   -82472   -82470   -82518   -82598 
  -82645   -82738   -82786   -82669   -82514   -82467   -82517   -82586 
  -82611   -82545   -82463   -82517   -82647   -82707   -82718   -82703 
  -82633   -82580   -82632   -82687   -82659   -82590   -82514   -82553 
  -82769   -82884   -82786   -82732   -82771   -82711   -82559   -82499 
  -82556   -82605   -82636   -82657   -82624   -82588   -82564   -82497 
  -82449   -82494   -82561   -82598   -82630   -82665   -82740   -82883 
  -82933   -82804   -82723   -82818   -82842   -82636   -82480   -82518 
  -82518   -82455   -82476   -82549   -82574   -82549   -82526   -82525 
  -82534   -82578   -82613   -82579   -82575   -82603   -82583   -82625 
  -82702   -82667   -82664   -82723   -82622   -82483   -82539   -82626 
  -82601   -82561   -82547   -82552   -82553   -82513   -82543   -82660 
  -82687   -82615   -82601   -82671   -82703   -82593   -82448   -82503 
  -82669   -82642   -82525   -82586   -82710   -82702   -82587   -82539 
  -82694   -82813   -82649   -82529   -82682   -82788   -82688   -82605 
  -82657   -82769   -82796   -82640   -82458   -82456   -82536   -82518 
  -82456   -82466   -82541   -82598   -82624   -82634   -82618   -82621 
  -82642   -82629   -82610   -82559   -82485   -82567   -82769   -82831 
  -82738   -82678   -82733   -82777   -82680   -82586   -82594   -82521 
  -82389   -82437   -82583   -82528   -82377   -82456   -82632   -82637 
  -82560   -82517   -82564   -82696   -82718   -82603   -82579   -82644 
  -82613   -82598   -82725   -82745   -82609   -82564   -82566   -82521 
  -82540   -82522   -82395   -82391   -82537   -82588   -82532   -82540 
  -82632   -82711   -82734   -82687   -82586   -82533   -82574   -82665 
  -82795   -82876   -82864   -82894   -82937   -82846   -82719   -82634 
  -82540   -82448   -82381   -82360   -82448   -82602   -82636   -82564 
  -82613   -82711   -82694   -82657   -82660   -82630   -82574   -82576 
  -82645   -82675   -82674   -82687   -82668   -82651   -82632   -82560 
  -82541   -82570   -82518   -82460   -82462   -82433   -82425   -82548 
  -82699   -82733   -82691   -82674   -82705   -82741   -82719   -82683 
  -82733   -82852   -82888   -82730   -82485   -82367   -82445   -82584 
  -82583   -82466   -82447   -82486   -82444   -82479   -82626   -82645 
  -82571   -82595   -82656   -82644   -82644   -82773   -82873   -82719 
  -82480   -82437   -82534   -82567   -82495   -82421   -82455   -82571 
  -82602   -82591   -82696   -82730   -82583   -82510   -82551   -82520 
  -82509   -82649   -82769   -82737   -82651   -82629   -82674   -82696 
  -82652   -82559   -82460   -82459   -82555   -82626   -82638   -82630 
  -82676   -82777   -82763   -82636   -82615   -82667   -82629   -82575 
  -82557   -82524   -82483   -82440   -82482   -82637   -82644   -82483 
  -82471   -82617   -82711   -82732   -82745   -82742   -82695   -82634 
  -82634   -82719   -82773   -82695   -82605   -82582   -82591   -82657 
  -82695   -82620   -82559   -82583   -82625   -82629   -82597   -82621 
  -82713   -82737   -82741   -82831   -82823   -82656   -82557   -82553 
  -82552   -82584   -82574   -82470   -82463   -82555   -82557   -82518 
  -82541   -82576   -82597   -82602   -82590   -82582   -82607   -82634 
  -82586   -82494   -82470   -82521   -82557   -82528   -82501   -82475 
  -82448   -82561   -82726   -82711   -82633   -82642   -82611   -82518 
  -82549   -82684   -82674   -82512   -82444   -82526   -82659   -82728 
  -82636   -82557   -82649   -82763   -82804   -82769   -82661   -82563 
  -82491   -82463   -82490   -82512   -82576   -82691   -82703   -82610 
  -82588   -82663   -82686   -82651   -82622   -82591   -82591   -82626 
  -82680   -82719   -82659   -82591   -82655   -82717   -82675   -82644 
  -82663   -82665   -82696   -82722   -82661   -82603   -82583   -82575 
  -82618   -82669   -82601   -82468   -82459   -82557   -82636   -82684 
  -82725   -82669   -82534   -82507   -82571   -82601   -82611   -82579 
  -82518   -82522   -82590   -82669   -82652   -82552   -82555   -82620 
  -82601   -82557   -82533   -82555   -82675   -82773   -82767   -82742 
  -82748   -82752   -82664   -82505   -82463   -82547   -82564   -82524 
  -82529   -82557   -82601   -82636   -82624   -82609   -82602   -82580 
