Origin Time       2025/03/30 21:30:00
Lat.              38.535
Long.             142.295
Depth. (km)       44
Mag.              4.3
Station Code      IWTH18
Station Lat.      39.4630
Station Long.     141.6775
Station Height(m) 452
Record Time       2025/03/30 21:31:28
Sampling Freq(Hz) 100Hz
Duration Time(s)  120
Dir.              3
Scale Factor      2940(gal)/6170270
Max. Acc. (gal)   0.185
Last Correction   2025/03/30 21:31:13
Memo.             
[...]
   27040    27037    27033    27034    27043    27055    27064    27073 
   27087    27095    27092    27090    27081    27065    27057    27050 
   27031    27017    27016    27024    27030    27031    27037    27050 
   27069    27094    27100    27095    27099    27089    27096    27121 
   27104    27071    27081    27114    27130    27113    27089    27084 
   27078    27073    27078    27070    27075    27100    27112    27102 
   27050    26981    26967    26992    26992    26962    26972    27062 
   27134    27089    27018    27032    27053    27058    27115    27129 
   27069    27069    27082    27020    26968    26950    26917    26945 
   27056    27126    27128    27096    27028    26999    27023    27029 
   27045    27085    27081    27061    27074    27040    26996    27056 
   27124    27125    27157    27164    27069    27041    27071    26944 
   26834    26956    27043    27031    27142    27175    27026    26994 
   27049    27037    27053    27067    27100    27260    27287    27133 
   27120    27113    26983    26977    26997    26951    27048    27146 
   27075    27048    27089    27040    27001    27046    27068    27075 
   27074    27046    27096    27157    27044    26902    26994    27182 
   27160    26993    26950    27045    27123    27104    27045    27083 
   27128    27057    27078    27159    27044    26967    27084    27137 
   27117    27094    27020    27042    27164    27119    26996    27039 
   27105    27070    27025    26978    26982    27072    27116    27106 
   27101    27040    26981    27034    27095    27060    27032    27094 
   27134    27093    27072    27039    26961    26983    27044    27024 
   27059    27110    27043    27025    27103    27084    27026    27072 
   27103    27057    27028    27054    27122    27141    27083    27078 
   27101    27059    27046    27061    27013    27015    27089    27060 
   26995    27044    27082    27050    27090    27125    27020    26941 
   27073    27213    27071    26910    27049    27157    27044    27020 
   27049    26975    27024    27153    27081    27015    27106    27103 
   27059    27109    27094    27025    27016    27058    27115    27065 
   26977    27056    27109    27012    27024    27104    27050    27026 
   27155    27212    27083    26999    27064    27091    27051    27058 
   27069    27048    27065    27138    27143    27004    26942    27034 
   27026    26969    27056    27078    26998    27059    27114    27031 
   27030    27131    27160    27121    27110    27111    27062    27067 
   27132    27086    27029    27054    27020    26990    27047    27081 
   27040    26987    27026    27102    27050    26957    27008    27131 
   27149    27075    27047    27110    27177    27125    27051    27121 
   27146    27017    26998    27074    27054    27030    27036    26973 
   26944    27057    27136    27050    27006    27114    27131    27048 
   27090    27112    27025    27062    27085    26993    27079    27184 
   27076    27040    27096    27037    26974    27006    27027    26971 
   26952    27063    27137    27065    27034    27098    27109    27073 
   27053    27031    27027    27065    27127    27122    27056    27108 
   27179    27104    27072    27083    27008    26994    27055    27073 
   27046    27007    27021    27041    27048    27142    27174    27047 
   27003    27090    27131    27086    27024    27039    27109    27109 
   27091    27099    27029    26981    27023    26982    26969    27103 
   27096    26986    27056    27092    26981    26998    27075    27066 
   27126    27199    27162    27097    27056    27085    27085    26967 
   27001    27155    27098    27004    27029    27017    27035    27068 
   27000    27031    27178    27181    27121    27124    27040    26974 
   27118    27172    26997    26973    27117    27089    26991    27057 
   27114    27051    27058    27076    26987    27035    27184    27137 
   27027    27015    27015    27070    27130    27057    27045    27158 
   27125    27032    27052    27069    27051    27011    26983    27040 
   27088    27075    27061    27078    27104    27077    27048    27093 
   27115    27057    27046    27125    27133    27041    27054    27158 
   27121    27008    27017    27064    27049    27035    27043    27072 
   27082    27060    27092    27099    27017    27018    27086    27047 
   26986    27044    27116    27126    27155    27122    27002    27036 
   27176    27096    26926    26957    27056    27078    27048    26993 
   27009    27063    27100    27150    27127    27102    27133    27086 
   27072    27134    27063    26995    27079    27091    27001    27012 
   27100    27121    27078    27060    27073    27084    27086    27069 
   27064    27096    27095    27046    27057    27101    27070    27063 
   27078    26990    26989    27098    27045    26980    27059    27100 
   27120    27120    27060    27099    27164    27083    26993    27028 
   27076    27032    27008    27045    27038    27048    27079    27047 
   27089    27179    27089    26976    27039    27079    27015    27015 
   27091    27122    27084    27070    27112    27104    27047    27038 
   27035    27025    27043    27063    27102    27105    27050    27060 
   27091    27068    27056    27020    27012    27095    27084    27023 
   27083    27084    27046    27155    27156    26989    26965    27066 
   27094    27029    26996    27095    27155    27068    27021    27054 
   27047    27040    27068    27056    27044    27077    27092    27124 
   27150    27084    27058    27112    27115    27088    27042    26968 
   26964    26989    26963    26991    27037    26993    27001    27106 
   27142    27096    27069    27092    27124    27115    27074    27076 
   27155    27176    27085    27072    27143    27117    27022    26996 
   27066    27088    27018    27032    27064    27014    27061    27114 
   27035    27046    27138    27130    27109    27129    27085    27029 
   27052    27112    27139    27059    26998    27091    27122    27005 
   26960    27001    27027    27023    26975    26968    27063    27077 
   26990    27022    27092    27043    27050    27140    27119    27082 
   27159    27147    27019    27005    27033    27013    27057    27062 
   27001    27025    27076    27082    27045    27041    27142    27133 
   27019    27061    27100    27045    27061    27071    27073    27102 
   27048    27035    27070    26983    26965    27107    27117    27017 
   27077    27169    27091    27032    27101    27129    27063    27035 
   27099    27127    27065    27034    27055    27046    26999    26974 
   26978    26974    27001    27043    27063    27122    27173    27169 
   27156    27119    27091    27084    27063    27106    27140    27059 
   27022    27053    27058    27067    27030    26988    27021    27041 
   27079    27140    27065    26986    27095    27183    27100    27054 
   27131    27136    27034    27012    27048    26994    26961    27053 
   27123    27074    27001    27030    27133    27132    26993    26953 
   27109    27194    27084    27048    27144    27100    26990    27048 
   27103    27015    26954    26964    26993    27079    27154    27103 
   27066    27161    27193    27113    27088    27074    27057    27088 
   27063    27047    27075    27014    26987    27072    27095    27052 
   27030    26995    27008    27102    27083    26998    27077    27151 
   27106    27125    27154    27098    27065    27056    27055    27094 
   27094    27035    27004    26992    27005    27037    26980    26936 
   27045    27105    27010    26981    27076    27137    27131    27133 
   27132    27099    27087    27124    27112    27014    26982    27065 
   27100    27046    27043    27083    27051    27045    27125    27118 
   27050    27051    27057    27105    27203    27148    27019    27052 
   27125    27072    26988    26986    27054    27067    26981    26954 
   27003    26976    26948    27036    27101    27116    27171    27178 
   27145    27159    27105    27001    27003    27014    26975    27021 
   27046    26973    27020    27117    27025    26937    27015    27074 
   27103    27165    27123    27055    27137    27200    27118    27059 
   27054    27027    27020    27026    27014    27019    27037    27066 
   27056    26983    27008    27119    27138    27115    27113    27075 
   27037    27041    27074    27102    27069    27025    27065    27128 
   27090    26996    26979    27007    27029    27090    27088    27010 
   27029    27090    27061    27012    27019    27065    27098    27085 
   27042    27052    27125    27107    27015    27029    27059    27030 
   27049    27052    27003    27008    27038    27058    27059    27038 
   27058    27079    27120    27196    27106    26981    27032    27043 
   27004    27036    27036    27027    27049    27057    27085    27070 
   27012    27075    27156    27098    27076    27122    27086    27034 
   27032    27057    27097    27067    27040    27097    27069    26988 
   27017    27051    27027    27030    27052    27055    27067    27098 
   27086    27024    27022    27076    27030    26959    27040    27140 
   27100    27013    27052    27164    27097    26946    26994    27132 
   27162    27114    27077    27074    27082    27105    27094    27060 
   27098    27106    27041    27067    27112    27035    26963    26978 
   27019    27026    26973    26993    27118    27089    27002    27136 
   27211    27071    27036    27115    27150    27144    27044    26969 
   27012    27011    26975    26963    26958    27042    27084    26989 
   27018    27162    27145    27057    27094    27162    27115    27050 
   27073    27055    26967    26964    27020    27008    26983    26975 
   26938    26973    27082    27090    27024    27049    27175    27229 
   27125    27102    27187    27128    27078    27103    27002    26978 
   27078    27074    27048    27029    27001    27070    27108    27045 
   27017    26998    26974    27007    27054    27105    27156    27104 
   27048    27139    27211    27148    27052    26973    26950    27002 
   27011    26953    26961    27004    26968    26961    27028    27053 
   27040    27070    27134    27148    27140    27207    27219    27108 
   27082    27111    27070    27056    27026    26991    27039    26998 
   26922    27001    27030    26960    26977    27027    27053    27100 
   27115    27098    27119    27120    27080    27083    27054    27020 
   27087    27099    27059    27041    26984    27037    27104    26972 
   26926    27031    27018    26963    26993    27003    26978    27052 
   27173    27143    27072    27094    27155    27230    27192    27088 
   27113    27126    27085    27111    27055    26921    26925    26974 
   26980    27018    27012    27002    27065    27081    27056    27082 
   27121    27113    27074    27102    27153    27101    27074    27105 
   27018    26953    27057    27082    26978    26954    26994    27022 
   27088    27129    27087    27116    27180    27100    27027    27037 
   26996    26980    27021    27029    27026    27010    26998    27029 
   27048    27012    26965    26971    27019    27050    27065    27114 
   27171    27120    27033    27117    27210    27113    27029    27041 
   27049    27078    27044    26908    26887    27047    27149    27058 
   26996    27091    27149    27097    27056    27109    27176    27122 
   27060    27098    27096    27027    27020    27099    27115    27017 
   27025    27116    27025    26924    27007    27070    27071    27099 
   27101    27074    27037    27024    27058    27053    26996    26979 
   27021    27064    27033    26969    27015    27068    27015    27000 
   26992    26943    26998    27077    27096    27149    27164    27118 
   27163    27168    27035    27042    27147    27106    27083    27138 
   27116    27054    27029    27022    27030    27072    27088    27046 
   27061    27146    27155    27105    27146    27186    27113    27093 
   27162    27153    27087    27077    27080    27031    27020    27084 
   27071    26974    26978    27012    26935    26884    26918    26970 
   27038    27020    26901    26864    26915    26960    26988    26980 
   26981    27032    27015    26920    26920    26981    26960    26928 
   26949    26995    27091    27146    27065    26968    26945    26969 
   26992    26972    26978    26986    26938    27019    27153    27073 
   26978    27059    27136    27138    27108    27091    27205    27339 
   27283    27217    27277    27283    27286    27334    27252    27179 
   27247    27267    27202    27127    27083    27070    26994    26978 
   27133    27152    26975    26962    27060    27017    26963    26998 
   27045    27086    27050    26970    26961    26964    26993    27035 
   26914    26833    27033    27151    27027    26997    27077    27111 
   27099    27015    26967    27040    27100    27106    27060    26993 
   26972    26893    26779    26794    26855    26896    27011    27089 
   27043    27108    27281    27296    27278    27325    27281    27230 
   27204    27194    27293    27266    27045    26978    27001    26840 
   26717    26788    26836    26873    26958    26945    26893    26944 
   27049    27024    26905    26987    27109    27039    27073    27210 
   27234    27273    27256    27049    26918    26994    27099    27119 
   27013    26914    26990    26993    26823    26845    27058    27162 
   27154    27143    27194    27287    27293    27254    27309    27386 
   27400    27443    27444    27268    27133    27149    27119    27074 
   27061    26980    26916    26907    26932    27003    26963    26835 
   26804    26869    27013    27106    27028    26977    27013    26978 
   26886    26845    26924    27035    27000    26901    26948    27096 
   27152    27054    26955    26994    27102    27163    27086    26957 
   27009    27135    27107    27059    27090    27046    26973    27016 
   27008    26973    27166    27283    27107    27101    27290    27294 
   27184    27091    27068    27151    27157    27054    26960    26945 
   27053    27086    26992    27084    27247    27161    27068    27087 
   26966    26881    26965    26890    26729    26771    26848    26873 
   26965    27033    27042    27108    27161    27126    27177    27330 
   27306    27146    27134    27156    27026    26926    26960    27022 
   27041    26928    26766    26837    27084    27111    26956    26954 
   27074    27163    27203    27184    27171    27257    27388    27397 
   27312    27276    27231    27132    27027    26922    26906    26970 
   26921    26809    26887    27024    26944    26872    26970    26974 
   26891    26981    27117    27106    27180    27398    27419    27297 
   27272    27215    27138    27128    27023    26888    26842    26797 
   26788    26802    26799    26867    26906    26852    26870    26912 
   26914    27097    27372    27382    27264    27307    27391    27372 
   27271    27182    27203    27194    27008    26842    26862    26955 
   27003    26976    26942    26968    26964    26979    27056    27023 
   26986    27100    27196    27230    27268    27257    27234    27215 
   27150    27084    27007    26916    26916    26946    26935    27006 
   27093    27034    26970    26989    27020    27051    27059    27077 
   27076    26989    27011    27094    27004    26907    26881    26860 
   26925    26944    26918    27059    27151    27068    27088    27248 
   27291    27129    27073    27216    27158    26958    27024    27168 
   27066    26902    26897    26980    27010    26967    27016    27204 
   27275    27093    26912    27052    27288    27139    26938    27135 
   27246    27080    27045    27087    27013    26911    26884    26954 
   27038    27050    27020    27045    27151    27185    27122    27130 
   27159    27115    27099    27088    27077    27087    26942    26792 
   26912    27051    27001    26916    26930    27054    27156    27112 
   27071    27198    27294    27202    27126    27200    27287    27204 
   27009    26980    27084    27085    27020    27032    27046    26957 
   26959    27073    26999    26925    27069    27115    27039    27017 
   26982    26959    26969    26978    27049    27098    27048    27041 
   27107    27114    27062    27032    27015    27017    27052    27066 
   27090    27122    27092    27124    27184    27072    27000    27103 
   27075    26961    27062    27244    27242    27127    27058    27088 
   27201    27241    27166    27148    27181    27134    27051    27063 
   27127    27126    27087    27004    26886    26911    27029    27017 
   26935    26931    26995    27067    27134    27170    27072    26986 
   27113    27151    26984    26967    27055    26980    26872    26920 
   26972    26915    26911    26935    26938    27094    27168    26926 
   26894    27192    27255    27182    27219    27096    26959    27069 
   27130    27053    27077    27118    27104    27145    27114    26996 
   27003    27062    27002    26963    27068    27171    27163    27074 
   27037    27172    27252    27099    26997    27036    27052    27087 
   27138    27157    27167    27111    27083    27178    27194    27059 
   26968    26987    26960    26860    26832    26885    26918    26914 
   26866    26825    26922    27067    27063    27045    27126    27161 
   27097    27016    27053    27149    27120    27070    27104    27100 
   27078    27149    27228    27214    27142    27052    27007    27002 
   26910    26836    26911    26984    27006    27085    27164    27172 
   27177    27179    27145    27147    27185    27189    27139    27028 
   27009    27132    27080    26881    26856    26872    26847    26955 
   27060    27035    27008    27069    27161    27124    27018    27088 
   27204    27158    27148    27190    27105    27077    27150    27087 
   26984    26972    26962    26976    27010    26998    26986    27013 
   27066    27060    26983    27033    27153    27105    27042    27072 
   27075    27149    27260    27205    27114    27117    27098    27044 
   26984    26933    26973    26995    26914    26957    27134    27164 
   27039    27010    27085    27090    27027    26982    26980    27035 
   27083    27029    26974    27045    27101    27072    27067    27069 
   27037    27010    27050    27074    26964    26938    27070    27105 
   27046    27029    27050    27093    27088    27036    27074    27121 
   27031    27014    27156    27154    27024    27076    27206    27160 
   27048    27042    27076    27041    27015    27105    27149    27045 
   27018    27099    27082    27029    27080    27139    27123    27116 
   27143    27097    27015    27035    27101    27099    27040    26965 
   26918    26945    26977    26932    26927    27033    27084    27103 
   27197    27174    27053    27018    26977    26972    27044    27024 
   27014    27086    27069    27051    27152    27178    27040    26974 
   27093    27162    27041    26962    27078    27159    27091    27061 
   27070    27053    27119    27135    26989    26959    27063    27058 
   27017    27029    26997    26925    26904    26994    27075    27068 
   27111    27191    27205    27200    27171    27131    27162    27142 
   27032    27045    27082    26961    26924    27120    27219    27034 
   26902    27022    27126    27065    26994    26997    27020    27067 
