Origin Time       2025/03/30 21:30:00
Lat.              38.535
Long.             142.295
Depth. (km)       44
Mag.              4.3
Station Code      IWTH27
Station Lat.      39.0307
Station Long.     141.5320
Station Height(m) 80
Record Time       2025/03/30 21:31:21
Sampling Freq(Hz) 100Hz
Duration Time(s)  120
Dir.              6
Scale Factor      7845(gal)/8223790
Max. Acc. (gal)   2.920
Last Correction   2025/03/30 21:31:20
Memo.             
[...]
  -10401   -10393   -10395   -10401   -10390   -10399   -10396   -10389 
  -10401   -10392   -10395   -10405   -10392   -10399   -10397   -10390 
  -10401   -10392   -10395   -10404   -10389   -10399   -10397   -10385 
  -10403   -10397   -10392   -10400   -10392   -10397   -10396   -10389 
  -10403   -10393   -10390   -10400   -10388   -10397   -10400   -10388 
  -10399   -10395   -10393   -10401   -10388   -10397   -10400   -10386 
  -10401   -10396   -10390   -10403   -10390   -10396   -10400   -10392 
  -10403   -10395   -10392   -10405   -10392   -10396   -10401   -10388 
  -10400   -10396   -10389   -10401   -10393   -10395   -10401   -10390 
  -10400   -10396   -10390   -10401   -10392   -10396   -10403   -10389 
  -10399   -10397   -10390   -10403   -10392   -10393   -10403   -10390 
  -10399   -10397   -10389   -10403   -10395   -10395   -10400   -10388 
  -10399   -10400   -10390   -10400   -10392   -10393   -10401   -10386 
  -10395   -10397   -10389   -10401   -10393   -10393   -10403   -10388 
  -10393   -10397   -10390   -10401   -10392   -10390   -10401   -10389 
  -10397   -10399   -10388   -10400   -10393   -10389   -10399   -10388 
  -10397   -10400   -10386   -10399   -10395   -10388   -10396   -10389 
  -10397   -10400   -10386   -10399   -10395   -10389   -10403   -10392 
  -10393   -10399   -10390   -10401   -10396   -10390   -10403   -10392 
  -10396   -10403   -10392   -10400   -10395   -10388   -10401   -10395 
  -10396   -10400   -10388   -10400   -10397   -10390   -10401   -10390 
  -10393   -10401   -10386   -10397   -10396   -10388   -10401   -10392 
  -10392   -10400   -10388   -10396   -10396   -10388   -10400   -10392 
  -10390   -10400   -10386   -10395   -10399   -10388   -10397   -10390 
  -10392   -10401   -10385   -10395   -10400   -10386   -10397   -10393 
  -10389   -10399   -10389   -10395   -10396   -10388   -10401   -10396 
  -10392   -10401   -10389   -10396   -10397   -10384   -10399   -10397 
  -10390   -10401   -10390   -10396   -10400   -10389   -10401   -10396 
  -10390   -10403   -10389   -10393   -10400   -10388   -10399   -10396 
  -10389   -10400   -10389   -10392   -10400   -10389   -10399   -10396 
  -10390   -10401   -10390   -10393   -10400   -10389   -10400   -10400 
  -10392   -10400   -10392   -10396   -10403   -10389   -10399   -10397 
  -10390   -10403   -10392   -10395   -10401   -10388   -10400   -10400 
  -10389   -10404   -10397   -10393   -10403   -10393   -10399   -10397 
  -10390   -10401   -10393   -10393   -10403   -10389   -10397   -10399 
  -10389   -10403   -10396   -10389   -10400   -10392   -10396   -10396 
  -10389   -10404   -10396   -10389   -10401   -10393   -10397   -10397 
  -10388   -10400   -10396   -10392   -10401   -10392   -10397   -10401 
  -10389   -10401   -10395   -10392   -10405   -10393   -10396   -10400 
  -10388   -10400   -10396   -10389   -10401   -10389   -10393   -10401 
  -10389   -10399   -10399   -10392   -10401   -10392   -10393   -10400 
  -10389   -10399   -10396   -10389   -10403   -10392   -10392   -10400 
  -10390   -10400   -10396   -10389   -10404   -10395   -10395   -10404 
  -10389   -10395   -10397   -10392   -10403   -10393   -10390   -10400 
  -10389   -10397   -10397   -10388   -10403   -10393   -10392   -10404 
  -10390   -10396   -10400   -10390   -10399   -10390   -10390   -10404 
  -10390   -10396   -10400   -10390   -10401   -10393   -10390   -10403 
  -10389   -10393   -10399   -10389   -10397   -10392   -10389   -10403 
  -10390   -10397   -10401   -10388   -10400   -10396   -10390   -10403 
  -10392   -10393   -10400   -10389   -10397   -10395   -10390   -10403 
  -10393   -10393   -10400   -10392   -10400   -10396   -10389   -10403 
  -10392   -10393   -10401   -10389   -10399   -10399   -10390   -10401 
  -10393   -10395   -10401   -10390   -10399   -10400   -10396   -10411 
  -10404   -10412   -10422   -10404   -10404   -10386   -10357   -10365 
  -10372   -10366   -10349   -10332   -10353   -10395   -10461   -10461 
  -10385   -10490   -10633   -10431   -10153   -10189   -10331   -10407 
  -10606   -10778   -10643   -10485   -10336    -9999   -10012   -10405 
  -10409   -10196   -10308   -10600   -10681   -10392   -10165   -10273 
  -10409   -10392   -10157   -10073   -10594   -11277   -11314   -10285 
   -9275    -9852   -10851   -10596   -10250   -10751   -10839   -10054 
   -9564    -9818   -10428   -10952   -10654   -10002   -10389   -11134 
  -10746    -9895    -9867   -10396   -10629   -10378   -10382   -11068 
  -11109   -10098    -9707   -10130   -10261   -10006   -10239   -11200 
  -11298   -10386   -10041    -9919    -9957   -10656   -10839   -10411 
  -10207   -10061   -10103   -10520   -10867   -10825   -10435    -9915 
  -10035   -10758   -10539    -9921   -10644   -11245   -10149    -9324 
  -10176   -10960   -10678   -10211   -10215   -10849   -11296   -10612 
   -9385    -9298   -10615   -11165   -10558   -10196    -9921   -10045 
  -10559   -10632   -10920   -10879    -9961    -9733   -10099   -10060 
  -10227   -11302   -11978   -10628    -9047    -9148    -9999   -10924 
  -11511   -11322   -10627    -9811    -9524    -9625   -10114   -11184 
  -11169   -10193    -9930    -9907   -10160   -10929   -11269   -10728 
   -9644    -9481   -10362   -10791   -10982   -11200   -10859    -9923 
   -8945    -9063   -10331   -11620   -11863   -10597    -9459    -9919 
  -10704   -10589   -10260   -10488   -10644   -10237    -9875    -9902 
  -10574   -11493   -11167    -9772    -9256   -10111   -10697   -10324 
  -10416   -11110   -10994   -10264    -9855    -9838   -10336   -11026 
  -10872   -10161   -10103   -10355   -10145   -10103   -10520   -10806 
  -10821   -10617   -10084    -9597   -10011   -10924   -10929   -10389 
  -10399   -10563   -10292   -10002   -10254   -10555   -10484   -10725 
  -10917   -10223    -9644    -9987   -10552   -10806   -10936   -10881 
  -10235    -9637    -9753   -10196   -10876   -11215   -10602   -10037 
  -10122   -10192   -10111   -10557   -10967   -10288    -9888   -10489 
  -10548   -10188   -10401   -10739   -10596   -10180   -10147   -10635 
  -10832   -10189    -9678   -10197   -10797   -10581   -10069   -10010 
  -10378   -10571   -10589   -10764   -10775   -10377    -9876    -9980 
  -10724   -10751   -10026    -9969   -10453   -10739   -10733   -10581 
  -10647   -10536   -10033   -10003   -10322   -10269   -10234   -10531 
  -10608   -10285   -10218   -10488   -10480   -10354   -10430   -10574 
  -10758   -10450    -9761   -10112   -11130   -10998   -10076    -9833 
  -10197   -10492   -10546   -10507   -10524   -10300    -9896   -10149 
  -10957   -11033   -10119    -9626   -10231   -10833   -10835   -10774 
  -10548    -9944    -9729   -10135   -10507   -10802   -10940   -10517 
  -10004    -9796    -9922   -10593   -11186   -10957   -10187    -9661 
  -10004   -10727   -10885   -10627   -10519   -10351    -9972   -10015 
  -10469   -10597   -10484   -10473   -10525   -10500   -10131    -9845 
  -10319   -11030   -10937   -10062    -9653   -10377   -11072   -10605 
   -9923   -10328   -10864   -10390    -9786   -10044   -10874   -11067 
  -10204    -9667   -10234   -10821   -10570   -10137   -10343   -10729 
  -10536   -10219   -10444   -10581   -10181   -10142   -10466   -10292 
  -10300   -10717   -10493   -10280   -10467   -10157   -10129   -10675 
  -10651   -10326   -10324   -10471   -10521   -10319   -10197   -10357 
  -10523   -10552   -10376   -10224   -10301   -10442   -10528   -10368 
  -10126   -10311   -10743   -10773   -10261    -9934   -10277   -10687 
  -10667   -10377   -10118   -10314   -10779   -10625   -10054   -10112 
  -10504   -10327   -10172   -10687   -10929   -10462   -10096   -10087 
  -10297   -10471   -10328   -10292   -10594   -10679   -10238   -10022 
  -10666   -10949   -10142    -9691   -10119   -10682   -11043   -10721 
  -10143   -10305   -10536   -10234   -10014   -10189   -10589   -10723 
  -10494   -10242   -10093   -10476   -10970   -10596    -9961    -9915 
  -10334   -10698   -10453   -10066   -10451   -11043   -10690    -9926 
   -9910   -10399   -10721   -10660   -10268   -10025   -10216   -10617 
  -10766   -10451   -10249   -10350   -10269   -10139   -10276   -10617 
  -10833   -10620   -10280   -10054    -9968   -10220   -10643   -10770 
  -10357   -10014   -10412   -10771   -10555   -10332   -10141   -10048 
  -10458   -10810   -10503   -10335   -10783   -10639    -9738    -9741 
  -10660   -10991   -10592   -10224    -9972    -9842   -10455   -11211 
  -10739   -10108   -10328   -10262   -10104   -10465   -10624   -10508 
  -10346   -10203   -10230   -10336   -10617   -10755   -10203    -9844 
  -10547   -11041   -10282    -9764   -10539   -11110   -10401    -9687 
  -10177   -10827   -10557   -10255   -10362   -10342   -10586   -10837 
  -10138    -9644   -10453   -10995   -10471   -10087   -10092   -10185 
  -10582   -10912   -10658   -10130   -10114   -10466   -10282   -10039 
  -10501   -10890   -10546   -10021   -10033   -10494   -10777   -10639 
  -10381   -10281   -10328   -10447   -10513   -10346   -10156   -10353 
  -10538   -10234   -10219   -10660   -10596   -10336   -10420   -10409 
  -10220   -10050   -10370   -11025   -10685    -9809   -10025   -10716 
  -10810   -10590   -10215    -9964   -10192   -10434   -10588   -10885 
  -10855   -10177    -9463    -9763   -10864   -11279   -10683   -10004 
   -9819    -9996   -10251   -10764   -11141   -10635   -10007   -10143 
  -10449   -10438   -10440   -10443   -10157   -10208   -10883   -10851 
  -10018    -9860   -10260   -10570   -11010   -10881    -9794    -9290 
  -10199   -11129   -10893   -10476   -10636   -10436   -10068   -10103 
  -10060   -10426   -10984   -10516    -9987   -10363   -10616   -10139 
   -9688   -10179   -11188   -11367   -10503    -9734    -9861   -10253 
  -10389   -10678   -10960   -10862   -10350    -9634    -9660   -10544 
  -11169   -11033   -10289    -9603    -9759   -10496   -10872   -10565 
  -10368   -10673   -10613   -10066    -9826   -10176   -10783   -11032 
  -10690   -10131    -9902   -10062   -10339   -10737   -10933   -10558 
   -9976    -9817   -10245   -10701   -10805   -10650   -10400   -10181 
   -9817    -9914   -10959   -11335   -10404    -9703    -9834   -10285 
  -10631   -10883   -10949   -10490   -10004    -9922   -10087   -10419 
  -10659   -10808   -10755   -10188    -9774   -10176   -10763   -10567 
   -9987   -10211   -10864   -10827   -10326   -10064   -10293   -10716 
  -10611   -10141   -10181   -10511   -10315   -10080   -10679   -11159 
  -10353    -9439    -9852   -10746   -10936   -10789   -10569   -10060 
   -9792   -10083   -10467   -10650   -10696   -10693   -10565   -10268 
  -10011   -10100   -10524   -10744   -10423   -10162   -10454   -10731 
  -10466    -9864    -9605   -10370   -11411   -11241   -10176    -9575 
   -9882   -10629   -10827   -10300   -10247   -10820   -10756   -10076 
   -9929   -10347   -10639   -10633   -10477   -10353   -10349   -10339 
  -10422   -10494    -9953    -9687   -10764   -11233   -10153    -9815 
  -10633   -11090   -10874   -10127    -9444    -9721   -10521   -10929 
  -10843   -10766   -10785   -10189    -9420    -9779   -10766   -11091 
  -10615    -9990    -9952   -10550   -10989   -10547    -9767    -9894 
  -10666   -10813   -10366   -10139   -10319   -10658   -10879   -10698 
  -10141   -10000   -10513   -10431    -9738    -9968   -10945   -11124 
  -10287    -9910   -10535   -10862   -10485   -10087   -10102   -10727 
  -10989   -10081    -9456   -10264   -11030   -10512    -9972   -10253 
  -10504   -10501   -10548   -10443   -10210   -10366   -10640   -10292 
  -10064   -10681   -11130   -10562    -9664    -9661   -10454   -10837 
  -10673   -10566   -10447   -10207   -10135   -10230   -10292   -10608 
  -11061   -10594    -9562    -9628   -10571   -10993   -10741   -10492 
  -10264    -9706    -9648   -10601   -11430   -11423   -10569    -9460 
   -9391   -10185   -10681   -10862   -11014   -10719    -9991    -9751 
  -10231   -10667   -10571   -10181   -10173   -10606   -10763   -10516 
  -10316   -10187   -10106   -10393   -10741   -10416    -9948   -10332 
  -10956   -10663    -9880    -9888   -10677   -11043   -10629   -10353 
  -10635   -10565    -9751    -9463   -10393   -11327   -11114   -10153 
   -9684   -10069   -10515   -10654   -10584   -10327   -10299   -10532 
  -10467   -10156   -10142   -10503   -10662   -10365   -10118   -10201 
  -10346   -10423   -10596   -10713   -10578   -10501   -10453    -9991 
   -9698   -10339   -11038   -10921   -10615   -10449   -10153    -9971 
  -10017   -10002   -10191   -10836   -11064   -10334    -9675   -10046 
  -10862   -11053   -10731   -10282    -9702    -9721   -10701   -11456 
  -10980   -10006    -9745   -10045   -10362   -10620   -10633   -10444 
  -10335   -10307   -10142   -10099   -10600   -11002   -10639   -10045 
   -9765    -9965   -10633   -11118   -10953   -10513   -10201   -10098 
  -10119   -10142   -10296   -10632   -10708   -10318    -9818    -9917 
  -11017   -11713   -10675    -9329    -9166    -9861   -10721   -11199 
  -11275   -11007   -10274    -9612    -9508   -10044   -11060   -11434 
  -10525    -9643    -9518    -9583   -10245   -11306   -11211   -10326 
  -10030   -10123   -10288   -10736   -10949   -10512   -10152   -10111 
   -9903   -10023   -10719   -11037   -10802   -10551   -10264    -9987 
   -9967   -10122   -10336   -10455   -10320   -10255   -10701   -11242 
  -11047   -10323    -9620    -9082    -9123    -9969   -11549   -13035 
  -12850   -10774    -8198    -7335    -9397   -12221   -13127   -11881 
   -9752    -8409    -8338    -9410   -11476   -12529   -11454    -9832 
   -8827    -9346   -11437   -12511   -11456   -10552   -10305    -9045 
   -7854    -8741   -10748   -12353   -13007   -12337   -10793    -9402 
   -8857    -9063    -9814   -11263   -11974   -10573    -9175    -9613 
  -10521   -10974   -11317   -10993    -9759    -8888    -8939    -9521 
  -10831   -12330   -12307   -10550    -8846    -8398    -9126   -10497 
  -11604   -11905   -11263    -9899    -9100    -9356    -9929   -10797 
  -11138    -9925    -9090   -10293   -11695   -11562   -10339    -9248 
   -9579   -10956   -11406   -10646    -9933    -9491    -9200   -10226 
  -12544   -13132   -10743    -8326    -8267   -10152   -12390   -12567 
  -10249    -8818    -9844   -10828   -10060    -8676    -8866   -10930 
  -12490   -11804   -10226   -10120   -10814   -10084    -9208   -10319 
  -11673   -10894    -9225    -9664   -11983   -12588   -10273    -8286 
   -9162   -10727   -10469    -9873   -10632   -11362   -10426    -9228 
   -9830   -10852   -10663   -10685   -11502   -11426   -10060    -9055 
   -9578   -10640   -10894   -10840   -10689    -9605    -8988   -10747 
  -12842   -12143    -9547    -8220    -9127   -10743   -11315   -10785 
  -10131    -9462    -9367   -10611   -11691   -11448   -10559    -9567 
   -9231    -9963   -11157   -11866   -11098    -9933    -9981   -10168 
   -9738    -9544   -10139   -11497   -12102   -10798    -9266    -9007 
   -9454   -10093   -10936   -11523   -10998    -9651    -9458   -10876 
  -11701   -10875    -9675    -9279   -10068   -11709   -12379   -10790 
   -8891    -8629    -9234   -10247   -11638   -11939   -10565    -9298 
   -9651   -10231    -9898   -10633   -12108   -11281    -9315    -9456 
  -10974   -11060    -9981    -9980   -10679   -10493    -9610    -9429 
  -10633   -11607   -11151   -10293    -9636    -9757   -10908   -11053 
   -9830    -9779   -10989   -11375   -10956   -10787   -10477    -9607 
   -9267   -10247   -11277   -10847    -9637    -9281    -9977   -11091 
  -11761   -10800    -9386   -10044   -11294   -10517    -9279    -9586 
  -10469   -10941   -11394   -11379   -10131    -9084    -9706   -10829 
  -11080   -10578    -9836    -9424    -9915   -11134   -11734   -10908 
   -9914    -9652    -9730   -10613   -11840   -11225    -9391    -9185 
  -10368   -10763   -10625   -10976   -10759    -9841   -10003   -10787 
  -10442    -9845   -10277   -10912   -10827   -10100    -9490   -10035 
  -11421   -11817   -10542    -9023    -8756    -9949   -11607   -12172 
  -11034    -9387    -8865    -9578   -10481   -10955   -10967   -10651 
  -10081    -9571    -9985   -11067   -11264   -10577   -10226   -10380 
  -10431   -10349   -10727   -11130   -10633    -9814    -9625   -10054 
  -10632   -11102   -11140   -10266    -9416    -9757   -10434   -10701 
  -10989   -11038   -10455   -10103   -10569   -10762   -10048    -9693 
  -10355   -10744   -10210    -9717    -9904   -10604   -11070   -10496 
   -9769   -10137   -10577   -10200   -10035   -10574   -11074   -10874 
  -10322   -10104    -9984   -10100   -10848   -11016   -10099    -9683 
  -10269   -10833   -10925   -10525    -9988   -10026   -10400   -10473 
  -10539   -10894   -11068   -10670   -10012    -9879   -10546   -11249 
  -10972    -9661    -8984   -10089   -11087   -10574    -9983    -9898 
   -9794   -10335   -11344   -11191   -10056    -9671   -10249   -10566 
  -10366   -10627   -11032   -10419    -9794   -10285   -10671   -10365 
  -10338   -10633   -10667   -10431   -10068    -9921   -10422   -10970 
  -10660   -10174   -10357   -10430    -9973   -10027   -10876   -11291 
  -10805   -10304   -10152   -10208   -10454   -10338    -9680    -9780 
  -11114   -11526   -10034    -9099    -9927   -10845   -11109   -11002 
  -10480    -9953    -9651    -9671   -10354   -11217   -11601   -11186 
  -10061    -9400    -9837   -10324   -10389   -10627   -10652   -10087 
   -9911   -10569   -11034   -10507    -9837   -10072   -10701   -10987 
  -10810   -10228    -9771    -9919   -10353   -10624   -11030   -11346 
  -10539    -9359    -9259    -9879   -10744   -11653   -11519   -10137 
   -9073    -9342   -10409   -11365   -11283   -10157    -9585   -10108 
  -10516   -10677   -10909   -10787   -10473   -10212    -9890    -9833 
  -10349   -10814   -10617   -10584   -10902   -10324    -9196    -9197 
  -10632   -11890   -11326    -9782    -9220    -9796   -10712   -11152 
  -10739   -10423   -10496   -10255   -10131   -10585   -11021   -10795 
   -9972    -9624   -10370   -11084   -10752   -10003    -9876   -10357 
  -10443    -9913   -10089   -11049   -11025   -10107    -9791   -10184 
  -10827   -11038   -10450   -10079   -10320   -10442   -10347   -10285 
  -10494   -10909   -10789   -10184    -9844    -9711   -10056   -11083 
  -11267   -10270    -9842   -10251   -10438   -10291   -10324   -10508 
  -10608   -10701   -10423    -9833   -10025   -10991   -11457   -10755 
   -9657    -9559   -10412   -10840   -10435   -10204   -10631   -10689 
  -10034    -9873   -10297   -10474   -10558   -10534   -10134   -10068 
  -10670   -10949   -10351    -9906   -10309   -10654   -10420   -10234 
  -10303   -10373   -10401   -10378   -10461   -10594   -10462   -10226 
  -10022   -10184   -10970   -11132   -10158    -9729   -10432   -10713 
  -10114   -10127   -10972   -11117   -10332    -9807   -10052   -10692 
  -11072   -10732   -10000    -9788   -10322   -10539   -10162   -10401 
  -10800   -10056    -9602   -10612   -11200   -10455   -10037   -10481 
  -10615   -10397   -10465   -10319    -9938   -10234   -10756   -10540 
  -10376   -10951   -10926    -9779    -9328   -10255   -11083   -10964 
  -10222    -9591    -9718   -10353   -11014   -11375   -10825    -9747 
   -9532   -10396   -11114   -10986   -10318    -9526    -9444   -10332 
