Origin Time       2025/03/30 21:30:00
Lat.              38.535
Long.             142.295
Depth. (km)       44
Mag.              4.3
Station Code      IWTH15
Station Lat.      39.6148
Station Long.     141.0929
Station Height(m) 195
Record Time       2025/03/30 21:31:39
Sampling Freq(Hz) 100Hz
Duration Time(s)  120
Dir.              5
Scale Factor      3920(gal)/6170801
Max. Acc. (gal)   0.871
Last Correction   2025/03/30 21:31:24
Memo.             
[...]
   -5367    -5228    -5097    -5038    -5048    -5088    -5153    -5256 
   -5329    -5287    -5176    -5096    -5096    -5175    -5245    -5239 
   -5224    -5267    -5324    -5335    -5307    -5285    -5284    -5301 
   -5347    -5381    -5355    -5308    -5266    -5195    -5100    -5035 
   -5035    -5083    -5140    -5183    -5205    -5225    -5269    -5316 
   -5319    -5276    -5248    -5292    -5380    -5448    -5472    -5430 
   -5306    -5151    -5053    -5028    -5018    -5007    -5052    -5128 
   -5166    -5208    -5305    -5401    -5460    -5496    -5495    -5455 
   -5399    -5316    -5191    -5075    -5034    -5080    -5173    -5259 
   -5274    -5201    -5106    -5043    -5017    -5052    -5165    -5318 
   -5448    -5495    -5444    -5363    -5308    -5282    -5267    -5247 
   -5224    -5192    -5139    -5111    -5139    -5189    -5232    -5245 
   -5222    -5225    -5273    -5310    -5319    -5334    -5351    -5337 
   -5280    -5213    -5177    -5168    -5160    -5169    -5209    -5258 
   -5295    -5302    -5255    -5168    -5103    -5108    -5159    -5175 
   -5130    -5106    -5160    -5229    -5250    -5247    -5231    -5183 
   -5135    -5126    -5137    -5160    -5193    -5212    -5244    -5327 
   -5433    -5500    -5482    -5389    -5290    -5226    -5187    -5156 
   -5116    -5066    -5049    -5110    -5209    -5263    -5275    -5276 
   -5250    -5237    -5267    -5262    -5202    -5190    -5250    -5307 
   -5351    -5385    -5381    -5363    -5351    -5301    -5209    -5133 
   -5097    -5070    -5055    -5095    -5182    -5252    -5285    -5336 
   -5415    -5436    -5354    -5232    -5124    -5028    -4992    -5083 
   -5235    -5335    -5390    -5450    -5489    -5457    -5377    -5291 
   -5192    -5094    -5033    -5007    -5034    -5129    -5216    -5261 
   -5332    -5427    -5472    -5461    -5386    -5208    -4979    -4826 
   -4821    -4948    -5121    -5244    -5264    -5219    -5182    -5177 
   -5188    -5201    -5194    -5175    -5160    -5135    -5127    -5187 
   -5286    -5382    -5460    -5478    -5414    -5291    -5181    -5158 
   -5217    -5288    -5326    -5333    -5314    -5264    -5190    -5149 
   -5163    -5160    -5132    -5157    -5243    -5363    -5503    -5605 
   -5628    -5588    -5495    -5393    -5324    -5257    -5188    -5163 
   -5191    -5218    -5197    -5148    -5089    -5013    -4969    -5018 
   -5123    -5235    -5312    -5315    -5274    -5244    -5208    -5138 
   -5055    -4993    -4997    -5093    -5227    -5314    -5331    -5320 
   -5307    -5274    -5205    -5110    -5038    -5069    -5187    -5266 
   -5258    -5247    -5274    -5302    -5283    -5202    -5137    -5175 
   -5293    -5383    -5362    -5268    -5217    -5226    -5258    -5292 
   -5303    -5298    -5310    -5304    -5247    -5197    -5215    -5296 
   -5408    -5490    -5489    -5409    -5284    -5131    -4998    -4954 
   -4977    -5015    -5063    -5104    -5126    -5159    -5205    -5252 
   -5316    -5361    -5332    -5283    -5272    -5271    -5253    -5207 
   -5136    -5098    -5142    -5250    -5393    -5506    -5510    -5418 
   -5309    -5227    -5184    -5157    -5124    -5103    -5092    -5091 
   -5152    -5248    -5286    -5275    -5252    -5227    -5264    -5388 
   -5494    -5484    -5366    -5215    -5138    -5162    -5190    -5173 
   -5174    -5207    -5186    -5079    -4982    -4984    -5062    -5146 
   -5196    -5208    -5201    -5221    -5287    -5347    -5349    -5339 
   -5357    -5365    -5368    -5403    -5421    -5358    -5225    -5074 
   -4948    -4871    -4870    -4956    -5100    -5275    -5450    -5565 
   -5588    -5559    -5493    -5385    -5283    -5221    -5174    -5127 
   -5106    -5138    -5206    -5267    -5302    -5315    -5302    -5245 
   -5131    -5009    -4975    -5058    -5185    -5283    -5333    -5342 
   -5314    -5265    -5232    -5257    -5339    -5429    -5450    -5343 
   -5145    -4968    -4905    -4964    -5069    -5182    -5315    -5411 
   -5397    -5318    -5231    -5130    -5049    -5055    -5148    -5272 
   -5358    -5369    -5327    -5236    -5096    -4997    -5014    -5116 
   -5240    -5322    -5341    -5336    -5326    -5303    -5285    -5307 
   -5359    -5386    -5349    -5258    -5125    -4980    -4914    -4958 
   -5039    -5133    -5272    -5413    -5513    -5591    -5618    -5541 
   -5377    -5177    -4995    -4909    -4947    -5036    -5121    -5217 
   -5316    -5400    -5445    -5427    -5383    -5380    -5411    -5407 
   -5352    -5295    -5246    -5136    -4994    -4964    -5044    -5112 
   -5172    -5254    -5289    -5282    -5263    -5195    -5146    -5205 
   -5298    -5367    -5464    -5585    -5615    -5493    -5290    -5083 
   -4896    -4768    -4711    -4723    -4855    -5087    -5317    -5489 
   -5568    -5550    -5484    -5395    -5295    -5239    -5255    -5275 
   -5242    -5215    -5218    -5181    -5138    -5161    -5171    -5123 
   -5090    -5111    -5160    -5210    -5262    -5308    -5317    -5318 
   -5339    -5333    -5287    -5243    -5203    -5194    -5261    -5343 
   -5357    -5316    -5257    -5179    -5112    -5093    -5070    -5006 
   -4990    -5066    -5155    -5229    -5310    -5363    -5370    -5386 
   -5444    -5499    -5469    -5366    -5283    -5229    -5158    -5104 
   -5127    -5184    -5204    -5208    -5236    -5286    -5349    -5360 
   -5236    -5045    -4928    -4953    -5080    -5211    -5296    -5360 
   -5387    -5375    -5374    -5348    -5248    -5139    -5068    -5032 
   -5053    -5158    -5315    -5428    -5416    -5313    -5223    -5192 
   -5202    -5225    -5218    -5156    -5085    -5097    -5204    -5339 
   -5418    -5401    -5367    -5419    -5496    -5479    -5360    -5198 
   -5034    -4925    -4942    -5084    -5249    -5338    -5327    -5241 
   -5115    -5010    -5008    -5106    -5191    -5202    -5187    -5212 
   -5305    -5406    -5423    -5372    -5320    -5291    -5300    -5301 
   -5233    -5130    -5078    -5109    -5194    -5282    -5334    -5350 
   -5336    -5279    -5194    -5145    -5157    -5157    -5090    -5022 
   -5039    -5134    -5241    -5338    -5411    -5403    -5322    -5269 
   -5267    -5266    -5259    -5227    -5158    -5117    -5139    -5195 
   -5283    -5369    -5378    -5320    -5256    -5188    -5115    -5126 
   -5248    -5344    -5348    -5328    -5279    -5202    -5174    -5194 
   -5221    -5277    -5361    -5422    -5418    -5341    -5227    -5140 
   -5117    -5126    -5105    -5067    -5056    -5070    -5118    -5185 
   -5239    -5310    -5387    -5390    -5329    -5281    -5262    -5241 
   -5201    -5162    -5144    -5116    -5100    -5162    -5238    -5252 
   -5239    -5215    -5184    -5178    -5201    -5244    -5292    -5316 
   -5304    -5252    -5207    -5229    -5265    -5270    -5293    -5309 
   -5269    -5215    -5159    -5093    -5081    -5159    -5275    -5372 
   -5409    -5364    -5299    -5265    -5213    -5130    -5094    -5131 
   -5200    -5270    -5341    -5408    -5442    -5418    -5336    -5209 
   -5055    -4928    -4914    -5010    -5098    -5130    -5149    -5206 
   -5325    -5447    -5479    -5401    -5287    -5236    -5256    -5301 
   -5382    -5461    -5427    -5296    -5169    -5068    -5009    -5034 
   -5117    -5205    -5304    -5427    -5548    -5603    -5535    -5361 
   -5181    -5072    -5039    -5070    -5134    -5186    -5200    -5167 
   -5122    -5135    -5206    -5265    -5270    -5225    -5139    -5044 
   -5025    -5121    -5273    -5418    -5512    -5516    -5463    -5395 
   -5299    -5188    -5079    -4939    -4809    -4807    -4943    -5109 
   -5242    -5356    -5446    -5482    -5456    -5389    -5291    -5188 
   -5126    -5118    -5150    -5208    -5269    -5299    -5297    -5315 
   -5373    -5424    -5431    -5385    -5289    -5173    -5093    -5070 
   -5061    -5042    -5057    -5134    -5264    -5417    -5528    -5519 
   -5400    -5256    -5128    -5036    -5028    -5114    -5253    -5418 
   -5556    -5600    -5549    -5445    -5279    -5069    -4935    -4963 
   -5084    -5168    -5174    -5144    -5124    -5133    -5179    -5236 
   -5242    -5184    -5134    -5122    -5117    -5127    -5180    -5234 
   -5242    -5237    -5262    -5326    -5409    -5450    -5436    -5397 
   -5312    -5181    -5053    -4926    -4817    -4800    -4884    -5028 
   -5227    -5429    -5536    -5536    -5491    -5458    -5463    -5454 
   -5364    -5227    -5105    -5022    -5028    -5149    -5292    -5353 
   -5330    -5281    -5229    -5176    -5140    -5107    -5073    -5089 
   -5165    -5275    -5433    -5574    -5577    -5467    -5389    -5388 
   -5380    -5320    -5248    -5200    -5169    -5135    -5086    -5024 
   -4966    -4925    -4911    -4959    -5084    -5255    -5410    -5457 
   -5367    -5273    -5302    -5393    -5456    -5485    -5479    -5451 
   -5425    -5374    -5293    -5214    -5101    -4926    -4778    -4766 
   -4903    -5099    -5233    -5266    -5251    -5251    -5299    -5360 
   -5376    -5324    -5209    -5097    -5076    -5129    -5185    -5205 
   -5189    -5174    -5185    -5228    -5310    -5413    -5479    -5451 
   -5343    -5240    -5201    -5185    -5115    -5013    -4974    -5042 
   -5181    -5312    -5376    -5367    -5310    -5262    -5261    -5274 
   -5279    -5295    -5317    -5334    -5355    -5391    -5430    -5434 
   -5372    -5292    -5241    -5169    -5022    -4854    -4775    -4826 
   -4944    -5096    -5289    -5460    -5507    -5431    -5332    -5274 
   -5236    -5203    -5199    -5216    -5240    -5299    -5378    -5382 
   -5261    -5108    -5026    -5016    -5061    -5141    -5195    -5195 
   -5151    -5088    -5095    -5232    -5407    -5506    -5536    -5545 
   -5530    -5499    -5457    -5364    -5204    -5042    -4974    -5012 
   -5069    -5113    -5190    -5271    -5291    -5297    -5362    -5470 
   -5583    -5643    -5603    -5502    -5391    -5271    -5149    -5036 
   -4953    -4943    -5018    -5140    -5256    -5305    -5257    -5171 
   -5158    -5201    -5212    -5232    -5298    -5310    -5231    -5138 
   -5089    -5089    -5111    -5143    -5189    -5199    -5176    -5194 
   -5256    -5318    -5346    -5306    -5216    -5131    -5086    -5125 
   -5263    -5426    -5504    -5463    -5380    -5282    -5138    -4997 
   -4903    -4829    -4802    -4876    -5029    -5199    -5325    -5371 
   -5302    -5115    -4926    -4861    -4903    -4965    -5039    -5125 
   -5174    -5224    -5368    -5552    -5661    -5627    -5446    -5237 
   -5147    -5166    -5188    -5166    -5103    -5013    -4964    -5048 
   -5260    -5474    -5559    -5523    -5478    -5448    -5397    -5343 
   -5293    -5250    -5279    -5403    -5594    -5815    -5953    -5898 
   -5693    -5464    -5277    -5148    -5051    -4927    -4745    -4525 
   -4357    -4330    -4432    -4628    -4930    -5303    -5632    -5824 
   -5900    -5942    -5955    -5899    -5789    -5640    -5451    -5222 
   -4958    -4755    -4750    -4908    -5048    -5059    -4975    -4888 
   -4866    -4882    -4889    -4925    -5023    -5159    -5305    -5426 
   -5524    -5634    -5705    -5689    -5664    -5682    -5701    -5672 
   -5539    -5300    -5086    -4979    -4913    -4843    -4739    -4567 
   -4447    -4526    -4744    -4991    -5246    -5486    -5661    -5754 
   -5801    -5821    -5761    -5619    -5490    -5420    -5410    -5454 
   -5439    -5236    -4915    -4625    -4416    -4343    -4436    -4620 
   -4831    -5097    -5385    -5570    -5619    -5646    -5734    -5846 
   -5933    -5994    -5990    -5829    -5514    -5148    -4788    -4458 
   -4249    -4243    -4426    -4731    -5062    -5308    -5418    -5435 
   -5448    -5504    -5556    -5596    -5678    -5760    -5756    -5680 
   -5543    -5330    -5098    -4923    -4840    -4860    -4932    -4966 
   -4900    -4754    -4644    -4637    -4712    -4893    -5195    -5545 
   -5859    -6047    -6042    -5877    -5645    -5421    -5225    -5054 
   -4952    -4917    -4903    -4972    -5168    -5368    -5491    -5547 
   -5497    -5309    -5045    -4851    -4833    -4939    -5084    -5276 
   -5515    -5697    -5677    -5497    -5360    -5311    -5247    -5177 
   -5146    -5062    -4871    -4700    -4631    -4614    -4689    -4920 
   -5199    -5439    -5619    -5638    -5515    -5404    -5339    -5302 
   -5350    -5460    -5509    -5487    -5503    -5567    -5571    -5481 
   -5367    -5260    -5105    -4924    -4842    -4909    -5034    -5092 
   -5022    -4847    -4693    -4729    -5028    -5460    -5812    -6003 
   -6095    -6145    -6115    -5939    -5687    -5480    -5264    -4956 
   -4662    -4510    -4562    -4808    -5081    -5190    -5106    -4912 
   -4731    -4652    -4688    -4819    -5007    -5216    -5441    -5650 
   -5777    -5807    -5776    -5707    -5604    -5506    -5440    -5323 
   -5086    -4808    -4635    -4638    -4744    -4801    -4754    -4650 
   -4575    -4619    -4743    -4855    -4969    -5113    -5301    -5570 
   -5873    -6114    -6215    -6063    -5644    -5166    -4867    -4786 
   -4812    -4854    -4910    -5038    -5291    -5627    -5912    -6063 
   -6059    -5883    -5576    -5273    -5044    -4888    -4855    -4944 
   -5034    -5114    -5316    -5607    -5788    -5809    -5767    -5692 
   -5607    -5593    -5623    -5554    -5349    -5100    -4870    -4695 
   -4637    -4724    -4889    -5043    -5156    -5212    -5224    -5278 
   -5416    -5573    -5694    -5745    -5695    -5568    -5367    -5092 
   -4784    -4427    -4052    -3863    -4050    -4571    -5180    -5637 
   -5855    -5819    -5594    -5395    -5370    -5423    -5387    -5228 
   -5041    -4901    -4799    -4734    -4735    -4786    -4864    -4989 
   -5188    -5425    -5573    -5500    -5193    -4802    -4562    -4600 
   -4864    -5235    -5600    -5868    -5978    -5907    -5697    -5447 
   -5265    -5217    -5279    -5342    -5338    -5326    -5326    -5259 
   -5139    -5093    -5185    -5341    -5419    -5400    -5339    -5187 
   -4954    -4754    -4637    -4634    -4800    -5122    -5524    -5878 
   -6049    -5978    -5739    -5489    -5319    -5231    -5269    -5426 
   -5577    -5656    -5655    -5534    -5293    -5006    -4778    -4673 
   -4654    -4698    -4828    -5004    -5101    -5066    -5009    -5039 
   -5132    -5282    -5532    -5782    -5850    -5700    -5420    -5154 
   -5042    -5105    -5243    -5349    -5385    -5390    -5396    -5366 
   -5294    -5243    -5214    -5158    -5107    -5115    -5145    -5155 
   -5128    -5041    -4922    -4868    -4923    -5031    -5141    -5235 
   -5294    -5317    -5352    -5460    -5609    -5685    -5647    -5571 
   -5504    -5447    -5371    -5198    -4950    -4788    -4811    -5002 
   -5263    -5449    -5476    -5400    -5337    -5356    -5441    -5497 
   -5373    -5013    -4593    -4365    -4367    -4457    -4566    -4739 
   -4993    -5334    -5739    -6033    -6049    -5801    -5423    -5120 
   -5035    -5087    -5144    -5131    -5001    -4850    -4840    -4963 
   -5085    -5090    -4984    -4909    -4992    -5249    -5551    -5671 
   -5555    -5411    -5413    -5537    -5698    -5840    -5902    -5836 
   -5616    -5277    -4955    -4777    -4735    -4795    -4962    -5190 
   -5398    -5543    -5632    -5662    -5595    -5446    -5296    -5168 
   -5071    -5081    -5231    -5416    -5518    -5515    -5406    -5184 
   -4925    -4737    -4666    -4708    -4832    -4999    -5193    -5396 
   -5553    -5605    -5527    -5337    -5148    -5098    -5193    -5293 
   -5292    -5233    -5183    -5093    -4954    -4924    -5042    -5159 
   -5219    -5263    -5283    -5319    -5437    -5578    -5643    -5623 
   -5511    -5305    -5084    -4922    -4813    -4771    -4816    -4892 
   -4961    -5042    -5112    -5117    -5071    -5020    -4967    -4919 
   -4919    -4964    -5026    -5156    -5405    -5711    -5979    -6135 
   -6105    -5898    -5624    -5397    -5253    -5146    -5044    -4960 
   -4932    -5015    -5206    -5409    -5556    -5636    -5610    -5487 
   -5380    -5390    -5531    -5717    -5797    -5706    -5522    -5324 
   -5137    -5029    -5026    -5005    -4889    -4764    -4690    -4639 
   -4648    -4783    -4965    -5095    -5222    -5375    -5478    -5513 
   -5473    -5290    -4996    -4751    -4669    -4758    -4938    -5078 
   -5095    -5026    -4990    -5085    -5245    -5306    -5244    -5170 
   -5147    -5158    -5201    -5293    -5385    -5414    -5407    -5453 
   -5578    -5679    -5614    -5371    -5087    -4890    -4793    -4760 
   -4790    -4853    -4858    -4838    -4977    -5285    -5579    -5764 
   -5842    -5792    -5656    -5554    -5535    -5530    -5489    -5434 
   -5361    -5263    -5196    -5203    -5230    -5230    -5244    -5312 
   -5409    -5501    -5530    -5449    -5329    -5270    -5261    -5232 
   -5147    -5056    -5076    -5229    -5418    -5557    -5608    -5529 
   -5300    -5009    -4854    -4909    -5080    -5290    -5458    -5477 
   -5389    -5337    -5361    -5386    -5308    -5121    -4913    -4714 
   -4545    -4516    -4671    -4854    -4954    -5042    -5161    -5259 
   -5318    -5327    -5260    -5149    -5046    -4964    -4927    -4989 
   -5151    -5358    -5577    -5774    -5882    -5857    -5707    -5493 
   -5293    -5148    -5070    -5058    -5079    -5073    -4991    -4851 
   -4751    -4768    -4876    -4984    -5086    -5235    -5418    -5573 
   -5656    -5661    -5629    -5623    -5665    -5711    -5711    -5686 
   -5665    -5593    -5424    -5213    -5023    -4891    -4820    -4756 
   -4700    -4697    -4725    -4795    -4959    -5173    -5377    -5576 
   -5765    -5904    -5939    -5822    -5570    -5263    -4976    -4738 
   -4560    -4466    -4453    -4506    -4695    -5063    -5504    -5894 
   -6145    -6133    -5818    -5371    -5043    -4962    -5047    -5121 
   -5125    -5117    -5081    -4986    -4922    -4943    -4964    -4938 
   -4940    -5015    -5105    -5147    -5152    -5157    -5139    -5094 
   -5114    -5283    -5543    -5739    -5778    -5702    -5591    -5470 
   -5317    -5096    -4844    -4712    -4843    -5176    -5475    -5570 
   -5495    -5370    -5269    -5249    -5335    -5441    -5451    -5334 
   -5151    -5015    -5006    -5114    -5267    -5426    -5594    -5727 
   -5751    -5655    -5475    -5205    -4886    -4677    -4688    -4864 
   -5097    -5319    -5457    -5447    -5332    -5242    -5239    -5296 
   -5397    -5506    -5536    -5446    -5276    -5089    -4943    -4894 
   -4951    -5095    -5308    -5498    -5539    -5457    -5368    -5309 
   -5283    -5244    -5117    -4958    -4863    -4835    -4889    -5039 
   -5200    -5289    -5301    -5255    -5172    -5087    -5035    -5002 
   -4958    -4922    -4935    -5013    -5128    -5230    -5289    -5306 
   -5285    -5247    -5261    -5364    -5457    -5430    -5313    -5201 
   -5151    -5176    -5236    -5266    -5235    -5137    -5018    -4990 
   -5097    -5272    -5465    -5648    -5769    -5829    -5830    -5700 
   -5456    -5238    -5127    -5117    -5185    -5278    -5358    -5425 
   -5423    -5303    -5125    -4991    -4966    -5038    -5122    -5179 
   -5214    -5234    -5266    -5301    -5303    -5273    -5236    -5261 
   -5389    -5496    -5473    -5371    -5231    -5042    -4841    -4713 
   -4738    -4894    -5096    -5299    -5449    -5507    -5550    -5622 
