Origin Time       2025/03/30 21:30:00
Lat.              38.535
Long.             142.295
Depth. (km)       44
Mag.              4.3
Station Code      IWTH04
Station Lat.      39.1809
Station Long.     141.3909
Station Height(m) 514
Record Time       2025/03/30 21:31:26
Sampling Freq(Hz) 100Hz
Duration Time(s)  120
Dir.              3
Scale Factor      2942(gal)/8224139
Max. Acc. (gal)   0.480
Last Correction   2025/03/30 21:31:26
Memo.             
[...]
   10719    10720    10723    10720    10720    10723    10719    10717 
   10721    10717    10719    10727    10724    10717    10719    10721 
   10720    10717    10720    10725    10723    10719    10717    10716 
   10717    10720    10721    10724    10721    10714    10719    10723 
   10720    10724    10725    10720    10723    10723    10719    10724 
   10725    10723    10724    10725    10725    10725    10720    10723 
   10727    10723    10721    10721    10721    10729    10731    10721 
   10720    10723    10723    10724    10728    10724    10723    10725 
   10725    10725    10729    10728    10723    10725    10725    10724 
   10727    10725    10724    10729    10727    10721    10729    10729 
   10720    10720    10725    10727    10723    10717    10727    10727 
   10720    10723    10728    10721    10720    10725    10724    10725 
   10727    10720    10719    10720    10717    10716    10719    10717 
   10721    10724    10717    10714    10716    10720    10721    10719 
   10719    10721    10720    10721    10721    10719    10723    10724 
   10720    10721    10719    10719    10723    10720    10721    10724 
   10719    10716    10723    10725    10723    10724    10723    10719 
   10720    10723    10723    10723    10724    10724    10723    10721 
   10723    10727    10728    10723    10723    10727    10724    10720 
   10725    10725    10721    10723    10723    10720    10723    10724 
   10725    10729    10727    10725    10723    10721    10720    10719 
   10717    10717    10714    10714    10713    10709    10712    10717 
   10721    10729    10732    10736    10737    10725    10724    10731 
   10717    10701    10702    10700    10693    10702    10704    10662 
   10625    10639    10692    10758    10793    10762    10701    10678 
   10721    10817    10883    10833    10721    10701    10806    10885 
   10822    10712    10685    10760    10805    10725    10667    10729 
   10795    10771    10660    10525    10539    10762    10947    10847 
   10555    10422    10665    10998    11005    10704    10420    10488 
   10894    11065    10760    10534    10570    10636    10710    10768 
   10844    10854    10741    10694    10678    10678    10724    10706 
   10627    10586    10735    10912    10770    10540    10584    10743 
   10831    10855    10764    10615    10574    10627    10671    10682 
   10682    10679    10635    10655    10739    10698    10682    10872 
   10921    10686    10606    10663    10651    10852    10990    10735 
   10609    10731    10766    10704    10621    10662    10801    10806 
   10729    10750    10835    10875    10804    10689    10627    10589 
   10651    10852    10886    10667    10558    10667    10727    10659 
   10663    10783    10883    10882    10725    10589    10714    10835 
   10721    10642    10690    10654    10598    10724    10832    10750 
   10669    10677    10760    10874    10795    10638    10701    10797 
   10708    10589    10654    10837    10860    10727    10643    10660 
   10705    10713    10793    10868    10766    10694    10685    10631 
   10669    10786    10860    10791    10673    10690    10696    10656 
   10692    10654    10662    10890    10933    10687    10613    10712 
   10728    10732    10679    10582    10669    10782    10774    10748 
   10633    10609    10824    10863    10741    10804    10731    10561 
   10759    10870    10678    10727    10783    10615    10638    10682 
   10633    10786    10832    10682    10675    10710    10724    10764 
   10736    10678    10643    10681    10728    10675    10685    10732 
   10669    10615    10602    10681    10887    10905    10677    10559 
   10625    10764    10845    10805    10737    10635    10627    10789 
   10824    10771    10806    10767    10696    10700    10651    10632 
   10714    10746    10763    10752    10635    10640    10825    10895 
   10747    10631    10723    10737    10612    10689    10747    10650 
   10750    10855    10737    10682    10752    10747    10724    10836 
   10898    10778    10714    10754    10732    10667    10648    10729 
   10801    10735    10696    10739    10708    10686    10713    10667 
   10713    10843    10733    10546    10579    10732    10866    10810 
   10586    10573    10713    10724    10767    10903    10839    10592 
   10605    10793    10700    10628    10743    10678    10594    10674 
   10747    10763    10747    10781    10825    10728    10663    10783 
   10768    10600    10608    10669    10724    10870    10789    10547 
   10596    10833    10881    10724    10658    10774    10828    10778 
   10744    10693    10686    10791    10820    10733    10662    10666 
   10786    10843    10667    10501    10534    10662    10768    10781 
   10758    10706    10593    10683    10840    10673    10604    10802 
   10793    10748    10836    10743    10636    10754    10822    10747 
   10737    10759    10719    10666    10611    10589    10682    10824 
   10827    10679    10639    10775    10824    10714    10719    10798 
   10744    10723    10736    10647    10625    10729    10795    10744 
   10694    10710    10652    10601    10686    10762    10755    10775 
   10824    10767    10642    10574    10601    10729    10808    10751 
   10727    10754    10701    10681    10809    10855    10750    10739 
   10773    10687    10625    10675    10708    10729    10771    10760 
   10724    10709    10737    10779    10705    10633    10704    10713 
   10673    10748    10747    10678    10775    10805    10681    10721 
   10782    10675    10654    10764    10820    10801    10760    10701 
   10693    10779    10801    10689    10597    10605    10659    10692 
   10721    10712    10696    10813    10864    10737    10663    10662 
   10696    10760    10743    10690    10706    10724    10714    10786 
   10849    10710    10602    10702    10731    10720    10820    10773 
   10647    10698    10719    10693    10770    10743    10665    10758 
   10751    10629    10729    10786    10693    10733    10760    10700 
   10705    10714    10719    10741    10732    10693    10632    10623 
   10679    10712    10743    10758    10725    10733    10743    10689 
   10678    10694    10642    10642    10773    10876    10875    10812 
   10694    10659    10727    10673    10633    10768    10729    10611 
   10725    10728    10638    10790    10782    10579    10704    10881 
   10783    10735    10812    10782    10681    10737    10847    10758 
   10679    10719    10667    10709    10867    10794    10609    10631 
   10797    10798    10606    10562    10704    10783    10735    10646 
   10679    10795    10822    10801    10727    10654    10729    10736 
   10620    10671    10790    10744    10681    10728    10786    10759 
   10712    10697    10677    10701    10723    10670    10685    10762 
   10766    10681    10605    10601    10611    10670    10755    10748 
   10750    10810    10820    10782    10812    10858    10756    10613 
   10646    10793    10837    10659    10467    10547    10762    10862 
   10804    10717    10767    10793    10693    10721    10806    10740 
   10706    10717    10592    10570    10798    10903    10793    10708 
   10667    10669    10760    10816    10687    10550    10596    10714 
   10849    10872    10671    10520    10619    10825    10883    10820 
   10794    10725    10725    10805    10683    10615    10708    10671 
   10727    10825    10608    10494    10701    10735    10644    10708 
   10692    10635    10728    10783    10817    10866    10741    10646 
   10764    10848    10779    10620    10535    10713    10887    10797 
   10681    10662    10677    10812    10882    10720    10644    10764 
   10820    10748    10690    10675    10681    10752    10808    10710 
   10562    10602    10755    10814    10825    10712    10557    10721 
   10913    10801    10702    10659    10596    10646    10723    10746 
   10705    10623    10602    10561    10544    10750    10866    10683 
   10656    10798    10751    10767    10839    10694    10667    10848 
   10847    10713    10697    10690    10682    10768    10822    10797 
   10729    10698    10771    10760    10671    10686    10685    10679 
   10706    10662    10663    10692    10717    10831    10789    10600 
   10581    10739    10910    10849    10617    10566    10725    10863 
   10820    10752    10770    10736    10706    10736    10768    10762 
   10590    10488    10729    10916    10812    10717    10701    10724 
   10771    10654    10569    10758    10849    10719    10648    10659 
   10694    10714    10690    10670    10686    10800    10864    10746 
   10701    10810    10849    10760    10615    10574    10663    10667 
   10652    10755    10740    10606    10670    10820    10785    10736 
   10782    10750    10739    10864    10786    10539    10577    10739 
   10721    10716    10773    10756    10727    10736    10778    10764 
   10640    10639    10736    10727    10768    10751    10615    10705 
   10813    10731    10736    10775    10736    10719    10692    10681 
   10797    10849    10690    10573    10625    10782    10940    10833 
   10615    10621    10677    10727    10773    10655    10598    10620 
   10601    10817    11034    10860    10669    10670    10633    10701 
   10921    10871    10592    10535    10655    10717    10697    10593 
   10542    10625    10740    10817    10778    10690    10731    10829 
   10835    10713    10617    10721    10814    10741    10686    10669 
   10723    10835    10791    10740    10760    10705    10723    10755 
   10669    10639    10704    10764    10754    10681    10677    10732 
   10724    10678    10739    10822    10733    10644    10660    10658 
   10690    10733    10752    10748    10690    10714    10716    10605 
   10673    10800    10713    10651    10736    10809    10910    10972 
   10766    10559    10697    10832    10740    10659    10679    10786 
   10812    10687    10710    10825    10762    10677    10725    10682 
   10578    10736    10851    10713    10693    10667    10561    10652 
   10800    10845    10824    10709    10671    10793    10813    10687 
   10674    10701    10616    10632    10725    10656    10586    10685 
   10767    10735    10748    10762    10686    10706    10744    10623 
   10594    10698    10766    10833    10787    10659    10666    10709 
   10727    10805    10837    10790    10800    10754    10592    10635 
   10835    10829    10717    10696    10717    10716    10700    10709 
   10669    10609    10748    10855    10708    10650    10723    10723 
   10789    10872    10831    10817    10759    10625    10656    10732 
   10732    10789    10783    10612    10523    10698    10844    10724 
   10629    10704    10679    10544    10593    10733    10689    10643 
   10740    10839    10868    10817    10806    10831    10760    10733 
   10720    10673    10697    10611    10517    10660    10829    10801 
   10663    10658    10732    10754    10818    10872    10848    10794 
   10759    10797    10833    10795    10725    10639    10589    10677 
   10813    10810    10744    10639    10488    10543    10692    10735 
   10782    10732    10662    10762    10760    10662    10774    10821 
   10651    10620    10615    10611    10862    10906    10670    10709 
   10791    10686    10694    10708    10623    10705    10848    10739 
   10544    10536    10696    10827    10756    10677    10733    10786 
   10912    10986    10770    10642    10817    10899    10708    10489 
   10473    10600    10710    10778    10737    10677    10797    10932 
   10952    10875    10670    10588    10732    10805    10727    10714 
   10752    10670    10652    10767    10690    10531    10561    10609 
   10659    10832    10870    10713    10705    10806    10766    10782 
   10887    10771    10685    10843    10805    10546    10534    10694 
   10678    10631    10716    10655    10509    10702    11011    10932 
   10700    10694    10716    10710    10820    10824    10635    10538 
   10662    10741    10654    10740    10921    10775    10551    10696 
   10945    10944    10777    10517    10386    10608    10806    10710 
   10677    10787    10737    10662    10752    10724    10633    10808 
   10879    10694    10743    10783    10534    10531    10725    10692 
   10631    10639    10623    10712    10810    10783    10821    10889 
   10777    10685    10746    10741    10731    10785    10729    10724 
   10847    10847    10818    10816    10714    10709    10876    10906 
   10768    10782    10822    10621    10488    10584    10662    10733 
   10755    10674    10789    10901    10700    10662    10804    10736 
   10719    10798    10771    10743    10735    10775    10868    10856 
   10755    10697    10741    10789    10779    10833    10862    10804 
   10747    10654    10698    10953    11022    10762    10520    10535 
   10665    10743    10791    10763    10585    10511    10642    10605 
   10369    10234    10288    10482    10503    10266    10274    10613 
   10837    10858    10805    10673    10531    10517    10582    10512 
   10342    10249    10091     9915    10044    10281    10434    10662 
   10816    10822    11002    11283    11326    11341    11547    11507 
   11065    10929    11368    11642    11408    11102    10897    10735 
   10597    10280     9913     9992    10323    10338    10266    10694 
   11524    12066    12035    11873    11716    11296    10914    10678 
   10251    10050    10068     9678     9510    10061    10561    10623 
   10508    10581    10879    10976    10998    11136    10955    10706 
   10762    10582    10251    10393    10728    10733    10492    10400 
   10636    10787    10702    10891    11061    10669    10326    10413 
   10590    10876    11146    11086    10917    10777    10685    10893 
   11109    10948    10719    10731    10754    10477    10226    10373 
   10515    10439    10517    10697    10747    10903    11094    10908 
   10651    10791    11102    11250    11129    10771    10539    10849 
   11323    11157    10639    10524    10656    10758    10762    10408 
    9956     9906    10166    10399    10439    10586    10991    11137 
   11105    11294    11256    11016    11086    11076    10754    10635 
   10778    10538     9825     9680    10378    10705    10584    10875 
   10929    10336    10201    10623    10675    10420    10503    10786 
   10836    10918    11090    10966    10903    11071    10975    10910 
   11070    10972    10789    10697    10600    10746    10968    11095 
   11188    10970    10724    10795    10740    10505    10428    10419 
   10304    10237    10439    10739    10897    10936    10902    10876 
   10940    11057    11144    11132    11009    10822    10701    10588 
   10361    10405    10754    10770    10534    10516    10665    10779 
   10725    10611    10679    10723    10620    10665    10741    10602 
   10438    10471    10547    10372    10251    10395    10458    10492 
   10515    10523    10706    10813    10897    11113    11022    10740 
   10812    11011    10903    10748    10786    10744    10597    10521 
   10504    10566    10724    10863    10837    10770    10797    10748 
   10858    11209    11014    10409    10382    10737    10901    10841 
   10608    10586    10928    11196    11290    11126    10717    10598 
   10662    10534    10503    10631    10608    10503    10589    10677 
   10538    10455    10500    10589    10767    10697    10503    10670 
   10800    10679    10724    10835    10849    10870    10805    10804 
   11044    11178    10980    10679    10696    11010    11005    10787 
   10843    10841    10692    10758    10956    11061    10972    10748 
   10639    10598    10540    10550    10453    10331    10517    10744 
   10845    10974    10874    10689    10694    10615    10733    10987 
   10629    10311    10579    10642    10567    10682    10598    10521 
   10625    10619    10611    10659    10729    10891    10871    10663 
   10710    10881    10754    10567    10669    10693    10438    10430 
   10665    10671    10617    10701    10674    10505    10555    10824 
   10831    10721    10864    10914    10824    10825    10701    10558 
   10640    10727    10725    10706    10667    10635    10621    10646 
   10666    10632    10593    10594    10690    10814    10712    10492 
   10638    10939    10886    10789    10804    10705    10758    10899 
   10864    10986    11109    10828    10709    10967    11061    11099 
   11179    10974    10719    10665    10552    10415    10492    10574 
   10517    10505    10539    10590    10744    10887    10893    10887 
   10909    10831    10750    10732    10710    10810    10901    10640 
   10485    10882    11102    10789    10655    10752    10620    10534 
   10669    10569    10309    10376    10567    10565    10627    10868 
   10960    10798    10655    10751    10924    10903    10804    10716 
   10601    10666    10743    10544    10476    10724    10813    10646 
   10536    10450    10476    10827    10970    10779    10840    10886 
   10697    10714    10797    10714    10608    10532    10503    10501 
   10628    10870    10906    10748    10729    10827    10848    10863 
   10763    10536    10592    10824    10891    10921    10903    10663 
   10488    10748    11071    10983    10710    10593    10665    10697 
   10625    10682    10728    10608    10656    10878    10795    10525 
   10656    10929    10840    10697    10654    10619    10802    11036 
   10967    10793    10822    10957    10941    10806    10682    10552 
   10484    10486    10434    10386    10480    10694    10832    10794 
   10854    11024    11001    10968    11026    10794    10457    10505 
   10662    10646    10631    10600    10582    10662    10740    10802 
   10806    10692    10651    10754    10717    10584    10659    10787 
   10756    10667    10640    10717    10741    10575    10519    10689 
   10636    10407    10494    10737    10812    10721    10521    10508 
   10716    10736    10724    10882    10832    10638    10617    10690 
   10773    10773    10725    10813    10866    10863    10929    10844 
   10759    10910    11011    10971    10852    10747    10882    10952 
   10693    10525    10419    10237    10515    10926    10770    10566 
   10648    10566    10427    10629    10876    10808    10729    10787 
   10770    10725    10735    10770    10822    10836    10798    10774 
   10770    10771    10825    10854    10789    10770    10771    10758 
   10835    10841    10698    10586    10525    10543    10702    10858 
   10847    10677    10563    10698    10806    10708    10746    10885 
   10845    10743    10632    10540    10531    10458    10405    10542 
   10706    10700    10584    10611    10733    10766    10872    10974 
   10783    10536    10602    10847    10855    10716    10709    10606 
   10555    10748    10771    10779    10930    10824    10725    10864 
   10874    10808    10809    10702    10632    10766    10829    10674 
   10547    10651    10732    10644    10731    10870    10758    10611 
   10562    10659    10802    10746    10665    10700    10751    10809 
   10839    10878    10829    10623    10628    10786    10736    10678 
