Origin Time       2025/03/30 21:30:00
Lat.              38.535
Long.             142.295
Depth. (km)       44
Mag.              4.3
Station Code      IWTH22
Station Lat.      39.3340
Station Long.     141.3015
Station Height(m) 160
Record Time       2025/03/30 21:31:30
Sampling Freq(Hz) 100Hz
Duration Time(s)  120
Dir.              2
Scale Factor      3923(gal)/8224838
Max. Acc. (gal)   0.266
Last Correction   2025/03/30 21:31:30
Memo.             
[...]
  -27444   -27473   -27540   -27575   -27564   -27521   -27494   -27488 
  -27483   -27506   -27550   -27569   -27529   -27429   -27392   -27499 
  -27616   -27630   -27569   -27500   -27477   -27473   -27457   -27487 
  -27572   -27643   -27627   -27499   -27369   -27382   -27511   -27596 
  -27579   -27546   -27521   -27477   -27445   -27434   -27496   -27618 
  -27631   -27514   -27392   -27378   -27504   -27616   -27577   -27483 
  -27459   -27498   -27537   -27531   -27511   -27518   -27535   -27525 
  -27484   -27446   -27460   -27522   -27576   -27596   -27572   -27491 
  -27432   -27453   -27507   -27552   -27571   -27562   -27514   -27460 
  -27477   -27531   -27548   -27522   -27495   -27500   -27513   -27537 
  -27572   -27525   -27471   -27492   -27481   -27442   -27460   -27531 
  -27608   -27584   -27468   -27386   -27388   -27492   -27598   -27584 
  -27530   -27513   -27481   -27433   -27421   -27476   -27581   -27639 
  -27573   -27463   -27438   -27492   -27530   -27526   -27506   -27484 
  -27487   -27499   -27504   -27548   -27585   -27554   -27487   -27459 
  -27492   -27548   -27568   -27533   -27510   -27552   -27565   -27514 
  -27468   -27465   -27530   -27599   -27538   -27383   -27351   -27513 
  -27665   -27627   -27467   -27411   -27517   -27581   -27507   -27426 
  -27491   -27637   -27619   -27433   -27325   -27438   -27657   -27688 
  -27495   -27386   -27481   -27589   -27558   -27459   -27434   -27525 
  -27637   -27598   -27418   -27369   -27514   -27612   -27550   -27454 
  -27453   -27495   -27499   -27495   -27494   -27525   -27595   -27573 
  -27442   -27387   -27481   -27600   -27600   -27511   -27488   -27545 
  -27567   -27521   -27452   -27432   -27504   -27557   -27492   -27427 
  -27468   -27564   -27596   -27519   -27444   -27460   -27519   -27556 
  -27530   -27500   -27540   -27589   -27561   -27481   -27445   -27471 
  -27511   -27537   -27529   -27526   -27564   -27538   -27441   -27425 
  -27518   -27603   -27554   -27415   -27422   -27604   -27714   -27606 
  -27387   -27298   -27476   -27702   -27664   -27440   -27333   -27453 
  -27608   -27527   -27313   -27325   -27573   -27733   -27634   -27410 
  -27348   -27560   -27754   -27626   -27359   -27310   -27523   -27719 
  -27629   -27403   -27364   -27507   -27615   -27562   -27426   -27402 
  -27521   -27610   -27556   -27464   -27483   -27558   -27533   -27442 
  -27444   -27535   -27592   -27542   -27453   -27433   -27510   -27584 
  -27521   -27413   -27454   -27558   -27579   -27545   -27508   -27506 
  -27506   -27464   -27469   -27545   -27621   -27664   -27596   -27456 
  -27418   -27459   -27476   -27499   -27549   -27589   -27575   -27468 
  -27348   -27375   -27557   -27688   -27599   -27415   -27390   -27530 
  -27631   -27568   -27453   -27444   -27545   -27619   -27535   -27386 
  -27400   -27575   -27670   -27576   -27413   -27352   -27454   -27610 
  -27652   -27571   -27460   -27427   -27513   -27568   -27538   -27557 
  -27589   -27540   -27457   -27384   -27405   -27567   -27668   -27572 
  -27422   -27395   -27503   -27576   -27495   -27399   -27436   -27550 
  -27616   -27602   -27529   -27456   -27469   -27530   -27534   -27504 
  -27477   -27464   -27494   -27533   -27544   -27529   -27507   -27514 
  -27514   -27469   -27457   -27508   -27561   -27589   -27558   -27476 
  -27450   -27541   -27637   -27591   -27432   -27349   -27436   -27569 
  -27589   -27508   -27452   -27500   -27592   -27548   -27394   -27403 
  -27584   -27665   -27541   -27367   -27359   -27552   -27715   -27630 
  -27392   -27317   -27495   -27669   -27627   -27436   -27352   -27495 
  -27637   -27576   -27438   -27415   -27550   -27665   -27537   -27337 
  -27387   -27606   -27711   -27608   -27414   -27365   -27518   -27650 
  -27623   -27487   -27395   -27459   -27534   -27517   -27513   -27554 
  -27577   -27523   -27415   -27390   -27506   -27645   -27642   -27508 
  -27422   -27454   -27511   -27530   -27513   -27492   -27495   -27504 
  -27498   -27481   -27472   -27500   -27540   -27518   -27469   -27467 
  -27484   -27518   -27599   -27639   -27541   -27402   -27403   -27542 
  -27662   -27635   -27479   -27361   -27413   -27565   -27629   -27535 
  -27454   -27491   -27533   -27502   -27459   -27477   -27571   -27626 
  -27573   -27488   -27433   -27442   -27486   -27503   -27537   -27600 
  -27596   -27507   -27407   -27402   -27519   -27603   -27535   -27423 
  -27417   -27510   -27575   -27544   -27488   -27488   -27537   -27550 
  -27495   -27457   -27515   -27626   -27642   -27508   -27384   -27394 
  -27503   -27603   -27587   -27483   -27419   -27450   -27517   -27544 
  -27526   -27523   -27579   -27599   -27504   -27422   -27459   -27550 
  -27571   -27476   -27417   -27464   -27522   -27552   -27531   -27487 
  -27486   -27483   -27461   -27507   -27596   -27627   -27580   -27504 
  -27449   -27457   -27513   -27522   -27506   -27538   -27565   -27526 
  -27448   -27395   -27454   -27588   -27654   -27579   -27434   -27378 
  -27450   -27575   -27634   -27557   -27473   -27480   -27488   -27496 
  -27550   -27587   -27581   -27526   -27418   -27369   -27453   -27572 
  -27614   -27573   -27484   -27406   -27406   -27480   -27552   -27592 
  -27603   -27577   -27530   -27467   -27411   -27444   -27538   -27594 
  -27565   -27483   -27459   -27498   -27492   -27490   -27552   -27573 
  -27515   -27473   -27490   -27526   -27526   -27464   -27445   -27542 
  -27598   -27523   -27421   -27409   -27541   -27649   -27565   -27427 
  -27422   -27537   -27634   -27591   -27464   -27413   -27473   -27544 
  -27548   -27510   -27488   -27514   -27560   -27557   -27503   -27491 
  -27544   -27569   -27510   -27423   -27410   -27514   -27622   -27595 
  -27468   -27394   -27459   -27565   -27575   -27529   -27522   -27546 
  -27546   -27486   -27438   -27484   -27545   -27533   -27492   -27465 
  -27472   -27523   -27557   -27537   -27529   -27540   -27518   -27471 
  -27437   -27479   -27579   -27595   -27510   -27430   -27423   -27492 
  -27554   -27537   -27494   -27498   -27537   -27525   -27437   -27403 
  -27506   -27633   -27658   -27598   -27511   -27448   -27464   -27506 
  -27496   -27479   -27507   -27542   -27523   -27465   -27452   -27508 
  -27571   -27580   -27537   -27495   -27504   -27549   -27550   -27514 
  -27525   -27537   -27477   -27426   -27479   -27592   -27626   -27531 
  -27422   -27423   -27500   -27535   -27500   -27459   -27490   -27557 
  -27576   -27577   -27583   -27542   -27496   -27477   -27457   -27475 
  -27530   -27549   -27540   -27535   -27511   -27461   -27414   -27419 
  -27511   -27603   -27557   -27434   -27418   -27522   -27614   -27614 
  -27531   -27444   -27468   -27573   -27594   -27499   -27425   -27429 
  -27471   -27527   -27552   -27500   -27464   -27503   -27518   -27475 
  -27465   -27526   -27599   -27585   -27488   -27437   -27479   -27541 
  -27565   -27538   -27502   -27507   -27545   -27554   -27504   -27465 
  -27488   -27490   -27459   -27467   -27511   -27562   -27573   -27525 
  -27494   -27510   -27552   -27571   -27530   -27499   -27514   -27521 
  -27494   -27437   -27429   -27521   -27598   -27580   -27508   -27445 
  -27467   -27550   -27581   -27541   -27476   -27444   -27487   -27542 
  -27541   -27523   -27522   -27535   -27557   -27527   -27448   -27429 
  -27506   -27584   -27598   -27527   -27444   -27461   -27549   -27581 
  -27519   -27457   -27472   -27510   -27499   -27483   -27540   -27615 
  -27592   -27500   -27433   -27423   -27481   -27554   -27540   -27449 
  -27407   -27454   -27480   -27459   -27522   -27661   -27691   -27540 
  -27336   -27282   -27456   -27649   -27642   -27495   -27395   -27449 
  -27558   -27568   -27518   -27513   -27546   -27530   -27450   -27406 
  -27437   -27522   -27604   -27595   -27534   -27507   -27494   -27475 
  -27500   -27573   -27614   -27565   -27487   -27456   -27502   -27584 
  -27596   -27510   -27418   -27399   -27453   -27515   -27553   -27572 
  -27561   -27519   -27456   -27446   -27553   -27673   -27652   -27476 
  -27315   -27382   -27567   -27614   -27530   -27464   -27499   -27571 
  -27533   -27430   -27449   -27608   -27706   -27575   -27351   -27315 
  -27523   -27715   -27646   -27406   -27302   -27445   -27604   -27553 
  -27398   -27415   -27627   -27724   -27538   -27315   -27341   -27564 
  -27679   -27537   -27361   -27417   -27625   -27660   -27445   -27322 
  -27468   -27637   -27602   -27417   -27337   -27507   -27726   -27702 
  -27449   -27298   -27457   -27699   -27711   -27511   -27371   -27457 
  -27607   -27581   -27421   -27360   -27506   -27654   -27558   -27375 
  -27403   -27595   -27704   -27606   -27399   -27338   -27480   -27577 
  -27533   -27504   -27552   -27610   -27603   -27488   -27402   -27465 
  -27565   -27569   -27484   -27419   -27473   -27562   -27558   -27518 
  -27515   -27530   -27515   -27440   -27403   -27499   -27604   -27594 
  -27527   -27487   -27479   -27479   -27487   -27517   -27554   -27572 
  -27513   -27427   -27479   -27648   -27720   -27616   -27469   -27442 
  -27506   -27517   -27469   -27425   -27421   -27498   -27561   -27492 
  -27414   -27433   -27481   -27519   -27544   -27548   -27561   -27565 
  -27535   -27508   -27525   -27580   -27580   -27488   -27444   -27499 
  -27573   -27611   -27523   -27386   -27395   -27504   -27564   -27544 
  -27490   -27494   -27554   -27526   -27387   -27342   -27477   -27627 
  -27666   -27596   -27499   -27488   -27535   -27529   -27492   -27511 
  -27585   -27641   -27587   -27467   -27457   -27564   -27608   -27549 
  -27472   -27438   -27486   -27558   -27538   -27436   -27364   -27396 
  -27504   -27541   -27496   -27510   -27538   -27535   -27540   -27471 
  -27398   -27486   -27606   -27606   -27530   -27472   -27511   -27568 
  -27487   -27386   -27437   -27565   -27638   -27562   -27394   -27338 
  -27407   -27480   -27511   -27514   -27542   -27542   -27437   -27349 
  -27387   -27517   -27629   -27588   -27475   -27498   -27595   -27619 
  -27557   -27488   -27554   -27699   -27672   -27468   -27329   -27400 
  -27561   -27615   -27545   -27468   -27480   -27526   -27515   -27469 
  -27483   -27591   -27635   -27499   -27345   -27353   -27514   -27662 
  -27579   -27369   -27382   -27603   -27689   -27521   -27334   -27410 
  -27633   -27643   -27454   -27365   -27483   -27646   -27638   -27502 
  -27438   -27456   -27468   -27433   -27405   -27491   -27618   -27633 
  -27515   -27406   -27477   -27594   -27529   -27423   -27432   -27522 
  -27604   -27541   -27400   -27415   -27600   -27737   -27621   -27383 
  -27363   -27596   -27761   -27641   -27396   -27325   -27507   -27692 
  -27607   -27418   -27461   -27625   -27606   -27407   -27265   -27402 
  -27704   -27758   -27477   -27252   -27333   -27581   -27704   -27596 
  -27463   -27483   -27580   -27611   -27531   -27456   -27529   -27626 
  -27553   -27388   -27332   -27444   -27576   -27568   -27459   -27388 
  -27403   -27464   -27503   -27518   -27580   -27625   -27513   -27348 
  -27359   -27576   -27783   -27739   -27504   -27353   -27429   -27608 
  -27662   -27514   -27369   -27411   -27515   -27510   -27430   -27432 
  -27587   -27738   -27670   -27454   -27379   -27523   -27660   -27635 
  -27523   -27486   -27577   -27610   -27449   -27310   -27361   -27514 
  -27610   -27540   -27405   -27382   -27433   -27476   -27494   -27495 
  -27519   -27527   -27481   -27477   -27523   -27561   -27584   -27549 
  -27473   -27476   -27561   -27606   -27542   -27476   -27496   -27534 
  -27525   -27450   -27378   -27475   -27695   -27768   -27664   -27544 
  -27507   -27594   -27685   -27669   -27665   -27696   -27635   -27549 
  -27549   -27629   -27720   -27702   -27542   -27433   -27506   -27637 
  -27638   -27518   -27452   -27502   -27523   -27417   -27288   -27279 
  -27403   -27535   -27490   -27276   -27140   -27218   -27369   -27387 
  -27265   -27145   -27144   -27247   -27295   -27270   -27321   -27437 
  -27486   -27429   -27319   -27263   -27345   -27519   -27611   -27533 
  -27410   -27340   -27278   -27263   -27390   -27614   -27818   -27904 
  -27814   -27646   -27596   -27720   -27897   -27946   -27770   -27521 
  -27407   -27471   -27639   -27776   -27762   -27702   -27711   -27707 
  -27602   -27488   -27548   -27776   -27940   -27882   -27681   -27552 
  -27606   -27669   -27583   -27425   -27348   -27395   -27436   -27384 
  -27375   -27472   -27535   -27448   -27241   -27112   -27221   -27449 
  -27548   -27480   -27414   -27500   -27650   -27687   -27650   -27676 
  -27688   -27537   -27294   -27151   -27213   -27378   -27413   -27302 
  -27257   -27330   -27419   -27456   -27436   -27472   -27666   -27907 
  -27990   -27913   -27857   -27854   -27742   -27446   -27128   -27060 
  -27295   -27500   -27395   -27141   -27090   -27349   -27656   -27634 
  -27367   -27295   -27434   -27499   -27495   -27564   -27761   -27946 
  -27868   -27596   -27454   -27569   -27719   -27627   -27483   -27577 
  -27677   -27491   -27209   -27232   -27627   -27918   -27687   -27224 
  -27105   -27465   -27854   -27796   -27463   -27349   -27473   -27553 
  -27472   -27351   -27422   -27592   -27552   -27378   -27341   -27517 
  -27731   -27679   -27390   -27244   -27382   -27550   -27556   -27522 
  -27552   -27581   -27518   -27292   -27132   -27395   -27884   -27996 
  -27573   -27122   -27180   -27679   -28000   -27766   -27353   -27276 
  -27484   -27576   -27449   -27422   -27697   -27988   -27864   -27359 
  -27135   -27568   -28069   -27967   -27414   -27070   -27294   -27700 
  -27673   -27283   -27145   -27437   -27684   -27517   -27166   -27160 
  -27552   -27772   -27521   -27195   -27233   -27614   -27903   -27668 
  -27166   -27102   -27502   -27768   -27600   -27294   -27365   -27803 
  -27978   -27595   -27105   -27064   -27442   -27731   -27665   -27530 
  -27610   -27711   -27517   -27194   -27168   -27525   -27882   -27803 
  -27425   -27280   -27465   -27660   -27670   -27546   -27483   -27562 
  -27653   -27627   -27544   -27604   -27726   -27581   -27271   -27153 
  -27301   -27581   -27772   -27665   -27338   -27098   -27174   -27476 
  -27702   -27646   -27399   -27321   -27576   -27830   -27774   -27521 
  -27338   -27345   -27452   -27573   -27665   -27634   -27523   -27437 
  -27317   -27193   -27238   -27448   -27646   -27697   -27587   -27515 
  -27642   -27734   -27654   -27607   -27675   -27766   -27715   -27444 
  -27218   -27340   -27731   -27928   -27673   -27349   -27295   -27336 
  -27360   -27460   -27553   -27486   -27351   -27355   -27460   -27544 
  -27600   -27603   -27575   -27621   -27689   -27627   -27441   -27382 
  -27564   -27685   -27507   -27184   -27070   -27342   -27637   -27564 
  -27310   -27218   -27395   -27639   -27619   -27413   -27325   -27364 
  -27496   -27718   -27859   -27816   -27643   -27409   -27241   -27306 
  -27556   -27716   -27650   -27521   -27488   -27490   -27468   -27500 
  -27598   -27654   -27618   -27517   -27414   -27453   -27668   -27765 
  -27576   -27388   -27433   -27577   -27637   -27569   -27490   -27491 
  -27530   -27544   -27479   -27371   -27355   -27422   -27477   -27572 
  -27731   -27788   -27702   -27596   -27500   -27464   -27500   -27496 
  -27469   -27510   -27577   -27635   -27645   -27562   -27448   -27345 
  -27275   -27282   -27336   -27394   -27454   -27475   -27453   -27453 
  -27477   -27506   -27577   -27653   -27622   -27550   -27585   -27638 
  -27548   -27376   -27337   -27479   -27581   -27499   -27328   -27203 
  -27286   -27537   -27638   -27519   -27386   -27359   -27502   -27697 
  -27718   -27623   -27576   -27529   -27464   -27440   -27437   -27488 
  -27596   -27637   -27576   -27496   -27469   -27529   -27637   -27666 
  -27553   -27437   -27476   -27591   -27533   -27321   -27346   -27627 
  -27735   -27546   -27286   -27259   -27588   -27940   -27926   -27595 
  -27333   -27418   -27649   -27596   -27275   -27143   -27395   -27669 
  -27633   -27415   -27315   -27449   -27660   -27680   -27523   -27453 
  -27502   -27514   -27537   -27631   -27676   -27643   -27572   -27395 
  -27253   -27373   -27530   -27418   -27280   -27399   -27600   -27684 
  -27649   -27560   -27552   -27623   -27553   -27369   -27318   -27415 
  -27550   -27610   -27472   -27282   -27336   -27548   -27622   -27580 
  -27535   -27499   -27554   -27612   -27504   -27421   -27564   -27703 
  -27645   -27503   -27361   -27233   -27211   -27317   -27417   -27511 
  -27650   -27688   -27589   -27503   -27533   -27664   -27746   -27703 
  -27568   -27363   -27278   -27436   -27595   -27579   -27508   -27531 
  -27611   -27545   -27315   -27224   -27399   -27631   -27750   -27692 
  -27533   -27481   -27544   -27575   -27515   -27363   -27278   -27388 
  -27556   -27646   -27623   -27533   -27510   -27504   -27441   -27434 
  -27533   -27656   -27716   -27619   -27414   -27324   -27434   -27656 
  -27861   -27851   -27626   -27441   -27411   -27529   -27724   -27803 
  -27662   -27411   -27264   -27306   -27407   -27469   -27523   -27558 
  -27510   -27392   -27265   -27232   -27421   -27635   -27537   -27298 
  -27256   -27360   -27477   -27556   -27517   -27472   -27564   -27565 
  -27338   -27232   -27432   -27708   -27801   -27619   -27342   -27283 
  -27459   -27615   -27614   -27546   -27562   -27652   -27637   -27508 
  -27437   -27502   -27687   -27799   -27634   -27379   -27364   -27602 
  -27801   -27724   -27494   -27384   -27442   -27523   -27529   -27492 
  -27494   -27541   -27541   -27411   -27305   -27449   -27733   -27849 
  -27706   -27468   -27421   -27595   -27702   -27553   -27280   -27202 
  -27398   -27515   -27392   -27305   -27432   -27685   -27781   -27526 
  -27232   -27237   -27429   -27581   -27573   -27446   -27422   -27550 
  -27611   -27490   -27384   -27495   -27631   -27521   -27311   -27319 
  -27533   -27661   -27499   -27243   -27279   -27612   -27868   -27793 
  -27518   -27368   -27461   -27580   -27537   -27471   -27534   -27587 
  -27475   -27325   -27373   -27600   -27747   -27664   -27437   -27371 
  -27638   -27896   -27768   -27454   -27396   -27629   -27783   -27621 
  -27332   -27265   -27507   -27703   -27523   -27245   -27307   -27627 
  -27805   -27635   -27360   -27332   -27494   -27577   -27491   -27386 
  -27472   -27625   -27540   -27298   -27202   -27383   -27679   -27711 
  -27433   -27220   -27230   -27413   -27654   -27766   -27777   -27738 
  -27567   -27383   -27345   -27452   -27599   -27622   -27494   -27380 
  -27409   -27503   -27549   -27607   -27688   -27676   -27562   -27467 
  -27503   -27654   -27704   -27573   -27448   -27473   -27576   -27564 
  -27375   -27205   -27243   -27411   -27506   -27468   -27403   -27444 
  -27616   -27703   -27514   -27332   -27476   -27742   -27772   -27548 
  -27342   -27363   -27530   -27611   -27499   -27365   -27382   -27454 
  -27467   -27464   -27499   -27587   -27656   -27595   -27507   -27538 
  -27580   -27525   -27464   -27496   -27622   -27700   -27600   -27448 
  -27438   -27535   -27564   -27465   -27361   -27364   -27457   -27530 
  -27442   -27294   -27391   -27710   -27897   -27776   -27492   -27378 
  -27577   -27801   -27724   -27442   -27313   -27454   -27602   -27526 
  -27376   -27409   -27553   -27540   -27376   -27306   -27492   -27795 
  -27783   -27409   -27117   -27180   -27531   -27793   -27668   -27463 
