Origin Time       2025/03/30 21:30:00
Lat.              38.535
Long.             142.295
Depth. (km)       44
Mag.              4.3
Station Code      IWTH15
Station Lat.      39.6148
Station Long.     141.0929
Station Height(m) 195
Record Time       2025/03/30 21:31:39
Sampling Freq(Hz) 100Hz
Duration Time(s)  120
Dir.              6
Scale Factor      3920(gal)/6170801
Max. Acc. (gal)   0.357
Last Correction   2025/03/30 21:31:24
Memo.             
[...]
   21339    21413    21370    21258    21220    21292    21378    21354 
   21267    21283    21359    21388    21414    21408    21339    21334 
   21408    21439    21428    21456    21461    21303    21148    21249 
   21405    21366    21339    21453    21458    21318    21260    21254 
   21180    21140    21214    21322    21365    21386    21517    21586 
   21390    21224    21342    21443    21366    21428    21609    21491 
   21193    21169    21345    21376    21290    21301    21417    21479 
   21413    21357    21435    21480    21358    21272    21342    21395 
   21412    21483    21480    21363    21333    21379    21347    21334 
   21394    21337    21208    21252    21397    21416    21339    21329 
   21379    21364    21294    21305    21385    21379    21301    21341 
   21474    21494    21415    21349    21315    21357    21374    21229 
   21124    21226    21366    21406    21358    21319    21376    21436 
   21398    21313    21260    21315    21422    21447    21443    21477 
   21459    21382    21309    21239    21257    21399    21469    21381 
   21313    21329    21331    21303    21315    21387    21420    21335 
   21275    21336    21376    21353    21333    21302    21286    21336 
   21440    21503    21407    21287    21347    21404    21282    21234 
   21362    21378    21240    21226    21363    21429    21397    21396 
   21424    21430    21417    21368    21312    21348    21417    21390 
   21345    21391    21470    21509    21475    21400    21367    21345 
   21318    21329    21349    21389    21454    21444    21337    21222 
   21185    21224    21249    21287    21445    21582    21498    21347 
   21355    21420    21359    21249    21297    21446    21450    21340 
   21306    21292    21242    21253    21307    21336    21342    21312 
   21297    21372    21453    21435    21395    21412    21391    21312 
   21300    21345    21366    21379    21339    21259    21330    21480 
   21433    21279    21234    21253    21252    21248    21307    21412 
   21432    21406    21464    21501    21376    21260    21347    21430 
   21291    21206    21349    21409    21330    21338    21359    21325 
   21388    21446    21371    21375    21516    21557    21460    21369 
   21357    21418    21462    21395    21274    21247    21333    21407 
   21394    21320    21268    21270    21241    21189    21273    21419 
   21393    21331    21453    21538    21424    21335    21362    21359 
   21296    21265    21286    21348    21448    21488    21385    21303 
   21367    21372    21233    21191    21279    21323    21314    21310 
   21363    21477    21492    21389    21338    21364    21418    21455 
   21417    21379    21400    21382    21289    21232    21303    21386 
   21341    21293    21336    21330    21286    21304    21308    21257 
   21244    21335    21484    21532    21444    21386    21398    21398 
   21429    21493    21468    21334    21216    21232    21323    21360 
   21350    21318    21291    21366    21469    21426    21335    21361 
   21397    21361    21352    21359    21303    21281    21394    21496 
   21454    21386    21353    21301    21311    21379    21333    21241 
   21314    21450    21435    21322    21264    21327    21440    21424 
   21300    21275    21344    21335    21289    21327    21343    21286 
   21322    21452    21488    21436    21401    21323    21209    21235 
   21399    21483    21410    21356    21415    21459    21433    21380 
   21280    21225    21296    21311    21266    21384    21558    21558 
   21434    21333    21310    21293    21221    21213    21357    21468 
   21415    21378    21411    21315    21194    21314    21491    21440 
   21316    21378    21516    21484    21314    21201    21246    21373 
   21417    21337    21241    21246    21375    21397    21185    21113 
   21348    21457    21333    21327    21429    21394    21322    21446 
   21647    21587    21316    21212    21325    21415    21409    21302 
   21139    21141    21336    21438    21349    21296    21424    21568 
   21556    21463    21402    21385    21406    21421    21427    21438 
   21365    21227    21196    21308    21424    21412    21316    21312 
   21369    21322    21236    21234    21285    21345    21362    21347 
   21407    21465    21407    21355    21368    21360    21347    21373 
   21428    21493    21490    21384    21300    21312    21300    21222 
   21213    21301    21403    21488    21482    21367    21314    21372 
   21391    21342    21333    21422    21522    21480    21358    21332 
   21345    21285    21211    21192    21221    21258    21279    21265 
   21243    21308    21402    21356    21246    21281    21423    21464 
   21407    21394    21428    21443    21436    21406    21361    21336 
   21313    21277    21299    21341    21305    21321    21464    21534 
   21451    21360    21399    21539    21594    21511    21451    21458 
   21424    21347    21273    21182    21138    21225    21372    21450 
   21442    21417    21392    21328    21284    21284    21257    21259 
   21317    21306    21258    21335    21472    21488    21406    21335 
   21272    21248    21282    21269    21228    21289    21402    21417 
   21401    21531    21663    21528    21341    21411    21486    21345 
   21264    21313    21278    21271    21350    21298    21230    21303 
   21339    21323    21334    21308    21313    21396    21431    21380 
   21397    21520    21500    21324    21277    21303    21285    21337 
   21376    21316    21299    21315    21280    21290    21364    21398 
   21391    21385    21362    21342    21378    21406    21361    21376 
   21483    21478    21379    21424    21529    21413    21197    21200 
   21281    21247    21312    21411    21299    21219    21327    21361 
   21321    21379    21442    21423    21441    21522    21510    21410 
   21358    21308    21248    21331    21452    21359    21208    21282 
   21461    21514    21444    21354    21312    21344    21383    21350 
   21294    21301    21371    21442    21431    21380    21427    21456 
   21313    21181    21206    21284    21362    21428    21393    21288 
   21294    21420    21438    21290    21245    21382    21407    21256 
   21197    21267    21284    21230    21222    21318    21419    21388 
   21313    21361    21432    21381    21349    21454    21517    21443 
   21379    21397    21443    21427    21314    21264    21399    21512 
   21417    21244    21198    21266    21314    21346    21430    21478 
   21423    21381    21385    21321    21196    21175    21306    21431 
   21482    21554    21609    21533    21344    21190    21207    21268 
   21219    21203    21323    21432    21439    21412    21374    21343 
   21377    21386    21313    21338    21508    21583    21438    21251 
   21227    21319    21379    21408    21423    21366    21280    21258 
   21253    21281    21400    21434    21305    21249    21328    21388 
   21431    21433    21327    21288    21408    21494    21440    21329 
   21243    21233    21339    21445    21347    21209    21306    21459 
   21459    21385    21288    21266    21382    21437    21355    21343 
   21496    21616    21482    21267    21291    21466    21507    21380 
   21289    21349    21362    21225    21180    21304    21365    21316 
   21333    21410    21429    21426    21438    21403    21342    21399 
   21553    21554    21350    21189    21169    21196    21235    21279 
   21299    21289    21308    21390    21389    21332    21413    21430 
   21263    21245    21371    21396    21407    21447    21410    21327 
   21270    21279    21391    21479    21416    21387    21486    21491 
   21380    21314    21291    21282    21328    21424    21468    21428 
   21452    21532    21475    21334    21286    21296    21240    21160 
   21218    21331    21307    21252    21314    21382    21387    21428 
   21475    21388    21253    21227    21249    21265    21375    21529 
   21550    21449    21382    21407    21402    21295    21201    21200 
   21296    21428    21497    21518    21513    21463    21412    21329 
   21254    21331    21441    21408    21330    21328    21379    21405 
   21401    21397    21339    21263    21307    21392    21347    21245 
   21212    21232    21283    21339    21316    21233    21203    21264 
   21361    21392    21331    21286    21281    21260    21262    21338 
   21414    21430    21423    21453    21498    21446    21359    21421 
   21495    21387    21256    21253    21301    21337    21428    21544 
   21526    21436    21446    21436    21309    21264    21347    21351 
   21276    21332    21493    21522    21405    21332    21317    21267 
   21225    21249    21332    21441    21476    21418    21340    21233 
   21194    21361    21532    21447    21271    21311    21505    21555 
   21404    21282    21311    21377    21372    21319    21253    21213 
   21241    21294    21303    21295    21349    21394    21322    21271 
   21375    21462    21336    21186    21327    21582    21559    21402 
   21439    21511    21406    21338    21401    21329    21179    21237 
   21369    21349    21267    21254    21340    21446    21405    21245 
   21162    21244    21398    21467    21434    21394    21395    21454 
   21518    21523    21461    21330    21259    21362    21461    21406 
   21314    21313    21333    21277    21253    21358    21421    21352 
   21364    21506    21527    21373    21285    21358    21407    21284 
   21149    21250    21463    21494    21380    21294    21279    21350 
   21397    21329    21319    21388    21282    21095    21184    21402 
   21370    21250    21330    21485    21533    21453    21354    21339 
   21391    21455    21409    21267    21299    21475    21463    21263 
   21219    21366    21364    21218    21207    21272    21311    21402 
   21481    21433    21376    21454    21529    21416    21299    21425 
   21574    21458    21297    21353    21447    21412    21338    21263 
   21219    21229    21194    21150    21248    21432    21500    21395 
   21295    21359    21428    21328    21247    21350    21486    21515 
   21501    21542    21567    21473    21375    21379    21365    21270 
   21220    21285    21379    21381    21298    21271    21345    21396 
   21406    21461    21482    21387    21330    21367    21351    21298 
   21303    21336    21346    21264    21122    21190    21442    21453 
   21235    21217    21338    21237    21101    21281    21501    21399 
   21268    21439    21627    21535    21366    21306    21270    21269 
   21372    21423    21299    21230    21344    21386    21289    21289 
   21410    21424    21285    21246    21360    21402    21356    21365 
   21408    21396    21371    21420    21446    21354    21359    21510 
   21495    21351    21404    21543    21458    21246    21182    21236 
   21240    21240    21276    21266    21256    21301    21310    21321 
   21426    21465    21328    21211    21270    21409    21525    21579 
   21495    21403    21525    21631    21432    21183    21167    21242 
   21202    21134    21209    21293    21225    21186    21320    21434 
   21386    21370    21470    21492    21464    21501    21480    21442 
   21472    21418    21302    21258    21249    21278    21362    21388 
   21342    21379    21496    21507    21395    21267    21192    21238 
   21327    21365    21398    21400    21389    21454    21525    21565 
   21606    21537    21389    21392    21493    21453    21329    21280 
   21293    21290    21207    21160    21301    21470    21458    21354 
   21325    21382    21406    21345    21274    21205    21159    21246 
   21394    21444    21421    21404    21381    21340    21298    21311 
   21409    21427    21272    21136    21116    21157    21266    21377 
   21446    21536    21561    21468    21408    21387    21354    21375 
   21354    21271    21327    21463    21479    21451    21434    21333 
   21243    21295    21359    21360    21370    21362    21377    21522 
   21663    21553    21231    21081    21274    21419    21310    21251 
   21323    21404    21484    21427    21254    21252    21321    21157 
   20973    21084    21279    21323    21336    21353    21318    21321 
   21357    21335    21308    21316    21332    21363    21434    21552 
   21648    21599    21487    21519    21576    21372    21061    21007 
   21163    21291    21323    21281    21256    21297    21415    21640 
   21797    21731    21628    21549    21388    21326    21437    21457 
   21306    21187    21247    21355    21314    21236    21236    21240 
   21294    21395    21421    21407    21375    21219    21018    21070 
   21367    21515    21480    21550    21567    21277    21016    21117 
   21313    21322    21297    21399    21540    21570    21431    21215 
   21147    21301    21466    21546    21601    21546    21395    21271 
   21117    21054    21316    21636    21637    21528    21626    21742 
   21537    21155    20977    21036    21231    21474    21497    21338 
   21350    21374    21142    20988    21172    21409    21467    21439 
   21434    21389    21228    21076    21049    21072    21159    21353 
   21494    21511    21531    21592    21614    21548    21414    21295 
   21261    21327    21445    21468    21364    21296    21328    21414 
   21496    21494    21504    21637    21672    21493    21317    21240 
   21276    21412    21478    21440    21384    21315    21326    21433 
   21462    21368    21257    21173    21014    20803    20796    21016 
   21228    21351    21422    21469    21460    21423    21483    21493 
   21307    21213    21338    21497    21624    21653    21524    21393 
   21362    21347    21284    21186    21105    21122    21286    21527 
   21649    21551    21393    21370    21462    21523    21452    21333 
   21344    21377    21192    20970    21059    21423    21722    21653 
   21338    21206    21262    21193    21098    21208    21351    21350 
   21348    21450    21569    21617    21512    21249    21068    21204 
   21444    21445    21356    21442    21475    21250    21127    21388 
   21627    21512    21359    21351    21278    21190    21225    21265 
   21283    21327    21331    21327    21436    21630    21723    21636 
   21475    21349    21328    21408    21459    21401    21263    21157 
   21225    21418    21538    21475    21324    21235    21195    21181 
   21276    21419    21468    21411    21287    21182    21237    21407 
   21530    21545    21481    21433    21428    21409    21416    21396 
   21175    20924    20998    21269    21365    21323    21319    21302 
   21312    21406    21423    21317    21266    21394    21571    21628 
   21682    21770    21666    21442    21356    21384    21353    21204 
   21069    21074    21128    21140    21162    21244    21316    21259 
   21184    21297    21457    21465    21434    21479    21576    21634 
   21573    21466    21353    21188    21086    21151    21295    21445 
   21616    21722    21573    21210    20940    20890    20927    21012 
   21194    21382    21497    21594    21690    21765    21793    21694 
   21487    21323    21314    21382    21352    21236    21203    21254 
   21253    21234    21233    21180    21151    21163    21035    20837 
   20918    21317    21665    21690    21550    21515    21546    21492 
   21375    21302    21332    21370    21343    21406    21648    21877 
   21825    21514    21325    21362    21295    21191    21409    21740 
   21761    21585    21567    21692    21671    21491    21368    21248 
   21028    20889    20920    21007    21110    21221    21298    21324 
   21284    21265    21395    21525    21438    21309    21316    21338 
   21339    21306    21162    21035    21037    21150    21321    21377 
   21286    21257    21381    21531    21529    21389    21325    21402 
   21487    21507    21489    21474    21501    21553    21513    21359 
   21287    21315    21257    21155    21155    21255    21306    21197 
   21168    21425    21686    21664    21477    21347    21280    21203 
   21208    21314    21392    21422    21380    21261    21221    21286 
   21343    21402    21488    21518    21491    21498    21525    21475 
   21354    21270    21270    21272    21249    21298    21397    21437 
   21447    21499    21600    21684    21596    21370    21304    21419 
   21368    21165    21145    21244    21244    21278    21418    21490 
   21448    21362    21231    21117    21150    21269    21268    21213 
   21298    21381    21302    21275    21470    21622    21418    21046 
   20980    21215    21275    21084    20990    21085    21217    21315 
   21417    21548    21596    21541    21573    21618    21465    21348 
   21504    21668    21660    21617    21558    21467    21447    21443 
   21313    21131    21037    21029    21094    21181    21182    21192 
   21397    21680    21740    21572    21411    21326    21305    21419 
   21534    21437    21294    21365    21513    21496    21358    21253 
   21223    21194    21170    21295    21470    21424    21254    21234 
   21331    21408    21496    21627    21706    21668    21577    21539 
   21526    21408    21255    21255    21342    21386    21423    21488 
   21540    21484    21309    21199    21226    21262    21304    21322 
   21211    21085    21055    21089    21170    21169    21035    21010 
   21184    21332    21352    21378    21451    21437    21286    21156 
   21198    21364    21516    21567    21514    21442    21397    21292 
   21131    21086    21170    21241    21335    21473    21500    21471 
   21538    21569    21507    21495    21534    21527    21448    21379 
   21426    21483    21472    21515    21545    21434    21330    21382 
   21510    21564    21487    21368    21293    21195    21045    20981 
   21035    21090    21145    21212    21232    21270    21355    21364 
   21286    21262    21357    21433    21387    21354    21407    21434 
   21411    21392    21387    21372    21315    21291    21391    21550 
   21655    21653    21517    21347    21338    21427    21388    21330 
   21478    21672    21631    21413    21291    21306    21301    21258 
   21229    21235    21314    21389    21378    21355    21340    21312 
   21351    21441    21475    21455    21389    21257    21114    21069 
   21157    21272    21290    21294    21343    21315    21251    21299 
   21361    21328    21281    21279    21302    21300    21271    21243 
   21180    21140    21253    21392    21376    21339    21422    21480 
   21438    21474    21637    21782    21837    21794    21719    21699 
   21652    21503    21403    21405    21321    21128    21088    21269 
   21416    21390    21327    21295    21228    21139    21106    21214 
   21412    21470    21382    21420    21595    21660    21539    21391 
   21339    21326    21281    21236    21192    21112    21079    21136 
   21176    21229    21387    21486    21357    21171    21131    21139 
   21130    21234    21423    21507    21472    21444    21424    21349 
   21278    21319    21452    21516    21440    21363    21357    21335 
   21289    21256    21228    21203    21187    21221    21379    21625 
   21751    21617    21383    21315    21411    21418    21280    21267 
   21466    21571    21464    21432    21506    21424    21277    21249 
