Origin Time       2025/03/30 21:30:00
Lat.              38.535
Long.             142.295
Depth. (km)       44
Mag.              4.3
Station Code      IWTH14
Station Lat.      39.7435
Station Long.     141.9087
Station Height(m) 100
Record Time       2025/03/30 21:31:33
Sampling Freq(Hz) 100Hz
Duration Time(s)  120
Dir.              2
Scale Factor      2942(gal)/8224139
Max. Acc. (gal)   0.108
Last Correction   2025/03/30 21:31:33
Memo.             
[...]
  144483   144450   144433   144436   144436   144448   144435   144409 
  144423   144451   144463   144448   144441   144472   144498   144472 
  144413   144389   144432   144468   144458   144437   144421   144413 
  144433   144459   144472   144477   144458   144421   144400   144416 
  144456   144459   144416   144410   144451   144468   144472   144468 
  144432   144413   144450   144459   144404   144394   144445   144463 
  144435   144421   144443   144460   144436   144398   144387   144409 
  144443   144463   144477   144490   144479   144429   144393   144413 
  144448   144482   144494   144445   144404   144420   144425   144410 
  144402   144404   144432   144455   144455   144477   144478   144439 
  144428   144431   144435   144466   144472   144452   144448   144437 
  144448   144486   144475   144440   144448   144437   144390   144401 
  144450   144425   144375   144408   144472   144481   144454   144443 
  144459   144501   144526   144470   144389   144387   144439   144489 
  144506   144468   144433   144417   144400   144412   144421   144420 
  144444   144444   144420   144424   144439   144447   144464   144472 
  144454   144421   144397   144421   144482   144481   144421   144405 
  144425   144421   144425   144460   144462   144437   144443   144444 
  144417   144417   144440   144459   144477   144464   144414   144398 
  144439   144470   144470   144466   144428   144396   144433   144478 
  144474   144454   144428   144400   144412   144468   144482   144451 
  144441   144444   144456   144467   144456   144456   144447   144405 
  144375   144400   144463   144505   144506   144471   144428   144414 
  144428   144468   144483   144441   144421   144418   144401   144443 
  144514   144483   144385   144343   144385   144456   144486   144452 
  144416   144432   144448   144416   144421   144455   144432   144423 
  144440   144437   144455   144468   144440   144424   144425   144413 
  144402   144425   144468   144471   144432   144418   144439   144441 
  144432   144437   144460   144483   144468   144427   144431   144479 
  144498   144456   144401   144394   144424   144447   144454   144444 
  144425   144418   144454   144483   144459   144433   144454   144464 
  144454   144468   144485   144464   144432   144417   144433   144452 
  144445   144418   144405   144441   144485   144456   144400   144418 
  144454   144433   144445   144481   144467   144470   144483   144452 
  144424   144418   144447   144483   144444   144394   144423   144471 
  144481   144456   144425   144404   144410   144445   144448   144428 
  144448   144452   144394   144377   144456   144514   144466   144366 
  144327   144400   144493   144489   144447   144447   144454   144463 
  144478   144450   144428   144448   144445   144435   144452   144451 
  144431   144447   144481   144470   144416   144386   144425   144495 
  144524   144477   144423   144441   144475   144456   144444   144443 
  144410   144396   144431   144463   144463   144437   144424   144441 
  144441   144420   144421   144456   144494   144498   144464   144435 
  144432   144432   144421   144412   144432   144470   144445   144396 
  144402   144418   144418   144424   144427   144460   144483   144443 
  144416   144428   144441   144450   144433   144429   144474   144491 
  144483   144499   144472   144409   144391   144421   144454   144458 
  144452   144477   144502   144477   144450   144462   144440   144391 
  144417   144467   144464   144450   144424   144397   144408   144418 
  144408   144433   144466   144454   144444   144447   144421   144400 
  144417   144448   144464   144458   144455   144474   144486   144451 
  144391   144381   144416   144452   144472   144460   144425   144398 
  144409   144444   144450   144443   144464   144478   144475   144482 
  144482   144467   144445   144420   144402   144406   144435   144448 
  144431   144429   144443   144436   144417   144413   144433   144460 
  144466   144435   144394   144427   144512   144516   144433   144391 
  144412   144428   144431   144425   144423   144436   144432   144425 
  144425   144417   144448   144489   144468   144455   144481   144487 
  144452   144400   144374   144408   144456   144495   144517   144499 
  144467   144431   144381   144369   144414   144466   144475   144452 
  144443   144481   144509   144450   144405   144451   144464   144429 
  144414   144420   144452   144459   144417   144418   144435   144432 
  144439   144433   144441   144486   144482   144445   144445   144466 
  144478   144458   144440   144458   144443   144410   144433   144451 
  144423   144406   144424   144454   144444   144416   144437   144441 
  144385   144387   144456   144499   144499   144463   144443   144456 
  144445   144440   144455   144460   144470   144439   144381   144401 
  144437   144420   144421   144443   144448   144445   144432   144427 
  144436   144437   144439   144450   144474   144478   144444   144429 
  144448   144455   144437   144418   144428   144462   144487   144463 
  144414   144408   144424   144431   144433   144424   144424   144443 
  144441   144432   144436   144435   144441   144471   144478   144460 
  144485   144493   144414   144371   144425   144485   144477   144423 
  144406   144439   144463   144474   144467   144441   144424   144421 
  144429   144447   144459   144451   144432   144431   144455   144472 
  144447   144413   144429   144447   144424   144401   144432   144494 
  144485   144421   144396   144410   144441   144468   144468   144450 
  144440   144456   144466   144463   144450   144391   144375   144456 
  144499   144477   144455   144428   144381   144369   144424   144485 
  144475   144433   144421   144448   144486   144479   144445   144464 
  144506   144472   144410   144400   144413   144429   144459   144464 
  144435   144418   144444   144467   144452   144412   144402   144421 
  144432   144482   144545   144510   144427   144409   144432   144418 
  144406   144458   144472   144413   144405   144445   144447   144421 
  144383   144371   144414   144471   144487   144452   144420   144435 
  144458   144460   144458   144451   144451   144474   144489   144458 
  144424   144423   144445   144456   144423   144396   144427   144478 
  144477   144412   144363   144391   144451   144460   144433   144437 
  144466   144482   144468   144413   144393   144471   144539   144506 
  144428   144382   144414   144487   144513   144486   144435   144396 
  144414   144448   144445   144443   144456   144459   144409   144364 
  144420   144482   144466   144448   144439   144433   144448   144448 
  144451   144460   144445   144445   144462   144456   144443   144444 
  144440   144413   144397   144416   144440   144456   144459   144429 
  144400   144414   144451   144463   144463   144463   144433   144394 
  144427   144493   144494   144439   144412   144451   144485   144450 
  144418   144440   144444   144423   144425   144428   144444   144485 
  144458   144402   144418   144452   144464   144477   144448   144406 
  144423   144452   144451   144443   144440   144436   144408   144401 
  144455   144494   144470   144423   144381   144366   144418   144481 
  144471   144441   144443   144455   144470   144475   144462   144437 
  144424   144416   144393   144400   144451   144477   144464   144458 
  144464   144451   144401   144377   144431   144474   144445   144454 
  144505   144497   144458   144423   144402   144428   144427   144387 
  144428   144494   144467   144421   144437   144479   144486   144444 
  144405   144418   144445   144458   144463   144431   144405   144441 
  144459   144451   144471   144462   144447   144493   144514   144467 
  144443   144452   144450   144448   144448   144425   144405   144420 
  144450   144459   144454   144433   144410   144397   144393   144462 
  144537   144459   144350   144377   144439   144447   144435   144440 
  144437   144416   144416   144441   144451   144443   144418   144400 
  144423   144477   144498   144462   144424   144421   144444   144466 
  144444   144416   144436   144468   144454   144401   144386   144443 
  144505   144493   144436   144437   144475   144478   144464   144466 
  144468   144456   144451   144451   144450   144454   144429   144401 
  144413   144417   144410   144416   144406   144400   144416   144431 
  144444   144462   144464   144467   144472   144451   144440   144458 
  144458   144464   144475   144450   144437   144425   144385   144406 
  144454   144424   144405   144448   144455   144414   144386   144405 
  144456   144443   144382   144404   144475   144512   144508   144462 
  144432   144455   144467   144460   144464   144467   144456   144421 
  144410   144472   144487   144418   144413   144459   144448   144398 
  144377   144409   144467   144508   144506   144474   144454   144456 
  144471   144498   144510   144514   144518   144486   144433   144406 
  144401   144406   144420   144427   144405   144378   144370   144378 
  144408   144445   144439   144420   144455   144472   144445   144441 
  144443   144432   144437   144444   144450   144477   144499   144462 
  144416   144433   144459   144456   144436   144414   144436   144477 
  144462   144409   144410   144452   144447   144414   144418   144439 
  144452   144456   144466   144497   144518   144508   144478   144420 
  144385   144413   144444   144443   144437   144424   144394   144397 
  144429   144423   144406   144443   144470   144459   144458   144455 
  144435   144424   144429   144455   144490   144482   144444   144423 
  144405   144416   144450   144440   144433   144460   144455   144433 
  144436   144466   144514   144501   144431   144400   144398   144394 
  144412   144444   144475   144487   144474   144458   144444   144436 
  144451   144471   144464   144425   144417   144450   144458   144454 
  144458   144432   144405   144418   144450   144463   144466   144470 
  144443   144410   144425   144439   144431   144427   144427   144437 
  144456   144470   144475   144436   144371   144391   144478   144489 
  144431   144412   144445   144486   144479   144436   144416   144437 
  144474   144458   144414   144435   144459   144436   144429   144455 
  144459   144400   144348   144390   144460   144493   144499   144481 
  144448   144427   144435   144479   144509   144477   144423   144397 
  144408   144450   144477   144441   144391   144398   144427   144424 
  144409   144412   144418   144435   144463   144478   144471   144454 
  144444   144441   144435   144459   144493   144475   144431   144421 
  144428   144416   144406   144409   144420   144439   144435   144409 
  144405   144436   144470   144501   144524   144512   144490   144470 
  144450   144471   144479   144425   144397   144410   144405   144409 
  144412   144389   144377   144400   144433   144437   144423   144429 
  144448   144472   144502   144501   144458   144437   144472   144504 
  144499   144485   144452   144425   144413   144387   144366   144360 
  144371   144413   144433   144414   144404   144402   144420   144456 
  144478   144479   144475   144489   144520   144502   144454   144454 
  144490   144501   144478   144466   144470   144451   144413   144402 
  144431   144460   144468   144489   144494   144468   144475   144493 
  144495   144518   144497   144429   144413   144441   144456   144460 
  144448   144425   144450   144490   144451   144391   144387   144406 
  144431   144460   144451   144385   144342   144379   144431   144445 
  144450   144410   144347   144337   144342   144324   144346   144375 
  144364   144347   144337   144347   144364   144360   144354   144354 
  144374   144404   144383   144325   144313   144373   144424   144386 
  144336   144370   144445   144481   144427   144333   144328   144406 
  144455   144437   144451   144541   144576   144517   144497   144531 
  144566   144563   144532   144558   144594   144563   144555   144583 
  144601   144636   144636   144556   144512   144548   144576   144547 
  144514   144528   144549   144555   144545   144532   144574   144657 
  144705   144671   144541   144458   144497   144493   144443   144452 
  144447   144402   144385   144356   144302   144275   144254   144221 
  144225   144269   144313   144346   144379   144425   144451   144462 
  144501   144525   144498   144478   144470   144448   144428   144371 
  144290   144271   144282   144270   144236   144196   144209   144269 
  144296   144306   144350   144389   144416   144433   144405   144391 
  144464   144567   144660   144710   144660   144568   144487   144421 
  144378   144327   144329   144432   144493   144454   144373   144285 
  144304   144450   144583   144653   144695   144698   144645   144607 
  144607   144571   144517   144514   144513   144458   144385   144344 
  144339   144367   144373   144312   144300   144363   144367   144321 
  144335   144402   144433   144464   144547   144543   144451   144435 
  144454   144433   144412   144386   144348   144329   144321   144320 
  144332   144329   144347   144437   144510   144513   144544   144614 
  144624   144576   144552   144548   144536   144528   144489   144410 
  144402   144489   144518   144443   144416   144474   144510   144529 
  144553   144536   144494   144445   144386   144356   144347   144312 
  144285   144351   144491   144572   144528   144436   144404   144409 
  144352   144263   144192   144140   144212   144408   144521   144501 
  144462   144425   144356   144270   144224   144288   144400   144458 
  144499   144543   144509   144477   144549   144624   144655   144690 
  144674   144612   144548   144498   144517   144586   144617   144578 
  144502   144464   144466   144462   144479   144541   144593   144549 
  144445   144410   144456   144467   144402   144342   144360   144428 
  144472   144493   144513   144485   144413   144355   144297   144270 
  144304   144302   144225   144148   144163   144285   144410   144450 
  144432   144401   144412   144485   144535   144498   144423   144374 
  144352   144316   144289   144328   144432   144531   144535   144471 
  144448   144486   144529   144545   144524   144479   144460   144490 
  144566   144659   144684   144621   144570   144582   144589   144540 
  144494   144463   144414   144386   144373   144344   144317   144304 
  144313   144332   144354   144400   144437   144451   144472   144478 
  144435   144416   144459   144489   144505   144562   144591   144553 
  144475   144400   144375   144387   144436   144485   144413   144283 
  144256   144288   144324   144390   144406   144385   144452   144553 
  144579   144580   144575   144548   144556   144560   144478   144394 
  144413   144444   144398   144328   144283   144283   144362   144448 
  144417   144367   144439   144495   144454   144448   144477   144470 
  144435   144348   144285   144319   144420   144568   144617   144495 
  144435   144495   144540   144566   144541   144481   144510   144544 
  144460   144371   144382   144454   144475   144409   144370   144417 
  144420   144329   144251   144208   144193   144270   144427   144537 
  144543   144526   144566   144579   144517   144474   144471   144440 
  144421   144467   144475   144400   144359   144401   144460   144463 
  144374   144308   144364   144451   144486   144509   144552   144607 
  144598   144502   144431   144482   144609   144639   144539   144477 
  144474   144409   144320   144306   144327   144298   144302   144437 
  144548   144513   144485   144513   144490   144418   144397   144474 
  144568   144593   144583   144517   144377   144255   144202   144217 
  144286   144339   144332   144332   144405   144485   144495   144477 
  144479   144524   144567   144560   144548   144579   144612   144607 
  144553   144441   144354   144359   144371   144364   144359   144270 
  144193   144261   144370   144464   144549   144559   144513   144467 
  144440   144452   144489   144552   144609   144559   144471   144459 
  144463   144429   144431   144512   144551   144423   144259   144256 
  144343   144408   144452   144479   144494   144505   144497   144423 
  144296   144279   144386   144444   144431   144416   144439   144501 
  144535   144510   144509   144547   144531   144468   144481   144531 
  144520   144475   144445   144436   144425   144362   144263   144246 
  144298   144308   144324   144382   144383   144379   144448   144487 
  144462   144466   144526   144580   144562   144504   144489   144487 
  144421   144360   144398   144455   144475   144491   144420   144262 
  144207   144292   144369   144404   144493   144598   144602   144566 
  144524   144428   144410   144544   144637   144590   144502   144459 
  144467   144444   144381   144373   144402   144405   144393   144389 
  144436   144499   144505   144489   144512   144559   144555   144445 
  144366   144454   144513   144416   144348   144370   144386   144404 
  144396   144325   144304   144362   144390   144397   144450   144505 
  144502   144458   144444   144485   144521   144553   144570   144531 
  144544   144618   144541   144321   144227   144317   144396   144360 
  144301   144319   144359   144370   144406   144417   144373   144359 
  144371   144386   144431   144460   144475   144522   144553   144558 
  144574   144567   144535   144487   144400   144343   144366   144393 
  144382   144373   144406   144433   144414   144405   144367   144301 
  144370   144532   144594   144610   144632   144585   144524   144531 
  144564   144545   144482   144429   144377   144360   144439   144486 
  144404   144339   144363   144374   144396   144458   144439   144371 
  144408   144493   144479   144467   144562   144560   144418   144385 
  144468   144529   144526   144454   144390   144412   144444   144413 
  144390   144451   144466   144373   144355   144423   144441   144432 
  144427   144397   144377   144425   144501   144486   144397   144343 
  144360   144437   144543   144640   144675   144594   144479   144448 
  144436   144350   144275   144325   144429   144455   144362   144274 
  144339   144424   144389   144398   144466   144436   144382   144397 
  144450   144541   144610   144553   144444   144433   144477   144445 
  144394   144452   144520   144468   144425   144451   144448   144428 
  144417   144374   144352   144443   144540   144489   144393   144414 
  144456   144440   144462   144517   144526   144490   144458   144467 
  144481   144433   144359   144333   144347   144381   144433   144463 
  144482   144501   144444   144358   144373   144421   144427   144497 
  144591   144558   144471   144450   144478   144517   144521   144478 
  144401   144321   144316   144336   144309   144312   144316   144254 
  144281   144429   144518   144553   144607   144591   144489   144472 
  144560   144599   144617   144668   144655   144582   144578   144595 
  144498   144354   144282   144263   144261   144269   144301   144366 
  144393   144362   144342   144362   144397   144414   144424   144464 
  144501   144499   144508   144537   144537   144475   144400   144363 
  144375   144410   144417   144414   144391   144281   144193   144231 
  144300   144374   144462   144494   144514   144570   144567   144481 
