Origin Time       2025/03/30 21:30:00
Lat.              38.535
Long.             142.295
Depth. (km)       44
Mag.              4.3
Station Code      IWTH15
Station Lat.      39.6148
Station Long.     141.0929
Station Height(m) 195
Record Time       2025/03/30 21:31:39
Sampling Freq(Hz) 100Hz
Duration Time(s)  120
Dir.              4
Scale Factor      3920(gal)/6170801
Max. Acc. (gal)   0.873
Last Correction   2025/03/30 21:31:24
Memo.             
[...]
  -14865   -14973   -15082   -15123   -15096   -15097   -15174   -15242 
  -15179   -15003   -14871   -14878   -14959   -14997   -14974   -14951 
  -14929   -14906   -14933   -15005   -15048   -15019   -14961   -14967 
  -15069   -15192   -15258   -15264   -15231   -15170   -15088   -14999 
  -14946   -14949   -14971   -14974   -14955   -14920   -14873   -14835 
  -14870   -15022   -15198   -15262   -15208   -15131   -15097   -15096 
  -15091   -15065   -15036   -15021   -15025   -15044   -15040   -14974 
  -14883   -14854   -14902   -14956   -14967   -14957   -14986   -15065 
  -15145   -15224   -15285   -15235   -15061   -14892   -14832   -14888 
  -15011   -15110   -15100   -14982   -14863   -14822   -14838   -14892 
  -15006   -15122   -15172   -15193   -15199   -15121   -14984   -14915 
  -14938   -14967   -14946   -14885   -14840   -14836   -14817   -14771 
  -14792   -14912   -15044   -15120   -15141   -15114   -15050   -15007 
  -15015   -15035   -15030   -15007   -14986   -14986   -15006   -15031 
  -15045   -15003   -14908   -14838   -14830   -14863   -14923   -15006 
  -15089   -15142   -15154   -15164   -15187   -15169   -15107   -15073 
  -15094   -15147   -15194   -15182   -15101   -15014   -14977   -14985 
  -15033   -15091   -15071   -14950   -14824   -14774   -14802   -14876 
  -14953   -15021   -15085   -15104   -15049   -15006   -15055   -15139 
  -15159   -15117   -15078   -15034   -14944   -14862   -14873   -14945 
  -14971   -14934   -14917   -14957   -14995   -14987   -14976   -15033 
  -15155   -15265   -15328   -15350   -15305   -15194   -15077   -15000 
  -14972   -14970   -14933   -14858   -14818   -14846   -14904   -14952 
  -14959   -14936   -14939   -14986   -15039   -15110   -15209   -15267 
  -15257   -15210   -15134   -15022   -14859   -14659   -14524   -14510 
  -14580   -14713   -14894   -15051   -15118   -15107   -15094   -15146 
  -15229   -15249   -15178   -15070   -14980   -14942   -14981   -15064 
  -15121   -15106   -15018   -14905   -14841   -14858   -14907   -14945 
  -14986   -15052   -15116   -15113   -15046   -15010   -15071   -15170 
  -15200   -15140   -15047   -14968   -14927   -14932   -14967   -15010 
  -15049   -15065   -15064   -15064   -15071   -15091   -15099   -15066 
  -15024   -15002   -14987   -14993   -15051   -15114   -15099   -15019 
  -14955   -14919   -14872   -14824   -14824   -14900   -15029   -15158 
  -15239   -15234   -15144   -15024   -14937   -14927   -14978   -15008 
  -14983   -14945   -14928   -14929   -14946   -14985   -15047   -15104 
  -15097   -15019   -14945   -14925   -14940   -14984   -15049   -15078 
  -15034   -14946   -14860   -14819   -14855   -14957   -15083   -15188 
  -15241   -15228   -15190   -15165   -15114   -15005   -14887   -14815 
  -14818   -14892   -14987   -15037   -15016   -14969   -14970   -15042 
  -15126   -15132   -15018   -14859   -14789   -14868   -15032   -15178 
  -15254   -15279   -15281   -15242   -15141   -15003   -14868   -14779 
  -14746   -14751   -14813   -14933   -15035   -15064   -15035   -14997 
  -15012   -15082   -15165   -15227   -15208   -15086   -14953   -14883 
  -14870   -14916   -14980   -15000   -14994   -14980   -14944   -14914 
  -14909   -14923   -14975   -15050   -15093   -15107   -15136   -15168 
  -15152   -15073   -14955   -14839   -14779   -14805   -14892   -14986 
  -15037   -15063   -15129   -15223   -15257   -15190   -15048   -14915 
  -14875   -14936   -15030   -15083   -15059   -14990   -14949   -14944 
  -14914   -14874   -14903   -15002   -15088   -15117   -15112   -15113 
  -15130   -15133   -15104   -15059   -15014   -14961   -14898   -14888 
  -14979   -15101   -15150   -15108   -15030   -14972   -14958   -14986 
  -14990   -14910   -14836   -14906   -15086   -15233   -15279   -15233 
  -15140   -15050   -14983   -14933   -14884   -14816   -14751   -14739 
  -14797   -14887   -14956   -15008   -15088   -15172   -15187   -15147 
  -15138   -15174   -15171   -15090   -15006   -14993   -15030   -15058 
  -15075   -15082   -15021   -14876   -14749   -14732   -14804   -14893 
  -14977   -15072   -15153   -15166   -15116   -15080   -15085   -15089 
  -15072   -15023   -14926   -14827   -14807   -14896   -15046   -15178 
  -15228   -15204   -15131   -15012   -14890   -14834   -14859   -14907 
  -14924   -14934   -14987   -15063   -15115   -15115   -15051   -14957 
  -14893   -14899   -14978   -15069   -15083   -15048   -15067   -15149 
  -15238   -15253   -15143   -14988   -14917   -14938   -14964   -14919 
  -14834   -14826   -14943   -15130   -15278   -15249   -15064   -14940 
  -14995   -15118   -15149   -15047   -14927   -14927   -15054   -15204 
  -15239   -15095   -14862   -14696   -14695   -14824   -14961   -15024 
  -14999   -14921   -14906   -15027   -15172   -15196   -15124   -15070 
  -15056   -15022   -14957   -14913   -14883   -14818   -14751   -14775 
  -14902   -15019   -15052   -15078   -15171   -15269   -15323   -15360 
  -15348   -15226   -15033   -14872   -14797   -14787   -14795   -14827 
  -14909   -15021   -15123   -15188   -15202   -15164   -15069   -14949 
  -14861   -14833   -14883   -15008   -15165   -15299   -15340   -15261 
  -15138   -15039   -14941   -14813   -14675   -14603   -14676   -14870 
  -15074   -15213   -15274   -15265   -15221   -15171   -15099   -14959 
  -14747   -14562   -14513   -14594   -14738   -14908   -15075   -15232 
  -15367   -15416   -15342   -15200   -15047   -14928   -14881   -14922 
  -15022   -15118   -15171   -15188   -15145   -15019   -14873   -14761 
  -14694   -14720   -14838   -14955   -15045   -15151   -15249   -15283 
  -15254   -15190   -15101   -14989   -14903   -14895   -14933   -14992 
  -15062   -15079   -15012   -14908   -14816   -14764   -14766   -14849 
  -15012   -15149   -15179   -15158   -15135   -15092   -15050   -15047 
  -15048   -15006   -14980   -15029   -15099   -15129   -15102   -15000 
  -14867   -14799   -14820   -14886   -14951   -14995   -15033   -15064 
  -15070   -15078   -15093   -15072   -15040   -15055   -15082   -15076 
  -15045   -15008   -14991   -14998   -14985   -14957   -14937   -14903 
  -14881   -14928   -15010   -15046   -15017   -14963   -14937   -14955 
  -15016   -15095   -15144   -15146   -15157   -15207   -15214   -15139 
  -15064   -15031   -15002   -14939   -14846   -14799   -14864   -14993 
  -15097   -15151   -15114   -14960   -14827   -14852   -14952   -15015 
  -15060   -15131   -15200   -15218   -15180   -15090   -14920   -14741 
  -14718   -14854   -14997   -15047   -15000   -14923   -14911   -15015 
  -15191   -15310   -15303   -15232   -15160   -15082   -14988   -14902 
  -14848   -14826   -14832   -14859   -14900   -14951   -14991   -15022 
  -15051   -15059   -15061   -15100   -15149   -15131   -15027   -14920 
  -14897   -14944   -14997   -15026   -15010   -14935   -14864   -14862 
  -14889   -14886   -14899   -14996   -15150   -15288   -15347   -15311 
  -15251   -15243   -15245   -15192   -15069   -14871   -14670   -14625 
  -14753   -14901   -14980   -15011   -15016   -15031   -15081   -15114 
  -15074   -14993   -14943   -14962   -15051   -15172   -15243   -15217 
  -15161   -15160   -15154   -15033   -14839   -14692   -14617   -14583 
  -14606   -14694   -14800   -14903   -15040   -15206   -15312   -15297 
  -15204   -15112   -15063   -15053   -15031   -14986   -14977   -15038 
  -15087   -15040   -14962   -14960   -15000   -15007   -14984   -14964 
  -14951   -14936   -14968   -15080   -15193   -15223   -15180   -15089 
  -14982   -14938   -15006   -15129   -15216   -15206   -15122   -15058 
  -15051   -15051   -14993   -14875   -14777   -14777   -14859   -14974 
  -15058   -15025   -14889   -14808   -14896   -15069   -15155   -15107 
  -15035   -15034   -15098   -15188   -15255   -15230   -15076   -14869 
  -14745   -14733   -14767   -14815   -14899   -14998   -15048   -15046 
  -15065   -15137   -15203   -15210   -15175   -15120   -15031   -14930 
  -14870   -14868   -14921   -15020   -15129   -15191   -15149   -15048 
  -15014   -15057   -15079   -15063   -15053   -15046   -15021   -15026 
  -15106   -15180   -15131   -15000   -14929   -14959   -15014   -15011 
  -14943   -14861   -14818   -14849   -14966   -15115   -15198   -15177 
  -15106   -15070   -15101   -15094   -14947   -14762   -14710   -14797 
  -14925   -15026   -15071   -15071   -15058   -15040   -14987   -14881 
  -14777   -14764   -14842   -14953   -15049   -15111   -15138   -15127 
  -15069   -14957   -14826   -14753   -14791   -14924   -15100   -15250 
  -15298   -15239   -15163   -15111   -15012   -14838   -14685   -14660 
  -14771   -14935   -15049   -15080   -15069   -15062   -15063   -15031 
  -14941   -14830   -14741   -14730   -14863   -15091   -15281   -15365 
  -15344   -15226   -15076   -14987   -14984   -15048   -15143   -15201 
  -15167   -15050   -14929   -14904   -14945   -14946   -14907   -14864 
  -14803   -14752   -14759   -14836   -14951   -15028   -15054   -15110 
  -15249   -15434   -15589   -15653   -15595   -15440   -15268   -15140 
  -15053   -14963   -14804   -14579   -14377   -14263   -14251   -14333 
  -14457   -14618   -14890   -15269   -15653   -15911   -15945   -15809 
  -15653   -15511   -15369   -15262   -15182   -15055   -14875   -14713 
  -14609   -14525   -14437   -14386   -14412   -14519   -14699   -14927 
  -15164   -15376   -15536   -15614   -15604   -15522   -15426   -15383 
  -15355   -15259   -15108   -14958   -14840   -14778   -14745   -14677 
  -14583   -14484   -14344   -14175   -14082   -14173   -14450   -14773 
  -14995   -15115   -15203   -15337   -15562   -15813   -15957   -15948 
  -15809   -15594   -15392   -15202   -14938   -14629   -14371   -14184 
  -14055   -14029   -14183   -14534   -14978   -15381   -15662   -15805 
  -15832   -15728   -15490   -15269   -15195   -15184   -15112   -14955 
  -14748   -14583   -14558   -14666   -14804   -14915   -14997   -15059 
  -15137   -15227   -15215   -15018   -14700   -14433   -14348   -14421 
  -14565   -14780   -15076   -15386   -15609   -15718   -15735   -15663 
  -15505   -15267   -14951   -14623   -14394   -14331   -14419   -14569 
  -14711   -14854   -14991   -15099   -15170   -15151   -15013   -14850 
  -14833   -15081   -15499   -15812   -15852   -15660   -15379   -15114 
  -14900   -14759   -14674   -14547   -14337   -14126   -14008   -14053 
  -14340   -14878   -15532   -16033   -16127   -15804   -15295   -14840 
  -14558   -14430   -14409   -14536   -14831   -15187   -15476   -15636 
  -15660   -15600   -15534   -15511   -15527   -15507   -15318   -14928 
  -14604   -14646   -14917   -15043   -14923   -14719   -14651   -14841 
  -15173   -15441   -15581   -15586   -15452   -15265   -15151   -15143 
  -15177   -15187   -15100   -14808   -14302   -13820   -13677   -13952 
  -14430   -14824   -15039   -15187   -15391   -15635   -15804   -15829 
  -15730   -15508   -15139   -14695   -14332   -14160   -14197   -14395 
  -14677   -14961   -15173   -15265   -15208   -15020   -14833   -14807 
  -14980   -15207   -15232   -14918   -14489   -14352   -14658   -15230 
  -15795   -16128   -16136   -15864   -15433   -15026   -14763   -14603 
  -14471   -14296   -14001   -13710   -13778   -14366   -15213   -15890 
  -16100   -15863   -15535   -15455   -15602   -15711   -15567   -15194 
  -14793   -14553   -14557   -14738   -14905   -14948   -14882   -14707 
  -14481   -14389   -14549   -14912   -15337   -15696   -15949   -16099 
  -16108   -15914   -15514   -15044   -14696   -14548   -14556   -14631 
  -14658   -14614   -14639   -14849   -15184   -15448   -15418   -15079 
  -14703   -14514   -14450   -14344   -14207   -14182   -14334   -14624 
  -15035   -15561   -16047   -16233   -16021   -15537   -14974   -14472 
  -14134   -14031   -14143   -14321   -14437   -14589   -14938   -15411 
  -15787   -15952   -15936   -15801   -15520   -15024   -14439   -14072 
  -14085   -14400   -14864   -15285   -15497   -15498   -15427   -15394 
  -15372   -15301   -15206   -15159   -15194   -15276   -15337   -15337 
  -15303   -15253   -15149   -14997   -14885   -14861   -14912   -15003 
  -15072   -15049   -14891   -14611   -14302   -14100   -14101   -14336 
  -14722   -15080   -15308   -15430   -15530   -15652   -15701   -15516 
  -15100   -14649   -14342   -14217   -14218   -14306   -14494   -14743 
  -14920   -14997   -15075   -15215   -15422   -15625   -15695   -15599 
  -15351   -14987   -14675   -14573   -14660   -14816   -14893   -14808 
  -14621   -14443   -14374   -14506   -14864   -15353   -15778   -16006 
  -16131   -16270   -16360   -16331   -16195   -15913   -15439   -14850 
  -14323   -14021   -14010   -14187   -14363   -14419   -14412   -14507 
  -14731   -14918   -14972   -14945   -14899   -14925   -15151   -15575 
  -16018   -16269   -16201   -15820   -15248   -14651   -14185   -13940 
  -13922   -14087   -14383   -14757   -15109   -15324   -15347   -15153 
  -14793   -14465   -14371   -14524   -14780   -14964   -14973   -14893 
  -14894   -15008   -15153   -15272   -15308   -15222   -15115   -15175 
  -15439   -15716   -15800   -15648   -15340   -15050   -14962   -15009 
  -14950   -14736   -14518   -14421   -14496   -14733   -15021   -15193 
  -15211   -15217   -15304   -15384   -15354   -15184   -14899   -14628 
  -14513   -14571   -14745   -14929   -14995   -14955   -14956   -15051 
  -15185   -15321   -15379   -15262   -15046   -14934   -15033   -15244 
  -15339   -15210   -14958   -14711   -14543   -14480   -14453   -14403 
  -14399   -14540   -14791   -14993   -15077   -15151   -15345   -15663 
  -16005   -16269   -16387   -16295   -15977   -15508   -15046   -14784 
  -14788   -14890   -14838   -14551   -14170   -13892   -13840   -14001 
  -14228   -14388   -14488   -14643   -14957   -15416   -15894   -16245 
  -16365   -16252   -15962   -15549   -15117   -14801   -14633   -14550 
  -14479   -14382   -14273   -14208   -14285   -14514   -14759   -14925 
  -15055   -15217   -15405   -15544   -15610   -15643   -15649   -15626 
  -15584   -15479   -15262   -14965   -14701   -14589   -14598   -14569 
  -14439   -14278   -14154   -14114   -14174   -14297   -14443   -14612 
  -14787   -14954   -15164   -15456   -15728   -15821   -15674   -15354 
  -14971   -14665   -14568   -14696   -14902   -15027   -15040   -15032 
  -15065   -15090   -15056   -14977   -14885   -14809   -14791   -14900 
  -15172   -15491   -15660   -15658   -15604   -15570   -15586   -15648 
  -15682   -15614   -15424   -15156   -14949   -14906   -14921   -14849 
  -14726   -14656   -14664   -14734   -14819   -14831   -14772   -14792 
  -14962   -15167   -15327   -15455   -15529   -15529   -15493   -15422 
  -15272   -15064   -14889   -14797   -14775   -14801   -14871   -14949 
  -14915   -14696   -14411   -14233   -14218   -14355   -14606   -14903 
  -15128   -15183   -15124   -15072   -15052   -15018   -14992   -15022 
  -15057   -15042   -15029   -15018   -14957   -14882   -14846   -14846 
  -14874   -14911   -14933   -14964   -15025   -15116   -15246   -15375 
  -15407   -15299   -15123   -14975   -14875   -14804   -14794   -14854 
  -14882   -14810   -14764   -14875   -15084   -15246   -15296   -15241 
  -15141   -15079   -15074   -15088   -15120   -15155   -15160   -15211 
  -15374   -15520   -15457   -15159   -14768   -14467   -14357   -14442 
  -14642   -14809   -14831   -14768   -14762   -14868   -15065   -15269 
  -15354   -15326   -15315   -15363   -15421   -15442   -15394   -15254 
  -15004   -14673   -14374   -14206   -14162   -14227   -14449   -14809 
  -15183   -15464   -15575   -15499   -15351   -15276   -15279   -15276 
  -15240   -15167   -15016   -14842   -14776   -14859   -15008   -15100 
  -15074   -14984   -14932   -14969   -15069   -15157   -15203   -15235 
  -15237   -15190   -15141   -15117   -15091   -15065   -15072   -15114 
  -15123   -15008   -14792   -14632   -14592   -14588   -14591   -14658 
  -14815   -15028   -15208   -15286   -15295   -15264   -15195   -15157 
  -15193   -15239   -15240   -15155   -14937   -14617   -14304   -14140 
  -14220   -14482   -14772   -15028   -15257   -15421   -15479   -15452 
  -15387   -15306   -15252   -15307   -15418   -15403   -15246   -15104 
  -15099   -15218   -15280   -15090   -14686   -14316   -14186   -14341 
  -14680   -15033   -15255   -15273   -15169   -15120   -15148   -15127 
  -15018   -14899   -14848   -14873   -14936   -15039   -15211   -15388 
  -15450   -15370   -15198   -14968   -14688   -14440   -14358   -14449 
  -14609   -14773   -14909   -14976   -14971   -14957   -14993   -15091 
  -15229   -15352   -15390   -15341   -15270   -15235   -15227   -15189 
  -15087   -14928   -14737   -14615   -14668   -14840   -14986   -15059 
  -15116   -15246   -15454   -15620   -15636   -15493   -15249   -14990 
  -14831   -14837   -14942   -15062   -15171   -15217   -15147   -15001 
  -14857   -14778   -14779   -14791   -14774   -14790   -14879   -15008 
  -15096   -15107   -15115   -15167   -15219   -15245   -15216   -15081 
  -14879   -14718   -14615   -14504   -14385   -14338   -14407   -14587 
  -14815   -14970   -14983   -14891   -14790   -14795   -14914   -15040 
  -15110   -15116   -15033   -14917   -14895   -15005   -15169   -15302 
  -15392   -15477   -15545   -15538   -15435   -15269   -15103   -14997 
  -14949   -14915   -14847   -14735   -14646   -14654   -14770   -14952 
  -15119   -15231   -15327   -15424   -15512   -15569   -15546   -15438 
  -15289   -15129   -15015   -15011   -15052   -15002   -14849   -14680 
  -14569   -14556   -14616   -14703   -14799   -14886   -14977   -15087 
  -15134   -15045   -14879   -14741   -14696   -14781   -14984   -15202 
  -15318   -15352   -15388   -15398   -15350   -15310   -15271   -15125 
  -14873   -14651   -14553   -14566   -14633   -14712   -14787   -14869 
  -15002   -15213   -15447   -15611   -15647   -15529   -15295   -15046 
  -14876   -14845   -14910   -14953   -14956   -14976   -14983   -14899 
  -14742   -14614   -14563   -14557   -14582   -14648   -14748   -14882 
  -15068   -15263   -15366   -15358   -15305   -15254   -15218   -15183 
  -15111   -15014   -14924   -14848   -14814   -14828   -14831   -14799 
  -14784   -14846   -14979   -15103   -15185   -15261   -15309   -15284 
  -15240   -15224   -15165   -15012   -14883   -14912   -15046   -15128 
  -15123   -15108   -15130   -15182   -15211   -15171   -15075   -14973 
  -14930   -14992   -15103   -15133   -15055   -14966   -14916   -14884 
  -14882   -14900   -14852   -14711   -14574   -14570   -14718   -14920 
  -15073   -15139   -15089   -14945   -14828   -14836   -14926   -14957 
  -14857   -14730   -14714   -14800   -14918   -15037   -15140   -15240 
  -15360   -15474   -15525   -15473   -15317   -15124   -14970   -14864 
  -14796   -14761   -14760   -14808   -14893   -14973   -15032   -15092 
  -15178   -15305   -15435   -15489   -15452   -15373   -15248   -15038 
  -14784   -14580   -14504   -14581   -14754   -14918   -15008   -15025 
  -15016   -15011   -15006   -15025   -15090   -15163   -15217   -15253 
  -15261   -15245   -15238   -15265   -15302   -15282   -15178   -15027 
  -14885   -14781   -14695   -14614   -14564   -14555   -14576   -14636 
  -14759   -14938   -15128   -15297   -15442   -15541   -15557   -15486 
  -15349   -15154   -14906   -14675   -14579   -14637   -14755   -14892 
  -15041   -15126   -15110   -15062   -15026   -14995   -14975   -14968 
  -14964   -14970   -15011   -15110   -15232   -15297   -15267   -15159 
