Origin Time       2025/03/30 21:30:00
Lat.              38.535
Long.             142.295
Depth. (km)       44
Mag.              4.3
Station Code      IWTH20
Station Lat.      39.3434
Station Long.     141.0473
Station Height(m) -50.2
Record Time       2025/03/30 21:31:18
Sampling Freq(Hz) 100Hz
Duration Time(s)  120
Dir.              2
Scale Factor      2942(gal)/8224139
Max. Acc. (gal)   0.660
Last Correction   2025/03/30 21:31:18
Memo.             
[...]
   56253    56219    56187    56339    56555    56585    56428    56323 
   56459    56662    56569    56278    56151    56130    56035    56054 
   56255    56355    56304    56425    56775    56983    56758    56307 
   56168    56423    56624    56663    56778    56947    56963    56708 
   56272    55991    56114    56408    56505    56430    56424    56498 
   56508    56486    56504    56466    56304    56095    56126    56482 
   56671    56388    56039    56137    56632    57018    56990    56666 
   56242    55898    55869    56089    56215    56311    56555    56664 
   56524    56330    56218    56332    56570    56592    56397    56286 
   56374    56443    56354    56234    56096    55921    55929    56209 
   56531    56747    56849    56794    56639    56506    56467    56575 
   56695    56590    56344    56270    56411    56431    56249    56236 
   56373    56355    56366    56544    56605    56431    56273    56344 
   56511    56497    56309    56227    56401    56659    56718    56551 
   56371    56316    56370    56446    56473    56384    56305    56431 
   56521    56359    56188    56218    56380    56536    56600    56544 
   56465    56552    56785    56802    56501    56293    56455    56679 
   56606    56362    56180    56096    56047    56008    56123    56331 
   56357    56304    56389    56454    56380    56405    56586    56639 
   56548    56525    56556    56571    56520    56317    56115    56139 
   56338    56498    56502    56447    56423    56350    56300    56411 
   56505    56440    56412    56517    56621    56641    56600    56608 
   56658    56598    56446    56315    56272    56317    56392    56439 
   56432    56401    56381    56317    56266    56385    56583    56608 
   56463    56378    56408    56511    56671    56637    56339    56133 
   56123    56141    56188    56307    56376    56328    56241    56185 
   56269    56484    56639    56596    56381    56224    56313    56474 
   56523    56523    56538    56535    56451    56322    56296    56386 
   56536    56654    56624    56520    56469    56467    56469    56405 
   56301    56288    56347    56349    56326    56376    56459    56454 
   56377    56393    56484    56434    56238    56168    56351    56525 
   56523    56562    56678    56641    56486    56413    56424    56442 
   56451    56442    56393    56394    56493    56506    56340    56227 
   56263    56285    56272    56259    56280    56443    56614    56601 
   56531    56532    56637    56835    56836    56486    56155    56106 
   56212    56320    56367    56415    56484    56446    56346    56388 
   56504    56532    56554    56563    56496    56502    56529    56411 
   56351    56469    56517    56384    56224    56212    56373    56520 
   56451    56246    56166    56292    56471    56481    56324    56276 
   56388    56462    56384    56238    56223    56347    56444    56443 
   56390    56401    56520    56621    56617    56560    56454    56342 
   56344    56403    56428    56489    56623    56751    56764    56635 
   56517    56555    56578    56397    56197    56220    56344    56363 
   56300    56308    56417    56412    56281    56311    56436    56455 
   56454    56481    56492    56485    56451    56421    56382    56224 
   56045    56138    56474    56691    56624    56415    56236    56180 
   56269    56382    56425    56403    56400    56531    56610    56473 
   56309    56250    56220    56189    56276    56492    56632    56671 
   56664    56527    56353    56344    56420    56392    56309    56346 
   56493    56555    56439    56317    56424    56644    56702    56647 
   56560    56393    56227    56165    56259    56446    56529    56485 
   56419    56332    56259    56241    56249    56389    56635    56679 
   56425    56204    56278    56489    56629    56681    56627    56504 
   56427    56479    56606    56635    56547    56463    56373    56265 
   56290    56446    56570    56627    56539    56358    56361    56465 
   56424    56344    56266    56164    56189    56309    56272    56095 
   56076    56282    56474    56497    56371    56266    56369    56505 
   56435    56340    56435    56608    56679    56575    56416    56350 
   56303    56285    56478    56700    56670    56536    56494    56536 
   56583    56494    56327    56328    56421    56451    56582    56763 
   56722    56519    56317    56143    56039    56018    56045    56180 
   56409    56543    56489    56363    56366    56515    56570    56432 
   56292    56313    56465    56597    56586    56481    56417    56434 
   56444    56403    56398    56403    56297    56265    56377    56361 
   56268    56355    56501    56566    56639    56636    56465    56355 
   56438    56484    56396    56274    56238    56339    56380    56288 
   56263    56339    56382    56380    56421    56475    56412    56322 
   56340    56347    56330    56477    56663    56586    56469    56631 
   56741    56571    56435    56439    56446    56467    56511    56498 
   56394    56286    56282    56346    56412    56459    56443    56405 
   56416    56400    56377    56496    56633    56610    56523    56390 
   56259    56363    56594    56600    56366    56151    56112    56263 
   56463    56457    56313    56331    56436    56407    56315    56328 
   56470    56623    56625    56417    56145    56182    56506    56531 
   56323    56388    56552    56529    56431    56385    56376    56351 
   56386    56566    56678    56506    56289    56305    56444    56509 
   56447    56388    56436    56421    56320    56362    56436    56346 
   56295    56451    56556    56431    56292    56290    56416    56612 
   56682    56521    56350    56357    56371    56238    56166    56274 
   56382    56451    56536    56511    56363    56331    56443    56484 
   56482    56628    56740    56660    56604    56551    56423    56365 
   56388    56436    56398    56231    56228    56378    56312    56130 
   56166    56371    56559    56628    56539    56440    56457    56448 
   56334    56334    56488    56489    56335    56323    56489    56565 
   56404    56245    56266    56367    56455    56552    56556    56357 
   56292    56497    56555    56373    56239    56266    56374    56478 
   56523    56563    56667    56717    56662    56527    56288    56107 
   56182    56344    56396    56431    56435    56284    56157    56263 
   56440    56493    56403    56241    56270    56473    56489    56481 
   56651    56616    56331    56232    56373    56475    56478    56440 
   56334    56335    56560    56639    56430    56342    56489    56517 
   56405    56409    56450    56481    56585    56581    56435    56374 
   56436    56438    56334    56313    56479    56589    56407    56262 
   56504    56697    56412    56088    56151    56299    56343    56516 
   56718    56682    56488    56334    56280    56292    56305    56336 
   56390    56390    56417    56509    56533    56521    56525    56469 
   56386    56382    56407    56448    56582    56610    56427    56377 
   56569    56667    56467    56154    56091    56324    56473    56312 
   56072    56026    56146    56327    56521    56592    56484    56332 
   56266    56369    56562    56624    56567    56562    56620    56621 
   56535    56482    56513    56505    56392    56212    56134    56316 
   56520    56538    56558    56552    56361    56216    56284    56419 
   56512    56540    56524    56544    56560    56525    56560    56594 
   56470    56326    56262    56220    56235    56370    56458    56307 
   56126    56185    56359    56439    56409    56342    56322    56404 
   56520    56587    56608    56554    56475    56457    56421    56389 
   56471    56565    56535    56462    56469    56506    56415    56278 
   56344    56427    56214    56007    56231    56604    56601    56338 
   56324    56567    56598    56369    56241    56284    56323    56282 
   56280    56425    56619    56695    56554    56288    56241    56489 
   56632    56466    56254    56204    56332    56550    56644    56614 
   56621    56544    56350    56258    56220    56165    56286    56523 
   56551    56378    56344    56523    56682    56756    56760    56597 
   56358    56281    56354    56446    56473    56428    56404    56425 
   56489    56548    56505    56397    56335    56301    56235    56246 
   56427    56613    56614    56488    56397    56388    56361    56277 
   56276    56335    56243    56049    56007    56192    56478    56666 
   56705    56639    56413    56212    56342    56613    56675    56493 
   56250    56181    56312    56473    56552    56556    56505    56430 
   56374    56315    56300    56417    56521    56465    56362    56401 
   56527    56515    56430    56484    56590    56569    56481    56444 
   56420    56373    56281    56137    56046    56204    56517    56550 
   56401    56555    56802    56720    56529    56546    56624    56570 
   56424    56259    56178    56234    56290    56249    56184    56184 
   56284    56447    56488    56344    56228    56262    56409    56577 
   56678    56768    56789    56593    56361    56366    56529    56519 
   56224    55969    56047    56328    56496    56386    56193    56243 
   56474    56614    56613    56531    56416    56357    56427    56523 
   56536    56558    56605    56641    56604    56411    56239    56166 
   56019    55931    56093    56366    56544    56528    56378    56262 
   56344    56677    56929    56749    56415    56416    56677    56754 
   56535    56226    56007    56046    56276    56369    56331    56381 
   56424    56425    56505    56604    56702    56808    56783    56632 
   56517    56548    56631    56509    56188    56054    56226    56303 
   56185    56224    56390    56400    56371    56431    56446    56443 
   56512    56585    56617    56605    56598    56609    56540    56447 
   56438    56388    56218    56088    56147    56293    56285    56155 
   56162    56396    56664    56729    56706    56701    56506    56281 
   56385    56627    56643    56524    56531    56627    56544    56224 
   56020    56134    56346    56466    56463    56362    56377    56625 
   56721    56492    56344    56366    56386    56473    56605    56609 
   56405    56127    56025    56192    56419    56430    56274    56200 
   56316    56478    56465    56397    56493    56612    56596    56509 
   56452    56489    56539    56439    56268    56204    56253    56420 
   56625    56592    56332    56174    56276    56432    56371    56263 
   56390    56533    56461    56340    56328    56390    56475    56550 
   56600    56677    56731    56600    56389    56343    56385    56384 
   56380    56361    56339    56363    56370    56359    56326    56242 
   56257    56365    56363    56338    56415    56388    56219    56282 
   56616    56787    56654    56488    56469    56486    56396    56253 
   56212    56262    56257    56312    56511    56505    56232    56072 
   56066    56128    56384    56652    56643    56552    56597    56605 
   56558    56579    56484    56299    56339    56454    56409    56398 
   56458    56403    56404    56600    56570    56247    56181    56452 
   56704    56782    56681    56531    56431    56316    56273    56346 
   56354    56313    56369    56443    56408    56285    56232    56309 
   56396    56396    56342    56347    56389    56374    56351    56326 
   56320    56448    56629    56722    56656    56473    56438    56632 
   56743    56578    56288    56189    56428    56687    56712    56604 
   56447    56317    56268    56251    56324    56485    56529    56363 
   56188    56103    56045    56096    56282    56435    56485    56529 
   56571    56521    56415    56322    56297    56346    56343    56354 
   56475    56451    56231    56155    56187    56095    56085    56191 
   56131    56088    56320    56586    56650    56574    56423    56367 
   56586    56814    56727    56477    56403    56555    56722    56803 
   56833    56798    56651    56492    56515    56677    56893    57240 
   57558    57528    57190    56870    56693    56547    56407    56290 
   56226    56268    56268    56138    56089    56126    56093    56049 
   56070    56123    56174    56259    56421    56504    56249    55690 
   55205    55090    55325    55684    55873    55858    55912    56172 
   56606    57079    57200    56822    56290    55919    55752    55777 
   56100    56739    57407    57902    58229    58214    57711    56905 
   56079    55545    55578    56039    56519    56731    56593    56303 
   56205    56362    56563    56677    56612    56397    56380    56644 
   56786    56698    56722    56934    56897    56363    55744    55532 
   55705    55811    55624    55426    55559    56083    56759    57211 
   57303    57302    57389    57275    56868    56578    56594    56764 
   57015    57370    57678    57605    57024    56153    55333    54892 
   54996    55452    55871    56093    56274    56528    56592    56093 
   55224    54707    55040    56045    56983    57191    56822    56446 
   56334    56446    56307    55564    54839    54891    55513    55960 
   55977    55933    56089    56501    57199    57808    57824    57377 
   57034    57037    57109    56988    56836    56760    56548    56257 
   56228    56434    56605    56714    56791    56702    56431    56220 
   56235    56322    56234    55984    55717    55545    55701    56322 
   57096    57550    57524    57176    56906    56949    56968    56743 
   56524    56347    55933    55217    54577    54583    55282    56014 
   56412    56767    57034    56936    56647    56482    56582    56739 
   56586    56173    55838    55792    56061    56484    56766    56790 
   56794    57063    57510    57712    57466    57002    56536    56146 
   55933    55800    55607    55518    55737    56097    56323    56452 
   56582    56490    56089    55786    55952    56371    56629    56876 
   57430    58016    58224    57981    57250    56286    55858    56220 
   56528    56126    55466    55279    55667    56114    56091    55561 
   54970    55007    55980    57303    58129    58140    57574    56867 
   56346    56196    56196    55929    55588    55566    55819    56247 
   56810    57339    57551    57258    56623    56041    55825    55857 
   55842    55818    55858    55946    56189    56489    56675    56860 
   56992    56805    56505    56619    57168    57645    57569    56929 
   56228    55989    56161    56386    56506    56324    55811    55441 
   55408    55574    56054    56609    56687    56384    56139    56197 
   56563    56867    56863    56770    56755    56825    56944    56921 
   56694    56592    56870    57042    56485    55599    55196    55317 
   55512    55518    55490    55607    55809    56174    56763    57280 
   57472    57237    56722    56365    56245    56116    56054    56226 
   56520    56887    57360    57551    56995    56147    55894    56151 
   56196    55864    55679    55971    56277    56138    55876    56011 
   56409    56538    56371    56457    57057    57705    57809    57312 
   56488    55809    55871    56488    56758    56388    55900    55779 
   56081    56573    56901    56797    56416    56340    56743    56953 
   56604    56316    56474    56729    56867    56851    56601    56312 
   56254    56367    56558    56709    56560    56308    56342    56540 
   56702    56718    56388    55858    55590    55710    56003    56282 
   56474    56704    57157    57596    57464    56693    55919    55633 
   55632    55443    55035    54999    55603    56218    56319    56127 
   56015    56046    56189    56566    57103    57288    56887    56423 
   56336    56439    56554    56830    57211    57342    57015    56428 
   56022    56045    56326    56443    56207    56007    56239    56679 
   56817    56509    56246    56444    56755    56790    56737    56839 
   57091    57380    57438    57022    56322    55900    55938    55977 
   55773    55491    55344    55640    56297    56729    56782    56712 
   56547    56382    56438    56548    56448    56331    56444    56582 
   56415    55965    55505    55270    55385    55868    56494    56859 
   56941    56949    56789    56529    56481    56555    56596    56702 
   56724    56479    56262    56286    56451    56654    56644    56253 
   55729    55352    55341    55837    56415    56668    56853    56963 
   56754    56685    57067    57460    57607    57600    57358    56905 
   56432    55961    55593    55539    55750    55945    55899    55821 
   56019    56323    56481    56620    56922    57264    57342    57091 
   56825    56759    56747    56690    56671    56671    56515    56053 
   55529    55358    55399    55270    55131    55321    55777    56203 
   56397    56485    56749    57173    57466    57453    57264    57098 
   56951    56751    56423    55917    55537    55692    56076    56085 
   55803    55733    56083    56609    56864    56779    56776    56990 
   57119    56998    56698    56525    56737    57025    56843    56216 
   55868    56116    56326    56095    55740    55524    55533    55900 
   56501    56906    56878    56704    56833    57202    57381    57260 
   57029    56891    56763    56443    56097    55999    56108    56177 
   56084    55884    55690    55790    56340    56920    57121    57072 
   56903    56550    56069    55768    55956    56371    56527    56508 
   56560    56656    56801    56987    56884    56315    55757    55560 
   55537    55568    55629    55678    55822    55925    55776    55703 
   56081    56697    57044    57046    57123    57366    57565    57789 
   57890    57519    56880    56477    56548    56798    56579    55956 
   55641    55659    55588    55460    55513    55879    56455    56891 
   56839    56405    56188    56405    56685    56849    56902    56687 
   56350    56354    56736    57044    57011    56755    56357    55938 
   55856    56119    56297    56215    56080    56015    55958    55944 
   56037    56192    56250    56150    56219    56601    56910    56822 
   56394    56007    55961    56089    56047    55827    55792    56074 
   56312    56265    56178    56265    56327    56245    56300    56637 
   56957    56976    56791    56633    56525    56400    56342    56525 
   56863    57046    57042    57041    57082    57040    56883    56790 
   56828    56840    56744    56602    56421    56123    55891    56111 
   56729    57145    56995    56624    56484    56521    56488    56470 
   56531    56290    55715    55300    55202    55328    55726    56243 
   56502    56465    56378    56381    56447    56362    56012    55655 
   55498    55607    56066    56652    56907    56768    56542    56443 
   56538    56691    56759    56806    56864    56874    56794    56687 
   56731    56884    56949    56821    56582    56562    56733    56677 
   56378    56056    55885    56016    56299    56563    56779    56833 
   56687    56366    55930    55588    55526    55696    56026    56529 
   56918    56884    56660    56535    56475    56378    56331    56498 
   56710    56727    56666    56632    56500    56386    56513    56702 
   56686    56461    56238    56238    56350    56349    56309    56340 
   56398    56481    56640    56843    56856    56555    56128    55729 
   55474    55526    55753    55910    55907    55794    55779    55927 
