Origin Time       2025/03/30 21:30:00
Lat.              38.535
Long.             142.295
Depth. (km)       44
Mag.              4.3
Station Code      IWTH16
Station Lat.      39.6436
Station Long.     140.9465
Station Height(m) 212
Record Time       2025/03/30 21:31:43
Sampling Freq(Hz) 100Hz
Duration Time(s)  120
Dir.              5
Scale Factor      7845(gal)/8223790
Max. Acc. (gal)   0.483
Last Correction   2025/03/30 21:31:44
Memo.             
[...]
    -133     -112      -97      -98     -133     -167     -179     -164 
    -108      -63      -67      -97     -153     -206     -207     -203 
    -213     -187     -160     -164     -152     -114      -94      -91 
     -93     -124     -193     -230     -168      -72      -39      -51 
     -68      -79      -85      -95     -101     -109     -152     -194 
    -183     -145     -126     -117     -109     -129     -160     -149 
    -128     -112      -82      -98     -164     -175     -124      -86 
     -83      -82      -75      -78      -83     -101     -116      -90 
     -93     -156     -153      -74      -64     -136     -179     -175 
    -160     -163     -176     -171     -172     -174     -126      -85 
     -93     -106     -114     -151     -194     -189     -137     -120 
    -133     -106      -68      -85     -101      -94     -122     -163 
    -170     -159     -147     -130     -117     -114     -125     -144 
    -130      -89      -76      -94     -105     -114     -106      -81 
     -86     -129     -159     -139     -108     -124     -143     -140 
    -172     -211     -195     -144     -103     -101     -125     -129 
    -112      -91      -66      -64     -105     -141     -159     -171 
    -170     -166     -162     -163     -189     -197     -130      -59 
     -67     -118     -145     -143     -130     -132     -124      -98 
    -109     -137     -121      -97      -87      -81     -106     -137 
    -129     -133     -155     -137     -110     -106      -90      -83 
    -103     -105     -102     -121     -136     -141     -147     -140 
    -143     -167     -160     -120     -114     -141     -163     -190 
    -186     -137     -133     -175     -163     -103      -72      -86 
    -120     -143     -141     -137     -151     -151     -129     -137 
    -171     -157      -86      -33      -52     -124     -172     -152 
    -109     -101     -112     -113     -128     -159     -182     -201 
    -187     -128      -91     -110     -120     -102      -82      -85 
    -126     -171     -179     -152     -101      -59      -59      -70 
     -86     -101     -105     -105     -101      -98     -116     -133 
    -109      -45      -21      -72     -124     -141     -159     -182 
    -194     -176     -148     -136     -128     -116     -102      -79 
     -70     -102     -145     -157     -141     -139     -166     -174 
    -144     -133     -133     -106      -91     -114     -155     -187 
    -183     -152     -110      -66      -72     -135     -156     -110 
    -101     -140     -135      -89      -64      -72     -101     -116 
    -125     -162     -189     -175     -141     -109      -95     -101 
    -122     -156     -186     -203     -178     -118      -94     -110 
    -152     -206     -206     -149     -114     -110     -113     -120 
    -118     -120     -152     -179     -145     -105     -114     -139 
    -159     -180     -167     -109      -52      -21      -20      -40 
     -59      -87     -130     -135      -98      -93     -120     -126 
    -145     -198     -194     -126      -97      -91      -71      -97 
    -144     -117      -44       12       24      -51     -149     -178 
    -174     -170     -144     -129     -145     -152     -151     -179 
    -202     -171     -145     -180     -217     -170      -85      -64 
     -99     -126     -139     -132      -97      -67      -87     -172 
    -249     -237     -191     -183     -163      -91      -52      -95 
    -133     -126     -135     -159     -168     -166     -151     -141 
    -153     -145     -137     -168     -151      -90     -105     -126 
     -89     -102     -156     -167     -178     -183     -114      -45 
     -49      -66      -71     -110     -132      -97      -54      -25 
     -17      -56     -122     -152     -133     -120     -133     -137 
    -126     -133     -153     -162     -149     -140     -155     -170 
    -133      -85      -87      -89      -72     -106     -166     -195 
    -205     -201     -182     -152     -145     -167     -170     -152 
    -137     -133     -145     -148     -124     -110     -122     -113 
     -79      -79     -106     -122     -106      -56      -14      -16 
     -47     -114     -193     -205     -170     -162     -176     -178 
    -170     -153     -136     -121      -78      -18      -20      -99 
    -182     -189     -141     -117     -133     -162     -164     -133 
    -109     -114     -109      -93     -112     -155     -166     -141 
    -110      -98      -95      -87     -105     -121      -98     -118 
    -174     -180     -183     -207     -187     -121      -59      -33 
     -59     -112     -126      -86      -36      -32      -83     -157 
    -180     -125      -83     -118     -139     -105     -122     -198 
    -203     -143     -110      -98     -114     -167     -162     -105 
    -114     -171     -176     -141     -116     -122     -153     -160 
    -126     -110     -130     -132     -121     -130     -156     -176 
    -151      -90      -78     -120     -126     -113     -141     -172 
    -163     -136     -135     -175     -216     -213     -190     -166 
    -141     -140     -137      -89      -62      -98     -124     -106 
     -87      -93     -105     -106      -95      -82      -66      -70 
     -94      -99      -90     -108     -140     -153     -157     -176 
    -184     -147     -129     -183     -198     -117      -45      -44 
     -72     -103     -120     -109     -106     -116     -105     -114 
    -156     -159     -140     -137      -94      -39      -82     -168 
    -184     -174     -167     -130     -109     -118     -109     -102 
    -116     -101      -87     -136     -190     -211     -209     -170 
    -124     -124     -163     -176     -144     -124     -133     -125 
     -85      -66      -75      -62      -51      -72      -76      -93 
    -155     -195     -178     -151     -139     -133     -139     -151 
    -143     -113      -99     -121     -132     -101      -74      -91 
    -128     -151     -168     -187     -182     -148     -103      -48 
     -22      -63     -108      -95      -60      -74     -153     -230 
    -245     -236     -234     -211     -174     -166     -170     -133 
     -89      -85      -86      -55      -33      -64     -113     -137 
    -141     -125     -117     -147     -189     -226     -221     -172 
    -171     -180     -112      -51      -75     -113     -103      -62 
     -44      -66      -98     -106      -90      -58      -22      -25 
     -70     -116     -145     -147     -143     -174     -186     -145 
    -108      -91      -78      -91     -113     -118     -157     -221 
    -210     -139     -122     -171     -207     -195     -148     -106 
    -128     -197     -222     -201     -216     -220     -149      -82 
     -72      -66      -56      -78      -95      -72      -67     -112 
    -164     -189     -174     -139     -112      -91      -68      -82 
    -182     -267     -213     -108      -67      -58      -63      -95 
    -102      -72      -71     -108     -120      -98      -98     -124 
    -116      -58      -24      -70     -128     -140     -151     -176 
    -207     -243     -229     -148      -97     -121     -133      -91 
     -56      -56      -75      -99     -125     -143     -155     -184 
    -209     -178     -152     -167     -136      -71      -70     -105 
    -109      -89      -98     -159     -210     -194     -145     -136 
    -176     -187     -117      -35       -9      -44     -109     -160 
    -175     -139      -67      -41      -85     -136     -186     -207 
    -157     -108      -97      -79      -76     -126     -193     -240 
    -260     -252     -222     -160      -97      -87     -103     -109 
    -105     -108     -116     -116     -129     -175     -202     -178 
    -147     -145     -132      -78      -47      -58      -54      -52 
     -78      -97      -91      -89     -103     -122     -140     -143 
    -126     -101      -66      -72     -155     -229     -230     -195 
    -141      -82      -58      -70      -87      -99     -102     -101 
    -130     -182     -197     -168     -152     -151     -139     -130 
    -145     -155     -141     -124     -114      -98      -78      -83 
    -120     -130     -112     -124     -155     -136     -101     -125 
    -186     -221     -228     -201     -116      -51      -85     -118 
     -91      -89     -120     -113      -89      -99     -102      -82 
    -102     -132     -101      -89     -135     -155     -156     -199 
    -197     -105      -60      -90     -112     -122     -128     -103 
     -74      -86     -137     -160     -133     -106      -75      -16 
       1      -79     -164     -174     -155     -164     -216     -263 
    -240     -164     -103      -71      -66      -72      -79     -116 
    -159     -149     -118     -103      -98     -120     -153     -163 
    -160     -172     -174     -156     -172     -209     -186     -136 
    -109      -90      -85      -94      -94      -94     -112     -118 
    -124     -162     -176     -141     -118     -113     -121     -162 
    -176     -163     -179     -183     -139     -102      -98     -102 
    -102      -98      -76      -70     -124     -179     -153     -108 
    -118     -151     -157     -151     -144     -156     -189     -180 
    -118      -87      -99      -89      -54      -47      -62      -94 
    -153     -201     -157      -76      -67      -93      -97      -90 
     -60      -54      -93     -110     -113     -148     -182     -198 
    -203     -191     -190     -205     -171     -105      -82      -63 
     -28      -31      -62      -90     -122     -132     -117     -118 
    -151     -202     -202     -112      -41      -49      -56      -66 
    -109     -141     -151     -144     -120      -95     -102     -125 
    -140     -168     -186     -155     -139     -159     -155     -153 
    -167     -145     -122     -135     -143     -147     -186     -234 
    -232     -193     -162     -135     -109     -108     -126     -153 
    -163     -145     -137     -151     -166     -156     -103      -64 
     -71      -72     -101     -171     -170     -103      -86      -94 
     -56      -36      -66      -91     -102     -125     -160     -171 
    -110      -40      -44      -82     -120     -163     -159     -102 
     -63      -60      -71     -102     -151     -171     -164     -170 
    -176     -166     -164     -157     -118     -103     -167     -229 
    -209     -170     -159     -112      -31      -12      -81     -139 
    -122      -68      -66     -139     -216     -244     -211     -132 
    -102     -147     -141     -108     -148     -174     -128      -87 
     -76     -112     -179     -166      -87      -55      -71     -120 
    -151     -126     -118     -159     -175     -129      -72      -45 
     -49      -78     -106     -120     -141     -166     -155     -120 
     -91      -71      -72     -121     -171     -153     -117     -122 
    -132     -128     -144     -168     -191     -195     -168     -153 
    -141     -116     -117     -130     -136     -175     -199     -148 
    -106     -121     -124     -105     -105     -106     -113     -170 
    -240     -244     -180     -132     -130      -87      -35      -86 
    -159     -172     -198     -217     -170     -135     -132     -105 
    -102     -152     -172     -124      -55      -21      -47      -95 
     -93      -48      -58     -106     -113     -101     -105     -118 
    -124     -109     -102      -99      -74      -39       -8      -27 
     -98     -144     -156     -174     -170     -130     -112     -117 
    -126     -133     -129     -136     -136     -114     -139     -190 
    -176     -139     -135     -129      -86      -45      -43      -71 
    -105     -116      -97      -78      -90     -105      -87      -66 
     -66      -75      -93     -108     -109     -136     -178     -168 
    -136     -133     -137     -149     -168     -155     -128     -110 
     -63        4       25       -1      -14      -13      -59     -125 
    -162     -193     -221     -228     -272     -371     -414     -365 
    -307     -272     -225     -151      -93      -87     -112     -110 
     -70      -43      -59     -117     -213     -282     -315     -359 
    -349     -265     -213     -207     -225     -247     -203     -114 
     -55      -31      -21       -9      -10      -44      -48      -28 
     -63      -99      -86      -78      -63      -16      -18      -85 
    -114     -102     -124     -160     -149      -97      -54      -37 
      -1       45       17      -76     -184     -298     -367     -367 
    -337     -282     -205     -143      -79       33      147      176 
     163      129       24     -106     -214     -309     -333     -275 
    -221     -186     -151     -132     -117      -75       -6       18 
     -52     -122     -101      -91     -136      -94       36       90 
      52       27      -18     -109     -144     -109      -97     -145 
    -218     -247     -180      -76      -35      -58     -103     -148 
    -166     -190     -245     -286     -283     -243     -240     -322 
    -359     -265     -211     -278     -351     -383     -394     -369 
    -361     -400     -426     -375     -232      -59       39       37 
     -31     -101      -98      -59      -62     -103     -164     -184 
    -132      -94     -105      -72      -20      -49     -144     -187 
     -81      166      375      380      228       59      -72     -178 
    -247     -217      -59       87      105       33      -37      -60 
     -48      -43      -51      -90     -167     -225     -252     -268 
    -222     -126     -139     -276     -328     -241     -153     -105 
    -121     -255     -373     -294     -108       -8       49      140 
     137       29       -5       22      -21      -76      -86     -148 
    -252     -349     -445     -452     -352     -291     -278     -182 
      -9       94       70       41       89       99       39       -2 
     -14      -17      -17      -66     -132     -137     -135     -153 
    -140     -155     -272     -379     -380     -368     -409     -432 
    -422     -415     -326     -139      -18      -13      -13      -36 
    -143     -207     -133      -47      -45      -75     -103     -151 
    -183     -156     -136     -201     -279     -324     -356     -305 
    -132       39      133      183      170       63      -52     -112 
    -186     -299     -313     -176      -21       83      164      194 
     175      120       10      -60      -28       -4      -47      -78 
     -81      -75      -68     -116     -199     -216     -197     -236 
    -274     -214      -99      -20      -12      -56     -108     -140 
    -155     -171     -224     -314     -373     -352     -318     -324 
    -337     -373     -407     -311     -130      -40      -18        9 
     -20     -103     -144     -140     -136     -167     -256     -328 
    -324     -291     -265     -284     -311     -237     -136      -78 
      13       75       36        6       28       40       40       45 
      21      -33      -29       -1      -66     -139      -93      -22 
     -49      -93      -51        0        1       33       95       47 
    -136     -322     -413     -425     -403     -369     -324     -240 
    -132      -67      -82     -155     -210     -178     -106      -78 
     -48       -1      -14      -59      -58      -49     -109     -233 
    -394     -510     -502     -449     -414     -283      -91      -41 
    -103      -81       20       74       79       72       16      -22 
      64      198      280      314      210      -12     -155     -186 
    -194     -183     -163     -179     -211     -216     -191     -152 
     -95      -17       31       -2      -51      -56     -113     -214 
    -222     -184     -220     -267     -229     -168     -168     -224 
    -305     -344     -284     -189     -145     -162     -194     -175 
    -105      -83     -153     -241     -305     -349     -341     -294 
    -240     -167     -101      -74      -48      -18      -16      -13 
      -2      -51     -137     -136      -91      -90      -33       93 
     121       39      -39      -82      -76       -2       22      -91 
    -193     -151      -70      -36      -14      -10      -35      -36 
     -27     -101     -221     -290     -351     -461     -535     -444 
    -248     -179     -272     -297     -175      -52        8       25 
     -28     -144     -221     -183      -89      -41      -55     -112 
    -172     -157      -81      -27      -25      -78     -172     -259 
    -303     -297     -247     -203     -186     -157     -113      -47 
      63      162      209      216      184      206      297      288 
     179       86      -68     -288     -411     -427     -384     -326 
    -351     -402     -348     -207      -71       10       -1     -118 
    -210     -195     -174     -166     -140     -145     -136      -94 
     -87      -64      -17      -29      -63      -91     -194     -292 
    -253     -170     -206     -337     -423     -383     -260     -143 
     -94     -137     -186     -178     -206     -260     -256     -264 
    -280     -201      -99      -75      -55      -21      -48      -97 
    -117     -135     -129      -79      -16       59       94       55 
       0      -63     -122     -129     -129     -130      -97      -95 
    -143     -137      -72      -56     -130     -209     -265     -359 
    -402     -295     -174     -160     -145      -81      -49      -29 
      49      135      130       33      -90     -170     -180     -126 
     -56      -68     -152     -213     -251     -302     -337     -311 
    -234     -205     -270     -267     -121       29      122      198 
     232      170       44       -6       45       36     -109     -236 
    -241     -203     -167     -106      -62      -68      -95     -155 
    -213     -151      -25       -9      -75      -90      -49      -59 
    -157     -252     -283     -284     -264     -222     -195     -176 
    -159     -170     -182     -152     -141     -197     -222     -148 
     -49      -41     -155     -280     -324     -328     -306     -217 
    -135      -93        0       72        5      -90     -112     -182 
    -348     -444     -375     -260     -206     -184     -167     -118 
      -6       59       13      -28      -51     -145     -232     -187 
     -89      -27       17       54       62       40       22        0 
     -70     -151     -193     -197     -140      -56      -47      -78 
    -105     -193     -278     -232     -182     -222     -207     -128 
     -90       -9      140      199      155       79      -43     -143 
    -110      -44      -89     -187     -220     -184      -85       52 
      76      -29     -110     -174     -275     -261     -133     -106 
    -172     -209     -248     -288     -249     -186     -180     -191 
    -159     -113     -103     -136     -183     -207     -198     -178 
    -183     -228     -286     -314     -279     -187      -97      -78 
    -151     -236     -249     -203     -133      -67      -83     -178 
    -213     -144      -95     -122     -137     -106      -87     -105 
    -129     -135     -113      -91      -71      -45      -51      -75 
