Origin Time       2025/03/30 21:30:00
Lat.              38.535
Long.             142.295
Depth. (km)       44
Mag.              4.3
Station Code      IWTH15
Station Lat.      39.6148
Station Long.     141.0929
Station Height(m) 73
Record Time       2025/03/30 21:31:39
Sampling Freq(Hz) 100Hz
Duration Time(s)  120
Dir.              1
Scale Factor      2940(gal)/6170270
Max. Acc. (gal)   0.229
Last Correction   2025/03/30 21:31:24
Memo.             
[...]
   78519    78495    78565    78621    78579    78505    78463    78481 
   78563    78607    78562    78520    78509    78514    78545    78533 
   78465    78440    78473    78532    78587    78601    78608    78590 
   78510    78467    78519    78593    78641    78649    78610    78552 
   78514    78527    78562    78541    78475    78450    78473    78482 
   78485    78499    78484    78479    78538    78587    78559    78520 
   78556    78638    78661    78610    78566    78576    78610    78603 
   78564    78550    78560    78567    78562    78536    78507    78506 
   78525    78535    78537    78557    78579    78581    78589    78627 
   78665    78650    78620    78649    78652    78592    78595    78623 
   78580    78545    78552    78570    78577    78516    78423    78421 
   78493    78547    78571    78588    78584    78546    78526    78564 
   78560    78488    78502    78622    78705    78665    78525    78426 
   78466    78551    78587    78609    78612    78547    78479    78488 
   78527    78542    78546    78572    78630    78638    78542    78457 
   78496    78601    78654    78619    78560    78552    78591    78603 
   78561    78508    78460    78441    78474    78513    78513    78486 
   78481    78527    78572    78554    78520    78529    78544    78540 
   78549    78549    78511    78491    78515    78552    78550    78488 
   78461    78531    78593    78612    78637    78638    78622    78614 
   78584    78568    78585    78589    78609    78642    78613    78543 
   78490    78463    78494    78566    78562    78481    78453    78507 
   78570    78591    78589    78605    78614    78597    78602    78621 
   78610    78589    78575    78564    78551    78511    78455    78441 
   78519    78601    78554    78481    78535    78626    78642    78616 
   78575    78546    78548    78525    78489    78519    78589    78631 
   78646    78636    78580    78506    78471    78467    78478    78521 
   78564    78578    78587    78582    78545    78525    78531    78538 
   78549    78552    78557    78555    78515    78498    78513    78507 
   78531    78581    78592    78593    78572    78516    78503    78518 
   78526    78557    78554    78514    78526    78557    78583    78652 
   78709    78677    78588    78506    78477    78478    78473    78503 
   78563    78557    78497    78502    78578    78598    78547    78527 
   78537    78560    78628    78666    78634    78622    78615    78576 
   78568    78576    78578    78610    78589    78480    78398    78415 
   78506    78570    78583    78625    78658    78633    78616    78614 
   78590    78561    78541    78517    78498    78544    78604    78549 
   78455    78438    78448    78460    78477    78500    78563    78626 
   78626    78569    78517    78549    78627    78654    78632    78593 
   78545    78522    78541    78542    78497    78459    78452    78494 
   78594    78657    78641    78613    78600    78610    78629    78603 
   78533    78476    78479    78524    78560    78587    78617    78628 
   78628    78590    78517    78532    78630    78650    78588    78556 
   78559    78557    78542    78521    78496    78472    78476    78498 
   78507    78530    78556    78550    78574    78627    78595    78507 
   78478    78518    78584    78640    78620    78547    78523    78547 
   78535    78513    78554    78568    78506    78501    78568    78601 
   78594    78586    78596    78603    78570    78550    78576    78592 
   78576    78525    78496    78571    78624    78553    78506    78542 
   78545    78492    78487    78554    78589    78560    78532    78519 
   78533    78565    78559    78554    78592    78583    78529    78550 
   78610    78598    78566    78595    78613    78551    78497    78515 
   78525    78493    78492    78508    78480    78484    78562    78592 
   78553    78517    78500    78547    78657    78699    78642    78598 
   78592    78558    78514    78518    78561    78584    78543    78457 
   78417    78451    78510    78580    78616    78576    78554    78596 
   78620    78630    78652    78608    78532    78548    78624    78637 
   78553    78480    78493    78533    78553    78591    78620    78584 
   78543    78545    78517    78469    78492    78526    78475    78440 
   78525    78631    78654    78629    78595    78568    78555    78545 
   78546    78552    78528    78494    78510    78569    78594    78563 
   78523    78514    78541    78588    78625    78624    78590    78550 
   78507    78469    78478    78505    78494    78483    78513    78571 
   78618    78608    78589    78598    78588    78562    78542    78519 
   78526    78574    78605    78578    78550    78569    78557    78493 
   78494    78572    78601    78538    78518    78610    78669    78627 
   78571    78567    78622    78635    78546    78478    78472    78491 
   78535    78539    78496    78502    78533    78540    78556    78588 
   78608    78617    78608    78595    78630    78661    78600    78491 
   78402    78375    78441    78525    78558    78572    78564    78520 
   78525    78602    78628    78559    78501    78506    78537    78565 
   78586    78602    78613    78600    78571    78556    78531    78482 
   78462    78500    78552    78580    78597    78593    78554    78553 
   78604    78619    78616    78650    78678    78633    78530    78481 
   78525    78572    78570    78548    78539    78529    78504    78505 
   78526    78535    78554    78568    78563    78578    78601    78595 
   78570    78552    78548    78527    78516    78557    78582    78574 
   78580    78553    78518    78555    78591    78551    78516    78548 
   78571    78525    78507    78564    78596    78588    78604    78614 
   78590    78570    78535    78496    78526    78597    78656    78669 
   78594    78522    78517    78486    78454    78490    78504    78467 
   78465    78510    78591    78650    78579    78482    78494    78527 
   78538    78565    78596    78630    78627    78545    78480    78480 
   78493    78516    78525    78503    78540    78638    78661    78598 
   78556    78546    78545    78582    78643    78680    78659    78583 
   78515    78516    78553    78557    78530    78529    78558    78560 
   78507    78459    78482    78543    78554    78511    78503    78532 
   78511    78459    78455    78501    78568    78639    78705    78743 
   78680    78560    78533    78579    78584    78529    78479    78520 
   78594    78583    78519    78454    78423    78441    78462    78509 
   78613    78662    78586    78516    78570    78643    78626    78579 
   78581    78604    78567    78480    78439    78476    78528    78559 
   78606    78610    78508    78473    78565    78585    78517    78514 
   78551    78539    78510    78515    78541    78555    78576    78613 
   78627    78639    78654    78649    78644    78604    78523    78510 
   78566    78585    78576    78563    78513    78470    78475    78494 
   78508    78515    78510    78507    78531    78576    78594    78580 
   78608    78662    78655    78593    78531    78500    78521    78582 
   78639    78618    78501    78423    78471    78523    78491    78444 
   78450    78503    78541    78517    78487    78512    78564    78634 
   78704    78717    78684    78621    78552    78550    78571    78557 
   78549    78528    78470    78428    78458    78548    78576    78520 
   78517    78552    78530    78499    78503    78514    78514    78509 
   78548    78627    78678    78682    78638    78548    78521    78582 
   78592    78549    78545    78529    78507    78558    78596    78533 
   78462    78474    78536    78551    78498    78484    78564    78630 
   78597    78535    78529    78560    78550    78481    78446    78498 
   78557    78541    78482    78468    78516    78543    78515    78522 
   78585    78600    78574    78618    78682    78663    78586    78504 
   78452    78456    78478    78491    78521    78594    78657    78642 
   78614    78614    78576    78548    78591    78626    78646    78693 
   78691    78639    78634    78637    78566    78472    78425    78428 
   78455    78467    78463    78501    78584    78657    78684    78665 
   78650    78651    78618    78563    78497    78439    78482    78590 
   78614    78592    78617    78623    78598    78583    78545    78523 
   78578    78635    78621    78575    78578    78607    78566    78461 
   78403    78440    78481    78472    78480    78533    78603    78659 
   78656    78627    78662    78716    78706    78684    78681    78609 
   78458    78339    78263    78219    78268    78377    78464    78503 
   78481    78488    78603    78731    78746    78707    78746    78812 
   78771    78665    78627    78656    78627    78472    78322    78313 
   78344    78291    78228    78255    78354    78471    78584    78661 
   78664    78642    78648    78662    78662    78625    78561    78543 
   78578    78609    78621    78599    78515    78433    78403    78363 
   78328    78351    78390    78403    78361    78306    78348    78470 
   78576    78681    78818    78931    78959    78949    78969    78961 
   78836    78678    78603    78537    78375    78188    78077    78076 
   78179    78296    78353    78374    78395    78489    78677    78827 
   78835    78747    78678    78689    78727    78753    78742    78638 
   78528    78549    78624    78598    78474    78373    78364    78411 
   78418    78336    78301    78456    78673    78747    78697    78665 
   78721    78801    78802    78738    78699    78711    78735    78703 
   78615    78537    78492    78426    78317    78237    78231    78256 
   78285    78355    78496    78658    78783    78831    78789    78689 
   78574    78524    78623    78740    78668    78521    78540    78653 
   78609    78406    78267    78295    78402    78472    78458    78426 
   78463    78529    78579    78665    78770    78856    78953    78995 
   78850    78557    78325    78280    78338    78461    78657    78756 
   78694    78672    78704    78614    78492    78501    78529    78468 
   78372    78316    78342    78352    78280    78338    78564    78690 
   78660    78622    78652    78731    78756    78689    78558    78352 
   78197    78246    78376    78427    78462    78552    78631    78640 
   78617    78586    78551    78566    78625    78699    78773    78771 
   78699    78649    78600    78529    78480    78443    78402    78358 
   78335    78420    78607    78718    78644    78516    78478    78530 
   78577    78521    78426    78420    78478    78517    78528    78531 
   78535    78562    78596    78588    78569    78594    78622    78569 
   78418    78266    78223    78322    78491    78581    78562    78535 
   78592    78744    78920    78969    78778    78496    78446    78655 
   78799    78733    78621    78564    78520    78457    78407    78454 
   78627    78767    78734    78667    78732    78848    78886    78793 
   78554    78316    78266    78306    78311    78403    78561    78585 
   78518    78508    78537    78549    78544    78547    78527    78464 
   78452    78485    78456    78381    78320    78292    78302    78326 
   78381    78509    78656    78730    78724    78688    78680    78738 
   78756    78591    78352    78314    78476    78555    78494    78522 
   78634    78613    78519    78550    78715    78895    78930    78754 
   78542    78497    78586    78669    78739    78750    78605    78463 
   78451    78438    78412    78409    78373    78365    78412    78458 
   78524    78608    78710    78826    78842    78753    78688    78618 
   78476    78364    78390    78458    78418    78305    78241    78235 
   78265    78360    78515    78691    78864    78973    78973    78915 
   78870    78818    78649    78392    78308    78490    78693    78714 
   78569    78412    78420    78529    78564    78572    78632    78641 
   78546    78438    78389    78378    78425    78548    78595    78525 
   78593    78798    78815    78621    78440    78350    78386    78537 
   78712    78870    78943    78835    78665    78569    78432    78229 
   78136    78152    78191    78290    78454    78623    78718    78678 
   78565    78481    78471    78597    78809    78891    78822    78774 
   78723    78569    78418    78376    78404    78428    78421    78415 
   78449    78510    78532    78488    78439    78399    78328    78300 
   78409    78557    78579    78525    78566    78676    78744    78794 
   78843    78822    78718    78615    78608    78628    78521    78328 
   78204    78211    78300    78413    78542    78625    78593    78490 
   78436    78530    78731    78852    78829    78787    78734    78632 
   78605    78640    78577    78462    78427    78460    78462    78422 
   78503    78691    78699    78574    78636    78837    78886    78726 
   78540    78476    78463    78397    78341    78352    78367    78372 
   78409    78496    78620    78719    78748    78754    78780    78797 
   78744    78587    78430    78418    78521    78562    78428    78233 
   78174    78271    78413    78536    78626    78692    78732    78688 
   78534    78367    78343    78481    78673    78772    78665    78511 
   78532    78575    78502    78415    78372    78466    78733    78940 
   78965    78939    78917    78866    78755    78525    78265    78167 
   78192    78202    78235    78331    78447    78522    78484    78462 
   78597    78714    78720    78740    78745    78699    78662    78576 
   78449    78434    78462    78334    78138    78072    78145    78288 
   78418    78447    78437    78452    78444    78448    78528    78637 
   78723    78796    78885    78965    78962    78885    78835    78819 
   78748    78688    78723    78718    78606    78465    78393    78490 
   78621    78636    78673    78711    78597    78471    78458    78461 
   78470    78513    78566    78666    78778    78801    78792    78829 
   78812    78690    78575    78513    78446    78378    78324    78245 
   78179    78195    78262    78347    78416    78442    78496    78592 
   78645    78660    78685    78692    78664    78634    78607    78525 
   78424    78415    78448    78453    78479    78510    78517    78551 
   78593    78615    78615    78558    78453    78396    78418    78438 
   78434    78450    78441    78357    78307    78390    78534    78608 
   78598    78621    78693    78687    78628    78636    78670    78665 
   78627    78567    78532    78529    78502    78498    78600    78683 
   78568    78393    78357    78416    78487    78506    78509    78580 
   78602    78588    78698    78819    78839    78799    78683    78603 
   78667    78703    78616    78543    78545    78553    78559    78573 
   78543    78506    78544    78578    78542    78530    78547    78508 
   78458    78503    78619    78710    78770    78796    78724    78610 
   78560    78544    78513    78473    78422    78385    78389    78380 
   78328    78305    78373    78498    78579    78574    78524    78494 
   78551    78648    78669    78668    78721    78768    78769    78722 
   78651    78659    78710    78637    78456    78333    78320    78341 
   78368    78458    78578    78609    78549    78500    78514    78560 
   78568    78528    78529    78617    78744    78797    78710    78627 
   78648    78651    78595    78502    78342    78176    78081    78091 
   78234    78403    78483    78554    78677    78753    78751    78746 
   78725    78663    78635    78662    78676    78691    78721    78661 
   78523    78462    78468    78451    78439    78483    78571    78605 
   78553    78521    78542    78556    78564    78594    78604    78551 
   78494    78510    78565    78581    78551    78514    78474    78427 
   78437    78511    78581    78636    78645    78563    78483    78463 
   78446    78416    78405    78459    78548    78576    78568    78595 
   78651    78687    78665    78601    78556    78565    78611    78603 
   78519    78471    78491    78503    78519    78587    78660    78676 
   78671    78704    78760    78747    78630    78541    78562    78564 
   78459    78358    78365    78422    78424    78381    78393    78487 
   78573    78584    78551    78536    78582    78685    78757    78712 
   78592    78494    78446    78455    78490    78503    78521    78555 
   78552    78535    78536    78495    78467    78544    78615    78591 
   78569    78617    78682    78690    78636    78559    78507    78517 
   78536    78491    78427    78396    78373    78365    78405    78510 
   78642    78718    78733    78707    78610    78514    78521    78551 
   78536    78541    78582    78605    78583    78540    78506    78495 
   78521    78584    78666    78700    78655    78643    78694    78685 
   78616    78579    78569    78548    78509    78474    78503    78578 
   78623    78653    78658    78606    78555    78560    78628    78707 
   78699    78629    78566    78502    78469    78483    78488    78490 
   78526    78545    78488    78425    78461    78521    78477    78419 
   78463    78571    78660    78670    78633    78620    78573    78459 
   78416    78479    78483    78406    78402    78475    78513    78519 
   78524    78511    78485    78461    78457    78509    78621    78718 
   78710    78624    78567    78582    78620    78643    78670    78711 
   78704    78616    78504    78427    78402    78423    78474    78512 
   78467    78408    78475    78615    78677    78631    78589    78639 
   78672    78625    78598    78612    78627    78618    78587    78579 
   78577    78542    78496    78455    78455    78483    78458    78443 
   78501    78521    78468    78410    78365    78379    78498    78620 
   78628    78585    78579    78612    78669    78700    78673    78638 
   78622    78621    78642    78656    78616    78531    78467    78439 
   78422    78443    78526    78636    78692    78640    78549    78531 
   78577    78581    78520    78500    78568    78641    78648    78595 
   78520    78494    78572    78670    78663    78587    78547    78526 
   78472    78422    78398    78389    78461    78579    78590    78534 
   78555    78612    78611    78591    78600    78578    78515    78501 
   78531    78541    78556    78599    78637    78648    78630    78591 
   78546    78520    78542    78617    78688    78669    78587    78551 
   78570    78546    78439    78358    78422    78550    78592    78593 
   78645    78677    78628    78579    78600    78632    78625    78612 
   78603    78574    78524    78459    78391    78345    78376    78459 
   78479    78436    78429    78466    78458    78398    78395    78459 
   78515    78555    78604    78646    78647    78648    78692    78700 
   78620    78534    78514    78560    78615    78613    78565    78519 
   78511    78541    78540    78513    78529    78560    78569    78567 
   78565    78623    78713    78696    78557    78437    78429    78477 
   78514    78551    78569    78537    78506    78504    78527    78588 
   78629    78591    78512    78438    78379    78375    78442    78511 
   78538    78536    78526    78544    78595    78633    78627    78601 
   78569    78524    78503    78521    78540    78558    78561    78534 
   78520    78550    78593    78629    78665    78689    78672    78641 
   78632    78640    78660    78669    78625    78554    78548    78608 
