Origin Time       2025/03/30 21:30:00
Lat.              38.535
Long.             142.295
Depth. (km)       44
Mag.              4.3
Station Code      IWTH21
Station Lat.      39.4734
Station Long.     141.9336
Station Height(m) 13
Record Time       2025/03/30 21:31:26
Sampling Freq(Hz) 100Hz
Duration Time(s)  120
Dir.              6
Scale Factor      7845(gal)/8223790
Max. Acc. (gal)   1.351
Last Correction   2025/03/30 21:31:26
Memo.             
[...]
  -20387   -20587   -20533   -20501   -20551   -20359   -20260   -20358 
  -20428   -20826   -21018   -20432   -19904   -19861   -20271   -20953 
  -21147   -20694   -20063   -19827   -20239   -20672   -20673   -20668 
  -20834   -20560   -19899   -19749   -20394   -21293   -21286   -20194 
  -19643   -20181   -20520   -20383   -20677   -21043   -20734   -20339 
  -20129   -19994   -20131   -20494   -20979   -21039   -20538   -20029 
  -19826   -20181   -20673   -20914   -20931   -20509   -20039   -19865 
  -20190   -21019   -21168   -20425   -19873   -19955   -20574   -20988 
  -20655   -20248   -20333   -20343   -20069   -20331   -20964   -21054 
  -20576   -20007   -19934   -20331   -20710   -20827   -20498   -20154 
  -20286   -20634   -20736   -20552   -20293   -19959   -20144   -21047 
  -21189   -20147   -19623   -20386   -21019   -20687   -20397   -20521 
  -20339   -20039   -20413   -20934   -20636   -20156   -20096   -20316 
  -20941   -20933   -20016   -20052   -20602   -20313   -20418   -20966 
  -20707   -20256   -20298   -20483   -20443   -20271   -20343   -20474 
  -20464   -20482   -20617   -20752   -20542   -20305   -20398   -20212 
  -20139   -20683   -20704   -20247   -20317   -20540   -20567   -20506 
  -20352   -20455   -20800   -20711   -20224   -20048   -20264   -20634 
  -20792   -20475   -20241   -20332   -20509   -20711   -20441   -20019 
  -20502   -21123   -20653   -19853   -19723   -20173   -20850   -21174 
  -20891   -20402   -19993   -19973   -20416   -20829   -20942   -20661 
  -20065   -19944   -20387   -20464   -20406   -20893   -21142   -20333 
  -19562   -19988   -20699   -20935   -20896   -20359   -19830   -20127 
  -20802   -21093   -20648   -19909   -19934   -20649   -21024   -20667 
  -20123   -20158   -20584   -20439   -20035   -20530   -21092   -20599 
  -20105   -20324   -20528   -20366   -20409   -20760   -20606   -20267 
  -20380   -20405   -20401   -20483   -20451   -20665   -20733   -20255 
  -19894   -20250   -21088   -21131   -20124   -19678   -20129   -20587 
  -21003   -21099   -20540   -19970   -19828   -20189   -20827   -20991 
  -20745   -20387   -19981   -20177   -20676   -20656   -20355   -20212 
  -20507   -20644   -20220   -20228   -20613   -20752   -20729   -20448 
  -20241   -20225   -20169   -20343   -20680   -20888   -20810   -20490 
  -20162   -20079   -20414   -20536   -20349   -20648   -20749   -20166 
  -20102   -20599   -20657   -20556   -20629   -20332   -20160   -20632 
  -20718   -20344   -20301   -20372   -20459   -20518   -20470   -20588 
  -20482   -20086   -20135   -20741   -21123   -20668   -20137   -19962 
  -19963   -20632   -21008   -20456   -20368   -20538   -20270   -20262 
  -20652   -20884   -20588   -20132   -20066   -20375   -20687   -20648 
  -20553   -20439   -20285   -20602   -20668   -20078   -20061   -20722 
  -20918   -20499   -20232   -20174   -20197   -20650   -21003   -20711 
  -20206   -19916   -20243   -20737   -20544   -20341   -20640   -20706 
  -20478   -20278   -20131   -20434   -20911   -20664   -20117   -20051 
  -20312   -20655   -20769   -20472   -20221   -20429   -20785   -20722 
  -20285   -19880   -20119   -20991   -21047   -20154   -19988   -20583 
  -20675   -20487   -20676   -20580   -20186   -20171   -20231   -20343 
  -20556   -20657   -20846   -20659   -20054   -20075   -20471   -20605 
  -20873   -20740   -19996   -20016   -20657   -20704   -20439   -20545 
  -20569   -20278   -20374   -20532   -20363   -20478   -20484   -20193 
  -20337   -20541   -20482   -20663   -20772   -20483   -20267   -20198 
  -20187   -20429   -20833   -20911   -20414   -20038   -20355   -20649 
  -20414   -20314   -20645   -20669   -20182   -20162   -20763   -20646 
  -19970   -20274   -20846   -20594   -20455   -20464   -20232   -20428 
  -20642   -20368   -20217   -20503   -21019   -20953   -20121   -19826 
  -20260   -20586   -20700   -20493   -20275   -20561   -20721   -20345 
  -20210   -20582   -20692   -20432   -20306   -20285   -20243   -20329 
  -20688   -20981   -20692   -20082   -19889   -20461   -20920   -20548 
  -20283   -20312   -20282   -20752   -20919   -20142   -19962   -20659 
  -20771   -20360   -20371   -20540   -20434   -20358   -20443   -20484 
  -20428   -20467   -20541   -20389   -20310   -20502   -20560   -20456 
  -20382   -20340   -20482   -20752   -20752   -20403   -20036   -20097 
  -20575   -20845   -20731   -20499   -20352   -20353   -20113   -19847 
  -20456   -21320   -21027   -20112   -19935   -20360   -20534   -20390 
  -20565   -20895   -20630   -20150   -19962   -20121   -20731   -21023 
  -20586   -20281   -20305   -20275   -20339   -20528   -20532   -20559 
  -20737   -20493   -20015   -20204   -20856   -20931   -20299   -19901 
  -20218   -20650   -20746   -20823   -20634   -19936   -19905   -20611 
  -20831   -20752   -20691   -20331   -20043   -20175   -20393   -20552 
  -20827   -20862   -20391   -19932   -19911   -20308   -20713   -20749 
  -20633   -20475   -20312   -20478   -20696   -20470   -20298   -20532 
  -20439   -20101   -20366   -20686   -20575   -20614   -20617   -20270 
  -20105   -20364   -20646   -20714   -20609   -20251   -20023   -20259 
  -20574   -20853   -20741   -20299   -20443   -20572   -20244   -20304 
  -20502   -20461   -20526   -20672   -20587   -20110   -19943   -20553 
  -20997   -20750   -20198   -19826   -20254   -21093   -21097   -20412 
  -20088   -20085   -20102   -20447   -20873   -20785   -20360   -20158 
  -20263   -20460   -20757   -20907   -20453   -20074   -20490   -20730 
  -20283   -20082   -20424   -20607   -20409   -20498   -20700   -20444 
  -20286   -20243   -20232   -20553   -20667   -20625   -20583   -20509 
  -20586   -20244   -20178   -20803   -20687   -20266   -20433   -20472 
  -20263   -20351   -20607   -20488   -20290   -20425   -20499   -20464 
  -20493   -20393   -20339   -20668   -20892   -20367   -19912   -20345 
  -20756   -20572   -20511   -20659   -20355   -19986   -20453   -20949 
  -20393   -19924   -20281   -20401   -20505   -20934   -20632   -20160 
  -20503   -20603   -20096   -20223   -20854   -20714   -20355   -20642 
  -20695   -20156   -19800   -20147   -20830   -20943   -20633   -20596 
  -20406   -19894   -20024   -20622   -20819   -20796   -20502   -20121 
  -20326   -20517   -20299   -20358   -20706   -20738   -20366   -20156 
  -20479   -20799   -20653   -20436   -20283   -20160   -20237   -20428 
  -20810   -20925   -20412   -20121   -20239   -20347   -20451   -20549 
  -20633   -20480   -20150   -20266   -20861   -21018   -20424   -20074 
  -20417   -20709   -20390   -20105   -20478   -20606   -20356   -20461 
  -20407   -20272   -20486   -20480   -20428   -20682   -20736   -20386 
  -20108   -20325   -20794   -20810   -20304   -20044   -20260   -20463 
  -20610   -20644   -20391   -20326   -20474   -20476   -20528   -20538 
  -20484   -20536   -20397   -20150   -20227   -20676   -20790   -20206 
  -20082   -20611   -20779   -20646   -20482   -20328   -20340   -20343 
  -20287   -20286   -20268   -20475   -21136   -21190   -20108   -19654 
  -20453   -20991   -20783   -20263   -19849   -20202   -20802   -20459 
  -20035   -20526   -20821   -20592   -20575   -20452   -20302   -20499 
  -20499   -20389   -20517   -20495   -20394   -20557   -20752   -20490 
  -19988   -20079   -20596   -20710   -20567   -20657   -20564   -20135 
  -20173   -20556   -20642   -20601   -20434   -20189   -20347   -20737 
  -20721   -20416   -20370   -20418   -20297   -20250   -20301   -20370 
  -20513   -20641   -20667   -20501   -20359   -20453   -20355   -20062 
  -20329   -21003   -20930   -20191   -20000   -20382   -20648   -20634 
  -20378   -20069   -20243   -20908   -20933   -20251   -20156   -20437 
  -20393   -20476   -20780   -20780   -20382   -20164   -20443   -20605 
  -20402   -20312   -20390   -20507   -20548   -20399   -20493   -20668 
  -20289   -20121   -20626   -20753   -20282   -20050   -20374   -20773 
  -20794   -20559   -20283   -20129   -20225   -20506   -20768   -20702 
  -20461   -20420   -20451   -20331   -20256   -20568   -20841   -20538 
  -20021   -19884   -20430   -20891   -20494   -20255   -20646   -20676 
  -20281   -20370   -20776   -20460   -20066   -20526   -20839   -20482 
  -20088   -20183   -20752   -21041   -20750   -20286   -19969   -19909 
  -20113   -20690   -21178   -20869   -20023   -19595   -20206   -21072 
  -21168   -20756   -20178   -19857   -20214   -20528   -20421   -20389 
  -20623   -20864   -20487   -19835   -19974   -20661   -21080   -20927 
  -20402   -19985   -20027   -20520   -20802   -20623   -20511   -20466 
  -20297   -20245   -20426   -20522   -20528   -20663   -20466   -20152 
  -20520   -20845   -20439   -20148   -20564   -20856   -20313   -19967 
  -20503   -20719   -20417   -20456   -20528   -20457   -20498   -20456 
  -20341   -20444   -20682   -20565   -20217   -20106   -20193   -20505 
  -20736   -20638   -20668   -20524   -20055   -20212   -20856   -20756 
  -20133   -20220   -20526   -20256   -20282   -20723   -20641   -20302 
  -20366   -20556   -20514   -20376   -20340   -20393   -20441   -20403 
  -20291   -20336   -20538   -20733   -20684   -20131   -19904   -20497 
  -20781   -20660   -20765   -20526   -20013   -20132   -20526   -20502 
  -20470   -20700   -20659   -20394   -20298   -20359   -20754   -21062 
  -20617   -20189   -20264   -20233   -20237   -20537   -20756   -20923 
  -20860   -20128   -19734   -20316   -20692   -20641   -20646   -20480 
  -20337   -20335   -20181   -20133   -20478   -20883   -20856   -20389 
  -19997   -20055   -20363   -20606   -20771   -20777   -20383   -20156 
  -20617   -20718   -20375   -20740   -20875   -20059   -19750   -20308 
  -20912   -21104   -20785   -20374   -19861   -19523   -20232   -21010 
  -20777   -20422   -20385   -20389   -20395   -20413   -20621   -20769 
  -20661   -20545   -20371   -20313   -20495   -20652   -20814   -20795 
  -20286   -20023   -20586   -20895   -20318   -19896   -20043   -20250 
  -20476   -20657   -20440   -20112   -20159   -20231   -20144   -20401 
  -20715   -20564   -20587   -20953   -20827   -20191   -20025   -20703 
  -20979   -20376   -20227   -20406   -20248   -20520   -20829   -20254 
  -19923   -20380   -20339   -20051   -20561   -20854   -20337   -20264 
  -20736   -20756   -20517   -20532   -20722   -20965   -20953   -20467 
  -19843   -19886   -20637   -20857   -20424   -20237   -20170   -20078 
  -20483   -21062   -20717   -19904   -20016   -20690   -20748   -20209 
  -20036   -20422   -20764   -20958   -20673   -20217   -20557   -20814 
  -20189   -19758   -20348   -21215   -20989   -20039   -19858   -20448 
  -20764   -20370   -19782   -19669   -20137   -20779   -21057   -20923 
  -20432   -19928   -20394   -21280   -21109   -20403   -20278   -20591 
  -20818   -20683   -20426   -20308   -20054   -19876   -20228   -20567 
  -20556   -20695   -20683   -20251   -20252   -20456   -20102   -20040 
  -20687   -21101   -21033   -20721   -20061   -19704   -20283   -20919 
  -20800   -20232   -20020   -20524   -20727   -20267   -20104   -20137 
  -20305   -20815   -20822   -20316   -20158   -20710   -21282   -20737 
  -19915   -19916   -20077   -20298   -20663   -20567   -20244   -20185 
  -20328   -20576   -20835   -20919   -20765   -20382   -19980   -20150 
  -20640   -20586   -20344   -20533   -20949   -20974   -20374   -20224 
  -20538   -20123   -20079   -20958   -21024   -20467   -20401   -20335 
  -20178   -20493   -20795   -20371   -19774   -19823   -20285   -20742 
  -21069   -20995   -20537   -20128   -20079   -20310   -20538   -20545 
  -20468   -20630   -20540   -20039   -20113   -20536   -20601   -20619 
  -20542   -20433   -20659   -20675   -20071   -19614   -19998   -20810 
  -21147   -20754   -20436   -20615   -20456   -20093   -20366   -20563 
  -20229   -20071   -20341   -20791   -20987   -20822   -20613   -20390 
  -20210   -20266   -20538   -20934   -21016   -20308   -19637   -20058 
  -20795   -20845   -20426   -20000   -19992   -20328   -20687   -20961 
  -20613   -19982   -20119   -20472   -20545   -20839   -21061   -20953 
  -20619   -20066   -19877   -20125   -20191   -20164   -20243   -20283 
  -20544   -21064   -21041   -20332   -19953   -20324   -20717   -20444 
  -20078   -20401   -20741   -20555   -20484   -20571   -20322   -20205 
  -20565   -20761   -20695   -20692   -20363   -19793   -19934   -20630 
  -20904   -20767   -20426   -19978   -20181   -20726   -20607   -20668 
  -21143   -20528   -19560   -19823   -20407   -20478   -20684   -21019 
  -20704   -20029   -20035   -20448   -20474   -20733   -21347   -20915 
  -19692   -19541   -20459   -21168   -21228   -20625   -19863   -19899 
  -20544   -20835   -20653   -20422   -20297   -20370   -20511   -20263 
  -19869   -19996   -20533   -21097   -21408   -20915   -19792   -19353 
  -20100   -20834   -20596   -20112   -20501   -21176   -20920   -20295 
  -20243   -20391   -20505   -20684   -20561   -20175   -20178   -20694 
  -20942   -20547   -20079   -19858   -20164   -21016   -21184   -20326 
  -19846   -20151   -20397   -20358   -20336   -20349   -20425   -20714 
  -21027   -21127   -20611   -19558   -19526   -20623   -21296   -21524 
  -21296   -20156   -19325   -19720   -20376   -20700   -20877   -20607 
  -20167   -20109   -20212   -20306   -20231   -20214   -20528   -20587 
  -20490   -20617   -20586   -20559   -20860   -20904   -20262   -19615 
  -20001   -20964   -21047   -20483   -20115   -19805   -20097   -21006 
  -21126   -20515   -20244   -20170   -19997   -20177   -20738   -21054 
  -20810   -20255   -19886   -19813   -19939   -20605   -21602   -21871 
  -20991   -19803   -19224   -19568   -20603   -21147   -20764   -20572 
  -20653   -20536   -20595   -20551   -20239   -20279   -20374   -20198 
  -20282   -20628   -20846   -20794   -20413   -20092   -20221   -20471 
  -20498   -20363   -20401   -20722   -20587   -20015   -20244   -20969 
  -20829   -20189   -19989   -20124   -20490   -20922   -20775   -20439 
  -20568   -20418   -19916   -19992   -20413   -20707   -20826   -20656 
  -20610   -20645   -20245   -20133   -20587   -20299   -19611   -20137 
  -20966   -20803   -20514   -20511   -20403   -20291   -20270   -20410 
  -20694   -20933   -20941   -20586   -19969   -19693   -20374   -21190 
  -21065   -20537   -20147   -19993   -20337   -20536   -20304   -20430 
  -20677   -20514   -20461   -20609   -20417   -20066   -20171   -20537 
  -20488   -20344   -20621   -20825   -20702   -20405   -19986   -20069 
  -20861   -21184   -20521   -20083   -20391   -20459   -20101   -20147 
  -20478   -20510   -20580   -20987   -21061   -20368   -19890   -20196 
  -20304   -20308   -20915   -21038   -20299   -19973   -20004   -19940 
  -20449   -21231   -21247   -20744   -20259   -19823   -19931   -20655 
  -21058   -20821   -20402   -20131   -20121   -20382   -20765   -20752 
  -20200   -19899   -20287   -20829   -20976   -20750   -20370   -20093 
  -20178   -20449   -20598   -20568   -20432   -20289   -20196   -20371 
  -20723   -20700   -20429   -20376   -20456   -20379   -20183   -20297 
  -20618   -20644   -20441   -20263   -20297   -20505   -20583   -20583 
  -20560   -20339   -20146   -20228   -20513   -20964   -20946   -20179 
  -19778   -20096   -20555   -20968   -21051   -20626   -19961   -19685 
  -20218   -20896   -21055   -20802   -20340   -20070   -20146   -20135 
  -20055   -20428   -21097   -21097   -20541   -20453   -20406   -20109 
  -20340   -20710   -20578   -20139   -19990   -20730   -21369   -20619 
  -19611   -19916   -20830   -20985   -20560   -20213   -20007   -20218 
  -20761   -20848   -20614   -20488   -20294   -20398   -20707   -20564 
  -20325   -20305   -20501   -20935   -20857   -20120   -19855   -20394 
  -20730   -20395   -20154   -20425   -20667   -20568   -20341   -20326 
  -20617   -20704   -20385   -20255   -20510   -20628   -20483   -20394 
  -20166   -19884   -20399   -21155   -20811   -19977   -19893   -20432 
  -20871   -20803   -20356   -20061   -20128   -20386   -20841   -21024 
  -20459   -20021   -20151   -20077   -20177   -20962   -21057   -20196 
  -20123   -20738   -20729   -20412   -20420   -20449   -20197   -20093 
  -20622   -21111   -20814   -20197   -19994   -20368   -20694   -20464 
  -20347   -20603   -20484   -20181   -20348   -20661   -20679   -20366 
  -20109   -20293   -20506   -20686   -20992   -20717   -20038   -20028 
  -20515   -20834   -20945   -20788   -20259   -19730   -19745   -20441 
  -21088   -20852   -20406   -20437   -20349   -20227   -20517   -20694 
  -20320   -19998   -20290   -20572   -20538   -20636   -20742   -20583 
  -20316   -20374   -20610   -20387   -19990   -20102   -20688   -21114 
  -20796   -20162   -20106   -20467   -20691   -20848   -20625   -19928 
  -19759   -20355   -20891   -20869   -20463   -20164   -20140   -20351 
  -20659   -20707   -20405   -20154   -20441   -20835   -20625   -20344 
  -20433   -20506   -20556   -20461   -20158   -20387   -20834   -20634 
  -20348   -20241   -20209   -20567   -20704   -20345   -20212   -20484 
  -20812   -20590   -19920   -19888   -20665   -21226   -20888   -20255 
  -20085   -20121   -20308   -20804   -20885   -20434   -20385   -20451 
  -19934   -19838   -20579   -20918   -20741   -20579   -20229   -20085 
  -20375   -20603   -20796   -20734   -20179   -19980   -20445   -20807 
  -20796   -20636   -20459   -20298   -20147   -20256   -20594   -20618 
  -20271   -20069   -20245   -20606   -20833   -20707   -20533   -20632 
  -20476   -19909   -19823   -20557   -21297   -21114   -20247   -19858 
  -20182   -20468   -20475   -20580   -20765   -20726   -20505   -20206 
  -20031   -20264   -20601   -20667   -20574   -20358   -20224   -20560 
  -20919   -20671   -20294   -20291   -20333   -20428   -20609   -20302 
  -19970   -20506   -21099   -20726   -19934   -19878   -20642   -21050 
  -20682   -20312   -20220   -20179   -20301   -20633   -20711   -20486 
  -20417   -20314   -20169   -20520   -20771   -20341   -20106   -20313 
  -20472   -20653   -20737   -20656   -20487   -20197   -20218   -20391 
  -20313   -20499   -20814   -20758   -20671   -20583   -20294   -20148 
  -20386   -20664   -20578   -20232   -20143   -20416   -20541   -20430 
  -20444   -20542   -20513   -20451   -20607   -20795   -20653   -20389 
  -20173   -20142   -20599   -20835   -20231   -19876   -20439   -20923 
  -20683   -20268   -20158   -20224   -20475   -20923   -20902   -20164 
  -19851   -20488   -20979   -20714   -20391   -20324   -20092   -20073 
  -20588   -20835   -20733   -20660   -20391   -20121   -20100   -20252 
  -20607   -20857   -20656   -20328   -20312   -20390   -20347   -20391 
  -20520   -20565   -20457   -20380   -20487   -20461   -20395   -20583 
  -20629   -20451   -20268   -20101   -20202   -20551   -20760   -20738 
  -20559   -20402   -20375   -20449   -20679   -20602   -20104   -20187 
  -20812   -20804   -20293   -20260   -20428   -20197   -20295   -20727 
  -20493   -20298   -20699   -20494   -20023   -20398   -20656   -20418 
  -20509   -20580   -20437   -20418   -20329   -20395   -20682   -20580 
  -20371   -20497   -20461   -20263   -20322   -20474   -20613   -20644 
  -20356   -20210   -20486   -20646   -20482   -20383   -20513   -20664 
  -20702   -20424   -20009   -20137   -20461   -20474   -20659   -20838 
  -20449   -20021   -20204   -20564   -20583   -20668   -20850   -20538 
  -20027   -20038   -20521   -20942   -20930   -20425   -19862   -19854 
