Origin Time       2025/03/30 21:30:00
Lat.              38.535
Long.             142.295
Depth. (km)       44
Mag.              4.3
Station Code      IWTH15
Station Lat.      39.6148
Station Long.     141.0929
Station Height(m) 73
Record Time       2025/03/30 21:31:39
Sampling Freq(Hz) 100Hz
Duration Time(s)  120
Dir.              2
Scale Factor      2940(gal)/6170270
Max. Acc. (gal)   0.294
Last Correction   2025/03/30 21:31:24
Memo.             
[...]
  119592   119560   119567   119604   119592   119533   119520   119595 
  119665   119628   119553   119570   119641   119633   119580   119600 
  119653   119640   119591   119580   119587   119550   119493   119516 
  119624   119668   119581   119480   119465   119506   119504   119485 
  119542   119623   119648   119624   119603   119635   119668   119641 
  119622   119644   119635   119581   119542   119562   119598   119581 
  119533   119512   119502   119472   119430   119441   119520   119602 
  119658   119680   119661   119639   119639   119660   119688   119672 
  119605   119545   119516   119524   119552   119562   119532   119463 
  119434   119481   119508   119525   119585   119642   119650   119610 
  119584   119606   119626   119640   119658   119651   119592   119521 
  119522   119561   119530   119461   119485   119594   119623   119583 
  119606   119621   119568   119520   119505   119561   119664   119670 
  119581   119528   119558   119605   119593   119543   119523   119536 
  119529   119483   119457   119513   119608   119657   119638   119592 
  119559   119554   119558   119552   119547   119555   119587   119629 
  119651   119656   119635   119560   119506   119554   119616   119597 
  119567   119604   119642   119624   119619   119654   119641   119589 
  119567   119543   119505   119502   119518   119539   119585   119619 
  119616   119589   119544   119551   119628   119674   119681   119681 
  119645   119629   119661   119637   119561   119536   119545   119538 
  119540   119537   119506   119515   119567   119583   119581   119602 
  119602   119583   119597   119636   119656   119644   119623   119632 
  119640   119576   119482   119458   119513   119581   119563   119475 
  119461   119515   119559   119601   119617   119622   119649   119621 
  119566   119592   119631   119601   119548   119508   119491   119504 
  119516   119529   119584   119633   119606   119591   119635   119652 
  119609   119558   119569   119626   119619   119556   119540   119592 
  119667   119671   119578   119519   119542   119551   119552   119580 
  119591   119590   119602   119598   119584   119601   119638   119635 
  119570   119517   119530   119572   119613   119634   119622   119600 
  119580   119573   119614   119649   119616   119581   119583   119560 
  119489   119447   119497   119553   119548   119542   119550   119563 
  119578   119564   119564   119595   119599   119597   119604   119589 
  119576   119616   119707   119732   119651   119579   119537   119496 
  119480   119484   119510   119539   119533   119513   119516   119542 
  119571   119588   119584   119569   119593   119656   119702   119713 
  119677   119591   119534   119572   119654   119695   119636   119497 
  119394   119408   119484   119507   119476   119486   119529   119571 
  119647   119700   119660   119612   119634   119666   119635   119572 
  119540   119550   119584   119589   119584   119650   119682   119608 
  119590   119634   119626   119583   119537   119537   119575   119556 
  119534   119596   119631   119555   119505   119560   119582   119530 
  119536   119617   119648   119584   119527   119567   119649   119677 
  119658   119645   119630   119576   119521   119531   119554   119509 
  119442   119429   119482   119547   119568   119552   119543   119570 
  119602   119596   119596   119652   119719   119709   119604   119476 
  119438   119532   119652   119691   119686   119670   119608   119542 
  119527   119553   119608   119630   119548   119447   119448   119538 
  119600   119606   119612   119602   119571   119566   119602   119662 
  119673   119614   119577   119597   119645   119681   119652   119592 
  119564   119543   119493   119444   119448   119489   119504   119501 
  119524   119564   119584   119564   119558   119623   119675   119662 
  119665   119683   119663   119619   119573   119558   119564   119541 
  119542   119595   119613   119567   119499   119455   119476   119553 
  119597   119580   119581   119632   119670   119640   119562   119539 
  119610   119676   119639   119539   119519   119585   119586   119524 
  119524   119583   119594   119539   119508   119558   119617   119620 
  119586   119568   119613   119654   119597   119562   119641   119688 
  119624   119565   119594   119641   119614   119561   119552   119545 
  119543   119607   119675   119637   119548   119520   119555   119604 
  119625   119607   119592   119605   119619   119602   119572   119561 
  119567   119569   119540   119497   119507   119527   119501   119516 
  119599   119651   119624   119561   119532   119529   119525   119550 
  119567   119569   119600   119602   119570   119576   119595   119562 
  119506   119492   119513   119543   119600   119647   119624   119562 
  119520   119534   119588   119619   119615   119596   119579   119591 
  119610   119605   119591   119599   119629   119633   119591   119557 
  119575   119596   119546   119465   119484   119606   119660   119578 
  119511   119542   119572   119581   119602   119596   119584   119624 
  119668   119654   119634   119629   119578   119521   119537   119560 
  119529   119481   119470   119529   119613   119618   119558   119544 
  119581   119599   119630   119716   119765   119737   119682   119601 
  119526   119502   119482   119462   119471   119500   119542   119559 
  119543   119540   119532   119511   119532   119578   119605   119631 
  119677   119698   119667   119650   119641   119556   119470   119480 
  119533   119598   119666   119676   119601   119524   119527   119558 
  119558   119558   119581   119608   119636   119651   119620   119576 
  119583   119619   119620   119579   119562   119601   119637   119613 
  119547   119497   119476   119439   119416   119466   119527   119542 
  119573   119641   119670   119610   119541   119575   119656   119663 
  119633   119628   119645   119664   119657   119629   119603   119573 
  119551   119539   119521   119518   119543   119553   119543   119557 
  119585   119595   119570   119532   119535   119582   119620   119609 
  119588   119625   119704   119714   119611   119526   119544   119556 
  119505   119431   119409   119495   119603   119644   119646   119638 
  119633   119615   119603   119656   119705   119699   119701   119688 
  119623   119555   119496   119464   119488   119510   119468   119416 
  119427   119513   119625   119661   119611   119596   119658   119712 
  119698   119632   119565   119521   119499   119523   119564   119539 
  119482   119497   119576   119625   119595   119573   119651   119740 
  119714   119607   119533   119530   119539   119514   119463   119452 
  119552   119644   119592   119529   119566   119600   119585   119573 
  119611   119690   119707   119639   119580   119578   119618   119630 
  119570   119518   119526   119522   119461   119443   119535   119611 
  119612   119629   119663   119684   119674   119583   119500   119528 
  119598   119641   119669   119695   119682   119619   119580   119554 
  119496   119482   119523   119519   119487   119509   119557   119567 
  119555   119556   119579   119628   119680   119694   119659   119600 
  119558   119568   119620   119665   119683   119690   119647   119537 
  119481   119521   119551   119521   119463   119432   119468   119540 
  119565   119545   119575   119635   119625   119569   119552   119570 
  119584   119568   119519   119486   119504   119529   119563   119637 
  119702   119689   119583   119471   119460   119529   119574   119574 
  119600   119637   119595   119546   119577   119629   119660   119633 
  119544   119542   119632   119659   119648   119655   119643   119601 
  119522   119461   119492   119573   119621   119578   119522   119572 
  119643   119626   119571   119506   119464   119516   119597   119608 
  119586   119584   119592   119608   119640   119658   119620   119566 
  119557   119561   119548   119555   119577   119550   119505   119511 
  119543   119550   119522   119501   119538   119600   119626   119603 
  119587   119634   119682   119644   119555   119529   119590   119630 
  119618   119594   119548   119537   119601   119650   119649   119601 
  119533   119527   119546   119523   119534   119597   119627   119609 
  119582   119571   119589   119616   119599   119564   119569   119576 
  119538   119524   119584   119621   119582   119596   119693   119734 
  119676   119603   119550   119530   119544   119540   119511   119490 
  119498   119545   119575   119567   119584   119591   119531   119500 
  119559   119639   119693   119716   119717   119697   119638   119583 
  119595   119639   119640   119583   119515   119491   119474   119438 
  119474   119566   119532   119427   119481   119629   119686   119670 
  119622   119579   119597   119629   119612   119556   119541   119618 
  119663   119585   119515   119535   119554   119540   119520   119494 
  119484   119502   119534   119566   119579   119594   119639   119673 
  119678   119677   119661   119647   119647   119610   119562   119569 
  119563   119525   119531   119550   119527   119475   119450   119521 
  119629   119641   119579   119553   119582   119603   119606   119613 
  119613   119640   119691   119710   119685   119640   119635   119679 
  119682   119614   119510   119466   119548   119608   119550   119486 
  119449   119433   119477   119544   119586   119601   119585   119578 
  119622   119667   119691   119741   119757   119699   119655   119614 
  119537   119503   119491   119462   119517   119625   119622   119533 
  119490   119521   119544   119504   119460   119486   119558   119585 
  119565   119582   119635   119675   119707   119721   119692   119644 
  119634   119675   119674   119570   119439   119363   119338   119362 
  119437   119500   119548   119602   119608   119614   119674   119690 
  119644   119635   119649   119621   119575   119552   119558   119560 
  119538   119546   119571   119526   119459   119454   119484   119527 
  119573   119602   119636   119668   119656   119619   119586   119575 
  119588   119558   119491   119476   119529   119610   119639   119565 
  119516   119584   119614   119548   119551   119634   119641   119577 
  119540   119535   119520   119489   119483   119491   119478   119521 
  119627   119660   119623   119604   119598   119594   119578   119551 
  119599   119715   119747   119671   119644   119716   119777   119754 
  119663   119614   119673   119720   119664   119583   119568   119625 
  119651   119614   119642   119703   119640   119542   119553   119629 
  119697   119720   119677   119606   119564   119551   119543   119554 
  119568   119555   119568   119611   119614   119587   119561   119529 
  119504   119497   119478   119423   119390   119431   119489   119493 
  119489   119562   119650   119631   119577   119633   119741   119771 
  119746   119723   119714   119720   119708   119628   119494   119371 
  119328   119369   119403   119408   119442   119506   119540   119506 
  119478   119535   119610   119626   119612   119623   119642   119606 
  119559   119589   119634   119615   119591   119629   119685   119692 
  119655   119571   119432   119306   119243   119254   119321   119389 
  119467   119534   119542   119567   119664   119812   119965   120029 
  119968   119853   119763   119708   119666   119603   119471   119310 
  119254   119303   119348   119355   119320   119292   119384   119598 
  119781   119852   119901   119955   119945   119863   119779   119746 
  119691   119578   119516   119488   119421   119399   119407   119368 
  119328   119300   119268   119327   119523   119703   119736   119722 
  119742   119755   119755   119701   119619   119644   119723   119756 
  119787   119777   119684   119575   119444   119309   119293   119382 
  119414   119331   119253   119283   119379   119452   119518   119655 
  119840   119972   120018   120051   120079   119983   119798   119692 
  119672   119631   119502   119309   119180   119193   119239   119216 
  119164   119172   119295   119472   119598   119672   119731   119808 
  119859   119783   119677   119689   119735   119736   119755   119771 
  119682   119516   119354   119267   119308   119376   119398   119455 
  119549   119588   119591   119663   119782   119835   119831   119796 
  119702   119615   119624   119724   119826   119842   119775   119663 
  119522   119402   119364   119399   119410   119300   119120   119083 
  119251   119439   119585   119733   119798   119763   119711   119668 
  119688   119849   120032   120032   119892   119708   119449   119239 
  119237   119314   119321   119285   119242   119248   119373   119569 
  119719   119728   119593   119421   119375   119489   119613   119740 
  119932   120028   119984   119921   119815   119683   119579   119453 
  119329   119256   119268   119411   119524   119494   119492   119531 
  119465   119361   119299   119311   119468   119686   119841   119930 
  119983   120043   120109   120108   120031   119892   119694   119529 
  119485   119515   119492   119343   119201   119220   119315   119321 
  119294   119374   119483   119457   119388   119489   119727   119902 
  119971   120008   120012   119937   119807   119701   119691   119749 
  119745   119614   119411   119241   119193   119209   119148   119041 
  119083   119291   119465   119559   119676   119805   119875   119887 
  119890   119892   119884   119887   119851   119771   119728   119663 
  119525   119367   119170   118997   118963   119013   119095   119202 
  119261   119299   119415   119586   119727   119802   119852   119890 
  119867   119816   119800   119744   119599   119514   119521   119469 
  119392   119424   119549   119659   119662   119587   119548   119595 
  119698   119761   119722   119670   119695   119718   119654   119640 
  119773   119909   119928   119852   119709   119594   119596   119584 
  119447   119330   119364   119502   119624   119652   119599   119519 
  119416   119311   119315   119483   119708   119887   120000   120052 
  120040   119920   119784   119798   119837   119717   119524   119402 
  119366   119316   119205   119134   119116   119076   119085   119243 
  119523   119799   119916   119866   119856   119972   120026   119909 
  119694   119456   119321   119339   119373   119406   119550   119667 
  119565   119423   119402   119400   119377   119337   119317   119431 
  119623   119713   119640   119509   119506   119664   119790   119745 
  119630   119591   119608   119652   119709   119671   119569   119575 
  119618   119537   119424   119410   119463   119511   119541   119565 
  119581   119599   119603   119586   119608   119635   119602   119579 
  119632   119719   119748   119676   119562   119465   119442   119545 
  119596   119489   119458   119522   119495   119480   119549   119567 
  119521   119491   119490   119495   119533   119620   119704   119720 
  119654   119558   119529   119624   119708   119651   119597   119583 
  119521   119539   119670   119767   119798   119784   119781   119792 
  119707   119557   119474   119495   119551   119544   119477   119448 
  119492   119583   119700   119752   119670   119566   119517   119473 
  119507   119610   119610   119570   119592   119571   119528   119575 
  119673   119752   119775   119729   119661   119623   119591   119523 
  119463   119440   119428   119426   119414   119422   119526   119616 
  119600   119590   119613   119610   119595   119610   119682   119717 
  119645   119608   119653   119631   119508   119430   119448   119415 
  119347   119442   119604   119636   119567   119515   119573   119649 
  119579   119475   119471   119507   119517   119502   119493   119490 
  119457   119428   119425   119420   119463   119569   119670   119768 
  119838   119834   119835   119907   119986   119986   119910   119812 
  119724   119661   119580   119457   119373   119343   119345   119402 
  119482   119510   119447   119395   119508   119672   119685   119620 
  119613   119645   119655   119665   119733   119793   119723   119576 
  119457   119359   119261   119210   119259   119349   119414   119469 
  119494   119503   119565   119647   119695   119726   119738   119715 
  119728   119779   119755   119698   119708   119710   119643   119570 
  119542   119562   119554   119481   119450   119517   119570   119540 
  119503   119508   119502   119459   119409   119428   119542   119647 
  119696   119732   119748   119716   119637   119565   119552   119546 
  119455   119341   119375   119542   119642   119647   119654   119669 
  119694   119752   119819   119850   119837   119801   119770   119771 
  119776   119739   119684   119675   119690   119670   119615   119551 
  119533   119527   119453   119381   119385   119428   119497   119587 
  119663   119691   119657   119583   119520   119532   119603   119642 
  119606   119543   119501   119458   119391   119356   119415   119493 
  119478   119439   119437   119356   119236   119231   119293   119386 
  119549   119667   119687   119689   119651   119598   119611   119635 
  119630   119594   119548   119549   119545   119512   119531   119557 
  119517   119484   119516   119587   119669   119756   119815   119816 
  119768   119718   119696   119655   119553   119450   119440   119521 
  119598   119635   119671   119706   119694   119654   119629   119596 
  119568   119618   119711   119733   119652   119560   119558   119610 
  119654   119670   119627   119583   119581   119553   119502   119496 
  119535   119577   119570   119504   119465   119497   119521   119510 
  119526   119607   119718   119765   119741   119732   119711   119600 
  119463   119414   119462   119511   119489   119461   119459   119433 
  119442   119521   119600   119684   119756   119724   119644   119607 
  119559   119483   119458   119515   119625   119675   119586   119502 
  119522   119531   119510   119528   119568   119613   119642   119612 
  119558   119550   119590   119610   119605   119637   119676   119642 
  119556   119508   119567   119692   119735   119689   119690   119705 
  119628   119532   119547   119640   119687   119655   119618   119658 
  119727   119684   119586   119574   119595   119573   119521   119465 
  119465   119497   119489   119503   119554   119556   119547   119579 
  119638   119722   119788   119775   119710   119644   119599   119589 
  119603   119600   119564   119518   119482   119429   119368   119359 
  119365   119347   119405   119515   119556   119545   119537   119569 
  119634   119639   119602   119610   119631   119632   119612   119560 
  119515   119485   119451   119427   119427   119455   119479   119472 
  119474   119523   119627   119732   119753   119726   119736   119760 
  119776   119780   119729   119658   119632   119601   119534   119501 
  119527   119580   119650   119708   119707   119667   119610   119537 
  119462   119413   119446   119546   119634   119674   119650   119627 
  119666   119666   119630   119681   119712   119603   119483   119452 
  119497   119593   119644   119602   119558   119568   119584   119574 
  119550   119519   119522   119572   119587   119565   119563   119538 
  119506   119547   119623   119629   119559   119512   119523   119543 
  119541   119525   119539   119568   119529   119486   119522   119546 
