Origin Time       2025/03/30 21:30:00
Lat.              38.535
Long.             142.295
Depth. (km)       44
Mag.              4.3
Station Code      IWTH14
Station Lat.      39.7435
Station Long.     141.9087
Station Height(m) 200
Record Time       2025/03/30 21:31:33
Sampling Freq(Hz) 100Hz
Duration Time(s)  120
Dir.              5
Scale Factor      7845(gal)/8223790
Max. Acc. (gal)   2.013
Last Correction   2025/03/30 21:31:33
Memo.             
[...]
    2280     2249     2299     2097     1814     1881     2120     2238 
    2249     2208     2219     2230     2026     1819     1937     2072 
    2014     2172     2438     2311     2092     2127     2074     1883 
    1873     1988     2076     2199     2289     2208     2130     2211 
    2169     1915     1858     1983     2007     2153     2415     2412 
    2227     2046     1845     1777     1948     2211     2355     2330 
    2254     2054     1814     1904     2103     2066     2155     2431 
    2412     2142     1977     1883     1822     1987     2258     2238 
    2081     2224     2390     2192     1971     1919     1836     1881 
    2135     2303     2319     2290     2251     2134     1890     1806 
    1925     2018     2316     2662     2397     1869     1787     1911 
    1942     2089     2301     2214     1960     2077     2428     2335 
    1884     1725     1918     2091     2203     2362     2407     2282 
    2141     1956     1717     1656     1996     2463     2552     2411 
    2276     1949     1649     1715     1938     2151     2373     2524 
    2498     2249     1972     1825     1634     1594     2026     2471 
    2521     2458     2382     2089     1655     1478     1750     2200 
    2521     2619     2438     2091     1885     1869     1794     1800 
    2123     2397     2419     2409     2299     2000     1702     1632 
    1858     2150     2401     2590     2416     1991     1841     1975 
    2101     2100     1931     1903     2274     2543     2366     2142 
    1999     1777     1682     1917     2281     2424     2274     2141 
    2168     2104     1930     1975     2168     2106     1921     2046 
    2282     2311     2277     2172     1926     1871     2035     2084 
    2038     2088     2214     2276     2218     2164     2118     1971 
    1853     1917     2123     2359     2457     2380     2197     1876 
    1578     1626     1985     2340     2489     2493     2471     2292 
    1871     1526     1583     1980     2308     2363     2471     2605 
    2296     1790     1656     1744     1764     1954     2420     2678 
    2500     2205     1934     1732     1780     2004     2164     2234 
    2335     2385     2212     2015     1969     1907     1863     2050 
    2304     2324     2215     2181     2068     1822     1780     2049 
    2299     2288     2158     2141     2188     2134     1996     1934 
    1969     2054     2257     2477     2425     2052     1701     1763 
    2085     2238     2236     2203     2089     1985     1999     2114 
    2227     2222     2030     1810     1987     2467     2533     2145 
    1848     1718     1736     2104     2608     2716     2286     1741 
    1591     1846     2092     2204     2353     2440     2254     1977 
    1910     1930     1850     1900     2238     2535     2463     2173 
    1996     1898     1784     1918     2231     2313     2245     2247 
    2245     2133     1891     1715     1853     2168     2380     2361 
    2209     2164     2164     2037     1925     1883     1858     1989 
    2331     2637     2509     2015     1732     1749     1838     2145 
    2481     2408     2083     1887     1961     2158     2143     2047 
    2166     2185     1988     2057     2347     2308     2002     1937 
    2042     1973     1991     2247     2300     2111     2072     2135 
    2073     2042     2118     2062     1942     1996     2181     2376 
    2415     2214     1988     1927     1956     2008     2145     2268 
    2180     2046     2076     2058     1954     2027     2131     2116 
    2266     2448     2251     1945     1885     1863     1837     2093 
    2482     2540     2234     2018     2043     1852     1580     1907 
    2371     2292     2212     2432     2439     2076     1661     1549 
    1777     2119     2496     2728     2573     2174     1765     1528 
    1652     2015     2371     2587     2511     2164     1864     1830 
    1968     2085     2122     2103     2062     2081     2191     2297 
    2278     2060     1796     1814     2108     2307     2257     2231 
    2309     2158     1885     1949     2107     2012     2038     2263 
    2253     2099     2122     2212     2145     1877     1759     2089 
    2423     2346     2157     2068     1910     1741     1911     2363 
    2524     2278     2058     1987     1969     2011     2110     2203 
    2112     1972     2110     2223     2084     2135     2362     2235 
    1775     1603     1995     2346     2319     2358     2396     2046 
    1763     1918     2068     2039     2126     2304     2323     2158 
    2019     1941     1869     2000     2317     2448     2272     2045 
    1973     1899     1844     2080     2365     2371     2173     1918 
    1867     2049     2165     2220     2273     2176     2058     2053 
    2015     1946     2020     2188     2187     2053     2131     2328 
    2212     1948     2023     2161     1925     1804     2197     2515 
    2334     2026     2004     2118     1992     1883     2184     2355 
    2015     1900     2224     2236     1950     2003     2232     2158 
    2002     2122     2312     2295     2085     1853     1837     2035 
    2234     2331     2322     2170     1872     1721     1968     2259 
    2330     2357     2278     2016     1898     2004     2030     1965 
    2053     2243     2296     2193     2169     2209     2041     1834 
    1937     2193     2342     2330     2205     1991     1757     1811 
    2155     2370     2340     2187     1981     1941     2127     2231 
    2104     1950     1949     2089     2230     2261     2189     2052 
    1969     2025     2022     1954     2162     2488     2324     1831 
    1768     2111     2249     2172     2224     2196     1904     1908 
    2398     2562     2050     1647     1815     2026     2057     2288 
    2470     2222     1944     1962     2089     2160     2169     2158 
    2092     2012     2052     2149     2265     2350     2060     1628 
    1818     2393     2575     2340     1984     1671     1632     1989 
    2412     2416     2197     2180     2107     1849     1876     2234 
    2396     2216     2034     2011     2029     2088     2205     2185 
    1980     1903     2112     2295     2199     2065     2083     2016 
    1881     2030     2316     2331     2181     2107     2056     1925 
    1771     1884     2350     2648     2452     2112     1900     1821 
    1935     2120     2101     1979     2092     2353     2350     2130 
    2060     2042     1887     1902     2146     2253     2207     2153 
    2077     2039     2072     2168     2311     2326     2165     2025 
    1912     1798     1939     2332     2502     2243     1875     1761 
    1937     2178     2249     2116     2041     2197     2305     2108 
    1857     1867     2065     2220     2282     2351     2355     2116 
    1829     1773     1902     2182     2457     2374     2096     1966 
    1890     1841     2018     2331     2436     2219     1938     1891 
    2088     2247     2176     2062     2026     2019     2119     2254 
    2262     2158     2004     1958     2089     2177     2126     2087 
    2114     2050     1929     2056     2270     2203     2077     2111 
    2087     1989     2039     2176     2211     2201     2189     2137 
    2101     1953     1736     1890     2365     2587     2343     2018 
    1952     1892     1780     2030     2388     2330     2173     2195 
    2103     1904     1931     2134     2212     2203     2166     2023 
    2027     2172     2068     1931     2085     2249     2230     2157 
    2160     2147     1991     1948     2119     2189     2108     2060 
    2047     2012     2029     2165     2276     2290     2273     2114 
    1804     1691     1971     2308     2386     2330     2227     2030 
    1952     2070     2060     1921     2047     2269     2135     1991 
    2236     2382     2131     1958     1999     1945     1933     2170 
    2381     2350     2165     1979     1872     1804     1881     2254 
    2567     2438     2122     1926     1858     1966     2161     2207 
    2128     2120     2153     2087     2093     2220     2118     1939 
    2027     2033     1914     2126     2411     2261     1992     2007 
    2072     2042     2092     2205     2278     2296     2166     1917 
    1815     1985     2172     2177     2170     2266     2228     2038 
    1999     2015     1885     1899     2193     2389     2253     2160 
    2358     2334     1887     1621     1799     2091     2292     2567 
    2702     2146     1431     1452     1849     2106     2385     2617 
    2438     1948     1733     1965     2246     2326     2208     2052 
    2010     2018     2150     2381     2250     1838     1784     2037 
    2180     2268     2304     2150     1923     1718     1664     2029 
    2579     2708     2390     2122     2012     1830     1692     1850 
    2128     2284     2420     2556     2405     1972     1665     1672 
    1850     2104     2377     2544     2447     2133     1853     1715 
    1784     2162     2531     2502     2293     2139     1952     1803 
    1806     1965     2242     2363     2258     2193     2131     1927 
    1842     2089     2322     2166     1966     2135     2308     2155 
    1964     1865     1784     1887     2243     2585     2594     2188 
    1672     1518     1802     2079     2146     2268     2331     2127 
    2079     2262     2141     1836     1757     1730     1863     2420 
    2779     2417     1898     1780     1852     1827     1894     2189 
    2407     2377     2309     2188     1908     1756     1892     2049 
    2145     2369     2573     2505     2304     2056     1782     1769 
    2050     2317     2358     2162     2095     2362     2501     2258 
    1946     1795     1802     1976     2334     2631     2517     2139 
    1831     1626     1694     2157     2609     2775     2766     2465 
    1814     1417     1629     1817     1788     2135     2573     2396 
    1984     1993     2160     1898     1449     1483     1917     2373 
    2785     2841     2236     1416     1270     2029     2822     2948 
    2660     2218     1614     1244     1520     2165     2504     2273 
    1814     1516     1588     2079     2539     2470     2101     1922 
    2019     2232     2361     2347     2288     2286     2316     2077 
    1625     1626     2232     2828     2963     2562     1750      851 
     413      940     2247     3468     3862     3341     2295     1232 
     724     1036     1892     2955     3724     3561     2579     1549 
     970      853     1139     1854     2722     3190     3013     2386 
    1541      777      720     1649     2839     3342     3042     2571 
    2223     1819     1613     1750     1796     1840     2178     2381 
    2215     2045     1999     1945     1930     2124     2376     2339 
    2177     2201     2187     2042     2088     2246     2137     1926 
    2110     2500     2357     1701     1391     1738     2272     2706 
    2871     2419     1593     1204     1574     2286     2775     2775 
    2417     2083     1966     1823     1575     1445     1459     1791 
    2652     3406     3234     2332     1553     1285     1239     1348 
    1888     2566     2781     2527     2219     2139     2292     2339 
    1949     1363     1183     1618     2419     3068     3092     2605 
    2043     1767     1857     1850     1659     1854     2326     2601 
    2691     2505     2093     1863     1748     1624     1837     2405 
    2793     2686     2324     1925     1490     1356     1682     2020 
    2389     3009     3163     2239     1012      676     1468     2736 
    3553     3245     2106     1111      692      868     1745     2887 
    3381     2932     2162     1767     1765     1814     1804     1831 
    1961     2251     2614     2735     2459     2019     1665     1449 
    1447     1815     2432     2798     2667     2324     2049     1840 
    1763     1972     2371     2577     2285     1849     1926     2394 
    2633     2512     2169     1688     1426     1702     2092     2126 
    2106     2266     2328     2241     2126     1935     1726     1656 
    1800     2215     2839     3253     2925     1939     1011      719 
    1260     2420     3450     3615     2783     1480      688      900 
    1545     2158     2782     3064     2774     2389     2099     1730 
    1475     1502     1690     2142     2887     3245     2768     2091 
    1637     1196     1089     1624     2251     2551     2662     2690 
    2544     2112     1632     1534     1776     2012     2170     2388 
    2704     2779     2281     1621     1390     1499     1682     1908 
    2191     2458     2474     2334     2463     2601     2280     1817 
    1606     1656     2066     2820     3241     2691     1703     1263 
    1331     1331     1394     1954     2616     2759     2650     2542 
    2195     1890     1826     1540     1209     1593     2636     3526 
    3634     2907     1734      804      695     1278     2112     3005 
    3450     2790     1586     1059     1313     1768     2319     2828 
    2775     2249     2097     2293     2000     1593     1871     2266 
    2137     2012     2390     2741     2388     1728     1584     1822 
    1962     2154     2322     2029     1710     1985     2439     2610 
    2601     2489     2215     1696     1111      920     1489     2830 
    4029     3640     1888      731      970     1536     1810     2286 
    2909     2864     2119     1726     2176     2551     2128     1490 
    1289     1518     2280     3491     4077     3109     1229       -4 
     218     1426     2790     3836     3979     2739      985      338 
    1074     2097     2627     2701     2623     2440     2146     2010 
    1995     1857     1858     2195     2454     2351     2191     2222 
    2192     1968     1740     1578     1578     1921     2474     2859 
    2732     2100     1502     1485     2025     2598     2716     2311 
    1634     1200     1509     2258     2740     2844     2785     2542 
    2020     1537     1466     1576     1750     2223     2732     2791 
    2388     1877     1559     1466     1691     2292     2720     2443 
    1894     1715     1910     2242     2555     2670     2425     1742 
    1104     1387     2381     2866     2579     2303     2262     2069 
    1655     1364     1479     2020     2650     2768     2370     2123 
    2126     1939     1644     1642     2127     2884     3171     2586 
    1729     1248     1324     1910     2479     2485     2297     2474 
    2619     2103     1293     1004     1395     2223     3106     3430 
    3011     2177     1293     1005     1625     2401     2702     2610 
    2143     1358      927     1605     2848     3281     2760     2056 
    1447     1124     1404     2185     2920     3038     2586     2080 
    1729     1597     1906     2382     2403     2074     1919     2058 
    2288     2273     1939     1597     1367     1456     2263     3260 
    3219     2155     1445     1647     1941     1921     2022     2326 
    2407     2222     2197     2342     2258     2023     1931     1929 
    2019     2297     2405     2095     1788     1657     1524     1709 
    2403     2909     2720     2359     2208     1802     1206     1332 
    2231     2982     3163     2952     2419     1651     1061     1008 
    1387     1904     2512     3192     3450     2751     1505      741 
     935     1711     2416     2814     3028     2841     2218     1790 
    1674     1447     1424     1988     2648     2883     2639     2174 
    1860     1714     1763     2138     2376     2108     1788     1804 
    2037     2316     2614     2641     2015     1335     1466     2029 
    2362     2508     2543     2401     2106     1830     1725     1741 
    1976     2533     2955     2725     2045     1507     1364     1514 
    1852     2218     2412     2390     2250     2236     2416     2308 
    1675     1170     1275     1846     2774     3619     3542     2462 
    1313      907     1128     1598     2281     2913     2941     2415 
    1969     1840     1749     1800     2207     2430     2049     1617 
    1674     2160     2698     2835     2566     2165     1633     1266 
    1591     2355     2717     2448     2218     2285     1998     1406 
    1452     2142     2593     2486     2173     1918     1777     1962 
    2396     2447     2165     2104     2027     1830     2057     2547 
    2614     2130     1625     1699     2096     2084     1767     1794 
    2265     2637     2497     2068     1660     1339     1444     2158 
    2874     3141     3138     2810     1906      895      804     1721 
    2550     2826     2956     2717     1863     1316     1744     2359 
    2269     1672     1300     1455     1935     2624     3296     3208 
    2200     1256     1071     1499     2224     2825     2957     2593 
    1891     1480     1804     2215     2124     1856     1699     1671 
    2057     2832     3125     2431     1470     1059     1278     1861 
    2493     2875     2890     2740     2598     2188     1387      935 
    1479     2343     2609     2619     2880     2895     2285     1455 
     864      877     1609     2519     3084     3179     2725     2012 
    1576     1449     1501     1761     2064     2343     2712     2944 
    2789     2207     1327      882     1424     2270     2700     2751 
    2524     2239     2112     1868     1493     1439     1782     2297 
    2706     2705     2461     2165     1647     1317     1825     2687 
    2968     2624     2097     1514     1123     1468     2416     3094 
    2974     2301     1655     1371     1582     2205     2601     2327 
    1858     1668     1780     2111     2370     2373     2299     2215 
    2004     1741     1722     2014     2303     2421     2470     2436 
    2222     1891     1737     1895     2016     1954     2122     2551 
    2648     2253     1802     1502     1364     1630     2334     2941 
    2948     2477     1991     1750     1715     1896     2347     2586 
    2133     1570     1598     1984     2412     2718     2539     1968 
    1597     1665     2011     2312     2353     2284     2103     1777 
    1803     2200     2377     2369     2296     1989     1792     1977 
    2236     2327     2204     1869     1549     1736     2558     3160 
    2820     2089     1568     1166     1208     1989     2751     2871 
    2565     2097     1757     1721     1718     1772     2118     2401 
    2482     2687     2641     1927     1287     1447     1987     2328 
    2533     2598     2319     1919     1642     1614     2064     2641 
    2745     2404     1879     1464     1541     2074     2593     2717 
    2447     1945     1516     1609     2111     2394     2408     2401 
    2158     1710     1590     1931     2335     2489     2401     2234 
    2155     2137     1933     1679     1755     1971     2064     2286 
    2658     2710     2255     1713     1501     1622     1992     2500 
    2759     2475     1952     1692     1725     1845     2080     2412 
    2617     2498     2141     1907     1848     1688     1672     2031 
    2281     2285     2446     2586     2280     1837     1763     1853 
    1813     1960     2396     2546     2270     2139     2228     2060 
    1744     1691     1823     2052     2358     2533     2509     2309 
    2037     1922     1914     1852     1827     2004     2334     2551 
