Origin Time       2025/03/30 21:30:00
Lat.              38.535
Long.             142.295
Depth. (km)       44
Mag.              4.3
Station Code      IWTH17
Station Lat.      39.6442
Station Long.     141.5977
Station Height(m) 305
Record Time       2025/03/30 21:31:33
Sampling Freq(Hz) 100Hz
Duration Time(s)  120
Dir.              4
Scale Factor      7845(gal)/8223790
Max. Acc. (gal)   0.751
Last Correction   2025/03/30 21:31:33
Memo.             
[...]
   -5175    -5119    -5055    -5135    -5239    -5223    -5085    -4950 
   -5016    -5173    -5130    -5040    -5117    -5163    -5100    -5077 
   -5131    -5177    -5136    -4985    -4833    -4966    -5378    -5470 
   -5016    -4756    -5109    -5436    -5256    -4939    -4908    -5104 
   -5233    -5120    -4990    -5179    -5301    -4970    -4843    -5239 
   -5414    -5086    -4839    -5026    -5262    -5151    -4974    -5125 
   -5343    -5179    -4928    -5032    -5206    -5140    -4992    -4966 
   -5157    -5310    -5186    -5113    -5170    -5044    -4965    -5086 
   -5097    -5066    -5130    -5142    -5138    -5119    -5044    -5070 
   -5202    -5209    -4988    -4803    -5009    -5418    -5432    -5069 
   -4951    -5138    -5142    -5001    -5101    -5289    -5170    -4901 
   -4887    -5076    -5165    -5173    -5242    -5221    -5069    -4986 
   -5038    -5193    -5266    -5096    -4999    -5094    -5071    -5050 
   -5228    -5239    -4984    -4989    -5277    -5236    -4934    -4969 
   -5197    -5211    -5135    -5081    -5073    -5173    -5163    -5049 
   -5108    -5151    -5032    -5016    -5061    -5057    -5163    -5260 
   -5166    -5078    -5046    -4936    -4985    -5240    -5279    -5112 
   -5076    -5135    -5167    -5146    -5097    -5077    -5046    -5058 
   -5115    -5059    -5054    -5190    -5190    -5093    -5040    -4996 
   -5120    -5244    -5059    -4959    -5112    -5159    -5155    -5181 
   -5159    -5186    -5178    -5104    -5120    -5116    -4989    -4918 
   -5013    -5224    -5335    -5143    -4914    -5001    -5185    -5130 
   -5000    -5065    -5269    -5337    -5066    -4827    -5101    -5382 
   -5105    -4838    -5089    -5340    -5165    -5005    -5158    -5233 
   -5036    -4870    -5008    -5305    -5319    -5009    -4895    -5119 
   -5227    -5092    -5050    -5147    -5161    -5061    -5003    -5081 
   -5213    -5223    -5076    -5024    -5181    -5221    -5059    -4986 
   -5044    -5128    -5206    -5177    -5071    -5036    -5020    -5028 
   -5166    -5254    -5112    -4955    -5084    -5313    -5254    -5103 
   -5108    -5065    -5023    -5113    -5117    -5044    -5085    -5103 
   -5107    -5242    -5208    -4985    -5000    -5120    -5108    -5124 
   -5089    -5036    -5208    -5247    -4981    -5012    -5289    -5202 
   -4946    -4958    -5130    -5235    -5173    -4974    -4936    -5167 
   -5252    -5088    -5044    -5113    -5109    -5096    -5105    -5147 
   -5173    -5109    -5020    -5027    -5175    -5251    -5085    -5008 
   -5170    -5202    -4976    -4860    -5100    -5364    -5229    -4969 
   -5051    -5231    -5112    -4973    -5143    -5306    -5136    -4927 
   -5026    -5206    -5146    -5062    -5205    -5312    -5090    -4764 
   -4823    -5270    -5428    -5065    -4854    -5094    -5258    -5151 
   -5074    -5082    -5123    -5209    -5138    -4954    -5055    -5283 
   -5179    -4949    -5020    -5240    -5220    -4969    -4870    -5086 
   -5247    -5148    -5094    -5175    -5185    -5040    -4942    -5165 
   -5402    -5227    -4969    -4973    -5109    -5220    -5158    -5013 
   -5107    -5270    -5104    -4884    -5047    -5287    -5158    -4931 
   -5016    -5185    -5130    -5067    -5182    -5233    -5067    -4932 
   -5076    -5262    -5157    -5030    -5127    -5148    -5116    -5211 
   -5198    -5065    -5030    -5063    -5108    -5139    -5059    -4958 
   -5040    -5142    -5080    -5152    -5337    -5182    -4911    -4981 
   -5175    -5240    -5189    -5020    -4977    -5227    -5327    -5058 
   -4887    -4996    -5163    -5277    -5236    -5071    -4942    -4931 
   -5097    -5267    -5205    -5032    -4955    -5067    -5258    -5278 
   -5167    -5078    -5001    -5027    -5179    -5247    -5107    -4954 
   -5053    -5215    -5054    -4854    -5058    -5285    -5188    -5074 
   -5088    -5101    -5089    -5026    -5058    -5263    -5260    -5034 
   -5031    -5192    -5229    -5108    -4904    -4954    -5300    -5308 
   -4920    -4873    -5179    -5223    -5053    -5097    -5266    -5169 
   -4870    -4953    -5387    -5412    -5051    -4954    -5109    -5190 
   -5097    -4972    -5063    -5184    -5142    -5186    -5248    -5094 
   -4954    -4978    -5043    -5120    -5179    -5150    -5089    -5039 
   -5088    -5263    -5266    -5003    -4922    -5192    -5347    -5198 
   -5096    -5059    -4962    -5044    -5201    -5128    -5022    -5030 
   -5081    -5174    -5185    -5104    -5090    -5108    -5063    -5047 
   -5101    -5131    -5201    -5266    -5101    -5007    -5200    -5220 
   -5024    -4970    -5020    -5124    -5248    -5162    -5017    -5108 
   -5215    -5084    -4900    -4976    -5243    -5262    -5008    -4990 
   -5213    -5197    -5038    -5038    -5044    -5063    -5188    -5173 
   -5047    -5082    -5198    -5188    -5103    -5090    -5117    -5092 
   -5030    -5067    -5196    -5115    -4900    -4982    -5221    -5231 
   -5093    -5016    -5050    -5182    -5247    -5117    -5050    -5140 
   -5119    -5026    -5047    -5135    -5209    -5206    -5125    -5049 
   -5073    -5139    -5053    -4989    -5128    -5120    -5001    -5213 
   -5422    -5170    -4872    -4914    -5097    -5243    -5252    -5093 
   -5028    -5152    -5170    -5128    -5240    -5186    -4942    -5020 
   -5231    -5157    -5069    -5119    -5124    -5101    -5082    -5101 
   -5202    -5161    -4923    -4957    -5300    -5332    -5027    -4927 
   -5073    -5205    -5242    -5142    -5051    -5086    -5005    -4887 
   -5097    -5337    -5175    -4970    -4986    -4986    -5031    -5119 
   -5080    -5144    -5262    -5113    -4957    -5039    -5170    -5211 
   -5147    -5050    -5073    -5128    -5116    -5184    -5223    -5092 
   -5046    -5103    -5116    -5103    -5032    -5092    -5306    -5227 
   -4976    -5036    -5174    -5090    -5034    -5055    -5016    -5077 
   -5217    -5205    -5089    -5031    -5113    -5198    -5104    -5032 
   -5086    -5152    -5233    -5197    -5047    -5078    -5211    -5154 
   -5017    -5026    -5143    -5213    -5108    -4962    -4969    -5017 
   -5062    -5200    -5266    -5113    -4989    -5113    -5247    -5193 
   -5136    -5132    -5062    -5000    -5053    -5157    -5224    -5184 
   -5013    -5007    -5271    -5258    -4904    -4839    -5036    -5076 
   -5093    -5240    -5304    -5161    -4965    -4988    -5244    -5332 
   -5135    -5028    -5076    -5088    -5135    -5219    -5146    -4963 
   -4915    -5038    -5189    -5250    -5139    -5016    -5038    -5027 
   -5093    -5328    -5283    -4997    -4970    -5163    -5228    -5061 
   -4914    -5013    -5182    -5217    -5128    -5030    -5098    -5201 
   -5055    -4928    -5108    -5205    -5027    -5016    -5258    -5290 
   -5057    -4980    -5128    -5202    -5197    -5216    -5082    -4876 
   -4955    -5224    -5298    -5121    -4968    -5024    -5131    -5161 
   -5232    -5215    -4978    -4884    -5090    -5270    -5309    -5254 
   -5113    -5092    -5154    -5055    -4953    -5061    -5200    -5225 
   -5186    -4986    -4810    -5040    -5270    -5062    -4911    -5065 
   -5157    -5161    -5283    -5336    -5098    -4941    -5121    -5220 
   -5063    -5023    -5143    -5181    -5116    -4988    -4915    -5070 
   -5182    -5054    -5031    -5184    -5236    -5127    -4993    -4995 
   -5055    -5012    -5078    -5354    -5333    -4955    -4888    -5174 
   -5251    -5085    -5004    -5097    -5239    -5255    -5177    -5178 
   -5142    -4945    -4881    -5121    -5309    -5147    -4932    -5058 
   -5242    -5139    -5053    -5125    -5125    -5120    -5228    -5243 
   -5044    -4957    -5165    -5286    -5154    -5011    -4989    -5177 
   -5340    -5094    -4861    -5103    -5279    -4997    -4766    -4957 
   -5275    -5358    -5221    -5120    -5154    -5143    -4930    -4773 
   -4997    -5321    -5310    -5130    -5171    -5312    -5204    -4982 
   -4973    -5080    -5008    -4837    -4926    -5193    -5285    -5194 
   -5098    -5120    -5188    -5117    -5062    -5165    -5158    -5017 
   -5125    -5354    -5275    -5109    -5151    -5196    -5040    -4800 
   -4804    -5053    -5116    -5026    -5071    -5152    -5215    -5215 
   -5112    -5170    -5274    -5112    -5030    -5166    -5124    -5011 
   -5085    -5171    -5190    -5166    -5053    -4989    -5034    -5049 
   -5034    -5089    -5209    -5173    -4962    -4973    -5167    -5182 
   -5188    -5301    -5221    -5012    -4963    -5077    -5244    -5252 
   -5031    -4969    -5105    -5024    -4915    -5174    -5402    -5155 
   -4837    -4954    -5309    -5359    -5063    -4914    -5061    -5178 
   -5108    -5036    -5206    -5389    -5181    -4869    -4932    -5154 
   -5093    -4939    -5038    -5202    -5254    -5215    -5094    -5103 
   -5201    -5092    -4938    -5040    -5248    -5227    -5000    -4878 
   -4980    -5202    -5321    -5147    -4946    -5081    -5297    -5236 
   -5077    -5032    -5084    -5152    -5069    -4981    -5170    -5296 
   -5138    -5023    -5026    -5128    -5271    -5105    -4812    -4927 
   -5292    -5405    -5185    -4932    -4947    -5135    -5089    -4907 
   -5073    -5339    -5254    -5116    -5200    -5275    -5123    -4900 
   -4950    -5154    -5151    -5034    -5032    -5120    -5217    -5275 
   -5179    -4997    -5005    -5127    -5071    -4978    -5050    -5136 
   -5147    -5123    -5132    -5243    -5267    -5073    -4914    -4947 
   -5108    -5215    -5117    -5040    -5071    -5008    -5012    -5185 
   -5279    -5232    -5074    -4893    -4963    -5231    -5256    -5028 
   -5040    -5263    -5229    -5096    -5105    -5020    -4986    -5209 
   -5229    -4984    -4992    -5200    -5224    -5070    -4996    -5192 
   -5375    -5111    -4770    -4947    -5300    -5255    -5042    -5143 
   -5375    -5274    -5008    -4981    -5086    -5097    -5039    -4959 
   -4932    -5130    -5358    -5335    -5259    -5163    -4893    -4769 
   -4957    -5165    -5188    -5078    -5073    -5171    -5134    -5089 
   -5239    -5217    -4845    -4788    -5227    -5360    -5080    -4978 
   -5082    -5233    -5308    -5112    -4914    -4966    -5073    -5152 
   -5181    -5112    -5159    -5306    -5198    -4995    -5120    -5289 
   -5158    -5069    -5159    -5165    -5107    -5076    -5034    -4961 
   -4826    -4843    -5143    -5258    -5042    -4995    -5211    -5383 
   -5344    -5150    -5084    -5150    -5100    -5035    -5132    -5282 
   -5262    -5086    -5058    -5229    -5216    -4891    -4746    -4931 
   -4963    -4918    -5157    -5359    -5239    -5057    -5077    -5212 
   -5154    -4939    -4999    -5339    -5485    -5327    -5182    -5196 
   -5115    -4876    -4843    -4978    -4908    -4792    -4861    -4976 
   -5061    -5154    -5239    -5262    -5251    -5271    -5209    -4996 
   -4828    -4922    -5233    -5509    -5505    -5235    -5050    -5144 
   -5175    -4939    -4760    -4793    -4930    -5125    -5267    -5275 
   -5117    -4878    -4893    -5090    -5131    -5125    -5139    -5155 
   -5256    -5258    -5158    -5242    -5435    -5350    -4976    -4822 
   -4984    -5054    -5009    -5061    -5285    -5460    -5215    -4932 
   -5215    -5509    -5202    -4816    -4768    -4922    -5190    -5282 
   -5158    -5190    -5105    -4700    -4569    -4843    -5100    -5238 
   -5231    -5132    -5232    -5470    -5422    -5162    -5143    -5312 
   -5235    -4922    -4857    -5192    -5385    -5140    -4887    -4870 
   -4938    -4943    -4758    -4576    -4770    -5181    -5425    -5470 
   -5350    -5146    -5165    -5428    -5452    -5144    -5036    -5166 
   -5107    -4984    -5062    -5094    -4982    -5067    -5300    -5250 
   -4977    -4806    -4756    -4847    -5146    -5441    -5428    -5121 
   -4943    -5058    -5067    -4922    -5051    -5379    -5514    -5408 
   -5121    -4990    -5283    -5316    -4765    -4617    -5092    -5235 
   -4923    -4789    -5055    -5437    -5409    -5036    -4996    -5213 
   -5093    -4853    -5023    -5319    -5228    -4980    -5055    -5387 
   -5490    -5246    -5059    -4950    -4677    -4614    -4996    -5293 
   -5228    -5154    -5335    -5510    -5331    -5042    -4978    -4857 
   -4645    -4810    -5238    -5394    -5327    -5363    -5485    -5512 
   -5242    -4738    -4581    -4981    -5362    -5373    -5174    -4976 
   -4974    -5104    -5169    -5196    -5080    -4806    -4796    -5113 
   -5300    -5093    -4714    -4756    -5332    -5535    -5051    -4904 
   -5327    -5468    -5243    -5049    -4881    -4750    -4783    -5023 
   -5309    -5389    -5246    -5031    -4934    -5047    -5182    -5166 
   -5108    -5049    -4841    -4710    -5077    -5648    -5745    -5378 
   -5015    -4920    -5050    -5105    -4957    -4861    -5058    -5389 
   -5346    -5050    -5229    -5490    -5085    -4787    -5047    -4920 
   -4541    -4903    -5575    -5721    -5402    -4834    -4492    -4884 
   -5281    -5027    -4947    -5316    -5348    -5186    -5211    -5148 
   -5188    -5395    -5228    -4835    -4716    -4861    -5200    -5432 
   -5208    -4912    -4920    -5032    -5162    -5313    -5287    -5023 
   -4774    -4849    -5192    -5382    -5310    -5310    -5319    -5093 
   -4995    -5113    -4997    -4837    -4996    -5211    -5228    -5073 
   -4915    -4962    -5015    -4903    -4966    -5256    -5404    -5366 
   -5319    -5292    -5258    -5117    -4785    -4615    -4961    -5309 
   -5204    -5113    -5258    -5279    -5097    -4876    -4833    -5016 
   -5044    -4842    -5003    -5634    -5896    -5377    -4808    -4846 
   -5162    -5251    -5190    -5090    -4887    -4783    -4870    -4955 
   -5057    -5216    -5323    -5277    -5094    -5027    -5229    -5391 
   -5267    -5146    -5190    -5030    -4635    -4646    -5223    -5599 
   -5352    -4972    -4860    -4919    -4992    -5055    -5196    -5293 
   -5152    -5027    -5128    -5248    -5263    -5213    -5228    -5247 
   -4970    -4749    -5009    -5236    -5205    -5279    -5252    -4976 
   -4865    -4978    -5065    -5069    -4935    -4792    -5059    -5605 
   -5638    -5205    -5147    -5328    -5121    -4854    -4962    -5158 
   -5053    -4900    -5233    -5549    -5088    -4641    -5107    -5668 
   -5356    -4623    -4461    -4984    -5333    -5097    -4922    -5055 
   -5071    -5054    -5254    -5436    -5274    -4876    -4822    -5185 
   -5267    -5043    -5134    -5313    -5088    -4885    -5088    -5232 
   -5049    -4942    -5030    -5004    -4976    -5196    -5414    -5394 
   -5196    -4972    -4984    -5204    -5263    -5020    -4673    -4783 
   -5495    -5755    -5092    -4710    -5132    -5400    -5105    -4826 
   -4935    -5244    -5337    -5147    -5078    -5182    -5019    -4745 
   -4989    -5472    -5401    -5005    -4924    -4978    -5026    -5250 
   -5267    -5012    -4984    -5005    -4932    -5023    -5040    -4982 
   -5175    -5310    -5209    -5286    -5611    -5645    -5031    -4398 
   -4604    -5302    -5486    -5066    -4688    -4729    -5103    -5381 
   -5259    -5026    -4981    -4972    -5000    -5217    -5305    -5104 
   -5017    -5117    -5219    -5449    -5567    -5213    -4891    -5051 
   -5285    -5236    -5062    -4889    -4746    -4862    -5244    -5387 
   -5188    -5077    -5134    -5304    -5543    -5356    -4729    -4452 
   -4715    -5119    -5447    -5455    -5151    -4981    -5040    -5101 
   -5185    -5258    -5077    -4819    -4957    -5259    -5174    -4928 
   -4923    -5047    -5140    -5154    -5134    -5139    -5061    -4923 
   -4981    -5278    -5433    -5170    -4847    -4897    -5159    -5232 
   -5116    -5162    -5339    -5189    -4849    -4993    -5375    -5166 
   -4787    -5036    -5390    -5232    -4953    -5027    -5375    -5433 
   -4958    -4654    -4973    -5275    -5085    -4939    -5204    -5200 
   -4811    -4969    -5414    -5221    -5027    -5373    -5359    -4885 
   -4905    -5429    -5586    -5069    -4576    -4820    -5301    -5171 
   -4892    -5244    -5610    -5124    -4468    -4737    -5350    -5134 
   -4634    -4851    -5256    -5344    -5590    -5799    -5346    -4747 
   -4734    -5020    -5223    -5252    -5031    -4869    -5007    -5098 
   -4972    -4942    -5163    -5386    -5340    -5121    -4938    -4823 
   -4846    -5007    -5109    -5204    -5402    -5432    -5127    -4880 
   -5154    -5506    -5163    -4722    -5077    -5494    -5177    -4745 
   -4741    -5020    -5304    -5213    -5017    -5219    -5308    -5046 
   -5061    -5394    -5516    -5181    -4685    -4571    -4949    -5436 
   -5590    -5196    -4687    -4776    -5308    -5441    -5049    -4800 
   -4941    -5084    -5179    -5416    -5479    -5124    -4824    -4997 
   -5289    -5190    -4765    -4637    -5181    -5647    -5337    -4945 
   -4961    -4922    -4853    -5061    -5274    -5282    -5202    -5058 
   -5013    -5251    -5351    -4990    -4745    -4957    -5132    -5161 
   -5251    -5104    -4826    -5039    -5482    -5443    -5001    -4700 
   -4896    -5350    -5401    -5101    -5019    -5080    -5007    -4969 
   -5206    -5447    -5178    -4811    -5063    -5528    -5530    -5088 
   -4681    -4801    -5197    -5244    -5073    -5101    -5158    -5101 
   -5058    -4942    -4969    -5313    -5366    -5008    -4942    -5219 
   -5281    -5090    -4973    -4891    -4914    -5255    -5483    -5219 
   -4895    -4985    -5189    -5034    -4853    -5082    -5418    -5436 
   -5084    -4723    -4811    -5161    -5266    -5167    -5159    -5213 
   -5200    -5154    -5174    -5239    -5189    -4972    -4792    -4896 
   -5154    -5216    -5094    -5019    -5128    -5455    -5563    -5053 
   -4617    -4841    -5142    -5215    -5400    -5509    -5177    -4793 
   -4920    -5262    -5219    -5004    -4992    -4974    -4907    -5028 
   -5200    -5221    -5197    -5217    -5192    -5013    -4853    -4919 
   -5077    -5150    -5085    -5034    -5266    -5451    -5192    -4999 
   -5140    -5103    -4882    -4885    -5024    -5185    -5358    -5343 
   -5198    -5026    -4781    -4835    -5208    -5254    -5019    -5030 
   -5255    -5363    -5219    -5008    -4988    -4986    -4864    -4986 
   -5319    -5347    -5208    -5271    -5300    -5109    -4903    -4807 
   -4920    -5185    -5227    -5027    -5047    -5310    -5305    -4995 
   -4881    -4936    -4934    -5109    -5313    -5217    -5115    -5181 
   -5266    -5339    -5296    -5070    -4924    -5020    -5155    -5263 
   -5321    -5104    -4873    -5036    -5181    -4992    -4904    -5024 
   -5051    -5078    -5138    -5090    -5182    -5321    -5116    -4926 
   -5085    -5243    -5243    -5250    -5260    -5143    -4938    -4887 
   -4970    -4990    -5005    -5074    -5161    -5228    -5163    -5053 
   -5103    -5193    -5073    -4779    -4760    -5256    -5568    -5192 
   -4978    -5366    -5401    -4943    -4892    -5146    -5165    -5022 
   -4935    -5238    -5622    -5205    -4619    -4934    -5296    -4970 
   -4774    -5005    -5225    -5298    -5119    -4995    -5289    -5398 
   -5061    -4931    -5040    -5065    -5094    -5082    -5067    -5265 
   -5378    -5174    -5012    -5059    -5085    -5066    -5131    -5204 
   -5120    -4973    -5044    -5246    -5212    -5013    -4928    -4961 
   -5055    -5159    -5201    -5242    -5235    -5077    -4970    -5101 
   -5252    -5178    -4989    -4936    -5057    -5104    -5001    -5119 
