Origin Time       2025/03/30 21:30:00
Lat.              38.535
Long.             142.295
Depth. (km)       44
Mag.              4.3
Station Code      IWTH20
Station Lat.      39.3434
Station Long.     141.0473
Station Height(m) 106
Record Time       2025/03/30 21:31:18
Sampling Freq(Hz) 100Hz
Duration Time(s)  120
Dir.              4
Scale Factor      7845(gal)/8223790
Max. Acc. (gal)   2.115
Last Correction   2025/03/30 21:31:18
Memo.             
[...]
    1880     1829     1825     1829     1823     1854     1922     1972 
    1977     1926     1790     1606     1499     1499     1525     1564 
    1671     1796     1856     1871     1876     1827     1764     1779 
    1817     1784     1722     1687     1686     1718     1769     1795 
    1791     1830     1908     1933     1915     1923     1938     1919 
    1894     1854     1761     1667     1621     1576     1529     1548 
    1609     1629     1593     1563     1599     1674     1756     1863 
    1962     1998     1971     1917     1857     1850     1895     1898 
    1848     1849     1922     1988     2008     2010     1995     1941 
    1837     1699     1597     1557     1552     1570     1597     1620 
    1661     1741     1846     1965     2096     2214     2263     2227 
    2149     2045     1881     1686     1534     1447     1395     1362 
    1347     1391     1514     1684     1854     1988     2053     2031 
    1939     1829     1717     1620     1606     1679     1767     1823 
    1834     1792     1736     1745     1848     1977     2073     2077 
    1933     1679     1463     1389     1425     1513     1614     1688 
    1719     1737     1773     1831     1907     2015     2135     2228 
    2243     2122     1917     1756     1684     1686     1744     1845 
    1948     1979     1912     1802     1705     1636     1602     1614 
    1669     1733     1772     1775     1734     1660     1599     1582 
    1588     1628     1764     1953     2053     2039     2012     2002 
    1964     1911     1876     1818     1698     1571     1489     1443 
    1451     1540     1684     1875     2097     2246     2250     2172 
    2062     1933     1844     1823     1787     1675     1567     1528 
    1530     1566     1633     1688     1710     1741     1810     1894 
    1939     1914     1819     1696     1632     1672     1764     1837 
    1891     1939     1944     1881     1822     1814     1780     1690 
    1615     1591     1594     1605     1597     1549     1497     1540 
    1713     1904     2027     2084     2089     2088     2087     2027 
    1930     1860     1807     1733     1655     1613     1598     1597 
    1624     1680     1772     1895     2006     2039     2006     1972 
    1935     1869     1798     1734     1664     1606     1617     1714 
    1831     1892     1887     1850     1817     1796     1796     1804 
    1791     1769     1753     1717     1682     1705     1763     1807 
    1848     1902     1935     1923     1892     1869     1845     1804 
    1757     1718     1690     1707     1777     1821     1790     1755 
    1771     1790     1763     1706     1648     1625     1665     1729 
    1776     1814     1821     1761     1671     1641     1703     1796 
    1863     1915     1966     1977     1911     1813     1750     1734 
    1737     1752     1776     1796     1786     1728     1679     1678 
    1706     1772     1848     1903     1962     2016     2011     1923 
    1819     1759     1732     1722     1741     1777     1798     1796 
    1792     1815     1869     1929     1942     1887     1784     1690 
    1636     1615     1629     1679     1721     1718     1698     1701 
    1696     1675     1688     1738     1787     1833     1869     1900 
    1925     1898     1826     1784     1771     1745     1730     1733 
    1729     1730     1760     1787     1769     1730     1725     1768 
    1838     1879     1863     1830     1814     1814     1818     1810 
    1784     1782     1841     1946     2041     2091     2092     2010 
    1856     1715     1629     1576     1564     1591     1618     1632 
    1661     1713     1777     1848     1885     1880     1876     1872 
    1845     1845     1880     1881     1840     1779     1713     1675 
    1678     1692     1694     1696     1738     1803     1830     1826 
    1811     1759     1707     1719     1767     1809     1865     1937 
    1975     1954     1904     1848     1792     1771     1800     1830 
    1825     1827     1831     1776     1688     1659     1656     1617 
    1617     1699     1776     1822     1880     1921     1929     1941 
    1954     1933     1898     1864     1787     1703     1683     1696 
    1692     1653     1583     1520     1524     1607     1741     1877 
    1962     1965     1917     1860     1813     1787     1768     1745 
    1750     1795     1844     1872     1869     1833     1777     1717 
    1672     1683     1749     1831     1894     1911     1890     1871 
    1842     1787     1750     1757     1784     1829     1880     1877 
    1796     1691     1605     1566     1606     1719     1863     1966 
    1953     1830     1686     1578     1553     1653     1791     1841 
    1837     1845     1823     1772     1768     1799     1798     1784 
    1806     1858     1927     1991     2000     1935     1823     1725 
    1669     1644     1609     1583     1613     1679     1729     1769 
    1842     1941     2000     1988     1939     1887     1838     1807 
    1792     1782     1775     1794     1846     1885     1865     1788 
    1672     1572     1570     1679     1825     1925     1979     1996 
    1945     1857     1822     1840     1857     1877     1887     1875 
    1854     1807     1745     1703     1668     1629     1606     1609 
    1629     1672     1757     1838     1856     1852     1849     1784 
    1688     1667     1709     1728     1736     1772     1802     1810 
    1827     1830     1772     1702     1687     1722     1775     1834 
    1876     1871     1846     1844     1844     1817     1810     1838 
    1842     1852     1902     1931     1898     1815     1703     1611 
    1611     1710     1811     1844     1827     1795     1783     1814 
    1840     1814     1750     1680     1644     1687     1815     1939 
    1957     1895     1842     1822     1852     1926     1968     1926 
    1807     1641     1525     1564     1678     1717     1710     1741 
    1790     1830     1869     1865     1792     1732     1745     1764 
    1765     1795     1837     1814     1725     1652     1657     1713 
    1759     1790     1834     1880     1883     1834     1796     1788 
    1775     1757     1768     1811     1858     1884     1900     1894 
    1826     1760     1795     1891     1945     1939     1884     1783 
    1669     1602     1613     1684     1788     1876     1917     1910 
    1848     1749     1672     1632     1615     1632     1676     1715 
    1730     1772     1869     1941     1911     1826     1779     1786 
    1798     1802     1825     1814     1692     1544     1533     1655 
    1799     1929     1995     1980     1966     2016     2068     2031 
    1925     1809     1722     1691     1698     1686     1626     1528 
    1452     1489     1640     1823     1961     2039     2072     2050 
    1977     1898     1823     1718     1602     1586     1686     1768 
    1748     1665     1598     1601     1703     1869     1989     2000 
    1939     1875     1854     1850     1823     1776     1707     1667 
    1728     1837     1867     1796     1717     1715     1798     1922 
    1999     1962     1846     1734     1698     1756     1840     1873 
    1860     1837     1825     1814     1776     1710     1629     1551 
    1530     1609     1730     1796     1786     1771     1802     1880 
    2008     2130     2154     2076     1968     1867     1749     1624 
    1526     1482     1495     1566     1665     1757     1813     1814 
    1759     1714     1737     1787     1800     1786     1786     1796 
    1811     1861     1907     1895     1867     1856     1842     1811 
    1755     1676     1599     1540     1507     1534     1645     1772 
    1845     1892     1956     1998     1987     1964     1942     1907 
    1885     1885     1867     1782     1656     1582     1614     1722 
    1844     1923     1925     1842     1715     1624     1625     1705 
    1815     1912     1958     1946     1890     1806     1717     1634 
    1610     1687     1802     1854     1845     1863     1918     1927 
    1883     1846     1827     1829     1864     1891     1856     1763 
    1663     1571     1520     1575     1721     1834     1837     1761 
    1683     1668     1705     1757     1853     1984     2064     2069 
    2056     1991     1810     1624     1587     1664     1756     1836 
    1854     1783     1702     1690     1742     1827     1917     1961 
    1903     1767     1651     1620     1672     1757     1811     1834 
    1883     1945     1962     1953     1950     1895     1772     1683 
    1665     1665     1657     1649     1642     1624     1622     1687 
    1790     1853     1842     1772     1682     1626     1659     1779 
    1927     2047     2087     2035     1962     1907     1856     1807 
    1773     1722     1628     1572     1617     1686     1706     1723 
    1779     1822     1814     1799     1817     1836     1840     1849 
    1853     1849     1864     1900     1910     1857     1800     1811 
    1833     1767     1611     1455     1401     1468     1575     1682 
    1806     1923     2006     2054     2065     2050     2027     1998 
    1948     1865     1769     1691     1632     1590     1574     1590 
    1636     1684     1756     1869     1934     1906     1869     1864 
    1861     1848     1796     1690     1593     1590     1682     1794 
    1884     1922     1891     1865     1907     1964     1983     1946 
    1841     1721     1661     1680     1749     1813     1813     1749 
    1691     1691     1737     1802     1854     1831     1744     1699 
    1715     1695     1637     1630     1686     1773     1904     2058 
    2162     2170     2076     1919     1779     1687     1598     1489 
    1383     1329     1371     1503     1667     1831     1983     2064 
    2070     2052     2038     2029     2004     1938     1837     1771 
    1746     1664     1537     1505     1590     1699     1798     1892 
    1966     1981     1895     1736     1625     1622     1663     1682 
    1690     1726     1795     1879     1948     1969     1934     1883 
    1825     1742     1669     1687     1787     1852     1796     1678 
    1597     1618     1767     1987     2168     2242     2188     2034 
    1860     1696     1530     1399     1355     1393     1478     1603 
    1761     1904     1988     1996     1949     1891     1819     1736 
    1706     1769     1873     1933     1933     1898     1823     1737 
    1663     1590     1555     1593     1659     1733     1836     1907 
    1872     1786     1753     1802     1898     1977     1971     1872 
    1767     1723     1710     1694     1701     1750     1836     1921 
    1993     2038     2011     1902     1742     1591     1541     1617 
    1729     1796     1829     1838     1815     1795     1838     1908 
    1898     1823     1803     1842     1876     1912     1948     1884 
    1709     1576     1584     1667     1746     1798     1771     1671 
    1603     1622     1683     1749     1834     1921     1953     1945 
    1952     1964     1941     1872     1776     1682     1626     1653 
    1711     1705     1683     1756     1858     1918     1966     1946 
    1776     1576     1509     1579     1701     1829     1944     2016 
    2034     2007     1960     1930     1917     1867     1753     1660 
    1651     1671     1675     1675     1675     1668     1682     1740 
    1825     1919     2010     2007     1863     1688     1584     1563 
    1614     1691     1741     1756     1784     1848     1903     1934 
    1948     1945     1937     1914     1880     1823     1702     1551 
    1491     1553     1694     1883     2054     2107     2018     1890 
    1810     1760     1713     1664     1620     1602     1622     1695 
    1788     1836     1826     1767     1683     1671     1796     1952 
    2018     2010     1944     1803     1641     1526     1463     1447 
    1517     1675     1842     1941     1972     1993     2010     1983 
    1912     1831     1761     1721     1715     1702     1659     1624 
    1613     1620     1657     1736     1856     2010     2124     2130 
    2074     2020     1911     1714     1548     1509     1557     1636 
    1690     1695     1705     1784     1926     2072     2153     2124 
    2007     1876     1794     1748     1710     1664     1614     1605 
    1699     1850     1950     1975     1948     1876     1771     1703 
    1738     1790     1752     1661     1617     1632     1667     1699 
    1692     1607     1498     1460     1501     1555     1582     1579 
    1539     1486     1479     1537     1637     1791     1979     2123 
    2219     2293     2297     2207     2056     1861     1637     1463 
    1389     1366     1378     1475     1653     1869     2083     2263 
    2434     2585     2667     2651     2552     2355     2029     1634 
    1290     1054      972     1111     1462     1881     2238     2532 
    2782     2922     2905     2771     2581     2304     1925     1520 
    1143      818      614      622      853     1266     1819     2416 
    2857     2998     2857     2531     2058     1512     1053      746 
     538      409      380      469      660      934     1304     1759 
    2230     2600     2763     2682     2336     1765     1169      762 
     664      907     1406     1996     2543     2972     3169     3018 
    2485     1656      791      225      121      450     1134     1976 
    2641     2955     3042     3103     3210     3318     3330     3177 
    2891     2540     2101     1502      781       89     -387     -427 
     108     1105     2234     3146     3612     3508     2852     1953 
    1254      967     1032     1275     1501     1587     1509     1281 
     990      784      769      994     1401     1845     2199     2393 
    2417     2328     2226     2153     2007     1641     1098      666 
     619      994     1621     2273     2795     3146     3331     3262 
    2851     2209     1586     1120      832      738      850     1120 
    1476     1863     2178     2346     2413     2443     2447     2452 
    2432     2268     1888     1381      915      562      344      351 
     619     1036     1524     2097     2675     3057     3125     2907 
    2523     2128     1858     1763     1841     2074     2411     2697 
    2691     2268     1587      939      475      220      174      307 
     614     1080     1610     2107     2509     2763     2860     2882 
    2916     2929     2783     2425     1977     1622     1418     1264 
    1066      851      766      905     1201     1548     1868     2068 
    2108     2056     2010     2026     2142     2323     2466     2504 
    2432     2272     2052     1811     1647     1655     1811     1960 
    1972     1795     1395      888      522      425      538      799 
    1171     1582     1958     2278     2575     2866     3049     3044 
    2839     2421     1830     1178      583      103     -206     -213 
     172      869     1709     2552     3254     3658     3658     3310 
    2822     2374     1989     1622     1220      808      548      575 
     877     1358     1879     2308     2571     2673     2683     2644 
    2544     2370     2108     1784     1494     1331     1310     1359 
    1398     1410     1368     1285     1260     1333     1439     1507 
    1521     1530     1607     1784     2033     2292     2548     2779 
    2880     2805     2632     2425     2180     1931     1740     1621 
    1584     1642     1756     1822     1838     1902     1984     1958 
    1818     1618     1325      949      645      580      773     1181 
    1744     2286     2597     2628     2467     2188     1875     1687 
    1682     1745     1790     1803     1726     1507     1186      862 
     710      859     1220     1614     1976     2251     2394     2452 
    2490     2479     2367     2141     1810     1395      938      561 
     434      642     1115     1684     2224     2682     2983     3034 
    2847     2539     2177     1807     1549     1445     1421     1476 
    1622     1804     1992     2222     2492     2702     2725     2521 
    2196     1911     1773     1757     1753     1715     1664     1628 
    1652     1768     1930     2016     1991     1969     2038     2127 
    2150     2116     2025     1791     1404      990      689      583 
     691      976     1328     1618     1804     1917     1941     1821 
    1557     1287     1169     1250     1498     1860     2223     2419 
    2353     2134     1895     1675     1487     1340     1269     1340 
    1529     1730     1858     1850     1749     1721     1863     2174 
    2628     3094     3306     3106     2612     2052     1547     1143 
     889      785      774      823      961     1198     1489     1787 
    2033     2141     2149     2176     2259     2355     2357     2153 
    1798     1475     1345     1420     1567     1632     1572     1455 
    1395     1451     1583     1728     1856     1998     2197     2434 
    2621     2644     2390     1903     1393     1039      931     1109 
    1505     1917     2133     2092     1891     1645     1429     1308 
    1332     1507     1787     2119     2455     2682     2713     2596 
    2428     2300     2265     2270     2197     1988     1703     1440 
    1251     1144     1102     1138     1289     1517     1732     1926 
    2128     2231     2097     1798     1530     1387     1362     1439 
    1574     1723     1884     2043     2120     2034     1798     1516 
    1317     1237     1231     1302     1460     1647     1798     1902 
    1958     1956     1923     1914     1927     1923     1907     1894 
    1834     1706     1588     1552     1579     1656     1796     1952 
    2065     2177     2328     2470     2550     2542     2430     2216 
    1931     1622     1371     1281     1340     1422     1460     1474 
    1483     1494     1512     1575     1699     1814     1846     1792 
    1684     1588     1593     1721     1925     2131     2263     2262 
    2127     1935     1800     1760     1796     1910     2066     2230 
    2355     2355     2203     1946     1653     1418     1310     1340 
    1505     1783     2072     2224     2189     2047     1899     1773 
    1640     1480     1328     1171      969      785      768      959 
    1287     1645     1927     2070     2070     1976     1894     1887 
    1919     2003     2193     2403     2481     2400     2214     1965 
    1686     1437     1300     1285     1316     1335     1374     1479 
    1668     1980     2385     2758     3009     3091     2964     2663 
    2278     1865     1467     1132      897      801      854     1017 
    1256     1532     1764     1884     1925     1980     2095     2247 
    2362     2332     2139     1875     1620     1436     1385     1433 
    1497     1564     1641     1669     1605     1495     1397     1337 
    1383     1552     1767     1954     2073     2150     2236     2288 
    2241     2099     1892     1679     1524     1459     1443     1399 
    1300     1223     1298     1556     1895     2201     2417     2515 
    2481     2316     2037     1702     1397     1177     1069     1073 
    1155     1293     1487     1734     1996     2219     2393     2504 
    2512     2448     2401     2371     2272     2069     1830     1632 
    1495     1387     1251     1086      962      949     1092     1421 
