Origin Time       2025/03/30 21:30:00
Lat.              38.535
Long.             142.295
Depth. (km)       44
Mag.              4.3
Station Code      IWTH22
Station Lat.      39.3340
Station Long.     141.3015
Station Height(m) 260
Record Time       2025/03/30 21:31:30
Sampling Freq(Hz) 100Hz
Duration Time(s)  120
Dir.              6
Scale Factor      7845(gal)/8223790
Max. Acc. (gal)   0.729
Last Correction   2025/03/30 21:31:30
Memo.             
[...]
    6831     6636     6538     6477     6492     6666     6760     6596 
    6401     6488     6745     6783     6529     6355     6484     6754 
    6880     6689     6372     6388     6705     6778     6589     6517 
    6556     6562     6569     6621     6635     6605     6674     6744 
    6573     6336     6461     6770     6728     6527     6598     6697 
    6604     6578     6650     6575     6507     6629     6721     6671 
    6592     6528     6563     6674     6625     6440     6430     6605 
    6709     6727     6724     6558     6400     6573     6716     6535 
    6440     6632     6802     6704     6504     6511     6621     6628 
    6604     6546     6492     6643     6774     6597     6454     6575 
    6698     6664     6624     6652     6601     6505     6527     6588 
    6640     6646     6500     6457     6716     6847     6624     6451 
    6517     6679     6778     6660     6532     6609     6632     6534 
    6548     6625     6640     6624     6612     6604     6502     6374 
    6473     6698     6804     6745     6509     6390     6702     6983 
    6704     6293     6381     6698     6709     6575     6615     6655 
    6566     6540     6602     6578     6475     6524     6750     6853 
    6687     6454     6415     6593     6720     6651     6590     6612 
    6554     6489     6567     6623     6527     6566     6774     6686 
    6404     6492     6766     6739     6534     6523     6675     6694 
    6596     6620     6700     6625     6453     6408     6567     6697 
    6631     6586     6617     6559     6546     6648     6685     6602 
    6501     6525     6664     6696     6585     6597     6744     6706 
    6511     6454     6509     6588     6702     6701     6579     6571 
    6636     6569     6486     6546     6608     6616     6686     6748 
    6636     6515     6592     6677     6619     6563     6567     6574 
    6588     6612     6619     6620     6569     6424     6440     6605 
    6606     6652     6853     6808     6539     6419     6523     6612 
    6589     6675     6770     6627     6498     6567     6594     6548 
    6565     6561     6554     6620     6651     6573     6555     6727 
    6772     6504     6339     6515     6763     6727     6486     6574 
    6863     6685     6322     6432     6756     6779     6601     6579 
    6705     6682     6482     6417     6601     6735     6620     6507 
    6617     6664     6490     6481     6721     6737     6471     6427 
    6648     6724     6670     6679     6650     6563     6509     6497 
    6552     6674     6755     6679     6539     6554     6643     6592 
    6523     6551     6543     6556     6669     6702     6621     6579 
    6547     6488     6570     6745     6706     6478     6471     6702 
    6748     6628     6633     6681     6651     6598     6486     6407 
    6528     6666     6627     6563     6581     6575     6534     6628 
    6787     6718     6502     6490     6674     6721     6565     6550 
    6759     6804     6548     6328     6396     6628     6741     6671 
    6570     6494     6469     6600     6790     6741     6478     6423 
    6685     6770     6528     6486     6732     6735     6501     6516 
    6663     6556     6454     6640     6793     6627     6455     6623 
    6794     6597     6400     6543     6708     6592     6436     6527 
    6741     6741     6480     6393     6710     6925     6702     6473 
    6511     6597     6647     6701     6698     6575     6397     6399 
    6615     6754     6698     6520     6409     6581     6750     6648 
    6586     6643     6627     6577     6539     6579     6691     6683 
    6637     6629     6463     6343     6565     6833     6783     6540 
    6448     6521     6538     6613     6793     6729     6474     6411 
    6532     6648     6659     6615     6685     6735     6577     6489 
    6620     6696     6632     6525     6478     6642     6781     6594 
    6434     6588     6743     6605     6354     6408     6747     6860 
    6677     6562     6527     6513     6612     6662     6566     6543 
    6642     6655     6567     6583     6686     6705     6619     6519 
    6505     6558     6593     6625     6667     6648     6575     6555 
    6554     6497     6534     6704     6790     6671     6490     6486 
    6673     6745     6561     6427     6555     6728     6727     6604 
    6570     6643     6625     6538     6516     6558     6642     6654 
    6550     6524     6598     6609     6604     6644     6627     6602 
    6620     6606     6636     6631     6488     6528     6760     6744 
    6548     6502     6486     6403     6458     6682     6802     6678 
    6539     6600     6704     6667     6625     6679     6605     6446 
    6519     6716     6724     6573     6512     6601     6616     6473 
    6442     6647     6763     6671     6663     6646     6386     6340 
    6729     6917     6683     6501     6565     6632     6575     6605 
    6748     6708     6511     6488     6621     6573     6363     6403 
    6696     6743     6500     6520     6828     6851     6608     6536 
    6515     6385     6489     6852     6918     6588     6380     6497 
    6677     6698     6550     6394     6436     6617     6709     6675 
    6619     6617     6647     6575     6474     6532     6689     6748 
    6675     6636     6635     6527     6508     6678     6721     6609 
    6507     6454     6594     6795     6712     6484     6436     6578 
    6677     6578     6513     6662     6759     6651     6536     6566 
    6662     6637     6535     6565     6629     6574     6585     6681 
    6548     6303     6438     6812     6871     6654     6574     6659 
    6663     6561     6485     6532     6698     6802     6702     6494 
    6369     6416     6556     6656     6686     6639     6538     6515 
    6601     6660     6655     6681     6727     6663     6480     6431 
    6624     6731     6592     6481     6520     6639     6767     6693 
    6435     6430     6658     6631     6450     6528     6762     6818 
    6652     6548     6583     6486     6388     6644     6960     6820 
    6444     6435     6713     6721     6450     6388     6613     6728 
    6593     6536     6674     6677     6586     6666     6640     6388 
    6349     6654     6876     6763     6551     6478     6540     6654 
    6685     6639     6605     6489     6420     6671     6871     6629 
    6377     6529     6733     6561     6330     6517     6826     6806 
    6605     6501     6569     6723     6716     6554     6492     6596 
    6683     6637     6590     6619     6577     6443     6401     6512 
    6604     6646     6750     6779     6623     6561     6686     6620 
    6405     6517     6777     6683     6467     6552     6724     6694 
    6590     6493     6384     6427     6608     6720     6767     6700 
    6482     6459     6694     6766     6660     6687     6681     6438 
    6320     6627     6967     6853     6459     6320     6542     6701 
    6570     6463     6625     6762     6610     6509     6637     6631 
    6512     6604     6732     6619     6482     6606     6777     6671 
    6461     6477     6617     6637     6578     6596     6673     6660 
    6617     6669     6636     6481     6431     6507     6631     6694 
    6632     6593     6575     6559     6594     6544     6535     6745 
    6771     6447     6313     6574     6797     6718     6563     6609 
    6675     6535     6459     6623     6786     6717     6496     6428 
    6535     6652     6717     6610     6532     6681     6664     6400 
    6399     6741     6933     6712     6450     6570     6725     6554 
    6482     6659     6669     6507     6459     6588     6721     6682 
    6574     6593     6650     6590     6470     6453     6660     6879 
    6744     6480     6488     6570     6534     6600     6785     6797 
    6524     6286     6482     6849     6766     6405     6446     6783 
    6727     6357     6408     6789     6793     6531     6527     6658 
    6646     6624     6623     6552     6571     6686     6679     6548 
    6531     6633     6571     6453     6619     6770     6569     6401 
    6569     6762     6705     6547     6515     6520     6528     6679 
    6779     6660     6524     6507     6579     6608     6551     6604 
    6771     6743     6477     6366     6612     6822     6671     6446 
    6486     6681     6732     6536     6405     6602     6787     6685 
    6532     6515     6590     6650     6637     6706     6752     6581 
    6554     6721     6598     6354     6442     6673     6723     6637 
    6535     6521     6585     6590     6610     6696     6702     6609 
    6513     6528     6615     6658     6698     6671     6509     6478 
    6636     6620     6488     6597     6743     6601     6436     6550 
    6690     6588     6516     6691     6770     6524     6363     6642 
    6883     6644     6480     6698     6720     6457     6434     6687 
    6770     6563     6426     6538     6589     6455     6500     6704 
    6663     6528     6705     6930     6694     6372     6536     6716 
    6515     6436     6682     6802     6664     6546     6561     6593 
    6490     6323     6442     6828     6932     6617     6404     6574 
    6735     6582     6428     6525     6652     6725     6820     6763 
    6597     6600     6651     6508     6384     6540     6778     6813 
    6621     6384     6385     6646     6771     6609     6484     6538 
    6579     6513     6536     6718     6731     6516     6443     6613 
    6779     6706     6539     6631     6743     6528     6396     6605 
    6795     6754     6547     6389     6523     6735     6615     6342 
    6365     6617     6736     6696     6697     6642     6438     6455 
    6782     6952     6786     6527     6451     6531     6531     6511 
    6583     6585     6507     6577     6733     6706     6527     6459 
    6590     6729     6744     6732     6682     6569     6539     6559 
    6559     6589     6516     6388     6536     6750     6598     6394 
    6528     6737     6666     6482     6613     6852     6648     6384 
    6650     6959     6774     6462     6509     6732     6642     6420 
    6532     6690     6582     6502     6579     6632     6594     6521 
    6527     6605     6575     6498     6633     6816     6696     6498 
    6577     6768     6750     6563     6561     6685     6558     6451 
    6678     6663     6297     6397     6853     6810     6380     6282 
    6615     6845     6700     6482     6524     6685     6632     6531 
    6660     6689     6451     6459     6778     6855     6647     6554 
    6593     6519     6434     6594     6816     6778     6617     6586 
    6539     6400     6485     6741     6783     6667     6609     6531 
    6396     6450     6693     6810     6737     6579     6473     6502 
    6492     6475     6709     6862     6558     6313     6555     6826 
    6731     6604     6759     6723     6312     6284     6718     6849 
    6555     6435     6766     6934     6489     6177     6579     6928 
    6635     6335     6554     6809     6627     6394     6536     6751 
    6717     6632     6636     6523     6326     6446     6797     6871 
    6640     6469     6527     6623     6532     6486     6658     6720 
    6615     6574     6562     6573     6720     6829     6669     6459 
    6508     6685     6789     6821     6700     6466     6508     6762 
    6698     6484     6569     6735     6683     6543     6489     6508 
    6539     6578     6606     6554     6453     6405     6493     6691 
    6737     6493     6261     6293     6447     6586     6740     6736 
    6546     6494     6508     6305     6230     6565     6863     6681 
    6313     6434     6947     6980     6571     6623     6971     6849 
    6484     6459     6659     6659     6565     6702     6744     6451 
    6374     6744     7030     6922     6729     6717     6728     6640 
    6554     6516     6525     6601     6727     6755     6547     6311 
    6362     6647     6885     6835     6594     6538     6616     6551 
    6493     6600     6712     6673     6524     6376     6214     6104 
    6247     6585     6759     6619     6426     6461     6627     6712 
    6747     6750     6694     6685     6693     6687     6774     6822 
    6666     6458     6370     6400     6496     6515     6411     6374 
    6511     6681     6777     6828     6802     6644     6559     6714 
    6844     6751     6782     7017     6926     6467     6249     6408 
    6467     6318     6343     6481     6447     6563     7014     7292 
    7110     6791     6658     6590     6331     6092     6296     6650 
    6582     6181     5961     6334     6972     7014     6517     6330 
    6640     6914     6826     6648     6718     6916     6995     6810 
    6264     5861     6234     6847     6887     6590     6566     6760 
    6671     6340     6312     6516     6463     6358     6658     7029 
    6893     6486     6376     6582     6817     6847     6616     6415 
    6492     6608     6520     6454     6671     6960     6843     6363 
    6104     6257     6579     6929     7149     6994     6542     6199 
    6204     6439     6716     6858     6659     6367     6521     6951 
    7056     6883     6852     6847     6525     6137     6120     6454 
    6880     7153     7007     6439     5953     6097     6683     6934 
    6691     6566     6777     6941     6839     6538     6250     6238 
    6369     6378     6467     6679     6758     6741     6577     6262 
    6247     6575     6822     6934     6988     6745     6166     5837 
    6227     6836     6967     6862     6902     6876     6673     6399 
    6164     6165     6435     6812     7125     7111     6687     6145 
    5871     6095     6608     6998     7122     6934     6654     6652 
    6651     6286     6088     6558     7055     6913     6615     6666 
    6844     6840     6529     6165     6214     6654     6972     6802 
    6419     6462     6766     6562     6151     6247     6577     6785 
    6945     6990     6714     6308     6376     6767     6642     6157 
    6176     6698     7114     7126     6867     6647     6524     6409 
    6385     6478     6696     6967     7015     6748     6299     5948 
    6160     6795     7021     6670     6390     6384     6349     6323 
    6610     7018     7010     6642     6403     6474     6704     6783 
    6647     6636     6723     6481     6120     6204     6631     6790 
    6500     6288     6432     6585     6732     6987     6917     6486 
    6280     6424     6546     6484     6596     7118     7360     6820 
    6291     6404     6698     6693     6462     6313     6382     6663 
    7132     7325     6801     6149     6087     6454     6797     6899 
    6774     6531     6385     6524     6644     6431     6331     6693 
    7007     6890     6600     6413     6332     6335     6481     6671 
    6671     6498     6488     6733     6858     6685     6390     6183 
    6282     6625     6932     7007     6741     6389     6403     6629 
    6569     6385     6504     6740     6876     6903     6729     6559 
    6667     6840     6716     6361     6284     6565     6647     6478 
    6481     6682     6897     6870     6550     6372     6461     6512 
    6546     6662     6693     6565     6384     6342     6535     6689 
    6620     6589     6716     6783     6648     6457     6524     6836 
    6894     6521     6203     6280     6616     6826     6705     6682 
    6891     6766     6411     6440     6690     6673     6523     6519 
    6528     6485     6542     6731     6855     6772     6737     6844 
    6747     6469     6428     6639     6720     6574     6423     6346 
    6355     6478     6561     6558     6664     6790     6708     6569 
    6569     6639     6636     6563     6542     6534     6508     6559 
    6627     6697     6835     6814     6523     6313     6366     6463 
    6574     6770     6868     6794     6615     6308     6153     6427 
    6809     6926     6721     6384     6350     6652     6725     6478 
    6513     6918     7075     6747     6282     6160     6481     6690 
    6586     6612     6709     6617     6593     6717     6659     6482 
    6625     7025     7155     6779     6264     6276     6714     6708 
    6273     6286     6764     6875     6496     6265     6359     6523 
    6678     6690     6482     6451     6775     6949     6759     6608 
    6701     6678     6326     6235     6744     7047     6628     6215 
    6481     6913     6731     6331     6462     6804     6833     6691 
    6528     6430     6494     6581     6637     6666     6586     6570 
    6732     6886     6799     6416     6174     6508     6910     6781 
    6462     6378     6397     6316     6226     6475     7030     7227 
    6871     6493     6447     6620     6694     6616     6606     6504 
    6207     6245     6652     6789     6650     6664     6786     6808 
    6674     6428     6332     6519     6777     6844     6616     6362 
    6400     6609     6775     6774     6561     6421     6629     6936 
    6898     6592     6448     6559     6673     6561     6367     6494 
    6871     7024     6774     6305     6038     6328     6814     6868 
    6621     6504     6519     6482     6400     6421     6573     6736 
    6813     6677     6355     6196     6485     6967     7144     6905 
    6534     6415     6566     6531     6315     6405     6646     6724 
    6851     6910     6683     6529     6569     6531     6420     6394 
    6563     6829     6872     6724     6690     6727     6573     6309 
    6342     6667     6820     6736     6681     6610     6501     6486 
    6544     6524     6376     6330     6588     6895     6871     6536 
    6291     6440     6763     6839     6762     6724     6528     6300 
    6396     6581     6596     6617     6704     6733     6664     6542 
    6477     6512     6658     6795     6632     6327     6440     6922 
    7118     6717     6164     6114     6559     6912     6917     6794 
    6617     6380     6313     6378     6312     6390     6814     7009 
    6702     6415     6481     6629     6635     6745     6898     6716 
    6520     6559     6409     6188     6428     6879     6870     6438 
    6273     6569     6777     6752     6863     6912     6640     6481 
    6577     6540     6443     6593     6809     6798     6585     6407 
    6442     6542     6601     6705     6745     6685     6631     6571 
    6548     6596     6646     6624     6593     6700     6791     6588 
    6301     6334     6619     6795     6785     6755     6615     6309 
    6318     6708     6758     6431     6442     6724     6694     6461 
    6481     6701     6741     6625     6621     6685     6687     6619 
    6524     6558     6594     6458     6470     6660     6615     6565 
    6752     6733     6516     6484     6592     6694     6689     6620 
    6624     6540     6390     6490     6701     6654     6411     6407 
    6744     6874     6660     6617     6662     6515     6504     6687 
    6725     6635     6492     6386     6562     6806     6701     6386 
    6285     6485     6694     6693     6644     6760     6835     6600 
    6258     6219     6551     6897     6971     6863     6651     6438 
    6493     6666     6615     6548     6658     6648     6466     6453 
    6593     6593     6574     6710     6782     6689     6579     6532 
