Origin Time       2025/03/30 21:30:00
Lat.              38.535
Long.             142.295
Depth. (km)       44
Mag.              4.3
Station Code      IWTH23
Station Lat.      39.2741
Station Long.     141.8233
Station Height(m) 44
Record Time       2025/03/30 21:31:21
Sampling Freq(Hz) 100Hz
Duration Time(s)  120
Dir.              6
Scale Factor      7845(gal)/8223790
Max. Acc. (gal)   2.293
Last Correction   2025/03/30 21:31:21
Memo.             
   -9528    -9528    -9529    -9529    -9528    -9529    -9528    -9526 
   -9528    -9528    -9526    -9528    -9526    -9528    -9531    -9529 
   -9528    -9529    -9526    -9525    -9526    -9529    -9531    -9529 
   -9528    -9528    -9529    -9531    -9529    -9528    -9529    -9528 
   -9526    -9528    -9528    -9529    -9529    -9529    -9532    -9529 
   -9525    -9526    -9528    -9528    -9529    -9528    -9528    -9531 
   -9529    -9529    -9528    -9528    -9529    -9529    -9529    -9532 
   -9531    -9528    -9528    -9528    -9529    -9529    -9526    -9529 
   -9531    -9528    -9529    -9529    -9529    -9529    -9528    -9528 
   -9525    -9525    -9528    -9529    -9529    -9529    -9526    -9528 
   -9529    -9528    -9528    -9531    -9529    -9528    -9525    -9526 
   -9529    -9525    -9525    -9529    -9531    -9531    -9526    -9524 
   -9529    -9529    -9526    -9526    -9526    -9529    -9529    -9524 
   -9522    -9526    -9529    -9531    -9528    -9526    -9528    -9528 
   -9528    -9525    -9525    -9529    -9529    -9526    -9526    -9528 
   -9529    -9528    -9524    -9526    -9531    -9529    -9528    -9526 
   -9529    -9529    -9526    -9526    -9529    -9528    -9528    -9528 
   -9528    -9529    -9526    -9526    -9528    -9528    -9529    -9529 
   -9525    -9528    -9528    -9526    -9529    -9526    -9525    -9529 
   -9529    -9529    -9528    -9526    -9529    -9528    -9526    -9528 
   -9528    -9526    -9528    -9529    -9529    -9528    -9528    -9529 
   -9529    -9529    -9529    -9528    -9528    -9529    -9529    -9528 
   -9528    -9528    -9529    -9531    -9531    -9528    -9525    -9529 
   -9532    -9529    -9531    -9532    -9528    -9526    -9526    -9526 
   -9525    -9525    -9526    -9528    -9526    -9528    -9528    -9525 
   -9525    -9529    -9529    -9528    -9526    -9529    -9529    -9528 
   -9531    -9531    -9526    -9528    -9529    -9528    -9528    -9526 
   -9528    -9528    -9525    -9528    -9526    -9525    -9529    -9529 
   -9526    -9528    -9528    -9528    -9528    -9528    -9528    -9528 
   -9526    -9528    -9526    -9526    -9529    -9529    -9528    -9528 
   -9526    -9528    -9529    -9528    -9528    -9528    -9526    -9529 
   -9529    -9528    -9529    -9529    -9528    -9526    -9528    -9529 
   -9528    -9528    -9528    -9528    -9529    -9526    -9525    -9528 
   -9529    -9528    -9526    -9526    -9529    -9529    -9528    -9529 
   -9529    -9529    -9529    -9528    -9528    -9529    -9528    -9528 
   -9529    -9531    -9531    -9526    -9528    -9531    -9529    -9529 
   -9532    -9532    -9529    -9531    -9531    -9529    -9529    -9532 
   -9532    -9529    -9529    -9529    -9526    -9528    -9531    -9531 
   -9531    -9529    -9529    -9529    -9529    -9529    -9529    -9528 
   -9528    -9532    -9531    -9529    -9531    -9531    -9528    -9529 
   -9531    -9528    -9528    -9533    -9532    -9529    -9532    -9531 
   -9528    -9532    -9528    -9524    -9526    -9528    -9529    -9529 
   -9526    -9526    -9528    -9528    -9529    -9528    -9526    -9526 
   -9529    -9531    -9529    -9528    -9528    -9529    -9529    -9528 
   -9525    -9525    -9526    -9528    -9531    -9531    -9529    -9531 
   -9529    -9531    -9532    -9528    -9529    -9531    -9528    -9528 
   -9528    -9526    -9529    -9529    -9529    -9531    -9528    -9526 
   -9526    -9528    -9528    -9525    -9525    -9528    -9528    -9528 
   -9528    -9528    -9531    -9529    -9525    -9526    -9529    -9529 
   -9528    -9528    -9529    -9526    -9525    -9531    -9531    -9526 
   -9531    -9531    -9528    -9528    -9528    -9526    -9528    -9526 
   -9528    -9528    -9528    -9529    -9529    -9526    -9528    -9525 
   -9526    -9528    -9526    -9526    -9529    -9528    -9528    -9529 
   -9529    -9529    -9528    -9528    -9525    -9525    -9531    -9531 
   -9528    -9528    -9526    -9528    -9528    -9525    -9528    -9529 
   -9528    -9528    -9529    -9528    -9528    -9526    -9528    -9531 
   -9528    -9526    -9528    -9528    -9526    -9525    -9525    -9528 
   -9526    -9526    -9528    -9526    -9528    -9531    -9528    -9529 
   -9531    -9526    -9528    -9531    -9528    -9525    -9525    -9525 
   -9528    -9526    -9528    -9529    -9529    -9529    -9528    -9528 
   -9528    -9525    -9528    -9531    -9528    -9532    -9533    -9531 
   -9533    -9537    -9540    -9543    -9539    -9537    -9541    -9532 
   -9517    -9532    -9544    -9518    -9531    -9545    -9409    -9309 
   -9490    -9640    -9490    -9377    -9564    -9702    -9564    -9634 
   -9977    -9900    -9532    -9498    -9508    -9355    -9481    -9567 
   -9104    -8807    -9277    -9850    -9801    -9343    -9271    -9680 
   -9884    -9620    -9101    -9154   -10242   -10474    -9261    -9117 
   -9811    -9742    -9726    -9386    -8545    -8723    -9552    -9876 
   -9418    -9019    -9802   -10354    -9711    -9742   -10046    -9081 
   -8961   -10401   -10369    -8823    -8575    -9513    -9645    -9138 
   -9522   -10157    -9485    -8922    -9921   -10287    -8889    -8432 
  -10143   -11029    -9207    -8079    -9826   -10882    -9378    -8433 
   -9840   -10454    -8611    -8633   -11106   -10777    -8283    -8276 
  -10089   -10349    -8772    -8495   -10369   -10430    -8540    -8953 
  -10486   -10058    -8919    -8668    -9761   -10727    -9578    -8631 
   -9907   -10883    -9679    -8104    -8953   -10795    -9666    -7654 
   -9013   -10953    -9950    -8391    -8904   -10432   -10481    -8922 
   -8831   -10567   -10403    -8414    -8689   -10686   -10145    -8305 
   -9393   -11030    -9486    -7678    -8819   -10968   -10521    -8017 
   -8175   -10794   -10797    -8883    -8926    -9992   -10096    -9423 
   -8802    -9597   -10820    -9884    -8538    -9418   -10407    -9202 
   -7990    -9292   -10690    -9501    -8272    -9451   -10902    -9969 
   -8185    -9070   -11064   -10153    -8456    -9285   -10438    -9624 
   -8449    -9227   -10737   -10011    -8391    -8972   -10366    -9892 
   -8618    -8958   -10355   -10469    -9054    -8272    -9672   -11137 
   -9652    -7763    -9402   -11385    -9626    -7596    -9306   -11473 
   -9944    -7888    -9433   -11076    -9277    -7873    -9521   -10870 
   -9825    -8449    -8966   -10431    -9942    -8360    -9242   -11092 
  -10169    -8264    -8865   -10685   -10419    -8587    -8650   -10223 
  -10038    -9003    -9202    -9648    -9651    -9386    -9270    -9641 
   -9680    -9578    -9525    -9140    -9779   -10504    -9355    -8834 
   -9896    -9869    -9178    -9443    -9571    -9234    -9475    -9771 
   -9289    -9120    -9988    -9991    -8883    -9100    -9991    -9790 
   -9485    -9504    -9460    -9576    -9613    -9394    -9202    -9493 
  -10251   -10145    -8899    -8689    -9930   -10076    -9081    -9217 
   -9774    -9424    -9394    -9880    -9491    -8964    -9707   -10168 
   -9522    -9558    -9609    -8912    -9351   -10087    -9567    -9405 
   -9814    -9574    -9099    -8969    -9612   -10397    -9637    -8797 
   -9747   -10081    -8970    -8995    -9929    -9969    -9520    -9312 
   -9297    -9378    -9553    -9856    -9805    -9319    -9347    -9747 
   -9575    -9231    -9371    -9784    -9826    -9267    -9235   -10174 
  -10150    -8741    -8600   -10141   -10436    -9069    -8756    -9769 
  -10008    -9398    -9045    -9167    -9938   -10382    -9221    -8586 
  -10046   -10551    -8934    -8554   -10187   -10457    -8688    -8444 
  -10407   -10717    -8784    -8532   -10281   -10439    -8807    -8515 
  -10138   -10704    -9081    -8203    -9688   -11065    -9787    -7705 
   -8920   -11638   -10291    -7125    -8509   -11774   -10636    -7728 
   -8463   -10855   -10424    -8322    -8646   -10632   -10436    -8783 
   -8977   -10301    -9933    -8683    -9035   -10006    -9828    -9375 
   -9294    -9416    -9876    -9818    -9146    -9433   -10127    -9553 
   -8872    -9456   -10115    -9674    -8930    -9289   -10056    -9626 
   -9073    -9470    -9602    -9451    -9659    -9605    -9456    -9751 
   -9946    -9576    -9042    -9306    -9988    -9440    -8827    -9825 
  -10099    -8831    -9035   -10579   -10353    -8654    -8540   -10196 
  -10486    -8808    -8621   -10419   -10509    -8599    -8275   -10154 
  -10863    -9201    -8387    -9736   -10412    -9436    -8831    -9312 
   -9923    -9965    -9470    -9207    -9517    -9618    -9297    -9335 
   -9787    -9931    -9472    -9028    -9414   -10017    -9722    -9170 
   -9344    -9733    -9578    -9309    -9625    -9849    -9306    -9120 
   -9822    -9950    -9166    -9030    -9814   -10183    -9745    -9202 
   -9116    -9645   -10012    -9455    -9001    -9458    -9844    -9801 
   -9477    -8899    -9258   -10327   -10103    -8918    -8695    -9748 
  -10481    -9760    -8849    -9186   -10027    -9909    -9031    -9040 
   -9981    -9910    -8868    -8900    -9977   -10211    -9255    -8888 
   -9917   -10289    -9007    -8633   -10162   -10740    -9234    -8268 
   -9433   -10592    -9657    -8615    -9620   -10401    -9289    -8658 
   -9697   -10377    -9416    -8544    -9556   -10625    -9678    -8473 
   -9130   -10513   -10203    -8667    -8777   -10192   -10102    -9036 
   -9181   -10022    -9837    -8928    -9134   -10153    -9887    -8896 
   -9186   -10015    -9801    -9223    -9524   -10014    -9574    -9054 
   -9405    -9818    -9598    -9126    -9223   -10012   -10089    -9103 
   -8978   -10054   -10112    -8916    -8946   -10289   -10307    -8854 
   -8445    -9693   -10335    -9490    -9135    -9559    -9390    -9417 
  -10115    -9917    -8966    -9067   -10052   -10176    -9285    -8966 
   -9579    -9859    -9598    -9475    -9427    -9435    -9564    -9316 
   -9084    -9720   -10152    -9352    -8955    -9728    -9861    -9387 
   -9780   -10087    -9232    -8742    -9728   -10407    -9441    -8691 
   -9504   -10228    -9533    -8696    -9312   -10312    -9857    -8964 
   -9209    -9981   -10060    -9105    -8707    -9910   -10272    -9023 
   -8849    -9829    -9995    -9439    -9273    -9576    -9672    -9626 
   -9616    -9288    -9310    -9813    -9645    -9294    -9481    -9386 
   -9290    -9949   -10137    -9246    -9049    -9836    -9776    -9090 
   -9339   -10052    -9863    -9054    -9151   -10057    -9977    -9089 
   -9067    -9621    -9637    -9482    -9576    -9528    -9535    -9710 
   -9499    -9412    -9786    -9583    -9016    -9443   -10199    -9610 
   -8727    -9510   -10377    -9506    -8919    -9799    -9991    -8930 
   -8783   -10079   -10503    -9153    -8599    -9892   -10481    -9439 
   -8707    -9347   -10138    -9454    -8607    -9630   -10466    -9367 
   -8653    -9624   -10516    -9832    -8631    -9120   -10459    -9836 
   -8374    -9234   -10871   -10065    -8422    -8899   -10362   -10265 
   -9005    -8773    -9710    -9953    -9227    -9089    -9836   -10079 
   -9217    -8676    -9517   -10305    -9803    -9112    -9328    -9861 
   -9705    -9317    -9544    -9826    -9740    -9452    -9107    -9259 
   -9705    -9751    -9620    -9460    -9215    -9174    -9495    -9972 
   -9979    -9317    -9067    -9756    -9957    -9229    -9248   -10000 
   -9882    -9239    -9211    -9682    -9960    -9529    -8928    -9082 
   -9634    -9896    -9639    -9238    -9564    -9954    -9570    -9400 
   -9562    -9499    -9514    -9351    -9313    -9954   -10034    -9267 
   -9130    -9667    -9756    -9385    -9391    -9606    -9455    -9398 
   -9551    -9408    -9207    -9533   -10039    -9657    -8961    -9441 
  -10081    -9597    -9267    -9563    -9427    -9347    -9864    -9842 
   -9232    -9313    -9699    -9533    -9562    -9641    -9042    -9007 
   -9956   -10160    -9451    -9351    -9687    -9364    -9224    -9931 
  -10031    -9267    -9124    -9763    -9869    -9057    -8950   -10010 
  -10125    -9097    -8985    -9861   -10108    -9401    -8954    -9518 
  -10142    -9657    -8905    -9379   -10261    -9822    -8965    -9431 
   -9994    -9332    -8931    -9590   -10080    -9744    -9236    -9274 
   -9748    -9856    -9184    -8982    -9971   -10204    -9115    -8861 
   -9657    -9934    -9599    -9281    -9350    -9806    -9857    -9356 
   -9148    -9404    -9670    -9725    -9564    -9378    -9328    -9435 
   -9711    -9849    -9531    -9100    -9244    -9860    -9846    -9256 
   -9273    -9675    -9761    -9667    -9317    -9201    -9857    -9996 
   -9228    -9197    -9817    -9625    -9146    -9462    -9644    -9258 
   -9651   -10168    -9316    -8754    -9666   -10264    -9744    -9054 
   -9126    -9965   -10092    -9261    -9124    -9747   -10014    -9472 
   -8711    -9261   -10409    -9963    -8965    -9166    -9802    -9792 
   -9103    -9065   -10077   -10034    -9117    -9425    -9957    -9640 
   -9337    -9108    -9478   -10397    -9695    -8394    -9283   -10467 
   -9633    -8672    -9444   -10420    -9668    -8684    -9332   -10145 
   -9747    -9127    -9243    -9686    -9674    -9344    -9315    -9651 
   -9925    -9532    -8897    -9447   -10349    -9525    -8521    -9556 
  -10561    -9580    -8648    -9387   -10223    -9693    -8819    -9256 
  -10440   -10278    -8924    -8658    -9717   -10129    -9386    -9032 
   -9687    -9991    -9416    -9193    -9641    -9767    -9410    -9316 
   -9575    -9626    -9510    -9466    -9301    -9497   -10185    -9815 
   -8625    -9061   -10471   -10231    -8916    -8764    -9904   -10351 
   -9323    -8823    -9575    -9803    -9281    -9239    -9703    -9961 
   -9553    -8969    -9350   -10098    -9792    -9143    -9247    -9694 
   -9788    -9427    -9397    -9896    -9720    -9013    -9167    -9890 
   -9869    -9327    -9475    -9782    -9170    -9099   -10222   -10189 
   -8928    -8912    -9856    -9652    -8765    -9360   -10546    -9738 
   -8564    -9612   -10551    -9418    -8719    -9626   -10015    -9252 
   -8924    -9572   -10147    -9926    -9258    -9143    -9948   -10189 
   -9080    -8586    -9749   -10493    -9467    -8553    -9432   -10443 
   -9609    -8487    -9262   -10362    -9737    -8897    -9439   -10030 
   -9491    -8966    -9306    -9717    -9680    -9367    -9246    -9672 
   -9840    -9379    -9323    -9613    -9471    -9252    -9351    -9509 
   -9491    -9572    -9915    -9782    -9154    -9235    -9941    -9925 
   -9078    -8964   -10162   -10527    -9057    -8665   -10431   -10890 
   -9035    -8372    -9857   -10469    -9553    -9263    -9620    -9748 
   -9999    -9740    -9238    -9923   -10222    -9336    -9359    -9895 
   -9805    -9649    -9427    -9433    -9788    -9502    -9031    -9337 
   -9667    -9506    -9379    -9529    -9556    -8954    -8266    -8417 
   -9316   -10143   -10118    -9721    -9765    -9548    -9162    -9813 
  -10389    -9512    -8753    -9454   -10208    -9548    -8575    -8924 
   -9671    -9514    -9121    -8923    -8789    -9070    -9458    -9404 
   -9401    -9815    -9778    -9053    -9340   -10461   -10185    -9520 
   -9899   -10030    -9998   -10165    -9809    -9664    -9998    -9917 
   -9609    -9512    -9495    -9270    -8735    -8864   -10048   -10235 
   -8885    -8397    -9142    -9589    -9625    -9840   -10192    -9815 
   -8945    -9246   -10111    -9830    -9439   -10050   -10212    -9248 
   -9155   -10345   -10269    -8972    -8938    -9742    -9747    -9026 
   -8459    -8982    -9871    -9649    -9119    -9282    -9402    -9115 
   -8904    -9136    -9672    -9909    -9805    -9717    -9680    -9533 
   -9209    -9574   -10581   -10075    -8344    -8510   -10177   -10099 
   -8914    -9390   -10507   -10004    -9038    -9593   -10648   -10052 
   -8371    -8446   -10289   -10443    -8792    -8692    -9913    -9882 
   -9192    -9483   -10091   -10042    -9668    -9525    -9437    -9063 
   -8881    -9177    -9358    -9489    -9868    -9748    -9111    -9161 
   -9780   -10249   -10733   -10409    -8962    -8626    -9853   -10388 
   -9834    -9286    -9084    -9250    -9146    -8861    -9265    -9177 
   -8590    -9575   -10428    -9099    -8542   -10027   -10660    -9973 
   -9444    -9478   -10253   -10463    -9362    -9189   -10050    -9879 
   -9151    -9080    -9612    -9791    -9070    -9070    -9923    -9292 
   -8487    -9791   -10436    -8949    -8487    -9774   -10424    -9734 
   -8961    -8977    -9269    -9607   -10076    -9586    -8633    -9320 
  -10494   -10034    -9219    -9310    -9657    -9872    -9837    -9475 
   -9109    -9119    -9211    -9090    -9487   -10196    -9981    -9231 
   -9266    -9961    -9902    -8964    -9015   -10234   -10390    -9333 
   -8878    -9378    -9952    -9675    -9032    -9475   -10071    -9398 
   -8954    -9810   -10388    -9864    -9201    -9135    -9763   -10114 
   -9396    -9077    -9610    -9432    -9139    -9736    -9956    -9435 
   -9013    -8914    -9459    -9953    -9211    -8800    -9903   -10366 
   -9466    -8982    -9531   -10382   -10382    -9261    -8892    -9895 
  -10006    -8969    -8785    -9356    -9753   -10003    -9919    -9448 
   -9057    -9100    -9394    -9690    -9861    -9431    -8995    -9657 
  -10064    -9193    -8999   -10076   -10547    -9688    -8668    -9032 
  -10211    -9869    -8637    -9107   -10478   -10139    -8845    -9136 
  -10143    -9713    -8857    -9212   -10142   -10060    -9001    -8885 
   -9896    -9945    -8942    -8941   -10166   -10623    -9391    -8253 
   -9008   -10331    -9992    -8761    -8911   -10220   -10477    -9387 
   -8889    -9702   -10304    -9649    -9117    -9671    -9684    -8777 
   -8926   -10116   -10440    -9524    -8723    -9144    -9931    -9813 
   -9504    -9564    -9410    -9198    -9234    -9524    -9765    -9576 
   -9694   -10118    -9757    -9161    -9464   -10061    -9597    -8694 
   -9113   -10241   -10346    -9310    -8263    -8743   -10114    -9950 
   -9150    -9628    -9767    -8835    -8770    -9717   -10318   -10110 
   -9346    -8849    -9093    -9767   -10285    -9771    -9020    -9529 
  -10011    -9513    -9464    -9852    -9555    -9065    -9332    -9892 
   -9833    -9589    -9420    -9036    -9494   -10370    -9969    -9373 
   -9379    -9227    -9362    -9562    -9347    -9464    -9450    -9266 
   -9919   -10060    -9270    -9487   -10062    -9602    -9224    -9643 
   -9693    -9072    -9185    -9795    -9533    -9275    -9651    -9652 
   -9359    -9104    -8989    -9865   -10558    -9293    -8542    -9898 
  -10258    -9309    -9537    -9991    -9474    -9046    -9088    -9639 
  -10281    -9732    -8916    -9439    -9904    -9402    -9173    -9447 
   -9801    -9992    -9652    -9193    -9192    -9460    -9707    -9832 
   -9726    -9385    -9159    -9676   -10339    -9651    -8615    -9143 
   -9976    -9595    -9062    -9261    -9801    -9895    -9063    -8711 
   -9660    -9933    -9267    -9375    -9798    -9605    -9193    -9246 
   -9988   -10292    -9531    -9038    -9417    -9701    -9416    -9462 
  -10250   -10343    -9258    -8835    -9647    -9902    -9108    -9011 
   -9911    -9965    -9104    -9188   -10089    -9903    -8876    -9239 
  -10438    -9748    -8572    -9629   -10453    -9196    -8731    -9864 
  -10207    -9359    -8896    -9377    -9892    -9599    -9026    -9321 
  -10025    -9765    -9027    -9163    -9832    -9984    -9526    -9055 
   -9460   -10168    -9414    -8517    -9626   -10562    -9477    -8788 
