Origin Time       2025/03/30 21:30:00
Lat.              38.535
Long.             142.295
Depth. (km)       44
Mag.              4.3
Station Code      IWTH22
Station Lat.      39.3340
Station Long.     141.3015
Station Height(m) 160
Record Time       2025/03/30 21:31:30
Sampling Freq(Hz) 100Hz
Duration Time(s)  120
Dir.              3
Scale Factor      3923(gal)/8224838
Max. Acc. (gal)   0.201
Last Correction   2025/03/30 21:31:30
Memo.             
[...]
   11604    11610    11614    11615    11620    11631    11638    11639 
   11641    11645    11650    11654    11662    11669    11666    11655 
   11645    11643    11637    11616    11600    11601    11611    11619 
   11628    11642    11650    11642    11623    11626    11653    11649 
   11604    11589    11619    11620    11584    11556    11543    11565 
   11603    11574    11520    11560    11635    11630    11593    11604 
   11632    11639    11631    11627    11641    11651    11639    11626 
   11607    11576    11561    11585    11620    11622    11595    11604 
   11642    11639    11607    11603    11607    11593    11603    11638 
   11649    11631    11616    11610    11628    11642    11601    11557 
   11581    11638    11639    11608    11623    11638    11607    11588 
   11589    11591    11619    11634    11595    11576    11628    11672 
   11641    11580    11568    11620    11666    11662    11654    11647 
   11627    11631    11608    11543    11569    11645    11643    11618 
   11614    11611    11626    11635    11615    11619    11661    11689 
   11678    11645    11632    11659    11649    11560    11497    11526 
   11566    11572    11581    11626    11653    11601    11554    11592 
   11638    11616    11604    11668    11661    11526    11516    11705 
   11782    11638    11550    11634    11716    11716    11678    11604 
   11557    11610    11658    11614    11535    11523    11596    11653 
   11624    11561    11542    11603    11664    11661    11622    11593 
   11638    11691    11641    11564    11554    11585    11611    11614 
   11599    11568    11576    11661    11705    11627    11553    11601 
   11662    11597    11533    11588    11632    11601    11628    11686 
   11649    11619    11669    11686    11666    11646    11601    11610 
   11678    11624    11510    11546    11607    11557    11568    11657 
   11628    11566    11631    11639    11546    11566    11635    11631 
   11615    11589    11584    11646    11692    11664    11592    11535 
   11588    11692    11646    11524    11531    11596    11620    11655 
   11677    11631    11618    11632    11587    11623    11695    11564 
   11472    11620    11685    11591    11592    11661    11703    11719 
   11646    11592    11661    11672    11603    11610    11632    11592 
   11576    11612    11611    11572    11562    11565    11561    11597 
   11653    11618    11539    11599    11730    11715    11608    11610 
   11664    11628    11614    11655    11588    11523    11616    11669 
   11574    11539    11611    11637    11631    11668    11659    11607 
   11612    11637    11607    11577    11605    11619    11595    11608 
   11589    11522    11587    11704    11618    11510    11615    11699 
   11632    11595    11612    11624    11645    11649    11635    11645 
   11655    11657    11646    11599    11560    11568    11593    11584 
   11550    11570    11639    11668    11619    11566    11591    11659 
   11668    11612    11608    11654    11647    11639    11658    11603 
   11580    11654    11624    11543    11591    11643    11619    11603 
   11605    11564    11535    11618    11699    11666    11631    11645 
   11655    11677    11696    11638    11574    11603    11622    11573 
   11572    11589    11526    11504    11560    11557    11577    11673 
   11678    11618    11649    11727    11689    11599    11615    11619 
   11551    11595    11680    11630    11574    11600    11595    11572 
   11603    11626    11589    11572    11642    11666    11568    11542 
   11622    11630    11569    11546    11614    11711    11692    11614 
   11631    11685    11670    11651    11668    11635    11593    11605 
   11607    11589    11572    11546    11577    11650    11669    11620 
   11604    11649    11637    11591    11620    11608    11522    11549 
   11638    11632    11627    11650    11623    11619    11659    11669 
   11651    11630    11637    11669    11616    11543    11572    11599 
   11588    11595    11565    11551    11630    11643    11570    11600 
   11684    11668    11588    11566    11622    11649    11630    11653 
   11672    11672    11699    11647    11547    11572    11635    11587 
   11516    11524    11547    11554    11620    11686    11650    11610 
   11653    11716    11686    11603    11619    11696    11699    11650 
   11600    11558    11560    11599    11611    11573    11526    11519 
   11596    11700    11680    11558    11557    11689    11699    11568 
   11574    11684    11634    11550    11627    11664    11592    11612 
   11659    11620    11603    11634    11651    11639    11587    11551 
   11587    11605    11558    11545    11599    11641    11623    11553 
   11551    11708    11797    11681    11605    11641    11638    11647 
   11673    11639    11603    11568    11537    11558    11600    11637 
   11624    11565    11578    11611    11599    11643    11681    11618 
   11564    11588    11638    11638    11595    11612    11665    11635 
   11584    11624    11661    11604    11576    11624    11608    11535 
   11572    11662    11615    11520    11538    11604    11627    11595 
   11585    11670    11713    11657    11646    11681    11654    11615 
   11623    11620    11610    11608    11592    11589    11604    11624 
   11624    11569    11550    11626    11634    11560    11591    11674 
   11662    11615    11604    11605    11610    11639    11638    11581 
   11615    11684    11651    11635    11643    11615    11612    11601 
   11583    11605    11588    11553    11607    11635    11574    11593 
   11654    11615    11589    11624    11623    11642    11672    11623 
   11595    11632    11642    11634    11650    11654    11643    11631 
   11624    11619    11593    11584    11585    11551    11520    11542 
   11604    11668    11664    11592    11578    11649    11691    11680 
   11623    11568    11607    11672    11630    11564    11584    11592 
   11535    11541    11611    11611    11549    11543    11604    11642 
   11666    11718    11727    11661    11616    11624    11642    11650 
   11612    11584    11618    11631    11570    11541    11604    11618 
   11577    11646    11674    11534    11507    11653    11678    11607 
   11642    11692    11655    11637    11684    11712    11661    11596 
   11616    11661    11588    11469    11483    11561    11545    11492 
   11539    11676    11724    11664    11677    11707    11624    11587 
   11647    11643    11573    11561    11597    11623    11643    11630 
   11564    11550    11601    11615    11572    11547    11591    11631 
   11612    11584    11595    11634    11655    11647    11672    11692 
   11645    11645    11713    11700    11631    11601    11569    11581 
   11646    11622    11550    11543    11581    11639    11641    11591 
   11626    11682    11653    11615    11618    11639    11651    11619 
   11607    11618    11573    11565    11630    11592    11515    11587 
   11639    11584    11614    11701    11696    11658    11664    11651 
   11604    11631    11691    11647    11574    11577    11596    11546 
   11487    11524    11601    11595    11550    11593    11664    11651 
   11659    11716    11688    11639    11651    11638    11587    11549 
   11542    11551    11576    11626    11630    11570    11578    11646 
   11620    11560    11585    11623    11619    11603    11610    11655 
   11653    11599    11638    11713    11661    11584    11649    11726 
   11673    11592    11565    11587    11618    11578    11558    11607 
   11599    11620    11704    11661    11569    11577    11603    11596 
   11619    11664    11642    11592    11600    11612    11642    11677 
   11605    11556    11645    11692    11614    11542    11583    11653 
   11593    11506    11541    11599    11619    11649    11634    11585 
   11620    11681    11651    11616    11668    11700    11653    11619 
   11622    11608    11580    11550    11512    11484    11512    11599 
   11651    11622    11635    11730    11713    11610    11645    11707 
   11599    11512    11584    11588    11554    11647    11674    11583 
   11587    11601    11538    11580    11662    11580    11512    11614 
   11677    11657    11699    11713    11628    11604    11680    11736 
   11707    11608    11557    11608    11634    11584    11560    11588 
   11600    11587    11630    11670    11610    11561    11593    11622 
   11604    11587    11638    11708    11703    11650    11604    11601 
   11645    11634    11583    11589    11610    11612    11628    11618 
   11592    11592    11585    11593    11608    11572    11557    11604 
   11642    11646    11593    11538    11597    11665    11603    11523 
   11558    11608    11577    11572    11654    11676    11643    11691 
   11708    11634    11611    11627    11597    11560    11564    11603 
   11561    11512    11635    11715    11619    11583    11649    11686 
   11638    11591    11676    11730    11630    11605    11666    11628 
   11576    11593    11597    11591    11603    11596    11588    11618 
   11653    11630    11572    11585    11655    11657    11622    11627 
   11612    11584    11630    11701    11705    11646    11580    11581 
   11643    11614    11508    11545    11647    11587    11480    11550 
   11684    11669    11597    11642    11688    11643    11646    11664 
   11599    11616    11697    11634    11547    11611    11654    11576 
   11554    11628    11657    11611    11580    11580    11583    11616 
   11642    11551    11457    11530    11668    11696    11645    11614 
   11620    11655    11688    11651    11611    11646    11650    11547 
   11496    11588    11655    11600    11551    11578    11632    11666 
   11631    11599    11639    11659    11624    11599    11587    11591 
   11642    11688    11692    11699    11661    11630    11696    11699 
   11592    11545    11561    11573    11588    11561    11522    11580 
   11651    11639    11628    11661    11654    11600    11585    11607 
   11646    11672    11610    11556    11615    11681    11650    11580 
   11591    11646    11603    11558    11608    11593    11530    11561 
   11615    11597    11554    11589    11701    11726    11626    11608 
   11703    11692    11595    11600    11674    11668    11574    11546 
   11607    11599    11535    11553    11589    11535    11514    11651 
   11769    11692    11588    11616    11665    11627    11574    11604 
   11661    11678    11669    11650    11641    11604    11535    11529 
   11581    11605    11576    11564    11605    11597    11578    11680 
   11726    11600    11562    11678    11715    11680    11715    11728 
   11647    11628    11691    11662    11588    11597    11631    11599 
   11531    11551    11615    11607    11584    11562    11526    11565 
   11653    11655    11569    11526    11596    11674    11670    11622 
   11628    11697    11678    11604    11638    11677    11638    11614 
   11589    11565    11599    11597    11531    11503    11510    11515 
   11550    11611    11620    11576    11612    11739    11792    11739 
   11685    11696    11713    11672    11618    11569    11493    11454 
   11514    11616    11638    11574    11556    11581    11595    11653 
   11736    11735    11678    11649    11637    11642    11659    11620 
   11541    11539    11561    11483    11448    11564    11680    11647 
   11531    11543    11645    11627    11581    11647    11705    11697 
   11713    11759    11759    11695    11632    11630    11612    11551 
   11551    11604    11595    11538    11529    11564    11585    11599 
   11585    11580    11657    11686    11612    11600    11658    11682 
   11673    11707    11745    11662    11593    11659    11607    11430 
   11481    11639    11604    11534    11527    11511    11545    11596 
   11615    11665    11662    11576    11585    11684    11666    11550 
   11558    11661    11647    11610    11677    11707    11646    11608 
   11628    11661    11668    11649    11620    11596    11601    11662 
   11701    11623    11570    11646    11670    11593    11593    11653 
   11666    11650    11576    11511    11564    11607    11570    11562 
   11581    11556    11578    11678    11661    11534    11568    11750 
   11766    11616    11585    11643    11623    11570    11576    11664 
   11719    11638    11564    11624    11677    11600    11550    11618 
   11631    11556    11537    11591    11642    11627    11622    11691 
   11655    11546    11605    11692    11607    11535    11593    11647 
   11632    11577    11538    11580    11626    11643    11685    11627 
   11542    11654    11747    11622    11584    11726    11742    11661 
   11697    11720    11669    11723    11780    11689    11653    11745 
   11749    11653    11627    11627    11568    11546    11562    11531 
   11476    11448    11477    11527    11504    11454    11460    11460 
   11429    11415    11426    11458    11466    11429    11458    11522 
   11470    11414    11469    11515    11469    11410    11483    11669 
   11715    11668    11781    11907    11884    11854    11840    11739 
   11632    11658    11727    11662    11529    11537    11695    11819 
   11824    11817    11867    11893    11858    11815    11782    11761 
   11757    11718    11597    11511    11554    11631    11655    11611 
   11510    11489    11611    11703    11670    11662    11723    11705 
   11600    11520    11484    11456    11394    11296    11236    11214 
   11194    11236    11371    11511    11597    11641    11677    11759 
   11838    11820    11805    11828    11763    11696    11708    11658 
   11573    11533    11395    11217    11275    11462    11518    11530 
   11628    11735    11807    11882    11932    11870    11732    11723 
   11853    11867    11799    11827    11827    11711    11608    11577 
   11526    11437    11456    11569    11623    11665    11758    11781 
   11731    11745    11718    11584    11468    11368    11325    11415 
   11541    11564    11427    11291    11396    11614    11689    11682 
   11684    11649    11657    11792    11921    11871    11699    11569 
   11492    11441    11470    11566    11638    11603    11510    11511 
   11519    11458    11504    11620    11627    11530    11469    11615 
   11854    11917    11796    11631    11553    11601    11634    11560 
   11515    11550    11545    11526    11574    11605    11589    11616 
   11662    11645    11610    11624    11635    11635    11680    11677 
   11583    11550    11664    11809    11839    11773    11740    11800 
   11869    11805    11647    11607    11707    11720    11639    11641 
   11632    11522    11477    11562    11618    11585    11577    11616 
   11665    11763    11789    11616    11524    11661    11669    11438 
   11313    11375    11421    11410    11408    11479    11569    11533 
   11496    11646    11762    11658    11495    11453    11534    11616 
   11626    11627    11672    11730    11734    11689    11674    11655 
   11580    11553    11534    11429    11430    11587    11611    11464 
   11477    11684    11745    11682    11715    11745    11713    11695 
   11662    11608    11573    11654    11782    11757    11681    11705 
   11682    11634    11769    11836    11577    11462    11734    11820 
   11558    11419    11452    11435    11452    11529    11581    11616 
   11583    11542    11604    11599    11504    11581    11739    11734 
   11701    11765    11815    11820    11786    11697    11657    11715 
   11715    11627    11570    11565    11620    11673    11585    11416 
   11371    11480    11545    11435    11368    11523    11678    11695 
   11709    11713    11709    11757    11734    11630    11622    11659 
   11551    11399    11437    11539    11470    11327    11358    11526 
   11565    11527    11570    11556    11547    11650    11619    11492 
   11503    11623    11767    11823    11840    11955    11961    11815 
   11774    11755    11605    11495    11550    11673    11697    11635 
   11653    11757    11823    11836    11854    11817    11643    11491 
   11493    11523    11493    11473    11504    11557    11588    11626 
   11677    11618    11492    11515    11632    11635    11512    11421 
   11519    11646    11589    11523    11514    11470    11476    11523 
   11554    11538    11487    11597    11794    11769    11665    11708 
   11711    11655    11699    11708    11724    11865    11794    11562 
   11597    11703    11653    11588    11500    11491    11664    11776 
   11678    11576    11632    11708    11677    11611    11518    11456 
   11534    11541    11388    11398    11543    11551    11484    11484 
   11574    11704    11723    11655    11664    11692    11623    11607 
   11704    11681    11561    11574    11659    11659    11601    11658 
   11800    11750    11591    11634    11720    11620    11556    11603 
   11581    11560    11651    11727    11685    11676    11801    11836 
   11716    11669    11708    11674    11600    11576    11500    11368 
   11399    11530    11500    11414    11456    11519    11570    11700 
   11796    11696    11520    11503    11620    11682    11682    11722 
   11746    11662    11574    11564    11546    11557    11622    11591 
   11522    11553    11585    11543    11496    11524    11631    11672 
   11549    11481    11595    11642    11573    11600    11680    11676 
   11639    11643    11677    11700    11684    11624    11608    11615 
   11554    11564    11655    11655    11635    11658    11665    11738 
   11827    11777    11730    11784    11761    11666    11653    11654 
   11597    11557    11499    11385    11358    11465    11518    11429 
   11381    11515    11677    11730    11697    11657    11649    11619 
   11610    11705    11774    11684    11531    11560    11747    11745 
   11584    11560    11583    11596    11699    11727    11596    11542 
   11608    11666    11727    11750    11669    11601    11630    11672 
   11641    11599    11601    11554    11487    11500    11553    11558 
   11477    11439    11557    11653    11614    11589    11638    11669 
   11688    11715    11681    11627    11584    11506    11500    11597 
   11642    11608    11551    11569    11681    11712    11634    11605 
   11639    11639    11553    11438    11472    11632    11720    11735 
   11715    11646    11654    11753    11792    11751    11685    11646 
   11699    11773    11701    11546    11514    11583    11638    11668 
   11603    11481    11526    11672    11627    11483    11475    11491 
   11461    11502    11518    11453    11477    11572    11607    11605 
   11583    11566    11662    11763    11716    11659    11713    11750 
   11691    11631    11591    11515    11477    11539    11615    11651 
   11665    11680    11709    11716    11720    11740    11678    11600 
   11681    11828    11861    11736    11603    11638    11716    11666 
   11562    11464    11418    11473    11524    11512    11538    11619 
   11622    11553    11581    11670    11628    11518    11580    11703 
   11628    11556    11624    11616    11607    11681    11622    11510 
   11500    11522    11570    11599    11596    11635    11626    11587 
   11645    11681    11620    11589    11632    11704    11746    11693 
   11620    11622    11630    11637    11661    11619    11562    11593 
