Origin Time       2025/03/30 21:30:00
Lat.              38.535
Long.             142.295
Depth. (km)       44
Mag.              4.3
Station Code      IWTH22
Station Lat.      39.3340
Station Long.     141.3015
Station Height(m) 260
Record Time       2025/03/30 21:31:30
Sampling Freq(Hz) 100Hz
Duration Time(s)  120
Dir.              5
Scale Factor      7845(gal)/8223790
Max. Acc. (gal)   1.821
Last Correction   2025/03/30 21:31:30
Memo.             
[...]
    4163     4206     4364     4423     4384     4382     4450     4477 
    4414     4356     4369     4399     4378     4329     4337     4396 
    4436     4484     4552     4522     4386     4270     4257     4311 
    4368     4417     4456     4449     4352     4261     4349     4482 
    4445     4411     4568     4712     4560     4159     3933     4125 
    4421     4498     4440     4477     4621     4623     4430     4256 
    4218     4245     4247     4303     4473     4563     4483     4417 
    4477     4509     4328     4109     4151     4414     4648     4584 
    4279     4217     4537     4776     4541     4039     3917     4395 
    4862     4745     4272     4039     4207     4442     4379     4113 
    4131     4580     4973     4866     4444     4197     4251     4322 
    4274     4216     4249     4409     4567     4530     4376     4337 
    4409     4410     4272     4175     4353     4681     4772     4517 
    4207     4097     4153     4310     4452     4464     4449     4480 
    4488     4414     4290     4311     4537     4688     4536     4268 
    4159     4237     4448     4500     4230     4143     4468     4672 
    4479     4180     4136     4421     4726     4760     4507     4225 
    4221     4432     4534     4315     4054     4201     4484     4490 
    4387     4313     4330     4549     4668     4387     4163     4357 
    4522     4463     4453     4438     4332     4260     4280     4344 
    4392     4463     4542     4529     4429     4212     4027     4201 
    4561     4711     4554     4341     4445     4649     4468     4052 
    3910     4288     4818     4868     4464     4210     4303     4383 
    4302     4225     4286     4425     4498     4542     4507     4330 
    4212     4221     4298     4399     4480     4594     4696     4672 
    4511     4280     4095     4086     4267     4360     4261     4298 
    4480     4561     4495     4353     4330     4549     4745     4537 
    4099     4029     4372     4560     4465     4472     4529     4411 
    4293     4266     4298     4391     4444     4391     4310     4318 
    4380     4419     4502     4572     4546     4461     4291     4162 
    4247     4417     4488     4407     4279     4295     4448     4529 
    4428     4390     4507     4511     4459     4457     4321     4166 
    4256     4438     4433     4356     4425     4521     4472     4283 
    4159     4325     4545     4519     4417     4419     4428     4294 
    4158     4299     4602     4703     4542     4384     4363     4305 
    4214     4271     4398     4418     4368     4410     4482     4411 
    4324     4402     4537     4488     4210     4090     4448     4769 
    4507     4072     4085     4411     4654     4685     4469     4266 
    4407     4587     4434     4135     4028     4224     4487     4540 
    4428     4368     4488     4612     4444     4168     4218     4556 
    4849     4806     4337     3989     4186     4459     4352     4052 
    3978     4216     4511     4702     4693     4584     4537     4426 
    4268     4267     4432     4569     4476     4222     4153     4320 
    4380     4311     4349     4468     4541     4504     4507     4604 
    4453     4185     4168     4275     4468     4583     4361     4248 
    4495     4585     4314     4129     4217     4310     4374     4502 
    4641     4662     4515     4386     4283     4091     4129     4487 
    4662     4510     4309     4233     4356     4495     4414     4301 
    4434     4641     4598     4363     4198     4159     4176     4276 
    4460     4560     4517     4442     4401     4444     4507     4421 
    4315     4395     4486     4384     4209     4167     4336     4549 
    4530     4317     4236     4382     4480     4419     4383     4391 
    4371     4356     4388     4507     4581     4463     4368     4401 
    4359     4302     4390     4538     4554     4361     4240     4326 
    4309     4131     4101     4340     4631     4685     4515     4449 
    4557     4564     4413     4317     4267     4178     4199     4426 
    4611     4488     4216     4153     4318     4436     4449     4509 
    4587     4564     4441     4295     4271     4376     4465     4437 
    4306     4216     4257     4405     4569     4567     4309     4089 
    4256     4615     4735     4630     4473     4355     4337     4306 
    4241     4256     4209     4141     4290     4479     4548     4615 
    4652     4618     4522     4284     4118     4236     4409     4477 
    4436     4256     4170     4305     4491     4595     4510     4293 
    4213     4384     4641     4666     4396     4152     4128     4338 
    4675     4720     4369     4118     4183     4297     4336     4398 
    4523     4590     4511     4483     4545     4486     4364     4302 
    4218     4147     4214     4425     4634     4592     4305     4207 
    4361     4421     4471     4602     4558     4341     4110     4045 
    4309     4583     4560     4498     4461     4340     4374     4521 
    4473     4330     4290     4338     4405     4337     4149     4225 
    4608     4758     4558     4326     4216     4299     4419     4359 
    4255     4310     4500     4629     4635     4579     4433     4270 
    4147     4079     4228     4491     4580     4509     4401     4372 
    4449     4391     4198     4221     4471     4585     4417     4234 
    4337     4600     4668     4426     4189     4299     4552     4553 
    4341     4186     4195     4284     4401     4491     4434     4368 
    4467     4499     4361     4378     4554     4533     4360     4326 
    4428     4490     4367     4133     4052     4176     4341     4482 
    4622     4730     4599     4276     4225     4473     4577     4409 
    4268     4364     4452     4326     4180     4232     4422     4480 
    4392     4425     4546     4509     4352     4302     4410     4444 
    4264     4202     4407     4517     4499     4530     4479     4356 
    4297     4303     4409     4498     4437     4410     4445     4345 
    4251     4301     4336     4324     4371     4511     4665     4619 
    4305     4021     4068     4367     4660     4785     4716     4475 
    4156     3969     4064     4367     4611     4604     4426     4352 
    4517     4631     4503     4352     4240     4132     4179     4309 
    4348     4399     4467     4376     4276     4438     4727     4803 
    4553     4261     4274     4426     4361     4182     4144     4236 
    4364     4423     4418     4491     4540     4487     4507     4437 
    4229     4375     4729     4626     4164     3889     4083     4536 
    4692     4484     4351     4459     4545     4391     4218     4284 
    4436     4430     4295     4301     4518     4675     4611     4423 
    4193     4070     4260     4533     4519     4398     4441     4536 
    4487     4272     4124     4239     4479     4625     4552     4337 
    4268     4384     4417     4305     4284     4351     4313     4299 
    4476     4665     4645     4473     4382     4388     4361     4329 
    4329     4305     4261     4174     4060     4212     4650     4861 
    4703     4584     4513     4310     4193     4186     4160     4249 
    4384     4415     4457     4567     4642     4633     4503     4240 
    4091     4189     4272     4290     4382     4492     4594     4561 
    4352     4307     4395     4384     4491     4711     4712     4422 
    4063     3998     4245     4330     4178     4266     4657     4876 
    4662     4255     4044     4128     4332     4517     4615     4657 
    4671     4545     4294     4186     4287     4383     4328     4207 
    4210     4299     4384     4504     4536     4418     4405     4484 
    4380     4243     4379     4619     4571     4298     4226     4419 
    4650     4699     4337     3939     4068     4384     4456     4440 
    4464     4503     4394     4099     4018     4378     4845     4889 
    4526     4341     4437     4438     4291     4207     4261     4283 
    4149     4081     4341     4772     4935     4666     4284     4183 
    4332     4438     4332     4059     4006     4494     4942     4665 
    4178     4197     4491     4529     4259     4195     4510     4627 
    4417     4301     4378     4432     4209     4025     4371     4752 
    4654     4445     4410     4396     4307     4202     4266     4568 
    4711     4580     4552     4445     4062     3883     4056     4305 
    4568     4698     4536     4392     4459     4484     4502     4600 
    4507     4234     4081     4136     4349     4514     4452     4333 
    4352     4487     4623     4541     4268     4203     4355     4363 
    4243     4257     4433     4498     4355     4378     4621     4633 
    4487     4507     4437     4225     4151     4153     4175     4321 
    4541     4722     4750     4502     4109     4021     4283     4452 
    4448     4509     4615     4531     4295     4230     4356     4463 
    4407     4174     4091     4390     4677     4599     4367     4291 
    4437     4560     4405     4232     4378     4626     4657     4419 
    4206     4318     4423     4205     4018     4152     4526     4776 
    4596     4320     4314     4441     4558     4639     4572     4328 
    4106     4106     4260     4406     4434     4313     4237     4419 
    4684     4671     4367     4174     4310     4487     4428     4243 
    4261     4554     4696     4429     4202     4379     4526     4341 
    4140     4145     4430     4769     4685     4345     4209     4260 
    4333     4326     4288     4384     4496     4455     4491     4669 
    4594     4260     4089     4198     4359     4392     4396     4550 
    4753     4666     4259     4021     4213     4415     4405     4402 
    4406     4405     4496     4500     4322     4232     4359     4406 
    4221     4203     4523     4672     4455     4272     4321     4453 
    4476     4379     4390     4625     4756     4490     4155     4139 
    4310     4459     4498     4391     4194     3981     3950     4322 
    4773     4891     4795     4579     4282     4054     3981     4148 
    4383     4529     4730     4780     4554     4436     4496     4459 
    4216     3989     4072     4342     4504     4482     4341     4345 
    4531     4496     4247     4145     4287     4602     4738     4430 
    4135     4251     4464     4422     4222     4191     4456     4712 
    4692     4499     4337     4275     4299     4378     4448     4448 
    4417     4432     4414     4297     4259     4411     4514     4418 
    4303     4193     4090     4303     4656     4600     4411     4554 
    4738     4664     4448     4170     3977     4077     4342     4552 
    4675     4734     4642     4344     4125     4205     4336     4309 
    4307     4434     4511     4577     4652     4442     4081     3944 
    4037     4294     4548     4492     4291     4334     4504     4646 
    4818     4738     4371     4144     4097     4143     4380     4665 
    4758     4552     4164     4078     4395     4527     4322     4168 
    4226     4461     4536     4301     4256     4498     4635     4644 
    4517     4256     4141     4248     4475     4642     4468     4147 
    4172     4492     4681     4638     4554     4468     4372     4240 
    4013     3962     4313     4708     4693     4352     4193     4372 
    4517     4472     4441     4484     4453     4298     4120     4081 
    4237     4396     4448     4590     4800     4695     4361     4359 
    4603     4473     4012     3886     4230     4563     4611     4433 
    4252     4263     4406     4514     4518     4438     4360     4407 
    4500     4368     4090     4009     4221     4540     4730     4762 
    4768     4730     4471     4117     4040     4222     4387     4368 
    4222     4251     4527     4707     4602     4422     4347     4295 
    4209     4139     4074     4120     4440     4754     4749     4554 
    4465     4635     4704     4357     4039     4074     4293     4440 
    4320     4174     4280     4379     4294     4320     4611     4747 
    4445     4179     4344     4664     4765     4538     4185     4106 
    4338     4558     4569     4386     4264     4441     4568     4318 
    4125     4275     4456     4374     4104     4114     4598     4988 
    4758     4286     4170     4237     4233     4251     4256     4334 
    4560     4673     4540     4309     4162     4185     4241     4257 
    4332     4380     4332     4266     4213     4257     4378     4334 
    4243     4438     4772     4893     4753     4479     4175     3956 
    3979     4243     4545     4698     4614     4475     4540     4718 
    4808     4801     4576     4189     4041     4187     4487     4818 
    4764     4411     4365     4565     4614     4530     4504     4596 
    4579     4299     4077     4120     4225     4221     4162     4172 
    4306     4544     4841     5009     4911     4680     4267     3564 
    3229     3701     4164     4160     4198     4407     4595     4687 
    4564     4479     4753     4972     4634     3952     3535     3719 
    4131     4282     4405     4806     5030     4631     3993     3721 
    3974     4464     4712     4573     4390     4384     4413     4425 
    4580     4889     5077     4909     4480     4054     3954     4342 
    4779     4788     4502     4144     3828     3701     3742     3886 
    4183     4538     4754     4887     5094     5219     5054     4675 
    4239     4156     4654     5015     4639     3861     3129     2839 
    3063     3321     3622     4422     5491     6184     6303     5985 
    5312     4418     3827     3825     3767     3488     3697     4387 
    4995     5108     4564     3828     3554     3786     4082     4216 
    4287     4307     4314     4519     4916     5198     5042     4367 
    3730     3858     4521     4980     5080     5030     4827     4210 
    3248     2849     3654     4779     5009     4579     4499     4801 
    4749     4353     4275     4621     4704     4071     3489     3836 
    4666     5238     5363     4986     4357     4051     4091     3874 
    3365     3334     4128     5097     5481     5393     5204     4773 
    4025     3308     3118     3572     4270     4819     4884     4581 
    4575     4914     5009     4729     4391     4032     3453     2970 
    3279     4369     5366     5491     4868     4352     4433     4718 
    4800     4776     4726     4525     4151     3813     3933     4540 
    4951     4698     4151     3847     3917     4251     4407     4216 
    4361     4903     4992     4534     4144     4152     4247     4174 
    4290     4595     4604     4402     4413     4537     4468     4261 
    4225     4619     5089     4912     4268     3915     3823     3551 
    3262     3481     4394     5420     5698     5279     4814     4440 
    3991     3505     3418     4093     5030     5448     5166     4575 
    4216     4024     3678     3615     4244     5053     5494     5382 
    4595     3738     3572     3703     3546     3477     4074     5184 
    6049     6045     5162     4063     3554     3613     3639     3676 
    4210     5063     5402     4812     3991     3673     3831     4233 
    4437     4290     4291     4529     4677     4545     4170     4086 
    4633     5225     5185     4753     4561     4378     3792     3376 
    3650     4349     4882     4769     4352     4260     4417     4477 
    4468     4567     4545     4175     3881     3955     4216     4668 
    5150     5154     4796     4718     4855     4533     3832     3508 
    3693     4106     4477     4423     4241     4514     4912     4923 
    4518     3993     3870     4101     4164     4311     4845     5154 
    4773     4071     3793     4260     4820     4753     4355     4206 
    4239     4183     3958     3744     3975     4502     4818     5050 
    5302     5111     4450     3873     3682     3948     4457     4739 
    4544     3977     3667     4075     4700     5054     5092     4727 
    4191     3902     3792     3735     4028     4603     4869     4743 
    4573     4433     4384     4413     4353     4429     4737     4714 
    4255     4156     4637     4851     4477     4128     4144     4369 
    4446     4182     3973     4108     4220     4222     4388     4487 
    4572     5121     5643     5344     4483     3765     3596     3902 
    4045     3832     4141     4914     4920     4417     4388     4483 
    4222     3940     3936     4151     4392     4639     4981     5186 
    5053     4800     4502     3954     3326     3203     3742     4418 
    4827     4835     4394     3979     4185     4892     5377     5169 
    4641     4345     4371     4406     4056     3532     3543     4147 
    4509     4229     3969     4348     5158     5621     5248     4495 
    4064     4033     4116     4058     3987     4329     4754     4433 
    3719     3766     4452     4716     4602     4811     5157     5017 
    4351     3824     4117     4850     4982     4361     3790     3643 
    3522     3472     3989     4796     5425     5757     5355     4455 
    4039     4017     4126     4691     4986     4388     3746     3559 
    3659     4081     4419     4365     4585     5080     4881     4272 
    4202     4599     5008     5009     4541     4224     4347     4392 
    3946     3568     4008     4719     4638     3981     3784     4203 
    4639     4770     4629     4494     4622     4758     4477     3981 
    3937     4441     4881     4808     4426     4271     4369     4245 
    3932     3894     4288     4864     5107     4797     4326     4047 
    3923     3967     4315     4756     4861     4503     4018     3890 
    4031     4087     4205     4558     4953     5227     5254     4895 
    4313     3825     3489     3318     3541     4082     4395     4386 
    4568     5086     5427     5236     4801     4575     4615     4587 
    4255     3889     3909     4133     4110     4087     4625     5197 
    4810     4060     4036     4267     4225     4189     4135     4189 
    4645     4993     4834     4668     4573     4153     3916     4294 
    4599     4479     4311     4229     4125     3943     3736     3757 
    4313     5223     5605     5042     4406     4340     4286     3855 
    3516     3759     4415     4869     4885     4684     4453     4368 
    4519     4654     4561     4409     4313     4147     3970     3892 
    3851     4008     4338     4388     4378     4846     5321     5329 
    5189     5003     4634     4139     3655     3389     3416     3782 
    4421     4912     5001     4851     4548     4136     3893     3886 
    4151     4897     5503     5170     4410     4037     4166     4526 
    4561     4168     4160     4729     4803     3896     2974     3036 
    3942     4784     5009     5008     5414     5934     5580     4384 
    3451     3264     3468     3840     4214     4270     4086     4010 
    4099     4372     4860     5297     5314     4862     4297     3901 
    3801     4136     4615     4862     5038     4961     4180     3493 
    3827     4465     4563     4288     3942     3816     4171     4752 
    5059     5047     5047     5036     4720     4244     4025     4036 
    3959     3812     3902     4278     4506     4409     4371     4452 
    4463     4561     4768     4810     4575     4202     4078     4353 
    4537     4375     4216     4225     4249     4047     3667     3630 
