Origin Time       2025/03/30 21:30:00
Lat.              38.535
Long.             142.295
Depth. (km)       44
Mag.              4.3
Station Code      IWTH15
Station Lat.      39.6148
Station Long.     141.0929
Station Height(m) 73
Record Time       2025/03/30 21:31:39
Sampling Freq(Hz) 100Hz
Duration Time(s)  120
Dir.              3
Scale Factor      2940(gal)/6170270
Max. Acc. (gal)   0.191
Last Correction   2025/03/30 21:31:24
Memo.             
[...]
   27144    27129    27124    27126    27134    27153    27175    27190 
   27201    27220    27244    27239    27205    27172    27143    27115 
   27112    27159    27219    27232    27224    27244    27258    27232 
   27185    27147    27129    27141    27186    27235    27247    27218 
   27169    27139    27153    27162    27138    27133    27144    27154 
   27195    27236    27217    27168    27147    27161    27184    27200 
   27198    27180    27172    27176    27162    27156    27173    27169 
   27135    27117    27138    27171    27177    27165    27161    27149 
   27131    27160    27206    27194    27151    27134    27138    27163 
   27203    27218    27214    27201    27166    27146    27163    27187 
   27206    27208    27204    27225    27245    27212    27150    27127 
   27147    27144    27119    27117    27119    27112    27149    27188 
   27170    27168    27217    27235    27201    27178    27192    27224 
   27239    27212    27179    27186    27213    27186    27109    27085 
   27117    27121    27130    27190    27213    27176    27166    27199 
   27237    27238    27190    27169    27206    27217    27202    27212 
   27187    27119    27121    27181    27195    27179    27186    27179 
   27162    27192    27212    27174    27160    27181    27178    27173 
   27180    27181    27181    27151    27090    27083    27131    27159 
   27163    27167    27172    27190    27205    27184    27141    27113 
   27107    27138    27208    27262    27258    27222    27191    27165 
   27145    27135    27127    27137    27172    27213    27237    27221 
   27196    27197    27186    27167    27161    27145    27146    27185 
   27214    27232    27230    27178    27152    27199    27242    27237 
   27209    27175    27163    27194    27231    27212    27134    27073 
   27081    27105    27110    27130    27149    27145    27166    27205 
   27196    27165    27156    27170    27195    27191    27160    27174 
   27221    27236    27235    27227    27190    27158    27161    27161 
   27140    27130    27150    27156    27149    27172    27186    27147 
   27100    27112    27196    27269    27259    27208    27188    27209 
   27234    27220    27175    27150    27155    27179    27229    27253 
   27206    27149    27144    27182    27185    27109    27058    27118 
   27212    27239    27203    27180    27175    27151    27151    27195 
   27193    27124    27086    27130    27210    27250    27204    27121 
   27091    27128    27166    27172    27192    27235    27238    27187 
   27150    27146    27134    27127    27162    27200    27197    27166 
   27162    27211    27218    27134    27078    27100    27149    27227 
   27310    27308    27211    27140    27172    27226    27220    27178 
   27154    27177    27215    27212    27172    27125    27094    27104 
   27151    27175    27148    27132    27183    27274    27330    27298 
   27229    27201    27207    27222    27225    27169    27101    27108 
   27149    27163    27173    27193    27185    27131    27077    27093 
   27163    27210    27207    27205    27240    27269    27264    27234 
   27193    27190    27231    27220    27152    27125    27133    27116 
   27112    27149    27180    27171    27155    27177    27225    27237 
   27192    27120    27077    27106    27155    27147    27126    27129 
   27126    27130    27167    27195    27181    27132    27089    27112 
   27187    27230    27226    27209    27193    27187    27159    27128 
   27152    27157    27099    27104    27201    27242    27209    27205 
   27227    27227    27235    27262    27268    27239    27199    27188 
   27184    27148    27136    27167    27171    27144    27146    27199 
   27264    27301    27299    27251    27179    27156    27186    27175 
   27115    27097    27122    27130    27153    27221    27271    27253 
   27197    27135    27093    27106    27131    27123    27134    27178 
   27194    27187    27198    27221    27213    27176    27164    27151 
   27106    27116    27197    27234    27206    27199    27209    27191 
   27181    27198    27203    27189    27161    27123    27133    27200 
   27222    27165    27121    27127    27152    27185    27198    27177 
   27167    27174    27172    27194    27226    27205    27173    27192 
   27196    27149    27138    27157    27128    27111    27145    27146 
   27129    27164    27208    27215    27211    27212    27199    27170 
   27161    27182    27195    27187    27173    27164    27171    27182 
   27169    27140    27125    27132    27158    27192    27215    27217 
   27215    27216    27202    27171    27167    27201    27204    27148 
   27121    27175    27257    27296    27279    27218    27151    27128 
   27137    27127    27095    27088    27142    27226    27264    27242 
   27215    27203    27184    27148    27119    27133    27170    27199 
   27212    27194    27170    27185    27185    27148    27153    27180 
   27170    27174    27181    27140    27092    27073    27072    27105 
   27157    27175    27158    27157    27167    27155    27152    27184 
   27207    27197    27202    27228    27208    27152    27153    27192 
   27190    27163    27136    27109    27103    27112    27139    27190 
   27223    27228    27251    27281    27254    27187    27158    27179 
   27185    27172    27186    27216    27215    27172    27121    27108 
   27114    27091    27079    27129    27223    27302    27331    27291 
   27197    27136    27150    27163    27161    27194    27209    27184 
   27197    27228    27216    27199    27193    27178    27166    27166 
   27167    27152    27132    27134    27141    27131    27133    27163 
   27212    27264    27282    27241    27184    27151    27163    27203 
   27188    27107    27054    27076    27149    27206    27197    27172 
   27189    27231    27245    27198    27133    27119    27140    27141 
   27114    27131    27212    27253    27221    27178    27140    27142 
   27204    27244    27230    27196    27149    27143    27206    27269 
   27289    27271    27227    27195    27186    27175    27140    27083 
   27048    27093    27181    27202    27150    27131    27170    27203 
   27200    27178    27158    27155    27191    27238    27245    27235 
   27217    27173    27161    27184    27166    27115    27089    27091 
   27093    27104    27138    27164    27171    27172    27169    27196 
   27258    27278    27215    27146    27159    27224    27260    27269 
   27270    27246    27204    27170    27180    27217    27195    27107 
   27049    27069    27134    27177    27173    27175    27213    27209 
   27170    27201    27239    27174    27106    27117    27130    27131 
   27165    27204    27228    27241    27231    27206    27175    27141 
   27138    27169    27199    27229    27268    27292    27297    27289 
   27218    27100    27033    27035    27077    27167    27234    27219 
   27198    27221    27257    27259    27193    27130    27138    27184 
   27226    27232    27194    27153    27116    27095    27094    27074 
   27043    27056    27082    27075    27074    27109    27135    27136 
   27139    27181    27241    27226    27157    27148    27176    27167 
   27163    27179    27172    27161    27166    27173    27189    27204 
   27209    27212    27193    27200    27273    27305    27255    27238 
   27247    27205    27196    27249    27240    27184    27174    27178 
   27168    27173    27193    27193    27155    27113    27112    27138 
   27154    27157    27175    27207    27223    27209    27179    27168 
   27185    27183    27146    27133    27145    27154    27194    27250 
   27235    27156    27111    27119    27134    27159    27182    27174 
   27165    27180    27181    27153    27127    27118    27128    27160 
   27195    27214    27212    27188    27180    27217    27233    27187 
   27125    27087    27111    27190    27235    27232    27259    27307 
   27285    27194    27122    27107    27136    27175    27175    27140 
   27124    27157    27235    27286    27223    27109    27077    27124 
   27181    27230    27246    27219    27168    27122    27149    27228 
   27227    27154    27135    27166    27182    27201    27219    27191 
   27149    27146    27148    27138    27164    27210    27226    27230 
   27232    27202    27162    27161    27174    27151    27115    27099 
   27089    27068    27052    27083    27155    27214    27242    27242 
   27215    27208    27239    27243    27200    27159    27147    27157 
   27176    27191    27196    27171    27123    27110    27119    27115 
   27140    27198    27218    27202    27209    27244    27262    27251 
   27234    27214    27167    27124    27136    27166    27156    27141 
   27149    27153    27156    27179    27196    27202    27235    27270 
   27255    27223    27205    27180    27147    27120    27099    27106 
   27140    27168    27201    27234    27213    27174    27174    27184 
   27180    27180    27188    27196    27209    27212    27202    27212 
   27238    27238    27221    27199    27161    27157    27205    27227 
   27203    27168    27137    27139    27170    27171    27149    27150 
   27146    27130    27149    27172    27138    27086    27100    27171 
   27191    27130    27106    27147    27163    27156    27150    27103 
   27070    27141    27226    27203    27127    27108    27148    27168 
   27137    27128    27159    27163    27152    27176    27197    27178 
   27142    27117    27114    27146    27213    27272    27251    27187 
   27181    27209    27194    27175    27198    27209    27182    27179 
   27200    27179    27159    27196    27192    27108    27065    27126 
   27226    27289    27307    27288    27230    27177    27168    27159 
   27158    27193    27195    27161    27174    27224    27263    27255 
   27176    27094    27074    27075    27073    27072    27056    27069 
   27143    27191    27186    27205    27230    27203    27170    27173 
   27200    27241    27268    27264    27243    27207    27151    27114 
   27141    27172    27129    27079    27121    27193    27171    27089 
   27045    27034    27047    27091    27138    27215    27324    27378 
   27379    27415    27447    27389    27296    27243    27208    27174 
   27139    27084    27026    27006    27019    27059    27147    27267 
   27344    27341    27296    27258    27243    27239    27199    27125 
   27124    27221    27307    27329    27304    27227    27149    27166 
   27232    27243    27180    27053    26936    26913    26960    27026 
   27078    27070    27030    27032    27096    27196    27273    27294 
   27281    27233    27171    27191    27279    27279    27183    27147 
   27194    27211    27180    27141    27104    27084    27109    27204 
   27330    27385    27317    27185    27091    27109    27181    27182 
   27107    27030    27014    27103    27234    27304    27296    27231 
   27144    27121    27181    27246    27253    27228    27240    27250 
   27189    27135    27122    27055    26951    26901    26917    27001 
   27132    27211    27200    27171    27176    27217    27255    27232 
   27186    27201    27231    27215    27198    27202    27201    27208 
   27244    27284    27304    27309    27261    27159    27104    27135 
   27187    27196    27168    27205    27321    27351    27244    27138 
   27093    27116    27222    27310    27296    27237    27183    27105 
   27012    26973    26991    26982    26976    27054    27127    27135 
   27197    27313    27343    27295    27267    27273    27294    27303 
   27236    27117    27059    27034    26997    27027    27094    27116 
   27160    27229    27252    27275    27304    27286    27256    27235 
   27217    27206    27168    27123    27110    27101    27091    27100 
   27130    27180    27198    27149    27132    27206    27292    27335 
   27348    27320    27250    27189    27145    27065    26963    26919 
   26955    27029    27114    27174    27181    27180    27224    27285 
   27293    27249    27252    27343    27415    27390    27340    27327 
   27303    27243    27167    27095    27095    27165    27207    27177 
   27095    27034    27058    27141    27224    27249    27180    27086 
   27083    27143    27149    27081    27033    27060    27098    27102 
   27119    27169    27221    27241    27211    27182    27194    27206 
   27187    27153    27136    27128    27092    27041    27009    27006 
   27039    27072    27086    27122    27190    27271    27333    27356 
   27393    27438    27409    27329    27277    27262    27250    27222 
   27196    27185    27186    27204    27193    27128    27103    27159 
   27196    27188    27185    27149    27079    27083    27158    27190 
   27123    27038    27049    27091    27064    27035    27055    27107 
   27208    27310    27351    27379    27413    27373    27256    27177 
   27174    27148    27060    26989    26991    27034    27074    27098 
   27120    27121    27058    26992    27044    27192    27300    27329 
   27351    27393    27381    27320    27343    27412    27356    27205 
   27129    27183    27296    27366    27324    27192    27083    27060 
   27068    27068    27053    27005    26966    26979    27000    27036 
   27133    27241    27264    27252    27320    27397    27371    27325 
   27295    27190    27055    27022    27099    27194    27226    27186 
   27127    27092    27102    27135    27117    27042    27002    27032 
   27060    27072    27110    27121    27088    27090    27140    27249 
   27434    27574    27578    27495    27379    27253    27144    27064 
   27004    26955    26971    27081    27184    27206    27184    27159 
   27146    27148    27167    27194    27172    27123    27160    27269 
   27319    27282    27226    27173    27115    27091    27122    27147 
   27097    27010    26991    27055    27116    27155    27227    27311 
   27332    27253    27148    27134    27187    27215    27202    27154 
   27087    27053    27075    27111    27107    27095    27135    27209 
   27276    27287    27221    27176    27200    27223    27243    27262 
   27255    27272    27281    27234    27212    27193    27121    27106 
   27178    27224    27229    27264    27299    27223    27071    27019 
   27076    27108    27142    27245    27336    27394    27445    27448 
   27396    27316    27213    27130    27124    27167    27218    27311 
   27413    27379    27182    26970    26874    26874    26886    26895 
   26909    26960    27083    27216    27274    27237    27148    27121 
   27209    27332    27413    27418    27342    27235    27138    27091 
   27111    27121    27080    27016    26942    26918    27003    27137 
   27189    27120    27032    27015    27082    27193    27261    27272 
   27302    27359    27374    27321    27241    27169    27123    27115 
   27100    27056    27065    27129    27167    27180    27185    27168 
   27127    27073    27050    27113    27241    27348    27374    27365 
   27400    27444    27408    27300    27210    27200    27238    27237 
   27187    27166    27169    27136    27093    27069    27040    27036 
   27093    27150    27149    27129    27141    27192    27267    27319 
   27316    27276    27224    27175    27134    27099    27053    26998 
   26985    27023    27063    27080    27053    27000    26994    27031 
   27036    27036    27107    27208    27278    27343    27367    27308 
   27267    27270    27197    27086    27080    27151    27196    27201 
   27184    27149    27115    27132    27193    27213    27193    27225 
   27312    27391    27435    27439    27392    27316    27275    27270 
   27234    27181    27173    27179    27152    27111    27051    27005 
   27042    27103    27115    27133    27207    27308    27376    27366 
   27293    27209    27127    27051    27025    27047    27029    26956 
   26939    27028    27152    27234    27276    27302    27300    27274 
   27297    27378    27410    27322    27192    27135    27131    27118 
   27089    27043    27026    27051    27046    27041    27106    27183 
   27208    27195    27182    27195    27247    27330    27379    27310 
   27188    27173    27252    27280    27243    27205    27142    27030 
   26946    26963    27033    27069    27079    27089    27114    27189 
   27276    27272    27165    27072    27075    27102    27139    27232 
   27275    27220    27178    27186    27200    27227    27268    27277 
   27237    27184    27130    27085    27096    27126    27098    27054 
   27054    27098    27181    27248    27265    27287    27292    27225 
   27174    27180    27159    27112    27075    27041    27042    27115 
   27214    27284    27302    27254    27195    27232    27334    27336 
   27224    27148    27151    27157    27120    27067    27062    27122 
   27171    27197    27246    27278    27248    27217    27230    27244 
   27230    27244    27295    27298    27266    27292    27333    27305 
   27264    27230    27139    27046    27058    27109    27102    27083 
   27109    27156    27174    27143    27110    27093    27075    27072 
   27059    27041    27082    27142    27176    27208    27199    27127 
   27094    27132    27142    27107    27079    27084    27118    27143 
   27128    27093    27103    27196    27284    27270    27222    27210 
   27206    27206    27232    27268    27301    27306    27253    27193 
   27208    27271    27293    27252    27211    27219    27252    27292 
   27339    27374    27385    27377    27368    27348    27288    27193 
   27105    27071    27076    27049    27012    27057    27167    27241 
   27221    27145    27113    27126    27114    27076    27019    26958 
   26965    27030    27079    27135    27222    27259    27207    27159 
   27179    27182    27135    27123    27126    27093    27088    27107 
   27095    27088    27119    27169    27207    27211    27202    27202 
   27206    27233    27265    27260    27240    27224    27196    27183 
   27216    27274    27307    27255    27155    27134    27189    27185 
   27110    27071    27077    27078    27127    27223    27253    27213 
   27196    27196    27162    27124    27124    27118    27069    27060 
   27131    27186    27203    27224    27222    27201    27195    27192 
   27199    27219    27226    27222    27208    27161    27098    27061 
   27049    27068    27136    27191    27170    27151    27205    27277 
   27318    27333    27316    27275    27248    27252    27282    27320 
   27338    27319    27250    27160    27123    27138    27159    27186 
   27206    27202    27213    27250    27260    27216    27160    27146 
   27177    27199    27184    27151    27118    27107    27134    27172 
   27208    27242    27209    27118    27103    27125    27073    27024 
   27057    27094    27077    27060    27112    27172    27137    27080 
   27094    27094    27032    26994    27015    27074    27155    27207 
   27196    27167    27151    27150    27170    27189    27189    27183 
   27181    27207    27277    27346    27340    27254    27174    27149 
   27128    27098    27112    27178    27230    27246    27268    27293 
   27297    27302    27297    27255    27220    27229    27248    27236 
   27197    27176    27181    27163    27123    27117    27168    27231 
   27244    27218    27203    27213    27233    27234    27216    27220 
   27236    27227    27213    27212    27186    27147    27131    27127 
