Origin Time       2025/03/30 21:30:00
Lat.              38.535
Long.             142.295
Depth. (km)       44
Mag.              4.3
Station Code      IWTH04
Station Lat.      39.1809
Station Long.     141.3909
Station Height(m) 620
Record Time       2025/03/30 21:31:26
Sampling Freq(Hz) 100Hz
Duration Time(s)  120
Dir.              5
Scale Factor      7845(gal)/8223790
Max. Acc. (gal)   2.996
Last Correction   2025/03/30 21:31:26
Memo.             
[...]
   -2816    -2816    -2817    -2814    -2814    -2816    -2817    -2817 
   -2817    -2816    -2817    -2817    -2814    -2816    -2816    -2817 
   -2817    -2817    -2816    -2817    -2816    -2814    -2814    -2816 
   -2816    -2816    -2814    -2816    -2814    -2816    -2817    -2816 
   -2816    -2816    -2814    -2814    -2817    -2818    -2817    -2814 
   -2816    -2818    -2817    -2816    -2817    -2816    -2816    -2817 
   -2817    -2817    -2817    -2817    -2816    -2816    -2817    -2816 
   -2816    -2816    -2817    -2817    -2816    -2814    -2816    -2817 
   -2817    -2814    -2813    -2816    -2816    -2816    -2818    -2817 
   -2816    -2817    -2818    -2816    -2817    -2817    -2816    -2816 
   -2814    -2814    -2816    -2814    -2814    -2817    -2817    -2813 
   -2816    -2816    -2812    -2814    -2817    -2814    -2813    -2814 
   -2813    -2814    -2817    -2816    -2814    -2817    -2817    -2814 
   -2817    -2817    -2814    -2816    -2817    -2816    -2817    -2817 
   -2816    -2817    -2816    -2816    -2816    -2816    -2814    -2816 
   -2818    -2817    -2814    -2816    -2816    -2817    -2817    -2814 
   -2813    -2816    -2817    -2816    -2816    -2817    -2814    -2814 
   -2817    -2817    -2816    -2816    -2814    -2814    -2816    -2816 
   -2817    -2817    -2814    -2816    -2817    -2816    -2816    -2814 
   -2813    -2814    -2814    -2812    -2813    -2817    -2817    -2813 
   -2810    -2808    -2806    -2805    -2805    -2805    -2805    -2806 
   -2812    -2816    -2821    -2828    -2828    -2828    -2828    -2821 
   -2813    -2806    -2798    -2789    -2790    -2803    -2801    -2776 
   -2755    -2752    -2767    -2808    -2866    -2890    -2852    -2790 
   -2787    -2857    -2924    -2924    -2882    -2837    -2789    -2764 
   -2826    -2937    -2971    -2864    -2718    -2712    -2859    -2975 
   -2934    -2809    -2704    -2671    -2739    -2860    -2864    -2694 
   -2562    -2616    -2709    -2739    -2793    -2898    -3011    -3059 
   -2882    -2598    -2637    -3038    -3267    -2995    -2587    -2543 
   -2826    -3102    -3156    -2879    -2427    -2261    -2614    -3134 
   -3211    -2785    -2434    -2485    -2756    -3001    -3007    -2767 
   -2682    -2983    -3225    -2984    -2548    -2390    -2525    -2760 
   -2949    -2940    -2764    -2678    -2783    -2997    -3134    -2918 
   -2512    -2579    -3106    -3323    -3046    -2701    -2504    -2583 
   -2941    -3109    -2741    -2357    -2575    -2961    -2864    -2652 
   -2783    -2936    -2930    -3014    -3118    -3025    -2818    -2667 
   -2666    -2735    -2758    -2790    -2781    -2605    -2452    -2594 
   -2961    -3190    -3040    -2762    -2743    -2921    -2992    -2921 
   -2871    -2886    -2799    -2594    -2616    -2930    -3002    -2624 
   -2371    -2637    -3069    -3145    -2802    -2574    -2878    -3199 
   -2979    -2679    -2747    -2824    -2803    -2934    -2948    -2666 
   -2516    -2709    -2995    -3109    -2878    -2498    -2461    -2768 
   -2998    -3007    -2870    -2736    -2859    -3059    -2880    -2463 
   -2338    -2655    -3133    -3349    -3118    -2693    -2529    -2810 
   -3057    -2812    -2478    -2546    -2853    -3098    -3037    -2686 
   -2517    -2673    -2822    -2917    -2979    -2936    -2934    -2928 
   -2700    -2451    -2492    -2809    -3098    -3040    -2791    -2739 
   -2886    -2978    -2924    -2868    -2926    -2949    -2791    -2632 
   -2662    -2763    -2781    -2677    -2535    -2590    -2779    -2798 
   -2741    -2806    -2955    -3095    -3118    -3072    -2999    -2821 
   -2714    -2725    -2640    -2667    -2905    -2891    -2617    -2513 
   -2597    -2702    -2863    -3022    -2959    -2801    -2884    -3022 
   -2963    -2975    -3033    -2820    -2554    -2556    -2691    -2786 
   -2825    -2795    -2741    -2760    -2832    -2847    -2794    -2763 
   -2852    -3084    -3186    -2921    -2650    -2768    -2986    -2880 
   -2648    -2664    -2862    -2967    -2857    -2678    -2691    -2822 
   -2803    -2725    -2756    -2820    -2863    -2883    -2855    -2870 
   -2905    -2759    -2475    -2425    -2759    -3123    -3133    -2898 
   -2790    -2835    -2785    -2675    -2694    -2770    -2839    -2976 
   -3078    -2964    -2748    -2652    -2708    -2799    -2791    -2651 
   -2613    -2867    -3176    -3187    -2890    -2546    -2405    -2592 
   -2947    -3098    -2929    -2674    -2509    -2461    -2606    -2963 
   -3268    -3252    -3019    -2868    -2851    -2866    -2878    -2797 
   -2582    -2454    -2543    -2698    -2828    -2990    -3083    -2943 
   -2751    -2731    -2748    -2767    -2957    -3061    -2778    -2524 
   -2662    -2862    -2875    -2798    -2679    -2635    -2820    -3083 
   -3115    -2940    -2884    -2914    -2733    -2562    -2678    -2859 
   -2960    -3003    -2891    -2691    -2609    -2758    -3046    -3073 
   -2655    -2322    -2563    -2983    -2974    -2760    -2818    -2902 
   -2701    -2563    -2735    -2921    -2922    -2833    -2714    -2693 
   -2933    -3242    -3238    -2952    -2758    -2810    -2872    -2683 
   -2459    -2586    -2863    -2866    -2689    -2582    -2565    -2710 
   -3022    -3154    -2911    -2683    -2835    -3068    -3006    -2822 
   -2721    -2606    -2496    -2571    -2805    -2968    -2994    -3002 
   -2995    -2943    -2874    -2751    -2659    -2739    -2874    -2914 
   -2876    -2818    -2809    -2802    -2678    -2535    -2590    -2844 
   -3032    -2907    -2697    -2783    -3055    -3175    -3019    -2727 
   -2631    -2774    -2849    -2756    -2619    -2578    -2724    -2922 
   -2997    -2929    -2767    -2658    -2727    -2864    -2928    -2940 
   -2871    -2633    -2420    -2548    -2930    -3149    -3033    -2839 
   -2817    -2895    -2952    -2882    -2620    -2501    -2783    -3046 
   -2899    -2674    -2774    -2975    -2955    -2776    -2636    -2659 
   -2805    -2870    -2857    -2930    -2949    -2755    -2602    -2656 
   -2721    -2817    -3001    -2974    -2787    -2814    -2891    -2758 
   -2705    -2944    -3154    -3038    -2754    -2550    -2520    -2709 
   -2872    -2702    -2506    -2708    -3019    -3080    -3002    -2907 
   -2836    -2806    -2721    -2670    -2824    -2995    -2943    -2764 
   -2702    -2767    -2740    -2675    -2791    -2934    -2876    -2731 
   -2724    -2955    -3176    -3052    -2822    -2862    -2929    -2791 
   -2682    -2689    -2701    -2728    -2727    -2637    -2636    -2844 
   -2960    -2789    -2643    -2681    -2732    -2812    -2944    -2933 
   -2799    -2836    -3055    -3100    -2876    -2686    -2677    -2768 
   -2898    -2907    -2718    -2614    -2794    -3014    -3007    -2822 
   -2708    -2740    -2735    -2695    -2737    -2779    -2803    -2864 
   -2895    -2875    -2868    -2857    -2776    -2690    -2644    -2601 
   -2658    -2801    -2902    -3107    -3370    -3269    -2843    -2589 
   -2650    -2768    -2712    -2612    -2748    -2911    -2779    -2628 
   -2839    -3257    -3298    -2755    -2305    -2479    -2914    -3148 
   -3106    -2876    -2592    -2342    -2293    -2629    -3102    -3214 
   -2886    -2532    -2566    -2929    -3146    -2999    -2791    -2767 
   -2876    -2891    -2714    -2716    -2959    -2938    -2718    -2766 
   -2988    -3057    -2870    -2560    -2452    -2636    -2899    -3094 
   -3053    -2778    -2650    -2782    -2883    -2803    -2575    -2438 
   -2574    -2776    -2947    -3082    -2926    -2704    -2901    -3208 
   -3191    -3001    -2767    -2571    -2542    -2527    -2508    -2656 
   -2859    -3063    -3231    -3100    -2855    -2857    -2916    -2802 
   -2655    -2636    -2689    -2666    -2683    -2837    -2880    -2843 
   -2991    -3075    -2855    -2644    -2612    -2685    -2867    -2972 
   -2801    -2582    -2623    -2839    -2906    -2851    -2957    -3163 
   -3191    -2947    -2532    -2316    -2567    -2925    -2948    -2754 
   -2640    -2702    -2920    -3109    -3042    -2774    -2602    -2694 
   -2876    -2974    -3009    -2890    -2620    -2575    -2853    -3102 
   -3173    -3032    -2664    -2394    -2466    -2740    -2947    -2820 
   -2471    -2404    -2802    -3304    -3403    -2997    -2569    -2527 
   -2789    -3072    -3091    -2794    -2531    -2551    -2717    -2814 
   -2853    -2972    -3026    -2848    -2651    -2610    -2721    -2945 
   -3064    -2997    -2876    -2701    -2578    -2758    -2991    -2806 
   -2421    -2436    -2808    -3046    -3037    -2984    -2936    -2794 
   -2643    -2698    -2851    -2857    -2797    -2762    -2716    -2803 
   -2988    -2991    -2874    -2837    -2914    -3013    -2960    -2812 
   -2718    -2660    -2731    -2902    -2940    -2864    -2779    -2670 
   -2605    -2662    -2803    -2899    -2879    -2791    -2673    -2614 
   -2759    -3011    -3114    -3044    -2910    -2694    -2556    -2824 
   -3198    -3021    -2508    -2412    -2689    -2803    -2767    -2810 
   -2798    -2691    -2797    -3072    -3106    -2926    -2851    -2864 
   -2859    -2860    -2867    -2903    -2933    -2745    -2448    -2521 
   -2875    -2932    -2727    -2650    -2694    -2805    -3003    -3049 
   -2779    -2546    -2748    -3148    -3230    -2956    -2578    -2323 
   -2465    -2933    -3163    -2917    -2620    -2670    -2992    -3177 
   -2972    -2633    -2501    -2551    -2681    -2880    -3037    -3046 
   -2933    -2728    -2567    -2641    -2878    -2967    -2818    -2779 
   -2983    -3041    -2864    -2774    -2789    -2782    -2793    -2790 
   -2756    -2705    -2666    -2803    -2965    -2840    -2677    -2740 
   -2862    -2955    -3005    -2866    -2609    -2570    -2798    -2920 
   -2857    -2868    -2859    -2717    -2732    -2932    -3017    -2934 
   -2714    -2450    -2505    -2902    -3191    -3175    -2921    -2608 
   -2590    -2949    -3272    -3110    -2597    -2392    -2700    -2961 
   -2872    -2732    -2751    -2839    -2890    -2868    -2833    -2879 
   -2920    -2813    -2655    -2614    -2608    -2602    -2752    -2905 
   -2739    -2435    -2536    -3095    -3478    -3273    -2887    -2787 
   -2903    -2965    -2816    -2556    -2473    -2627    -2841    -2910 
   -2809    -2789    -2930    -3019    -2955    -2749    -2451    -2324 
   -2579    -2933    -2992    -2893    -2929    -2998    -2975    -2901 
   -2763    -2752    -3007    -3194    -3087    -2824    -2519    -2344 
   -2448    -2654    -2758    -2832    -2970    -3006    -2802    -2587 
   -2636    -2924    -3231    -3306    -3007    -2610    -2625    -2929 
   -2922    -2614    -2442    -2538    -2772    -2948    -2936    -2860 
   -2894    -2922    -2771    -2601    -2666    -2824    -2806    -2754 
   -2932    -3142    -3025    -2689    -2579    -2774    -2937    -2933 
   -2849    -2731    -2735    -2899    -2871    -2619    -2535    -2647 
   -2768    -2910    -3010    -3017    -3041    -3021    -2874    -2776 
   -2786    -2791    -2806    -2884    -3015    -3019    -2689    -2377 
   -2617    -3032    -2936    -2555    -2481    -2793    -3164    -3163 
   -2697    -2330    -2524    -2922    -2971    -2778    -2828    -3079 
   -3010    -2681    -2542    -2536    -2646    -3015    -3222    -3080 
   -2982    -2910    -2799    -2907    -3046    -2878    -2538    -2334 
   -2497    -2933    -3171    -3003    -2646    -2380    -2397    -2631 
   -2906    -3179    -3241    -2945    -2659    -2697    -2870    -2949 
   -2901    -2704    -2479    -2573    -2983    -3206    -3098    -2982 
   -2943    -2895    -2862    -2794    -2593    -2408    -2612    -3141 
   -3302    -2786    -2274    -2407    -2851    -2987    -2830    -2754 
   -2830    -2907    -2925    -2806    -2574    -2550    -2803    -2929 
   -2793    -2759    -2965    -3163    -3163    -2864    -2436    -2436 
   -2936    -3265    -3059    -2628    -2409    -2617    -3019    -3154 
   -2953    -2747    -2681    -2600    -2586    -2778    -2797    -2508 
   -2520    -2941    -3129    -2982    -2910    -2957    -3033    -3154 
   -3122    -2832    -2705    -2979    -3094    -2597    -2023    -2185 
   -2947    -3330    -2903    -2311    -2204    -2512    -2841    -3048 
   -3219    -3302    -3214    -3028    -2763    -2528    -2496    -2647 
   -2913    -3078    -2890    -2722    -2924    -2986    -2637    -2378 
   -2506    -2837    -3026    -2949    -2839    -2837    -2903    -2964 
   -2905    -2797    -2722    -2538    -2450    -2756    -3029    -2848 
   -2637    -2880    -3361    -3605    -3435    -2880    -2249    -2169 
   -2740    -3137    -2818    -2285    -2154    -2439    -2801    -2965 
   -3026    -3130    -3087    -2847    -2794    -3052    -3226    -3079 
   -2835    -2795    -2947    -3013    -2968    -2911    -2675    -2385 
   -2447    -2747    -3011    -3246    -3148    -2466    -1823    -1845 
   -2300    -2840    -3333    -3392    -2851    -2263    -2170    -2517 
   -2945    -3190    -3272    -3300    -3191    -2970    -2956    -3204 
   -3327    -3049    -2560    -2209    -2153    -2517    -3248    -3726 
   -3291    -2172    -1421    -1705    -2485    -2879    -2853    -2978 
   -3357    -3499    -3179    -2852    -3015    -3450    -3504    -3080 
   -2556    -2088    -1934    -2467    -3252    -3306    -2462    -1648 
   -1748    -2637    -3515    -3877    -3661    -2893    -2128    -2281 
   -3176    -3688    -3420    -2975    -2853    -2899    -2851    -2839 
   -2806    -2349    -1598    -1169    -1417    -2155    -2691    -2716 
   -2905    -3861    -5240    -5956    -5020    -3126    -2192    -2668 
   -3123    -2289     -561      151    -1159    -2953    -3403    -2899 
   -2933    -3892    -4734    -4438    -3402    -2678    -2450    -2316 
   -2101    -1821    -1696    -2061    -2897    -3744    -4005    -3400 
   -2420    -1979    -2435    -3167    -3176    -2420    -2038    -2636 
   -3352    -3295    -2816    -2916    -3847    -4432    -3650    -2288 
   -1537    -1360    -1271    -1298    -1711    -2477    -3053    -2822 
   -2209    -2516    -3983    -5255    -5292    -4498    -3755    -3546 
   -3564    -2775    -1179     -573    -1867    -3491    -3582    -2088 
    -483     -419    -2104    -3829    -3927    -2725    -1934    -2590 
   -3815    -3981    -3153    -2764    -3102    -3314    -3261    -3442 
   -3699    -3321    -2403    -2150    -3148    -4329    -4360    -3107 
   -1404     -259     -253    -1113    -2188    -3172    -3824    -3658 
   -2717    -2114    -2799    -4001    -4259    -3797    -3828    -4284 
   -4348    -3746    -2667    -1620     -843     -233     -302    -1552 
   -3169    -3785    -3057    -2000    -1910    -2857    -3605    -3431 
   -3145    -3802    -5092    -5529    -4222    -2101    -1023    -1447 
   -2172    -2547    -2817    -2770    -2118    -1360    -1246    -1966 
   -3079    -3983    -4479    -4514    -3912    -3013    -2689    -3227 
   -3858    -3438    -1777     -356     -741    -2320    -3088    -2490 
   -1873    -2300    -3234    -3761    -3816    -3728    -3607    -3393 
   -3015    -2644    -2556    -2592    -2506    -2461    -2312    -1710 
   -1255    -1857    -3180    -4052    -3991    -3626    -3705    -4171 
   -4441    -4185    -3566    -2994    -2610    -2205    -1809    -1725 
   -1792    -1552    -1193    -1383    -2205    -2921    -2918    -2452 
   -2193    -2473    -3175    -4028    -4638    -4657    -4185    -3573 
   -2986    -2614    -2712    -3264    -3851    -3597    -2062     -453 
    -355    -1522    -2509    -2694    -2465    -2218    -2096    -2332 
   -3163    -4217    -4595    -3908    -2837    -2497    -3240    -4166 
   -4255    -3450    -2376    -1841    -2409    -3547    -3923    -3057 
   -1651     -648     -828    -2100    -3149    -3078    -2551    -2394 
   -2493    -2457    -2230    -2224    -2918    -4086    -4874    -4595 
   -3437    -2475    -2423    -2663    -2466    -2263    -2598    -3127 
   -3491    -3565    -3125    -2424    -1935    -1746    -2056    -2767 
   -3065    -2736    -2481    -2502    -2450    -2461    -2872    -3418 
   -3678    -3658    -3473    -3171    -2803    -2469    -2431    -2629 
   -2583    -2469    -2851    -3302    -3100    -2655    -2732    -3102 
   -3061    -2666    -2601    -3010    -3141    -2670    -2446    -2883 
   -3156    -2810    -2447    -2394    -2331    -2505    -3285    -3738 
   -3083    -2226    -2084    -2459    -2911    -3068    -2774    -2454 
   -2540    -3010    -3601    -3916    -3684    -3203    -3018    -3150 
   -3192    -2876    -2320    -1933    -1985    -2311    -2509    -2381 
   -2114    -2165    -2759    -3354    -3231    -2694    -2697    -3387 
   -4001    -3982    -3311    -2258    -1524    -1786    -2772    -3559 
   -3612    -3117    -2554    -2207    -2188    -2571    -3026    -3007 
   -2737    -2948    -3480    -3412    -2643    -2074    -2118    -2381 
   -2756    -3273    -3423    -2980    -2624    -2714    -2706    -2408 
   -2305    -2528    -2856    -3171    -3291    -3088    -2899    -3113 
   -3375    -3053    -2362    -2068    -2404    -2944    -3192    -2916 
   -2381    -2259    -2685    -3021    -2999    -2938    -2891    -2821 
   -2970    -3339    -3721    -3869    -3321    -2178    -1359    -1348 
   -1989    -3127    -4093    -3824    -2619    -1971    -2354    -3059 
   -3387    -2974    -2332    -2496    -3306    -3724    -3387    -2702 
   -2425    -2839    -3083    -2548    -2042    -2336    -3041    -3391 
   -3121    -2563    -2070    -1649    -1597    -2366    -3433    -3850 
   -3661    -3429    -3318    -3258    -3226    -3165    -2872    -2447 
   -2350    -2462    -2424    -2525    -2849    -2768    -1954    -1166 
   -1517    -2967    -4171    -4041    -3198    -3150    -3863    -3971 
   -3306    -2756    -2477    -2170    -1944    -2026    -2470    -3033 
   -3261    -2933    -2355    -2189    -2689    -3238    -3299    -3019 
   -2614    -2235    -2131    -2469    -3109    -3530    -3338    -2786 
   -2552    -2952    -3449    -3411    -2917    -2392    -2192    -2505 
   -3190    -3746    -3611    -2971    -2577    -2524    -2474    -2493 
   -2702    -2953    -2984    -2536    -1972    -2110    -2822    -3125 
   -2689    -2192    -2324    -2971    -3507    -3622    -3501    -3287 
   -2812    -2322    -2511    -3186    -3292    -2664    -2255    -2632 
   -3202    -3034    -2250    -1945    -2668    -3761    -4052    -3106 
   -1973    -1938    -2639    -2911    -2708    -2655    -2814    -2863 
   -2710    -2651    -2948    -3230    -2995    -2616    -2748    -3148 
   -3133    -2856    -2968    -3248    -2984    -2425    -2326    -2740 
   -3186    -3298    -2983    -2351    -1803    -1763    -2185    -2899 
   -3719    -3919    -3098    -2223    -2220    -2590    -2687    -2700 
   -2795    -3025    -3453    -3645    -3364    -3167    -3233    -3159 
   -2913    -2735    -2643    -2465    -2122    -1987    -2394    -2914 
   -2902    -2408    -2170    -2690    -3295    -2965    -2003    -1640 
   -2381    -3608    -4361    -4048    -3114    -2667    -2868    -3052 
   -3034    -2918    -2795    -2745    -2614    -2520    -2709    -2776 
   -2486    -2494    -3026    -3335    -3087    -2794    -2828    -2893 
   -2513    -1894    -1794    -2452    -3273    -3608    -3329    -2739 
   -2393    -2694    -3369    -3798    -3785    -3396    -2658    -2099 
   -2389    -2983    -2791    -2122    -2080    -2548    -2706    -2619 
