Origin Time       2025/03/30 21:30:00
Lat.              38.535
Long.             142.295
Depth. (km)       44
Mag.              4.3
Station Code      IWTH18
Station Lat.      39.4630
Station Long.     141.6775
Station Height(m) 452
Record Time       2025/03/30 21:31:28
Sampling Freq(Hz) 100Hz
Duration Time(s)  120
Dir.              1
Scale Factor      2940(gal)/6170270
Max. Acc. (gal)   0.246
Last Correction   2025/03/30 21:31:13
Memo.             
[...]
   44449    44449    44445    44448    44444    44436    44439    44442 
   44426    44409    44404    44415    44424    44411    44409    44430 
   44444    44455    44460    44458    44467    44459    44460    44502 
   44488    44434    44450    44497    44520    44501    44442    44422 
   44457    44488    44501    44489    44459    44462    44507    44515 
   44432    44355    44353    44404    44486    44479    44390    44413 
   44473    44414    44350    44360    44398    44476    44576    44568 
   44435    44363    44413    44422    44363    44345    44348    44391 
   44527    44575    44482    44412    44310    44248    44386    44525 
   44573    44595    44462    44299    44375    44497    44431    44394 
   44461    44464    44518    44546    44371    44342    44433    44343 
   44373    44501    44420    44353    44428    44488    44416    44320 
   44405    44486    44478    44505    44463    44508    44591    44413 
   44408    44563    44360    44325    44557    44414    44299    44472 
   44396    44238    44338    44487    44561    44520    44394    44402 
   44498    44471    44435    44499    44462    44311    44360    44541 
   44521    44437    44432    44362    44359    44460    44448    44449 
   44515    44430    44392    44494    44449    44424    44525    44483 
   44447    44487    44417    44380    44448    44527    44545    44453 
   44414    44435    44371    44394    44508    44506    44492    44466 
   44350    44335    44381    44417    44501    44464    44391    44472 
   44496    44416    44415    44470    44451    44393    44410    44452 
   44468    44453    44401    44438    44526    44489    44420    44417 
   44455    44482    44419    44371    44395    44449    44526    44445 
   44327    44406    44413    44409    44500    44375    44345    44536 
   44427    44292    44451    44515    44478    44463    44372    44353 
   44476    44547    44464    44372    44394    44412    44404    44441 
   44440    44383    44389    44496    44520    44419    44401    44432 
   44428    44485    44521    44486    44442    44401    44441    44430 
   44347    44496    44603    44392    44317    44451    44446    44394 
   44480    44506    44387    44388    44444    44393    44422    44469 
   44451    44502    44511    44443    44409    44374    44399    44498 
   44496    44418    44433    44464    44416    44399    44435    44455 
   44488    44489    44404    44386    44459    44464    44458    44470 
   44417    44433    44474    44441    44468    44443    44355    44409 
   44456    44434    44455    44429    44413    44457    44445    44451 
   44483    44454    44457    44484    44513    44498    44345    44355 
   44512    44434    44406    44474    44370    44426    44506    44357 
   44389    44462    44425    44506    44404    44299    44501    44529 
   44467    44475    44321    44368    44516    44412    44470    44567 
   44423    44389    44372    44291    44394    44467    44433    44460 
   44428    44411    44492    44465    44430    44520    44521    44415 
   44377    44410    44473    44541    44518    44439    44431    44403 
   44348    44424    44499    44443    44376    44365    44442    44500 
   44434    44401    44422    44402    44428    44482    44495    44507 
   44464    44416    44458    44465    44448    44468    44448    44453 
   44467    44410    44390    44424    44441    44380    44262    44337 
   44547    44548    44419    44336    44359    44509    44554    44506 
   44526    44466    44413    44478    44450    44422    44470    44424 
   44440    44510    44391    44299    44369    44400    44393    44417 
   44483    44507    44444    44456    44482    44459    44494    44460 
   44443    44511    44423    44399    44535    44478    44368    44430 
   44487    44420    44341    44378    44424    44442    44494    44446 
   44373    44433    44473    44472    44513    44477    44389    44377 
   44412    44447    44438    44437    44494    44433    44323    44439 
   44551    44397    44292    44426    44526    44489    44446    44424 
   44425    44435    44428    44430    44389    44386    44509    44506 
   44412    44429    44423    44440    44526    44521    44468    44428 
   44433    44479    44454    44411    44424    44429    44440    44444 
   44414    44441    44432    44342    44379    44439    44364    44390 
   44530    44539    44451    44405    44433    44476    44442    44415 
   44449    44439    44477    44548    44428    44312    44396    44449 
   44462    44475    44412    44424    44452    44384    44381    44437 
   44469    44477    44473    44426    44345    44416    44523    44470 
   44487    44501    44363    44385    44493    44481    44508    44501 
   44384    44310    44364    44512    44484    44345    44441    44499 
   44420    44485    44479    44409    44497    44490    44421    44492 
   44497    44454    44507    44476    44358    44362    44437    44414 
   44395    44440    44367    44337    44503    44484    44351    44441 
   44499    44446    44424    44373    44385    44444    44448    44461 
   44426    44377    44429    44510    44529    44451    44367    44379 
   44396    44437    44507    44482    44464    44469    44427    44464 
   44485    44408    44418    44469    44458    44448    44437    44448 
   44497    44505    44456    44378    44360    44423    44437    44418 
   44410    44416    44474    44444    44400    44452    44414    44429 
   44502    44381    44356    44486    44496    44524    44497    44312 
   44319    44485    44491    44382    44324    44370    44458    44508 
   44479    44386    44400    44509    44472    44371    44439    44551 
   44535    44497    44467    44381    44388    44494    44490    44455 
   44484    44451    44415    44429    44377    44354    44451    44497 
   44418    44390    44492    44545    44454    44405    44479    44484 
   44415    44429    44491    44525    44452    44344    44420    44515 
   44390    44281    44384    44508    44493    44450    44441    44374 
   44355    44476    44496    44398    44402    44464    44470    44379 
   44328    44477    44520    44361    44359    44432    44441    44487 
   44442    44353    44369    44408    44478    44484    44441    44500 
   44453    44348    44403    44437    44476    44577    44540    44452 
   44405    44382    44465    44492    44431    44444    44409    44374 
   44417    44409    44453    44495    44446    44476    44446    44371 
   44464    44534    44516    44437    44367    44524    44565    44356 
   44353    44438    44412    44387    44319    44373    44538    44504 
   44365    44294    44399    44583    44529    44458    44509    44457 
   44460    44473    44430    44515    44467    44362    44492    44481 
   44377    44456    44447    44398    44440    44411    44412    44477 
   44488    44488    44438    44368    44421    44493    44465    44395 
   44335    44354    44439    44465    44468    44494    44403    44328 
   44466    44481    44326    44397    44499    44426    44425    44461 
   44453    44480    44465    44399    44402    44498    44557    44498 
   44452    44474    44438    44359    44394    44519    44527    44411 
   44361    44447    44537    44445    44353    44466    44473    44386 
   44497    44528    44401    44423    44481    44443    44444    44468 
   44428    44389    44399    44402    44454    44545    44480    44339 
   44354    44464    44491    44417    44371    44396    44407    44430 
   44490    44456    44366    44411    44467    44392    44376    44448 
   44443    44379    44377    44484    44521    44395    44402    44523 
   44464    44417    44495    44457    44387    44453    44511    44446 
   44391    44441    44483    44461    44460    44477    44436    44406 
   44455    44448    44415    44483    44466    44394    44444    44408 
   44377    44476    44377    44323    44504    44459    44355    44415 
   44369    44407    44539    44492    44467    44467    44410    44445 
   44422    44364    44412    44410    44388    44417    44475    44497 
   44391    44399    44532    44486    44428    44462    44445    44440 
   44412    44420    44517    44491    44464    44514    44429    44432 
   44542    44456    44408    44446    44376    44402    44467    44464 
   44493    44400    44332    44483    44498    44399    44466    44495 
   44393    44354    44390    44450    44496    44472    44399    44345 
   44394    44453    44382    44337    44429    44498    44435    44386 
   44448    44494    44535    44561    44430    44339    44413    44475 
   44496    44484    44453    44459    44455    44443    44457    44480 
   44448    44367    44421    44554    44529    44410    44324    44352 
   44478    44486    44407    44401    44408    44393    44398    44425 
   44415    44406    44490    44498    44393    44411    44469    44445 
   44457    44471    44471    44476    44405    44373    44416    44443 
   44472    44406    44315    44416    44476    44384    44428    44544 
   44532    44498    44487    44432    44377    44437    44559    44511 
   44382    44431    44458    44388    44478    44506    44391    44484 
   44553    44441    44440    44448    44447    44574    44589    44444 
   44391    44462    44468    44391    44367    44331    44306    44428 
   44448    44335    44400    44471    44426    44421    44405    44467 
   44523    44355    44286    44405    44476    44584    44629    44479 
   44393    44454    44442    44348    44321    44341    44382    44442 
   44415    44378    44474    44514    44387    44355    44465    44511 
   44505    44491    44482    44539    44602    44528    44351    44366 
   44515    44447    44359    44404    44370    44395    44462    44426 
   44455    44438    44329    44386    44523    44582    44548    44445 
   44390    44401    44440    44457    44410    44388    44410    44431 
   44446    44404    44402    44500    44530    44468    44394    44355 
   44441    44560    44596    44563    44461    44359    44357    44399 
   44404    44432    44463    44394    44381    44484    44489    44415 
   44404    44502    44549    44387    44354    44495    44453    44408 
   44444    44417    44438    44385    44330    44489    44495    44331 
   44395    44490    44406    44346    44384    44454    44476    44468 
   44538    44502    44359    44420    44477    44379    44391    44366 
   44315    44474    44494    44391    44494    44505    44434    44514 
   44558    44508    44397    44363    44502    44515    44440    44489 
   44468    44400    44430    44460    44487    44491    44438    44411 
   44397    44416    44468    44457    44421    44406    44412    44419 
   44413    44439    44409    44325    44392    44534    44542    44460 
   44412    44475    44505    44324    44230    44412    44471    44348 
   44350    44403    44448    44544    44512    44398    44410    44476 
   44509    44475    44413    44458    44558    44605    44530    44368 
   44417    44550    44441    44396    44485    44386    44343    44445 
   44378    44289    44345    44350    44338    44452    44524    44451 
   44409    44442    44470    44521    44514    44409    44423    44532 
   44523    44442    44354    44316    44439    44568    44466    44303 
   44358    44447    44362    44341    44524    44616    44456    44397 
   44538    44511    44400    44431    44446    44490    44510    44346 
   44359    44574    44565    44410    44328    44319    44399    44475 
   44428    44344    44359    44463    44577    44621    44565    44522 
   44464    44328    44309    44403    44454    44483    44434    44393 
   44414    44305    44296    44452    44428    44386    44382    44303 
   44369    44428    44424    44526    44513    44515    44607    44487 
   44441    44557    44488    44402    44443    44505    44529    44445 
   44362    44311    44282    44390    44440    44376    44414    44458 
   44477    44488    44367    44309    44410    44441    44404    44425 
   44513    44534    44407    44381    44487    44501    44478    44465 
   44474    44513    44494    44569    44633    44487    44482    44550 
   44505    44605    44584    44388    44401    44435    44395    44365 
   44252    44236    44306    44265    44207    44292    44564    44663 
   44430    44388    44567    44605    44511    44406    44527    44662 
   44421    44307    44477    44430    44324    44328    44304    44318 
   44264    44174    44218    44251    44254    44240    44228    44410 
   44543    44455    44443    44498    44563    44609    44465    44399 
   44545    44598    44658    44802    44806    44724    44683    44695 
   44658    44479    44425    44497    44451    44536    44682    44517 
   44376    44471    44487    44357    44161    44038    44168    44387 
   44432    44288    44241    44531    44730    44493    44291    44363 
   44539    44725    44691    44513    44428    44290    44201    44268 
   44161    44060    44251    44286    44183    44304    44273    44199 
   44424    44393    44235    44442    44553    44634    44924    44890 
   44715    44757    44740    44784    44797    44500    44361    44513 
   44505    44264    44042    44066    44276    44433    44516    44526 
   44335    44077    44142    44450    44548    44465    44460    44569 
   44698    44651    44497    44510    44692    44844    44634    44192 
   44144    44331    44299    44244    44191    44106    44199    44310 
   44266    44159    44116    44263    44436    44428    44476    44782 
   44956    44751    44646    44757    44716    44596    44516    44516 
   44637    44614    44396    44249    44209    44144    44048    44119 
   44346    44453    44393    44305    44328    44441    44510    44639 
   44755    44681    44602    44549    44600    44786    44620    44269 
   44191    44127    44122    44305    44298    44135    44211    44400 
   44356    44294    44409    44450    44505    44629    44600    44659 
   44872    44901    44777    44518    44208    44251    44459    44367 
   44150    44095    44144    44163    44225    44395    44419    44301 
   44383    44630    44752    44636    44564    44745    44816    44691 
   44579    44463    44510    44490    44172    44267    44597    44312 
   43989    44201    44465    44480    44371    44378    44422    44328 
   44394    44515    44345    44254    44403    44546    44648    44589 
   44524    44625    44573    44482    44525    44490    44518    44548 
   44396    44317    44244    44129    44303    44570    44523    44274 
   44281    44627    44717    44478    44502    44673    44619    44572 
   44657    44699    44683    44536    44272    44217    44202    43975 
   44026    44376    44424    44223    44167    44305    44507    44628 
   44596    44505    44511    44587    44580    44492    44439    44452 
   44500    44592    44643    44424    44138    44228    44447    44470 
   44338    44066    44045    44358    44465    44444    44461    44398 
   44464    44555    44612    44740    44562    44410    44654    44638 
   44464    44531    44546    44463    44317    44347    44623    44528 
   44258    44328    44416    44469    44576    44537    44444    44365 
   44230    44126    44171    44418    44615    44496    44363    44335 
   44188    44199    44483    44641    44548    44341    44311    44515 
   44556    44464    44500    44512    44408    44361    44441    44564 
   44671    44673    44497    44379    44518    44699    44614    44350 
   44211    44217    44360    44597    44529    44227    44208    44309 
   44327    44457    44528    44600    44769    44609    44411    44480 
   44365    44371    44616    44512    44433    44555    44480    44440 
   44296    44046    44245    44449    44337    44247    44112    44189 
   44444    44443    44475    44399    44214    44533    44757    44581 
   44594    44568    44560    44698    44569    44478    44482    44273 
   44238    44413    44556    44625    44444    44312    44416    44361 
   44376    44662    44596    44251    44248    44346    44282    44338 
   44506    44599    44587    44525    44571    44597    44429    44370 
   44458    44494    44635    44711    44450    44219    44274    44388 
   44389    44304    44257    44318    44393    44387    44319    44270 
   44396    44607    44580    44396    44345    44457    44562    44466 
   44460    44662    44515    44218    44256    44292    44374    44543 
   44351    44259    44539    44589    44555    44613    44467    44384 
   44357    44114    44204    44674    44749    44603    44589    44397 
   44355    44638    44636    44449    44383    44346    44479    44604 
   44475    44375    44376    44325    44205    44202    44497    44701 
   44537    44429    44562    44654    44507    44265    44260    44440 
   44465    44305    44231    44388    44455    44330    44376    44428 
   44364    44525    44542    44256    44273    44444    44480    44563 
   44583    44637    44628    44319    44351    44571    44426    44590 
   44781    44441    44317    44325    44308    44633    44633    44332 
   44370    44309    44224    44399    44383    44355    44444    44369 
   44412    44547    44456    44365    44504    44667    44504    44324 
   44546    44636    44430    44358    44309    44335    44451    44377 
   44355    44424    44377    44317    44295    44376    44405    44371 
   44563    44595    44409    44522    44578    44432    44536    44593 
   44525    44573    44439    44254    44274    44388    44564    44471 
   44258    44385    44357    44168    44328    44385    44278    44403 
   44480    44550    44676    44553    44546    44676    44551    44551 
   44603    44456    44568    44619    44326    44316    44371    44291 
   44507    44469    44136    44298    44448    44195    44177    44450 
   44599    44483    44341    44463    44663    44649    44494    44479 
   44592    44529    44464    44542    44414    44322    44537    44597 
   44501    44434    44321    44351    44321    44242    44512    44508 
   44159    44248    44391    44381    44546    44505    44356    44422 
   44380    44387    44614    44624    44516    44557    44495    44392 
   44401    44426    44590    44665    44427    44377    44457    44317 
   44262    44296    44371    44543    44485    44394    44483    44492 
   44561    44565    44358    44349    44478    44562    44553    44386 
   44377    44358    44202    44414    44472    44083    44160    44465 
   44438    44507    44521    44344    44441    44571    44511    44500 
   44403    44376    44555    44448    44264    44479    44657    44540 
   44422    44406    44492    44553    44443    44383    44472    44536 
   44553    44608    44692    44573    44290    44265    44395    44396 
   44405    44469    44550    44528    44331    44325    44449    44317 
   44257    44382    44371    44333    44363    44387    44442    44481 
   44446    44420    44410    44400    44488    44606    44647    44571 
   44422    44415    44398    44281    44314    44335    44326    44442 
   44393    44281    44412    44582    44564    44382    44334    44458 
   44392    44336    44467    44571    44734    44694    44425    44505 
   44603    44403    44465    44694    44585    44350    44320    44437 
   44502    44439    44381    44312    44224    44297    44374    44353 
   44374    44315    44238    44366    44552    44535    44466    44659 
