Origin Time       2025/03/30 21:30:00
Lat.              38.535
Long.             142.295
Depth. (km)       44
Mag.              4.3
Station Code      IWTH27
Station Lat.      39.0307
Station Long.     141.5320
Station Height(m) -20
Record Time       2025/03/30 21:31:21
Sampling Freq(Hz) 100Hz
Duration Time(s)  120
Dir.              1
Scale Factor      2942(gal)/8224139
Max. Acc. (gal)   0.879
Last Correction   2025/03/30 21:31:20
Memo.             
[...]
   79022    79020    79023    79027    79027    79023    79023    79023 
   79024    79022    79019    79019    79020    79022    79026    79026 
   79022    79022    79022    79020    79022    79024    79023    79020 
   79018    79012    79019    79030    79024    79018    79018    79018 
   79019    79023    79020    79019    79022    79024    79020    79018 
   79023    79022    79015    79016    79019    79019    79019    79019 
   79022    79024    79023    79020    79019    79019    79020    79019 
   79016    79016    79022    79019    79016    79020    79020    79014 
   79010    79008    79011    79012    79008    79010    79018    79018 
   79015    79022    79029    79026    79019    79018    79022    79023 
   79019    79019    79022    79016    79012    79020    79023    79018 
   79016    79016    79018    79019    79018    79019    79023    79022 
   79018    79020    79027    79024    79020    79020    79019    79016 
   79014    79015    79016    79015    79015    79012    79014    79019 
   79019    79020    79023    79020    79022    79022    79016    79019 
   79026    79022    79020    79023    79016    79014    79019    79018 
   79014    79020    79020    79012    79012    79016    79015    79019 
   79019    79019    79022    79024    79023    79022    79020    79018 
   79019    79020    79020    79018    79019    79020    79023    79024 
   79020    79020    79022    79016    79012    79019    79024    79022 
   79020    79020    79019    79019    79023    79023    79019    79019 
   79022    79018    79014    79016    79019    79018    79019    79020 
   79019    79018    79018    79014    79010    79011    79018    79022 
   79019    79016    79015    79016    79016    79015    79015    79019 
   79019    79019    79020    79022    79018    79015    79020    79020 
   79022    79024    79019    79018    79018    79019    79023    79023 
   79020    79019    79020    79024    79024    79023    79023    79020 
   79019    79020    79019    79016    79012    79014    79019    79018 
   79012    79016    79020    79018    79018    79020    79020    79019 
   79019    79024    79024    79019    79018    79020    79022    79019 
   79016    79015    79014    79015    79014    79007    79008    79015 
   79016    79016    79016    79012    79010    79016    79018    79011 
   79010    79011    79012    79015    79015    79016    79014    79015 
   79016    79011    79011    79015    79010    79007    79015    79018 
   79015    79015    79014    79014    79016    79011    79008    79014 
   79015    79014    79015    79011    79010    79016    79015    79012 
   79011    79004    79006    79011    79010    79016    79024    79022 
   79018    79015    79015    79018    79014    79011    79011    79012 
   79014    79016    79019    79022    79019    79018    79022    79018 
   79014    79015    79015    79019    79023    79019    79018    79022 
   79020    79019    79019    79016    79018    79022    79018    79015 
   79020    79019    79015    79015    79022    79024    79019    79015 
   79020    79020    79019    79020    79018    79016    79020    79020 
   79014    79012    79015    79014    79016    79019    79016    79018 
   79014    79008    79014    79020    79022    79019    79018    79018 
   79014    79016    79024    79022    79016    79020    79016    79015 
   79024    79018    79014    79022    79020    79015    79010    79011 
   79019    79016    79014    79018    79015    79014    79019    79015 
   79012    79016    79016    79019    79016    79011    79011    79014 
   79014    79016    79016    79014    79014    79016    79023    79038 
   79050    79047    79029    79014    79041    79068    79012    78950 
   79022    79124    79069    78952    78929    78954    78995    79039 
   79018    78992    79011    78988    78968    79029    79085    79065 
   78997    78969    79057    79165    79120    78965    79004    79220 
   79177    78880    78752    78992    79388    79339    78727    78393 
   78858    79412    79330    78968    78834    78892    78983    79081 
   79154    79141    79092    78943    78795    79065    79455    79296 
   78744    78495    78844    79299    79338    79016    78764    78853 
   79007    79104    79165    78996    78867    78999    79145    79126 
   78904    78730    78825    79083    79228    79007    78848    79081 
   79084    78786    78834    79143    79219    79134    79092    79015 
   79058    78995    78664    78929    79417    79197    78892    78784 
   78768    79019    79169    79074    79073    79097    78756    78514 
   79045    79529    79240    78814    78803    78973    79073    79254 
   79278    79006    78931    78933    78906    79131    79185    79081 
   79096    78958    78889    78964    78943    79056    79240    79123 
   78741    78686    79076    79228    79096    78895    78736    78957 
   79138    79057    79050    79027    79186    79300    78865    78548 
   78923    79448    79354    78938    78881    78814    78719    79092 
   79392    79180    78950    78975    78939    78746    78871    79284 
   79299    78908    78776    79045    79068    78779    78838    79181 
   79380    79119    78683    78853    79273    79347    79120    78840 
   78873    78977    79008    79153    79124    78911    78867    79029 
   79072    78945    78946    78923    78872    79034    79105    79139 
   79178    78881    78802    79104    79138    79050    79060    78987 
   78850    78814    79023    79235    79099    78823    78892    79186 
   79127    78900    78916    78922    78958    79159    79266    79110 
   78725    78598    78950    79235    79199    79000    78902    78966 
   78935    79019    79220    79112    78921    78958    79155    79216 
   78966    78849    79050    79164    79073    79038    79000    78796 
   78779    79087    79236    79041    78935    79064    79081    79016 
   79045    79120    79158    79037    78861    78884    79074    79227 
   79250    78956    78570    78777    79259    79266    79007    78898 
   78954    79010    79041    79111    79089    78995    78958    78975 
   79073    79110    79004    78979    79022    79022    79062    79077 
   78911    78791    79095    79351    78957    78570    78821    79161 
   79137    79072    78973    78742    78903    79258    79181    78948 
   78962    79139    79037    78783    79038    79332    79076    78835 
   78880    78884    78884    79022    79170    79222    79069    78764 
   78796    79174    79286    79062    78961    79043    78943    78795 
   78988    79234    79147    78939    78883    78819    78889    79227 
   79209    78942    78923    78902    78970    79188    79196    79023 
   78862    78834    78954    79224    79443    79126    78638    78756 
   79118    79123    79002    78965    78942    79039    79122    78969 
   78912    79058    79093    79085    79076    78980    78946    79002 
   79049    79031    78977    78993    78991    78916    79007    79155 
   79026    78899    79092    79261    79092    78846    78903    79087 
   79046    78883    78902    79127    79212    79006    78846    78911 
   79007    79095    79185    79153    79008    78861    78987    79220 
   79026    78845    79030    79083    79029    79033    78999    78989 
   78929    78922    79077    79123    78970    78879    79061    79145 
   78860    78788    79108    79236    78985    78749    78857    79038 
   79047    79101    79149    79085    79002    78872    78876    79127 
   79301    79222    78969    78869    79069    79130    78948    78771 
   78726    79007    79296    79173    78885    78707    78864    79228 
   79197    78957    78988    79024    78965    79068    79169    79054 
   79042    79128    78907    78790    79062    79197    79155    79124 
   79015    78852    78808    79070    79281    79024    78768    78935 
   79116    78993    78916    79023    79054    79061    79004    78938 
   79120    79104    78831    78899    79110    79189    79186    79081 
   78981    78900    78879    78921    79014    79126    79042    79002 
   79100    78976    78817    78891    79034    79069    79022    79043 
   79123    79096    78899    78714    78907    79362    79354    78918 
   78807    78980    79041    79015    78968    79024    79223    79131 
   78783    78840    79100    79089    79076    79027    78876    78970 
   79135    79060    78922    78958    79108    78995    78777    78948 
   79097    79004    79072    79114    78957    78872    78973    79096 
   78987    78872    79104    79305    79042    78707    78894    79340 
   79273    78838    78760    78872    78992    79284    79305    78988 
   78826    78884    79027    79091    79065    79101    79078    78992 
   78929    78765    78854    79266    79286    79091    79084    78823 
   78645    79056    79276    79074    79065    78979    78792    78946 
   79027    78953    79092    79216    78995    78626    78845    79440 
   79307    78773    78721    78916    79056    79222    79303    79110 
   78781    78673    78927    79428    79687    79097    78175    78258 
   79258    79671    79245    78854    78578    78621    79286    79504 
   78912    78831    79191    79043    78980    79258    79131    78738 
   78756    79041    79107    79182    79274    78961    78699    78867 
   79050    79054    79006    79046    79061    78945    79038    79253 
   79145    78923    78891    78969    79078    79200    79189    78918 
   78775    79107    79429    79224    78808    78713    78869    78889 
   78846    79060    79189    78895    78690    78879    79131    79150 
   79018    79034    79039    78912    79047    79299    79219    79124 
   79173    78939    78780    79066    79123    78952    78954    78814 
   78748    78903    78927    79038    79269    79353    79168    78719 
   78640    79130    79425    79284    79030    78825    78822    79010 
   79078    79043    79087    78985    78725    78640    78939    79397 
   79357    78997    78906    78821    78714    79026    79524    79452 
   78942    78857    79047    78992    78948    79069    79141    78964 
   78830    79205    79424    78876    78507    78888    79218    79180 
   79054    78885    78976    79134    78918    78889    79054    78948 
   79006    79211    79078    78867    79014    79259    78985    78655 
   78966    79285    79257    79037    78725    78764    79061    79312 
   79307    78958    78856    79081    79135    79019    79042    79165 
   79030    78875    78962    79010    79047    79053    78831    78696 
   78915    79169    79074    78939    79110    79124    78942    78931 
   78887    78899    79154    79236    78988    78777    78906    79151 
   79083    78826    78784    79022    79191    79128    79111    79091 
   79029    79058    79050    79003    78956    79011    79251    79282 
   78949    78752    78949    79131    79188    79232    78960    78641 
   78823    79172    79294    79203    78969    78904    79011    78854 
   78768    79073    79143    78879    78830    79135    79293    78946 
   78664    78798    79014    79103    79159    79350    79321    78912 
   78711    78814    79026    79199    78991    78788    79027    79177 
   78996    78849    78935    79134    79056    78823    79003    79292 
   79211    79026    78894    78876    79000    79049    79023    78908 
   78799    78984    79224    79223    79047    78821    78879    79154 
   79115    78933    78912    78933    79010    79054    79064    79093 
   78973    78848    78946    79108    79111    79112    79258    79203 
   78962    78987    79127    79099    79091    79149    79105    79002 
   78918    78925    79084    79219    79204    79030    78790    78831 
   79046    79050    79027    79041    78976    79007    79002    78738 
   78651    79057    79253    78887    78660    78783    79056    79297 
   79258    79018    78788    78956    79280    79078    78877    79069 
   79192    79169    79016    78852    78818    78902    79080    78950 
   78667    78925    79303    79105    78780    78875    78945    78877 
   79212    79438    79137    78999    79016    78968    79184    79363 
   79177    78876    78684    78800    79043    79128    79134    78891 
   78432    78518    79200    79496    79228    79050    78996    78845 
   78912    79355    79486    79047    78853    79123    79257    79123 
   78962    78948    79050    78953    78767    78931    79203    79137 
   78934    78889    78862    78904    79180    79292    79020    78794 
   78880    79101    79157    78930    78822    79016    79088    79046 
   79033    78989    79089    79168    79002    78807    78752    78822 
   79050    79361    79393    79033    78609    78516    78900    79365 
   79504    79362    78939    78556    78768    79135    79164    79251 
   79108    78551    78557    78912    78722    78618    78896    78644 
   78152    78414    79089    79708    79924    79172    78537    78995 
   79366    79301    79577    79883    79677    79112    78718    78756 
   78840    78700    78529    78530    78741    79023    79211    79374 
   79450    79200    78930    79015    79273    79355    79239    79373 
   79902    80196    79647    78713    78197    78003    78171    78952 
   79751    79940    79527    79099    78887    78351    78217    79416 
   80063    79014    78382    78895    79111    78588    78067    78360 
   79035    78891    78038    77380    77465    78745    80550    81155 
   80489    79564    78618    78541    79987    81236    80842    79328 
   77552    76566    77322    78794    78970    78233    78108    78124 
   77873    78020    78575    79532    80485    80526    79975    79343 
   78935    79425    80299    80531    79907    78740    78100    78220 
   78270    78661    79253    78842    78106    78038    78443    79365 
   80376    80225    79046    78609    78993    78964    78976    79319 
   79286    79196    79694    80406    80192    78862    77751    77993 
   79161    79658    79065    78564    78304    77950    78376    79135 
   78601    78028    78771    79101    78977    79440    79208    78474 
   78671    79420    79965    79791    79312    79258    79060    78898 
   79316    79149    77989    77612    78571    78802    78187    78777 
   79517    78750    78081    78672    79617    79940    79456    79070 
   79425    79690    79272    79050    79539    79631    78988    78777 
   79153    79523    79447    78799    78260    77947    77997    79251 
   80316    79560    78688    78776    78945    79362    79780    79520 
   79266    79388    79478    79227    79083    79790    79791    78231 
   77984    79205    78937    78016    78322    78752    78721    78759 
   78556    78217    78538    79482    80099    79513    78645    78970 
   79548    79587    80021    80191    79235    78672    78852    78462 
   78301    78984    79051    78387    78039    78190    78803    79427 
   78881    77787    78345    79740    79794    79427    79558    79467 
   79442    79567    79208    78761    78630    78748    79037    78960 
   78318    77720    78040    79313    79938    79227    78730    78916 
   78970    79141    79458    79335    79053    79104    79218    79132 
   79251    79208    78478    78429    79308    79300    78603    78439 
   78630    78827    79026    79378    79471    79066    79207    79521 
   79038    78765    78813    78521    78823    79918    80300    79478 
   78784    78989    79374    79407    79081    78764    78948    79065 
   78773    78911    79362    79110    78552    78652    78786    78409 
   78386    79051    79753    79726    78849    78259    78601    79128 
   79524    79920    79853    79149    78522    78501    78717    78796 
   79081    79389    78956    78322    78456    79162    79479    78772 
   78252    78885    79396    79176    79200    79613    79419    78715 
   78734    79180    79064    78975    79330    79301    78948    79083 
   79222    78825    78678    78742    78497    78609    79138    79392 
   79146    78800    78968    79132    78821    78877    79432    79694 
   79407    78948    78907    78970    78648    78742    79272    79261 
   78984    78873    78746    78587    78675    79153    79483    79327 
   78865    78695    79278    79513    78985    78993    79454    79346 
   78718    78231    78522    79336    79517    78903    78594    78876 
   78938    78761    79011    79327    79076    78741    78734    78845 
   79080    79294    79223    79085    79073    79080    79165    79393 
   79316    78852    78734    78854    78829    78981    79012    78941 
   79108    78946    78718    78970    78958    78663    79081    79643 
   79236    78768    78937    78996    79066    79405    79348    79008 
   79097    79297    79141    79073    79272    79313    79119    78881 
   78777    78962    79178    79031    78800    78727    78644    79006 
   79631    79282    78494    78582    79020    79236    79429    79389 
   79122    78773    78646    79435    79975    78950    78271    79034 
   79373    79014    79166    79357    79124    79057    78966    78713 
   78799    79057    79027    78879    78925    78950    78750    78675 
   78790    78984    79355    79544    79375    79068    78848    79070 
   79219    78937    78979    79169    79008    78915    78980    78891 
   78579    78443    78972    79463    79100    78825    79088    78860 
   78547    78953    79265    79228    79249    79211    79300    79386 
   78930    78563    78904    79085    78791    78857    79154    79045 
   78900    79128    79209    78842    78688    79029    79401    79528 
   79392    79239    79081    78876    79091    79361    79016    78591 
   78711    79231    79342    78856    78835    79270    79240    78983 
   78980    79139    79014    78646    78867    79479    79463    78999 
   78894    78957    78711    78619    78973    79069    78721    78700 
   79209    79504    79300    79049    78781    78583    78993    79429 
   79212    79046    79145    78948    78642    78965    79458    78987 
   78467    78894    79277    79215    79105    79084    79134    78981 
   78772    78849    78980    79084    79326    79145    78544    78806 
   79485    79228    78894    79227    79338    78976    78950    79307 
   79393    79326    79150    78699    78613    79002    79095    78857 
   78970    79340    79161    78603    78520    78792    78933    79081 
   79282    79182    78790    78723    79085    79149    78992    79180 
   79375    79232    78972    78973    79223    79126    78888    79089 
   79149    78846    78771    78823    78838    79072    79218    78960 
   78906    79177    79224    79216    79204    79029    79065    79189 
   79143    79235    79317    79146    79123    79200    78827    78578 
   79045    79299    79072    79034    79053    79008    78950    78826 
   78885    79037    79030    78896    78680    78678    78954    79010 
   78853    79022    79173    78661    78339    78991    79469    79196 
   79087    79274    79282    79091    78939    78915    78880    78941 
   79080    78981    78772    78727    78948    79303    79232    78780 
   78800    79204    79169    78864    78892    79084    79185    79263 
   79293    79251    78966    78745    79128    79334    79083    79243 
   79359    79015    78867    78988    79220    79380    79151    78780 
   78722    78956    78999    78961    79181    79047    78810    79224 
