Origin Time       2025/03/30 21:30:00
Lat.              38.535
Long.             142.295
Depth. (km)       44
Mag.              4.3
Station Code      IWTH26
Station Lat.      38.9690
Station Long.     141.0013
Station Height(m) 17.5
Record Time       2025/03/30 21:31:30
Sampling Freq(Hz) 100Hz
Duration Time(s)  120
Dir.              3
Scale Factor      3923(gal)/8224838
Max. Acc. (gal)   0.392
Last Correction   2025/03/30 21:31:30
Memo.             
[...]
   11259    11205    11236    11287    11265    11196    11165    11194 
   11232    11254    11295    11353    11396    11387    11313    11253 
   11277    11284    11191    11101    11109    11190    11291    11377 
   11426    11421    11371    11300    11252    11226    11175    11106 
   11099    11169    11248    11303    11356    11398    11398    11352 
   11291    11232    11188    11192    11232    11263    11273    11287 
   11303    11300    11286    11290    11308    11313    11299    11286 
   11272    11264    11276    11275    11222    11175    11195    11276 
   11380    11426    11380    11325    11304    11294    11279    11259 
   11246    11250    11248    11225    11198    11221    11304    11365 
   11346    11317    11321    11334    11352    11354    11323    11257 
   11202    11211    11241    11244    11259    11296    11333    11361 
   11379    11387    11389    11356    11290    11252    11256    11291 
   11348    11360    11307    11268    11279    11314    11340    11321 
   11268    11230    11232    11245    11248    11275    11325    11341 
   11308    11265    11237    11207    11199    11257    11327    11340 
   11329    11340    11357    11342    11259    11152    11124    11187 
   11248    11279    11315    11335    11329    11329    11327    11295 
   11254    11252    11275    11276    11259    11252    11249    11253 
   11268    11298    11302    11249    11214    11265    11340    11352 
   11323    11314    11308    11273    11236    11194    11160    11192 
   11267    11308    11317    11322    11338    11361    11375    11338 
   11253    11198    11215    11240    11225    11209    11230    11275 
   11294    11275    11261    11303    11353    11326    11269    11245 
   11234    11241    11280    11287    11221    11179    11241    11326 
   11358    11364    11364    11348    11321    11300    11300    11275 
   11225    11250    11342    11371    11327    11321    11358    11342 
   11265    11244    11319    11389    11360    11265    11178    11132 
   11142    11176    11210    11261    11329    11392    11419    11377 
   11300    11260    11264    11281    11295    11303    11303    11275 
   11219    11214    11269    11283    11244    11249    11272    11238 
   11202    11227    11268    11269    11250    11260    11283    11283 
   11286    11304    11308    11296    11283    11292    11337    11364 
   11337    11284    11267    11298    11295    11253    11259    11277 
   11259    11265    11325    11371    11341    11275    11236    11207 
   11190    11227    11264    11254    11263    11298    11302    11269 
   11257    11292    11330    11319    11276    11242    11236    11261 
   11310    11341    11330    11291    11254    11250    11272    11275 
   11265    11273    11291    11315    11333    11314    11264    11226 
   11229    11271    11325    11349    11331    11299    11272    11249 
   11256    11283    11302    11323    11346    11352    11350    11348 
   11317    11256    11207    11232    11308    11331    11286    11252 
   11269    11318    11364    11387    11381    11345    11300    11284 
   11284    11267    11233    11203    11199    11207    11214    11246 
   11298    11318    11291    11249    11242    11265    11254    11211 
   11195    11207    11215    11227    11259    11290    11322    11360 
   11369    11345    11311    11279    11269    11291    11315    11338 
   11349    11319    11264    11253    11299    11349    11345    11304 
   11279    11275    11252    11206    11191    11217    11242    11263 
   11315    11388    11416    11367    11286    11244    11252    11290 
   11310    11275    11236    11237    11244    11252    11272    11276 
   11257    11233    11229    11252    11267    11253    11242    11257 
   11260    11214    11168    11191    11256    11300    11303    11283 
   11290    11322    11318    11283    11265    11268    11283    11291 
   11294    11315    11318    11302    11317    11317    11276    11265 
   11284    11310    11335    11337    11323    11310    11284    11269 
   11299    11346    11350    11323    11325    11350    11358    11342 
   11303    11257    11256    11280    11273    11250    11242    11233 
   11248    11300    11310    11263    11233    11264    11318    11315 
   11253    11219    11238    11250    11244    11250    11267    11276 
   11292    11317    11314    11272    11271    11327    11331    11281 
   11273    11295    11295    11269    11233    11240    11298    11318 
   11292    11280    11284    11286    11296    11322    11325    11295 
   11263    11267    11291    11280    11268    11294    11299    11275 
   11275    11279    11273    11292    11319    11313    11280    11242 
   11218    11221    11244    11254    11246    11265    11325    11368 
   11358    11317    11265    11242    11284    11350    11384    11372 
   11322    11267    11250    11280    11290    11237    11169    11161 
   11210    11248    11254    11267    11279    11259    11238    11254 
   11281    11275    11242    11250    11313    11356    11342    11330 
   11367    11398    11371    11317    11267    11234    11244    11250 
   11210    11194    11254    11319    11317    11280    11269    11292 
   11307    11286    11257    11250    11260    11273    11283    11286 
   11273    11256    11259    11291    11326    11344    11337    11294 
   11252    11277    11325    11303    11245    11249    11317    11372 
   11387    11395    11387    11315    11230    11207    11214    11203 
   11199    11218    11244    11276    11322    11349    11313    11259 
   11260    11300    11337    11356    11344    11300    11259    11256 
   11304    11342    11319    11276    11272    11294    11299    11287 
   11288    11296    11299    11313    11327    11317    11294    11261 
   11217    11190    11199    11238    11311    11340    11284    11249 
   11269    11271    11249    11244    11256    11267    11279    11291 
   11298    11277    11230    11207    11223    11240    11248    11272 
   11318    11352    11331    11300    11319    11349    11333    11283 
   11253    11275    11303    11295    11269    11242    11221    11223 
   11240    11244    11233    11222    11263    11350    11398    11358 
   11307    11286    11271    11272    11291    11310    11335    11333 
   11280    11242    11271    11337    11369    11318    11245    11217 
   11225    11267    11315    11319    11310    11317    11326    11329 
   11307    11261    11232    11240    11265    11291    11307    11306 
   11288    11263    11253    11284    11331    11350    11338    11317 
   11298    11283    11296    11331    11318    11245    11194    11218 
   11265    11264    11219    11183    11191    11232    11265    11275 
   11287    11321    11335    11326    11333    11329    11288    11271 
   11294    11307    11300    11291    11260    11218    11210    11221 
   11223    11248    11303    11342    11335    11326    11346    11364 
   11345    11296    11245    11223    11234    11253    11268    11283 
   11275    11244    11279    11375    11407    11345    11250    11202 
   11256    11329    11348    11334    11286    11240    11250    11275 
   11263    11215    11199    11252    11288    11269    11272    11313 
   11307    11238    11196    11230    11290    11317    11283    11219 
   11198    11237    11271    11261    11238    11242    11280    11327 
   11360    11361    11303    11227    11210    11219    11229    11264 
   11291    11272    11252    11283    11356    11407    11398    11344 
   11294    11294    11344    11399    11416    11383    11307    11234 
   11194    11161    11155    11207    11254    11244    11226    11268 
   11346    11368    11313    11257    11241    11260    11306    11345 
   11334    11281    11244    11227    11187    11160    11175    11211 
   11288    11377    11398    11373    11365    11365    11345    11306 
   11269    11248    11249    11280    11321    11348    11342    11294 
   11249    11245    11250    11253    11272    11294    11318    11357 
   11368    11330    11276    11230    11223    11254    11299    11352 
   11365    11322    11272    11254    11264    11265    11241    11227 
   11230    11244    11299    11356    11330    11245    11176    11153 
   11163    11195    11248    11286    11295    11304    11314    11313 
   11298    11273    11259    11273    11310    11327    11294    11260 
   11252    11238    11267    11357    11418    11416    11389    11352 
   11323    11322    11338    11352    11318    11248    11205    11202 
   11230    11268    11272    11246    11229    11253    11323    11364 
   11349    11331    11294    11242    11238    11233    11194    11187 
   11205    11207    11232    11283    11304    11286    11269    11273 
   11284    11299    11322    11349    11373    11356    11296    11248 
   11241    11253    11249    11226    11200    11200    11237    11276 
   11290    11286    11296    11310    11281    11254    11252    11227 
   11223    11280    11318    11307    11296    11314    11361    11385 
   11341    11267    11232    11264    11337    11410    11425    11352 
   11249    11199    11191    11205    11257    11322    11368    11402 
   11425    11426    11380    11275    11179    11165    11192    11199 
   11226    11303    11376    11400    11394    11356    11272    11191 
   11188    11263    11315    11302    11303    11340    11335    11302 
   11304    11325    11314    11280    11264    11273    11269    11233 
   11205    11210    11214    11194    11165    11163    11207    11256 
   11268    11260    11237    11214    11229    11263    11256    11240 
   11283    11352    11392    11389    11315    11222    11190    11173 
   11163    11210    11269    11291    11315    11356    11389    11392 
   11356    11323    11317    11307    11294    11300    11327    11358 
   11379    11364    11323    11287    11273    11273    11253    11211 
   11210    11280    11354    11369    11357    11362    11335    11273 
   11263    11279    11256    11245    11269    11269    11215    11165 
   11190    11257    11298    11310    11288    11215    11155    11195 
   11307    11376    11360    11335    11367    11392    11368    11346 
   11311    11221    11165    11195    11242    11254    11230    11217 
   11244    11253    11237    11234    11222    11219    11279    11348 
   11360    11315    11233    11161    11157    11205    11229    11229 
   11288    11391    11427    11391    11326    11248    11214    11256 
   11326    11376    11391    11391    11391    11362    11304    11287 
   11327    11345    11294    11244    11254    11298    11335    11360 
   11358    11331    11318    11357    11406    11388    11331    11292 
   11267    11223    11172    11169    11198    11200    11218    11280 
   11335    11368    11383    11376    11354    11319    11273    11248 
   11263    11292    11284    11226    11187    11230    11314    11338 
   11284    11226    11214    11230    11254    11264    11259    11250 
   11250    11272    11304    11308    11272    11214    11184    11200 
   11207    11160    11098    11080    11097    11109    11136    11176 
   11222    11304    11385    11379    11317    11288    11290    11253 
   11223    11257    11249    11195    11211    11263    11260    11191 
   11111    11128    11237    11331    11384    11411    11425    11422 
   11392    11388    11411    11407    11404    11431    11458    11449 
   11375    11288    11272    11277    11234    11196    11215    11260 
   11280    11273    11280    11311    11335    11348    11371    11396 
   11403    11415    11452    11473    11473    11466    11434    11384 
   11340    11283    11211    11148    11128    11173    11275    11361 
   11352    11292    11281    11329    11362    11303    11214    11241 
   11350    11396    11335    11191    11059    11071    11167    11200 
   11138    11033    10980    11044    11176    11294    11361    11375 
   11372    11387    11384    11329    11242    11136    11029    10993 
   11010    11009    11034    11151    11303    11452    11583    11657 
   11670    11655    11622    11569    11465    11272    11067    10972 
   10997    11071    11119    11118    11129    11230    11453    11700 
   11782    11649    11449    11327    11304    11314    11276    11173 
   11025    10841    10721    10797    11016    11242    11452    11601 
   11637    11608    11568    11519    11458    11367    11269    11236 
   11242    11227    11233    11281    11311    11284    11215    11173 
   11221    11302    11360    11389    11358    11307    11367    11487 
   11475    11364    11327    11358    11380    11384    11369    11348 
   11311    11209    11038    10871    10791    10835    10941    11063 
   11200    11314    11368    11396    11406    11387    11368    11325 
   11206    11056    10964    10962    10997    10986    10959    11037 
   11211    11402    11603    11735    11688    11551    11496    11507 
   11461    11368    11376    11487    11543    11508    11450    11385 
   11334    11373    11515    11608    11476    11194    10987    10918 
   10909    10968    11109    11211    11226    11246    11292    11300 
   11260    11205    11145    11098    11118    11211    11308    11385 
   11475    11535    11485    11345    11164    10993    10925    10970 
   11016    11028    11055    11144    11322    11538    11705    11808 
   11861    11826    11724    11635    11508    11257    10962    10709 
   10519    10461    10566    10759    10990    11245    11503    11722 
   11813    11759    11669    11635    11632    11599    11512    11354 
   11144    10972    10930    11030    11133    11130    11134    11254 
   11395    11458    11475    11487    11484    11485    11561    11680 
   11672    11476    11225    11037    10886    10750    10714    10801 
   10933    11118    11367    11557    11588    11507    11435    11442 
   11497    11489    11342    11175    11130    11173    11238    11300 
   11291    11184    11075    11036    11021    10975    10937    10972 
   11095    11287    11519    11759    11929    11962    11881    11730 
   11499    11210    10943    10758    10681    10737    10886    11007 
   11065    11111    11159    11198    11268    11394    11512    11581 
   11622    11618    11547    11423    11250    11087    11041    11106 
   11180    11223    11260    11321    11426    11522    11491    11321 
   11210    11310    11499    11596    11600    11561    11445    11269 
   11176    11192    11165    11048    10987    11041    11118    11145 
   11118    11092    11106    11163    11298    11472    11605    11735 
   11846    11804    11593    11348    11159    11038    10998    11011 
   11025    11049    11111    11219    11362    11468    11431    11269 
   11124    11110    11195    11298    11411    11487    11458    11379 
   11310    11221    11092    10970    10948    11065    11192    11226 
   11253    11313    11290    11175    11103    11125    11199    11284 
   11394    11549    11678    11711    11700    11672    11614    11547 
   11446    11325    11283    11314    11299    11196    11122    11155 
   11240    11331    11408    11372    11225    11134    11192    11327 
   11391    11284    11107    11032    11063    11126    11205    11248 
   11188    11079    11034    11080    11180    11322    11487    11573 
   11531    11461    11450    11429    11313    11159    11083    11095 
   11169    11314    11431    11389    11238    11115    11099    11151 
   11144    11060    11040    11132    11214    11200    11136    11094 
   11137    11241    11234    11091    11032    11099    11161    11226 
   11318    11388    11439    11530    11634    11630    11496    11375 
   11334    11331    11344    11377    11437    11480    11499    11549 
   11589    11543    11462    11437    11446    11427    11395    11383 
   11342    11261    11219    11244    11294    11338    11361    11376 
   11406    11434    11439    11406    11279    11078    10930    10897 
   10955    11088    11242    11325    11308    11240    11199    11209 
   11175    11041    10940    11009    11142    11178    11140    11092 
   11020    10987    11067    11188    11281    11362    11441    11472 
   11457    11434    11408    11356    11291    11267    11287    11306 
   11319    11348    11371    11331    11234    11161    11175    11263 
   11338    11352    11356    11371    11342    11287    11288    11345 
   11364    11306    11245    11219    11214    11227    11245    11280 
   11310    11267    11256    11385    11530    11596    11641    11672 
   11642    11545    11434    11341    11272    11234    11182    11094 
   11034    11021    11033    11051    11043    11033    11061    11097 
   11122    11192    11308    11385    11368    11276    11163    11103 
   11159    11284    11377    11369    11295    11268    11303    11323 
   11317    11315    11323    11354    11414    11480    11485    11377 
   11236    11190    11261    11360    11398    11367    11313    11271 
   11233    11188    11148    11141    11167    11146    11064    11045 
   11141    11261    11357    11454    11556    11643    11736    11826 
   11855    11792    11672    11551    11421    11245    11115    11091 
   11061    11006    11037    11129    11190    11205    11195    11211 
   11256    11246    11140    11001    10939    10948    10956    10978 
   11032    11086    11168    11290    11408    11468    11454    11438 
   11469    11475    11400    11292    11218    11188    11182    11192 
   11206    11196    11179    11196    11244    11294    11318    11319 
   11348    11427    11491    11462    11353    11230    11141    11110 
   11161    11264    11295    11203    11106    11115    11194    11271 
   11330    11362    11353    11341    11373    11433    11470    11450 
   11385    11367    11460    11541    11497    11427    11377    11306 
   11308    11407    11416    11288    11175    11159    11186    11190 
   11165    11167    11241    11337    11376    11372    11373    11387 
   11425    11456    11426    11342    11254    11213    11237    11250 
   11205    11148    11129    11130    11114    11087    11099    11140 
   11132    11088    11098    11165    11209    11200    11202    11250 
   11299    11287    11227    11152    11088    11113    11241    11367 
   11429    11466    11516    11539    11488    11410    11369    11365 
   11362    11346    11344    11350    11322    11277    11267    11292 
   11345    11403    11442    11438    11381    11313    11257    11205 
   11191    11230    11232    11192    11209    11238    11190    11138 
   11178    11261    11318    11337    11331    11311    11299    11322 
   11369    11399    11427    11473    11480    11414    11349    11358 
   11418    11442    11377    11273    11203    11175    11168    11172 
   11179    11164    11148    11171    11192    11152    11109    11142 
   11202    11230    11261    11283    11253    11230    11237    11219 
   11173    11115    11065    11055    11079    11124    11184    11260 
   11338    11422    11500    11523    11477    11438    11446    11431 
   11381    11389    11469    11537    11547    11519    11477    11427 
   11387    11334    11246    11186    11190    11184    11137    11099 
   11109    11163    11215    11226    11217    11214    11223    11256 
