Origin Time       2025/03/30 21:30:00
Lat.              38.535
Long.             142.295
Depth. (km)       44
Mag.              4.3
Station Code      IWTH21
Station Lat.      39.4734
Station Long.     141.9336
Station Height(m) 13
Record Time       2025/03/30 21:31:26
Sampling Freq(Hz) 100Hz
Duration Time(s)  120
Dir.              5
Scale Factor      7845(gal)/8223790
Max. Acc. (gal)   2.508
Last Correction   2025/03/30 21:31:26
Memo.             
[...]
  -13485   -13485   -13485   -13494   -13489   -13478   -13483   -13485 
  -13481   -13491   -13493   -13479   -13478   -13481   -13478   -13482 
  -13487   -13485   -13485   -13487   -13490   -13497   -13495   -13489 
  -13491   -13491   -13478   -13477   -13478   -13467   -13466   -13462 
  -13448   -13460   -13475   -13466   -13475   -13502   -13502   -13510 
  -13537   -13539   -13520   -13506   -13494   -13477   -13454   -13450 
  -13468   -13467   -13441   -13459   -13517   -13527   -13486   -13487 
  -13513   -13483   -13463   -13502   -13513   -13483   -13471   -13481 
  -13509   -13498   -13441   -13477   -13547   -13517   -13498   -13512 
  -13436   -13355   -13386   -13467   -13524   -13548   -13522   -13486 
  -13551   -13598   -13458   -13389   -13528   -13520   -13381   -13477 
  -13609   -13544   -13548   -13590   -13470   -13344   -13327   -13390 
  -13441   -13387   -13383   -13509   -13606   -13629   -13576   -13494 
  -13537   -13574   -13486   -13554   -13660   -13417   -13217   -13414 
  -13555   -13459   -13421   -13443   -13362   -13336   -13559   -13679 
  -13482   -13396   -13485   -13428   -13436   -13639   -13570   -13360 
  -13591   -13825   -13501   -13207   -13424   -13589   -13406   -13486 
  -13733   -13433   -13159   -13458   -13552   -13279   -13271   -13537 
  -13686   -13540   -13423   -13666   -13753   -13393   -13279   -13591 
  -13687   -13458   -13428   -13551   -13405   -13296   -13522   -13637 
  -13406   -13212   -13333   -13541   -13528   -13478   -13616   -13687 
  -13528   -13409   -13525   -13602   -13382   -13261   -13547   -13749 
  -13528   -13315   -13433   -13493   -13333   -13502   -13836   -13655 
  -13374   -13464   -13440   -13216   -13173   -13333   -13539   -13527 
  -13506   -13819   -13880   -13549   -13471   -13500   -13248   -13030 
  -13296   -13770   -13757   -13590   -13818   -13752   -13184   -13008 
  -13225   -13317   -13439   -13610   -13693   -13743   -13552   -13235 
  -13340   -13601   -13527   -13454   -13575   -13637   -13616   -13497 
  -13336   -13316   -13397   -13563   -13801   -13803   -13441   -13140 
  -13142   -13235   -13386   -13500   -13410   -13508   -13818   -13768 
  -13555   -13539   -13441   -13313   -13423   -13575   -13599   -13575 
  -13487   -13387   -13405   -13367   -13198   -13258   -13544   -13566 
  -13500   -13814   -13987   -13595   -13217   -13178   -13315   -13477 
  -13471   -13408   -13533   -13695   -13589   -13350   -13371   -13551 
  -13590   -13602   -13717   -13635   -13158   -12899   -13300   -13783 
  -13803   -13540   -13406   -13452   -13396   -13396   -13624   -13606 
  -13336   -13379   -13594   -13620   -13593   -13612   -13657   -13540 
  -13197   -13149   -13356   -13398   -13475   -13502   -13398   -13559 
  -13745   -13630   -13572   -13626   -13486   -13393   -13572   -13614 
  -13433   -13292   -13176   -13279   -13614   -13621   -13363   -13429 
  -13659   -13641   -13605   -13724   -13624   -13205   -12972   -13250 
  -13663   -13713   -13612   -13593   -13387   -13317   -13668   -13795 
  -13566   -13359   -13181   -13234   -13563   -13711   -13513   -13261 
  -13308   -13567   -13656   -13636   -13562   -13323   -13176   -13288 
  -13555   -13794   -13755   -13556   -13576   -13765   -13710   -13282 
  -12974   -13136   -13288   -13257   -13475   -13640   -13462   -13514 
  -13856   -13868   -13637   -13610   -13500   -13215   -13193   -13308 
  -13398   -13551   -13649   -13595   -13352   -13258   -13531   -13722 
  -13649   -13466   -13355   -13486   -13575   -13486   -13572   -13620 
  -13223   -13003   -13500   -13905   -13647   -13397   -13446   -13482 
  -13585   -13676   -13540   -13262   -12945   -13069   -13837   -14187 
  -13680   -13297   -13356   -13427   -13460   -13505   -13500   -13392 
  -13344   -13614   -13825   -13582   -13258   -13184   -13352   -13656 
  -13790   -13522   -13153   -13208   -13533   -13624   -13618   -13659 
  -13468   -13329   -13582   -13783   -13667   -13474   -13296   -13216 
  -13362   -13513   -13460   -13412   -13505   -13587   -13597   -13624 
  -13575   -13386   -13382   -13536   -13436   -13252   -13358   -13610 
  -13678   -13531   -13423   -13398   -13409   -13586   -13674   -13489 
  -13427   -13491   -13425   -13379   -13452   -13466   -13397   -13487 
  -13648   -13576   -13443   -13401   -13435   -13670   -13729   -13277 
  -13035   -13405   -13675   -13566   -13583   -13668   -13423   -13255 
  -13486   -13691   -13683   -13485   -13294   -13466   -13622   -13464 
  -13397   -13424   -13394   -13432   -13525   -13641   -13586   -13298 
  -13247   -13493   -13633   -13599   -13568   -13583   -13509   -13500 
  -13624   -13458   -13221   -13339   -13468   -13576   -13738   -13571 
  -13300   -13315   -13423   -13532   -13494   -13298   -13389   -13629 
  -13657   -13635   -13564   -13404   -13370   -13527   -13598   -13416 
  -13331   -13486   -13497   -13439   -13494   -13379   -13312   -13559 
  -13683   -13620   -13684   -13756   -13583   -13301   -13300   -13487 
  -13396   -13143   -13197   -13452   -13532   -13558   -13617   -13558 
  -13683   -13900   -13614   -13285   -13450   -13509   -13356   -13498 
  -13616   -13416   -13274   -13359   -13545   -13477   -13099   -13188 
  -13768   -13925   -13703   -13613   -13464   -13266   -13373   -13610 
  -13701   -13554   -13142   -13015   -13385   -13555   -13541   -13745 
  -13738   -13464   -13429   -13529   -13575   -13581   -13396   -13255 
  -13410   -13548   -13506   -13377   -13284   -13435   -13680   -13741 
  -13687   -13529   -13290   -13313   -13585   -13594   -13390   -13419 
  -13456   -13333   -13483   -13767   -13664   -13501   -13612   -13486 
  -13120   -13207   -13527   -13494   -13440   -13544   -13551   -13598 
  -13564   -13386   -13531   -13644   -13382   -13396   -13652   -13602 
  -13396   -13387   -13532   -13521   -13371   -13300   -13204   -13178 
  -13564   -13971   -13834   -13508   -13350   -13201   -13300   -13784 
  -13914   -13554   -13451   -13479   -13321   -13378   -13529   -13381 
  -13221   -13313   -13471   -13635   -13743   -13595   -13455   -13490 
  -13404   -13327   -13443   -13548   -13578   -13517   -13417   -13439 
  -13540   -13601   -13585   -13555   -13528   -13429   -13424   -13494 
  -13366   -13257   -13396   -13543   -13535   -13454   -13508   -13683 
  -13690   -13552   -13514   -13497   -13317   -13203   -13325   -13468 
  -13603   -13701   -13513   -13248   -13297   -13475   -13576   -13702 
  -13732   -13616   -13558   -13493   -13382   -13336   -13277   -13319 
  -13585   -13721   -13602   -13446   -13296   -13332   -13601   -13652 
  -13373   -13176   -13292   -13586   -13779   -13702   -13512   -13493 
  -13568   -13536   -13566   -13514   -13192   -13250   -13676   -13541 
  -13070   -13068   -13427   -13826   -14044   -13803   -13369   -13178 
  -13255   -13563   -13810   -13622   -13356   -13366   -13468   -13581 
  -13509   -13155   -13113   -13443   -13532   -13626   -13941   -13767 
  -13282   -13405   -13680   -13416   -13209   -13402   -13680   -13861 
  -13679   -13281   -13217   -13379   -13454   -13516   -13509   -13374 
  -13405   -13564   -13531   -13478   -13512   -13506   -13522   -13483 
  -13441   -13468   -13383   -13371   -13532   -13566   -13535   -13539 
  -13446   -13464   -13648   -13581   -13385   -13397   -13370   -13404 
  -13674   -13545   -13059   -13144   -13647   -13779   -13729   -13691 
  -13355   -13161   -13528   -13903   -13830   -13462   -13208   -13208 
  -13205   -13320   -13671   -13759   -13493   -13344   -13452   -13533 
  -13502   -13564   -13581   -13493   -13545   -13554   -13397   -13254 
  -13212   -13479   -13857   -13841   -13582   -13394   -13228   -13153 
  -13413   -13772   -13656   -13316   -13294   -13487   -13705   -13824 
  -13725   -13355   -12911   -13022   -13664   -13882   -13547   -13405 
  -13429   -13421   -13682   -13888   -13738   -13589   -13393   -13224 
  -13320   -13348   -13309   -13420   -13536   -13547   -13439   -13428 
  -13435   -13201   -13297   -13780   -13764   -13406   -13514   -13852 
  -13725   -13340   -13273   -13354   -13348   -13435   -13516   -13459 
  -13599   -13930   -13778   -13166   -12947   -13246   -13541   -13709 
  -13676   -13309   -13063   -13309   -13730   -14002   -13929   -13502 
  -13115   -13184   -13639   -13752   -13323   -13257   -13616   -13645 
  -13614   -13697   -13402   -13086   -13184   -13379   -13585   -13756 
  -13724   -13741   -13825   -13539   -13027   -12989   -13389   -13506 
  -13377   -13500   -13684   -13571   -13354   -13315   -13343   -13378 
  -13551   -13757   -13936   -14017   -13698   -13331   -13464   -13512 
  -13092   -12889   -13147   -13512   -13757   -13717   -13387   -13016 
  -12933   -13311   -13842   -14061   -13975   -13787   -13574   -13482 
  -13533   -13544   -13471   -13377   -13300   -13288   -13412   -13630 
  -13582   -13123   -12760   -12970   -13559   -13863   -13678   -13533 
  -13657   -13730   -13640   -13564   -13509   -13359   -13292   -13629 
  -14165   -14110   -13336   -12835   -13032   -13333   -13522   -13702 
  -13585   -13051   -12765   -13244   -13732   -13537   -13362   -13610 
  -13845   -14040   -14185   -14064   -13659   -13042   -12757   -13262 
  -13794   -13655   -13400   -13269   -12989   -13007   -13378   -13560 
  -13647   -13784   -13797   -13660   -13493   -13462   -13578   -13559 
  -13300   -13165   -13325   -13598   -13776   -13635   -13274   -13093 
  -13325   -13751   -13709   -13309   -13389   -13747   -13749   -13575 
  -13532   -13489   -13258   -13109   -13389   -13678   -13513   -13320 
  -13506   -13756   -13722   -13489   -13251   -13154   -13335   -13705 
  -13932   -13749   -13279   -13003   -13076   -13271   -13448   -13630 
  -13909   -14023   -13722   -13429   -13409   -13362   -13271   -13238 
  -13216   -13490   -13983   -14072   -13767   -13467   -13220   -13105 
  -13130   -13184   -13369   -13539   -13494   -13452   -13367   -13120 
  -13217   -13797   -14185   -14153   -13941   -13655   -13460   -13400 
  -13421   -13527   -13471   -13092   -12807   -12965   -13216   -13348 
  -13606   -13770   -13544   -13463   -13819   -13929   -13535   -13338 
  -13659   -13888   -13674   -13501   -13428   -13157   -12997   -13174 
  -13504   -13663   -13460   -13369   -13601   -13591   -13383   -13440 
  -13559   -13508   -13506   -13605   -13637   -13536   -13531   -13884 
  -14048   -13501   -13014   -13143   -13288   -13128   -13147   -13475 
  -13586   -13439   -13417   -13518   -13578   -13493   -13402   -13495 
  -13556   -13617   -13932   -14045   -13649   -13375   -13410   -13300 
  -13224   -13460   -13625   -13419   -13112   -13144   -13393   -13414 
  -13433   -13757   -13967   -13805   -13527   -13190   -12937   -13082 
  -13471   -13833   -14021   -13774   -13347   -13333   -13647   -13805 
  -13680   -13306   -12842   -12820   -13365   -13822   -13810   -13628 
  -13501   -13374   -13333   -13413   -13510   -13614   -13605   -13474 
  -13423   -13473   -13487   -13440   -13513   -13764   -13774   -13296 
  -12999   -13366   -13722   -13695   -13678   -13583   -13332   -13275 
  -13398   -13551   -13641   -13579   -13575   -13498   -13212   -13296 
  -13660   -13541   -13105   -13061   -13478   -13725   -13581   -13632 
  -13851   -13725   -13549   -13508   -13397   -13450   -13468   -13135 
  -13072   -13340   -13294   -13243   -13616   -13942   -13737   -13207 
  -13028   -13398   -13801   -13960   -13952   -13684   -13263   -13200 
  -13536   -13740   -13563   -13311   -13417   -13676   -13527   -13212 
  -13208   -13304   -13396   -13635   -13684   -13371   -13288   -13656 
  -13903   -13869   -13748   -13498   -13400   -13587   -13525   -13166 
  -13065   -13321   -13643   -13802   -13710   -13479   -13204   -12991 
  -13127   -13548   -13744   -13518   -13251   -13289   -13421   -13382 
  -13454   -13824   -14145   -14257   -14200   -13797   -13178   -12779 
  -12721   -12981   -13365   -13528   -13559   -13586   -13359   -12973 
  -12893   -13193   -13446   -13630   -14115   -14372   -13979   -13709 
  -13456   -12807   -12845   -13733   -14165   -13900   -13420   -13127 
  -13371   -13620   -13432   -13396   -13481   -13223   -13163   -13435 
  -13336   -13100   -13381   -13895   -14000   -13709   -13373   -13057 
  -12988   -13707   -14800   -14835   -13782   -13185   -13313   -13389 
  -13362   -13115   -12592   -12328   -12390   -12618   -12951   -13265 
  -13837   -14566   -14809   -14476   -13794   -13176   -13238   -13965 
  -14779   -15066   -14162   -12448   -11793   -12919   -14111   -13927 
  -12881   -12097   -12123   -12622   -12722   -12371   -12355   -13031 
  -14142   -15120   -15570   -15568   -15066   -14324   -14183   -14310 
  -13663   -12760   -12426   -12409   -12488   -12603   -12614   -12557 
  -12645   -13016   -13406   -13535   -13518   -13709   -14108   -14346 
  -14434   -14449   -14338   -14254   -14019   -13516   -13305   -13505 
  -13401   -12922   -12625   -12532   -12698   -13123   -13220   -13045 
  -13115   -13433   -14095   -14793   -14555   -13784   -13752   -14107 
  -13902   -13188   -12491   -12532   -13424   -14219   -14330   -13716 
  -12528   -12006   -12899   -13776   -13744   -13659   -13949   -14203 
  -13798   -12681   -12050   -12675   -13959   -15261   -15711   -14419 
  -12402   -11381   -11622   -12696   -13790   -14003   -13736   -13795 
  -14037   -14119   -14045   -13806   -13598   -13772   -13891   -13343 
  -12465   -11936   -12347   -13435   -13963   -13714   -13622   -14220 
  -15044   -15263   -14650   -13240   -11573   -10855   -11389   -12698 
  -14220   -15079   -15133   -14712   -13915   -13653   -13786   -12954 
  -12198   -12640   -13154   -13648   -14206   -13693   -12698   -12499 
  -12931   -13832   -14544   -13961   -12815   -12559   -13401   -14419 
  -14189   -12960   -12769   -13969   -15018   -14999   -13948   -12594 
  -12032   -12484   -13176   -13456   -13405   -13659   -14246   -14010 
  -12866   -12432   -13208   -14319   -14883   -14160   -12625   -12094 
  -13230   -14582   -14863   -14022   -12526   -11715   -12791   -14404 
  -14411   -13456   -13285   -13747   -13891   -13514   -12985   -12499 
  -12467   -13810   -15533   -15327   -13605   -12353   -12172   -12930 
  -13749   -13489   -12914   -12954   -13016   -13217   -13941   -14191 
  -13738   -13599   -13782   -13738   -13481   -13435   -13905   -14107 
  -13366   -12667   -12877   -13527   -14094   -14280   -13733   -12877 
  -12621   -12945   -13153   -13157   -13242   -13489   -13756   -13625 
  -13351   -13652   -14058   -13944   -13672   -13505   -13759   -14589 
  -14855   -13990   -13099   -12548   -12141   -12479   -13124   -12980 
  -12610   -12904   -13845   -14789   -14748   -14013   -13653   -13601 
  -13593   -13832   -13999   -13444   -12429   -12036   -12590   -13402 
  -13753   -13628   -13706   -13945   -13641   -13146   -13271   -13776 
  -13923   -13937   -14234   -14048   -13132   -12636   -12857   -13095 
  -13509   -14131   -13805   -12607   -12278   -13278   -14382   -14659 
  -14189   -13609   -13297   -12891   -12425   -12807   -13818   -14288 
  -14422   -14692   -14436   -13626   -12928   -12370   -11886   -11935 
  -12935   -14069   -14216   -13996   -13915   -13344   -12719   -12915 
  -13753   -14373   -14301   -14293   -14493   -13857   -12827   -12343 
  -12271   -12982   -13896   -13593   -13047   -13302   -13478   -13437 
  -13498   -13289   -13072   -13459   -14361   -15138   -14874   -13525 
  -12502   -12862   -13954   -14291   -13257   -11989   -11863   -12604 
  -13608   -14577   -14486   -13358   -12746   -13209   -13987   -14250 
  -13942   -13601   -13239   -12989   -13512   -14180   -14079   -13716 
  -13244   -12785   -13204   -13757   -13556   -13482   -13324   -12621 
  -12656   -13460   -13990   -14326   -14107   -13185   -12934   -13516 
  -13887   -14111   -14160   -13595   -12927   -12502   -12375   -13036 
  -13837   -13799   -13740   -14125   -13976   -13288   -13085   -13409 
  -13381   -13014   -13366   -14427   -14631   -13738   -13189   -12976 
  -12576   -12690   -13190   -13444   -13613   -13568   -13520   -14064 
  -14357   -13797   -13431   -13662   -13911   -13790   -13212   -12723 
  -12691   -12777   -13057   -13621   -13940   -13875   -13689   -13231 
  -12710   -12915   -13613   -14042   -14430   -14820   -14513   -13524 
  -12707   -12494   -12717   -13432   -14180   -13768   -12672   -12611 
  -13328   -13419   -13211   -13656   -14285   -14341   -13956   -13606 
  -13571   -13602   -13281   -13061   -13377   -13412   -13062   -13437 
  -13972   -13343   -12544   -13023   -14076   -14494   -14164   -13404 
  -12793   -12814   -13267   -14003   -14494   -13840   -12999   -13132 
  -13240   -13066   -13419   -13761   -13571   -13404   -13509   -13217 
  -12560   -12642   -13392   -13984   -14139   -13702   -13288   -13571 
  -14148   -14501   -14229   -13549   -13408   -13652   -13559   -13058 
  -12282   -11915   -12563   -13662   -14202   -13718   -12957   -13022 
  -13954   -15101   -15435   -14242   -12750   -12712   -13616   -14042 
  -13803   -13279   -12717   -12502   -12965   -13505   -13217   -12690 
  -12918   -13529   -14119   -14607   -14175   -13082   -12907   -13624 
  -14216   -14488   -14064   -13030   -12600   -12850   -13082   -13555 
  -14049   -13995   -13655   -13161   -12737   -12819   -12985   -13003 
  -13352   -13914   -14175   -13914   -13396   -13398   -14080   -14418 
  -13807   -13082   -12965   -13220   -13653   -13753   -13128   -12791 
  -13396   -13884   -13428   -12708   -12592   -13265   -14376   -15039 
  -14663   -13811   -13255   -12845   -12538   -12764   -12937   -12773 
  -13448   -14693   -14673   -13568   -12951   -13247   -14129   -14669 
  -14007   -13073   -12866   -12934   -13213   -13686   -13342   -12517 
  -12700   -13413   -13537   -13598   -13841   -13879   -13911   -13859 
  -13659   -13590   -13444   -13396   -13914   -14247   -13575   -12737 
  -12815   -13535   -13944   -13549   -12992   -13023   -13193   -13239 
  -13424   -13263   -12807   -13105   -14029   -14554   -14516   -14169 
  -13533   -12831   -12752   -13464   -14075   -14129   -13791   -12978 
  -12447   -13001   -13545   -13305   -13139   -13221   -13159   -13282 
  -13768   -14204   -14315   -14116   -13795   -13672   -13633   -13462 
  -13406   -13527   -13586   -13302   -12640   -12359   -12883   -13455 
  -13730   -13899   -13806   -13829   -14183   -13956   -13181   -12799 
  -12656   -12681   -13540   -14700   -14941   -14245   -13329   -12795 
  -13009   -13483   -13358   -13024   -13190   -13405   -13396   -13352 
  -13138   -13028   -13327   -13763   -14222   -14499   -14224   -13776 
  -13586   -13447   -13431   -13277   -12664   -12594   -13267   -13559 
  -13325   -12934   -12849   -13630   -14430   -14242   -13657   -13242 
  -13024   -13374   -14235   -14721   -14164   -13150   -12818   -12992 
  -12957   -13116   -13524   -13518   -13305   -13267   -13288   -13338 
  -13437   -13725   -14218   -14337   -13882   -13586   -13532   -13120 
  -12726   -13020   -13517   -13510   -13344   -13454   -13497   -13414 
  -13593   -13817   -13466   -12834   -13027   -13919   -14210   -13883 
  -13790   -13567   -13113   -13298   -13683   -13463   -13278   -13609 
  -13923   -13898   -13639   -13101   -12595   -12725   -13174   -13551 
  -14100   -14331   -13729   -13163   -13234   -13266   -13097   -13356 
