Origin Time       2025/03/30 21:30:00
Lat.              38.535
Long.             142.295
Depth. (km)       44
Mag.              4.3
Station Code      IWTH18
Station Lat.      39.4630
Station Long.     141.6775
Station Height(m) 452
Record Time       2025/03/30 21:31:28
Sampling Freq(Hz) 100Hz
Duration Time(s)  120
Dir.              2
Scale Factor      2940(gal)/6170270
Max. Acc. (gal)   0.240
Last Correction   2025/03/30 21:31:13
Memo.             
[...]
  115150   115151   115151   115150   115150   115150   115151   115153 
  115151   115147   115149   115151   115148   115150   115152   115151 
  115150   115150   115151   115151   115149   115149   115151   115150 
  115150   115150   115150   115151   115151   115151   115149   115148 
  115149   115150   115149   115150   115152   115150   115148   115149 
  115152   115152   115153   115155   115153   115151   115152   115152 
  115150   115151   115153   115154   115155   115158   115159   115160 
  115162   115163   115164   115164   115162   115152   115144   115143 
  115141   115142   115146   115143   115150   115164   115159   115153 
  115167   115180   115182   115169   115150   115149   115156   115153 
  115142   115120   115111   115123   115131   115139   115142   115122 
  115124   115163   115180   115143   115104   115122   115157   115151 
  115130   115129   115133   115143   115137   115108   115113   115154 
  115190   115213   115191   115138   115122   115158   115194   115160 
  115094   115119   115181   115155   115129   115141   115106   115087 
  115143   115196   115223   115228   115213   115220   115219   115180 
  115144   115092   115056   115129   115198   115152   115097   115108 
  115128   115142   115185   115211   115178   115132   115125   115160 
  115149   115123   115166   115139   115092   115173   115196   115138 
  115179   115204   115103   115078   115178   115189   115193   115267 
  115193   115065   115064   115132   115249   115217   115038   115081 
  115195   115161   115169   115190   115143   115139   115148   115140 
  115217   115255   115117   115044   115139   115172   115121   115122 
  115115   115110   115191   115208   115148   115181   115224   115119 
  114983   115121   115361   115239   115000   115058   115207   115175 
  115117   115196   115199   115102   115118   115143   115104   115143 
  115207   115146   115084   115122   115117   115115   115223   115270 
  115157   115099   115177   115161   115113   115182   115172   115086 
  115115   115202   115193   115084   115036   115102   115155   115177 
  115205   115164   115118   115164   115216   115253   115161   115027 
  115120   115206   115165   115139   115103   115121   115130   115107 
  115138   115153   115192   115205   115139   115123   115135   115186 
  115242   115161   115111   115149   115164   115206   115153   115054 
  115140   115220   115145   115077   115114   115171   115181   115205 
  115173   115077   115121   115261   115193   115013   115110   115276 
  115210   115165   115178   115112   115121   115185   115153   115133 
  115137   115123   115187   115186   115144   115210   115131   115004 
  115102   115202   115179   115193   115233   115155   115072   115186 
  115275   115122   115071   115245   115252   115113   115088   115103 
  115133   115156   115105   115065   115087   115137   115176   115190 
  115209   115199   115125   115069   115163   115248   115124   115076 
  115176   115182   115182   115160   115073   115103   115163   115162 
  115184   115202   115193   115147   115064   115079   115195   115196 
  115135   115152   115142   115129   115148   115158   115183   115109 
  115044   115163   115219   115132   115112   115173   115176   115102 
  115112   115220   115226   115164   115161   115138   115111   115147 
  115189   115188   115103   115024   115118   115254   115218   115139 
  115145   115150   115170   115148   115098   115180   115198   115105 
  115150   115241   115205   115117   115114   115161   115149   115140 
  115151   115127   115111   115139   115179   115133   115081   115176 
  115234   115171   115155   115159   115133   115143   115197   115193 
  115102   115078   115155   115205   115159   115109   115150   115179 
  115181   115192   115156   115150   115160   115129   115143   115160 
  115138   115156   115163   115157   115194   115156   115109   115165 
  115182   115140   115128   115147   115169   115144   115125   115133 
  115139   115199   115224   115145   115133   115177   115137   115096 
  115115   115132   115123   115140   115172   115123   115124   115213 
  115165   115109   115207   115252   115166   115074   115066   115133 
  115180   115187   115157   115073   115071   115161   115185   115188 
  115174   115115   115146   115202   115169   115126   115136   115201 
  115191   115088   115108   115163   115124   115127   115143   115151 
  115179   115175   115167   115109   115069   115154   115214   115182 
  115138   115131   115137   115155   115181   115153   115137   115143 
  115106   115132   115235   115272   115200   115119   115132   115165 
  115149   115174   115227   115216   115117   115039   115093   115151 
  115141   115137   115157   115209   115177   115101   115155   115230 
  115220   115151   115083   115120   115223   115205   115100   115123 
  115161   115099   115121   115169   115112   115092   115138   115161 
  115143   115112   115174   115242   115182   115136   115157   115171 
  115169   115149   115134   115130   115087   115063   115154   115194 
  115135   115171   115200   115154   115175   115196   115127   115113 
  115188   115148   115089   115187   115221   115104   115090   115209 
  115170   115070   115168   115202   115130   115167   115186   115143 
  115105   115106   115178   115191   115132   115145   115149   115109 
  115143   115164   115114   115109   115144   115153   115135   115143 
  115183   115190   115156   115151   115188   115165   115084   115095 
  115144   115098   115096   115164   115140   115101   115158   115235 
  115209   115132   115171   115243   115174   115099   115161   115198 
  115146   115153   115195   115171   115113   115112   115167   115169 
  115097   115067   115155   115222   115176   115168   115198   115159 
  115157   115170   115111   115105   115123   115166   115224   115112 
  115046   115154   115198   115171   115123   115147   115190   115130 
  115145   115158   115124   115216   115205   115076   115112   115179 
  115143   115123   115136   115178   115186   115102   115121   115219 
  115242   115214   115128   115107   115206   115227   115158   115109 
  115096   115157   115209   115128   115106   115187   115167   115103 
  115111   115154   115165   115142   115096   115076   115154   115194 
  115160   115190   115167   115078   115115   115165   115140   115175 
  115192   115141   115070   115045   115153   115161   115072   115157 
  115183   115061   115086   115184   115176   115152   115138   115145 
  115206   115184   115156   115227   115210   115122   115107   115156 
  115245   115209   115071   115123   115196   115111   115125   115219 
  115217   115178   115171   115161   115133   115168   115214   115201 
  115163   115130   115177   115202   115093   115071   115163   115152 
  115154   115200   115122   115114   115191   115128   115094   115143 
  115145   115175   115166   115087   115132   115213   115181   115153 
  115149   115146   115176   115145   115089   115135   115169   115132 
  115121   115148   115200   115213   115134   115088   115151   115185 
  115163   115197   115206   115150   115141   115120   115080   115137 
  115216   115184   115094   115081   115131   115152   115136   115162 
  115229   115217   115116   115066   115127   115191   115173   115126 
  115131   115168   115154   115133   115153   115132   115075   115062 
  115066   115074   115163   115283   115274   115177   115171   115212 
  115182   115177   115199   115146   115084   115125   115253   115261 
  115095   115058   115198   115203   115084   115071   115123   115137 
  115175   115246   115208   115092   115088   115136   115135   115138 
  115136   115139   115120   115073   115128   115194   115175   115152 
  115093   115117   115242   115192   115096   115173   115200   115098 
  115106   115179   115137   115153   115243   115200   115126   115150 
  115179   115165   115167   115170   115127   115158   115238   115178 
  115115   115162   115164   115171   115202   115114   115061   115157 
  115205   115133   115106   115168   115174   115144   115195   115223 
  115143   115082   115101   115144   115163   115144   115165   115174 
  115092   115106   115176   115127   115105   115156   115160   115114 
  115105   115166   115219   115191   115099   115073   115158   115226 
  115204   115135   115106   115147   115178   115175   115174   115113 
  115043   115090   115220   115296   115164   115053   115140   115138 
  115132   115199   115130   115106   115181   115196   115220   115228 
  115161   115136   115159   115125   115119   115177   115150   115113 
  115161   115157   115107   115090   115097   115179   115246   115170 
  115104   115169   115228   115175   115093   115109   115172   115167 
  115134   115123   115136   115154   115109   115064   115147   115249 
  115190   115113   115151   115219   115253   115132   115021   115153 
  115244   115196   115156   115124   115177   115178   115088   115152 
  115221   115119   115062   115169   115233   115113   115049   115184 
  115245   115175   115152   115131   115122   115152   115146   115191 
  115186   115048   115079   115250   115187   115014   115076   115223 
  115233   115183   115117   115045   115039   115143   115232   115140 
  115038   115096   115151   115223   115288   115136   115055   115187 
  115220   115167   115107   115133   115255   115216   115129   115151 
  115185   115172   115082   115086   115167   115113   115090   115168 
  115141   115083   115120   115140   115165   115254   115211   115076 
  115146   115297   115274   115177   115166   115190   115114   115051 
  115122   115146   115119   115147   115142   115121   115136   115101 
  115045   115129   115237   115203   115130   115043   115049   115217 
  115240   115104   115107   115201   115151   115082   115229   115318 
  115156   115078   115187   115271   115244   115166   115157   115177 
  115103   115071   115159   115165   115078   115029   115066   115157 
  115207   115232   115232   115191   115189   115233   115253   115157 
  115075   115091   115098   115176   115192   115068   115064   115142 
  115161   115135   115086   115057   115116   115219   115205   115161 
  115181   115131   115080   115142   115199   115153   115069   115081 
  115182   115221   115178   115121   115094   115124   115148   115141 
  115155   115202   115204   115133   115102   115095   115084   115144 
  115211   115226   115222   115186   115175   115216   115187   115141 
  115154   115134   115157   115172   115086   115111   115153   115101 
  115136   115167   115149   115143   115106   115189   115301   115217 
  115166   115156   115057   115101   115216   115199   115165   115138 
  115120   115160   115173   115162   115134   115053   115061   115111 
  115110   115181   115215   115137   115108   115174   115202   115118 
  115119   115199   115162   115118   115147   115187   115157   115081 
  115145   115223   115127   115086   115181   115210   115149   115111 
  115161   115192   115168   115194   115188   115131   115081   115062 
  115116   115128   115127   115161   115143   115157   115199   115201 
  115216   115214   115171   115172   115199   115196   115199   115141 
  115136   115246   115164   115041   115087   115091   115103   115093 
  114997   115066   115209   115185   115106   115123   115220   115209 
  115090   115107   115189   115156   115130   115185   115197   115135 
  115133   115205   115205   115148   115168   115205   115150   115082 
  115080   115125   115158   115151   115139   115150   115181   115198 
  115179   115167   115189   115164   115069   115069   115135   115122 
  115137   115204   115183   115140   115151   115137   115140   115183 
  115180   115162   115164   115211   115244   115192   115127   115102 
  115179   115244   115146   115051   115080   115143   115133   115132 
  115204   115169   115082   115132   115206   115180   115076   115053 
  115195   115228   115119   115121   115175   115188   115148   115095 
  115153   115197   115155   115152   115185   115161   115099   115144 
  115200   115112   115064   115150   115222   115171   115059   115074 
  115186   115211   115156   115116   115134   115176   115178   115160 
  115133   115116   115144   115148   115121   115157   115246   115204 
  115035   115082   115265   115235   115159   115159   115125   115170 
  115287   115240   115054   114994   115104   115168   115108   115099 
  115175   115158   115146   115201   115139   115122   115267   115335 
  115272   115213   115191   115132   115151   115245   115097   114924 
  114998   115024   114979   114993   114969   114957   115032   115144 
  115170   115070   115078   115216   115242   115197   115215   115292 
  115297   115208   115211   115199   115128   115206   115152   114885 
  114893   115024   114957   114961   115020   115005   115047   115148 
  115282   115287   115193   115326   115435   115320   115273   115323 
  115437   115454   115221   115116   115199   115117   115009   115053 
  115084   115086   115142   115183   115150   115123   115205   115314 
  115346   115351   115405   115499   115470   115354   115397   115447 
  115327   115237   115217   115143   115028   114871   114821   115019 
  115106   114946   114878   114886   114946   115125   115093   114918 
  114967   115040   115023   115135   115313   115371   115307   115233 
  115223   115195   115083   115021   114994   114849   114700   114716 
  114745   114646   114712   115029   115224   115219   115175   115175 
  115271   115448   115512   115376   115354   115457   115403   115272 
  115260   115386   115424   115292   115229   115202   115133   115203 
  115281   115117   114965   115032   115138   115241   115419   115582 
  115558   115421   115360   115215   114968   114898   114943   114972 
  114982   114970   114961   114863   114816   115041   115247   115230 
  115234   115346   115323   115100   114986   115081   115194   115253 
  115185   115035   115012   115042   115025   114987   114906   114988 
  115179   115159   115059   115029   115048   115098   115103   115160 
  115235   115227   115309   115468   115553   115544   115283   114915 
  114939   115107   115024   115009   115078   115058   115050   114994 
  115036   115222   115271   115209   115126   115056   115075   115130 
  115074   114931   115019   115279   115356   115268   115181   115182 
  115273   115292   115129   115046   115264   115437   115337   115153 
  115104   115204   115195   115142   115172   115098   115103   115257 
  115332   115378   115270   114941   114792   115064   115442   115475 
  115323   115281   115212   115118   115063   115003   114953   114893 
  115002   115226   115172   115043   115065   115050   115154   115312 
  115202   115098   115180   115182   115009   114796   114784   114946 
  115005   115012   115003   114965   115115   115236   115225   115360 
  115297   115097   115276   115362   115222   115358   115440   115310 
  115340   115296   115059   115006   115100   115085   115049   115094 
  115177   115232   115145   115040   115042   115069   115229   115285 
  114976   114856   115183   115470   115422   115184   115088   115215 
  115315   115346   115409   115335   115163   115150   115189   115173 
  115123   114986   114953   115142   115250   115201   115104   114882 
  114883   115186   115214   115090   115147   115250   115387   115411 
  115228   115136   115174   115179   115097   114928   114922   115075 
  115096   115030   114916   114937   115159   115117   115022   115199 
  115210   115072   115080   115143   115211   115198   115056   115055 
  115157   115028   114916   115011   115045   115173   115400   115339 
  115089   115056   115294   115398   115251   115122   115157   115429 
  115546   115240   115031   115087   115186   115200   114978   114807 
  115034   115302   115273   115166   115138   115221   115311   115198 
  115212   115398   115404   115422   115378   115146   115077   115145 
  115111   114994   115012   115120   115037   114879   114853   115029 
  115298   115282   115097   115096   115075   114984   115107   115317 
  115370   115265   115173   115239   115237   115052   114979   115023 
  115020   115008   115019   115091   115128   115128   115211   115099 
  114977   115235   115309   115069   115036   115196   115270   115066 
  114883   115011   115125   115209   115299   115209   115157   115213 
  115236   115238   115240   115246   115150   115092   115316   115458 
  115376   115428   115421   115101   114874   114964   115019   114922 
  114978   115088   115032   114989   115046   115174   115281   115281 
  115263   115185   115152   115265   115244   115163   115299   115382 
  115139   114900   115034   115239   115136   115045   115166   115118 
  114937   114970   115090   115044   114981   115154   115262   115107 
  115088   115156   115155   115228   115192   115058   115072   115252 
  115334   115128   115087   115241   115093   115020   115327   115475 
  115297   115158   115191   115206   115115   115076   115156   115216 
  115201   115191   115167   115080   115120   115277   115158   114847 
  114831   115074   115272   115352   115247   115078   115069   115101 
  115204   115394   115244   114963   115092   115285   115267   115307 
  115265   114952   114832   115138   115297   115184   115163   115056 
  114997   115191   115193   115097   115154   115096   114980   115020 
  115099   115060   115002   114957   114905   115111   115345   115201 
  115147   115389   115421   115249   115201   115290   115401   115361 
  115191   115126   115103   115122   115321   115314   115012   114933 
  114964   114928   115082   115232   115239   115197   115136   115161 
  115140   115135   115247   115195   115117   115119   115018   115076 
  115266   115255   115160   115075   115129   115283   115230   115158 
  115170   115214   115302   115188   115035   115035   115077   115142 
  115147   115134   115131   115057   114917   114884   115074   115238 
  115257   115165   115131   115285   115293   115187   115145   115132 
  115307   115417   115269   115160   115070   115080   115320   115336 
  115134   115143   115143   115049   115053   115037   115019   115000 
  114935   115029   115184   115101   115046   115321   115470   115255 
  115120   115156   115145   115164   115283   115215   115055   115211 
  115298   115101   115055   115104   115092   115082   115105   115141 
  115119   115216   115276   115088   115061   115145   115130   115260 
  115331   115194   115111   115056   115068   115193   115126   114955 
  114959   115013   115136   115273   115168   115072   115119   115072 
  115068   115099   115068   115202   115287   115101   115119   115430 
  115407   115046   114982   115123   115085   115086   115162   115146 
  115124   115128   115164   115118   114955   114984   115220   115350 
  115267   115224   115417   115447   115230   115191   115142   115002 
  115099   115241   115264   115263   115261   115291   115310   115311 
  115255   115131   115128   115221   115151   114979   114907   114888 
  114958   115060   115056   115098   115131   115150   115211   115088 
  115021   115219   115278   115148   115098   115095   115167   115302 
  115256   115121   115048   114986   115037   115128   115071   115075 
