Origin Time       2025/03/30 21:30:00
Lat.              38.535
Long.             142.295
Depth. (km)       44
Mag.              4.3
Station Code      IWTH23
Station Lat.      39.2741
Station Long.     141.8233
Station Height(m) 44
Record Time       2025/03/30 21:31:21
Sampling Freq(Hz) 100Hz
Duration Time(s)  120
Dir.              5
Scale Factor      7845(gal)/8223790
Max. Acc. (gal)   4.922
Last Correction   2025/03/30 21:31:21
Memo.             
[...]
    1676     1676     1675     1678     1679     1678     1676     1678 
    1678     1678     1678     1678     1676     1675     1676     1676 
    1676     1678     1676     1676     1678     1676     1679     1678 
    1676     1678     1676     1676     1680     1678     1678     1678 
    1675     1676     1679     1679     1678     1678     1678     1679 
    1679     1679     1676     1672     1676     1678     1678     1680 
    1680     1675     1675     1678     1679     1679     1678     1678 
    1676     1675     1676     1678     1676     1675     1675     1676 
    1676     1678     1676     1675     1676     1678     1676     1676 
    1678     1675     1675     1678     1679     1676     1675     1675 
    1676     1676     1676     1678     1676     1676     1678     1676 
    1678     1678     1675     1676     1678     1678     1678     1675 
    1674     1675     1678     1678     1678     1678     1678     1678 
    1679     1679     1675     1676     1678     1678     1676     1675 
    1675     1678     1676     1675     1675     1675     1679     1680 
    1676     1676     1676     1675     1678     1678     1679     1679 
    1675     1676     1679     1675     1675     1676     1676     1678 
    1675     1675     1679     1676     1675     1678     1676     1678 
    1679     1676     1678     1678     1678     1679     1679     1678 
    1679     1678     1675     1675     1678     1678     1675     1676 
    1676     1678     1679     1674     1672     1678     1679     1676 
    1675     1675     1678     1678     1678     1679     1678     1674 
    1675     1678     1676     1678     1675     1674     1675     1676 
    1676     1675     1675     1679     1680     1678     1676     1678 
    1676     1674     1672     1676     1676     1675     1674     1676 
    1680     1678     1675     1676     1678     1678     1675     1674 
    1679     1682     1678     1680     1683     1682     1684     1683 
    1675     1671     1679     1684     1674     1682     1691     1629 
    1578     1640     1695     1692     1699     1683     1672     1699 
    1745     1850     1854     1687     1615     1603     1555     1695 
    1803     1539     1316     1406     1680     2103     2096     1512 
    1302     1480     1590     1953     2088     1688     1607     1614 
    1490     1786     1941     1773     1620     1306     1235     1559 
    1877     1864     1472     1451     1918     2054     1965     1935 
    1409      815     1378     2474     2501     1811     1490     1057 
     797     1850     2710     1787      722     1117     2087     2284 
    1872     1632     1405     1100     1690     2677     2209     1162 
    1123     1587     2261     2268     1482     1705     1752      602 
     864     2146     2124     1845     2003     1699      984      639 
    1802     3202     2490     1271     1286     1455     1540     1787 
    1971     2112     1579      797     1498     2425     1549      916 
    1717     1705     1208     1939     2288     1547     1529     1879 
    1934     2249     1645      672     1494     2243     1856     2319 
    2392      951      291      930     1615     2241     2448     1524 
     791     1822     2876     2079     1070     1233     1544     1822 
    2417     2386     1512      801     1081     2039     2089     1493 
    1711     1649     1167     1578     1698     1416     1845     1872 
    1645     2184     2184     1352     1059     1672     2454     2219 
    1383     1215     1277     1282     1652     2168     2168     1493 
    1043     1173     1524     2066     2236     1922     1921     1783 
    1254     1412     1809     1544     1571     2069     1911     1551 
    1769     1640     1113     1360     1858     1721     1779     2157 
    1768     1092     1348     1984     1929     1641     1834     2069 
    1701     1074     1314     2130     2060     1637     1645     1428 
    1275     1499     1888     2365     1899      880     1081     1937 
    2114     1964     2104     1952      996      652     1829     2768 
    2185     1254     1317     1750     1559     1370     1529     1472 
    1642     2219     2123     1571     1449     1359     1413     1993 
    2446     2010     1124     1208     1603     1383     1980     2455 
    1355     1042     1809     1657     1633     2296     2030     1155 
    1027     1516     1895     1918     1894     1975     1775     1435 
    1555     1764     1485     1395     1879     1906     1459     1530 
    1858     1795     1486     1441     1657     1845     2149     2120 
    1510     1251     1464     1622     1856     2010     1595     1174 
    1509     1927     1902     1796     1597     1470     1566     1656 
    1987     2092     1248      896     1977     2490     1597     1144 
    1652     1884     1773     1941     1823     1235     1231     1934 
    2332     1857     1074      962     1487     1949     2214     2243 
    1653     1026     1372     2018     1871     1478     1651     1903 
    1661     1559     1826     1613     1466     2062     1919     1081 
    1386     2052     1706     1532     2038     1876     1242     1306 
    1733     2049     2208     1806     1115     1089     1737     2060 
    1819     1634     1549     1416     1674     2269     1983      982 
    1109     2068     2180     1652     1679     1984     1312      718 
    1856     2735     1815     1162     1479     1696     1884     1888 
    1560     1445     1451     1533     1890     2052     1701     1405 
    1556     1718     1827     1989     1695     1248     1324     1545 
    1948     2527     2033      858      943     1750     1861     2057 
    2351     1567      893     1410     1815     1745     1826     1896 
    1833     1771     1572     1277     1521     1969     1642     1485 
    2015     1800     1296     1713     1879     1501     1647     1894 
    1829     1620     1360     1553     1800     1467     1552     2382 
    2274     1053      857     1921     2285     1767     1618     1628 
    1273     1340     1918     2035     1750     1518     1479     1799 
    1809     1344     1513     2026     1949     1885     1952     1421 
     901     1190     1840     2293     2296     1707     1121     1279 
    1706     1887     1954     1575     1163     1617     1966     1674 
    2003     2396     1560      847     1393     2139     1984     1374 
    1544     1946     1483     1281     1912     1945     1529     1705 
    1725     1451     1742     2045     1703     1344     1479     1750 
    1938     2014     1597     1196     1582     1937     1750     1641 
    1629     1674     1792     1582     1355     1575     1740     1702 
    1896     2003     1599     1360     1683     1737     1487     1721 
    2023     1767     1424     1547     1783     1688     1544     1521 
    1679     1968     1791     1364     1516     1950     1906     1456 
    1486     2057     1842     1040     1285     2110     2177     1848 
    1628     1290     1190     1726     2164     2030     1686     1271 
    1345     1975     1941     1605     1803     1528     1062     1548 
    2108     2238     2135     1298      710     1444     2168     2104 
    2020     1912     1339      868     1358     2246     2405     1865 
    1244     1101     1491     1975     2316     1880      886     1082 
    2064     2056     1715     1819     1526     1170     1626     2023 
    1787     1745     1703     1161     1316     2273     2344     1620 
    1181     1117     1640     2494     2382     1401     1081     1412 
    1634     1885     1900     1567     1553     1757     1557     1228 
    1660     2404     2093     1354     1381     1613     1530     1526 
    1908     2174     1672     1359     1779     1634     1368     1958 
    1992     1437     1711     1903     1300     1273     2000     2120 
    1610     1513     1471     1158     1641     2413     1962     1163 
    1328     1767     1857     1890     1817     1614     1475     1493 
    1750     1973     1931     1776     1447     1134     1445     1998 
    1908     1625     1821     1836     1318     1354     2039     1950 
    1425     1761     1941     1243     1161     1996     2369     1864 
    1287     1112     1237     1794     2442     2339     1705     1198 
     994     1360     2046     2181     1868     1782     1605     1233 
    1444     1921     1834     1587     1506     1487     1860     2047 
    1451     1329     1953     1900     1517     1850     1927     1219 
    1197     1935     2162     1998     1609     1132     1296     1702 
    1968     2112     1633     1135     1371     1742     1966     2003 
    1660     1583     1715     1452     1665     2231     1659      953 
    1525     2177     2197     2020     1514     1036     1096     1474 
    1929     2031     1833     1792     1568     1385     1810     2058 
    1768     1632     1593     1410     1591     1953     1771     1657 
    2025     1590      832     1568     2261     1637     1636     1996 
    1452     1464     2033     1615     1297     1860     1834     1300 
    1487     2035     2010     1599     1487     1507     1510     1858 
    2122     1746     1263     1328     1728     1912     1921     1953 
    1642     1084     1291     2020     2099     1992     1857     1017 
     784     1884     2455     1892     1578     1684     1340     1277 
    2143     2215     1058      924     2108     2551     1976     1545 
    1117      592     1231     2760     3025     2007     1159      708 
    1128     2263     2474     1806     1298      982     1196     2010 
    2376     1799     1166     1420     1975     1902     1734     1741 
    1458     1327     1614     1996     2262     1865     1181     1366 
    1921     1734     1412     1678     1728     1391     1497     1715 
    1625     1779     2046     1802     1497     1599     1637     1738 
    2072     1773     1200     1402     1640     1645     2053     2039 
    1474     1386     1420     1421     2025     2358     1742     1296 
    1462     1738     2053     2018     1462     1244     1518     1560 
    1412     1769     2542     2293     1201     1313     1829     1220 
    1012     1715     2204     2593     2474     1332      530      904 
    1825     2573     2455     1460      702      990     1768     2169 
    2239     2133     1574     1007     1125     1602     2053     2239 
    1867     1575     1568     1375     1545     1906     1728     1625 
    1723     1651     1696     1809     1652     1258     1314     2012 
    2162     1760     1904     1858     1080      963     1799     2303 
    1998     1501     1246     1136     1501     2185     2169     1710 
    1489     1448     1807     2141     1723     1248     1574     2106 
    1883     1252     1032     1408     2124     2484     2137     1406 
     973     1431     1944     1698     1566     1692     1493     1895 
    2624     1734      592     1344     2166     1837     1772     1837 
    1236     1009     1620     2201     2265     1773     1418     1588 
    1551     1494     1954     1958     1179      977     1613     2046 
    2108     2101     1759     1193     1251     1861     2160     2149 
    1852     1104      834     1468     1942     2046     2226     1922 
    1240     1100     1412     1852     2145     1908     1695     1640 
    1100     1069     2357     2957     1706      639     1074     1887 
    2019     1856     1887     1347      666     1548     2693     2185 
    1543     1625     1227     1067     1884     2259     1981     1830 
    1537     1382     1867     1985     1260     1121     1906     2200 
    1935     1829     1529     1069     1094     1745     2583     2609 
    1564      793     1190     1930     2242     2398     2181     1301 
    1057     1784     1858     1377     1476     1524     1198     1449 
    2014     1868     1602     1850     1668      847      599     1264 
    1934     2073     1871     1815     1845     1440     1621     2592 
    1938      421     1132     2458     1957     1435     1810     1555 
    1266     1981     2012     1078     1156     1429      720     1098 
    3024     4001     3076     1410      448      997     2601     4063 
    4012     2259      525     -417     -592      726     2674     3214 
    2197     1404     1695     1884     1088      -36     -120     1399 
    3200     3445     2058      962     1321     2521     3341     2690 
    1509      912       44     -230      803     1015      899     2457 
    3694     2601      519    -1000     -746     2223     5526     4864 
     688    -1879     -662     2504     5697     5957     1749    -1926 
    -835     1782     3277     4056     2504     -384     -243     1975 
    2824     3284     3346     1139     -742     -132      919     1676 
    2184     1953     1786     1794     1892     2539     2570     1274 
     365     1282     3222     3910     2126     -126     -537      383 
    2004     3755     3572     1509     -214     -799     -268     1089 
    2574     3588     3288     1787      649     1055     2350     2830 
    2482     1890     1093     1694     3032     1969       90     -171 
     187     1803     4480     4594     1613     -905     -831      823 
    2521     3786     3719     1822      210      368     1209     2219 
    3353     3543     2204      187    -1093     -530     1973     4087 
    3562     1956      530     -981      -35     3303     4452     3033 
     946    -1381     -827     3264     5579     3856      665    -1306 
    -189     2986     5023     4132      156    -3483    -2042     2308 
    4560     4433     2482     -337    -1147      653     3569     5181 
    3400      634     -120      583     2376     3997     3229     1621 
     626     -423      210     2404     3025     2323     1224     -230 
    -222     1379     2733     2685     1370     1077     2304     2286 
    1453     2114     2533     1178      494     1711     2999     3515 
    2929      405    -1470      480     3400     3923     3345     1958 
    -483    -1067      932     2836     3217     2307     1278      615 
     271     1475     2749     1844     1163     1497     1422     2543 
    3936     2582      527      769     2280     2794     1934     1325 
    1264      892     1333     2123     1313      837     2057     2336 
    1252     1042     1165      645     1386     3060     2916     1304 
     153      221     1501     2997     3727     3527     2103       67 
    -406      847     2080     3353     4016     2259       78       86 
     835     1281     2076     2212     1304     1139     2450     3271 
    1776      -36      373     2008     3083     3169     2620     1837 
     791     -203     -132     1919     4464     4117     1275     -409 
    -172      581     1733     3276     3487     1707      295      364 
    1070     2536     3681     2732      930      225      789     1821 
    2380     2358     1850      886      708     1822     2552     2107 
    1455     1047      770     1270     2848     3418     1733      479 
    1263     2164     2002     1645     1547     1028      897     2272 
    3076     2292     1556      734      130     1129     2118     1945 
    2548     3465     2097      -86        6     1579     2945     3697 
    2791      812      -90      198     1205     2693     2990     1811 
    1048     1069     1566     2304     1728      684     1443     2589 
    2641     2232     1740     1378      449     -140     1764     3350 
    2439     2188     2250      329     -313     2101     3303     2142 
    1887     1715      383      880     2282     1853     1899     2466 
    1090      220     1570     2420     1983     1391     1123     1701 
    2465     2219     1394     1217     1744     2052     2120     2056 
    1633     1653     1852     1163      970     1840     1845     1530 
    2230     2305     1499     1308     1069      864     1707     2085 
    1682     2200     2444     1393     1279     1992     1637     1297 
    1549     1472     1765     2554     2297      741      220     2003 
    2913     1414      951     2201     2393     1449      762      988 
    2346     3160     2382     1575      795        6      980     2636 
    3164     2979     1622        4      332     1432     2034     2625 
    2457     1472     1017     1553     2261     1674      591     1267 
    2633     2926     2700     1732      187      247     1894     2671 
    2122     1502     1021      567      650     1644     2925     2916 
    1746     1345     1498     1275     1512     1753     1335     1644 
    2292     2101     1956     1714     1127     1209     1543     1833 
    2574     2668     1416      288      608     1930     2984     3137 
    2061      263      -10     1632     2806     2481     1425      696 
     796     1050     1590     3084     3811     2216      194      108 
    1590     2717     3022     2679      832     -769      603     2562 
    2438     1819     1433     1123     1818     2342     1622     1273 
    1572     1769     2235     2332     1665     1486     1564     1179 
    1686     2918     2278      333      122     1312     2208     2714 
    2246      962      464     1582     3264     3037     1275      560 
     630     1366     3217     3435     1399      351      614     1044 
    2296     3242     2332     1131      846      859     1405     2323 
    2660     2478     1706      876     1152     1571     1341     1435 
    1799     1684     1401     1761     2323     1935     1466     1780 
    1566     1204     1821     2003     1705     1903     1656     1297 
    1791     2470     2374     1065      220     1030     1553     1771 
    2803     2624      915      496     1728     2555     2178     1637 
    1740     1570      878     1463     2918     2489      830      510 
    1178     1917     2767     2687     1480      788     1135     2006 
    2497     1721      969     1204     1605     2407     2868     1568 
     157       64      961     2947     4195     2640      460      120 
     811     1725     2863     2875     1250      540     1679     2358 
    2139     1699      742      540     1848     2829     2554     1763 
     896      637     1692     2698     2184     1193      687      822 
    2235     3449     2450      876      495     1032     2532     3570 
    2088       -2      105     1494     2592     3136     2597     1159 
     256      846     2207     2862     2396     1417      962     1383 
    1787     2038     1966      951      583     1734     2610     2643 
    2108      942      325     1026     2073     2785     2933     2037 
     726      355     1039     1852     2330     2450     1817      985 
    1104     1696     1760     1270     1233     1991     2197     1953 
    2091     1480      662     1622     3065     2893     1748      891 
     703     1267     2191     2432     1595      997     1374     1499 
    1304     2003     2681     1880      926     1352     2047     1876 
    1576     1518     1533     2053     2388     1680      913      934 
    1618     2500     2616     1798     1134     1113     1368     1714 
    2004     1991     1588     1081     1283     2288     2513     1339 
     665     1167     1625     2396     3056     1861      612     1098 
    1655     2155     2724     1678      434      884     1379     1661 
    2637     2957     2050      896      411     1324     2438     2158 
