Origin Time       2025/03/30 21:30:00
Lat.              38.535
Long.             142.295
Depth. (km)       44
Mag.              4.3
Station Code      IWTH26
Station Lat.      38.9690
Station Long.     141.0013
Station Height(m) 125
Record Time       2025/03/30 21:31:30
Sampling Freq(Hz) 100Hz
Duration Time(s)  120
Dir.              4
Scale Factor      7845(gal)/8223790
Max. Acc. (gal)   3.137
Last Correction   2025/03/30 21:31:30
Memo.             
[...]
  -20575   -20406   -20193   -20073   -20131   -20371   -20611   -20622 
  -20475   -20372   -20331   -20352   -20479   -20663   -20841   -20923 
  -20794   -20448   -20047   -19839   -19931   -20191   -20474   -20729 
  -20900   -20925   -20780   -20541   -20349   -20270   -20223   -20147 
  -20094   -20158   -20356   -20605   -20814   -20902   -20815   -20636 
  -20468   -20332   -20247   -20264   -20352   -20430   -20497   -20540 
  -20536   -20502   -20470   -20457   -20453   -20429   -20421   -20457 
  -20505   -20467   -20344   -20322   -20497   -20676   -20669   -20520 
  -20405   -20405   -20410   -20325   -20205   -20160   -20274   -20524 
  -20758   -20842   -20758   -20591   -20443   -20297   -20155   -20146 
  -20345   -20650   -20873   -20862   -20592   -20227   -20039   -20164 
  -20486   -20756   -20811   -20688   -20509   -20371   -20270   -20123 
  -20012   -20090   -20333   -20634   -20927   -21123   -21095   -20795 
  -20348   -19978   -19838   -19912   -20097   -20344   -20669   -20995 
  -21132   -21012   -20707   -20279   -19834   -19592   -19769   -20328 
  -20929   -21266   -21281   -21008   -20579   -20162   -19834   -19687 
  -19859   -20314   -20791   -21039   -21022   -20829   -20515   -20190 
  -19997   -19963   -20098   -20416   -20764   -20876   -20687   -20406 
  -20240   -20247   -20383   -20540   -20668   -20765   -20740   -20563 
  -20322   -20115   -20089   -20308   -20567   -20648   -20614   -20650 
  -20738   -20686   -20447   -20190   -20074   -20116   -20254   -20422 
  -20602   -20723   -20707   -20615   -20569   -20529   -20382   -20212 
  -20167   -20256   -20421   -20548   -20569   -20591   -20692   -20788 
  -20781   -20614   -20333   -20082   -19955   -20002   -20237   -20548 
  -20791   -20915   -20893   -20725   -20453   -20155   -19944   -19971 
  -20271   -20653   -20943   -21109   -21078   -20804   -20403   -20085 
  -19955   -19971   -20112   -20382   -20684   -20849   -20781   -20555 
  -20298   -20112   -20096   -20277   -20524   -20673   -20699   -20650 
  -20532   -20349   -20205   -20208   -20358   -20582   -20787   -20892 
  -20883   -20765   -20537   -20274   -20082   -20008   -20069   -20236 
  -20447   -20642   -20704   -20572   -20389   -20320   -20389   -20525 
  -20618   -20625   -20587   -20467   -20250   -20100   -20143   -20345 
  -20625   -20854   -20900   -20707   -20329   -19971   -19880   -20097 
  -20483   -20831   -20956   -20872   -20736   -20592   -20398   -20167 
  -20000   -20025   -20281   -20580   -20700   -20633   -20522   -20452 
  -20437   -20461   -20483   -20524   -20623   -20704   -20622   -20368 
  -20128   -20086   -20239   -20482   -20707   -20808   -20741   -20525 
  -20263   -20094   -20083   -20220   -20457   -20699   -20849   -20864 
  -20746   -20569   -20403   -20279   -20268   -20383   -20507   -20561 
  -20553   -20498   -20443   -20432   -20424   -20387   -20405   -20499 
  -20547   -20443   -20252   -20113   -20119   -20266   -20445   -20536 
  -20551   -20615   -20756   -20818   -20692   -20480   -20345   -20337 
  -20380   -20422   -20495   -20595   -20673   -20698   -20673   -20605 
  -20433   -20187   -20015   -19984   -20090   -20328   -20602   -20769 
  -20760   -20637   -20515   -20425   -20331   -20250   -20239   -20353 
  -20553   -20680   -20698   -20710   -20692   -20571   -20379   -20190 
  -20086   -20152   -20343   -20544   -20711   -20811   -20796   -20675 
  -20497   -20299   -20121   -20058   -20217   -20559   -20877   -20991 
  -20877   -20595   -20228   -19924   -19834   -19998   -20324   -20655 
  -20848   -20819   -20630   -20422   -20268   -20177   -20146   -20244 
  -20538   -20862   -20965   -20811   -20511   -20206   -20028   -20017 
  -20167   -20466   -20799   -21006   -20989   -20729   -20362   -20152 
  -20160   -20252   -20407   -20630   -20839   -20929   -20772   -20382 
  -20015   -19913   -20062   -20268   -20402   -20497   -20629   -20750 
  -20773   -20668   -20432   -20179   -20104   -20228   -20439   -20629 
  -20721   -20717   -20673   -20576   -20383   -20173   -20069   -20144 
  -20379   -20655   -20857   -20920   -20807   -20582   -20366   -20233 
  -20204   -20235   -20289   -20371   -20483   -20622   -20744   -20741 
  -20544   -20228   -20005   -20044   -20295   -20575   -20750   -20763 
  -20615   -20416   -20305   -20329   -20445   -20559   -20605   -20595 
  -20532   -20447   -20421   -20455   -20463   -20441   -20480   -20583 
  -20613   -20510   -20403   -20402   -20464   -20502   -20470   -20395 
  -20375   -20447   -20488   -20436   -20370   -20313   -20243   -20197 
  -20233   -20430   -20742   -20947   -20935   -20746   -20451   -20169 
  -20016   -20034   -20205   -20424   -20584   -20699   -20744   -20619 
  -20387   -20232   -20202   -20281   -20495   -20790   -20980   -20923 
  -20667   -20378   -20139   -20000   -20078   -20382   -20753   -21020 
  -21026   -20790   -20515   -20294   -20093   -19944   -19989   -20274 
  -20590   -20775   -20822   -20684   -20407   -20173   -20121   -20282 
  -20497   -20582   -20571   -20553   -20548   -20551   -20499   -20405 
  -20391   -20470   -20548   -20536   -20421   -20312   -20295   -20328 
  -20360   -20412   -20510   -20603   -20574   -20416   -20274   -20251 
  -20331   -20486   -20660   -20776   -20807   -20704   -20487   -20295 
  -20225   -20236   -20289   -20366   -20479   -20659   -20802   -20726 
  -20448   -20135   -19975   -20088   -20374   -20599   -20641   -20599 
  -20645   -20719   -20621   -20385   -20241   -20320   -20524   -20660 
  -20623   -20457   -20286   -20217   -20267   -20372   -20513   -20719 
  -20898   -20858   -20595   -20270   -20048   -20067   -20293   -20510 
  -20622   -20659   -20580   -20391   -20236   -20254   -20380   -20463 
  -20499   -20551   -20580   -20574   -20557   -20524   -20507   -20540 
  -20569   -20568   -20549   -20470   -20308   -20156   -20119   -20200 
  -20347   -20503   -20630   -20680   -20630   -20556   -20518   -20502 
  -20511   -20505   -20430   -20339   -20291   -20340   -20482   -20590 
  -20617   -20636   -20646   -20617   -20534   -20379   -20193   -20078 
  -20090   -20220   -20453   -20729   -20896   -20880   -20746   -20567 
  -20391   -20278   -20250   -20272   -20318   -20379   -20422   -20429 
  -20443   -20460   -20451   -20425   -20426   -20540   -20706   -20722 
  -20567   -20348   -20164   -20135   -20272   -20459   -20606   -20676 
  -20661   -20622   -20584   -20463   -20268   -20150   -20190   -20375 
  -20625   -20772   -20722   -20555   -20447   -20460   -20471   -20406 
  -20317   -20287   -20378   -20513   -20547   -20471   -20380   -20371 
  -20472   -20633   -20737   -20682   -20493   -20340   -20348   -20417 
  -20349   -20154   -20019   -20104   -20397   -20684   -20776   -20731 
  -20677   -20578   -20436   -20366   -20356   -20344   -20380   -20491 
  -20582   -20621   -20656   -20659   -20536   -20287   -20101   -20167 
  -20429   -20649   -20667   -20534   -20463   -20533   -20614   -20602 
  -20537   -20514   -20555   -20569   -20495   -20328   -20152   -20113 
  -20225   -20401   -20564   -20663   -20687   -20625   -20466   -20317 
  -20326   -20484   -20621   -20626   -20556   -20511   -20505   -20480 
  -20398   -20290   -20239   -20267   -20317   -20352   -20378   -20432 
  -20538   -20625   -20655   -20700   -20737   -20644   -20439   -20239 
  -20131   -20150   -20264   -20409   -20547   -20671   -20750   -20758 
  -20702   -20553   -20356   -20274   -20328   -20383   -20405   -20445 
  -20526   -20607   -20618   -20538   -20371   -20170   -20044   -20077 
  -20275   -20564   -20810   -20883   -20795   -20702   -20617   -20428 
  -20175   -20000   -20015   -20277   -20605   -20730   -20640   -20471 
  -20312   -20248   -20308   -20425   -20537   -20637   -20740   -20798 
  -20731   -20513   -20220   -20027   -20089   -20348   -20603   -20740 
  -20733   -20650   -20611   -20590   -20471   -20286   -20152   -20160 
  -20360   -20668   -20871   -20875   -20742   -20544   -20287   -20007 
  -19858   -19986   -20343   -20692   -20806   -20671   -20479   -20379 
  -20374   -20430   -20502   -20537   -20506   -20443   -20439   -20509 
  -20549   -20503   -20444   -20461   -20505   -20440   -20254   -20092 
  -20074   -20216   -20503   -20839   -21010   -20899   -20632   -20429 
  -20385   -20398   -20358   -20274   -20266   -20386   -20538   -20664 
  -20745   -20667   -20433   -20263   -20289   -20399   -20464   -20497 
  -20518   -20507   -20506   -20561   -20603   -20549   -20448   -20386 
  -20366   -20372   -20359   -20278   -20245   -20405   -20653   -20783 
  -20729   -20541   -20347   -20287   -20336   -20335   -20217   -20108 
  -20221   -20579   -20914   -20969   -20767   -20493   -20285   -20170 
  -20133   -20167   -20302   -20560   -20833   -20935   -20787   -20448 
  -20048   -19791   -19865   -20227   -20640   -20920   -21024   -20993 
  -20880   -20677   -20367   -20028   -19861   -20000   -20355   -20726 
  -20916   -20827   -20560   -20335   -20252   -20231   -20190   -20227 
  -20428   -20684   -20850   -20837   -20630   -20371   -20240   -20271 
  -20333   -20318   -20260   -20274   -20430   -20655   -20784   -20777 
  -20736   -20688   -20540   -20291   -20108   -20096   -20267   -20567 
  -20804   -20841   -20726   -20514   -20277   -20123   -20061   -20105 
  -20324   -20664   -20907   -20852   -20591   -20368   -20214   -20113 
  -20181   -20436   -20729   -20920   -20911   -20664   -20305   -20061 
  -20009   -20075   -20251   -20509   -20723   -20829   -20815   -20636 
  -20320   -20062   -20047   -20244   -20443   -20493   -20493   -20601 
  -20776   -20885   -20872   -20692   -20413   -20223   -20185   -20233 
  -20290   -20286   -20298   -20432   -20565   -20576   -20533   -20488 
  -20475   -20495   -20471   -20380   -20302   -20326   -20463   -20605 
  -20672   -20673   -20636   -20598   -20553   -20495   -20433   -20304 
  -20156   -20150   -20299   -20471   -20542   -20555   -20592   -20602 
  -20551   -20490   -20444   -20449   -20478   -20453   -20398   -20391 
  -20475   -20619   -20721   -20686   -20502   -20275   -20154   -20152 
  -20196   -20287   -20467   -20683   -20790   -20714   -20505   -20250 
  -20096   -20186   -20440   -20667   -20775   -20781   -20760   -20682 
  -20451   -20147   -19970   -20044   -20359   -20749   -20983   -20950 
  -20730   -20405   -19988   -19622   -19531   -19820   -20457   -21201 
  -21649   -21606   -21139   -20444   -19827   -19543   -19634   -20019 
  -20545   -20995   -21223   -21172   -20827   -20293   -19778   -19499 
  -19602   -20055   -20652   -21174   -21483   -21483   -21134   -20633 
  -20251   -20008   -19932   -20208   -20746   -21143   -21122   -20775 
  -20390   -20131   -19955   -19843   -19870   -20097   -20448   -20719 
  -20808   -20772   -20629   -20390   -20167   -20066   -20135   -20356 
  -20611   -20815   -20985   -21107   -21124   -20935   -20453   -19831 
  -19381   -19336   -19676   -20079   -20252   -20254   -20314   -20461 
  -20542   -20487   -20409   -20491   -20835   -21340   -21724   -21647 
  -20974   -20038   -19415   -19361   -19689   -20074   -20344   -20580 
  -20888   -21123   -21015   -20513   -19853   -19340   -19184   -19475 
  -20071   -20698   -21188   -21479   -21579   -21465   -21031   -20455 
  -20148   -20272   -20634   -20875   -20772   -20441   -20067   -19718 
  -19491   -19468   -19673   -20177   -20934   -21656   -22006   -21770 
  -20991   -20028   -19325   -19106   -19349   -19901   -20565   -21168 
  -21510   -21465   -21213   -20945   -20561   -20140   -19985   -20159 
  -20453   -20557   -20293   -19839   -19554   -19687   -20187   -20763 
  -21253   -21648   -21871   -21801   -21331   -20491   -19643   -19249 
  -19454   -20023   -20560   -20769   -20640   -20476   -20515   -20598 
  -20468   -20178   -20005   -20160   -20574   -20947   -20964   -20553 
  -20046   -19840   -19954   -20121   -20144   -20097   -20267   -20753 
  -21204   -21254   -20915   -20358   -19846   -19720   -20052   -20653 
  -21305   -21710   -21612   -21158   -20709   -20359   -19966   -19496 
  -19225   -19452   -20013   -20443   -20517   -20349   -20181   -20251 
  -20652   -21228   -21622   -21562   -21149   -20725   -20468   -20277 
  -20046   -19855   -19827   -20011   -20324   -20641   -20903   -21003 
  -20798   -20316   -19759   -19352   -19322   -19764   -20526   -21324 
  -21836   -21930   -21683   -21080   -20175   -19386   -19152   -19500 
  -20054   -20433   -20552   -20542   -20595   -20760   -20844   -20614 
  -20096   -19604   -19498   -19901   -20640   -21348   -21697   -21600 
  -21145   -20498   -20039   -20078   -20414   -20572   -20382   -20187 
  -20366   -20823   -21170   -21069   -20493   -19820   -19488   -19542 
  -19747   -19948   -20158   -20364   -20441   -20267   -19955   -19896 
  -20337   -21126   -21951   -22473   -22441   -21865   -20961   -20065 
  -19507   -19310   -19282   -19346   -19579   -20096   -20796   -21277 
  -21249   -20737   -19969   -19350   -19287   -19866   -20856   -21856 
  -22443   -22435   -21919   -20972   -19718   -18624   -18276   -18806 
  -19807   -20675   -21019   -20919   -20691   -20498   -20372   -20301 
  -20231   -20156   -20092   -20009   -19994   -20201   -20663   -21238 
  -21656   -21675   -21244   -20584   -20055   -19849   -19953   -20258 
  -20580   -20810   -20972   -21020   -20831   -20439   -20085   -19944 
  -19966   -19981   -19947   -20007   -20233   -20520   -20745   -20916 
  -21069   -21185   -21197   -20979   -20478   -19901   -19603   -19905 
  -20806   -21784   -22189   -21805   -20814   -19431   -18029   -17174 
  -17184   -18069   -19661   -21436   -22789   -23467   -23445   -22774 
  -21678   -20510   -19548   -19014   -19055   -19440   -19858   -20231 
  -20394   -20291   -20271   -20487   -20761   -21000   -21114   -20953 
  -20576   -20163   -19838   -19761   -20031   -20468   -20814   -21014 
  -21023   -20756   -20356   -20156   -20290   -20505   -20494   -20294 
  -20198   -20410   -20834   -21153   -21105   -20741   -20398   -20252 
  -20121   -19892   -19681   -19554   -19577   -19904   -20482   -21016 
  -21408   -21791   -22179   -22342   -21936   -20861   -19576   -18767 
  -18746   -19284   -19893   -20151   -20046   -19998   -20358   -20946 
  -21309   -21262   -21015   -20831   -20663   -20309   -19851   -19597 
  -19758   -20355   -21082   -21401   -21135   -20625   -20289   -20351 
  -20683   -20906   -20853   -20594   -20137   -19558   -19176   -19282 
  -19835   -20536   -21051   -21203   -21043   -20775   -20547   -20337 
  -20121   -20027   -20213   -20714   -21351   -21768   -21652   -20985 
  -20125   -19529   -19402   -19710   -20282   -20844   -21155   -21170 
  -20877   -20204   -19330   -18696   -18671   -19349   -20467   -21560 
  -22222   -22221   -21575   -20561   -19529   -18692   -18264   -18565 
  -19626   -20970   -22071   -22639   -22492   -21640   -20464   -19479 
  -19048   -19338   -20200   -21166   -21821   -21930   -21408   -20467 
  -19576   -19117   -19268   -20004   -20895   -21352   -21362   -21374 
  -21462   -21362   -21054   -20598   -20036   -19724   -19955   -20487 
  -20899   -20937   -20563   -20042   -19743   -19718   -19766   -19764 
  -19695   -19707   -19961   -20287   -20402   -20256   -19930   -19647 
  -19735   -20251   -20931   -21482   -21820   -22068   -22221   -21940 
  -21010   -19795   -18895   -18642   -19051   -19882   -20703   -21224 
  -21381   -21108   -20439   -19719   -19444   -19867   -20795   -21786 
  -22465   -22465   -21558   -20070   -18760   -18274   -18790   -19981 
  -21244   -22010   -22048   -21473   -20471   -19327   -18422   -18084 
  -18549   -19684   -21022   -22098   -22478   -21925   -20748   -19602 
  -19037   -19230   -19923   -20696   -21281   -21532   -21379   -20933 
  -20389   -19907   -19633   -19668   -19932   -20251   -20545   -20856 
  -21155   -21300   -21236   -21060   -20794   -20417   -20069   -19970 
  -20124   -20286   -20325   -20352   -20459   -20626   -20808   -20972 
  -21136   -21244   -21166   -20970   -20794   -20610   -20403   -20247 
  -20202   -20297   -20434   -20503   -20547   -20599   -20556   -20337 
  -20005   -19653   -19379   -19400   -19870   -20578   -21073   -21081 
  -20668   -20106   -19641   -19430   -19556   -19917   -20314   -20656 
  -20968   -21213   -21281   -21132   -20856   -20644   -20626   -20722 
  -20781   -20753   -20615   -20405   -20267   -20299   -20452   -20505 
  -20266   -19916   -19836   -20046   -20255   -20344   -20475   -20788 
  -21190   -21465   -21401   -21003   -20557   -20255   -20031   -19869 
  -19803   -19820   -19904   -19998   -19975   -19865   -19908   -20205 
  -20619   -20915   -20869   -20509   -20169   -20198   -20688   -21343 
  -21699   -21490   -20790   -20027   -19600   -19480   -19530   -19759 
  -20163   -20710   -21362   -21882   -21899   -21343   -20605   -20131 
  -20073   -20345   -20736   -20912   -20668   -20171   -19757   -19588 
  -19688   -20019   -20468   -20857   -21011   -20848   -20444   -20054 
  -19882   -19919   -20101   -20398   -20750   -21080   -21285   -21324 
  -21286   -21201   -20952   -20518   -20035   -19641   -19427   -19472 
  -19813   -20409   -21034   -21346   -21153   -20525   -19778   -19380 
  -19558   -20073   -20503   -20644   -20663   -20734   -20745   -20611 
  -20398   -20175   -20040   -20042   -20163   -20428   -20785   -21065 
  -21084   -20765   -20281   -19994   -20162   -20702   -21230   -21392 
  -21168   -20773   -20452   -20347   -20331   -20174   -19915   -19809 
  -20081   -20690   -21266   -21397   -20945   -20218   -19746   -19708 
  -19912   -20224   -20611   -20976   -21165   -21043   -20547   -19863 
  -19391   -19376   -19786   -20387   -20900   -21166   -21096   -20719 
  -20283   -20039   -20078   -20336   -20594   -20645   -20507   -20278 
  -20016   -19808   -19716   -19803   -20152   -20684   -21186   -21543 
  -21705   -21573   -21151   -20665   -20359   -20279   -20306   -20355 
  -20430   -20467   -20368   -20186   -20043   -20013   -20112   -20240 
  -20259   -20205   -20281   -20595   -20952   -21033   -20821   -20567 
  -20393   -20275   -20259   -20378   -20551   -20734   -20918   -20961 
  -20691   -20164   -19656   -19485   -19819   -20476   -21072   -21342 
  -21240   -20957   -20756   -20650   -20491   -20220   -19954   -19878 
  -20034   -20336   -20607   -20601   -20299   -20002   -19942   -20104 
  -20394   -20787   -21236   -21606   -21748   -21558   -21014   -20252 
  -19581   -19323   -19492   -19741   -19808   -19793   -19908   -20206 
  -20572   -20835   -20914   -20844   -20710   -20557   -20449   -20463 
  -20559   -20640   -20731   -20845   -20837   -20587   -20177   -19809 
  -19606   -19577   -19730   -20058   -20556   -21130   -21512   -21501 
  -21147   -20694   -20447   -20553   -20849   -21018   -20922   -20661 
  -20275   -19750   -19271   -19132   -19496   -20272   -21157   -21863 
  -22168   -21944   -21258   -20309   -19452   -19076   -19272   -19830 
  -20414   -20713   -20687   -20476   -20158   -19843   -19696   -19774 
  -20051   -20451   -20821   -20996   -20911   -20640   -20375   -20298 
  -20463   -20760   -21011   -21111   -21038   -20783   -20355   -19890 
  -19647   -19701   -19917   -20212   -20538   -20845   -21096   -21197 
  -21081   -20841   -20621   -20538   -20683   -20961   -21138   -21064 
  -20729   -20224   -19730   -19422   -19429   -19738   -20174   -20606 
