Origin Time       2025/03/30 21:30:00
Lat.              38.535
Long.             142.295
Depth. (km)       44
Mag.              4.3
Station Code      IWTH17
Station Lat.      39.6442
Station Long.     141.5977
Station Height(m) 202
Record Time       2025/03/30 21:31:33
Sampling Freq(Hz) 100Hz
Duration Time(s)  120
Dir.              1
Scale Factor      2942(gal)/8224139
Max. Acc. (gal)   0.187
Last Correction   2025/03/30 21:31:33
Memo.             
[...]
  -57076   -57160   -57214   -57176   -57154   -57279   -57422   -57397 
  -57254   -57132   -57125   -57244   -57330   -57273   -57179   -57156 
  -57206   -57288   -57321   -57273   -57238   -57223   -57207   -57229 
  -57257   -57257   -57265   -57295   -57329   -57321   -57245   -57180 
  -57196   -57254   -57267   -57242   -57240   -57217   -57188   -57249 
  -57318   -57289   -57257   -57257   -57211   -57168   -57194   -57237 
  -57240   -57225   -57279   -57361   -57312   -57188   -57146   -57183 
  -57261   -57323   -57304   -57256   -57257   -57322   -57375   -57322 
  -57210   -57153   -57176   -57242   -57310   -57327   -57265   -57192 
  -57215   -57295   -57329   -57312   -57237   -57145   -57156   -57262 
  -57348   -57326   -57225   -57123   -57056   -57106   -57273   -57366 
  -57300   -57200   -57172   -57202   -57242   -57279   -57276   -57252 
  -57267   -57267   -57210   -57154   -57144   -57217   -57339   -57372 
  -57208   -56968   -56945   -57167   -57330   -57330   -57284   -57249 
  -57242   -57242   -57230   -57261   -57327   -57362   -57330   -57242 
  -57199   -57215   -57190   -57195   -57265   -57265   -57221   -57206 
  -57208   -57289   -57383   -57311   -57187   -57195   -57260   -57288 
  -57302   -57312   -57300   -57269   -57285   -57327   -57291   -57221 
  -57200   -57250   -57314   -57271   -57210   -57261   -57303   -57217 
  -57072   -57018   -57126   -57331   -57446   -57377   -57264   -57203 
  -57180   -57221   -57248   -57165   -57114   -57252   -57415   -57357 
  -57167   -57087   -57154   -57279   -57333   -57256   -57159   -57172 
  -57246   -57267   -57283   -57375   -57377   -57207   -57088   -57091 
  -57132   -57253   -57362   -57319   -57272   -57294   -57279   -57261 
  -57267   -57250   -57225   -57200   -57210   -57273   -57303   -57298 
  -57275   -57210   -57214   -57272   -57206   -57099   -57130   -57276 
  -57380   -57298   -57136   -57118   -57258   -57396   -57357   -57194 
  -57127   -57196   -57283   -57315   -57299   -57292   -57280   -57227 
  -57207   -57227   -57231   -57240   -57235   -57210   -57219   -57256 
  -57275   -57265   -57241   -57213   -57184   -57215   -57306   -57327 
  -57268   -57260   -57294   -57269   -57234   -57250   -57240   -57217 
  -57257   -57264   -57195   -57184   -57235   -57242   -57223   -57238 
  -57229   -57168   -57140   -57208   -57318   -57345   -57287   -57246 
  -57233   -57267   -57322   -57237   -57095   -57121   -57214   -57261 
  -57302   -57326   -57339   -57316   -57249   -57215   -57194   -57160 
  -57177   -57233   -57258   -57249   -57275   -57353   -57372   -57310 
  -57229   -57168   -57175   -57227   -57262   -57277   -57262   -57226 
  -57203   -57217   -57288   -57341   -57283   -57218   -57215   -57204 
  -57213   -57248   -57244   -57227   -57213   -57191   -57213   -57248 
  -57246   -57235   -57260   -57285   -57268   -57257   -57250   -57204 
  -57186   -57221   -57294   -57366   -57298   -57149   -57156   -57261 
  -57306   -57276   -57230   -57235   -57238   -57199   -57219   -57280 
  -57298   -57281   -57223   -57180   -57231   -57315   -57356   -57327 
  -57253   -57230   -57240   -57192   -57156   -57198   -57283   -57360 
  -57327   -57211   -57190   -57252   -57269   -57262   -57281   -57303 
  -57272   -57194   -57134   -57156   -57265   -57334   -57257   -57146 
  -57161   -57258   -57279   -57207   -57152   -57177   -57269   -57312 
  -57284   -57285   -57303   -57289   -57256   -57195   -57195   -57254 
  -57234   -57241   -57307   -57202   -57083   -57184   -57258   -57203 
  -57213   -57280   -57298   -57261   -57240   -57318   -57404   -57353 
  -57207   -57111   -57152   -57294   -57375   -57292   -57163   -57141 
  -57204   -57230   -57218   -57233   -57242   -57240   -57252   -57268 
  -57304   -57338   -57306   -57215   -57168   -57210   -57244   -57264 
  -57331   -57316   -57180   -57114   -57173   -57248   -57316   -57377 
  -57334   -57192   -57117   -57175   -57252   -57284   -57296   -57249 
  -57179   -57206   -57279   -57291   -57268   -57253   -57225   -57179 
  -57153   -57165   -57226   -57315   -57354   -57296   -57219   -57219 
  -57292   -57326   -57226   -57090   -57080   -57183   -57327   -57433 
  -57397   -57284   -57213   -57199   -57219   -57265   -57329   -57319 
  -57208   -57157   -57225   -57289   -57284   -57250   -57246   -57281 
  -57284   -57222   -57188   -57227   -57219   -57156   -57186   -57296 
  -57342   -57306   -57250   -57231   -57273   -57304   -57245   -57169 
  -57159   -57156   -57159   -57202   -57233   -57245   -57254   -57230 
  -57200   -57217   -57265   -57284   -57260   -57234   -57219   -57231 
  -57295   -57341   -57288   -57211   -57223   -57280   -57252   -57140 
  -57073   -57136   -57250   -57319   -57342   -57321   -57273   -57250 
  -57211   -57186   -57250   -57300   -57283   -57304   -57308   -57244 
  -57219   -57240   -57240   -57208   -57160   -57183   -57271   -57303 
  -57288   -57264   -57206   -57165   -57186   -57214   -57265   -57373 
  -57403   -57291   -57181   -57129   -57144   -57264   -57342   -57261 
  -57159   -57146   -57184   -57225   -57237   -57238   -57275   -57285 
  -57265   -57279   -57249   -57191   -57238   -57326   -57354   -57331 
  -57277   -57241   -57223   -57213   -57258   -57306   -57276   -57219 
  -57210   -57249   -57250   -57215   -57211   -57191   -57181   -57261 
  -57339   -57311   -57221   -57172   -57206   -57258   -57268   -57285 
  -57322   -57277   -57204   -57200   -57230   -57289   -57316   -57227 
  -57165   -57235   -57307   -57283   -57204   -57160   -57184   -57237 
  -57280   -57285   -57275   -57254   -57191   -57176   -57267   -57330 
  -57318   -57276   -57218   -57207   -57275   -57311   -57241   -57164 
  -57173   -57254   -57322   -57245   -57148   -57238   -57330   -57271 
  -57208   -57199   -57230   -57298   -57319   -57265   -57214   -57181 
  -57213   -57312   -57318   -57218   -57161   -57167   -57195   -57199 
  -57186   -57227   -57315   -57360   -57296   -57159   -57094   -57156 
  -57227   -57229   -57264   -57362   -57331   -57160   -57126   -57234 
  -57234   -57199   -57300   -57376   -57303   -57192   -57130   -57127 
  -57187   -57250   -57298   -57372   -57380   -57238   -57122   -57172 
  -57307   -57380   -57321   -57253   -57285   -57318   -57306   -57240 
  -57121   -57148   -57307   -57331   -57254   -57219   -57183   -57176 
  -57233   -57238   -57187   -57217   -57310   -57342   -57321   -57294 
  -57254   -57276   -57379   -57415   -57312   -57173   -57132   -57221 
  -57289   -57223   -57160   -57168   -57164   -57206   -57316   -57326 
  -57217   -57175   -57256   -57303   -57258   -57227   -57254   -57298 
  -57323   -57300   -57226   -57175   -57235   -57337   -57303   -57152 
  -57091   -57208   -57370   -57384   -57241   -57165   -57223   -57246 
  -57233   -57237   -57188   -57154   -57231   -57292   -57245   -57199 
  -57206   -57199   -57219   -57249   -57199   -57198   -57310   -57361 
  -57318   -57248   -57175   -57194   -57268   -57246   -57183   -57187 
  -57230   -57246   -57227   -57211   -57206   -57206   -57241   -57267 
  -57198   -57142   -57244   -57372   -57345   -57252   -57222   -57203 
  -57187   -57245   -57333   -57338   -57265   -57214   -57152   -57096 
  -57181   -57299   -57326   -57333   -57289   -57225   -57238   -57214 
  -57129   -57159   -57283   -57392   -57451   -57410   -57280   -57187 
  -57219   -57284   -57268   -57226   -57233   -57306   -57389   -57331 
  -57172   -57184   -57322   -57314   -57242   -57283   -57315   -57258 
  -57203   -57207   -57273   -57306   -57235   -57175   -57210   -57264 
  -57264   -57226   -57180   -57123   -57126   -57231   -57308   -57292 
  -57253   -57164   -57060   -57063   -57168   -57294   -57326   -57230 
  -57129   -57103   -57137   -57200   -57265   -57311   -57325   -57318 
  -57294   -57262   -57235   -57217   -57225   -57267   -57311   -57321 
  -57277   -57245   -57250   -57217   -57152   -57150   -57245   -57341 
  -57327   -57269   -57257   -57261   -57276   -57250   -57144   -57123 
  -57273   -57366   -57287   -57203   -57173   -57156   -57217   -57307 
  -57319   -57308   -57287   -57256   -57285   -57289   -57214   -57190 
  -57242   -57283   -57252   -57152   -57106   -57183   -57295   -57357 
  -57330   -57253   -57223   -57280   -57323   -57248   -57160   -57198 
  -57248   -57245   -57294   -57330   -57260   -57194   -57235   -57277 
  -57195   -57119   -57163   -57206   -57217   -57258   -57268   -57238 
  -57233   -57257   -57306   -57349   -57369   -57365   -57292   -57225 
  -57249   -57257   -57199   -57160   -57156   -57176   -57215   -57250 
  -57273   -57258   -57252   -57271   -57244   -57214   -57225   -57208 
  -57219   -57289   -57311   -57273   -57240   -57213   -57221   -57254 
  -57240   -57171   -57126   -57140   -57213   -57304   -57287   -57160 
  -57119   -57204   -57277   -57289   -57272   -57258   -57253   -57242 
  -57246   -57299   -57353   -57333   -57261   -57215   -57242   -57306 
  -57271   -57123   -57048   -57141   -57306   -57376   -57329   -57319 
  -57368   -57345   -57295   -57327   -57338   -57223   -57121   -57142 
  -57221   -57330   -57403   -57339   -57262   -57242   -57169   -57106 
  -57113   -57132   -57187   -57258   -57281   -57291   -57281   -57248 
  -57258   -57254   -57218   -57273   -57360   -57304   -57175   -57126 
  -57184   -57285   -57315   -57267   -57204   -57141   -57118   -57138 
  -57138   -57142   -57159   -57161   -57194   -57271   -57299   -57230 
  -57168   -57202   -57261   -57280   -57276   -57273   -57280   -57285 
  -57299   -57333   -57318   -57235   -57181   -57192   -57238   -57283 
  -57291   -57285   -57292   -57249   -57176   -57249   -57387   -57334 
  -57218   -57260   -57337   -57337   -57331   -57303   -57225   -57219 
  -57322   -57357   -57261   -57172   -57181   -57269   -57333   -57261 
  -57157   -57184   -57253   -57261   -57238   -57196   -57210   -57299 
  -57302   -57221   -57176   -57150   -57183   -57307   -57384   -57357 
  -57289   -57194   -57125   -57129   -57129   -57160   -57264   -57292 
  -57248   -57238   -57196   -57142   -57207   -57283   -57227   -57187 
  -57272   -57341   -57360   -57377   -57321   -57254   -57268   -57294 
  -57329   -57393   -57399   -57284   -57094   -57017   -57096   -57159 
  -57181   -57202   -57194   -57221   -57252   -57238   -57279   -57323 
  -57268   -57190   -57192   -57318   -57451   -57404   -57261   -57222 
  -57261   -57283   -57273   -57213   -57125   -57099   -57160   -57234 
  -57276   -57269   -57211   -57180   -57231   -57291   -57283   -57213 
  -57150   -57191   -57291   -57330   -57275   -57200   -57214   -57279 
  -57288   -57273   -57277   -57280   -57265   -57206   -57127   -57153 
  -57265   -57283   -57206   -57206   -57262   -57249   -57238   -57295 
  -57304   -57258   -57242   -57226   -57186   -57180   -57248   -57302 
  -57268   -57229   -57262   -57323   -57327   -57218   -57083   -57125 
  -57294   -57364   -57304   -57200   -57118   -57133   -57225   -57304 
  -57325   -57265   -57167   -57133   -57199   -57279   -57299   -57289 
  -57295   -57339   -57410   -57399   -57277   -57165   -57140   -57187 
  -57245   -57288   -57343   -57326   -57204   -57127   -57149   -57173 
  -57207   -57275   -57277   -57184   -57122   -57175   -57303   -57412 
  -57412   -57338   -57296   -57269   -57204   -57168   -57223   -57287 
  -57244   -57172   -57211   -57299   -57323   -57292   -57250   -57235 
  -57204   -57137   -57145   -57233   -57307   -57311   -57191   -57129 
  -57269   -57346   -57284   -57265   -57222   -57148   -57179   -57233 
  -57208   -57176   -57194   -57187   -57161   -57256   -57372   -57316 
  -57179   -57107   -57149   -57292   -57372   -57299   -57231   -57262 
  -57292   -57268   -57242   -57223   -57202   -57233   -57302   -57325 
  -57288   -57225   -57192   -57229   -57242   -57204   -57210   -57242 
  -57279   -57337   -57331   -57296   -57323   -57314   -57272   -57289 
  -57291   -57252   -57250   -57275   -57257   -57202   -57206   -57283 
  -57343   -57343   -57260   -57137   -57044   -57017   -57109   -57234 
  -57276   -57322   -57339   -57198   -57065   -57140   -57271   -57265 
  -57198   -57184   -57221   -57277   -57295   -57268   -57241   -57198 
  -57172   -57213   -57289   -57325   -57295   -57277   -57271   -57265 
  -57331   -57381   -57354   -57372   -57400   -57364   -57335   -57322 
  -57287   -57254   -57245   -57233   -57146   -56995   -56945   -57028 
  -57103   -57126   -57122   -57194   -57362   -57406   -57319   -57302 
  -57321   -57335   -57388   -57466   -57545   -57585   -57551   -57407 
  -57218   -57146   -57157   -57095   -56980   -56974   -57048   -57033 
  -56997   -57029   -57044   -57071   -57172   -57267   -57375   -57524 
  -57611   -57636   -57618   -57476   -57326   -57299   -57279   -57194 
  -57102   -57015   -56911   -56848   -56868   -56875   -56880   -56972 
  -57042   -57046   -57119   -57275   -57447   -57603   -57634   -57511 
  -57430   -57477   -57526   -57518   -57426   -57261   -57163   -57153 
  -57118   -57059   -57051   -57060   -57005   -56913   -56930   -57038 
  -57113   -57225   -57369   -57387   -57315   -57275   -57323   -57481 
  -57607   -57524   -57262   -57032   -56961   -57049   -57261   -57412 
  -57389   -57373   -57451   -57535   -57566   -57505   -57442   -57426 
  -57352   -57302   -57383   -57423   -57331   -57187   -56999   -56802 
  -56725   -56762   -56786   -56824   -56964   -57142   -57281   -57380 
  -57391   -57327   -57400   -57649   -57766   -57619   -57446   -57420 
  -57427   -57384   -57350   -57268   -57040   -56813   -56767   -56830 
  -56884   -56945   -57041   -57115   -57080   -57015   -57106   -57285 
  -57377   -57435   -57537   -57600   -57574   -57462   -57285   -57179 
  -57245   -57368   -57415   -57380   -57271   -57176   -57240   -57348 
  -57366   -57348   -57296   -57211   -57140   -57053   -56961   -56978 
  -57122   -57283   -57337   -57276   -57254   -57345   -57397   -57354 
  -57288   -57184   -57096   -57071   -57041   -57080   -57260   -57466 
  -57578   -57569   -57503   -57393   -57171   -56978   -57032   -57192 
  -57241   -57245   -57258   -57214   -57165   -57173   -57190   -57159 
  -57100   -57071   -57106   -57246   -57426   -57473   -57402   -57333 
  -57280   -57267   -57273   -57235   -57191   -57199   -57265   -57357 
  -57464   -57541   -57435   -57179   -57038   -57096   -57225   -57329 
  -57337   -57333   -57456   -57539   -57447   -57329   -57245   -57159 
  -57098   -57102   -57145   -57127   -57032   -56949   -56960   -57052 
  -57141   -57213   -57276   -57306   -57369   -57473   -57454   -57289 
  -57113   -57026   -57065   -57187   -57319   -57426   -57397   -57186 
  -56984   -56978   -57098   -57195   -57176   -57076   -57083   -57257 
  -57350   -57303   -57375   -57477   -57348   -57191   -57238   -57312 
  -57315   -57379   -57431   -57357   -57304   -57387   -57485   -57484 
  -57325   -57072   -56934   -57026   -57218   -57325   -57299   -57238 
  -57215   -57168   -57010   -56870   -56925   -57122   -57279   -57299 
  -57245   -57284   -57446   -57558   -57511   -57389   -57265   -57221 
  -57356   -57524   -57535   -57412   -57194   -57014   -57036   -57161 
  -57233   -57159   -56936   -56809   -56963   -57206   -57292   -57269 
  -57292   -57365   -57418   -57442   -57499   -57508   -57339   -57188 
  -57268   -57387   -57321   -57063   -56798   -56759   -56932   -57156 
  -57284   -57244   -57215   -57334   -57473   -57510   -57364   -57188 
  -57265   -57393   -57327   -57272   -57325   -57393   -57377   -57146 
  -56874   -56812   -56872   -56992   -57179   -57322   -57364   -57338 
  -57331   -57411   -57496   -57481   -57369   -57318   -57435   -57508 
  -57406   -57222   -56960   -56833   -57037   -57204   -57146   -57169 
  -57298   -57307   -57238   -57257   -57373   -57434   -57366   -57335 
  -57393   -57343   -57210   -57173   -57159   -57092   -57051   -57060 
  -57132   -57226   -57248   -57206   -57160   -57145   -57138   -57150 
  -57325   -57586   -57636   -57492   -57362   -57279   -57237   -57284 
  -57353   -57333   -57230   -57134   -57065   -56971   -56952   -57060 
  -57115   -57160   -57319   -57407   -57349   -57318   -57396   -57472 
  -57420   -57366   -57377   -57345   -57372   -57460   -57345   -57149 
  -57206   -57377   -57343   -57161   -57061   -57034   -57017   -57076 
  -57164   -57159   -57167   -57235   -57252   -57277   -57310   -57231 
  -57134   -57102   -57090   -57113   -57152   -57126   -57115   -57287 
  -57492   -57408   -57137   -57075   -57244   -57337   -57275   -57218 
  -57276   -57422   -57469   -57325   -57159   -57073   -57049   -57145 
  -57315   -57334   -57214   -57218   -57265   -57159   -57110   -57210 
  -57289   -57364   -57375   -57248   -57203   -57288   -57377   -57458 
  -57411   -57256   -57218   -57242   -57229   -57316   -57416   -57276 
  -57030   -57013   -57203   -57304   -57242   -57176   -57134   -57076 
  -57042   -57055   -57152   -57281   -57271   -57256   -57414   -57495 
  -57443   -57495   -57539   -57437   -57319   -57225   -57114   -57067 
  -57134   -57154   -56999   -56856   -56909   -57056   -57140   -57159 
  -57208   -57261   -57188   -57149   -57304   -57418   -57404   -57485 
  -57570   -57504   -57491   -57557   -57495   -57339   -57177   -57015 
  -56978   -57137   -57302   -57314   -57296   -57333   -57362   -57377 
  -57342   -57223   -57146   -57196   -57260   -57233   -57202   -57242 
  -57288   -57296   -57269   -57221   -57225   -57276   -57277   -57249 
  -57254   -57268   -57244   -57183   -57084   -56987   -56994   -57094 
  -57186   -57199   -57165   -57223   -57346   -57373   -57312   -57231 
  -57173   -57180   -57237   -57268   -57256   -57261   -57256   -57238 
  -57283   -57296   -57215   -57181   -57227   -57276   -57319   -57330 
  -57307   -57294   -57235   -57150   -57186   -57338   -57380   -57218 
  -57059   -57084   -57207   -57241   -57211   -57248   -57271   -57215 
  -57219   -57271   -57279   -57357   -57484   -57422   -57211   -57122 
  -57208   -57294   -57299   -57326   -57381   -57342   -57219   -57114 
  -57098   -57168   -57145   -56960   -56864   -56982   -57203   -57442 
  -57538   -57478   -57458   -57433   -57292   -57207   -57310   -57433 
  -57349   -57140   -57015   -56978   -57011   -57160   -57318   -57368 
  -57310   -57138   -56974   -57037   -57187   -57176   -57181   -57346 
  -57435   -57356   -57300   -57339   -57362   -57362   -57416   -57487 
  -57434   -57222   -57017   -56978   -57045   -57100   -57123   -57113 
  -57123   -57233   -57364   -57429   -57426   -57360   -57326   -57334 
  -57252   -57172   -57265   -57385   -57321   -57231   -57304   -57352 
  -57221   -57091   -57146   -57298   -57366   -57334   -57240   -57146 
  -57177   -57268   -57256   -57208   -57188   -57175   -57260   -57372 
  -57356   -57284   -57231   -57167   -57100   -57076   -57137   -57284 
  -57404   -57341   -57196   -57221   -57325   -57288   -57175   -57080 
  -57055   -57164   -57241   -57171   -57110   -57141   -57233   -57323 
  -57329   -57242   -57145   -57152   -57260   -57348   -57356   -57349 
  -57350   -57291   -57219   -57200   -57167   -57188   -57284   -57300 
  -57316   -57400   -57403   -57322   -57284   -57271   -57195   -57146 
  -57222   -57326   -57354   -57235   -57048   -57055   -57211   -57265 
