Origin Time       2025/03/30 21:30:00
Lat.              38.535
Long.             142.295
Depth. (km)       44
Mag.              4.3
Station Code      IWTH17
Station Lat.      39.6442
Station Long.     141.5977
Station Height(m) 202
Record Time       2025/03/30 21:31:33
Sampling Freq(Hz) 100Hz
Duration Time(s)  120
Dir.              2
Scale Factor      2942(gal)/8224139
Max. Acc. (gal)   0.185
Last Correction   2025/03/30 21:31:33
Memo.             
[...]
 -137751  -137752  -137762  -137731  -137714  -137774  -137818  -137783 
 -137706  -137640  -137648  -137724  -137764  -137782  -137843  -137864 
 -137810  -137758  -137716  -137675  -137648  -137658  -137745  -137855 
 -137872  -137767  -137648  -137640  -137683  -137704  -137754  -137803 
 -137783  -137731  -137717  -137754  -137751  -137720  -137756  -137781 
 -137706  -137624  -137613  -137681  -137768  -137801  -137770  -137725 
 -137694  -137700  -137745  -137781  -137805  -137825  -137762  -137644 
 -137612  -137683  -137754  -137763  -137754  -137727  -137659  -137623 
 -137663  -137720  -137755  -137774  -137745  -137691  -137690  -137724 
 -137740  -137789  -137849  -137818  -137767  -137770  -137727  -137650 
 -137636  -137652  -137718  -137879  -137970  -137847  -137674  -137659 
 -137744  -137787  -137766  -137710  -137678  -137739  -137840  -137829 
 -137705  -137651  -137745  -137820  -137759  -137700  -137733  -137783 
 -137801  -137754  -137687  -137697  -137698  -137651  -137685  -137768 
 -137822  -137805  -137678  -137597  -137655  -137727  -137775  -137809 
 -137808  -137768  -137682  -137637  -137717  -137816  -137833  -137783 
 -137717  -137667  -137632  -137617  -137677  -137763  -137768  -137766 
 -137822  -137840  -137762  -137662  -137656  -137722  -137751  -137745 
 -137728  -137717  -137716  -137675  -137654  -137675  -137687  -137736 
 -137798  -137789  -137767  -137795  -137809  -137764  -137712  -137670 
 -137658  -137709  -137764  -137808  -137829  -137749  -137659  -137678 
 -137721  -137732  -137743  -137739  -137700  -137691  -137776  -137878 
 -137882  -137791  -137667  -137570  -137590  -137744  -137840  -137783 
 -137739  -137776  -137799  -137768  -137737  -137749  -137745  -137698 
 -137671  -137709  -137799  -137853  -137803  -137744  -137714  -137659 
 -137620  -137644  -137716  -137826  -137889  -137810  -137664  -137623 
 -137745  -137844  -137791  -137721  -137701  -137710  -137783  -137856 
 -137814  -137709  -137670  -137683  -137655  -137639  -137681  -137733 
 -137786  -137799  -137767  -137729  -137660  -137620  -137681  -137743 
 -137745  -137766  -137787  -137739  -137701  -137749  -137801  -137775 
 -137698  -137673  -137731  -137760  -137722  -137729  -137801  -137816 
 -137731  -137695  -137764  -137791  -137754  -137762  -137786  -137768 
 -137749  -137740  -137749  -137795  -137818  -137781  -137743  -137720 
 -137673  -137663  -137721  -137755  -137775  -137808  -137785  -137751 
 -137722  -137631  -137609  -137706  -137740  -137714  -137725  -137727 
 -137712  -137743  -137781  -137744  -137679  -137686  -137731  -137717 
 -137671  -137687  -137755  -137766  -137736  -137709  -137664  -137675 
 -137741  -137775  -137806  -137805  -137737  -137736  -137801  -137793 
 -137705  -137652  -137700  -137774  -137768  -137720  -137732  -137767 
 -137728  -137694  -137747  -137779  -137732  -137683  -137693  -137766 
 -137817  -137779  -137714  -137695  -137745  -137821  -137816  -137764 
 -137755  -137747  -137716  -137712  -137731  -137736  -137741  -137762 
 -137762  -137744  -137741  -137733  -137744  -137801  -137803  -137721 
 -137686  -137740  -137778  -137740  -137687  -137690  -137725  -137747 
 -137770  -137787  -137739  -137704  -137778  -137801  -137636  -137513 
 -137641  -137830  -137882  -137814  -137679  -137614  -137700  -137751 
 -137714  -137731  -137763  -137740  -137727  -137736  -137725  -137716 
 -137729  -137725  -137694  -137718  -137829  -137862  -137754  -137662 
 -137643  -137675  -137758  -137778  -137704  -137700  -137813  -137874 
 -137786  -137698  -137717  -137745  -137722  -137687  -137677  -137702 
 -137735  -137739  -137747  -137816  -137856  -137768  -137670  -137668 
 -137700  -137751  -137810  -137782  -137718  -137721  -137705  -137660 
 -137708  -137779  -137754  -137729  -137775  -137763  -137689  -137683 
 -137752  -137775  -137722  -137724  -137805  -137816  -137733  -137671 
 -137678  -137748  -137783  -137704  -137673  -137770  -137809  -137775 
 -137754  -137706  -137694  -137740  -137758  -137762  -137768  -137736 
 -137691  -137686  -137710  -137732  -137755  -137759  -137733  -137737 
 -137756  -137732  -137745  -137791  -137766  -137724  -137741  -137740 
 -137701  -137687  -137704  -137747  -137776  -137731  -137658  -137659 
 -137697  -137721  -137797  -137866  -137813  -137731  -137694  -137685 
 -137687  -137670  -137690  -137782  -137839  -137824  -137763  -137698 
 -137695  -137721  -137720  -137712  -137729  -137774  -137795  -137766 
 -137718  -137710  -137755  -137758  -137700  -137722  -137799  -137785 
 -137727  -137710  -137708  -137702  -137739  -137803  -137787  -137700 
 -137693  -137741  -137743  -137740  -137760  -137756  -137710  -137667 
 -137683  -137724  -137736  -137739  -137744  -137737  -137740  -137747 
 -137735  -137725  -137736  -137731  -137709  -137712  -137758  -137795 
 -137762  -137709  -137712  -137716  -137720  -137762  -137756  -137722 
 -137762  -137783  -137737  -137736  -137754  -137729  -137701  -137681 
 -137721  -137803  -137797  -137755  -137755  -137727  -137722  -137768 
 -137766  -137743  -137736  -137694  -137702  -137795  -137813  -137737 
 -137702  -137698  -137673  -137670  -137705  -137727  -137736  -137741 
 -137718  -137717  -137764  -137782  -137729  -137691  -137706  -137714 
 -137706  -137724  -137762  -137774  -137760  -137756  -137768  -137766 
 -137748  -137751  -137762  -137745  -137747  -137790  -137799  -137768 
 -137762  -137779  -137783  -137732  -137662  -137662  -137705  -137727 
 -137752  -137762  -137733  -137721  -137694  -137655  -137709  -137782 
 -137767  -137764  -137793  -137759  -137717  -137744  -137767  -137731 
 -137694  -137656  -137613  -137643  -137702  -137728  -137763  -137775 
 -137752  -137766  -137760  -137721  -137732  -137760  -137754  -137755 
 -137783  -137789  -137749  -137727  -137731  -137725  -137758  -137802 
 -137772  -137713  -137695  -137694  -137712  -137783  -137826  -137794 
 -137744  -137694  -137678  -137716  -137758  -137762  -137747  -137752 
 -137740  -137666  -137640  -137733  -137803  -137781  -137768  -137787 
 -137790  -137772  -137745  -137728  -137710  -137686  -137708  -137749 
 -137717  -137659  -137687  -137766  -137781  -137751  -137752  -137754 
 -137732  -137727  -137737  -137749  -137739  -137693  -137647  -137639 
 -137687  -137741  -137743  -137741  -137749  -137741  -137749  -137772 
 -137770  -137758  -137776  -137799  -137782  -137762  -137775  -137759 
 -137693  -137663  -137658  -137655  -137716  -137781  -137770  -137739 
 -137722  -137725  -137771  -137779  -137682  -137606  -137660  -137774 
 -137843  -137821  -137752  -137725  -137744  -137751  -137702  -137643 
 -137683  -137786  -137801  -137740  -137702  -137704  -137731  -137751 
 -137713  -137641  -137620  -137668  -137752  -137798  -137745  -137685 
 -137732  -137794  -137803  -137822  -137828  -137781  -137752  -137766 
 -137751  -137716  -137717  -137744  -137766  -137745  -137685  -137681 
 -137731  -137747  -137754  -137766  -137748  -137710  -137704  -137749 
 -137778  -137754  -137743  -137741  -137694  -137685  -137772  -137839 
 -137787  -137685  -137663  -137763  -137832  -137783  -137740  -137735 
 -137714  -137709  -137700  -137677  -137720  -137791  -137786  -137729 
 -137689  -137677  -137693  -137772  -137839  -137758  -137693  -137772 
 -137810  -137764  -137741  -137736  -137758  -137766  -137710  -137689 
 -137674  -137596  -137605  -137712  -137747  -137713  -137708  -137732 
 -137737  -137740  -137768  -137772  -137731  -137701  -137709  -137739 
 -137751  -137689  -137627  -137667  -137736  -137768  -137779  -137745 
 -137686  -137691  -137785  -137855  -137828  -137767  -137733  -137736 
 -137779  -137810  -137795  -137783  -137790  -137771  -137706  -137662 
 -137689  -137749  -137808  -137843  -137856  -137859  -137799  -137702 
 -137662  -137666  -137682  -137739  -137778  -137736  -137685  -137693 
 -137704  -137708  -137752  -137767  -137701  -137647  -137678  -137752 
 -137776  -137721  -137651  -137635  -137675  -137718  -137741  -137732 
 -137679  -137697  -137822  -137868  -137772  -137714  -137752  -137771 
 -137775  -137793  -137751  -137714  -137785  -137820  -137759  -137714 
 -137682  -137670  -137722  -137736  -137709  -137751  -137812  -137806 
 -137759  -137733  -137755  -137786  -137798  -137770  -137694  -137620 
 -137614  -137668  -137724  -137768  -137791  -137756  -137700  -137685 
 -137682  -137654  -137686  -137795  -137845  -137809  -137763  -137735 
 -137739  -137737  -137687  -137666  -137721  -137805  -137832  -137752 
 -137686  -137689  -137683  -137701  -137727  -137697  -137716  -137763 
 -137725  -137693  -137735  -137774  -137749  -137721  -137808  -137871 
 -137770  -137695  -137751  -137801  -137813  -137766  -137666  -137631 
 -137698  -137791  -137814  -137751  -137708  -137717  -137708  -137737 
 -137787  -137729  -137667  -137671  -137627  -137631  -137779  -137876 
 -137837  -137782  -137783  -137812  -137809  -137783  -137772  -137752 
 -137724  -137744  -137787  -137802  -137770  -137695  -137654  -137691 
 -137709  -137647  -137587  -137624  -137731  -137786  -137789  -137820 
 -137852  -137825  -137751  -137667  -137637  -137675  -137700  -137717 
 -137764  -137747  -137702  -137751  -137782  -137745  -137758  -137767 
 -137717  -137651  -137593  -137597  -137689  -137795  -137852  -137836 
 -137774  -137720  -137701  -137722  -137744  -137741  -137767  -137818 
 -137828  -137772  -137687  -137677  -137728  -137697  -137633  -137690 
 -137814  -137868  -137857  -137825  -137744  -137656  -137637  -137651 
 -137656  -137685  -137745  -137797  -137833  -137876  -137859  -137748 
 -137662  -137663  -137687  -137682  -137668  -137706  -137795  -137875 
 -137840  -137673  -137556  -137598  -137702  -137782  -137820  -137808 
 -137789  -137809  -137828  -137771  -137677  -137629  -137636  -137685 
 -137766  -137825  -137799  -137701  -137650  -137706  -137751  -137717 
 -137717  -137785  -137793  -137705  -137641  -137652  -137695  -137744 
 -137741  -137685  -137685  -137721  -137710  -137736  -137803  -137829 
 -137849  -137875  -137856  -137793  -137691  -137624  -137625  -137606 
 -137590  -137673  -137785  -137776  -137690  -137728  -137864  -137911 
 -137852  -137759  -137698  -137714  -137701  -137608  -137625  -137797 
 -137898  -137840  -137728  -137678  -137700  -137708  -137677  -137731 
 -137845  -137808  -137668  -137640  -137718  -137764  -137729  -137714 
 -137767  -137795  -137795  -137798  -137795  -137818  -137830  -137756 
 -137656  -137644  -137708  -137739  -137693  -137654  -137687  -137733 
 -137710  -137666  -137690  -137749  -137744  -137693  -137694  -137736 
 -137708  -137620  -137596  -137662  -137771  -137867  -137879  -137839 
 -137824  -137820  -137770  -137721  -137748  -137774  -137716  -137655 
 -137698  -137793  -137814  -137747  -137691  -137700  -137708  -137687 
 -137698  -137771  -137840  -137828  -137817  -137851  -137817  -137764 
 -137770  -137744  -137720  -137741  -137689  -137614  -137664  -137717 
 -137689  -137686  -137716  -137744  -137771  -137752  -137766  -137825 
 -137755  -137612  -137606  -137693  -137770  -137830  -137809  -137704 
 -137648  -137693  -137762  -137778  -137747  -137685  -137646  -137712 
 -137748  -137656  -137639  -137720  -137745  -137743  -137766  -137789 
 -137785  -137744  -137728  -137779  -137826  -137798  -137735  -137724 
 -137774  -137799  -137759  -137721  -137720  -137729  -137732  -137745 
 -137754  -137678  -137590  -137627  -137705  -137731  -137740  -137754 
 -137783  -137797  -137766  -137801  -137859  -137810  -137744  -137728 
 -137748  -137814  -137843  -137786  -137694  -137631  -137708  -137821 
 -137768  -137682  -137686  -137687  -137706  -137744  -137714  -137658 
 -137646  -137677  -137755  -137844  -137878  -137820  -137686  -137593 
 -137619  -137679  -137706  -137745  -137805  -137839  -137825  -137770 
 -137728  -137721  -137677  -137646  -137673  -137659  -137650  -137721 
 -137779  -137767  -137701  -137674  -137748  -137802  -137768  -137737 
 -137737  -137720  -137709  -137763  -137797  -137732  -137704  -137733 
 -137714  -137732  -137813  -137799  -137725  -137709  -137727  -137747 
 -137736  -137678  -137671  -137729  -137754  -137727  -137690  -137687 
 -137702  -137679  -137679  -137735  -137775  -137781  -137741  -137729 
 -137820  -137857  -137775  -137725  -137749  -137795  -137901  -138042 
 -138036  -137870  -137752  -137718  -137686  -137674  -137713  -137782 
 -137833  -137847  -137806  -137759  -137798  -137866  -137866  -137853 
 -137853  -137830  -137801  -137805  -137794  -137741  -137675  -137604 
 -137567  -137598  -137617  -137604  -137563  -137505  -137521  -137606 
 -137639  -137600  -137540  -137516  -137594  -137745  -137837  -137803 
 -137685  -137608  -137651  -137718  -137732  -137729  -137681  -137546 
 -137447  -137458  -137488  -137513  -137539  -137556  -137627  -137781 
 -137959  -138053  -138046  -138053  -138084  -138007  -137867  -137859 
 -137960  -138018  -137976  -137798  -137547  -137378  -137338  -137444 
 -137662  -137810  -137785  -137637  -137478  -137446  -137547  -137664 
 -137779  -137864  -137833  -137801  -137938  -138117  -138168  -138146 
 -138125  -138103  -138021  -137859  -137776  -137812  -137752  -137555 
 -137424  -137434  -137513  -137635  -137739  -137722  -137612  -137521 
 -137521  -137631  -137789  -137883  -137843  -137725  -137646  -137605 
 -137606  -137714  -137889  -138033  -138061  -137937  -137791  -137779 
 -137802  -137663  -137393  -137220  -137254  -137393  -137586  -137812 
 -137906  -137826  -137749  -137752  -137701  -137566  -137532  -137644 
 -137713  -137728  -137848  -138040  -138123  -137971  -137745  -137760 
 -137978  -138140  -138172  -138095  -137913  -137654  -137423  -137346 
 -137434  -137594  -137729  -137774  -137704  -137574  -137490  -137477 
 -137477  -137525  -137704  -137898  -137978  -138022  -138086  -138125 
 -138144  -138095  -137910  -137687  -137521  -137404  -137323  -137320 
 -137443  -137612  -137683  -137663  -137640  -137667  -137739  -137802 
 -137859  -137911  -137905  -137891  -137930  -137941  -137937  -137944 
 -137821  -137619  -137552  -137554  -137492  -137386  -137295  -137373 
 -137613  -137759  -137782  -137835  -137906  -137971  -138021  -137976 
 -137872  -137789  -137729  -137687  -137585  -137463  -137525  -137687 
 -137747  -137806  -137901  -137887  -137844  -137860  -137860  -137876 
 -137963  -138032  -138001  -137868  -137729  -137663  -137562  -137446 
 -137494  -137612  -137608  -137600  -137733  -137890  -137922  -137825 
 -137691  -137621  -137597  -137609  -137706  -137763  -137713  -137763 
 -137876  -137754  -137488  -137378  -137482  -137743  -137992  -138063 
 -138007  -137961  -137967  -137920  -137810  -137762  -137708  -137604 
 -137597  -137643  -137585  -137538  -137643  -137790  -137852  -137848 
 -137835  -137856  -137905  -137857  -137662  -137538  -137647  -137795 
 -137752  -137596  -137573  -137741  -137920  -137963  -137879  -137770 
 -137735  -137709  -137605  -137512  -137473  -137509  -137694  -137845 
 -137775  -137674  -137720  -137818  -137860  -137853  -137820  -137781 
 -137762  -137756  -137756  -137733  -137614  -137435  -137365  -137509 
 -137708  -137700  -137567  -137538  -137559  -137610  -137741  -137781 
 -137670  -137681  -137856  -137965  -137976  -137997  -137984  -137840 
 -137633  -137552  -137668  -137847  -137903  -137856  -137830  -137785 
 -137663  -137587  -137625  -137602  -137474  -137540  -137876  -138113 
 -138123  -138105  -138033  -137808  -137583  -137524  -137617  -137790 
 -137894  -137795  -137600  -137513  -137570  -137682  -137810  -137903 
 -137907  -137809  -137639  -137567  -137660  -137766  -137887  -137960 
 -137768  -137498  -137474  -137646  -137837  -137907  -137857  -137822 
 -137760  -137700  -137781  -137898  -137943  -137867  -137663  -137556 
 -137631  -137685  -137654  -137624  -137627  -137654  -137700  -137685 
 -137620  -137701  -137882  -137910  -137893  -137955  -137897  -137789 
 -137818  -137822  -137770  -137805  -137849  -137802  -137701  -137547 
 -137415  -137411  -137457  -137489  -137550  -137654  -137783  -137839 
 -137735  -137639  -137729  -137887  -137902  -137748  -137604  -137663 
 -137833  -137880  -137835  -137790  -137754  -137766  -137814  -137830 
 -137830  -137810  -137685  -137523  -137466  -137454  -137488  -137685 
 -137894  -137889  -137748  -137689  -137752  -137789  -137758  -137782 
 -137844  -137852  -137847  -137833  -137756  -137648  -137579  -137600 
 -137679  -137716  -137694  -137664  -137683  -137790  -137860  -137809 
 -137737  -137662  -137586  -137629  -137801  -137948  -137938  -137771 
 -137643  -137705  -137767  -137651  -137569  -137678  -137810  -137818 
 -137771  -137785  -137833  -137887  -137920  -137860  -137814  -137868 
 -137829  -137709  -137716  -137755  -137700  -137650  -137694  -137826 
 -137959  -137952  -137814  -137659  -137542  -137454  -137428  -137571 
 -137732  -137671  -137597  -137695  -137759  -137779  -137849  -137826 
 -137758  -137735  -137677  -137674  -137728  -137662  -137538  -137515 
 -137605  -137717  -137751  -137748  -137683  -137555  -137587  -137725 
 -137770  -137857  -137976  -137947  -137872  -137870  -137839  -137705 
 -137594  -137658  -137812  -137862  -137795  -137763  -137851  -137938 
 -137902  -137818  -137782  -137763  -137735  -137731  -137790  -137867 
 -137843  -137748  -137712  -137694  -137682  -137740  -137801  -137840 
 -137883  -137901  -137783  -137505  -137354  -137513  -137713  -137744 
 -137727  -137764  -137764  -137633  -137488  -137527  -137695  -137756 
 -137721  -137756  -137759  -137635  -137608  -137776  -137898  -137795 
 -137604  -137620  -137829  -137922  -137901  -137901  -137816  -137670 
 -137639  -137679  -137651  -137577  -137569  -137651  -137718  -137671 
 -137646  -137805  -137964  -137982  -137982  -137959  -137852  -137737 
 -137681  -137682  -137713  -137744  -137778  -137785  -137725  -137656 
 -137674  -137781  -137847  -137791  -137685  -137609  -137575  -137581 
 -137625  -137683  -137736  -137758  -137724  -137716  -137755  -137736 
 -137668  -137648  -137660  -137639  -137620  -137671  -137774  -137843 
 -137855  -137913  -137987  -137921  -137766  -137641  -137579  -137600 
 -137641  -137651  -137650  -137609  -137587  -137709  -137847  -137841 
 -137795  -137764  -137768  -137860  -137866  -137712  -137671  -137764 
 -137768  -137714  -137714  -137764  -137808  -137749  -137641  -137625 
 -137635  -137606  -137660  -137776  -137786  -137733  -137745  -137775 
 -137759  -137722  -137728  -137798  -137841  -137776  -137710  -137766 
 -137829  -137743  -137610  -137627  -137786  -137898  -137913  -137944 
 -137902  -137745  -137690  -137763  -137805  -137791  -137733  -137695 
 -137747  -137778  -137764  -137821  -137839  -137740  -137679  -137689 
 -137695  -137702  -137690  -137654  -137637  -137647  -137691  -137809 
 -137930  -137929  -137847  -137776  -137685  -137569  -137500  -137502 
 -137614  -137737  -137704  -137612  -137628  -137729  -137841  -137905 
 -137890  -137866  -137872  -137821  -137709  -137636  -137616  -137681 
 -137787  -137744  -137594  -137539  -137543  -137574  -137718  -137845 
 -137814  -137791  -137884  -137909  -137748  -137571  -137570  -137664 
 -137697  -137686  -137705  -137740  -137752  -137732  -137706  -137691 
