Origin Time       2025/03/30 21:30:00
Lat.              38.535
Long.             142.295
Depth. (km)       44
Mag.              4.3
Station Code      IWTH04
Station Lat.      39.1809
Station Long.     141.3909
Station Height(m) 514
Record Time       2025/03/30 21:31:26
Sampling Freq(Hz) 100Hz
Duration Time(s)  120
Dir.              2
Scale Factor      2942(gal)/8224139
Max. Acc. (gal)   0.360
Last Correction   2025/03/30 21:31:26
Memo.             
[...]
  -26136   -26134   -26136   -26138   -26138   -26136   -26134   -26136 
  -26136   -26134   -26133   -26134   -26136   -26137   -26137   -26137 
  -26136   -26134   -26136   -26137   -26137   -26136   -26133   -26134 
  -26136   -26133   -26134   -26137   -26137   -26136   -26136   -26136 
  -26136   -26137   -26134   -26136   -26137   -26134   -26134   -26134 
  -26134   -26136   -26136   -26134   -26134   -26134   -26136   -26137 
  -26134   -26134   -26136   -26136   -26137   -26137   -26133   -26133 
  -26133   -26131   -26134   -26137   -26134   -26134   -26137   -26136 
  -26136   -26137   -26136   -26134   -26136   -26136   -26133   -26133 
  -26134   -26136   -26134   -26133   -26136   -26137   -26137   -26134 
  -26133   -26133   -26133   -26133   -26134   -26134   -26133   -26131 
  -26133   -26136   -26134   -26131   -26134   -26137   -26136   -26131 
  -26131   -26133   -26133   -26131   -26134   -26134   -26131   -26133 
  -26133   -26133   -26131   -26133   -26133   -26131   -26133   -26134 
  -26130   -26129   -26133   -26136   -26134   -26133   -26134   -26134 
  -26134   -26136   -26134   -26133   -26134   -26136   -26134   -26133 
  -26134   -26134   -26133   -26131   -26136   -26137   -26136   -26136 
  -26136   -26133   -26133   -26137   -26137   -26134   -26136   -26137 
  -26136   -26134   -26134   -26134   -26133   -26133   -26134   -26134 
  -26133   -26131   -26134   -26134   -26133   -26131   -26130   -26127 
  -26129   -26127   -26126   -26127   -26125   -26125   -26129   -26131 
  -26136   -26140   -26142   -26142   -26138   -26131   -26129   -26131 
  -26125   -26110   -26110   -26117   -26115   -26122   -26122   -26080 
  -26052   -26087   -26141   -26183   -26198   -26161   -26110   -26095 
  -26137   -26221   -26239   -26150   -26071   -26098   -26190   -26214 
  -26140   -26111   -26140   -26137   -26118   -26096   -26156   -26296 
  -26300   -26183   -26100   -26025   -26021   -26192   -26335   -26199 
  -25924   -25899   -26190   -26349   -26218   -26060   -25956   -25996 
  -26234   -26288   -26113   -26158   -26190   -25976   -26037   -26300 
  -26352   -26130   -25893   -26056   -26223   -26084   -26023   -26076 
  -26122   -26079   -26098   -26291   -26215   -26017   -26181   -26314 
  -26114   -26026   -26156   -26117   -26003   -26088   -26171   -26114 
  -26086   -26123   -26067   -25990   -26059   -26095   -26087   -26276 
  -26361   -26044   -25934   -26239   -26284   -26202   -26264   -26141 
  -26018   -26014   -26014   -26059   -25994   -26109   -26388   -26202 
  -25991   -26211   -26293   -26192   -26214   -26192   -26079   -25998 
  -26087   -26343   -26273   -25903   -25972   -26262   -26114   -25940 
  -26123   -26227   -26183   -26196   -26107   -26061   -26254   -26283 
  -26059   -26096   -26310   -26119   -25845   -26048   -26254   -26087 
  -25978   -26099   -26233   -26300   -26195   -26010   -26156   -26350 
  -26117   -25983   -26200   -26234   -26069   -26092   -26242   -26219 
  -26050   -25957   -26071   -26207   -26122   -26134   -26242   -26145 
  -26094   -26122   -26149   -26207   -26131   -26092   -26202   -26153 
  -26044   -26130   -26157   -26100   -26168   -26150   -26045   -26053 
  -26163   -26280   -26169   -26014   -26090   -26060   -26065   -26256 
  -26160   -26060   -26252   -26249   -26094   -26106   -26060   -26042 
  -26292   -26242   -25921   -26099   -26308   -26071   -26059   -26190 
  -26064   -26141   -26284   -26069   -26023   -26246   -26231   -26103 
  -26145   -26235   -26117   -25961   -26095   -26179   -26048   -26055 
  -26163   -26179   -26172   -26202   -26156   -26079   -26092   -26069 
  -26037   -26140   -26221   -26217   -26180   -26071   -26003   -26050 
  -26104   -26171   -26194   -26127   -26130   -26146   -26094   -26161 
  -26221   -26079   -26057   -26233   -26227   -26068   -26079   -26195 
  -26172   -26111   -26121   -26048   -26005   -26181   -26293   -26192 
  -26113   -26144   -26214   -26177   -26037   -26028   -26194   -26302 
  -26184   -26096   -26200   -26181   -26103   -26126   -26065   -26087 
  -26208   -26121   -26084   -26287   -26289   -26102   -26073   -26023 
  -25990   -26156   -26235   -26168   -26091   -26096   -26168   -26106 
  -26044   -26133   -26117   -26033   -26272   -26470   -26109   -25837 
  -26096   -26211   -25984   -26003   -26226   -26171   -26067   -26137 
  -26153   -26165   -26225   -26125   -26009   -26117   -26210   -26168 
  -26072   -25937   -26033   -26204   -26164   -26206   -26206   -26007 
  -26073   -26279   -26208   -26072   -26094   -26137   -26088   -26113 
  -26202   -26152   -26148   -26208   -26059   -25991   -26156   -26180 
  -26175   -26238   -26119   -25983   -26038   -26153   -26191   -26134 
  -26176   -26266   -26157   -26095   -26158   -26080   -26131   -26330 
  -26199   -26009   -26110   -26129   -26049   -26161   -26215   -26106 
  -26134   -26185   -26157   -26195   -26107   -25956   -26094   -26284 
  -26184   -26037   -26102   -26256   -26265   -26079   -26021   -26157 
  -26095   -25969   -26057   -26154   -26164   -26148   -26156   -26194 
  -26156   -26145   -26164   -26030   -25980   -26092   -26150   -26234 
  -26262   -26100   -26029   -26094   -26100   -26121   -26127   -26084 
  -26160   -26229   -26118   -26072   -26202   -26208   -26092   -26073 
  -26086   -26077   -26102   -26181   -26191   -26107   -26125   -26183 
  -26181   -26137   -26080   -26136   -26157   -26091   -26154   -26190 
  -26111   -26117   -26137   -26163   -26233   -26149   -26030   -26142 
  -26227   -26148   -26118   -26141   -26179   -26211   -26149   -26071 
  -26094   -26175   -26194   -26122   -26071   -26114   -26150   -26082 
  -26037   -26113   -26181   -26230   -26203   -26059   -26044   -26144 
  -26167   -26149   -26142   -26160   -26121   -26025   -26080   -26212 
  -26173   -26037   -26017   -26084   -26111   -26175   -26222   -26179 
  -26156   -26075   -26052   -26199   -26221   -26145   -26145   -26156 
  -26110   -26088   -26148   -26121   -26075   -26153   -26165   -26099 
  -26118   -26183   -26158   -26079   -26084   -26152   -26222   -26239 
  -26126   -26059   -26169   -26202   -26109   -26087   -26098   -26106 
  -26137   -26087   -26013   -26077   -26184   -26203   -26161   -26137 
  -26160   -26161   -26127   -26106   -26172   -26266   -26113   -25988 
  -26165   -26141   -26045   -26196   -26176   -26113   -26239   -26194 
  -26071   -26115   -26214   -26245   -26127   -26076   -26214   -26191 
  -26042   -26086   -26153   -26129   -26115   -26092   -26099   -26082 
  -26072   -26157   -26123   -26137   -26254   -26060   -25934   -26203 
  -26312   -26122   -26036   -26184   -26225   -26040   -25999   -26083 
  -26096   -26149   -26248   -26199   -26045   -26091   -26234   -26122 
  -25969   -26098   -26200   -26083   -26109   -26265   -26231   -26142 
  -26098   -26045   -26114   -26129   -26006   -26052   -26127   -26109 
  -26215   -26281   -26210   -26190   -26192   -26160   -26053   -25994 
  -26208   -26368   -26142   -25914   -25972   -26161   -26335   -26314 
  -26076   -26025   -26179   -26095   -25986   -26261   -26404   -26037 
  -25886   -26190   -26163   -25978   -26268   -26374   -26077   -26015 
  -26034   -26055   -26173   -26113   -26071   -26150   -26068   -26050 
  -26262   -26299   -26071   -26015   -26173   -26156   -26055   -26123 
  -26134   -26037   -26109   -26304   -26330   -26227   -26133   -26029 
  -26121   -26268   -26095   -25963   -26100   -26065   -25941   -26121 
  -26248   -26067   -26040   -26258   -26279   -26077   -26055   -26230 
  -26277   -26168   -26086   -26048   -26102   -26199   -26134   -26025 
  -26077   -26183   -26196   -26157   -26061   -25960   -26033   -26184 
  -26226   -26185   -26140   -26121   -26167   -26298   -26379   -26196 
  -25902   -25965   -26184   -26118   -26098   -26160   -26050   -26079 
  -26245   -26169   -26046   -26129   -26172   -26117   -26144   -26183 
  -26148   -26083   -26040   -26092   -26164   -26141   -26194   -26245 
  -26140   -26134   -26150   -26088   -26084   -26091   -26180   -26229 
  -26087   -26003   -26073   -26169   -26212   -26207   -26188   -26117 
  -26002   -26055   -26279   -26280   -26049   -26034   -26163   -26183 
  -26206   -26175   -26092   -26103   -26090   -26064   -26091   -26094 
  -26094   -26141   -26233   -26164   -25987   -26087   -26239   -26153 
  -26083   -26157   -26233   -26168   -26091   -26130   -26146   -26122 
  -26019   -25967   -26194   -26188   -25902   -26117   -26376   -26069 
  -25926   -26130   -26211   -26242   -26145   -25990   -26191   -26303 
  -26046   -25979   -26099   -26165   -26248   -26273   -26164   -25987 
  -25975   -26177   -26225   -26107   -26091   -26146   -26191   -26198 
  -26195   -26230   -26248   -26175   -26102   -26149   -26168   -26137 
  -26203   -26208   -26165   -26191   -26064   -25928   -26052   -26156 
  -26126   -26095   -26088   -26181   -26185   -26109   -26221   -26183 
  -25987   -26102   -26202   -26080   -26126   -26239   -26158   -26063 
  -26122   -26184   -26095   -26033   -26125   -26142   -26015   -26090 
  -26334   -26238   -25995   -26072   -26194   -26256   -26272   -26019 
  -25949   -26191   -26161   -26096   -26262   -26227   -26046   -26048 
  -26133   -26184   -26167   -26011   -26001   -26238   -26219   -26014 
  -26127   -26268   -26142   -26131   -26241   -26129   -25995   -26056 
  -26090   -26048   -26119   -26261   -26219   -26048   -25998   -26023 
  -26087   -26195   -26164   -26152   -26246   -26115   -26022   -26221 
  -26239   -26073   -26099   -26234   -26181   -26015   -26071   -26195 
  -26149   -26103   -26114   -26169   -26164   -26041   -26099   -26266 
  -26172   -26036   -26181   -26254   -26053   -26005   -26131   -26100 
  -26060   -26130   -26153   -26196   -26204   -26080   -26055   -26071 
  -26100   -26261   -26223   -26028   -26079   -26218   -26265   -26295 
  -26150   -25980   -26131   -26212   -26080   -26130   -26176   -26198 
  -26257   -26057   -26009   -26237   -26208   -26098   -26123   -26033 
  -25998   -26244   -26312   -26140   -26136   -26067   -25980   -26221 
  -26302   -26115   -26113   -26115   -26071   -26157   -26063   -25905 
  -26071   -26180   -26063   -26110   -26198   -26100   -26084   -26234 
  -26226   -26069   -26103   -26167   -26137   -26256   -26169   -25898 
  -26082   -26256   -26073   -26107   -26160   -26025   -26098   -26208 
  -26117   -26115   -26249   -26257   -26140   -26018   -26006   -26167 
  -26188   -26045   -26121   -26212   -26140   -26118   -26149   -26231 
  -26295   -26198   -26076   -26028   -26028   -26100   -26176   -26130 
  -26067   -26119   -26172   -26173   -26144   -26071   -26080   -26096 
  -26086   -26221   -26206   -25965   -26036   -26310   -26284   -26141 
  -26149   -26127   -26057   -26063   -26100   -26152   -26133   -26048 
  -26090   -26129   -26013   -25963   -26111   -26315   -26281   -26084 
  -26175   -26368   -26249   -26114   -26208   -26249   -26180   -26145 
  -26073   -26069   -26127   -26064   -26099   -26257   -26169   -25859 
  -25809   -26090   -26287   -26283   -26130   -26014   -26129   -26241 
  -26302   -26341   -26231   -26212   -26208   -25990   -25933   -26036 
  -26040   -26104   -26145   -26032   -25957   -26005   -26177   -26256 
  -26153   -26154   -26149   -26080   -26165   -26226   -26242   -26338 
  -26273   -26094   -26068   -26107   -26148   -26237   -26204   -25996 
  -25921   -26056   -26111   -26068   -26083   -26086   -26041   -26037 
  -26179   -26350   -26329   -26310   -26374   -26253   -26067   -26113 
  -26264   -26167   -25955   -26071   -26231   -26076   -25984   -26022 
  -26011   -26100   -26148   -26099   -26157   -26121   -25983   -26176 
  -26465   -26277   -26057   -26241   -26260   -26021   -25968   -26048 
  -26150   -26192   -25996   -25866   -26065   -26249   -26168   -26049 
  -26111   -26211   -26167   -26123   -26187   -26192   -26092   -26080 
  -26172   -26171   -26087   -26142   -26272   -26179   -26033   -26092 
  -26150   -26153   -26163   -26084   -26098   -26260   -26235   -26131 
  -26235   -26149   -25875   -26121   -26418   -26069   -25860   -26115 
  -26171   -26104   -26131   -26042   -26072   -26234   -26200   -26160 
  -26204   -26125   -25965   -25965   -26214   -26318   -26100   -26017 
  -26122   -26185   -26222   -26102   -25984   -26145   -26222   -26086 
  -26104   -26176   -26048   -26030   -26264   -26307   -26158   -26152 
  -26087   -25961   -26103   -26203   -26082   -26144   -26194   -26076 
  -26204   -26377   -26231   -26052   -26086   -26180   -26130   -26065 
  -26131   -26130   -26079   -26158   -26233   -26225   -26222   -26190 
  -26099   -26119   -26311   -26338   -26126   -26087   -26233   -26192 
  -26068   -26245   -26426   -26168   -25965   -26153   -26248   -26167 
  -26171   -26106   -25884   -25851   -26013   -26044   -25955   -25898 
  -25911   -25901   -25899   -26102   -26221   -26088   -26126   -26241 
  -26203   -26237   -26215   -26172   -26315   -26245   -25992   -25933 
  -25856   -25814   -26063   -26237   -26121   -26063   -26094   -26040 
  -26026   -26018   -25937   -26019   -26269   -26455   -26532   -26457 
  -26412   -26493   -26347   -26212   -26372   -26293   -25948   -25847 
  -25860   -25812   -25859   -25813   -25760   -26005   -25933   -25497 
  -25648   -26126   -26184   -26109   -26315   -26694   -26724   -26369 
  -26453   -26862   -26769   -26431   -26171   -25790   -25496   -25505 
  -25671   -25668   -25431   -25359   -25563   -25825   -26296   -26890 
  -27139   -26981   -26590   -26466   -26998   -27120   -26106   -25400 
  -25855   -26327   -26146   -25883   -25968   -26164   -26256   -26319 
  -26140   -25790   -25762   -25914   -25951   -26023   -26314   -26617 
  -26636   -26689   -26678   -26293   -26195   -26345   -26137   -25880 
  -25864   -25952   -25867   -25583   -25627   -25951   -25980   -26065 
  -26445   -26408   -25945   -25678   -25578   -25459   -25768   -26464 
  -26630   -26327   -26253   -26311   -26173   -26002   -26353   -26751 
  -26253   -25801   -26063   -25982   -25633   -25791   -25994   -25907 
  -25975   -26285   -26496   -26265   -25790   -25856   -26541   -27041 
  -26829   -26086   -25629   -25915   -26387   -26643   -26572   -26153 
  -26038   -26249   -26048   -25744   -25778   -25756   -25569   -25559 
  -25960   -26404   -26487   -26505   -26368   -26069   -26249   -26531 
  -26326   -26195   -26411   -26496   -26300   -25995   -25787   -25762 
  -25709   -25766   -26090   -26303   -26327   -26199   -26048   -26329 
  -26507   -25968   -25671   -26137   -26466   -26379   -26238   -26028 
  -25847   -26040   -26385   -26154   -25671   -25851   -26362   -26649 
  -26593   -26091   -25712   -25952   -26177   -25961   -25971   -26352 
  -26372   -25994   -25662   -25479   -25790   -26516   -26677   -26358 
  -26288   -26150   -25994   -26244   -26527   -26585   -26331   -25802 
  -25666   -26019   -26083   -25775   -25802   -26172   -26185   -25928 
  -25922   -25983   -25979   -26055   -26241   -26451   -26433   -26368 
  -26303   -25905   -25752   -26009   -25936   -25762   -26037   -26383 
  -26192   -25938   -26285   -26523   -26261   -26273   -26558   -26461 
  -26148   -26145   -26242   -26056   -25922   -26111   -26109   -25852 
  -26173   -26793   -26477   -25828   -26106   -26488   -26179   -26030 
  -26319   -26449   -26404   -26241   -25921   -25814   -25936   -26009 
  -26060   -26095   -25944   -25578   -25481   -25903   -26222   -26129 
  -26156   -26368   -26266   -26146   -26369   -26512   -26558   -26623 
  -26384   -26018   -26033   -26173   -25951   -25745   -25771   -25675 
  -25720   -26142   -26397   -26239   -26025   -25920   -26071   -26523 
  -26677   -26369   -26185   -26262   -26345   -26285   -26073   -25806 
  -25737   -26095   -26322   -26072   -25932   -25794   -25613   -25936 
  -26057   -25722   -25974   -26419   -26233   -26140   -26472   -26443 
  -26110   -26136   -26289   -26136   -25956   -26086   -26241   -26049 
  -25772   -25899   -26296   -26461   -26253   -25821   -25695   -26244 
  -26562   -26217   -26061   -26177   -26253   -26295   -26222   -26264 
  -26318   -26137   -26118   -26203   -26045   -25876   -25879   -26021 
  -26198   -26212   -26126   -26111   -26217   -26304   -26244   -26200 
  -26106   -25867   -25994   -26439   -26474   -26049   -25826   -26181 
  -26491   -26206   -25934   -26083   -26211   -26153   -26141   -26138 
  -26080   -26202   -26443   -26504   -26357   -26041   -25790   -25849 
  -26063   -26300   -26307   -25978   -25882   -26003   -25965   -26262 
  -26646   -26306   -25949   -26188   -26364   -26337   -26442   -26331 
  -25883   -25744   -25990   -26212   -26330   -26115   -25682   -25699 
  -25963   -25991   -26069   -26172   -26153   -26157   -26131   -26222 
  -26329   -26207   -26177   -26191   -26095   -26187   -26354   -26296 
  -26069   -25941   -26088   -26125   -25918   -25886   -25853   -25745 
  -25955   -26123   -26042   -26249   -26557   -26291   -25906   -26123 
  -26426   -26356   -26315   -26369   -26342   -26212   -25995   -25945 
  -25971   -25840   -25824   -25902   -25902   -26036   -26265   -26335 
  -26250   -26118   -26100   -26183   -26046   -25999   -26449   -26627 
  -26358   -26392   -26438   -26260   -26208   -26060   -25741   -25637 
  -25972   -26465   -26465   -26036   -25813   -25956   -26210   -26198 
  -25936   -25921   -26102   -26098   -26107   -26296   -26399   -26356 
  -26229   -26028   -26064   -26326   -26238   -25859   -25764   -25952 
  -26119   -26202   -26106   -25897   -25905   -26096   -26208   -26154 
  -26038   -26125   -26311   -26161   -25856   -26011   -26527   -26547 
  -25995   -25938   -26468   -26491   -26123   -26138   -26179   -25848 
  -25644   -25845   -26067   -26183   -26265   -26142   -26137   -26350 
  -26153   -26001   -26366   -26395   -26194   -26194   -26025   -26017 
  -26212   -26164   -26087   -26059   -26015   -25995   -26084   -26310 
  -26198   -25934   -26045   -26044   -25982   -26403   -26601   -26096 
  -25902   -26399   -26492   -26065   -26045   -26185   -26072   -26168 
  -26323   -26163   -26156   -26319   -26111   -25925   -26110   -26141 
  -26023   -26044   -26067   -26121   -26142   -26055   -26109   -26183 
  -26115   -26053   -26033   -26212   -26400   -26146   -25817   -25847 
  -25975   -26141   -26354   -26230   -25937   -25998   -26133   -26053 
  -26152   -26352   -26277   -26233   -26235   -26125   -26214   -26218 
  -25853   -25810   -26184   -26253   -26098   -26191   -26364   -26392 
  -26206   -25924   -25971   -26235   -26206   -25951   -25884   -26026 
  -26130   -26195   -26196   -26098   -26185   -26366   -26229   -26007 
  -25988   -25956   -25938   -26040   -26138   -26269   -26374   -26275 
  -26130   -26136   -26122   -26061   -26165   -26257   -26215   -26231 
  -26123   -25903   -26049   -26424   -26520   -26229   -25957   -25978 
  -25922   -25867   -25996   -25895   -25826   -26140   -26358   -26287 
  -26265   -26389   -26387   -26260   -26233   -26265   -26261   -26100 
  -25876   -25879   -26009   -26055   -26060   -26136   -26171   -26102 
  -26133   -26140   -26061   -26221   -26411   -26199   -25929   -26107 
  -26427   -26445   -26334   -26291   -26167   -25917   -25969   -26381 
  -26369   -25986   -25944   -25999   -25992   -26226   -26262   -25921 
  -25880   -26125   -26129   -25996   -25988   -26088   -26150   -26133 
