Origin Time       2025/03/30 21:30:00
Lat.              38.535
Long.             142.295
Depth. (km)       44
Mag.              4.3
Station Code      IWTH16
Station Lat.      39.6436
Station Long.     140.9465
Station Height(m) 62
Record Time       2025/03/30 21:31:43
Sampling Freq(Hz) 100Hz
Duration Time(s)  120
Dir.              1
Scale Factor      2942(gal)/8224139
Max. Acc. (gal)   0.143
Last Correction   2025/03/30 21:31:44
Memo.             
[...]
  252192   252217   252246   252256   252265   252251   252212   252189 
  252201   252211   252201   252184   252177   252189   252194   252170 
  252151   252174   252212   252205   252162   252148   252173   252197 
  252197   252190   252201   252197   252161   252144   252161   252170 
  252157   252139   252142   252158   252151   252120   252120   252162 
  252194   252204   252220   252246   252266   252282   252270   252229 
  252194   252175   252165   252161   252154   252148   252155   252174 
  252189   252198   252229   252231   252142   252055   252089   252180 
  252239   252251   252213   252163   252171   252212   252229   252221 
  252185   252127   252093   252107   252148   252181   252184   252181 
  252204   252239   252236   252205   252213   252240   252228   252211 
  252224   252231   252220   252211   252193   252142   252085   252058 
  252066   252123   252186   252177   252128   252143   252204   252232 
  252227   252211   252159   252112   252151   252227   252235   252198 
  252188   252182   252158   252167   252227   252269   252261   252234 
  252205   252185   252175   252153   252134   252148   252157   252138 
  252161   252239   252277   252232   252163   252105   252108   252184 
  252251   252252   252217   252185   252171   252175   252204   252229 
  252205   252158   252154   252174   252163   252139   252136   252147 
  252146   252148   252175   252193   252180   252157   252140   252132 
  252134   252151   252194   252242   252256   252244   252234   252254 
  252290   252281   252234   252215   252227   252227   252212   252197 
  252184   252153   252089   252050   252074   252120   252140   252144 
  252135   252150   252223   252302   252333   252332   252304   252242 
  252188   252186   252188   252147   252123   252144   252161   252151 
  252115   252059   252059   252100   252103   252112   252169   252211 
  252258   252327   252350   252319   252261   252204   252190   252188 
  252161   252151   252166   252146   252096   252086   252128   252171 
  252184   252185   252202   252211   252182   252178   252212   252209 
  252193   252236   252288   252263   252197   252162   252159   252154 
  252121   252069   252054   252090   252128   252155   252189   252219 
  252223   252215   252234   252274   252300   252305   252292   252234 
  252143   252115   252180   252213   252153   252085   252049   252019 
  252042   252126   252182   252197   252192   252169   252175   252220 
  252250   252250   252250   252273   252282   252258   252270   252325 
  252340   252292   252220   252157   252138   252165   252192   252180 
  252146   252105   252067   252070   252116   252154   252159   252166 
  252185   252193   252208   252239   252243   252215   252193   252192 
  252194   252200   252212   252223   252228   252229   252213   252173 
  252135   252128   252140   252163   252212   252246   252236   252224 
  252229   252255   252289   252292   252252   252201   252155   252103 
  252049   252035   252077   252127   252134   252123   252123   252108 
  252099   252143   252200   252216   252200   252175   252188   252223 
  252223   252223   252255   252250   252200   252159   252126   252089 
  252065   252078   252131   252178   252190   252184   252175   252174 
  252177   252188   252200   252207   252215   252227   252254   252292 
  252285   252208   252147   252151   252159   252154   252180   252207 
  252194   252177   252186   252182   252139   252096   252105   252169 
  252232   252248   252242   252252   252265   252254   252248   252267 
  252283   252267   252223   252184   252169   252171   252186   252204 
  252216   252239   252269   252271   252252   252239   252200   252135 
  252113   252135   252148   252159   252189   252219   252229   252212 
  252188   252175   252157   252134   252144   252177   252193   252185 
  252169   252169   252175   252167   252144   252119   252128   252189 
  252235   252211   252181   252182   252182   252180   252182   252202 
  252256   252298   252261   252186   252139   252124   252135   252166 
  252194   252207   252182   252132   252108   252119   252117   252090 
  252094   252154   252216   252228   252225   252242   252239   252212 
  252221   252251   252254   252246   252235   252197   252144   252128 
  252142   252144   252144   252167   252189   252181   252154   252127 
  252115   252127   252157   252193   252251   252304   252324   252346 
  252383   252379   252328   252294   252300   252302   252258   252171 
  252111   252096   252080   252049   252053   252101   252142   252146 
  252132   252113   252115   252153   252186   252190   252190   252193 
  252202   252208   252194   252185   252207   252238   252262   252289 
  252301   252248   252165   252134   252150   252155   252138   252148 
  252215   252258   252225   252201   252212   252165   252070   252034 
  252066   252117   252158   252169   252139   252082   252067   252138 
  252223   252255   252244   252217   252173   252127   252123   252165 
  252197   252185   252146   252113   252101   252112   252139   252174 
  252207   252236   252259   252271   252273   252266   252247   252207 
  252153   252128   252151   252189   252213   252223   252231   252252 
  252279   252282   252265   252243   252212   252181   252165   252155 
  252162   252161   252123   252116   252169   252201   252174   252127 
  252116   252151   252171   252186   252259   252344   252364   252329 
  252279   252240   252202   252154   252103   252069   252072   252111 
  252173   252239   252288   252312   252304   252266   252208   252154 
  252140   252155   252150   252121   252119   252139   252132   252111 
  252126   252144   252108   252059   252063   252105   252150   252209 
  252288   252329   252283   252204   252166   252151   252116   252069 
  252046   252055   252074   252105   252171   252234   252252   252246 
  252239   252238   252212   252174   252182   252215   252215   252235 
  252308   252370   252377   252320   252228   252163   252120   252047 
  251986   252008   252072   252113   252162   252224   252247   252247 
  252266   252274   252224   252184   252221   252254   252209   252163 
  252174   252192   252158   252123   252132   252140   252126   252123 
  252150   252177   252175   252165   252178   252215   252232   252232 
  252256   252261   252220   252202   252209   252209   252224   252252 
  252269   252250   252212   252184   252158   252130   252112   252108 
  252136   252194   252247   252251   252213   252192   252208   252221 
  252216   252221   252219   252182   252165   252194   252215   252207 
  252178   252130   252107   252138   252162   252139   252121   252142 
  252170   252201   252246   252269   252255   252246   252254   252261 
  252248   252209   252171   252174   252207   252223   252188   252151 
  252202   252285   252290   252246   252211   252201   252212   252213 
  252193   252153   252094   252073   252105   252140   252153   252169 
  252182   252189   252209   252224   252215   252196   252185   252173 
  252148   252134   252108   252057   252059   252150   252223   252221 
  252205   252196   252153   252117   252140   252167   252181   252229 
  252273   252223   252142   252128   252170   252221   252258   252246 
  252202   252181   252189   252205   252221   252213   252194   252205 
  252228   252221   252201   252209   252232   252235   252205   252169 
  252177   252229   252244   252202   252177   252186   252178   252134 
  252078   252066   252135   252228   252263   252254   252235   252221 
  252212   252211   252220   252198   252136   252111   252139   252162 
  252159   252148   252153   252177   252193   252189   252192   252215 
  252234   252250   252292   252325   252304   252265   252254   252235 
  252174   252119   252099   252074   252042   252047   252077   252066 
  252038   252063   252154   252239   252243   252208   252207   252224 
  252219   252180   252157   252204   252269   252263   252215   252177 
  252128   252085   252093   252109   252100   252116   252167   252204 
  252185   252126   252093   252126   252194   252242   252236   252215 
  252208   252221   252270   252313   252277   252201   252157   252132 
  252130   252166   252185   252161   252151   252171   252200   252248 
  252285   252279   252258   252221   252173   252144   252132   252144 
  252171   252163   252136   252153   252185   252200   252220   252243 
  252242   252215   252193   252225   252277   252275   252258   252256 
  252219   252161   252154   252194   252217   252186   252170   252227 
  252277   252228   252120   252061   252088   252143   252173   252170 
  252159   252174   252200   252201   252185   252177   252182   252190 
  252173   252135   252109   252097   252085   252080   252094   252121 
  252147   252189   252263   252317   252296   252228   252165   252121 
  252126   252169   252207   252212   252180   252148   252174   252232 
  252262   252240   252193   252177   252194   252177   252127   252111 
  252135   252162   252185   252202   252192   252147   252117   252154 
  252219   252232   252193   252147   252147   252205   252256   252254 
  252236   252246   252277   252285   252238   252186   252196   252215 
  252185   252150   252147   252170   252209   252236   252238   252227 
  252220   252207   252192   252193   252189   252151   252123   252146 
  252180   252188   252198   252204   252178   252163   252181   252181 
  252142   252099   252076   252078   252117   252194   252286   252321 
  252269   252213   252188   252123   252072   252099   252154   252192 
  252202   252202   252236   252282   252278   252213   252136   252099 
  252105   252134   252159   252181   252198   252197   252197   252239 
  252300   252315   252297   252308   252327   252282   252194   252150 
  252162   252169   252135   252092   252099   252147   252194   252225 
  252225   252223   252273   252347   252347   252266   252198   252189 
  252207   252216   252202   252178   252161   252154   252159   252165 
  252171   252188   252178   252140   252127   252134   252138   252131 
  252090   252066   252109   252136   252096   252077   252132   252209 
  252258   252294   252333   252339   252305   252273   252267   252273 
  252228   252139   252097   252124   252143   252139   252139   252144 
  252185   252269   252329   252331   252304   252274   252273   252290 
  252278   252252   252224   252186   252197   252247   252266   252265 
  252263   252236   252161   252070   252005   251973   251964   251958 
  251942   251953   252003   252030   252027   252054   252124   252189 
  252215   252221   252258   252292   252236   252136   252094   252115 
  252169   252254   252346   252429   252467   252433   252373   252298 
  252198   252115   252062   252028   252053   252134   252207   252239 
  252248   252235   252205   252196   252229   252275   252282   252236 
  252158   252085   252080   252136   252200   252216   252140   252019 
  251969   252000   252051   252072   252049   252019   252020   252050 
  252077   252100   252119   252104   252072   252119   252266   252400 
  252433   252410   252387   252363   252339   252329   252339   252337 
  252297   252254   252246   252271   252304   252296   252238   252197 
  252200   252186   252151   252127   252109   252081   252073   252142 
  252282   252413   252435   252329   252235   252239   252234   252174 
  252123   252086   252070   252086   252111   252132   252132   252100 
  252062   252024   252011   252070   252177   252254   252247   252181 
  252144   252153   252163   252171   252157   252113   252136   252248 
  252271   252132   252015   252027   252109   252234   252344   252340 
  252256   252161   252043   251965   252003   252119   252223   252269 
  252265   252243   252235   252288   252363   252346   252267   252224 
  252169   252058   251993   252013   252024   251965   251939   252069 
  252297   252468   252493   252405   252305   252244   252213   252197 
  252209   252252   252256   252198   252175   252204   252144   251976 
  251847   251839   251908   251968   251968   251950   251970   252045 
  252144   252225   252316   252436   252509   252532   252558   252520 
  252409   252359   252374   252324   252232   252178   252143   252115 
  252113   252111   252104   252111   252120   252151   252223   252246 
  252205   252212   252262   252308   252373   252396   252351   252324 
  252269   252135   252040   252019   251995   251995   252057   252175 
  252329   252428   252397   252296   252225   252198   252158   252069 
  251980   251965   252016   252061   252121   252273   252429   252459 
  252402   252346   252308   252305   252351   252386   252351   252266 
  252146   252005   251930   251953   251984   251974   251999   252057 
  252086   252120   252181   252223   252273   252324   252265   252130 
  252088   252132   252153   252148   252175   252211   252189   252136 
  252134   252159   252153   252126   252123   252158   252192   252188 
  252202   252302   252404   252386   252279   252189   252115   252016 
  251970   252030   252076   252077   252148   252261   252312   252296 
  252223   252123   252065   252094   252167   252202   252232   252292 
  252320   252300   252266   252215   252121   251995   251924   251953 
  252022   252108   252194   252231   252236   252277   252344   252347 
  252285   252250   252224   252150   252116   252147   252167   252221 
  252363   252481   252454   252283   252104   252004   251919   251816 
  251787   251874   252013   252123   252189   252238   252278   252319 
  252367   252398   252424   252440   252367   252180   252007   251980 
  252045   252081   252089   252140   252246   252346   252429   252513 
  252532   252425   252305   252302   252301   252200   252121   252142 
  252204   252270   252302   252288   252242   252207   252228   252250 
  252202   252143   252100   252072   252096   252132   252100   252038 
  251997   251968   251973   252018   252034   252027   252051   252132 
  252267   252356   252329   252258   252217   252212   252225   252188 
  252070   251962   251919   251926   251991   252088   252185   252298 
  252406   252428   252328   252171   252078   252078   252120   252170 
  252175   252131   252165   252277   252337   252328   252296   252271 
  252277   252293   252277   252236   252223   252251   252277   252281 
  252288   252302   252258   252104   251924   251820   251819   251922 
  252039   252059   252061   252139   252261   252355   252355   252293 
  252259   252252   252252   252263   252283   252333   252350   252227 
  252062   252005   252012   252008   252034   252115   252178   252166 
  252130   252138   252174   252209   252254   252294   252339   252406 
  252429   252352   252265   252262   252327   252366   252301   252159 
  252070   252094   252151   252130   252066   252072   252134   252166 
  252139   252094   252096   252146   252205   252262   252283   252243 
  252189   252174   252190   252231   252285   252310   252288   252232 
  252166   252139   252162   252154   252073   251989   251950   251943 
  251961   252005   252058   252112   252177   252232   252242   252246 
  252312   252400   252451   252493   252539   252551   252512   252462 
  252405   252290   252131   252008   251942   251885   251853   251900 
  252047   252217   252266   252180   252117   252162   252221   252231 
  252265   252324   252274   252120   252046   252089   252127   252154 
  252254   252351   252263   252055   252000   252111   252166   252127 
  252121   252198   252297   252305   252223   252174   252196   252221 
  252212   252147   252069   252067   252143   252208   252217   252215 
  252221   252232   252250   252266   252294   252336   252317   252207 
  252103   252099   252177   252255   252278   252254   252204   252105 
  251959   251843   251807   251818   251865   251984   252143   252221 
  252242   252315   252381   252360   252317   252301   252289   252239 
  252174   252161   252161   252099   252035   252034   252043   252038 
  252054   252112   252232   252389   252481   252477   252440   252371 
  252255   252182   252213   252251   252192   252085   252005   251985 
  252024   252063   252067   252070   252085   252134   252227   252301 
  252292   252250   252269   252339   252356   252274   252177   252142 
  252124   252080   252069   252121   252198   252293   252363   252354 
  252340   252358   252319   252228   252190   252205   252220   252232 
  252246   252236   252217   252212   252211   252223   252290   252355 
  252316   252232   252217   252236   252221   252173   252143   252198 
  252306   252354   252320   252278   252273   252283   252232   252104 
  251992   251972   252022   252036   251970   251923   251958   252034 
  252124   252189   252166   252090   252070   252154   252252   252236 
  252136   252066   252055   252100   252150   252105   251991   251901 
  251843   251823   251893   252024   252119   252170   252256   252371 
  252431   252424   252402   252383   252367   252331   252302   252331 
  252348   252293   252213   252150   252107   252057   251999   252003 
  252058   252088   252112   252193   252294   252324   252297   252331 
  252412   252416   252364   252304   252200   252094   252039   252030 
  252120   252267   252304   252223   252134   252084   252096   252153 
  252207   252278   252378   252452   252478   252497   252533   252533 
  252448   252329   252228   252146   252105   252100   252086   252055 
  251985   251901   251908   251993   252069   252113   252131   252132 
  252169   252274   252379   252389   252329   252261   252158   252053 
  252020   252043   252065   252088   252097   252090   252124   252182 
  252182   252153   252159   252174   252167   252139   252104   252089 
  252096   252117   252162   252227   252323   252383   252313   252188 
  252143   252159   252166   252150   252115   252082   252101   252147 
  252161   252167   252180   252135   252053   252070   252201   252266 
  252186   252096   252121   252221   252238   252154   252117   252165 
  252204   252182   252134   252127   252163   252192   252207   252223 
  252201   252154   252143   252124   252057   252046   252128   252193 
  252178   252140   252154   252221   252269   252269   252282   252320 
  252290   252155   252046   252080   252165   252213   252262   252323 
  252362   252358   252320   252306   252306   252248   252202   252248 
  252308   252325   252313   252274   252220   252175   252147   252153 
  252189   252193   252135   252080   252100   252178   252247   252255 
  252246   252269   252261   252190   252139   252128   252121   252123 
  252136   252143   252153   252189   252231   252243   252235   252186 
  252097   252043   252043   252059   252113   252235   252336   252342 
  252317   252344   252385   252363   252265   252130   252036   252038 
  252081   252093   252078   252094   252134   252136   252135   252196 
  252269   252269   252211   252163   252144   252120   252067   252022 
  252030   252072   252094   252111   252154   252205   252256   252305 
  252315   252288   252225   252139   252107   252165   252224   252229 
  252216   252231   252262   252281   252298   252332   252351   252335 
  252274   252185   252138   252159   252212   252290   252355   252325 
  252223   252104   252020   252051   252138   252147   252127   252193 
