Origin Time       2025/03/30 21:30:00
Lat.              38.535
Long.             142.295
Depth. (km)       44
Mag.              4.3
Station Code      IWTH04
Station Lat.      39.1809
Station Long.     141.3909
Station Height(m) 514
Record Time       2025/03/30 21:31:26
Sampling Freq(Hz) 100Hz
Duration Time(s)  120
Dir.              1
Scale Factor      2942(gal)/8224139
Max. Acc. (gal)   0.461
Last Correction   2025/03/30 21:31:26
Memo.             
[...]
  -28058   -28057   -28055   -28057   -28061   -28061   -28059   -28061 
  -28062   -28062   -28061   -28058   -28059   -28062   -28062   -28061 
  -28059   -28059   -28061   -28061   -28059   -28059   -28061   -28061 
  -28061   -28062   -28061   -28059   -28059   -28059   -28059   -28062 
  -28062   -28061   -28059   -28058   -28058   -28058   -28061   -28059 
  -28058   -28059   -28061   -28059   -28061   -28061   -28061   -28058 
  -28058   -28061   -28059   -28059   -28061   -28059   -28059   -28059 
  -28058   -28059   -28061   -28058   -28058   -28061   -28059   -28058 
  -28058   -28058   -28058   -28057   -28058   -28061   -28059   -28055 
  -28057   -28061   -28061   -28057   -28055   -28057   -28057   -28055 
  -28055   -28058   -28059   -28061   -28061   -28059   -28059   -28058 
  -28059   -28059   -28058   -28058   -28058   -28059   -28059   -28058 
  -28058   -28058   -28059   -28059   -28059   -28059   -28058   -28059 
  -28059   -28061   -28059   -28059   -28061   -28061   -28061   -28061 
  -28059   -28061   -28062   -28062   -28059   -28059   -28062   -28062 
  -28059   -28059   -28062   -28061   -28061   -28059   -28058   -28059 
  -28062   -28061   -28059   -28061   -28061   -28061   -28061   -28061 
  -28059   -28059   -28062   -28062   -28061   -28062   -28062   -28062 
  -28061   -28061   -28062   -28063   -28062   -28062   -28062   -28059 
  -28059   -28061   -28059   -28059   -28062   -28061   -28061   -28061 
  -28059   -28059   -28063   -28063   -28062   -28061   -28062   -28062 
  -28061   -28061   -28061   -28061   -28062   -28062   -28062   -28063 
  -28066   -28069   -28073   -28071   -28067   -28070   -28070   -28066 
  -28063   -28061   -28059   -28058   -28054   -28058   -28067   -28066 
  -28070   -28084   -28084   -28075   -28080   -28078   -28070   -28097 
  -28143   -28136   -28085   -28047   -28012   -27990   -28023   -28092 
  -28112   -28040   -27961   -27961   -28019   -28054   -28034   -28038 
  -28086   -28042   -27961   -28007   -28138   -28206   -28065   -27828 
  -27845   -28058   -28163   -28159   -28128   -28005   -27872   -27953 
  -28173   -28206   -28027   -27977   -28112   -28140   -28097   -28119 
  -28042   -28021   -28175   -28065   -27841   -28030   -28372   -28293 
  -27765   -27608   -28082   -28271   -28120   -28131   -28139   -28125 
  -28136   -28128   -28038   -27839   -27992   -28389   -28204   -27766 
  -27953   -28329   -28169   -27854   -27955   -28166   -28169   -28166 
  -28054   -27918   -28158   -28341   -28124   -28016   -28146   -28047 
  -27758   -27911   -28248   -28132   -28044   -28059   -27814   -27819 
  -28093   -28142   -28070   -28200   -28355   -28017   -27710   -28030 
  -28239   -28088   -27947   -27872   -27928   -28035   -28210   -28352 
  -28124   -27785   -27830   -28233   -28378   -28036   -27962   -28266 
  -28217   -27895   -27900   -28036   -27992   -28098   -28062   -27815 
  -28109   -28254   -27882   -28075   -28389   -28054   -27807   -28001 
  -28173   -28200   -28093   -27831   -27909   -28286   -28138   -27787 
  -28011   -28255   -27967   -27796   -28074   -28215   -28113   -28053 
  -28054   -28220   -28269   -27981   -27940   -28123   -28036   -27945 
  -28096   -28256   -28138   -27822   -27810   -28077   -28075   -28024 
  -28235   -28240   -27973   -27855   -27936   -28059   -28123   -28120 
  -28098   -28055   -28098   -28228   -28101   -27893   -28024   -28100 
  -27955   -27990   -28047   -28023   -28107   -28119   -28108   -28116 
  -27949   -27974   -28216   -28120   -27927   -28055   -28206   -28136 
  -28044   -28057   -27990   -27915   -28089   -28108   -27886   -28069 
  -28217   -27974   -28082   -28236   -27985   -27992   -28235   -28151 
  -27907   -27940   -28204   -28213   -27985   -28011   -28109   -28108 
  -28239   -28165   -27947   -28054   -28057   -27901   -28109   -28291 
  -28067   -27893   -28004   -28109   -28074   -28089   -28193   -28113 
  -27931   -27961   -28059   -28044   -28030   -28057   -28102   -28119 
  -28028   -27963   -27986   -28058   -28189   -28132   -27909   -27901 
  -28038   -28104   -28104   -28043   -28012   -28117   -28156   -27955 
  -27862   -27965   -27974   -28058   -28220   -28170   -28105   -28086 
  -27919   -27953   -28178   -28039   -27862   -28053   -28208   -28188 
  -28054   -27920   -28038   -28200   -28162   -28053   -28038   -28124 
  -28113   -28024   -28086   -28221   -28127   -27811   -27783   -28136 
  -28242   -28078   -28108   -28127   -27981   -28007   -28142   -28093 
  -28032   -28065   -28009   -27938   -28017   -28156   -28158   -28040 
  -28004   -28054   -28092   -28031   -27955   -28078   -28173   -28088 
  -28078   -28009   -27961   -28206   -28182   -27900   -28039   -28143 
  -27980   -28090   -28124   -27918   -28015   -28202   -28098   -27951 
  -27942   -28011   -28085   -28140   -28158   -28069   -28024   -28128 
  -28077   -27907   -27980   -28132   -28178   -28151   -28030   -28026 
  -28048   -27951   -28051   -28178   -28135   -28129   -28016   -27884 
  -28011   -28173   -28159   -28082   -28038   -28017   -28021   -28042 
  -28102   -28202   -28142   -27950   -27932   -28093   -28152   -28048 
  -28042   -28113   -28011   -27920   -28081   -28189   -28001   -27896 
  -28065   -28147   -28082   -28117   -28136   -28058   -28061   -27992 
  -27842   -27985   -28224   -28166   -28009   -28063   -28177   -27985 
  -27818   -28063   -28239   -28151   -28066   -28008   -28046   -28117 
  -28039   -28021   -28143   -28084   -27932   -28048   -28240   -28070 
  -27832   -28027   -28189   -28044   -28067   -28101   -27962   -28004 
  -28065   -27961   -27972   -28073   -28101   -28155   -28134   -27997 
  -28065   -28202   -28075   -27930   -27963   -28039   -28093   -28055 
  -28000   -28090   -28136   -28017   -27978   -28070   -28124   -28109 
  -28104   -28138   -28121   -28001   -28013   -28166   -28090   -27977 
  -28093   -28181   -28179   -28084   -27907   -27934   -28086   -28040 
  -27923   -28055   -28289   -28202   -27958   -28001   -28136   -28035 
  -27892   -27934   -28084   -28102   -28019   -28089   -28175   -28102 
  -28048   -28058   -28011   -27977   -28011   -28071   -28143   -28084 
  -28013   -28166   -28161   -27870   -27866   -28139   -28194   -28059 
  -27978   -27969   -28015   -28129   -28152   -27993   -27965   -28163 
  -28255   -28148   -28067   -28105   -28039   -27880   -27939   -28043 
  -28015   -28085   -28124   -28046   -28077   -28081   -28038   -28066 
  -28030   -28024   -28121   -28117   -28055   -28113   -28188   -28098 
  -28003   -28109   -28057   -27789   -27957   -28255   -28050   -27919 
  -28132   -28129   -27967   -27992   -28066   -28089   -28139   -28096 
  -27984   -28131   -28320   -28074   -27795   -27967   -28247   -28165 
  -27873   -27859   -28066   -28105   -28038   -28063   -28090   -28046 
  -28094   -28142   -27974   -27940   -28181   -28194   -28016   -28109 
  -28269   -28100   -27920   -27978   -27969   -27915   -27977   -28023 
  -28062   -28113   -28128   -28200   -28251   -28129   -27954   -27961 
  -28093   -28053   -27955   -28069   -28151   -28065   -28063   -28048 
  -27882   -27918   -28117   -28146   -28128   -28012   -27901   -28147 
  -28251   -27926   -27803   -28100   -28296   -28081   -27866   -27999 
  -28101   -28008   -28152   -28362   -28100   -27796   -27997   -28278 
  -28142   -27962   -28127   -28196   -28019   -28007   -28096   -28071 
  -27959   -27841   -27876   -28111   -28263   -28196   -28190   -28148 
  -27900   -27909   -28138   -28136   -28074   -28039   -27943   -27958 
  -28035   -28085   -28237   -28215   -27853   -27881   -28266   -28134 
  -27927   -28150   -28221   -28063   -28005   -28067   -28081   -28043 
  -28108   -28105   -27990   -28012   -28116   -28128   -28077   -28050 
  -27992   -27951   -28011   -28013   -28062   -28193   -28065   -27893 
  -27982   -28081   -28073   -28030   -28040   -28067   -27965   -28005 
  -28223   -28113   -27892   -28047   -28179   -28016   -27953   -28001 
  -28021   -28196   -28227   -27905   -27808   -28105   -28293   -28146 
  -27966   -27997   -28040   -28082   -28304   -28367   -28070   -27916 
  -28009   -28005   -28024   -28182   -28200   -27999   -27885   -27973 
  -28024   -28042   -28125   -28105   -27997   -27997   -28042   -28055 
  -28158   -28206   -28053   -27976   -28035   -28020   -27974   -28003 
  -28093   -28143   -28092   -28065   -28038   -27993   -28131   -28202 
  -28042   -28040   -28123   -28084   -28094   -28096   -28043   -28063 
  -28061   -27970   -27981   -28097   -28116   -28038   -27950   -27984 
  -28194   -28296   -28125   -27972   -28020   -28059   -27999   -28043 
  -28136   -28144   -28075   -27904   -27903   -28188   -28198   -27861 
  -27905   -28285   -28206   -27943   -28119   -28154   -27905   -28048 
  -28224   -28011   -27899   -28001   -28108   -28155   -28050   -27928 
  -27985   -27994   -27905   -28009   -28121   -28121   -28242   -28243 
  -28059   -27949   -27891   -27904   -28061   -28240   -28179   -28036 
  -28135   -28233   -28111   -27943   -27969   -28009   -27870   -28009 
  -28287   -28173   -28093   -28242   -28131   -27828   -27849   -28008 
  -27922   -28020   -28269   -28155   -27994   -28013   -28084   -28088 
  -27945   -27930   -28016   -28046   -28140   -28101   -28007   -28097 
  -28027   -27936   -28154   -28193   -27928   -27874   -28073   -28242 
  -28232   -28070   -27980   -27992   -28028   -28174   -28301   -28134 
  -27899   -27976   -28109   -28040   -28000   -28082   -28182   -28135 
  -28003   -28119   -28200   -28046   -28039   -27986   -27873   -28084 
  -28229   -28089   -28038   -28065   -28054   -28102   -28156   -28065 
  -27916   -27946   -28055   -28116   -28190   -28116   -27989   -28009 
  -27958   -27976   -28115   -28047   -27961   -28008   -28046   -28065 
  -28061   -28098   -28150   -28125   -28120   -28075   -27974   -27990 
  -28050   -28088   -28109   -28088   -28124   -28055   -27930   -28140 
  -28327   -28071   -27891   -28077   -28134   -27920   -27885   -28011 
  -27984   -28026   -28147   -28046   -27970   -28027   -28021   -28061 
  -28057   -28044   -28181   -28127   -28015   -28138   -28140   -28050 
  -28039   -27942   -27967   -28156   -28094   -27961   -28178   -28345 
  -28089   -27855   -27928   -28096   -28166   -28113   -28119   -28112 
  -27945   -27961   -28194   -28188   -27994   -28000   -28070   -27946 
  -27966   -28167   -27992   -27814   -28115   -28243   -28146   -28220 
  -28161   -28054   -28073   -27996   -27988   -28050   -28055   -28162 
  -28140   -27992   -28020   -27966   -27866   -27969   -28074   -28146 
  -28202   -28138   -27993   -27942   -28135   -28310   -28194   -28050 
  -28039   -28007   -27974   -28038   -28024   -27965   -28073   -28063 
  -27945   -28009   -27999   -27970   -28096   -28139   -28178   -28185 
  -28048   -28080   -28190   -28089   -28058   -28147   -28055   -27966 
  -27957   -27919   -28020   -28198   -28240   -28094   -27950   -27984 
  -28092   -28140   -28047   -28075   -28217   -28027   -28000   -28246 
  -28001   -27778   -28113   -28185   -27873   -27947   -28115   -27986 
  -28013   -28030   -27922   -28075   -28127   -27945   -27942   -28055 
  -28173   -28197   -28003   -27870   -27950   -27986   -28004   -28105 
  -27974   -27886   -28125   -28090   -28073   -28445   -28332   -27841 
  -27903   -28231   -28194   -28020   -28089   -28173   -27993   -27843 
  -28055   -28317   -28128   -27738   -27791   -28097   -28090   -28054 
  -28200   -28156   -28050   -28063   -28058   -28093   -28120   -28162 
  -28244   -28143   -28040   -28059   -28024   -28109   -28201   -28001 
  -27822   -27920   -28054   -28023   -27938   -28003   -28260   -28297 
  -27919   -27811   -28131   -28189   -28027   -28023   -28026   -28084 
  -28173   -28013   -27989   -28228   -28109   -27838   -27976   -28044 
  -27823   -27997   -28291   -27970   -27778   -28258   -28418   -28036 
  -27916   -28050   -28129   -28205   -28173   -28071   -28120   -28228 
  -28193   -28017   -27927   -27901   -27804   -28039   -28404   -28140 
  -27832   -28000   -28009   -27984   -28289   -28432   -28173   -27865 
  -27927   -28142   -28075   -28054   -28062   -27850   -27918   -28112 
  -27957   -27993   -28258   -28107   -27935   -28147   -28138   -27973 
  -28142   -28179   -27967   -27922   -27922   -27905   -28001   -28067 
  -28062   -28015   -27947   -28078   -28255   -28220   -28216   -28216 
  -28012   -27943   -28115   -28148   -28077   -28155   -28281   -28225 
  -28027   -27928   -27965   -27958   -27928   -27994   -28058   -28109 
  -28255   -28325   -28178   -27999   -28026   -28179   -28170   -28102 
  -28108   -27918   -27812   -28155   -28355   -28085   -27970   -28224 
  -28273   -28012   -27847   -27924   -28156   -28080   -27712   -27827 
  -28232   -28242   -28032   -27950   -27953   -27967   -28003   -27990 
  -28038   -28243   -28287   -28166   -28264   -28379   -28224   -28166 
  -28179   -27857   -27549   -27699   -28000   -28082   -27997   -27897 
  -27739   -27530   -27595   -27970   -28077   -27812   -27743   -27969 
  -28173   -28298   -28571   -28722   -28210   -27785   -27965   -27791 
  -27333   -27249   -27302   -27554   -27864   -27681   -27456   -27859 
  -28624   -29091   -29069   -28965   -28973   -28779   -28401   -28329 
  -28545   -28475   -28232   -28254   -28177   -27945   -28053   -28289 
  -28146   -27746   -27602   -27772   -27988   -28243   -28607   -28838 
  -28561   -28215   -28394   -28680   -28525   -27865   -27139   -26946 
  -27148   -27095   -26773   -27049   -27923   -27913   -27144   -27579 
  -28979   -29309   -28669   -28377   -28194   -27950   -28200   -28219 
  -27689   -27500   -27432   -27468   -28034   -28189   -27762   -27812 
  -28179   -28140   -27885   -27974   -28405   -28740   -28946   -29205 
  -29107   -28428   -28005   -28282   -28317   -27618   -27010   -27103 
  -27711   -28275   -28232   -27912   -28030   -28196   -28031   -28015 
  -28240   -28503   -28548   -28116   -27772   -27814   -27720   -27927 
  -28462   -28216   -27812   -27951   -27907   -27891   -28090   -28089 
  -28047   -27927   -27611   -27400   -27637   -28252   -28466   -28151 
  -28116   -28248   -28161   -28310   -28420   -27831   -27545   -28301 
  -28788   -28255   -27689   -27711   -27935   -28097   -28354   -28620 
  -28347   -27669   -27600   -28127   -28306   -28254   -28282   -28179 
  -28219   -28250   -27868   -27719   -28115   -28275   -28109   -28318 
  -28605   -28259   -27626   -27522   -28111   -28231   -27523   -27606 
  -28063   -27427   -27267   -28136   -28217   -27940   -28409   -28738 
  -28279   -27810   -28020   -28328   -28166   -27963   -27722   -27535 
  -28044   -28395   -27878   -27576   -27742   -28013   -28444   -28498 
  -28251   -28266   -28212   -28081   -28108   -27994   -28054   -28456 
  -28364   -27977   -28009   -28080   -28070   -28048   -28063   -28320 
  -28258   -27896   -28004   -28329   -28356   -28282   -28228   -27912 
  -27614   -27762   -28054   -28169   -27927   -27565   -27710   -28063 
  -28070   -27974   -27963   -28067   -28273   -28308   -28332   -28277 
  -27839   -27774   -28262   -28321   -27913   -27718   -27843   -27936 
  -27992   -28210   -28205   -27942   -28026   -28259   -28113   -27851 
  -27896   -27982   -27869   -28017   -28227   -27950   -27716   -27922 
  -28328   -28493   -28156   -27940   -28121   -28152   -27954   -27828 
  -28040   -28463   -28332   -27727   -27673   -28198   -28579   -28543 
  -28142   -27837   -28067   -28386   -28331   -28008   -27684   -27834 
  -28336   -28381   -27997   -27741   -27864   -28159   -28108   -28061 
  -28285   -27950   -27429   -27853   -28381   -27967   -27679   -28035 
  -28044   -27858   -28088   -28206   -28039   -28205   -28379   -28026 
  -27990   -28435   -28374   -27982   -27912   -28030   -28116   -28205 
  -28246   -28071   -27738   -27670   -28017   -28250   -28065   -27932 
  -28094   -28152   -28036   -28183   -28389   -28057   -27691   -27877 
  -28031   -27820   -27729   -28008   -28202   -27954   -27989   -28458 
  -28324   -28036   -28463   -28705   -28235   -27845   -28063   -28179 
  -27616   -27378   -27819   -28113   -28255   -28229   -27928   -27969 
  -28196   -28113   -28237   -28471   -28197   -27927   -28053   -28246 
  -28251   -27927   -27623   -27692   -27945   -28146   -28098   -27857 
  -27637   -27535   -27864   -28414   -28470   -28290   -28432   -28540 
  -28308   -28004   -27927   -28055   -28050   -27865   -27814   -27886 
  -27974   -28086   -27900   -27639   -28016   -28406   -28197   -28063 
  -28135   -28138   -28237   -28355   -28147   -27808   -27950   -28227 
  -27966   -27815   -28116   -28124   -27934   -28027   -28151   -28104 
  -27908   -27687   -27803   -28113   -28215   -28320   -28358   -28046 
  -27884   -28127   -28360   -28273   -28012   -27996   -28209   -28139 
  -27838   -27866   -28015   -27949   -27961   -27955   -27965   -28173 
  -28159   -28125   -28254   -28020   -27915   -28175   -27994   -27810 
  -28267   -28437   -27974   -27714   -27841   -28074   -28194   -28196 
  -28306   -28267   -28084   -28204   -28387   -28190   -27912   -28094 
  -28324   -28047   -27958   -28254   -27980   -27540   -27814   -28032 
  -27920   -28043   -28116   -28100   -28181   -28123   -28084   -28129 
  -28043   -27939   -27868   -27857   -28111   -28486   -28517   -28096 
  -27803   -28059   -28314   -28043   -27607   -27633   -28075   -28121 
  -27787   -28013   -28399   -28216   -28051   -28134   -28039   -27882 
  -27955   -28073   -28032   -28023   -28058   -27980   -27866   -27834 
  -27897   -27876   -27781   -27945   -28139   -28044   -27919   -28036 
  -28274   -28323   -28231   -28159   -27989   -27849   -27994   -28331 
  -28451   -28026   -27623   -27961   -28408   -28325   -28047   -27934 
  -28108   -28142   -27823   -27880   -28313   -28455   -28367   -28231 
  -28120   -28306   -28506   -28221   -27878   -27969   -28055   -27918 
  -28001   -28242   -28034   -27503   -27664   -28321   -28254   -27928 
  -28038   -28050   -28096   -28323   -28236   -28020   -28138   -28208 
  -27847   -27715   -27900   -27803   -27859   -28147   -28196   -28098 
  -27847   -27793   -28139   -28372   -28343   -28161   -28123   -28197 
  -28012   -27938   -28070   -27958   -27819   -27988   -28200   -28171 
  -28096   -28189   -28339   -28333   -28065   -27888   -28146   -28235 
  -27754   -27623   -28127   -28196   -27859   -27970   -28236   -28264 
  -28310   -28162   -27616   -27571   -28224   -28289   -27776   -27909 
  -28428   -28210   -27561   -27645   -28175   -28134   -27943   -28088 
  -28028   -27992   -28266   -28127   -27691   -27831   -28279   -28215 
  -27878   -28001   -28225   -27981   -27967   -28363   -28239   -28016 
  -28321   -28321   -27947   -27939   -28039   -27922   -27909   -28094 
  -28147   -27988   -27989   -28140   -28159   -28197   -28206   -28055 
  -28112   -28121   -27750   -27710   -27999   -28040   -28062   -28023 
  -27926   -28120   -28221   -28139   -28212   -28070   -27895   -28247 
  -28287   -27672   -27666   -28341   -28502   -28200   -28027   -27882 
  -27909   -28135   -28179   -28116   -27978   -27927   -28264   -28382 
  -28139   -28170   -28155   -27839   -27855   -28278   -28420   -28034 
  -27769   -28001   -28097   -27847   -27830   -27958   -27939   -28016 
  -28039   -27882   -27962   -28196   -28108   -27932   -28175   -28436 
