Origin Time       2025/03/30 21:30:00
Lat.              38.535
Long.             142.295
Depth. (km)       44
Mag.              4.3
Station Code      IWTH20
Station Lat.      39.3434
Station Long.     141.0473
Station Height(m) -50.2
Record Time       2025/03/30 21:31:18
Sampling Freq(Hz) 100Hz
Duration Time(s)  120
Dir.              1
Scale Factor      2942(gal)/8224139
Max. Acc. (gal)   0.893
Last Correction   2025/03/30 21:31:18
Memo.             
[...]
   40967    40925    40684    40717    40938    40851    40630    40644 
   40778    40886    40983    41062    41114    41291    41507    41382 
   41045    40817    40682    40760    41041    41129    40857    40491 
   40464    40770    40886    40832    41042    41231    40971    40675 
   40770    40987    41029    41052    41169    41099    40805    40682 
   40855    41019    40999    40954    40954    40887    40875    40969 
   40987    40925    40783    40586    40521    40601    40753    40957 
   41115    41123    40981    40921    41073    41185    41115    40976 
   40891    40938    41033    41057    41018    40994    41053    41126 
   41146    41180    41242    41211    41081    41018    41046    41046 
   40959    40764    40512    40343    40373    40576    40783    40894 
   41018    41172    41175    41092    41237    41412    41175    40851 
   40887    41038    41030    40876    40726    40714    40780    40865 
   40888    40782    40680    40744    40971    41080    40929    40848 
   40995    41116    41050    40923    40895    40907    40844    40711 
   40621    40753    41049    41219    41181    41058    40922    40811 
   40814    40891    40810    40560    40439    40632    40950    41071 
   40991    40956    41029    41091    41139    41208    41233    41273 
   41349    41256    41052    40987    40987    40923    40913    40994 
   40960    40745    40612    40707    40811    40805    40822    40880 
   40923    40934    40873    40809    40879    41021    41077    41162 
   41385    41500    41318    41026    40863    40799    40771    40803 
   40813    40794    40778    40686    40652    40748    40857    40972 
   40996    40871    40809    40878    40944    40995    41002    40922 
   40907    41027    41084    40981    40887    40879    40869    40868 
   40909    40950    40983    40976    40910    40907    41087    41166 
   40971    40930    41073    41021    40942    41003    40995    40915 
   40875    40882    40919    40880    40768    40778    40906    40999 
   41027    40987    40886    40770    40707    40792    40995    41157 
   41172    41057    40975    41015    41044    40961    40788    40662 
   40788    41042    41134    41068    40948    40859    40869    40933 
   40964    40913    40880    40946    41058    41134    40979    40713 
   40767    41006    41030    40884    40803    40878    41065    41196 
   41103    40896    40838    40959    41098    41125    41076    41061 
   41046    40900    40721    40782    40963    40894    40691    40621 
   40676    40838    41011    41053    40972    40810    40730    40837 
   40956    41027    41077    40984    40861    40937    41081    41080 
   40976    40825    40701    40798    41019    41026    40864    40842 
   40938    40925    40857    40888    40911    40807    40753    40906 
   41042    41017    40964    40965    41107    41332    41315    41076 
   40960    40991    41007    41014    40969    40799    40635    40651 
   40852    41071    41096    40925    40776    40787    40865    40867 
   40832    40913    41071    41084    40986    40986    41062    41110 
   41079    40949    40853    40882    41004    41108    40969    40694 
   40618    40699    40730    40775    40957    41085    40905    40659 
   40711    40945    41068    41040    41031    41114    41191    41245 
   41234    41050    40857    40799    40716    40620    40756    41034 
   41122    41046    41003    40899    40759    40856    41053    41029 
   40883    40822    40902    41061    41145    41142    41099    40981 
   40882    40818    40753    40834    41026    41080    41048    41054 
   40950    40802    40891    41083    41085    40945    40814    40689 
   40590    40674    40942    41142    41175    41129    40981    40791 
   40770    40888    40960    40990    40964    40778    40609    40740 
   41071    41241    41068    40760    40585    40630    40894    41104 
   41042    40930    40880    40797    40859    41118    41245    41099 
   40907    40879    40932    40900    40849    40913    41018    41042 
   41044    41045    40926    40756    40764    40940    41099    41139 
   41057    40941    40878    40886    40940    40965    41014    41152 
   41164    40927    40695    40736    40934    40937    40734    40682 
   40930    41214    41220    41010    40844    40846    40942    41002 
   40976    40860    40792    40876    40967    40960    40803    40618 
   40666    40780    40736    40709    40801    40948    41118    41235 
   41233    41165    41110    41033    40899    40869    41046    41208 
   41096    40791    40647    40810    41006    41033    40990    40926 
   40879    40973    41138    41125    40975    40926    40959    40950 
   40845    40633    40570    40756    40860    40813    40863    40995 
   41033    40940    40809    40802    40969    41111    41149    41207 
   41185    40969    40828    40926    40976    40833    40779    40929 
   41085    41153    41146    41069    40969    40890    40798    40744 
   40879    41077    41098    41019    40960    40930    40952    40942 
   40917    40944    40902    40810    40832    40855    40792    40834 
   40956    40923    40888    41029    41060    40953    40987    41110 
   41137    40996    40718    40536    40691    41034    41183    41076 
   40921    40828    40788    40806    40992    41208    41081    40770 
   40736    40894    40972    40988    40894    40740    40818    41058 
   41125    40952    40736    40682    40721    40772    40969    41169 
   41146    41076    41080    41021    40905    40857    40911    41003 
   41048    41094    41184    41204    41089    40844    40559    40495 
   40672    40819    40905    41021    41061    41033    41029    40942 
   40809    40875    41112    41277    41265    41104    40902    40792 
   40836    40937    40905    40840    40923    40944    40856    40833 
   40802    40749    40786    40864    40918    40996    41030    40933 
   40937    41122    41152    40929    40733    40705    40759    40879 
   41037    41089    40956    40749    40732    40876    40869    40718 
   40678    40888    41184    41287    41223    41122    41008    40967 
   40992    40991    40971    41006    41008    40917    40921    40999 
   40915    40798    40841    40888    40900    41004    41075    41035 
   41037    41031    40907    40779    40761    40863    41064    41210 
   41106    40819    40609    40660    40942    41139    41058    40902 
   40805    40780    40948    41131    41015    40703    40609    40895 
   41150    41095    41054    41145    41112    40963    40853    40725 
   40591    40711    41034    41184    41023    40772    40751    40979 
   41143    41042    40861    40915    41087    41054    40960    41069 
   41164    40954    40644    40549    40684    40961    41175    41107 
   40859    40651    40571    40637    40892    41283    41527    41393 
   41011    40778    40875    41033    41000    40903    40861    40767 
   40645    40713    40960    41170    41206    41061    40768    40466 
   40446    40846    41324    41442    41188    40799    40581    40779 
   41153    41276    41118    40883    40738    40745    40890    40994 
   40922    40883    40979    41068    41150    41161    40944    40613 
   40436    40477    40706    41034    41142    41007    41000    41126 
   41096    40969    40953    40957    40975    41141    41261    41137 
   41000    41057    41098    40944    40747    40603    40570    40686 
   40775    40730    40689    40788    40944    40950    40863    40852 
   40929    40998    41026    41096    41123    40971    40864    40925 
   40977    41031    41107    41075    40984    40976    41053    41011 
   40779    40648    40683    40707    40873    41206    41314    41181 
   41129    41052    40849    40782    40849    40875    40929    41007 
   40987    40910    40876    40892    40902    40902    40954    40967 
   40882    40879    40923    40871    40809    40819    40975    41204 
   41188    40932    40841    40977    41048    40968    40894    40950 
   41068    41053    40975    41072    41192    41071    40882    40873 
   40919    40914    40911    40798    40645    40720    40848    40826 
   40857    40929    40787    40624    40713    40837    40892    41006 
   41068    41029    41010    41081    41216    41218    41060    40999 
   41046    40986    40888    40905    40921    40795    40637    40716 
   41015    41189    41114    40967    40945    41108    41314    41346 
   41091    40792    40836    41118    41195    40926    40603    40516 
   40597    40657    40707    40840    40999    41018    40902    40898 
   41040    41048    40892    40814    40865    40918    40925    40930 
   40910    40838    40836    40875    40833    40780    40817    40929 
   40973    40907    40987    41156    41081    40980    41215    41459 
   41301    40965    40814    40761    40581    40495    40756    41030 
   41095    41077    40922    40721    40753    41000    41222    41204 
   41022    40938    41034    41242    41318    41068    40784    40660 
   40481    40379    40649    40987    41045    40936    40809    40805 
   41008    41203    41207    41076    40980    41031    41100    41139 
   41188    41018    40672    40601    40821    40949    40896    40824 
   40743    40693    40822    41026    41017    40830    40884    41218 
   41326    41184    41119    41021    40833    40798    40895    40891 
   40780    40716    40703    40743    40849    40883    40864    40971 
   41062    40969    40826    40805    40998    41285    41424    41412 
   41303    41139    41058    40961    40710    40520    40508    40591 
   40795    40996    40949    40728    40554    40599    40954    41291 
   41258    41049    40968    41044    41084    40873    40649    40772 
   41064    41179    41003    40694    40655    40813    40676    40514 
   40737    40964    41056    41274    41426    41299    41103    40991 
   40923    40878    40787    40705    40797    40936    40964    40968 
   40942    40848    40833    40980    41072    40996    40888    40786 
   40755    40840    40918    41092    41314    41235    41026    40992 
   40967    40896    40884    40837    40825    40973    41064    40909 
   40706    40763    41056    41247    41130    40900    40818    40751 
   40622    40711    41007    41231    41287    41181    41025    40921 
   40844    40819    40834    40753    40609    40694    41089    41322 
   41068    40733    40743    41008    41166    41000    40801    40840 
   40922    40973    41053    41057    41034    41049    40984    40851 
   40795    40837    40886    40875    40767    40678    40838    41141 
   41193    40941    40743    40765    40817    40871    41011    41080 
   41049    41048    41053    41038    41003    41029    41161    41156 
   40942    40767    40686    40628    40705    40941    41073    40992 
   40925    41017    41146    41154    41092    41035    40987    40988 
   40979    40926    40933    41069    41277    41258    40860    40459 
   40481    40802    40981    40936    40794    40606    40644    40980 
   41187    41099    41004    41075    41179    41160    41094    41033 
   40959    40880    40714    40609    40774    40913    40846    40840 
   40930    40949    40903    40909    40992    41130    41230    41057 
   40693    40612    40899    41176    41170    40915    40649    40504 
   40459    40581    40830    41030    41094    41121    41204    41177 
   41053    41116    41241    41121    40825    40575    40512    40703 
   41017    41141    41044    40909    40784    40705    40764    40959 
   41057    40907    40743    40813    41029    41199    41292    41222 
   40856    40579    40774    41081    41184    41189    41038    40783 
   40694    40717    40786    40933    40944    40842    40838    40776 
   40608    40618    40794    40822    40672    40570    40644    40803 
   40892    40950    40922    40647    40498    40844    41386    41732 
   41744    41474    41133    40930    40922    40994    41029    40992 
   40921    40902    40944    40971    40948    40864    40759    40879 
   41335    41754    41837    41635    41307    41065    40878    40643 
   40473    40473    40744    41067    41023    40806    40759    40849 
   40992    41230    41607    41901    41836    41476    41052    40770 
   40678    40660    40701    40919    41278    41472    41219    40647 
   40269    40447    40934    41239    41176    40875    40571    40385 
   40275    40123    39950    39964    40140    40293    40500    40873 
   41277    41489    41374    40905    40279    39912    39931    40035 
   40105    40348    40890    41652    42313    42404    41769    40836 
   40240    40140    40356    40863    41519    41935    41872    41551 
   41397    41536    41732    41721    41558    41459    41446    41571 
   41924    42260    42130    41389    40350    39488    39306    40004 
   41007    41404    40900    40155    39991    40427    40948    41218 
   41216    41158    41324    41690    41891    41582    40825    40090 
   39757    39749    39784    39791    39924    40371    41195    42040 
   42348    42183    41904    41462    41004    40807    40437    39657 
   39120    39263    40000    41058    41794    41648    40959    40675 
   41058    41430    41362    41008    40630    40481    40653    41018 
   41278    41207    40994    41045    41289    41284    40896    40317 
   40062    40508    41088    41153    40756    40166    39752    39955 
   40695    41185    41202    41636    42707    43433    43263    42533 
   41708    41018    40524    40270    40358    40639    40676    40444 
   40356    40544    40792    41006    41303    41716    41941    41717 
   41295    40932    40494    39942    39509    39345    39474    39874 
   40351    40613    40776    41125    41435    41308    40898    40759 
   40968    41018    40787    40686    40896    41133    41229    41488 
   41862    41669    40857    40180    39988    40223    40765    41127 
   41107    41272    41917    42427    42105    41227    40720    40770 
   40768    40598    40576    40606    40614    40767    40934    40794 
   40246    39637    39688    40684    41783    41994    41638    41516 
   41445    41104    40899    40905    40639    40290    40566    41353 
   41866    41770    41399    41238    41462    41883    42009    41532 
   40892    40560    40246    39627    39166    39422    40088    40589 
   41010    41504    41789    41683    41315    40899    40695    40709 
   40703    40643    40636    40651    40527    40320    40325    40504 
   40651    40888    41268    41440    41049    40455    40351    40684 
   40995    41035    40752    40458    40605    41345    42313    42649 
   42068    41423    41439    41854    41951    41434    40693    40232 
   40242    40660    41143    41458    41766    42098    42103    41512 
   40589    39961    39908    40081    40155    40188    40086    39888 
   40150    40825    41145    40968    40649    40352    40292    40601 
   41022    41307    41405    41297    41095    41107    41497    41912 
   41891    41532    41139    40765    40531    40683    41071    41202 
   40971    40687    40559    40582    40666    40809    41170    41644 
   41700    41135    40540    40501    40825    40900    40571    40213 
   40095    40015    39795    39766    40147    40649    41023    41089 
   40933    41025    41450    41855    41998    41742    41196    40906 
   41085    41235    41106    41006    41099    41268    41385    41519 
   41791    41935    41720    41494    41466    41507    41631    41686 
   41388    40679    39721    39064    39224    39969    40608    40815 
   40895    41052    41218    41332    41212    40840    40493    40358 
   40410    40501    40549    40591    40559    40504    40616    40702 
   40539    40456    40643    40737    40737    41133    41762    42033 
   42087    42110    41813    41337    41018    40895    41079    41447 
   41461    41026    40720    40929    41374    41516    41130    40497 
   40113    40103    40161    40096    40009    40131    40644    41438 
   42064    42124    41663    41288    41493    41831    41575    40878 
   40419    40516    40888    41073    40959    40678    40254    39947 
   40155    40559    40664    40675    40918    41434    41889    41823 
   41423    41191    41075    40903    40927    41053    40842    40554 
   40576    40578    40308    40113    40153    40080    39831    39748 
   39957    40196    40219    40281    40695    41297    41916    42417 
   42498    42188    41860    41473    40811    40239    40111    40157 
   40163    40305    40732    41303    41683    41756    41751    41832 
   41858    41590    41222    41242    41493    41391    40868    40286 
   40090    40401    40659    40385    39873    39654    39964    40597 
   41133    41467    41650    41504    41112    41013    41368    41727 
   41694    41243    40703    40509    40624    40730    40721    40659 
   40732    40883    40772    40589    40821    41197    41238    41223 
   41516    41926    42103    41868    41418    40980    40587    40483 
   40674    40717    40602    40570    40505    40366    40410    40641 
   40724    40613    40701    41283    41995    42225    42075    41908 
   41561    40983    40456    40193    40267    40463    40459    40292 
   40124    40120    40566    41260    41446    41002    40572    40575 
   40895    41139    41125    41049    41169    41431    41439    41112 
   40900    41034    41164    40903    40441    40246    40315    40432 
   40603    40759    40707    40522    40439    40500    40632    40838 
   41049    41138    41129    41075    41112    41470    42017    42248 
   41904    41274    40784    40551    40545    40725    40930    41129 
   41415    41582    41351    40941    40825    41064    41318    41420 
   41411    41223    40946    40842    40846    40707    40417    40205 
   40304    40589    40622    40300    40074    40258    40618    40925 
   41137    41345    41725    42076    42006    41662    41382    41189 
   41034    40936    40899    41006    41118    41010    40829    40589 
   40230    40124    40365    40605    40709    40637    40462    40556 
   40986    41353    41405    41234    41034    40891    40857    40981 
   41139    41081    40741    40417    40428    40736    41092    41250 
   41096    40814    40752    40979    41260    41388    41148    40556 
   40188    40401    40855    41146    41204    41102    40861    40509 
   40261    40396    40749    40849    40764    40934    41315    41500 
   41454    41488    41507    41169    40709    40610    40852    41006 
   40780    40412    40333    40525    40662    40761    41033    41289 
   41341    41353    41403    41446    41516    41517    41347    41200 
   41160    41049    40896    40830    40833    40848    40826    40767 
   40635    40468    40477    40637    40730    40760    40799    40826 
   40894    41071    41253    41320    41303    41239    41149    40961 
   40679    40613    40709    40458    40092    40238    40566    40450 
   40163    40289    40676    40869    40953    41154    41369    41561 
   41713    41642    41292    40805    40447    40518    40822    40837 
   40555    40327    40467    40973    41245    41021    40833    40995 
   41283    41416    41419    41426    41423    41403    41369    41381 
