Origin Time       2025/03/30 21:30:00
Lat.              38.535
Long.             142.295
Depth. (km)       44
Mag.              4.3
Station Code      IWTH14
Station Lat.      39.7435
Station Long.     141.9087
Station Height(m) 200
Record Time       2025/03/30 21:31:33
Sampling Freq(Hz) 100Hz
Duration Time(s)  120
Dir.              6
Scale Factor      7845(gal)/8223790
Max. Acc. (gal)   0.427
Last Correction   2025/03/30 21:31:33
Memo.             
[...]
      59      152       48       91      145      -28     -108       79 
     247      171      -32      -55      126      191       75       24 
      64       72       68       87      132      126      -45     -128 
     136      294       87      -13       75       67       45       49 
       4       94      225      101       52      253      156     -151 
    -101      108      160      155       55      -81      -16      122 
     136       95       41       41      164      163      -20      -25 
      97       76       54       95       90      108      132       33 
     -52       25      122      129       90       17       -1       59 
     126      194      139       -2       18      102       74       56 
      63       35       94      167       67      -14       59       75 
      54      113       86       -9       27      112      140      135 
      36      -48       72      172       43      -29       81      136 
      68        9       85      205      163       32      -31       -8 
     145      275      130      -78      -58       39       35       51 
     125      149      122       21      -75       75      299      182 
     -91      -70      159      210       62       29      130       95 
      16       86       64      -74        0      178      174       82 
      39       56       97       55        1       62      125       79 
      25      103      198       79      -67       24      117       59 
      68      129       58       -1       74       89       18       45 
     113      116       91       39       20      110      125       -4 
      -5       76        2       10      220      213      -25      -52 
     110      139       82       82       85       70       86       87 
       9       -5       90       71       36      159       95     -118 
      52      340      180      -47      -10       21       51      121 
     128      171      137      -44       -5      179      137       18 
     -31      -16      203      298      -27     -216        1      213 
     263      113     -194     -210      151      325      116      -31 
     113      203       49      -74       -1      137      175       90 
      25       60      101       71       52       97       99       45 
      44       74       29      -43       18      148      152       89 
      35      -59      -17      236      274       18      -43      101 
     137       67      -29      -12      190      244       12      -90 
     108      211       49      -29       99      157       60        2 
      56      124      120       81       78       58       -4        4 
      52       39       68      166      133       13        4       58 
      62       71      144      180       79      -55      -55       71 
     153       99       52      116      186      102     -110     -128 
     126      261      128      -10       29      140      141       58 
       1       32      121      128       54       45       98       91 
      60      102      116       49       27       14        4      136 
     234       49      -91      148      351       71     -247      -66 
     251      179      -47       13      203      147      -20       29 
     162       76      -85      -40       74       99      179      186 
      -6      -43      117       95      -21       17       59      102 
     195       81      -66       93      182      -33      -83      191 
     314      101      -40       39       68       28      108      202 
     143       52       -4      -51       39      186      156       36 
     -21        1       94      137       68       25       78      120 
      76       16       48      183      213       37      -74      -20 
      37      114      184       47     -152      -27      248      252 
     101       18      -10       31       67       32       75      139 
      41      -22       95      176      157      126       32      -36 
      72      201      135        2       -9       59      130      141 
      95       95       60      -62      -32      163      187       22 
     -45       44      180      163      -33      -49      149      140 
     -47       -5      201      244      136        2      -70       54 
     230      145      -97     -122      113      226       72       -4 
      63       31       49      213      174      -16      -24       20 
      43      126       97       25      130      156       18       28 
     121      101       64       36       20      116      199      152 
     101       28      -67       37      198       54     -101       85 
     214       70       33       95        9      -18       94      105 
      66      140      176       66      -16       44       99       63 
      18      -13        1      118      176       43      -48       49 
     153      157       75      -12       33       93       70      126 
     182      103       67       58      -33       22      164       66 
     -70      -18       82      186      176      -10      -76       66 
     195      207       81      -33       83      201       71      -20 
      72       94       16        2       48      105      126       63 
      -1       70      226      191      -52     -108       86      174 
      89       24        2       31      167      245       86      -93 
     -22      163      157      -18      -41       95      122       68 
      60       78      125      145      106       62       -1      -35 
      32      149      198      124       56       74       87       79 
      86       81       33      -17       22      126      145       78 
      62      118      159      120       36       16       55       -1 
    -116        0      280      228      -86      -48      217      182 
      33       47        6      -32      133      189       29       24 
      63       -8       93      201       24      -86       39       97 
      55       37        5       31      117      106      144      240 
     143       60      124       59       -1      109       86      -85 
      14      241      126      -85      -28       98      152      132 
       5      -10      180      238       59        5      133      114 
     -16        9      117       94        6       29       97       31 
     -94      -44      152      203       55        9      143      160 
      43       10       49      162      284       98     -211      -71 
     290      228      -67      -90       22       75      180      182 
     -37      -93      128      197      101      145      168       22 
     -54       48      145       95       64      141       99      -37 
      -8      130      149       66        8       18       86      106 
      14      -35       31      118      170      106       -2       12 
      60       71      121      116       36       81      152       41 
      18      202      176      -29      -12       75        4       36 
     209      164      -27      -35       64      176      244       37 
    -160       81      286       98       -4       79       95      110 
      59      -70       22      194       91      -17       90      155 
      74      -31        0      160      163       -5       -8      155 
     230      149       -5      -49       63       81      -22       10 
     136      166      128      110       71       -8       48      238 
     245       31      -64       21       85      103       90       41 
      44       21      -10      108      195       68      -33        8 
      52       85      132      101       -1       -9      121      205 
     126       27       14        9       13       76       49      -28 
      97      183       -9      -36      153       76      -56       97 
     182      120      141       41      -93      109      301      105 
    -116      -85       72      186      117        9       85      124 
      -4      -25       75      120      105       62       43       62 
     -10      -74      141      353       85     -319     -243      153 
     342      198      -39     -102       43      159      121       70 
      31      -13       95      248      152       10      110      147 
     -47      -22      253      290       67     -112     -135       27 
     193      135       27      112      241      217      124       66 
      20       40      152      179       37       -6      168      234 
      99       20       54      133      144       16      -58       27 
      82       54       55       83      112      143       86      -24 
      -2      117      145       37      -85      -71       37      101 
     144      113       -2       64      216       78     -133      -60 
     141      225      110     -141     -179       54       83      -49 
      81      286      176     -106     -151      148      409      260 
     -66        2      387      432      112      -90      -48       95 
     148       44      -43       18      121       97      -12      -44 
     -22      -24       24      116      175      209      171       16 
     -39      128      276      238       32     -195     -166       63 
     166      120       35      -13       66       94      -49     -117 
     -81      -72       36      183      164       95       63       58 
     184      307      167      -33      -49        9      136      265 
     139      -51        0      120      180      176       -5     -202 
    -106      133      151      -54      -89      234      448      179 
    -125      -59      191      334      128     -233      -49      499 
     498       75     -117      -90      -39      -97     -202      -76 
     124      116       49       -2      -25      121      213      140 
     179      166      -32       17      230      147       47      247 
     282      -14     -102      121      230      132      -20      -87 
      47      164      -35     -193       93      325       78     -105 
      52      130      155      301      271       74       -1      -39 
     -47       56       75       44      132      126       51      151 
     187       -2      -98      -62      -29      106      182       21 
     -82      -37        6      106      163       35      -17      168 
     282      133      -44      -24      102      114       25      -68 
     -95       75      257      133      -49       20      139      126 
      70       17       58      189      168       40       70      129 
     128      202      149      -71      -35      230      309      140 
    -101     -144      129      260      -62     -315      -35      434 
     486       93     -140       28      137       17      -12       91 
     197      203       -4     -147       31      108      -60      -75 
      45      137      243      170      -68      -91       28       40 
      98      137      -18      -27      210      299      163       -8 
     -39       49       -5     -121        6      145       25      -24 
     164      233       71      -24       49      144      160      116 
      95      147      130       58      179      337      106     -171 
      74      324       99      -95      -79      -91        4      129 
     -24     -152       98      318      238      159      124       35 
      45       90       14       78      307      179     -122       81 
     380      133     -201     -172      -82      -66       60      148 
      31      -29       72      125      122      136       97       41 
      68       81       18      106      248       90      -60       82 
     172      124       58      -32       17       94      -55     -116 
      78      136       86      216      230       16      -45       22 
      33      156      329      195     -145     -199      113      306 
     122      -58       55      143        0      -58        1       56 
     255      351       72     -137        1      178      225      221 
     198      149       -8     -202     -118      155      191       -6 
     -85       37      121       91       90      117       13     -116 
      47      333      279      -28     -164       17      224      122 
     -93      -72       79      221      332      206      -66     -132 
     -35       74      170      125      -40      -25      207      278 
      36     -222     -198      164      441      179     -202      -93 
     236      319      189       49       82      191       56     -143 
     -20      203      209       98      -29     -125      -35      187 
     216       22      -62       14       91      122       60      -62 
     -17      201      233       87      129      195       12     -106 
     -25      -10       22      166      137       17      101      160 
      55       83      194       64     -122      -68      105      198 
     128      -12       95      363      307       33      -14       27 
     -48       -1      189      214       31     -112      -48      130 
     149      -17      -52      108      201       62     -179     -114 
     284      399       98      -67       75      209      147      -24 
    -118       43      313      279       -1     -121      -39       60 
      31      -83      -16      184      236       98     -110     -160 
     112      391      311       75      -12      -76     -117       91 
     330      267       47      -29       43      101      148      199 
     141       13      -41      -41      -41       91      248       86 
    -147      -82       24       39      180      259       54      -70 
      43      116      125       79      -17      125      376      226 
    -171     -210      197      518      317     -133     -272      -33 
     255      253      -56     -232      -56      144      167       64 
      -4      125      248       94     -106     -105       41      221 
     241       62      -17      109      191      126       37       28 
     106      110      -21      -85       28      210      263       25 
    -282     -214      140      259      112       64       68       22 
     163      294       70     -110       31       95       43      116 
     137       48       64      144      172      122      -41     -125 
      32      172      139       66      -17       21      207      167 
      14      109      133      -12       29      105       48       52 
      31        1      182      270       91      -25      -64      -71 
     122      264      105       13      141      191      156      125 
      28      -64      -89      -48       78      152      -10     -183 
      29      376      282      -78     -151       24      168      230 
     163       54       52       28      -24       86      183       91 
      21       66      124       97      -64     -156       21      225 
     178       14      -16       87      135       93      152      240 
     151       -4      -59       71      287      248       32       31 
      71     -101     -128       99      148        0      -24      101 
     222      160     -105     -172      149      333       60     -170 
       6      275      305       91     -164     -136      164      268 
      76      -47       21      174      164      -75     -101      170 
     211       -5      -62       81      233      280      148      -29 
     -63       41      213      252       72      -35      -18      -27 
      59      139      -13      -94       72      179      159      124 
      16      -39       83       98     -106     -167       48      260 
     279      176       41     -101     -130        5      124      137 
     124       64       20      143      256      143       13       56 
     160      190       93        2       60      121      121      108 
     -62     -199       58      321      180        0       25       72 
      28      -83      -74      174      344      170      -36      -12 
      76      164      257      145     -117     -121      128      206 
      49      -44        8       83      116       83       12        8 
      56       49       14       28       63       64       64       67 
      39       63      184      216       87       43      118      109 
     101      133       48        4       94       99       51       24 
     -62      -18      224      257       14      -59       60      103 
     183      286      144      -66      -58       74      143      117 
      83      128      140      -41     -176       29      257      151 
     -29      -20       60       87       76       62       59      114 
     187       94      -41       21       62        4       86       95 
     -85      -52      135      125      110      179       94      -29 
      14      136      151       71      109      139      -87     -140 
     199      261      -59     -118      121      317      315       16 
    -276     -117      230      286      132      -12      -44      124 
     209       24      -48       68       85       63      110      116 
      90       86       52       40       95       87       20       95 
     199      103      -31      -18       87      162       66      -81 
      12      218      236      106      -33      -49      147      283 
     136      -25       -5       87      198      183      -56     -164 
      45      206      151       58       16       18       55       95 
     106      132      180      137        2      -27       72       78 
       9       33       27      -29       40      120       75       33 
      55      114      156       81      -16       44      171      130 
       1       47      152       75        8       63       10       -8 
     180      202       16      -36       14       78      156      124 
      -2      -32       87      183      108        1       70      162 
      48      -44      112      220       97       -6       40      135 
     136       10      -70       37      218      216       22      -66 
      41      117       67       40       45      -16        9      201 
     256       64      -97      -37      112      170      126       39 
      24      124      110       -5       39      105       55       83 
     140       55        2       95      148       97       51       17 
       9       54       90      128      133       33        4       93 
      94       45       49       74      130       89      -36       40 
     168       71        6       63       24       31      195      214 
      41      -21       74      160       93      -67       13      284 
     230     -136     -241      101      469      346     -163     -303 
     109      356      157      -55      -41       79      132       40 
     -41       54      186      174       94       51      -10      -48 
      55      135       81       40       -1      -25       76      139 
     120      178      126      -56      -10      120       43        1 
     109      137       63       24       66      153      129      -39 
     -17      199      211       70       13       -4       43      148 
     113       32      140      179      -10      -31      143      174 
     108       37      -43       29      226      217       18      -54 
      39      172      130     -133     -149      178      283      106 
      36       35       54      182      148      -74      -59      155 
     216       86      -51      -13      144      135      -16      -43 
      41      135      198       97      -70      -12      109       32 
      -1       87       55       35      147      121        8      106 
