Origin Time       2025/03/30 21:30:00
Lat.              38.535
Long.             142.295
Depth. (km)       44
Mag.              4.3
Station Code      IWTH26
Station Lat.      38.9690
Station Long.     141.0013
Station Height(m) 17.5
Record Time       2025/03/30 21:31:30
Sampling Freq(Hz) 100Hz
Duration Time(s)  120
Dir.              2
Scale Factor      3923(gal)/8224838
Max. Acc. (gal)   0.460
Last Correction   2025/03/30 21:31:30
Memo.             
[...]
  -10972   -10978   -11003   -11013   -10975   -10925   -10889   -10870 
  -10867   -10862   -10863   -10918   -11016   -11074   -11068   -11053 
  -11034   -10980   -10933   -10922   -10925   -10926   -10929   -10935 
  -10933   -10933   -10933   -10906   -10856   -10851   -10909   -10984 
  -11032   -11030   -10980   -10948   -10983   -11028   -11017   -10979 
  -10956   -10951   -10957   -10964   -10953   -10933   -10914   -10913 
  -10910   -10895   -10925   -10971   -10937   -10885   -10910   -10957 
  -10983   -11010   -11043   -11060   -11045   -10972   -10886   -10879 
  -10939   -10957   -10929   -10917   -10925   -10925   -10936   -10979 
  -11032   -11063   -11056   -11026   -10997   -10957   -10905   -10882 
  -10901   -10910   -10895   -10920   -10986   -11014   -10999   -10976 
  -10948   -10932   -10941   -10971   -11001   -11006   -10987   -10964 
  -10956   -10974   -11001   -10979   -10891   -10810   -10795   -10837 
  -10908   -10962   -10984   -11005   -11029   -11038   -11013   -10956 
  -10937   -10978   -10998   -10963   -10930   -10932   -10953   -10976 
  -10966   -10929   -10921   -10925   -10903   -10878   -10881   -10932 
  -10993   -10987   -10937   -10918   -10924   -10943   -10984   -11010 
  -10993   -10956   -10920   -10889   -10878   -10918   -10991   -11022 
  -10989   -10944   -10943   -10974   -10970   -10925   -10893   -10893 
  -10917   -10955   -10972   -10944   -10924   -10940   -10952   -10955 
  -10982   -11001   -10993   -10976   -10957   -10939   -10944   -10990 
  -11038   -11028   -10974   -10922   -10882   -10878   -10935   -10997 
  -11025   -11060   -11084   -11034   -10928   -10831   -10790   -10816 
  -10864   -10913   -10990   -11072   -11105   -11092   -11071   -11028 
  -10953   -10879   -10840   -10845   -10872   -10897   -10920   -10943 
  -10978   -11021   -11022   -10964   -10924   -10924   -10925   -10929 
  -10957   -11016   -11070   -11057   -11001   -10962   -10929   -10885 
  -10868   -10901   -10940   -10947   -10943   -10947   -10933   -10916 
  -10932   -10959   -10974   -10984   -11009   -11022   -10990   -10947 
  -10935   -10947   -10966   -10980   -10980   -10967   -10962   -10976 
  -10982   -10949   -10913   -10898   -10890   -10876   -10858   -10841 
  -10854   -10902   -10972   -11029   -11038   -11021   -11014   -11016 
  -11013   -11002   -10966   -10926   -10930   -10953   -10947   -10912 
  -10885   -10886   -10899   -10899   -10901   -10943   -11001   -11028 
  -11038   -11048   -11043   -11028   -11006   -10972   -10939   -10908 
  -10890   -10886   -10890   -10913   -10948   -10984   -11016   -11016 
  -10990   -10986   -10987   -10978   -10982   -10982   -10963   -10957 
  -10952   -10920   -10908   -10932   -10974   -11021   -11028   -10978 
  -10945   -10966   -10984   -10971   -10928   -10889   -10886   -10903 
  -10922   -10941   -10960   -10976   -10972   -10944   -10929   -10932 
  -10930   -10935   -10960   -10991   -11002   -10998   -11007   -11034 
  -11052   -11026   -10956   -10895   -10885   -10905   -10913   -10910 
  -10930   -10959   -10959   -10944   -10945   -10970   -11016   -11045 
  -11003   -10936   -10914   -10925   -10933   -10932   -10925   -10930 
  -10951   -10972   -10984   -10983   -10978   -10963   -10916   -10890 
  -10926   -10952   -10951   -10964   -10978   -10968   -10959   -10974 
  -10991   -10964   -10918   -10914   -10940   -10978   -11010   -10991 
  -10932   -10882   -10860   -10875   -10922   -10959   -10963   -10960 
  -10967   -10993   -11010   -10993   -10966   -10945   -10910   -10882 
  -10883   -10913   -10984   -11056   -11068   -11043   -11001   -10953 
  -10957   -10998   -10991   -10943   -10909   -10910   -10952   -11003 
  -11002   -10947   -10899   -10891   -10921   -10975   -11017   -11002 
  -10960   -10964   -11016   -11028   -10978   -10935   -10935   -10949 
  -10941   -10920   -10921   -10937   -10951   -10968   -10967   -10930 
  -10894   -10899   -10945   -10982   -10968   -10951   -10986   -11018 
  -10975   -10889   -10870   -10935   -10974   -10937   -10912   -10933 
  -10955   -10978   -11007   -11001   -10967   -10971   -11013   -11040 
  -11013   -10952   -10924   -10955   -10984   -10976   -10964   -10963 
  -10944   -10903   -10887   -10918   -10960   -10984   -11018   -11052 
  -11041   -10998   -10963   -10932   -10889   -10860   -10871   -10893 
  -10912   -10925   -10914   -10901   -10930   -10964   -10945   -10912 
  -10945   -11032   -11068   -11030   -10998   -10997   -11003   -11013 
  -10990   -10928   -10885   -10889   -10903   -10897   -10878   -10902 
  -10953   -10967   -10940   -10913   -10903   -10922   -10953   -10968 
  -10979   -11009   -11038   -11026   -10980   -10957   -10941   -10905 
  -10899   -10918   -10905   -10894   -10922   -10947   -10957   -10984 
  -11002   -10991   -10983   -10984   -10980   -10975   -10983   -10989 
  -10972   -10959   -10962   -10972   -10990   -10986   -10951   -10912 
  -10866   -10831   -10856   -10917   -10949   -10957   -10971   -10986 
  -10995   -11006   -11011   -11014   -11007   -10978   -10940   -10926 
  -10935   -10940   -10952   -10979   -10980   -10960   -10971   -10999 
  -11005   -11001   -10990   -10957   -10930   -10929   -10945   -10962 
  -10963   -10940   -10912   -10902   -10909   -10928   -10959   -10972 
  -10976   -11007   -11021   -10972   -10926   -10932   -10953   -10964 
  -10963   -10944   -10909   -10883   -10893   -10926   -10944   -10939 
  -10943   -10978   -11020   -11025   -10982   -10949   -10972   -10998 
  -10983   -10962   -10963   -10979   -10997   -10980   -10922   -10874 
  -10871   -10906   -10936   -10930   -10940   -10983   -10986   -10922 
  -10852   -10840   -10908   -10989   -11021   -11034   -11048   -11025 
  -10987   -10970   -10943   -10903   -10866   -10840   -10860   -10917 
  -10952   -10956   -10971   -11002   -11010   -10997   -10998   -11014 
  -11007   -10963   -10914   -10926   -10984   -11018   -11005   -10974 
  -10963   -10971   -10963   -10936   -10917   -10921   -10945   -10982 
  -10995   -10980   -10982   -11005   -10999   -10955   -10922   -10937 
  -10945   -10898   -10858   -10886   -10937   -10955   -10949   -10939 
  -10937   -10943   -10936   -10939   -10974   -11016   -11038   -11055 
  -11076   -11067   -11003   -10932   -10898   -10887   -10882   -10891 
  -10906   -10925   -10968   -11021   -11041   -11028   -11006   -11001 
  -11017   -11028   -11007   -10951   -10882   -10849   -10876   -10929 
  -10943   -10906   -10875   -10871   -10868   -10871   -10903   -10947 
  -10974   -11002   -11034   -11034   -10980   -10933   -10956   -10993 
  -11002   -11018   -11040   -11016   -10953   -10921   -10949   -10986 
  -10964   -10917   -10909   -10941   -10968   -10962   -10944   -10956 
  -10975   -10986   -10989   -10944   -10883   -10883   -10929   -10972 
  -10998   -10997   -10970   -10948   -10940   -10943   -10951   -10943 
  -10917   -10905   -10924   -10964   -10993   -10976   -10939   -10925 
  -10941   -10964   -10991   -11016   -11020   -11009   -10979   -10921 
  -10890   -10932   -11001   -11009   -10928   -10843   -10837   -10858 
  -10854   -10860   -10879   -10932   -11047   -11113   -11074   -11043 
  -11061   -11047   -10994   -10952   -10928   -10906   -10887   -10871 
  -10879   -10924   -10967   -10971   -10963   -10976   -11003   -11026 
  -11025   -10990   -10947   -10928   -10912   -10876   -10845   -10852 
  -10895   -10945   -10962   -10947   -10940   -10939   -10944   -10971 
  -10990   -10970   -10922   -10897   -10920   -10952   -10949   -10909 
  -10870   -10881   -10940   -10991   -10989   -10984   -11037   -11078 
  -11065   -11049   -11037   -11006   -10980   -10944   -10883   -10862 
  -10887   -10903   -10914   -10930   -10935   -10933   -10944   -10955 
  -10957   -10962   -10967   -10978   -11013   -11057   -11036   -10949 
  -10894   -10908   -10935   -10941   -10941   -10941   -10960   -10989 
  -10980   -10960   -10971   -10986   -11001   -11011   -10987   -10955 
  -10949   -10941   -10917   -10916   -10943   -10956   -10959   -10984 
  -11028   -11052   -11043   -11013   -10984   -10966   -10928   -10871 
  -10856   -10897   -10926   -10932   -10924   -10909   -10925   -10968 
  -10984   -10994   -11032   -11048   -11018   -10998   -10995   -10968 
  -10930   -10920   -10924   -10928   -10922   -10924   -10948   -10962 
  -10956   -10944   -10909   -10893   -10925   -10962   -10972   -10955 
  -10916   -10895   -10905   -10920   -10953   -11003   -11021   -10995 
  -10957   -10941   -10949   -10941   -10939   -10991   -11032   -11003 
  -10953   -10932   -10970   -11038   -11055   -11002   -10944   -10929 
  -10953   -10986   -10990   -10959   -10926   -10917   -10928   -10949 
  -10974   -10980   -10951   -10901   -10872   -10893   -10966   -11049 
  -11084   -11070   -11024   -10983   -10971   -10984   -11005   -10993 
  -10937   -10899   -10921   -10978   -11017   -11018   -10998   -10962 
  -10913   -10887   -10886   -10867   -10863   -10917   -10987   -11033 
  -11059   -11055   -10994   -10914   -10863   -10848   -10874   -10929 
  -10989   -11029   -11037   -11017   -10990   -10960   -10922   -10897 
  -10889   -10858   -10810   -10817   -10899   -11009   -11097   -11128 
  -11082   -10995   -10935   -10929   -10926   -10872   -10817   -10840 
  -10921   -10983   -11001   -11006   -11014   -11003   -10971   -10955 
  -10971   -10982   -10963   -10945   -10956   -10960   -10930   -10929 
  -10972   -10980   -10932   -10883   -10878   -10937   -11003   -11017 
  -11011   -11001   -10953   -10914   -10924   -10963   -10982   -10962 
  -10925   -10909   -10916   -10929   -10959   -10995   -11007   -11005 
  -11016   -11034   -11071   -11105   -11071   -10951   -10808   -10751 
  -10821   -10926   -10966   -10941   -10895   -10886   -10945   -11017 
  -11021   -10944   -10858   -10863   -10974   -11082   -11103   -11061 
  -11017   -10978   -10909   -10824   -10779   -10773   -10783   -10832 
  -10902   -10970   -11037   -11072   -11045   -10986   -10944   -10940 
  -10971   -11021   -11090   -11151   -11136   -11038   -10935   -10886 
  -10890   -10893   -10859   -10827   -10854   -10910   -10940   -10939 
  -10953   -11002   -11028   -10991   -10933   -10903   -10909   -10951 
  -11013   -11034   -11001   -10956   -10916   -10871   -10852   -10902 
  -10980   -11011   -11007   -11021   -11030   -11013   -10999   -10979 
  -10913   -10833   -10822   -10893   -10983   -11060   -11080   -11007 
  -10914   -10891   -10936   -11017   -11080   -11059   -11002   -10984 
  -10959   -10864   -10764   -10748   -10779   -10801   -10843   -10908 
  -10949   -10978   -11032   -11118   -11194   -11211   -11164   -11076 
  -10999   -10979   -10972   -10928   -10835   -10712   -10629   -10638 
  -10696   -10748   -10785   -10833   -10935   -11068   -11161   -11194 
  -11187   -11145   -11094   -11087   -11099   -11068   -11002   -10925 
  -10833   -10782   -10786   -10750   -10673   -10660   -10698   -10729 
  -10793   -10899   -11020   -11142   -11250   -11311   -11344   -11349 
  -11275   -11119   -11001   -10968   -10928   -10809   -10697   -10665 
  -10686   -10736   -10801   -10874   -10975   -11094   -11207   -11295 
  -11313   -11248   -11124   -10964   -10833   -10787   -10806   -10852 
  -10912   -10960   -10995   -11049   -11084   -11056   -11024   -11006 
  -10929   -10810   -10748   -10759   -10805   -10878   -10971   -11084 
  -11211   -11286   -11263   -11191   -11107   -11014   -10940   -10895 
  -10874   -10847   -10737   -10563   -10498   -10619   -10773   -10867 
  -10953   -11036   -11083   -11122   -11160   -11161   -11094   -10957 
  -10820   -10759   -10785   -10856   -10941   -11025   -11097   -11152 
  -11165   -11103   -11010   -10949   -10909   -10862   -10804   -10736 
  -10677   -10627   -10617   -10721   -10881   -10948   -10941   -10989 
  -11097   -11167   -11146   -11083   -11070   -11167   -11319   -11345 
  -11144   -10852   -10677   -10675   -10732   -10724   -10663   -10644 
  -10721   -10879   -11078   -11250   -11333   -11319   -11246   -11205 
  -11254   -11311   -11283   -11209   -11097   -10920   -10764   -10717 
  -10723   -10720   -10759   -10844   -10876   -10845   -10882   -11047 
  -11229   -11326   -11349   -11315   -11260   -11267   -11259   -11086 
  -10794   -10521   -10326   -10243   -10303   -10500   -10766   -10984 
  -11101   -11129   -11105   -11082   -11092   -11122   -11148   -11132 
  -11043   -10947   -10903   -10831   -10674   -10538   -10497   -10536 
  -10677   -10928   -11190   -11375   -11454   -11406   -11225   -10999 
  -10854   -10822   -10845   -10844   -10759   -10586   -10400   -10303 
  -10378   -10631   -10955   -11244   -11458   -11596   -11693   -11739 
  -11630   -11348   -11038   -10833   -10735   -10648   -10490   -10309 
  -10254   -10378   -10566   -10682   -10750   -10903   -11153   -11372 
  -11529   -11627   -11576   -11385   -11242   -11192   -11086   -10879 
  -10692   -10627   -10697   -10836   -10928   -10908   -10813   -10748 
  -10782   -10881   -10976   -11105   -11283   -11434   -11506   -11475 
  -11284   -10947   -10601   -10432   -10461   -10521   -10548   -10642 
  -10793   -10899   -10983   -11113   -11280   -11454   -11634   -11745 
  -11666   -11431   -11152   -10832   -10489   -10215   -10057   -10054 
  -10255   -10548   -10766   -10868   -10921   -11014   -11184   -11385 
  -11574   -11689   -11651   -11522   -11395   -11210   -10908   -10578 
  -10318   -10169   -10134   -10161   -10200   -10260   -10400   -10655 
  -10918   -11101   -11253   -11427   -11630   -11843   -11920   -11699 
  -11298   -10947   -10660   -10431   -10341   -10368   -10427   -10511 
  -10623   -10777   -11018   -11298   -11469   -11481   -11423   -11416 
  -11468   -11460   -11331   -11153   -10956   -10732   -10570   -10558 
  -10660   -10797   -10959   -11145   -11288   -11302   -11192   -11117 
  -11167   -11203   -11078   -10858   -10712   -10683   -10671   -10609 
  -10579   -10669   -10802   -10885   -10982   -11141   -11298   -11379 
  -11330   -11161   -10998   -10951   -10967   -10916   -10781   -10704 
  -10760   -10855   -10921   -11005   -11086   -11080   -11013   -10959 
  -10913   -10851   -10766   -10617   -10417   -10299   -10345   -10496 
  -10689   -10913   -11119   -11240   -11268   -11229   -11142   -11056 
  -10980   -10910   -10893   -10898   -10843   -10802   -10864   -10926 
  -10913   -10903   -10930   -10940   -10918   -10905   -10925   -10953 
  -10978   -11022   -11079   -11113   -11125   -11099   -11041   -11041 
  -11109   -11118   -11044   -10995   -11044   -11146   -11195   -11132 
  -10970   -10717   -10463   -10365   -10454   -10633   -10800   -10890 
  -10916   -10949   -11072   -11292   -11504   -11585   -11504   -11341 
  -11178   -11044   -10972   -10975   -10983   -10939   -10814   -10647 
  -10548   -10566   -10669   -10841   -11030   -11173   -11299   -11392 
  -11357   -11254   -11230   -11209   -11041   -10791   -10646   -10687 
  -10810   -10856   -10817   -10763   -10704   -10650   -10670   -10821 
  -11032   -11175   -11227   -11192   -11064   -10903   -10808   -10821 
  -10893   -10936   -10949   -10953   -10920   -10859   -10847   -10863 
  -10816   -10744   -10746   -10827   -10952   -11075   -11145   -11155 
  -11138   -11125   -11099   -11034   -10970   -10940   -10908   -10835 
  -10773   -10814   -10962   -11098   -11165   -11203   -11222   -11188 
  -11090   -10987   -10978   -11059   -11114   -11053   -10925   -10851 
  -10856   -10867   -10806   -10666   -10578   -10674   -10879   -11040 
  -11117   -11138   -11107   -11074   -11115   -11176   -11161   -11102 
  -11074   -11080   -11101   -11122   -11141   -11148   -11091   -10986 
  -10926   -10901   -10837   -10813   -10886   -10967   -10976   -10930 
  -10872   -10824   -10770   -10693   -10581   -10449   -10378   -10422 
  -10534   -10666   -10781   -10848   -10941   -11130   -11325   -11406 
  -11361   -11273   -11241   -11277   -11322   -11303   -11187   -10978 
  -10741   -10571   -10490   -10481   -10527   -10600   -10704   -10882 
  -11094   -11202   -11149   -11048   -11010   -10989   -10944   -10902 
  -10835   -10763   -10767   -10812   -10852   -10906   -10952   -10970 
  -10979   -10962   -10926   -10970   -11088   -11178   -11214   -11230 
  -11187   -11044   -10924   -10984   -11194   -11360   -11340   -11163 
  -10999   -10959   -10964   -10941   -10944   -10970   -10924   -10818 
  -10782   -10893   -11060   -11119   -11047   -10933   -10851   -10818 
  -10810   -10773   -10714   -10663   -10640   -10696   -10816   -10913 
  -10970   -11033   -11101   -11149   -11186   -11215   -11230   -11194 
  -11067   -10902   -10813   -10824   -10866   -10878   -10835   -10737 
  -10654   -10659   -10758   -10908   -11053   -11149   -11191   -11188 
  -11149   -11105   -11088   -11041   -10898   -10747   -10706   -10754 
  -10845   -10956   -11044   -11106   -11145   -11138   -11086   -11009 
  -10971   -11026   -11095   -11094   -11052   -10999   -10935   -10885 
  -10848   -10798   -10720   -10612   -10511   -10489   -10578   -10746 
  -10921   -11048   -11121   -11153   -11148   -11113   -11051   -10968 
  -10898   -10890   -10933   -10957   -10943   -10935   -10964   -11040 
  -11118   -11124   -11056   -11003   -11007   -11013   -10986   -10964 
  -10960   -10978   -11003   -10987   -10947   -10926   -10921   -10967 
  -11055   -11060   -10989   -10959   -10964   -10916   -10828   -10775 
  -10775   -10814   -10895   -11007   -11097   -11115   -11094   -11128 
  -11217   -11248   -11192   -11111   -11048   -11059   -11142   -11200 
  -11196   -11163   -11078   -10945   -10856   -10833   -10829   -10860 
  -10925   -10966   -10975   -10962   -10920   -10885   -10889   -10909 
  -10874   -10762   -10690   -10739   -10812   -10820   -10787   -10790 
  -10863   -10932   -10930   -10918   -10924   -10887   -10813   -10778 
  -10797   -10825   -10849   -10870   -10862   -10832   -10816   -10805 
  -10775   -10778   -10899   -11095   -11226   -11280   -11313   -11311 
  -11252   -11125   -10978   -10914   -10936   -10933   -10876   -10835 
  -10841   -10878   -10917   -10939   -10924   -10910   -10959   -11063 
  -11141   -11125   -11020   -10908   -10844   -10798   -10732   -10670 
  -10662   -10756   -10943   -11125   -11256   -11369   -11441   -11445 
  -11415   -11346   -11210   -11044   -10903   -10793   -10690   -10623 
  -10632   -10693   -10748   -10777   -10813   -10928   -11107   -11242 
  -11284   -11314   -11379   -11407   -11353   -11271   -11187   -11070 
  -10916   -10762   -10651   -10589   -10530   -10453   -10415   -10471 
  -10573   -10642   -10663   -10665   -10694   -10752   -10804   -10851 
  -10917   -11010   -11121   -11225   -11288   -11271   -11218   -11211 
  -11199   -11098   -10971   -10909   -10886   -10854   -10818   -10798 
  -10798   -10802   -10787   -10778   -10812   -10909   -11040   -11149 
  -11232   -11287   -11290   -11261   -11230   -11196   -11172   -11156 
  -11141   -11148   -11157   -11111   -11024   -10945   -10883   -10817 
  -10775   -10787   -10836   -10906   -10968   -10966   -10910   -10851 
  -10836   -10876   -10903   -10878   -10849   -10860   -10890   -10897 
  -10889   -10891   -10863   -10789   -10743   -10731   -10689   -10632 
  -10615   -10643   -10714   -10820   -10918   -10980   -11033   -11110 
  -11188   -11226   -11196   -11124   -11072   -11068   -11065   -11024 
