Origin Time       2025/03/30 21:30:00
Lat.              38.535
Long.             142.295
Depth. (km)       44
Mag.              4.3
Station Code      MYGH14
Station Lat.      38.3400
Station Long.     140.9551
Station Height(m) 48
Record Time       2025/03/30 21:31:28
Sampling Freq(Hz) 100Hz
Duration Time(s)  120
Dir.              5
Scale Factor      7845(gal)/8223790
Max. Acc. (gal)   1.167
Last Correction   2025/03/30 21:31:28
Memo.             
[...]
   -6632    -6759    -6795    -6736    -6694    -6714    -6731    -6741 
   -6806    -6866    -6766    -6528    -6411    -6556    -6791    -6907 
   -6886    -6798    -6716    -6685    -6697    -6732    -6764    -6724 
   -6601    -6524    -6589    -6733    -6843    -6839    -6737    -6642 
   -6621    -6655    -6708    -6762    -6758    -6632    -6492    -6513 
   -6651    -6756    -6797    -6785    -6723    -6655    -6635    -6671 
   -6720    -6717    -6693    -6708    -6740    -6747    -6721    -6690 
   -6691    -6687    -6656    -6670    -6720    -6733    -6712    -6669 
   -6628    -6640    -6733    -6891    -6987    -6928    -6805    -6709 
   -6655    -6623    -6555    -6497    -6539    -6642    -6725    -6806 
   -6858    -6817    -6740    -6710    -6720    -6747    -6772    -6755 
   -6691    -6619    -6562    -6539    -6546    -6565    -6601    -6690 
   -6821    -6885    -6793    -6627    -6544    -6582    -6639    -6650 
   -6690    -6798    -6872    -6822    -6733    -6754    -6844    -6866 
   -6817    -6728    -6601    -6528    -6574    -6643    -6640    -6588 
   -6563    -6602    -6693    -6810    -6917    -6947    -6893    -6808 
   -6728    -6677    -6633    -6588    -6577    -6573    -6552    -6598 
   -6700    -6756    -6763    -6745    -6713    -6721    -6783    -6832 
   -6801    -6709    -6640    -6602    -6552    -6527    -6548    -6598 
   -6683    -6764    -6795    -6794    -6756    -6705    -6732    -6816 
   -6840    -6797    -6745    -6691    -6642    -6613    -6574    -6546 
   -6589    -6681    -6777    -6836    -6810    -6723    -6659    -6705 
   -6852    -6960    -6925    -6789    -6644    -6547    -6500    -6497 
   -6550    -6651    -6748    -6795    -6798    -6789    -6785    -6766 
   -6763    -6797    -6794    -6708    -6583    -6488    -6455    -6454 
   -6473    -6566    -6728    -6868    -6922    -6901    -6875    -6882 
   -6889    -6828    -6664    -6474    -6400    -6451    -6538    -6635 
   -6731    -6785    -6810    -6851    -6918    -6963    -6918    -6820 
   -6771    -6777    -6735    -6588    -6436    -6419    -6531    -6648 
   -6654    -6616    -6691    -6848    -6967    -7003    -6916    -6733 
   -6609    -6601    -6625    -6635    -6624    -6582    -6521    -6531 
   -6690    -6885    -6899    -6733    -6597    -6621    -6741    -6820 
   -6785    -6679    -6612    -6628    -6681    -6724    -6721    -6654 
   -6578    -6589    -6654    -6679    -6685    -6724    -6752    -6710 
   -6651    -6687    -6810    -6895    -6882    -6799    -6704    -6631 
   -6581    -6579    -6631    -6690    -6770    -6874    -6894    -6826 
   -6787    -6766    -6683    -6588    -6534    -6524    -6578    -6694 
   -6791    -6817    -6808    -6772    -6704    -6671    -6697    -6710 
   -6701    -6714    -6752    -6766    -6698    -6581    -6521    -6552 
   -6602    -6639    -6698    -6789    -6812    -6740    -6686    -6670 
   -6656    -6677    -6710    -6702    -6673    -6675    -6721    -6743 
   -6689    -6588    -6486    -6466    -6589    -6748    -6824    -6851 
   -6853    -6820    -6802    -6801    -6778    -6723    -6640    -6600 
   -6642    -6664    -6621    -6623    -6736    -6870    -6916    -6886 
   -6859    -6851    -6822    -6739    -6651    -6625    -6624    -6616 
   -6621    -6635    -6651    -6675    -6687    -6705    -6764    -6841 
   -6855    -6740    -6562    -6484    -6571    -6729    -6820    -6777 
   -6650    -6592    -6666    -6759    -6808    -6860    -6814    -6612 
   -6457    -6469    -6583    -6713    -6733    -6629    -6546    -6551 
   -6620    -6724    -6816    -6847    -6795    -6728    -6755    -6863 
   -6971    -7010    -6891    -6675    -6536    -6485    -6489    -6575 
   -6655    -6624    -6571    -6588    -6650    -6771    -6956    -7042 
   -6917    -6718    -6623    -6652    -6731    -6754    -6681    -6605 
   -6632    -6704    -6723    -6737    -6752    -6671    -6551    -6574 
   -6721    -6798    -6709    -6544    -6477    -6565    -6683    -6750 
   -6778    -6762    -6716    -6705    -6781    -6894    -6926    -6845 
   -6691    -6524    -6450    -6512    -6616    -6700    -6766    -6787 
   -6754    -6754    -6844    -6933    -6921    -6829    -6733    -6655 
   -6597    -6610    -6702    -6729    -6639    -6539    -6482    -6505 
   -6667    -6880    -6986    -6945    -6802    -6619    -6484    -6459 
   -6521    -6597    -6687    -6787    -6804    -6724    -6664    -6677 
   -6705    -6708    -6710    -6740    -6786    -6782    -6700    -6640 
   -6677    -6748    -6779    -6731    -6636    -6589    -6596    -6652 
   -6774    -6841    -6768    -6663    -6632    -6681    -6762    -6806 
   -6798    -6782    -6802    -6862    -6864    -6710    -6490    -6397 
   -6469    -6579    -6633    -6663    -6729    -6805    -6829    -6790 
   -6737    -6706    -6678    -6689    -6786    -6913    -6947    -6840 
   -6690    -6608    -6597    -6620    -6639    -6636    -6627    -6612 
   -6605    -6659    -6754    -6828    -6859    -6851    -6828    -6782 
   -6675    -6577    -6563    -6598    -6620    -6624    -6660    -6754 
   -6808    -6732    -6625    -6636    -6729    -6731    -6610    -6528 
   -6571    -6655    -6700    -6739    -6809    -6871    -6868    -6813 
   -6801    -6866    -6882    -6752    -6565    -6515    -6639    -6728 
   -6664    -6583    -6571    -6581    -6590    -6605    -6669    -6808 
   -6894    -6816    -6700    -6685    -6729    -6736    -6709    -6685 
   -6675    -6701    -6775    -6858    -6901    -6885    -6820    -6751 
   -6700    -6660    -6647    -6629    -6589    -6554    -6509    -6501 
   -6604    -6741    -6795    -6771    -6718    -6708    -6759    -6763 
   -6682    -6648    -6718    -6760    -6708    -6650    -6646    -6660 
   -6639    -6556    -6513    -6609    -6714    -6682    -6612    -6621 
   -6682    -6745    -6818    -6893    -6925    -6870    -6770    -6731 
   -6748    -6723    -6678    -6709    -6781    -6802    -6775    -6747 
   -6727    -6681    -6616    -6565    -6565    -6632    -6697    -6673 
   -6615    -6628    -6670    -6654    -6627    -6646    -6689    -6721 
   -6747    -6809    -6886    -6890    -6826    -6756    -6690    -6629 
   -6586    -6579    -6637    -6755    -6856    -6871    -6806    -6721 
   -6652    -6608    -6596    -6602    -6588    -6605    -6685    -6736 
   -6735    -6693    -6624    -6643    -6760    -6845    -6866    -6816 
   -6687    -6600    -6621    -6681    -6714    -6706    -6647    -6579 
   -6581    -6624    -6629    -6597    -6565    -6588    -6705    -6841 
   -6913    -6924    -6882    -6818    -6814    -6879    -6951    -7007 
   -6990    -6809    -6543    -6413    -6462    -6529    -6546    -6548 
   -6567    -6601    -6590    -6536    -6569    -6698    -6812    -6879 
   -6928    -6912    -6812    -6732    -6716    -6663    -6550    -6481 
   -6504    -6594    -6689    -6723    -6723    -6756    -6817    -6871 
   -6871    -6802    -6716    -6646    -6585    -6520    -6500    -6605 
   -6777    -6872    -6849    -6804    -6825    -6835    -6767    -6723 
   -6731    -6679    -6570    -6507    -6536    -6631    -6735    -6791 
   -6758    -6655    -6589    -6602    -6644    -6698    -6751    -6781 
   -6831    -6886    -6890    -6862    -6825    -6733    -6590    -6469 
   -6446    -6570    -6777    -6872    -6762    -6582    -6504    -6561 
   -6689    -6801    -6871    -6897    -6851    -6772    -6721    -6687 
   -6659    -6639    -6592    -6543    -6552    -6590    -6623    -6674 
   -6723    -6748    -6785    -6801    -6754    -6691    -6663    -6663 
   -6706    -6786    -6824    -6778    -6706    -6708    -6783    -6802 
   -6723    -6698    -6777    -6813    -6756    -6691    -6658    -6615 
   -6532    -6458    -6458    -6509    -6555    -6621    -6743    -6902 
   -7013    -6974    -6844    -6789    -6768    -6682    -6616    -6625 
   -6659    -6678    -6612    -6486    -6473    -6598    -6756    -6874 
   -6902    -6852    -6768    -6725    -6808    -6943    -6953    -6779 
   -6546    -6457    -6550    -6660    -6718    -6767    -6685    -6420 
   -6243    -6350    -6596    -6778    -6833    -6851    -6929    -7034 
   -7087    -7078    -7005    -6845    -6620    -6385    -6272    -6381 
   -6573    -6644    -6664    -6755    -6843    -6825    -6728    -6652 
   -6659    -6690    -6682    -6687    -6771    -6859    -6853    -6794 
   -6778    -6797    -6772    -6704    -6621    -6515    -6404    -6362 
   -6401    -6496    -6652    -6810    -6889    -6925    -6952    -6913 
   -6793    -6663    -6593    -6565    -6556    -6610    -6737    -6871 
   -6932    -6878    -6770    -6713    -6723    -6724    -6685    -6656 
   -6666    -6686    -6729    -6767    -6710    -6598    -6521    -6502 
   -6582    -6714    -6775    -6767    -6743    -6724    -6756    -6818 
   -6852    -6839    -6763    -6652    -6594    -6597    -6601    -6597 
   -6601    -6620    -6650    -6683    -6724    -6745    -6728    -6682 
   -6606    -6581    -6702    -6872    -6909    -6801    -6683    -6651 
   -6667    -6670    -6670    -6700    -6756    -6767    -6685    -6617 
   -6632    -6647    -6623    -6606    -6643    -6740    -6847    -6922 
   -6970    -6928    -6745    -6527    -6458    -6583    -6752    -6843 
   -6859    -6808    -6701    -6604    -6550    -6527    -6542    -6601 
   -6678    -6731    -6762    -6793    -6799    -6770    -6721    -6654 
   -6578    -6550    -6574    -6594    -6636    -6772    -6922    -6943 
   -6871    -6809    -6758    -6727    -6700    -6625    -6563    -6579 
   -6605    -6613    -6635    -6616    -6586    -6667    -6822    -6917 
   -6912    -6872    -6871    -6903    -6886    -6790    -6718    -6732 
   -6744    -6702    -6627    -6551    -6513    -6517    -6528    -6527 
   -6525    -6554    -6632    -6732    -6798    -6825    -6875    -6917 
   -6820    -6644    -6573    -6610    -6669    -6712    -6729    -6720 
   -6709    -6721    -6741    -6733    -6693    -6682    -6720    -6708 
   -6637    -6646    -6737    -6797    -6778    -6689    -6601    -6612 
   -6702    -6754    -6691    -6559    -6527    -6655    -6802    -6843 
   -6772    -6660    -6592    -6569    -6575    -6658    -6771    -6816 
   -6844    -6943    -7006    -6949    -6845    -6727    -6588    -6462 
   -6407    -6500    -6694    -6790    -6748    -6716    -6762    -6806 
   -6791    -6741    -6655    -6551    -6578    -6768    -6898    -6839 
   -6728    -6693    -6702    -6673    -6582    -6477    -6443    -6527 
   -6669    -6750    -6748    -6795    -6952    -7107    -7140    -6997 
   -6701    -6393    -6250    -6339    -6556    -6744    -6763    -6640 
   -6601    -6714    -6801    -6763    -6644    -6546    -6574    -6677 
   -6764    -6890    -7032    -7036    -6872    -6654    -6513    -6524 
   -6650    -6764    -6762    -6667    -6616    -6659    -6729    -6790 
   -6821    -6787    -6723    -6701    -6766    -6876    -6922    -6844 
   -6679    -6481    -6345    -6324    -6380    -6488    -6596    -6628 
   -6620    -6667    -6804    -6933    -6926    -6879    -6920    -6941 
   -6845    -6658    -6459    -6384    -6396    -6320    -6183    -6110 
   -6138    -6259    -6436    -6646    -6895    -7117    -7211    -7202 
   -7215    -7254    -7191    -7051    -6990    -7010    -7002    -6928 
   -6833    -6768    -6660    -6443    -6237    -6180    -6335    -6704 
   -7106    -7325    -7334    -7198    -6988    -6805    -6686    -6629 
   -6550    -6345    -6123    -6045    -6081    -6161    -6262    -6427 
   -6705    -6997    -7148    -7167    -7094    -6929    -6766    -6735 
   -6851    -6994    -7011    -6893    -6790    -6814    -6887    -6810 
   -6494    -6151    -6012    -6029    -6151    -6408    -6648    -6778 
   -6905    -6948    -6751    -6507    -6454    -6490    -6444    -6318 
   -6220    -6251    -6384    -6567    -6852    -7261    -7684    -7898 
   -7766    -7411    -7099    -6987    -7002    -6937    -6772    -6637 
   -6430    -6029    -5645    -5532    -5753    -6250    -6798    -7138 
   -7159    -6880    -6523    -6394    -6581    -6913    -7167    -7204 
   -7045    -6835    -6764    -6899    -7045    -6974    -6747    -6554 
   -6401    -6220    -6041    -5991    -6254    -6828    -7407    -7712 
   -7716    -7493    -7126    -6710    -6307    -5998    -5942    -6120 
   -6316    -6515    -6816    -7092    -7186    -7068    -6747    -6351 
   -6145    -6268    -6600    -6903    -7074    -7061    -6798    -6386 
   -6088    -5985    -5933    -5884    -6031    -6475    -6994    -7339 
   -7519    -7605    -7546    -7302    -6949    -6696    -6770    -7074 
   -7230    -7141    -6939    -6612    -6261    -6188    -6393    -6555 
   -6520    -6388    -6272    -6212    -6237    -6351    -6556    -6831 
   -7026    -6997    -6793    -6625    -6659    -6801    -6876    -6910 
   -6945    -6943    -6879    -6705    -6505    -6455    -6513    -6623 
   -6817    -6966    -6963    -6866    -6731    -6658    -6723    -6813 
   -6781    -6655    -6612    -6673    -6637    -6404    -6151    -6127 
   -6336    -6565    -6748    -6957    -7155    -7294    -7404    -7462 
   -7372    -7096    -6794    -6667    -6739    -6883    -6912    -6735 
   -6509    -6358    -6215    -6114    -6164    -6373    -6629    -6795 
   -6867    -6903    -6844    -6612    -6293    -6112    -6137    -6212 
   -6281    -6401    -6556    -6704    -6816    -6897    -7052    -7246 
   -7287    -7142    -6948    -6874    -7020    -7191    -7103    -6787 
   -6478    -6315    -6278    -6219    -6076    -5931    -5891    -6049 
   -6423    -6864    -7164    -7302    -7487    -7785    -7927    -7699 
   -7229    -6786    -6504    -6315    -6141    -6018    -5938    -5861 
   -5871    -6041    -6293    -6484    -6523    -6507    -6666    -7033 
   -7375    -7491    -7437    -7352    -7253    -7136    -7071    -7022 
   -6835    -6493    -6176    -6085    -6264    -6554    -6751    -6759 
   -6678    -6727    -6960    -7213    -7321    -7263    -7117    -6949 
   -6799    -6681    -6492    -6193    -5933    -5799    -5844    -6103 
   -6392    -6569    -6725    -6872    -7002    -7175    -7221    -7001 
   -6724    -6659    -6822    -6966    -6874    -6606    -6286    -6012 
   -5977    -6230    -6620    -7052    -7375    -7384    -7168    -6956 
   -6804    -6664    -6519    -6424    -6494    -6737    -6988    -7024 
   -6758    -6349    -6039    -5902    -5867    -5948    -6166    -6430 
   -6650    -6810    -6955    -7121    -7269    -7365    -7449    -7549 
   -7678    -7807    -7835    -7668    -7296    -6806    -6338    -6015 
   -5863    -5759    -5641    -5614    -5734    -5972    -6312    -6631 
   -6824    -7028    -7339    -7603    -7638    -7464    -7206    -6949 
   -6731    -6519    -6254    -6008    -5883    -5873    -6004    -6292 
   -6621    -6868    -6975    -6970    -6986    -7080    -7113    -7028 
   -6976    -6975    -6855    -6683    -6700    -6863    -6906    -6731 
   -6502    -6432    -6531    -6636    -6623    -6508    -6415    -6370 
   -6319    -6328    -6443    -6547    -6602    -6666    -6694    -6656 
   -6647    -6733    -6893    -7045    -7084    -7045    -7136    -7407 
   -7572    -7368    -6953    -6666    -6536    -6363    -6138    -6042 
   -6170    -6403    -6543    -6515    -6444    -6490    -6652    -6824 
   -6988    -7171    -7252    -7090    -6843    -6766    -6741    -6524 
   -6241    -6169    -6315    -6496    -6588    -6631    -6693    -6733 
   -6732    -6743    -6758    -6772    -6821    -6851    -6863    -6997 
   -7190    -7207    -6988    -6671    -6490    -6565    -6724    -6781 
   -6714    -6588    -6527    -6583    -6615    -6504    -6340    -6270 
   -6309    -6372    -6434    -6548    -6723    -6929    -7152    -7321 
   -7364    -7303    -7184    -7003    -6754    -6465    -6208    -6126 
   -6296    -6524    -6588    -6574    -6600    -6627    -6689    -6816 
   -6932    -7059    -7223    -7295    -7160    -6870    -6565    -6338 
   -6169    -6060    -6068    -6184    -6381    -6593    -6704    -6743 
   -6808    -6901    -7041    -7213    -7279    -7202    -7111    -7109 
   -7159    -7090    -6837    -6561    -6354    -6150    -5953    -5848 
   -5825    -5867    -6023    -6303    -6652    -7007    -7230    -7281 
   -7369    -7604    -7758    -7608    -7267    -6952    -6675    -6363 
   -6089    -5975    -5991    -6062    -6200    -6412    -6613    -6627 
   -6403    -6247    -6417    -6723    -6902    -6934    -6993    -7182 
   -7362    -7456    -7508    -7403    -7078    -6717    -6474    -6386 
   -6390    -6319    -6154    -6062    -6146    -6427    -6799    -7038 
   -7021    -6813    -6609    -6548    -6542    -6481    -6457    -6551 
   -6759    -7079    -7399    -7493    -7321    -7065    -6870    -6701 
   -6477    -6208    -5998    -5919    -6011    -6308    -6733    -7042 
   -7071    -6936    -6832    -6825    -6883    -6930    -6848    -6623 
   -6403    -6274    -6241    -6362    -6656    -6979    -7169    -7206 
   -7190    -7179    -7123    -6974    -6752    -6511    -6281    -6131 
   -6180    -6415    -6702    -6994    -7246    -7318    -7171    -6929 
   -6713    -6569    -6454    -6338    -6268    -6243    -6234    -6266 
   -6351    -6440    -6558    -6739    -6894    -6951    -6912    -6793 
   -6685    -6664    -6723    -6826    -6868    -6764    -6596    -6511 
   -6594    -6772    -6872    -6866    -6809    -6696    -6569    -6555 
   -6662    -6741    -6714    -6663    -6710    -6872    -6957    -6772 
   -6466    -6363    -6535    -6767    -6906    -7026    -7182    -7285 
   -7248    -7056    -6845    -6789    -6801    -6652    -6320    -6042 
   -6027    -6183    -6309    -6435    -6675    -6971    -7138    -7082 
   -6917    -6824    -6835    -6876    -6839    -6664    -6496    -6436 
   -6350    -6228    -6268    -6466    -6627    -6644    -6640    -6809 
   -7065    -7183    -7165    -7140    -7156    -7171    -7086    -6878 
   -6654    -6529    -6505    -6455    -6311    -6160    -6081    -6115 
   -6282    -6508    -6683    -6822    -6949    -7013    -7006    -6964 
   -6871    -6751    -6712    -6750    -6789    -6862    -6983    -7036 
   -6960    -6821    -6662    -6548    -6565    -6609    -6508    -6338 
   -6272    -6342    -6542    -6820    -7049    -7183    -7234    -7226 
   -7192    -7074    -6824    -6562    -6439    -6480    -6555    -6554 
   -6465    -6311    -6180    -6168    -6249    -6357    -6447    -6498 
   -6604    -6797    -6943    -6970    -6912    -6820    -6750    -6733 
   -6763    -6782    -6752    -6702    -6655    -6619    -6609    -6674 
   -6847    -6953    -6821    -6613    -6534    -6555    -6640    -6818 
   -7061    -7265    -7339    -7261    -7057    -6754    -6431    -6235 
   -6232    -6328    -6419    -6486    -6529    -6569    -6648    -6693 
   -6643    -6613    -6713    -6966    -7312    -7551    -7539    -7348 
   -7042    -6659    -6382    -6350    -6467    -6615    -6750    -6804 
   -6748    -6693    -6690    -6631    -6438    -6211    -6119    -6172 
   -6231    -6185    -6025    -5877    -5921    -6165    -6469    -6704 
   -6841    -6916    -6959    -7047    -7264    -7508    -7601    -7507 
   -7314    -7105    -6862    -6551    -6305    -6250    -6311    -6394 
   -6536    -6756    -6970    -7040    -6957    -6868    -6826    -6805 
   -6860    -6964    -6993    -6943    -6872    -6828    -6825    -6771 
   -6613    -6450    -6308    -6162    -6080    -6120    -6278    -6509 
