Origin Time       2025/03/30 21:30:00
Lat.              38.535
Long.             142.295
Depth. (km)       44
Mag.              4.3
Station Code      MYGH07
Station Lat.      38.1802
Station Long.     140.6405
Station Height(m) 44
Record Time       2025/03/30 21:31:35
Sampling Freq(Hz) 100Hz
Duration Time(s)  120
Dir.              1
Scale Factor      3923(gal)/8224838
Max. Acc. (gal)   0.612
Last Correction   2025/03/30 21:31:35
Memo.             
[...]
  -24466   -24478   -24470   -24464   -24412   -24306   -24258   -24321 
  -24408   -24435   -24394   -24362   -24391   -24382   -24277   -24224 
  -24306   -24429   -24476   -24433   -24406   -24412   -24391   -24398 
  -24420   -24408   -24399   -24370   -24324   -24375   -24457   -24408 
  -24339   -24386   -24426   -24426   -24401   -24314   -24314   -24393 
  -24378   -24345   -24337   -24359   -24448   -24433   -24313   -24282 
  -24333   -24405   -24463   -24467   -24452   -24428   -24414   -24433 
  -24430   -24386   -24333   -24322   -24347   -24348   -24397   -24513 
  -24526   -24435   -24376   -24332   -24304   -24362   -24432   -24422 
  -24385   -24389   -24418   -24414   -24374   -24362   -24356   -24331 
  -24352   -24394   -24387   -24382   -24385   -24386   -24424   -24387 
  -24283   -24327   -24451   -24457   -24399   -24317   -24298   -24416 
  -24397   -24243   -24287   -24390   -24339   -24313   -24372   -24417 
  -24444   -24460   -24437   -24367   -24332   -24371   -24374   -24378 
  -24462   -24457   -24341   -24321   -24447   -24583   -24560   -24420 
  -24316   -24231   -24223   -24375   -24453   -24379   -24328   -24331 
  -24379   -24435   -24440   -24467   -24470   -24390   -24370   -24374 
  -24313   -24320   -24379   -24393   -24394   -24379   -24378   -24422 
  -24401   -24306   -24251   -24286   -24385   -24417   -24381   -24366 
  -24332   -24332   -24391   -24355   -24312   -24379   -24389   -24337 
  -24367   -24425   -24437   -24398   -24376   -24495   -24598   -24453 
  -24275   -24256   -24274   -24318   -24398   -24418   -24379   -24317 
  -24300   -24394   -24489   -24494   -24471   -24429   -24336   -24255 
  -24279   -24370   -24403   -24408   -24429   -24399   -24367   -24402 
  -24414   -24405   -24421   -24413   -24395   -24409   -24387   -24340 
  -24370   -24440   -24482   -24509   -24445   -24294   -24259   -24337 
  -24390   -24451   -24470   -24379   -24355   -24402   -24372   -24318 
  -24344   -24463   -24528   -24429   -24393   -24466   -24376   -24244 
  -24267   -24304   -24310   -24309   -24277   -24297   -24335   -24335 
  -24405   -24498   -24478   -24375   -24297   -24328   -24374   -24341 
  -24347   -24385   -24374   -24390   -24402   -24367   -24410   -24464 
  -24428   -24421   -24452   -24420   -24368   -24348   -24381   -24441 
  -24441   -24426   -24466   -24455   -24398   -24391   -24399   -24381 
  -24374   -24432   -24478   -24432   -24401   -24418   -24417   -24428 
  -24435   -24424   -24418   -24372   -24332   -24327   -24312   -24345 
  -24399   -24410   -24449   -24451   -24367   -24327   -24310   -24290 
  -24331   -24314   -24254   -24314   -24383   -24349   -24321   -24355 
  -24429   -24452   -24393   -24397   -24440   -24383   -24310   -24301 
  -24318   -24352   -24378   -24444   -24514   -24429   -24347   -24416 
  -24447   -24432   -24445   -24416   -24381   -24364   -24341   -24345 
  -24354   -24363   -24389   -24408   -24453   -24490   -24449   -24424 
  -24436   -24403   -24351   -24320   -24314   -24339   -24376   -24390 
  -24341   -24289   -24312   -24347   -24366   -24379   -24382   -24457 
  -24517   -24414   -24332   -24382   -24406   -24395   -24358   -24250 
  -24231   -24349   -24443   -24432   -24349   -24305   -24352   -24389 
  -24408   -24421   -24414   -24443   -24424   -24358   -24405   -24433 
  -24325   -24267   -24305   -24359   -24414   -24420   -24376   -24354 
  -24368   -24399   -24394   -24347   -24333   -24390   -24436   -24417 
  -24421   -24439   -24367   -24339   -24409   -24410   -24383   -24398 
  -24397   -24406   -24422   -24420   -24428   -24420   -24401   -24399 
  -24416   -24437   -24389   -24313   -24341   -24368   -24332   -24374 
  -24432   -24378   -24337   -24385   -24430   -24453   -24424   -24341 
  -24344   -24414   -24399   -24348   -24329   -24335   -24395   -24428 
  -24355   -24306   -24331   -24366   -24401   -24385   -24324   -24347 
  -24451   -24486   -24364   -24237   -24287   -24352   -24285   -24270 
  -24343   -24355   -24352   -24359   -24367   -24468   -24505   -24321 
  -24237   -24422   -24526   -24436   -24414   -24467   -24409   -24335 
  -24412   -24522   -24520   -24432   -24318   -24256   -24312   -24410 
  -24470   -24466   -24402   -24362   -24366   -24336   -24331   -24417 
  -24478   -24467   -24451   -24437   -24403   -24333   -24279   -24325 
  -24348   -24324   -24385   -24440   -24441   -24440   -24358   -24310 
  -24370   -24367   -24355   -24345   -24254   -24278   -24408   -24417 
  -24391   -24409   -24412   -24391   -24341   -24349   -24401   -24366 
  -24340   -24366   -24364   -24441   -24536   -24510   -24464   -24376 
  -24278   -24348   -24428   -24406   -24410   -24398   -24429   -24530 
  -24498   -24430   -24444   -24390   -24329   -24327   -24316   -24305 
  -24248   -24219   -24289   -24310   -24345   -24437   -24457   -24502 
  -24557   -24494   -24426   -24376   -24349   -24420   -24436   -24376 
  -24340   -24239   -24200   -24347   -24449   -24468   -24525   -24516 
  -24393   -24294   -24356   -24491   -24464   -24366   -24362   -24340 
  -24317   -24339   -24316   -24289   -24283   -24328   -24502   -24598 
  -24498   -24385   -24273   -24193   -24232   -24247   -24236   -24291 
  -24327   -24387   -24472   -24475   -24493   -24499   -24378   -24283 
  -24298   -24295   -24282   -24370   -24493   -24503   -24459   -24445 
  -24420   -24417   -24449   -24444   -24451   -24478   -24486   -24497 
  -24430   -24347   -24375   -24356   -24279   -24285   -24318   -24397 
  -24471   -24397   -24321   -24344   -24399   -24471   -24449   -24391 
  -24402   -24333   -24294   -24389   -24390   -24329   -24283   -24214 
  -24224   -24266   -24375   -24587   -24583   -24428   -24422   -24393 
  -24318   -24349   -24354   -24347   -24393   -24421   -24505   -24522 
  -24364   -24298   -24321   -24306   -24387   -24425   -24328   -24348 
  -24456   -24529   -24549   -24435   -24351   -24367   -24308   -24305 
  -24359   -24271   -24274   -24440   -24451   -24324   -24264   -24318 
  -24401   -24399   -24409   -24467   -24436   -24401   -24417   -24371 
  -24337   -24359   -24305   -24231   -24248   -24324   -24435   -24528 
  -24517   -24437   -24360   -24359   -24459   -24494   -24385   -24309 
  -24352   -24445   -24510   -24483   -24395   -24314   -24306   -24379 
  -24399   -24420   -24552   -24568   -24422   -24356   -24343   -24309 
  -24255   -24192   -24278   -24483   -24563   -24474   -24308   -24241 
  -24339   -24391   -24360   -24376   -24428   -24474   -24457   -24366 
  -24301   -24258   -24209   -24250   -24345   -24394   -24405   -24406 
  -24405   -24397   -24336   -24279   -24309   -24343   -24345   -24418 
  -24532   -24533   -24437   -24422   -24501   -24521   -24462   -24349 
  -24275   -24416   -24607   -24553   -24447   -24470   -24414   -24268 
  -24227   -24285   -24374   -24424   -24375   -24360   -24445   -24464 
  -24375   -24309   -24310   -24293   -24302   -24436   -24475   -24309 
  -24198   -24196   -24217   -24333   -24482   -24544   -24480   -24336 
  -24290   -24324   -24308   -24343   -24409   -24405   -24370   -24279 
  -24235   -24364   -24459   -24430   -24440   -24424   -24354   -24371 
  -24433   -24452   -24417   -24332   -24310   -24355   -24358   -24352 
  -24374   -24402   -24416   -24390   -24428   -24520   -24568   -24626 
  -24571   -24372   -24341   -24401   -24349   -24336   -24291   -24202 
  -24328   -24475   -24414   -24367   -24371   -24351   -24395   -24443 
  -24444   -24451   -24398   -24318   -24345   -24437   -24456   -24370 
  -24329   -24417   -24453   -24394   -24379   -24339   -24248   -24263 
  -24325   -24301   -24270   -24324   -24397   -24414   -24444   -24537 
  -24563   -24413   -24240   -24243   -24389   -24534   -24555   -24482 
  -24472   -24441   -24304   -24300   -24408   -24428   -24452   -24414 
  -24270   -24279   -24359   -24385   -24502   -24533   -24418   -24390 
  -24362   -24349   -24406   -24328   -24262   -24322   -24349   -24402 
  -24397   -24259   -24208   -24241   -24304   -24344   -24264   -24287 
  -24452   -24552   -24587   -24466   -24293   -24328   -24359   -24313 
  -24354   -24393   -24475   -24580   -24456   -24251   -24287   -24498 
  -24545   -24398   -24329   -24325   -24328   -24397   -24399   -24381 
  -24418   -24372   -24397   -24486   -24472   -24513   -24518   -24397 
  -24391   -24395   -24300   -24254   -24221   -24201   -24227   -24248 
  -24329   -24409   -24428   -24480   -24470   -24387   -24389   -24383 
  -24328   -24335   -24366   -24368   -24383   -24453   -24521   -24471 
  -24402   -24375   -24267   -24200   -24258   -24301   -24331   -24386 
  -24466   -24547   -24540   -24510   -24522   -24505   -24422   -24271 
  -24178   -24247   -24313   -24328   -24381   -24432   -24498   -24559 
  -24507   -24410   -24370   -24376   -24344   -24256   -24246   -24287 
  -24305   -24417   -24528   -24445   -24349   -24428   -24572   -24563 
  -24332   -24162   -24247   -24337   -24364   -24421   -24335   -24258 
  -24489   -24634   -24462   -24430   -24570   -24537   -24418   -24360 
  -24345   -24385   -24403   -24367   -24354   -24340   -24321   -24327 
  -24313   -24340   -24393   -24336   -24291   -24364   -24385   -24368 
  -24397   -24374   -24352   -24395   -24401   -24363   -24306   -24270 
  -24309   -24324   -24290   -24300   -24302   -24300   -24343   -24358 
  -24381   -24471   -24472   -24359   -24324   -24462   -24641   -24614 
  -24437   -24362   -24324   -24287   -24316   -24274   -24244   -24391 
  -24529   -24522   -24422   -24333   -24386   -24498   -24547   -24584 
  -24584   -24540   -24557   -24541   -24401   -24318   -24316   -24283 
  -24341   -24389   -24235   -24159   -24259   -24266   -24231   -24260 
  -24314   -24374   -24367   -24433   -24614   -24574   -24416   -24429 
  -24412   -24322   -24262   -24198   -24271   -24387   -24383   -24425 
  -24417   -24300   -24306   -24354   -24367   -24426   -24410   -24366 
  -24409   -24429   -24399   -24364   -24364   -24386   -24308   -24250 
  -24360   -24452   -24440   -24403   -24372   -24418   -24491   -24494 
  -24463   -24390   -24352   -24418   -24464   -24467   -24475   -24528 
  -24653   -24641   -24408   -24185   -24117   -24229   -24363   -24308 
  -24179   -24160   -24208   -24246   -24301   -24406   -24405   -24231 
  -24165   -24270   -24375   -24505   -24588   -24576   -24586   -24522 
  -24428   -24493   -24518   -24479   -24548   -24470   -24204   -24119 
  -24198   -24241   -24240   -24286   -24480   -24683   -24668   -24538 
  -24408   -24308   -24327   -24339   -24254   -24223   -24258   -24320 
  -24406   -24443   -24452   -24483   -24444   -24344   -24286   -24217 
  -24131   -24197   -24379   -24435   -24405   -24422   -24395   -24395 
  -24522   -24536   -24385   -24285   -24232   -24232   -24354   -24462 
  -24474   -24462   -24466   -24511   -24528   -24476   -24440   -24389 
  -24314   -24286   -24314   -24467   -24609   -24518   -24389   -24394 
  -24455   -24498   -24444   -24394   -24437   -24436   -24405   -24409 
  -24418   -24447   -24395   -24314   -24383   -24444   -24379   -24312 
  -24279   -24329   -24375   -24287   -24223   -24240   -24283   -24409 
  -24495   -24462   -24371   -24231   -24194   -24291   -24316   -24321 
  -24332   -24254   -24275   -24435   -24509   -24459   -24394   -24344 
  -24260   -24291   -24547   -24640   -24437   -24325   -24324   -24314 
  -24375   -24387   -24376   -24474   -24456   -24341   -24363   -24425 
  -24493   -24541   -24463   -24429   -24444   -24385   -24413   -24425 
  -24300   -24332   -24459   -24428   -24398   -24412   -24367   -24287 
  -24198   -24224   -24328   -24366   -24451   -24526   -24456   -24430 
  -24425   -24363   -24409   -24432   -24298   -24198   -24193   -24248 
  -24331   -24378   -24448   -24463   -24356   -24337   -24366   -24332 
  -24466   -24641   -24556   -24439   -24448   -24414   -24316   -24281 
  -24341   -24368   -24327   -24337   -24328   -24355   -24580   -24667 
  -24507   -24448   -24360   -24214   -24305   -24417   -24397   -24393 
  -24335   -24327   -24435   -24445   -24421   -24413   -24358   -24391 
  -24412   -24339   -24386   -24468   -24445   -24391   -24285   -24225 
  -24279   -24274   -24268   -24324   -24278   -24258   -24399   -24495 
  -24472   -24440   -24430   -24452   -24453   -24349   -24248   -24304 
  -24448   -24549   -24522   -24343   -24237   -24322   -24336   -24254 
  -24258   -24325   -24420   -24462   -24414   -24399   -24393   -24370 
  -24317   -24154   -24070   -24158   -24267   -24402   -24479   -24447 
  -24462   -24520   -24648   -24846   -24849   -24696   -24591   -24424 
  -24237   -24120   -23982   -24001   -24216   -24408   -24646   -24814 
  -24702   -24659   -24734   -24575   -24406   -24408   -24274   -24106 
  -24166   -24285   -24364   -24479   -24572   -24475   -24169   -23993 
  -24031   -23997   -23974   -24004   -23926   -23938   -24098   -24313 
  -24642   -24829   -24753   -24667   -24644   -24727   -24772   -24568 
  -24435   -24410   -24220   -24102   -24042   -23807   -23760   -23966 
  -24163   -24436   -24721   -24946   -25211   -25359   -25288   -25027 
  -24517   -23940   -23689   -23947   -24408   -24563   -24317   -23986 
  -23873   -24065   -24437   -24781   -24987   -25020   -24775   -24264 
  -23761   -23437   -23411   -23778   -24295   -24700   -25022   -25273 
  -25339   -25188   -24914   -24607   -24313   -24044   -23742   -23458 
  -23446   -23660   -23733   -23672   -23776   -24084   -24471   -24869 
  -25301   -25667   -25629   -25245   -24997   -24880   -24626   -24283 
  -23994   -23899   -23924   -23851   -23869   -24158   -24449   -24549 
  -24541   -24511   -24418   -24119   -23696   -23506   -23692   -24102 
  -24445   -24417   -24214   -24368   -24831   -25191   -25323   -25169 
  -24684   -24121   -23839   -23882   -23900   -23795   -23757   -23643 
  -23584   -23955   -24456   -24888   -25320   -25408   -25350   -25555 
  -25644   -25486   -25220   -24768   -24359   -24005   -23521   -23286 
  -23382   -23506   -23681   -23809   -23946   -24293   -24528   -24722 
  -25173   -25366   -25074   -24655   -24322   -24401   -24684   -24516 
  -24123   -23909   -23755   -23801   -24023   -24023   -23893   -23878 
  -23996   -24343   -24678   -24640   -24607   -24833   -24881   -24717 
  -24632   -24564   -24439   -24312   -24271   -24308   -24189   -24034 
  -24128   -24243   -24339   -24625   -24780   -24592   -24281   -23957 
  -23900   -24256   -24653   -24902   -25000   -24879   -24713   -24649 
  -24555   -24312   -24011   -23904   -24016   -24144   -24235   -24306 
  -24352   -24287   -24121   -24120   -24332   -24584   -24856   -24966 
  -24841   -24775   -24696   -24444   -24290   -24169   -23907   -23843 
  -24015   -24186   -24356   -24286   -24028   -24086   -24331   -24478 
  -24636   -24673   -24518   -24395   -24430   -24671   -24900   -24783 
  -24433   -24048   -23754   -23812   -24143   -24437   -24702   -24950 
  -25083   -25126   -25057   -24764   -24300   -23869   -23692   -23818 
  -24055   -24148   -24093   -24173   -24482   -24803   -24927   -24734 
  -24401   -24220   -24108   -23984   -23932   -23865   -23824   -23899 
  -23904   -23780   -23754   -23950   -24159   -24333   -24715   -25043 
  -24965   -24802   -24710   -24655   -24775   -24761   -24491   -24439 
  -24560   -24549   -24502   -24567   -24763   -24831   -24595   -24445 
  -24610   -24853   -25031   -25050   -24854   -24586   -24379   -24201 
  -24020   -23950   -23943   -23801   -23646   -23658   -23768   -23940 
  -24148   -24310   -24402   -24352   -24144   -23954   -23974   -24166 
  -24349   -24530   -24781   -24902   -24732   -24451   -24250   -24047 
  -23766   -23673   -24047   -24638   -25016   -25100   -24927   -24692 
  -24699   -24727   -24505   -24355   -24543   -24946   -25178   -24903 
  -24486   -24370   -24374   -24370   -24300   -24021   -23869   -24047 
  -24162   -24057   -23986   -24163   -24494   -24667   -24692   -24665 
  -24510   -24474   -24617   -24622   -24571   -24498   -24321   -24290 
  -24250   -23978   -23877   -24059   -24173   -24100   -24032   -24078 
  -23994   -23919   -24285   -24679   -24694   -24619   -24575   -24665 
  -24888   -24813   -24466   -24197   -24048   -24052   -24163   -24237 
  -24255   -24285   -24412   -24540   -24648   -24842   -24946   -24813 
  -24433   -23882   -23670   -23984   -24335   -24460   -24343   -24186 
  -24278   -24416   -24557   -24700   -24424   -24105   -24229   -24262 
  -24310   -24798   -25011   -24761   -24671   -24575   -24354   -24356 
  -24347   -24208   -24193   -24124   -24062   -24179   -24165   -24142 
  -24220   -24074   -24144   -24759   -25263   -25245   -24808   -24395 
  -24471   -24742   -24703   -24375   -24140   -24286   -24455   -24390 
  -24375   -24177   -23772   -23815   -24115   -24202   -24270   -24390 
  -24528   -24548   -24331   -24304   -24509   -24551   -24533   -24314 
  -23866   -23857   -24155   -24274   -24420   -24522   -24480   -24479 
  -24435   -24445   -24528   -24468   -24543   -24692   -24507   -24374 
  -24490   -24395   -24102   -23946   -23997   -24106   -24219   -24489 
  -24684   -24476   -24198   -24098   -24102   -24355   -24636   -24595 
  -24646   -24946   -24880   -24513   -24445   -24525   -24467   -24390 
  -24236   -24048   -24084   -24250   -24397   -24532   -24571   -24547 
  -24609   -24673   -24559   -24293   -24066   -23992   -24111   -24412 
  -24657   -24598   -24313   -24077   -24138   -24476   -24676   -24574 
  -24495   -24533   -24483   -24382   -24336   -24259   -24079   -23901 
  -23888   -24011   -24115   -24213   -24433   -24796   -25157   -25261 
  -25047   -24667   -24273   -24143   -24306   -24344   -24252   -24354 
  -24456   -24368   -24359   -24430   -24255   -23976   -23942   -24055 
  -24147   -24274   -24335   -24233   -24158   -24140   -24061   -24179 
  -24601   -24877   -24888   -24750   -24421   -24262   -24418   -24422 
  -24318   -24374   -24409   -24283   -24092   -24252   -24791   -24946 
  -24723   -24764   -25006   -25161   -25041   -24686   -24448   -24236 
  -23961   -23957   -24125   -24200   -24182   -24154   -24259   -24347 
  -24167   -23900   -23814   -23970   -24192   -24271   -24322   -24393 
  -24456   -24702   -24902   -24756   -24574   -24397   -24113   -24111 
  -24309   -24301   -24251   -24205   -24032   -23984   -24173   -24420 
  -24597   -24595   -24518   -24563   -24676   -24706   -24624   -24534 
  -24474   -24332   -24193   -24258   -24484   -24668   -24652   -24470 
  -24192   -23905   -23853   -23985   -24073   -24271   -24482   -24383 
  -24271   -24368   -24503   -24684   -24790   -24679   -24452   -24124 
  -23934   -24177   -24529   -24659   -24686   -24694   -24660   -24597 
  -24468   -24224   -24017   -24133   -24436   -24599   -24749   -24927 
  -24768   -24298   -24013   -24169   -24572   -24740   -24425   -24061 
  -24021   -23950   -23692   -23718   -24025   -24241   -24422   -24611 
  -24684   -24740   -24752   -24565   -24314   -24142   -24085   -24204 
  -24375   -24476   -24570   -24603   -24598   -24649   -24537   -24239 
  -24017   -23866   -23915   -24285   -24653   -24903   -24956   -24640 
  -24390   -24429   -24439   -24497   -24644   -24559   -24263   -24117 
  -24225   -24309   -24329   -24447   -24413   -24267   -24335   -24399 
  -24293   -24154   -24094   -24254   -24499   -24649   -24745   -24719 
