Origin Time       2025/03/30 21:30:00
Lat.              38.535
Long.             142.295
Depth. (km)       44
Mag.              4.3
Station Code      MYGH09
Station Lat.      38.0091
Station Long.     140.6027
Station Height(m) 130
Record Time       2025/03/30 21:31:38
Sampling Freq(Hz) 100Hz
Duration Time(s)  120
Dir.              4
Scale Factor      7845(gal)/8223790
Max. Acc. (gal)   0.659
Last Correction   2025/03/30 21:31:38
Memo.             
[...]
   10621    10600    10565    10535    10554    10579    10578    10574 
   10565    10557    10557    10571    10608    10636    10629    10611 
   10586    10534    10515    10613    10725    10690    10588    10551 
   10565    10608    10651    10646    10590    10509    10473    10565 
   10693    10697    10627    10598    10589    10574    10617    10675 
   10616    10497    10470    10520    10573    10631    10683    10671 
   10608    10584    10616    10635    10617    10602    10588    10561 
   10555    10567    10558    10563    10578    10551    10544    10586 
   10584    10542    10551    10597    10600    10586    10611    10635 
   10656    10689    10659    10581    10561    10581    10567    10552 
   10573    10574    10551    10585    10660    10674    10629    10598 
   10588    10594    10650    10704    10655    10552    10494    10482 
   10516    10589    10643    10623    10550    10523    10578    10625 
   10620    10589    10558    10567    10627    10627    10536    10501 
   10562    10620    10629    10606    10589    10579    10558    10588 
   10670    10683    10613    10544    10504    10489    10516    10577 
   10660    10740    10729    10606    10504    10532    10623    10692 
   10719    10660    10548    10501    10562    10658    10689    10631 
   10555    10496    10463    10535    10679    10723    10629    10523 
   10481    10509    10589    10675    10696    10619    10507    10466 
   10534    10636    10700    10681    10585    10490    10481    10557 
   10647    10682    10625    10494    10389    10449    10638    10778 
   10756    10613    10494    10492    10586    10721    10783    10669 
   10496    10478    10617    10747    10762    10658    10482    10358 
   10401    10575    10746    10777    10628    10435    10388    10524 
   10717    10809    10737    10554    10397    10431    10632    10787 
   10773    10615    10417    10363    10503    10663    10712    10648 
   10530    10484    10573    10702    10758    10723    10658    10620 
   10593    10566    10588    10627    10605    10563    10584    10639 
   10629    10538    10486    10540    10616    10612    10566    10579 
   10611    10586    10589    10644    10625    10509    10444    10519 
   10633    10674    10648    10617    10624    10629    10563    10486 
   10493    10547    10573    10558    10546    10592    10642    10632 
   10620    10628    10623    10628    10675    10747    10754    10644 
   10524    10517    10600    10659    10629    10544    10469    10457 
   10520    10598    10625    10608    10588    10600    10656    10712 
   10682    10565    10489    10535    10617    10647    10594    10484 
   10447    10552    10693    10747    10665    10501    10409    10455 
   10579    10692    10704    10625    10547    10544    10604    10643 
   10598    10516    10505    10596    10698    10682    10551    10446 
   10473    10597    10701    10735    10700    10588    10489    10523 
   10646    10736    10709    10577    10484    10525    10613    10623 
   10573    10563    10590    10601    10598    10590    10569    10562 
   10578    10612    10644    10624    10544    10504    10559    10642 
   10686    10694    10666    10594    10505    10443    10442    10515 
   10619    10675    10655    10596    10548    10543    10602    10677 
   10648    10520    10458    10543    10656    10708    10732    10690 
   10570    10525    10594    10655    10671    10652    10596    10547 
   10528    10503    10489    10534    10629    10704    10706    10646 
   10579    10579    10629    10635    10575    10520    10515    10531 
   10558    10623    10678    10651    10589    10525    10450    10450 
   10582    10724    10733    10627    10536    10557    10652    10729 
   10725    10646    10548    10486    10501    10597    10667    10642 
   10582    10509    10451    10512    10654    10710    10644    10567 
   10540    10551    10638    10727    10655    10521    10534    10604 
   10578    10540    10557    10531    10473    10515    10646    10702 
   10611    10489    10489    10646    10829    10837    10660    10492 
   10444    10508    10632    10732    10710    10581    10489    10519 
   10606    10687    10712    10635    10521    10481    10521    10571 
   10581    10558    10536    10550    10633    10731    10709    10579 
   10504    10566    10677    10671    10539    10455    10490    10581 
   10673    10704    10617    10482    10449    10562    10694    10736 
   10685    10548    10426    10436    10552    10682    10754    10712 
   10600    10513    10513    10596    10656    10636    10577    10497 
   10466    10550    10654    10681    10644    10592    10574    10627 
   10705    10732    10697    10636    10589    10577    10573    10536 
   10505    10532    10602    10686    10732    10659    10517    10471 
   10567    10683    10724    10658    10516    10412    10450    10586 
   10674    10640    10551    10511    10555    10602    10574    10557 
   10575    10550    10521    10550    10612    10681    10682    10642 
   10652    10650    10594    10563    10565    10561    10540    10551 
   10625    10697    10697    10638    10577    10559    10585    10628 
   10633    10557    10449    10403    10482    10659    10797    10773 
   10623    10530    10584    10663    10669    10640    10570    10454 
   10404    10486    10632    10727    10689    10569    10524    10611 
   10708    10721    10683    10612    10523    10500    10547    10586 
   10609    10624    10621    10617    10608    10604    10619    10609 
   10540    10474    10485    10558    10606    10584    10554    10561 
   10555    10516    10536    10648    10690    10605    10535    10523 
   10528    10567    10619    10624    10604    10593    10571    10570 
   10620    10665    10689    10698    10621    10534    10575    10643 
   10654    10675    10652    10532    10435    10519    10729    10797 
   10662    10523    10467    10490    10575    10638    10620    10570 
   10551    10562    10582    10601    10574    10509    10493    10557 
   10629    10662    10689    10710    10675    10585    10520    10551 
   10620    10611    10521    10478    10542    10631    10677    10702 
   10714    10643    10500    10454    10555    10642    10633    10588 
   10554    10555    10581    10600    10612    10615    10579    10535 
   10548    10588    10589    10582    10592    10588    10561    10543 
   10592    10694    10740    10674    10596    10578    10573    10543 
   10524    10550    10596    10624    10644    10667    10682    10694 
   10692    10642    10527    10434    10473    10593    10667    10682 
   10646    10530    10434    10494    10642    10698    10636    10521 
   10417    10434    10596    10743    10739    10624    10501    10462 
   10567    10721    10723    10567    10465    10494    10567    10627 
   10675    10685    10613    10543    10588    10644    10597    10558 
   10611    10690    10736    10710    10584    10450    10463    10598 
   10686    10683    10633    10527    10446    10516    10628    10646 
   10620    10600    10593    10635    10686    10663    10555    10449 
   10466    10581    10609    10523    10476    10519    10606    10693 
   10725    10665    10544    10463    10484    10584    10687    10706 
   10621    10528    10511    10557    10615    10663    10696    10713 
   10686    10606    10540    10551    10596    10604    10602    10606 
   10566    10508    10540    10656    10723    10670    10552    10493 
   10550    10648    10727    10705    10528    10357    10350    10461 
   10611    10729    10701    10550    10484    10567    10646    10647 
   10616    10567    10538    10571    10620    10632    10632    10646 
   10663    10689    10727    10713    10617    10520    10467    10458 
   10536    10679    10746    10690    10624    10623    10646    10670 
   10696    10620    10416    10295    10372    10508    10600    10642 
   10632    10623    10654    10681    10654    10570    10482    10458 
   10528    10631    10635    10515    10450    10544    10678    10716 
   10647    10530    10446    10470    10571    10647    10651    10623 
   10609    10629    10693    10762    10732    10632    10586    10573 
   10523    10480    10486    10505    10538    10605    10648    10609 
   10544    10519    10535    10615    10735    10773    10682    10577 
   10552    10593    10640    10650    10601    10544    10528    10550 
   10617    10667    10628    10597    10617    10579    10508    10503 
   10559    10632    10681    10702    10682    10574    10427    10368 
   10443    10585    10694    10701    10611    10509    10503    10624 
   10789    10827    10674    10498    10426    10399    10450    10592 
   10659    10621    10590    10566    10559    10615    10705    10756 
   10709    10590    10484    10431    10462    10594    10740    10739 
   10566    10440    10509    10656    10743    10700    10547    10426 
   10440    10592    10773    10808    10686    10548    10493    10557 
   10682    10740    10658    10513    10476    10566    10644    10662 
   10628    10527    10443    10489    10638    10743    10713    10613 
   10562    10561    10581    10629    10660    10605    10471    10386 
   10459    10639    10770    10748    10617    10513    10503    10559 
   10636    10643    10538    10450    10496    10631    10727    10677 
   10540    10485    10528    10563    10557    10521    10469    10482 
   10600    10708    10727    10698    10638    10569    10573    10632 
   10600    10496    10512    10621    10636    10581    10590    10644 
   10667    10689    10701    10625    10543    10592    10721    10778 
   10717    10604    10542    10574    10620    10606    10571    10524 
   10473    10496    10615    10744    10759    10632    10521    10532 
   10585    10629    10667    10606    10449    10378    10466    10562 
   10585    10565    10477    10395    10465    10629    10714    10655 
   10503    10422    10512    10674    10774    10754    10644    10528 
   10476    10509    10581    10632    10654    10658    10682    10729 
   10714    10652    10660    10693    10629    10534    10490    10517 
   10651    10779    10737    10597    10516    10519    10562    10584 
   10552    10517    10528    10590    10654    10656    10615    10558 
   10519    10524    10548    10581    10585    10520    10496    10588 
   10673    10700    10710    10652    10558    10540    10558    10562 
   10617    10655    10585    10509    10521    10571    10620    10663 
   10650    10602    10605    10609    10567    10569    10621    10624 
   10551    10471    10434    10471    10573    10654    10662    10605 
   10562    10617    10686    10656    10570    10524    10561    10612 
   10604    10600    10624    10584    10500    10523    10643    10700 
   10665    10617    10577    10555    10562    10570    10574    10574 
   10539    10500    10513    10562    10579    10566    10573    10597 
   10613    10640    10687    10708    10670    10621    10640    10693 
   10696    10658    10605    10540    10515    10548    10588    10613 
   10636    10656    10674    10669    10615    10567    10601    10669 
   10690    10663    10575    10451    10411    10496    10605    10660 
   10658    10592    10492    10471    10586    10692    10647    10513 
   10422    10435    10559    10709    10748    10667    10567    10498 
   10512    10638    10714    10600    10430    10384    10440    10555 
   10701    10755    10674    10594    10582    10597    10651    10720 
   10700    10589    10509    10482    10451    10454    10539    10647 
   10694    10669    10609    10574    10596    10656    10701    10660 
   10567    10516    10543    10612    10647    10612    10577    10612 
   10670    10690    10666    10596    10525    10532    10601    10662 
   10674    10623    10544    10513    10558    10633    10646    10565 
   10477    10488    10573    10608    10555    10508    10542    10617 
   10650    10636    10633    10628    10625    10671    10697    10620 
   10517    10530    10658    10756    10713    10586    10488    10443 
   10486    10620    10701    10613    10449    10368    10435    10600 
   10724    10723    10659    10597    10552    10563    10621    10678 
   10714    10669    10540    10494    10594    10713    10743    10673 
   10571    10520    10511    10532    10633    10740    10686    10489 
   10365    10438    10544    10524    10485    10494    10470    10431 
   10469    10594    10777    10864    10683    10393    10273    10372 
   10597    10810    10847    10675    10469    10459    10652    10835 
   10883    10831    10693    10503    10377    10432    10629    10771 
   10781    10763    10766    10766    10750    10687    10589    10486 
   10408    10420    10531    10611    10594    10536    10412    10276 
   10341    10557    10716    10816    10824    10659    10515    10579 
   10702    10708    10596    10415    10262    10231    10316    10466 
   10590    10615    10625    10741    10890    10947    10936    10886 
   10746    10532    10373    10372    10515    10644    10639    10535 
   10470    10552    10755    10891    10827    10620    10382    10197 
   10215    10466    10748    10862    10758    10559    10459    10516 
   10704    10893    10809    10435    10126    10107    10297    10535 
   10644    10558    10450    10521    10763    11045    11194    11105 
   10929    10808    10669    10438    10137     9903     9926    10150 
   10403    10706    11010    11113    10972    10736    10570    10554 
   10609    10654    10670    10643    10579    10513    10532    10654 
   10713    10659    10673    10756    10698    10481    10307    10277 
   10366    10520    10621    10629    10655    10746    10820    10801 
   10663    10476    10355    10358    10480    10619    10650    10613 
   10581    10508    10443    10496    10624    10659    10525    10385 
   10454    10712    10887    10770    10516    10434    10574    10782 
   10902    10828    10596    10390    10370    10503    10646    10725 
   10701    10575    10484    10531    10628    10612    10474    10434 
   10652    10917    10914    10737    10643    10609    10555    10551 
   10563    10524    10509    10535    10566    10619    10609    10501 
   10449    10517    10609    10677    10700    10646    10559    10486 
   10432    10423    10442    10508    10666    10802    10798    10721 
   10659    10589    10492    10467    10557    10623    10597    10551 
   10493    10443    10461    10538    10643    10721    10758    10782 
   10667    10416    10331    10438    10492    10490    10532    10642 
   10798    10897    10926    10960    10918    10731    10530    10453 
   10465    10489    10534    10648    10746    10639    10407    10366 
   10530    10593    10424    10261    10369    10606    10735    10793 
   10760    10584    10449    10505    10671    10763    10687    10512 
   10339    10308    10490    10728    10840    10759    10539    10358 
   10318    10419    10667    10921    10944    10694    10420    10401 
   10579    10690    10692    10633    10467    10268    10243    10490 
   10851    11041    10929    10629    10385    10361    10517    10670 
   10678    10592    10532    10500    10548    10750    10926    10894 
   10733    10582    10500    10501    10562    10633    10656    10647 
   10690    10740    10671    10524    10459    10503    10530    10511 
   10539    10605    10646    10658    10598    10474    10419    10428 
   10416    10432    10484    10489    10492    10592    10746    10820 
   10758    10644    10598    10660    10729    10644    10455    10380 
   10482    10683    10862    10866    10701    10527    10436    10436 
   10512    10639    10721    10625    10435    10386    10552    10805 
   10935    10832    10600    10432    10447    10623    10777    10720 
   10517    10467    10658    10821    10812    10723    10577    10408 
   10368    10525    10785    10955    10871    10519    10108     9972 
   10165    10428    10606    10708    10727    10690    10659    10666 
   10708    10744    10702    10575    10430    10300    10258    10358 
   10482    10544    10552    10477    10420    10530    10710    10808 
   10816    10791    10744    10655    10563    10536    10554    10527 
   10455    10451    10561    10689    10770    10760    10648    10536 
   10507    10565    10783    11079    11183    11007    10728    10524 
   10485    10589    10656    10575    10443    10303    10181    10245 
   10527    10831    10917    10689    10368    10269    10384    10528 
   10602    10574    10494    10482    10613    10798    10822    10656 
   10485    10430    10490    10617    10729    10805    10798    10666 
   10530    10547    10646    10644    10547    10490    10481    10486 
   10565    10687    10736    10658    10488    10345    10381    10579 
   10743    10790    10725    10534    10389    10535    10827    10913 
   10775    10613    10521    10542    10690    10800    10666    10361 
   10193    10335    10628    10821    10800    10578    10349    10358 
   10550    10652    10554    10393    10382    10543    10678    10690 
   10666    10685    10741    10773    10744    10713    10700    10633 
   10503    10440    10536    10659    10655    10546    10430    10407 
   10540    10682    10667    10615    10602    10546    10497    10534 
   10588    10600    10538    10436    10424    10531    10656    10712 
   10648    10531    10536    10662    10710    10631    10532    10476 
   10503    10667    10867    10886    10704    10496    10430    10569 
   10790    10889    10837    10690    10449    10234    10228    10416 
   10647    10775    10700    10527    10446    10446    10451    10476 
   10511    10539    10515    10408    10350    10461    10671    10886 
   11029    10987    10787    10642    10665    10739    10720    10619 
   10542    10513    10511    10566    10696    10840    10898    10801 
   10648    10647    10793    10851    10697    10430    10212    10160 
   10295    10501    10602    10521    10334    10238    10378    10675 
   10891    10893    10760    10654    10605    10534    10416    10359 
   10411    10443    10401    10428    10575    10677    10675    10696 
   10751    10729    10615    10504    10444    10434    10498    10613 
   10719    10817    10856    10748    10550    10412    10432    10592 
   10763    10801    10648    10434    10376    10520    10728    10847 
   10805    10640    10505    10531    10659    10719    10625    10449 
   10389    10539    10735    10809    10759    10616    10427    10291 
   10300    10427    10508    10469    10463    10582    10678    10673 
   10671    10713    10773    10839    10825    10683    10509    10408 
   10393    10432    10503    10551    10519    10476    10538    10678 
   10767    10740    10613    10484    10453    10516    10609    10669 
   10681    10685    10690    10706    10719    10665    10602    10604 
   10632    10666    10663    10582    10480    10411    10423    10536 
   10620    10574    10485    10449    10490    10600    10696    10701 
   10619    10544    10592    10712    10739    10673    10624    10604 
   10604    10667    10750    10739    10628    10538    10546    10621 
