Origin Time       2025/03/30 21:30:00
Lat.              38.535
Long.             142.295
Depth. (km)       44
Mag.              4.3
Station Code      MYGH11
Station Lat.      38.5158
Station Long.     141.3421
Station Height(m) 5
Record Time       2025/03/30 21:31:20
Sampling Freq(Hz) 100Hz
Duration Time(s)  120
Dir.              5
Scale Factor      7845(gal)/8223790
Max. Acc. (gal)   3.341
Last Correction   2025/03/30 21:31:20
Memo.             
[...]
   19661    19658    19657    19657    19656    19656    19661    19661 
   19658    19656    19656    19660    19661    19660    19661    19657 
   19654    19657    19660    19661    19658    19657    19657    19654 
   19657    19664    19658    19654    19656    19657    19660    19661 
   19658    19653    19653    19658    19662    19662    19658    19656 
   19657    19657    19658    19658    19657    19660    19661    19658 
   19654    19653    19658    19661    19660    19660    19658    19657 
   19658    19658    19658    19657    19657    19661    19661    19657 
   19654    19653    19660    19662    19658    19658    19658    19654 
   19654    19658    19662    19661    19657    19651    19654    19661 
   19662    19658    19660    19658    19653    19656    19662    19661 
   19654    19653    19657    19658    19657    19658    19660    19658 
   19656    19653    19657    19661    19657    19657    19658    19656 
   19658    19660    19660    19658    19656    19656    19660    19662 
   19660    19657    19657    19656    19658    19660    19658    19664 
   19661    19656    19658    19658    19658    19664    19658    19656 
   19661    19658    19654    19657    19660    19660    19660    19658 
   19654    19656    19664    19665    19661    19660    19653    19649 
   19658    19666    19664    19662    19657    19651    19654    19661 
   19665    19665    19658    19654    19656    19657    19660    19665 
   19664    19658    19657    19654    19654    19660    19658    19658 
   19657    19656    19658    19658    19657    19662    19661    19656 
   19654    19657    19660    19658    19658    19658    19656    19656 
   19658    19661    19662    19656    19654    19657    19657    19654 
   19660    19661    19660    19657    19654    19657    19662    19660 
   19657    19654    19656    19658    19660    19658    19657    19660 
   19660    19654    19653    19654    19657    19664    19660    19653 
   19656    19657    19657    19657    19661    19665    19660    19654 
   19654    19660    19662    19660    19660    19660    19653    19654 
   19660    19661    19658    19658    19661    19657    19654    19658 
   19657    19657    19661    19662    19664    19658    19651    19656 
   19660    19660    19660    19661    19665    19660    19653    19656 
   19660    19660    19660    19657    19660    19658    19657    19661 
   19657    19657    19662    19657    19656    19658    19653    19657 
   19662    19656    19657    19657    19653    19656    19661    19661 
   19660    19656    19654    19658    19664    19664    19661    19657 
   19654    19656    19660    19661    19661    19658    19657    19654 
   19657    19662    19660    19657    19658    19656    19658    19661 
   19654    19654    19657    19656    19657    19660    19661    19661 
   19656    19654    19658    19658    19660    19661    19664    19660 
   19653    19657    19662    19658    19661    19664    19658    19656 
   19654    19656    19662    19665    19664    19660    19656    19656 
   19657    19664    19664    19657    19656    19657    19656    19661 
   19664    19660    19657    19660    19661    19658    19658    19661 
   19660    19658    19658    19654    19656    19660    19660    19658 
   19658    19661    19661    19657    19656    19660    19664    19660 
   19654    19657    19656    19656    19664    19661    19656    19658 
   19657    19657    19661    19658    19658    19660    19656    19657 
   19658    19657    19658    19660    19656    19653    19656    19658 
   19656    19653    19651    19653    19660    19669    19673    19669 
   19665    19661    19656    19654    19656    19657    19658    19657 
   19651    19641    19633    19642    19660    19678    19688    19673 
   19643    19619    19603    19603    19629    19672    19732    19778 
   19753    19670    19603    19599    19670    19761    19765    19649 
   19512    19477    19550    19678    19813    19850    19734    19584 
   19529    19566    19660    19692    19638    19639    19637    19600 
   19693    19773    19680    19607    19607    19627    19703    19704 
   19650    19762    19797    19585    19554    19705    19689    19643 
   19629    19584    19631    19630    19488    19531    19766    19847 
   19843    19792    19530    19387    19491    19584    19742    19842 
   19726    19728    19808    19684    19674    19876    19780    19454 
   19346    19477    19750    19867    19670    19618    19704    19526 
   19438    19800    20121    19876    19321    19126    19488    19947 
   20007    19755    19489    19354    19539    19892    20009    19847 
   19506    19264    19418    19718    19892    19927    19747    19484 
   19403    19525    19761    19916    19827    19630    19456    19336 
   19450    19824    19967    19742    19618    19630    19608    19584 
   19554    19647    19762    19714    19712    19719    19569    19475 
   19511    19635    19882    19985    19715    19450    19508    19626 
   19677    19658    19562    19624    19692    19627    19812    20063 
   19824    19326    19159    19381    19724    19961    19931    19762 
   19676    19531    19434    19666    19869    19847    19722    19431 
   19334    19589    19724    19692    19758    19764    19653    19793 
   19926    19550    19259    19407    19650    20015    20096    19684 
   19465    19422    19294    19465    19873    19954    19691    19484 
   19507    19804    20163    20128    19622    19078    18998    19315 
   19728    20106    20198    19980    19642    19357    19437    19826 
   19955    19593    19276    19323    19400    19533    19930    20224 
   20083    19689    19395    19334    19445    19620    19812    19951 
   19784    19445    19475    19765    19866    19773    19599    19442 
   19423    19496    19653    19919    19970    19639    19442    19612 
   19683    19580    19656    19793    19676    19530    19631    19730 
   19759    19792    19629    19523    19680    19710    19646    19672 
   19587    19480    19565    19689    19734    19786    19840    19734 
   19394    19221    19527    19835    19855    19843    19676    19477 
   19707    19866    19589    19510    19666    19647    19595    19597 
   19678    19958    20023    19593    19313    19566    19911    19965 
   19661    19326    19388    19575    19568    19728    20020    19882 
   19569    19538    19557    19561    19637    19685    19749    19774 
   19649    19569    19692    19797    19716    19518    19338    19354 
   19575    19835    19980    19970    19846    19602    19464    19568 
   19597    19496    19525    19588    19538    19669    19981    19975 
   19708    19508    19477    19639    19677    19569    19715    19843 
   19581    19348    19483    19818    20088    20039    19707    19453 
   19411    19438    19483    19580    19688    19719    19649    19661 
   19909    20131    19927    19503    19353    19332    19329    19587 
   19915    20082    19961    19468    19138    19379    19732    19826 
   19815    19720    19600    19796    20020    19762    19460    19473 
   19388    19234    19485    19989    20198    19931    19469    19356 
   19695    19853    19622    19425    19380    19560    19878    19940 
   19934    19961    19664    19348    19352    19562    19849    19811 
   19477    19375    19521    19742    19930    19931    19820    19651 
   19410    19383    19647    19732    19545    19476    19539    19595 
   19754    20005    20125    20005    19606    19101    19053    19549 
   19888    19878    19865    19800    19607    19579    19750    19668 
   19476    19602    19537    19213    19434    19954    20066    19869 
   19535    19444    19870    20038    19589    19271    19425    19672 
   19626    19522    19809    20142    20023    19691    19515    19548 
   19516    19294    19326    19637    19785    19857    19966    20000 
   19888    19500    19093    19283    19896    20051    19759    19620 
   19585    19560    19626    19646    19629    19705    19880    19924 
   19619    19213    19093    19390    19963    20283    20000    19595 
   19558    19587    19408    19419    19664    19800    19882    19715 
   19372    19602    19974    19731    19417    19399    19387    19477 
   19791    20070    20166    20020    19662    19337    19205    19352 
   19618    19727    19834    19957    19793    19593    19712    19853 
   19734    19440    19252    19410    19622    19646    19777    19967 
   19912    19789    19712    19484    19267    19390    19622    19751 
   19894    19838    19638    19677    19746    19608    19485    19573 
   19697    19784    19899    19707    19418    19533    19622    19546 
   19642    19799    19926    19947    19745    19484    19368    19310 
   19255    19496    19876    19951    19926    19901    19732    19542 
   19552    19826    19853    19373    19130    19446    19894    20183 
   20119    19820    19612    19492    19484    19577    19506    19379 
   19465    19572    19665    19878    19992    19982    19843    19418 
   19144    19336    19581    19786    19958    19800    19623    19678 
   19730    19846    19773    19421    19414    19608    19607    19692 
   19835    19742    19472    19352    19592    19795    19647    19585 
   19839    20001    19900    19699    19465    19356    19369    19426 
   19704    19988    19975    19889    19804    19670    19665    19677 
   19565    19480    19363    19275    19426    19603    19772    20133 
   20322    19901    19305    19137    19310    19572    19884    20152 
   20162    19774    19192    18979    19430    20021    20101    19869 
   19843    19705    19234    19233    19727    19877    19718    19495 
   19273    19511    20012    20063    19804    19584    19376    19381 
   19615    19696    19723    19931    19984    19654    19365    19437 
   19611    19606    19418    19406    19761    19955    19888    20000 
   20120    19948    19654    19476    19349    19076    18922    19321 
   19980    20225    19932    19543    19469    19654    19716    19718 
   19901    19905    19480    19151    19510    20206    20360    19884 
   19417    19226    19076    19105    19607    20177    20304    20024 
   19591    19248    19237    19541    19862    19953    19693    19350 
   19286    19469    19838    20290    20474    19889    18943    18924 
   19545    19753    19876    20092    19927    19367    18967    19321 
   20093    20337    19816    19253    19198    19472    19978    20368 
   20028    19340    18991    19045    19342    19793    20096    19974 
   19996    20154    19678    19201    19441    19799    19638    19229 
   19422    19953    20023    19975    19849    19394    19261    19526 
   19665    19697    19603    19395    19473    19799    19905    19872 
   19908    19715    19435    19522    19687    19665    19676    19704 
   19672    19630    19641    19665    19593    19616    19835    20029 
   20025    19730    19309    19117    19209    19391    19589    19805 
   19950    19944    19863    19870    19801    19365    18929    19055 
   19504    19861    20179    20375    20293    19921    19317    19091 
   19450    19473    19184    19484    19947    19782    19461    19596 
   19974    20210    20017    19550    19472    19642    19681    19805 
   19899    19813    19483    19090    19311    19803    19884    19905 
   19885    19431    18989    19134    19672    20085    20120    19846 
   19388    19203    19633    19901    19695    19712    19840    19824 
   19986    20082    19620    18986    19067    19708    19958    19745 
   19596    19691    19757    19518    19442    19792    19919    19691 
   19531    19631    19882    19908    19715    19622    19668    19624 
   19467    19569    19784    19696    19448    19341    19579    19753 
   19595    19711    19923    19693    19371    19170    19182    19508 
   19923    20312    20525    20251    19514    18979    19156    19548 
   19642    19720    19909    19969    19951    19758    19334    19348 
   19753    19664    19176    19132    19603    20002    20190    20124 
   19742    19454    19218    19002    19322    19896    20241    20317 
   19954    19615    19785    19757    19302    19246    19484    19340 
   19334    19877    20158    19997    19843    19553    19273    19307 
   19241    19122    19454    19840    19980    20295    20540    20158 
   19444    19168    19477    19603    19359    19400    19732    19826 
   19665    19697    19961    19988    19727    19619    19602    19413 
   19232    19194    19423    19861    19959    19757    19761    19819 
   19658    19502    19560    19593    19429    19435    19780    20004 
   19878    19886    20162    20070    19562    19217    19314    19618 
   19576    19383    19657    19880    19535    19195    19279    19799 
   20271    19973    19317    19008    19195    19799    20206    20264 
   20272    19962    19475    19313    19273    19381    20016    20583 
   20299    19512    18921    18798    19021    19242    19487    19957 
   20205    19761    19140    19180    19861    20362    20127    19549 
   19403    19978    20764    21003    20822    20714    20088    18295 
   16652    16903    18430    19770    20903    21625    21104    19789 
   18673    18438    19473    20718    20745    19899    19546    19872 
   19674    18941    19067    19761    19476    18740    19248    20471 
   20761    20493    20263    19145    17562    17266    18049    19002 
   20706    22603    23161    22361    20210    17616    16542    16935 
   18164    20019    21500    21690    20548    19287    18925    18983 
   18782    18559    19580    21142    20846    19954    20561    20937 
   19542    17832    17505    18347    19159    19661    20355    21401 
   22418    22057    19616    17451    17699    18588    18341    18932 
   20865    21150    20104    20052    20124    19623    19562    19573 
   18580    17979    19503    20892    19977    19041    19840    20223 
   19313    19788    21271    20644    19163    18432    17135    17047 
   20042    22495    21594    19685    19325    19696    18967    18168 
   19215    20889    21120    19781    18277    18661    21068    22536 
   21428    20173    19940    18719    16895    16927    18852    20715 
   20790    19530    19256    20104    20214    19637    19499    19998 
   20480    20020    19182    19322    19905    19697    19257    19629 
   19996    19184    18225    18866    20659    21446    20564    19346 
   18619    18144    17878    18605    20313    21018    20160    19488 
   19346    19435    20321    20943    20179    19615    19948    19448 
   18396    19070    20669    20541    19171    18600    19041    19712 
   20298    20618    20309    19603    19280    19472    19564    19614 
   20005    20112    19849    20164    20374    19299    18366    18527 
   18766    19153    20062    21282    21820    20463    18806    18789 
   19202    18991    19074    19569    19596    19300    19500    20152 
   20638    20601    19731    18631    18445    18630    18584    19273 
   20746    21536    20946    19778    19141    19141    19168    19298 
   19603    19607    19518    19705    20169    20677    20398    19276 
   18709    19290    19870    19662    19469    19831    19865    19248 
   19044    19533    20074    20692    20958    19984    18611    18144 
   18736    19853    20189    19886    20363    20830    20306    19325 
   18562    18553    19010    19629    20214    20204    19805    19327 
   19053    19550    20409    20679    20121    19354    18990    18843 
   18731    19198    20328    21028    20686    19967    19534    19361 
   19288    19149    18723    18657    19654    20619    20432    19822 
   19812    20050    19741    19321    19434    19688    19643    19496 
   19537    19773    20175    20345    19880    19589    19967    19857 
   18956    18994    19963    19591    18320    18404    19757    20887 
   20738    19757    19283    19380    19599    20094    20420    19835 
   18856    18511    18709    19215    20267    20996    20682    20043 
   19367    18717    18550    18854    19569    20152    19905    19595 
   19824    20021    20154    20341    19889    18877    18797    19772 
   20285    20279    20401    20085    19182    18717    18927    19035 
   19429    20488    20896    20390    20044    19685    18951    18677 
   19161    19541    19329    19210    19888    20341    19786    19556 
   19944    19907    19714    19757    19646    19723    20129    19998 
   19465    19176    19024    19174    19657    20044    20190    20051 
   19746    19519    19418    19330    18990    19002    20171    21074 
   20494    19865    19766    19363    19025    19036    19022    19368 
   19819    19588    19542    20224    20638    20422    19564    18396 
   18112    18790    19519    20075    20632    20833    20128    18943 
   18239    18813    20302    20838    20277    19889    19494    19184 
   19279    19251    19353    19874    20135    19884    19688    19789 
   19699    19492    19818    20359    20231    19433    19045    19527 
   19742    19468    19700    20042    19728    19233    19016    19180 
   19935    20650    20278    19313    19016    19488    19982    19899 
   19379    19040    19171    19691    20101    20079    20182    20425 
   20051    19206    18600    18559    18968    19607    20293    20521 
   20335    20169    19774    19417    19392    19175    18949    19188 
   19720    20256    20297    19836    19719    19980    19828    19318 
   19157    19564    20012    19823    19264    19245    19731    19877 
   19403    19067    19511    19978    19666    19367    19880    20332 
   19896    19344    19303    19618    20225    20433    20042    19816 
   19475    18881    18875    19565    20255    20324    19863    19512 
   19373    19017    18650    19041    19944    20368    20164    19822 
   19734    19836    19908    19940    19531    18962    19130    19623 
   19971    20335    20440    19998    19338    19117    19263    19554 
   19839    19423    18881    19272    19989    20387    20569    20479 
   19781    18569    18071    18929    20082    20695    20688    20298 
   19975    19503    18816    18727    19195    19449    19364    19364 
   19924    20598    20514    20032    19592    18901    18380    18756 
   19769    20510    20441    19998    19799    19742    19564    19383 
   19440    19543    19515    19735    19927    19705    19786    20029 
   19646    19368    19728    19765    19319    19238    19498    19693 
   19832    19939    19984    19847    19599    19562    19599    19634 
   19827    19735    19425    19411    19425    19356    19553    19858 
   19912    19824    19724    19506    19431    19777    20078    20061 
   19946    19649    19356    19330    19499    19938    19950    19199 
   19026    19616    19885    19954    19992    19704    19499    19457 
   19168    19251    20163    20580    20009    19834    20012    19388 
   18804    19372    19982    19661    19111    18960    19188    19880 
   20799    20929    19932    18931    18611    18604    19066    20146 
   20628    20035    19620    19629    19507    19708    20075    19836 
   19323    19099    19323    19893    20278    20255    19859    19283 
   19113    19265    19442    19820    20090    19993    19695    19296 
