Origin Time       2025/03/30 21:30:00
Lat.              38.535
Long.             142.295
Depth. (km)       44
Mag.              4.3
Station Code      MYGH10
Station Lat.      37.9411
Station Long.     140.8924
Station Height(m) -187
Record Time       2025/03/30 21:31:33
Sampling Freq(Hz) 100Hz
Duration Time(s)  120
Dir.              3
Scale Factor      2942(gal)/8224139
Max. Acc. (gal)   0.343
Last Correction   2025/03/30 21:31:33
Memo.             
[...]
  105610   105430   105420   105490   105443   105525   105576   105379 
  105360   105444   105349   105452   105640   105506   105327   105274 
  105235   105243   105262   105383   105591   105543   105435   105517 
  105521   105468   105468   105479   105511   105433   105294   105277 
  105367   105507   105549   105448   105424   105480   105544   105597 
  105389   105106   105252   105518   105552   105653   105684   105356 
  105146   105340   105588   105572   105229   105105   105502   105686 
  105511   105653   105825   105451   105143   105349   105405   105186 
  105259   105478   105491   105437   105413   105399   105426   105426 
  105399   105394   105364   105421   105668   105777   105537   105309 
  105254   105216   105278   105480   105592   105482   105364   105386 
  105410   105421   105453   105453   105459   105479   105418   105352 
  105445   105525   105341   105220   105453   105491   105209   105386 
  105802   105614   105202   105318   105661   105580   105267   105310 
  105667   105741   105459   105403   105463   105281   105314   105408 
  105089   105158   105803   105780   105186   105297   105714   105552 
  105394   105445   105318   105382   105653   105671   105537   105447 
  105426   105475   105420   105271   105370   105503   105190   105061 
  105533   105790   105587   105420   105448   105583   105493   105129 
  105179   105730   105784   105219   105138   105667   105717   105217 
  105185   105525   105460   105232   105219   105393   105692   105830 
  105726   105394   105039   105232   105543   105416   105451   105545 
  105196   105105   105583   105795   105497   105298   105476   105622 
  105378   105177   105399   105661   105702   105575   105356   105289 
  105416   105511   105456   105401   105413   105258   105111   105395 
  105733   105644   105471   105503   105560   105491   105289   105206 
  105399   105538   105401   105221   105328   105587   105624   105568 
  105524   105354   105341   105429   105314   105426   105729   105576 
  105225   105244   105490   105590   105448   105317   105275   105177 
  105289   105584   105633   105502   105381   105510   105849   105777 
  105390   105197   105313   105587   105483   105061   105067   105483 
  105736   105686   105543   105370   105225   105363   105528   105308 
  105250   105607   105669   105518   105567   105489   105345   105410 
  105395   105228   105313   105598   105506   105187   105363   105763 
  105713   105487   105416   105448   105526   105386   105197   105341 
  105462   105354   105355   105533   105648   105592   105509   105518 
  105540   105381   105052   105039   105436   105599   105525   105646 
  105696   105525   105363   105321   105428   105395   105231   105308 
  105399   105395   105516   105567   105576   105588   105340   105175 
  105409   105587   105441   105287   105421   105590   105467   105376 
  105495   105537   105556   105502   105250   105159   105274   105424 
  105571   105533   105441   105516   105618   105601   105493   105351 
  105227   105321   105565   105567   105354   105321   105520   105640 
  105595   105448   105193   105082   105351   105707   105732   105499 
  105401   105494   105582   105591   105417   105170   105295   105592 
  105457   105179   105154   105237   105460   105644   105567   105489 
  105378   105306   105592   105777   105520   105349   105456   105521 
  105483   105382   105264   105387   105628   105525   105294   105352 
  105414   105317   105344   105479   105644   105717   105393   105089 
  105368   105656   105509   105521   105745   105583   105240   105119 
  105175   105371   105459   105354   105362   105517   105675   105669 
  105457   105416   105648   105588   105098   104996   105537   105736 
  105358   105368   105773   105760   105352   105115   105212   105354 
  105324   105339   105619   105827   105655   105397   105312   105355 
  105367   105255   105289   105511   105547   105391   105383   105494 
  105524   105528   105464   105286   105267   105498   105630   105430 
  105297   105528   105700   105559   105267   105009   105058   105386 
  105594   105580   105575   105605   105544   105547   105583   105321 
  105024   105178   105486   105459   105279   105327   105560   105734 
  105633   105405   105386   105452   105506   105605   105510   105248 
  105219   105433   105556   105526   105418   105271   105341   105551 
  105462   105301   105503   105718   105588   105385   105221   105174 
  105505   105788   105587   105298   105182   105259   105547   105690 
  105603   105495   105328   105262   105401   105439   105358   105356 
  105387   105478   105711   105706   105339   105286   105544   105425 
  105173   105297   105590   105706   105545   105399   105464   105393 
  105294   105478   105466   105084   105046   105494   105713   105610 
  105537   105320   105189   105603   105918   105594   105305   105489 
  105672   105578   105348   105031   104885   105204   105578   105530 
  105308   105286   105417   105505   105502   105537   105690   105730 
  105543   105482   105626   105552   105281   105285   105499   105497 
  105235   105112   105402   105555   105248   105264   105637   105572 
  105268   105358   105715   105850   105786   105687   105335   105100 
  105435   105591   105236   105150   105460   105648   105555   105447 
  105491   105359   105140   105295   105464   105343   105268   105371 
  105510   105509   105503   105624   105572   105467   105530   105501 
  105436   105530   105570   105475   105383   105278   105266   105420 
  105449   105344   105301   105221   105252   105545   105598   105270 
  105267   105772   106006   105541   105135   105437   105717   105352 
  104976   105156   105493   105506   105452   105570   105552   105273 
  105084   105233   105397   105456   105737   105814   105382   105302 
  105664   105507   105170   105503   105727   105316   105228   105538 
  105646   105661   105460   105093   105074   105344   105668   105715 
  105252   105108   105752   106020   105332   105004   105555   105629 
  105082   105138   105572   105667   105636   105510   105359   105478 
  105430   105104   105285   105883   105964   105391   104917   105113 
  105555   105520   105193   105206   105580   105737   105376   105139 
  105557   105885   105570   105273   105329   105462   105418   105200 
  105291   105648   105601   105270   105209   105387   105432   105394 
  105557   105587   105340   105397   105538   105367   105426   105537 
  105314   105430   105807   105706   105386   105274   105318   105401 
  105351   105275   105418   105532   105447   105436   105412   105289 
  105445   105679   105495   105232   105271   105306   105402   105771 
  105849   105532   105397   105448   105428   105398   105420   105421 
  105405   105387   105389   105341   105227   105367   105634   105503 
  105287   105470   105648   105547   105561   105619   105447   105371 
  105502   105570   105439   105162   105165   105540   105564   105268 
  105335   105505   105421   105295   105345   105570   105644   105601 
  105652   105598   105489   105420   105274   105198   105418   105680 
  105507   105219   105300   105464   105498   105467   105416   105417 
  105389   105314   105327   105429   105534   105545   105393   105316 
  105532   105661   105489   105390   105505   105518   105308   105268 
  105420   105320   105187   105221   105194   105331   105557   105528 
  105688   105945   105547   105054   105186   105462   105514   105349 
  105140   105227   105349   105383   105679   105941   105794   105420 
  105187   105331   105452   105271   105237   105521   105700   105530 
  105329   105382   105483   105521   105475   105247   105219   105509 
  105632   105655   105767   105784   105746   105592   105389   105372 
  105227   105027   105274   105471   105182   105021   105301   105609 
  105687   105672   105451   105119   105468   106003   105645   105271 
  105545   105629   105451   105510   105497   105108   104897   105214 
  105499   105522   105682   105798   105567   105453   105648   105576 
  105113   105058   105628   105761   105289   105160   105318   105444 
  105699   105786   105507   105212   105237   105483   105490   105381 
  105417   105322   105360   105591   105364   105171   105460   105532 
  105484   105580   105457   105340   105403   105534   105729   105537 
  105169   105347   105645   105628   105459   105213   105159   105439 
  105675   105436   105128   105449   105807   105653   105626   105683 
  105339   105178   105397   105352   105187   105370   105709   105726 
  105440   105302   105233   105237   105534   105537   105204   105235 
  105468   105537   105510   105476   105632   105772   105425   105104 
  105333   105526   105436   105499   105567   105240   105051   105462 
  105653   105364   105418   105653   105457   105223   105325   105421 
  105352   105397   105678   105857   105464   105013   105314   105768 
  105729   105408   105030   105125   105771   106035   105564   105112 
  105194   105347   105386   105570   105549   105289   105279   105466 
  105624   105640   105435   105316   105467   105518   105256   104949 
  105055   105567   105723   105480   105464   105455   105355   105534 
  105702   105487   105192   105379   105684   105381   105156   105476 
  105649   105580   105403   105212   105317   105403   105331   105456 
  105536   105418   105517   105715   105595   105331   105221   105244 
  105327   105474   105549   105398   105256   105277   105421   105648 
  105584   105335   105347   105403   105403   105425   105362   105343 
  105451   105528   105360   105025   105034   105451   105725   105675 
  105529   105429   105545   105821   105808   105611   105626   105509 
  105174   105270   105598   105436   105167   105270   105341   105402 
  105448   105097   105155   105926   106038   105457   105314   105451 
  105455   105476   105452   105428   105460   105374   105278   105329 
  105459   105520   105462   105517   105663   105602   105445   105348 
  105286   105309   105316   105313   105498   105530   105092   104850 
  105297   105838   105911   105691   105463   105279   105364   105594 
  105432   105159   105282   105468   105371   105241   105393   105555 
  105391   105313   105457   105302   105104   105279   105453   105632 
  105813   105638   105382   105486   105777   105561   104947   105008 
  105579   105698   105425   105374   105607   105455   104997   105156 
  105578   105503   105430   105603   105553   105451   105606   105649 
  105457   105405   105436   105293   105213   105405   105547   105491 
  105398   105277   105301   105432   105306   105237   105576   105865 
  105692   105363   105295   105363   105283   105162   105317   105717 
  105910   105594   105138   105177   105493   105324   104943   105212 
  105695   105594   105364   105478   105687   105568   105101   105028 
  105464   105629   105439   105367   105503   105640   105619   105375 
  105136   105189   105286   105263   105408   105557   105410   105429 
  105723   105598   105263   105341   105468   105422   105580   105803 
  105626   105271   105246   105417   105475   105324   104973   104934 
  105362   105563   105502   105611   105729   105644   105466   105410 
  105564   105626   105468   105337   105374   105642   105645   104961 
  104758   105594   105949   105297   104930   105416   105938   105827 
  105389   105204   105425   105678   105621   105570   105680   105507 
  105094   104919   105121   105578   105827   105478   105229   105640 
  105727   105177   105093   105528   105723   105509   105017   104854 
  105285   105552   105476   105499   105588   105634   105489   105286 
  105522   105754   105509   105302   105289   105309   105355   105255 
  105173   105375   105659   105588   105181   105140   105444   105494 
  105632   105777   105467   105445   105714   105457   105151   105221 
  105304   105285   105262   105335   105426   105498   105653   105680 
  105524   105429   105312   105237   105429   105629   105632   105532 
  105386   105397   105563   105553   105440   105475   105472   105263 
  105101   105285   105506   105383   105318   105429   105383   105470 
  105621   105501   105626   105804   105352   105206   105781   105673 
  105086   105270   105591   105459   105402   105413   105295   105268 
  105277   105194   105368   105687   105568   105418   105622   105494 
  105241   105578   105873   105698   105324   104973   105187   105509 
  105221   105186   105557   105621   105678   105838   105768   105606 
  105457   105283   105142   105105   105287   105499   105364   105152 
  105144   105077   105277   105969   106193   105710   105472   105521 
  105367   105394   105769   105942   105694   105248   104920   104970 
  105193   105239   105268   105308   105096   105038   105490   105759 
  105521   105480   105698   105590   105313   105331   105514   105575 
  105644   105768   105557   105197   105208   105263   105135   105162 
  105312   105484   105640   105705   105792   105641   105291   105460 
  105776   105482   105162   105270   105399   105463   105563   105520 
  105318   105316   105578   105653   105472   105428   105518   105416 
  105173   105260   105525   105364   105027   105108   105433   105563 
  105632   105733   105603   105513   105699   105673   105437   105378 
  105283   105155   105143   105034   105023   105236   105305   105304 
  105349   105247   105349   105921   106397   106386   105946   105360 
  105221   105522   105622   105405   105217   105185   105113   104981 
  105098   105381   105470   105360   105127   105034   105375   105673 
  105617   105653   105792   105854   105973   105984   105725   105549 
  105610   105379   104791   104693   105317   105772   105567   105106 
  104716   104692   105148   105447   105462   105749   106043   105848 
  105480   105413   105568   105540   105387   105449   105448   105266 
  105366   105584   105451   105220   105287   105343   105024   104922 
  105532   106033   105834   105626   105673   105452   105052   105120 
  105695   105975   105699   105544   105683   105678   105298   104876 
  104915   105212   105289   105163   105093   105219   105462   105719 
  105846   105749   105580   105405   105312   105505   105761   105727 
  105440   105138   105108   105355   105478   105268   105007   105156 
  105729   106076   105880   105637   105582   105409   105189   105354 
  105771   105841   105524   105233   105173   105339   105433   105159 
  104962   105262   105483   105310   105340   105601   105586   105490 
  105611   105684   105511   105266   105224   105300   105155   104958 
  105081   105540   105997   105938   105352   104907   105059   105528 
  105827   105757   105370   105183   105462   105575   105339   105302 
  105433   105459   105563   105624   105417   105363   105565   105597 
  105495   105389   105158   104958   105000   105258   105507   105448 
  105305   105543   105823   105597   105217   105228   105397   105291 
  105227   105510   105584   105277   105259   105564   105622   105560 
  105663   105634   105551   105676   105706   105563   105486   105421 
  105344   105480   105644   105271   104836   105109   105457   105498 
  105590   105514   105417   105497   105317   105271   105609   105529 
  105175   105196   105163   104947   105252   105954   106120   105703 
  105526   105641   105584   105372   105185   105277   105579   105619 
  105548   105487   105135   105086   105609   105687   105378   105416 
  105432   105233   105360   105865   105949   105340   104936   105034 
  105117   105214   105494   105625   105436   105428   105780   105894 
  105548   105201   105190   105367   105559   105719   105447   104893 
  104959   105479   105530   105223   105243   105575   105730   105686 
  105757   105788   105628   105552   105459   105201   105131   105273 
  105348   105393   105540   105649   105409   104862   104641   105058 
  105564   105761   105767   105853   106003   105703   105225   105119 
  105016   105090   105490   105561   105457   105460   105264   104977 
  104958   105325   105761   105788   105484   105306   105547   105872 
  105700   105528   105772   105480   104834   104913   105289   105572 
  105837   105553   104984   104996   105452   105668   105601   105611 
  105598   105433   105426   105482   105376   105414   105521   105474 
  105428   105228   105078   105417   105707   105599   105526   105582 
  105435   105223   105472   105934   105881   105355   105047   105279 
  105501   105354   105266   105366   105494   105656   105590   105205 
  105016   105275   105497   105445   105476   105440   105109   105123 
  105572   105695   105517   105455   105440   105387   105256   105101 
  105079   105194   105398   105602   105850   106084   105954   105574 
  105403   105580   105771   105529   105171   105209   105286   105094 
  104932   104984   105327   105746   105721   105457   105389   105367 
  105359   105588   105872   105653   105142   105163   105495   105478 
  105471   105753   105753   105324   104903   104733   104916   105306 
  105651   105991   106080   105673   105382   105673   105914   105559 
  105160   105227   105528   105675   105358   104943   105162   105607 
  105536   105287   105356   105545   105462   105231   105344   105499 
  105243   105143   105372   105422   105417   105491   105381   105204 
  105425   105957   106081   105726   105509   105518   105395   105286 
  105493   105571   105128   104835   105366   105889   105511   105085 
  105248   105483   105613   105599   105412   105256   105186   105328 
  105482   105210   105016   105441   105814   105545   105213   105399 
  105661   105533   105408   105468   105364   105229   105348   105646 
  105933   105927   105696   105484   105193   105035   105204   105266 
  105181   105214   105282   105376   105425   105436   105673   105846 
  105586   105397   105630   105756   105491   105341   105553   105648 
  105470   105306   105078   104924   105042   105139   105382   105634 
  105389   105223   105402   105416   105484   105889   106277   106204 
  105748   105381   105233   105341   105490   105221   105020   105372 
  105626   105376   105132   105268   105490   105402   105073   105028 
  105401   105549   105426   105579   105619   105252   105146   105452 
  105694   105648   105468   105479   105584   105379   105007   104953 
  105348   105618   105364   105344   105653   105561   105518   105690 
  105524   105408   105579   105634   105506   105416   105491   105457 
  105152   105032   105123   105198   105449   105727   105857   105860 
  105541   105325   105587   105729   105571   105587   105661   105568 
  105690   105795   105229   104737   104955   104996   104789   105156 
  105572   105382   105206   105412   105563   105517   105522   105533 
  105489   105549   105545   105455   105545   105592   105532   105552 
  105426   105354   105494   105372   105236   105464   105590   105471 
  105367   105297   105267   105390   105723   105852   105457   105192 
  105381   105444   105358   105408   105341   105202   105239   105295 
  105386   105556   105578   105506   105505   105445   105358   105356 
  105221   105057   105240   105502   105533   105544   105536   105363 
