Origin Time       2025/03/30 21:30:00
Lat.              38.535
Long.             142.295
Depth. (km)       44
Mag.              4.3
Station Code      MYGH08
Station Lat.      38.1133
Station Long.     140.8441
Station Height(m) 10
Record Time       2025/03/30 21:31:32
Sampling Freq(Hz) 100Hz
Duration Time(s)  120
Dir.              5
Scale Factor      7845(gal)/8223790
Max. Acc. (gal)   0.812
Last Correction   2025/03/30 21:31:33
Memo.             
[...]
    -905     -974     -903     -770     -657     -639     -785     -915 
    -837     -712     -710     -756     -815     -864     -834     -780 
    -731     -696     -723     -715     -634     -654     -780     -832 
    -776     -729     -751     -783     -777     -766     -757     -731 
    -707     -707     -751     -777     -726     -743     -868     -870 
    -724     -643     -704     -812     -823     -742     -679     -675 
    -727     -789     -815     -832     -827     -787     -773     -772 
    -742     -727     -742     -793     -866     -838     -742     -751 
    -799     -739     -664     -700     -799     -823     -758     -729 
    -760     -778     -778     -795     -789     -749     -746     -738 
    -688     -719     -849     -912     -789     -596     -558     -692 
    -861     -932     -846     -753     -760     -799     -834     -818 
    -753     -720     -712     -735     -764     -739     -776     -908 
    -920     -769     -692     -750     -820     -853     -834     -807 
    -785     -722     -685     -702     -688     -662     -675     -741 
    -865     -945     -841     -653     -642     -785     -881     -891 
    -805     -653     -577     -650     -799     -899     -881     -749 
    -610     -654     -835     -886     -796     -727     -688     -677 
    -756     -841     -831     -769     -737     -787     -842     -741 
    -614     -716     -888     -828     -610     -465     -534     -822 
   -1080    -1053     -834     -668     -681     -831     -943     -897 
    -751     -669     -696     -749     -770     -756     -724     -719 
    -731     -754     -783     -770     -754     -803     -800     -691 
    -637     -681     -766     -859     -837     -695     -646     -760 
    -873     -892     -861     -754     -610     -600     -689     -742 
    -791     -820     -773     -706     -704     -760     -801     -842 
    -888     -874     -800     -745     -777     -847     -834     -734 
    -668     -702     -751     -745     -745     -776     -770     -760 
    -773     -772     -757     -745     -727     -746     -788     -762 
    -720     -739     -773     -824     -843     -726     -616     -684 
    -830     -931     -942     -846     -751     -765     -800     -743 
    -683     -718     -768     -783     -820     -827     -742     -722 
    -839     -877     -766     -685     -708     -777     -815     -774 
    -697     -662     -715     -843     -959     -878     -615     -523 
    -703     -886     -922     -831     -715     -695     -718     -714 
    -754     -832     -877     -862     -783     -712     -715     -746 
    -761     -739     -706     -722     -769     -800     -815     -807 
    -780     -768     -742     -696     -726     -822     -884     -850 
    -677     -579     -735     -882     -834     -702     -610     -675 
    -820     -846     -777     -729     -745     -801     -812     -720 
    -607     -637     -788     -866     -837     -778     -737     -747 
    -780     -764     -761     -827     -841     -737     -673     -719 
    -757     -788     -861     -859     -712     -612     -710     -866 
    -905     -822     -738     -795     -885     -792     -633     -622 
    -724     -822     -834     -747     -675     -710     -788     -818 
    -772     -704     -734     -853     -888     -778     -684     -726 
    -823     -858     -788     -688     -679     -724     -756     -797 
    -853     -878     -799     -641     -615     -741     -827     -816 
    -770     -765     -774     -754     -747     -773     -828     -885 
    -857     -783     -715     -653     -662     -727     -738     -711 
    -765     -885     -900     -778     -656     -677     -861     -950 
    -819     -687     -641     -668     -807     -895     -765     -581 
    -614     -819     -909     -789     -629     -616     -776     -936 
    -916     -769     -700     -746     -796     -814     -776     -707 
    -729     -804     -804     -743     -657     -603     -661     -761 
    -799     -788     -778     -772     -803     -918     -955     -769 
    -607     -670     -785     -826     -791     -666     -618     -776 
    -923     -872     -753     -666     -648     -799     -938     -815 
    -649     -669     -766     -870     -895     -768     -653     -684 
    -764     -797     -788     -745     -733     -810     -880     -855 
    -708     -527     -591     -882    -1000     -850     -719     -739 
    -764     -745     -747     -699     -662     -760     -861     -816 
    -700     -699     -841     -940     -889     -687     -513     -606 
    -831     -923     -868     -795     -772     -735     -679     -688 
    -766     -849     -864     -811     -716     -641     -714     -850 
    -819     -695     -711     -816     -835     -791     -754     -735 
    -750     -807     -872     -881     -807     -704     -680     -747 
    -788     -749     -711     -741     -781     -747     -675     -668 
    -766     -876     -892     -815     -679     -627     -776     -945 
    -940     -777     -618     -646     -777     -811     -784     -761 
    -731     -758     -823     -823     -810     -804     -785     -785 
    -718     -587     -616     -810     -865     -730     -707     -853 
    -896     -768     -643     -614     -657     -751     -831     -814 
    -750     -731     -761     -803     -757     -660     -720     -900 
    -949     -849     -747     -715     -734     -716     -692     -720 
    -710     -706     -796     -853     -823     -816     -859     -862 
    -791     -737     -738     -762     -780     -726     -662     -699 
    -804     -861     -789     -661     -623     -692     -797     -869 
    -869     -815     -761     -762     -783     -793     -827     -849 
    -807     -726     -654     -627     -689     -828     -913     -874 
    -795     -733     -676     -668     -746     -827     -814     -727 
    -676     -702     -780     -870     -876     -776     -695     -699 
    -724     -743     -762     -768     -805     -845     -781     -691 
    -677     -733     -853     -916     -841     -766     -741     -731 
    -784     -831     -791     -741     -719     -700     -703     -735 
    -792     -812     -780     -788     -816     -807     -773     -658 
    -573     -707     -874     -846     -741     -716     -735     -756 
    -800     -778     -706     -757     -838     -762     -634     -619 
    -715     -835     -905     -832     -662     -637     -784     -938 
   -1009     -931     -715     -523     -529     -731     -909     -928 
    -835     -656     -521     -627     -874     -980     -907     -814 
    -747     -720     -722     -730     -816     -903     -795     -568 
    -456     -569     -864    -1096    -1021     -730     -553     -668 
    -900     -950     -784     -630     -683     -850     -892     -804 
    -739     -699     -672     -708     -753     -758     -781     -807 
    -754     -700     -735     -801     -895     -989     -927     -715 
    -568     -599     -739     -832     -788     -710     -700     -720 
    -750     -773     -734     -702     -796     -892     -839     -750 
    -715     -722     -776     -785     -712     -683     -753     -835 
    -861     -865     -837     -737     -691     -747     -768     -724 
    -670     -669     -804     -939     -922     -834     -749     -668 
    -662     -734     -783     -783     -757     -754     -810     -807 
    -727     -741     -799     -780     -778     -799     -751     -731 
    -758     -715     -670     -710     -731     -714     -715     -737 
    -768     -778     -757     -729     -719     -778     -873     -846 
    -723     -675     -733     -810     -853     -853     -754     -634 
    -683     -803     -787     -749     -820     -882     -820     -691 
    -618     -718     -936    -1027     -907     -702     -542     -565 
    -746     -877     -859     -792     -793     -845     -874     -799 
    -642     -649     -818     -858     -777     -724     -693     -716 
    -805     -831     -777     -780     -788     -692     -676     -801 
    -834     -778     -773     -776     -792     -831     -823     -772 
    -716     -684     -716     -801     -846     -807     -772     -761 
    -692     -618     -719     -931     -950     -785     -679     -649 
    -645     -718     -793     -753     -693     -749     -827     -834 
    -778     -687     -679     -816     -918     -850     -724     -680 
    -692     -716     -776     -837     -831     -761     -707     -737 
    -787     -789     -789     -799     -772     -699     -633     -693 
    -870     -943     -811     -650     -634     -704     -768     -823 
    -804     -700     -670     -745     -847     -942     -918     -758 
    -645     -643     -688     -742     -805     -831     -778     -742 
    -765     -761     -715     -666     -688     -855    -1013     -928 
    -716     -635     -685     -749     -760     -718     -743     -869 
    -934     -831     -665     -641     -784     -884     -811     -696 
    -673     -737     -837     -855     -773     -766     -832     -857 
    -861     -805     -685     -689     -819     -889     -819     -668 
    -564     -584     -700     -841     -859     -697     -594     -722 
    -873     -901     -895     -865     -835     -808     -702     -596 
    -635     -753     -810     -781     -704     -622     -661     -824 
    -873     -760     -727     -830     -878     -807     -700     -648 
    -668     -718     -803     -900     -949     -923     -749     -546 
    -607     -892    -1063     -915     -608     -488     -607     -777 
    -920     -963     -830     -650     -592     -662     -777     -841 
    -816     -765     -716     -650     -696     -922    -1024     -789 
    -502     -484     -683     -873     -959     -943     -842     -711 
    -629     -669     -807     -868     -796     -723     -689     -683 
    -770     -932    -1046    -1013     -834     -637     -615     -761 
    -822     -733     -666     -672     -720     -757     -733     -741 
    -805     -861     -913     -924     -792     -602     -558     -638 
    -669     -681     -761     -823     -808     -773     -751     -760 
    -837     -942     -953     -805     -622     -558     -610     -714 
    -761     -692     -666     -738     -787     -810     -820     -810 
    -847     -938     -928     -772     -679     -670     -614     -665 
    -851     -932     -823     -646     -625     -803     -970     -961 
    -776     -591     -603     -827    -1023     -918     -676     -612 
    -652     -734     -877     -841     -646     -656     -855     -899 
    -711     -573     -677     -897     -959     -785     -588     -565 
    -747     -969     -913     -631     -537     -730     -959    -1042 
    -909     -673     -602     -733     -808     -747     -731     -788 
    -791     -746     -679     -622     -683     -772     -742     -724 
    -834     -916     -899     -858     -818     -811     -834     -741 
    -552     -521     -726     -912     -877     -700     -577     -669 
    -918    -1035     -858     -540     -490     -831    -1097     -972 
    -657     -479     -583     -822     -947     -896     -792     -769 
    -776     -714     -633     -661     -841     -977     -849     -585 
    -487     -616     -810     -878     -778     -664     -691     -780 
    -810     -815     -823     -818     -826     -793     -675     -608 
    -702     -869     -892     -712     -654     -862     -958     -781 
    -622     -697     -927    -1019     -845     -697     -773     -903 
    -935     -807     -564     -448     -589     -818     -884     -761 
    -622     -615     -735     -834     -835     -796     -758     -760 
    -811     -841     -832     -799     -687     -602     -684     -780 
    -769     -746     -730     -778     -901     -870     -658     -545 
    -662     -873     -973     -909     -842     -847     -783     -668 
    -664     -714     -766     -835     -797     -670     -627     -711 
    -884     -984     -868     -723     -716     -706     -630     -606 
    -679     -818     -953     -913     -723     -645     -691     -735 
    -800     -810     -747     -804     -922     -864     -685     -615 
    -672     -826    -1028    -1031     -800     -627     -607     -684 
    -823     -845     -741     -753     -859     -822     -668     -630 
    -766     -922     -973     -810     -508     -468     -793    -1077 
   -1008     -737     -592     -675     -815     -850     -792     -754 
    -799     -872     -820     -665     -625     -650     -584     -569 
    -623     -581     -553     -631     -639     -540     -457     -471 
    -637     -878    -1008    -1044    -1100    -1097    -1034    -1016 
    -954     -787     -637     -584     -616     -657     -670     -685 
    -637     -541     -562     -646     -653     -687     -855    -1063 
   -1161    -1143    -1146    -1171    -1121    -1086    -1135    -1088 
    -931     -849     -824     -738     -611     -472     -386     -491 
    -676     -738     -747     -792     -805     -711     -572     -511 
    -529     -666     -908    -1043     -942     -669     -422     -414 
    -635     -764     -638     -564     -731     -926     -916     -760 
    -662     -666     -669     -588     -540     -616     -648     -565 
    -525     -668    -1001    -1281    -1262     -954     -626     -662 
   -1007    -1179     -969     -602     -492     -750     -972     -861 
    -608     -518     -622     -692     -595     -561     -855    -1341 
   -1617    -1439    -1013     -812     -900     -882     -623     -427 
    -468     -587     -596     -476     -392     -518     -820    -1066 
    -936     -583     -603     -947    -1027     -803     -573     -432 
    -492     -702     -676     -446     -399     -457     -496     -670 
    -878    -1035    -1329    -1610    -1560    -1356    -1296    -1293 
   -1132     -718     -261     -110     -130      -28      -12     -313 
    -621     -591     -465     -603     -900    -1136    -1139     -832 
    -576     -685     -909     -955     -815     -626     -688    -1098 
   -1363    -1078     -627     -606     -981    -1217    -1028     -734 
    -727     -888     -919     -885     -907     -789     -523     -436 
    -565     -734     -845     -670     -301     -253     -557     -815 
    -961    -1031     -943     -796     -711     -649     -541     -398 
    -415     -727    -1048    -1028     -697     -452     -591     -967 
   -1262    -1219     -811     -477     -573     -886    -1035     -756 
    -243     -199     -815    -1343    -1240     -845     -680     -785 
    -924     -958     -830     -540     -333     -460     -758     -940 
    -915     -781     -811    -1024    -1092     -978     -892     -873 
    -915     -982     -924     -687     -426     -353     -567     -854 
    -847     -558     -395     -614     -974    -1004     -641     -314 
    -378     -720     -892     -733     -650     -897    -1124     -986 
    -695     -653     -923    -1163     -976     -510     -321     -553 
    -884     -951     -607     -193     -307     -907    -1247    -1030 
    -675     -515     -623     -938    -1186    -1159     -905     -675 
    -715     -905     -942     -795     -603     -525     -625     -724 
    -730     -731     -773     -920    -1090    -1043     -834     -727 
    -754     -783     -708     -502     -355     -537     -881     -967 
    -792     -669     -703     -762     -730     -589     -469     -507 
    -652     -824     -976     -978     -869     -808     -783     -754 
    -818    -1000    -1166    -1147     -880     -554     -444     -503 
    -615     -735     -742     -757     -957    -1097     -934     -626 
    -508     -627     -816    -1005     -962     -656     -531     -699 
    -869     -889     -734     -518     -425     -530     -706     -785 
    -800     -815     -843     -878     -827     -706     -729     -900 
    -938     -792     -749     -853     -827     -699     -781     -999 
   -1026     -877     -711     -602     -618     -731     -865     -895 
    -749     -670     -808     -943     -920     -818     -750     -696 
    -583     -430     -352     -533     -934    -1104     -831     -511 
    -546     -882    -1096     -931     -618     -480     -585     -777 
    -815     -660     -483     -513     -800    -1023     -920     -616 
    -388     -480     -830    -1057    -1003     -907     -946     -958 
    -842     -758     -729     -723     -838     -935     -769     -479 
    -421     -658     -953    -1098    -1024     -870     -882     -932 
    -731     -542     -739     -980     -857     -642     -573     -572 
    -735    -1004    -1034     -835     -692     -731     -851     -834 
    -643     -517     -618     -773     -787     -792     -847     -795 
    -681     -607     -584     -661     -810     -930     -961     -815 
    -561     -491     -648     -819     -927     -900     -712     -588 
    -715     -868     -764     -585     -554     -588     -684     -854 
    -886     -718     -661     -967    -1362    -1435    -1183     -808 
    -529     -514     -635     -680     -634     -553     -556     -726 
    -858     -715     -499     -610    -1048    -1356    -1198     -772 
    -546     -699     -913     -903     -730     -523     -456     -599 
    -729     -781     -834     -828     -842     -828     -549     -284 
    -483     -892    -1040     -900     -661     -550     -711     -901 
    -874     -869    -1066    -1159     -924     -602     -508     -639 
    -819     -949     -870     -491     -244     -530     -908     -930 
    -884     -949     -832     -581     -616     -869     -884     -684 
    -594     -679     -882    -1063     -999     -765     -730    -1007 
   -1193     -939     -541     -500     -733     -828     -807     -818 
    -772     -742     -804     -696     -382     -341     -787    -1201 
   -1007     -446     -313     -743    -1077     -936     -575     -419 
    -706    -1084     -994     -581     -413     -665    -1081    -1235 
    -938     -548     -511     -783     -985     -932     -720     -531 
    -526     -638     -680     -689     -770     -869     -882     -769 
    -623     -565     -669     -935    -1088     -930     -716     -689 
    -796     -865     -762     -587     -565     -733     -893     -870 
    -731     -621     -658     -889    -1019     -826     -662     -869 
   -1140    -1061     -781     -621     -631     -679     -648     -625 
    -615     -614     -831    -1101    -1065     -830     -623     -531 
    -600     -751     -801     -724     -715     -789     -807     -822 
    -859     -816     -726     -741     -954    -1100     -803     -386 
    -479     -901    -1053     -868     -598     -403     -494     -838 
    -945     -681     -556     -772    -1044    -1089     -753     -355 
    -465     -972    -1231     -955     -484     -338     -660    -1059 
    -999     -546     -378     -702    -1038    -1007     -700     -477 
    -676    -1192    -1382     -978     -548     -552     -773     -847 
    -684     -461     -433     -618     -888    -1113    -1013     -598 
    -399     -587     -830     -907     -733     -473     -488     -734 
    -923    -1005     -934     -714     -638     -855    -1093    -1046 
    -777     -622     -734     -897     -820     -517     -379     -677 
   -1081    -1096     -789     -621     -753     -936     -865     -588 
