Origin Time       2025/03/30 21:30:00
Lat.              38.535
Long.             142.295
Depth. (km)       44
Mag.              4.3
Station Code      MYGH11
Station Lat.      38.5158
Station Long.     141.3421
Station Height(m) -202.1
Record Time       2025/03/30 21:31:20
Sampling Freq(Hz) 100Hz
Duration Time(s)  120
Dir.              1
Scale Factor      3923(gal)/8224838
Max. Acc. (gal)   0.634
Last Correction   2025/03/30 21:31:20
Memo.             
[...]
  -67080   -67080   -67081   -67080   -67078   -67078   -67080   -67080 
  -67081   -67080   -67080   -67081   -67081   -67080   -67081   -67082 
  -67081   -67081   -67085   -67084   -67078   -67081   -67084   -67082 
  -67082   -67084   -67081   -67078   -67081   -67084   -67082   -67080 
  -67080   -67082   -67082   -67081   -67084   -67084   -67081   -67085 
  -67085   -67082   -67084   -67084   -67082   -67082   -67080   -67081 
  -67084   -67081   -67081   -67084   -67082   -67080   -67082   -67082 
  -67082   -67082   -67082   -67085   -67085   -67082   -67080   -67082 
  -67084   -67082   -67082   -67085   -67082   -67081   -67082   -67085 
  -67084   -67078   -67078   -67081   -67082   -67084   -67081   -67078 
  -67082   -67086   -67082   -67078   -67080   -67082   -67080   -67085 
  -67088   -67080   -67076   -67081   -67081   -67080   -67081   -67084 
  -67081   -67080   -67081   -67082   -67081   -67085   -67088   -67085 
  -67081   -67080   -67082   -67082   -67082   -67081   -67082   -67084 
  -67081   -67082   -67085   -67085   -67082   -67080   -67082   -67081 
  -67078   -67081   -67081   -67081   -67082   -67081   -67078   -67082 
  -67084   -67082   -67081   -67081   -67080   -67080   -67078   -67080 
  -67082   -67082   -67082   -67080   -67081   -67084   -67082   -67081 
  -67081   -67078   -67078   -67082   -67081   -67080   -67081   -67082 
  -67081   -67077   -67080   -67081   -67080   -67082   -67082   -67078 
  -67078   -67081   -67080   -67080   -67080   -67077   -67078   -67081 
  -67078   -67080   -67082   -67080   -67080   -67081   -67078   -67077 
  -67081   -67081   -67080   -67080   -67081   -67080   -67080   -67081 
  -67081   -67080   -67080   -67080   -67080   -67080   -67080   -67080 
  -67081   -67081   -67080   -67080   -67082   -67086   -67082   -67078 
  -67081   -67082   -67081   -67081   -67078   -67078   -67082   -67082 
  -67082   -67082   -67082   -67084   -67082   -67081   -67082   -67084 
  -67081   -67078   -67081   -67084   -67080   -67077   -67084   -67085 
  -67081   -67081   -67082   -67082   -67082   -67082   -67082   -67080 
  -67080   -67081   -67082   -67084   -67081   -67080   -67080   -67080 
  -67081   -67081   -67080   -67081   -67080   -67077   -67081   -67082 
  -67078   -67080   -67082   -67081   -67080   -67081   -67080   -67078 
  -67082   -67082   -67078   -67081   -67082   -67081   -67084   -67081 
  -67078   -67082   -67084   -67078   -67081   -67085   -67081   -67081 
  -67082   -67078   -67080   -67085   -67081   -67078   -67082   -67084 
  -67081   -67080   -67082   -67082   -67080   -67081   -67080   -67080 
  -67082   -67086   -67088   -67086   -67085   -67080   -67072   -67074 
  -67082   -67081   -67076   -67084   -67086   -67074   -67061   -67062 
  -67080   -67107   -67109   -67076   -67058   -67082   -67095   -67077 
  -67076   -67096   -67103   -67092   -67068   -67047   -67085   -67122 
  -67050   -67012   -67101   -67142   -67089   -67039   -67042   -67139 
  -67162   -67003   -66973   -67166   -67204   -67034   -66954   -67049 
  -67182   -67158   -67032   -67059   -67113   -67038   -67042   -67135 
  -67130   -67086   -67073   -67028   -67074   -67200   -67138   -67011 
  -67008   -67018   -67101   -67194   -67028   -66912   -67139   -67234 
  -67069   -67053   -67066   -67047   -67184   -67143   -66923   -67026 
  -67212   -67120   -67039   -67070   -67057   -67046   -67085   -67170 
  -67189   -67000   -66856   -67028   -67252   -67221   -67041   -66954 
  -67059   -67155   -67078   -67084   -67157   -67009   -66942   -67120 
  -67128   -67004   -67073   -67216   -67163   -67003   -67050   -67215 
  -67142   -66918   -66924   -67130   -67130   -67023   -67161   -67252 
  -67057   -66954   -67103   -67174   -67041   -67009   -67189   -67205 
  -67000   -66950   -67039   -67058   -67096   -67101   -67004   -67045 
  -67184   -67189   -67124   -67039   -66946   -67012   -67213   -67205 
  -66987   -67045   -67240   -67120   -66997   -67050   -66984   -66938 
  -67130   -67278   -67140   -66931   -66943   -67126   -67158   -67059 
  -67117   -67143   -67053   -67107   -67162   -67074   -66997   -66987 
  -67019   -67068   -67135   -67182   -67068   -66892   -67005   -67292 
  -67266   -67047   -67007   -67050   -67108   -67157   -67054   -66974 
  -67051   -67108   -67131   -67090   -66972   -66993   -67130   -67185 
  -67084   -66955   -67105   -67244   -67026   -66958   -67143   -67120 
  -67053   -67169   -67163   -66995   -67018   -67112   -67020   -67012 
  -67100   -67122   -67205   -67198   -67051   -67020   -67031   -67012 
  -67076   -67122   -67092   -67092   -67090   -67063   -67073   -67077 
  -67047   -67080   -67176   -67166   -67027   -66982   -67072   -67113 
  -67065   -66999   -67072   -67203   -67136   -67050   -67074   -67041 
  -67096   -67211   -67089   -66946   -67012   -67092   -67101   -67111 
  -67086   -67053   -67050   -67055   -67062   -67081   -67139   -67135 
  -67066   -67093   -67138   -67119   -67074   -66964   -66951   -67097 
  -67151   -67070   -66995   -67082   -67273   -67213   -67030   -67076 
  -67122   -67005   -67007   -67111   -67095   -67058   -67089   -67093 
  -67078   -67082   -67144   -67193   -67031   -66861   -67000   -67186 
  -67157   -67104   -67057   -66973   -67077   -67244   -67139   -66945 
  -66954   -67124   -67242   -67161   -67036   -67009   -67008   -67039 
  -67085   -67086   -67082   -67082   -67074   -67090   -67092   -67063 
  -67111   -67101   -66946   -67011   -67232   -67180   -67053   -67030 
  -66996   -67092   -67198   -67109   -66985   -66972   -67157   -67311 
  -67130   -66972   -67068   -67082   -67014   -67111   -67186   -67020 
  -66933   -67139   -67217   -66984   -66942   -67180   -67186   -67008 
  -67108   -67270   -67065   -66883   -67084   -67203   -67043   -66942 
  -66987   -67113   -67219   -67155   -67053   -67088   -67177   -67116 
  -66876   -66826   -67173   -67400   -67151   -66912   -67004   -67085 
  -67032   -67045   -67101   -67096   -67012   -67039   -67225   -67194 
  -66974   -66997   -67143   -67077   -66989   -67066   -67069   -67065 
  -67225   -67236   -67015   -66888   -67003   -67208   -67205   -67005 
  -66980   -67113   -67144   -67147   -67105   -66969   -67008   -67151 
  -67123   -67036   -67028   -67065   -67143   -67221   -67124   -66946 
  -67036   -67158   -67031   -67035   -67140   -67045   -67043   -67169 
  -67086   -66991   -67100   -67150   -67080   -67084   -67103   -67036 
  -66946   -66973   -67209   -67329   -67112   -66945   -66937   -66961 
  -67186   -67277   -66984   -66933   -67120   -67101   -67093   -67116 
  -67019   -67015   -67112   -67117   -67074   -67130   -67217   -67140 
  -66989   -66996   -67038   -66968   -67035   -67281   -67263   -66978 
  -66901   -67046   -67165   -67190   -67074   -66988   -67072   -67085 
  -67039   -67166   -67279   -67104   -66881   -66958   -67151   -67180 
  -67115   -67050   -67063   -67171   -67080   -66872   -67038   -67248 
  -67011   -66945   -67262   -67174   -66853   -66968   -67205   -67259 
  -67217   -67082   -67020   -67039   -66968   -66999   -67162   -67127 
  -66947   -66897   -67020   -67220   -67247   -67084   -67038   -67058 
  -66974   -67032   -67236   -67190   -66980   -67034   -67275   -67203 
  -66831   -66857   -67243   -67251   -67051   -67069   -67036   -66951 
  -67051   -67126   -67077   -67124   -67219   -67158   -67026   -67041 
  -67076   -67003   -67092   -67213   -67054   -67007   -67142   -67031 
  -66911   -67063   -67228   -67221   -67090   -67015   -67095   -67120 
  -67019   -66974   -66999   -67047   -67170   -67190   -67034   -67057 
  -67254   -67194   -66974   -66922   -66993   -67128   -67174   -66933 
  -66831   -67134   -67277   -67131   -67119   -67189   -67086   -66931 
  -66974   -67130   -67128   -67008   -66981   -67082   -67174   -67170 
  -67161   -67177   -67112   -66993   -66964   -67039   -67090   -67081 
  -67028   -67068   -67205   -67128   -67034   -67198   -67174   -66973 
  -67027   -67123   -67008   -66904   -67034   -67239   -67196   -66988 
  -67004   -67225   -67184   -66887   -66939   -67305   -67331   -67020 
  -66891   -67039   -67130   -67047   -67024   -67103   -67100   -67068 
  -67151   -67163   -67035   -67046   -67170   -67054   -66862   -66991 
  -67169   -67158   -67176   -67166   -67099   -67059   -66976   -66973 
  -67073   -67149   -67181   -67077   -66961   -67046   -67186   -67162 
  -66993   -66969   -67142   -67224   -67139   -66982   -67004   -67225 
  -67192   -66974   -67018   -67177   -67139   -67000   -66996   -67080 
  -67054   -67036   -67126   -67065   -66876   -67022   -67412   -67373 
  -66982   -66874   -67004   -67076   -67068   -67005   -67050   -67181 
  -67212   -67143   -67009   -66989   -67119   -67068   -66933   -67057 
  -67212   -67123   -67009   -67057   -67154   -67135   -67009   -66999 
  -67093   -67045   -67082   -67359   -67263   -66846   -66884   -67113 
  -67108   -67128   -67135   -67095   -67085   -66927   -66874   -67205 
  -67363   -67003   -66884   -67279   -67315   -66962   -66884   -67015 
  -67143   -67177   -67031   -66980   -67096   -67030   -66970   -67236 
  -67304   -67047   -67059   -67097   -66891   -67026   -67327   -67170 
  -66939   -66991   -67072   -67135   -67178   -67065   -66955   -67014 
  -67095   -67178   -67254   -67070   -66831   -67024   -67252   -66974 
  -66834   -67262   -67410   -67011   -66910   -67176   -67180   -67020 
  -67053   -67115   -67000   -66885   -67086   -67354   -67188   -66910 
  -66961   -67045   -67068   -67224   -67186   -66937   -66977   -67188 
  -67181   -67045   -67055   -67167   -67090   -66924   -66988   -67127 
  -67115   -67139   -67213   -67140   -67016   -66915   -66914   -67093 
  -67157   -67146   -67274   -67203   -66955   -66895   -66870   -66877 
  -67173   -67393   -67107   -66807   -67023   -67348   -67308   -67089 
  -67057   -67112   -66939   -66822   -67117   -67355   -67138   -66927 
  -67054   -67122   -67011   -67111   -67213   -66977   -66903   -67159 
  -67238   -67196   -67173   -67065   -67093   -67109   -66911   -66922 
  -67099   -67084   -67069   -67073   -66958   -66992   -67167   -67180 
  -67095   -67063   -67031   -67082   -67194   -67108   -67008   -67169 
  -67267   -67096   -66922   -66904   -67008   -67163   -67166   -67001 
  -66992   -67186   -67163   -66792   -66737   -67293   -67498   -67000 
  -66864   -67250   -67304   -67088   -67007   -67045   -67100   -66968 
  -66938   -67281   -67317   -66899   -66815   -67122   -67211   -67055 
  -67034   -67120   -67112   -67103   -67072   -66960   -67073   -67296 
  -67209   -67051   -67047   -67051   -67051   -66957   -66900   -67142 
  -67213   -66966   -67027   -67309   -67304   -67004   -66818   -67100 
  -67336   -66993   -66718   -66981   -67213   -67092   -67000   -67134 
  -67243   -67122   -66951   -67082   -67312   -67194   -66928   -66873 
  -67008   -67234   -67302   -67081   -66911   -67012   -67220   -67266 
  -66969   -66717   -67012   -67319   -67178   -67165   -67192   -66949 
  -66996   -67240   -67103   -66897   -67070   -67251   -67119   -67045 
  -67135   -67139   -67085   -66920   -66831   -67103   -67185   -66933 
  -67000   -67204   -67140   -67082   -67063   -67053   -67238   -67319 
  -67022   -66761   -66883   -67193   -67359   -67213   -66920   -66919 
  -67228   -67243   -66895   -66806   -67090   -67312   -67227   -67061 
  -67053   -67074   -67065   -67039   -66987   -67014   -67139   -67232 
  -67057   -66783   -66978   -67333   -67177   -66973   -67181   -67203 
  -66783   -66607   -67035   -67385   -67140   -66954   -67219   -67336 
  -67065   -66822   -66974   -67359   -67323   -66914   -66950   -67292 
  -67122   -66737   -66845   -67126   -67136   -67022   -67043   -67356 
  -67591   -67325   -66968   -67011   -67244   -67230   -67069   -67192 
  -67358   -67144   -66799   -66596   -66679   -67051   -67252   -67117 
  -66842   -66550   -66727   -67564   -68251   -68154   -67501   -66789 
  -66490   -66784   -67363   -67477   -66872   -66445   -66372   -66163 
  -66505   -67460   -67840   -67456   -66885   -66507   -66599   -67051 
  -67509   -67707   -67695   -67510   -66900   -66468   -67024   -67508 
  -66966   -66748   -67360   -67215   -66329   -66075   -66546   -67344 
  -67824   -67495   -66919   -66634   -66903   -67716   -68242   -67836 
  -67212   -67190   -67007   -66376   -66545   -67201   -66996   -66445 
  -66656   -67423   -67886   -67873   -67528   -66866   -66637   -67000 
  -67130   -67146   -67173   -66731   -66421   -66995   -67622   -67262 
  -66537   -66818   -67705   -67506   -66627   -66808   -67300   -66514 
  -65804   -66665   -67490   -67329   -67486   -67733   -67004   -66496 
  -67288   -67717   -66916   -66845   -67726   -67509   -66468   -66240 
  -66700   -67089   -67427   -67582   -67123   -66768   -67269   -67603 
  -67386   -67741   -67973   -67036   -66536   -67038   -67107   -67030 
  -67069   -66303   -65857   -66816   -67726   -67774   -67551   -67311 
  -66897   -66375   -66540   -67452   -67765   -66927   -66294   -67028 
  -67772   -67147   -66399   -66560   -67085   -67298   -67054   -67055 
  -67309   -66874   -66204   -66401   -67224   -67790   -67674   -66969 
  -66322   -66694   -67751   -67927   -67304   -67193   -67351   -67286 
  -67305   -67153   -66850   -67093   -67466   -67139   -66800   -66996 
  -67061   -66881   -66777   -66970   -67441   -67517   -67177   -67018 
  -67192   -67745   -67876   -66853   -66129   -66897   -67759   -67215 
  -65986   -65753   -66622   -67224   -67095   -66798   -66749   -67167 
  -67420   -67128   -67327   -67517   -66753   -66629   -67184   -66873 
  -66804   -67455   -67379   -66861   -66924   -67319   -67244   -66731 
  -66764   -67520   -67944   -67327   -66555   -66914   -67698   -67605 
  -67250   -67390   -67301   -66795   -66742   -67066   -67186   -67113 
  -66861   -66811   -67348   -67729   -67420   -67015   -66908   -66853 
  -66766   -66702   -66717   -67003   -67277   -67182   -66962   -66901 
  -67154   -67424   -67115   -66737   -67124   -67446   -66847   -66403 
  -66837   -67335   -67431   -67189   -66985   -67252   -67522   -67251 
  -66582   -66337   -66989   -67348   -66974   -67011   -67277   -67000 
  -66935   -67625   -67790   -66918   -66432   -66727   -67054   -67089 
  -66663   -66650   -67833   -68324   -67123   -66348   -66722   -67180 
  -67517   -67568   -67267   -67105   -67039   -66945   -67020   -67000 
  -66857   -66942   -66842   -66438   -66712   -67517   -67564   -67115 
  -67154   -67346   -67239   -67173   -67124   -66787   -66463   -66679 
  -67281   -67373   -66845   -66719   -67186   -67552   -67543   -67336 
  -67135   -66942   -66860   -66993   -67130   -67261   -67373   -67269 
  -67038   -66777   -66776   -67211   -67545   -67446   -67063   -66792 
  -66933   -67041   -66919   -66982   -67225   -67329   -67101   -66750 
  -66926   -67510   -67464   -66881   -66746   -66829   -66623   -66704 
  -67166   -67328   -67358   -67370   -67023   -66943   -67062   -66726 
  -66900   -67556   -67304   -66746   -66849   -67109   -67317   -67614 
  -67379   -66494   -66245   -66935   -67489   -67549   -67167   -66646 
  -66780   -67527   -67809   -67132   -66464   -66703   -67181   -67186 
  -67081   -67068   -67070   -67085   -67142   -67317   -67327   -67131 
  -67084   -67012   -66937   -67074   -67122   -67149   -67147   -66818 
  -66811   -67155   -66980   -66884   -67305   -67279   -66947   -67066 
  -67325   -67204   -66892   -67015   -67332   -67247   -67166   -67159 
  -66900   -66888   -67090   -66989   -67081   -67342   -66947   -66440 
  -66742   -67257   -67170   -66931   -67258   -67694   -67441   -66818 
  -66733   -67296   -67408   -66730   -66766   -67506   -67305   -66634 
  -66669   -67051   -67182   -67153   -67298   -67225   -66918   -67178 
  -67437   -67000   -66777   -67140   -67498   -67518   -67101   -66642 
  -66665   -66892   -67068   -67420   -67347   -66591   -66630   -67477 
  -67529   -67124   -67108   -67192   -67258   -67027   -66549   -66698 
  -67174   -67205   -67069   -66911   -66870   -67292   -67624   -67265 
  -66826   -66933   -67185   -67186   -66946   -66779   -67135   -67290 
  -66648   -66490   -67224   -67475   -66957   -66631   -66939   -67454 
  -67508   -67008   -66694   -67108   -67477   -67158   -67078   -67535 
  -67448   -66897   -66776   -66880   -66888   -67080   -67301   -67238 
  -67159   -67261   -67263   -67045   -66746   -66661   -66996   -67271 
  -67124   -67092   -67203   -66964   -66964   -67390   -67286   -66984 
  -67165   -67116   -66764   -66796   -67047   -67139   -67074   -66950 
  -66892   -66887   -66980   -67331   -67512   -67190   -66978   -67190 
  -67373   -67169   -66818   -66868   -67150   -67149   -66988   -66802 
  -66760   -67105   -67271   -67216   -67509   -67350   -66671   -66874 
  -67441   -67398   -67231   -66988   -66964   -67339   -67225   -66842 
  -66766   -66823   -67062   -67128   -66973   -67128   -67294   -67120 
  -66926   -67072   -67320   -67116   -66771   -66838   -67257   -67543 
  -67140   -66571   -66725   -67297   -67535   -67335   -67112   -67007 
  -66853   -66688   -66756   -67049   -67103   -67018   -67223   -67366 
  -67250   -67113   -67112   -67288   -67178   -66831   -66928   -67255 
  -67347   -67227   -66927   -66734   -66950   -67339   -67460   -67097 
  -66568   -66741   -67354   -67138   -66718   -67054   -67338   -67329 
  -67301   -66977   -66784   -67104   -67248   -67059   -67063   -67078 
  -66800   -66741   -67289   -67601   -67046   -66631   -66862   -67248 
  -67606   -67435   -66776   -66604   -67022   -67366   -67331   -67123 
  -66970   -66943   -67041   -67057   -67049   -67077   -66942   -66930 
  -67155   -67217   -67296   -67404   -67046   -66739   -67066   -67382 
  -67170   -66745   -66645   -67041   -67410   -67323   -67144   -67158 
  -67100   -66922   -66756   -66887   -67304   -67213   -66861   -67043 
  -67215   -67284   -67552   -67235   -66630   -66976   -67508   -67135 
  -66706   -66945   -67167   -67001   -67124   -67232   -66742   -66834 
  -67366   -67170   -67192   -67409   -66885   -66663   -67093   -67258 
  -67174   -67068   -67001   -67019   -67019   -67186   -67212   -66795 
  -66825   -67339   -67312   -67069   -67149   -67124   -67020   -66947 
  -66791   -66924   -67215   -67211   -67182   -67171   -67089   -67162 
  -67177   -67131   -67238   -67027   -66626   -66847   -67230   -67095 
  -66988   -67181   -67338   -67259   -67014   -66937   -66950   -67008 
  -67356   -67439   -67058   -67054   -67309   -67144   -66966   -67149 
  -67165   -66789   -66607   -66968   -67267   -67095   -67065   -67359 
  -67297   -66965   -66973   -67289   -67405   -66946   -66453   -66704 
  -67194   -67190   -66912   -66904   -67255   -67355   -66964   -66783 
  -67027   -67225   -67232   -67024   -66869   -67085   -67224   -67113 
  -67146   -67281   -67315   -67084   -66783   -66834   -66884   -66792 
  -66973   -67095   -67000   -67147   -67383   -67346   -67167   -67174 
  -67297   -67142   -66957   -67223   -67425   -67090   -66837   -66904 
  -66912   -67123   -67279   -66841   -66757   -67352   -67429   -66865 
  -66750   -67320   -67595   -67150   -66745   -66858   -67007   -66895 
  -67058   -67475   -67370   -67057   -67161   -67138   -66849   -66861 
  -67061   -67207   -67227   -66985   -66915   -67304   -67439   -67086 
