Origin Time       2025/03/30 21:30:00
Lat.              38.535
Long.             142.295
Depth. (km)       44
Mag.              4.3
Station Code      MYGH10
Station Lat.      37.9411
Station Long.     140.8924
Station Height(m) -187
Record Time       2025/03/30 21:31:33
Sampling Freq(Hz) 100Hz
Duration Time(s)  120
Dir.              1
Scale Factor      2942(gal)/8224139
Max. Acc. (gal)   0.460
Last Correction   2025/03/30 21:31:33
Memo.             
[...]
   86243    86142    86212    86346    86387    86278    86112    86124 
   86224    86243    86300    86381    86316    86150    86097    86220 
   86337    86329    86259    86251    86297    86273    86259    86313 
   86298    86193    86134    86229    86378    86406    86321    86185 
   86116    86167    86200    86260    86335    86267    86259    86339 
   86240    86162    86302    86394    86294    86157    86131    86263 
   86408    86374    86231    86155    86185    86254    86238    86186 
   86235    86312    86373    86428    86386    86281    86266    86279 
   86166    86142    86331    86387    86259    86243    86283    86219 
   86167    86228    86270    86252    86292    86298    86265    86331 
   86328    86174    86146    86273    86283    86169    86186    86320 
   86395    86389    86275    86169    86259    86422    86355    86088 
   86030    86227    86294    86289    86414    86428    86265    86206 
   86255    86271    86360    86458    86325    86154    86131    86161 
   86265    86354    86304    86258    86274    86279    86265    86239 
   86252    86256    86201    86235    86321    86305    86279    86260 
   86244    86335    86363    86221    86165    86292    86404    86324 
   86120    86058    86205    86263    86150    86186    86364    86409 
   86362    86277    86150    86179    86306    86274    86155    86119 
   86212    86352    86363    86282    86250    86219    86220    86319 
   86355    86244    86107    86084    86211    86331    86325    86290 
   86302    86343    86391    86366    86285    86308    86332    86216 
   86150    86178    86175    86194    86190    86103    86124    86298 
   86363    86304    86327    86377    86324    86256    86231    86233 
   86285    86325    86289    86212    86151    86228    86387    86378 
   86236    86188    86252    86293    86269    86289    86304    86171 
   86085    86240    86382    86340    86289    86292    86314    86316 
   86239    86143    86131    86194    86206    86150    86193    86329 
   86401    86386    86316    86242    86217    86212    86231    86296 
   86293    86242    86293    86351    86323    86347    86429    86373 
   86144    86026    86142    86260    86282    86251    86182    86186 
   86274    86359    86418    86350    86215    86250    86336    86274 
   86208    86248    86310    86321    86286    86243    86209    86233 
   86327    86347    86243    86204    86300    86350    86294    86204 
   86134    86197    86364    86402    86283    86193    86198    86209 
   86182    86217    86269    86259    86283    86283    86211    86252 
   86364    86370    86300    86221    86169    86200    86294    86358 
   86325    86219    86194    86308    86348    86225    86103    86123 
   86263    86350    86285    86235    86300    86317    86244    86259 
   86359    86316    86173    86158    86240    86297    86211    86055 
   86147    86370    86393    86317    86293    86246    86175    86229 
   86348    86317    86250    86304    86358    86292    86169    86144 
   86227    86238    86138    86142    86292    86385    86445    86474 
   86277    86061    86169    86325    86205    86090    86150    86178 
   86201    86275    86333    86377    86343    86242    86224    86283 
   86316    86317    86282    86229    86166    86098    86192    86383 
   86368    86227    86182    86197    86221    86239    86238    86275 
   86336    86329    86244    86198    86270    86348    86339    86281 
   86235    86266    86317    86269    86155    86127    86224    86279 
   86225    86225    86304    86377    86459    86467    86319    86194 
   86236    86246    86073    85950    86093    86393    86556    86387 
   86138    86201    86422    86404    86186    86078    86104    86151 
   86304    86486    86436    86212    86148    86316    86386    86244 
   86177    86200    86128    86089    86251    86421    86319    86163 
   86294    86451    86400    86320    86246    86158    86094    86011 
   86065    86309    86417    86393    86481    86464    86258    86202 
   86292    86310    86279    86236    86227    86224    86158    86157 
   86233    86277    86312    86321    86323    86308    86197    86152 
   86287    86385    86335    86212    86116    86236    86451    86323 
   86007    86022    86297    86482    86404    86142    86026    86163 
   86358    86405    86290    86263    86385    86325    86023    85949 
   86266    86474    86350    86271    86401    86447    86286    86174 
   86242    86287    86215    86151    86182    86219    86182    86194 
   86263    86293    86389    86452    86296    86136    86154    86247 
   86329    86347    86323    86348    86377    86301    86236    86275 
   86256    86128    86015    85999    86175    86402    86339    86158 
   86271    86555    86610    86339    86096    86177    86292    86216 
   86194    86270    86305    86323    86301    86162    86089    86233 
   86336    86228    86125    86209    86313    86232    86220    86467 
   86582    86351    86113    86117    86267    86329    86243    86200 
   86223    86201    86228    86281    86267    86292    86275    86185 
   86232    86355    86321    86155    86055    86151    86320    86401 
   86391    86333    86321    86350    86258    86158    86246    86367 
   86412    86374    86154    86024    86200    86286    86197    86215 
   86282    86290    86239    86192    86220    86300    86472    86547 
   86296    86108    86161    86189    86258    86329    86188    86143 
   86354    86389    86270    86306    86325    86259    86266    86279 
   86279    86248    86124    86039    86057    86178    86375    86443 
   86359    86270    86202    86247    86362    86292    86163    86240 
   86290    86173    86165    86313    86394    86298    86146    86116 
   86194    86254    86267    86259    86248    86294    86354    86319 
   86255    86251    86271    86286    86308    86308    86278    86282 
   86309    86336    86246    85984    85935    86262    86502    86405 
   86229    86219    86319    86344    86373    86435    86297    86154 
   86232    86227    86177    86287    86316    86260    86260    86239 
   86277    86358    86313    86215    86154    86135    86170    86197 
   86202    86196    86124    86109    86277    86414    86418    86408 
   86332    86204    86177    86186    86212    86333    86362    86196 
   86117    86229    86292    86232    86205    86224    86217    86290 
   86448    86410    86161    86127    86390    86486    86325    86202 
   86179    86256    86382    86383    86283    86174    86152    86271 
   86316    86256    86308    86331    86158    86028    86154    86310 
   86220    86031    86062    86293    86444    86410    86317    86289 
   86348    86352    86217    86113    86185    86343    86350    86161 
   86051    86112    86174    86290    86393    86254    86163    86351 
   86418    86323    86339    86354    86364    86472    86463    86256 
   86035    86019    86220    86283    86135    86123    86238    86352 
   86456    86314    86111    86260    86464    86425    86329    86225 
   86139    86146    86227    86306    86262    86238    86360    86282 
   86036    86143    86455    86416    86148    86074    86169    86219 
   86248    86373    86400    86252    86242    86278    86140    86136 
   86310    86310    86267    86409    86443    86251    86159    86243 
   86352    86468    86478    86220    86005    86139    86282    86252 
   86319    86363    86186    86152    86440    86567    86355    86173 
   86090    86044    86135    86252    86332    86377    86216    86035 
   86201    86478    86489    86348    86231    86121    86051    86092 
   86204    86317    86401    86344    86175    86144    86277    86374 
   86375    86347    86313    86313    86389    86346    86115    86035 
   86154    86146    86059    86186    86329    86225    86224    86459 
   86524    86417    86401    86375    86233    86063    85963    86050 
   86309    86451    86325    86212    86274    86306    86239    86231 
   86312    86340    86346    86435    86377    86036    85868    86092 
   86255    86202    86247    86327    86290    86354    86468    86331 
   86117    86103    86105    86107    86251    86339    86319    86331 
   86321    86283    86220    86105    86127    86363    86518    86325 
   86044    86143    86467    86525    86351    86170    86050    86112 
   86238    86125    85943    86054    86282    86270    86212    86341 
   86502    86607    86591    86405    86248    86182    86166    86255 
   86278    86125    86058    86139    86190    86242    86344    86377 
   86296    86220    86219    86224    86227    86335    86437    86328 
   86233    86340    86347    86205    86098    86012    86062    86231 
   86300    86301    86278    86287    86390    86404    86312    86297 
   86329    86296    86171    86059    86124    86251    86225    86182 
   86219    86170    86150    86267    86328    86355    86366    86320 
   86359    86393    86405    86439    86248    86081    86250    86379 
   86348    86383    86413    86337    86169    86024    86080    86248 
   86344    86370    86343    86220    86065    86082    86348    86487 
   86265    86100    86181    86215    86181    86138    86071    86125 
   86286    86364    86278    86217    86363    86409    86221    86189 
   86263    86179    86170    86321    86421    86441    86406    86258 
   86104    86181    86317    86177    86032    86248    86505    86445 
   86363    86435    86336    86092    86035    86178    86366    86412 
   86219    86044    86127    86314    86398    86382    86367    86351 
   86248    86100    86051    86174    86360    86351    86159    86155 
   86293    86310    86420    86551    86359    86108    86101    86170 
   86202    86308    86336    86112    86062    86313    86413    86385 
   86333    86162    86159    86404    86459    86297    86304    86401 
   86317    86243    86316    86337    86287    86246    86173    86146 
   86182    86162    86216    86452    86541    86320    86093    86071 
   86128    86143    86250    86418    86381    86266    86325    86371 
   86223    86078    86112    86175    86121    86073    86123    86115 
   86073    86232    86445    86451    86386    86387    86394    86379 
   86324    86247    86313    86525    86555    86314    86078    86049 
   86255    86437    86335    86202    86216    86143    86113    86332 
   86431    86265    86196    86277    86317    86317    86286    86255 
   86273    86260    86242    86301    86270    86074    86040    86250 
   86313    86193    86233    86351    86282    86186    86185    86131 
   86090    86239    86409    86391    86266    86142    86128    86294 
   86458    86409    86219    86097    86144    86279    86275    86105 
   86121    86332    86390    86301    86201    86202    86377    86478 
   86362    86296    86397    86455    86393    86286    86151    86112 
   86277    86435    86359    86209    86128    86013    86069    86416 
   86562    86332    86152    86194    86319    86375    86321    86244 
   86193    86194    86273    86319    86304    86271    86166    86089 
   86115    86157    86296    86443    86363    86266    86306    86294 
   86194    86043    85922    86061    86329    86340    86190    86178 
   86219    86215    86233    86231    86225    86296    86374    86363 
   86238    86111    86171    86354    86386    86300    86262    86209 
   86229    86433    86551    86437    86298    86352    86602    86726 
   86516    86228    86089    86004    85887    85801    85777    85801 
   85945    86200    86470    86618    86571    86543    86605    86545 
   86358    86224    86251    86269    86069    85888    85941    85982 
   85920    85950    86109    86352    86547    86501    86260    86121 
   86331    86634    86603    86379    86302    86381    86437    86343 
   86167    86082    86167    86271    86134    85943    85978    86032 
   85961    85909    85908    86027    86418    86854    86941    86779 
   86657    86485    86201    86027    86004    86070    86246    86368 
   86400    86501    86483    86306    86337    86468    86329    86071 
   85957    85899    85754    85730    86038    86329    86292    86205 
   86359    86703    86914    86814    86641    86479    86250    86024 
   85725    85486    85777    86347    86390    85963    85830    86092 
   86319    86517    86709    86630    86383    86217    86285    86620 
   86790    86533    86250    86189    86146    85999    85955    86211 
   86429    86179    85753    85723    86098    86429    86479    86456 
   86428    86198    85954    86130    86625    86956    86860    86339 
   85742    85641    85957    86084    86011    86159    86589    87018 
   87079    86636    86069    85839    85903    86022    86213    86297 
   86088    85888    85973    86404    86922    86890    86489    86521 
   86729    86462    86069    85969    85872    85656    85596    85819 
   86247    86603    86687    86576    86352    86215    86285    86260 
   86104    85972    85766    85752    86107    86468    86752    86769 
   86321    86101    86472    86744    86435    85912    85891    86350 
   86476    86144    86038    86246    86328    86358    86448    86329 
   86147    86194    86292    86321    86393    86544    86671    86481 
   86035    85889    86090    86229    86287    86405    86483    86491 
   86389    86031    85626    85498    85644    85923    86042    85801 
   85672    86297    87289    87548    86962    86509    86676    87019 
   87046    86678    86186    85850    85598    85383    85423    85739 
   86015    86080    86097    86138    86244    86464    86460    86116 
   85995    86351    86601    86510    86697    87091    86845    86109 
   85766    85997    86377    86533    86373    86101    85889    85824 
   86074    86425    86464    86387    86401    86297    86398    86869 
   86883    86281    85946    86171    86427    86348    86081    85766 
   85355    85106    85541    86429    86848    86545    86094    85882 
   85849    85908    86131    86424    86506    86436    86567    86836 
   86854    86711    86717    86705    86560    86441    86333    86250 
   86173    86053    86085    86086    85747    85544    85795    86103 
   86414    86807    86910    86664    86277    85851    85689    85900 
   86293    86711    86850    86570    86093    85714    85784    86227 
   86602    86736    86462    85918    85711    85876    86015    86103 
   86292    86503    86518    86383    86343    86364    86246    86057 
   86001    86117    86273    86216    85970    85928    86171    86379 
   86447    86472    86490    86526    86466    86220    86116    86292 
   86358    86247    86312    86476    86501    86544    86607    86536 
   86437    86374    86283    86017    85575    85434    85737    86043 
   86328    86703    86892    86776    86451    86004    85801    86127 
   86517    86478    86100    85669    85527    85834    86260    86470 
   86574    86603    86374    86186    86409    86670    86468    86040 
   86019    86306    86238    85864    85722    85936    86367    86836 
   86991    86516    85853    85965    86682    86753    86027    85568 
   85818    86327    86676    86744    86568    86413    86587    86857 
   86663    86135    85882    85932    85970    85945    85835    85738 
   85834    85897    85874    86185    86822    87195    86779    85965 
   85773    86297    86822    86948    86625    86135    85969    86189 
   86366    86323    86301    86279    86096    85965    86036    86179 
   86316    86265    85976    85897    86221    86491    86441    86251 
   86140    86188    86238    86139    85993    86026    86327    86551 
   86432    86271    86270    86373    86535    86547    86458    86495 
   86429    86197    86127    86147    86078    86081    86148    86157 
   86143    86080    85984    86059    86298    86513    86691    86757 
   86491    86100    86124    86432    86251    85668    85536    85965 
   86501    86802    86667    86428    86528    86725    86653    86395 
   86208    86135    85939    85614    85617    86119    86618    86690 
   86445    86125    85869    85780    85947    86254    86363    86188 
   85920    85958    86541    86969    86718    86571    86780    86668 
   86406    86246    85808    85430    85585    85789    85858    86304 
   86809    86698    86400    86350    86312    86343    86526    86610 
   86429    85993    85712    86001    86394    86301    85887    85569 
   85707    86352    86996    87111    86651    86148    86206    86647 
   86834    86533    85999    85669    85617    85618    85831    86412 
   86894    86884    86633    86456    86367    86317    86190    85954 
   85869    85984    86043    86071    86281    86541    86535    86231 
   85941    86022    86323    86314    86136    86202    86296    86287 
   86282    86181    86171    86449    86582    86335    86150    86248 
   86427    86579    86729    86822    86601    85980    85484    85554 
   85888    86071    86121    86186    86217    86228    86525    86926 
   86791    86400    86302    86248    86185    86171    85918    85722 
   85951    86336    86675    86636    86036    85764    86244    86601 
   86549    86557    86517    86240    86053    86098    86150    86200 
   86359    86379    86162    86015    85966    85919    85924    85843 
   85824    86161    86427    86491    86778    86921    86630    86472 
   86547    86445    86236    86258    86431    86468    86370    86209 
   85989    85822    85872    86046    86031    85893    85909    86076 
   86424    86773    86691    86359    86155    86012    85980    86224 
   86530    86536    86336    86266    86260    86289    86447    86535 
   86526    86481    86290    86142    86202    86340    86451    86429 
   86240    86097    86097    86088    86049    86044    85986    85953 
   86121    86305    86289    86205    86103    85807    85595    85922 
   86300    86235    86209    86404    86556    86680    86728    86701 
   86674    86397    85999    85976    86162    86229    86340    86460 
   86383    86352    86516    86501    86130    85646    85410    85595 
   85973    86283    86491    86625    86737    86898    87053    87070 
   86906    86521    86042    85893    86027    86020    86000    86089 
   85959    85774    86073    86490    86363    86050    85999    85982 
   86028    86381    86776    86719    86166    85671    85684    85953 
   86105    86247    86483    86510    86270    86227    86540    86772 
   86692    86552    86428    86273    86250    86348    86433    86498 
   86471    86431    86556    86640    86501    86327    86221    86116 
   85916    85681    85743    86082    86242    86198    86263    86309 
   86109    85877    85806    85804    85882    86205    86568    86518 
   86339    86512    86760    86854    86806    86433    86022    85968 
   86019    86042    86217    86387    86350    86225    86115    86078 
   86278    86611    86698    86472    86206    86089    86150    86263 
   86293    86356    86549    86670    86490    86190    86158    86246 
   86108    85961    86096    86314    86285    86061    85982    86178 
   86378    86333    86271    86368    86393    86298    86255    86231 
   86231    86387    86533    86323    86046    86175    86320    86217 
