Origin Time       2025/03/30 21:30:00
Lat.              38.535
Long.             142.295
Depth. (km)       44
Mag.              4.3
Station Code      MYGH14
Station Lat.      38.3400
Station Long.     140.9551
Station Height(m) -986
Record Time       2025/03/30 21:31:28
Sampling Freq(Hz) 100Hz
Duration Time(s)  120
Dir.              1
Scale Factor      7845(gal)/8223790
Max. Acc. (gal)   0.491
Last Correction   2025/03/30 21:31:28
Memo.             
[...]
   -6076    -6079    -6077    -6076    -6076    -6073    -6073    -6076 
   -6079    -6076    -6076    -6077    -6077    -6075    -6077    -6079 
   -6075    -6076    -6079    -6075    -6072    -6077    -6080    -6077 
   -6075    -6076    -6079    -6077    -6076    -6077    -6076    -6076 
   -6079    -6077    -6076    -6075    -6073    -6073    -6075    -6073 
   -6076    -6079    -6076    -6076    -6076    -6075    -6077    -6076 
   -6075    -6076    -6075    -6073    -6073    -6076    -6077    -6080 
   -6079    -6076    -6076    -6077    -6076    -6075    -6076    -6079 
   -6079    -6076    -6075    -6073    -6076    -6076    -6075    -6076 
   -6077    -6077    -6076    -6075    -6075    -6076    -6076    -6079 
   -6076    -6073    -6076    -6077    -6076    -6079    -6077    -6073 
   -6075    -6076    -6075    -6075    -6077    -6077    -6075    -6075 
   -6076    -6076    -6076    -6077    -6079    -6075    -6070    -6072 
   -6076    -6075    -6070    -6072    -6077    -6076    -6072    -6072 
   -6077    -6079    -6076    -6073    -6077    -6081    -6081    -6075 
   -6065    -6064    -6072    -6084    -6093    -6087    -6068    -6060 
   -6066    -6076    -6077    -6075    -6075    -6069    -6064    -6076 
   -6085    -6081    -6076    -6070    -6070    -6083    -6081    -6073 
   -6080    -6079    -6061    -6060    -6080    -6087    -6075    -6065 
   -6065    -6072    -6093    -6108    -6089    -6069    -6066    -6060 
   -6061    -6070    -6058    -6060    -6097    -6107    -6084    -6081 
   -6084    -6072    -6077    -6085    -6058    -6045    -6070    -6084 
   -6081    -6084    -6060    -6041    -6073    -6107    -6089    -6066 
   -6070    -6088    -6103    -6089    -6057    -6048    -6052    -6060 
   -6084    -6103    -6100    -6072    -6045    -6060    -6084    -6080 
   -6075    -6072    -6068    -6087    -6091    -6054    -6046    -6088 
   -6104    -6076    -6061    -6087    -6106    -6084    -6053    -6039 
   -6045    -6072    -6091    -6079    -6068    -6066    -6077    -6106 
   -6110    -6081    -6079    -6097    -6083    -6041    -6045    -6084 
   -6083    -6058    -6061    -6058    -6048    -6068    -6122    -6149 
   -6103    -6026    -6019    -6085    -6112    -6070    -6046    -6068 
   -6080    -6072    -6076    -6077    -6066    -6091    -6104    -6060 
   -6058    -6112    -6115    -6066    -6018    -6011    -6069    -6119 
   -6106    -6072    -6065    -6096    -6100    -6056    -6057    -6087 
   -6064    -6038    -6049    -6076    -6115    -6114    -6068    -6058 
   -6068    -6065    -6073    -6083    -6096    -6100    -6068    -6045 
   -6065    -6081    -6072    -6072    -6083    -6077    -6053    -6042 
   -6066    -6079    -6061    -6073    -6099    -6070    -6050    -6097 
   -6120    -6085    -6068    -6085    -6077    -6042    -6062    -6102 
   -6062    -6023    -6049    -6089    -6102    -6081    -6084    -6126 
   -6127    -6058    -6018    -6068    -6114    -6068    -6014    -6049 
   -6122    -6135    -6097    -6083    -6081    -6060    -6053    -6060 
   -6072    -6102    -6099    -6061    -6060    -6076    -6066    -6056 
   -6087    -6124    -6093    -6049    -6054    -6070    -6073    -6087 
   -6085    -6060    -6064    -6091    -6091    -6073    -6054    -6045 
   -6079    -6115    -6085    -6045    -6061    -6093    -6093    -6062 
   -6052    -6068    -6073    -6070    -6073    -6093    -6106    -6079 
   -6058    -6070    -6083    -6073    -6064    -6075    -6077    -6089 
   -6095    -6060    -6058    -6095    -6095    -6081    -6068    -6069 
   -6097    -6084    -6060    -6080    -6077    -6057    -6062    -6079 
   -6107    -6112    -6076    -6057    -6057    -6057    -6077    -6088 
   -6060    -6057    -6089    -6097    -6108    -6107    -6042    -6016 
   -6057    -6066    -6091    -6142    -6103    -6012    -6018    -6081 
   -6089    -6079    -6107    -6106    -6068    -6065    -6088    -6084 
   -6049    -6049    -6089    -6064    -6033    -6096    -6119    -6068 
   -6065    -6073    -6058    -6068    -6088    -6107    -6097    -6073 
   -6083    -6072    -6058    -6092    -6100    -6064    -6054    -6070 
   -6075    -6075    -6080    -6077    -6081    -6089    -6064    -6058 
   -6084    -6080    -6077    -6088    -6076    -6068    -6070    -6072 
   -6083    -6085    -6087    -6099    -6081    -6038    -6046    -6091 
   -6088    -6050    -6043    -6061    -6093    -6122    -6103    -6080 
   -6068    -6042    -6064    -6104    -6084    -6077    -6077    -6049 
   -6058    -6080    -6080    -6096    -6083    -6050    -6070    -6081 
   -6061    -6080    -6095    -6073    -6091    -6110    -6079    -6062 
   -6089    -6107    -6099    -6075    -6049    -6050    -6077    -6077 
   -6060    -6072    -6072    -6062    -6084    -6100    -6110    -6099 
   -6039    -6022    -6079    -6112    -6096    -6080    -6075    -6065 
   -6058    -6053    -6049    -6062    -6081    -6089    -6085    -6079 
   -6099    -6103    -6070    -6072    -6081    -6049    -6045    -6080 
   -6087    -6072    -6066    -6065    -6070    -6088    -6087    -6073 
   -6081    -6096    -6096    -6097    -6083    -6060    -6065    -6065 
   -6058    -6072    -6084    -6080    -6083    -6081    -6060    -6069 
   -6108    -6084    -6046    -6064    -6081    -6083    -6091    -6095 
   -6108    -6108    -6070    -6058    -6070    -6057    -6065    -6085 
   -6058    -6054    -6096    -6102    -6080    -6070    -6064    -6073 
   -6088    -6079    -6069    -6084    -6073    -6049    -6083    -6102 
   -6052    -6054    -6104    -6081    -6052    -6106    -6135    -6054 
   -5999    -6058    -6116    -6088    -6060    -6064    -6058    -6073 
   -6111    -6114    -6077    -6041    -6054    -6099    -6099    -6069 
   -6057    -6064    -6075    -6077    -6081    -6075    -6057    -6062 
   -6087    -6103    -6108    -6072    -6039    -6070    -6091    -6065 
   -6075    -6110    -6110    -6076    -6060    -6076    -6061    -6030 
   -6068    -6095    -6068    -6092    -6124    -6073    -6039    -6073 
   -6088    -6081    -6092    -6083    -6039    -6039    -6089    -6087 
   -6052    -6073    -6087    -6075    -6097    -6102    -6068    -6077 
   -6097    -6065    -6052    -6081    -6080    -6064    -6066    -6070 
   -6080    -6100    -6095    -6062    -6054    -6076    -6083    -6064 
   -6058    -6061    -6066    -6096    -6112    -6079    -6060    -6099 
   -6107    -6061    -6058    -6083    -6080    -6081    -6083    -6064 
   -6053    -6062    -6079    -6068    -6048    -6072    -6102    -6100 
   -6096    -6083    -6073    -6108    -6108    -6031    -5996    -6053 
   -6092    -6084    -6089    -6097    -6085    -6080    -6081    -6080 
   -6052    -6030    -6073    -6104    -6084    -6076    -6075    -6065 
   -6061    -6060    -6072    -6084    -6085    -6077    -6066    -6079 
   -6088    -6083    -6103    -6097    -6045    -6049    -6107    -6095 
   -6056    -6061    -6064    -6062    -6072    -6068    -6076    -6075 
   -6048    -6064    -6107    -6100    -6085    -6085    -6069    -6075 
   -6100    -6087    -6061    -6064    -6070    -6057    -6069    -6095 
   -6065    -6048    -6093    -6116    -6096    -6084    -6062    -6026 
   -6030    -6089    -6131    -6095    -6039    -6058    -6096    -6084 
   -6089    -6102    -6064    -6042    -6061    -6103    -6142    -6096 
   -6022    -6035    -6073    -6083    -6079    -6052    -6033    -6048 
   -6088    -6123    -6110    -6070    -6054    -6064    -6076    -6064 
   -6064    -6083    -6068    -6068    -6108    -6108    -6064    -6042 
   -6073    -6104    -6089    -6079    -6062    -6048    -6084    -6100 
   -6073    -6070    -6076    -6087    -6102    -6085    -6061    -6058 
   -6076    -6080    -6048    -6046    -6085    -6110    -6114    -6093 
   -6069    -6068    -6065    -6080    -6088    -6042    -6030    -6077 
   -6085    -6077    -6093    -6087    -6075    -6068    -6057    -6092 
   -6111    -6052    -6066    -6124    -6066    -6022    -6075    -6083 
   -6049    -6066    -6091    -6076    -6066    -6089    -6107    -6093 
   -6073    -6061    -6058    -6064    -6058    -6061    -6080    -6093 
   -6093    -6072    -6058    -6083    -6099    -6081    -6061    -6061 
   -6077    -6081    -6079    -6089    -6089    -6062    -6052    -6084 
   -6102    -6089    -6088    -6084    -6064    -6066    -6076    -6056 
   -6045    -6064    -6076    -6087    -6099    -6075    -6058    -6089 
   -6088    -6060    -6075    -6075    -6037    -6054    -6107    -6122 
   -6103    -6054    -6038    -6084    -6088    -6052    -6048    -6061 
   -6095    -6134    -6119    -6072    -6043    -6048    -6069    -6096 
   -6100    -6064    -6041    -6062    -6085    -6095    -6100    -6093 
   -6070    -6045    -6058    -6092    -6080    -6060    -6069    -6072 
   -6077    -6075    -6065    -6083    -6085    -6064    -6076    -6093 
   -6079    -6080    -6083    -6043    -6046    -6102    -6103    -6066 
   -6057    -6068    -6093    -6114    -6084    -6038    -6045    -6085 
   -6097    -6061    -6025    -6064    -6127    -6104    -6050    -6064 
   -6088    -6089    -6103    -6088    -6042    -6053    -6085    -6076 
   -6081    -6083    -6056    -6060    -6073    -6066    -6073    -6081 
   -6070    -6070    -6096    -6106    -6087    -6104    -6112    -6064 
   -6060    -6088    -6049    -6002    -6015    -6065    -6104    -6099 
   -6085    -6107    -6100    -6061    -6085    -6102    -6052    -6049 
   -6077    -6073    -6080    -6107    -6111    -6077    -6042    -6038 
   -6061    -6096    -6102    -6053    -6031    -6072    -6099    -6088 
   -6068    -6068    -6084    -6064    -6046    -6084    -6103    -6092 
   -6119    -6124    -6054    -6016    -6061    -6083    -6070    -6070 
   -6043    -6029    -6095    -6126    -6062    -6048    -6106    -6119 
   -6089    -6077    -6081    -6076    -6057    -6043    -6056    -6093 
   -6095    -6033    -6039    -6127    -6112    -6052    -6077    -6085 
   -6068    -6087    -6107    -6107    -6077    -6050    -6062    -6077 
   -6084    -6073    -6043    -6064    -6099    -6065    -6027    -6048 
   -6077    -6102    -6104    -6084    -6091    -6106    -6103    -6107 
   -6085    -6039    -6056    -6087    -6050    -6034    -6054    -6030 
   -6022    -6076    -6100    -6072    -6056    -6107    -6172    -6141 
   -6062    -6052    -6075    -6061    -6041    -6066    -6091    -6033 
   -6002    -6088    -6153    -6133    -6091    -6061    -6076    -6099 
   -6079    -6041    -6027    -6049    -6079    -6081    -6065    -6072 
   -6103    -6115    -6108    -6096    -6080    -6062    -6048    -6046 
   -6064    -6089    -6096    -6097    -6108    -6118    -6108    -6076 
   -6015    -5992    -6064    -6119    -6077    -6018    -6011    -6060 
   -6091    -6066    -6072    -6096    -6075    -6087    -6146    -6134 
   -6076    -6076    -6087    -6058    -6038    -6025    -6016    -6054 
   -6092    -6091    -6088    -6097    -6092    -6073    -6062    -6068 
   -6075    -6073    -6077    -6081    -6096    -6114    -6095    -6060 
   -6066    -6087    -6075    -6052    -6041    -6049    -6076    -6107 
   -6122    -6100    -6073    -6069    -6083    -6097    -6087    -6069 
   -6052    -6035    -6052    -6075    -6079    -6091    -6103    -6096 
   -6069    -6053    -6070    -6092    -6124    -6123    -6039    -5995 
   -6025    -6046    -6093    -6145    -6110    -6052    -6039    -6072 
   -6110    -6095    -6062    -6064    -6075    -6080    -6066    -6060 
   -6097    -6115    -6042    -5988    -6035    -6088    -6088    -6087 
   -6099    -6104    -6088    -6075    -6080    -6073    -6076    -6097 
   -6089    -6075    -6075    -6065    -6080    -6096    -6072    -6062 
   -6066    -6066    -6081    -6080    -6038    -6016    -6060    -6112 
   -6124    -6130    -6119    -6053    -6016    -6043    -6045    -6023 
   -6049    -6097    -6099    -6072    -6093    -6120    -6091    -6058 
   -6042    -6053    -6097    -6097    -6068    -6060    -6053    -6093 
   -6157    -6112    -6011    -5991    -6035    -6095    -6118    -6068 
   -6045    -6089    -6112    -6116    -6103    -6054    -6049    -6085 
   -6068    -6029    -6054    -6108    -6096    -6025    -6004    -6070 
   -6120    -6111    -6089    -6068    -6064    -6096    -6130    -6138 
   -6111    -6052    -6030    -6069    -6083    -6037    -5996    -6014 
   -6066    -6097    -6108    -6119    -6099    -6048    -6041    -6091 
   -6102    -6083    -6106    -6104    -6050    -6052    -6066    -6015 
   -6004    -6084    -6134    -6111    -6065    -6061    -6115    -6126 
   -6053    -6026    -6060    -6070    -6084    -6088    -6053    -6065 
   -6120    -6103    -6054    -6048    -6054    -6069    -6104    -6145 
   -6153    -6103    -6049    -6025    -6027    -6066    -6079    -6035 
   -6029    -6066    -6064    -6057    -6107    -6142    -6100    -6039 
   -6039    -6073    -6077    -6077    -6093    -6087    -6068    -6069 
   -6099    -6111    -6037    -5985    -6054    -6097    -6081    -6089 
   -6083    -6091    -6139    -6124    -6061    -6010    -5984    -6015 
   -6057    -6054    -6075    -6154    -6192    -6120    -6033    -6027 
   -6065    -6072    -6070    -6103    -6120    -6096    -6079    -6066 
   -6043    -6021    -6015    -6037    -6056    -6062    -6097    -6149 
   -6176    -6177    -6137    -6070    -6003    -5949    -5960    -6003 
   -6054    -6147    -6192    -6162    -6147    -6141    -6112    -6093 
   -6060    -5956    -5926    -6102    -6274    -6266    -6210    -6146 
   -5954    -5725    -5636    -5676    -5821    -6092    -6409    -6590 
   -6519    -6261    -6010    -5899    -5881    -5888    -5942    -6046 
   -6189    -6340    -6354    -6178    -5992    -5917    -5876    -5823 
   -5840    -5981    -6162    -6269    -6284    -6264    -6189    -6046 
   -5946    -5925    -5979    -6157    -6304    -6253    -6077    -5840 
   -5649    -5768    -6127    -6339    -6318    -6212    -6124    -6103 
   -6053    -5933    -5876    -5987    -6200    -6277    -6151    -6027 
   -5969    -5917    -5944    -6080    -6201    -6238    -6187    -6064 
   -5940    -5906    -6004    -6145    -6201    -6196    -6120    -6018 
   -6030    -6088    -6150    -6253    -6266    -6184    -6091    -5984 
   -5958    -6030    -6085    -6106    -6085    -5989    -5890    -5930 
   -6021    -5941    -5879    -6076    -6280    -6253    -6160    -6154 
   -6210    -6266    -6215    -6064    -5962    -5917    -5922    -6000 
   -6030    -5969    -5898    -5876    -5958    -6076    -6153    -6204 
   -6212    -6184    -6145    -6118    -6187    -6224    -6104    -6077 
   -6183    -6108    -5923    -5917    -6025    -6084    -6092    -6050 
   -5989    -5969    -6008    -6097    -6134    -6056    -6008    -6135 
   -6318    -6293    -6122    -6099    -6161    -6120    -6056    -5988 
   -5890    -5864    -5954    -6085    -6139    -6106    -6103    -6141 
   -6138    -6124    -6138    -6080    -5948    -5919    -6041    -6141 
   -6142    -6107    -6073    -6049    -6033    -5992    -5956    -5967 
   -5987    -6008    -6081    -6170    -6223    -6228    -6177    -6127 
   -6122    -6122    -6116    -6061    -6007    -6046    -6023    -5953 
   -6000    -6019    -5925    -5926    -6119    -6291    -6255    -6160 
   -6110    -6108    -6232    -6288    -6076    -5918    -6023    -6107 
   -5983    -5859    -5929    -6053    -6021    -5923    -6003    -6200 
   -6265    -6193    -6106    -6029    -6027    -6127    -6227    -6239 
   -6165    -6060    -6004    -6023    -6021    -5942    -5908    -5985 
   -6096    -6150    -6092    -6029    -6115    -6220    -6161    -6035 
   -6010    -6069    -6104    -6106    -6111    -6056    -5965    -6004 
   -6147    -6208    -6138    -6019    -5921    -5902    -6011    -6153 
   -6170    -6065    -6015    -6145    -6239    -6066    -5886    -5930 
   -6057    -6185    -6210    -6042    -5948    -6112    -6257    -6158 
   -6057    -6072    -6018    -6012    -6130    -6161    -6081    -5957 
   -5894    -5989    -6110    -6129    -6087    -6099    -6170    -6149 
   -6068    -6097    -6185    -6211    -6110    -5948    -5942    -6065 
   -6119    -6088    -6031    -6006    -6035    -6066    -6062    -6042 
   -6027    -6026    -6075    -6168    -6174    -6089    -6091    -6100 
   -5991    -6033    -6259    -6297    -6133    -6014    -5979    -5954 
   -5892    -5854    -5915    -6022    -6089    -6134    -6231    -6313 
   -6224    -6034    -6037    -6253    -6284    -6015    -5844    -5949 
   -6066    -6058    -6015    -5946    -5941    -6065    -6157    -6131 
   -6068    -6081    -6183    -6197    -6134    -6088    -5968    -5918 
   -6052    -6108    -6072    -6103    -6093    -6016    -6011    -6097 
   -6183    -6162    -6066    -6019    -6060    -6120    -6110    -6041 
   -6037    -6072    -6066    -6124    -6208    -6120    -5954    -5948 
   -6111    -6176    -6058    -6095    -6204    -6049    -5902    -5965 
   -6060    -6146    -6141    -6075    -6149    -6218    -6142    -6023 
   -5902    -5919    -6052    -6045    -6008    -6084    -6150    -6216 
   -6238    -6106    -5980    -6000    -6092    -6129    -6060    -6012 
   -6023    -5981    -5987    -6088    -6111    -6104    -6143    -6107 
   -5996    -5940    -6073    -6318    -6269    -5969    -5907    -6052 
   -6081    -6030    -6004    -5981    -6077    -6250    -6224    -6088 
   -6066    -6092    -6143    -6193    -6127    -6033    -5987    -5925 
   -5922    -6066    -6178    -6130    -6111    -6154    -6083    -6011 
   -6061    -6061    -5972    -5938    -5976    -6068    -6176    -6154 
   -6087    -6157    -6183    -6026    -5918    -6022    -6203    -6222 
   -6076    -5985    -6021    -6054    -6062    -6124    -6178    -6153 
   -6126    -6120    -6100    -6042    -6010    -6068    -6034    -5957 
   -6099    -6196    -6029    -5925    -6026    -6095    -6048    -5995 
   -5954    -5981    -6143    -6243    -6204    -6177    -6133    -6070 
   -6097    -6169    -6130    -6011    -6031    -6112    -6035    -5964 
   -6022    -6025    -5931    -5896    -5969    -6123    -6224    -6183 
   -6181    -6292    -6308    -6130    -5975    -6026    -6042    -5898 
   -5921    -6173    -6264    -6093    -5937    -5931    -6031    -6104 
   -6048    -6073    -6215    -6173    -6072    -6108    -6100    -6052 
   -6072    -6081    -6057    -6027    -5989    -5998    -6038    -6073 
   -6110    -6111    -6087    -6079    -6060    -6052    -6060    -6000 
   -5964    -6081    -6166    -6084    -6012    -6062    -6158    -6166 
   -6049    -5973    -6057    -6133    -6088    -6103    -6200    -6168 
   -6049    -6000    -5964    -5958    -6106    -6250    -6191    -6053 
   -6068    -6196    -6174    -5996    -5930    -5998    -6042    -6054 
   -6060    -6068    -6096    -6120    -6114    -6073    -6069    -6131 
   -6137    -6087    -6104    -6100    -6019    -5987    -6039    -6080 
   -6019    -5944    -6012    -6089    -6080    -6172    -6249    -6116 
   -6018    -6099    -6124    -6035    -6010    -6041    -6056    -6102 
   -6110    -6000    -5957    -6061    -6088    -6056    -6092    -6087 
   -6062    -6116    -6138    -6103    -6081    -6072    -6070    -6103 
   -6135    -6095    -6019    -6016    -6087    -6102    -6011    -6039 
   -6189    -6131    -5996    -6076    -6133    -6054    -6077    -6142 
   -6077    -5996    -6019    -6115    -6192    -6189    -6110    -5988 
