Origin Time       2025/03/30 21:30:00
Lat.              38.535
Long.             142.295
Depth. (km)       44
Mag.              4.3
Station Code      MYGH09
Station Lat.      38.0091
Station Long.     140.6027
Station Height(m) 30
Record Time       2025/03/30 21:31:38
Sampling Freq(Hz) 100Hz
Duration Time(s)  120
Dir.              2
Scale Factor      2942(gal)/8224139
Max. Acc. (gal)   0.189
Last Correction   2025/03/30 21:31:38
Memo.             
[...]
   52801    52806    52840    52868    52855    52813    52799    52812 
   52813    52822    52832    52839    52875    52897    52851    52790 
   52782    52816    52836    52836    52840    52820    52780    52768 
   52785    52818    52856    52872    52864    52848    52826    52816 
   52817    52830    52857    52874    52867    52863    52849    52787 
   52722    52721    52743    52740    52747    52780    52830    52857 
   52829    52817    52882    52934    52907    52843    52809    52828 
   52855    52874    52883    52860    52833    52821    52789    52748 
   52743    52785    52825    52812    52775    52794    52859    52894 
   52866    52847    52871    52867    52798    52721    52720    52793 
   52841    52843    52855    52879    52870    52859    52875    52852 
   52801    52799    52805    52775    52762    52767    52774    52805 
   52857    52890    52879    52855    52859    52883    52917    52932 
   52888    52830    52797    52751    52736    52776    52764    52717 
   52747    52791    52775    52772    52840    52917    52937    52903 
   52845    52799    52787    52775    52748    52758    52806    52807 
   52758    52755    52812    52867    52895    52874    52794    52731 
   52770    52843    52824    52774    52807    52864    52872    52848 
   52791    52741    52756    52783    52782    52817    52890    52906 
   52844    52755    52726    52785    52825    52807    52816    52859 
   52879    52868    52860    52867    52851    52825    52830    52812 
   52747    52720    52743    52783    52839    52878    52874    52849 
   52852    52899    52942    52949    52945    52915    52851    52787 
   52732    52693    52704    52728    52716    52699    52724    52779 
   52829    52870    52929    52974    52947    52879    52826    52810 
   52810    52797    52778    52795    52832    52837    52824    52822 
   52825    52856    52891    52870    52829    52806    52793    52818 
   52826    52743    52650    52670    52797    52878    52861    52845 
   52822    52780    52798    52853    52876    52897    52893    52812 
   52741    52745    52749    52748    52803    52861    52830    52771 
   52785    52824    52837    52856    52861    52849    52855    52829 
   52787    52834    52899    52874    52818    52778    52739    52747 
   52832    52898    52876    52834    52806    52758    52740    52817 
   52888    52861    52841    52871    52860    52841    52860    52841 
   52810    52845    52871    52801    52714    52726    52802    52845 
   52829    52810    52817    52801    52778    52818    52871    52849 
   52794    52799    52849    52843    52806    52841    52925    52951 
   52898    52851    52839    52818    52809    52805    52762    52735 
   52766    52762    52698    52674    52737    52834    52887    52883 
   52910    52959    52947    52894    52848    52821    52816    52806 
   52798    52816    52814    52778    52775    52802    52802    52825 
   52891    52898    52839    52825    52876    52902    52882    52853 
   52803    52718    52636    52629    52699    52775    52822    52848 
   52864    52870    52837    52803    52825    52843    52825    52802 
   52779    52762    52772    52785    52770    52762    52779    52801 
   52820    52837    52848    52867    52902    52917    52887    52851 
   52845    52832    52789    52768    52787    52799    52793    52780 
   52771    52748    52701    52679    52735    52841    52894    52840 
   52766    52764    52825    52893    52915    52922    52934    52895 
   52813    52776    52782    52779    52798    52848    52855    52826 
   52821    52814    52841    52942    53002    52947    52851    52812 
   52821    52801    52789    52845    52886    52856    52817    52837 
   52888    52879    52814    52755    52717    52732    52756    52732 
   52712    52726    52770    52813    52797    52778    52833    52872 
   52843    52832    52870    52902    52898    52867    52860    52905 
   52911    52828    52744    52721    52744    52791    52813    52807 
   52847    52905    52897    52867    52887    52907    52876    52809 
   52749    52755    52820    52839    52814    52841    52861    52807 
   52752    52748    52771    52795    52786    52732    52701    52736 
   52782    52794    52824    52879    52886    52843    52816    52813 
   52843    52937    53014    52998    52924    52871    52857    52812 
   52725    52685    52699    52716    52747    52803    52821    52771 
   52778    52882    52922    52845    52817    52891    52926    52882 
   52860    52860    52837    52828    52820    52812    52824    52780 
   52713    52729    52789    52809    52805    52803    52786    52752 
   52759    52783    52775    52790    52822    52806    52807    52859 
   52875    52871    52906    52942    52913    52813    52745    52766 
   52786    52780    52794    52798    52760    52720    52748    52837 
   52891    52888    52887    52928    52964    52921    52845    52844 
   52860    52791    52728    52764    52821    52825    52814    52824 
   52848    52871    52855    52771    52710    52739    52771    52767 
   52797    52845    52856    52843    52847    52880    52921    52938 
   52893    52825    52832    52840    52760    52691    52718    52759 
   52739    52724    52764    52803    52805    52803    52818    52839 
   52856    52855    52843    52848    52857    52839    52783    52726 
   52716    52725    52740    52795    52852    52864    52861    52861 
   52866    52879    52887    52891    52883    52843    52802    52786 
   52771    52787    52836    52853    52810    52755    52752    52794 
   52817    52847    52909    52933    52918    52915    52897    52857 
   52875    52922    52895    52834    52810    52783    52731    52704 
   52735    52794    52829    52841    52857    52861    52845    52866 
   52915    52901    52816    52739    52697    52710    52779    52818 
   52802    52802    52816    52803    52809    52855    52898    52933 
   52932    52853    52791    52816    52843    52840    52830    52789 
   52722    52704    52737    52755    52768    52830    52875    52856 
   52837    52795    52722    52708    52736    52752    52791    52848 
   52887    52914    52907    52864    52841    52887    52947    52907 
   52801    52739    52749    52790    52837    52867    52856    52845 
   52871    52876    52836    52776    52725    52753    52832    52813 
   52726    52739    52843    52911    52894    52818    52721    52664 
   52697    52762    52783    52791    52799    52821    52863    52830 
   52748    52778    52884    52930    52899    52833    52806    52857 
   52925    52918    52839    52805    52849    52833    52755    52763 
   52825    52834    52797    52722    52670    52705    52763    52766 
   52740    52747    52814    52883    52915    52984    53052    52994 
   52901    52899    52926    52934    52940    52901    52832    52789 
   52728    52660    52670    52741    52802    52830    52848    52870 
   52891    52884    52864    52888    52901    52853    52826    52812 
   52772    52776    52807    52779    52766    52833    52874    52853 
   52871    52922    52934    52905    52844    52772    52731    52712 
   52706    52709    52677    52664    52751    52826    52817    52826 
   52871    52899    52917    52909    52875    52856    52822    52753 
   52712    52714    52739    52759    52748    52739    52756    52747 
   52720    52768    52837    52813    52782    52837    52887    52903 
   52963    53018    53009    52978    52933    52861    52807    52802 
   52807    52775    52713    52681    52694    52722    52753    52812 
   52917    52984    52938    52901    52955    52972    52924    52883 
   52828    52752    52699    52685    52741    52806    52790    52779 
   52836    52851    52791    52785    52857    52875    52807    52763 
   52785    52816    52807    52801    52849    52893    52860    52825 
   52905    53001    52920    52772    52740    52751    52736    52722 
   52678    52623    52656    52785    52878    52852    52780    52768 
   52841    52934    52937    52867    52852    52882    52876    52852 
   52853    52870    52861    52855    52876    52868    52801    52729 
   52691    52697    52712    52712    52737    52794    52856    52902 
   52887    52816    52782    52813    52813    52763    52755    52783 
   52780    52785    52832    52883    52876    52786    52683    52691 
   52798    52863    52866    52886    52918    52906    52874    52880 
   52914    52903    52840    52814    52843    52859    52852    52840 
   52829    52853    52905    52915    52875    52825    52806    52822 
   52848    52859    52855    52839    52807    52814    52868    52887 
   52837    52782    52759    52759    52782    52812    52786    52745 
   52785    52821    52780    52729    52698    52708    52789    52857 
   52860    52859    52837    52771    52753    52799    52818    52818 
   52845    52872    52851    52794    52760    52731    52674    52667 
   52751    52817    52817    52832    52883    52921    52928    52913 
   52884    52855    52822    52789    52763    52762    52801    52875 
   52907    52878    52878    52928    52961    52957    52936    52920 
   52918    52907    52860    52803    52793    52809    52805    52826 
   52874    52872    52837    52807    52791    52820    52861    52843 
   52794    52766    52737    52701    52674    52679    52732    52795 
   52830    52856    52864    52860    52856    52825    52778    52760 
   52756    52729    52702    52693    52726    52803    52841    52814 
   52807    52828    52830    52829    52843    52853    52849    52829 
   52807    52790    52776    52794    52840    52857    52797    52720 
   52726    52767    52776    52787    52789    52768    52790    52841 
   52847    52824    52830    52836    52828    52856    52891    52872 
   52821    52776    52766    52802    52864    52940    53001    52983 
   52909    52883    52890    52830    52736    52714    52772    52814 
   52806    52810    52849    52888    52924    52936    52917    52894 
   52880    52866    52839    52814    52799    52760    52712    52691 
   52695    52771    52901    52922    52864    52888    52956    52980 
   52968    52910    52847    52810    52756    52731    52780    52809 
   52764    52718    52704    52693    52718    52812    52891    52883 
   52826    52786    52790    52822    52843    52833    52793    52745 
   52713    52687    52690    52760    52848    52860    52806    52766 
   52736    52708    52755    52872    52934    52899    52821    52789 
   52848    52929    52956    52956    52967    52948    52864    52812 
   52876    52967    52994    52960    52876    52770    52662    52593 
   52635    52758    52870    52901    52843    52799    52817    52836 
   52844    52857    52893    52942    52915    52806    52720    52713 
   52783    52847    52814    52779    52849    52944    52983    53001 
   52991    52903    52801    52791    52806    52743    52712    52789 
   52847    52791    52712    52726    52790    52793    52770    52762 
   52731    52721    52744    52697    52575    52493    52477    52471 
   52467    52539    52753    52991    53079    53090    53160    53231 
   53249    53239    53207    53140    53032    52866    52677    52555 
   52542    52574    52570    52559    52614    52705    52840    53015 
   53095    53052    52994    52930    52834    52748    52685    52644 
   52698    52860    52999    53055    53084    53076    53033    53036 
   53083    53073    52920    52663    52461    52424    52521    52660 
   52753    52739    52683    52716    52794    52810    52780    52714 
   52612    52537    52496    52486    52562    52714    52880    52998 
   53038    53069    53115    53082    52969    52821    52658    52554 
   52533    52567    52658    52760    52830    52893    52953    52952 
   52874    52821    52834    52824    52764    52690    52598    52516 
   52535    52663    52775    52802    52841    52986    53138    53188 
   53219    53299    53293    53131    52948    52832    52770    52789 
   52855    52845    52764    52685    52621    52602    52633    52644 
   52650    52708    52752    52737    52766    52937    53181    53283 
   53163    52979    52871    52861    52883    52859    52826    52851 
   52863    52820    52787    52714    52563    52496    52556    52664 
   52797    52841    52755    52701    52710    52679    52629    52640 
   52720    52786    52779    52779    52868    53013    53102    53095 
   53044    52994    53003    53076    53009    52698    52440    52478 
   52627    52658    52620    52660    52820    53015    53136    53137 
   53057    52909    52709    52597    52660    52766    52779    52749 
   52785    52857    52911    52956    52975    52937    52868    52790 
   52729    52759    52875    52964    52999    53021    52982    52891 
   52861    52920    52963    52871    52693    52579    52508    52451 
   52531    52693    52789    52828    52859    52956    53130    53206 
   53114    53026    53017    52968    52797    52643    52623    52598 
   52571    52698    52840    52824    52793    52845    52878    52789 
   52593    52452    52504    52664    52791    52868    52925    52964 
   53040    53160    53150    52955    52802    52785    52798    52821 
   52853    52843    52807    52797    52806    52818    52824    52857 
   52956    53045    52983    52758    52513    52358    52292    52343 
   52475    52594    52720    52880    53009    53095    53187    53231 
   53126    52907    52732    52635    52573    52578    52668    52778 
   52824    52785    52771    52870    52995    53036    52963    52882 
   52930    53061    53109    53045    52956    52883    52847    52886 
   52905    52805    52722    52751    52774    52748    52778    52859 
   52828    52681    52594    52609    52689    52826    52920    52876 
   52810    52821    52805    52772    52872    52949    52779    52573 
   52574    52640    52616    52567    52590    52726    52899    52965 
   52987    53059    53053    52933    52879    52963    52994    52803 
   52563    52523    52610    52644    52683    52817    52934    52929 
   52883    52876    52907    52994    53080    53042    52969    53005 
   53023    52918    52809    52745    52659    52596    52633    52695 
   52745    52830    52878    52801    52701    52721    52852    52984 
   53057    53056    53014    53021    53056    52976    52814    52706 
   52662    52695    52778    52735    52636    52712    52905    53022 
   52988    52833    52695    52677    52713    52718    52701    52701 
   52709    52701    52710    52782    52874    52911    52882    52785 
   52682    52686    52779    52852    52870    52847    52799    52762 
   52778    52817    52820    52832    52911    53018    53057    52988 
   52871    52768    52755    52821    52818    52739    52690    52682 
   52704    52724    52747    52893    53084    53084    52930    52798 
   52744    52810    52928    52876    52658    52528    52581    52672 
   52758    52883    52969    52971    52957    52933    52898    52893 
   52903    52872    52776    52652    52582    52617    52687    52705 
   52759    52872    52866    52780    52832    52947    52955    52905 
   52875    52843    52836    52891    52944    52945    52921    52866 
   52795    52791    52821    52774    52705    52732    52803    52828 
   52863    52921    52870    52731    52675    52716    52764    52791 
   52767    52753    52840    52917    52870    52780    52760    52832 
   52948    53009    52957    52874    52868    52899    52868    52809 
   52783    52813    52891    52897    52767    52672    52756    52893 
   52906    52853    52834    52810    52779    52806    52861    52878 
   52860    52822    52790    52818    52860    52791    52617    52501 
   52547    52654    52705    52729    52793    52880    52909    52848 
   52810    52867    52903    52845    52813    52895    52996    53023 
   53007    52980    52925    52856    52834    52866    52901    52861 
   52690    52520    52551    52706    52793    52787    52762    52743 
   52729    52748    52790    52813    52814    52834    52898    52913 
   52795    52650    52563    52524    52550    52664    52836    52978 
   53034    53076    53136    53152    53149    53142    53061    52945 
   52875    52821    52771    52762    52766    52722    52672    52737 
   52887    52941    52860    52813    52840    52855    52848    52793 
   52670    52608    52687    52768    52753    52741    52794    52834 
   52825    52843    52915    52951    52907    52866    52851    52844 
   52849    52879    52911    52874    52763    52683    52686    52721 
   52701    52632    52656    52771    52840    52849    52821    52751 
   52695    52691    52745    52810    52782    52713    52717    52735 
   52698    52663    52648    52610    52577    52625    52782    52978 
   53125    53187    53190    53188    53161    53075    53002    52952 
   52861    52790    52787    52803    52805    52793    52793    52828 
   52871    52883    52856    52844    52883    52907    52871    52852 
   52884    52911    52898    52845    52767    52701    52690    52735 
   52793    52820    52809    52809    52824    52810    52793    52801 
   52791    52770    52755    52741    52776    52870    52929    52899 
   52809    52728    52736    52825    52913    52933    52882    52806 
   52763    52759    52763    52776    52816    52841    52855    52897 
   52886    52776    52667    52636    52701    52801    52860    52901 
   52928    52906    52871    52836    52779    52779    52845    52791 
   52602    52537    52690    52847    52871    52872    52895    52855 
   52797    52809    52836    52806    52745    52726    52759    52791 
   52810    52849    52926    53009    53013    52925    52856    52890 
   52968    52967    52888    52826    52791    52778    52807    52825 
   52779    52737    52790    52903    52938    52907    52953    53017 
   52999    52959    52918    52859    52790    52681    52589    52639 
   52744    52783    52798    52812    52799    52770    52743    52744 
   52787    52864    52926    52913    52806    52652    52567    52623 
   52729    52780    52793    52818    52844    52821    52744    52675 
   52645    52614    52604    52677    52797    52852    52810    52787 
   52863    52933    52901    52840    52828    52829    52813    52793 
   52797    52852    52926    52957    52917    52841    52822    52876 
   52906    52851    52786    52803    52886    52959    52971    52952 
   52959    52965    52944    52906    52872    52853    52814    52731 
   52716    52795    52824    52739    52632    52628    52755    52868 
   52860    52828    52848    52867    52901    53009    53079    52994 
   52863    52802    52743    52672    52695    52756    52755    52758 
   52774    52721    52677    52758    52899    52957    52897    52766 
   52621    52583    52706    52806    52764    52714    52763    52847 
   52901    52920    52898    52857    52852    52837    52768    52753 
   52833    52898    52918    52906    52820    52716    52704    52791 
   52902    52969    52975    52940    52879    52801    52747    52744 
