Origin Time       2025/03/30 21:30:00
Lat.              38.535
Long.             142.295
Depth. (km)       44
Mag.              4.3
Station Code      MYGH14
Station Lat.      38.3400
Station Long.     140.9551
Station Height(m) 48
Record Time       2025/03/30 21:31:28
Sampling Freq(Hz) 100Hz
Duration Time(s)  120
Dir.              6
Scale Factor      7845(gal)/8223790
Max. Acc. (gal)   0.826
Last Correction   2025/03/30 21:31:28
Memo.             
[...]
  -45481   -45497   -45523   -45532   -45470   -45409   -45415   -45443 
  -45419   -45301   -45187   -45229   -45397   -45535   -45549   -45496 
  -45484   -45466   -45403   -45382   -45389   -45387   -45426   -45449 
  -45442   -45476   -45527   -45567   -45549   -45428   -45355   -45426 
  -45505   -45496   -45430   -45378   -45374   -45401   -45457   -45505 
  -45524   -45577   -45630   -45585   -45507   -45450   -45360   -45262 
  -45239   -45276   -45357   -45503   -45632   -45604   -45457   -45387 
  -45450   -45501   -45405   -45246   -45274   -45501   -45625   -45538 
  -45435   -45403   -45404   -45422   -45415   -45411   -45446   -45454 
  -45420   -45365   -45288   -45301   -45451   -45567   -45576   -45588 
  -45585   -45484   -45372   -45339   -45342   -45331   -45354   -45459 
  -45527   -45482   -45482   -45536   -45477   -45430   -45544   -45619 
  -45517   -45395   -45354   -45316   -45276   -45342   -45455   -45462 
  -45408   -45436   -45555   -45652   -45636   -45499   -45347   -45312 
  -45334   -45339   -45401   -45478   -45477   -45468   -45473   -45442 
  -45426   -45489   -45573   -45535   -45384   -45279   -45284   -45369 
  -45466   -45476   -45424   -45415   -45447   -45495   -45524   -45472 
  -45403   -45422   -45446   -45412   -45393   -45404   -45435   -45495 
  -45524   -45481   -45414   -45404   -45449   -45476   -45517   -45536 
  -45420   -45327   -45393   -45462   -45447   -45409   -45424   -45495 
  -45516   -45486   -45465   -45442   -45424   -45392   -45343   -45372 
  -45478   -45519   -45474   -45478   -45500   -45422   -45381   -45530 
  -45678   -45594   -45388   -45269   -45200   -45161   -45283   -45493 
  -45586   -45592   -45607   -45563   -45449   -45393   -45414   -45404 
  -45368   -45353   -45347   -45373   -45412   -45387   -45374   -45422 
  -45426   -45443   -45554   -45617   -45551   -45497   -45528   -45531 
  -45488   -45492   -45458   -45300   -45204   -45292   -45412   -45450 
  -45463   -45515   -45566   -45546   -45496   -45495   -45453   -45385 
  -45463   -45576   -45493   -45335   -45289   -45304   -45333   -45415 
  -45496   -45513   -45515   -45508   -45468   -45443   -45424   -45368 
  -45369   -45435   -45442   -45415   -45439   -45428   -45382   -45463 
  -45588   -45555   -45480   -45453   -45376   -45311   -45345   -45380 
  -45358   -45346   -45419   -45543   -45590   -45554   -45480   -45381 
  -45365   -45461   -45546   -45576   -45549   -45455   -45342   -45287 
  -45358   -45504   -45590   -45578   -45503   -45434   -45415   -45373 
  -45327   -45381   -45446   -45431   -45443   -45515   -45554   -45531 
  -45481   -45457   -45481   -45493   -45432   -45326   -45276   -45327 
  -45385   -45411   -45428   -45403   -45419   -45527   -45534   -45458 
  -45503   -45557   -45478   -45387   -45373   -45377   -45326   -45277 
  -45316   -45405   -45520   -45619   -45582   -45449   -45388   -45474 
  -45574   -45507   -45373   -45343   -45357   -45377   -45447   -45459 
  -45388   -45368   -45408   -45468   -45538   -45577   -45584   -45573 
  -45503   -45424   -45381   -45322   -45285   -45306   -45355   -45481 
  -45623   -45615   -45513   -45453   -45409   -45354   -45372   -45459 
  -45441   -45365   -45459   -45553   -45461   -45428   -45547   -45592 
  -45484   -45373   -45358   -45347   -45303   -45342   -45423   -45434 
  -45439   -45488   -45516   -45469   -45401   -45451   -45570   -45578 
  -45540   -45543   -45472   -45331   -45274   -45312   -45341   -45368 
  -45451   -45507   -45504   -45532   -45547   -45507   -45508   -45513 
  -45443   -45416   -45446   -45403   -45358   -45408   -45469   -45458 
  -45353   -45219   -45202   -45349   -45520   -45593   -45630   -45613 
  -45459   -45318   -45345   -45445   -45476   -45409   -45349   -45377 
  -45395   -45366   -45430   -45543   -45555   -45523   -45526   -45509 
  -45447   -45412   -45459   -45485   -45419   -45361   -45368   -45414 
  -45501   -45535   -45445   -45380   -45426   -45496   -45551   -45551 
  -45453   -45361   -45391   -45424   -45334   -45279   -45368   -45450 
  -45478   -45496   -45447   -45414   -45490   -45540   -45495   -45485 
  -45543   -45517   -45361   -45246   -45280   -45395   -45477   -45500 
  -45505   -45485   -45446   -45423   -45343   -45316   -45477   -45559 
  -45480   -45486   -45558   -45584   -45562   -45459   -45357   -45331 
  -45360   -45450   -45513   -45454   -45369   -45366   -45428   -45449 
  -45409   -45438   -45497   -45481   -45485   -45534   -45505   -45442 
  -45469   -45482   -45400   -45407   -45517   -45484   -45378   -45407 
  -45400   -45265   -45249   -45416   -45551   -45540   -45445   -45351 
  -45339   -45395   -45426   -45462   -45554   -45570   -45455   -45372 
  -45361   -45357   -45381   -45432   -45476   -45513   -45527   -45524 
  -45542   -45536   -45482   -45426   -45397   -45399   -45397   -45377 
  -45393   -45435   -45431   -45435   -45496   -45509   -45459   -45482 
  -45582   -45623   -45578   -45501   -45416   -45320   -45199   -45160 
  -45283   -45416   -45490   -45562   -45539   -45449   -45441   -45457 
  -45449   -45474   -45490   -45431   -45350   -45311   -45287   -45322 
  -45457   -45523   -45442   -45384   -45388   -45392   -45472   -45624 
  -45681   -45576   -45449   -45397   -45372   -45400   -45470   -45431 
  -45378   -45455   -45526   -45519   -45515   -45517   -45472   -45346 
  -45272   -45362   -45490   -45553   -45553   -45486   -45391   -45306 
  -45250   -45256   -45284   -45339   -45490   -45636   -45644   -45573 
  -45539   -45542   -45489   -45373   -45324   -45396   -45482   -45486 
  -45463   -45476   -45445   -45404   -45478   -45565   -45534   -45422 
  -45326   -45328   -45360   -45289   -45226   -45319   -45538   -45727 
  -45766   -45709   -45631   -45512   -45366   -45241   -45214   -45312 
  -45370   -45297   -45262   -45364   -45489   -45532   -45534   -45549 
  -45569   -45571   -45482   -45296   -45214   -45308   -45387   -45397 
  -45489   -45616   -45574   -45422   -45369   -45404   -45435   -45442 
  -45424   -45419   -45400   -45362   -45382   -45407   -45411   -45481 
  -45527   -45472   -45438   -45508   -45636   -45673   -45515   -45350 
  -45392   -45478   -45445   -45422   -45481   -45503   -45453   -45407 
  -45389   -45369   -45389   -45453   -45486   -45477   -45457   -45450 
  -45447   -45415   -45389   -45377   -45381   -45450   -45478   -45389 
  -45362   -45485   -45603   -45593   -45468   -45337   -45345   -45469 
  -45519   -45426   -45350   -45365   -45396   -45441   -45504   -45546 
  -45596   -45627   -45531   -45403   -45404   -45441   -45392   -45330 
  -45308   -45292   -45274   -45295   -45378   -45465   -45451   -45384 
  -45422   -45515   -45515   -45523   -45624   -45646   -45512   -45395 
  -45399   -45439   -45438   -45439   -45469   -45476   -45414   -45266 
  -45142   -45196   -45419   -45630   -45674   -45601   -45582   -45604 
  -45517   -45387   -45365   -45418   -45457   -45457   -45432   -45378 
  -45333   -45380   -45463   -45470   -45443   -45458   -45486   -45512 
  -45540   -45490   -45366   -45304   -45265   -45229   -45370   -45546 
  -45501   -45409   -45435   -45486   -45488   -45422   -45411   -45536 
  -45592   -45515   -45468   -45427   -45360   -45439   -45644   -45685 
  -45519   -45430   -45492   -45488   -45361   -45266   -45283   -45360 
  -45435   -45500   -45527   -45463   -45360   -45335   -45404   -45485 
  -45530   -45535   -45465   -45335   -45281   -45326   -45364   -45392 
  -45446   -45516   -45555   -45443   -45266   -45273   -45409   -45512 
  -45589   -45625   -45563   -45459   -45409   -45366   -45285   -45285 
  -45374   -45447   -45535   -45578   -45492   -45405   -45420   -45465 
  -45436   -45362   -45391   -45503   -45546   -45550   -45586   -45607 
  -45580   -45563   -45540   -45403   -45262   -45280   -45296   -45215 
  -45218   -45324   -45441   -45574   -45651   -45576   -45430   -45404 
  -45505   -45553   -45601   -45743   -45727   -45485   -45297   -45203 
  -45127   -45173   -45318   -45423   -45454   -45445   -45450   -45488 
  -45501   -45520   -45638   -45727   -45650   -45546   -45465   -45335 
  -45239   -45227   -45238   -45264   -45306   -45397   -45547   -45621 
  -45584   -45555   -45503   -45369   -45280   -45276   -45269   -45335 
  -45486   -45551   -45536   -45562   -45553   -45486   -45453   -45419 
  -45369   -45382   -45415   -45364   -45264   -45243   -45416   -45644 
  -45650   -45522   -45538   -45607   -45489   -45276   -45279   -45493 
  -45589   -45490   -45430   -45463   -45432   -45365   -45416   -45504 
  -45523   -45539   -45544   -45485   -45391   -45303   -45273   -45283 
  -45239   -45235   -45397   -45561   -45592   -45581   -45559   -45511 
  -45430   -45335   -45334   -45409   -45463   -45540   -45590   -45482 
  -45324   -45306   -45438   -45543   -45439   -45318   -45435   -45543 
  -45463   -45478   -45620   -45615   -45495   -45427   -45407   -45423 
  -45441   -45409   -45415   -45488   -45531   -45477   -45337   -45264 
  -45382   -45486   -45423   -45372   -45423   -45485   -45519   -45505 
  -45453   -45458   -45522   -45530   -45500   -45473   -45349   -45150 
  -45075   -45175   -45300   -45374   -45504   -45689   -45765   -45719 
  -45604   -45393   -45245   -45341   -45486   -45463   -45396   -45416 
  -45434   -45423   -45476   -45513   -45451   -45458   -45544   -45528 
  -45465   -45468   -45497   -45505   -45499   -45493   -45431   -45360 
  -45436   -45515   -45422   -45396   -45512   -45488   -45342   -45320 
  -45388   -45431   -45468   -45503   -45509   -45472   -45416   -45372 
  -45327   -45345   -45459   -45508   -45422   -45366   -45373   -45347 
  -45330   -45388   -45438   -45428   -45438   -45466   -45492   -45570 
  -45625   -45553   -45435   -45341   -45287   -45324   -45435   -45558 
  -45621   -45535   -45368   -45297   -45388   -45512   -45515   -45454 
  -45462   -45501   -45519   -45504   -45449   -45445   -45488   -45439 
  -45385   -45424   -45369   -45242   -45328   -45551   -45624   -45539 
  -45447   -45385   -45351   -45392   -45499   -45550   -45478   -45385 
  -45387   -45424   -45428   -45455   -45492   -45504   -45566   -45605 
  -45496   -45370   -45353   -45334   -45280   -45315   -45414   -45409 
  -45401   -45503   -45470   -45281   -45289   -45426   -45416   -45422 
  -45527   -45519   -45450   -45442   -45377   -45303   -45412   -45616 
  -45715   -45658   -45493   -45355   -45355   -45423   -45450   -45439 
  -45426   -45469   -45513   -45457   -45438   -45522   -45523   -45493 
  -45527   -45462   -45335   -45362   -45476   -45454   -45285   -45211 
  -45291   -45315   -45304   -45411   -45495   -45458   -45472   -45588 
  -45670   -45677   -45631   -45488   -45279   -45193   -45331   -45500 
  -45478   -45327   -45258   -45303   -45365   -45439   -45511   -45522 
  -45542   -45601   -45570   -45463   -45482   -45635   -45647   -45459 
  -45368   -45407   -45365   -45341   -45407   -45374   -45353   -45501 
  -45600   -45538   -45466   -45430   -45416   -45408   -45416   -45517 
  -45598   -45550   -45526   -45554   -45500   -45369   -45307   -45351 
  -45312   -45222   -45324   -45470   -45459   -45478   -45604   -45667 
  -45573   -45407   -45303   -45257   -45256   -45345   -45447   -45455 
  -45401   -45378   -45396   -45407   -45463   -45540   -45507   -45409 
  -45400   -45453   -45485   -45517   -45527   -45463   -45366   -45269 
  -45257   -45381   -45462   -45432   -45404   -45430   -45598   -45863 
  -45909   -45662   -45401   -45277   -45233   -45239   -45297   -45347 
  -45314   -45214   -45179   -45243   -45330   -45435   -45550   -45582 
  -45544   -45571   -45685   -45715   -45613   -45608   -45729   -45720 
  -45501   -45245   -45098   -45073   -45085   -45152   -45311   -45409 
  -45461   -45617   -45735   -45682   -45520   -45354   -45330   -45388 
  -45451   -45576   -45589   -45493   -45507   -45477   -45408   -45544 
  -45709   -45657   -45426   -45137   -44964   -45073   -45403   -45635 
  -45603   -45527   -45558   -45601   -45589   -45493   -45393   -45458 
  -45601   -45651   -45624   -45536   -45419   -45331   -45237   -45189 
  -45245   -45210   -45080   -45092   -45252   -45488   -45786   -45959 
  -45868   -45616   -45408   -45358   -45364   -45358   -45338   -45207 
  -45099   -45208   -45318   -45292   -45419   -45720   -45806   -45648 
  -45581   -45642   -45670   -45582   -45330   -45041   -44953   -45108 
  -45315   -45441   -45611   -45828   -45909   -45939   -45940   -45625 
  -45165   -45038   -45094   -45014   -45052   -45412   -45844   -46048 
  -45943   -45694   -45419   -45084   -44847   -44834   -44965   -45264 
  -45644   -45742   -45482   -45216   -45220   -45335   -45320   -45399 
  -45717   -45867   -45750   -45724   -45773   -45636   -45357   -45211 
  -45295   -45331   -45192   -45225   -45524   -45725   -45673   -45550 
  -45495   -45443   -45243   -45017   -45081   -45411   -45721   -45914 
  -45967   -45843   -45630   -45403   -45185   -45045   -44999   -45061 
  -45328   -45705   -45879   -45789   -45570   -45216   -44911   -44988 
  -45316   -45565   -45736   -45841   -45787   -45642   -45469   -45264 
  -45176   -45396   -45725   -45756   -45538   -45443   -45476   -45346 
  -45083   -44992   -45061   -45036   -45037   -45288   -45613   -45782 
  -45817   -45651   -45177   -44739   -44774   -45158   -45612   -46055 
  -46265   -46116   -45860   -45639   -45320   -45045   -45112   -45365 
  -45458   -45474   -45604   -45728   -45739   -45654   -45422   -45094 
  -44860   -44861   -45112   -45455   -45819   -46194   -46309   -46066 
  -45669   -45166   -44744   -44637   -44721   -44941   -45246   -45412 
  -45538   -45713   -45756   -45693   -45673   -45697   -45711   -45690 
  -45685   -45681   -45625   -45566   -45536   -45484   -45318   -45112 
  -45044   -44982   -44834   -44915   -45281   -45661   -45968   -46153 
  -46087   -45777   -45414   -45203   -45125   -45090   -45064   -44973 
  -44944   -45158   -45435   -45625   -45798   -45909   -45921   -45843 
  -45652   -45455   -45333   -45243   -45171   -45188   -45314   -45426 
  -45501   -45615   -45685   -45662   -45624   -45530   -45423   -45393 
  -45207   -44867   -44778   -44959   -45241   -45624   -45925   -45982 
  -45860   -45616   -45347   -45154   -45095   -45266   -45553   -45684 
  -45640   -45573   -45490   -45261   -44992   -44982   -45216   -45465 
  -45686   -45928   -46037   -45827   -45445   -45249   -45337   -45486 
  -45500   -45401   -45316   -45333   -45424   -45401   -45260   -45256 
  -45318   -45204   -45050   -45137   -45490   -45889   -46098   -46087 
  -45898   -45576   -45287   -45279   -45530   -45655   -45538   -45445 
  -45376   -45218   -45114   -45196   -45381   -45427   -45372   -45495 
  -45605   -45466   -45338   -45360   -45445   -45497   -45424   -45380 
  -45435   -45414   -45423   -45553   -45616   -45598   -45534   -45362 
  -45187   -45133   -45233   -45397   -45454   -45509   -45763   -45956 
  -45890   -45775   -45582   -45215   -44988   -45040   -45129   -45145 
  -45168   -45281   -45445   -45505   -45426   -45335   -45392   -45631 
  -45823   -45789   -45666   -45549   -45361   -45196   -45215   -45322 
  -45333   -45316   -45389   -45424   -45401   -45522   -45669   -45578 
  -45416   -45463   -45632   -45670   -45517   -45339   -45257   -45269 
  -45368   -45407   -45299   -45291   -45477   -45600   -45577   -45520 
  -45517   -45617   -45665   -45497   -45311   -45347   -45480   -45465 
  -45377   -45447   -45628   -45762   -45871   -45885   -45630   -45260 
  -45076   -45110   -45229   -45342   -45407   -45392   -45250   -45021 
  -44964   -45247   -45526   -45476   -45374   -45501   -45644   -45634 
  -45635   -45787   -45886   -45677   -45365   -45250   -45284   -45349 
  -45399   -45397   -45395   -45418   -45441   -45451   -45474   -45571 
  -45682   -45612   -45393   -45280   -45264   -45115   -44906   -44929 
  -45177   -45384   -45441   -45486   -45617   -45684   -45542   -45355 
  -45333   -45435   -45538   -45625   -45701   -45715   -45655   -45520 
  -45377   -45387   -45499   -45508   -45469   -45569   -45715   -45642 
  -45493   -45609   -45783   -45665   -45438   -45341   -45310   -45287 
  -45266   -45274   -45326   -45306   -45202   -45158   -45192   -45277 
  -45380   -45432   -45547   -45739   -45770   -45663   -45569   -45422 
  -45262   -45276   -45411   -45450   -45326   -45175   -45162   -45274 
  -45364   -45392   -45481   -45661   -45769   -45735   -45650   -45531 
  -45381   -45330   -45443   -45589   -45624   -45581   -45522   -45381 
  -45252   -45320   -45399   -45306   -45289   -45469   -45620   -45585 
  -45350   -45126   -45145   -45253   -45272   -45265   -45279   -45374 
  -45534   -45592   -45607   -45705   -45763   -45684   -45565   -45499 
  -45449   -45357   -45374   -45611   -45769   -45628   -45439   -45399 
  -45434   -45488   -45470   -45365   -45357   -45400   -45291   -45166 
  -45171   -45168   -45175   -45252   -45253   -45303   -45594   -45782 
  -45646   -45540   -45578   -45501   -45291   -45208   -45368   -45511 
  -45438   -45404   -45550   -45627   -45601   -45608   -45616   -45657 
  -45728   -45711   -45621   -45499   -45378   -45323   -45279   -45280 
  -45322   -45249   -45127   -45098   -45115   -45203   -45360   -45463 
  -45596   -45756   -45678   -45426   -45330   -45416   -45516   -45499 
  -45401   -45400   -45426   -45338   -45337   -45530   -45686   -45677 
  -45617   -45593   -45601   -45592   -45473   -45315   -45295   -45382 
  -45424   -45389   -45376   -45468   -45596   -45666   -45646   -45486 
  -45265   -45161   -45158   -45129   -45042   -45014   -45168   -45465 
  -45769   -45941   -45927   -45877   -45895   -45817   -45517   -45160 
  -44968   -45004   -45229   -45478   -45544   -45511   -45512   -45423 
  -45343   -45499   -45682   -45694   -45677   -45678   -45547   -45272 
  -45057   -45033   -45060   -45018   -45038   -45241   -45478   -45625 
  -45798   -45945   -45813   -45484   -45226   -45103   -45077   -45098 
  -45165   -45314   -45469   -45580   -45643   -45611   -45546   -45503 
  -45449   -45485   -45616   -45663   -45619   -45607   -45605   -45493 
  -45303   -45250   -45387   -45519   -45530   -45477   -45436   -45414 
  -45397   -45408   -45463   -45524   -45539   -45536   -45520   -45453 
  -45432   -45480   -45428   -45349   -45407   -45486   -45473   -45385 
  -45311   -45385   -45567   -45611   -45439   -45264   -45247   -45281 
  -45254   -45310   -45508   -45655   -45639   -45482   -45270   -45218 
  -45392   -45584   -45662   -45652   -45617   -45608   -45577   -45507 
  -45455   -45377   -45266   -45220   -45187   -45083   -45026   -45175 
  -45513   -45759   -45701   -45578   -45617   -45655   -45566   -45453 
  -45416   -45426   -45319   -45115   -45110   -45303   -45360   -45318 
  -45469   -45735   -45873   -45867   -45767   -45544   -45310   -45265 
  -45322   -45343   -45387   -45423   -45465   -45594   -45634   -45546 
  -45566   -45570   -45404   -45280   -45219   -45096   -45052   -45177 
  -45316   -45372   -45427   -45508   -45492   -45451   -45546   -45643 
  -45643   -45643   -45611   -45528   -45465   -45407   -45408   -45472 
  -45474   -45474   -45482   -45364   -45206   -45247   -45476   -45598 
  -45527   -45526   -45651   -45700   -45625   -45543   -45532   -45476 
  -45299   -45203   -45200   -45165   -45247   -45419   -45443   -45405 
