Origin Time       2025/03/30 21:30:00
Lat.              38.535
Long.             142.295
Depth. (km)       44
Mag.              4.3
Station Code      MYGH03
Station Lat.      38.9207
Station Long.     141.6377
Station Height(m) 80
Record Time       2025/03/30 21:31:08
Sampling Freq(Hz) 100Hz
Duration Time(s)  120
Dir.              5
Scale Factor      7845(gal)/8223790
Max. Acc. (gal)   4.523
Last Correction   2025/03/30 21:31:08
Memo.             
[...]
   -5863    -5865    -5864    -5861    -5863    -5864    -5863    -5863 
   -5861    -5861    -5864    -5865    -5863    -5863    -5863    -5861 
   -5860    -5861    -5864    -5864    -5863    -5861    -5863    -5861 
   -5861    -5863    -5864    -5861    -5861    -5865    -5864    -5861 
   -5861    -5863    -5864    -5864    -5864    -5863    -5863    -5864 
   -5864    -5861    -5861    -5864    -5864    -5864    -5861    -5861 
   -5863    -5863    -5864    -5865    -5863    -5861    -5864    -5863 
   -5861    -5863    -5865    -5864    -5864    -5865    -5863    -5861 
   -5863    -5864    -5865    -5865    -5864    -5863    -5863    -5863 
   -5863    -5863    -5864    -5865    -5863    -5863    -5864    -5865 
   -5867    -5867    -5864    -5863    -5863    -5863    -5863    -5863 
   -5863    -5863    -5863    -5863    -5861    -5861    -5863    -5863 
   -5863    -5865    -5864    -5860    -5863    -5863    -5860    -5861 
   -5864    -5860    -5860    -5864    -5863    -5861    -5863    -5864 
   -5863    -5861    -5863    -5864    -5864    -5864    -5864    -5861 
   -5863    -5863    -5861    -5861    -5863    -5863    -5863    -5863 
   -5863    -5864    -5864    -5863    -5861    -5861    -5864    -5867 
   -5865    -5864    -5863    -5863    -5865    -5865    -5864    -5864 
   -5863    -5861    -5864    -5861    -5863    -5865    -5864    -5861 
   -5863    -5863    -5864    -5864    -5863    -5863    -5864    -5865 
   -5864    -5861    -5863    -5865    -5863    -5863    -5864    -5861 
   -5861    -5864    -5861    -5861    -5863    -5863    -5863    -5861 
   -5861    -5864    -5863    -5861    -5864    -5863    -5863    -5863 
   -5861    -5861    -5864    -5863    -5864    -5864    -5863    -5861 
   -5863    -5865    -5865    -5864    -5865    -5864    -5861    -5863 
   -5863    -5863    -5865    -5864    -5863    -5865    -5865    -5864 
   -5861    -5861    -5867    -5867    -5861    -5861    -5863    -5863 
   -5861    -5861    -5863    -5863    -5860    -5861    -5863    -5864 
   -5863    -5860    -5861    -5865    -5863    -5860    -5864    -5864 
   -5861    -5864    -5865    -5861    -5861    -5864    -5864    -5863 
   -5864    -5864    -5861    -5859    -5861    -5864    -5863    -5860 
   -5861    -5864    -5864    -5863    -5863    -5864    -5865    -5864 
   -5863    -5861    -5860    -5863    -5865    -5863    -5861    -5864 
   -5865    -5863    -5863    -5864    -5863    -5861    -5863    -5865 
   -5865    -5863    -5863    -5864    -5864    -5865    -5867    -5864 
   -5865    -5867    -5864    -5861    -5863    -5863    -5863    -5864 
   -5865    -5865    -5864    -5864    -5864    -5863    -5863    -5865 
   -5864    -5864    -5865    -5864    -5863    -5863    -5863    -5863 
   -5863    -5864    -5864    -5864    -5864    -5863    -5863    -5864 
   -5864    -5861    -5863    -5865    -5865    -5864    -5864    -5863 
   -5863    -5865    -5863    -5863    -5865    -5863    -5861    -5861 
   -5861    -5863    -5864    -5864    -5864    -5864    -5863    -5864 
   -5864    -5863    -5863    -5865    -5865    -5864    -5864    -5864 
   -5864    -5864    -5865    -5864    -5863    -5865    -5865    -5861 
   -5863    -5864    -5864    -5861    -5863    -5865    -5865    -5865 
   -5864    -5863    -5861    -5863    -5864    -5864    -5864    -5863 
   -5863    -5864    -5863    -5863    -5865    -5867    -5863    -5863 
   -5867    -5867    -5864    -5864    -5865    -5863    -5863    -5867 
   -5865    -5863    -5865    -5864    -5861    -5864    -5865    -5864 
   -5864    -5865    -5864    -5864    -5867    -5867    -5864    -5864 
   -5865    -5865    -5863    -5863    -5864    -5865    -5865    -5867 
   -5864    -5860    -5861    -5863    -5863    -5863    -5863    -5864 
   -5864    -5861    -5861    -5864    -5865    -5865    -5865    -5864 
   -5864    -5864    -5864    -5865    -5867    -5864    -5863    -5864 
   -5864    -5861    -5863    -5865    -5864    -5864    -5865    -5863 
   -5863    -5865    -5864    -5863    -5864    -5863    -5863    -5863 
   -5863    -5865    -5867    -5865    -5864    -5864    -5864    -5864 
   -5865    -5864    -5861    -5864    -5865    -5864    -5865    -5865 
   -5864    -5867    -5864    -5863    -5867    -5864    -5860    -5863 
   -5865    -5861    -5861    -5863    -5864    -5863    -5864    -5865 
   -5865    -5864    -5864    -5864    -5865    -5864    -5863    -5864 
   -5865    -5864    -5863    -5863    -5861    -5863    -5864    -5864 
   -5864    -5863    -5863    -5864    -5864    -5865    -5867    -5864 
   -5863    -5868    -5875    -5879    -5881    -5861    -5830    -5863 
   -5923    -5913    -5864    -5798    -5732    -5845    -6016    -5921 
   -5761    -5728    -5706    -5979    -6312    -5919    -5517    -5921 
   -6073    -5751    -5840    -5842    -5529    -5769    -6135    -5890 
   -5980    -6335    -5513    -4946    -6089    -6597    -5757    -5296 
   -5247    -5757    -6933    -6837    -5337    -5013    -5865    -6369 
   -6717    -6089    -4617    -5136    -6565    -5934    -5475    -6373 
   -5779    -4984    -6114    -6928    -6733    -5501    -3979    -5472 
   -7593    -6752    -5464    -4777    -4931    -7153    -7716    -4882 
   -3942    -5605    -6743    -7256    -5730    -3983    -5440    -6939 
   -6902    -5954    -4426    -5189    -7025    -6893    -5749    -5024 
   -5189    -5902    -6536    -6139    -5391    -5938    -6432    -5940 
   -5270    -5436    -6104    -5938    -6146    -5934    -5024    -6149 
   -6979    -5684    -4627    -5483    -7084    -6073    -5036    -6417 
   -5922    -4988    -6172    -6037    -5730    -6586    -5867    -5394 
   -6023    -5441    -5617    -6714    -5711    -4773    -6222    -6926 
   -6031    -6030    -5860    -4756    -5443    -6822    -6046    -5283 
   -5849    -6147    -6195    -5763    -5335    -6139    -6286    -5404 
   -5648    -6187    -5899    -5640    -5572    -5896    -6535    -6039 
   -4878    -5394    -6713    -6300    -5490    -5773    -5783    -5886 
   -6529    -6288    -5431    -5181    -5748    -6277    -6092    -5752 
   -5595    -5479    -5556    -6444    -7150    -5611    -4276    -5753 
   -7075    -6478    -5211    -4742    -6257    -7056    -5487    -5233 
   -6245    -5756    -5479    -6193    -6006    -5672    -6205    -5946 
   -5225    -5899    -6500    -5962    -5626    -5526    -5568    -6066 
   -6246    -5996    -6004    -5871    -5425    -5744    -6108    -5371 
   -5401    -6457    -6318    -5617    -5553    -5563    -6022    -6561 
   -5895    -5169    -5586    -6303    -6493    -5995    -5298    -5333 
   -6193    -6625    -5684    -4918    -5805    -6555    -6088    -5776 
   -5715    -5576    -6004    -6404    -5848    -5319    -5391    -5728 
   -6631    -6619    -5134    -5306    -6601    -6173    -5449    -5422 
   -5733    -6457    -6158    -5377    -5717    -5992    -5798    -5952 
   -6037    -5989    -5894    -5433    -5544    -6385    -6420    -5698 
   -5348    -5629    -6153    -6345    -6119    -5487    -4938    -5431 
   -6335    -6380    -6007    -5977    -5718    -5514    -6065    -6193 
   -5539    -5582    -6477    -6255    -5077    -5359    -6187    -6124 
   -6046    -5580    -5382    -6515    -6523    -5143    -5350    -6205 
   -5961    -5864    -5962    -5776    -5737    -5822    -6245    -6270 
   -5317    -5130    -5790    -6053    -6709    -6852    -5231    -4607 
   -5860    -6573    -6119    -5339    -5617    -6419    -5842    -5530 
   -6457    -6056    -4958    -5724    -6596    -6115    -5703    -5305 
   -5416    -6268    -6215    -6085    -6177    -5482    -5431    -6112 
   -6003    -5460    -5586    -6192    -6085    -5684    -6095    -6335 
   -5760    -5341    -5629    -6169    -6016    -5460    -5796    -6173 
   -5686    -5914    -6384    -5799    -5566    -5697    -5845    -6219 
   -5567    -5308    -6335    -6239    -5842    -6114    -5655    -5684 
   -6316    -5628    -5113    -6077    -6347    -5443    -5429    -6320 
   -6674    -6035    -5024    -5522    -6650    -5657    -5082    -6455 
   -6261    -5179    -5715    -6331    -6056    -5934    -5791    -5340 
   -5962    -6596    -5408    -5173    -6512    -6349    -5502    -5710 
   -6096    -5996    -5508    -5540    -6114    -5904    -5783    -6201 
   -5752    -5589    -6046    -5732    -5877    -6276    -5626    -5458 
   -5908    -6029    -6216    -5846    -5184    -5954    -6690    -5682 
   -5212    -5999    -5998    -5695    -6328    -6380    -5305    -5329 
   -6120    -5989    -5864    -5709    -5513    -6277    -6266    -5501 
   -6062    -6154    -5333    -5657    -5996    -5736    -6065    -6423 
   -5863    -5251    -5691    -6122    -6193    -6411    -5564    -4845 
   -5837    -6493    -6056    -5751    -5823    -5768    -5638    -5985 
   -6103    -5778    -5948    -5883    -5320    -5748    -6427    -6042 
   -6064    -6323    -5305    -4734    -5583    -6467    -6867    -6218 
   -4974    -5290    -6466    -6400    -5900    -5436    -4947    -5799 
   -6831    -6212    -5447    -5456    -5759    -6185    -5915    -5649 
   -6251    -5992    -5197    -5626    -6323    -6413    -6124    -5421 
   -4981    -5537    -6330    -6389    -5867    -5471    -5888    -6403 
   -5894    -5462    -6048    -6521    -6025    -5229    -5186    -5764 
   -6115    -6143    -5958    -5647    -6000    -6544    -5848    -5105 
   -5589    -6181    -6126    -5549    -5597    -6424    -6112    -5532 
   -5811    -5687    -5765    -6035    -5922    -6120    -5730    -5413 
   -6157    -6138    -5859    -6135    -5474    -4853    -6015    -7253 
   -6415    -5117    -5181    -5510    -6253    -6924    -5634    -4795 
   -5875    -6316    -6042    -5871    -5555    -5533    -5841    -6293 
   -6270    -5660    -5698    -6008    -5802    -5710    -5742    -5876 
   -6315    -6012    -5275    -5834    -6369    -5680    -5536    -5776 
   -5829    -6660    -6421    -4591    -5009    -6894    -6547    -5474 
   -5310    -5665    -6366    -6370    -5894    -5481    -5177    -5894 
   -6739    -6377    -5644    -5306    -5341    -5904    -6615    -6199 
   -5063    -5487    -6729    -6116    -4887    -5317    -6453    -6639 
   -5733    -5285    -6010    -6358    -5818    -5401    -5564    -6189 
   -6531    -5644    -4862    -5809    -6547    -6092    -5904    -5806 
   -5678    -5852    -5891    -5998    -6205    -6058    -5498    -4995 
   -5509    -6583    -6411    -5570    -5791    -5985    -5734    -6269 
   -5977    -4868    -5761    -6728    -5799    -5586    -5857    -5525 
   -6011    -6223    -5663    -6112    -6498    -5522    -4962    -5900 
   -6454    -5763    -5697    -6188    -5810    -5668    -6061    -5826 
   -5611    -5667    -5792    -6403    -6427    -5413    -4947    -5895 
   -6999    -6554    -5282    -4939    -5591    -6451    -6373    -5491 
   -5591    -6168    -5946    -5724    -5863    -5964    -5672    -5346 
   -5856    -6470    -6343    -5552    -4888    -5694    -6963    -6627 
   -5181    -4845    -6029    -6542    -5941    -5625    -5899    -6358 
   -6066    -5192    -5283    -6181    -6336    -5895    -5842    -5634 
   -5516    -6173    -6173    -5536    -5894    -6377    -5695    -5271 
   -5994    -6249    -5872    -5826    -5764    -5621    -5617    -6046 
   -6324    -5490    -5393    -6457    -6442    -5895    -5603    -5444 
   -5992    -6002    -5580    -6292    -6187    -4895    -5429    -6710 
   -6037    -5300    -5937    -5915    -5441    -6208    -6466    -5435 
   -5625    -6451    -5861    -5327    -5695    -6066    -6462    -6107 
   -5174    -5641    -6420    -5975    -5563    -5508    -5810    -6141 
   -5373    -5367    -6625    -6327    -5323    -5576    -6201    -6461 
   -6185    -5629    -5346    -5444    -6030    -6569    -6141    -5139 
   -4919    -5931    -7007    -6477    -5097    -5386    -6405    -6025 
   -5555    -5806    -6014    -6075    -5745    -5358    -5661    -6174 
   -6081    -6046    -6343    -5638    -4941    -5908    -6616    -6061 
   -5872    -5961    -5686    -5940    -6070    -5173    -5368    -6542 
   -5904    -5034    -6011    -6613    -6012    -5794    -5942    -5706 
   -5302    -5598    -6426    -6340    -5695    -5737    -5601    -5347 
   -6122    -6343    -5686    -6099    -6012    -4924    -5922    -7202 
   -5890    -4924    -5498    -5983    -6552    -6241    -5092    -5582 
   -6702    -6057    -5320    -5830    -5705    -5391    -5999    -6072 
   -6304    -6843    -5694    -4595    -5360    -6332    -6444    -5753 
   -5208    -5896    -6505    -5707    -5130    -6077    -6818    -6089 
   -5270    -5289    -5730    -6258    -6147    -5589    -5799    -6142 
   -6019    -5778    -5152    -5324    -6334    -6164    -5591    -5868 
   -5968    -5609    -5505    -5875    -6567    -6755    -5938    -5228 
   -5351    -5926    -6670    -6786    -5887    -5309    -5706    -5624 
   -4823    -5624    -7115    -5651    -3940    -5690    -6778    -5449 
   -5902    -7330    -6448    -5466    -6181    -6363    -6070    -6550 
   -6083    -4816    -5036    -5869    -5918    -6083    -6461    -6226 
   -5605    -4934    -4954    -5910    -5664    -5004    -6169    -5803 
   -3611    -5078    -8723    -8954    -6713    -4722    -3524    -5641 
   -9992    -8683    -2149    -1526    -7788    -9721    -5333    -3569 
   -6374    -7616    -5166    -3258    -5451    -7695    -5421    -3955 
   -7354    -9151    -5476    -2735    -5378    -7790    -7024    -7229 
   -6531    -2685    -2307    -6546    -8093    -5844    -4712    -5871 
   -5881    -3535    -2458    -5570   -10605   -10534    -4158    -1748 
   -6662    -9486    -7338    -5759    -5634    -4614    -3466    -4064 
   -6138    -7277    -6597    -6162    -6195    -5239    -4530    -5262 
   -6588    -7219    -5749    -5034    -7315    -7447    -5728    -6053 
   -5190    -5049    -8032    -6450    -2328    -5277    -9005    -5742 
   -2997    -5181    -6701    -5782    -5440    -5942    -5333    -4561 
   -5583    -7414    -8290    -7391    -6180    -6027    -4891    -3659 
   -5179    -6620    -5791    -5759    -7299    -6340    -3465    -5455 
   -8758    -5327    -2366    -5455    -7678    -7453    -7299    -6153 
   -4126    -3904    -6748    -8129    -5719    -5155    -6805    -6016 
   -4321    -4234    -5341    -6866    -7125    -5788    -5265    -6853 
   -7481    -4490    -2671    -5410    -7276    -6814    -7156    -6226 
   -4226    -5090    -6735    -5944    -5809    -7496    -6817    -4251 
   -4086    -6181    -7731    -6663    -4128    -4731    -7242    -6162 
   -4677    -6058    -5749    -4222    -5815    -8406    -7615    -4842 
   -4823    -6320    -5614    -5224    -6062    -5393    -5744    -7030 
   -5329    -4446    -6554    -7138    -6178    -5543    -4776    -4792 
   -5964    -6922    -7042    -6218    -5395    -5622    -5910    -6006 
   -5562    -4440    -5621    -7334    -6023    -5768    -6658    -4788 
   -4371    -7169    -7740    -5539    -4199    -5167    -6643    -5850 
   -4521    -5503    -7150    -7639    -6725    -4810    -3848    -4766 
   -6743    -8064    -6752    -4645    -4603    -5482    -6447    -7339 
   -6447    -4657    -4858    -6470    -6880    -5929    -4745    -4536 
   -6529    -8313    -6417    -3346    -3433    -5998    -7674    -7344 
   -6442    -5452    -4610    -5580    -6871    -6238    -5680    -5351 
   -4885    -6424    -6839    -4822    -5564    -7007    -5255    -4583 
   -6139    -6146    -5814    -6972    -6686    -5058    -5289    -6016 
   -5907    -6833    -7057    -4885    -4374    -6581    -7520    -6286 
   -4772    -4449    -5402    -6723    -7763    -6303    -2933    -3771 
   -7758    -7403    -4853    -5251    -6031    -6328    -6596    -4606 
   -3944    -7101    -8147    -5803    -4568    -5454    -6868    -6490 
   -4993    -5323    -5791    -5566    -6554    -6709    -5671    -6045 
   -6505    -5263    -4606    -6632    -7981    -5722    -3881    -4608 
   -5869    -7079    -6385    -4376    -4988    -6822    -6771    -5956 
   -5868    -5853    -5341    -5188    -5652    -5919    -5841    -6232 
   -7234    -6782    -4946    -5541    -7177    -5838    -4599    -5879 
   -6523    -5474    -4749    -5138    -5918    -6690    -6539    -5433 
   -5571    -6246    -5705    -5763    -6072    -5169    -5737    -7542 
   -6718    -4722    -5161    -6664    -6284    -5085    -5733    -6450 
   -5279    -5152    -6261    -5850    -5551    -6500    -6111    -5089 
   -6050    -7029    -6158    -4996    -4631    -5830    -7111    -6046 
   -5242    -5921    -5818    -6177    -6813    -5833    -5300    -5980 
   -6185    -5289    -4507    -5991    -7118    -5224    -5100    -7418 
   -6799    -4993    -5593    -6064    -5050    -4914    -6238    -6548 
   -5692    -6073    -6473    -5628    -5508    -5860    -5665    -5719 
   -6238    -6577    -6004    -5319    -5385    -5236    -5545    -7060 
   -7015    -5128    -5157    -6301    -5583    -5364    -6615    -6357 
   -5283    -5738    -6720    -6107    -4700    -5233    -6392    -5958 
   -6106    -6793    -5404    -4172    -5810    -7348    -6559    -5697 
   -5688    -5525    -5229    -5429    -6546    -7111    -6080    -5427 
   -5425    -4901    -5043    -6538    -7252    -5374    -4079    -6326 
   -7727    -5898    -4831    -5524    -6342    -6721    -6158    -5366 
   -4950    -5324    -6879    -7094    -5248    -4396    -5166    -6305 
   -6929    -6266    -5406    -5749    -6077    -5447    -5641    -6583 
   -6403    -6118    -6064    -5013    -4519    -5938    -7229    -6592 
   -5416    -4942    -4904    -5900    -7048    -6497    -5547    -5628 
   -5815    -5736    -5799    -5840    -5790    -5757    -5418    -5360 
   -6642    -7400    -5850    -4696    -5817    -6683    -5625    -4926 
   -6208    -6924    -5861    -5125    -5378    -6166    -6353    -5252 
   -4918    -5869    -6554    -6633    -5953    -5255    -5412    -5842 
   -6438    -6471    -5528    -5177    -5641    -6060    -6120    -5841 
   -5906    -6070    -5597    -5717    -6579    -5908    -5043    -6343 
   -6980    -5653    -5084    -5741    -6138    -5494    -5143    -6501 
   -6590    -4658    -5448    -7534    -6471    -5042    -5663    -6679 
   -6644    -5080    -4230    -5660    -6592    -5840    -5899    -6762 
   -6246    -5231    -5247    -5838    -6292    -5921    -5636    -5968 
   -5458    -5609    -6771    -5699    -4542    -6196    -7060    -5495 
   -4753    -6346    -7310    -5664    -4833    -6080    -6312    -5864 
   -6083    -5582    -4980    -5856    -6338    -5482    -5518    -6103 
   -5913    -6120    -6205    -5494    -5420    -5802    -6257    -6901 
   -6193    -4317    -4445    -7090    -7873    -5364    -4423    -6185 
   -6458    -5360    -5810    -6812    -6303    -5591    -6089    -5780 
   -4603    -5405    -6912    -6548    -5216    -4795    -6092    -6885 
   -5872    -5880    -6469    -5293    -4733    -5973    -6531    -6104 
   -5765    -5332    -5294    -6106    -6331    -5614    -5563    -5836 
   -5522    -6076    -6885    -5952    -5310    -6262    -6589    -5848 
   -5215    -5193    -5655    -6043    -6058    -5616    -5551    -6361 
   -6520    -5513    -4981    -6220    -7488    -5995    -3964    -4982 
   -7082    -7358    -6226    -4912    -4945    -6180    -6203    -5784 
   -6224    -5670    -4889    -5675    -6386    -6066    -5834    -5864 
   -5832    -6185    -6359    -5462    -4864    -6012    -7144    -6035 
