Origin Time       2025/03/30 21:30:00
Lat.              38.535
Long.             142.295
Depth. (km)       44
Mag.              4.3
Station Code      MYGH09
Station Lat.      38.0091
Station Long.     140.6027
Station Height(m) 30
Record Time       2025/03/30 21:31:38
Sampling Freq(Hz) 100Hz
Duration Time(s)  120
Dir.              1
Scale Factor      2942(gal)/8224139
Max. Acc. (gal)   0.163
Last Correction   2025/03/30 21:31:38
Memo.             
[...]
  117135   117104   117097   117109   117134   117170   117177   117151 
  117144   117175   117209   117217   117198   117167   117136   117113 
  117109   117130   117148   117144   117131   117121   117139   117182 
  117196   117184   117188   117184   117147   117128   117150   117173 
  117169   117142   117123   117142   117167   117162   117177   117250 
  117289   117239   117186   117197   117228   117219   117157   117090 
  117085   117115   117117   117116   117142   117171   117175   117158 
  117151   117155   117166   117180   117171   117146   117136   117139 
  117150   117182   117197   117161   117126   117130   117154   117175 
  117171   117139   117116   117132   117162   117171   117175   117193 
  117208   117204   117194   117202   117200   117181   117169   117127 
  117074   117112   117201   117227   117196   117163   117144   117150 
  117167   117173   117178   117178   117146   117112   117116   117143 
  117175   117190   117157   117103   117085   117120   117162   117175 
  117167   117146   117148   117198   117215   117166   117131   117138 
  117140   117134   117140   117157   117154   117132   117138   117177 
  117217   117234   117221   117189   117142   117096   117086   117116 
  117147   117163   117177   117182   117181   117198   117234   117235 
  117192   117184   117219   117216   117167   117121   117104   117131 
  117148   117104   117070   117109   117165   117194   117216   117227 
  117223   117212   117165   117100   117062   117061   117086   117105 
  117117   117155   117204   117232   117223   117173   117150   117184 
  117220   117205   117136   117076   117084   117126   117147   117163 
  117200   117211   117182   117175   117204   117217   117194   117155 
  117126   117105   117103   117126   117146   117165   117185   117171 
  117144   117157   117186   117192   117188   117192   117192   117198 
  117227   117216   117166   117146   117171   117198   117198   117174 
  117146   117143   117163   117161   117128   117116   117140   117171 
  117181   117181   117196   117200   117184   117190   117204   117213 
  117242   117232   117163   117115   117092   117076   117109   117180 
  117221   117216   117177   117144   117162   117224   117242   117182 
  117117   117100   117096   117089   117104   117121   117105   117116 
  117159   117155   117165   117240   117265   117198   117150   117144 
  117126   117105   117116   117132   117151   117167   117140   117109 
  117146   117221   117274   117278   117234   117194   117211   117235 
  117223   117196   117162   117127   117113   117094   117077   117123 
  117184   117171   117148   117177   117211   117228   117213   117148 
  117103   117104   117101   117100   117109   117097   117086   117104 
  117127   117140   117155   117180   117207   117208   117169   117123 
  117119   117162   117208   117221   117200   117165   117146   117161 
  117205   117231   117209   117165   117123   117096   117097   117134 
  117178   117193   117162   117085   117051   117131   117219   117215 
  117174   117144   117140   117173   117175   117112   117067   117103 
  117171   117208   117211   117184   117140   117127   117154   117157 
  117151   117209   117278   117259   117184   117119   117105   117154 
  117181   117128   117082   117093   117127   117161   117163   117127 
  117089   117094   117153   117200   117181   117161   117189   117205 
  117188   117189   117201   117193   117178   117165   117157   117193 
  117258   117265   117201   117155   117142   117116   117107   117127 
  117131   117139   117170   117169   117144   117132   117144   117198 
  117239   117211   117180   117181   117175   117188   117220   117221 
  117200   117180   117146   117105   117067   117066   117116   117131 
  117104   117107   117131   117167   117224   117243   117220   117231 
  117256   117225   117178   117162   117135   117119   117136   117112 
  117069   117094   117134   117142   117171   117193   117167   117135 
  117127   117159   117211   117243   117238   117177   117104   117108 
  117161   117159   117135   117158   117161   117103   117097   117163 
  117189   117193   117256   117286   117193   117089   117065   117067 
  117088   117151   117197   117177   117147   117175   117235   117263 
  117256   117213   117148   117150   117227   117266   117220   117120 
  117034   117049   117128   117165   117159   117177   117208   117190 
  117157   117153   117153   117147   117116   117054   117061   117136 
  117161   117151   117162   117161   117157   117177   117178   117135 
  117113   117170   117247   117256   117216   117189   117178   117192 
  117223   117220   117181   117143   117101   117063   117067   117124 
  117192   117215   117205   117209   117231   117239   117220   117194 
  117166   117123   117094   117109   117143   117155   117138   117130 
  117166   117234   117292   117286   117219   117178   117188   117184 
  117165   117173   117180   117155   117130   117127   117151   117180 
  117184   117169   117131   117101   117136   117186   117175   117148 
  117153   117157   117161   117188   117180   117111   117062   117069 
  117070   117077   117130   117165   117146   117134   117158   117194 
  117212   117204   117175   117121   117084   117127   117212   117246 
  117224   117193   117166   117136   117123   117186   117281   117305 
  117286   117261   117215   117173   117147   117121   117103   117109 
  117127   117146   117194   117235   117211   117181   117174   117155 
  117182   117258   117263   117186   117128   117107   117099   117094 
  117073   117053   117069   117086   117096   117126   117161   117174 
  117159   117124   117113   117155   117188   117151   117093   117085 
  117130   117158   117148   117144   117169   117196   117196   117171 
  117161   117194   117238   117224   117169   117142   117159   117173 
  117162   117146   117130   117111   117107   117115   117139   117186 
  117196   117166   117192   117265   117273   117182   117100   117117 
  117155   117153   117174   117208   117173   117131   117175   117197 
  117119   117066   117066   117089   117157   117189   117175   117227 
  117278   117227   117161   117170   117200   117182   117134   117109 
  117130   117153   117124   117080   117088   117161   117265   117301 
  117204   117077   117061   117147   117208   117178   117126   117126 
  117169   117194   117177   117162   117189   117215   117186   117121 
  117078   117104   117154   117151   117123   117139   117189   117239 
  117254   117209   117171   117207   117242   117240   117246   117213 
  117140   117116   117120   117093   117084   117132   117194   117225 
  117188   117107   117074   117101   117143   117174   117175   117138 
  117111   117162   117229   117189   117107   117124   117194   117212 
  117174   117130   117105   117105   117124   117147   117182   117227 
  117251   117248   117227   117186   117150   117154   117173   117166 
  117163   117181   117186   117177   117143   117090   117117   117204 
  117228   117216   117217   117180   117120   117112   117144   117162 
  117173   117193   117204   117207   117211   117184   117115   117069 
  117078   117058   117026   117077   117136   117134   117163   117219 
  117204   117170   117167   117148   117124   117139   117148   117127 
  117150   117229   117273   117229   117180   117190   117194   117161 
  117150   117169   117190   117205   117202   117196   117202   117205 
  117186   117144   117116   117135   117166   117150   117111   117120 
  117161   117163   117144   117140   117132   117119   117119   117123 
  117147   117197   117197   117144   117131   117171   117239   117278 
  117228   117154   117140   117178   117239   117263   117193   117085 
  117065   117135   117167   117143   117148   117170   117188   117244 
  117288   117251   117185   117132   117089   117061   117074   117120 
  117175   117219   117202   117136   117100   117138   117193   117204 
  117167   117109   117078   117105   117142   117155   117162   117158 
  117163   117193   117194   117171   117173   117166   117134   117144 
  117185   117169   117135   117148   117169   117174   117162   117127 
  117090   117069   117066   117107   117153   117155   117143   117147 
  117165   117194   117212   117216   117228   117227   117193   117167 
  117163   117155   117142   117136   117117   117085   117080   117107 
  117151   117201   117216   117205   117211   117216   117197   117175 
  117157   117161   117201   117207   117138   117081   117085   117115 
  117147   117180   117188   117180   117197   117221   117221   117192 
  117159   117177   117205   117170   117104   117062   117076   117136 
  117173   117158   117158   117182   117186   117190   117217   117221 
  117182   117134   117099   117067   117061   117092   117119   117132 
  117165   117232   117285   117244   117159   117144   117180   117202 
  117188   117142   117131   117181   117228   117227   117205   117181 
  117146   117120   117132   117157   117180   117213   117204   117132 
  117097   117108   117100   117088   117092   117113   117159   117185 
  117171   117192   117247   117242   117196   117200   117211   117181 
  117175   117175   117135   117109   117126   117155   117163   117142 
  117161   117221   117234   117217   117229   117215   117167   117146 
  117151   117167   117148   117058   117024   117126   117198   117155 
  117116   117120   117104   117099   117131   117134   117103   117107 
  117128   117143   117182   117193   117142   117146   117240   117282 
  117242   117234   117242   117200   117178   117211   117201   117153 
  117151   117192   117219   117204   117169   117165   117184   117198 
  117221   117219   117185   117180   117178   117126   117066   117080 
  117154   117209   117207   117181   117171   117151   117097   117082 
  117150   117231   117244   117192   117158   117166   117159   117171 
  117221   117220   117147   117093   117120   117171   117175   117147 
  117132   117128   117127   117150   117188   117213   117201   117142 
  117080   117094   117166   117185   117119   117054   117063   117140 
  117212   117205   117143   117113   117148   117175   117130   117082 
  117100   117130   117143   117173   117200   117185   117167   117198 
  117243   117232   117190   117181   117204   117227   117216   117161 
  117139   117196   117251   117238   117182   117153   117178   117221 
  117242   117211   117154   117153   117201   117211   117150   117086 
  117100   117159   117173   117154   117150   117162   117184   117196 
  117157   117090   117061   117104   117194   117225   117142   117034 
  117008   117055   117100   117128   117165   117197   117208   117196 
  117184   117205   117201   117126   117070   117063   117055   117082 
  117148   117213   117273   117265   117178   117136   117170   117184 
  117136   117073   117040   117061   117115   117140   117166   117240 
  117263   117194   117177   117244   117271   117219   117155   117142 
  117166   117161   117124   117112   117112   117127   117165   117171 
  117155   117162   117166   117162   117175   117193   117184   117155 
  117138   117151   117207   117255   117238   117175   117136   117151 
  117194   117227   117243   117252   117234   117185   117159   117188 
  117225   117244   117256   117246   117208   117181   117150   117117 
  117144   117175   117113   117031   117015   117042   117080   117104 
  117120   117143   117124   117074   117089   117151   117153   117116 
  117151   117204   117194   117177   117151   117096   117081   117105 
  117082   117050   117096   117180   117216   117194   117147   117130 
  117178   117244   117269   117238   117184   117150   117150   117198 
  117236   117196   117163   117229   117317   117316   117227   117147 
  117116   117105   117113   117142   117157   117138   117135   117177 
  117189   117134   117093   117101   117093   117077   117101   117131 
  117151   117213   117270   117235   117162   117144   117157   117157 
  117192   117256   117273   117238   117190   117147   117127   117147 
  117186   117186   117151   117130   117138   117173   117201   117175 
  117140   117154   117197   117250   117269   117205   117136   117140 
  117158   117148   117146   117159   117208   117279   117288   117221 
  117169   117166   117163   117132   117092   117035   116938   116874 
  116934   117049   117101   117067   116978   116947   117066   117232 
  117310   117306   117270   117207   117113   117024   117038   117184 
  117294   117220   117105   117154   117294   117359   117324   117275 
  117262   117229   117169   117138   117126   117111   117134   117188 
  117194   117161   117140   117165   117261   117351   117286   117146 
  117112   117143   117107   117024   117000   117008   116947   116884 
  116947   117069   117154   117279   117452   117540   117513   117433 
  117346   117290   117231   117124   117050   117066   117111   117112 
  117059   117024   117108   117232   117216   117120   117101   117154 
  117227   117235   117153   117101   117069   116955   116861   116888 
  116991   117113   117223   117266   117224   117155   117148   117197 
  117240   117306   117386   117359   117255   117229   117296   117282 
  117130   117089   117252   117360   117302   117189   117113   117096 
  117065   117053   117128   117161   117100   117085   117130   117158 
  117153   117101   117000   116884   116865   116982   117038   116938 
  116941   117189   117481   117617   117590   117495   117391   117286 
  117247   117285   117243   117085   117012   117080   117117   117028 
  116861   116804   117003   117266   117371   117381   117347   117267 
  117234   117261   117238   117116   116982   116970   117054   117113 
  117124   117092   117062   117096   117124   117107   117161   117348 
  117471   117342   117163   117162   117192   117101   116986   116986 
  117092   117174   117181   117173   117207   117271   117297   117265 
  117209   117131   117073   117090   117135   117169   117190   117161 
  117089   117046   117042   117023   117004   117047   117124   117211 
  117278   117242   117211   117337   117464   117440   117339   117186 
  117026   116986   117049   117103   117126   117131   117159   117263 
  117375   117351   117211   117115   117144   117265   117373   117331 
  117148   117031   117067   117108   117045   116941   116883   116870 
  116883   116947   117076   117163   117128   117093   117202   117397 
  117493   117401   117234   117170   117229   117319   117355   117297 
  117194   117138   117148   117116   116968   116839   116860   116980 
  117130   117242   117254   117224   117193   117177   117278   117416 
  117342   117139   117070   117130   117202   117229   117198   117165 
  117131   117059   117027   117081   117121   117105   117085   117057 
  117026   117065   117162   117211   117192   117196   117221   117196 
  117194   117300   117387   117363   117337   117354   117278   117112 
  117050   117115   117113   116993   116961   117051   117059   117015 
  117088   117178   117169   117099   117012   116986   117073   117213 
  117286   117184   117027   117024   117112   117127   117099   117136 
  117212   117198   117120   117120   117235   117374   117401   117306 
  117261   117274   117224   117167   117200   117293   117387   117378 
  117216   117073   117115   117204   117170   117090   117034   117011 
  117078   117159   117120   117009   116935   116942   116992   117008 
  116999   117058   117193   117323   117402   117401   117301   117169 
  117094   117147   117342   117531   117532   117348   117163   117104 
  117155   117240   117238   117086   116978   117046   117127   117112 
  117099   117150   117225   117243   117189   117116   117094   117177 
  117234   117144   117081   117175   117274   117219   117057   117009 
  117165   117313   117320   117248   117174   117163   117185   117158 
  117132   117162   117142   117023   116989   117127   117234   117171 
  117074   117097   117194   117232   117202   117186   117189   117169 
  117169   117235   117277   117217   117128   117100   117103   117120 
  117193   117223   117084   116939   117009   117139   117092   116980 
  116986   117047   117084   117136   117200   117182   117054   116939 
  116973   117119   117238   117256   117244   117259   117250   117189 
  117139   117175   117279   117346   117354   117325   117261   117238 
  117251   117197   117088   116999   116982   117034   117085   117124 
  117177   117186   117161   117190   117239   117248   117255   117235 
  117196   117248   117346   117336   117262   117239   117267   117285 
  117271   117232   117157   117062   117008   116999   116989   117049 
  117244   117369   117247   117076   117057   117119   117153   117159 
  117157   117120   117093   117170   117288   117269   117142   117082 
  117059   116999   116992   117045   117074   117121   117180   117175 
  117175   117274   117350   117298   117259   117305   117306   117239 
  117186   117174   117194   117201   117165   117111   117034   116966 
  116976   116995   116951   116945   117027   117120   117196   117254 
  117247   117182   117147   117184   117282   117375   117317   117078 
  116893   117008   117292   117379   117202   117040   117084   117251 
  117435   117510   117374   117159   117073   117082   117089   117107 
  117115   117085   117096   117151   117124   116991   116881   116923 
  117034   117050   117023   117086   117189   117202   117132   117131 
  117266   117342   117235   117123   117123   117153   117171   117180 
  117204   117324   117466   117447   117271   117099   117038   117081 
  117139   117126   117058   117045   117126   117196   117158   117065 
  117047   117109   117124   117055   117026   117101   117220   117288 
  117279   117274   117340   117390   117281   117084   117034   117174 
  117310   117315   117251   117220   117244   117270   117211   117150 
  117238   117308   117204   117123   117148   117143   117119   117159 
  117200   117103   116928   116901   117049   117194   117254   117242 
  117174   117142   117213   117266   117184   117096   117121   117127 
  117038   116997   117076   117175   117223   117209   117143   117108 
  117215   117354   117315   117189   117186   117240   117215   117154 
  117127   117105   117067   117019   116964   116965   117084   117235 
  117297   117278   117252   117215   117139   117073   117063   117069 
  117074   117107   117146   117193   117248   117267   117282   117304 
  117244   117132   117097   117167   117224   117159   117022   116930 
  116937   117015   117089   117154   117251   117312   117267   117212 
  117240   117282   117256   117202   117177   117181   117202   117208 
  117167   117112   117063   116986   116915   116949   117067   117154 
  117142   117076   117040   117073   117173   117275   117263   117128 
  117043   117136   117281   117297   117192   117077   117042   117120 
  117239   117300   117292   117265   117232   117196   117180   117170 
  117124   117053   117031   117107   117216   117267   117248   117188 
  117134   117126   117184   117293   117360   117302   117221   117238 
  117279   117258   117197   117126   117084   117067   117053   117099 
  117200   117259   117250   117236   117271   117325   117320   117243 
