Origin Time       2025/03/30 21:30:00
Lat.              38.535
Long.             142.295
Depth. (km)       44
Mag.              4.3
Station Code      MYGH09
Station Lat.      38.0091
Station Long.     140.6027
Station Height(m) 130
Record Time       2025/03/30 21:31:38
Sampling Freq(Hz) 100Hz
Duration Time(s)  120
Dir.              5
Scale Factor      7845(gal)/8223790
Max. Acc. (gal)   0.771
Last Correction   2025/03/30 21:31:38
Memo.             
[...]
   34376    34342    34300    34303    34356    34389    34377    34365 
   34360    34338    34326    34365    34435    34479    34464    34416 
   34393    34410    34429    34420    34391    34369    34389    34418 
   34369    34287    34323    34450    34472    34392    34393    34462 
   34453    34375    34348    34364    34346    34337    34377    34389 
   34364    34387    34423    34407    34416    34483    34503    34434 
   34369    34380    34398    34356    34302    34307    34375    34420 
   34391    34364    34415    34464    34411    34330    34327    34366 
   34380    34387    34387    34373    34380    34400    34430    34479 
   34497    34442    34389    34429    34466    34372    34261    34291 
   34358    34342    34339    34414    34437    34389    34398    34431 
   34411    34402    34435    34416    34337    34314    34354    34366 
   34352    34360    34391    34433    34434    34372    34349    34425 
   34489    34457    34399    34391    34381    34322    34271    34310 
   34380    34383    34377    34437    34479    34439    34388    34391 
   34438    34469    34442    34366    34285    34254    34295    34389 
   34483    34501    34446    34407    34411    34383    34318    34333 
   34402    34380    34310    34335    34414    34434    34435    34468 
   34452    34362    34311    34341    34375    34372    34383    34431 
   34429    34366    34365    34418    34411    34360    34348    34373 
   34393    34411    34446    34447    34377    34329    34354    34396 
   34430    34445    34395    34308    34302    34393    34469    34460 
   34430    34411    34366    34339    34393    34466    34462    34400 
   34371    34366    34339    34331    34388    34441    34415    34342 
   34310    34354    34437    34457    34379    34317    34372    34472 
   34518    34520    34479    34379    34294    34312    34404    34460 
   34433    34360    34272    34203    34234    34372    34489    34476 
   34383    34358    34420    34450    34419    34406    34407    34389 
   34388    34422    34462    34457    34376    34296    34321    34383 
   34349    34272    34315    34452    34495    34433    34423    34476 
   34452    34364    34373    34461    34462    34376    34337    34368 
   34399    34398    34372    34356    34361    34352    34325    34333 
   34368    34368    34348    34379    34439    34473    34488    34497 
   34496    34479    34420    34337    34296    34300    34306    34322 
   34356    34387    34423    34484    34512    34466    34399    34366 
   34361    34380    34407    34408    34398    34391    34369    34322 
   34292    34312    34335    34317    34345    34476    34554    34461 
   34346    34358    34377    34298    34233    34268    34325    34357 
   34393    34423    34426    34430    34439    34434    34426    34454 
   34473    34412    34327    34322    34360    34366    34373    34412 
   34450    34458    34434    34399    34398    34408    34389    34365 
   34388    34422    34402    34361    34366    34387    34366    34364 
   34426    34476    34454    34415    34398    34366    34321    34307 
   34326    34338    34342    34368    34414    34443    34454    34456 
   34460    34479    34473    34399    34308    34299    34379    34442 
   34392    34315    34345    34387    34325    34290    34407    34547 
   34562    34506    34458    34393    34327    34321    34350    34356 
   34345    34360    34361    34310    34277    34288    34294    34304 
   34350    34400    34450    34522    34554    34501    34443    34427 
   34395    34333    34285    34291    34357    34410    34387    34354 
   34393    34462    34469    34434    34427    34425    34385    34385 
   34446    34456    34395    34366    34362    34315    34261    34300 
   34414    34464    34415    34383    34416    34487    34533    34468 
   34311    34218    34263    34311    34263    34261    34377    34419 
   34346    34373    34514    34528    34407    34392    34492    34497 
   34433    34429    34404    34315    34290    34345    34362    34344 
   34354    34383    34420    34462    34458    34430    34449    34469 
   34392    34296    34339    34468    34511    34453    34393    34372 
   34373    34402    34418    34357    34287    34310    34365    34376 
   34387    34438    34481    34465    34425    34410    34377    34306 
   34271    34306    34348    34364    34385    34404    34368    34315 
   34342    34419    34446    34427    34419    34431    34445    34446 
   34387    34275    34236    34318    34431    34518    34547    34461 
   34321    34249    34258    34321    34437    34520    34477    34403 
   34418    34434    34358    34304    34372    34439    34399    34377 
   34460    34503    34422    34329    34323    34369    34384    34348 
   34314    34311    34311    34311    34329    34353    34398    34479 
   34523    34480    34429    34404    34354    34296    34288    34358 
   34450    34470    34406    34326    34294    34315    34344    34357 
   34361    34350    34376    34466    34535    34524    34484    34468 
   34447    34365    34273    34298    34387    34407    34379    34406 
   34466    34464    34403    34356    34356    34396    34425    34415 
   34399    34403    34380    34287    34242    34356    34503    34528 
   34464    34412    34411    34418    34431    34445    34389    34311 
   34339    34438    34445    34333    34263    34318    34384    34366 
   34342    34396    34477    34442    34314    34312    34474    34574 
   34524    34458    34430    34377    34296    34265    34318    34377 
   34376    34349    34348    34352    34317    34299    34358    34395 
   34353    34365    34479    34515    34385    34288    34348    34411 
   34369    34321    34339    34364    34361    34384    34425    34452 
   34510    34580    34547    34426    34337    34333    34348    34322 
   34345    34453    34489    34431    34447    34534    34526    34439 
   34411    34427    34416    34407    34411    34407    34400    34362 
   34269    34165    34149    34237    34323    34376    34445    34499 
   34481    34427    34388    34350    34306    34306    34354    34379 
   34356    34318    34298    34308    34311    34303    34368    34499 
   34539    34435    34346    34393    34487    34519    34516    34527 
   34510    34408    34275    34245    34331    34384    34349    34371 
   34496    34541    34410    34287    34310    34392    34442    34461 
   34470    34469    34431    34356    34300    34276    34275    34341 
   34447    34483    34441    34433    34473    34476    34422    34372 
   34339    34303    34272    34284    34349    34422    34468    34480 
   34449    34396    34360    34356    34389    34431    34416    34338 
   34291    34304    34292    34275    34353    34441    34402    34356 
   34443    34520    34442    34341    34356    34360    34296    34317 
   34404    34391    34326    34330    34356    34350    34365    34419 
   34465    34506    34557    34547    34465    34396    34368    34354 
   34389    34445    34411    34329    34357    34454    34433    34345 
   34392    34501    34456    34341    34345    34385    34329    34265 
   34314    34404    34427    34422    34435    34410    34356    34362 
   34403    34434    34453    34435    34404    34398    34369    34285 
   34222    34256    34337    34403    34468    34514    34507    34452 
   34361    34312    34368    34461    34501    34501    34483    34430 
   34345    34287    34322    34403    34416    34372    34331    34307 
   34295    34272    34261    34333    34452    34524    34514    34469 
   34435    34376    34287    34264    34329    34388    34419    34473 
   34491    34403    34302    34292    34354    34438    34520    34545 
   34503    34433    34337    34234    34203    34253    34330    34433 
   34546    34585    34516    34439    34423    34423    34423    34438 
   34404    34287    34175    34164    34222    34295    34395    34501 
   34558    34541    34450    34341    34298    34315    34315    34304 
   34348    34410    34406    34348    34327    34353    34348    34337 
   34402    34470    34443    34346    34291    34373    34514    34518 
   34399    34379    34485    34528    34453    34398    34392    34393 
   34441    34508    34470    34333    34250    34303    34385    34399 
   34381    34381    34403    34442    34437    34344    34279    34342 
   34412    34371    34354    34469    34551    34493    34418    34393 
   34372    34349    34342    34334    34290    34249    34310    34420 
   34437    34407    34466    34551    34515    34395    34352    34415 
   34442    34377    34346    34403    34420    34330    34287    34392 
   34501    34484    34402    34326    34265    34234    34279    34406 
   34503    34508    34477    34437    34404    34396    34357    34296 
   34292    34326    34307    34261    34298    34393    34423    34393 
   34395    34437    34456    34439    34454    34474    34404    34311 
   34330    34403    34404    34342    34280    34241    34252    34360 
   34514    34562    34485    34408    34389    34377    34372    34431 
   34516    34510    34443    34442    34484    34484    34460    34419 
   34341    34252    34183    34152    34184    34268    34357    34464 
   34609    34709    34669    34587    34561    34481    34314    34236 
   34288    34281    34132    34044    34141    34245    34257    34322 
   34456    34507    34503    34569    34653    34604    34449    34346 
   34325    34314    34304    34303    34319    34379    34437    34422 
   34402    34452    34462    34373    34360    34488    34535    34400 
   34292    34331    34392    34410    34456    34485    34427    34376 
   34391    34364    34272    34237    34279    34327    34357    34333 
   34260    34242    34318    34410    34468    34473    34433    34388 
   34391    34433    34419    34326    34263    34299    34398    34477 
   34506    34492    34452    34439    34477    34487    34452    34434 
   34411    34379    34418    34518    34549    34458    34356    34296 
   34217    34186    34300    34460    34533    34496    34410    34354 
   34339    34312    34280    34303    34410    34538    34545    34411 
   34288    34280    34356    34438    34465    34431    34391    34381 
   34376    34330    34281    34312    34411    34473    34466    34408 
   34334    34307    34349    34410    34447    34447    34410    34368 
   34365    34393    34368    34263    34188    34234    34314    34334 
   34357    34415    34438    34431    34447    34445    34414    34429 
   34485    34503    34477    34450    34453    34456    34388    34271 
   34211    34265    34373    34460    34503    34547    34614    34624 
   34541    34461    34441    34402    34333    34298    34271    34211 
   34186    34231    34304    34388    34507    34619    34642    34554 
   34452    34420    34385    34291    34219    34222    34261    34265 
   34229    34240    34311    34368    34418    34504    34561    34514 
   34443    34430    34402    34323    34290    34326    34341    34319 
   34373    34500    34523    34402    34287    34263    34304    34365 
   34423    34449    34410    34360    34373    34395    34377    34387 
   34458    34506    34449    34381    34399    34412    34362    34357 
   34431    34461    34377    34276    34240    34258    34287    34276 
   34254    34311    34418    34480    34515    34520    34439    34346 
   34366    34445    34452    34393    34352    34322    34291    34323 
   34408    34447    34442    34437    34419    34437    34511    34538 
   34483    34438    34441    34443    34450    34479    34469    34408 
   34384    34410    34407    34361    34341    34396    34452    34411 
   34329    34307    34346    34412    34485    34519    34465    34338 
   34256    34275    34288    34225    34184    34269    34412    34488 
   34501    34493    34419    34319    34318    34399    34446    34429 
   34392    34345    34261    34209    34269    34389    34461    34454 
   34433    34460    34485    34431    34365    34396    34457    34410 
   34310    34291    34331    34334    34311    34348    34442    34484 
   34422    34366    34403    34443    34391    34294    34285    34449 
   34649    34657    34530    34501    34564    34537    34412    34335 
   34368    34379    34271    34173    34213    34284    34254    34233 
   34376    34561    34608    34603    34662    34647    34452    34233 
   34140    34136    34200    34339    34453    34420    34257    34101 
   34125    34330    34515    34569    34608    34703    34723    34547 
   34321    34263    34299    34231    34115    34119    34200    34252 
   34300    34384    34466    34547    34682    34817    34784    34535 
   34226    34007    33932    33979    34078    34150    34221    34337 
   34431    34473    34578    34777    34906    34869    34742    34612 
   34496    34442    34488    34511    34368    34172    34133    34207 
   34196    34117    34157    34275    34295    34272    34348    34542 
   34776    34873    34776    34669    34618    34492    34267    34061 
   34021    34177    34366    34419    34369    34310    34230    34141 
   34163    34357    34570    34650    34643    34604    34474    34273 
   34200    34335    34458    34423    34323    34146    33871    33735 
   33912    34172    34221    34136    34191    34377    34476    34480 
   34557    34770    35016    35136    35081    34943    34735    34365 
   33914    33620    33582    33697    33852    34055    34348    34673 
   34892    34939    34905    34917    35000    35055    34947    34659 
   34302    33979    33747    33646    33701    33928    34261    34551 
   34757    34905    34871    34605    34371    34383    34539    34632 
   34566    34389    34206    34088    34030    33982    33990    34163 
   34445    34601    34496    34258    34136    34209    34358    34445 
   34441    34473    34653    34865    34884    34663    34398    34261 
   34210    34149    34129    34213    34318    34331    34281    34321 
   34474    34577    34512    34376    34310    34306    34311    34357 
   34412    34427    34479    34599    34673    34628    34499    34353 
   34204    34086    34096    34198    34219    34138    34107    34240 
   34426    34476    34379    34294    34403    34709    34959    34978 
   34834    34626    34427    34304    34213    34088    34038    34179 
   34408    34533    34514    34449    34419    34466    34608    34766 
   34801    34677    34492    34307    34076    33836    33774    33932 
   34159    34423    34713    34793    34531    34164    33960    33947 
   34038    34195    34422    34636    34730    34734    34744    34717 
   34582    34449    34464    34533    34464    34221    33963    33883 
   33968    34109    34319    34560    34696    34685    34672    34773 
   34796    34596    34419    34398    34350    34229    34160    34167 
   34165    34177    34269    34334    34288    34230    34256    34334 
   34383    34423    34531    34632    34605    34447    34281    34256 
   34350    34461    34580    34636    34542    34362    34186    34005 
   33863    33930    34302    34726    34844    34719    34642    34642 
   34601    34511    34380    34240    34182    34199    34219    34264 
   34327    34352    34392    34539    34719    34771    34642    34449 
   34356    34356    34338    34312    34338    34364    34371    34418 
   34468    34447    34354    34231    34184    34290    34400    34322 
   34146    34123    34248    34323    34298    34258    34260    34308 
   34393    34470    34441    34323    34310    34457    34580    34588 
   34554    34495    34361    34207    34190    34375    34601    34680 
   34643    34608    34580    34500    34380    34244    34123    34102 
   34204    34299    34268    34180    34211    34419    34639    34708 
   34693    34709    34686    34553    34461    34531    34609    34562 
   34393    34140    33924    33902    34048    34186    34294    34519 
   34798    34897    34786    34573    34276    33993    33937    34140 
   34353    34437    34511    34603    34569    34431    34393    34506 
   34591    34543    34439    34311    34128    33944    33899    34072 
   34315    34423    34403    34346    34299    34312    34393    34485 
   34547    34546    34497    34442    34387    34357    34393    34426 
   34345    34222    34215    34306    34425    34576    34704    34732 
   34672    34555    34399    34275    34269    34327    34338    34319 
   34353    34420    34379    34227    34179    34261    34304    34339 
   34483    34581    34472    34277    34223    34357    34554    34708 
   34759    34636    34398    34223    34171    34182    34213    34264 
   34376    34508    34539    34474    34434    34479    34499    34395 
   34285    34298    34357    34375    34387    34433    34433    34353 
   34322    34379    34360    34226    34190    34308    34400    34431 
   34523    34589    34431    34168    34183    34483    34618    34434 
   34241    34199    34175    34155    34283    34541    34739    34807 
   34798    34735    34589    34392    34245    34180    34155    34175 
   34252    34337    34402    34434    34419    34406    34452    34515 
   34553    34546    34457    34314    34233    34250    34279    34272 
   34284    34308    34295    34280    34287    34311    34385    34461 
   34449    34426    34520    34647    34593    34384    34291    34373 
   34388    34271    34223    34330    34487    34619    34655    34528 
   34344    34287    34325    34277    34198    34276    34411    34358 
   34187    34175    34375    34589    34717    34800    34821    34766 
   34645    34419    34121    33898    33866    34001    34175    34284 
   34326    34338    34330    34295    34281    34360    34520    34662 
   34647    34468    34295    34268    34354    34476    34608    34700 
   34663    34504    34339    34242    34234    34341    34515    34608 
   34550    34445    34403    34412    34427    34445    34476    34469 
   34377    34254    34200    34213    34231    34248    34269    34298 
   34318    34291    34222    34163    34145    34200    34371    34609 
   34788    34790    34630    34462    34362    34285    34264    34325 
   34360    34307    34265    34306    34362    34388    34429    34476 
   34483    34447    34389    34346    34377    34493    34600    34609 
   34554    34496    34412    34310    34283    34350    34383    34307 
   34203    34114    34032    34038    34171    34358    34554    34701 
   34686    34485    34265    34234    34358    34465    34516    34547 
   34566    34553    34512    34466    34429    34429    34497    34584 
   34554    34375    34206    34167    34190    34230    34342    34511 
   34622    34604    34495    34353    34231    34180    34198    34242 
   34292    34335    34312    34207    34119    34146    34265    34425 
   34593    34715    34744    34645    34443    34288    34329    34479 
   34538    34501    34497    34530    34526    34474    34412    34330 
   34218    34191    34303    34420    34468    34530    34612    34585 
   34477    34427    34406    34308    34176    34132    34177    34204 
   34159    34075    34032    34107    34302    34520    34632    34595 
   34519    34497    34466    34387    34308    34271    34294    34377 
