Origin Time       2025/03/30 21:30:00
Lat.              38.535
Long.             142.295
Depth. (km)       44
Mag.              4.3
Station Code      MYGH11
Station Lat.      38.5158
Station Long.     141.3421
Station Height(m) 5
Record Time       2025/03/30 21:31:20
Sampling Freq(Hz) 100Hz
Duration Time(s)  120
Dir.              4
Scale Factor      7845(gal)/8223790
Max. Acc. (gal)   5.655
Last Correction   2025/03/30 21:31:20
Memo.             
[...]
    2369     2370     2374     2370     2371     2376     2371     2371 
    2371     2369     2374     2378     2377     2374     2366     2367 
    2376     2378     2378     2374     2367     2371     2377     2376 
    2374     2371     2371     2371     2371     2374     2377     2373 
    2367     2371     2374     2371     2374     2374     2370     2374 
    2378     2373     2369     2373     2374     2370     2370     2376 
    2373     2371     2376     2371     2369     2374     2374     2376 
    2374     2369     2367     2373     2376     2373     2374     2374 
    2367     2370     2378     2373     2373     2371     2367     2374 
    2377     2374     2376     2370     2367     2371     2371     2374 
    2373     2370     2373     2371     2371     2376     2377     2376 
    2371     2369     2373     2377     2374     2370     2374     2376 
    2370     2371     2377     2377     2376     2371     2373     2377 
    2373     2371     2373     2371     2371     2371     2373     2380 
    2378     2371     2370     2370     2367     2367     2377     2377 
    2369     2370     2373     2369     2373     2374     2373     2376 
    2374     2371     2367     2367     2376     2377     2371     2369 
    2369     2370     2374     2377     2377     2371     2369     2369 
    2373     2376     2373     2370     2373     2371     2369     2373 
    2370     2367     2376     2377     2371     2373     2374     2371 
    2371     2371     2371     2374     2374     2374     2373     2371 
    2373     2373     2370     2371     2373     2369     2376     2378 
    2366     2366     2374     2376     2374     2371     2370     2369 
    2374     2380     2371     2370     2369     2365     2376     2380 
    2371     2373     2371     2366     2369     2369     2371     2378 
    2376     2371     2369     2369     2373     2374     2373     2374 
    2373     2370     2370     2369     2371     2373     2376     2374 
    2369     2370     2370     2369     2374     2377     2376     2370 
    2371     2377     2376     2370     2370     2374     2378     2373 
    2370     2373     2369     2370     2376     2373     2373     2373 
    2369     2371     2371     2374     2376     2374     2378     2373 
    2367     2374     2376     2374     2377     2373     2373     2373 
    2369     2371     2376     2374     2377     2376     2369     2371 
    2373     2371     2376     2377     2373     2371     2374     2374 
    2377     2374     2367     2367     2374     2380     2380     2376 
    2370     2369     2373     2378     2377     2374     2376     2371 
    2374     2377     2373     2374     2376     2371     2374     2377 
    2378     2376     2371     2373     2371     2370     2377     2376 
    2373     2373     2369     2371     2376     2371     2373     2377 
    2374     2373     2370     2369     2373     2376     2377     2380 
    2376     2367     2366     2370     2376     2377     2374     2370 
    2367     2370     2373     2376     2376     2373     2373     2376 
    2374     2374     2373     2371     2370     2373     2376     2374 
    2374     2374     2373     2374     2374     2370     2371     2374 
    2374     2374     2374     2374     2370     2370     2374     2376 
    2378     2376     2367     2367     2373     2378     2378     2376 
    2373     2371     2373     2377     2377     2373     2370     2370 
    2374     2374     2373     2377     2373     2365     2373     2380 
    2376     2373     2373     2371     2367     2370     2377     2377 
    2370     2365     2366     2376     2389     2396     2385     2359 
    2344     2357     2388     2398     2373     2338     2331     2373 
    2432     2431     2343     2268     2303     2446     2566     2509 
    2284     2079     2123     2435     2694     2647     2398     2193 
    2160     2280     2465     2547     2458     2313     2207     2255 
    2469     2542     2386     2273     2328     2489     2521     2278 
    2131     2303     2446     2470     2455     2344     2319     2407 
    2377     2300     2334     2401     2394     2330     2338     2486 
    2563     2461     2369     2247     2068     2149     2471     2686 
    2605     2226     1923     2239     2856     2890     2443     2101 
    1852     1921     2532     2997     2728     2127     1852     2153 
    2783     2956     2384     1930     2026     2289     2527     2670 
    2727     2567     2126     1911     2053     2320     2793     3019 
    2393     1630     1811     2606     3045     2847     2265     1795 
    1845     2344     2822     2805     2331     1927     2131     2732 
    2722     2161     2101     2394     2492     2586     2551     2220 
    2058     2243     2457     2540     2412     2185     2282     2521 
    2417     2281     2382     2493     2533     2478     2377     2211 
    2003     2212     2722     2836     2419     1803     1792     2639 
    2990     2417     2146     2312     2319     2407     2610     2498 
    2182     2126     2416     2614     2444     2290     2371     2301 
    1954     1973     2614     3032     2771     2304     2069     2161 
    2374     2477     2309     2038     2304     2880     2859     2357 
    1904     1715     2012     2602     2967     2960     2712     2172 
    1645     1958     2790     2947     2461     2000     1713     1946 
    2774     3109     2547     2126     2223     2327     2380     2431 
    2322     2346     2632     2577     2118     1898     2150     2624 
    2922     2655     1915     1618     2230     2984     3098     2463 
    1880     2062     2408     2502     2601     2484     2222     2249 
    2258     2083     2280     2698     2690     2470     2273     1958 
    1995     2639     3068     2710     2119     1867     1980     2432 
    2809     2587     2147     2053     2301     2687     2803     2436 
    1954     1853     2303     2836     2909     2598     2268     2114 
    2047     2064     2292     2516     2593     2521     2182     2060 
    2463     2689     2547     2457     2286     2058     2162     2412 
    2489     2517     2583     2462     2073     1954     2408     2863 
    2833     2301     1733     1838     2458     2868     2747     2304 
    2145     2374     2494     2436     2365     2307     2316     2286 
    2278     2481     2631     2586     2432     2085     1831     2074 
    2601     2864     2728     2515     2238     1919     2023     2497 
    2774     2573     2096     1981     2398     2695     2623     2382 
    2020     1919     2315     2655     2655     2550     2407     2316 
    2295     2263     2299     2228     2164     2512     2725     2478 
    2342     2295     2258     2423     2485     2357     2224     2097 
    2239     2655     2727     2412     2204     2219     2446     2582 
    2317     2114     2211     2354     2600     2771     2400     1938 
    2182     2578     2513     2574     2614     2120     1912     2304 
    2528     2582     2612     2297     2083     2376     2551     2397 
    2241     2177     2349     2490     2335     2373     2566     2438 
    2343     2423     2250     2073     2262     2555     2714     2729 
    2505     2025     1746     2127     2735     2830     2386     2060 
    2185     2331     2462     2733     2551     2115     2249     2349 
    1995     2150     2867     3099     2685     2150     1695     1726 
    2432     3009     2979     2397     1605     1703     2635     3126 
    2997     2346     1490     1606     2579     3152     3017     2405 
    1647     1528     2296     2949     2735     2335     2330     2407 
    2533     2515     2164     2149     2440     2378     2139     2054 
    2320     2836     2910     2458     2010     1865     2231     2764 
    2789     2377     2029     2091     2590     2876     2432     1879 
    1877     2353     2902     2786     2100     1930     2311     2666 
    2821     2427     1836     1938     2552     3048     2833     1902 
    1509     2131     2961     3291     2654     1840     1869     2130 
    2376     2725     2408     1912     2339     2936     2771     2250 
    1918     1915     2299     2930     3122     2359     1590     1768 
    2380     2952     3061     2292     1679     1938     2335     2685 
    2986     2759     2253     1883     1803     2196     2619     2678 
    2639     2664     2641     2277     1807     1887     2205     2458 
    2972     2995     2072     1638     2154     2577     2666     2532 
    2351     2478     2627     2446     1952     1730     2189     2509 
    2631     2921     2706     2295     2231     2137     2184     2369 
    2443     2551     2419     2101     2141     2439     2658     2749 
    2651     2263     1826     1809     2250     2600     2566     2538 
    2747     2764     2243     1717     1849     2403     2940     2997 
    2330     1926     2107     2101     2381     2771     2338     2143 
    2566     2654     2705     2543     1734     1537     2336     2933 
    3068     2762     1899     1580     2334     2982     2771     2150 
    1895     2049     2191     2675     3222     2793     2010     1756 
    1846     2326     2770     2556     2231     2339     2613     2677 
    2419     2033     1881     2131     2498     2610     2587     2735 
    2844     2548     2166     2010     1934     2149     2496     2421 
    2214     2216     2444     2830     2732     2139     1896     2045 
    2392     2957     2895     1946     1645     2528     3160     2955 
    2421     1782     1453     1838     2706     3354     3141     2339 
    1552     1429     2405     3172     2863     2463     2124     1796 
    2101     2686     2778     2289     1942     2227     2520     2654 
    2826     2540     1964     1776     2299     3194     3078     1892 
    1348     1769     2519     3191     3021     2200     1850     2288 
    2934     2809     1900     1482     1892     2659     3338     3064 
    2166     1863     1957     2058     2451     2832     2729     2355 
    2168     2274     2513     2520     2033     1759     2316     2810 
    2554     2334     2475     2354     2299     2675     2646     2366 
    2492     2253     1756     2138     2732     2531     2141     1907 
    1767     2405     3296     3191     2700     2251     1522     1605 
    2731     3159     2604     2081     1825     2104     2867     3138 
    2560     1858     1746     2056     2332     2471     2389     2543 
    3078     2943     2085     1534     1737     2554     3021     2563 
    2038     1818     2045     3018     3348     2376     1796     2160 
    2623     2722     2301     1831     1894     2392     2813     2786 
    2533     2204     2004     2331     2490     2176     2381     2751 
    2585     2439     2107     1680     2176     2826     2776     2737 
    2740     2467     2045     1621     1825     2620     2974     2689 
    2188     1599     1455     2349     3539     3636     2562     1518 
    1414     2081     2724     2951     2922     2517     1914     1879 
    2134     2092     2394     2953     2691     2160     2257     2457 
    2565     2587     2235     1991     2226     2598     2592     2324 
    2582     2717     2131     1891     1865     1934     2907     3613 
    3003     1884     1198     1767     2947     3298     3021     2124 
     827     1061     2752     3770     3422     2304     1529     1755 
    2682     3449     2662     1175     1368     2448     3006     3399 
    3096     2046     1306     1259     2120     3107     3064     2774 
    2740     2257     1795     2002     2363     2508     2282     1926 
    2358     3071     2907     2532     2280     1857     2085     2582 
    2448     2423     2527     2316     2223     2239     2299     2371 
    2214     2222     2532     2679     2451     2087     2258     2836 
    2867     2317     1775     1877     2867     3365     2408     1529 
    1873     2413     2397     2153     1961     2192     2805     3164 
    3165     2551     1282      912     2154     3550     3690     2555 
    1499     1620     2369     2913     2986     2442     1823     1945 
    2436     2542     2331     2200     2289     2336     2457     2934 
    3063     2498     1880     1601     1888     2625     3061     2517 
    1516     1555     2720     3626     3377     2116      974     1051 
    2342     3647     3673     2749     1854     1474     2143     3177 
    2849     1590     1277     2108     3160     3584     2876     1834 
    1547     1968     2632     2787     2173     2026     2675     2937 
    2581     2120     1926     2178     2463     2482     2452     2438 
    2474     2533     2404     2357     2363     2004     1950     2274 
    2296     2702     3080     2536     2363     2554     2330     2292 
    1972     1495     1684     1803     2118     2967     3225     2965 
    2253     1046     1046     2424     3697     4333     3646     2204 
    1782     2011     2531     3662     3651     1807       49     -681 
     -87     2394     5062     5105     2880      955      521     1507 
    3568     5433     5071     2502      696      707     1186     2619 
    4600     4704     2998      743    -1242     -980     1925     4745 
    5339     3900     1648      -27      -22     1580     3636     5117 
    5113     3225      850      -87      981     3384     4981     3720 
     611    -1436     -445     2879     5251     4237     1274      564 
    2917     4907     5030     2400    -1941    -2253     2054     6361 
    8301     5487     -567    -3213     -787     3541     6690     5736 
    1505    -1080      440     3145     3839     3393     2231      310 
    1429     5067     5227     2506     1129      361     -243     1626 
    4311     3674     1498     1930     3021     2511     2882     3384 
    1055     -753     1863     5880     6616     4047     1252     -552 
   -1304      333     2678     2467     2238     4301     4719     2648 
    2128     2276      419      238     3329     4922     4707     4332 
    1733     -650      518     2421     3276     3265     2316     1979 
    1985     1775     2835     3523     2397     2100     2909     3091 
    2979     1984      386     1617     4776     4653     1790     -153 
   -1204      -18     4144     6208     4407     2084      334      -16 
    1826     3576     3384     2650     2565     2258     2236     2849 
    2164     1216     2093     3295     3789     3223     1290      313 
    1413     3009     4206     3740     1021     -311     2142     4482 
    4253     3510     2371     1181     2106     3578     3146     2138 
    1892     1871     2241     2795     1783      182      796     2670 
    3829     4082     2913     1517     1653     2153     2658     3207 
    2158     1435     2928     3287     1809      963      761     2290 
    5157     4680     1173    -1021     -429     3206     6727     5568 
    1711     -399       -8     2064     4152     3807     1671      949 
    2339     4060     4071     2118      815     1293     2228     3194 
    3330     2263     1880     2424     2721     2745     2525     2239 
    2157     2320     2606     2396     1977     1765     1440     1911 
    2963     2938     2743     2922     2389     1987     2250     2484 
    2925     3505     3327     1992      907     1406     2026     2407 
    3464     3073     1351     1390     1950     1713     2494     3030 
    2307     2621     2914     1760     1815     2795     2232     1915 
    3041     3894     4595     4513     2029     -334      -37     1730 
    3365     3470     2029     1163     1692     2513     2527     2327 
    3014     3149     2169     1848     2026     2313     3265     3682 
    2635     1169      738     2054     3817     3796     2043      351 
     103     2037     4662     5216     3920     2381     1012      405 
     700     1507     2802     3859     3634     2443     1869     2288 
    2621     2785     2643     1860     1769     2556     2737     2594 
    2745     2486     2074     2209     2083     1478     1575     2415 
    3146     3304     2604     1736     1547     1938     3021     3997 
    3177     1490     1129     1923     2948     3645     2824     1028 
     615     2100     3991     4359     2771     1259      988     1610 
    3005     3570     2204     1309     2085     2767     3063     2991 
    1900     1505     2475     2847     2812     2791     2000     1652 
    1972     2181     2917     2936     2030     2258     2606     2621 
    3284     2748     1233      967     1154     1688     3412     4278 
    3148     2058     2192     2458     2131     2103     2218     1721 
    2243     3651     3655     3218     2814     1459     1007     1628 
    1628     2145     2928     2513     2694     3461     2150      199 
     727     2728     3905     4033     3026     1167      780     2860 
    4968     4396     1534      -82     1111     2694     3335     2925 
    1132      622     2970     4575     3489     1517      292     1173 
    3618     4707     3512     1374     -271      502     3264     4494 
    3782     2932     1733     1197     1995     2369     2890     3620 
    2506     1216     1393     1740     2866     4201     3072     1539 
    1890     2164     2431     2876     2259     1998     1904     1499 
    2639     3451     2721     2542     2052     1549     2747     3159 
    1694      973     1783     2875     3451     3464     2782     1845 
    1850     2265     1922     1641     2189     3207     4241     4178 
    2617     1136      626      757     1711     3157     3770     3244 
    2245     1135      772     1883     3412     3937     3186     1806 
    1155     2146     3801     4233     2982     1254      356      892 
    2388     3658     3731     2736     2052     1679     1031     1583 
    2898     3001     3006     3168     2108     1190     1409     2069 
    3137     3588     2745     2165     2354     2515     2648     2301 
    1409     1586     2736     3555     4023     3217     1066     -148 
     336     1960     3893     4384     3322     2394     2180     2147 
    2278     2367     1598     1331     2899     3742     2727     1857 
    1498     1985     3557     3651     1944     1081     1271     2359 
    3944     3258     1042      557     1540     3055     4365     3958 
    2297      946     1035     2546     3547     3303     2836     2166 
    1580     2099     2933     2658     1864     1857     2201     1904 
    1786     2324     2185     1992     3148     3707     2763     2257 
    2134     2054     2636     2893     2415     1787     1391     2092 
    3532     3885     2388      568      355     1679     3657     4810 
    3422     1063      464     1908     3919     3909     2022     1047 
    1374     2798     4259     3279     1629     1499     1664     2523 
    3408     2339     1620     2254     1985     2041     3141     2536 
    1210     1707     2523     2980     3917     3715     2130     1557 
    2192     2432     2101     2076     1987     1555     2296     3392 
    2987     2438     2079     1447     1684     2286     2690     3307 
    3515     3348     2803     1482      603     1026     2474     3948 
    3466     1745     1174     1553     2497     3586     3192     1926 
    1626     2434     3388     3110     1952     1420     1575     2574 
    3635     2824     1475     1598     2270     2837     2965     1938 
