Origin Time       2025/03/30 21:30:00
Lat.              38.535
Long.             142.295
Depth. (km)       44
Mag.              4.3
Station Code      MYGH08
Station Lat.      38.1133
Station Long.     140.8441
Station Height(m) 10
Record Time       2025/03/30 21:31:32
Sampling Freq(Hz) 100Hz
Duration Time(s)  120
Dir.              4
Scale Factor      7845(gal)/8223790
Max. Acc. (gal)   0.838
Last Correction   2025/03/30 21:31:33
Memo.             
[...]
   13863    13848    13848    13902    13968    13973    13921    13838 
   13763    13749    13795    13841    13863    13849    13825    13844 
   13868    13849    13830    13810    13790    13819    13882    13926 
   13933    13879    13790    13730    13743    13838    13975    14023 
   13942    13824    13755    13771    13875    14010    14035    13891 
   13726    13707    13799    13865    13884    13898    13888    13861 
   13849    13879    13944    13925    13813    13787    13828    13794 
   13765    13842    13933    13913    13815    13798    13868    13884 
   13852    13848    13872    13929    13942    13864    13825    13840 
   13821    13819    13842    13841    13845    13863    13867    13842 
   13807    13824    13892    13888    13784    13745    13813    13890 
   13956    13969    13914    13861    13813    13817    13918    13969 
   13875    13768    13790    13892    13937    13879    13779    13718 
   13740    13806    13860    13913    13926    13842    13772    13844 
   13973    14021    13953    13855    13778    13718    13753    13888 
   13948    13873    13815    13848    13869    13824    13806    13842 
   13857    13848    13842    13865    13929    13973    13950    13875 
   13803    13768    13795    13895    13956    13909    13864    13879 
   13879    13822    13748    13725    13801    13927    14003    13980 
   13855    13710    13697    13811    13940    13986    13891    13747 
   13702    13774    13907    14021    13983    13792    13684    13770 
   13873    13913    13926    13910    13867    13805    13725    13682 
   13722    13809    13864    13848    13792    13824    13952    14014 
   13969    13925    13890    13828    13825    13934    14029    13979 
   13824    13713    13753    13888    13980    13954    13841    13755 
   13767    13864    13952    13925    13848    13815    13795    13788 
   13819    13875    13938    13918    13784    13701    13763    13859 
   13875    13825    13783    13783    13807    13834    13873    13930 
   13946    13917    13891    13826    13771    13861    13980    13959 
   13863    13772    13745    13811    13849    13813    13799    13849 
   13903    13900    13867    13856    13923    14067    14103    13977 
   13857    13802    13778    13801    13836    13836    13810    13770 
   13784    13903    13948    13821    13720    13740    13787    13842 
   13906    13927    13878    13797    13795    13869    13876    13836 
   13851    13871    13875    13887    13900    13938    13918    13809 
   13778    13813    13776    13752    13803    13864    13932    13960 
   13894    13818    13821    13906    13998    13961    13825    13767 
   13826    13895    13895    13828    13794    13792    13771    13828 
   13929    13934    13900    13853    13764    13740    13786    13844 
   13918    13911    13817    13792    13832    13829    13857    13950 
   13941    13818    13770    13837    13930    13961    13888    13788 
   13775    13833    13894    13933    13921    13856    13814    13836 
   13873    13882    13875    13902    13938    13875    13753    13736 
   13811    13907    13956    13880    13775    13764    13807    13876 
   13956    13979    13905    13770    13725    13836    13940    13926 
   13864    13834    13845    13842    13832    13872    13932    13907 
   13783    13710    13760    13841    13902    13895    13790    13718 
   13763    13860    13976    14035    13960    13838    13810    13895 
   13984    13977    13879    13706    13564    13624    13840    14010 
   14003    13845    13737    13806    13927    13976    13959    13899 
   13815    13752    13771    13892    14022    14041    13952    13826 
   13756    13783    13829    13833    13844    13838    13756    13676 
   13705    13818    13914    13905    13824    13797    13883    13984 
   13996    13965    13933    13867    13817    13838    13852    13794 
   13745    13765    13802    13853    13918    13907    13848    13826 
   13845    13896    13946    13929    13838    13768    13809    13887 
   13884    13844    13848    13890    13929    13944    13895    13811 
   13824    13915    13922    13802    13679    13663    13749    13879 
   13983    13971    13846    13745    13814    14027    14126    13953 
   13744    13714    13759    13784    13829    13873    13863    13832 
   13825    13811    13802    13853    13934    13975    13940    13838 
   13726    13720    13890    14049    13948    13716    13617    13717 
   13956    14089    13944    13744    13687    13744    13882    13975 
   13909    13807    13813    13855    13845    13886    13967    13929 
   13868    13894    13879    13807    13784    13826    13913    13923 
   13771    13656    13741    13900    14018    14018    13857    13738 
   13807    13903    13950    13976    13937    13867    13857    13869 
   13838    13811    13832    13822    13738    13699    13786    13905 
   13959    13894    13760    13751    13878    13942    13922    13860 
   13784    13803    13896    13945    13915    13828    13775    13815 
   13857    13849    13865    13913    13902    13821    13732    13725 
   13833    13968    13983    13842    13701    13717    13899    14089 
   14062    13837    13697    13741    13830    13860    13845    13859 
   13882    13837    13791    13809    13806    13802    13879    13942 
   13907    13853    13859    13919    13961    13936    13884    13853 
   13834    13807    13763    13779    13879    13921    13882    13855 
   13830    13821    13876    13929    13905    13836    13805    13830 
   13871    13890    13906    13902    13802    13709    13755    13868 
   13971    13998    13913    13818    13770    13755    13842    13971 
   13940    13771    13664    13706    13852    13983    13977    13830 
   13697    13761    13948    14038    13969    13849    13860    13972 
   13932    13783    13730    13760    13802    13818    13794    13790 
   13836    13903    13933    13883    13810    13819    13922    14011 
   13996    13868    13722    13728    13872    13946    13880    13782 
   13730    13768    13875    13961    13976    13895    13763    13697 
   13720    13795    13903    13981    13980    13923    13844    13794 
   13837    13921    13946    13919    13861    13798    13764    13778 
   13865    13950    13876    13709    13683    13794    13891    13964 
   13987    13886    13722    13672    13802    13954    13972    13913 
   13880    13867    13864    13887    13900    13869    13846    13849 
   13844    13813    13751    13720    13778    13867    13892    13848 
   13851    13944    14034    14037    13899    13752    13791    13909 
   13942    13911    13829    13744    13721    13752    13832    13907 
   13861    13764    13782    13886    13977    14006    13953    13876 
   13833    13817    13819    13832    13853    13869    13863    13851 
   13811    13759    13767    13814    13859    13890    13857    13838 
   13952    14030    13959    13875    13803    13752    13784    13821 
   13832    13840    13848    13882    13882    13810    13790    13861 
   13926    13915    13851    13821    13856    13892    13914    13917 
   13848    13780    13810    13834    13838    13868    13833    13768 
   13790    13852    13883    13871    13842    13867    13907    13867 
   13840    13919    13950    13856    13771    13763    13806    13875 
   13898    13837    13765    13778    13890    13992    14006    13956 
   13876    13817    13810    13805    13815    13855    13864    13853 
   13834    13821    13876    13945    13929    13856    13774    13733 
   13786    13902    13969    13923    13841    13818    13792    13717 
   13749    13925    13998    13909    13845    13828    13775    13756 
   13813    13863    13871    13855    13824    13846    13936    13991 
   13979    13896    13768    13720    13821    13942    13927    13814 
   13756    13810    13925    13990    13941    13878    13865    13837 
   13828    13899    13953    13910    13845    13814    13792    13765 
   13761    13787    13810    13824    13871    13932    13892    13792 
   13771    13836    13919    13936    13883    13832    13772    13755 
   13891    14017    13888    13675    13725    13946    13995    13886 
   13803    13760    13724    13747    13810    13834    13886    13976 
   13921    13791    13821    13927    13967    13941    13861    13826 
   13863    13882    13890    13886    13821    13767    13772    13770 
   13795    13891    13942    13923    13880    13861    13913    13929 
   13825    13744    13821    13961    13984    13863    13780    13861 
   13954    13903    13784    13720    13784    13900    13868    13778 
   13824    13880    13815    13759    13832    13930    13903    13833 
   13842    13883    13930    13949    13860    13757    13770    13848 
   13899    13879    13772    13706    13824    13945    13890    13846 
   13903    13890    13846    13871    13903    13949    13988    13898 
   13772    13807    13930    13967    13907    13841    13825    13824 
   13805    13805    13822    13818    13826    13853    13852    13844 
   13861    13876    13837    13740    13718    13829    13944    13980 
   13937    13822    13756    13817    13898    13891    13832    13840 
   13898    13813    13656    13724    13945    14018    13927    13826 
   13763    13737    13832    14023    14077    13945    13841    13807 
   13768    13811    13923    13891    13724    13671    13782    13910 
   13977    13952    13852    13753    13718    13774    13878    13988 
   14029    13930    13794    13787    13905    14015    14000    13859 
   13711    13672    13743    13829    13848    13824    13799    13759 
   13776    13891    13981    13991    13972    13927    13833    13783 
   13824    13845    13802    13725    13674    13755    13934    14089 
   14116    14015    13929    13905    13826    13714    13702    13790 
   13860    13849    13822    13821    13822    13848    13884    13890 
   13892    13929    13998    14019    13942    13840    13755    13701 
   13707    13763    13860    13933    13883    13802    13818    13869 
   13902    13944    13946    13871    13825    13925    14062    14041 
   13878    13726    13621    13564    13645    13784    13807    13807 
   13869    13902    13934    13992    13945    13825    13803    13838 
   13838    13856    13865    13826    13806    13811    13787    13759 
   13813    13896    13888    13841    13861    13950    14042    13999 
   13826    13744    13837    13950    13918    13787    13778    13896 
   13902    13814    13836    13898    13886    13844    13849    13957 
   14027    13917    13768    13722    13768    13867    13914    13898 
   13879    13845    13844    13888    13910    13933    13942    13863 
   13749    13682    13699    13818    13879    13726    13576    13660 
   13833    13949    14007    13975    13891    13860    13954    14073 
   14002    13832    13757    13710    13660    13716    13860    13957 
   13890    13726    13721    13913    14031    14008    13983    13954 
   13922    13911    13819    13683    13684    13784    13852    13899 
   13930    13882    13830    13884    13895    13795    13807    13918 
   13957    13950    13905    13833    13844    13903    13878    13745 
   13666    13788    13968    13971    13891    13876    13857    13824 
   13791    13747    13772    13825    13803    13797    13855    13903 
   13894    13884    13954    14007    13900    13775    13806    13879 
   13872    13830    13780    13761    13776    13753    13763    13841 
   13873    13914    13961    13869    13798    13886    13969    14008 
   14033    13971    13871    13810    13783    13791    13778    13697 
   13630    13639    13729    13898    14008    13983    13961    13932 
   13813    13784    13905    13996    13959    13792    13644    13713 
   13926    14030    13963    13805    13711    13836    14014    14000 
   13917    13926    13914    13802    13682    13703    13861    13946 
   13905    13873    13871    13898    13954    13941    13886    13856 
   13817    13815    13873    13888    13845    13792    13736    13714 
   13767    13809    13797    13801    13834    13911    14002    13979 
   13871    13837    13890    13949    13911    13768    13740    13856 
   13878    13772    13691    13709    13790    13886    13967    13936 
   13849    13903    13999    13990    13983    13998    13941    13844 
   13782    13801    13840    13767    13699    13763    13810    13810 
   13913    14080    14111    13911    13684    13716    13932    14044 
   13979    13859    13826    13863    13859    13846    13852    13759 
   13576    13551    13799    14019    13963    13853    13873    13865 
   13756    13683    13698    13711    13653    13521    13389    13398 
   13572    13733    13748    13718    13759    13857    14018    14197 
   14320    14376    14320    14169    13999    13842    13787    13867 
   13923    13891    13822    13755    13767    13861    13930    13995 
   14160    14366    14461    14364    14154    14015    14038    14130 
   14085    13821    13498    13300    13257    13370    13598    13787 
   13778    13605    13520    13643    13794    13864    13848    13628 
   13285    13138    13352    13764    14037    14054    14027    14072 
   14065    14046    14153    14281    14261    14037    13657    13339 
   13263    13379    13535    13690    13861    14035    14162    14165 
   14076    14025    14145    14480    14733    14566    14129    13836 
   13790    13818    13851    13867    13784    13614    13535    13670 
   13873    13960    13960    13929    13856    13752    13695    13788 
   13972    14085    14027    13852    13784    13875    13937    13892 
   13771    13653    13624    13562    13421    13352    13362    13397 
   13554    13890    14243    14299    14021    13829    13956    14170 
   14223    14100    14003    13990    13861    13603    13440    13478 
   13622    13702    13737    13944    14251    14273    13952    13636 
   13613    13848    14000    13909    13774    13663    13601    13741 
   14004    14146    14076    13855    13617    13576    13842    14135 
   14111    13880    13734    13707    13687    13641    13666    13811 
   13937    13915    13923    14125    14260    14084    13818    13751 
   13840    13899    13865    13824    13806    13716    13549    13544 
   13811    14068    13999    13802    13871    14138    14280    14185 
   13900    13582    13491    13618    13720    13779    13826    13768 
   13671    13670    13795    13987    14081    13977    13788    13722 
   13876    14149    14320    14268    14065    13815    13609    13583 
   13733    13849    13792    13609    13427    13402    13554    13798 
   14116    14251    13959    13617    13663    13984    14250    14153 
   13752    13554    13732    13927    13963    14007    14152    14281 
   14222    13976    13807    13813    13867    14015    14210    14150 
   13830    13624    13690    13806    13814    13734    13591    13464 
   13531    13834    14115    14172    14125    14091    14065    14034 
   13961    13867    13805    13734    13595    13417    13398    13632 
   13902    13994    13914    13744    13657    13775    13918    13882 
   13751    13693    13721    13744    13741    13730    13653    13675 
   14003    14251    14013    13637    13632    13925    14058    13902 
   13832    13987    14103    14133    14126    14004    13846    13743 
   13683    13779    13961    13918    13679    13568    13602    13632 
   13659    13699    13838    14092    14180    14011    13869    13894 
   14002    14091    14079    14019    14048    14062    13910    13745 
   13683    13629    13640    13737    13791    13786    13728    13683 
   13845    14127    14222    14067    13833    13734    13826    13857 
   13795    13950    14222    14204    13899    13608    13552    13689 
   13745    13616    13510    13620    13894    14126    14130    13918 
   13649    13495    13667    14049    14094    13760    13632    13903 
   14256    14281    13909    13591    13612    13740    13786    13821 
   13861    13826    13761    13716    13632    13635    13772    13756 
   13637    13803    14160    14376    14423    14346    14130    13825 
   13594    13625    13824    13936    13879    13761    13757    13851 
   13875    13871    13911    13923    13937    13995    14031    13987 
   13848    13711    13744    13830    13751    13609    13608    13678 
   13716    13856    14088    14088    13837    13670    13736    13875 
   13898    13757    13564    13616    14060    14492    14424    14011 
   13756    13779    13860    13902    13872    13765    13664    13590 
   13652    13906    14041    13895    13738    13728    13780    13838 
   13915    14033    14192    14223    13857    13338    13319    13846 
   14272    14184    13760    13315    13153    13554    14216    14461 
   14168    13776    13636    13695    13774    13852    13846    13709 
   13703    13865    13914    13907    14057    14241    14170    13784 
   13431    13539    14007    14320    14181    13743    13429    13543 
   13867    13998    13969    14065    14185    14017    13707    13729 
   14095    14327    14134    13724    13456    13474    13759    14107 
   14112    13787    13591    13593    13608    13760    13983    13976 
   13826    13736    13689    13663    13651    13740    13981    14084 
   13879    13657    13706    13948    14142    14096    13819    13601 
   13626    13701    13709    13813    14042    14185    14146    14054 
   14065    14148    14185    14202    14126    13807    13481    13460 
   13645    13824    13927    13899    13733    13598    13678    13940 
   14160    14121    13878    13716    13747    13809    13792    13755 
   13787    13884    13938    13909    13849    13849    13865    13749 
   13597    13598    13664    13714    13837    13992    13976    13786 
   13767    14052    14251    14103    13825    13667    13689    13790 
   13856    13933    13945    13810    13759    13837    13857    13859 
   13880    13879    13914    13930    13828    13732    13767    13863 
   13934    13969    13976    13932    13837    13753    13732    13834 
   13999    14049    14003    13898    13655    13478    13601    13888 
   14106    14150    14018    13817    13736    13809    13853    13840 
   13868    13829    13691    13711    13971    14270    14376    14119 
   13694    13552    13802    14123    14146    13768    13339    13354 
   13751    14017    13926    13732    13720    13815    13810    13822 
   13973    14023    13883    13786    13837    13853    13726    13722 
   13871    13790    13602    13667    13837    13957    14065    14037 
   13745    13455    13612    14135    14463    14296    13911    13732 
   13799    13903    13906    13791    13705    13755    13875    14029 
   14095    13946    13787    13859    14054    14164    14145    14019 
   13803    13635    13605    13602    13594    13653    13743    13849 
   13981    14003    13836    13656    13702    13911    13946    13784 
   13786    14023    14131    13925    13678    13613    13693    13861 
   13949    13819    13657    13678    13824    13868    13751    13693 
   13791    13915    14000    14044    13983    13900    13917    13890 
