Origin Time       2025/03/30 21:30:00
Lat.              38.535
Long.             142.295
Depth. (km)       44
Mag.              4.3
Station Code      MYGH14
Station Lat.      38.3400
Station Long.     140.9551
Station Height(m) 48
Record Time       2025/03/30 21:31:28
Sampling Freq(Hz) 100Hz
Duration Time(s)  120
Dir.              4
Scale Factor      7845(gal)/8223790
Max. Acc. (gal)   1.224
Last Correction   2025/03/30 21:31:28
Memo.             
[...]
    2956     2849     2820     2876     2997     3133     3217     3222 
    3198     3171     3114     3032     2945     2862     2801     2783 
    2822     2924     3078     3221     3256     3187     3114     3072 
    3052     3065     3063     3009     2953     2907     2857     2841 
    2889     3006     3171     3294     3291     3190     3080     3038 
    3055     3030     2921     2832     2853     2956     3053     3096 
    3123     3141     3065     2951     2941     3018     3094     3150 
    3167     3123     3048     2974     2905     2845     2859     2980 
    3141     3226     3230     3208     3123     2995     2943     2965 
    2965     2903     2844     2899     3063     3208     3254     3175 
    3055     3014     3026     3003     2944     2895     2887     2884 
    2843     2828     2924     3113     3298     3368     3289     3133 
    2970     2863     2872     2974     3059     3063     3018     3001 
    3046     3110     3142     3142     3149     3188     3191     3105 
    2984     2899     2901     2971     3025     3048     3063     3068 
    3071     3056     3006     2951     2916     2933     3007     3063 
    3041     2997     3017     3095     3136     3095     3021     2960 
    2925     2928     2971     3034     3090     3099     3059     3025 
    3018     2995     2945     2918     2959     3013     3045     3103 
    3190     3252     3265     3198     3061     2951     2926     2974 
    3022     3002     2949     2949     2999     3034     3029     3018 
    3032     3053     3096     3164     3207     3213     3183     3088 
    2936     2795     2716     2717     2803     2953     3127     3237 
    3250     3264     3327     3341     3227     3055     2909     2803 
    2745     2724     2718     2762     2878     3015     3141     3262 
    3361     3384     3312     3175     3021     2906     2841     2794 
    2791     2878     3006     3107     3136     3100     3083     3106 
    3117     3121     3137     3145     3121     3022     2889     2843 
    2909     2986     3015     3044     3126     3208     3214     3156 
    3069     2991     2955     2938     2898     2835     2802     2859 
    2971     3055     3092     3098     3096     3144     3221     3240 
    3188     3115     3040     2995     2995     3025     3056     3038 
    2963     2875     2818     2828     2886     2959     3067     3171 
    3207     3215     3222     3223     3215     3156     3029     2870 
    2756     2747     2809     2871     2902     2964     3126     3281 
    3295     3200     3090     3041     3072     3076     2998     2937 
    2941     2963     3007     3096     3173     3114     2897     2718 
    2771     2960     3118     3172     3107     3024     3038     3094 
    3087     3040     3034     3073     3090     3072     3040     2968 
    2907     2914     2972     3076     3183     3218     3190     3130 
    3057     2984     2948     3007     3113     3134     3100     3095 
    3084     3022     2952     2961     3048     3083     3028     2974 
    2987     3078     3164     3132     3010     2925     2934     2986 
    3006     3011     3056     3096     3051     2947     2868     2860 
    2925     3026     3095     3095     3072     3076     3094     3103 
    3102     3071     3015     2963     2943     3007     3132     3210 
    3190     3072     2905     2776     2727     2779     2906     3010 
    3082     3165     3268     3357     3341     3195     3059     3032 
    3033     2956     2839     2810     2882     2965     3040     3106 
    3145     3154     3136     3082     3036     3026     3055     3082 
    3061     3022     3018     3030     3028     3028     3056     3080 
    3053     3014     3021     3041     3019     2959     2926     2986 
    3071     3064     2988     2956     3018     3100     3113     3040 
    2930     2848     2779     2717     2771     2926     3053     3157 
    3249     3306     3350     3346     3273     3180     3098     3053 
    3014     2926     2860     2853     2868     2934     3045     3126 
    3159     3149     3091     3011     2990     3051     3110     3111 
    3084     3080     3084     3017     2901     2856     2898     2960 
    2991     2980     2986     3044     3098     3080     3026     3037 
    3146     3230     3172     3009     2853     2794     2836     2943 
    3083     3163     3107     3006     2988     3073     3214     3296 
    3227     3064     2930     2875     2883     2922     2974     3005 
    2968     2897     2902     3026     3177     3245     3198     3096 
    3026     3001     2976     2965     3015     3096     3169     3204 
    3183     3146     3103     3046     3025     2992     2857     2695 
    2666     2794     2964     3103     3195     3202     3137     3078 
    3055     3057     3096     3169     3217     3183     3107     3061 
    3056     3056     3015     2948     2929     2929     2891     2868 
    2913     3037     3188     3244     3175     3060     2960     2897 
    2855     2852     2920     3005     3059     3099     3137     3159 
    3123     3044     3024     3067     3073     3017     2930     2878 
    2917     3017     3100     3130     3111     3057     2971     2889 
    2863     2901     2978     3046     3118     3235     3298     3219 
    3091     3026     3045     3090     3121     3154     3125     2987 
    2845     2783     2809     2916     3059     3179     3254     3275 
    3242     3172     3107     3056     2955     2797     2700     2783 
    2998     3140     3134     3096     3088     3060     3014     2982 
    2955     2949     2988     3028     3038     3049     3037     2987 
    2967     2994     3015     2983     2925     2928     2987     3018 
    3014     3013     3018     3048     3099     3138     3191     3284 
    3350     3295     3138     3007     2961     2926     2859     2825 
    2893     3019     3073     3002     2913     2930     3051     3141 
    3141     3119     3102     3078     3068     3075     3100     3117 
    3078     3019     2991     2968     2944     2959     2998     2971 
    2895     2913     3053     3207     3267     3190     3049     2964 
    2952     2972     2992     3005     3014     3005     2970     2961 
    3013     3095     3134     3079     3005     3021     3076     3046 
    2964     2968     3059     3117     3102     3090     3117     3133 
    3091     3003     2890     2766     2736     2878     3079     3192 
    3219     3237     3275     3254     3137     3028     2975     2926 
    2859     2785     2756     2832     2978     3091     3140     3157 
    3125     3021     2945     2992     3098     3129     3083     3056 
    3071     3094     3119     3111     3080     3067     3013     2914 
    2853     2847     2889     2930     2925     2960     3068     3179 
    3269     3319     3321     3306     3235     3090     2951     2878 
    2845     2836     2863     2924     3002     3086     3181     3273 
    3272     3115     2903     2785     2758     2767     2829     2940 
    3034     3078     3102     3134     3129     3087     3042     2983 
    2938     2941     2978     3045     3110     3140     3171     3168 
    3088     2995     2971     3017     3063     3100     3156     3179 
    3159     3149     3159     3161     3102     2979     2859     2771 
    2728     2760     2832     2917     3002     3046     3071     3133 
    3225     3265     3221     3157     3099     3036     3007     3028 
    3075     3152     3199     3121     2938     2786     2768     2828 
    2849     2864     2941     3063     3199     3312     3349     3339 
    3306     3199     3045     2932     2891     2872     2818     2762 
    2762     2802     2864     2965     3051     3048     3014     3017 
    3024     3019     3052     3149     3264     3285     3192     3095 
    3064     3045     3017     3037     3103     3133     3109     3082 
    3092     3159     3217     3161     2994     2775     2579     2523 
    2624     2797     2992     3203     3406     3559     3569     3407 
    3165     2938     2789     2727     2733     2790     2868     2944 
    3006     3028     3028     3056     3099     3083     3028     3025 
    3056     3069     3126     3230     3264     3171     2986     2816 
    2805     2949     3059     3042     2956     2891     2898     2929 
    2964     3032     3109     3177     3217     3202     3202     3241 
    3213     3107     3002     2933     2911     2920     2932     2982 
    3015     2933     2810     2785     2851     2974     3133     3262 
    3303     3252     3194     3219     3257     3195     3065     2924 
    2791     2745     2817     2957     3088     3119     3067     3056 
    3121     3157     3092     2982     2917     2916     2916     2875 
    2874     2960     3048     3084     3095     3098     3115     3146 
    3140     3095     3063     3078     3137     3223     3302     3312 
    3225     3071     2903     2789     2743     2733     2786     2913 
    3042     3118     3106     3034     2988     2945     2886     2845 
    2816     2849     2991     3126     3175     3192     3203     3237 
    3316     3345     3214     2986     2836     2841     2889     2857 
    2820     2875     3010     3181     3331     3377     3316     3180 
    2987     2801     2709     2727     2798     2884     2967     3021 
    3038     3030     3063     3199     3348     3385     3325     3206 
    3091     3040     3007     2979     2991     2986     2924     2859 
    2883     3036     3187     3181     3076     2976     2916     2916 
    2951     2963     2941     2911     2932     3057     3221     3316 
    3314     3208     3032     2886     2835     2852     2920     3024 
    3119     3167     3141     3073     3041     3024     2963     2907 
    2925     2974     2984     2970     2998     3051     3045     2998 
    2988     3052     3195     3361     3431     3377     3237     3042 
    2868     2798     2809     2852     2911     2947     2932     2909 
    2949     3072     3187     3169     3038     2944     2936     2991 
    3103     3179     3138     3052     3010     3057     3142     3140 
    3065     3014     2956     2901     2902     2949     2995     2986 
    2936     2948     3036     3148     3244     3229     3102     3032 
    3082     3092     2949     2793     2793     2883     2887     2809 
    2813     2959     3161     3339     3431     3399     3283     3144 
    3009     2910     2853     2810     2786     2782     2817     2943 
    3144     3346     3441     3319     3102     3009     3024     3068 
    3159     3231     3175     2980     2733     2601     2651     2799 
    2957     3026     3013     3075     3204     3272     3273     3261 
    3267     3237     3123     3049     3069     3065     2976     2828 
    2673     2608     2702     2886     3010     3042     3091     3231 
    3395     3431     3333     3200     3072     2964     2928     2928 
    2893     2853     2872     2910     2893     2812     2740     2799 
    2984     3149     3231     3271     3330     3445     3496     3353 
    3100     2916     2880     2961     3026     2994     2906     2806 
    2720     2675     2678     2756     2899     3006     3072     3145 
    3210     3280     3385     3476     3477     3369     3204     3048 
    2911     2798     2702     2632     2659     2803     3014     3218 
    3285     3226     3161     3073     2967     2947     2980     2961 
    2829     2635     2602     2798     3045     3194     3165     3019 
    2945     3028     3219     3418     3578     3735     3811     3709 
    3520     3335     3137     2894     2610     2374     2295     2376 
    2573     2835     3109     3314     3292     3009     2731     2686 
    2809     2971     3105     3152     3132     3091     3052     3021 
    2961     2878     2810     2783     2836     2967     3130     3375 
    3682     3870     3808     3546     3221     2934     2648     2277 
    1952     1946     2301     2822     3312     3620     3704     3634 
    3522     3473     3483     3443     3330     3154     2936     2803 
    2843     2937     2949     2826     2571     2226     1885     1796 
    2146     2747     3244     3450     3427     3497     3816     4014 
    3750     3190     2721     2593     2790     3110     3342     3342 
    3095     2744     2477     2484     2816     3246     3515     3559 
    3420     3195     2987     2914     3090     3372     3457     3365 
    3318     3322     3303     3208     2964     2644     2403     2292 
    2361     2602     2836     2936     3032     3253     3538     3747 
    3825     3773     3577     3260     2895     2593     2420     2363 
    2380     2424     2457     2479     2556     2724     2907     3038 
    3159     3314     3437     3489     3499     3418     3192     2903 
    2671     2585     2739     3110     3450     3505     3277     2965 
    2754     2695     2741     2824     2940     3136     3377     3581 
    3724     3774     3623     3188     2550     1980     1772     2029 
    2596     3171     3596     3929     4187     4295     4218     3948 
    3522     2995     2438     2023     1857     1888     2088     2398 
    2725     3048     3260     3315     3311     3268     3292     3487 
    3682     3743     3688     3505     3206     2841     2498     2292 
    2227     2284     2511     2872     3206     3373     3423     3438 
    3396     3349     3325     3222     3010     2690     2273     1906 
    1752     1871     2243     2790     3424     3956     4135     4005 
    3831     3758     3719     3537     3188     2825     2558     2431 
    2430     2497     2640     2862     3136     3404     3561     3572 
    3512     3412     3304     3187     3007     2833     2778     2839 
    2953     3021     3055     3211     3353     3187     2766     2313 
    2006     2000     2317     2825     3319     3601     3696     3766 
    3786     3566     3067     2475     2070     2093     2525     3034 
    3353     3531     3657     3654     3445     3098     2756     2544 
    2543     2756     3110     3429     3501     3302     3019     2867 
    2817     2636     2334     2193     2331     2663     3087     3504 
    3856     4055     4023     3838     3659     3605     3589     3437 
    3165     2843     2511     2243     2104     2188     2486     2797 
    3001     3103     3144     3215     3256     3122     2874     2713 
    2785     2975     3026     2945     2855     2737     2706     2922 
    3285     3622     3878     4051     4147     4087     3769     3291 
    2824     2473     2344     2425     2544     2628     2701     2770 
    2813     2766     2633     2550     2613     2797     3019     3206 
    3304     3299     3211     3049     2863     2822     2948     2997 
    2880     2760     2732     2817     3011     3244     3441     3570 
    3638     3693     3754     3794     3774     3649     3441     3177 
    2864     2578     2358     2146     1998     2062     2324     2594 
    2751     2840     2951     3068     3154     3242     3334     3495 
    3811     4126     4136     3743     3137     2614     2351     2320 
    2388     2446     2490     2596     2816     3134     3447     3646 
    3721     3681     3470     3095     2752     2671     2810     2899 
    2791     2601     2559     2781     3129     3454     3689     3732 
    3580     3389     3248     3126     2965     2733     2477     2285 
    2169     2143     2277     2570     2967     3412     3797     4032 
    4059     3823     3403     2988     2685     2427     2192     2188 
    2577     3106     3361     3230     2976     2909     3037     3163 
    3171     3126     3132     3183     3285     3469     3631     3628 
    3454     3225     3084     3041     2952     2732     2443     2243 
    2255     2446     2745     3149     3491     3538     3341     3106 
    3002     3084     3195     3202     3218     3352     3522     3558 
    3326     2884     2461     2216     2135     2147     2277     2573 
    2947     3275     3528     3681     3689     3585     3470     3384 
    3291     3194     3065     2849     2582     2346     2257     2404 
    2632     2737     2814     3003     3264     3589     3904     3970 
    3753     3492     3364     3341     3287     3181     3186     3316 
    3399     3275     2909     2469     2193     2120     2192     2367 
    2612     2933     3287     3515     3599     3662     3673     3501 
    3133     2667     2288     2130     2168     2323     2548     2724 
    2772     2812     2948     3184     3470     3620     3469     3161 
    2978     3026     3183     3210     3071     2963     2929     2903 
    2956     3134     3415     3703     3817     3748     3624     3429 
    3123     2741     2367     2199     2265     2369     2470     2666 
    2979     3307     3464     3426     3379     3377     3356     3337 
    3298     3184     3038     2924     2889     2929     2943     2936 
    3022     3192     3312     3262     3051     2806     2623     2529 
    2582     2802     3059     3194     3196     3096     2940     2826 
    2787     2803     2867     2940     3022     3126     3258     3445 
    3653     3767     3705     3480     3191     2944     2808     2793 
    2805     2775     2744     2745     2713     2625     2632     2839 
    3099     3210     3148     3030     2984     3005     2960     2795 
    2629     2635     2778     2898     3017     3244     3505     3645 
    3576     3375     3240     3244     3264     3179     2992     2760 
    2519     2367     2401     2573     2836     3190     3547     3773 
    3780     3674     3672     3767     3784     3608     3206     2717 
    2376     2245     2282     2454     2702     2971     3163     3200 
    3167     3180     3218     3181     3071     3005     3056     3144 
    3114     2974     2866     2816     2722     2578     2501     2543 
    2582     2528     2498     2644     2930     3169     3233     3169 
    3113     3168     3345     3565     3731     3794     3705     3427 
    3061     2814     2787     2866     2870     2833     2910     3063 
    3159     3184     3206     3256     3271     3171     3006     2905 
    2928     3046     3103     2987     2824     2744     2714     2706 
    2743     2832     2949     3049     3142     3252     3335     3380 
    3429     3447     3391     3276     3119     2961     2857     2741 
    2542     2343     2280     2428     2745     3055     3184     3188 
    3252     3391     3491     3578     3646     3531     3253     3003 
    2909     2947     2914     2705     2535     2609     2879     3168 
    3321     3281     3079     2812     2648     2652     2763     2902 
    2970     2965     3024     3121     3159     3163     3122     3034 
    2982     3014     3161     3356     3433     3372     3287     3230 
    3163     3080     3048     3024     2880     2663     2524     2587 
    2817     3010     3067     3061     3088     3235     3468     3588 
    3488     3257     3041     2903     2812     2722     2643     2598 
    2641     2824     3102     3318     3343     3227     3065     2918 
    2890     2983     3092     3188     3271     3292     3246     3159 
    3052     2960     2895     2844     2820     2812     2791     2794 
    2863     2936     2965     2967     2918     2821     2776     2911 
