Origin Time       2025/03/30 21:30:00
Lat.              38.535
Long.             142.295
Depth. (km)       44
Mag.              4.3
Station Code      MYGH14
Station Lat.      38.3400
Station Long.     140.9551
Station Height(m) -986
Record Time       2025/03/30 21:31:28
Sampling Freq(Hz) 100Hz
Duration Time(s)  120
Dir.              3
Scale Factor      7845(gal)/8223790
Max. Acc. (gal)   0.335
Last Correction   2025/03/30 21:31:28
Memo.             
[...]
    -633     -633     -634     -635     -634     -634     -637     -637 
    -634     -635     -635     -633     -634     -635     -633     -634 
    -633     -631     -634     -634     -633     -633     -633     -633 
    -631     -633     -634     -633     -634     -634     -633     -635 
    -633     -629     -631     -633     -631     -635     -638     -634 
    -631     -631     -633     -633     -633     -637     -635     -634 
    -635     -635     -634     -637     -635     -633     -635     -638 
    -635     -634     -635     -633     -631     -633     -631     -631 
    -633     -631     -633     -635     -637     -637     -635     -637 
    -639     -637     -637     -637     -634     -634     -637     -635 
    -634     -627     -619     -623     -631     -630     -627     -634 
    -654     -662     -639     -606     -603     -635     -665     -657 
    -627     -616     -627     -633     -634     -633     -622     -623 
    -645     -650     -633     -633     -661     -669     -631     -599 
    -607     -631     -639     -615     -596     -631     -669     -649 
    -649     -683     -650     -585     -598     -650     -650     -626 
    -622     -627     -653     -657     -610     -600     -629     -645 
    -675     -658     -591     -615     -687     -672     -608     -573 
    -608     -688     -685     -602     -575     -625     -645     -623 
    -641     -662     -643     -656     -680     -653     -625     -607 
    -610     -639     -623     -598     -643     -675     -654     -643 
    -650     -652     -641     -619     -619     -634     -626     -610 
    -637     -676     -660     -621     -619     -622     -618     -641 
    -657     -653     -656     -614     -554     -579     -652     -669 
    -631     -625     -661     -666     -657     -638     -572     -553 
    -619     -649     -643     -631     -588     -602     -684     -702 
    -668     -656     -621     -592     -616     -615     -606     -648 
    -645     -607     -621     -638     -637     -642     -658     -684 
    -656     -602     -621     -652     -637     -611     -615     -652 
    -646     -625     -642     -648     -662     -658     -581     -569 
    -634     -657     -657     -633     -607     -662     -680     -614 
    -623     -645     -576     -562     -619     -652     -684     -687 
    -625     -588     -594     -610     -634     -652     -649     -598 
    -572     -634     -662     -641     -661     -676     -638     -610 
    -639     -664     -627     -591     -626     -660     -616     -584 
    -631     -683     -672     -621     -604     -637     -675     -679 
    -643     -637     -650     -634     -631     -638     -614     -599 
    -608     -634     -656     -665     -669     -653     -625     -608 
    -602     -615     -631     -643     -677     -665     -618     -629 
    -650     -626     -596     -600     -625     -639     -653     -665 
    -642     -619     -630     -627     -621     -648     -625     -576 
    -639     -723     -675     -594     -596     -641     -642     -598 
    -607     -681     -677     -604     -616     -673     -652     -595 
    -599     -638     -634     -616     -643     -653     -625     -634 
    -656     -630     -604     -619     -638     -648     -653     -626 
    -618     -664     -641     -587     -638     -683     -645     -619 
    -616     -625     -653     -656     -629     -618     -606     -596 
    -630     -670     -661     -607     -584     -616     -638     -658 
    -657     -606     -616     -673     -675     -676     -650     -557 
    -561     -657     -679     -641     -622     -623     -625     -629 
    -652     -666     -635     -607     -614     -631     -645     -641 
    -642     -652     -642     -621     -604     -610     -631     -629 
    -622     -643     -635     -625     -665     -664     -612     -596 
    -614     -643     -653     -649     -666     -638     -580     -612 
    -658     -639     -629     -623     -612     -625     -652     -649 
    -619     -635     -670     -630     -592     -635     -681     -661 
    -614     -614     -658     -652     -589     -600     -664     -649 
    -626     -660     -648     -629     -668     -645     -589     -612 
    -650     -631     -608     -633     -646     -623     -634     -642 
    -626     -639     -638     -631     -642     -627     -631     -634 
    -585     -608     -654     -641     -661     -657     -594     -595 
    -639     -676     -687     -625     -571     -595     -633     -664 
    -676     -645     -618     -625     -639     -633     -631     -654 
    -631     -615     -668     -677     -635     -606     -594     -641 
    -676     -622     -575     -607     -689     -711     -612     -565 
    -634     -662     -649     -626     -575     -599     -692     -702 
    -648     -625     -610     -584     -612     -653     -629     -625 
    -676     -675     -633     -638     -654     -625     -585     -580 
    -625     -683     -660     -614     -645     -646     -579     -581 
    -645     -676     -657     -612     -614     -670     -676     -607 
    -568     -608     -660     -668     -634     -602     -638     -700 
    -692     -642     -594     -565     -604     -653     -637     -612 
    -612     -623     -687     -711     -635     -607     -629     -618 
    -629     -630     -599     -608     -643     -672     -664     -602 
    -579     -637     -676     -646     -608     -615     -633     -641 
    -650     -633     -619     -649     -653     -629     -642     -642 
    -612     -610     -642     -656     -618     -599     -638     -642 
    -603     -603     -635     -677     -703     -662     -625     -646 
    -641     -595     -573     -616     -654     -598     -584     -668 
    -677     -641     -639     -622     -612     -629     -645     -679 
    -669     -606     -608     -665     -685     -652     -585     -565 
    -626     -650     -607     -610     -648     -648     -650     -646 
    -622     -630     -677     -693     -643     -606     -619     -616 
    -596     -612     -654     -679     -658     -634     -623     -602 
    -606     -642     -645     -619     -610     -642     -684     -665 
    -635     -665     -657     -584     -575     -622     -650     -654 
    -618     -600     -646     -654     -618     -633     -660     -630 
    -607     -615     -607     -607     -641     -658     -630     -637 
    -673     -629     -585     -627     -656     -654     -649     -634 
    -635     -634     -621     -635     -645     -611     -607     -654 
    -666     -638     -639     -638     -618     -633     -662     -656 
    -633     -627     -615     -596     -626     -662     -642     -626 
    -645     -634     -625     -670     -677     -623     -599     -592 
    -581     -619     -683     -661     -594     -604     -642     -616 
    -602     -631     -637     -643     -688     -691     -621     -591 
    -654     -675     -607     -596     -629     -615     -633     -673 
    -641     -599     -600     -618     -643     -641     -622     -653 
    -683     -665     -658     -635     -585     -594     -626     -631 
    -653     -650     -625     -637     -648     -658     -665     -592 
    -557     -641     -664     -596     -602     -673     -710     -664 
    -600     -615     -637     -610     -621     -645     -637     -627 
    -616     -622     -639     -634     -627     -623     -616     -643 
    -679     -666     -618     -598     -592     -598     -654     -664 
    -612     -652     -712     -660     -592     -607     -631     -610 
    -611     -645     -646     -637     -638     -626     -622     -637 
    -643     -638     -637     -633     -621     -616     -625     -638 
    -646     -608     -598     -672     -687     -625     -626     -638 
    -599     -587     -622     -652     -657     -652     -648     -657 
    -673     -668     -634     -630     -660     -635     -591     -610 
    -614     -587     -612     -646     -638     -621     -604     -631 
    -688     -680     -608     -589     -645     -675     -653     -633 
    -621     -646     -687     -641     -581     -604     -621     -596 
    -603     -635     -650     -650     -643     -638     -638     -649 
    -677     -668     -623     -612     -631     -646     -616     -573 
    -592     -604     -606     -649     -664     -645     -638     -618 
    -604     -635     -643     -603     -635     -704     -702     -692 
    -654     -567     -585     -665     -641     -587     -615     -664 
    -653     -611     -616     -681     -711     -654     -600     -619 
    -649     -621     -581     -606     -648     -648     -641     -646 
    -635     -626     -665     -685     -621     -585     -611     -602 
    -621     -657     -641     -625     -614     -618     -649     -653 
    -643     -641     -616     -607     -642     -681     -688     -633 
    -587     -611     -629     -615     -625     -618     -604     -653 
    -687     -631     -615     -650     -608     -587     -639     -660 
    -681     -684     -626     -619     -621     -594     -623     -633 
    -622     -664     -680     -652     -639     -649     -641     -595 
    -576     -618     -633     -602     -627     -676     -652     -631 
    -634     -606     -607     -648     -673     -677     -670     -665 
    -653     -638     -626     -580     -546     -591     -630     -608 
    -608     -633     -639     -665     -687     -658     -642     -652 
    -662     -688     -656     -580     -589     -658     -668     -598 
    -552     -607     -661     -635     -616     -648     -668     -637 
    -615     -629     -610     -611     -689     -684     -594     -607 
    -649     -621     -642     -681     -643     -600     -594     -607 
    -646     -661     -642     -646     -669     -665     -618     -592 
    -616     -614     -618     -679     -685     -648     -646     -635 
    -603     -612     -643     -633     -580     -569     -631     -683 
    -685     -704     -722     -660     -592     -585     -581     -583 
    -616     -637     -626     -612     -623     -654     -676     -669 
    -627     -606     -634     -631     -614     -629     -607     -595 
    -646     -653     -635     -670     -660     -611     -615     -641 
    -645     -633     -630     -625     -599     -615     -665     -660 
    -616     -645     -692     -652     -606     -629     -623     -571 
    -606     -699     -676     -592     -591     -638     -675     -666 
    -604     -573     -595     -638     -695     -687     -614     -571 
    -591     -652     -669     -652     -669     -669     -638     -623 
    -614     -629     -666     -668     -614     -575     -595     -616 
    -638     -666     -630     -610     -653     -650     -677     -695 
    -585     -556     -630     -641     -643     -648     -619     -607 
    -606     -629     -666     -658     -650     -652     -635     -656 
    -661     -585     -537     -568     -629     -680     -673     -630 
    -626     -673     -692     -641     -619     -650     -652     -616 
    -580     -599     -679     -720     -675     -610     -607     -650 
    -677     -656     -596     -577     -641     -693     -660     -587 
    -565     -607     -648     -658     -658     -643     -634     -661 
    -654     -616     -631     -658     -641     -598     -583     -603 
    -583     -591     -679     -696     -625     -587     -588     -630 
    -666     -623     -611     -691     -693     -615     -623     -657 
    -622     -604     -596     -564     -608     -699     -679     -631 
    -662     -641     -575     -616     -660     -606     -607     -693 
    -711     -676     -658     -629     -608     -631     -629     -602 
    -626     -657     -661     -643     -581     -587     -670     -691 
    -676     -639     -581     -614     -669     -646     -622     -649 
    -669     -621     -584     -634     -680     -645     -575     -573 
    -626     -625     -604     -639     -675     -657     -600     -575 
    -629     -679     -665     -635     -587     -549     -612     -688 
    -641     -585     -623     -653     -660     -685     -679     -634 
    -598     -594     -622     -631     -625     -629     -623     -626 
    -623     -611     -650     -654     -616     -662     -702     -658 
    -635     -629     -622     -639     -625     -607     -637     -646 
    -627     -646     -676     -642     -584     -600     -668     -669 
    -603     -569     -607     -669     -662     -603     -607     -673 
    -673     -611     -604     -608     -599     -631     -634     -634 
    -683     -668     -626     -625     -603     -612     -675     -661 
    -619     -658     -653     -579     -598     -683     -712     -672 
    -611     -631     -688     -638     -594     -614     -576     -562 
    -661     -720     -702     -654     -594     -589     -619     -587 
    -564     -604     -645     -664     -664     -676     -691     -646 
    -603     -606     -611     -641     -675     -660     -631     -643 
    -665     -627     -584     -581     -577     -588     -611     -626 
    -641     -612     -587     -653     -749     -788     -760     -722 
    -712     -625     -475     -440     -488     -491     -498     -595 
    -707     -696     -567     -486     -550     -665     -751     -832 
    -853     -789     -730     -658     -553     -553     -662     -670 
    -603     -627     -611     -460     -390     -498     -627     -691 
    -730     -749     -741     -800     -915     -872     -631     -409 
    -321     -325     -422     -635     -870     -985     -896     -683 
    -522     -423     -360     -432     -641     -822     -839     -729 
    -588     -531     -631     -774     -795     -685     -529     -507 
    -685     -796     -687     -554     -514     -496     -508     -541 
    -457     -376     -572     -870     -943     -766     -556     -556 
    -665     -626     -537     -595     -757     -837     -731     -654 
    -716     -706     -614     -491     -367     -457     -639     -623 
    -580     -658     -687     -614     -535     -545     -665     -785 
    -822     -803     -769     -739     -720     -654     -508     -391 
    -460     -637     -645     -492     -483     -684     -838     -783 
    -669     -639     -621     -621     -706     -734     -652     -611 
    -625     -606     -585     -630     -688     -626     -533     -575 
    -629     -610     -616     -600     -554     -576     -607     -639 
    -726     -731     -615     -579     -658     -691     -672     -654 
    -600     -583     -614     -638     -666     -683     -722     -769 
    -706     -612     -606     -595     -499     -460     -633     -742 
    -581     -533     -708     -785     -727     -627     -550     -580 
    -643     -630     -575     -558     -595     -614     -550     -486 
    -583     -742     -750     -695     -689     -710     -689     -584 
    -557     -618     -549     -491     -583     -639     -646     -680 
    -681     -687     -710     -687     -669     -665     -680     -710 
    -650     -599     -648     -619     -510     -483     -577     -707 
    -749     -688     -639     -650     -654     -650     -697     -719 
    -638     -562     -545     -540     -569     -608     -621     -668 
    -704     -677     -630     -576     -553     -584     -633     -696 
    -729     -708     -699     -654     -562     -527     -519     -503 
    -591     -741     -791     -750     -683     -615     -577     -591 
    -635     -666     -643     -606     -645     -654     -576     -614 
    -689     -650     -662     -664     -533     -484     -572     -652 
    -729     -769     -739     -706     -679     -645     -622     -596 
    -523     -454     -513     -631     -645     -611     -610     -596 
    -652     -749     -700     -618     -652     -672     -657     -670 
    -664     -619     -572     -556     -599     -622     -583     -589 
    -661     -700     -680     -654     -639     -598     -589     -696 
    -757     -658     -588     -656     -696     -611     -595     -668 
    -603     -483     -506     -596     -680     -722     -675     -631 
    -657     -679     -657     -652     -693     -685     -639     -670 
    -693     -645     -595     -546     -487     -492     -622     -731 
    -722     -702     -641     -548     -564     -616     -618     -626 
    -631     -615     -629     -679     -712     -704     -665     -602 
    -561     -629     -703     -589     -461     -573     -726     -711 
    -642     -599     -599     -696     -768     -702     -608     -567 
    -594     -707     -723     -595     -560     -600     -568     -579 
    -661     -691     -670     -653     -666     -683     -621     -564 
    -600     -650     -679     -685     -692     -726     -684     -567 
    -550     -622     -598     -533     -542     -537     -548     -666 
    -750     -699     -650     -684     -697     -691     -704     -685 
    -645     -599     -571     -607     -595     -514     -527     -642 
    -741     -720     -619     -627     -714     -733     -707     -635 
    -573     -616     -681     -653     -550     -498     -577     -633 
    -558     -530     -656     -760     -689     -615     -657     -656 
    -634     -692     -723     -675     -577     -507     -550     -625 
    -626     -604     -654     -704     -625     -518     -565     -677 
    -693     -676     -660     -587     -538     -600     -706     -700 
    -581     -583     -720     -729     -621     -634     -726     -710 
    -645     -664     -684     -581     -449     -488     -650     -704 
    -650     -634     -673     -669     -614     -665     -751     -645 
    -510     -560     -677     -742     -727     -618     -510     -527 
    -623     -627     -572     -604     -621     -602     -703     -746 
    -627     -592     -625     -583     -584     -670     -727     -687 
    -540     -502     -669     -718     -634     -673     -711     -633 
    -606     -660     -691     -672     -629     -588     -568     -583 
    -645     -706     -700     -626     -540     -565     -707     -778 
    -710     -626     -604     -606     -631     -639     -580     -576 
    -653     -699     -684     -604     -562     -631     -672     -598 
    -514     -548     -642     -666     -650     -668     -679     -680 
    -697     -662     -600     -615     -668     -702     -676     -602 
    -602     -630     -592     -575     -584     -567     -557     -575 
    -631     -689     -664     -661     -741     -699     -619     -712 
    -746     -607     -571     -656     -626     -491     -448     -548 
    -654     -672     -677     -735     -746     -672     -614     -598 
    -625     -677     -660     -583     -522     -521     -623     -700 
    -630     -564     -639     -746     -730     -626     -621     -700 
    -693     -596     -514     -535     -621     -645     -658     -679 
    -619     -598     -673     -669     -615     -643     -684     -676 
    -675     -685     -676     -688     -653     -494     -456     -630 
    -724     -691     -650     -581     -580     -693     -715     -622 
    -585     -622     -652     -634     -572     -518     -562     -653 
    -658     -650     -688     -670     -627     -654     -687     -657 
    -635     -637     -588     -521     -548     -648     -695     -675 
    -626     -598     -622     -643     -646     -637     -615     -635 
