Origin Time       2025/03/30 21:30:00
Lat.              38.535
Long.             142.295
Depth. (km)       44
Mag.              4.3
Station Code      MYGH07
Station Lat.      38.1802
Station Long.     140.6405
Station Height(m) 186
Record Time       2025/03/30 21:31:35
Sampling Freq(Hz) 100Hz
Duration Time(s)  120
Dir.              4
Scale Factor      7845(gal)/8223790
Max. Acc. (gal)   3.075
Last Correction   2025/03/30 21:31:35
Memo.             
[...]
   -1522    -1578    -1593    -1499    -1406    -1544    -1800    -1863 
   -1695    -1517    -1551    -1711    -1717    -1613    -1615    -1688 
   -1780    -1869    -1755    -1428    -1281    -1482    -1667    -1614 
   -1590    -1710    -1730    -1598    -1463    -1364    -1393    -1675 
   -2016    -2133    -2043    -1848    -1586    -1381    -1314    -1356 
   -1486    -1709    -1925    -1933    -1691    -1383    -1223    -1359 
   -1710    -1941    -1929    -1818    -1684    -1561    -1487    -1478 
   -1625    -1900    -2087    -2004    -1609    -1115     -936    -1186 
   -1578    -1860    -1957    -1853    -1709    -1748    -1854    -1763 
   -1529    -1352    -1270    -1309    -1486    -1676    -1811    -1865 
   -1719    -1467    -1408    -1557    -1706    -1776    -1765    -1668 
   -1563    -1532    -1561    -1628    -1773    -1971    -2020    -1799 
   -1475    -1285    -1262    -1377    -1598    -1777    -1857    -1919 
   -1915    -1733    -1467    -1341    -1455    -1687    -1803    -1728 
   -1640    -1644    -1628    -1597    -1615    -1570    -1478    -1525 
   -1618    -1624    -1661    -1760    -1813    -1763    -1626    -1539 
   -1537    -1506    -1510    -1682    -1864    -1813    -1544    -1356 
   -1478    -1728    -1834    -1803    -1674    -1506    -1490    -1657 
   -1813    -1806    -1711    -1695    -1678    -1553    -1522    -1690 
   -1796    -1648    -1339    -1151    -1289    -1603    -1848    -1949 
   -1850    -1614    -1524    -1636    -1721    -1714    -1657    -1518 
   -1335    -1204    -1297    -1737    -2253    -2423    -2188    -1763 
   -1344    -1100    -1139    -1374    -1564    -1640    -1734    -1827 
   -1794    -1703    -1699    -1773    -1807    -1756    -1671    -1541 
   -1366    -1314    -1476    -1695    -1852    -1944    -1912    -1771 
   -1633    -1505    -1431    -1499    -1570    -1536    -1566    -1703 
   -1791    -1757    -1648    -1532    -1445    -1378    -1371    -1529 
   -1811    -1999    -1971    -1802    -1597    -1463    -1514    -1656 
   -1647    -1510    -1509    -1667    -1763    -1705    -1571    -1512 
   -1609    -1705    -1675    -1659    -1740    -1814    -1834    -1783 
   -1626    -1433    -1339    -1448    -1710    -1923    -1999    -1949 
   -1753    -1536    -1482    -1534    -1568    -1617    -1657    -1587 
   -1486    -1576    -1833    -1922    -1653    -1246    -1069    -1216 
   -1497    -1765    -1938    -1968    -1976    -2022    -1914    -1590 
   -1224     -994    -1031    -1283    -1559    -1814    -2085    -2258 
   -2146    -1767    -1395    -1209    -1143    -1173    -1344    -1636 
   -1952    -2115    -2053    -1910    -1788    -1674    -1548    -1367 
   -1189    -1212    -1491    -1849    -2076    -2065    -1858    -1597 
   -1397    -1332    -1435    -1628    -1752    -1756    -1723    -1701 
   -1717    -1830    -1888    -1649    -1242    -1057    -1215    -1555 
   -1915    -2146    -2165    -1998    -1679    -1336    -1237    -1474 
   -1782    -1815    -1553    -1312    -1356    -1645    -1896    -1880 
   -1702    -1640    -1711    -1703    -1548    -1363    -1297    -1452 
   -1694    -1791    -1848    -2030    -2106    -1814    -1293     -942 
   -1035    -1470    -1900    -2083    -1969    -1741    -1684    -1763 
   -1659    -1356    -1144    -1209    -1540    -1946    -2099    -1930 
   -1740    -1644    -1498    -1343    -1399    -1628    -1701    -1594 
   -1626    -1771    -1803    -1833    -1907    -1796    -1483    -1220 
   -1229    -1510    -1810    -1931    -1833    -1584    -1453    -1572 
   -1742    -1791    -1684    -1526    -1490    -1574    -1682    -1718 
   -1641    -1594    -1687    -1822    -1818    -1570    -1246    -1155 
   -1362    -1705    -1941    -1902    -1703    -1564    -1609    -1819 
   -1903    -1660    -1368    -1309    -1393    -1475    -1570    -1660 
   -1629    -1509    -1526    -1775    -2056    -2093    -1802    -1399 
   -1236    -1375    -1614    -1850    -2035    -2035    -1831    -1572 
   -1443    -1544    -1702    -1683    -1568    -1555    -1653    -1745 
   -1772    -1752    -1688    -1594    -1521    -1502    -1559    -1649 
   -1641    -1539    -1493    -1598    -1807    -1917    -1769    -1563 
   -1534    -1529    -1383    -1286    -1448    -1780    -1976    -1856 
   -1632    -1595    -1661    -1603    -1501    -1532    -1601    -1552 
   -1444    -1455    -1709    -2089    -2231    -1960    -1532    -1305 
   -1377    -1516    -1514    -1485    -1548    -1687    -1910    -2097 
   -2088    -1950    -1692    -1250     -889     -926    -1305    -1813 
   -2222    -2227    -1822    -1437    -1343    -1476    -1695    -1749 
   -1529    -1341    -1408    -1521    -1564    -1696    -1894    -1977 
   -2027    -2054    -1810    -1424    -1314    -1441    -1544    -1609 
   -1655    -1628    -1587    -1661    -1850    -1968    -1800    -1414 
   -1105    -1109    -1422    -1756    -1823    -1784    -1923    -2037 
   -1811    -1435    -1239    -1246    -1363    -1518    -1625    -1725 
   -1911    -2027    -1935    -1795    -1703    -1541    -1301    -1142 
   -1175    -1404    -1742    -2043    -2180    -2141    -1941    -1551 
   -1123     -994    -1269    -1687    -1964    -1972    -1842    -1791 
   -1823    -1891    -1968    -1894    -1590    -1219    -1015    -1131 
   -1472    -1779    -1917    -1850    -1715    -1796    -1945    -1788 
   -1497    -1394    -1443    -1557    -1638    -1630    -1648    -1645 
   -1544    -1472    -1417    -1444    -1821    -2305    -2344    -1867 
   -1151     -639     -754    -1339    -1873    -2153    -2236    -2128 
   -1802    -1368    -1080    -1077    -1300    -1617    -1877    -2064 
   -2220    -2176    -1861    -1447    -1047     -938    -1366    -1931 
   -2133    -1958    -1602    -1363    -1479    -1742    -1842    -1726 
   -1475    -1351    -1590    -1880    -1750    -1393    -1367    -1660 
   -1854    -1895    -1880    -1726    -1463    -1275    -1279    -1429 
   -1568    -1634    -1768    -2025    -2142    -1939    -1632    -1455 
   -1475    -1580    -1574    -1544    -1644    -1680    -1628    -1702 
   -1826    -1898    -1962    -1896    -1618    -1254     -955     -939 
   -1337    -1966    -2416    -2319    -1829    -1509    -1471    -1362 
   -1108     -972    -1190    -1707    -2141    -2215    -2020    -1802 
   -1692    -1551    -1301    -1233    -1453    -1644    -1680    -1728 
   -1732    -1561    -1452    -1561    -1634    -1560    -1534    -1660 
   -1836    -1844    -1660    -1548    -1630    -1748    -1737    -1605 
   -1513    -1529    -1637    -1865    -2008    -1846    -1564    -1359 
   -1285    -1491    -1911    -2180    -2138    -1876    -1556    -1391 
   -1414    -1422    -1391    -1518    -1753    -1783    -1528    -1266 
   -1259    -1505    -1863    -2118    -2011    -1632    -1426    -1503 
   -1611    -1630    -1555    -1478    -1613    -1842    -1845    -1644 
   -1444    -1300    -1228    -1282    -1466    -1618    -1682    -1814 
   -1890    -1717    -1579    -1711    -1952    -2060    -1867    -1483 
   -1242    -1250    -1389    -1533    -1606    -1709    -2008    -2297 
   -2155    -1611    -1198    -1312    -1730    -1991    -1960    -1763 
   -1557    -1495    -1568    -1649    -1722    -1800    -1806    -1756 
   -1682    -1556    -1451    -1459    -1598    -1809    -1861    -1630 
   -1313    -1144    -1225    -1494    -1678    -1696    -1806    -1939 
   -1779    -1486    -1412    -1493    -1561    -1601    -1590    -1528 
   -1483    -1517    -1686    -1979    -2160    -2045    -1829    -1687 
   -1529    -1371    -1277    -1240    -1370    -1624    -1811    -1991 
   -2189    -2176    -1868    -1440    -1167    -1278    -1576    -1647 
   -1570    -1641    -1768    -1800    -1823    -1867    -1772    -1493 
   -1273    -1258    -1267    -1273    -1395    -1540    -1664    -1831 
   -1934    -1904    -1840    -1765    -1641    -1487    -1363    -1339 
   -1445    -1539    -1506    -1524    -1763    -2103    -2313    -2219 
   -1833    -1393    -1090     -976    -1113    -1528    -2000    -2174 
   -1992    -1750    -1674    -1701    -1663    -1544    -1490    -1514 
   -1572    -1714    -1853    -1865    -1790    -1684    -1594    -1518 
   -1410    -1350    -1401    -1526    -1690    -1729    -1572    -1440 
   -1480    -1632    -1817    -1934    -1833    -1509    -1270    -1421 
   -1748    -1873    -1903    -1977    -1919    -1740    -1644    -1575 
   -1445    -1405    -1447    -1414    -1435    -1632    -1821    -1884 
   -1890    -1817    -1655    -1512    -1456    -1545    -1738    -1761 
   -1575    -1579    -1777    -1699    -1383    -1237    -1341    -1671 
   -2034    -1993    -1624    -1420    -1493    -1649    -1756    -1753 
   -1690    -1674    -1694    -1574    -1358    -1367    -1591    -1769 
   -1850    -1763    -1553    -1570    -1776    -1742    -1420    -1196 
   -1386    -1772    -1941    -1988    -2079    -1996    -1721    -1426 
   -1166    -1102    -1417    -1939    -2278    -2199    -1782    -1336 
   -1134    -1196    -1313    -1325    -1328    -1478    -1711    -1941 
   -2182    -2286    -2077    -1723    -1445    -1269    -1231    -1301 
   -1316    -1263    -1335    -1603    -1890    -1989    -1948    -1941 
   -1887    -1690    -1517    -1395    -1314    -1437    -1674    -1814 
   -1908    -2010    -2027    -1876    -1582    -1260    -1074    -1198 
   -1516    -1702    -1833    -2039    -2079    -1937    -1854    -1849 
   -1829    -1669    -1382    -1281    -1462    -1683    -1803    -1748 
   -1597    -1555    -1468    -1247    -1200    -1381    -1617    -1865 
   -1979    -1814    -1548    -1414    -1414    -1422    -1412    -1561 
   -1929    -2161    -2002    -1718    -1582    -1497    -1432    -1467 
   -1483    -1462    -1599    -1826    -1811    -1568    -1498    -1777 
   -2106    -2215    -2095    -1723    -1210     -839     -707     -897 
   -1520    -2245    -2596    -2505    -2112    -1648    -1425    -1432 
   -1394    -1236    -1120    -1206    -1495    -1809    -2014    -2088 
   -1912    -1487    -1189    -1306    -1638    -1809    -1684    -1374 
   -1098    -1092    -1420    -1885    -2191    -2153    -1888    -1660 
   -1502    -1306    -1221    -1426    -1777    -2046    -2127    -1960 
   -1682    -1509    -1408    -1385    -1613    -1972    -2180    -2200 
   -2012    -1598    -1213    -1096    -1217    -1514    -1879    -2069 
   -1998    -1794    -1574    -1448    -1517    -1680    -1763    -1718 
   -1591    -1503    -1522    -1534    -1530    -1588    -1637    -1624 
   -1610    -1602    -1493    -1254    -1138    -1300    -1493    -1588 
   -1809    -2173    -2361    -2188    -1804    -1399    -1073     -961 
   -1086    -1352    -1756    -2200    -2401    -2228    -1881    -1678 
   -1599    -1435    -1254    -1179    -1250    -1588    -2004    -2128 
   -2061    -2008    -1827    -1487    -1308    -1443    -1574    -1475 
   -1426    -1597    -1767    -1853    -1919    -1864    -1625    -1348 
   -1167    -1138    -1300    -1597    -1858    -1984    -1985    -1907 
   -1788    -1645    -1456    -1202    -1013    -1077    -1341    -1570 
   -1655    -1690    -1833    -2061    -2150    -2088    -2043    -1926 
   -1632    -1360    -1247    -1142     -981    -1078    -1638    -2246 
   -2461    -2311    -1962    -1691    -1622    -1453    -1197    -1224 
   -1503    -1806    -1989    -1945    -1748    -1609    -1672    -1818 
   -1717    -1435    -1343    -1348    -1256    -1273    -1471    -1661 
   -1787    -1861    -1840    -1744    -1738    -1840    -1779    -1597 
   -1582    -1664    -1728    -1683    -1347    -1077    -1314    -1687 
   -1788    -1791    -1871    -1992    -2046    -1825    -1301     -930 
   -1109    -1588    -1954    -2133    -2096    -1865    -1665    -1533 
   -1301    -1129    -1278    -1567    -1768    -1919    -2004    -1953 
   -1810    -1648    -1522    -1459    -1459    -1497    -1476    -1464 
   -1674    -1999    -2118    -1899    -1499    -1275    -1355    -1506 
   -1610    -1752    -1908    -1977    -1960    -1933    -1875    -1611 
   -1129     -700     -579     -854    -1382    -1825    -2057    -2193 
   -2181    -1964    -1725    -1576    -1456    -1381    -1314    -1132 
   -1053    -1448    -2131    -2586    -2635    -2309    -1722    -1163 
    -909     -969    -1125    -1237    -1470    -1911    -2290    -2281 
   -1827    -1233     -901     -927    -1194    -1491    -1603    -1768 
   -2300    -2786    -2797    -2560    -2277    -1918    -1553    -1192 
    -866     -695     -672     -818    -1165    -1691    -2425    -3036 
   -3067    -2706    -2277    -1719    -1135     -743     -568     -770 
   -1471    -2169    -2323    -2138    -1998    -1823    -1547    -1212 
    -745     -453     -792    -1367    -1451    -1071     -687     -646 
   -1135    -1933    -2647    -3172    -3464    -3397    -2889    -1966 
   -1008     -503     -492     -710    -1004    -1266    -1445    -1651 
   -1884    -2004    -2089    -2431    -2968    -3137    -2604    -1648 
    -622      280      846      822       16    -1404    -2891    -3928 
   -4185    -3609    -2556    -1548     -908     -599     -488     -553 
    -615     -556     -696    -1089    -1350    -1588    -2247    -3188 
   -3923    -4117    -3488    -2216    -1224     -976    -1012    -1007 
   -1001     -951     -804     -715     -869    -1209    -1587    -1918 
   -2151    -2457    -2947    -3246    -3049    -2378    -1248      103 
    1121     1282      372    -1308    -3105    -4274    -4423    -3850 
   -2748    -1031      689     1588     1485      329    -1679    -3574 
   -4469    -4228    -3175    -1904     -884     -241     -236    -1003 
   -1984    -2506    -2481    -2173    -1649     -974     -584     -691 
    -955    -1260    -1813    -2598    -3264    -3190    -2272    -1444 
   -1401    -1729    -1831    -1510     -858     -313     -178     -344 
   -1061    -2538    -3870    -3925    -2690    -1034       12       -9 
    -664    -1532    -2504    -3207    -3441    -3318    -2601    -1128 
     511     1453     1408      658     -679    -2450    -3921    -4491 
   -4077    -2975    -1975    -1609    -1539    -1313     -729      264 
    1035      556    -1169    -2992    -3924    -3750    -2759    -1439 
    -337       -9     -733    -2299    -3946    -4483    -3335    -1301 
     453     1336     1054     -341    -2146    -3570    -4243    -4047 
   -3113    -1723     -171      970     1048       29    -1521    -2994 
   -3951    -3990    -2949    -1390     -214      268       45     -845 
   -1713    -1989    -2054    -2236    -2425    -2558    -2543    -2311 
   -1799     -872       70      244     -437    -1480    -2417    -2901 
   -2970    -2918    -2674    -1938     -876     -234     -583    -1715 
   -2960    -3581    -3190    -2182    -1213     -464       28       40 
    -484    -1439    -2540    -3161    -2921    -2079    -1042     -102 
     453      409     -272    -1274    -2079    -2396    -2317    -2349 
   -2895    -3372    -2817    -1367       20      695      421     -750 
   -2235    -3230    -3388    -2851    -1946    -1024     -402     -491 
   -1468    -2705    -3449    -3719    -3647    -2984    -1779     -635 
    -141     -422    -1048    -1408    -1324    -1028     -805     -900 
   -1408    -2184    -2938    -3461    -3630    -3227    -2253    -1266 
    -696     -448     -492     -734     -803     -675     -733    -1255 
   -2119    -2851    -3238    -3279    -2628    -1233       90      642 
     494      -89    -1067    -2374    -3653    -4342    -4055    -2737 
    -753      973     1530      835     -595    -2122    -3199    -3684 
   -3654    -3127    -2243    -1291     -585     -426     -904    -1710 
   -2288    -2315    -1915    -1397    -1142    -1352    -1595    -1302 
    -626     -216     -531    -1588    -3053    -4363    -4733    -3751 
   -1945     -155     1051     1223      274    -1350    -2992    -3982 
   -3886    -2853    -1467     -190      804     1063       70    -1746 
   -3456    -4529    -4669    -3962    -2829    -1408      -10      735 
     816      438     -680    -2398    -3777    -4102    -3306    -1815 
    -506      -35     -164     -384     -862    -1948    -3113    -3441 
   -2743    -1521     -495     -116     -175     -287     -479     -931 
   -1740    -2821    -3728    -4101    -3998    -3423    -2357    -1061 
      62      530      113     -815    -1699    -2266    -2409    -2014 
   -1212     -459     -139     -411    -1231    -2203    -2847    -2988 
   -2610    -1744     -907     -946    -1877    -2814    -3114    -2674 
   -1725     -950     -865    -1223    -1528    -1656    -1768    -1744 
   -1300     -881    -1170    -1923    -2556    -2786    -2497    -2011 
   -1674    -1186     -392       98     -216    -1152    -2324    -3152 
   -2975    -2012    -1036     -307     -132    -1003    -2417    -3181 
   -2825    -1807     -885     -583     -834    -1204    -1528    -1911 
   -2199    -2169    -2070    -2162    -2192    -1907    -1385     -888 
    -827    -1366    -2134    -2581    -2439    -2033    -1919    -2122 
   -2165    -1679     -778      -37       55     -584    -1683    -2566 
   -2689    -2273    -1752    -1161     -545     -355     -908    -1768 
   -2311    -2482    -2469    -2284    -1934    -1521    -1179    -1017 
   -1078    -1443    -2097    -2685    -2729    -2106    -1221     -814 
   -1125    -1633    -1958    -2111    -2020    -1722    -1493    -1521 
   -1737    -1861    -1688    -1242     -745     -675    -1304    -2205 
   -2786    -2808    -2238    -1443    -1105    -1329    -1664    -1826 
   -1714    -1437    -1364    -1602    -1767    -1467     -915     -747 
   -1073    -1387    -1443    -1447    -1587    -1757    -1818    -1883 
   -2142    -2704    -3288    -3090    -1927     -727     -228     -491 
   -1271    -2050    -2475    -2567    -2297    -1834    -1503    -1116 
    -487     -148     -530    -1228    -1752    -2096    -2257    -2137 
   -1881    -1688    -1547    -1428    -1366    -1251    -1073    -1181 
   -1642    -2034    -2203    -2292    -2371    -2444    -2208    -1421 
    -689     -722    -1287    -1815    -2123    -2241    -2151    -1826 
   -1437    -1212    -1074     -927     -872     -951    -1080    -1189 
   -1374    -1863    -2597    -3138    -3217    -2924    -2373    -1617 
    -769       82      712      527     -683    -2224    -3429    -4124 
   -3943    -2650    -1026      -64      128     -261    -1278    -2535 
   -3318    -3451    -3191    -2718    -2095    -1368     -653       -9 
     491      468     -433    -2042    -3655    -4360    -3821    -2505 
   -1001      172      670      596      -24    -1304    -2843    -3971 
   -4213    -3451    -2168     -926       51      463       28    -1050 
   -2304    -3183    -3234    -2517    -1463     -565     -148     -210 
    -720    -1603    -2446    -2870    -2686    -1958    -1247     -909 
    -796    -1020    -1761    -2625    -3042    -2741    -1810     -680 
     106      110     -770    -2031    -2911    -3159    -2994    -2475 
   -1651     -936     -662     -791    -1185    -1652    -2038    -2285 
   -2231    -1813    -1215     -670     -481     -857    -1564    -2218 
   -2555    -2400    -1898    -1431    -1282    -1729    -2605    -3073 
   -2775    -2093    -1306     -580     -305     -796    -1723    -2250 
   -2089    -1759    -1584    -1494    -1521    -1582    -1451    -1263 
