Origin Time       2025/03/30 21:30:00
Lat.              38.535
Long.             142.295
Depth. (km)       44
Mag.              4.3
Station Code      MYGH14
Station Lat.      38.3400
Station Long.     140.9551
Station Height(m) -986
Record Time       2025/03/30 21:31:28
Sampling Freq(Hz) 100Hz
Duration Time(s)  120
Dir.              2
Scale Factor      7845(gal)/8223790
Max. Acc. (gal)   0.390
Last Correction   2025/03/30 21:31:28
Memo.             
[...]
   -3809    -3809    -3809    -3811    -3811    -3809    -3808    -3809 
   -3809    -3809    -3811    -3809    -3809    -3809    -3809    -3811 
   -3812    -3809    -3805    -3808    -3809    -3809    -3809    -3809 
   -3809    -3811    -3808    -3807    -3812    -3811    -3804    -3805 
   -3809    -3808    -3808    -3811    -3811    -3809    -3809    -3808 
   -3808    -3808    -3808    -3808    -3808    -3807    -3807    -3808 
   -3811    -3808    -3808    -3811    -3812    -3812    -3811    -3811 
   -3812    -3813    -3812    -3811    -3807    -3804    -3802    -3801 
   -3801    -3802    -3804    -3804    -3808    -3813    -3813    -3809 
   -3808    -3816    -3828    -3831    -3817    -3809    -3815    -3802 
   -3773    -3766    -3804    -3846    -3851    -3812    -3763    -3767 
   -3824    -3856    -3835    -3809    -3802    -3801    -3804    -3797 
   -3780    -3793    -3840    -3844    -3780    -3743    -3812    -3890 
   -3874    -3802    -3762    -3781    -3834    -3834    -3785    -3777 
   -3774    -3747    -3816    -3935    -3913    -3801    -3766    -3789 
   -3786    -3774    -3762    -3770    -3832    -3861    -3827    -3812 
   -3800    -3820    -3898    -3873    -3742    -3726    -3819    -3856 
   -3813    -3748    -3719    -3773    -3861    -3886    -3854    -3798 
   -3759    -3809    -3881    -3835    -3759    -3771    -3797    -3792 
   -3782    -3784    -3817    -3839    -3800    -3765    -3777    -3827 
   -3879    -3855    -3789    -3773    -3778    -3773    -3790    -3821 
   -3832    -3821    -3813    -3824    -3823    -3802    -3807    -3813 
   -3794    -3778    -3775    -3798    -3847    -3858    -3807    -3781 
   -3844    -3883    -3819    -3770    -3790    -3824    -3870    -3871 
   -3804    -3781    -3801    -3819    -3842    -3831    -3792    -3792 
   -3793    -3740    -3735    -3832    -3888    -3852    -3807    -3774 
   -3789    -3844    -3858    -3844    -3827    -3786    -3753    -3747 
   -3769    -3802    -3820    -3815    -3781    -3761    -3798    -3846 
   -3873    -3865    -3815    -3804    -3813    -3778    -3774    -3820 
   -3815    -3742    -3717    -3801    -3863    -3813    -3775    -3828 
   -3859    -3836    -3851    -3858    -3809    -3794    -3785    -3727 
   -3736    -3831    -3882    -3858    -3816    -3793    -3784    -3794 
   -3807    -3797    -3819    -3854    -3847    -3829    -3815    -3816 
   -3838    -3828    -3792    -3775    -3777    -3790    -3827    -3838 
   -3790    -3755    -3784    -3831    -3847    -3838    -3807    -3774 
   -3792    -3821    -3800    -3777    -3807    -3838    -3805    -3784 
   -3834    -3832    -3778    -3797    -3827    -3816    -3809    -3807 
   -3812    -3817    -3807    -3808    -3797    -3780    -3802    -3820 
   -3827    -3873    -3870    -3775    -3763    -3835    -3824    -3794 
   -3820    -3793    -3761    -3809    -3832    -3816    -3839    -3831 
   -3777    -3780    -3823    -3843    -3817    -3782    -3801    -3829 
   -3824    -3798    -3775    -3792    -3815    -3800    -3798    -3816 
   -3829    -3835    -3800    -3770    -3808    -3842    -3854    -3856 
   -3792    -3748    -3801    -3805    -3758    -3771    -3800    -3820 
   -3846    -3835    -3832    -3858    -3848    -3801    -3755    -3761 
   -3821    -3840    -3808    -3800    -3792    -3769    -3801    -3844 
   -3819    -3798    -3819    -3820    -3834    -3856    -3802    -3734 
   -3775    -3863    -3865    -3816    -3774    -3724    -3747    -3877 
   -3892    -3771    -3771    -3838    -3805    -3797    -3843    -3835 
   -3782    -3748    -3780    -3846    -3844    -3802    -3792    -3800 
   -3805    -3788    -3763    -3790    -3848    -3858    -3808    -3796 
   -3823    -3802    -3784    -3817    -3828    -3815    -3828    -3835 
   -3821    -3823    -3807    -3755    -3773    -3847    -3834    -3773 
   -3785    -3819    -3813    -3820    -3831    -3800    -3788    -3820 
   -3811    -3780    -3809    -3850    -3836    -3811    -3820    -3835 
   -3797    -3758    -3781    -3805    -3824    -3844    -3804    -3781 
   -3807    -3792    -3812    -3867    -3855    -3819    -3790    -3771 
   -3782    -3782    -3798    -3831    -3809    -3793    -3811    -3807 
   -3811    -3839    -3832    -3784    -3790    -3850    -3838    -3805 
   -3831    -3815    -3773    -3773    -3774    -3798    -3838    -3828 
   -3823    -3813    -3777    -3808    -3851    -3825    -3832    -3843 
   -3784    -3748    -3763    -3793    -3828    -3847    -3816    -3769 
   -3802    -3855    -3817    -3769    -3761    -3812    -3874    -3836 
   -3800    -3825    -3813    -3800    -3777    -3735    -3782    -3855 
   -3844    -3811    -3808    -3813    -3828    -3851    -3809    -3746 
   -3774    -3817    -3808    -3821    -3843    -3812    -3781    -3805 
   -3848    -3850    -3800    -3761    -3786    -3832    -3829    -3797 
   -3775    -3775    -3815    -3856    -3832    -3800    -3828    -3854 
   -3851    -3821    -3769    -3786    -3816    -3750    -3734    -3812 
   -3846    -3828    -3804    -3807    -3834    -3828    -3807    -3792 
   -3792    -3813    -3819    -3820    -3831    -3798    -3774    -3801 
   -3802    -3801    -3828    -3797    -3763    -3829    -3873    -3812 
   -3782    -3834    -3846    -3793    -3767    -3777    -3790    -3817 
   -3835    -3831    -3807    -3775    -3790    -3828    -3832    -3839 
   -3842    -3808    -3804    -3844    -3839    -3798    -3758    -3735 
   -3781    -3846    -3842    -3813    -3811    -3815    -3786    -3774 
   -3823    -3848    -3819    -3775    -3734    -3757    -3824    -3848 
   -3852    -3851    -3827    -3819    -3832    -3840    -3827    -3786 
   -3765    -3784    -3802    -3809    -3823    -3820    -3801    -3790 
   -3780    -3782    -3825    -3855    -3813    -3767    -3821    -3889 
   -3828    -3762    -3827    -3867    -3802    -3773    -3788    -3778 
   -3800    -3832    -3784    -3744    -3809    -3861    -3827    -3798 
   -3824    -3856    -3815    -3765    -3808    -3842    -3816    -3821 
   -3821    -3770    -3744    -3786    -3834    -3809    -3754    -3775 
   -3843    -3838    -3801    -3829    -3874    -3865    -3828    -3773 
   -3754    -3797    -3816    -3809    -3804    -3762    -3751    -3808 
   -3855    -3859    -3821    -3807    -3844    -3825    -3771    -3773 
   -3781    -3807    -3854    -3843    -3807    -3798    -3801    -3804 
   -3792    -3784    -3790    -3811    -3846    -3851    -3823    -3798 
   -3770    -3792    -3859    -3870    -3820    -3774    -3762    -3785 
   -3805    -3797    -3792    -3813    -3828    -3828    -3820    -3794 
   -3781    -3805    -3834    -3832    -3829    -3839    -3817    -3790 
   -3824    -3840    -3769    -3738    -3794    -3825    -3811    -3813 
   -3834    -3844    -3834    -3801    -3769    -3777    -3820    -3817 
   -3765    -3763    -3812    -3835    -3839    -3852    -3842    -3811 
   -3794    -3794    -3829    -3850    -3804    -3808    -3862    -3811 
   -3724    -3739    -3784    -3809    -3824    -3798    -3808    -3867 
   -3843    -3789    -3825    -3863    -3835    -3781    -3773    -3821 
   -3838    -3797    -3784    -3812    -3819    -3792    -3777    -3801 
   -3842    -3846    -3815    -3807    -3813    -3811    -3807    -3808 
   -3821    -3835    -3819    -3785    -3777    -3800    -3815    -3788 
   -3757    -3788    -3831    -3823    -3844    -3882    -3847    -3813 
   -3824    -3796    -3759    -3785    -3809    -3801    -3812    -3817 
   -3784    -3771    -3797    -3821    -3843    -3840    -3801    -3804 
   -3834    -3807    -3777    -3807    -3831    -3809    -3809    -3848 
   -3848    -3819    -3811    -3802    -3802    -3825    -3848    -3836 
   -3789    -3771    -3802    -3820    -3796    -3758    -3758    -3816 
   -3852    -3820    -3773    -3771    -3798    -3813    -3846    -3861 
   -3824    -3823    -3834    -3798    -3790    -3789    -3789    -3813 
   -3777    -3751    -3824    -3848    -3796    -3784    -3800    -3819 
   -3840    -3816    -3785    -3815    -3832    -3811    -3825    -3866 
   -3859    -3816    -3785    -3767    -3769    -3794    -3808    -3823 
   -3836    -3793    -3755    -3812    -3856    -3790    -3781    -3881 
   -3889    -3836    -3829    -3777    -3740    -3812    -3859    -3838 
   -3804    -3769    -3778    -3798    -3770    -3763    -3809    -3834 
   -3843    -3869    -3871    -3827    -3792    -3808    -3821    -3816 
   -3820    -3771    -3716    -3757    -3785    -3769    -3801    -3800 
   -3746    -3773    -3856    -3885    -3850    -3815    -3815    -3820 
   -3824    -3835    -3815    -3796    -3828    -3816    -3771    -3825 
   -3859    -3798    -3807    -3859    -3836    -3790    -3771    -3777 
   -3807    -3825    -3809    -3804    -3823    -3808    -3770    -3771 
   -3816    -3843    -3797    -3744    -3757    -3808    -3866    -3859 
   -3773    -3753    -3812    -3847    -3877    -3889    -3821    -3767 
   -3786    -3815    -3829    -3809    -3771    -3790    -3819    -3809 
   -3798    -3797    -3792    -3780    -3804    -3863    -3866    -3842 
   -3839    -3792    -3775    -3829    -3805    -3746    -3759    -3788 
   -3819    -3829    -3790    -3788    -3809    -3800    -3815    -3836 
   -3793    -3748    -3786    -3855    -3855    -3807    -3790    -3824 
   -3882    -3883    -3820    -3790    -3793    -3771    -3765    -3797 
   -3807    -3781    -3801    -3861    -3858    -3821    -3811    -3811 
   -3846    -3886    -3839    -3739    -3712    -3757    -3794    -3807 
   -3782    -3754    -3807    -3871    -3834    -3808    -3847    -3821 
   -3788    -3846    -3865    -3794    -3767    -3823    -3873    -3848 
   -3794    -3758    -3746    -3754    -3754    -3769    -3838    -3875 
   -3856    -3852    -3848    -3813    -3775    -3781    -3817    -3808 
   -3789    -3820    -3821    -3790    -3811    -3819    -3777    -3775 
   -3785    -3767    -3790    -3829    -3827    -3846    -3896    -3866 
   -3767    -3755    -3820    -3827    -3802    -3815    -3809    -3785 
   -3815    -3842    -3819    -3823    -3839    -3794    -3765    -3802 
   -3828    -3817    -3812    -3789    -3751    -3766    -3794    -3798 
   -3825    -3846    -3831    -3856    -3859    -3785    -3784    -3858 
   -3867    -3809    -3757    -3773    -3823    -3823    -3816    -3808 
   -3765    -3765    -3804    -3805    -3798    -3811    -3812    -3828 
   -3846    -3827    -3836    -3851    -3781    -3748    -3829    -3879 
   -3836    -3767    -3742    -3771    -3790    -3790    -3796    -3804 
   -3832    -3873    -3859    -3781    -3762    -3838    -3856    -3794 
   -3786    -3817    -3804    -3793    -3823    -3827    -3771    -3739 
   -3812    -3863    -3793    -3751    -3819    -3878    -3875    -3869 
   -3869    -3827    -3766    -3759    -3815    -3836    -3767    -3731 
   -3770    -3784    -3801    -3852    -3863    -3823    -3782    -3802 
   -3843    -3828    -3811    -3819    -3816    -3805    -3778    -3757 
   -3782    -3808    -3784    -3771    -3808    -3816    -3781    -3784 
   -3816    -3859    -3916    -3882    -3793    -3781    -3775    -3769 
   -3834    -3844    -3780    -3778    -3793    -3770    -3801    -3835 
   -3808    -3786    -3784    -3809    -3859    -3874    -3850    -3811 
   -3802    -3827    -3812    -3789    -3815    -3798    -3734    -3775 
   -3851    -3825    -3821    -3838    -3788    -3780    -3820    -3828 
   -3847    -3854    -3808    -3782    -3785    -3770    -3767    -3788 
   -3809    -3824    -3838    -3862    -3851    -3800    -3788    -3821 
   -3829    -3800    -3792    -3815    -3793    -3762    -3802    -3838 
   -3789    -3739    -3761    -3793    -3825    -3881    -3897    -3869 
   -3802    -3748    -3793    -3815    -3774    -3804    -3811    -3750 
   -3761    -3801    -3802    -3821    -3834    -3827    -3854    -3842 
   -3777    -3798    -3848    -3820    -3788    -3778    -3819    -3888 
   -3882    -3828    -3770    -3727    -3763    -3861    -3879    -3797 
   -3754    -3793    -3840    -3859    -3831    -3789    -3770    -3793 
   -3843    -3847    -3808    -3773    -3746    -3777    -3829    -3804 
   -3759    -3812    -3877    -3834    -3816    -3839    -3769    -3732 
   -3784    -3788    -3789    -3828    -3832    -3834    -3848    -3831 
   -3823    -3825    -3784    -3771    -3817    -3827    -3807    -3816 
   -3832    -3843    -3839    -3834    -3848    -3836    -3777    -3727 
   -3709    -3736    -3796    -3840    -3843    -3829    -3851    -3840 
   -3748    -3731    -3815    -3840    -3843    -3874    -3824    -3759 
   -3812    -3854    -3832    -3834    -3789    -3731    -3784    -3839 
   -3824    -3797    -3774    -3812    -3877    -3827    -3728    -3732 
   -3792    -3794    -3763    -3782    -3862    -3898    -3834    -3784 
   -3819    -3867    -3843    -3761    -3766    -3855    -3852    -3800 
   -3789    -3766    -3758    -3801    -3825    -3844    -3890    -3863 
   -3800    -3811    -3800    -3748    -3762    -3802    -3812    -3794 
   -3800    -3848    -3840    -3780    -3785    -3862    -3939    -3928 
   -3828    -3748    -3707    -3686    -3680    -3651    -3685    -3775 
   -3789    -3786    -3842    -3859    -3861    -3902    -3881    -3815 
   -3812    -3834    -3843    -3831    -3755    -3747    -3881    -3967 
   -3959    -3939    -3847    -3719    -3697    -3777    -3859    -3886 
   -3840    -3719    -3657    -3811    -4004    -3982    -3780    -3582 
   -3524    -3586    -3727    -3925    -4036    -4016    -4039    -4085 
   -3998    -3782    -3520    -3400    -3543    -3763    -3890    -3928 
   -3870    -3775    -3766    -3859    -3955    -3928    -3775    -3666 
   -3705    -3820    -3881    -3836    -3800    -3836    -3812    -3707 
   -3682    -3723    -3758    -3852    -3917    -3838    -3798    -3865 
   -3873    -3797    -3747    -3813    -3898    -3889    -3912    -3970 
   -3902    -3781    -3690    -3642    -3734    -3873    -3839    -3734 
   -3746    -3802    -3805    -3774    -3732    -3716    -3765    -3832 
   -3854    -3859    -3873    -3881    -3890    -3835    -3701    -3670 
   -3786    -3854    -3780    -3707    -3790    -3958    -4021    -3943 
   -3827    -3782    -3792    -3754    -3704    -3716    -3732    -3736 
   -3773    -3797    -3824    -3888    -3923    -3912    -3875    -3792 
   -3755    -3827    -3846    -3804    -3821    -3797    -3773    -3863 
   -3851    -3738    -3758    -3823    -3789    -3709    -3680    -3735 
   -3843    -3925    -3913    -3828    -3767    -3777    -3817    -3809 
   -3798    -3889    -3971    -3886    -3694    -3600    -3701    -3820 
   -3778    -3742    -3848    -3931    -3890    -3885    -3958    -3956 
   -3838    -3719    -3686    -3715    -3757    -3808    -3804    -3716 
   -3682    -3793    -3948    -4018    -3996    -3878    -3689    -3628 
   -3713    -3720    -3697    -3792    -3885    -3915    -3916    -3836 
   -3759    -3796    -3858    -3874    -3852    -3834    -3859    -3840 
   -3786    -3829    -3852    -3721    -3659    -3778    -3871    -3863 
   -3798    -3713    -3762    -3898    -3858    -3719    -3742    -3866 
   -3894    -3807    -3715    -3670    -3701    -3824    -3867    -3836 
   -3973    -4105    -3989    -3766    -3582    -3558    -3732    -3900 
   -3931    -3854    -3813    -3898    -3875    -3712    -3612    -3554 
   -3591    -3786    -3933    -3979    -3991    -3916    -3852    -3870 
   -3812    -3699    -3670    -3712    -3774    -3770    -3717    -3789 
   -3919    -3956    -3964    -3871    -3651    -3603    -3711    -3709 
   -3778    -3989    -4032    -3925    -3855    -3839    -3877    -3865 
   -3789    -3753    -3676    -3631    -3751    -3859    -3850    -3812 
   -3816    -3873    -3886    -3831    -3801    -3798    -3759    -3731 
   -3784    -3829    -3781    -3740    -3790    -3819    -3796    -3808 
   -3813    -3835    -3923    -3892    -3777    -3798    -3809    -3744 
   -3798    -3873    -3820    -3762    -3771    -3798    -3828    -3832 
   -3774    -3754    -3840    -3916    -3923    -3894    -3852    -3808 
   -3680    -3574    -3704    -3898    -3931    -3866    -3848    -3906 
   -3896    -3812    -3821    -3811    -3670    -3657    -3794    -3794 
   -3715    -3781    -3912    -3952    -3867    -3747    -3713    -3747 
   -3800    -3835    -3774    -3676    -3726    -3909    -3964    -3855 
   -3858    -3928    -3805    -3651    -3663    -3751    -3825    -3874 
   -3879    -3821    -3778    -3821    -3815    -3788    -3873    -3885 
   -3805    -3844    -3888    -3842    -3829    -3843    -3825    -3819 
   -3825    -3754    -3662    -3709    -3828    -3850    -3774    -3719 
   -3727    -3748    -3828    -3931    -3890    -3790    -3761    -3765 
   -3832    -3900    -3840    -3747    -3709    -3703    -3769    -3906 
   -3958    -3848    -3788    -3859    -3862    -3781    -3750    -3769 
   -3812    -3796    -3690    -3728    -3881    -3832    -3701    -3781 
   -3925    -3928    -3863    -3820    -3848    -3950    -3946    -3769 
   -3692    -3792    -3811    -3759    -3811    -3821    -3705    -3654 
   -3684    -3759    -3896    -3946    -3904    -3910    -3861    -3724 
   -3708    -3809    -3885    -3863    -3726    -3682    -3817    -3879 
   -3809    -3751    -3755    -3798    -3801    -3763    -3765    -3840 
   -3905    -3834    -3754    -3789    -3797    -3807    -3906    -3933 
   -3863    -3834    -3816    -3753    -3719    -3809    -3962    -3971 
   -3851    -3784    -3709    -3636    -3707    -3757    -3788    -3954 
   -3963    -3797    -3852    -3946    -3780    -3686    -3821    -3819 
   -3659    -3647    -3790    -3904    -3904    -3811    -3700    -3709 
   -3842    -3840    -3716    -3755    -3882    -3929    -3935    -3863 
   -3759    -3786    -3858    -3785    -3685    -3759    -3877    -3827 
   -3700    -3723    -3881    -3900    -3778    -3820    -3896    -3775 
   -3753    -3920    -3944    -3843    -3796    -3788    -3838    -3881 
   -3832    -3774    -3716    -3686    -3746    -3808    -3805    -3819 
   -3892    -3917    -3848    -3808    -3829    -3851    -3838    -3742 
   -3672    -3746    -3867    -3871    -3747    -3705    -3796    -3813 
   -3800    -3808    -3747    -3774    -3869    -3797    -3708    -3773 
   -3843    -3829    -3777    -3728    -3805    -3985    -4005    -3852 
   -3769    -3800    -3863    -3908    -3858    -3744    -3684    -3703 
   -3727    -3724    -3781    -3904    -3947    -3888    -3842    -3846 
   -3851    -3838    -3786    -3740    -3786    -3763    -3623    -3662 
   -3855    -3942    -3927    -3851    -3796    -3842    -3839    -3763 
   -3757    -3775    -3757    -3759    -3788    -3800    -3782    -3802 
   -3892    -3924    -3889    -3848    -3740    -3703    -3834    -3886 
   -3861    -3897    -3850    -3711    -3643    -3715    -3892    -3973 
   -3861    -3762    -3785    -3834    -3858    -3812    -3734    -3775 
   -3850    -3793    -3746    -3808    -3881    -3897    -3827    -3750 
   -3746    -3746    -3742    -3796    -3890    -3919    -3812    -3766 
   -3869    -3844    -3694    -3697    -3807    -3824    -3761    -3750 
   -3836    -3879    -3856    -3859    -3840    -3840    -3913    -3897 
   -3788    -3724    -3682    -3711    -3840    -3898    -3861    -3819 
   -3763    -3739    -3801    -3844    -3835    -3835    -3823    -3839 
   -3873    -3793    -3711    -3767    -3816    -3767    -3751    -3808 
