Origin Time       2025/03/30 21:30:00
Lat.              38.535
Long.             142.295
Depth. (km)       44
Mag.              4.3
Station Code      MYGH08
Station Lat.      38.1133
Station Long.     140.8441
Station Height(m) -90
Record Time       2025/03/30 21:31:32
Sampling Freq(Hz) 100Hz
Duration Time(s)  120
Dir.              1
Scale Factor      3923(gal)/8224838
Max. Acc. (gal)   0.338
Last Correction   2025/03/30 21:31:33
Memo.             
[...]
  -15049   -14941   -14967   -15076   -15078   -14960   -14909   -15002 
  -15118   -15125   -15021   -14937   -14976   -15095   -15117   -14991 
  -14963   -15149   -15238   -15051   -14906   -15040   -15182   -15093 
  -14928   -14912   -15012   -15055   -15003   -14949   -14945   -14980 
  -15020   -15029   -15016   -15039   -15099   -15072   -14959   -14925 
  -15007   -15101   -15115   -15059   -14991   -14953   -14995   -15109 
  -15128   -15006   -14945   -15043   -15129   -15083   -15005   -14975 
  -14944   -14922   -15003   -15125   -15102   -14966   -14948   -15041 
  -15056   -14982   -14925   -14947   -15053   -15121   -15063   -14985 
  -14994   -15074   -15128   -15088   -15043   -15067   -15103   -15080 
  -15005   -14956   -15007   -15078   -15037   -14895   -14816   -14931 
  -15095   -15078   -14962   -14983   -15110   -15153   -15070   -14997 
  -15036   -15074   -14985   -14862   -14882   -15049   -15145   -15043 
  -14935   -15001   -15130   -15130   -15003   -14931   -14997   -15086 
  -15064   -14958   -14921   -15014   -15075   -14991   -14912   -14967 
  -15037   -14995   -14951   -15048   -15198   -15196   -15033   -14945 
  -15055   -15169   -15106   -14966   -14958   -15086   -15156   -15082 
  -14967   -14917   -14960   -15030   -15018   -14916   -14874   -15012 
  -15165   -15084   -14890   -14932   -15176   -15222   -15010   -14902 
  -15028   -15149   -15111   -15005   -14983   -15039   -15033   -14976 
  -14971   -15037   -15097   -15037   -14916   -14940   -15109   -15178 
  -15066   -14945   -14935   -14993   -15047   -15047   -14994   -14975 
  -15032   -15095   -15097   -15044   -15017   -15049   -15029   -14960 
  -14964   -14998   -14982   -14978   -15029   -15049   -14989   -14967 
  -15009   -14993   -14944   -15001   -15102   -15079   -14994   -15025 
  -15071   -14989   -14925   -14998   -15072   -15047   -15014   -15074 
  -15149   -15140   -15102   -15071   -15013   -14985   -15029   -15040 
  -14967   -14928   -14986   -15039   -14979   -14883   -14931   -15102 
  -15132   -14960   -14909   -15118   -15263   -15113   -14910   -14949 
  -15090   -15072   -14985   -14989   -15007   -14958   -14945   -15048 
  -15141   -15097   -14991   -14991   -15070   -15055   -14953   -14901 
  -14937   -15022   -15105   -15118   -15061   -15025   -15037   -15040 
  -15052   -15105   -15113   -15017   -14912   -14928   -15032   -15051 
  -14968   -14926   -14964   -15001   -15001   -15034   -15106   -15098 
  -15018   -15036   -15101   -15024   -14879   -14886   -15028   -15094 
  -15041   -15039   -15099   -15082   -15020   -15059   -15155   -15149 
  -15044   -14989   -15001   -14991   -14980   -14994   -14979   -14916 
  -14886   -14959   -15051   -15059   -15044   -15057   -15040   -15006 
  -15026   -15060   -15059   -15061   -15043   -14947   -14891   -14982 
  -15091   -15072   -14993   -14982   -15059   -15161   -15155   -15003 
  -14887   -14948   -15048   -15012   -14928   -14970   -15070   -15061 
  -15009   -15074   -15182   -15136   -14976   -14939   -15049   -15113 
  -15051   -14949   -14910   -14989   -15084   -15056   -14959   -14964 
  -15091   -15137   -15039   -14986   -15041   -15064   -15007   -14962 
  -14980   -15001   -14978   -14966   -14983   -15022   -15101   -15129 
  -15039   -14968   -15059   -15201   -15153   -14935   -14871   -15049 
  -15121   -14945   -14844   -14985   -15101   -15037   -14995   -15072 
  -15102   -15030   -14959   -14943   -14995   -15082   -15095   -14991 
  -14882   -14945   -15138   -15191   -15070   -14966   -14953   -15024 
  -15111   -15109   -15025   -14956   -14949   -14976   -14998   -15012 
  -15016   -15018   -15007   -14960   -14935   -14991   -15071   -15091 
  -15074   -15084   -15125   -15134   -15060   -14983   -14990   -15022 
  -15002   -14959   -14947   -14985   -15003   -14974   -14997   -15091 
  -15128   -15048   -14976   -15076   -15240   -15182   -14952   -14872 
  -14989   -15059   -14986   -14920   -14972   -15059   -15061   -15002 
  -14979   -15044   -15163   -15190   -15056   -14956   -15020   -15066 
  -14962   -14850   -14909   -15079   -15145   -15057   -14962   -14947 
  -14999   -15071   -15067   -14971   -14928   -15001   -15068   -15052 
  -14998   -14966   -14966   -14976   -14968   -14967   -15032   -15129 
  -15141   -15063   -15036   -15117   -15134   -14991   -14908   -15016 
  -15066   -14940   -14871   -14968   -15074   -15072   -15017   -14987 
  -14993   -15036   -15132   -15179   -15111   -15061   -15074   -15032 
  -14964   -14993   -15034   -14914   -14755   -14859   -15109   -15124 
  -14983   -15020   -15157   -15164   -15082   -15010   -14949   -14989 
  -15148   -15148   -14879   -14732   -14935   -15120   -15018   -14926 
  -15079   -15240   -15202   -15099   -15021   -14914   -14912   -15095 
  -15174   -15001   -14879   -14968   -15033   -14932   -14868   -15007 
  -15174   -15149   -15018   -14974   -15064   -15184   -15175   -15010 
  -14871   -14921   -15070   -15093   -14986   -14959   -15037   -15053 
  -15016   -15044   -15051   -14937   -14897   -15051   -15122   -14951 
  -14831   -14970   -15147   -15155   -15079   -15048   -15052   -15051 
  -15017   -14972   -14987   -15067   -15114   -15061   -14947   -14886 
  -14955   -15043   -15056   -15051   -15079   -15105   -15044   -14910 
  -14898   -15067   -15186   -15101   -14945   -14913   -15003   -15067 
  -15052   -15036   -15060   -15072   -14987   -14863   -14862   -15010 
  -15161   -15111   -14885   -14802   -15006   -15209   -15167   -15033 
  -15007   -15017   -14983   -15018   -15102   -15082   -14995   -14985 
  -15001   -14966   -14956   -15007   -15037   -15026   -15030   -15057 
  -15074   -15097   -15122   -15061   -14956   -14982   -15098   -15097 
  -14991   -14960   -15029   -15056   -14990   -14947   -14975   -15034 
  -15099   -15110   -15010   -14925   -15003   -15086   -15003   -14947 
  -15044   -15106   -15012   -14909   -14975   -15121   -15105   -14936 
  -14874   -15028   -15203   -15198   -15053   -14947   -14971   -15020 
  -14964   -14894   -14937   -15055   -15124   -15083   -14994   -14962 
  -15016   -15103   -15117   -15055   -15053   -15107   -15068   -14959 
  -14983   -15106   -15071   -14921   -14904   -14986   -15030   -15079 
  -15122   -15084   -15026   -15001   -14964   -14933   -14995   -15106 
  -15084   -14939   -14894   -15041   -15188   -15111   -14952   -14960 
  -15037   -15026   -14989   -14976   -15006   -15071   -15067   -14974 
  -14935   -15005   -15033   -14949   -14931   -15087   -15209   -15101 
  -14926   -14964   -15125   -15113   -14948   -14889   -14999   -15141 
  -15169   -15045   -14895   -14937   -15120   -15120   -14925   -14889 
  -15094   -15219   -15066   -14883   -14943   -15086   -15068   -14975 
  -14972   -15018   -15005   -14966   -14975   -15010   -15060   -15114 
  -15101   -15037   -15056   -15147   -15125   -14972   -14925   -15018 
  -15051   -14999   -14974   -14959   -14918   -14948   -15082   -15141 
  -15060   -15034   -15117   -15129   -15041   -14995   -15029   -15080 
  -15074   -14987   -14920   -14993   -15161   -15211   -15016   -14816 
  -14899   -15102   -15094   -14943   -14899   -14980   -15080   -15132 
  -15026   -14833   -14874   -15171   -15248   -14940   -14775   -15032 
  -15217   -15020   -14837   -14976   -15171   -15141   -15005   -14956 
  -14979   -15036   -15102   -15040   -14894   -14944   -15130   -15128 
  -14953   -14945   -15144   -15186   -14997   -14913   -15013   -15084 
  -15087   -15070   -15003   -14951   -15013   -15071   -14953   -14847 
  -15007   -15171   -15024   -14855   -14998   -15201   -15122   -14926 
  -14912   -15017   -15051   -15002   -14970   -14983   -15016   -15034 
  -15022   -15030   -15093   -15113   -15022   -14947   -15006   -15095 
  -15097   -15088   -15074   -14955   -14850   -14898   -15012   -15039 
  -14991   -15016   -15137   -15209   -15163   -15049   -14951   -14916 
  -14959   -15048   -15063   -14968   -14922   -15003   -15067   -15032 
  -15021   -15070   -15083   -15087   -15125   -15118   -15045   -14980 
  -14970   -14991   -14997   -15007   -15056   -15056   -14990   -14979 
  -15041   -15048   -15007   -15018   -15016   -14937   -14955   -15102 
  -15110   -14968   -14967   -15078   -15072   -15033   -15098   -15126 
  -14990   -14906   -15061   -15149   -14972   -14882   -15024   -15117 
  -15078   -15047   -15080   -15121   -15129   -15113   -15018   -14856 
  -14802   -14875   -14893   -14864   -14928   -15014   -15028   -15030 
  -15091   -15183   -15226   -15160   -15055   -15016   -15034   -15041 
  -15014   -14979   -14936   -14851   -14813   -14943   -15114   -15159 
  -15110   -15076   -15086   -15087   -15079   -15066   -15002   -14949 
  -14966   -14980   -14980   -14993   -14998   -14995   -14956   -14894 
  -14920   -15040   -15113   -15067   -14985   -15002   -15144   -15241 
  -15126   -14929   -14920   -15074   -15095   -14929   -14889   -15099 
  -15222   -15044   -14890   -15033   -15199   -15099   -14925   -14951 
  -15079   -15109   -15049   -15001   -14995   -14999   -14941   -14845 
  -14866   -15072   -15245   -15132   -14937   -15017   -15213   -15187 
  -15025   -14937   -14964   -15056   -15076   -14936   -14823   -14916 
  -15067   -15091   -15028   -14982   -14958   -14943   -15009   -15148 
  -15172   -15040   -14931   -14931   -14986   -15041   -15049   -14975 
  -14875   -14914   -15136   -15291   -15203   -15066   -15057   -15093 
  -15078   -15048   -15025   -14967   -14906   -14936   -15003   -14939 
  -14802   -14823   -15007   -15172   -15213   -15180   -15160   -15103 
  -14982   -14966   -15083   -15091   -14909   -14752   -14791   -14970 
  -15076   -15043   -15060   -15215   -15317   -15249   -15113   -15030 
  -15013   -15012   -15001   -14978   -14940   -14912   -14886   -14845 
  -14837   -14901   -15022   -15153   -15199   -15122   -15037   -15067 
  -15161   -15176   -15032   -14847   -14856   -15021   -14998   -14774 
  -14786   -15129   -15361   -15209   -14909   -14847   -15095   -15307 
  -15121   -14729   -14693   -15048   -15241   -15052   -14894   -15047 
  -15205   -15107   -14964   -14978   -15079   -15159   -15129   -15007 
  -14978   -15136   -15248   -15066   -14796   -14817   -15029   -15045 
  -14859   -14820   -15001   -15126   -15101   -15060   -15053   -15070 
  -15095   -15091   -15029   -14939   -14918   -14987   -15024   -14983 
  -14975   -15075   -15153   -15061   -14949   -15060   -15253   -15201 
  -14993   -14976   -15098   -15052   -14893   -14862   -14925   -14917 
  -14862   -14904   -15012   -15052   -15047   -15082   -15152   -15213 
  -15232   -15160   -14971   -14825   -14897   -15014   -14947   -14841 
  -14908   -15030   -15033   -14976   -14982   -15020   -15014   -15007 
  -15032   -15032   -15005   -15030   -15078   -15041   -14991   -15055 
  -15165   -15164   -15013   -14893   -14997   -15184   -15129   -14872 
  -14808   -15005   -15102   -14986   -14978   -15164   -15194   -15010 
  -14998   -15164   -15125   -14874   -14774   -14885   -14949   -14937 
  -14985   -15033   -15049   -15176   -15321   -15201   -14971   -14997 
  -15098   -14925   -14696   -14760   -14960   -15014   -14960   -14932 
  -15002   -15117   -15115   -15007   -14983   -15101   -15192   -15124 
  -15033   -15079   -15091   -14948   -14860   -14925   -15002   -15047 
  -15094   -15126   -15134   -15196   -15345   -15434   -15384   -15346 
  -15388   -15352   -15201   -15126   -15164   -15051   -14728   -14543 
  -14611   -14624   -14519   -14548   -14735   -14875   -14968   -15121 
  -15230   -15176   -15133   -15260   -15367   -15226   -14940   -14782 
  -14789   -14729   -14573   -14532   -14719   -15013   -15161   -15102 
  -15132   -15441   -15714   -15623   -15327   -15125   -15113   -15160 
  -15030   -14789   -14783   -14999   -15048   -14845   -14785   -15153 
  -15608   -15647   -15358   -15088   -14889   -14715   -14597   -14503 
  -14435   -14507   -14708   -14751   -14520   -14413   -14766   -15257 
  -15433   -15327   -15241   -15341   -15514   -15448   -15178   -15171 
  -15465   -15557   -15244   -14844   -14736   -14971   -15248   -15265 
  -15056   -14920   -14986   -15044   -14929   -14750   -14661   -14652 
  -14650   -14702   -14878   -15068   -15152   -15180   -15242   -15273 
  -15182   -14980   -14732   -14540   -14582   -14818   -14913   -14778 
  -14715   -14879   -15080   -15130   -15114   -15175   -15287   -15346 
  -15299   -15161   -15005   -14932   -14948   -14953   -14952   -15006 
  -15006   -14886   -14855   -15056   -15223   -15082   -14970   -15245 
  -15492   -15310   -15049   -15017   -14953   -14694   -14575   -14789 
  -15028   -15083   -15074   -15053   -15074   -15336   -15703   -15693 
  -15304   -15022   -14976   -14917   -14817   -14781   -14735   -14685 
  -14793   -14972   -14980   -14906   -15022   -15255   -15400   -15522 
  -15607   -15415   -15018   -14809   -14893   -15001   -14962   -14835 
  -14717   -14727   -14926   -15137   -15106   -14913   -14908   -15168 
  -15318   -15153   -14971   -15013   -15152   -15161   -14926   -14616 
  -14597   -14917   -15153   -15072   -14968   -15032   -15117   -15147 
  -15105   -15041   -15094   -15172   -15117   -15051   -15093   -15122 
  -14979   -14682   -14467   -14521   -14681   -14747   -14824   -15045 
  -15360   -15595   -15538   -15236   -15064   -15269   -15574   -15493 
  -15003   -14571   -14553   -14858   -15107   -15028   -14794   -14848 
  -15263   -15538   -15333   -15072   -15205   -15368   -15041   -14466 
  -14316   -14748   -15176   -15078   -14677   -14501   -14656   -14851 
  -14852   -14833   -15121   -15488   -15461   -15253   -15338   -15542 
  -15417   -14986   -14629   -14585   -14721   -14787   -14740   -14724 
  -14805   -14920   -15013   -15099   -15198   -15223   -15076   -14847 
  -14736   -14763   -14844   -14920   -14910   -14875   -14955   -15057 
  -15074   -15075   -15090   -15110   -15201   -15371   -15514   -15530 
  -15377   -15179   -15202   -15402   -15391   -15086   -14802   -14763 
  -14875   -14898   -14747   -14611   -14748   -15097   -15315   -15291 
  -15160   -15045   -15033   -15129   -15238   -15244   -15121   -15009 
  -15005   -15094   -15226   -15196   -14879   -14605   -14698   -15002 
  -15232   -15267   -15059   -14732   -14593   -14752   -14912   -14843 
  -14774   -14858   -14882   -14856   -15070   -15414   -15422   -15118 
  -15018   -15209   -15303   -15203   -15147   -15160   -15021   -14769 
  -14686   -14747   -14713   -14620   -14594   -14724   -15090   -15400 
  -15276   -14980   -15007   -15280   -15394   -15233   -14971   -14848 
  -15020   -15330   -15376   -15087   -14886   -14955   -15013   -14922 
  -14820   -14810   -14905   -15057   -15190   -15228   -15157   -15079 
  -15060   -15048   -15029   -15066   -15103   -14998   -14851   -15012 
  -15442   -15539   -15025   -14462   -14430   -14794   -15066   -15063 
  -14979   -15052   -15319   -15508   -15331   -15028   -15030   -15180 
  -15047   -14796   -14867   -15049   -14825   -14419   -14543   -15199 
  -15597   -15323   -14796   -14592   -14878   -15326   -15415   -15034 
  -14689   -14790   -14959   -14692   -14351   -14551   -15059   -15226 
  -15091   -15226   -15643   -15727   -15353   -14972   -14777   -14751 
  -14963   -15156   -14976   -14658   -14740   -15217   -15570   -15504 
  -15159   -14814   -14747   -14998   -15261   -15302   -15195   -15068 
  -15028   -15144   -15182   -14894   -14563   -14662   -15137   -15368 
  -14945   -14351   -14351   -14893   -15238   -14980   -14554   -14635 
  -15113   -15291   -15088   -15107   -15457   -15645   -15523   -15345 
  -15194   -14997   -14805   -14763   -14877   -14968   -14983   -15048 
  -15129   -15059   -14855   -14685   -14702   -14998   -15410   -15526 
  -15238   -15074   -15400   -15589   -15012   -14341   -14473   -15026 
  -15076   -14632   -14462   -14827   -15225   -15240   -14953   -14767 
  -14991   -15372   -15367   -15066   -15048   -15229   -15059   -14693 
  -14732   -15105   -15240   -15074   -15021   -15179   -15253   -15088 
  -14851   -14770   -14931   -15178   -15169   -14885   -14746   -14922 
  -15079   -14945   -14804   -15033   -15380   -15319   -14932   -14754 
  -15020   -15392   -15333   -14798   -14540   -15080   -15709   -15503 
  -14754   -14484   -14945   -15345   -15102   -14629   -14598   -14983 
  -15126   -14762   -14511   -14908   -15448   -15361   -14939   -14989 
  -15422   -15538   -15171   -14742   -14639   -14864   -15075   -14926 
  -14580   -14651   -15198   -15475   -15194   -14958   -15142   -15373 
  -15248   -14940   -14813   -14926   -15140   -15215   -14963   -14638 
  -14727   -15164   -15392   -15210   -14966   -14945   -15051   -15113 
  -15110   -15041   -14891   -14785   -14850   -15022   -15190   -15284 
  -15203   -14997   -14960   -15159   -15263   -15105   -14940   -14979 
  -15095   -15114   -15033   -14955   -14982   -15128   -15268   -15186 
  -14809   -14453   -14519   -14940   -15237   -15141   -14949   -14909 
  -14854   -14808   -14975   -15180   -15078   -14748   -14623   -14809 
  -15006   -15091   -15082   -14897   -14779   -15107   -15599   -15626 
  -15238   -14991   -15040   -15141   -15164   -15115   -15032   -15001 
  -15067   -15080   -14904   -14778   -14966   -15148   -15016   -14885 
  -15043   -15275   -15280   -15048   -14808   -14737   -14818   -14901 
  -14895   -14960   -15218   -15344   -15083   -14818   -14941   -15167 
  -15102   -14975   -15060   -15115   -15017   -15003   -15078   -15014 
  -14879   -14902   -15012   -15017   -14998   -15020   -14881   -14683 
  -14841   -15217   -15250   -15028   -15136   -15498   -15464   -15006 
  -14697   -14693   -14756   -14928   -15233   -15268   -14905   -14717 
  -14975   -15115   -14904   -14895   -15255   -15414   -15142   -14821 
  -14723   -14800   -14932   -15003   -14966   -14963   -15164   -15356 
  -15210   -14987   -15090   -15249   -15140   -15018   -15105   -15172 
  -15090   -15078   -15128   -14960   -14715   -14800   -15094   -15144 
  -15021   -15088   -15234   -15226   -15156   -15001   -14705   -14627 
  -14985   -15337   -15277   -15055   -15017   -15080   -15055   -14967 
  -14899   -14867   -14912   -15048   -15126   -15064   -15032   -15088 
  -15113   -15091   -15014   -14871   -14818   -14976   -15199   -15168 
  -14835   -14636   -14847   -15152   -15194   -15025   -14899   -14951 
  -15103   -15178   -15061   -14835   -14748   -14926   -15163   -15250 
  -15295   -15400   -15388   -15152   -14941   -14949   -14986   -14874 
  -14767   -14777   -14796   -14845   -15002   -15118   -15051   -14932 
  -14991   -15155   -15137   -14993   -15006   -15115   -15063   -14844 
  -14659   -14689   -14913   -15022   -14839   -14742   -15071   -15427 
  -15307   -14937   -14883   -15174   -15295   -15028   -14770   -14906 
  -15269   -15356   -15048   -14808   -14993   -15291   -15206   -14837 
  -14746   -15107   -15469   -15408   -15057   -14852   -14970   -15129 
  -14987   -14677   -14592   -14752   -14864   -14890   -15052   -15342 
  -15473   -15340   -15207   -15207   -15165   -15048   -14976   -14913 
  -14893   -15030   -15149   -15026   -14821   -14840   -15064   -15168 
  -15048   -14951   -14997   -15055   -15067   -15070   -15028   -14904 
  -14818   -14891   -15055   -15147   -15117   -15053   -15018   -14964 
  -14928   -14975   -15043   -15093   -15142   -15140   -15045   -14902 
