Origin Time       2025/03/30 21:30:00
Lat.              38.535
Long.             142.295
Depth. (km)       44
Mag.              4.3
Station Code      MYGH10
Station Lat.      37.9411
Station Long.     140.8924
Station Height(m) 18
Record Time       2025/03/30 21:31:33
Sampling Freq(Hz) 100Hz
Duration Time(s)  120
Dir.              5
Scale Factor      7845(gal)/8223790
Max. Acc. (gal)   2.250
Last Correction   2025/03/30 21:31:33
Memo.             
[...]
   -4530    -4479    -4429    -4531    -4843    -4861    -4666    -4793 
   -4962    -4889    -4795    -4719    -4750    -4826    -4615    -4456 
   -4676    -4799    -4749    -4897    -4997    -4849    -4780    -4801 
   -4722    -4653    -4692    -4726    -4676    -4720    -4934    -5004 
   -4896    -4818    -4692    -4552    -4606    -4828    -4943    -4785 
   -4590    -4581    -4685    -4820    -4866    -4752    -4787    -5042 
   -5038    -4796    -4822    -4909    -4592    -4270    -4419    -4704 
   -4919    -5173    -5044    -4545    -4506    -4839    -4901    -4943 
   -5136    -4999    -4552    -4303    -4398    -4641    -4835    -4861 
   -4734    -4689    -4887    -5080    -5057    -4926    -4739    -4536 
   -4496    -4671    -4730    -4588    -4722    -5049    -5046    -4955 
   -4918    -4658    -4530    -4710    -4668    -4492    -4621    -4764 
   -4737    -4878    -5119    -5178    -5096    -4878    -4527    -4274 
   -4284    -4490    -4729    -4888    -4949    -4951    -4950    -5001 
   -5001    -4803    -4599    -4575    -4591    -4621    -4761    -4980 
   -5138    -5005    -4604    -4375    -4531    -4762    -4792    -4750 
   -4842    -4955    -5008    -5094    -5011    -4730    -4649    -4662 
   -4544    -4491    -4536    -4630    -4800    -4857    -4785    -4827 
   -4920    -4897    -4943    -5125    -5061    -4689    -4484    -4457 
   -4291    -4305    -4668    -4816    -4761    -5032    -5283    -5124 
   -4986    -4872    -4491    -4315    -4650    -4934    -4880    -4834 
   -4887    -4846    -4761    -4699    -4519    -4395    -4692    -5036 
   -4919    -4776    -4912    -4927    -4866    -4914    -4734    -4452 
   -4515    -4689    -4629    -4557    -4718    -4922    -5005    -5063 
   -5036    -4915    -4953    -4959    -4602    -4260    -4368    -4652 
   -4754    -4749    -4769    -4806    -4873    -4932    -4884    -4799 
   -4762    -4774    -4846    -4861    -4795    -4839    -4864    -4669 
   -4536    -4575    -4688    -4904    -4962    -4776    -4733    -4822 
   -4779    -4716    -4700    -4645    -4666    -4722    -4700    -4795 
   -4978    -4982    -4837    -4761    -4834    -4869    -4777    -4731 
   -4742    -4779    -4845    -4685    -4386    -4471    -4808    -4851 
   -4707    -4719    -4753    -4649    -4650    -4826    -4976    -5092 
   -5088    -4862    -4720    -4780    -4753    -4644    -4612    -4560 
   -4484    -4575    -4841    -5138    -5314    -5255    -5012    -4731 
   -4542    -4550    -4604    -4549    -4537    -4645    -4850    -5119 
   -5127    -4781    -4511    -4471    -4527    -4726    -4947    -4903 
   -4718    -4754    -4974    -5046    -4897    -4644    -4415    -4430 
   -4714    -5003    -5070    -4974    -4874    -4735    -4542    -4479 
   -4629    -4781    -4726    -4700    -4869    -4868    -4693    -4737 
   -4915    -4966    -4846    -4594    -4418    -4509    -4685    -4781 
   -4953    -5140    -5111    -5028    -5011    -4870    -4621    -4338 
   -4086    -4245    -4827    -5150    -5004    -4842    -4881    -5031 
   -5032    -4761    -4550    -4581    -4631    -4656    -4768    -4881 
   -4849    -4742    -4760    -4958    -5179    -5117    -4665    -4195 
   -4144    -4410    -4657    -4866    -5022    -4999    -5001    -5105 
   -4958    -4584    -4418    -4500    -4626    -4815    -4945    -4946 
   -5082    -5244    -5098    -4727    -4372    -4297    -4583    -4743 
   -4556    -4486    -4627    -4708    -4873    -5123    -5130    -4939 
   -4799    -4770    -4877    -4978    -4801    -4455    -4225    -4178 
   -4453    -5001    -5337    -5260    -4961    -4723    -4799    -4972 
   -4936    -4820    -4666    -4450    -4438    -4606    -4658    -4730 
   -4893    -4788    -4556    -4707    -5019    -5038    -4930    -4884 
   -4762    -4671    -4733    -4726    -4662    -4784    -4907    -4769 
   -4648    -4774    -4865    -4725    -4522    -4491    -4714    -4965 
   -5027    -4942    -4730    -4527    -4611    -4804    -4795    -4703 
   -4683    -4811    -5105    -5192    -4911    -4696    -4648    -4517 
   -4488    -4652    -4629    -4511    -4754    -5077    -5049    -4992 
   -5089    -4927    -4536    -4387    -4510    -4700    -4837    -4854 
   -4895    -4882    -4723    -4818    -5078    -4965    -4702    -4602 
   -4436    -4299    -4533    -4901    -5009    -5049    -5049    -4603 
   -4210    -4553    -4891    -4691    -4695    -5013    -5044    -4950 
   -5097    -5169    -4904    -4573    -4444    -4453    -4428    -4423 
   -4598    -4860    -5063    -5159    -5144    -5086    -4938    -4737 
   -4641    -4583    -4492    -4457    -4587    -4818    -4976    -5069 
   -5012    -4689    -4515    -4770    -4949    -4712    -4506    -4693 
   -4945    -4885    -4735    -4760    -4749    -4561    -4514    -4792 
   -5005    -4870    -4633    -4587    -4796    -5100    -5232    -5034 
   -4657    -4537    -4658    -4573    -4445    -4660    -4862    -4743 
   -4739    -4946    -4878    -4733    -4954    -5171    -5088    -4957 
   -4808    -4537    -4355    -4463    -4653    -4629    -4580    -4850 
   -5313    -5462    -5028    -4511    -4375    -4245    -4014    -4144 
   -4502    -4854    -5421    -5845    -5644    -5271    -5012    -4619 
   -4324    -4283    -4190    -4122    -4259    -4483    -4820    -5179 
   -5260    -5161    -5170    -5115    -4711    -4378    -4487    -4519 
   -4396    -4654    -4973    -5000    -5035    -5032    -4969    -4992 
   -4818    -4517    -4552    -4745    -4796    -4816    -4777    -4600 
   -4488    -4545    -4654    -4865    -5182    -5196    -4837    -4687 
   -4870    -4834    -4492    -4332    -4496    -4746    -4887    -4931 
   -4997    -4939    -4699    -4610    -4683    -4776    -4900    -4779 
   -4519    -4592    -4707    -4649    -4834    -5034    -4887    -4796 
   -4873    -4888    -4901    -4864    -4762    -4737    -4654    -4560 
   -4617    -4672    -4734    -4799    -4725    -4708    -4785    -4757 
   -4685    -4646    -4718    -4974    -5144    -5040    -4920    -4896 
   -4816    -4699    -4598    -4553    -4698    -4912    -4878    -4650 
   -4511    -4577    -4819    -4977    -4827    -4634    -4662    -4815 
   -4924    -4928    -4872    -4787    -4707    -4681    -4698    -4801 
   -4918    -4811    -4536    -4442    -4656    -4900    -4959    -4953 
   -4959    -4857    -4598    -4324    -4287    -4583    -4866    -4907 
   -4924    -4968    -4963    -5054    -5206    -5169    -4891    -4518 
   -4232    -4148    -4268    -4627    -4997    -5031    -4984    -5074 
   -5078    -4957    -4692    -4338    -4212    -4280    -4490    -4980 
   -5346    -5243    -5009    -4909    -4916    -4873    -4700    -4602 
   -4623    -4592    -4622    -4806    -4860    -4737    -4685    -4704 
   -4815    -5047    -5024    -4664    -4509    -4642    -4546    -4313 
   -4550    -5103    -5282    -5159    -5140    -4980    -4560    -4352 
   -4384    -4378    -4608    -5034    -4959    -4553    -4602    -4953 
   -5030    -4976    -4962    -4702    -4380    -4469    -4716    -4793 
   -4904    -5074    -5046    -4828    -4749    -4927    -5001    -4887 
   -4855    -4710    -4464    -4581    -4838    -4834    -4756    -4801 
   -4866    -4715    -4409    -4356    -4641    -4926    -5015    -4946 
   -4799    -4745    -4795    -4714    -4615    -4788    -5008    -5062 
   -5092    -4953    -4653    -4612    -4618    -4283    -4089    -4371 
   -4766    -5142    -5398    -5159    -4669    -4619    -4977    -5117 
   -4957    -4888    -4752    -4361    -4218    -4509    -4716    -4672 
   -4691    -4764    -4719    -4783    -5069    -5161    -4891    -4668 
   -4646    -4679    -4814    -4862    -4553    -4263    -4419    -4766 
   -5050    -5265    -5181    -4912    -4885    -4927    -4887    -4897 
   -4739    -4437    -4488    -4804    -4808    -4557    -4498    -4600 
   -4626    -4656    -4816    -5024    -5262    -5378    -5001    -4537 
   -4603    -4608    -4253    -4445    -5071    -5146    -4903    -4887 
   -4834    -4672    -4615    -4591    -4460    -4405    -4725    -5155 
   -5309    -5321    -5184    -4769    -4344    -4077    -4124    -4603 
   -4878    -4618    -4604    -5020    -5127    -4997    -5177    -5228 
   -4696    -4217    -4164    -4190    -4303    -4614    -4996    -5360 
   -5489    -5339    -5170    -5023    -4893    -4807    -4611    -4171 
   -3697    -3708    -4294    -4930    -5431    -5849    -5823    -5344 
   -4965    -4700    -4266    -3987    -4160    -4492    -4707    -4897 
   -5192    -5314    -5073    -4831    -4668    -4409    -4371    -4590 
   -4594    -4517    -4662    -4723    -4766    -5120    -5305    -5042 
   -4841    -4849    -4750    -4561    -4525    -4564    -4479    -4398 
   -4482    -4645    -4918    -5255    -5265    -4924    -4737    -4862 
   -5093    -5175    -4822    -4201    -3904    -4054    -4360    -4761 
   -5221    -5522    -5595    -5431    -5061    -4799    -4762    -4656 
   -4436    -4239    -3985    -3923    -4415    -4970    -5090    -5144 
   -5320    -5394    -5387    -5285    -4965    -4530    -4290    -4363 
   -4365    -4280    -4598    -4968    -4916    -4860    -4803    -4572 
   -4668    -4939    -4907    -4900    -4932    -4689    -4553    -4739 
   -4858    -4823    -4760    -4626    -4476    -4490    -4745    -4988 
   -4947    -4754    -4548    -4579    -5016    -5202    -4909    -4926 
   -5147    -4955    -4768    -4793    -4633    -4476    -4499    -4441 
   -4405    -4706    -5150    -5205    -4954    -4985    -5084    -4677 
   -4218    -4287    -4572    -4760    -4858    -4824    -4842    -5088 
   -5243    -5050    -4657    -4287    -4094    -4174    -4567    -4996 
   -5058    -4895    -4808    -4804    -4968    -5219    -5148    -4855 
   -4781    -4766    -4585    -4498    -4623    -4668    -4499    -4537 
   -4878    -5020    -4961    -4950    -4901    -4870    -4841    -4623 
   -4453    -4641    -4990    -5061    -4854    -4803    -4823    -4648 
   -4553    -4577    -4499    -4554    -4833    -5001    -5069    -5128 
   -4953    -4760    -4845    -4812    -4564    -4472    -4504    -4571 
   -4695    -4746    -4787    -4930    -4999    -4905    -4787    -4797 
   -4938    -4968    -4754    -4391    -4087    -4230    -4787    -5167 
   -5198    -5157    -5104    -4903    -4591    -4441    -4513    -4533 
   -4398    -4374    -4718    -5212    -5323    -4989    -4735    -4788 
   -4903    -4904    -4818    -4834    -5005    -5035    -4849    -4615 
   -4307    -4091    -4233    -4502    -4692    -4916    -5096    -5192 
   -5293    -5231    -4978    -4747    -4556    -4395    -4318    -4367 
   -4595    -4872    -4973    -4981    -5162    -5366    -5200    -4803 
   -4480    -4203    -4205    -4511    -4540    -4445    -4843    -5300 
   -5271    -5073    -4995    -5017    -4976    -4727    -4579    -4635 
   -4557    -4445    -4565    -4762    -4834    -4719    -4541    -4560 
   -4746    -4903    -5105    -5346    -5290    -4954    -4715    -4504 
   -4253    -4361    -4676    -4606    -4445    -4700    -4947    -4857 
   -4932    -5235    -5138    -4777    -4657    -4475    -4245    -4494 
   -4807    -4741    -4742    -4776    -4595    -4762    -5144    -4980 
   -4723    -4877    -4990    -5103    -5333    -5066    -4428    -4338 
   -4665    -4735    -4673    -4527    -4228    -4371    -4962    -5135 
   -4924    -4965    -5093    -5080    -5076    -4966    -4833    -4830 
   -4627    -4244    -4085    -4189    -4459    -4779    -5034    -5262 
   -5378    -5287    -5094    -4834    -4704    -4781    -4534    -3970 
   -3813    -4121    -4542    -5058    -5428    -5412    -5331    -5294 
   -5089    -4885    -4720    -4382    -4186    -4399    -4625    -4625 
   -4642    -4938    -5343    -5405    -5232    -5213    -5034    -4486 
   -4155    -4207    -4207    -4252    -4548    -4801    -4996    -5324 
   -5551    -5436    -5094    -4779    -4625    -4407    -3986    -3882 
   -4411    -4995    -5108    -4861    -4563    -4533    -4845    -5055 
   -4792    -4398    -4340    -4445    -4494    -4808    -5431    -5686 
   -5296    -4907    -4949    -4993    -4722    -4438    -4266    -3993 
   -3821    -4083    -4463    -4590    -4797    -5375    -5865    -5864 
   -5664    -5502    -5182    -4808    -4625    -4521    -4475    -4541 
   -4541    -4449    -4333    -4197    -4218    -4394    -4548    -4808 
   -5065    -4984    -4872    -5066    -5220    -5138    -5069    -4992 
   -4750    -4449    -4368    -4681    -5080    -5065    -4681    -4411 
   -4519    -4804    -5082    -5385    -5304    -4584    -4055    -4160 
   -4301    -4345    -4608    -4819    -4671    -4453    -4421    -4483 
   -4654    -4989    -5238    -5209    -5263    -5664    -5998    -5983 
   -5703    -5082    -4202    -3411    -2863    -2775    -3338    -4085 
   -4626    -5377    -6394    -6762    -6069    -5255    -4981    -4784 
   -4356    -3981    -3836    -4025    -4696    -5463    -5706    -5545 
   -5250    -4698    -4166    -3958    -3865    -4012    -4580    -4896 
   -4544    -4249    -4731    -5572    -5749    -5159    -4707    -4742 
   -4801    -4876    -5401    -5891    -5265    -3892    -3511    -4511 
   -5513    -5734    -5331    -4395    -3478    -3499    -4332    -5053 
   -5306    -5080    -4602    -4689    -5344    -5590    -5190    -4521 
   -3928    -3859    -4239    -4371    -4129    -4110    -4684    -5618 
   -6072    -5455    -4676    -4756    -5155    -5239    -5202    -5063 
   -4464    -3366    -2489    -2794    -4272    -5880    -6629    -6412 
   -6197    -6554    -6417    -5188    -3917    -3159    -2550    -2412 
   -3265    -4662    -5821    -6345    -6245    -5904    -5687    -5444 
   -4827    -3994    -3501    -3474    -3657    -4129    -4889    -5287 
   -5008    -4653    -4584    -4545    -4734    -5478    -5988    -5521 
   -4881    -4860    -4953    -4814    -4715    -4540    -4383    -4688 
   -5015    -4823    -4635    -4873    -5131    -5015    -4561    -4090 
   -4036    -4310    -4328    -4179    -4369    -4541    -4449    -4723 
   -5194    -5166    -5101    -5391    -5429    -5186    -5277    -5499 
   -5219    -4503    -3904    -3863    -4368    -4756    -4580    -4440 
   -4878    -5282    -5116    -4892    -4973    -5213    -5481    -5420 
   -5034    -4978    -5042    -4386    -3434    -3226    -3819    -4770 
   -5763    -6224    -5742    -4729    -3964    -3798    -4027    -4391 
   -4704    -4649    -4284    -4185    -4730    -5670    -6292    -6050 
   -5188    -4495    -4448    -4729    -4603    -4120    -4170    -4788 
   -5009    -4658    -4515    -4652    -4372    -3819    -3986    -4990 
   -5809    -6068    -6115    -5637    -4513    -3564    -3240    -3339 
   -3774    -4506    -5169    -5292    -5184    -5724    -6616    -6612 
   -5564    -4293    -3451    -3537    -4409    -5000    -4646    -4006 
   -3962    -4287    -4379    -4491    -5038    -5601    -5691    -5467 
   -5090    -4699    -4822    -5567    -6073    -5674    -4770    -3893 
   -3260    -3396    -4326    -5127    -5363    -5267    -4958    -4703 
   -4745    -4811    -4648    -4234    -3708    -3699    -4480    -5178 
   -5196    -5027    -4965    -4862    -5034    -5360    -5213    -5039 
   -5125    -4658    -4004    -4245    -4826    -4858    -4760    -4981 
   -5247    -5287    -5017    -4529    -4286    -4465    -4529    -4251 
   -4050    -4153    -4633    -5246    -5371    -5059    -4870    -4920 
   -5058    -5223    -5312    -5009    -4253    -3792    -4153    -4777 
   -5059    -5012    -4637    -4024    -3843    -4522    -5440    -5980 
   -6262    -6230    -5591    -4719    -4110    -3705    -3636    -4160 
   -4753    -4943    -4989    -5050    -5159    -5343    -5339    -5097 
   -4756    -4128    -3466    -3535    -4051    -4225    -4288    -4521 
   -4765    -5239    -5769    -5560    -4780    -4386    -4545    -4984 
   -5383    -5206    -4801    -5039    -5591    -5671    -5354    -5217 
   -5346    -4934    -3626    -2484    -2471    -3423    -4756    -5921 
   -6485    -6399    -5921    -5282    -4588    -4033    -3861    -3893 
   -3906    -4135    -4579    -4970    -5385    -5551    -4745    -3512 
   -3565    -5040    -6312    -6431    -5643    -4788    -4657    -4819 
   -4487    -4078    -4086    -4113    -3978    -4070    -4572    -5414 
   -6358    -6809    -6372    -5351    -4394    -3784    -3275    -2853 
   -2994    -3782    -4774    -5751    -6556    -6751    -6249    -5367 
   -4256    -3295    -3069    -3433    -3828    -4183    -4673    -5401 
   -6169    -6354    -5821    -5283    -5055    -4762    -4448    -4401 
   -4342    -3946    -3639    -4058    -4858    -5225    -5201    -5227 
   -5198    -4986    -4901    -5085    -5209    -5026    -4677    -4376 
   -4098    -3766    -3434    -3307    -3808    -5028    -6161    -6500 
   -6369    -6006    -5223    -4477    -4182    -3846    -3370    -3445 
   -4017    -4530    -5258    -6280    -6801    -6617    -6029    -5103 
   -4437    -4428    -4114    -3111    -2500    -2816    -3588    -4302 
   -4768    -5323    -6197    -6669    -6126    -5336    -5211    -5281 
   -4756    -3900    -3397    -3454    -3947    -4662    -5381    -5814 
   -5761    -5371    -4927    -4638    -4548    -4321    -3906    -3873 
   -4347    -4866    -5192    -5289    -5097    -4703    -4275    -4002 
   -4240    -4996    -5621    -5865    -5962    -5682    -5082    -4943 
   -5259    -5224    -4800    -4301    -3501    -2817    -3010    -3554 
   -3925    -4594    -5505    -6143    -6367    -6200    -5911    -5701 
   -5382    -4972    -4568    -4094    -3744    -3852    -4322    -4491 
   -4064    -3869    -4473    -5182    -5293    -5034    -4789    -4494 
   -4342    -4792    -5562    -5867    -5475    -4931    -4706    -4461 
   -3928    -3753    -4176    -4442    -4282    -4158    -4324    -4904 
   -5826    -6404    -6173    -5562    -4985    -4437    -4083    -4039 
   -4033    -3963    -3927    -3971    -4306    -5040    -5857    -6355 
   -6311    -5725    -4893    -4220    -3962    -3928    -3910    -4260 
   -4788    -4723    -4494    -4845    -5306    -5429    -5308    -4942 
   -4633    -4644    -4531    -4209    -4257    -4600    -4784    -5080 
   -5733    -6215    -6019    -5182    -4045    -3238    -3256    -3788 
   -4353    -4873    -5273    -5648    -6041    -5918    -5194    -4642 
   -4546    -4472    -4241    -3986    -3813    -3974    -4687    -5566 
   -5908    -5690    -5325    -4905    -4568    -4338    -4037    -3942 
   -4116    -4274    -4676    -5417    -5971    -6135    -5911    -5175 
   -4239    -3613    -3441    -3600    -3878    -4124    -4371    -4757 
   -5408    -6183    -6633    -6361    -5301    -3987    -3296    -3450 
   -3971    -4588    -5174    -5414    -5290    -5076    -4855    -4622 
   -4490    -4526    -4515    -4276    -4361    -5076    -5383    -4747 
   -4225    -4398    -4733    -5100    -5539    -5493    -4888    -4487 
   -4558    -4657    -4577    -4396    -4263    -4583    -5228    -5359 
   -4951    -4664    -4683    -4988    -5404    -5406    -4935    -4476 
   -4234    -4118    -4162    -4360    -4513    -4502    -4642    -5312 
   -5999    -6041    -5972    -6079    -5524    -4378    -3601    -3254 
   -3006    -3156    -3928    -4745    -5163    -5611    -6016    -5759 
   -5255    -5032    -4737    -4422    -4445    -4558    -4464    -4206 
   -4055    -4336    -4922    -5220    -5152    -5323    -5765    -5957 
