Origin Time       2025/03/30 21:30:00
Lat.              38.535
Long.             142.295
Depth. (km)       44
Mag.              4.3
Station Code      MYGH10
Station Lat.      37.9411
Station Long.     140.8924
Station Height(m) -187
Record Time       2025/03/30 21:31:33
Sampling Freq(Hz) 100Hz
Duration Time(s)  120
Dir.              2
Scale Factor      2942(gal)/8224139
Max. Acc. (gal)   0.372
Last Correction   2025/03/30 21:31:33
Memo.             
[...]
  118754   118839   118763   118582   118582   118733   118809   118733 
  118620   118554   118597   118775   118773   118530   118565   118781 
  118719   118648   118793   118851   118782   118750   118713   118731 
  118841   118828   118708   118652   118624   118628   118658   118602 
  118608   118770   118789   118681   118744   118809   118777   118856 
  118866   118596   118428   118615   118804   118791   118755   118683 
  118534   118554   118701   118677   118671   118794   118750   118643 
  118710   118794   118802   118760   118665   118617   118671   118755 
  118820   118802   118685   118615   118629   118669   118751   118768 
  118669   118658   118728   118723   118646   118557   118609   118747 
  118750   118746   118806   118787   118716   118663   118682   118773 
  118767   118674   118648   118651   118662   118781   118833   118687 
  118642   118706   118632   118621   118743   118737   118693   118719 
  118663   118613   118760   118943   118891   118719   118687   118686 
  118594   118625   118720   118652   118601   118721   118827   118818 
  118786   118743   118662   118678   118777   118762   118750   118760 
  118593   118470   118577   118689   118704   118732   118837   118906 
  118806   118659   118588   118600   118747   118825   118686   118620 
  118640   118571   118617   118812   118903   118836   118674   118525 
  118516   118594   118655   118741   118813   118764   118737   118779 
  118735   118690   118675   118605   118667   118808   118789   118746 
  118783   118841   118881   118771   118573   118539   118663   118739 
  118701   118670   118733   118782   118737   118662   118650   118741 
  118787   118751   118785   118740   118585   118629   118706   118611 
  118612   118612   118531   118654   118746   118644   118673   118773 
  118787   118770   118729   118693   118662   118693   118804   118759 
  118612   118617   118643   118604   118642   118728   118786   118817 
  118852   118847   118766   118731   118732   118652   118585   118619 
  118663   118660   118658   118729   118816   118791   118702   118698 
  118809   118879   118817   118740   118663   118593   118606   118615 
  118602   118647   118671   118638   118624   118677   118728   118741 
  118760   118686   118594   118758   118949   118804   118636   118696 
  118678   118598   118673   118690   118621   118743   118952   118970 
  118801   118701   118723   118628   118543   118648   118717   118669 
  118694   118859   118975   118872   118666   118512   118513   118696 
  118766   118627   118597   118650   118574   118538   118606   118629 
  118656   118705   118704   118697   118704   118736   118797   118849 
  118893   118883   118770   118647   118660   118735   118675   118592 
  118631   118697   118729   118754   118768   118793   118824   118768 
  118628   118600   118670   118662   118692   118758   118712   118767 
  118845   118662   118563   118700   118723   118667   118690   118764 
  118881   118887   118781   118723   118636   118551   118609   118642 
  118600   118679   118770   118662   118608   118759   118791   118635 
  118559   118628   118705   118693   118669   118721   118814   118859 
  118795   118716   118648   118555   118573   118681   118724   118800 
  118868   118773   118690   118746   118779   118727   118643   118611 
  118694   118808   118778   118596   118503   118627   118794   118859 
  118851   118747   118565   118509   118663   118862   118902   118766 
  118648   118623   118666   118728   118677   118644   118774   118822 
  118739   118692   118696   118787   118875   118723   118515   118557 
  118713   118778   118727   118677   118747   118820   118828   118813 
  118723   118646   118683   118689   118621   118615   118642   118635 
  118644   118677   118732   118809   118812   118701   118608   118616 
  118647   118694   118829   118876   118690   118531   118585   118714 
  118791   118820   118767   118663   118662   118667   118565   118589 
  118751   118786   118748   118762   118739   118697   118692   118710 
  118771   118801   118719   118696   118794   118829   118750   118627 
  118594   118777   118918   118828   118746   118635   118413   118500 
  118878   118962   118752   118683   118723   118697   118714   118773 
  118693   118550   118532   118573   118574   118628   118746   118789 
  118731   118616   118559   118709   118818   118693   118613   118671 
  118794   118922   118872   118774   118762   118693   118660   118714 
  118728   118728   118678   118633   118743   118824   118732   118677 
  118759   118828   118791   118748   118713   118619   118624   118735 
  118693   118588   118652   118783   118754   118586   118521   118627 
  118747   118773   118710   118635   118642   118710   118773   118814 
  118767   118665   118689   118723   118635   118650   118767   118727 
  118609   118571   118656   118881   118978   118879   118806   118665 
  118521   118543   118590   118692   118782   118679   118596   118697 
  118876   118940   118798   118689   118706   118625   118521   118701 
  118910   118717   118459   118466   118534   118598   118706   118802 
  118723   118511   118608   118876   118885   118785   118652   118524 
  118658   118862   118863   118785   118694   118621   118632   118700 
  118640   118428   118496   118814   118829   118751   118899   118844 
  118594   118650   118860   118845   118700   118685   118793   118802 
  118710   118656   118638   118625   118655   118732   118729   118625 
  118589   118593   118617   118778   118895   118827   118698   118612 
  118682   118800   118706   118590   118605   118642   118808   118951 
  118768   118569   118586   118532   118428   118551   118736   118790 
  118879   118937   118836   118790   118810   118739   118760   118925 
  118837   118517   118578   118914   118864   118602   118582   118666 
  118714   118770   118705   118500   118404   118540   118775   118917 
  118945   118924   118798   118623   118600   118724   118778   118654 
  118565   118600   118563   118582   118728   118754   118717   118777 
  118833   118782   118697   118719   118736   118623   118609   118805 
  118868   118724   118677   118633   118536   118744   119002   118878 
  118679   118527   118438   118678   118860   118687   118585   118617 
  118639   118750   118848   118854   118766   118565   118531   118754 
  118886   118806   118644   118531   118601   118777   118808   118652 
  118569   118739   118893   118820   118808   118835   118666   118589 
  118697   118747   118700   118601   118590   118696   118746   118802 
  118893   118835   118705   118647   118631   118669   118719   118663 
  118584   118619   118720   118851   118914   118694   118442   118528 
  118728   118798   118816   118709   118494   118419   118540   118727 
  118824   118786   118752   118733   118728   118845   118902   118716 
  118520   118569   118827   119013   118914   118696   118540   118504 
  118658   118845   118849   118752   118709   118685   118706   118866 
  118957   118735   118497   118627   118839   118831   118741   118594 
  118473   118575   118706   118767   118836   118750   118665   118789 
  118821   118770   118814   118681   118343   118242   118539   118820 
  118764   118643   118675   118762   118835   118778   118609   118590 
  118728   118764   118621   118581   118760   118813   118635   118579 
  118725   118775   118673   118586   118562   118640   118800   118862 
  118777   118683   118747   118943   119017   118876   118766   118736 
  118652   118590   118552   118484   118532   118631   118625   118739 
  118941   118868   118640   118621   118733   118746   118767   118859 
  118821   118747   118767   118598   118409   118623   118787   118606 
  118535   118616   118681   118751   118774   118747   118667   118673 
  118841   118791   118521   118521   118720   118783   118813   118872 
  118770   118609   118697   118871   118748   118512   118540   118624 
  118555   118646   118798   118655   118609   118889   119014   118930 
  118831   118570   118392   118620   118801   118639   118552   118710 
  118835   118806   118687   118559   118578   118674   118600   118493 
  118625   118795   118809   118840   118914   118944   119006   118979 
  118683   118451   118632   118860   118759   118602   118613   118617 
  118581   118678   118848   118882   118759   118582   118550   118733 
  118833   118728   118597   118500   118565   118825   118955   118813 
  118612   118573   118689   118747   118727   118754   118708   118586 
  118639   118744   118679   118597   118532   118469   118538   118756 
  119045   119099   118770   118467   118482   118725   118953   118839 
  118562   118592   118771   118766   118728   118824   118881   118741 
  118644   118817   118871   118670   118708   118870   118767   118611 
  118593   118719   118871   118868   118781   118683   118565   118494 
  118566   118740   118782   118735   118822   118821   118613   118434 
  118384   118501   118627   118669   118793   118829   118704   118744 
  118889   118852   118709   118638   118609   118554   118608   118768 
  118764   118728   118875   118898   118660   118469   118516   118617 
  118605   118686   118810   118732   118724   118881   118860   118752 
  118736   118638   118606   118762   118771   118719   118836   118837 
  118674   118635   118643   118546   118517   118685   118852   118845 
  118795   118785   118728   118678   118700   118679   118611   118651 
  118752   118689   118507   118555   118828   118906   118791   118746 
  118721   118690   118698   118677   118674   118751   118791   118777 
  118736   118716   118775   118754   118631   118600   118585   118474 
  118416   118530   118675   118797   118959   119022   118887   118719 
  118728   118867   118836   118640   118481   118358   118426   118633 
  118670   118694   118809   118843   118871   118831   118673   118667 
  118731   118646   118609   118740   118844   118833   118875   118897 
  118681   118589   118740   118681   118562   118609   118534   118404 
  118459   118617   118714   118723   118760   118762   118727   118885 
  119003   118863   118775   118783   118697   118629   118656   118554 
  118417   118536   118651   118616   118681   118735   118724   118833 
  118922   118876   118852   118858   118827   118829   118831   118681 
  118552   118647   118669   118544   118621   118712   118552   118527 
  118665   118655   118766   119009   118905   118690   118787   118902 
  118848   118754   118598   118505   118584   118673   118690   118631 
  118585   118652   118700   118714   118781   118736   118632   118698 
  118766   118704   118716   118808   118848   118848   118820   118729 
  118574   118469   118517   118577   118638   118806   118845   118687 
  118585   118578   118631   118674   118623   118592   118708   118933 
  119099   119063   118863   118616   118525   118708   118808   118593 
  118454   118569   118656   118698   118793   118835   118868   118849 
  118674   118570   118573   118501   118505   118773   119076   119036 
  118766   118636   118575   118540   118727   118925   118839   118584 
  118405   118524   118794   118798   118670   118670   118608   118565 
  118779   118952   118885   118848   118886   118855   118809   118721 
  118531   118366   118363   118509   118656   118681   118615   118548 
  118598   118760   118887   118948   118983   118955   118801   118577 
  118488   118617   118759   118733   118593   118423   118307   118435 
  118894   119230   119068   118844   118775   118647   118705   118881 
  118687   118405   118405   118481   118613   118827   118870   118812 
  118913   119038   118982   118805   118681   118608   118509   118562 
  118747   118786   118716   118623   118581   118702   118802   118756 
  118623   118473   118481   118611   118666   118694   118716   118675 
  118685   118754   118741   118627   118481   118432   118543   118669 
  118728   118768   118818   118890   118924   118890   118879   118921 
  118902   118844   118898   118878   118615   118504   118697   118829 
  118791   118782   118855   118797   118534   118354   118381   118534 
  118713   118750   118782   118813   118638   118647   118895   118903 
  118879   118949   118802   118552   118396   118396   118519   118463 
  118251   118183   118308   118582   118756   118681   118651   118762 
  118844   118821   118750   118847   118993   118908   118793   118825 
  118835   118848   118951   118886   118605   118477   118570   118654 
  118624   118498   118417   118538   118770   118957   119065   119164 
  119290   119249   118999   118782   118627   118543   118609   118602 
  118380   118320   118648   118908   118851   118847   118816   118539 
  118509   118847   119020   118914   118708   118512   118462   118562 
  118762   118937   118864   118704   118675   118592   118535   118584 
  118319   117987   118126   118535   118914   118998   118829   118845 
  118953   118975   118943   118809   118864   119152   119267   119087 
  118625   118199   118324   118666   118497   118077   118137   118538 
  118692   118746   119007   119079   118824   118719   118802   118822 
  118797   118756   118717   118714   118608   118366   118197   118134 
  118177   118651   119345   119398   118810   118397   118488   118798 
  118929   118908   118913   118704   118342   118342   118690   119018 
  119256   119389   119271   118944   118782   118886   118910   118785 
  118505   118030   117751   117676   117668   118227   119117   119510 
  119585   119658   119345   118648   118281   118511   118650   118311 
  118080   118203   118241   118350   118912   119404   119237   118817 
  118835   119157   119134   118743   118492   118444   118260   118002 
  118237   118878   119113   118858   118642   118685   119068   119607 
  119632   118871   117965   117684   118104   118675   118835   118593 
  118362   118485   118924   119167   118976   118735   118696   118841 
  119011   118945   118702   118458   118297   118501   118959   119060 
  118868   118882   118982   118970   118920   118654   118291   118447 
  119036   119296   119005   118592   118435   118308   117879   117697 
  118168   118473   118285   118426   119099   119558   119346   118833 
  118640   118760   118731   118527   118372   118297   118374   118531 
  118548   118515   118709   119149   119395   119157   118856   118847 
  118840   118616   118554   118885   119076   118764   118335   118061 
  118139   118785   119310   118984   118422   118463   118957   119236 
  118990   118593   118481   118638   118957   119209   118995   118455 
  118216   118594   119105   119125   118879   118706   118427   118087 
  118004   118200   118532   118895   118944   118513   118341   118879 
  119271   119145   119223   119362   119021   118528   118152   118045 
  118419   118790   118717   118392   118130   118280   118787   119049 
  118893   118746   118837   119064   119271   119214   118924   118777 
  118698   118369   118110   118349   118764   118859   118831   118855 
  118534   118092   118185   118624   118866   118756   118736   119022 
  119136   119157   119279   119065   118741   118827   119033   118986 
  118767   118716   118933   118932   118628   118540   118426   117919 
  117730   118228   118700   118651   118498   118859   119435   119434 
  118995   118729   118601   118413   118354   118459   118443   118392 
  118531   118709   118835   118843   118774   118886   118932   118635 
  118330   118281   118461   118779   119052   119130   119006   118709 
  118511   118731   118986   118790   118434   118137   117922   118203 
  118909   119263   119074   118968   119168   119155   118781   118515 
  118540   118521   118227   118166   118654   118970   118913   119113 
  119300   118956   118763   119091   119076   118579   118408   118579 
  118662   118640   118520   118389   118525   118791   118982   119134 
  118974   118635   118659   118671   118407   118307   118303   118330 
  118654   119083   119254   119006   118465   118061   118072   118469 
  118929   118983   118794   118795   118876   118966   119003   118643 
  118254   118544   119075   119172   119102   119121   118972   118517 
  118100   118154   118338   118139   117960   118112   118359   118608 
  118860   119173   119362   119067   118670   118774   119155   119317 
  119151   118817   118492   118322   118538   119051   119259   118971 
  118648   118489   118369   118342   118385   118401   118512   118596 
  118358   118177   118500   118894   119041   119032   118816   118825 
  119157   118906   118146   117973   118557   119168   119304   118990 
  118481   118165   118327   118814   119265   119307   118952   118805 
  118963   118874   118517   118334   118361   118343   118451   118932 
  119260   119057   118714   118426   118335   118566   118725   118679 
  118601   118361   118184   118471   118868   118959   118956   119005 
  118872   118584   118525   118701   118713   118577   118532   118417 
  118297   118679   119227   119159   118893   119049   119232   119184 
  119029   118690   118461   118689   118875   118659   118569   118800 
  118881   118652   118401   118372   118467   118509   118596   118710 
  118589   118404   118520   118795   119056   119128   118791   118596 
  118859   118933   118802   118906   119007   118868   118650   118605 
  118872   119196   119188   118817   118361   118049   117888   117910 
  118177   118524   118798   119044   119145   119018   119007   119202 
  119187   118828   118411   118270   118346   118305   118289   118534 
  118727   118640   118490   118593   118913   119017   118848   118746 
  118744   118750   118766   118740   118571   118473   118791   119071 
  118770   118532   118794   118903   118686   118557   118543   118542 
  118578   118629   118741   118937   119020   118814   118535   118627 
  118994   118994   118611   118461   118605   118794   119129   119252 
  118739   118305   118455   118523   118096   117702   117942   118532 
  118898   119195   119460   119345   119117   119094   119053   119053 
  119113   118758   118195   118137   118566   118998   119053   118802 
  118693   118798   118894   118828   118662   118675   118654   118277 
  118035   118341   118874   119061   118736   118577   118899   118921 
  118493   118264   118250   118315   118673   119184   119342   119044 
  118766   118804   118925   118918   118801   118720   118797   118867 
  118732   118422   117996   117733   117998   118485   118720   118737 
  118604   118500   118621   118801   118968   119130   119121   118922 
  118747   118787   118883   118710   118504   118569   118651   118588 
  118455   118407   118660   119071   119238   119064   118659   118251 
  118277   118721   118976   119018   119080   118832   118442   118451 
  118686   118717   118457   118241   118435   118922   119307   119273 
  118953   118721   118538   118474   118689   118801   118735   118763 
  118794   118817   118786   118620   118698   119005   118963   118741 
  118777   118678   118231   117915   117940   118201   118631   119072 
  119318   119210   118899   118813   119025   119082   118766   118520 
  118465   118120   117771   118050   118578   118756   118793   118953 
  118982   118849   118747   118685   118790   118976   118991   118987 
