Origin Time       2025/03/30 21:30:00
Lat.              38.535
Long.             142.295
Depth. (km)       44
Mag.              4.3
Station Code      MYGH03
Station Lat.      38.9207
Station Long.     141.6377
Station Height(m) -37
Record Time       2025/03/30 21:31:08
Sampling Freq(Hz) 100Hz
Duration Time(s)  120
Dir.              1
Scale Factor      2942(gal)/8224139
Max. Acc. (gal)   1.220
Last Correction   2025/03/30 21:31:08
Memo.             
[...]
  -41543   -41542   -41538   -41536   -41538   -41539   -41538   -41538 
  -41539   -41539   -41539   -41539   -41539   -41539   -41538   -41538 
  -41539   -41538   -41538   -41538   -41536   -41536   -41539   -41538 
  -41536   -41536   -41535   -41535   -41536   -41536   -41539   -41543 
  -41539   -41534   -41535   -41536   -41536   -41539   -41539   -41536 
  -41536   -41538   -41540   -41540   -41539   -41539   -41539   -41539 
  -41540   -41539   -41538   -41540   -41540   -41540   -41542   -41540 
  -41542   -41542   -41539   -41538   -41539   -41540   -41540   -41539 
  -41539   -41539   -41538   -41539   -41540   -41539   -41539   -41542 
  -41540   -41539   -41542   -41540   -41536   -41540   -41543   -41540 
  -41540   -41540   -41540   -41540   -41538   -41538   -41539   -41539 
  -41539   -41538   -41536   -41539   -41539   -41538   -41540   -41540 
  -41539   -41539   -41536   -41535   -41539   -41539   -41534   -41536 
  -41540   -41539   -41535   -41534   -41536   -41535   -41535   -41538 
  -41538   -41536   -41538   -41536   -41538   -41538   -41534   -41535 
  -41539   -41538   -41536   -41538   -41538   -41536   -41536   -41536 
  -41538   -41539   -41540   -41539   -41538   -41539   -41540   -41538 
  -41535   -41539   -41538   -41535   -41538   -41539   -41539   -41536 
  -41536   -41539   -41539   -41539   -41543   -41539   -41536   -41540 
  -41540   -41539   -41538   -41536   -41538   -41538   -41538   -41539 
  -41538   -41538   -41539   -41538   -41536   -41538   -41538   -41539 
  -41539   -41538   -41539   -41540   -41539   -41539   -41538   -41536 
  -41539   -41538   -41538   -41540   -41540   -41539   -41540   -41540 
  -41542   -41542   -41540   -41539   -41540   -41540   -41539   -41540 
  -41539   -41538   -41543   -41544   -41540   -41538   -41539   -41539 
  -41539   -41542   -41540   -41540   -41543   -41542   -41540   -41542 
  -41539   -41540   -41542   -41540   -41540   -41542   -41540   -41539 
  -41540   -41542   -41542   -41542   -41542   -41542   -41540   -41539 
  -41540   -41543   -41540   -41539   -41540   -41539   -41539   -41542 
  -41540   -41539   -41543   -41544   -41539   -41538   -41540   -41540 
  -41540   -41540   -41540   -41540   -41540   -41538   -41540   -41542 
  -41539   -41540   -41543   -41543   -41542   -41543   -41542   -41540 
  -41540   -41538   -41538   -41540   -41540   -41540   -41540   -41542 
  -41540   -41539   -41540   -41543   -41539   -41536   -41539   -41540 
  -41539   -41538   -41536   -41538   -41539   -41539   -41538   -41539 
  -41540   -41542   -41540   -41540   -41542   -41540   -41538   -41540 
  -41540   -41540   -41540   -41539   -41539   -41543   -41543   -41543 
  -41544   -41542   -41540   -41543   -41544   -41543   -41542   -41539 
  -41536   -41539   -41543   -41543   -41539   -41540   -41542   -41539 
  -41539   -41543   -41540   -41538   -41540   -41542   -41539   -41539 
  -41540   -41542   -41539   -41539   -41542   -41542   -41539   -41540 
  -41539   -41540   -41543   -41539   -41539   -41540   -41539   -41539 
  -41539   -41539   -41539   -41538   -41539   -41540   -41538   -41539 
  -41543   -41542   -41538   -41538   -41536   -41536   -41539   -41542 
  -41539   -41535   -41538   -41542   -41539   -41536   -41538   -41539 
  -41539   -41538   -41538   -41538   -41538   -41536   -41535   -41536 
  -41535   -41536   -41539   -41539   -41539   -41536   -41535   -41535 
  -41536   -41536   -41534   -41535   -41539   -41539   -41535   -41538 
  -41538   -41536   -41538   -41535   -41535   -41536   -41532   -41531 
  -41538   -41539   -41535   -41540   -41539   -41535   -41540   -41542 
  -41535   -41538   -41540   -41536   -41538   -41539   -41536   -41538 
  -41538   -41538   -41538   -41539   -41539   -41538   -41538   -41539 
  -41535   -41535   -41538   -41538   -41536   -41539   -41542   -41538 
  -41536   -41538   -41536   -41534   -41534   -41535   -41536   -41539 
  -41536   -41535   -41535   -41538   -41539   -41536   -41536   -41539 
  -41539   -41536   -41538   -41539   -41538   -41538   -41538   -41536 
  -41539   -41540   -41539   -41538   -41540   -41539   -41536   -41538 
  -41539   -41536   -41535   -41536   -41539   -41542   -41540   -41536 
  -41536   -41538   -41539   -41540   -41536   -41536   -41539   -41538 
  -41535   -41536   -41540   -41540   -41536   -41535   -41540   -41539 
  -41538   -41538   -41536   -41538   -41540   -41538   -41536   -41538 
  -41539   -41538   -41539   -41538   -41535   -41539   -41542   -41538 
  -41536   -41540   -41542   -41540   -41539   -41539   -41539   -41538 
  -41538   -41539   -41540   -41539   -41538   -41538   -41539   -41539 
  -41536   -41539   -41538   -41536   -41538   -41538   -41535   -41535 
  -41538   -41539   -41538   -41538   -41540   -41539   -41536   -41536 
  -41535   -41534   -41536   -41538   -41536   -41536   -41536   -41535 
  -41536   -41536   -41535   -41535   -41538   -41534   -41526   -41523 
  -41520   -41520   -41532   -41543   -41523   -41492   -41496   -41527 
  -41574   -41601   -41544   -41473   -41486   -41559   -41651   -41652 
  -41469   -41361   -41493   -41555   -41534   -41635   -41596   -41458 
  -41555   -41621   -41548   -41528   -41463   -41403   -41512   -41740 
  -41802   -41625   -41548   -41570   -41581   -41593   -41600   -41671 
  -41422   -41071   -41546   -42230   -41833   -40815   -40684   -41580 
  -42271   -41986   -41231   -41153   -41569   -41617   -41677   -41801 
  -41141   -40545   -41731   -42885   -41810   -40610   -40840   -41744 
  -42350   -41453   -40365   -41185   -42446   -42309   -41399   -40811 
  -41214   -42049   -41904   -41534   -41526   -41052   -41454   -42597 
  -42275   -40965   -40281   -41234   -42650   -42460   -41430   -40770 
  -41046   -42026   -42036   -41068   -40957   -42095   -42171   -40915 
  -41053   -41740   -41705   -41901   -41600   -41041   -41272   -41746 
  -41631   -41427   -41908   -41609   -40984   -41683   -41889   -41426 
  -41493   -41303   -41310   -41821   -41897   -41752   -41432   -41015 
  -41385   -41941   -41678   -41343   -41531   -41538   -41277   -41543 
  -41755   -41358   -41412   -41724   -41551   -41373   -41326   -41723 
  -42253   -41540   -40703   -41505   -42346   -41675   -40732   -41220 
  -42315   -41783   -40815   -41229   -41852   -42209   -41928   -40892 
  -40930   -41623   -41866   -42160   -41540   -40657   -41384   -41960 
  -41462   -41539   -41694   -41218   -41299   -41720   -41693   -41824 
  -41539   -40805   -41368   -42360   -41943   -41088   -41134   -41481 
  -41635   -41917   -41829   -41397   -41276   -41339   -41585   -41789 
  -41559   -41403   -41532   -41399   -41189   -41567   -42091   -41789 
  -41207   -41380   -41550   -41401   -41706   -41766   -41349   -41521 
  -41885   -41671   -41384   -41411   -41584   -41634   -41589   -41671 
  -41573   -41451   -41721   -41716   -41415   -41355   -41419   -41578 
  -41581   -41515   -41590   -41501   -41609   -41519   -41127   -41677 
  -41940   -41226   -41361   -41752   -41511   -41540   -41690   -41565 
  -41397   -41364   -41585   -41683   -41412   -41440   -41733   -41504 
  -41312   -41617   -41597   -41536   -41789   -41304   -40802   -41640 
  -42263   -41644   -41357   -41818   -41686   -40959   -41040   -41766 
  -41964   -41682   -41323   -41253   -41619   -41829   -41690   -41377 
  -41278   -41708   -41779   -41496   -41731   -41573   -41038   -41413 
  -41863   -41700   -41540   -41411   -41374   -41550   -41748   -41573 
  -41266   -41566   -41758   -41412   -41347   -41585   -41782   -41613 
  -41203   -41399   -41851   -41666   -41449   -41624   -41588   -41381 
  -41397   -41733   -41998   -41534   -41112   -41523   -41827   -41598 
  -41396   -41376   -41485   -41605   -41534   -41485   -41550   -41593 
  -41584   -41291   -41179   -41661   -41895   -41424   -41131   -41754 
  -42105   -41366   -40942   -41509   -42022   -41673   -41235   -41581 
  -41713   -41331   -41496   -41808   -41571   -41269   -41377   -41746 
  -41785   -41432   -41251   -41542   -41785   -41488   -41481   -41746 
  -41430   -41470   -41854   -41350   -41149   -41932   -41891   -41246 
  -41415   -41643   -41462   -41368   -41399   -41638   -41685   -41500 
  -41706   -41731   -41355   -41265   -41478   -41837   -41747   -41247 
  -41326   -41644   -41679   -41655   -41575   -41463   -41337   -41385 
  -41581   -41600   -41598   -41489   -41369   -41644   -41823   -41666 
  -41432   -41288   -41505   -41810   -41821   -41538   -41403   -41597 
  -41393   -41311   -41820   -41624   -41138   -41388   -41679   -41644 
  -41376   -41504   -41955   -41376   -40972   -41700   -41775   -41474 
  -41478   -41372   -41694   -41794   -41430   -41619   -41658   -41347 
  -41538   -41727   -41554   -41627   -41667   -41335   -41403   -41590 
  -41427   -41474   -41521   -41612   -41989   -41967   -41316   -40863 
  -41413   -42022   -41662   -41385   -41563   -41476   -41466   -41704 
  -41750   -41408   -41040   -41384   -41719   -41407   -41461   -41708 
  -41665   -41713   -41575   -41328   -41359   -41482   -41455   -41469 
  -41739   -41528   -41192   -41756   -42094   -41598   -41131   -41096 
  -41520   -41926   -41998   -41620   -40999   -41220   -42024   -41976 
  -41403   -41449   -41553   -41134   -41334   -42053   -41916   -41320 
  -41019   -41139   -41791   -42102   -41644   -41285   -41399   -41611 
  -41613   -41503   -41485   -41628   -41779   -41762   -41628   -41280 
  -41065   -41512   -41840   -41446   -41270   -41770   -42093   -41760 
  -41223   -41087   -41342   -41598   -41755   -41735   -41528   -41370 
  -41473   -41685   -41531   -41335   -41474   -41439   -41393   -41607 
  -41747   -41777   -41535   -41330   -41627   -41655   -41265   -41370 
  -41764   -41805   -41488   -41108   -41277   -41817   -41770   -41455 
  -41607   -41404   -40949   -41557   -42099   -41681   -41710   -41791 
  -41305   -41299   -41557   -41547   -41504   -41530   -41648   -41523 
  -41330   -41670   -41787   -41210   -41157   -41716   -41748   -41654 
  -41770   -41458   -41419   -41806   -41508   -41191   -41423   -41593 
  -41866   -41887   -41457   -41401   -41462   -41355   -41623   -41813 
  -41538   -41454   -41458   -41392   -41661   -41644   -41289   -41508 
  -41847   -41547   -41199   -41265   -41442   -41802   -41926   -41598 
  -41512   -41343   -41323   -41751   -41548   -41315   -41661   -41808 
  -41693   -41297   -41301   -41773   -41415   -41068   -41481   -41756 
  -41921   -41877   -41524   -41241   -41234   -41690   -41771   -41284 
  -41400   -41847   -41750   -41435   -41570   -41739   -41354   -41141 
  -41342   -41604   -41904   -41588   -41077   -41508   -41959   -41520 
  -40986   -41081   -41577   -42005   -42117   -41558   -40953   -41327 
  -41682   -41470   -41754   -41883   -41296   -41391   -41879   -41553 
  -41241   -41405   -41500   -41682   -41721   -41467   -41407   -41450 
  -41663   -41862   -41519   -41192   -41189   -41351   -41918   -42161 
  -41409   -40895   -41357   -41953   -42066   -41492   -41108   -41673 
  -41851   -41485   -41632   -41548   -41185   -41358   -41602   -41759 
  -41773   -41501   -41459   -41531   -41609   -41764   -41480   -41075 
  -41392   -41916   -41848   -41617   -41416   -41401   -41866   -41619 
  -41023   -41515   -41766   -41438   -41636   -41786   -41670   -41435 
  -41087   -41227   -41654   -41736   -41553   -41536   -41652   -41516 
  -41399   -41589   -41612   -41372   -41404   -41597   -41769   -41867 
  -41526   -41320   -41328   -41170   -41565   -41785   -41430   -41621 
  -41747   -41430   -41445   -41520   -41365   -41454   -41798   -41832 
  -41578   -41172   -40911   -41489   -42001   -41569   -41135   -41149 
  -41616   -42122   -41675   -41023   -41285   -41801   -41920   -41868 
  -41671   -41362   -41617   -42318   -42078   -40999   -40833   -41727 
  -42130   -41612   -41099   -40992   -41235   -41828   -41940   -41372 
  -41262   -41486   -41619   -42209   -42377   -41350   -40749   -41489 
  -42098   -41705   -41351   -41397   -41304   -41419   -41455   -41199 
  -41682   -42072   -41370   -41057   -41431   -41449   -41582   -41766 
  -41446   -41557   -41594   -41021   -41400   -41951   -41538   -41304 
  -41430   -41692   -41771   -41504   -41624   -41700   -41305   -41382 
  -41963   -41843   -41287   -41303   -41420   -41566   -41751   -41517 
  -41318   -41288   -41430   -41937   -42057   -41477   -41129   -41447 
  -41864   -41801   -41442   -41381   -41582   -41859   -41769   -41042 
  -41048   -41824   -41863   -41850   -41970   -41184   -40830   -41415 
  -41611   -41748   -41715   -41138   -41196   -41651   -41492   -41411 
  -41929   -41983   -41195   -40963   -41697   -42203   -41906   -41362 
  -41435   -41859   -41697   -41443   -41443   -41100   -41058   -41565 
  -41793   -41929   -41763   -41123   -41162   -41424   -41206   -41515 
  -41920   -41762   -41789   -41766   -41442   -41328   -41291   -41505 
  -41990   -41790   -41319   -41665   -41804   -41100   -41457   -42523 
  -42016   -41507   -42047   -41697   -41258   -41959   -42581   -42322 
  -41354   -40895   -41516   -41585   -41087   -41594   -42072   -41249 
  -40217   -40117   -40899   -41442   -41280   -41527   -42071   -41953 
  -41212   -40518   -41466   -43139   -42568   -41547   -41922   -40801 
  -39051   -40709   -43096   -41403   -38628   -39571   -41895   -42176 
  -41708   -41585   -41392   -41168   -40633   -40811   -41979   -41709 
  -40891   -42048   -43580   -43888   -43204   -41974   -41557   -41044 
  -39205   -39810   -43718   -44949   -42045   -40293   -41068   -41223 
  -41331   -42128   -41496   -40814   -40585   -40213   -42425   -44091 
  -41731   -40659   -42250   -42595   -42388   -42554   -41215   -39792 
  -40994   -43017   -43278   -42182   -40888   -39599   -38789   -39934 
  -42072   -42739   -42537   -42327   -41366   -40100   -39860   -41715 
  -44448   -43533   -39509   -39069   -41330   -41688   -41766   -41955 
  -41423   -41354   -41787   -41858   -40964   -41303   -42634   -41303 
  -40497   -41949   -41129   -40792   -43399   -42709   -39588   -40653 
  -42849   -41634   -40352   -41443   -43272   -43947   -42026   -39405 
  -39702   -42087   -43359   -42321   -40466   -40444   -42118   -43318 
  -42330   -39414   -39147   -42603   -43752   -41548   -40077   -39924 
  -40753   -42163   -41862   -40610   -40829   -41319   -41486   -42338 
  -43291   -43247   -41312   -39444   -40404   -41937   -41821   -41895 
  -42757   -42808   -41949   -41268   -40753   -40274   -40706   -41570 
  -41835   -41962   -41727   -41574   -42196   -41851   -40882   -41318 
  -42199   -42160   -41760   -41392   -40998   -41168   -41840   -42144 
  -41791   -41480   -41993   -42225   -41091   -40286   -40894   -41592 
  -41550   -41416   -41600   -41427   -41611   -42442   -41555   -40333 
  -41589   -42920   -42792   -41908   -40416   -40204   -41422   -41956 
  -41801   -41496   -41457   -41419   -40167   -39776   -41747   -42716 
  -41964   -41611   -41386   -41507   -41999   -41270   -40502   -41482 
  -42595   -42714   -41937   -40910   -41667   -42637   -41492   -40667 
  -40980   -40976   -41071   -41571   -42056   -42016   -41214   -40803 
  -41399   -41683   -41683   -41970   -41715   -42066   -43243   -42082 
  -39625   -40230   -42485   -42331   -40861   -40937   -41917   -41963 
  -41370   -41349   -41316   -40817   -41183   -42025   -42037   -41810 
  -41732   -41764   -41611   -41384   -41955   -41894   -40892   -41116 
  -41797   -41656   -41671   -41850   -41403   -40975   -41084   -41519 
  -42230   -42044   -40826   -40701   -41933   -42504   -41386   -40429 
  -41353   -42048   -41180   -41053   -42124   -42449   -41783   -41314 
  -41494   -41401   -40894   -41370   -42180   -41796   -40794   -40274 
  -41029   -41952   -41797   -41953   -42091   -41246   -41072   -41586 
  -41742   -42222   -42437   -41712   -41548   -41647   -41235   -41862 
  -42477   -41380   -40543   -40693   -41400   -42385   -41736   -40720 
  -41342   -41497   -41324   -41883   -41231   -40439   -41408   -42010 
  -41759   -42210   -42230   -41523   -41890   -42275   -41550   -41238 
  -41188   -41251   -42218   -42307   -41057   -40626   -41068   -41273 
  -41046   -41104   -42041   -42279   -41393   -41256   -41582   -41751 
  -41805   -41472   -41906   -42260   -41293   -41223   -41999   -41863 
  -41609   -41611   -41439   -41304   -41269   -41308   -41037   -40733 
  -41170   -41544   -41635   -41962   -41874   -41408   -40979   -40786 
  -41566   -42525   -42061   -41204   -41744   -42500   -41845   -40859 
  -40770   -41372   -41944   -41841   -41467   -41561   -41424   -40725 
  -40937   -41843   -41613   -41017   -41669   -42545   -42129   -41214 
  -41377   -41929   -41315   -40981   -42029   -42333   -41662   -41430 
  -41362   -41328   -41482   -41590   -41654   -41378   -41010   -41247 
  -41551   -41732   -42013   -41898   -41866   -41752   -41033   -40988 
  -41673   -41971   -41712   -41033   -40737   -41504   -42091   -41507 
  -41239   -41697   -41480   -41337   -42060   -42098   -41413   -41467 
  -41673   -41497   -41837   -42273   -42215   -41800   -40882   -40441 
  -41220   -41998   -41824   -41544   -41756   -41616   -41361   -41177 
  -40722   -41488   -42318   -41099   -40726   -41860   -41833   -41445 
  -41430   -41287   -41557   -41971   -41839   -41288   -41222   -41690 
  -41527   -41319   -41791   -41697   -41229   -41488   -41685   -41378 
  -41324   -41470   -41517   -41670   -41346   -40914   -41964   -42799 
  -41673   -40992   -41515   -41520   -41409   -41685   -41284   -40825 
  -41372   -41601   -41419   -41910   -42030   -41548   -41430   -41538 
  -41736   -41864   -41592   -41318   -41509   -41909   -41958   -41538 
  -41296   -41677   -42066   -41759   -40971   -40884   -41697   -41964 
  -41440   -40990   -40906   -41604   -42304   -41677   -41269   -41754 
  -41382   -41052   -41729   -41922   -41665   -41773   -41517   -41061 
  -41345   -41729   -41524   -41262   -41540   -41742   -41181   -41116 
  -41824   -41882   -41508   -41411   -41617   -41736   -41466   -41624 
  -41740   -41050   -41141   -41754   -41530   -41661   -41951   -41320 
  -41057   -41798   -42448   -41845   -40798   -41278   -42273   -41994 
  -41314   -41233   -41551   -41615   -41200   -41361   -41851   -41403 
  -41597   -42417   -41334   -40639   -42075   -42203   -41094   -41157 
  -41370   -41188   -41438   -41905   -42070   -41955   -41573   -40784 
  -40817   -41928   -42217   -41642   -41006   -40830   -41563   -41619 
  -41249   -41975   -42053   -41411   -41377   -40886   -40622   -41500 
  -42039   -41922   -41752   -41652   -41509   -41455   -41693   -41385 
  -41162   -42041   -42346   -41705   -41488   -41544   -41391   -41427 
  -41473   -40929   -41044   -41879   -41620   -41408   -41839   -41584 
  -41530   -41627   -41111   -41281   -41906   -41735   -41319   -41229 
  -41458   -42032   -42295   -41519   -40724   -41297   -42039   -41696 
  -41353   -41555   -41783   -41863   -41550   -40936   -41004   -41779 
  -41894   -41535   -41551   -41369   -41199   -41485   -41715   -41909 
  -41779   -41337   -41651   -42241   -41882   -40971   -40861   -41828 
  -42211   -41505   -41245   -41521   -41399   -41439   -42021   -41848 
  -41004   -41080   -41827   -42074   -41642   -41332   -41662   -41596 
  -40929   -40964   -41661   -41983   -41787   -41521   -41376   -41378 
