Origin Time       2025/03/30 21:30:00
Lat.              38.535
Long.             142.295
Depth. (km)       44
Mag.              4.3
Station Code      MYGH03
Station Lat.      38.9207
Station Long.     141.6377
Station Height(m) -37
Record Time       2025/03/30 21:31:08
Sampling Freq(Hz) 100Hz
Duration Time(s)  120
Dir.              2
Scale Factor      2942(gal)/8224139
Max. Acc. (gal)   1.218
Last Correction   2025/03/30 21:31:08
Memo.             
[...]
  -46367   -46364   -46363   -46364   -46365   -46367   -46367   -46365 
  -46365   -46367   -46367   -46367   -46365   -46365   -46365   -46365 
  -46367   -46367   -46365   -46367   -46367   -46367   -46365   -46364 
  -46365   -46367   -46364   -46363   -46367   -46368   -46365   -46365 
  -46364   -46365   -46368   -46365   -46361   -46364   -46365   -46363 
  -46363   -46367   -46367   -46364   -46363   -46364   -46364   -46364 
  -46367   -46365   -46364   -46365   -46365   -46364   -46364   -46364 
  -46364   -46367   -46367   -46365   -46367   -46365   -46364   -46364 
  -46364   -46364   -46365   -46367   -46365   -46365   -46367   -46368 
  -46368   -46367   -46367   -46368   -46369   -46368   -46367   -46368 
  -46369   -46368   -46367   -46367   -46368   -46368   -46367   -46367 
  -46367   -46365   -46365   -46365   -46365   -46368   -46368   -46365 
  -46367   -46369   -46368   -46368   -46368   -46368   -46368   -46367 
  -46365   -46368   -46368   -46364   -46364   -46367   -46367   -46365 
  -46367   -46367   -46365   -46365   -46364   -46364   -46365   -46365 
  -46365   -46364   -46363   -46364   -46365   -46364   -46364   -46363 
  -46363   -46363   -46364   -46363   -46363   -46364   -46364   -46367 
  -46365   -46363   -46364   -46364   -46361   -46364   -46367   -46365 
  -46364   -46365   -46365   -46367   -46367   -46367   -46367   -46365 
  -46365   -46365   -46363   -46361   -46363   -46365   -46364   -46365 
  -46368   -46367   -46364   -46364   -46364   -46364   -46365   -46364 
  -46364   -46367   -46368   -46368   -46367   -46365   -46363   -46364 
  -46365   -46365   -46365   -46367   -46368   -46367   -46364   -46364 
  -46367   -46365   -46363   -46364   -46367   -46364   -46364   -46368 
  -46367   -46364   -46363   -46364   -46365   -46364   -46365   -46365 
  -46364   -46367   -46368   -46364   -46364   -46364   -46364   -46364 
  -46365   -46367   -46367   -46365   -46364   -46364   -46363   -46365 
  -46368   -46367   -46367   -46367   -46367   -46367   -46365   -46363 
  -46365   -46365   -46364   -46364   -46364   -46364   -46363   -46364 
  -46364   -46363   -46361   -46361   -46360   -46361   -46363   -46361 
  -46361   -46363   -46364   -46363   -46361   -46361   -46364   -46364 
  -46361   -46363   -46365   -46364   -46363   -46363   -46361   -46364 
  -46365   -46364   -46364   -46365   -46365   -46364   -46364   -46365 
  -46364   -46361   -46363   -46365   -46365   -46364   -46364   -46367 
  -46365   -46365   -46367   -46367   -46367   -46367   -46365   -46368 
  -46368   -46365   -46367   -46368   -46368   -46367   -46365   -46365 
  -46368   -46368   -46368   -46367   -46364   -46365   -46365   -46365 
  -46367   -46368   -46367   -46365   -46367   -46368   -46365   -46367 
  -46368   -46367   -46367   -46368   -46367   -46364   -46367   -46367 
  -46363   -46364   -46367   -46365   -46365   -46365   -46365   -46365 
  -46367   -46364   -46363   -46365   -46365   -46364   -46364   -46364 
  -46363   -46363   -46363   -46364   -46367   -46365   -46363   -46364 
  -46365   -46364   -46363   -46364   -46364   -46367   -46367   -46365 
  -46364   -46365   -46367   -46367   -46365   -46363   -46364   -46365 
  -46363   -46364   -46365   -46364   -46364   -46365   -46368   -46367 
  -46365   -46365   -46365   -46363   -46363   -46364   -46367   -46367 
  -46365   -46367   -46367   -46364   -46365   -46367   -46367   -46367 
  -46365   -46364   -46365   -46367   -46367   -46368   -46367   -46364 
  -46363   -46365   -46365   -46365   -46365   -46365   -46365   -46368 
  -46368   -46363   -46364   -46367   -46367   -46367   -46367   -46365 
  -46364   -46364   -46364   -46364   -46367   -46367   -46364   -46363 
  -46365   -46365   -46365   -46365   -46365   -46364   -46364   -46367 
  -46367   -46365   -46364   -46365   -46365   -46365   -46365   -46367 
  -46368   -46367   -46364   -46364   -46365   -46365   -46365   -46367 
  -46364   -46363   -46365   -46365   -46365   -46364   -46364   -46365 
  -46364   -46364   -46365   -46365   -46367   -46365   -46364   -46364 
  -46363   -46365   -46367   -46367   -46367   -46365   -46365   -46365 
  -46365   -46365   -46364   -46365   -46365   -46363   -46365   -46368 
  -46364   -46364   -46364   -46363   -46364   -46368   -46367   -46365 
  -46365   -46365   -46365   -46367   -46365   -46364   -46364   -46363 
  -46364   -46365   -46365   -46365   -46365   -46364   -46364   -46364 
  -46364   -46364   -46365   -46364   -46365   -46367   -46365   -46365 
  -46365   -46363   -46363   -46363   -46363   -46363   -46363   -46364 
  -46365   -46365   -46364   -46363   -46363   -46363   -46360   -46363 
  -46367   -46365   -46365   -46367   -46364   -46364   -46371   -46376 
  -46381   -46375   -46350   -46346   -46387   -46423   -46414   -46361 
  -46282   -46273   -46399   -46498   -46448   -46322   -46207   -46264 
  -46514   -46575   -46388   -46350   -46310   -46128   -46228   -46464 
  -46423   -46398   -46504   -46431   -46398   -46615   -46414   -45789 
  -45901   -46519   -46521   -46340   -46326   -46110   -46311   -46874 
  -46683   -46211   -46128   -45940   -46138   -46823   -46674   -46121 
  -46190   -46261   -46349   -46846   -46828   -46213   -46191   -46468 
  -46433   -46469   -46079   -45528   -46024   -46830   -46996   -46732 
  -46268   -46230   -46720   -46565   -46001   -46190   -46377   -46178 
  -46349   -46442   -46283   -46492   -46722   -46356   -45908   -46164 
  -46472   -46340   -46286   -46267   -46473   -46635   -46252   -46182 
  -46282   -46354   -46892   -46731   -45883   -46017   -46498   -46287 
  -46431   -46573   -45968   -46230   -46896   -46629   -46326   -46072 
  -46084   -46454   -46240   -46184   -46352   -46198   -46607   -46720 
  -46273   -46592   -46552   -45900   -46003   -46228   -46215   -46489 
  -46615   -46465   -46525   -46711   -46622   -46372   -46263   -45982 
  -45694   -46255   -46973   -46777   -46462   -46608   -46364   -45960 
  -46352   -46750   -46561   -46292   -45908   -45956   -46765   -46858 
  -45867   -45590   -46487   -46823   -46303   -46228   -46410   -46402 
  -46678   -46741   -45971   -45616   -46510   -47094   -46651   -46255 
  -46222   -46276   -46174   -46256   -46718   -46530   -45916   -46199 
  -46911   -46728   -46114   -46044   -46094   -46387   -46734   -46291 
  -46180   -46562   -46367   -46278   -46483   -46430   -46527   -46745 
  -46391   -45819   -46006   -46612   -46576   -46105   -45978   -46210 
  -46664   -46913   -46522   -46309   -46429   -46255   -46387   -46507 
  -46006   -46051   -46494   -46403   -46431   -46579   -46406   -46322 
  -46286   -46072   -45944   -46206   -46711   -46610   -46017   -46099 
  -46435   -46388   -46669   -46858   -46203   -45824   -46314   -46751 
  -46696   -46287   -46094   -46449   -46629   -46403   -46236   -46138 
  -46021   -46287   -46809   -46525   -46084   -46534   -46585   -46218 
  -46471   -46539   -46205   -46032   -46172   -46650   -46576   -45971 
  -46182   -46730   -46533   -46236   -46384   -46658   -46834   -46460 
  -45711   -45801   -46500   -46650   -46561   -46642   -46400   -46086 
  -46318   -46511   -46260   -46194   -46271   -46198   -46404   -46780 
  -46600   -46106   -45959   -46184   -46530   -46438   -46241   -46661 
  -46622   -45968   -46048   -46467   -46549   -46472   -46299   -46353 
  -46484   -46379   -46315   -46257   -46242   -46381   -46359   -46327 
  -46491   -46411   -46230   -46359   -46342   -46190   -46373   -46452 
  -46395   -46612   -46581   -46194   -45978   -46153   -46619   -46704 
  -46461   -46519   -46361   -45979   -46255   -46685   -46387   -45985 
  -46134   -46444   -46661   -46635   -46337   -46153   -46210   -46573 
  -46859   -46402   -45805   -45944   -46527   -46785   -46418   -46097 
  -46489   -46832   -46422   -46002   -46084   -46273   -46279   -46368 
  -46629   -46469   -46318   -46604   -46363   -46109   -46499   -46441 
  -46203   -46373   -46271   -46167   -46422   -46515   -46480   -46407 
  -46263   -46479   -46678   -46365   -46199   -46182   -45979   -46144 
  -46592   -46684   -46511   -46314   -46260   -46534   -46523   -46124 
  -46255   -46510   -46230   -46197   -46499   -46539   -46440   -46322 
  -46179   -46271   -46600   -46407   -45966   -46488   -46753   -46045 
  -46267   -46865   -46435   -46191   -46365   -46241   -46280   -46387 
  -46300   -46342   -46372   -46462   -46569   -46318   -46138   -46246 
  -46406   -46562   -46506   -46387   -46248   -46018   -46219   -46535 
  -46403   -46329   -46429   -46421   -46367   -46215   -46286   -46681 
  -46634   -46248   -46215   -46228   -46117   -46399   -46813   -46619 
  -46165   -46153   -46369   -46483   -46510   -46295   -45975   -46028 
  -46465   -46758   -46569   -46372   -46399   -46296   -46249   -46294 
  -46363   -46697   -46715   -46241   -46066   -46265   -46453   -46471 
  -46284   -46105   -46128   -46364   -46692   -46654   -46396   -46465 
  -46299   -45968   -46346   -46807   -46606   -46097   -45968   -46373 
  -46387   -46111   -46507   -46985   -46711   -46066   -45825   -46151 
  -46641   -46749   -46207   -46018   -46531   -46477   -46170   -46364 
  -46392   -46410   -46587   -46371   -46037   -45993   -46445   -46909 
  -46565   -46171   -46128   -46028   -46219   -46299   -46174   -46504 
  -46689   -46435   -46305   -46344   -46429   -46383   -46310   -46438 
  -46360   -46222   -46546   -46539   -46143   -46539   -46762   -46032 
  -46125   -46820   -46553   -46028   -45925   -46109   -46622   -46769 
  -46315   -46097   -46201   -46448   -46750   -46548   -46053   -45975 
  -46383   -46799   -46685   -46344   -46172   -46147   -46272   -46342 
  -46495   -46639   -46425   -46369   -46483   -46259   -46018   -46156 
  -46442   -46425   -46315   -46556   -46786   -46554   -46071   -45986 
  -46321   -46391   -46415   -46600   -46352   -46203   -46592   -46523 
  -45895   -45786   -46457   -46894   -46600   -46348   -46361   -46236 
  -46186   -46344   -46441   -46450   -46264   -46036   -46462   -46920 
  -46380   -45806   -46134   -46620   -46697   -46596   -46311   -46084 
  -46367   -46593   -46414   -46300   -46183   -46107   -46521   -46758 
  -46197   -45949   -46564   -46965   -46630   -46107   -45963   -46064 
  -46126   -46309   -46512   -46573   -46572   -46433   -46261   -46290 
  -46456   -46616   -46434   -46010   -46136   -46387   -46225   -46468 
  -46834   -46483   -45952   -45895   -46376   -46970   -46876   -46098 
  -45814   -46457   -46843   -46292   -45809   -46082   -46680   -47160 
  -46811   -45821   -45742   -46403   -46599   -46460   -46271   -46049 
  -46184   -46719   -46792   -46237   -46117   -46400   -46356   -46143 
  -46176   -46525   -46596   -46249   -46321   -46606   -46380   -46165 
  -46386   -46688   -46614   -46118   -46030   -46379   -46442   -46523 
  -46597   -46291   -46051   -46267   -46518   -46413   -46434   -46457 
  -46099   -46132   -46512   -46614   -46639   -46561   -46284   -46089 
  -46179   -46431   -46515   -46408   -46205   -46140   -46315   -46359 
  -46395   -46402   -46167   -46271   -46519   -46323   -46137   -46365 
  -46755   -46768   -46326   -45981   -46138   -46519   -46531   -46417 
  -46326   -46238   -46703   -46897   -46195   -46003   -46333   -46071 
  -46143   -46828   -46453   -45948   -46627   -46696   -46136   -46295 
  -46403   -46167   -46276   -46575   -46448   -46192   -46525   -46688 
  -46190   -46141   -46496   -46333   -46164   -46491   -46604   -46311 
  -46272   -46408   -46446   -46623   -46516   -45978   -45909   -46241 
  -46350   -46596   -46766   -46089   -45600   -46242   -46704   -46475 
  -46369   -46423   -46615   -46688   -46336   -46365   -46624   -46303 
  -46194   -46257   -45948   -46288   -46670   -46165   -46055   -46342 
  -46283   -46229   -46245   -46418   -46615   -46525   -46383   -46218 
  -46251   -46481   -46448   -46514   -46435   -46090   -46492   -46811 
  -46305   -46205   -46444   -46269   -46188   -46457   -46349   -45967 
  -46340   -46766   -46278   -46217   -46818   -46570   -46116   -46371 
  -46408   -46144   -46379   -46826   -46734   -46375   -46191   -46217 
  -46596   -46638   -46120   -46037   -46300   -46553   -46708   -46334 
  -45978   -46199   -46373   -46225   -46191   -46487   -46811   -46592 
  -46063   -46129   -46294   -46070   -46344   -46592   -46172   -46290 
  -46765   -46518   -46033   -45964   -46398   -46878   -46657   -46195 
  -46390   -46743   -46639   -46440   -46275   -46093   -46051   -46047 
  -46261   -46723   -46683   -46357   -46349   -46244   -46113   -46180 
  -46217   -46388   -46630   -46658   -46525   -46367   -46298   -46298 
  -46361   -46402   -46186   -45885   -46165   -46781   -46643   -46291 
  -46388   -46296   -46334   -46338   -45902   -46030   -46414   -46419 
  -46375   -46179   -46101   -46218   -46113   -45821   -45968   -46710 
  -46761   -46191   -46314   -46649   -46654   -46693   -46668   -46408 
  -46390   -46809   -46795   -46315   -46230   -46361   -46357   -46147 
  -45689   -45540   -45922   -46249   -46345   -46445   -46858   -47503 
  -47383   -46549   -46209   -46408   -46356   -46170   -46546   -46859 
  -47035   -47964   -47807   -46226   -45877   -45702   -44556   -44768 
  -46230   -46606   -45689   -45153   -46084   -47040   -46288   -45592 
  -46529   -46982   -46330   -46406   -47299   -48180   -48288   -47218 
  -45902   -45162   -45755   -47461   -47572   -46315   -46622   -46759 
  -45499   -45825   -46745   -45931   -45422   -45396   -44574   -46089 
  -49770   -49096   -45104   -44805   -47082   -47193   -45326   -44523 
  -45777   -46303   -45315   -45285   -45762   -45901   -46669   -46437 
  -45126   -45285   -46072   -47013   -48220   -47406   -45900   -46211 
  -46619   -46313   -46407   -46704   -46468   -45725   -45524   -46745 
  -47977   -47179   -45816   -45806   -45922   -46384   -47912   -47707 
  -45046   -44208   -46650   -47657   -45617   -45418   -48320   -49735 
  -47657   -45229   -45361   -46419   -46485   -46603   -46194   -45065 
  -45187   -45164   -44485   -45686   -47155   -47082   -47232   -47401 
  -46774   -45798   -44994   -45831   -47024   -46986   -47602   -47773 
  -46503   -46457   -47281   -47015   -45810   -44599   -44695   -45909 
  -46017   -45523   -46419   -46882   -46151   -46587   -47605   -47353 
  -46912   -47339   -46894   -45516   -45756   -46518   -45679   -45146 
  -46387   -47850   -47781   -46138   -44682   -45025   -46170   -46128 
  -45588   -46327   -47432   -47044   -45974   -46083   -47169   -47561 
  -46708   -45921   -45898   -46049   -46639   -47140   -46425   -46350 
  -47389   -46624   -44797   -45104   -46353   -45917   -45724   -47097 
  -47324   -46683   -46778   -46491   -46030   -46025   -46075   -46467 
  -46961   -46965   -46720   -46344   -46017   -46010   -45671   -45477 
  -45936   -45792   -46028   -47136   -46835   -46128   -46865   -47108 
  -45995   -45793   -46735   -46579   -45905   -46545   -47159   -46782 
  -46672   -46653   -46226   -46099   -46089   -46425   -46996   -46005 
  -45076   -46137   -46209   -45303   -46502   -47802   -46676   -45384 
  -45738   -46137   -45939   -46265   -46718   -46938   -47102   -46535 
  -46273   -47050   -46815   -45762   -46051   -46845   -46732   -46273 
  -45802   -45655   -46515   -47277   -46572   -45635   -45589   -45592 
  -45927   -47167   -47646   -47016   -46672   -46298   -45873   -46010 
  -46106   -46132   -46413   -46494   -46406   -46584   -46592   -45893 
  -45451   -46425   -47169   -46174   -45979   -46993   -46796   -46438 
  -46408   -45912   -46001   -46062   -45786   -46857   -48132   -47407 
  -46140   -46022   -45840   -45527   -46241   -47193   -47476   -46689 
  -45476   -45752   -46521   -46278   -46210   -46003   -45820   -46812 
  -46854   -45705   -46008   -46589   -46044   -46226   -46853   -46483 
  -46388   -46691   -46237   -46117   -46403   -45814   -45612   -46561 
  -46889   -46604   -46750   -46271   -45651   -46553   -47136   -46445 
  -46448   -46747   -46186   -45972   -46811   -46897   -45743   -45847 
  -47008   -46948   -46284   -45975   -45748   -45482   -45377   -45936 
  -46543   -46510   -46465   -46580   -46912   -47344   -47017   -46269 
  -46055   -46394   -46765   -46668   -46507   -46521   -46149   -45978 
  -46369   -46263   -45999   -46518   -46624   -45748   -45472   -46063 
  -46634   -46948   -46670   -46280   -46417   -46489   -46564   -46920 
  -46847   -46359   -46109   -45754   -45638   -46689   -46980   -45790 
  -45833   -46534   -46344   -46742   -47104   -46179   -45652   -46064 
  -46387   -46577   -46531   -46241   -46357   -46607   -46510   -46392 
  -46410   -46715   -47007   -46429   -45617   -45743   -46075   -46124 
  -46647   -47104   -46931   -46764   -46410   -45623   -45330   -45910 
  -46656   -46903   -46365   -46117   -46795   -46836   -46311   -46030 
  -45617   -46022   -46946   -46838   -46272   -46037   -46133   -46445 
  -46566   -46283   -46020   -46417   -46927   -46589   -46165   -46271 
  -46114   -46107   -46815   -46920   -46252   -46225   -46496   -46194 
  -46242   -46819   -46645   -46079   -45945   -45705   -45748   -46757 
  -47324   -46481   -45798   -46210   -46720   -46687   -46525   -46863 
  -47009   -46313   -45994   -46084   -45928   -46280   -46440   -45777 
  -45854   -46646   -46701   -46214   -46197   -46692   -46743   -46238 
  -46075   -46294   -46612   -46755   -46302   -46179   -46726   -46585 
  -46157   -46143   -45886   -46048   -46708   -46575   -46222   -46383 
  -46219   -46030   -46467   -46503   -46313   -46832   -46693   -45927 
  -46376   -47070   -46622   -45975   -45998   -46187   -46105   -46481 
  -47082   -46730   -46051   -45875   -46110   -46673   -46504   -45573 
  -45808   -46731   -46599   -46465   -46835   -46410   -45968   -46458 
  -46534   -46020   -46234   -46751   -46836   -46777   -46381   -46203 
  -46612   -46229   -45485   -45821   -46457   -46712   -46557   -46064 
  -45979   -46207   -46363   -46526   -46604   -46620   -46298   -45870 
  -46199   -46673   -46550   -46372   -46126   -46030   -46603   -46912 
  -46805   -46723   -46137   -45877   -46419   -46450   -46213   -46206 
  -46098   -46238   -46427   -46711   -46832   -46134   -46014   -46612 
  -46899   -47271   -46880   -45723   -45669   -46251   -46280   -46213 
  -46434   -46749   -46739   -46176   -45886   -46394   -46796   -46610 
  -46055   -45760   -46394   -46928   -46523   -46087   -45995   -45910 
  -46087   -46476   -46579   -46795   -47021   -46326   -45716   -46307 
  -46491   -45793   -46138   -46886   -46575   -46372   -46384   -46230 
  -46600   -46512   -45877   -46052   -46322   -45978   -45751   -46211 
  -46926   -46603   -45912   -46286   -46665   -46531   -46592   -46545 
  -46364   -46462   -46534   -46317   -46340   -46576   -46580   -46701 
  -46538   -45885   -46035   -46846   -46940   -46305   -45987   -46143 
  -46180   -46465   -46935   -46780   -46182   -45922   -46300   -46398 
  -45982   -46168   -46452   -46257   -46526   -46797   -46300   -45928 
  -45918   -45821   -45983   -46406   -46700   -46716   -46473   -46479 
  -46649   -46438   -46246   -46218   -46137   -46403   -46631   -46226 
  -46159   -46665   -46448   -45887   -46265   -46912   -46677   -45955 
  -45991   -46639   -46724   -46433   -46423   -46530   -46372   -46082 
  -46321   -46816   -46607   -46124   -46234   -46477   -46265   -46021 
