Origin Time       2025/03/30 21:30:00
Lat.              38.535
Long.             142.295
Depth. (km)       44
Mag.              4.3
Station Code      MYGH10
Station Lat.      37.9411
Station Long.     140.8924
Station Height(m) 18
Record Time       2025/03/30 21:31:33
Sampling Freq(Hz) 100Hz
Duration Time(s)  120
Dir.              6
Scale Factor      7845(gal)/8223790
Max. Acc. (gal)   1.102
Last Correction   2025/03/30 21:31:33
Memo.             
[...]
   18210    18242    18162    18180    18301    18237    18222    18449 
   18457    18252    18427    18648    18254    17921    18270    18505 
   18277    18307    18489    18334    18225    18354    18462    18455 
   18295    18234    18368    18203    18007    18391    18598    18149 
   18064    18486    18532    18419    18524    18418    18134    18114 
   18324    18401    18246    18250    18430    18426    18373    18422 
   18330    18073    18033    18297    18445    18468    18544    18388 
   18087    18030    18153    18380    18646    18527    18104    18122 
   18449    18377    18238    18493    18530    18067    17949    18310 
   18342    18323    18750    18824    18247    17938    18148    18261 
   18208    18333    18391    18193    18200    18455    18480    18364 
   18373    18404    18455    18446    18208    18083    18303    18426 
   18270    18258    18372    18272    18257    18496    18473    18202 
   18154    18212    18239    18461    18640    18441    18183    18083 
   18029    18153    18462    18647    18474    18127    18065    18273 
   18415    18477    18505    18387    18184    18157    18266    18349 
   18449    18434    18249    18183    18266    18385    18530    18534 
   18306    18063    18002    18153    18395    18558    18562    18409 
   18338    18427    18358    18191    18150    18166    18258    18310 
   18252    18343    18449    18297    18237    18438    18397    18133 
   18280    18503    18223    18150    18542    18509    18189    18327 
   18458    18160    18131    18428    18355    18250    18507    18500 
   18137    18117    18361    18381    18401    18563    18493    18211 
   18129    18272    18274    18137    18238    18427    18447    18526 
   18504    18231    18161    18241    18162    18222    18461    18432 
   18212    18250    18426    18415    18377    18385    18246    18142 
   18249    18334    18288    18256    18296    18343    18369    18405 
   18382    18284    18279    18330    18273    18220    18287    18365 
   18381    18377    18418    18513    18519    18407    18246    18046 
   18007    18187    18401    18559    18522    18333    18299    18400 
   18384    18293    18223    18112    18158    18411    18478    18292 
   18198    18279    18337    18365    18461    18407    18164    18181 
   18472    18543    18351    18226    18207    18169    18229    18389 
   18470    18569    18585    18257    18007    18117    18241    18388 
   18542    18370    18129    18187    18292    18347    18449    18436 
   18422    18511    18407    18233    18233    18135    18067    18288 
   18407    18358    18378    18281    18139    18210    18362    18580 
   18755    18451    17983    18023    18257    18287    18453    18708 
   18551    18158    18009    18083    18199    18261    18354    18536 
   18522    18319    18277    18341    18337    18350    18396    18311 
   18188    18238    18310    18324    18408    18396    18234    18185 
   18324    18453    18391    18234    18226    18430    18565    18407 
   18235    18168    18010    17987    18296    18627    18647    18395 
   18173    18146    18237    18395    18542    18431    18149    18141 
   18279    18195    18122    18288    18530    18647    18601    18490 
   18242    17969    18068    18418    18520    18373    18303    18311 
   18349    18423    18265    18064    18243    18387    18268    18378 
   18574    18396    18216    18299    18249    18171    18346    18523 
   18538    18306    17986    18091    18370    18314    18360    18607 
   18399    18045    18156    18285    18264    18485    18646    18400 
   18131    18118    18277    18535    18589    18304    18084    18106 
   18257    18480    18551    18465    18353    18192    18253    18489 
   18347    18072    18207    18378    18338    18504    18600    18214 
   18026    18262    18237    18110    18427    18738    18573    18347 
   18284    18104    17963    18187    18461    18407    18237    18199 
   18283    18357    18289    18222    18280    18339    18462    18627 
   18526    18283    18234    18299    18310    18203    18045    18123 
   18374    18481    18558    18577    18252    17929    18076    18377 
   18493    18654    18781    18515    18157    18050    17994    18027 
   18369    18685    18588    18328    18223    18230    18193    18108 
   18262    18527    18342    18085    18337    18507    18258    18328 
   18716    18431    17841    18139    18620    18296    18096    18488 
   18538    18274    18368    18435    18112    17994    18300    18543 
   18461    18230    18261    18476    18334    18106    18291    18507 
   18424    18310    18350    18347    18245    18257    18335    18318 
   18208    18249    18576    18647    18264    18026    18079    18135 
   18230    18465    18613    18468    18291    18226    18080    18073 
   18430    18674    18453    18150    18177    18272    18237    18399 
   18592    18324    17907    18015    18532    18621    18284    18362 
   18576    18237    18022    18353    18378    18087    18319    18632 
   18418    18328    18505    18462    18334    18229    18153    18216 
   18266    18331    18492    18454    18231    18241    18400    18304 
   18196    18407    18443    18118    18114    18419    18365    18181 
   18281    18326    18276    18372    18466    18569    18627    18366 
   18106    18179    18252    18104    18058    18327    18535    18461 
   18411    18331    18118    18293    18650    18461    18203    18287 
   18192    18080    18293    18423    18403    18408    18327    18315 
   18381    18198    18083    18385    18516    18270    18252    18342 
   18152    18138    18388    18399    18377    18603    18636    18395 
   18307    18284    18098    18061    18320    18589    18597    18338 
   18145    18091    18067    18334    18635    18490    18311    18261 
   18064    18154    18549    18484    18253    18326    18266    18223 
   18449    18480    18350    18216    18002    18118    18451    18427 
   18333    18380    18270    18165    18358    18612    18598    18400 
   18233    18145    18148    18310    18496    18370    18149    18261 
   18477    18486    18430    18427    18373    18207    18094    18204 
   18377    18403    18412    18435    18249    18049    18206    18481 
   18486    18378    18330    18172    18094    18334    18486    18364 
   18250    18195    18172    18270    18443    18493    18384    18230 
   18118    18149    18360    18497    18373    18242    18291    18283 
   18198    18343    18592    18543    18279    18118    18129    18192 
   18288    18476    18584    18540    18411    18166    18050    18172 
   18292    18395    18397    18246    18230    18270    18281    18539 
   18756    18598    18365    18230    18200    18246    18115    17995 
   18351    18632    18284    18102    18311    18222    18184    18490 
   18441    18179    18310    18462    18420    18504    18524    18311 
   18192    18206    18137    18076    18258    18566    18497    18144 
   18161    18391    18430    18549    18661    18287    17892    18261 
   18740    18430    18060    18212    18247    18157    18446    18723 
   18476    18076    18057    18208    18273    18534    18759    18490 
   18142    18087    18102    18162    18389    18573    18411    18108 
   18063    18127    18206    18516    18765    18536    18239    18320 
   18397    18230    18144    18133    18138    18396    18570    18324 
   18254    18465    18357    18237    18446    18333    17996    18229 
   18635    18507    18162    18177    18388    18337    18300    18468 
   18341    18104    18285    18496    18293    18149    18411    18503 
   18279    18357    18600    18461    18247    18218    18071    18027 
   18368    18671    18659    18399    17956    17716    18084    18584 
   18573    18380    18319    18250    18358    18559    18439    18276 
   18331    18203    18025    18252    18420    18257    18306    18423 
   18123    18006    18559    18840    18403    18264    18466    18166 
   17925    18307    18443    18154    18280    18630    18530    18242 
   18266    18512    18569    18347    18122    18044    18154    18355 
   18488    18562    18422    18018    17944    18389    18609    18395 
   18362    18408    18134    18110    18443    18361    18171    18395 
   18488    18300    18157    18129    18341    18526    18389    18296 
   18333    18289    18284    18409    18495    18341    18184    18249 
   18207    18083    18345    18697    18530    18134    18079    18203 
   18262    18416    18542    18327    18053    18243    18598    18469 
   18225    18281    18166    17968    18226    18540    18416    18304 
   18399    18339    18347    18522    18469    18314    18277    18229 
   18231    18408    18513    18365    18283    18304    18015    17844 
   18389    18800    18468    18226    18303    18202    18274    18636 
   18652    18343    18100    18029    18193    18387    18343    18315 
   18414    18292    18195    18447    18531    18389    18463    18358 
   17902    17921    18415    18451    18150    18230    18477    18493 
   18505    18617    18482    18122    18098    18393    18497    18451 
   18320    18044    18031    18261    18245    18323    18696    18617 
   18148    18038    18077    18052    18357    18671    18503    18212 
   18179    18400    18593    18458    18219    18129    18150    18166 
   18150    18365    18542    18220    18112    18465    18304    17956 
   18346    18701    18420    18307    18515    18465    18341    18435 
   18350    18021    18034    18393    18517    18420    18447    18447 
   18250    18220    18505    18561    18242    18149    18350    18315 
   18144    18289    18450    18360    18412    18562    18497    18318 
   18094    17906    18018    18276    18339    18415    18486    18202 
   18049    18446    18678    18293    17998    18189    18293    18189 
   18315    18505    18449    18335    18342    18334    18212    18108 
   18099    18187    18443    18601    18523    18550    18528    18280 
   18158    18164    18160    18322    18517    18396    18220    18334 
   18395    18343    18492    18507    18204    18076    18223    18324 
   18273    18214    18342    18477    18307    18121    18219    18296 
   18283    18447    18635    18540    18285    18231    18349    18280 
   18050    18007    18261    18492    18391    18249    18322    18338 
   18277    18490    18806    18697    18265    18052    18115    18154 
   18327    18658    18567    18230    18289    18322    18037    18099 
   18424    18470    18482    18508    18287    18123    18137    18161 
   18430    18721    18557    18216    17986    17926    18203    18507 
   18480    18447    18600    18459    18040    18031    18315    18301 
   18202    18247    18218    18135    18160    18270    18419    18536 
   18542    18443    18372    18473    18565    18415    18181    17996 
   17836    17890    18289    18702    18767    18527    18166    17955 
   18175    18473    18455    18490    18505    18141    18061    18505 
   18557    18225    18257    18342    18100    18071    18418    18604 
   18520    18484    18351    18044    18096    18399    18314    18195 
   18387    18293    18099    18439    18630    18366    18396    18492 
   18320    18364    18457    18262    18222    18210    17814    17842 
   18472    18520    18252    18511    18571    18268    18392    18546 
   18315    18226    18185    18177    18547    18574    18095    18034 
   18199    18161    18368    18697    18643    18349    18185    18319 
   18476    18333    18175    18227    18333    18508    18546    18214 
   18133    18481    18453    18229    18388    18391    18241    18527 
   18663    18296    18080    18103    18126    18148    18125    18245 
   18415    18234    18100    18316    18297    18164    18499    18702 
   18324    18130    18274    18173    18117    18534    18933    18839 
   18427    18071    18033    18212    18327    18364    18237    17899 
   17879    18360    18627    18424    18358    18480    18334    18196 
   18365    18426    18334    18535    18740    18387    17905    17891 
   18010    18071    18457    18819    18639    18365    18443    18561 
   18382    18185    18231    18169    17884    17915    18310    18423 
   18273    18405    18604    18501    18384    18427    18422    18237 
   18022    18131    18422    18342    18208    18484    18542    18090 
   17849    18036    18326    18746    18956    18582    18156    18080 
   18166    18399    18716    18716    18357    18092    17977    17906 
   18169    18566    18516    18284    18252    18279    18399    18546 
   18395    18018    17874    18243    18804    18994    18806    18520 
   18069    17629    17806    18342    18497    18387    18173    17834 
   17871    18312    18577    18678    18728    18445    18126    18231 
   18372    18277    18339    18426    18141    17973    18327    18673 
   18634    18396    18014    17629    17888    18725    19074    18742 
   18427    18249    18085    18108    18272    18314    18268    18262 
   18177    18071    18289    18665    18652    18342    18266    18451 
   18446    18164    18102    18423    18499    18134    18188    18659 
   18462    17810    17860    18465    18635    18497    18679    18640 
   18010    17636    17979    18531    18709    18507    18265    18115 
   18142    18513    18908    18639    17915    17798    18327    18763 
   19001    18750    17813    17165    17406    17968    18419    18721 
   18690    18378    18326    18671    18813    18503    18335    18589 
   18693    18512    18512    18346    17621    17255    17714    18208 
   18469    18725    18723    18403    18335    18650    18725    18395 
   18081    17886    17856    18223    18723    18794    18351    17787 
   17525    17791    18481    18997    18877    18468    18123    17740 
   17601    18135    18800    18825    18490    18258    18231    18578 
   18883    18571    18135    18083    18171    18324    18512    18374 
   17988    17849    17963    18094    18408    18750    18593    18249 
   18346    18507    18393    18625    18985    18503    17751    17666 
   17794    17882    18245    18603    18702    18647    18355    18135 
   18416    18682    18585    18536    18254    17632    17641    18216 
   18401    18384    18580    18612    18378    18295    18389    18388 
   18370    18473    18559    18459    18216    18207    18354    18133 
   17942    18347    18621    18330    18265    18474    18256    17992 
   18403    18949    18846    18405    18108    17818    17540    17733 
   18399    18709    18341    18004    18103    18328    18603    18971 
   18800    17933    17587    18237    18721    18536    18450    18598 
   18343    17901    18072    18643    18727    18414    18415    18508 
   18206    18018    18279    18354    18000    17828    18098    18451 
   18770    18976    18657    17875    17539    18131    18894    19107 
   18867    18350    17753    17529    17801    18188    18457    18578 
   18520    18469    18571    18596    18327    17999    17926    18015 
   18149    18288    18247    18137    18098    17990    18193    18801 
   18813    18357    18520    18719    18395    18454    18640    18114 
   17726    18067    18301    18279    18443    18496    18399    18604 
   18800    18554    18179    17952    17998    18368    18493    18173 
   18111    18396    18485    18373    18358    18331    18068    17949 
   18252    18422    18281    18295    18445    18428    18293    18215 
   18306    18559    18723    18559    18300    18157    17963    17891 
   18203    18615    18813    18694    18358    18050    17882    17973 
   18295    18534    18607    18605    18459    18177    17925    17786 
   17857    18100    18303    18503    18704    18723    18663    18654 
   18562    18372    18293    18331    18238    18141    18272    18428 
   18439    18389    18404    18427    18324    18253    18238    18118 
   18090    18288    18501    18613    18646    18455    18025    17874 
   18108    18115    17932    18045    18193    18126    18283    18612 
   18516    18257    18480    18860    18812    18523    18261    17945 
   17797    17988    18162    18188    18256    18392    18524    18465 
   18144    17942    18264    18918    19295    19149    18775    18341 
   17836    17629    17926    18180    18095    18091    18276    18351 
   18397    18638    18720    18326    17996    18157    18293    18041 
   17894    18241    18625    18588    18486    18597    18690    18767 
   18782    18477    17945    17687    17949    18308    18373    18222 
   18040    18054    18343    18613    18585    18292    18025    18195 
   18712    18819    18427    18172    17995    17730    17892    18501 
   18769    18401    18025    18069    18249    18438    18735    18889 
   18655    18277    18069    17913    17855    18065    18072    17880 
   18191    18727    18943    19043    18971    18601    18314    18161 
   18050    18183    18254    17959    17799    17999    18168    18202 
   18273    18416    18557    18659    18661    18493    18355    18382 
   18358    18231    18233    18377    18401    18307    18327    18293 
   18115    18281    18640    18508    18193    18117    18038    18162 
   18675    18939    18632    18284    18139    18117    18265    18216 
   17886    18017    18485    18509    18362    18451    18280    17890 
   18080    18466    18297    18276    18716    18874    18623    18196 
   17832    17842    18110    18407    18580    18427    18181    18187 
   18241    18137    18107    18289    18461    18468    18517    18623 
   18426    18129    18312    18659    18511    18231    18216    18098 
   18023    18328    18584    18559    18508    18496    18543    18611 
   18387    17903    17690    17917    18249    18478    18589    18489 
   18273    18191    18291    18636    18966    18589    17879    17798 
   17936    17844    18165    18688    18532    18160    18260    18328 
   18222    18535    18927    18702    18249    18053    18036    18238 
   18558    18565    18289    18131    18166    18227    18262    18246 
   18225    18353    18490    18432    18324    18256    18212    18316 
   18468    18420    18284    18195    18064    18102    18420    18499 
   18315    18365    18530    18588    18590    18476    18285    18131 
   18021    18045    18269    18408    18287    18179    18180    18210 
   18300    18419    18512    18526    18439    18256    18069    18153 
   18378    18446    18576    18742    18580    18347    18347    18310 
   18223    18241    18131    17861    17707    17795    18166    18565 
   18666    18650    18635    18513    18399    18434    18586    18627 
   18368    18018    17848    17844    18058    18455    18705    18712 
   18515    18104    17930    18225    18422    18370    18385    18335 
   18261    18477    18675    18520    18334    18326    18334    18373 
   18474    18384    18068    17941    18152    18509    18835    18801 
   18315    17901    17868    17945    18099    18403    18366    17884 
   17759    18273    18740    18767    18651    18473    18106    17982 
   18347    18522    18165    17923    18166    18400    18296    18307 
   18536    18391    18185    18559    18767    18459    18504    18738 
