Origin Time       2025/03/30 21:30:00
Lat.              38.535
Long.             142.295
Depth. (km)       44
Mag.              4.3
Station Code      MYGH07
Station Lat.      38.1802
Station Long.     140.6405
Station Height(m) 44
Record Time       2025/03/30 21:31:35
Sampling Freq(Hz) 100Hz
Duration Time(s)  120
Dir.              2
Scale Factor      3923(gal)/8224838
Max. Acc. (gal)   0.628
Last Correction   2025/03/30 21:31:35
Memo.             
[...]
  -20521   -20565   -20513   -20421   -20393   -20429   -20468   -20488 
  -20528   -20545   -20520   -20505   -20466   -20432   -20451   -20471 
  -20509   -20517   -20426   -20362   -20374   -20428   -20501   -20494 
  -20472   -20526   -20545   -20506   -20470   -20445   -20418   -20339 
  -20301   -20383   -20448   -20472   -20479   -20455   -20511   -20571 
  -20495   -20440   -20443   -20432   -20474   -20514   -20484   -20478 
  -20510   -20522   -20514   -20476   -20398   -20382   -20468   -20511 
  -20463   -20434   -20443   -20459   -20468   -20432   -20409   -20470 
  -20565   -20613   -20580   -20517   -20490   -20478   -20480   -20503 
  -20497   -20443   -20355   -20332   -20455   -20526   -20433   -20417 
  -20544   -20582   -20510   -20509   -20528   -20445   -20394   -20407 
  -20393   -20417   -20417   -20336   -20314   -20368   -20493   -20625 
  -20621   -20586   -20529   -20424   -20456   -20518   -20499   -20542 
  -20515   -20398   -20380   -20410   -20428   -20417   -20379   -20457 
  -20590   -20594   -20532   -20529   -20545   -20482   -20394   -20341 
  -20297   -20341   -20457   -20511   -20525   -20505   -20463   -20470 
  -20437   -20380   -20444   -20545   -20560   -20506   -20455   -20470 
  -20524   -20552   -20509   -20451   -20487   -20541   -20536   -20525 
  -20470   -20416   -20439   -20407   -20312   -20293   -20382   -20511 
  -20521   -20428   -20414   -20505   -20594   -20571   -20478   -20476 
  -20507   -20484   -20452   -20406   -20379   -20393   -20393   -20393 
  -20386   -20370   -20407   -20497   -20574   -20601   -20603   -20579 
  -20525   -20502   -20453   -20375   -20399   -20439   -20412   -20432 
  -20484   -20517   -20507   -20440   -20387   -20394   -20449   -20491 
  -20444   -20401   -20425   -20439   -20457   -20506   -20515   -20463 
  -20374   -20318   -20398   -20563   -20617   -20541   -20493   -20507 
  -20493   -20439   -20451   -20518   -20510   -20445   -20421   -20413 
  -20385   -20389   -20463   -20538   -20551   -20536   -20491   -20441 
  -20491   -20552   -20502   -20449   -20425   -20343   -20299   -20375 
  -20430   -20412   -20445   -20538   -20552   -20506   -20491   -20457 
  -20387   -20364   -20441   -20568   -20578   -20457   -20378   -20358 
  -20386   -20476   -20557   -20584   -20549   -20501   -20524   -20529 
  -20464   -20441   -20479   -20507   -20471   -20424   -20430   -20430 
  -20422   -20468   -20521   -20530   -20518   -20530   -20537   -20499 
  -20453   -20383   -20324   -20331   -20360   -20460   -20561   -20517 
  -20467   -20491   -20514   -20544   -20537   -20493   -20495   -20514 
  -20475   -20391   -20376   -20448   -20483   -20482   -20514   -20525 
  -20460   -20417   -20475   -20497   -20432   -20425   -20430   -20407 
  -20499   -20586   -20511   -20453   -20494   -20495   -20424   -20374 
  -20421   -20517   -20544   -20476   -20445   -20534   -20571   -20463 
  -20399   -20437   -20511   -20551   -20439   -20304   -20321   -20378 
  -20413   -20455   -20455   -20430   -20441   -20476   -20533   -20606 
  -20565   -20385   -20313   -20421   -20524   -20568   -20553   -20480 
  -20456   -20494   -20484   -20449   -20461   -20468   -20475   -20505 
  -20502   -20499   -20521   -20518   -20517   -20482   -20399   -20393 
  -20441   -20468   -20505   -20509   -20475   -20452   -20402   -20378 
  -20441   -20482   -20460   -20470   -20499   -20475   -20406   -20371 
  -20440   -20525   -20487   -20463   -20572   -20582   -20486   -20483 
  -20478   -20433   -20452   -20491   -20533   -20503   -20358   -20294 
  -20375   -20457   -20478   -20452   -20456   -20518   -20574   -20610 
  -20588   -20461   -20352   -20372   -20420   -20409   -20425   -20470 
  -20468   -20493   -20515   -20430   -20402   -20479   -20470   -20387 
  -20355   -20409   -20488   -20487   -20459   -20494   -20537   -20578 
  -20571   -20451   -20367   -20447   -20549   -20548   -20513   -20509 
  -20493   -20425   -20383   -20430   -20463   -20413   -20344   -20336 
  -20451   -20610   -20634   -20541   -20455   -20401   -20355   -20364 
  -20459   -20514   -20439   -20301   -20256   -20418   -20610   -20634 
  -20595   -20522   -20417   -20447   -20549   -20561   -20511   -20399 
  -20305   -20376   -20474   -20471   -20482   -20513   -20501   -20480 
  -20474   -20493   -20518   -20524   -20563   -20564   -20439   -20333 
  -20314   -20379   -20521   -20483   -20291   -20328   -20518   -20626 
  -20652   -20563   -20461   -20449   -20460   -20532   -20609   -20579 
  -20497   -20374   -20285   -20339   -20418   -20395   -20370   -20444 
  -20520   -20532   -20551   -20538   -20472   -20403   -20349   -20337 
  -20360   -20402   -20498   -20582   -20584   -20582   -20595   -20603 
  -20609   -20525   -20363   -20290   -20316   -20333   -20322   -20364 
  -20511   -20630   -20617   -20592   -20586   -20553   -20537   -20510 
  -20421   -20321   -20331   -20436   -20495   -20503   -20498   -20440 
  -20402   -20439   -20467   -20460   -20456   -20460   -20475   -20486 
  -20501   -20556   -20592   -20553   -20507   -20484   -20436   -20347 
  -20272   -20322   -20478   -20536   -20479   -20483   -20549   -20491 
  -20335   -20335   -20505   -20641   -20663   -20578   -20529   -20591 
  -20556   -20434   -20418   -20429   -20376   -20343   -20352   -20353 
  -20347   -20360   -20413   -20525   -20603   -20517   -20390   -20407 
  -20483   -20507   -20559   -20583   -20459   -20371   -20461   -20525 
  -20518   -20511   -20439   -20394   -20430   -20456   -20540   -20617 
  -20498   -20310   -20271   -20393   -20525   -20551   -20506   -20429 
  -20376   -20466   -20579   -20518   -20403   -20428   -20491   -20493 
  -20549   -20579   -20437   -20367   -20478   -20544   -20510   -20412 
  -20318   -20375   -20497   -20555   -20580   -20541   -20457   -20399 
  -20314   -20239   -20283   -20414   -20540   -20582   -20534   -20522 
  -20563   -20518   -20418   -20399   -20464   -20522   -20494   -20460 
  -20517   -20548   -20470   -20401   -20406   -20439   -20463   -20466 
  -20470   -20501   -20537   -20587   -20609   -20502   -20367   -20336 
  -20332   -20331   -20391   -20444   -20410   -20376   -20428   -20490 
  -20526   -20579   -20603   -20578   -20553   -20490   -20418   -20499 
  -20622   -20517   -20305   -20278   -20379   -20476   -20610   -20682 
  -20574   -20434   -20428   -20445   -20362   -20336   -20468   -20511 
  -20449   -20484   -20507   -20457   -20475   -20498   -20436   -20355 
  -20314   -20320   -20337   -20383   -20449   -20421   -20318   -20302 
  -20414   -20526   -20507   -20449   -20502   -20580   -20579   -20561 
  -20568   -20524   -20418   -20424   -20502   -20447   -20407   -20518 
  -20565   -20491   -20449   -20497   -20552   -20574   -20592   -20591 
  -20578   -20588   -20621   -20676   -20656   -20490   -20326   -20258 
  -20291   -20390   -20413   -20389   -20399   -20383   -20383   -20403 
  -20344   -20321   -20414   -20487   -20501   -20513   -20498   -20426 
  -20391   -20476   -20511   -20418   -20393   -20443   -20457   -20459 
  -20390   -20324   -20436   -20580   -20594   -20556   -20579   -20629 
  -20587   -20514   -20501   -20456   -20441   -20510   -20495   -20445 
  -20498   -20537   -20536   -20560   -20571   -20556   -20507   -20444 
  -20422   -20417   -20399   -20399   -20443   -20537   -20590   -20526 
  -20452   -20424   -20399   -20387   -20374   -20355   -20351   -20347 
  -20383   -20453   -20471   -20470   -20556   -20656   -20592   -20402 
  -20283   -20293   -20414   -20587   -20626   -20541   -20463   -20387 
  -20372   -20461   -20576   -20650   -20574   -20428   -20453   -20520 
  -20449   -20362   -20333   -20379   -20479   -20552   -20590   -20614 
  -20626   -20572   -20421   -20331   -20413   -20511   -20494   -20451 
  -20475   -20501   -20524   -20579   -20561   -20445   -20306   -20214 
  -20293   -20422   -20432   -20488   -20583   -20537   -20475   -20453 
  -20445   -20510   -20545   -20486   -20417   -20366   -20389   -20416 
  -20351   -20339   -20439   -20547   -20622   -20636   -20563   -20437 
  -20368   -20399   -20418   -20403   -20421   -20472   -20564   -20601 
  -20506   -20451   -20513   -20561   -20552   -20490   -20390   -20362 
  -20409   -20409   -20387   -20433   -20495   -20495   -20464   -20493 
  -20528   -20468   -20410   -20426   -20439   -20426   -20418   -20468 
  -20556   -20596   -20565   -20447   -20310   -20262   -20286   -20405 
  -20518   -20479   -20437   -20495   -20563   -20579   -20502   -20439 
  -20483   -20488   -20453   -20493   -20514   -20452   -20402   -20385 
  -20371   -20356   -20308   -20329   -20532   -20721   -20738   -20677 
  -20640   -20626   -20576   -20542   -20565   -20482   -20355   -20385 
  -20432   -20355   -20278   -20324   -20374   -20290   -20283   -20448 
  -20553   -20551   -20542   -20591   -20660   -20603   -20499   -20429 
  -20277   -20196   -20312   -20386   -20359   -20370   -20453   -20547 
  -20534   -20484   -20467   -20374   -20310   -20372   -20412   -20436 
  -20503   -20576   -20694   -20791   -20765   -20645   -20456   -20335 
  -20401   -20511   -20556   -20594   -20576   -20433   -20301   -20321 
  -20376   -20344   -20333   -20418   -20511   -20580   -20675   -20758 
  -20694   -20502   -20363   -20352   -20425   -20455   -20358   -20305 
  -20321   -20255   -20241   -20372   -20453   -20472   -20534   -20564 
  -20544   -20556   -20525   -20401   -20386   -20549   -20665   -20668 
  -20602   -20420   -20256   -20279   -20374   -20421   -20507   -20638 
  -20661   -20578   -20513   -20467   -20424   -20391   -20374   -20461 
  -20579   -20575   -20507   -20425   -20375   -20430   -20464   -20437 
  -20502   -20596   -20567   -20443   -20340   -20316   -20347   -20420 
  -20461   -20421   -20461   -20575   -20599   -20618   -20617   -20524 
  -20463   -20407   -20359   -20416   -20466   -20503   -20544   -20464 
  -20397   -20441   -20511   -20602   -20642   -20560   -20422   -20321 
  -20272   -20212   -20200   -20277   -20301   -20293   -20349   -20483 
  -20657   -20729   -20733   -20768   -20714   -20592   -20457   -20289 
  -20252   -20309   -20286   -20274   -20322   -20389   -20478   -20545 
  -20609   -20676   -20634   -20506   -20441   -20434   -20428   -20440 
  -20406   -20332   -20406   -20567   -20599   -20596   -20606   -20524 
  -20466   -20506   -20533   -20487   -20399   -20366   -20399   -20440 
  -20488   -20474   -20416   -20412   -20413   -20461   -20571   -20582 
  -20517   -20493   -20533   -20555   -20461   -20432   -20532   -20545 
  -20503   -20425   -20270   -20239   -20343   -20434   -20472   -20432 
  -20440   -20518   -20513   -20416   -20289   -20251   -20318   -20386 
  -20509   -20630   -20665   -20675   -20567   -20434   -20407   -20305 
  -20263   -20409   -20459   -20407   -20395   -20399   -20444   -20436 
  -20351   -20353   -20441   -20564   -20676   -20672   -20574   -20464 
  -20393   -20393   -20401   -20389   -20382   -20425   -20565   -20656 
  -20623   -20609   -20576   -20505   -20506   -20536   -20587   -20671 
  -20632   -20503   -20502   -20598   -20595   -20486   -20421   -20447 
  -20453   -20393   -20345   -20325   -20297   -20356   -20525   -20595 
  -20540   -20484   -20407   -20410   -20513   -20494   -20440   -20494 
  -20467   -20399   -20424   -20466   -20471   -20413   -20385   -20470 
  -20480   -20382   -20376   -20494   -20595   -20584   -20468   -20305 
  -20213   -20301   -20456   -20536   -20545   -20482   -20447   -20576 
  -20687   -20664   -20642   -20565   -20488   -20575   -20551   -20337 
  -20271   -20348   -20393   -20383   -20401   -20470   -20467   -20493 
  -20595   -20526   -20412   -20476   -20520   -20432   -20374   -20390 
  -20359   -20325   -20420   -20493   -20457   -20480   -20522   -20479 
  -20449   -20521   -20590   -20559   -20567   -20640   -20592   -20491 
  -20447   -20399   -20385   -20390   -20331   -20318   -20430   -20529 
  -20547   -20560   -20602   -20621   -20547   -20418   -20321   -20285 
  -20309   -20304   -20266   -20324   -20422   -20466   -20505   -20507 
  -20460   -20467   -20533   -20564   -20510   -20445   -20466   -20488 
  -20444   -20447   -20506   -20571   -20609   -20474   -20304   -20356 
  -20426   -20364   -20347   -20353   -20339   -20389   -20505   -20668 
  -20821   -20884   -20834   -20733   -20699   -20646   -20483   -20401 
  -20476   -20595   -20619   -20421   -20173   -20127   -20220   -20316 
  -20279   -20125   -20104   -20240   -20406   -20540   -20556   -20578 
  -20671   -20645   -20580   -20580   -20530   -20486   -20484   -20453 
  -20401   -20268   -20125   -20227   -20515   -20644   -20586   -20538 
  -20449   -20363   -20487   -20645   -20737   -20880   -20871   -20702 
  -20613   -20499   -20341   -20358   -20461   -20372   -20209   -20171 
  -20092   -20065   -20277   -20401   -20335   -20337   -20456   -20595 
  -20677   -20750   -20727   -20499   -20410   -20547   -20574   -20548 
  -20541   -20487   -20486   -20464   -20326   -20197   -20175   -20314 
  -20560   -20761   -20837   -20731   -20464   -20190   -20055   -20124 
  -20314   -20407   -20328   -20201   -20139   -20150   -20142   -20182 
  -20434   -20680   -20791   -20983   -21145   -21169   -21154   -20972 
  -20692   -20483   -20298   -20279   -20448   -20671   -20892   -20848 
  -20441   -19921   -19527   -19465   -19638   -19838   -20062   -20268 
  -20587   -21020   -21217   -21217   -21166   -20871   -20397   -20071 
  -20008   -20024   -19975   -19935   -19963   -20105   -20304   -20429 
  -20707   -21203   -21583   -21783   -21721   -21382   -21134   -20860 
  -20358   -19986   -19878   -19932   -19988   -19885   -19924   -20109 
  -20058   -19973   -20088   -20245   -20329   -20282   -20223   -20285 
  -20324   -20313   -20441   -20737   -21089   -21444   -21641   -21443 
  -20953   -20584   -20591   -20745   -20645   -20243   -19692   -19305 
  -19480   -19931   -20016   -19801   -19747   -20065   -20634   -21124 
  -21330   -21284   -21166   -21163   -21189   -20999   -20578   -20104 
  -19788   -19747   -19838   -19934   -20137   -20433   -20687   -20795 
  -20748   -20767   -20810   -20603   -20340   -20278   -20383   -20565 
  -20607   -20549   -20626   -20640   -20436   -20241   -20243   -20413 
  -20466   -20244   -20039   -20136   -20484   -20842   -21027   -20941 
  -20641   -20484   -20537   -20440   -20206   -20113   -20133   -20121 
  -20078   -20131   -20266   -20313   -20325   -20402   -20471   -20571 
  -20698   -20753   -20827   -20881   -20792   -20754   -20752   -20506 
  -20227   -20231   -20299   -20308   -20478   -20684   -20551   -20221 
  -20092   -20119   -20137   -20274   -20518   -20702   -20922   -21273 
  -21581   -21567   -21004   -20194   -19770   -19812   -20031   -20252 
  -20326   -20174   -19853   -19616   -19711   -19985   -20235   -20505 
  -20742   -20860   -20943   -21108   -21282   -21193   -20798   -20428 
  -20283   -20267   -20158   -19981   -20063   -20348   -20561   -20714 
  -20619   -20286   -20290   -20590   -20722   -20784   -20788   -20622 
  -20605   -20767   -20702   -20434   -20275   -20166   -19955   -19876 
  -20198   -20695   -20853   -20587   -20277   -20156   -20206   -20243 
  -20047   -19876   -20069   -20379   -20606   -20791   -20788   -20667 
  -20756   -21092   -21402   -21478   -21294   -20889   -20497   -20325 
  -20140   -19850   -19656   -19534   -19521   -19692   -19981   -20362 
  -20677   -20783   -20779   -20822   -20933   -20784   -20264   -19980 
  -20135   -20241   -20291   -20542   -20750   -20700   -20622   -20730 
  -20877   -20844   -20768   -20781   -20661   -20409   -20309   -20347 
  -20360   -20358   -20378   -20370   -20329   -20483   -20792   -20819 
  -20601   -20498   -20526   -20459   -20056   -19595   -19669   -20133 
  -20553   -20769   -20742   -20757   -20873   -20784   -20626   -20559 
  -20470   -20414   -20457   -20561   -20583   -20432   -20329   -20347 
  -20332   -20290   -20224   -20174   -20239   -20355   -20425   -20511 
  -20694   -20791   -20719   -20709   -20676   -20501   -20341   -20170 
  -20116   -20299   -20448   -20534   -20536   -20483   -20653   -20721 
  -20568   -20657   -20718   -20537   -20486   -20586   -20780   -20952 
  -20807   -20453   -20123   -19930   -20000   -20348   -20722   -20703 
  -20390   -20217   -20100   -19992   -20139   -20430   -20595   -20488 
  -20236   -20164   -20324   -20606   -20858   -20864   -20671   -20428 
  -20236   -20278   -20497   -20614   -20579   -20522   -20476   -20409 
  -20283   -20058   -19885   -19978   -20345   -20777   -20872   -20645 
  -20560   -20569   -20518   -20572   -20571   -20463   -20513   -20613 
  -20625   -20582   -20422   -20287   -20382   -20602   -20734   -20709 
  -20579   -20467   -20538   -20750   -20727   -20332   -20020   -20193 
  -20622   -20799   -20598   -20379   -20372   -20476   -20644   -20807 
  -20738   -20453   -20202   -20055   -20048   -20279   -20557   -20583 
  -20445   -20359   -20355   -20463   -20580   -20487   -20368   -20452 
  -20439   -20339   -20494   -20652   -20663   -20717   -20569   -20214 
  -20051   -20136   -20326   -20374   -20231   -20271   -20507   -20607 
  -20464   -20297   -20456   -20798   -20888   -20676   -20281   -19984 
  -20011   -20170   -20409   -20761   -21018   -21088   -20992   -20807 
  -20646   -20432   -20213   -20146   -20121   -20158   -20362   -20474 
  -20336   -20202   -20258   -20495   -20881   -21323   -21532   -21269 
  -20772   -20378   -20077   -19845   -19754   -19834   -20121   -20506 
  -20695   -20606   -20376   -20155   -20100   -20295   -20725   -21209 
  -21347   -21051   -20637   -20202   -19894   -19961   -20129   -20152 
  -20224   -20344   -20457   -20660   -20750   -20564   -20331   -20248 
  -20409   -20668   -20621   -20395   -20414   -20521   -20520   -20553 
  -20702   -20850   -20730   -20376   -20182   -20181   -20212   -20308 
  -20333   -20209   -20239   -20498   -20603   -20447   -20320   -20254 
  -20124   -20160   -20520   -20834   -20775   -20518   -20386   -20428 
  -20456   -20430   -20470   -20505   -20466   -20483   -20521   -20436 
  -20316   -20367   -20582   -20671   -20540   -20538   -20893   -21243 
  -21134   -20617   -20104   -19946   -20174   -20479   -20571   -20436 
  -20247   -20250   -20436   -20555   -20498   -20333   -20213   -20325 
  -20687   -21058   -21161   -21037   -20876   -20761   -20760   -20691 
  -20367   -20040   -19911   -19953   -20133   -20306   -20355   -20347 
  -20445   -20683   -20756   -20538   -20305   -20110   -19993   -20209 
  -20602   -20769   -20699   -20536   -20383   -20336   -20367   -20433 
  -20471   -20368   -20162   -19988   -19897   -19851   -19924   -20272 
  -20717   -20946   -21011   -20989   -20785   -20463   -20275   -20289 
  -20308   -20325   -20463   -20613   -20641   -20565   -20596   -20860 
  -20983   -20737   -20437   -20281   -20329   -20583   -20852   -21016 
  -20923   -20521   -20200   -20171   -20214   -20220   -20262   -20382 
  -20490   -20449   -20283   -20140   -20177   -20424   -20679   -20722 
  -20552   -20356   -20326   -20374   -20295   -20169   -20139   -20198 
  -20390   -20688   -20872   -20895   -20881   -20860   -20785   -20640 
  -20443   -20239   -20127   -20209   -20366   -20421   -20425   -20378 
  -20236   -20243   -20503   -20734   -20844   -20883   -20717   -20405 
  -20228   -20251   -20389   -20530   -20529   -20418   -20376   -20406 
