Origin Time       2025/03/30 21:30:00
Lat.              38.535
Long.             142.295
Depth. (km)       44
Mag.              4.3
Station Code      MYGH09
Station Lat.      38.0091
Station Long.     140.6027
Station Height(m) 130
Record Time       2025/03/30 21:31:38
Sampling Freq(Hz) 100Hz
Duration Time(s)  120
Dir.              6
Scale Factor      7845(gal)/8223790
Max. Acc. (gal)   0.606
Last Correction   2025/03/30 21:31:38
Memo.             
[...]
  -14686   -14683   -14685   -14577   -14490   -14588   -14728   -14702 
  -14562   -14499   -14520   -14527   -14542   -14569   -14563   -14581 
  -14629   -14639   -14629   -14639   -14635   -14577   -14499   -14504 
  -14621   -14717   -14661   -14499   -14416   -14489   -14600   -14638 
  -14621   -14611   -14609   -14589   -14534   -14499   -14551   -14621 
  -14635   -14612   -14561   -14526   -14531   -14532   -14548   -14561 
  -14532   -14532   -14613   -14717   -14747   -14701   -14634   -14575 
  -14561   -14570   -14559   -14540   -14542   -14561   -14592   -14619 
  -14613   -14565   -14544   -14613   -14728   -14777   -14661   -14490 
  -14493   -14629   -14673   -14551   -14415   -14470   -14592   -14488 
  -14361   -14562   -14791   -14698   -14567   -14609   -14638   -14624 
  -14658   -14646   -14554   -14509   -14528   -14516   -14504   -14551 
  -14602   -14605   -14593   -14629   -14690   -14674   -14586   -14543 
  -14602   -14667   -14590   -14440   -14469   -14652   -14683   -14561 
  -14553   -14627   -14631   -14617   -14609   -14563   -14532   -14550 
  -14544   -14508   -14571   -14658   -14589   -14569   -14719   -14727 
  -14536   -14455   -14527   -14554   -14536   -14589   -14665   -14675 
  -14604   -14490   -14451   -14562   -14717   -14704   -14500   -14400 
  -14569   -14737   -14682   -14557   -14561   -14621   -14601   -14566 
  -14555   -14551   -14608   -14642   -14550   -14527   -14662   -14709 
  -14607   -14558   -14566   -14520   -14467   -14501   -14632   -14705 
  -14615   -14542   -14589   -14661   -14701   -14625   -14494   -14509 
  -14573   -14526   -14530   -14634   -14638   -14559   -14578   -14619 
  -14551   -14507   -14580   -14619   -14566   -14561   -14674   -14754 
  -14646   -14515   -14519   -14521   -14505   -14601   -14673   -14600 
  -14575   -14648   -14623   -14526   -14547   -14650   -14663   -14573 
  -14512   -14531   -14571   -14619   -14688   -14706   -14627   -14526 
  -14499   -14548   -14620   -14670   -14669   -14574   -14439   -14442 
  -14592   -14674   -14605   -14505   -14462   -14447   -14489   -14654 
  -14786   -14694   -14563   -14597   -14646   -14609   -14588   -14582 
  -14532   -14467   -14439   -14508   -14659   -14719   -14592   -14480 
  -14540   -14661   -14702   -14652   -14589   -14607   -14682   -14705 
  -14640   -14538   -14463   -14472   -14543   -14594   -14582   -14558 
  -14592   -14581   -14481   -14486   -14602   -14643   -14617   -14584 
  -14555   -14586   -14629   -14620   -14625   -14650   -14598   -14485 
  -14435   -14528   -14636   -14567   -14458   -14555   -14715   -14677 
  -14577   -14640   -14715   -14635   -14554   -14584   -14659   -14666 
  -14536   -14399   -14434   -14557   -14598   -14620   -14700   -14709 
  -14623   -14578   -14585   -14608   -14593   -14453   -14370   -14535 
  -14675   -14555   -14438   -14519   -14643   -14673   -14646   -14639 
  -14646   -14624   -14585   -14577   -14604   -14613   -14554   -14476 
  -14492   -14613   -14683   -14605   -14535   -14619   -14729   -14742 
  -14725   -14698   -14584   -14494   -14546   -14565   -14494   -14524 
  -14586   -14527   -14480   -14562   -14697   -14708   -14532   -14451 
  -14598   -14671   -14590   -14546   -14535   -14546   -14615   -14624 
  -14517   -14481   -14598   -14658   -14585   -14608   -14739   -14694 
  -14469   -14350   -14451   -14601   -14621   -14570   -14567   -14621 
  -14712   -14750   -14694   -14689   -14677   -14508   -14418   -14550 
  -14632   -14535   -14466   -14542   -14585   -14517   -14492   -14530 
  -14580   -14675   -14736   -14702   -14671   -14652   -14605   -14596 
  -14611   -14562   -14509   -14531   -14589   -14646   -14656   -14584 
  -14523   -14534   -14482   -14359   -14416   -14694   -14831   -14673 
  -14553   -14629   -14601   -14458   -14512   -14666   -14634   -14505 
  -14484   -14544   -14627   -14663   -14578   -14505   -14573   -14644 
  -14631   -14575   -14505   -14484   -14523   -14551   -14547   -14543 
  -14555   -14605   -14689   -14709   -14624   -14582   -14675   -14764 
  -14719   -14588   -14524   -14629   -14756   -14685   -14500   -14408 
  -14443   -14521   -14535   -14511   -14540   -14573   -14605   -14670 
  -14652   -14554   -14542   -14612   -14658   -14651   -14624   -14647 
  -14690   -14635   -14474   -14343   -14427   -14669   -14729   -14594 
  -14571   -14634   -14521   -14373   -14527   -14771   -14700   -14523 
  -14574   -14671   -14613   -14512   -14484   -14519   -14581   -14608 
  -14571   -14528   -14555   -14652   -14731   -14725   -14636   -14476 
  -14365   -14423   -14557   -14593   -14542   -14538   -14593   -14602 
  -14586   -14620   -14706   -14779   -14710   -14532   -14490   -14661 
  -14825   -14763   -14511   -14368   -14486   -14623   -14593   -14534 
  -14555   -14559   -14526   -14616   -14777   -14743   -14643   -14694 
  -14658   -14467   -14408   -14465   -14493   -14536   -14585   -14600 
  -14652   -14739   -14694   -14511   -14418   -14489   -14590   -14654 
  -14652   -14574   -14527   -14539   -14561   -14589   -14588   -14547 
  -14489   -14431   -14515   -14693   -14689   -14550   -14530   -14627 
  -14667   -14609   -14592   -14669   -14656   -14540   -14575   -14708 
  -14640   -14440   -14373   -14432   -14515   -14598   -14616   -14574 
  -14611   -14720   -14763   -14740   -14731   -14720   -14694   -14640 
  -14544   -14512   -14598   -14643   -14569   -14507   -14543   -14569 
  -14504   -14485   -14551   -14557   -14524   -14584   -14710   -14736 
  -14590   -14493   -14553   -14565   -14523   -14532   -14554   -14590 
  -14562   -14463   -14515   -14670   -14651   -14486   -14453   -14608 
  -14698   -14598   -14477   -14494   -14586   -14580   -14503   -14536 
  -14686   -14737   -14600   -14527   -14662   -14797   -14843   -14804 
  -14616   -14439   -14426   -14454   -14492   -14558   -14547   -14548 
  -14692   -14751   -14588   -14507   -14677   -14743   -14527   -14401 
  -14582   -14778   -14727   -14535   -14490   -14628   -14647   -14490 
  -14422   -14517   -14644   -14659   -14577   -14573   -14628   -14554 
  -14434   -14443   -14500   -14521   -14613   -14724   -14677   -14586 
  -14590   -14615   -14602   -14527   -14435   -14480   -14601   -14625 
  -14602   -14627   -14635   -14636   -14667   -14538   -14303   -14388 
  -14674   -14693   -14605   -14689   -14769   -14747   -14706   -14682 
  -14640   -14493   -14376   -14465   -14613   -14673   -14631   -14548 
  -14562   -14623   -14582   -14493   -14517   -14619   -14621   -14562 
  -14553   -14536   -14526   -14557   -14562   -14566   -14596   -14547 
  -14486   -14602   -14787   -14769   -14608   -14575   -14655   -14639 
  -14542   -14519   -14578   -14608   -14534   -14474   -14567   -14681 
  -14638   -14559   -14632   -14724   -14623   -14532   -14667   -14762 
  -14578   -14362   -14418   -14634   -14675   -14480   -14343   -14497 
  -14686   -14589   -14422   -14503   -14659   -14665   -14604   -14582 
  -14607   -14639   -14594   -14539   -14571   -14611   -14589   -14534 
  -14524   -14621   -14731   -14731   -14661   -14620   -14607   -14562 
  -14548   -14592   -14573   -14530   -14602   -14702   -14669   -14567 
  -14520   -14511   -14555   -14702   -14773   -14629   -14489   -14543 
  -14634   -14596   -14553   -14594   -14559   -14451   -14473   -14550 
  -14512   -14469   -14542   -14617   -14563   -14507   -14615   -14670 
  -14535   -14490   -14605   -14650   -14634   -14619   -14528   -14472 
  -14578   -14655   -14598   -14584   -14613   -14582   -14623   -14782 
  -14786   -14578   -14469   -14550   -14598   -14539   -14524   -14631 
  -14692   -14628   -14588   -14608   -14611   -14613   -14620   -14604 
  -14598   -14581   -14513   -14500   -14584   -14665   -14688   -14650 
  -14571   -14497   -14451   -14447   -14505   -14600   -14638   -14611 
  -14631   -14705   -14702   -14602   -14520   -14530   -14580   -14585 
  -14563   -14586   -14602   -14539   -14496   -14561   -14580   -14450 
  -14357   -14461   -14650   -14758   -14740   -14602   -14496   -14567 
  -14577   -14440   -14509   -14698   -14659   -14574   -14663   -14742 
  -14692   -14613   -14548   -14486   -14446   -14447   -14505   -14588 
  -14643   -14662   -14667   -14710   -14770   -14728   -14625   -14592 
  -14561   -14496   -14532   -14615   -14571   -14477   -14515   -14659 
  -14733   -14690   -14621   -14531   -14446   -14508   -14602   -14547 
  -14462   -14462   -14532   -14651   -14701   -14623   -14563   -14613 
  -14650   -14594   -14597   -14689   -14642   -14474   -14465   -14581 
  -14581   -14459   -14376   -14455   -14678   -14785   -14640   -14542 
  -14690   -14769   -14542   -14339   -14494   -14764   -14790   -14704 
  -14694   -14667   -14642   -14697   -14696   -14597   -14532   -14485 
  -14415   -14399   -14431   -14447   -14511   -14658   -14729   -14602 
  -14458   -14527   -14735   -14785   -14584   -14408   -14481   -14608 
  -14553   -14499   -14616   -14670   -14590   -14602   -14620   -14535 
  -14557   -14636   -14596   -14516   -14480   -14542   -14683   -14709 
  -14631   -14650   -14706   -14612   -14465   -14504   -14674   -14697 
  -14570   -14566   -14694   -14700   -14585   -14532   -14501   -14423 
  -14416   -14470   -14505   -14593   -14661   -14573   -14503   -14578 
  -14675   -14702   -14635   -14535   -14497   -14507   -14557   -14674 
  -14736   -14605   -14430   -14450   -14604   -14702   -14719   -14696 
  -14683   -14658   -14555   -14531   -14623   -14578   -14443   -14447 
  -14504   -14547   -14670   -14778   -14727   -14648   -14720   -14754 
  -14575   -14447   -14501   -14508   -14439   -14455   -14565   -14661 
  -14643   -14561   -14553   -14625   -14690   -14685   -14585   -14492 
  -14478   -14481   -14535   -14666   -14636   -14423   -14404   -14654 
  -14778   -14639   -14536   -14611   -14674   -14621   -14586   -14629 
  -14636   -14575   -14570   -14570   -14455   -14395   -14507   -14577 
  -14539   -14558   -14607   -14620   -14692   -14769   -14728   -14662 
  -14650   -14609   -14563   -14644   -14746   -14594   -14315   -14316 
  -14574   -14701   -14625   -14586   -14621   -14634   -14615   -14538 
  -14463   -14488   -14523   -14493   -14484   -14574   -14683   -14659 
  -14528   -14492   -14574   -14600   -14563   -14604   -14638   -14573 
  -14517   -14484   -14493   -14632   -14704   -14574   -14535   -14673 
  -14700   -14604   -14619   -14663   -14582   -14565   -14692   -14701 
  -14562   -14504   -14559   -14651   -14713   -14683   -14596   -14535 
  -14570   -14670   -14656   -14493   -14397   -14508   -14658   -14629 
  -14543   -14575   -14648   -14705   -14698   -14523   -14399   -14538 
  -14666   -14625   -14577   -14516   -14485   -14586   -14611   -14493 
  -14486   -14592   -14646   -14652   -14656   -14666   -14643   -14554 
  -14482   -14481   -14482   -14463   -14455   -14493   -14592   -14682 
  -14700   -14640   -14569   -14604   -14631   -14493   -14450   -14632 
  -14725   -14647   -14571   -14528   -14523   -14539   -14526   -14586 
  -14704   -14670   -14566   -14598   -14636   -14557   -14557   -14673 
  -14736   -14752   -14727   -14624   -14585   -14631   -14612   -14548 
  -14539   -14555   -14544   -14550   -14601   -14651   -14627   -14561 
  -14589   -14646   -14600   -14555   -14573   -14557   -14523   -14546 
  -14577   -14561   -14526   -14477   -14462   -14530   -14513   -14412 
  -14508   -14700   -14652   -14527   -14597   -14719   -14667   -14544 
  -14534   -14539   -14459   -14455   -14555   -14592   -14627   -14775 
  -14840   -14662   -14488   -14547   -14683   -14702   -14621   -14532 
  -14519   -14534   -14508   -14508   -14527   -14524   -14582   -14696 
  -14712   -14646   -14685   -14779   -14698   -14526   -14547   -14677 
  -14646   -14521   -14492   -14536   -14554   -14519   -14511   -14598 
  -14697   -14663   -14535   -14488   -14561   -14598   -14563   -14574 
  -14601   -14539   -14524   -14629   -14655   -14577   -14577   -14621 
  -14608   -14600   -14585   -14521   -14527   -14566   -14507   -14480 
  -14608   -14763   -14779   -14655   -14548   -14538   -14548   -14582 
  -14650   -14654   -14592   -14586   -14643   -14646   -14598   -14586 
  -14566   -14493   -14442   -14458   -14539   -14646   -14644   -14547 
  -14574   -14705   -14710   -14640   -14642   -14651   -14640   -14636 
  -14546   -14385   -14315   -14396   -14561   -14656   -14605   -14539 
  -14553   -14597   -14693   -14808   -14763   -14567   -14435   -14462 
  -14555   -14588   -14548   -14553   -14613   -14605   -14485   -14391 
  -14431   -14500   -14467   -14501   -14747   -14918   -14797   -14619 
  -14589   -14640   -14654   -14550   -14462   -14592   -14739   -14639 
  -14497   -14570   -14755   -14818   -14675   -14493   -14551   -14728 
  -14623   -14365   -14376   -14540   -14538   -14434   -14476   -14700 
  -14821   -14663   -14540   -14663   -14725   -14536   -14368   -14442 
  -14597   -14584   -14459   -14424   -14465   -14520   -14593   -14592 
  -14546   -14584   -14650   -14767   -14953   -14867   -14477   -14310 
  -14463   -14557   -14540   -14575   -14643   -14627   -14469   -14319 
  -14388   -14597   -14709   -14717   -14750   -14748   -14624   -14497 
  -14480   -14490   -14507   -14590   -14669   -14683   -14686   -14681 
  -14642   -14586   -14542   -14538   -14557   -14615   -14736   -14740 
  -14536   -14416   -14534   -14654   -14689   -14717   -14648   -14543 
  -14611   -14771   -14856   -14835   -14705   -14601   -14580   -14372 
  -13991   -13950   -14278   -14477   -14477   -14490   -14597   -14832 
  -15001   -14893   -14758   -14812   -14832   -14678   -14473   -14334 
  -14319   -14341   -14289   -14299   -14446   -14547   -14565   -14697 
  -14935   -14987   -14746   -14516   -14563   -14701   -14656   -14493 
  -14412   -14453   -14593   -14689   -14516   -14242   -14269   -14586 
  -14868   -14898   -14698   -14535   -14607   -14693   -14582   -14511 
  -14679   -14914   -14925   -14698   -14581   -14640   -14505   -14189 
  -14029   -14072   -14243   -14428   -14528   -14667   -14851   -14885 
  -14841   -14856   -14843   -14782   -14743   -14715   -14710   -14736 
  -14671   -14422   -14177   -14277   -14609   -14679   -14472   -14418 
  -14619   -14787   -14719   -14480   -14322   -14478   -14779   -14783 
  -14501   -14350   -14446   -14582   -14582   -14461   -14384   -14419 
  -14499   -14528   -14447   -14400   -14571   -14833   -14935   -14840 
  -14723   -14769   -14936   -14955   -14638   -14272   -14345   -14648 
  -14650   -14490   -14485   -14466   -14327   -14305   -14540   -14829 
  -14920   -14837   -14728   -14654   -14574   -14465   -14455   -14555 
  -14575   -14569   -14678   -14713   -14588   -14488   -14389   -14226 
  -14220   -14428   -14623   -14783   -14878   -14766   -14677   -14774 
  -14783   -14627   -14478   -14399   -14447   -14623   -14770   -14825 
  -14812   -14717   -14577   -14395   -14210   -14242   -14492   -14615 
  -14604   -14683   -14724   -14600   -14527   -14636   -14766   -14787 
  -14751   -14671   -14516   -14351   -14274   -14339   -14476   -14482 
  -14443   -14617   -14786   -14677   -14512   -14474   -14555   -14728 
  -14801   -14732   -14686   -14644   -14617   -14685   -14694   -14534 
  -14403   -14497   -14681   -14635   -14395   -14350   -14571   -14671 
  -14523   -14430   -14515   -14601   -14574   -14581   -14781   -14889 
  -14708   -14558   -14532   -14520   -14598   -14673   -14598   -14482 
  -14474   -14539   -14558   -14567   -14612   -14598   -14551   -14538 
  -14555   -14609   -14643   -14601   -14519   -14427   -14365   -14327 
  -14395   -14669   -14847   -14705   -14636   -14798   -14837   -14661 
  -14508   -14543   -14702   -14760   -14631   -14473   -14477   -14656 
  -14804   -14732   -14544   -14477   -14497   -14470   -14538   -14732 
  -14758   -14598   -14516   -14558   -14623   -14636   -14643   -14728 
  -14752   -14613   -14497   -14516   -14544   -14467   -14334   -14301 
  -14416   -14519   -14422   -14272   -14457   -14841   -14878   -14666 
  -14647   -14719   -14673   -14589   -14484   -14399   -14411   -14405 
  -14320   -14289   -14418   -14652   -14851   -14882   -14770   -14716 
  -14808   -14844   -14702   -14563   -14563   -14613   -14613   -14548 
  -14453   -14399   -14455   -14616   -14743   -14763   -14771   -14789 
  -14754   -14689   -14584   -14450   -14403   -14462   -14557   -14623 
  -14608   -14520   -14446   -14467   -14509   -14528   -14669   -14809 
  -14694   -14539   -14531   -14492   -14473   -14590   -14654   -14546 
  -14454   -14532   -14592   -14466   -14374   -14459   -14566   -14600 
  -14621   -14731   -14850   -14785   -14607   -14539   -14594   -14644 
  -14615   -14466   -14324   -14430   -14600   -14524   -14476   -14663 
  -14791   -14764   -14727   -14700   -14693   -14667   -14570   -14520 
  -14553   -14540   -14521   -14578   -14602   -14566   -14517   -14458 
  -14544   -14796   -14847   -14661   -14581   -14573   -14497   -14531 
  -14593   -14440   -14310   -14481   -14694   -14705   -14675   -14702 
  -14677   -14557   -14443   -14459   -14488   -14378   -14343   -14531 
  -14689   -14651   -14516   -14418   -14436   -14546   -14689   -14847 
  -14935   -14918   -14825   -14661   -14531   -14472   -14364   -14353 
  -14538   -14581   -14431   -14472   -14715   -14841   -14793   -14731 
  -14665   -14569   -14543   -14617   -14654   -14521   -14370   -14466 
  -14675   -14643   -14504   -14638   -14805   -14571   -14335   -14593 
  -14908   -14743   -14391   -14364   -14534   -14485   -14301   -14337 
  -14538   -14652   -14694   -14759   -14764   -14643   -14482   -14420 
  -14503   -14602   -14592   -14575   -14654   -14701   -14665   -14597 
  -14478   -14404   -14527   -14694   -14698   -14623   -14647   -14747 
  -14723   -14504   -14341   -14488   -14760   -14787   -14597   -14501 
  -14594   -14732   -14750   -14594   -14493   -14651   -14755   -14523 
  -14310   -14428   -14659   -14683   -14536   -14499   -14590   -14615 
  -14580   -14542   -14458   -14485   -14720   -14816   -14584   -14412 
  -14517   -14605   -14508   -14432   -14527   -14673   -14702   -14613 
  -14575   -14681   -14719   -14540   -14395   -14500   -14723   -14860 
  -14798   -14584   -14439   -14440   -14445   -14440   -14497   -14566 
  -14569   -14526   -14544   -14640   -14638   -14532   -14531   -14611 
  -14662   -14710   -14683   -14558   -14539   -14669   -14754   -14727 
  -14685   -14651   -14557   -14450   -14435   -14438   -14401   -14446 
  -14557   -14575   -14542   -14590   -14678   -14727   -14739   -14715 
  -14679   -14670   -14621   -14496   -14380   -14301   -14262   -14331 
  -14480   -14586   -14621   -14608   -14607   -14709   -14850   -14867 
  -14787   -14752   -14727   -14581   -14428   -14470   -14635   -14724 
  -14686   -14551   -14427   -14470   -14620   -14615   -14431   -14400 
  -14604   -14661   -14524   -14558   -14713   -14720   -14648   -14625 
  -14667   -14783   -14860   -14740   -14526   -14465   -14527   -14500 
  -14408   -14374   -14418   -14500   -14562   -14601   -14661   -14696 
  -14625   -14512   -14535   -14666   -14702   -14600   -14492   -14515 
  -14625   -14617   -14474   -14392   -14423   -14469   -14489   -14493 
  -14496   -14546   -14615   -14631   -14635   -14652   -14646   -14686 
  -14782   -14790   -14698   -14620   -14558   -14461   -14395   -14470 
