Origin Time       2025/03/30 21:30:00
Lat.              38.535
Long.             142.295
Depth. (km)       44
Mag.              4.3
Station Code      MYGH09
Station Lat.      38.0091
Station Long.     140.6027
Station Height(m) 30
Record Time       2025/03/30 21:31:38
Sampling Freq(Hz) 100Hz
Duration Time(s)  120
Dir.              3
Scale Factor      2942(gal)/8224139
Max. Acc. (gal)   0.123
Last Correction   2025/03/30 21:31:38
Memo.             
[...]
   91779    91858    91924    91914    91882    91847    91783    91770 
   91816    91839    91847    91840    91809    91801    91828    91883 
   91921    91876    91814    91825    91867    91885    91897    91928 
   91925    91875    91866    91894    91863    91783    91748    91809 
   91898    91902    91859    91868    91882    91835    91785    91812 
   91891    91909    91859    91835    91837    91854    91894    91878 
   91783    91743    91789    91844    91871    91837    91775    91786 
   91848    91852    91808    91824    91897    91944    91957    91943 
   91928    91921    91863    91785    91762    91781    91813    91862 
   91906    91920    91863    91785    91809    91881    91871    91825 
   91836    91872    91879    91875    91870    91855    91837    91785 
   91736    91805    91914    91929    91854    91782    91774    91760 
   91725    91740    91775    91817    91895    91956    91989    92029 
   91998    91866    91778    91802    91851    91874    91859    91844 
   91856    91872    91889    91883    91849    91836    91841    91828 
   91832    91879    91876    91809    91795    91840    91841    91808 
   91773    91725    91696    91729    91778    91789    91817    91874 
   91867    91829    91837    91858    91848    91786    91728    91809 
   91951    91972    91933    91922    91933    91947    91903    91821 
   91793    91812    91863    91899    91870    91852    91867    91824 
   91770    91816    91909    91953    91936    91920    91937    91922 
   91858    91778    91721    91725    91747    91754    91814    91891 
   91912    91898    91862    91833    91821    91781    91754    91789 
   91859    91930    91960    91925    91864    91822    91818    91840 
   91845    91837    91864    91890    91829    91746    91724    91724 
   91729    91770    91806    91840    91957    92071    92011    91856 
   91786    91793    91793    91828    91912    91937    91891    91866 
   91886    91920    91928    91862    91752    91728    91805    91890 
   91936    91916    91872    91906    91967    91968    91929    91886 
   91855    91820    91783    91785    91786    91790    91835    91835 
   91774    91759    91817    91891    91889    91797    91725    91746 
   91829    91905    91902    91845    91825    91820    91814    91840 
   91844    91825    91854    91889    91893    91903    91887    91810 
   91741    91725    91743    91783    91854    91879    91829    91843 
   91914    91901    91843    91843    91910    91921    91845    91845 
   91898    91860    91786    91748    91782    91901    91980    91913 
   91808    91790    91832    91887    91920    91866    91764    91736 
   91840    91990    92061    92056    91998    91899    91833    91825 
   91840    91833    91785    91747    91743    91770    91851    91913 
   91864    91758    91713    91783    91885    91881    91793    91766 
   91809    91854    91895    91899    91832    91733    91727    91818 
   91831    91779    91806    91840    91844    91891    91928    91903 
   91871    91828    91756    91733    91821    91924    91959    91975 
   91945    91852    91828    91860    91843    91818    91790    91767 
   91833    91925    91974    91978    91908    91856    91910    91968 
   91909    91793    91791    91886    91885    91813    91835    91879 
   91841    91817    91881    91952    91970    91914    91797    91716 
   91767    91847    91808    91719    91736    91816    91839    91820 
   91793    91778    91806    91798    91709    91648    91659    91681 
   91693    91754    91854    91914    91943    91948    91921    91867 
   91789    91795    91891    91894    91862    91902    91912    91913 
   91940    91924    91905    91898    91868    91868    91943    92025 
   92002    91913    91889    91963    92011    91926    91833    91836 
   91862    91856    91808    91771    91785    91779    91760    91741 
   91720    91773    91841    91855    91871    91889    91883    91871 
   91806    91698    91651    91709    91794    91820    91808    91866 
   91945    91908    91810    91773    91805    91840    91801    91751 
   91786    91854    91874    91836    91816    91851    91843    91802 
   91831    91875    91928    92007    92005    91913    91845    91848 
   91872    91849    91806    91816    91893    91979    91989    91956 
   91953    91928    91844    91777    91747    91717    91748    91914 
   92064    92022    91897    91840    91806    91756    91725    91737 
   91770    91773    91824    91926    91937    91893    91844    91779 
   91750    91728    91704    91717    91795    91903    91953    91984 
   91995    91916    91840    91821    91800    91790    91827    91866 
   91858    91879    91920    91864    91813    91839    91817    91756 
   91743    91779    91829    91832    91793    91790    91832    91863 
   91901    91936    91894    91798    91747    91775    91827    91814 
   91746    91735    91840    91943    91944    91914    91898    91908 
   91929    91890    91841    91891    91972    91974    91929    91901 
   91889    91882    91874    91872    91878    91899    91916    91835 
   91735    91766    91821    91779    91736    91782    91863    91876 
   91839    91836    91849    91835    91809    91759    91674    91627 
   91656    91716    91800    91874    91832    91747    91778    91866 
   91875    91848    91860    91882    91871    91868    91918    91939 
   91890    91876    91902    91890    91854    91833    91839    91849 
   91864    91935    92020    92028    91989    91949    91914    91910 
   91917    91874    91835    91852    91835    91777    91798    91843 
   91766    91659    91705    91821    91848    91839    91881    91910 
   91856    91779    91743    91724    91727    91763    91805    91847 
   91868    91825    91795    91862    91917    91920    91916    91851 
   91748    91721    91779    91860    91895    91887    91879    91867 
   91854    91847    91798    91732    91741    91822    91897    91917 
   91882    91849    91839    91840    91875    91885    91805    91755 
   91831    91955    92010    91960    91876    91832    91860    91960 
   91972    91889    91895    91939    91908    91882    91868    91798 
   91727    91728    91787    91867    91925    91926    91940    91983 
   91979    91924    91839    91748    91681    91616    91613    91756 
   91897    91898    91870    91839    91762    91759    91828    91808 
   91728    91673    91623    91627    91763    91960    92053    92026 
   92006    92021    92002    91918    91774    91662    91678    91768 
   91867    91957    91999    91976    91921    91889    91912    91889 
   91786    91743    91791    91864    91948    91955    91835    91779 
   91872    91918    91828    91775    91858    91930    91886    91820 
   91773    91702    91685    91752    91783    91741    91728    91756 
   91785    91827    91855    91851    91881    91924    91897    91831 
   91820    91883    91939    91922    91902    91925    91926    91905 
   91901    91893    91895    91889    91831    91791    91801    91806 
   91821    91836    91848    91870    91883    91910    91891    91820 
   91833    91870    91809    91721    91714    91820    91922    91895 
   91822    91822    91808    91724    91713    91800    91843    91859 
   91937    92009    92021    92007    91912    91773    91760    91840 
   91891    91891    91870    91890    91917    91901    91909    91918 
   91852    91743    91678    91721    91839    91906    91897    91863 
   91831    91833    91841    91806    91751    91712    91727    91797 
   91885    91943    91921    91833    91770    91764    91778    91762 
   91729    91759    91863    91939    91952    91968    91984    91949 
   91855    91760    91732    91752    91760    91737    91736    91818 
   91962    92068    92102    92057    91937    91855    91872    91895 
   91843    91759    91732    91785    91840    91863    91866    91822 
   91767    91778    91829    91818    91779    91836    91909    91860 
   91805    91852    91885    91851    91848    91841    91763    91735 
   91795    91808    91771    91789    91837    91848    91863    91933 
   91975    91889    91755    91740    91805    91805    91778    91818 
   91914    91976    91982    91995    91990    91945    91882    91798 
   91773    91832    91891    91902    91883    91876    91891    91924 
   91948    91903    91848    91864    91875    91851    91881    91922 
   91864    91747    91716    91773    91825    91901    91943    91833 
   91735    91778    91810    91820    91844    91781    91683    91692 
   91775    91844    91854    91805    91786    91851    91871    91806 
   91787    91805    91777    91754    91758    91754    91794    91886 
   91929    91936    91949    91936    91932    91945    91897    91832 
   91829    91875    91903    91894    91906    91916    91858    91806 
   91814    91849    91893    91925    91917    91889    91894    91935 
   91930    91840    91790    91833    91848    91851    91898    91910 
   91864    91837    91855    91875    91866    91839    91808    91795 
   91817    91831    91816    91805    91812    91829    91868    91899 
   91863    91783    91706    91696    91766    91777    91714    91714 
   91791    91876    91916    91882    91805    91756    91747    91767 
   91817    91813    91773    91797    91840    91895    91955    91906 
   91801    91771    91804    91844    91885    91901    91872    91876 
   91968    92051    92029    91959    91932    91893    91821    91818 
   91883    91898    91872    91881    91914    91940    91943    91930 
   91881    91783    91771    91897    91984    91962    91891    91821 
   91810    91831    91827    91843    91828    91751    91768    91847 
   91810    91731    91735    91729    91683    91725    91818    91818 
   91752    91720    91743    91831    91893    91829    91751    91768 
   91801    91785    91787    91831    91860    91872    91895    91917 
   91920    91914    91914    91891    91828    91806    91883    91944 
   91916    91875    91828    91787    91829    91872    91864    91889 
   91917    91902    91868    91806    91756    91758    91790    91860 
   91922    91895    91828    91816    91832    91808    91781    91800 
   91795    91766    91818    91921    91956    91933    91885    91831 
   91840    91858    91800    91752    91743    91710    91717    91789 
   91836    91867    91921    91971    91986    91937    91844    91809 
   91844    91847    91812    91820    91858    91867    91870    91867 
   91854    91858    91872    91913    91922    91833    91756    91798 
   91889    91947    91987    92060    92088    91947    91740    91678 
   91748    91832    91868    91840    91827    91898    91937    91864 
   91791    91791    91802    91746    91648    91632    91737    91827 
   91804    91831    91995    92059    91947    91852    91848    91866 
   91805    91704    91724    91802    91794    91775    91827    91918 
   91993    91975    91874    91820    91847    91871    91872    91870 
   91910    91970    91949    91943    92011    91943    91766    91750 
   91837    91841    91839    91870    91859    91818    91794    91827 
   91917    91960    91929    91889    91847    91770    91705    91763 
   91921    92009    91980    91918    91839    91756    91694    91636 
   91623    91706    91816    91862    91876    91910    91941    91918 
   91854    91820    91831    91814    91748    91708    91763    91854 
   91876    91844    91790    91713    91687    91728    91729    91686 
   91737    91971    92182    92161    92079    92053    91971    91867 
   91781    91677    91666    91762    91793    91766    91804    91885 
   91963    92020    92034    92049    92068    92060    92055    92037 
   91952    91801    91670    91685    91787    91816    91782    91756 
   91710    91636    91605    91600    91565    91652    91899    92038 
   91953    91824    91829    91929    91945    91847    91787    91827 
   91871    91852    91767    91633    91559    91629    91746    91836 
   91937    91990    92016    92083    92113    92070    91983    91863 
   91763    91712    91760    91941    92097    92084    91987    91875 
   91789    91764    91779    91864    91932    91821    91697    91746 
   91841    91833    91725    91640    91677    91802    91887    91836 
   91747    91746    91798    91875    91956    92001    92021    92003 
   91952    91928    91917    91921    91980    92005    91912    91801 
   91754    91758    91754    91709    91665    91689    91812    91887 
   91840    91854    91917    91874    91801    91822    91887    91844 
   91687    91574    91554    91577    91643    91736    91875    92053 
   92153    92137    92063    91940    91814    91764    91748    91748 
   91854    92003    92057    92006    91885    91763    91736    91724 
   91675    91733    91841    91839    91840    91929    91984    91921 
   91782    91663    91635    91704    91828    91975    92119    92136 
   92014    91925    91864    91751    91687    91752    91841    91847 
   91782    91690    91604    91620    91764    91893    91902    91849 
   91848    91913    91935    91862    91793    91813    91944    92080 
   92061    91970    91933    91876    91817    91806    91763    91731 
   91809    91952    92022    91928    91795    91836    91968    91951 
   91800    91732    91794    91863    91852    91837    91929    91971 
   91860    91702    91528    91503    91692    91847    91926    91943 
   91891    91921    91998    92016    91963    91854    91814    91870 
   91894    91848    91763    91723    91795    91918    91999    91979 
   91874    91777    91732    91793    91924    91952    91863    91787 
   91770    91814    91874    91866    91821    91762    91712    91740 
   91778    91779    91841    91951    91991    91968    91918    91791 
   91644    91633    91697    91667    91563    91548    91700    91894 
   91987    92044    92121    92090    91945    91854    91845    91883 
   91956    91972    91890    91825    91886    91943    91828    91682 
   91677    91705    91746    91916    92109    92160    92095    91983 
   91875    91837    91889    91945    91901    91804    91789    91868 
   91959    91972    91901    91795    91709    91671    91655    91647 
   91671    91719    91764    91785    91746    91709    91724    91743 
   91773    91821    91828    91851    91953    92041    92044    92001 
   91949    91875    91800    91783    91782    91759    91778    91762 
   91693    91775    91936    91939    91893    91930    91998    92051 
   92010    91874    91801    91831    91871    91862    91817    91781 
   91764    91774    91774    91740    91771    91920    92075    92124 
   92057    91945    91890    91948    92007    91963    91887    91805 
   91731    91732    91728    91690    91689    91671    91608    91579 
   91636    91783    91944    91975    91891    91855    91878    91874 
   91872    91893    91845    91760    91736    91732    91721    91750 
   91795    91876    92025    92132    92067    91871    91700    91659 
   91700    91727    91804    91984    92094    92048    92007    92026 
   92006    91916    91809    91758    91785    91867    91975    92030 
   91991    91930    91862    91737    91663    91737    91868    91984 
   92030    91944    91864    91886    91871    91785    91748    91768 
   91740    91660    91628    91663    91731    91791    91817    91845 
   91871    91808    91698    91673    91669    91642    91741    91928 
   91968    91841    91750    91831    91940    91913    91914    92051 
   92114    92037    91956    91886    91847    91909    91972    91933 
   91864    91816    91782    91781    91812    91848    91862    91868 
   91913    91966    91989    91964    91887    91864    91952    91999 
   91893    91727    91675    91778    91835    91740    91652    91651 
   91678    91678    91628    91601    91725    91940    92033    91956 
   91874    91889    91945    91936    91843    91791    91798    91767 
   91759    91798    91802    91843    91945    91924    91785    91732 
   91779    91812    91801    91801    91874    91957    91953    91883 
   91816    91804    91821    91833    91917    92067    92115    92017 
   91874    91766    91728    91743    91764    91791    91859    91940 
   91962    91924    91879    91870    91867    91816    91740    91686 
   91696    91773    91845    91910    92026    92105    92071    91995 
   91893    91767    91693    91686    91705    91747    91778    91767 
   91778    91794    91767    91798    91924    92014    91975    91867 
   91827    91848    91824    91791    91831    91894    91943    91986 
   91972    91920    91885    91831    91773    91809    91901    91926 
   91883    91874    91881    91827    91831    91952    91997    91891 
   91778    91671    91557    91566    91710    91797    91783    91831 
   91936    91926    91836    91832    91840    91759    91702    91763 
   91882    91924    91822    91702    91683    91708    91712    91709 
   91669    91636    91717    91835    91872    91858    91827    91817 
   91879    91979    92091    92156    92083    91948    91885    91914 
   91957    91916    91836    91824    91872    91944    92001    92003 
   91986    91975    91947    91913    91898    91912    91948    91968 
   91933    91870    91840    91827    91773    91731    91793    91898 
   91930    91882    91779    91669    91655    91748    91822    91794 
   91736    91763    91822    91812    91802    91879    91933    91858 
   91781    91817    91894    91944    91944    91912    91874    91813 
   91791    91801    91744    91733    91845    91909    91840    91756 
   91764    91825    91858    91862    91862    91832    91791    91770 
   91724    91678    91727    91809    91822    91808    91820    91845 
   91854    91840    91849    91858    91816    91794    91845    91918 
   91966    91984    91976    91957    91912    91820    91778    91805 
   91762    91697    91748    91844    91871    91851    91852    91905 
   91932    91867    91797    91797    91785    91755    91775    91814 
   91862    91953    92032    92040    92025    92034    92036    92003 
   91932    91832    91786    91810    91800    91806    91921    92044 
   92076    92016    91932    91891    91820    91723    91693    91708 
   91736    91791    91829    91802    91739    91712    91727    91724 
   91714    91748    91821    91935    92036    92026    91920    91821 
   91747    91660    91617    91685    91793    91841    91852    91879 
   91910    91918    91883    91786    91704    91716    91778    91837 
   91890    91883    91837    91836    91829    91770    91710    91708 
   91794    91889    91914    91947    91984    91955    91875    91806 
   91821    91914    91952    91878    91805    91854    91978    92037 
   92024    92001    91975    91936    91879    91800    91737    91752 
   91849    91924    91909    91914    91994    91979    91778    91597 
   91619    91704    91706    91714    91798    91875    91881    91856 
   91860    91882    91875    91821    91763    91770    91804    91814 
   91840    91868    91801    91690    91690    91754    91773    91775 
   91797    91824    91841    91849    91855    91843    91820    91808 
