Origin Time       2025/03/30 21:30:00
Lat.              38.535
Long.             142.295
Depth. (km)       44
Mag.              4.3
Station Code      MYGH07
Station Lat.      38.1802
Station Long.     140.6405
Station Height(m) 44
Record Time       2025/03/30 21:31:35
Sampling Freq(Hz) 100Hz
Duration Time(s)  120
Dir.              3
Scale Factor      3923(gal)/8224838
Max. Acc. (gal)   0.333
Last Correction   2025/03/30 21:31:35
Memo.             
[...]
   21598    21697    21763    21654    21567    21590    21629    21633 
   21570    21471    21440    21487    21533    21514    21465    21454 
   21467    21529    21685    21790    21743    21645    21514    21419 
   21527    21654    21564    21451    21466    21552    21667    21736 
   21730    21679    21597    21568    21595    21559    21467    21447 
   21532    21602    21578    21568    21591    21540    21537    21697 
   21775    21614    21436    21450    21587    21691    21676    21590 
   21558    21547    21447    21378    21466    21554    21492    21416 
   21498    21663    21686    21563    21563    21741    21824    21729 
   21625    21548    21463    21444    21546    21641    21612    21527 
   21496    21512    21508    21463    21481    21587    21631    21560 
   21506    21512    21544    21675    21840    21793    21617    21527 
   21469    21473    21606    21659    21550    21521    21652    21764 
   21762    21698    21651    21616    21571    21551    21601    21622 
   21520    21502    21694    21824    21718    21541    21475    21497 
   21500    21583    21786    21782    21494    21362    21539    21721 
   21735    21651    21555    21455    21400    21475    21579    21575 
   21527    21524    21544    21509    21427    21420    21519    21555 
   21506    21527    21574    21544    21570    21694    21716    21593 
   21462    21388    21379    21397    21408    21459    21544    21625 
   21703    21687    21608    21652    21714    21663    21622    21579 
   21481    21448    21479    21510    21629    21820    21887    21770 
   21622    21585    21648    21721    21729    21658    21554    21474 
   21444    21509    21608    21581    21500    21544    21639    21645 
   21624    21604    21558    21559    21618    21656    21645    21559 
   21440    21429    21586    21757    21721    21556    21539    21660 
   21689    21548    21389    21381    21487    21551    21541    21546 
   21573    21577    21562    21547    21548    21528    21486    21537 
   21624    21564    21423    21375    21440    21539    21606    21643 
   21659    21632    21585    21548    21516    21513    21516    21514 
   21605    21681    21591    21601    21771    21760    21610    21578 
   21597    21570    21548    21629    21784    21756    21516    21443 
   21613    21676    21581    21595    21691    21672    21601    21575 
   21512    21370    21301    21454    21686    21722    21610    21575 
   21633    21678    21637    21558    21567    21618    21559    21505 
   21562    21539    21425    21458    21604    21664    21616    21556 
   21582    21683    21736    21648    21524    21524    21591    21579 
   21513    21450    21401    21454    21577    21554    21446    21523 
   21705    21821    21863    21728    21505    21475    21583    21628 
   21577    21456    21359    21316    21289    21382    21620    21779 
   21687    21513    21532    21695    21743    21660    21659    21753 
   21722    21587    21579    21635    21585    21471    21375    21420 
   21589    21627    21577    21593    21546    21486    21594    21702 
   21654    21591    21643    21701    21660    21585    21493    21406 
   21471    21637    21740    21755    21675    21582    21609    21656 
   21555    21389    21370    21493    21544    21481    21487    21609 
   21649    21608    21697    21763    21610    21513    21594    21593 
   21467    21405    21431    21498    21597    21620    21570    21612 
   21686    21659    21612    21577    21532    21536    21547    21519 
   21550    21622    21556    21393    21417    21620    21718    21649 
   21589    21614    21571    21416    21362    21436    21500    21550 
   21579    21616    21679    21660    21591    21593    21635    21620 
   21527    21510    21622    21663    21613    21598    21605    21594 
   21581    21639    21740    21764    21757    21764    21743    21720 
   21658    21552    21505    21471    21432    21516    21641    21591 
   21443    21454    21591    21660    21714    21736    21600    21462 
   21477    21550    21555    21505    21502    21504    21455    21500 
   21620    21627    21585    21589    21547    21490    21501    21560 
   21624    21573    21487    21559    21614    21490    21402    21497 
   21625    21643    21585    21609    21686    21613    21473    21486 
   21610    21674    21627    21544    21490    21490    21512    21516 
   21601    21718    21655    21519    21510    21562    21612    21645 
   21577    21466    21473    21609    21755    21776    21701    21660 
   21666    21631    21595    21639    21635    21563    21578    21613 
   21564    21474    21361    21377    21541    21608    21562    21568 
   21670    21756    21678    21570    21633    21716    21678    21587 
   21446    21340    21404    21492    21438    21357    21371    21482 
   21617    21640    21614    21681    21664    21512    21516    21672 
   21720    21654    21587    21578    21645    21683    21624    21577 
   21587    21590    21600    21656    21629    21446    21357    21533 
   21708    21663    21597    21641    21698    21714    21660    21593 
   21616    21605    21523    21510    21523    21536    21643    21776 
   21841    21780    21618    21533    21521    21473    21463    21539 
   21582    21492    21402    21481    21582    21604    21640    21631 
   21597    21685    21730    21598    21497    21492    21447    21379 
   21365    21396    21435    21454    21452    21460    21506    21606 
   21718    21720    21612    21598    21699    21640    21411    21308 
   21388    21475    21517    21547    21598    21667    21714    21729 
   21693    21600    21551    21547    21525    21532    21595    21678 
   21676    21541    21474    21555    21605    21617    21689    21756 
   21759    21726    21659    21591    21622    21695    21724    21703 
   21531    21282    21278    21471    21586    21577    21505    21544 
   21728    21720    21529    21543    21645    21535    21432    21563 
   21709    21721    21685    21587    21486    21516    21552    21493 
   21510    21579    21555    21570    21675    21655    21524    21489 
   21548    21605    21627    21604    21582    21620    21649    21613 
   21586    21552    21467    21467    21547    21532    21471    21512 
   21571    21525    21424    21359    21433    21640    21730    21636 
   21568    21568    21539    21496    21543    21666    21691    21625 
   21629    21671    21663    21598    21546    21658    21790    21648 
   21477    21598    21683    21456    21289    21423    21571    21641 
   21767    21826    21801    21782    21714    21709    21762    21597 
   21382    21423    21535    21520    21478    21492    21469    21343 
   21303    21504    21787    21857    21644    21481    21555    21595 
   21586    21697    21739    21587    21431    21415    21487    21475 
   21344    21316    21462    21567    21567    21562    21539    21537 
   21675    21822    21803    21722    21622    21471    21431    21564 
   21663    21551    21378    21415    21579    21647    21636    21601 
   21567    21594    21651    21706    21798    21805    21656    21543 
   21551    21595    21595    21533    21554    21675    21732    21743 
   21699    21559    21471    21431    21373    21443    21548    21521 
   21508    21567    21566    21510    21516    21622    21718    21720 
   21675    21656    21656    21560    21401    21416    21570    21540 
   21366    21342    21486    21591    21563    21490    21496    21585 
   21689    21695    21601    21628    21820    21872    21716    21595 
   21554    21435    21292    21300    21396    21444    21485    21531 
   21559    21648    21793    21851    21824    21789    21716    21641 
   21632    21570    21416    21315    21335    21440    21571    21618 
   21668    21829    21888    21813    21797    21744    21564    21382 
   21285    21294    21328    21348    21478    21614    21613    21624 
   21639    21562    21574    21697    21737    21681    21604    21508 
   21406    21362    21424    21568    21649    21578    21539    21609 
   21573    21519    21647    21745    21757    21867    21906    21712 
   21466    21398    21554    21710    21640    21419    21249    21289 
   21508    21624    21602    21658    21733    21706    21649    21618 
   21583    21519    21465    21467    21513    21608    21701    21625 
   21401    21420    21744    21887    21757    21641    21608    21674 
   21702    21516    21346    21363    21398    21462    21666    21784 
   21672    21618    21726    21771    21664    21465    21321    21357 
   21400    21334    21338    21456    21523    21556    21675    21810 
   21841    21743    21509    21255    21190    21296    21392    21429 
   21512    21733    21973    22050    21964    21764    21581    21614 
   21739    21718    21590    21429    21335    21428    21541    21562 
   21664    21806    21794    21737    21706    21532    21332    21377 
   21506    21446    21320    21294    21317    21444    21645    21745 
   21789    21821    21768    21713    21753    21751    21590    21447 
   21438    21470    21508    21517    21483    21527    21568    21458 
   21412    21614    21826    21825    21716    21658    21627    21578 
   21537    21512    21471    21400    21366    21442    21562    21637 
   21663    21583    21435    21393    21362    21242    21269    21533 
   21880    22154    22234    22095    21759    21417    21415    21613 
   21579    21323    21087    21082    21413    21789    21911    21910 
   21924    21901    21818    21728    21641    21478    21332    21338 
   21312    21172    21120    21188    21239    21330    21582    21883 
   22019    21968    21941    22072    22144    21938    21600    21293 
   21072    21058    21196    21292    21398    21521    21462    21339 
   21436    21648    21748    21709    21613    21618    21739    21768 
   21674    21648    21737    21816    21814    21778    21660    21367 
   21155    21239    21267    21057    21014    21347    21710    21795 
   21709    21722    21944    22196    22198    21968    21782    21708 
   21643    21595    21559    21421    21211    21131    21290    21479 
   21478    21431    21446    21427    21409    21405    21362    21373 
   21498    21751    22048    22172    22153    22168    22208    22187 
   21959    21552    21250    21080    20945    20989    21228    21520 
   21747    21778    21744    21767    21648    21458    21394    21385 
   21432    21462    21332    21246    21340    21500    21659    21768 
   21828    21872    21876    21891    21919    21826    21621    21454 
   21350    21220    21127    21208    21406    21597    21725    21786 
   21872    21978    21915    21679    21460    21331    21185    21028 
   21081    21351    21497    21433    21419    21498    21639    21824 
   21763    21405    21220    21378    21570    21644    21589    21406 
   21386    21701    21942    21886    21870    21953    21879    21763 
   21806    21793    21554    21332    21288    21338    21574    21959 
   22033    21732    21540    21636    21732    21647    21498    21390 
   21417    21620    21695    21536    21478    21578    21647    21682 
   21703    21686    21667    21667    21651    21608    21594    21628 
   21647    21608    21547    21517    21489    21432    21374    21338 
   21330    21373    21486    21605    21583    21469    21489    21655 
   21775    21830    21837    21687    21513    21525    21550    21390 
   21154    21014    21126    21404    21547    21562    21627    21712 
   21776    21894    21999    21882    21601    21502    21577    21524 
   21386    21374    21486    21724    22038    22158    21952    21620 
   21467    21636    21891    21880    21614    21297    21060    21050 
   21255    21411    21411    21412    21496    21610    21757    21913 
   21907    21726    21585    21554    21552    21555    21546    21524 
   21575    21667    21610    21379    21169    21168    21440    21760 
   21764    21513    21439    21606    21693    21675    21705    21643 
   21520    21608    21678    21451    21255    21397    21740    21963 
   21868    21645    21537    21474    21466    21544    21481    21298 
   21270    21352    21428    21548    21658    21649    21629    21726 
   21851    21825    21610    21352    21289    21427    21477    21377 
   21320    21330    21393    21552    21683    21697    21697    21787 
   21937    22033    21955    21790    21824    21984    21884    21574 
   21460    21541    21496    21296    21208    21386    21683    21841 
   21811    21733    21710    21703    21631    21539    21537    21612 
   21602    21500    21501    21577    21566    21594    21693    21624 
   21444    21382    21419    21539    21709    21762    21687    21624 
   21601    21605    21610    21496    21317    21332    21512    21604 
   21508    21278    21134    21261    21486    21512    21397    21408 
   21533    21570    21528    21546    21609    21656    21732    21783 
   21682    21540    21560    21685    21782    21840    21824    21706 
   21490    21227    21122    21293    21663    22032    22087    21878 
   21776    21762    21647    21510    21394    21328    21415    21509 
   21471    21419    21355    21286    21354    21475    21510    21520 
   21578    21658    21668    21645    21767    21959    21975    21837 
   21709    21683    21790    21859    21766    21679    21695    21729 
   21687    21463    21195    21131    21154    21070    20923    20879 
   21111    21551    21874    21909    21807    21779    21817    21841 
   21884    21860    21679    21466    21327    21320    21420    21501 
   21527    21516    21505    21533    21544    21500    21471    21531 
   21614    21643    21668    21670    21591    21586    21763    21940 
   21926    21762    21602    21512    21509    21628    21735    21656 
   21502    21477    21574    21676    21695    21621    21560    21547 
   21498    21444    21496    21629    21740    21779    21741    21635 
   21524    21471    21413    21379    21505    21679    21699    21641 
   21587    21540    21547    21541    21493    21521    21583    21583 
   21640    21741    21703    21614    21591    21477    21305    21282 
   21292    21258    21351    21523    21546    21451    21528    21836 
   22037    21957    21849    21828    21687    21421    21250    21234 
   21273    21297    21304    21309    21423    21689    21887    21884 
   21780    21632    21487    21393    21366    21469    21652    21740 
   21772    21880    21925    21730    21444    21323    21400    21487 
   21465    21469    21595    21712    21794    21855    21762    21585 
   21562    21649    21708    21744    21689    21505    21442    21613 
   21701    21601    21598    21658    21586    21536    21600    21627 
   21587    21551    21513    21466    21435    21394    21320    21304 
   21385    21490    21568    21585    21548    21517    21541    21583 
   21524    21386    21377    21550    21740    21841    21848    21757 
   21682    21740    21847    21915    21890    21698    21454    21339 
   21397    21568    21698    21656    21487    21324    21254    21343 
   21540    21609    21498    21405    21425    21574    21755    21764 
   21675    21720    21794    21717    21645    21691    21694    21609 
   21536    21510    21552    21635    21690    21690    21606    21479 
   21429    21420    21388    21397    21411    21427    21535    21579 
   21532    21654    21887    21937    21778    21590    21529    21525 
   21435    21369    21486    21644    21662    21585    21471    21338 
   21377    21663    21871    21806    21621    21463    21390    21385 
   21392    21458    21533    21510    21490    21560    21679    21806 
   21824    21679    21533    21470    21467    21519    21539    21532 
   21570    21606    21685    21799    21722    21510    21455    21523 
   21547    21558    21594    21593    21524    21496    21591    21695 
   21679    21624    21612    21663    21766    21797    21725    21713 
   21776    21741    21601    21506    21492    21506    21512    21502 
   21479    21412    21319    21344    21513    21648    21658    21643 
   21649    21620    21524    21392    21386    21564    21652    21514 
   21416    21466    21470    21408    21394    21379    21409    21629 
   21865    21875    21748    21668    21667    21660    21617    21618 
   21716    21809    21794    21716    21600    21465    21479    21631 
   21679    21639    21622    21566    21502    21458    21330    21277 
   21419    21454    21362    21433    21558    21600    21660    21633 
   21525    21585    21739    21787    21743    21670    21617    21566 
   21436    21313    21343    21494    21632    21705    21772    21814 
   21718    21571    21471    21389    21447    21654    21726    21602 
   21444    21315    21313    21458    21529    21486    21516    21654 
   21802    21871    21829    21747    21671    21590    21523    21509 
   21554    21658    21784    21822    21737    21668    21683    21691 
   21697    21725    21725    21712    21659    21483    21308    21303 
   21424    21552    21667    21763    21752    21591    21447    21460 
   21502    21477    21483    21555    21618    21609    21524    21451 
   21423    21375    21327    21385    21524    21581    21525    21512 
   21652    21805    21748    21552    21390    21298    21311    21432 
   21571    21635    21598    21581    21666    21685    21533    21378 
   21412    21600    21651    21481    21362    21402    21500    21610 
   21651    21571    21506    21525    21567    21585    21560    21529 
   21525    21520    21552    21693    21830    21824    21720    21678 
   21757    21860    21915    21941    21909    21805    21729    21725 
   21729    21666    21571    21547    21566    21551    21492    21392 
   21335    21408    21529    21601    21627    21577    21420    21259 
   21262    21439    21570    21563    21600    21703    21708    21627 
   21575    21573    21598    21604    21579    21536    21402    21261 
   21351    21625    21805    21783    21722    21783    21864    21824 
   21720    21652    21632    21610    21563    21560    21577    21467 
   21265    21136    21173    21320    21455    21531    21560    21571 
   21637    21737    21718    21551    21454    21541    21625    21618 
   21641    21685    21651    21589    21600    21678    21733    21710 
   21652    21648    21693    21685    21633    21590    21455    21293 
   21346    21504    21521    21474    21483    21524    21618    21747 
   21775    21679    21575    21552    21586    21550    21411    21342 
   21448    21629    21753    21747    21663    21627    21591    21504 
   21475    21546    21591    21559    21544    21552    21501    21417 
   21361    21304    21274    21344    21458    21537    21663    21851 
   21964    21930    21828    21741    21685    21662    21629    21521 
   21465    21519    21528    21547    21663    21683    21575    21558 
   21662    21759    21767    21674    21540    21428    21378    21406 
   21470    21483    21469    21528    21636    21679    21662    21666 
   21699    21714    21729    21763    21733    21640    21555    21469 
   21415    21454    21506    21470    21432    21492    21559    21562 
