Origin Time       2025/03/30 21:30:00
Lat.              38.535
Long.             142.295
Depth. (km)       44
Mag.              4.3
Station Code      MYGH03
Station Lat.      38.9207
Station Long.     141.6377
Station Height(m) 80
Record Time       2025/03/30 21:31:08
Sampling Freq(Hz) 100Hz
Duration Time(s)  120
Dir.              6
Scale Factor      7845(gal)/8223790
Max. Acc. (gal)   4.093
Last Correction   2025/03/30 21:31:08
Memo.             
[...]
   19259    19259    19259    19260    19261    19259    19259    19259 
   19259    19261    19257    19255    19260    19261    19256    19257 
   19261    19261    19261    19261    19259    19257    19259    19259 
   19259    19259    19259    19257    19259    19259    19257    19260 
   19260    19259    19259    19257    19257    19260    19259    19259 
   19261    19261    19260    19257    19257    19257    19257    19257 
   19259    19260    19259    19260    19260    19259    19259    19260 
   19259    19259    19260    19260    19261    19261    19257    19257 
   19259    19259    19257    19259    19259    19259    19260    19259 
   19259    19257    19256    19259    19260    19259    19256    19259 
   19260    19257    19259    19260    19259    19257    19260    19259 
   19256    19257    19259    19255    19256    19259    19259    19257 
   19257    19257    19259    19259    19259    19257    19256    19256 
   19257    19256    19257    19260    19259    19257    19259    19261 
   19259    19257    19260    19260    19259    19259    19257    19259 
   19261    19260    19257    19257    19259    19259    19257    19259 
   19260    19259    19260    19261    19259    19260    19260    19257 
   19257    19257    19257    19260    19259    19259    19260    19257 
   19256    19257    19257    19257    19259    19257    19256    19257 
   19257    19257    19257    19257    19260    19259    19259    19257 
   19256    19256    19256    19256    19259    19259    19257    19256 
   19256    19255    19256    19257    19257    19257    19257    19255 
   19256    19257    19256    19257    19259    19256    19256    19257 
   19257    19259    19260    19257    19257    19259    19259    19257 
   19259    19259    19259    19257    19256    19257    19260    19259 
   19259    19259    19259    19257    19259    19260    19259    19257 
   19259    19260    19260    19259    19256    19256    19256    19257 
   19260    19260    19256    19256    19259    19257    19257    19259 
   19259    19257    19257    19259    19260    19260    19261    19259 
   19257    19257    19259    19260    19260    19259    19260    19259 
   19257    19260    19261    19261    19259    19255    19257    19261 
   19260    19257    19256    19257    19257    19257    19260    19261 
   19259    19257    19259    19259    19256    19257    19260    19259 
   19256    19259    19257    19257    19259    19259    19259    19260 
   19259    19257    19260    19260    19259    19259    19260    19259 
   19257    19256    19257    19259    19257    19257    19259    19259 
   19259    19260    19260    19259    19257    19257    19257    19257 
   19257    19259    19259    19257    19257    19260    19261    19257 
   19256    19257    19257    19259    19263    19261    19261    19260 
   19257    19257    19259    19260    19260    19259    19260    19259 
   19256    19259    19260    19259    19259    19261    19260    19259 
   19259    19259    19259    19260    19260    19260    19260    19259 
   19259    19260    19259    19259    19260    19259    19257    19260 
   19261    19260    19257    19257    19259    19260    19260    19261 
   19259    19257    19260    19260    19259    19260    19260    19260 
   19260    19260    19257    19256    19257    19259    19260    19261 
   19261    19257    19256    19259    19259    19260    19260    19261 
   19261    19260    19259    19260    19260    19257    19257    19260 
   19260    19259    19256    19256    19260    19263    19260    19260 
   19261    19261    19259    19260    19261    19257    19259    19261 
   19260    19259    19259    19259    19260    19261    19263    19260 
   19257    19259    19259    19257    19259    19259    19257    19259 
   19260    19259    19259    19259    19260    19260    19259    19257 
   19256    19257    19259    19260    19259    19257    19256    19256 
   19256    19256    19257    19259    19259    19259    19257    19257 
   19259    19260    19259    19255    19256    19256    19257    19259 
   19257    19256    19257    19257    19257    19256    19256    19256 
   19257    19257    19257    19259    19259    19257    19257    19257 
   19257    19257    19257    19257    19256    19256    19259    19259 
   19257    19259    19259    19256    19256    19257    19257    19257 
   19256    19256    19256    19255    19257    19257    19257    19256 
   19255    19256    19259    19257    19256    19259    19259    19256 
   19257    19260    19261    19260    19260    19263    19260    19261 
   19268    19276    19279    19276    19252    19233    19276    19326 
   19300    19245    19179    19130    19238    19379    19300    19182 
   19133    19101    19383    19693    19329    19013    19376    19350 
   18925    19182    19430    19035    19053    19433    19268    19468 
   19909    18847    18102    19449    19997    18999    18748    18948 
   19071    19950    20394    19206    18453    19095    19556    19872 
   19705    18488    18505    19471    18979    19137    20387    19152 
   17691    19569    21151    19942    18129    17976    19661    20101 
   18985    19171    19403    18914    19739    20043    18550    18580 
   19529    19184    19298    19214    18747    19538    19834    19336 
   18765    18457    19645    20116    18900    18696    19487    19386 
   18931    19600    19410    18400    19635    20601    19145    18199 
   19338    20191    18954    18535    19255    19144    19394    19720 
   19500    18858    18936    19936    18816    18311    20213    19585 
   18527    19569    19319    19336    20247    19012    18349    19481 
   19178    18920    19692    18991    18627    20271    20137    18301 
   19082    20183    18590    18341    19942    19518    18744    19548 
   19618    18829    18959    19870    19909    18457    18211    20096 
   20228    18563    18750    19484    19248    19738    19614    18150 
   18731    20497    19552    18350    19418    19494    18774    19678 
   20131    19121    18504    19039    19739    19429    18860    19124 
   19283    18846    19407    20507    19491    17979    18914    20171 
   19799    18997    18594    19103    19592    18904    19033    19874 
   19083    18578    19701    19888    19249    19500    19279    18567 
   19161    19622    19024    19141    19529    18929    18792    19823 
   20016    18993    18654    19170    19583    19353    18412    18648 
   20312    20104    18574    18868    19467    19148    19461    19668 
   18924    18667    19481    19847    19307    19272    19194    18765 
   19396    19634    18856    19110    19454    19129    19669    20009 
   18894    18419    19531    19872    18971    18723    19207    19673 
   19450    18728    19323    20117    19155    18511    19163    19750 
   19631    18779    18809    19834    19363    18328    19128    20309 
   19908    18684    18318    19326    20135    19261    18462    19359 
   19872    18952    18750    19673    19773    18945    18729    19252 
   19457    19381    19600    19394    18941    19228    19415    19105 
   19105    19467    19318    18850    19321    19703    19246    19257 
   19099    18717    19499    19826    18949    18985    19372    19103 
   19330    19735    19426    18712    18705    19778    19796    18689 
   18991    19543    19079    19548    20009    19003    18669    19265 
   19426    19252    18985    19337    19564    18770    19143    20264 
   19375    18326    19221    19687    19152    19319    19256    18994 
   19418    19363    19417    19670    18755    18544    19697    19635 
   18696    19062    19872    19368    18844    19446    19562    19147 
   19202    19111    19165    19371    18935    19122    19865    19353 
   18928    19422    19371    19280    19226    18976    19411    19394 
   19035    19426    19201    19055    19723    19402    18940    19251 
   19118    19067    19530    19476    19089    19114    19240    19429 
   19543    18967    18983    19634    19017    18844    19824    19387 
   18682    19435    19811    19071    18927    19427    18990    18916 
   19835    19326    18589    19406    19768    19391    19165    18968 
   19252    19554    19388    19222    19005    19178    19483    19174 
   19295    19390    18720    19151    20013    19376    18767    19091 
   19207    19322    19661    19341    19078    19376    19035    18937 
   19600    19183    18786    19989    20155    18532    18326    19435 
   19766    19494    18720    18536    19831    19986    18836    19210 
   19726    18936    18895    19426    19350    19311    19457    19325 
   19039    19160    19295    19165    19506    19541    18858    18970 
   19645    19448    19033    19356    19352    18933    19241    19384 
   19078    19414    19554    18954    18879    19446    19607    19307 
   19083    19159    19288    19062    19171    19931    19820    18662 
   18540    19499    19560    19321    19518    18944    18704    19465 
   19499    19145    19147    19253    19566    19314    18760    19143 
   19618    19454    19133    18792    19003    19846    19818    18733 
   18554    19481    19726    19313    19199    19267    19345    19327 
   19168    19206    19480    19462    19024    18844    19153    19399 
   19361    19190    19016    19390    20056    19500    18335    18700 
   19892    19797    18841    18949    19580    19337    19410    19674 
   18918    18704    19271    19541    19581    18864    18550    19543 
   19683    19078    19296    19475    18954    18835    19664    19865 
   19147    19072    19186    19241    19576    19124    18952    19645 
   19206    18647    19288    19683    19348    18852    19105    19838 
   19508    18840    18864    19028    19302    19500    19431    19445 
   19003    18727    19707    19908    19040    19353    19417    18623 
   19404    20086    18798    18543    19461    19359    19400    19191 
   18432    19278    20220    19629    18895    18829    19499    19728 
   19106    19009    19199    19006    19125    19822    19831    18684 
   18712    20000    19530    18482    19144    19738    19438    19097 
   18858    19078    19522    19569    19317    18933    18916    19502 
   19392    18944    19728    19776    18412    18662    19994    19820 
   18954    18945    19469    19723    19560    19036    18335    18603 
   19962    20143    18959    18810    19306    19295    19650    19325 
   18326    19248    19943    18738    19211    20092    18777    18713 
   19985    19656    19109    19075    18801    19332    19978    19074 
   18274    19280    20016    19195    18867    19383    19296    19022 
   19298    19642    19305    18975    19487    19485    18966    19273 
   19429    19055    19201    19261    19049    19530    19650    18839 
   18898    19529    19188    19006    19714    19627    18914    19103 
   19400    19260    19203    19002    19140    19707    19444    18793 
   19225    19774    19322    19168    19367    18986    18898    19344 
   19588    19365    18813    18860    19711    19881    18952    18721 
   19449    19444    19051    19399    19712    19109    18667    19545 
   19958    18847    18489    19458    19815    19167    18989    19489 
   19435    19074    19052    19284    19791    19415    18346    18909 
   19944    19462    19021    19138    19109    19423    19566    18951 
   18756    19479    19827    19149    18827    19550    19581    18794 
   19191    19915    19175    18562    19261    19758    19435    19047 
   18955    19145    19441    19380    18940    19125    19531    19099 
   19326    20015    19236    18565    19102    19600    19759    19452 
   18918    18882    19207    19359    19313    19477    19371    18797 
   18964    19604    19411    19152    19647    19473    18793    19359 
   19596    18662    18982    19831    19333    18904    19094    19009 
   19152    19658    19604    19153    18985    19202    19757    19838 
   18778    18145    19475    20553    19083    17913    19079    19842 
   19464    19295    19143    19244    19465    19184    19202    19465 
   19369    19217    18967    19045    19579    19360    18800    19391 
   19950    19224    18959    19461    19167    18851    19314    19595 
   19548    19151    18577    19117    19890    19273    18659    19214 
   19691    19388    19013    18962    19360    19746    19354    18848 
   19029    19612    19722    18985    18866    19804    19619    18544 
   18922    19693    19275    18721    18833    19592    19982    19217 
   18812    19187    19256    19128    19035    19273    19676    19576 
   19265    18905    18986    19498    19318    19211    19727    19700 
   19318    19296    19431    19444    19371    19515    19504    18855 
   18581    19346    20112    19923    19057    18632    18778    18706 
   19183    20250    19849    18832    19348    19570    18443    19028 
   21261    20792    18220    17613    18090    18269    19472    20692 
   20379    18828    17386    18287    20301    19939    18195    18111 
   19584    19830    18126    17915    20299    21390    19678    18455 
   18928    18956    18696    19557    20067    18327    16973    19980 
   23361    20289    15353    16869    21008    20723    18790    19600 
   20298    18103    16733    19201    22048    20957    17212    16499 
   20355    22063    18763    17572    19913    19417    18079    20899 
   22260    17895    15277    18763    21906    20530    18979    20054 
   20601    19074    16989    17234    21186    22747    17995    14967 
   18882    22202    20545    19147    18904    18085    18800    19624 
   19117    19298    19762    20385    20452    18594    18310    20158 
   20251    18935    17689    17601    19575    21119    20637    18438 
   16560    19107    22002    18478    15138    18613    22254    21087 
   18904    18458    18955    19832    20872    20509    18397    17552 
   18805    19604    19456    19201    18875    18806    19071    18947 
   18393    18588    19962    21016    20221    18643    18549    19543 
   19552    18766    19079    19936    19758    19746    19858    18531 
   17751    18588    19035    19136    19241    19213    19975    20268 
   19672    19646    19041    18662    19907    19768    18495    19327 
   20309    18905    17559    18701    20517    20028    18462    18793 
   19419    18605    18416    19452    20347    20196    18848    18395 
   19643    19826    19201    19336    18823    19035    20390    19656 
   18563    19124    18721    18076    19369    20511    19861    18863 
   18905    18885    18369    19452    20146    18725    19117    20430 
   19233    18153    19026    19892    20002    19673    19130    18878 
   18770    19268    20098    19275    18168    18744    19703    20074 
   19383    18550    18847    18927    18831    19519    19803    19311 
   19156    20043    20673    18936    17107    18597    20698    20121 
   18719    18616    19345    19849    19742    19404    19186    18793 
   18627    19359    19724    18885    18828    19786    19476    18894 
   19249    19195    19288    19624    19518    19808    19521    18382 
   18704    19853    19588    18785    18738    19113    19384    19063 
   18921    19402    19255    19041    19545    19846    19446    18397 
   18528    20158    20196    19053    19059    19573    19480    18611 
   18484    19737    19785    18642    18886    19610    19233    18775 
   19373    20287    19656    18370    18885    20050    19950    19515 
   19384    18894    18565    19138    19892    19538    18083    18183 
   20054    20140    19444    19595    18681    18698    20046    19074 
   18030    19445    20163    19475    19287    19232    18769    18789 
   19815    20132    18643    18323    19695    19506    19084    19836 
   19279    18665    19311    18948    18829    20119    19633    18274 
   19394    20071    18577    18608    19858    19614    19057    19527 
   19792    19113    19039    19785    19510    18759    18870    19452 
   19943    19286    18341    19016    19284    18497    19113    20066 
   19599    19033    18881    18461    18908    20139    19894    19317 
   19793    19232    18468    19341    19433    18516    19161    20229 
   19857    19048    18864    19087    19060    18908    19130    19232 
   19268    19785    19774    18858    18824    19687    19461    18928 
   19302    19519    19610    19503    18804    18960    19705    19572 
   19203    18991    18831    19052    19240    19206    19294    19529 
   19445    18928    19018    19606    19504    19215    19402    19514 
   19209    18850    19349    20031    19008    18168    19359    19759 
   18814    18820    19604    19862    19245    18607    18874    19873 
   20155    18859    18441    19758    19560    18145    19026    20730 
   19661    18227    19170    19668    19051    19175    19357    19361 
   19257    19125    19768    19533    18370    18874    19677    19427 
   19554    19462    18785    18931    19518    19295    19122    19653 
   19523    18810    18605    18956    19685    19874    19444    19369 
   19333    18867    18589    19460    20255    19202    18499    19391 
   19707    19499    19267    18678    19083    19936    19446    18573 
   18547    19260    19699    19317    19148    19161    18995    19441 
   19788    19305    19082    19422    19363    19017    19282    19438 
   19043    19346    19708    18912    18593    19296    19452    19438 
   19481    19097    18995    18955    19111    19584    19182    19055 
   19859    19595    18740    19022    19861    19741    18435    18382 
   20073    20093    18820    18979    19433    19187    19045    19244 
   19579    19612    19278    18750    18682    19427    19570    18999 
   19207    19695    19496    19056    18993    19326    19498    19411 
   19118    18843    19368    19840    19291    18960    19242    19118 
   18928    19229    19418    19557    19475    18731    18677    19464 
   19718    19693    19475    19040    19033    19048    19444    19994 
   19005    18387    19691    19930    18832    18829    19356    19383 
   19323    19012    18794    19560    20020    19219    18932    19514 
   19414    18922    19093    19419    19282    19149    19207    19024 
   19084    19611    19533    18995    18940    19337    19606    19060 
   18793    19862    20009    18724    18698    19518    19556    19627 
   19311    18381    19028    20117    19017    18337    19696    19919 
   19129    19337    19292    18997    19183    18916    19017    20011 
   19754    18216    18343    20101    20156    18738    18966    20071 
   19572    18474    18582    19323    19658    19769    19508    18609 
   18503    19462    19872    19514    18824    18638    19541    19859 
   19298    19344    19315    18783    19067    19699    19325    18949 
   19363    19182    18829    19610    19741    18908    19253    19670 
   19186    19176    19089    18816    19272    19669    19562    19145 
   18839    19287    19615    19037    18877    19656    19608    18985 
   19408    19309    18559    19298    20048    19404    18755    18816 
   19548    20142    19454    18592    19205    19654    18824    18987 
   19876    19410    18766    18989    19218    19450    19670    19192 
   18720    19106    19457    19226    19174    19512    19445    18959 
