Origin Time       2025/03/30 21:30:00
Lat.              38.535
Long.             142.295
Depth. (km)       44
Mag.              4.3
Station Code      MYGH11
Station Lat.      38.5158
Station Long.     141.3421
Station Height(m) 5
Record Time       2025/03/30 21:31:20
Sampling Freq(Hz) 100Hz
Duration Time(s)  120
Dir.              6
Scale Factor      7845(gal)/8223790
Max. Acc. (gal)   2.633
Last Correction   2025/03/30 21:31:20
Memo.             
[...]
  -42137   -42130   -42136   -42141   -42138   -42138   -42133   -42137 
  -42141   -42129   -42132   -42140   -42136   -42136   -42134   -42136 
  -42140   -42133   -42134   -42140   -42138   -42133   -42133   -42140 
  -42140   -42130   -42136   -42137   -42133   -42136   -42134   -42132 
  -42134   -42134   -42137   -42136   -42137   -42140   -42136   -42137 
  -42138   -42133   -42133   -42134   -42140   -42141   -42130   -42132 
  -42134   -42133   -42141   -42138   -42132   -42136   -42136   -42133 
  -42136   -42137   -42140   -42134   -42133   -42136   -42133   -42137 
  -42137   -42132   -42136   -42134   -42136   -42138   -42136   -42136 
  -42134   -42132   -42137   -42136   -42137   -42137   -42128   -42136 
  -42144   -42136   -42133   -42133   -42137   -42140   -42133   -42132 
  -42130   -42133   -42140   -42136   -42134   -42134   -42132   -42138 
  -42137   -42133   -42141   -42137   -42133   -42134   -42133   -42140 
  -42140   -42134   -42134   -42132   -42134   -42136   -42132   -42140 
  -42138   -42132   -42133   -42134   -42138   -42134   -42133   -42141 
  -42137   -42129   -42136   -42138   -42136   -42132   -42136   -42142 
  -42132   -42126   -42140   -42140   -42132   -42129   -42136   -42142 
  -42134   -42132   -42138   -42133   -42130   -42137   -42137   -42136 
  -42130   -42130   -42136   -42133   -42134   -42132   -42132   -42140 
  -42134   -42130   -42136   -42134   -42137   -42134   -42129   -42137 
  -42136   -42132   -42136   -42134   -42134   -42133   -42130   -42136 
  -42136   -42133   -42132   -42134   -42140   -42133   -42129   -42136 
  -42132   -42136   -42140   -42133   -42133   -42132   -42134   -42140 
  -42133   -42132   -42134   -42130   -42133   -42133   -42136   -42141 
  -42129   -42130   -42140   -42134   -42134   -42136   -42133   -42134 
  -42136   -42140   -42134   -42133   -42141   -42132   -42125   -42137 
  -42140   -42138   -42133   -42129   -42137   -42137   -42130   -42136 
  -42133   -42132   -42137   -42138   -42136   -42130   -42136   -42141 
  -42134   -42137   -42137   -42132   -42138   -42138   -42134   -42138 
  -42138   -42134   -42132   -42137   -42140   -42133   -42134   -42138 
  -42132   -42132   -42138   -42138   -42136   -42132   -42138   -42142 
  -42136   -42134   -42133   -42136   -42138   -42132   -42132   -42138 
  -42136   -42136   -42134   -42133   -42136   -42133   -42133   -42134 
  -42129   -42136   -42141   -42136   -42134   -42133   -42134   -42136 
  -42132   -42134   -42132   -42133   -42140   -42134   -42129   -42126 
  -42126   -42144   -42157   -42157   -42145   -42121   -42115   -42137 
  -42165   -42174   -42141   -42099   -42087   -42117   -42164   -42155 
  -42083   -42048   -42132   -42294   -42325   -42109   -41862   -41825 
  -42075   -42464   -42588   -42260   -41817   -41710   -42044   -42504 
  -42596   -42169   -41766   -41893   -42198   -42195   -42109   -42176 
  -42118   -42024   -42256   -42407   -42151   -41886   -41847   -42192 
  -42557   -42172   -41793   -42141   -42268   -42080   -42080   -41995 
  -42144   -42367   -41974   -41904   -42418   -42330   -41998   -42214 
  -42381   -42155   -41976   -41882   -41983   -42448   -42434   -41890 
  -41661   -41639   -42203   -43183   -42776   -41490   -41285   -41864 
  -42591   -42988   -42133   -41435   -42148   -42263   -41805   -42672 
  -43132   -41806   -40940   -41651   -42658   -42986   -42499   -41679 
  -41524   -41972   -42110   -42380   -43048   -42735   -41355   -40811 
  -41899   -43098   -43191   -42579   -41324   -40396   -41735   -43749 
  -43455   -41635   -40822   -41558   -42558   -42928   -42552   -41736 
  -41503   -42102   -42695   -42651   -41813   -41269   -42041   -43002 
  -42705   -41569   -41355   -42477   -42784   -41592   -41349   -42426 
  -42747   -42454   -42246   -41613   -41449   -42265   -42638   -42527 
  -42412   -41798   -41430   -41939   -42476   -42464   -42218   -42132 
  -41955   -41755   -42151   -42770   -42506   -41638   -41554   -42218 
  -42577   -42383   -42060   -42055   -42156   -41845   -41750   -42315 
  -42484   -42191   -42338   -42376   -41670   -41397   -42399   -43002 
  -42122   -41385   -41924   -42830   -42692   -41650   -41440   -41854 
  -41933   -43009   -43737   -41744   -40389   -41642   -42473   -42719 
  -43081   -42113   -41172   -41801   -42460   -42475   -42269   -41866 
  -41584   -41940   -42749   -42651   -41760   -41836   -42290   -42290 
  -42661   -42384   -41119   -41249   -42641   -42954   -42306   -42045 
  -41958   -41797   -42263   -42651   -42160   -41939   -42048   -41727 
  -41917   -42631   -42475   -41877   -41912   -42291   -42520   -42195 
  -41570   -41802   -42603   -42585   -42016   -41773   -41814   -42252 
  -42654   -42214   -41659   -41719   -42053   -42542   -42805   -42111 
  -41204   -41777   -42961   -42676   -41955   -41814   -41467   -41841 
  -42967   -42781   -41739   -41648   -42061   -42133   -42341   -42495 
  -42012   -41916   -42396   -42133   -41665   -41933   -42246   -42296 
  -42341   -42391   -42137   -41696   -41967   -42358   -42184   -42562 
  -42600   -41332   -41283   -42670   -42816   -42180   -41893   -41532 
  -41894   -42734   -42593   -42103   -41985   -41771   -41790   -42488 
  -42842   -42187   -41571   -41629   -42265   -42905   -42295   -41382 
  -41920   -42543   -42240   -42283   -42367   -41659   -41588   -42545 
  -42722   -41964   -41569   -41867   -42557   -42824   -42144   -41551 
  -41770   -42206   -42419   -42325   -42105   -42013   -41978   -42103 
  -42267   -42310   -42336   -42009   -41797   -42106   -42024   -42018 
  -42542   -42300   -41979   -42372   -42013   -41643   -42403   -42493 
  -41791   -41917   -42390   -42304   -41933   -41814   -42113   -42373 
  -42417   -42377   -42045   -41702   -41820   -42169   -42603   -42688 
  -41837   -41261   -42083   -42862   -42435   -41851   -42026   -42138 
  -41774   -42226   -42812   -41902   -41420   -42439   -42677   -41935 
  -41823   -42246   -42360   -42005   -41766   -42016   -42419   -42619 
  -42381   -41998   -41715   -41431   -41881   -42920   -42992   -42070 
  -41216   -41256   -42676   -43740   -42603   -40964   -40898   -42156 
  -43248   -42820   -41716   -41422   -41775   -42491   -42923   -42296 
  -41625   -41683   -41925   -42353   -42576   -42079   -41791   -42078 
  -42456   -42704   -42105   -41358   -41843   -42344   -42383   -42720 
  -42199   -41179   -41615   -42604   -42680   -42464   -42307   -41818 
  -41457   -41929   -42657   -42527   -42005   -41908   -41774   -42021 
  -43012   -42793   -41270   -41242   -42331   -42268   -42098   -42574 
  -42353   -41937   -42102   -42032   -41999   -42487   -42395   -41602 
  -41582   -42372   -42442   -41854   -42021   -42750   -42653   -41643 
  -41276   -42209   -43050   -42720   -41717   -41195   -41585   -42294 
  -42793   -42749   -42271   -41958   -41692   -41701   -42562   -42823 
  -41698   -41342   -42319   -42838   -42585   -41987   -41212   -41378 
  -42576   -43109   -42669   -42067   -41434   -41544   -42566   -42939 
  -42196   -41472   -41985   -42917   -42230   -41264   -41689   -42087 
  -42527   -43033   -41935   -40986   -42022   -42909   -42588   -42034 
  -41905   -42167   -41995   -41717   -42213   -42666   -42487   -42053 
  -41648   -41744   -42118   -42117   -42338   -42746   -42201   -41554 
  -41885   -42346   -42508   -42248   -41739   -42028   -42592   -42300 
  -41666   -41480   -41967   -42500   -42376   -42234   -42468   -42368 
  -41953   -41773   -41782   -41962   -42421   -42834   -42685   -41779 
  -41118   -41763   -42668   -42715   -42183   -41566   -41759   -42646 
  -42709   -42036   -41904   -41990   -41763   -42132   -42786   -42514 
  -42071   -41837   -41278   -41503   -42743   -43356   -42673   -41382 
  -40842   -41654   -43042   -43792   -42668   -40853   -40899   -42082 
  -42716   -42865   -42390   -41507   -41526   -42535   -42917   -42125 
  -41374   -41602   -42410   -42526   -41955   -41970   -42269   -42383 
  -42669   -42244   -41446   -41793   -42477   -42639   -42196   -41061 
  -41142   -43108   -43823   -42179   -40888   -41239   -42233   -42932 
  -42792   -42024   -41462   -41747   -42527   -42562   -42037   -41978 
  -41777   -41751   -42774   -42974   -41955   -41698   -41916   -41999 
  -42384   -42502   -41947   -41472   -41917   -42846   -42813   -41889 
  -41463   -41793   -42292   -42519   -42126   -41724   -42176   -42549 
  -42074   -41890   -42248   -42426   -42469   -42388   -42052   -41512 
  -41301   -42118   -43243   -43021   -41590   -41008   -41733   -42338 
  -42476   -42392   -42232   -42271   -42114   -42001   -42415   -42248 
  -41631   -41914   -42367   -42400   -42483   -42067   -41458   -41731 
  -42294   -42619   -42789   -42099   -41203   -41717   -42650   -42402 
  -41974   -42345   -42379   -41710   -41704   -42222   -42259   -42542 
  -42855   -41881   -41188   -42272   -42979   -42348   -42039   -41914 
  -41370   -41542   -42427   -42746   -42342   -42001   -42040   -42056 
  -41951   -42029   -42388   -42723   -42356   -41636   -41646   -41920 
  -42036   -42526   -42610   -42163   -42130   -41824   -41382   -42059 
  -42989   -42857   -42009   -41597   -41994   -42259   -41809   -41457 
  -42298   -43448   -42669   -40948   -41084   -42471   -43220   -42966 
  -41835   -41067   -41704   -42504   -42734   -42603   -41692   -41164 
  -42206   -43096   -42704   -41816   -41129   -41535   -42836   -43210 
  -42041   -41058   -41735   -42770   -42732   -42067   -41459   -41773 
  -42434   -42207   -42152   -42392   -42210   -42425   -42480   -41843 
  -41575   -41731   -42282   -42839   -42242   -41705   -42222   -42133 
  -41840   -42596   -42579   -41648   -41904   -42299   -41831   -42044 
  -42581   -42228   -41656   -41715   -42481   -42939   -42321   -41661 
  -41670   -42120   -42495   -42333   -42315   -42388   -41509   -41045 
  -42230   -43073   -42638   -41793   -41079   -41747   -43155   -42888 
  -41778   -41767   -42213   -42265   -42344   -42520   -42198   -41524 
  -41546   -42448   -42714   -41874   -41548   -41806   -42020   -43019 
  -43510   -42055   -41033   -41366   -41752   -42699   -43367   -42282 
  -41304   -41573   -42009   -42433   -42813   -42772   -42063   -41173 
  -41520   -42418   -42438   -42658   -42750   -41427   -40752   -41856 
  -42863   -43028   -42410   -41256   -41058   -42411   -43650   -43073 
  -41274   -40448   -41685   -43691   -43976   -42003   -40239   -40745 
  -42529   -43339   -42892   -42295   -41673   -41438   -42101   -42456 
  -42087   -41926   -41986   -41985   -42380   -42830   -42083   -41401 
  -42284   -42797   -42192   -41845   -42056   -42566   -42201   -41272 
  -41910   -42658   -42176   -42111   -41985   -41578   -42153   -42863 
  -42678   -41719   -41067   -41964   -43087   -42676   -41802   -41800 
  -42130   -42070   -41948   -42307   -42562   -42142   -41943   -42267 
  -42477   -42344   -41378   -40614   -42160   -44176   -43359   -40953 
  -40369   -42041   -43537   -43279   -41998   -41031   -41150   -42060 
  -42900   -42957   -42184   -41696   -41972   -42182   -42090   -42032 
  -41953   -42036   -42526   -42508   -41781   -41775   -42345   -42514 
  -42290   -41481   -41287   -42824   -43507   -41921   -41057   -41951 
  -42427   -42425   -42531   -41898   -41436   -41887   -42033   -42384 
  -43102   -42460   -41407   -41721   -42526   -42624   -41882   -41314 
  -41858   -42643   -42552   -42020   -41854   -41762   -42043   -43085 
  -42886   -41373   -41543   -42738   -42448   -41663   -41682   -42045 
  -42277   -42375   -42619   -42240   -41150   -41432   -42723   -43085 
  -42673   -41543   -41025   -42457   -43217   -42425   -41948   -41658 
  -41581   -42009   -42296   -42380   -42183   -42126   -42331   -41870 
  -41717   -42223   -41895   -41785   -42456   -42294   -42052   -42500 
  -42060   -41320   -42142   -42967   -42674   -42772   -42240   -40556 
  -40948   -43159   -43649   -42507   -41763   -41526   -41457   -42113 
  -42831   -42222   -41345   -41584   -42237   -42796   -42859   -41828 
  -41319   -42666   -43715   -42959   -41782   -41351   -41770   -42500 
  -42754   -42276   -41565   -41389   -41150   -40788   -42053   -43684 
  -43133   -41952   -41983   -42600   -42994   -42371   -41326   -41521 
  -42438   -42707   -42188   -41438   -41226   -41756   -42456   -42768 
  -42318   -41323   -41045   -41886   -42901   -43460   -43119   -42059 
  -41053   -40732   -41806   -43205   -43222   -42890   -42728   -41624 
  -40757   -41413   -42147   -42052   -41797   -41596   -42006   -43316 
  -43856   -42796   -41283   -40544   -41214   -42529   -43532   -43560 
  -41775   -40343   -41628   -42782   -41878   -41736   -42822   -42350 
  -41076   -41848   -43198   -42988   -42809   -43020   -42009   -40563 
  -40875   -42658   -43052   -41513   -41216   -43071   -43911   -42454 
  -41129   -41323   -42105   -42597   -42114   -40969   -41008   -42527 
  -43696   -43343   -42040   -41492   -42017   -42219   -42133   -42287 
  -42236   -42107   -41813   -41114   -41013   -41867   -42831   -43490 
  -42851   -40772   -40238   -42161   -43615   -43079   -41368   -40921 
  -42691   -43182   -41698   -41743   -43147   -43780   -42793   -40269 
  -39522   -42109   -43735   -42691   -41848   -42063   -42302   -42201 
  -42182   -42530   -42358   -41523   -41382   -42329   -43140   -42647 
  -41524   -41391   -42176   -42928   -42772   -41218   -40635   -42437 
  -43405   -42537   -42088   -42310   -42643   -42219   -40693   -40644 
  -42703   -43718   -43114   -42233   -40826   -40213   -42345   -44895 
  -44147   -41054   -39583   -41015   -43081   -43452   -42337   -41277 
  -41008   -41698   -42967   -43356   -42203   -41276   -41909   -42768 
  -42700   -41970   -41156   -41427   -42738   -43236   -42207   -41048 
  -41416   -42701   -42919   -42076   -41315   -41091   -41887   -43340 
  -43752   -42493   -41138   -41203   -42134   -42610   -42327   -41980 
  -41932   -41679   -41831   -42966   -43008   -41631   -41708   -42982 
  -42718   -41347   -41170   -42229   -43108   -43509   -42957   -40886 
  -39893   -41947   -43868   -43132   -41466   -40892   -41715   -42859 
  -42986   -42098   -41370   -41640   -42186   -42005   -41963   -42718 
  -42888   -42045   -41499   -41686   -42094   -42273   -41937   -41674 
  -41945   -42188   -42284   -42202   -42041   -42383   -42457   -42140 
  -42772   -43083   -41879   -41142   -41446   -41767   -42250   -42746 
  -42670   -42261   -41806   -41511   -42122   -43171   -43127   -42372 
  -41740   -41157   -41461   -42417   -42399   -41925   -42063   -42265 
  -42101   -42063   -42507   -42572   -41859   -41593   -42040   -42071 
  -41813   -42354   -43092   -42685   -41607   -41215   -41847   -42736 
  -42873   -41953   -41215   -41670   -42462   -42870   -42584   -41704 
  -41689   -42550   -42529   -41763   -41702   -42205   -42241   -42076 
  -42304   -42457   -42506   -42423   -41870   -42088   -42761   -41818 
  -40853   -41752   -42649   -42585   -42296   -41808   -41650   -42078 
  -42502   -42793   -42568   -42025   -41922   -41755   -41555   -42286 
  -43100   -42357   -41106   -41524   -42819   -42861   -41805   -41297 
  -41817   -42325   -42326   -42126   -41698   -41574   -42522   -43124 
  -41802   -40745   -42098   -43526   -42834   -41698   -41754   -42215 
  -42466   -42530   -42133   -41752   -41782   -41746   -41925   -42437 
  -42649   -42668   -42302   -41569   -41824   -42522   -42086   -41914 
  -42877   -42873   -41724   -41389   -41710   -42045   -42770   -42635 
  -41254   -41202   -42666   -43197   -42651   -41972   -41289   -41430 
  -42448   -42734   -42199   -42114   -42269   -42118   -42272   -42533 
  -41781   -40994   -41692   -42581   -42460   -42201   -42199   -42086 
  -42066   -42345   -42311   -41681   -41399   -42155   -42898   -42520 
  -42110   -42526   -42543   -41790   -41508   -41962   -42053   -41737 
  -42236   -43023   -42475   -41272   -41233   -42269   -42832   -42491 
  -42232   -42340   -42169   -41704   -41723   -42352   -42680   -42476 
  -42122   -41403   -41103   -42218   -43212   -42628   -41532   -41385 
  -42356   -43135   -42549   -41682   -41721   -41883   -42306   -43244 
  -42623   -40906   -41046   -42259   -42790   -42970   -42155   -40883 
  -41361   -42741   -43210   -42745   -41632   -41061   -41775   -42415 
  -42439   -42280   -41920   -42125   -42747   -42545   -41933   -41540 
  -41459   -42037   -42793   -42849   -42043   -41269   -41667   -42645 
  -42892   -42346   -41553   -41598   -42728   -42830   -41571   -41256 
  -41972   -42550   -42857   -42556   -41778   -41432   -41827   -42473 
  -42720   -42461   -42172   -42014   -41916   -42232   -42637   -42295 
  -41733   -41832   -42245   -42188   -41737   -41597   -41624   -41674 
  -42372   -43077   -42651   -41793   -41601   -41902   -42242   -42549 
  -42618   -42260   -41824   -41818   -42184   -42561   -42503   -41802 
  -41530   -42265   -42439   -41782   -41951   -42628   -42739   -42508 
  -41974   -41467   -41658   -42219   -42531   -42334   -41917   -41944 
  -42334   -42537   -42460   -42175   -41836   -41548   -41536   -42101 
  -42512   -42435   -42562   -42452   -41833   -41477   -41615   -42147 
  -42492   -42203   -41924   -42114   -42404   -42373   -42236   -42082 
  -41821   -42103   -42454   -41976   -41867   -42523   -42700   -42344 
  -41986   -41750   -41760   -42167   -42611   -42207   -41428   -41729 
  -42550   -42568   -42234   -42126   -42044   -41976   -42012   -42209 
  -42323   -42001   -41777   -42090   -42448   -42573   -42296   -41825 
  -41905   -42202   -42142   -42048   -42148   -42477   -42404   -41500 
  -41407   -42557   -42824   -42174   -41875   -41724   -41983   -42618 
  -42454   -41808   -41713   -42138   -42651   -42565   -42063   -41963 
  -41704   -41540   -42477   -42942   -42037   -41481   -41709   -42155 
  -42850   -42944   -42076   -41693   -41994   -41809   -41759   -42708 
  -43210   -42310   -41409   -41415   -41831   -42390   -42660   -42037 
  -41427   -41851   -42376   -42446   -42736   -42738   -41968   -41584 
  -41971   -42221   -42147   -42105   -42226   -42522   -42475   -41713 
  -41300   -41914   -42411   -42282   -42171   -42017   -41702   -41955 
  -42861   -43004   -41817   -41023   -41828   -42939   -42834   -41787 
  -41257   -42061   -43004   -42723   -41773   -41277   -41628   -42311 
  -42510   -42323   -42180   -41921   -41752   -42229   -42777   -42429 
  -41750   -41909   -42333   -42014   -41878   -42398   -42402   -42088 
  -42249   -42303   -42114   -42244   -42384   -42018   -41670   -41952 
  -42340   -42290   -42171   -42071   -41913   -42273   -42712   -42055 
  -41361   -42219   -43116   -42303   -41197   -41386   -42259   -42649 
  -42418   -42168   -42012   -41746   -41898   -42650   -42763   -41800 
  -41413   -42215   -42483   -41949   -42132   -42456   -41910   -41808 
  -42375   -42252   -41837   -41937   -42264   -42630   -42568   -41882 
  -41536   -41928   -42425   -42481   -42144   -41949   -41866   -41802 
  -42392   -43085   -42655   -41536   -40973   -41661   -42801   -42890 
  -42376   -42060   -41544   -41612   -42596   -42699   -41870   -41936 
  -42515   -42234   -41573   -41542   -42394   -43155   -42604   -41596 
  -41480   -41893   -42245   -42515   -42541   -42287   -42033   -41840 
  -41802   -42265   -42693   -42161   -41454   -41744   -42464   -42707 
