Origin Time       2025/03/30 21:30:00
Lat.              38.535
Long.             142.295
Depth. (km)       44
Mag.              4.3
Station Code      MYGH08
Station Lat.      38.1133
Station Long.     140.8441
Station Height(m) -90
Record Time       2025/03/30 21:31:32
Sampling Freq(Hz) 100Hz
Duration Time(s)  120
Dir.              3
Scale Factor      3923(gal)/8224838
Max. Acc. (gal)   0.356
Last Correction   2025/03/30 21:31:33
Memo.             
[...]
   -9232    -9266    -9247    -9180    -9116    -9134    -9151    -9072 
   -8947    -8972    -9204    -9424    -9486    -9452    -9378    -9286 
   -9238    -9216    -9151    -9115    -9146    -9161    -9188    -9248 
   -9310    -9366    -9360    -9308    -9252    -9150    -9080    -9124 
   -9219    -9317    -9319    -9173    -9049    -9057    -9131    -9162 
   -9169    -9213    -9193    -9204    -9377    -9440    -9313    -9198 
   -9116    -9072    -9088    -9124    -9170    -9215    -9231    -9261 
   -9343    -9344    -9234    -9185    -9182    -9144    -9177    -9308 
   -9406    -9412    -9362    -9300    -9220    -9131    -9038    -8976 
   -9043    -9151    -9158    -9224    -9397    -9440    -9310    -9130 
   -9024    -9084    -9146    -9124    -9177    -9225    -9198    -9229 
   -9240    -9182    -9171    -9175    -9163    -9138    -9136    -9281 
   -9408    -9310    -9173    -9085    -9032    -9120    -9240    -9273 
   -9251    -9208    -9289    -9435    -9397    -9258    -9143    -9059 
   -9089    -9124    -9077    -9163    -9351    -9356    -9256    -9290 
   -9367    -9297    -9171    -9136    -9134    -9146    -9224    -9290 
   -9275    -9224    -9184    -9198    -9286    -9304    -9181    -9130 
   -9190    -9220    -9217    -9200    -9204    -9173    -9055    -9035 
   -9108    -9142    -9201    -9290    -9304    -9263    -9238    -9217 
   -9205    -9198    -9144    -9065    -9035    -9142    -9382    -9481 
   -9279    -9065    -9073    -9146    -9103    -9020    -9036    -9208 
   -9412    -9436    -9354    -9324    -9301    -9228    -9159    -9190 
   -9212    -9158    -9265    -9432    -9393    -9325    -9279    -9117 
   -9026    -9104    -9217    -9310    -9302    -9189    -9154    -9231 
   -9290    -9235    -9053    -8912    -9019    -9246    -9337    -9297 
   -9235    -9169    -9144    -9202    -9246    -9198    -9121    -9134 
   -9239    -9292    -9246    -9198    -9175    -9153    -9131    -9134 
   -9165    -9188    -9205    -9286    -9382    -9418    -9424    -9379 
   -9277    -9197    -9138    -9109    -9175    -9239    -9232    -9219 
   -9162    -9090    -9136    -9221    -9207    -9162    -9190    -9209 
   -9188    -9251    -9333    -9263    -9100    -9032    -9111    -9197 
   -9221    -9196    -9100    -9078    -9220    -9355    -9325    -9162 
   -9120    -9258    -9331    -9265    -9189    -9215    -9289    -9293 
   -9309    -9294    -9165    -9159    -9309    -9320    -9173    -9050 
   -9061    -9208    -9309    -9289    -9277    -9225    -9138    -9188 
   -9228    -9119    -9078    -9148    -9180    -9211    -9289    -9333 
   -9277    -9169    -9113    -9066    -9034    -9153    -9300    -9266 
   -9135    -9078    -9109    -9175    -9229    -9247    -9228    -9207 
   -9286    -9404    -9354    -9213    -9147    -9121    -9132    -9182 
   -9227    -9286    -9377    -9420    -9301    -9130    -9142    -9232 
   -9213    -9150    -9085    -9059    -9165    -9313    -9387    -9336 
   -9219    -9182    -9189    -9197    -9228    -9215    -9220    -9207 
   -9080    -9061    -9192    -9270    -9275    -9248    -9207    -9196 
   -9227    -9232    -9189    -9169    -9167    -9166    -9178    -9171 
   -9128    -9104    -9146    -9217    -9256    -9285    -9306    -9294 
   -9285    -9261    -9153    -9004    -9000    -9182    -9277    -9200 
   -9182    -9232    -9266    -9347    -9406    -9350    -9250    -9202 
   -9213    -9209    -9189    -9197    -9198    -9190    -9148    -9085 
   -9165    -9331    -9317    -9169    -9099    -9148    -9239    -9271 
   -9224    -9181    -9192    -9242    -9281    -9251    -9166    -9078 
   -9065    -9144    -9207    -9232    -9283    -9302    -9234    -9148 
   -9127    -9136    -9105    -9111    -9205    -9271    -9282    -9310 
   -9347    -9351    -9327    -9259    -9146    -9076    -9096    -9184 
   -9305    -9315    -9202    -9202    -9281    -9217    -9117    -9163 
   -9202    -9116    -9138    -9308    -9335    -9228    -9200    -9229 
   -9166    -9035    -9062    -9223    -9313    -9328    -9309    -9286 
   -9248    -9143    -9042    -8995    -8989    -9054    -9170    -9298 
   -9371    -9358    -9329    -9329    -9313    -9208    -9063    -9061 
   -9224    -9377    -9393    -9266    -9116    -9121    -9198    -9155 
   -9084    -9090    -9112    -9208    -9378    -9435    -9389    -9336 
   -9229    -9147    -9159    -9144    -9088    -9117    -9239    -9300 
   -9283    -9308    -9248    -9084    -9123    -9261    -9175    -9126 
   -9255    -9259    -9165    -9148    -9112    -9076    -9167    -9246 
   -9198    -9232    -9315    -9248    -9244    -9309    -9215    -9119 
   -9117    -9169    -9292    -9275    -9104    -9093    -9181    -9178 
   -9227    -9293    -9240    -9220    -9254    -9317    -9427    -9335 
   -9096    -9051    -9148    -9220    -9238    -9221    -9238    -9219 
   -9154    -9142    -9148    -9150    -9198    -9278    -9277    -9198 
   -9227    -9332    -9310    -9188    -9108    -9103    -9108    -9157 
   -9259    -9243    -9112    -9107    -9246    -9310    -9239    -9196 
   -9215    -9202    -9186    -9201    -9229    -9285    -9356    -9293 
   -9117    -9135    -9321    -9335    -9216    -9177    -9157    -9070 
   -9036    -9162    -9323    -9370    -9313    -9213    -9162    -9190 
   -9170    -9113    -9124    -9155    -9209    -9269    -9256    -9239 
   -9261    -9266    -9242    -9201    -9170    -9182    -9215    -9204 
   -9148    -9148    -9212    -9207    -9142    -9148    -9166    -9151 
   -9229    -9308    -9294    -9294    -9274    -9238    -9221    -9155 
   -9140    -9232    -9262    -9219    -9212    -9223    -9196    -9158 
   -9188    -9258    -9224    -9126    -9093    -9144    -9285    -9412 
   -9390    -9283    -9177    -9150    -9243    -9306    -9205    -9072 
   -9070    -9140    -9229    -9324    -9293    -9194    -9150    -9103 
   -9138    -9306    -9393    -9270    -9101    -9090    -9161    -9154 
   -9147    -9208    -9221    -9139    -9108    -9193    -9243    -9239 
   -9259    -9289    -9300    -9242    -9169    -9200    -9229    -9165 
   -9107    -9103    -9107    -9116    -9177    -9285    -9385    -9393 
   -9331    -9261    -9169    -9142    -9208    -9205    -9167    -9240 
   -9319    -9296    -9262    -9231    -9143    -9073    -9108    -9128 
   -9086    -9167    -9313    -9333    -9300    -9265    -9229    -9246 
   -9262    -9212    -9131    -9121    -9208    -9256    -9234    -9192 
   -9132    -9136    -9190    -9189    -9200    -9243    -9263    -9325 
   -9370    -9316    -9236    -9147    -9084    -9121    -9208    -9312 
   -9316    -9198    -9220    -9315    -9273    -9182    -9077    -8981 
   -9004    -9131    -9251    -9301    -9309    -9288    -9256    -9242 
   -9211    -9170    -9113    -9039    -9019    -9076    -9209    -9344 
   -9332    -9204    -9113    -9136    -9240    -9356    -9409    -9289 
   -9121    -9101    -9097    -9094    -9163    -9174    -9182    -9254 
   -9271    -9306    -9416    -9444    -9344    -9186    -9072    -9105 
   -9211    -9251    -9244    -9188    -9100    -9086    -9132    -9189 
   -9255    -9290    -9312    -9309    -9227    -9212    -9323    -9325 
   -9193    -9077    -9001    -9019    -9123    -9205    -9292    -9367 
   -9332    -9262    -9279    -9289    -9169    -9015    -8957    -9055 
   -9262    -9381    -9370    -9329    -9250    -9212    -9221    -9108 
   -8984    -9035    -9144    -9227    -9316    -9358    -9304    -9234 
   -9173    -9065    -9007    -9092    -9147    -9159    -9298    -9447 
   -9417    -9255    -9080    -8986    -9008    -9090    -9132    -9131 
   -9251    -9444    -9508    -9431    -9244    -9057    -9061    -9202 
   -9302    -9288    -9265    -9355    -9424    -9351    -9240    -9127 
   -8988    -9018    -9254    -9344    -9267    -9308    -9371    -9332 
   -9328    -9290    -9093    -8947    -9019    -9178    -9279    -9271 
   -9196    -9177    -9236    -9270    -9200    -9121    -9134    -9107 
   -9007    -9059    -9219    -9274    -9246    -9212    -9265    -9408 
   -9398    -9166    -8951    -8961    -9127    -9201    -9215    -9323 
   -9340    -9196    -9147    -9196    -9148    -9120    -9207    -9242 
   -9246    -9308    -9342    -9301    -9188    -9081    -9038    -9034 
   -9121    -9243    -9305    -9324    -9323    -9390    -9436    -9259 
   -9073    -9042    -9005    -8999    -9124    -9313    -9459    -9421 
   -9250    -9204    -9265    -9219    -9161    -9246    -9270    -9185 
   -9238    -9336    -9289    -9211    -9200    -9221    -9193    -9158 
   -9228    -9277    -9244    -9240    -9188    -9109    -9151    -9175 
   -9093    -9077    -9184    -9308    -9309    -9193    -9154    -9185 
   -9157    -9116    -9092    -9127    -9247    -9300    -9256    -9198 
   -9170    -9251    -9309    -9198    -9111    -9146    -9163    -9128 
   -9121    -9162    -9194    -9181    -9196    -9344    -9517    -9482 
   -9293    -9204    -9220    -9143    -9000    -8974    -9050    -9136 
   -9200    -9207    -9244    -9370    -9386    -9200    -9027    -9004 
   -9104    -9251    -9288    -9217    -9198    -9254    -9356    -9417 
   -9277    -9084    -9088    -9171    -9147    -9103    -9184    -9354 
   -9439    -9373    -9259    -9224    -9277    -9223    -9057    -9072 
   -9232    -9313    -9348    -9339    -9228    -9117    -9143    -9281 
   -9292    -9123    -9085    -9252    -9342    -9296    -9256    -9197 
   -9093    -9007    -9009    -9127    -9189    -9157    -9234    -9331 
   -9292    -9196    -9108    -9081    -9092    -9109    -9247    -9413 
   -9429    -9348    -9259    -9184    -9097    -9076    -9130    -9115 
   -9150    -9288    -9270    -9175    -9213    -9263    -9242    -9225 
   -9217    -9193    -9200    -9282    -9358    -9332    -9259    -9151 
   -9034    -9045    -9108    -9108    -9121    -9180    -9270    -9354 
   -9367    -9285    -9148    -9134    -9202    -9116    -9019    -9192 
   -9460    -9504    -9340    -9208    -9192    -9198    -9163    -9093 
   -9100    -9219    -9279    -9259    -9320    -9371    -9239    -9109 
   -9150    -9162    -9099    -9181    -9370    -9390    -9211    -9067 
   -9054    -9051    -9053    -9115    -9159    -9182    -9289    -9366 
   -9324    -9300    -9236    -9066    -8970    -9022    -9188    -9373 
   -9412    -9320    -9196    -9111    -9190    -9327    -9236    -9042 
   -9092    -9294    -9370    -9333    -9288    -9236    -9193    -9177 
   -9132    -9080    -9147    -9270    -9306    -9321    -9336    -9270 
   -9185    -9184    -9208    -9189    -9193    -9281    -9329    -9236 
   -9190    -9200    -9073    -9043    -9162    -9127    -9130    -9273 
   -9294    -9247    -9223    -9201    -9180    -9127    -9153    -9250 
   -9229    -9147    -9185    -9267    -9221    -9117    -9097    -9157 
   -9189    -9072    -9019    -9262    -9462    -9383    -9298    -9315 
   -9315    -9286    -9340    -9439    -9337    -9099    -8976    -8924 
   -8974    -9123    -9151    -9159    -9313    -9443    -9452    -9412 
   -9336    -9250    -9143    -9018    -9049    -9193    -9184    -9112 
   -9173    -9205    -9124    -9126    -9174    -9143    -9200    -9332 
   -9302    -9181    -9147    -9192    -9273    -9316    -9223    -9143 
   -9285    -9445    -9378    -9223    -9126    -9063    -9117    -9297 
   -9374    -9239    -9132    -9197    -9207    -9127    -9190    -9269 
   -9162    -9081    -9182    -9339    -9381    -9306    -9225    -9144 
   -9089    -9097    -9100    -9104    -9177    -9254    -9246    -9243 
   -9289    -9238    -9158    -9151    -9120    -9201    -9362    -9310 
   -9223    -9239    -9171    -9117    -9154    -9111    -9082    -9227 
   -9393    -9448    -9383    -9238    -9103    -8988    -8919    -8985 
   -9113    -9197    -9300    -9400    -9377    -9293    -9239    -9189 
   -9142    -9073    -9065    -9263    -9474    -9437    -9290    -9181 
   -9138    -9209    -9207    -9085    -9105    -9224    -9302    -9386 
   -9398    -9319    -9234    -9142    -9059    -9070    -9234    -9414 
   -9347    -9126    -9097    -9220    -9243    -9173    -9078    -8961 
   -8934    -9055    -9190    -9277    -9324    -9292    -9215    -9159 
   -9131    -9147    -9236    -9332    -9335    -9308    -9382    -9433 
   -9316    -9092    -8862    -8823    -9030    -9246    -9367    -9387 
   -9310    -9305    -9340    -9231    -9101    -9085    -9111    -9193 
   -9302    -9324    -9296    -9275    -9217    -9184    -9177    -9028 
   -8938    -9104    -9198    -9166    -9240    -9329    -9412    -9497 
   -9431    -9301    -9256    -9240    -9216    -9223    -9212    -9084 
   -9004    -9165    -9335    -9325    -9238    -9134    -9157    -9309 
   -9359    -9302    -9224    -9184    -9261    -9265    -9105    -9019 
   -9047    -9051    -9038    -9050    -9074    -9124    -9231    -9273 
   -9135    -9020    -9074    -9124    -9132    -9193    -9209    -9173 
   -9236    -9298    -9275    -9293    -9297    -9236    -9162    -9092 
   -9121    -9163    -9127    -9186    -9312    -9398    -9483    -9428 
   -9208    -9108    -9207    -9305    -9285    -9231    -9159    -9012 
   -9034    -9300    -9413    -9315    -9286    -9339    -9367    -9351 
   -9342    -9386    -9375    -9282    -9243    -9269    -9304    -9336 
   -9278    -9120    -9045    -9072    -9042    -8972    -8955    -8945 
   -8924    -8924    -8982    -9221    -9520    -9601    -9517    -9432 
   -9398    -9436    -9451    -9292    -9055    -9016    -9184    -9278 
   -9111    -8765    -8475    -8463    -8685    -8907    -9121    -9364 
   -9541    -9647    -9649    -9613    -9614    -9448    -9154    -9034 
   -9074    -9050    -8946    -8965    -9100    -9135    -9077    -9142 
   -9309    -9342    -9336    -9450    -9440    -9305    -9255    -9189 
   -9103    -9073    -9058    -9109    -9159    -9181    -9316    -9364 
   -9285    -9464    -9720    -9664    -9495    -9354    -9208    -9136 
   -9072    -8988    -8926    -8888    -9013    -9238    -9292    -9188 
   -9090    -9109    -9282    -9421    -9319    -9138    -9099    -9132 
   -9247    -9466    -9494    -9242    -9104    -9166    -9108    -8946 
   -8829    -8743    -8850    -9103    -9259    -9300    -9207    -9143 
   -9294    -9429    -9371    -9216    -9150    -9240    -9270    -9202 
   -9192    -9202    -9337    -9618    -9655    -9401    -9258    -9271 
   -9248    -9170    -9024    -8934    -9077    -9300    -9359    -9198 
   -9035    -9157    -9412    -9452    -9261    -9097    -9142    -9169 
   -9050    -9050    -9128    -9096    -9158    -9298    -9267    -9219 
   -9239    -9124    -9011    -9019    -9022    -9073    -9139    -9121 
   -9207    -9433    -9512    -9367    -9277    -9325    -9312    -9256 
   -9285    -9336    -9308    -9207    -9107    -8997    -8964    -9123 
   -9224    -9153    -9112    -9162    -9312    -9432    -9377    -9323 
   -9296    -9236    -9274    -9339    -9328    -9252    -9144    -9078 
   -9022    -9042    -9166    -9144    -9072    -9186    -9298    -9332 
   -9439    -9466    -9290    -9247    -9435    -9431    -9213    -9161 
   -9269    -9328    -9251    -9097    -9039    -9036    -8959    -8924 
   -8968    -8991    -9067    -9212    -9301    -9313    -9269    -9192 
   -9072    -8938    -8988    -9096    -8989    -8988    -9302    -9477 
   -9294    -9121    -9143    -9209    -9208    -9104    -8985    -9049 
   -9242    -9364    -9381    -9354    -9337    -9289    -9193    -9200 
   -9282    -9270    -9240    -9279    -9319    -9425    -9610    -9612 
   -9382    -9263    -9335    -9383    -9312    -9138    -9034    -9112 
   -9171    -9074    -8959    -9027    -9250    -9390    -9374    -9300 
   -9212    -9181    -9240    -9255    -9158    -9070    -9065    -9096 
   -9154    -9224    -9207    -9123    -9113    -9177    -9279    -9369 
   -9317    -9205    -9266    -9416    -9348    -9131    -9004    -8926 
   -8868    -8885    -8966    -9067    -9103    -9093    -9136    -9193 
   -9224    -9302    -9390    -9346    -9293    -9333    -9286    -9159 
   -9115    -9124    -9100    -9061    -9166    -9350    -9351    -9242 
   -9227    -9283    -9269    -9198    -9162    -9035    -8969    -9232 
   -9432    -9312    -9261    -9432    -9559    -9396    -9065    -8969 
   -9139    -9251    -9288    -9401    -9497    -9498    -9472    -9370 
   -9151    -9030    -9132    -9169    -9047    -9092    -9205    -9161 
   -9140    -9181    -9267    -9404    -9352    -9177    -9104    -9065 
   -9119    -9248    -9194    -9090    -9163    -9238    -9193    -9126 
   -9126    -9144    -9080    -9042    -9063    -9013    -9007    -9181 
   -9382    -9371    -9225    -9194    -9235    -9243    -9312    -9413 
   -9390    -9262    -9180    -9202    -9342    -9482    -9383    -9190 
   -9208    -9250    -9111    -8977    -8951    -8943    -8928    -8991 
   -9134    -9228    -9252    -9269    -9223    -9115    -9070    -9088 
   -9162    -9358    -9481    -9354    -9185    -9189    -9270    -9258 
   -9238    -9305    -9339    -9360    -9441    -9501    -9481    -9370 
   -9254    -9231    -9265    -9293    -9255    -9186    -9171    -9171 
   -9170    -9100    -8974    -9042    -9243    -9331    -9336    -9224 
   -9042    -9055    -9185    -9089    -8899    -8995    -9229    -9320 
   -9343    -9340    -9312    -9277    -9181    -9067    -8986    -8995 
   -9120    -9207    -9209    -9184    -9192    -9265    -9258    -9150 
   -9051    -8974    -8964    -8997    -9063    -9231    -9331    -9255 
   -9224    -9290    -9324    -9364    -9367    -9243    -9163    -9216 
   -9250    -9198    -9185    -9290    -9316    -9235    -9336    -9529 
   -9462    -9173    -9015    -9061    -9142    -9329    -9505    -9374 
   -9246    -9350    -9327    -9170    -9155    -9180    -9158    -9220 
   -9298    -9256    -9167    -9131    -9132    -9132    -9121    -9163 
   -9298    -9405    -9398    -9300    -9163    -9142    -9181    -9105 
   -9081    -9139    -9085    -9059    -9165    -9169    -9027    -9003 
   -9196    -9360    -9328    -9290    -9308    -9200    -9061    -9045 
   -9003    -8919    -8993    -9158    -9224    -9262    -9310    -9286 
   -9247    -9310    -9406    -9283    -9047    -9081    -9265    -9331 
   -9333    -9246    -9092    -9092    -9229    -9292    -9240    -9153 
   -9057    -9035    -9132    -9197    -9221    -9320    -9387    -9355 
   -9373    -9437    -9373    -9201    -9107    -9115    -9123    -9173 
   -9289    -9324    -9296    -9347    -9396    -9304    -9189    -9227 
   -9308    -9293    -9255    -9231    -9169    -9127    -9188    -9221 
   -9093    -8982    -9054    -9147    -9135    -9105    -9121    -9158 
   -9227    -9325    -9332    -9254    -9240    -9246    -9173    -9138 
   -9202    -9265    -9254    -9113    -8928    -8968    -9134    -9115 
   -9074    -9146    -9205    -9304    -9342    -9281    -9337    -9321 
   -9093    -8996    -9130    -9259    -9274    -9234    -9190    -9112 
   -9084    -9169    -9217    -9220    -9273    -9360    -9475    -9517 
   -9444    -9337    -9171    -9105    -9229    -9224    -9123    -9182 
   -9174    -9024    -9097    -9332    -9329    -9219    -9321    -9420 
   -9298    -9174    -9150    -9116    -9099    -9180    -9254    -9186 
   -9121    -9181    -9188    -9089    -9059    -9088    -9073    -9121 
   -9251    -9327    -9370    -9381    -9351    -9331    -9254    -9209 
