Origin Time       2025/03/30 21:30:00
Lat.              38.535
Long.             142.295
Depth. (km)       44
Mag.              4.3
Station Code      MYGH08
Station Lat.      38.1133
Station Long.     140.8441
Station Height(m) 10
Record Time       2025/03/30 21:31:32
Sampling Freq(Hz) 100Hz
Duration Time(s)  120
Dir.              6
Scale Factor      7845(gal)/8223790
Max. Acc. (gal)   0.489
Last Correction   2025/03/30 21:31:33
Memo.             
[...]
  -17972   -17950   -17932   -17794   -17813   -17982   -18111   -18202 
  -18054   -17802   -17872   -18033   -18023   -18046   -18115   -18054 
  -17932   -17980   -18106   -18079   -18048   -18046   -17945   -17940 
  -18009   -17965   -18013   -18080   -17963   -17988   -18102   -17933 
  -17844   -17987   -17969   -17933   -18064   -18135   -18169   -18154 
  -18018   -18006   -18038   -17879   -17820   -17984   -18071   -17996 
  -17894   -17918   -18061   -18094   -17988   -17906   -17949   -18057 
  -18026   -17972   -18034   -18003   -17961   -17979   -17910   -17968 
  -18096   -18034   -18010   -18033   -18045   -18203   -18196   -17976 
  -17915   -17853   -17836   -18034   -18052   -17968   -17995   -17929 
  -17969   -18075   -18009   -18002   -17942   -17857   -18026   -18023 
  -17934   -18172   -18207   -18015   -18060   -18092   -18092   -18169 
  -18052   -17923   -18000   -18002   -17899   -17865   -17880   -17932 
  -17979   -17987   -17977   -17891   -17890   -18068   -18123   -18085 
  -18099   -18068   -18103   -18087   -17930   -17925   -17979   -17948 
  -17965   -17964   -17915   -17905   -17856   -17878   -18034   -18031 
  -17926   -17955   -18003   -18142   -18306   -18153   -17956   -18015 
  -18050   -17998   -17986   -17914   -17903   -18088   -18106   -17919 
  -17949   -18045   -17986   -18000   -18048   -18010   -17999   -18054 
  -18112   -18098   -18095   -18146   -18023   -17818   -17832   -17946 
  -18023   -18046   -17914   -17811   -17940   -18088   -18104   -18060 
  -17969   -17903   -18046   -18215   -18122   -17994   -17945   -17815 
  -17826   -17990   -17988   -17952   -17975   -17950   -18004   -18090 
  -18067   -18041   -18045   -18007   -17967   -17994   -18013   -17998 
  -18095   -18188   -18117   -18057   -17998   -17909   -17991   -18048 
  -17959   -18030   -18104   -18007   -18010   -18002   -17901   -17968 
  -18014   -17903   -17917   -17990   -17938   -17886   -17956   -18075 
  -18094   -17995   -17883   -17917   -18068   -18115   -18077   -18015 
  -17942   -18013   -18100   -18042   -18002   -18004   -18018   -18077 
  -18042   -17938   -17955   -17987   -17956   -17992   -18053   -18017 
  -17994   -18077   -18069   -17950   -17949   -17976   -17990   -18100 
  -18098   -18022   -18036   -17952   -17921   -18003   -17882   -17837 
  -18018   -18003   -17909   -17963   -18023   -18096   -18096   -17983 
  -17940   -17902   -17949   -18177   -18220   -18036   -17911   -17863 
  -17923   -18018   -17990   -17992   -18019   -17965   -18027   -18115 
  -18040   -18000   -18006   -17956   -17949   -17967   -18015   -18152 
  -18246   -18145   -17923   -17884   -18023   -18064   -18041   -17979 
  -17830   -17830   -17944   -17977   -18044   -18065   -17988   -18002 
  -18042   -18049   -18075   -18106   -18141   -18042   -17871   -17851 
  -17936   -18058   -18114   -17988   -17892   -17942   -17961   -17957 
  -18019   -18025   -17995   -18029   -17950   -17814   -17883   -17990 
  -18014   -18077   -18067   -18010   -18073   -18129   -18135   -18118 
  -17986   -17905   -18025   -18083   -17975   -17925   -17934   -17921 
  -17968   -18030   -18071   -18102   -18042   -17969   -17952   -17957 
  -18050   -18131   -18117   -18054   -17901   -17857   -18075   -18175 
  -18029   -17911   -17880   -17874   -17903   -17949   -17964   -17977 
  -18022   -18027   -17964   -17946   -17990   -18023   -18090   -18148 
  -18117   -18094   -18092   -18007   -17910   -17921   -17971   -17941 
  -17887   -17910   -17982   -18040   -18049   -18023   -18054   -18110 
  -18076   -17995   -17950   -17945   -17969   -18063   -18142   -18048 
  -17975   -18061   -18027   -17915   -17965   -18013   -17945   -17955 
  -18057   -18042   -17930   -17898   -17932   -17972   -17963   -17915 
  -17971   -18076   -18119   -18123   -18122   -18134   -18061   -17918 
  -17879   -17871   -17860   -17938   -18017   -18041   -18034   -17992 
  -17999   -18087   -18096   -17961   -17890   -18003   -18133   -18145 
  -18060   -17925   -17902   -17999   -18025   -18010   -17996   -17928 
  -17918   -18040   -18126   -18094   -18076   -18038   -17948   -17979 
  -18042   -17998   -17971   -18022   -18071   -18023   -17952   -17934 
  -17863   -17886   -18056   -17999   -17955   -18164   -18091   -17941 
  -18073   -17969   -17791   -17972   -18072   -17986   -18017   -18011 
  -17884   -17945   -18108   -18050   -17982   -18026   -18013   -18100 
  -18175   -17994   -17944   -18027   -17896   -17910   -18088   -17987 
  -17896   -17968   -17983   -18142   -18199   -17901   -17826   -17990 
  -18046   -18142   -18166   -18083   -18046   -17941   -17868   -17913 
  -17944   -17996   -18022   -17984   -17946   -17930   -18004   -18063 
  -18010   -17956   -17929   -17944   -17998   -18050   -18075   -18014 
  -17983   -18087   -18127   -18038   -17994   -18033   -18067   -18029 
  -17964   -17957   -17987   -18025   -17988   -17830   -17847   -18079 
  -18131   -18036   -18022   -17996   -17953   -17953   -17965   -18067 
  -18195   -18121   -17946   -17909   -17952   -17988   -18018   -18011 
  -17986   -17986   -17982   -17945   -17952   -18013   -18034   -18029 
  -17986   -17910   -17965   -18077   -18058   -18026   -18040   -18040 
  -18044   -17999   -17965   -18004   -17967   -17949   -18015   -17969 
  -17955   -18021   -18002   -17977   -17923   -17913   -18067   -18129 
  -18058   -18056   -18067   -18037   -17977   -17980   -18139   -18175 
  -17955   -17824   -17824   -17902   -18106   -18152   -18021   -17961 
  -17926   -17930   -18019   -18054   -18056   -18100   -18041   -17906 
  -17982   -18111   -18025   -17953   -17952   -17914   -17994   -18107 
  -18031   -17899   -17907   -17956   -17919   -17956   -18065   -18077 
  -18037   -17925   -17822   -17937   -18090   -18121   -18164   -18162 
  -18018   -17902   -17932   -18015   -18084   -18060   -17932   -17872 
  -17921   -17956   -17984   -18079   -18180   -18179   -18030   -17803 
  -17761   -17968   -18076   -18031   -18072   -18098   -18053   -18073 
  -18014   -17922   -18027   -18098   -18002   -17906   -17886   -17967 
  -17992   -17933   -17967   -18010   -18011   -18034   -18004   -17965 
  -18003   -18068   -18111   -18126   -18107   -18021   -17926   -17928 
  -17937   -17961   -18053   -18034   -18010   -18122   -18045   -17906 
  -17992   -18022   -17980   -17994   -17969   -18004   -17986   -17926 
  -18073   -18135   -18025   -17983   -17867   -17764   -17922   -18111 
  -18107   -18061   -18038   -17975   -17959   -17999   -18006   -18037 
  -18063   -17945   -17825   -17899   -17987   -17965   -18002   -18027 
  -17932   -17914   -18040   -18192   -18245   -18129   -18040   -18030 
  -17945   -17919   -17976   -18011   -18076   -18003   -17837   -17941 
  -18084   -18002   -17963   -17975   -17969   -18088   -18181   -18096 
  -18022   -18034   -17971   -17883   -17932   -17990   -17973   -18038 
  -18079   -17950   -17921   -18057   -18076   -18033   -18015   -17884 
  -17845   -17996   -18013   -18026   -18202   -18141   -17936   -17982 
  -18045   -17950   -17891   -17852   -17848   -17986   -18102   -18087 
  -18085   -18110   -18110   -18079   -17977   -17892   -17944   -18019 
  -18021   -18018   -18004   -17926   -17872   -17899   -17903   -17880 
  -17949   -17998   -17956   -18079   -18276   -18252   -18127   -17975 
  -17864   -17910   -17936   -17938   -17987   -18011   -18104   -18137 
  -18017   -17940   -17869   -17882   -18049   -18106   -18094   -18141 
  -18145   -18185   -18199   -18034   -17921   -17890   -17860   -18025 
  -18141   -17999   -17971   -17988   -17867   -17960   -18118   -17938 
  -17825   -17952   -17925   -17940   -18107   -18056   -17982   -18042 
  -17984   -17973   -18057   -18022   -18015   -17983   -17852   -17929 
  -18079   -18044   -17994   -18025   -18141   -18179   -17976   -17782 
  -17784   -17923   -18031   -17980   -17988   -18057   -17972   -17952 
  -18037   -17999   -18045   -18169   -18046   -17946   -18071   -18112 
  -18121   -18110   -17933   -17830   -17845   -17861   -17955   -18011 
  -17994   -18007   -18044   -18069   -18036   -18033   -18063   -17961 
  -17925   -18063   -18133   -18160   -18188   -18092   -17992   -17987 
  -17975   -17930   -17960   -18030   -17960   -17895   -17948   -17909 
  -17921   -18054   -18053   -17987   -17959   -17972   -18076   -18094 
  -18011   -18014   -18013   -18000   -18013   -17932   -17925   -18054 
  -18104   -18090   -18015   -17901   -17913   -17941   -17895   -17895 
  -17911   -17982   -18075   -18007   -17948   -17986   -18040   -18196 
  -18249   -18114   -18085   -18050   -17883   -17860   -17929   -17903 
  -17914   -17918   -17923   -18094   -18191   -18069   -17999   -18050 
  -18077   -17987   -17849   -17864   -17991   -18029   -17980   -17946 
  -18053   -18199   -18063   -17849   -17892   -17965   -18052   -18154 
  -18002   -17887   -18006   -18057   -18060   -18017   -17911   -17963 
  -18031   -17971   -17959   -17988   -18095   -18249   -18175   -17979 
  -17940   -18034   -18073   -17909   -17836   -18044   -18149   -18092 
  -18034   -17910   -17869   -17953   -18042   -18149   -18046   -17818 
  -17922   -18083   -18031   -18100   -18102   -17892   -17872   -17928 
  -17903   -17986   -18003   -17976   -18091   -18067   -17915   -17919 
  -17945   -17955   -18026   -18108   -18188   -18172   -18081   -18040 
  -17991   -17886   -17853   -17923   -17895   -17883   -18052   -18060 
  -17922   -17987   -18077   -18044   -18060   -18076   -18025   -18041 
  -18085   -18081   -18076   -18034   -17923   -17815   -17841   -17928 
  -17907   -17934   -18021   -18006   -18052   -18144   -18085   -17996 
  -18048   -18165   -18095   -17890   -17932   -18130   -18168   -18114 
  -18022   -17926   -17913   -17901   -17880   -17941   -18045   -18080 
  -18009   -17968   -17991   -17960   -17975   -18064   -18002   -17876 
  -17933   -18057   -18090   -18048   -17964   -17898   -17882   -17914 
  -18013   -18087   -18065   -18072   -18087   -17991   -17983   -18077 
  -17969   -17815   -17890   -18041   -18152   -18192   -18072   -17909 
  -17882   -17953   -18052   -18092   -17988   -17984   -18092   -18006 
  -17987   -18139   -18081   -17969   -17967   -17907   -17911   -18007 
  -18052   -18077   -18073   -18018   -17928   -17852   -17949   -18072 
  -18031   -18052   -18126   -18057   -17953   -17946   -18022   -18002 
  -17894   -17915   -17894   -17898   -18112   -18122   -18006   -18081 
  -18033   -17864   -17833   -17860   -17917   -18031   -18111   -18087 
  -18077   -18111   -18037   -17988   -18073   -18090   -17988   -17856 
  -17847   -18021   -18065   -17907   -17913   -18063   -18080   -18111 
  -18288   -18296   -18104   -17983   -17813   -17717   -17930   -17957 
  -17752   -17857   -18040   -18025   -18081   -18127   -18075   -18127 
  -18114   -18021   -18117   -18121   -17928   -17949   -18023   -17899 
  -17872   -17895   -17778   -17842   -18076   -18076   -17952   -17929 
  -17948   -18052   -18218   -18157   -18007   -18127   -18260   -18177 
  -18058   -17942   -17844   -17871   -17999   -18079   -18007   -17928 
  -17932   -17890   -17817   -17869   -18002   -17998   -17915   -17941 
  -18040   -18177   -18288   -18226   -18063   -17991   -18000   -17950 
  -17892   -17936   -18006   -18030   -18027   -17988   -17957   -17980 
  -17948   -17860   -17957   -18154   -18121   -18029   -18064   -17982 
  -17882   -17964   -17984   -17960   -18068   -18081   -18033   -18073 
  -18000   -17922   -17946   -17848   -17820   -17992   -18052   -18048 
  -18083   -18009   -17972   -18084   -18110   -18040   -17984   -17921 
  -17998   -18210   -18207   -18042   -17999   -17938   -17905   -18021 
  -17971   -17901   -18031   -18061   -18060   -18104   -18021   -18002 
  -18013   -17874   -17824   -17946   -18131   -18179   -17955   -17845 
  -17942   -17932   -17944   -17967   -17898   -17934   -17983   -18010 
  -18107   -18148   -18144   -18065   -17899   -17834   -17838   -17967 
  -18211   -18188   -18036   -18098   -18141   -18061   -17994   -17902 
  -17898   -18007   -18003   -17999   -18056   -17949   -17899   -17987 
  -17891   -17855   -18006   -18009   -18042   -18142   -18023   -17990 
  -18100   -18068   -18069   -18110   -17917   -17741   -17938   -18099 
  -17930   -17901   -18045   -18079   -18129   -18083   -17979   -18144 
  -18241   -18084   -18098   -18195   -18071   -17867   -17842   -17969 
  -18009   -17950   -17886   -17842   -17910   -17932   -17882   -17982 
  -18056   -18048   -18077   -17967   -17842   -17938   -18067   -18085 
  -17976   -17848   -17930   -18111   -18108   -17944   -17844   -17879 
  -17871   -17798   -17853   -17995   -18045   -18033   -17996   -18015 
  -18230   -18391   -18296   -18181   -18068   -17923   -17955   -17995 
  -17875   -17892   -18025   -18050   -18044   -17950   -17859   -18031 
  -18207   -18154   -18096   -18023   -17809   -17743   -18014   -18270 
  -18281   -18230   -18187   -18073   -17906   -17825   -17948   -18072 
  -17967   -17794   -17713   -17772   -17967   -18034   -17934   -17955 
  -18060   -18095   -18080   -18017   -17987   -18065   -18076   -17914 
  -17888   -18102   -18189   -18098   -17936   -17783   -17909   -18133 
  -18061   -17892   -17952   -18094   -18100   -18064   -18014   -17907 
  -17872   -17928   -17938   -17949   -17973   -17910   -17928   -17995 
  -17982   -18160   -18297   -18123   -18079   -18157   -18099   -18015 
  -17910   -17913   -18037   -17979   -17828   -17772   -17733   -17756 
  -17865   -17845   -17706   -17757   -17990   -18177   -18378   -18515 
  -18446   -18350   -18254   -18176   -18160   -17938   -17830   -18165 
  -18177   -17847   -17880   -17940   -17864   -17952   -17925   -17771 
  -17724   -17751   -17936   -18107   -18052   -18017   -18076   -18104 
  -18183   -18142   -17915   -17917   -18025   -17938   -18002   -18193 
  -18134   -17980   -17910   -17783   -17751   -17917   -17891   -17720 
  -17807   -17955   -18046   -18176   -18149   -18142   -18291   -18281 
  -18198   -18200   -18165   -18099   -17991   -17898   -17932   -17979 
  -18007   -17918   -17675   -17737   -18046   -18114   -18148   -18133 
  -17848   -17760   -17867   -17865   -17965   -18034   -17991   -18083 
  -18125   -18085   -18149   -18230   -18280   -18223   -18042   -17913 
  -17820   -17828   -17956   -17929   -17909   -18036   -17926   -17739 
  -17806   -17859   -17910   -18126   -18157   -17991   -18002   -18079 
  -18057   -18064   -17991   -17814   -17864   -18098   -18185   -18176 
  -18157   -18090   -17971   -17856   -17987   -18211   -18099   -17903 
  -17859   -17879   -18004   -17990   -17919   -18075   -18044   -17914 
  -18045   -18134   -18161   -18134   -17973   -18004   -18162   -18219 
  -18199   -18021   -17888   -17975   -18011   -17963   -17944   -17806 
  -17662   -17767   -17960   -18042   -18091   -18149   -18227   -18273 
  -18195   -18131   -18131   -17960   -17725   -17725   -17820   -17798 
  -17748   -17768   -17872   -17941   -17933   -17984   -17949   -17859 
  -17957   -17969   -17915   -18103   -18142   -17914   -17909   -18108 
  -18218   -18212   -18069   -17917   -17983   -18064   -17991   -17987 
  -18073   -18175   -18272   -18144   -17995   -18177   -18252   -18014 
  -17921   -17984   -18015   -18049   -17965   -17814   -17891   -18077 
  -18121   -18158   -18149   -17965   -17946   -18048   -17876   -17740 
  -17822   -17857   -18010   -18195   -18071   -17917   -17894   -17907 
  -18060   -18202   -18158   -18092   -18110   -18164   -18157   -18037 
  -17929   -17911   -17884   -17892   -17998   -17990   -17784   -17703 
  -17876   -17971   -17849   -17753   -17794   -17952   -18050   -17961 
  -17955   -18013   -17952   -17949   -17987   -18021   -18180   -18324 
  -18277   -18218   -18311   -18243   -17941   -17894   -18073   -18111 
  -18050   -17980   -17965   -17948   -17815   -17736   -17774   -17848 
  -17845   -17751   -17759   -17899   -18141   -18306   -18150   -18068 
  -18264   -18312   -18161   -18013   -17968   -18102   -18149   -18091 
  -18227   -18291   -18134   -18049   -17986   -17933   -17996   -17982 
  -17772   -17599   -17747   -17902   -17760   -17782   -17953   -17953 
  -18022   -18064   -18026   -18165   -18192   -18053   -18029   -17901 
  -17695   -17743   -17829   -17734   -17761   -18049   -18239   -18152 
  -18100   -18192   -18272   -18338   -18307   -18234   -18242   -18161 
  -18076   -18058   -17957   -17925   -17994   -17937   -17784   -17709 
  -17759   -17917   -18107   -18096   -17888   -17852   -17933   -17845 
  -17759   -17803   -17911   -18034   -18052   -18045   -18102   -18088 
  -18048   -18104   -18149   -18061   -17883   -17809   -17971   -18198 
  -18220   -18029   -17880   -17932   -17994   -17955   -17992   -18121 
  -18177   -18189   -18181   -18092   -17991   -17979   -18067   -18121 
  -18065   -18018   -17992   -17984   -17991   -17888   -17779   -17778 
  -17805   -17955   -18146   -18111   -17956   -17871   -17948   -18204 
  -18272   -18068   -18087   -18218   -18099   -17961   -17834   -17768 
  -17975   -18052   -17855   -17787   -17837   -17923   -18017   -17964 
  -17903   -17933   -18014   -18127   -18076   -17905   -17852   -17899 
  -17982   -18027   -17996   -17972   -17876   -17809   -18006   -18133 
  -18091   -18199   -18161   -17969   -18060   -18154   -18071   -18073 
  -18058   -17946   -17973   -18142   -18208   -18122   -17961   -17842 
  -17901   -18014   -18137   -18277   -18154   -17960   -18025   -17937 
  -17706   -17852   -18049   -18009   -18111   -18211   -18026   -17983 
  -18176   -18126   -17892   -17863   -17909   -17906   -17941   -17911 
  -17891   -17913   -17842   -17910   -18084   -18076   -18052   -18036 
  -17948   -17991   -18031   -17945   -17976   -18090   -18119   -18036 
  -17914   -17944   -17999   -17936   -17972   -18060   -17983   -17887 
  -17918   -18018   -18111   -18073   -17967   -18029   -18115   -18050 
  -17929   -17802   -17865   -18060   -18040   -18031   -18092   -17883 
  -17748   -17917   -18002   -18037   -18073   -17925   -17841   -17965 
  -18060   -18099   -18169   -18192   -18150   -18173   -18269   -18277 
  -18154   -18019   -17980   -17979   -17930   -17929   -17948   -17895 
  -17903   -18007   -18077   -18027   -17950   -17965   -17982   -18003 
  -18058   -18009   -17968   -18049   -18013   -17847   -17803   -17934 
  -18065   -17996   -17822   -17852   -18007   -18054   -18049   -18033 
  -18071   -18189   -18106   -17887   -17942   -18115   -18108   -18018 
  -17902   -17778   -17786   -17907   -17977   -18027   -18104   -18046 
  -17956   -17911   -17810   -17968   -18204   -18030   -17930   -18069 
  -18064   -18087   -18123   -18037   -18040   -18068   -18031   -18010 
  -17980   -17998   -18013   -17980   -18037   -18036   -17990   -18085 
  -18171   -18195   -18129   -17977   -18021   -18040   -17826   -17841 
  -18009   -17894   -17779   -17910   -18029   -18025   -17967   -17878 
  -17838   -17932   -18033   -17994   -17932   -18006   -18121   -18075 
  -17972   -18014   -18073   -18048   -18042   -18002   -17957   -18149 
  -18333   -18225   -18125   -18048   -17914   -17977   -18037   -17953 
  -17964   -17940   -17860   -17934   -17987   -17865   -17828   -17940 
  -17994   -18040   -18118   -18092   -18065   -18057   -17895   -17780 
  -17902   -18046   -18111   -18073   -18007   -18156   -18268   -18075 
