Origin Time       2025/03/30 21:30:00
Lat.              38.535
Long.             142.295
Depth. (km)       44
Mag.              4.3
Station Code      MYGH03
Station Lat.      38.9207
Station Long.     141.6377
Station Height(m) 80
Record Time       2025/03/30 21:31:08
Sampling Freq(Hz) 100Hz
Duration Time(s)  120
Dir.              4
Scale Factor      7845(gal)/8223790
Max. Acc. (gal)   5.938
Last Correction   2025/03/30 21:31:08
Memo.             
[...]
   11024    11026    11026    11025    11025    11025    11024    11026 
   11028    11026    11025    11025    11028    11029    11026    11024 
   11024    11025    11026    11028    11026    11025    11028    11028 
   11025    11025    11028    11026    11026    11028    11025    11025 
   11026    11025    11025    11026    11025    11025    11026    11026 
   11025    11024    11025    11025    11024    11024    11024    11025 
   11025    11024    11025    11025    11025    11025    11025    11024 
   11022    11024    11025    11025    11026    11025    11024    11025 
   11026    11025    11025    11025    11024    11025    11025    11026 
   11026    11025    11024    11025    11026    11026    11026    11025 
   11025    11026    11026    11026    11026    11026    11026    11026 
   11025    11025    11029    11029    11026    11028    11029    11028 
   11028    11025    11024    11026    11028    11026    11026    11028 
   11025    11025    11030    11028    11024    11028    11029    11025 
   11025    11028    11029    11026    11026    11028    11026    11026 
   11026    11028    11026    11026    11026    11026    11026    11024 
   11024    11026    11026    11025    11029    11029    11026    11026 
   11025    11024    11024    11025    11026    11026    11026    11024 
   11026    11028    11026    11026    11026    11025    11026    11028 
   11026    11028    11026    11024    11025    11026    11024    11025 
   11026    11026    11025    11025    11026    11026    11025    11026 
   11028    11025    11025    11026    11025    11026    11026    11025 
   11025    11026    11025    11025    11024    11022    11026    11026 
   11025    11024    11022    11024    11025    11025    11026    11026 
   11025    11024    11022    11024    11025    11026    11026    11026 
   11024    11022    11024    11025    11025    11025    11026    11026 
   11025    11025    11026    11025    11025    11025    11022    11022 
   11026    11026    11025    11025    11025    11026    11028    11028 
   11026    11025    11025    11025    11024    11026    11028    11025 
   11024    11025    11025    11024    11024    11024    11026    11026 
   11025    11025    11026    11026    11024    11024    11026    11025 
   11025    11025    11024    11025    11025    11024    11025    11025 
   11026    11026    11025    11025    11025    11026    11026    11025 
   11024    11024    11024    11025    11026    11028    11026    11024 
   11022    11024    11026    11026    11025    11026    11026    11024 
   11025    11028    11025    11025    11028    11024    11024    11028 
   11026    11024    11025    11025    11026    11028    11026    11026 
   11025    11024    11024    11024    11024    11026    11028    11025 
   11026    11028    11026    11026    11026    11025    11025    11025 
   11024    11026    11028    11026    11026    11026    11025    11025 
   11026    11026    11025    11025    11025    11025    11025    11028 
   11028    11025    11026    11026    11025    11026    11026    11025 
   11026    11028    11025    11026    11028    11028    11026    11026 
   11028    11028    11026    11026    11026    11026    11026    11028 
   11026    11026    11025    11025    11029    11029    11026    11028 
   11030    11029    11028    11028    11028    11029    11028    11028 
   11028    11026    11028    11028    11026    11028    11029    11029 
   11028    11026    11026    11026    11028    11028    11026    11026 
   11026    11025    11028    11028    11026    11026    11026    11026 
   11026    11026    11025    11028    11029    11026    11028    11030 
   11026    11022    11026    11028    11025    11026    11028    11026 
   11026    11026    11024    11025    11026    11026    11028    11030 
   11026    11024    11026    11028    11028    11026    11025    11026 
   11028    11028    11028    11026    11025    11028    11028    11026 
   11024    11025    11026    11025    11025    11028    11028    11028 
   11026    11024    11025    11025    11024    11025    11025    11025 
   11026    11026    11026    11028    11029    11026    11025    11026 
   11025    11026    11025    11025    11028    11029    11026    11026 
   11028    11026    11026    11026    11025    11025    11028    11025 
   11024    11025    11025    11024    11025    11026    11026    11025 
   11024    11028    11028    11025    11025    11026    11025    11024 
   11025    11028    11029    11025    11024    11028    11028    11026 
   11026    11025    11024    11025    11026    11026    11025    11024 
   11025    11025    11025    11026    11026    11026    11026    11028 
   11029    11028    11026    11026    11029    11026    11025    11025 
   11025    11025    11026    11025    11025    11028    11028    11028 
   11032    11033    11037    11041    11033    11025    11025    11033 
   11051    11060    11021    10964    10967    11016    11063    11078 
   10990    10893    10991    11156    11172    11136    11017    10839 
   10980    11192    10948    10763    11026    11111    10963    11114 
   11313    11126    10859    10717    10648    11030    11472    10945 
   10366    11090    11927    11456    10602    10562    11021    11404 
   11408    10944    10666    10828    10928    11009    11168    11242 
   11095    10548    10675    11986    12083    10409     9811    10953 
   11843    11321    10395    10889    11777    11038    10566    11497 
   11086     9998    10855    11753    11237    10616    10635    11546 
   11731    10388    10184    11275    11595    11202    10642    10578 
   11190    11272    10893    11137    11545    11080    10316    10615 
   11549    11638    11118    10837    10554    10589    11211    11485 
   11313    11134    10782    10435    10797    11719    11408    10215 
   10766    11658    10863    10856    11831    11230    10373    10735 
   10917    10962    11326    11215    10978    11020    10818    10949 
   11607    11321    10646    11002    10868    10212    11196    12181 
   11075    10150    10964    11654    11016    10397    11002    11573 
   11001    10667    11207    11291    10854    11005    11358    10789 
   10272    11072    11639    11202    10989    10854    10939    11357 
   10874    10802    11853    11084     9567    10735    12316    11591 
   10268    10211    11205    11781    11388    10984    10710    10582 
   11134    11600    11173    10449    10457    11292    11529    10777 
   10627    11330    11341    10646    11041    11886    11132    10296 
   10860    11219    10953    10899    11001    11161    11292    11016 
   10530    10840    11659    11280    10428    10883    11303    10724 
   10723    11376    11510    11086    10511    10534    11238    11412 
   11048    11025    11159    11160    11057    10854    10820    11087 
   11218    10898    10820    11178    10952    10773    11477    11454 
   10670    10737    11079    11043    11051    11055    10995    10882 
   10993    11456    11356    10671    10741    11259    10913    10644 
   11349    11618    11029    10552    10570    11117    11394    10866 
   10746    11434    11518    10612    10312    11392    12000    10952 
   10098    10701    11483    11292    10932    11200    11007    10377 
   10773    11643    11762    10994    10322    10747    11310    11296 
   11084    10650    10619    11237    11422    10917    10775    11337 
   11334    10692    10867    11365    11196    10912    10666    10673 
   11217    11327    10909    10860    11037    11137    11061    10974 
   11226    10980    10555    11292    11585    10787    10920    11226 
   10710    10879    11338    11051    10872    10994    11110    11214 
   11087    11045    10966    10663    10949    11439    11173    10720 
   10674    11053    11533    11253    10605    10793    11223    11114 
   11097    11110    10816    10833    11137    11172    10986    10936 
   11244    11275    10654    10520    11173    11426    11022    10813 
   11083    11140    10925    11076    11223    11030    10841    10766 
   11118    11388    10860    10783    11288    11063    10910    11164 
   10871    10786    11273    11263    10828    10739    10991    11331 
   11534    11148    10426    10527    11403    11545    10714    10444 
   11196    11464    10849    10864    11403    11076    10642    11078 
   11203    10778    10939    11072    10860    11426    11610    10598 
   10567    11415    11261    10732    10841    11287    11245    10754 
   10975    11379    10960    10648    10777    11041    11408    11121 
   10619    11047    11431    10980    10704    11024    11268    11006 
   10717    11014    11431    11291    10724    10633    11304    11225 
   10461    10929    11446    10666    10716    11703    11543    10844 
   10732    10899    11114    11117    10847    10890    11380    11472 
   10831    10521    11053    11421    11010    10606    11028    11379 
   10833    10762    11526    11546    10783    10381    10770    11354 
   11281    10975    10921    10925    11214    11279    10648    10509 
   11206    11608    11115    10322    10570    11659    11786    10991 
   10704    10767    10822    11360    11468    10665    10478    11018 
   11269    11191    11018    11021    10967    10839    11250    11375 
   10708    10616    11087    11186    11259    11249    10805    10613 
   11032    11441    11144    10504    10714    11384    11449    11438 
   11186    10307    10552    11628    11275    10476    10689    11187 
   11400    11151    10847    10974    11119    11171    11133    10818 
   10706    11022    11245    11191    11141    11105    10867    10729 
   11256    11607    10693    10145    11211    11805    11053    10493 
   10644    11152    11414    11005    10669    10847    11225    11743 
   11674    10527     9976    10917    11766    11643    10786     9991 
   10717    12017    11627    10419    10342    11025    11265    11133 
   11248    11321    10848    10569    11113    11341    10818    10702 
   11106    11348    10940    10438    11310    12154    11001    10212 
   11110    11252    10694    11145    11115    10277    11060    12083 
   11117    10363    10818    11055    11219    11429    10933    10496 
   11233    11738    10885    10351    10750    11098    11435    11543 
   10936    10408    10929    11749    11223    10201    10593    11373 
   11317    11070    10870    11034    11473    11005    10346    10849 
   11538    11280    10638    10854    11570    11298    10667    10809 
   11156    11391    11182    10443    10632    11688    11649    10604 
   10273    10944    11612    11489    10596    10388    11516    11605 
   10438    10701    11346    10814    10912    11399    11180    11227 
   10935    10407    11377    11905    10447     9869    11148    11978 
   11554    10893    10515    10515    11018    11423    11373    11137 
   10643    10390    10957    11728    11524    10393    10262    11338 
   11681    11292    10912    10617    10920    11223    10886    10856 
   11223    11128    10833    10995    11259    11057    10848    10983 
   10906    10930    11317    11033    10666    11199    11462    11052 
   10705    10687    11227    11542    10952    10640    11076    11209 
   10921    11047    11283    10844    10582    11043    11317    11421 
   11280    10547    10431    11103    11368    11234    10974    10777 
   10989    11389    11614    11090     9967    10142    11826    12102 
   10644    10443    11340    11226    10813    11097    11358    11130 
   10716    10623    11167    11803    11479    10369     9980    10912 
   11786    11259    10453    10933    11275    10558    10771    11495 
   10949    10759    11664    11549    10426    10409    11465    11727 
   11078    10683    10729    10832    10962    11210    11198    10882 
   10613    10509    11152    12031    11468    10176    10459    11967 
   12046    10547    10066    10967    11542    11215    10535    10790 
   11642    11214    10704    11356    11253    10405    10615    11445 
   11589    11063    10593    10596    11218    11684    10935    10156 
   10779    11475    11187    11151    11318    10538    10458    11803 
   11830    10771    10579    10420    10824    11998    11322     9983 
   10774    11533    10875    11055    11657    10878    10436    11331 
   11438    10716    10620    10712    11079    11808    11497    10493 
   10139    10720    11915    12117    10879    10230    10878    11634 
   11531    10574     9998    10851    11908    11211    10048    10862 
   11789    10966    10843    11695    10991     9782    10473    11993 
   12060    11198    10941    10804    10650    10885    10804    10893 
   11394    11101    11018    11796    11214     9778    10233    11689 
   11763    10712    10339    11277    11778    10886    10494    11080 
   11026    10678    11052    11219    10633    10508    11088    11142 
   10929    11269    11102    10307    10596    11788    11919    10890 
   10570    11229    11163    10589    11448    12830    12029    10096 
    9946    10674    10868    11518    11233     9821    11229    12856 
   10230     9150    12046    12279    10527    11345    11614     9925 
   11190    14686    13819     8991     7260    10034    12185    11647 
   10377    10154    11423    11951    11267    11931    12054     9445 
    7269     7986    11751    15222    13331    10147    10940    10246 
    7569    10474    15105    12854     8572     9409    11699    11839 
   11612    12220    12779     9391     4801     9240    16526    13493 
    7859     8958    11438    12582    12938    11138    10187    10747 
    9173     9332    14744    17190    11749     6538     7797    11070 
   11121    10035    11889    13759    10211     6836    11465    16127 
   12501     8448     9890    11260    10139    10239    12226    12627 
   10588     9751    10933    11599    11974    12463    11753    10061 
    8885     9559    11519    12245    11124    10029     9782    10442 
   12272    12100     8826    10127    15342    13315     8102     8904 
   10972    11913    12762    10693     8756    10817    14289    14801 
   10305     6104     8139    12522    13373    11534    10125     9937 
   11195    13320    12938     9850     8966    10106     9401    10141 
   14083    14211    10346     9482    10827    10705    10152    10795 
   11776    11395    11199    11778    10528     9840    11599    11487 
    9616     9749    11676    13120    11902     9601    10102    11520 
   11179    11101    11334    10615     9953    10461    12285    12596 
   10173     9914    12571    12513     9690     9363    11628    12258 
   10800     9444     9593    12097    13350    10012     8158    11072 
   12838    12663    12729    11182     9283     9945    11827    11746 
   10174    10959    12545    10611     8696    10747    12788    11519 
    9516    10334    13007    12829     9764     8645    10332    12009 
   11848    10498    10548    11893    12282    11362    10239    11110 
   12398     9941     7827    10897    13644    11678     9616    10851 
   11935    10655     9964    11159    12139    12090    11348    10139 
    9896    11060    11647    11144    10741    10609    10562    10860 
   11882    12444    11016     9979    10758    10517    10320    12349 
   12518     9906     9657    11516    11896    11322    10524     9833 
   10731    11978    11655    10943    10586    10231    10727    12135 
   12652    10986     9346    10682    12359    11191    10565    12363 
   11628     8193     8885    12677    13084    11248    10324    10219 
   11106    11550    10702    11240    12506    11315     9774    10161 
   10512    10910    12135    12087    10581     9837    10309    11010 
   11450    11218    10731    11323    11824    10663    10134    11574 
   12383    11034     9294    10164    12807    12245     9742    10517 
   12110    11441    10729    10724    10633    10335    10323    11280 
   11564    10342    10544    12043    11569    10878    11734    11134 
   10004    11129    11931    11160    11030    11167    10592    10201 
   10200    10945    12380    11917     9709     9710    11630    11704 
   10534    11007    11928    10984    10046    11196    12010    11013 
   10814    11753    11549    10494    10496    11499    11402    10018 
   10068    11480    11551    11133    11583    11153    10166    10411 
   11377    11963    10991     9559    10971    13219    11819     9281 
    9994    11867    11421    10377    11165    11794    10844    10727 
   11398    10547     9976    11055    11618    11415    11148    10893 
   11090    11026    10590    10947    11642    11202    10291    10651 
   11075    10867    11834    12086    10521    10444    10976    10424 
   10935    11676    11192    11171    11481    10770    10192    11074 
   12078    11666    10462     9795    10474    11573    11431    11105 
   11335    10623     9992    10700    11473    12140    12004    10076 
    8935    10617    12564    12035    10976    11356    10732     9499 
   10966    12710    11589    10180    10713    11599    11088    10260 
   11098    12170    11064     9868    11021    12051    10972     9883 
   10318    11421    12019    11500    10548    10913    11958    11291 
   10143    10655    11249    10821    10755    11457    11553    10565 
   10307    11414    11688    10638    10542    11327    11043    10616 
   11157    11408    11047    11130    11763    11681    10658    10180 
   10405    10555    10872    11367    11584    11037    10177    10881 
   12231    11583    10461    10612    10851    11048    11133    10671 
   10658    11383    11853    11134    10129    10652    11797    11971 
   11253    10426    10320    10600    11164    11709    10972    10493 
   11348    11206    10489    11306    12036    11102    10365    10863 
   11052    10673    10970    11520    11168    10482    10608    11191 
   11346    11308    11387    11149    10729    10727    11149    11530 
   11075    10141    10246    11232    11857    11415    10372    10315 
   11267    11894    11475    10295     9967    11016    11831    11514 
   10894    10855    10875    10642    11191    11857    11030    10431 
   11227    10940    10087    11103    11978    11230    10646    10771 
   11260    11518    10779    10535    11831    11994     9952     9301 
   11327    12526    11477    10536    10963    11400    10845    10613 
   11218    11403    11279    11061    10546    10392    10547    11142 
   11786    11072    10413    11011    11368    11395    11396    10835 
   10103    10172    11515    12317    10964    10223    11726    12025 
   10345    10231    11367    11157    10762    11002    10937    11033 
   11271    11264    11299    10962    10710    11103    10764    10139 
   11128    12060    11156    10370    10809    11362    11272    10658 
   10760    11703    11854    10989    10250    10454    11248    11402 
   10928    10546    10713    11564    11530    10538    10790    11313 
   10562    10431    11619    12000    10876    10006    10501    11766 
   12137    10905    10156    10547    10859    11547    11700    10579 
   10438    11376    11512    10868    10559    11206    11767    11136 
   10674    10986    10868    11052    11666    11090    10411    10962 
   11232    10746    10743    11103    11222    11263    11005    10813 
