Origin Time       2025/03/30 21:30:00
Lat.              38.535
Long.             142.295
Depth. (km)       44
Mag.              4.3
Station Code      MYGH10
Station Lat.      37.9411
Station Long.     140.8924
Station Height(m) 18
Record Time       2025/03/30 21:31:33
Sampling Freq(Hz) 100Hz
Duration Time(s)  120
Dir.              4
Scale Factor      7845(gal)/8223790
Max. Acc. (gal)   2.204
Last Correction   2025/03/30 21:31:33
Memo.             
[...]
   -1836    -2126    -2255    -2257    -2281    -2253    -2077    -1894 
   -1777    -1664    -1603    -1557    -1485    -1607    -1957    -2226 
   -2324    -2398    -2376    -2158    -1895    -1718    -1682    -1715 
   -1663    -1611    -1772    -2073    -2218    -2185    -2153    -2019 
   -1790    -1763    -1942    -2045    -1964    -1831    -1792    -1807 
   -1853    -1958    -1964    -1864    -1875    -1929    -1957    -2049 
   -2077    -2000    -2027    -2061    -1852    -1669    -1787    -1883 
   -1795    -1750    -1811    -1964    -2172    -2274    -2247    -2119 
   -1904    -1773    -1756    -1686    -1671    -1854    -2046    -2106 
   -2073    -1971    -1898    -1867    -1771    -1759    -1902    -1954 
   -1993    -2196    -2215    -1912    -1733    -1825    -1896    -1803 
   -1729    -1864    -2047    -2050    -1980    -2030    -2068    -1891 
   -1730    -1804    -1917    -1993    -2084    -2081    -2007    -1922 
   -1811    -1780    -1860    -1864    -1746    -1730    -1848    -1998 
   -2157    -2195    -2143    -2161    -2118    -1969    -1848    -1668 
   -1417    -1399    -1753    -2176    -2404    -2408    -2227    -1987 
   -1821    -1756    -1752    -1696    -1586    -1683    -2025    -2188 
   -2110    -2154    -2241    -2092    -1858    -1780    -1821    -1842 
   -1799    -1765    -1896    -2146    -2209    -2066    -1984    -1918 
   -1696    -1530    -1641    -1850    -2019    -2207    -2297    -2208 
   -2057    -1939    -1863    -1736    -1539    -1509    -1780    -2070 
   -2207    -2353    -2363    -2049    -1775    -1752    -1710    -1625 
   -1714    -1881    -1966    -2022    -2077    -2134    -2146    -2003 
   -1809    -1733    -1767    -1864    -2006    -2115    -2085    -1987 
   -2012    -2052    -1849    -1564    -1606    -1914    -2025    -1956 
   -1980    -1961    -1914    -2046    -2101    -1934    -1907    -1988 
   -1849    -1810    -2095    -2149    -1852    -1740    -1788    -1733 
   -1787    -1965    -2037    -2056    -2087    -2085    -2037    -1938 
   -1860    -1858    -1867    -1831    -1792    -1780    -1815    -1900 
   -1989    -2072    -2134    -2065    -1938    -1935    -1925    -1759 
   -1676    -1841    -1989    -2016    -2092    -2116    -1969    -1819 
   -1729    -1675    -1787    -2012    -2080    -2025    -2029    -2100 
   -2151    -2070    -1935    -1869    -1702    -1425    -1494    -1952 
   -2174    -2128    -2297    -2346    -1949    -1729    -1854    -1777 
   -1594    -1742    -1958    -1895    -1873    -2093    -2208    -2193 
   -2299    -2351    -2101    -1674    -1397    -1399    -1452    -1475 
   -1692    -2062    -2266    -2307    -2405    -2351    -1979    -1694 
   -1742    -1904    -1885    -1776    -1948    -2197    -2089    -1844 
   -1755    -1680    -1607    -1786    -2128    -2242    -2166    -2189 
   -2180    -1957    -1699    -1555    -1537    -1726    -2065    -2207 
   -2070    -2066    -2226    -2115    -1746    -1607    -1830    -1935 
   -1746    -1799    -2196    -2323    -2089    -1975    -1875    -1499 
   -1356    -1709    -1904    -1809    -1948    -2305    -2515    -2516 
   -2363    -2080    -1734    -1394    -1224    -1426    -1834    -2141 
   -2305    -2241    -1965    -1876    -1949    -1811    -1715    -1904 
   -1972    -1850    -1938    -2173    -2215    -2050    -1829    -1753 
   -1834    -1804    -1733    -1884    -2029    -1925    -1908    -2164 
   -2239    -1938    -1687    -1686    -1706    -1764    -1953    -2069 
   -2097    -2201    -2258    -2143    -1976    -1813    -1597    -1490 
   -1676    -1930    -2002    -1980    -2038    -2258    -2411    -2158 
   -1779    -1671    -1644    -1640    -1809    -1926    -1887    -1954 
   -2099    -2060    -1979    -2050    -2047    -1944    -1969    -2020 
   -1941    -1865    -1880    -1850    -1737    -1696    -1761    -1871 
   -2015    -2137    -2123    -2031    -2035    -2006    -1861    -1838 
   -1877    -1786    -1725    -1815    -1944    -2027    -2031    -2029 
   -2101    -2115    -1931    -1726    -1723    -1786    -1788    -1831 
   -1876    -1957    -2193    -2328    -2070    -1686    -1594    -1756 
   -1968    -2119    -2115    -2016    -1939    -1911    -1975    -2068 
   -2019    -1864    -1753    -1710    -1769    -1964    -2150    -2184 
   -2118    -2060    -1944    -1756    -1699    -1767    -1815    -1856 
   -1890    -1946    -2039    -2091    -2110    -2114    -2033    -1867 
   -1741    -1713    -1772    -1941    -2049    -1906    -1707    -1807 
   -2155    -2317    -2114    -1865    -1795    -1686    -1586    -1792 
   -2095    -2114    -1968    -2002    -2106    -1995    -1845    -1890 
   -1984    -1935    -1777    -1678    -1776    -1976    -2046    -2025 
   -2008    -1926    -1867    -1965    -2103    -2158    -2030    -1736 
   -1691    -1922    -1985    -1918    -1891    -1921    -2085    -2131 
   -1973    -2052    -2149    -1773    -1445    -1590    -1834    -2077 
   -2289    -2137    -1846    -1884    -1934    -1725    -1668    -1906 
   -1976    -1821    -1925    -2247    -2299    -2149    -2147    -2010 
   -1493    -1196    -1453    -1760    -1904    -2120    -2278    -2191 
   -2118    -2181    -2065    -1807    -1813    -1949    -1844    -1667 
   -1695    -1937    -2270    -2377    -2170    -1971    -1918    -1898 
   -1777    -1648    -1732    -1849    -1736    -1640    -1817    -2083 
   -2266    -2317    -2050    -1640    -1632    -1971    -2151    -2119 
   -2031    -1879    -1782    -1852    -1864    -1760    -1817    -1877 
   -1711    -1744    -2112    -2284    -2203    -2263    -2253    -1856 
   -1574    -1726    -1790    -1576    -1536    -1857    -2162    -2196 
   -2153    -2100    -1979    -1969    -2091    -2064    -1902    -1841 
   -1850    -1852    -1857    -1798    -1678    -1621    -1678    -1896 
   -2334    -2614    -2357    -2000    -1930    -1841    -1671    -1649 
   -1679    -1706    -1941    -2209    -2195    -2095    -1976    -1687 
   -1534    -1714    -1827    -1738    -1872    -2218    -2323    -2268 
   -2208    -1857    -1466    -1651    -2012    -1938    -1860    -2047 
   -1985    -1667    -1630    -1923    -2223    -2415    -2404    -2155 
   -1830    -1470    -1262    -1529    -1985    -2131    -2150    -2434 
   -2677    -2381    -1879    -1611    -1293    -1047    -1405    -1888 
   -2020    -2273    -2641    -2582    -2178    -1795    -1518    -1412 
   -1564    -1867    -2118    -2228    -2141    -1995    -2002    -1942 
   -1717    -1692    -1895    -1976    -1960    -2029    -2023    -1923 
   -1972    -2084    -2050    -1989    -2016    -2011    -1888    -1807 
   -1845    -1742    -1560    -1669    -1919    -1968    -1952    -1968 
   -1879    -1993    -2493    -2690    -2338    -1961    -1667    -1385 
   -1356    -1516    -1626    -1813    -2056    -2137    -2223    -2424 
   -2361    -1965    -1732    -1713    -1634    -1740    -2089    -2104 
   -1752    -1633    -1788    -1829    -1825    -2006    -2200    -2247 
   -2208    -2137    -2115    -2046    -1790    -1597    -1610    -1638 
   -1734    -2015    -2193    -2124    -2039    -1906    -1660    -1634 
   -1906    -2046    -1946    -1944    -2010    -1895    -1854    -2112 
   -2309    -2208    -1996    -1846    -1858    -1993    -1960    -1725 
   -1614    -1601    -1524    -1661    -2068    -2299    -2371    -2555 
   -2527    -2069    -1590    -1404    -1444    -1633    -1892    -2011 
   -2057    -2193    -2249    -2178    -2027    -1691    -1483    -1732 
   -1966    -1871    -1962    -2289    -2223    -1899    -1902    -2033 
   -1927    -1807    -1803    -1810    -1922    -2033    -1837    -1534 
   -1549    -1759    -1844    -1985    -2370    -2567    -2286    -1917 
   -1768    -1691    -1601    -1633    -1734    -1756    -1831    -2083 
   -2388    -2524    -2343    -2037    -1950    -1973    -1729    -1433 
   -1480    -1656    -1765    -1965    -2084    -1892    -1836    -2169 
   -2300    -2030    -1884    -2027    -2122    -1999    -1885    -1907 
   -1827    -1652    -1603    -1653    -1792    -1945    -1908    -1900 
   -2101    -2280    -2331    -2305    -2111    -1765    -1552    -1532 
   -1632    -1892    -1995    -1802    -1883    -2324    -2505    -2335 
   -2180    -2015    -1709    -1483    -1597    -1907    -2099    -2077 
   -2025    -2027    -1873    -1588    -1518    -1676    -1837    -2052 
   -2338    -2403    -2135    -1846    -1756    -1622    -1316    -1274 
   -1721    -2222    -2388    -2366    -2323    -2095    -1705    -1536 
   -1699    -1869    -1971    -2139    -2197    -2093    -2085    -2073 
   -1827    -1667    -1769    -1826    -1892    -2114    -2083    -1705 
   -1524    -1755    -2099    -2309    -2319    -2104    -1809    -1705 
   -1780    -1879    -1956    -1950    -1993    -2162    -2187    -2053 
   -1950    -1794    -1618    -1630    -1760    -1848    -1980    -2211 
   -2308    -2083    -1674    -1329    -1256    -1560    -2023    -2292 
   -2342    -2407    -2497    -2338    -1929    -1571    -1393    -1431 
   -1645    -1818    -1929    -2042    -2041    -2033    -2137    -2088 
   -1887    -1898    -1984    -1838    -1869    -2268    -2377    -2072 
   -1954    -1912    -1594    -1429    -1601    -1759    -1983    -2266 
   -2239    -2130    -2263    -2239    -1930    -1848    -1921    -1738 
   -1551    -1630    -1744    -1842    -2112    -2300    -2227    -2143 
   -1923    -1633    -1780    -1949    -1679    -1633    -1964    -1985 
   -1803    -1869    -1933    -1918    -2077    -2241    -2216    -2039 
   -1784    -1711    -1937    -2012    -1680    -1475    -1647    -1721 
   -1647    -1807    -2115    -2311    -2381    -2330    -2251    -2232 
   -2133    -1858    -1514    -1323    -1340    -1456    -1730    -2061 
   -2218    -2413    -2751    -2785    -2390    -1948    -1571    -1206 
   -1105    -1409    -1795    -2015    -2133    -2197    -2131    -1981 
   -1962    -2083    -2054    -1883    -1912    -2088    -2107    -2100 
   -2104    -1844    -1611    -1848    -2199    -2207    -1956    -1680 
   -1501    -1485    -1671    -2039    -2336    -2216    -1957    -2039 
   -2133    -1821    -1421    -1267    -1301    -1553    -2043    -2529 
   -2872    -3064    -2907    -2334    -1706    -1259     -892     -741 
   -1074    -1640    -1993    -2285    -2709    -2813    -2354    -1884 
   -1844    -1993    -2062    -2124    -2205    -2219    -2093    -1837 
   -1628    -1603    -1617    -1601    -1707    -1780    -1582    -1348 
   -1340    -1458    -1745    -2331    -2832    -2917    -2759    -2501 
   -2192    -1918    -1595    -1273    -1387    -1850    -2038    -2039 
   -2149    -2029    -1651    -1413    -1340    -1514    -2128    -2772 
   -2899    -2542    -2008    -1441     -985     -916    -1227    -1606 
   -1899    -2222    -2524    -2528    -2319    -2176    -2111    -2142 
   -2189    -2039    -1941    -2223    -2350    -1661     -634     -174 
    -526    -1412    -2350    -2971    -3343    -3375    -2722    -1829 
   -1485    -1656    -1927    -2182    -2246    -1809    -1246    -1300 
   -1838    -2255    -2266    -1869    -1530    -1884    -2713    -2982 
   -2270    -1323     -808     -616     -735    -1462    -2452    -2933 
   -2744    -2290    -1840    -1489    -1474    -1971    -2704    -3067 
   -2768    -2108    -1479    -1073    -1047    -1362    -1583    -1737 
   -2353    -3017    -2843    -2030    -1308     -945     -932    -1236 
   -1671    -2101    -2531    -2879    -3067    -2974    -2377    -1529 
   -1034    -1119    -1610    -1995    -1880    -1665    -1813    -2033 
   -1919    -1705    -1734    -1833    -1912    -2079    -2091    -1914 
   -2025    -2485    -2735    -2482    -2130    -2042    -1993    -1834 
   -1653    -1273     -792     -924    -1884    -2775    -2857    -2593 
   -2631    -2793    -2442    -1356     -341     -402    -1239    -1772 
   -1744    -1701    -2018    -2562    -2967    -2945    -2381    -1524 
    -980    -1093    -1615    -2153    -2332    -2022    -1807    -2037 
   -2165    -1985    -1764    -1555    -1653    -2388    -3348    -3801 
   -3403    -2378    -1316     -681     -399     -253     -618    -1707 
   -2606    -2506    -1844    -1279    -1117    -1647    -2398    -2465 
   -2276    -2598    -2783    -2300    -1702    -1296    -1046    -1237 
   -1950    -2736    -3221    -3250    -2771    -2002    -1200     -510 
    -315     -857    -1665    -2276    -2768    -3059    -2783    -2166 
   -1819    -1817    -1895    -1980    -2031    -1933    -1584    -1147 
   -1026    -1198    -1304    -1609    -2547    -3442    -3364    -2490 
   -1667    -1468    -1896    -2350    -2361    -2297    -2434    -2371 
   -1995    -1584    -1192     -885    -1090    -1903    -2712    -2825 
   -2166    -1470    -1285    -1251    -1146    -1395    -2056    -2509 
   -2385    -1975    -1644    -1485    -1545    -1791    -1899    -1759 
   -1950    -2782    -3464    -3227    -2215     -911       31     -268 
   -1798    -3299    -3742    -3072    -1777     -564     -103     -554 
   -1455    -2366    -3194    -3789    -3869    -3322    -2304    -1169 
    -382     -232     -689    -1547    -2400    -2820    -2724    -2413 
   -2064    -1574    -1279    -1653    -2269    -2440    -2255    -2046 
   -1858    -1649    -1250     -880    -1237    -2062    -2403    -2370 
   -2531    -2575    -2149    -1611    -1247    -1155    -1633    -2369 
   -2562    -2301    -2143    -2080    -2022    -2073    -2226    -2444 
   -2440    -1885    -1147     -769     -774    -1035    -1494    -1921 
   -2259    -2925    -3881    -4240    -3441    -1904     -495      209 
     171     -419    -1228    -1929    -2637    -3402    -3720    -3188 
   -1921     -646     -387    -1220    -2101    -2351    -2290    -2350 
   -2573    -2808    -2731    -2212    -1606    -1217    -1004    -1015 
   -1372    -1792    -2038    -2196    -2066    -1587    -1364    -1858 
   -2697    -3061    -2521    -1593    -1242    -1552    -1702    -1548 
   -1628    -1930    -2263    -2647    -2849    -2623    -2158    -1791 
   -1545    -1318    -1190    -1390    -1877    -2126    -2003    -1976 
   -2115    -2184    -2077    -1713    -1445    -1845    -2565    -2704 
   -2293    -1991    -1649     -967     -679    -1275    -2007    -2316 
   -2529    -2829    -3025    -2876    -2261    -1570    -1355    -1597 
   -1929    -2099    -1926    -1383    -1000    -1270    -1694    -1655 
   -1665    -2286    -2909    -2879    -2462    -2057    -1822    -1799 
   -1760    -1544    -1463    -1899    -2641    -3018    -2712    -1929 
    -997     -318     -259     -804    -1551    -2049    -2270    -2532 
   -2934    -3254    -3235    -2889    -2358    -1741    -1198     -814 
    -646     -842    -1409    -2137    -2685    -2775    -2538    -2342 
   -2100    -1679    -1412    -1316    -1310    -1748    -2475    -2945 
   -2992    -2567    -1818    -1294    -1262    -1302    -1078    -1059 
   -1687    -2444    -2670    -2517    -2465    -2469    -2465    -2579 
   -2216    -1093     -348     -604    -1171    -1576    -1942    -2404 
   -2982    -3445    -3354    -2598    -1674    -1232    -1296    -1262 
    -943     -955    -1780    -2868    -3145    -2411    -1505    -1084 
   -1189    -1599    -1864    -1791    -1880    -2470    -3026    -2936 
   -2407    -1935    -1583    -1421    -1507    -1402     -996     -965 
   -1568    -2168    -2390    -2500    -2569    -2628    -2844    -2938 
   -2600    -1877    -1071     -896    -1522    -1973    -1784    -1696 
   -1906    -1802    -1480    -1382    -1447    -1730    -2173    -2323 
   -2197    -2227    -2502    -2656    -2430    -1995    -1517    -1185 
   -1370    -2020    -2546    -2494    -1968    -1467    -1370    -1779 
   -2577    -3111    -2808    -2070    -1479    -1104     -997    -1297 
   -1842    -2249    -2404    -2355    -2076    -1777    -1798    -2037 
   -2049    -1702    -1355    -1347    -1746    -2334    -2573    -2131 
   -1470    -1107     -962    -1054    -1594    -2370    -2934    -3130 
   -3049    -2767    -2305    -1701    -1128     -811     -710     -791 
   -1329    -2224    -2886    -3026    -2718    -2228    -1956    -1884 
   -1780    -1761    -1863    -1871    -1821    -1938    -2165    -2257 
   -2335    -2594    -2627    -2124    -1486    -1061     -885    -1090 
   -1576    -1946    -2018    -1786    -1547    -1894    -2593    -2744 
   -2235    -1629    -1354    -1517    -1804    -1939    -1973    -1998 
   -2058    -2254    -2604    -2837    -2741    -2539    -2389    -1992 
   -1270     -847    -1200    -1988    -2582    -2675    -2451    -2150 
   -1890    -1792    -1614    -1111     -886    -1426    -2062    -2254 
   -2328    -2309    -1906    -1320     -976    -1048    -1410    -1775 
   -2041    -2276    -2471    -2574    -2624    -2636    -2382    -1842 
   -1541    -1780    -2116    -2025    -1609    -1332    -1347    -1495 
   -1630    -1710    -1875    -2216    -2577    -2790    -2636    -2002 
   -1348    -1210    -1513    -1896    -2080    -2002    -1946    -2165 
   -2466    -2481    -2145    -1684    -1420    -1489    -1607    -1607 
   -1767    -2014    -1983    -1906    -2195    -2546    -2469    -2131 
   -1838    -1482    -1115    -1090    -1358    -1649    -2020    -2378 
   -2377    -2153    -2099    -2155    -2126    -2137    -2272    -2251 
   -1906    -1547    -1460    -1466    -1487    -1757    -2161    -2466 
   -2817    -3164    -3107    -2673    -2187    -1580     -846     -434 
    -467     -683    -1093    -1707    -2281    -2610    -2621    -2563 
   -2776    -3048    -2911    -2413    -1954    -1617    -1336    -1210 
   -1181    -1225    -1574    -2076    -2272    -2153    -1985    -1877 
   -1902    -1988    -1977    -1918    -1803    -1564    -1398    -1483 
   -1775    -2170    -2562    -2798    -2740    -2377    -1915    -1686 
   -1690    -1633    -1478    -1371    -1453    -1830    -2187    -2066 
   -1597    -1252    -1341    -1923    -2632    -2968    -2920    -2732 
   -2388    -1927    -1679    -1679    -1536    -1186    -1039    -1287 
   -1587    -1653    -1784    -2099    -2131    -2023    -2362    -2797 
   -2812    -2559    -2045    -1368    -1189    -1533    -1686    -1594 
   -1790    -2290    -2663    -2713    -2563    -2285    -1845    -1410 
   -1259    -1466    -1871    -2170    -2185    -2018    -1833    -1806 
   -2081    -2475    -2533    -2150    -1706    -1345     -949     -747 
    -981    -1470    -2080    -2747    -3125    -2979    -2497    -2008 
   -1696    -1609    -1591    -1398    -1281    -1725    -2490    -2917 
   -2845    -2548    -2241    -1829    -1174     -707     -965    -1618 
   -2108    -2362    -2327    -2092    -2141    -2488    -2509    -2043 
   -1566    -1398    -1568    -1918    -1933    -1436    -1129    -1375 
   -1710    -2007    -2424    -2686    -2612    -2397    -2083    -1642 
   -1320    -1254    -1302    -1506    -2110    -2841    -3142    -3063 
   -2713    -1888     -954     -530     -498     -712    -1467    -2517 
   -3217    -3299    -2851    -2226    -1706    -1309    -1166    -1372 
   -1798    -2278    -2671    -2737    -2323    -1741    -1417    -1232 
   -1020    -1061    -1509    -2124    -2636    -2902    -2857    -2506 
   -1992    -1642    -1621    -1601    -1323    -1115    -1269    -1516 
   -1641    -1803    -2014    -2153    -2272    -2415    -2501    -2382 
   -2118    -2038    -2154    -2150    -2058    -2057    -2072    -2065 
