Origin Time       2025/03/30 21:30:00
Lat.              38.535
Long.             142.295
Depth. (km)       44
Mag.              4.3
Station Code      MYGH11
Station Lat.      38.5158
Station Long.     141.3421
Station Height(m) -202.1
Record Time       2025/03/30 21:31:20
Sampling Freq(Hz) 100Hz
Duration Time(s)  120
Dir.              2
Scale Factor      3923(gal)/8224838
Max. Acc. (gal)   0.518
Last Correction   2025/03/30 21:31:20
Memo.             
[...]
   25002    24997    24996    24996    24997    24999    25000    25000 
   24999    24997    24999    24999    25000    25000    24997    24997 
   25000    24999    24999    25002    25000    25000    24999    24999 
   25000    24997    24999    25002    24997    24999    25002    25002 
   25002    25000    24999    25000    25003    25002    24996    24996 
   25000    25002    24999    24997    24999    25000    25002    25000 
   24996    24997    25000    24999    25000    25000    24999    24999 
   24999    24997    24999    25000    25000    25000    25002    25000 
   24997    24997    25000    25002    24999    24999    25000    25000 
   25000    25000    24999    24999    25002    25000    24997    24999 
   25002    24999    24997    25000    25000    24997    24999    25003 
   25002    24997    24997    25000    25000    24999    24997    24997 
   24997    25000    25003    24999    24995    24999    25000    24999 
   24997    24999    24997    24997    24997    24996    24999    24997 
   24996    24997    24999    25000    24999    24996    25000    25002 
   25000    25000    25002    24999    24996    24995    25002    25002 
   24996    24999    25000    24996    24997    25000    24999    24999 
   25000    25000    24999    24999    24997    24997    25000    24999 
   24997    24997    24995    24996    25000    25000    24997    24997 
   24999    25000    24999    24999    24999    25000    24999    24997 
   25000    25002    25002    24997    24997    24999    24999    24997 
   24999    24999    25000    25002    25002    25000    24997    24997 
   24999    24999    24997    24997    24999    25000    24999    24999 
   25002    24999    24997    25000    24997    24996    25002    25000 
   24996    24996    25000    25000    24999    24997    24999    25002 
   25000    24999    25000    25000    24999    24999    24999    24999 
   24999    25002    25002    24996    24996    25000    25002    25000 
   24997    24999    25003    25003    25000    25000    25002    25000 
   24999    25002    25002    24997    24997    25002    25002    25000 
   25002    25002    24997    24997    25000    25000    25000    25002 
   25002    25002    25000    25000    25002    25000    25002    25003 
   25000    24999    24999    24996    25002    25003    24996    24996 
   24997    24996    25002    25004    25000    24999    25000    24999 
   24999    25003    25002    24997    24999    25004    25003    24999 
   25002    25003    25000    24997    24999    25000    25000    24999 
   24997    25000    25002    25000    24999    24999    25000    25000 
   24999    25003    25006    25004    25002    24999    24999    25000 
   25002    25002    24999    24999    24999    24997    25002    25004 
   24997    24993    24996    24996    24996    25000    25006    25012 
   25012    25004    25000    25002    24999    24999    25000    24997 
   24991    24987    24988    24989    24984    24984    25014    25053 
   25053    25003    24941    24921    24950    25010    25061    25046 
   24991    24989    25034    25049    25027    24993    24973    24975 
   24962    24945    24973    25002    24962    24977    25103    25155 
   25057    24933    24941    25077    25065    24846    24848    25096 
   25120    24954    24916    24973    25020    25008    24970    24984 
   24995    24992    25034    25099    25110    25037    24968    24899 
   24842    24980    25164    25041    24723    24680    25110    25474 
   25207    24802    24856    25019    25022    24965    24904    25054 
   25197    24921    24750    25124    25353    25000    24717    24895 
   25060    24977    24966    25126    25220    25061    24780    24795 
   25174    25369    25110    24788    24705    24927    25338    25374 
   24850    24551    24919    25299    25157    24815    24800    25115 
   25185    24898    24845    25084    25119    24948    24989    25143 
   24930    24741    25142    25366    24904    24615    24858    25149 
   25134    24912    24962    25132    24937    24818    25078    25161 
   24911    24818    25045    25232    25130    24925    24818    24787 
   24873    25115    25226    24996    24815    24975    25089    25035 
   25018    24984    24956    24980    25024    25099    25083    24979 
   24910    24879    24956    25081    24996    24846    24969    25151 
   25103    25056    25080    24935    24776    24834    25073    25327 
   25226    24833    24798    25014    24881    24803    25145    25236 
   24949    24896    25045    25111    25165    25077    24838    24849 
   25050    25078    24954    24889    24911    24911    24956    25045 
   25083    25142    25122    25002    25000    25014    24921    24930 
   25096    25049    24798    24877    25184    25223    24995    24844 
   25014    25158    24954    24795    24879    24995    25118    25174 
   25091    25058    25095    25062    25003    24919    24846    24911 
   25042    25029    24910    24973    25131    25085    24926    24837 
   24949    25165    25139    24999    24961    24954    25022    25088 
   25054    24993    24881    24840    25004    25119    25012    24964 
   25038    25007    24970    24953    24954    25141    25137    24849 
   24817    24999    25064    24995    24954    25088    25123    24908 
   24867    25023    25012    24931    24977    24983    24930    25022 
   25081    24993    25037    25069    24875    24829    25043    25103 
   25007    25043    25089    25018    24949    24965    25072    25095 
   24966    24908    24950    25011    25120    25166    25026    24914 
   25023    25016    24829    24903    25150    25172    24977    24903 
   25069    25120    24985    24942    24929    24833    24861    25107 
   25234    25030    24903    25038    25039    24943    25035    25043 
   24835    24817    25016    25023    24919    24979    25110    25204 
   25104    24873    24848    24961    25053    25065    24939    24884 
   24984    25003    24877    24902    25203    25332    25034    24760 
   24830    25046    25131    24987    24900    25073    25091    24900 
   24938    25089    25097    25002    24875    24952    25170    25116 
   24939    24985    25008    24806    24787    25146    25303    25022 
   24841    24962    25069    25014    24957    25076    25116    24811 
   24692    25081    25286    25018    24773    24846    25120    25246 
   25081    24888    24902    25066    25096    24923    24867    24957 
   24984    25016    25058    25050    25120    25153    24964    24781 
   24853    25027    25041    24957    25061    25282    25182    24918 
   24945    24952    24814    24898    24991    24942    25038    25158 
   25078    24979    25020    25072    24953    24827    24895    24964 
   25041    25191    25092    24860    24962    25151    24946    24752 
   24995    25134    24908    24854    25069    25142    25064    25100 
   25110    24972    24879    24818    24830    24972    24983    24896 
   24991    25246    25292    24949    24779    25000    25062    24956 
   25033    25107    24902    24738    24962    25177    25084    24996 
   25038    25100    25193    25182    24938    24795    24887    24916 
   24970    25111    25042    24921    24964    25035    25084    25081 
   25022    24976    24991    25112    25111    24875    24852    25057 
   25050    24969    24966    24887    24906    25095    25153    25030 
   24915    24939    25062    25029    24923    25060    25112    24846 
   24759    25034    25232    25118    24958    24969    24908    24688 
   24826    25305    25254    24818    24925    25201    25047    24949 
   25122    25182    25019    24835    24868    25038    25015    24796 
   24672    24775    25169    25581    25416    24892    24752    24942 
   25024    24946    24831    24849    25047    25118    24983    24999 
   25100    24992    24891    25022    25072    24904    25011    25303 
   25092    24748    25016    25386    25111    24601    24609    24910 
   25002    25076    25177    25066    24937    24900    24937    25137 
   25223    25080    24934    24849    24883    24977    25093    25145 
   24962    24921    25132    25181    25002    24827    24929    25058 
   24837    24678    24973    25420    25482    25069    24772    24935 
   25091    24980    24871    24783    24675    24931    25396    25277 
   24883    24984    25118    24833    24709    25008    25122    24923 
   24980    25143    25010    24943    25039    24926    24823    25034 
   25165    25015    24943    25000    25065    25127    24989    24775 
   24912    25224    25174    24841    24841    25155    25120    24811 
   24746    24842    24988    25207    25235    25074    24939    24922 
   25107    25232    25069    24888    24873    24970    25053    24968 
   24871    25034    25209    25064    24846    24817    24889    25018 
   25159    25162    25012    24906    24991    25149    25095    24871 
   24906    25112    25039    24894    24966    25064    25072    24993 
   24804    24754    25042    25158    24845    24842    25203    25192 
   24997    24965    24871    24896    25143    25089    24929    25150 
   25128    24800    24954    25186    24953    24698    24715    24937 
   25174    25231    25181    25146    25014    24791    24856    25138 
   25112    24996    25105    24995    24703    24795    25112    25170 
   24966    24817    24871    25069    25249    25150    24970    25062 
   25166    25010    24656    24479    24957    25485    25184    24711 
   24904    25330    25339    25042    24796    24722    24822    24896 
   24945    25261    25454    25120    24834    24873    24864    24799 
   24865    24960    25046    25208    25211    24999    24980    25074 
   25053    25050    24983    24865    24883    24911    24930    25014 
   25088    25189    25131    24850    24779    24949    25038    24993 
   24980    25092    25068    24895    24934    25130    25185    25039 
   24943    25030    25027    24931    25014    25100    24916    24764 
   24960    25192    25141    25000    24968    24992    24948    24867 
   25046    25320    25068    24646    24876    25258    25115    24862 
   24807    24864    25053    25218    25247    25166    24970    24850 
   24906    24964    24854    24669    24813    25126    25037    24872 
   25077    25185    25018    24997    25093    25047    24992    24976 
   24849    24864    25022    24869    24781    25126    25212    24868 
   24864    25323    25444    25073    24915    25034    24964    24857 
   25093    25393    25116    24521    24626    25186    25070    24736 
   25053    25297    25097    25134    25135    24807    24835    25049 
   24937    24868    24914    24989    25161    25084    24900    24969 
   25011    24980    25003    24996    24996    24945    24887    25012 
   25077    24976    24995    25134    25180    25127    25058    24894 
   24776    25008    25211    25047    24939    25019    25141    25218 
   24948    24605    24786    25255    25385    25049    24744    24921 
   25172    24925    24665    24896    25130    25119    25087    24973 
   24814    24877    25097    25154    25042    24961    24830    24673 
   24907    25438    25471    24889    24595    24877    25168    25159 
   24900    24831    25077    25051    24808    24714    24819    25193 
   25428    25197    24988    25053    25039    24966    25062    24972 
   24699    24772    25023    25031    24908    24989    25203    25139 
   24960    24993    25046    25111    25081    24763    24699    25007 
   25069    24953    24889    24911    25188    25326    25077    24992 
   25111    24988    24683    24564    24803    25196    25250    25007 
   25047    25139    24941    24983    25188    25003    24798    24983 
   25104    24980    25002    25033    24875    24860    25058    25112 
   24891    24761    24935    25169    25224    25077    25038    25197 
   25100    24780    24787    25034    24995    24877    25085    25173 
   24984    25042    25219    25141    24953    24894    24895    24692 
   24599    25008    25374    25332    25139    24845    24683    24861 
   25051    25068    24969    24856    24848    24938    25107    25173 
   25114    25100    24808    24433    24678    25046    24987    24960 
   25112    25185    25158    25045    24916    25053    25392    25544 
   25428    25143    24906    24841    24798    24800    24894    24962 
   24904    24779    24852    25083    25247    25336    25365    25404 
   25411    25123    24754    24964    25705    25929    24956    23939 
   24210    24826    24934    25348    25755    25224    24578    24706 
   24987    24711    24401    24541    24700    24933    25367    25517 
   25334    25061    24969    25012    24705    24447    24854    25402 
   25339    24826    24663    24885    24854    24632    24655    25015 
   25343    25097    24794    25240    25666    25267    24803    24835 
   24903    24753    24808    25127    25280    25330    25204    24673 
   24414    24768    24968    24672    24672    25393    25664    25123 
   25064    25381    25343    25334    25151    24595    24615    25164 
   25043    24422    24327    24938    25423    25119    25170    25762 
   25204    24333    24433    24437    24514    25366    25830    25327 
   24727    24633    24891    25051    25035    25085    25209    25290 
   24957    24445    24810    25362    25035    24862    25035    24845 
   24979    25431    25278    24957    24834    24545    24671    25412 
   25789    25428    24791    24595    25103    25789    26087    25641 
   24895    24753    24642    24111    24576    25699    25348    24331 
   24291    24557    25014    25647    25220    24375    24528    25153 
   25340    24881    24402    24715    25289    25297    25002    24853 
   24833    24803    24810    24929    25092    25205    25188    24970 
   24570    24532    25147    25258    24736    25170    25948    25481 
   24742    24875    25409    25519    24903    24402    24629    24945 
   25143    25483    25434    24871    24806    25216    25088    24876 
   25199    25141    24868    25220    25273    24943    25007    24854 
   24694    24984    24787    24370    24826    25552    25510    24953 
   24534    24416    24721    25232    25162    24664    24626    25066 
   25328    25027    24871    25308    25193    24619    24898    25474 
   25389    24983    24691    24561    24638    25045    25481    25297 
   24760    24656    25029    25478    25608    25369    24960    24680 
   25024    25467    25099    24625    24853    25004    24663    24706 
   25126    25092    24858    25026    25158    24840    24584    24541 
   24582    24887    25011    24833    25056    25539    25570    25134 
   24772    24935    25380    25384    25107    25046    24732    24498 
   25093    25338    24737    24661    25092    25115    25033    25012 
   24806    24965    25407    25227    24733    24733    25189    25567 
   25359    24941    25020    25112    24690    24425    24895    25486 
   25263    24732    24903    25259    25122    24871    24976    25381 
   25290    24633    24587    24996    25064    25150    25146    24903 
   25008    25267    25242    24935    24514    24624    25228    25363 
   24999    24784    24827    24881    24927    25060    24921    24601 
   24680    24721    24673    25104    25209    24799    24958    25432 
   25486    25174    24773    24698    24935    25216    25397    25289 
   25000    24694    24667    24948    24891    24830    25232    25331 
   25172    25243    24965    24570    24889    25173    24979    25150 
   25367    24992    24668    24856    25096    24929    24771    25093 
   25269    25022    25007    25203    25266    25247    24937    24548 
   24753    25181    25122    24910    25049    25177    24968    25020 
   25239    24931    24719    24969    25116    25149    25104    25108 
   25261    25100    24819    24962    25145    24888    24692    25085 
   25378    25011    24633    24599    24740    25087    25317    25110 
   24857    24867    24876    24752    24794    25056    25216    25099 
   24815    24742    24935    24929    24763    24791    24927    25011 
   24980    24819    24834    25074    25184    25253    25363    25166 
   24807    24841    25159    25231    25096    24914    24725    24927 
   25358    25317    24945    24939    25208    25033    24683    25014 
   25358    24975    24953    25385    25116    24865    25185    24938 
   24532    25060    25537    25258    24973    24730    24510    24800 
   24952    24702    25043    25401    24780    24329    24871    25392 
   25309    25087    24888    24741    25016    25490    25321    24710 
   24714    25143    25220    25069    24833    24721    25076    25331 
   25051    24856    24970    25026    24931    24663    24628    25119 
   25339    25112    25134    25153    24844    24815    25104    25169 
   25150    25149    25019    25008    24908    24530    24602    25199 
   25427    25149    24925    24976    25157    25122    24857    24862 
   24937    24752    24850    25108    25054    25046    25114    25020 
   24962    24925    24750    24818    25259    25220    24682    24860 
   25466    25369    25081    25034    24864    24802    24798    24802 
   25240    25574    25205    24780    24908    25226    24980    24595 
   24991    25412    25142    24884    24879    24985    25253    25223 
   24817    24675    24745    24709    24908    25178    25076    25023 
   25147    25012    24687    24637    24938    25130    25130    25047 
   24838    24950    25281    25134    24760    24642    24871    25293 
   25317    24898    24733    25019    25213    25088    25091    25131 
   24927    24964    25118    24933    24815    24817    24725    24958 
   25347    25204    24892    24979    25135    25278    25390    25022 
   24615    24929    25311    24900    24479    24868    25186    24964 
   25076    25346    24960    24646    25061    25396    25122    24714 
   24742    25149    25282    24964    24706    24734    24884    25072 
   25242    25100    24736    24841    25168    24976    24938    25474 
   25540    25046    24781    24757    24977    25216    24979    24759 
   24867    24881    24790    24898    25362    25497    24846    24570 
   25084    25249    24968    25007    25164    25045    25000    25155 
   25122    24845    24663    24721    24931    25066    24973    24991 
   25170    25051    24887    24999    24952    24783    24885    25015 
   24950    24876    24933    25033    25083    25146    25051    24895 
   25172    25411    25095    24800    24840    24975    24995    24964 
   25081    25066    24857    24849    25023    25149    25026    24818 
   24983    25165    24996    25064    25265    24962    24695    24929 
   25164    25177    25107    25000    24902    25015    25284    25191 
   24923    25023    25051    24842    24975    25346    25316    24721 
   24332    24807    25353    25176    24831    24841    24995    25155 
   25243    25011    24783    24954    25100    24970    24899    25012 
   25002    24683    24622    25097    25304    25004    24846    24931 
   25080    25157    24926    24754    24881    24831    24900    25346 
   25327    24956    24952    24954    24844    24958    25120    25151 
   25008    24915    25189    25309    24965    24845    25103    25174 
