Origin Time       2025/03/30 21:30:00
Lat.              38.535
Long.             142.295
Depth. (km)       44
Mag.              4.3
Station Code      MYGH07
Station Lat.      38.1802
Station Long.     140.6405
Station Height(m) 186
Record Time       2025/03/30 21:31:35
Sampling Freq(Hz) 100Hz
Duration Time(s)  120
Dir.              6
Scale Factor      7845(gal)/8223790
Max. Acc. (gal)   1.499
Last Correction   2025/03/30 21:31:35
Memo.             
[...]
  -23712   -23814   -23934   -23804   -23494   -23502   -23854   -24035 
  -23881   -23571   -23367   -23534   -23897   -24055   -23911   -23603 
  -23464   -23757   -24136   -24054   -23606   -23406   -23695   -23978 
  -23858   -23657   -23703   -23803   -23764   -23638   -23579   -23718 
  -24004   -24170   -23904   -23334   -23149   -23645   -24232   -24246 
  -23758   -23403   -23546   -23939   -24131   -23917   -23522   -23403 
  -23712   -24025   -23895   -23511   -23422   -23792   -24248   -24281 
  -23831   -23350   -23279   -23700   -24186   -24209   -23843   -23527 
  -23453   -23508   -23561   -23683   -23943   -24198   -24231   -23847 
  -23230   -23109   -23774   -24418   -24256   -23548   -23080   -23306 
  -23954   -24310   -24077   -23710   -23635   -23706   -23684   -23618 
  -23653   -23830   -23959   -23830   -23588   -23526   -23627   -23703 
  -23743   -23882   -24059   -23998   -23689   -23456   -23440   -23487 
  -23558   -23793   -24152   -24349   -24151   -23670   -23369   -23519 
  -23850   -23997   -23890   -23660   -23500   -23498   -23608   -23855 
  -24142   -24196   -23958   -23654   -23514   -23575   -23685   -23769 
  -23869   -23946   -23884   -23688   -23569   -23683   -23820   -23816 
  -23803   -23711   -23452   -23314   -23448   -23719   -24000   -24148 
  -24092   -23784   -23313   -23276   -23913   -24370   -24127   -23687 
  -23448   -23469   -23723   -23966   -24044   -23997   -23847   -23639 
  -23404   -23306   -23649   -24277   -24540   -24101   -23377   -23130 
  -23546   -23985   -23970   -23760   -23662   -23642   -23661   -23768 
  -23885   -23822   -23681   -23768   -23863   -23633   -23440   -23662 
  -24016   -24104   -23838   -23463   -23368   -23639   -23993   -24108 
  -23896   -23630   -23592   -23711   -23801   -23801   -23734   -23673 
  -23704   -23851   -23986   -23961   -23849   -23750   -23654   -23629 
  -23728   -23877   -23947   -23788   -23446   -23328   -23704   -24213 
  -24258   -23793   -23356   -23391   -23769   -24079   -24155   -24003 
  -23620   -23225   -23220   -23700   -24244   -24295   -23854   -23491 
  -23526   -23745   -23843   -23722   -23529   -23530   -23778   -24042 
  -24082   -23897   -23656   -23527   -23558   -23643   -23697   -23754 
  -23828   -23882   -23853   -23680   -23514   -23599   -23841   -23932 
  -23762   -23498   -23477   -23841   -24189   -24084   -23665   -23430 
  -23639   -24036   -24106   -23704   -23288   -23461   -24132   -24386 
  -23776   -23147   -23375   -24069   -24282   -23900   -23496   -23419 
  -23693   -24113   -24278   -24024   -23623   -23453   -23530   -23564 
  -23575   -23805   -24104   -24050   -23566   -23182   -23456   -24116 
  -24383   -24023   -23518   -23361   -23529   -23768   -23959   -24015 
  -23911   -23789   -23733   -23697   -23657   -23600   -23583   -23753 
  -24030   -24015   -23595   -23215   -23303   -23782   -24229   -24279 
  -23893   -23484   -23476   -23726   -23895   -23946   -23912   -23765 
  -23591   -23556   -23707   -23882   -23944   -23922   -23877   -23781 
  -23588   -23476   -23685   -24046   -24077   -23662   -23315   -23473 
  -23877   -24078   -23967   -23700   -23541   -23581   -23646   -23666 
  -23746   -23868   -23931   -23926   -23774   -23488   -23438   -23846 
  -24243   -24073   -23488   -23240   -23753   -24432   -24347   -23512 
  -22871   -23202   -24243   -24854   -24371   -23403   -22883   -23143 
  -23859   -24291   -24044   -23581   -23456   -23583   -23668   -23777 
  -24054   -24221   -23926   -23392   -23197   -23541   -24057   -24264 
  -24039   -23554   -23137   -23282   -24048   -24584   -24171   -23325 
  -23022   -23545   -24294   -24456   -23963   -23427   -23319   -23697 
  -24124   -23998   -23430   -23143   -23460   -24007   -24248   -24069 
  -23750   -23580   -23615   -23731   -23917   -24150   -24097   -23646 
  -23157   -22964   -23322   -24201   -24761   -24286   -23400   -23130 
  -23599   -24212   -24289   -23719   -23080   -22931   -23450   -24259 
  -24532   -24005   -23292   -23114   -23731   -24536   -24574   -23865 
  -23191   -23016   -23367   -23904   -24236   -24229   -23782   -23133 
  -22977   -23562   -24345   -24587   -24150   -23626   -23440   -23530 
  -23863   -24239   -24182   -23641   -23207   -23398   -23958   -24205 
  -23890   -23409   -23329   -23737   -24032   -23818   -23544   -23722 
  -24127   -24198   -23761   -23278   -23325   -23797   -24059   -23876 
  -23697   -23801   -23835   -23635   -23612   -23917   -24102   -23801 
  -23229   -22974   -23431   -24301   -24713   -24236   -23496   -23274 
  -23519   -23778   -23870   -23839   -23761   -23666   -23612   -23741 
  -23989   -24044   -23778   -23494   -23553   -23850   -23973   -23757 
  -23417   -23330   -23627   -24084   -24457   -24494   -23958   -23126 
  -22752   -23286   -24262   -24718   -24277   -23442   -22956   -23233 
  -24023   -24572   -24409   -23754   -23190   -23103   -23394   -23805 
  -24138   -24171   -23911   -23662   -23664   -23815   -23785   -23500 
  -23372   -23660   -24001   -23997   -23707   -23403   -23418   -23801 
  -24106   -24120   -24054   -23874   -23503   -23280   -23503   -23949 
  -24098   -23796   -23402   -23257   -23495   -24003   -24293   -24052 
  -23587   -23326   -23400   -23618   -23781   -23932   -24057   -24015 
  -23832   -23742   -23857   -23841   -23454   -23303   -23873   -24433 
  -24201   -23529   -23187   -23468   -24048   -24358   -24129   -23615 
  -23296   -23410   -23751   -24063   -24259   -24246   -23958   -23517 
  -23299   -23630   -24138   -24152   -23691   -23232   -23141   -23584 
  -24223   -24325   -23757   -23222   -23357   -23993   -24354   -24008 
  -23407   -23183   -23495   -24031   -24151   -23611   -23075   -23230 
  -23872   -24306   -24246   -23943   -23677   -23508   -23460   -23512 
  -23688   -24082   -24443   -24248   -23500   -22852   -22954   -23796 
  -24605   -24655   -23974   -23134   -22873   -23440   -24179   -24354 
  -23935   -23450   -23391   -23653   -23850   -23944   -23989   -23854 
  -23591   -23517   -23776   -24052   -23889   -23350   -23121   -23585 
  -24217   -24424   -24252   -23889   -23476   -23345   -23647   -24148 
  -24355   -23843   -23045   -23026   -23957   -24764   -24553   -23622 
  -22914   -22936   -23548   -24309   -24634   -24258   -23561   -23129 
  -23284   -23874   -24287   -24039   -23409   -23174   -23565   -24043 
  -24169   -23926   -23553   -23515   -23764   -23568   -23055   -23252 
  -24152   -24683   -24370   -23745   -23394   -23325   -23411   -23726 
  -24079   -24040   -23669   -23526   -23743   -23822   -23606   -23500 
  -23707   -24012   -24082   -23909   -23785   -23718   -23650   -23700 
  -23727   -23695   -23780   -23792   -23630   -23584   -23714   -23890 
  -24047   -23993   -23700   -23508   -23616   -23846   -23916   -23755 
  -23618   -23701   -23838   -23777   -23585   -23564   -23743   -23872 
  -23901   -23942   -23946   -23854   -23741   -23697   -23815   -24070 
  -24121   -23710   -23140   -22978   -23517   -24397   -24663   -23944 
  -23064   -22881   -23522   -24429   -24669   -24090   -23485   -23299 
  -23398   -23638   -23901   -24115   -24150   -23849   -23403   -23141 
  -23203   -23666   -24250   -24301   -23708   -23149   -23288   -24115 
  -24796   -24486   -23484   -22851   -23097   -23920   -24624   -24529 
  -23588   -22711   -22928   -23971   -24572   -24251   -23608   -23257 
  -23411   -23863   -24151   -24073   -23745   -23303   -22985   -23134 
  -23866   -24760   -24952   -23976   -22626   -22324   -23527   -25058 
  -25235   -23858   -22611   -22774   -23742   -24437   -24514   -24004 
  -23280   -23029   -23492   -24173   -24448   -24109   -23510   -23298 
  -23565   -23841   -24012   -24173   -24109   -23784   -23438   -23276 
  -23517   -24038   -24205   -23822   -23503   -23692   -24042   -24023 
  -23708   -23604   -23716   -23607   -23494   -23815   -24151   -24034 
  -23722   -23603   -23692   -23661   -23410   -23407   -23787   -23976 
  -23739   -23522   -23706   -24097   -24156   -23653   -23056   -23089 
  -23746   -24281   -24231   -23816   -23456   -23359   -23460   -23607 
  -23731   -23846   -23932   -23911   -23828   -23866   -24085   -24229 
  -23986   -23577   -23476   -23620   -23723   -23734   -23696   -23727 
  -23861   -23984   -24007   -23882   -23695   -23564   -23480   -23592 
  -24015   -24356   -24166   -23568   -23190   -23437   -23981   -24277 
  -24088   -23436   -22904   -23194   -23928   -24260   -24187   -23994 
  -23600   -23249   -23442   -24025   -24340   -24046   -23560   -23573 
  -23986   -24090   -23801   -23592   -23622   -23712   -23718   -23633 
  -23598   -23701   -23754   -23589   -23526   -23913   -24316   -24028 
  -23215   -22839   -23464   -24468   -24706   -23951   -23136   -23067 
  -23575   -24013   -24004   -23737   -23611   -23664   -23650   -23512 
  -23581   -24061   -24449   -24270   -23793   -23433   -23404   -23781 
  -24205   -24190   -23706   -23275   -23409   -23801   -23866   -23707 
  -23647   -23738   -23904   -23905   -23669   -23557   -23850   -24322 
  -24401   -23799   -23090   -23060   -23661   -24248   -24360   -23931 
  -23349   -23280   -23800   -24155   -23911   -23485   -23341   -23517 
  -23826   -24016   -23927   -23726   -23692   -23741   -23724   -23803 
  -23944   -23826   -23473   -23307   -23526   -23938   -24202   -24088 
  -23653   -23132   -22975   -23611   -24575   -24796   -23985   -22900 
  -22624   -23480   -24526   -24698   -23876   -22905   -22933   -23870 
  -24436   -24132   -23583   -23452   -23782   -24043   -23977   -23880 
  -23899   -23908   -23776   -23530   -23518   -23841   -24015   -23889 
  -23830   -23969   -24102   -23992   -23674   -23495   -23584   -23828 
  -24044   -23845   -23352   -23390   -24040   -24360   -23916   -23396 
  -23404   -23668   -23781   -23801   -23863   -23904   -23824   -23616 
  -23418   -23446   -23735   -23965   -23795   -23487   -23562   -23927 
  -24071   -23796   -23477   -23611   -23984   -24013   -23701   -23421 
  -23437   -23715   -23880   -23787   -23728   -23789   -23780   -23677 
  -23569   -23606   -23912   -24181   -24043   -23715   -23579   -23681 
  -23846   -23814   -23639   -23712   -23940   -23828   -23534   -23661 
  -24085   -24125   -23719   -23400   -23445   -23707   -23878   -23804 
  -23712   -23731   -23653   -23557   -23745   -24028   -24063   -23961 
  -23859   -23708   -23695   -23886   -23919   -23695   -23519   -23518 
  -23649   -23890   -24104   -24109   -23889   -23620   -23530   -23676 
  -23877   -23924   -23836   -23796   -23895   -23986   -23789   -23450 
  -23490   -23791   -23772   -23465   -23353   -23676   -24163   -24271 
  -23913   -23488   -23296   -23423   -23766   -24052   -23977   -23517 
  -23274   -23693   -24132   -23919   -23484   -23529   -23930   -24098 
  -23899   -23600   -23413   -23448   -23662   -23951   -24194   -24051 
  -23549   -23372   -23730   -24035   -23946   -23707   -23554   -23458 
  -23550   -24003   -24320   -23916   -23213   -23070   -23650   -24383 
  -24651   -24312   -23576   -22878   -22879   -23738   -24675   -24804 
  -24048   -23172   -22933   -23377   -24139   -24690   -24472   -23642 
  -23072   -23228   -23761   -24189   -24177   -23606   -23053   -23264 
  -23988   -24389   -24197   -23737   -23404   -23423   -23696   -23870 
  -23814   -23765   -23869   -23978   -23909   -23565   -23228   -23431 
  -23988   -24098   -23711   -23511   -23681   -23714   -23456   -23418 
  -23738   -23966   -23935   -23815   -23777   -23974   -24185   -23915 
  -23292   -23075   -23581   -24290   -24521   -24100   -23355   -22897 
  -23229   -24040   -24457   -24131   -23411   -23032   -23483   -24151 
  -24231   -24003   -23961   -24027   -24028   -23913   -23755   -23703 
  -23706   -23639   -23538   -23553   -23774   -23926   -23670   -23311 
  -23396   -23897   -24362   -24421   -24019   -23496   -23342   -23657 
  -24007   -23980   -23642   -23375   -23444   -23749   -23916   -23820 
  -23728   -23738   -23706   -23657   -23680   -23809   -23963   -23762 
  -23306   -23317   -23696   -23803   -23785   -23846   -23762   -23603 
  -23670   -24073   -24468   -24304   -23639   -23093   -23130   -23739 
  -24268   -24169   -23900   -23874   -23664   -23197   -23106   -23656 
  -24297   -24316   -23750   -23299   -23380   -23819   -24232   -24391 
  -24232   -23808   -23399   -23265   -23421   -23755   -23966   -23808 
  -23615   -23799   -24113   -23974   -23417   -23242   -23757   -24167 
  -23966   -23637   -23692   -24042   -24097   -23548   -23040   -23291 
  -23935   -24088   -23577   -23193   -23642   -24475   -24584   -23683 
  -22812   -23197   -24448   -24837   -23846   -22817   -22852   -23745 
  -24493   -24255   -23575   -23615   -24198   -24333   -23870   -23372 
  -23260   -23549   -23912   -23986   -23899   -24038   -24208   -23913 
  -23279   -23040   -23598   -24264   -24104   -23387   -23110   -23545 
  -24183   -24378   -23878   -23218   -23176   -23769   -24355   -24430 
  -23870   -23070   -22832   -23425   -24124   -24154   -23615   -23292 
  -23639   -24111   -24007   -23557   -23442   -23874   -24417   -24491 
  -24097   -23633   -23333   -23473   -24106   -24457   -23890   -23031 
  -22761   -23024   -23485   -24062   -24445   -24358   -23935   -23411 
  -23213   -23703   -24470   -24794   -24480   -23765   -23106   -23022 
  -23525   -24004   -24073   -23893   -23687   -23550   -23446   -23382 
  -23688   -24297   -24393   -23603   -22636   -22495   -23400   -24445 
  -24684   -24101   -23202   -22742   -23330   -24570   -25331   -24973 
  -23923   -23118   -23107   -23688   -24136   -23904   -23217   -22713 
  -22788   -23341   -23889   -24061   -23920   -23811   -24052   -24536 
  -24661   -24159   -23606   -23568   -23984   -24472   -24557   -23990 
  -23125   -22531   -22620   -23430   -24273   -24341   -23761   -23295 
  -23338   -23673   -23981   -24140   -24017   -23544   -23071   -23159 
  -23996   -25023   -25231   -24246   -22955   -22551   -23143   -23795 
  -23839   -23561   -23514   -23661   -23569   -23328   -23550   -24332 
  -25015   -24865   -23773   -22698   -22840   -24100   -25100   -24861 
  -23900   -23360   -23554   -23935   -23965   -23502   -22873   -22742 
  -23371   -24213   -24532   -24208   -23774   -23626   -23557   -23361 
  -23278   -23473   -23730   -23828   -23714   -23542   -23669   -24146 
  -24447   -24052   -23209   -22882   -23545   -24470   -24702   -24063 
  -23240   -23205   -23962   -24341   -23741   -22931   -22707   -23094 
  -23862   -24590   -24667   -24054   -23487   -23548   -23932   -24009 
  -23734   -23542   -23598   -23706   -23847   -24202   -24522   -24225 
  -23260   -22462   -22770   -23904   -24568   -24362   -23859   -23357 
  -23159   -23638   -24448   -24876   -24472   -23348   -22380   -22411 
  -23391   -24476   -24669   -23951   -23369   -23512   -24009   -24348 
  -24252   -23735   -23194   -23267   -24092   -24788   -24514   -23595 
  -22956   -23012   -23418   -23731   -23917   -23993   -23899   -23876 
  -24143   -24385   -24210   -23830   -23669   -23604   -23274   -22908 
  -23016   -23604   -24278   -24584   -24251   -23575   -23197   -23434 
  -24116   -24561   -24123   -23218   -22904   -23371   -23915   -24128 
  -24102   -23769   -23147   -22809   -23170   -23801   -24124   -24027 
  -23530   -22963   -23075   -23858   -24312   -24001   -23568   -23581 
  -23963   -24416   -24622   -24498   -24286   -23997   -23564   -23352 
  -23596   -23976   -24021   -23517   -22840   -22804   -23647   -24510 
  -24372   -23542   -23431   -24412   -25126   -24544   -23340   -22858 
  -23529   -24476   -24547   -23638   -22820   -22979   -23711   -24086 
  -23909   -23494   -23134   -23136   -23561   -24009   -23966   -23388 
  -22937   -23195   -23926   -24503   -24432   -23719   -23241   -23707 
  -24502   -24687   -24275   -23805   -23541   -23425   -23386   -23449 
  -23679   -23954   -23950   -23521   -22989   -22924   -23479   -24111 
  -24291   -24169   -24071   -23992   -23907   -23896   -23944   -23986 
  -23903   -23664   -23476   -23465   -23530   -23579   -23689   -23978 
  -24151   -23861   -23494   -23657   -24279   -24702   -24420   -23722 
  -23296   -23225   -23276   -23554   -23885   -23853   -23720   -23923 
  -24252   -24246   -23826   -23382   -23118   -22995   -23363   -24140 
  -24352   -23799   -23350   -23553   -24247   -24772   -24513   -23687 
  -23001   -22928   -23415   -23808   -23669   -23427   -23444   -23611 
  -23899   -24136   -24077   -23770   -23311   -23031   -23336   -23853 
  -24051   -24125   -24228   -24167   -23938   -23637   -23471   -23770 
  -24344   -24429   -23706   -22840   -22762   -23554   -24252   -23957 
  -23012   -22623   -23313   -24443   -25159   -25084   -24364   -23635 
  -23446   -23581   -23565   -23498   -23701   -23963   -23807   -23325 
  -23161   -23653   -24429   -24788   -24339   -23467   -23070   -23588 
  -24367   -24536   -24084   -23431   -23021   -23284   -23847   -23812 
  -23242   -23043   -23641   -24444   -24507   -23764   -23085   -23087 
  -23569   -23973   -24012   -23884   -23881   -23885   -23606   -23265 
  -23440   -24079   -24444   -24102   -23328   -22770   -23078   -24212 
  -25068   -24718   -23645   -23063   -23458   -24078   -23928   -23190 
  -22893   -23387   -24105   -24428   -24154   -23589   -23326   -23575 
  -23893   -23908   -23873   -24025   -24035   -23703   -23461   -23727 
  -24241   -24331   -23850   -23423   -23453   -23696   -23893   -23944 
  -23760   -23553   -23622   -23888   -24131   -24089   -23616   -23195 
  -23457   -24196   -24575   -24220   -23680   -23490   -23419   -23322 
  -23508   -23884   -23986   -23604   -23045   -23024   -23697   -24313 
  -24243   -23592   -23044   -23265   -23996   -24386   -24155   -23749 
  -23755   -24187   -24360   -23927   -23387   -23328   -23696   -23966 
  -23923   -23735   -23530   -23577   -23942   -24081   -23757   -23350 
  -23224   -23573   -24205   -24486   -24263   -24074   -24128   -24093 
  -23824   -23529   -23341   -23179   -23025   -23102   -23444   -23730 
  -23761   -23483   -23080   -23152   -23878   -24510   -24355   -23639 
  -23160   -23406   -24123   -24613   -24413   -23734   -23166   -23166 
  -23793   -24476   -24502   -23876   -23183   -22948   -23380   -24173 
  -24741   -24707   -24035   -23159   -22862   -23437   -24260   -24507 
  -24066   -23515   -23284   -23305   -23399   -23576   -23828   -23931 
  -23792   -23683   -23707   -23707   -23738   -23872   -23988   -24044 
  -23920   -23588   -23488   -23888   -24401   -24464   -23959   -23359 
  -23221   -23696   -24453   -24788   -24247   -23264   -22711   -22979 
  -23733   -24228   -23984   -23336   -23071   -23529   -24273   -24560 
  -24116   -23344   -22829   -22960   -23625   -24129   -23988   -23491 
  -23214   -23426   -23917   -24327   -24517   -24343   -23700   -23072 
  -23091   -23727   -24355   -24286   -23684   -23526   -24046   -24452 
  -24290   -23820   -23434   -23380   -23616   -23826   -23792   -23562 
  -23332   -23371   -23718   -23958   -23823   -23627   -23688   -23884 
  -23962   -23805   -23598   -23639   -23882   -24015   -23812   -23430 
  -23355   -23658   -23847   -23764   -23737   -23861   -23966   -24008 
  -23932   -23660   -23387   -23367   -23526   -23620   -23680   -24028 
  -24561   -24621   -23974   -23153   -22854   -23377   -24413   -25127 
