Origin Time       2025/03/30 21:30:00
Lat.              38.535
Long.             142.295
Depth. (km)       44
Mag.              4.3
Station Code      MYGH07
Station Lat.      38.1802
Station Long.     140.6405
Station Height(m) 186
Record Time       2025/03/30 21:31:35
Sampling Freq(Hz) 100Hz
Duration Time(s)  120
Dir.              5
Scale Factor      7845(gal)/8223790
Max. Acc. (gal)   3.567
Last Correction   2025/03/30 21:31:35
Memo.             
[...]
    1730     1738     1742     1869     2079     2227     2282     2246 
    2043     1733     1522     1516     1672     1900     2073     2079 
    1880     1593     1444     1574     1888     2150     2215     2139 
    2029     1904     1765     1641     1572     1595     1707     1890 
    2058     2058     1945     1919     1933     1885     1831     1759 
    1669     1711     1896     2037     2018     1942     1919     1877 
    1733     1626     1710     1922     2123     2177     1983     1651 
    1412     1379     1568     1892     2187     2330     2280     2054 
    1736     1458     1397     1583     1807     1917     1971     2057 
    2180     2276     2261     2060     1722     1428     1305     1363 
    1556     1856     2173     2292     2130     1946     1996     2181 
    2239     2041     1686     1404     1336     1489     1760     1949 
    1914     1768     1760     1956     2166     2263     2249     2065 
    1698     1348     1273     1510     1903     2209     2211     1935 
    1667     1580     1699     1945     2119     2124     2035     1912 
    1803     1744     1701     1652     1611     1649     1842     2115 
    2255     2119     1830     1682     1728     1796     1841     1871 
    1871     1915     1971     1919     1804     1744     1757     1836 
    1960     2054     2003     1769     1520     1460     1578     1795 
    2103     2363     2363     2061     1640     1386     1433     1682 
    1938     2072     2095     2056     1956     1771     1597     1620 
    1798     1895     1840     1738     1753     1925     2046     1931 
    1699     1625     1803     2023     2042     1919     1918     2034 
    2049     1958     1872     1771     1686     1669     1652     1652 
    1786     2035     2216     2232     2141     1927     1598     1364 
    1402     1642     1879     1976     2010     2093     2169     2130 
    1968     1728     1490     1409     1555     1803     2060     2311 
    2436     2315     2010     1663     1377     1246     1302     1478 
    1728     2056     2430     2697     2624     2165     1572     1152 
    1063     1246     1579     2002     2359     2473     2324     2029 
    1707     1471     1445     1601     1742     1809     1850     1917 
    2081     2243     2168     1914     1737     1674     1651     1622 
    1607     1761     2066     2212     2076     1849     1738     1845 
    2022     1980     1692     1449     1530     1877     2131     2054 
    1810     1665     1711     1887     2049     2135     2164     2057 
    1787     1567     1561     1717     1908     2004     1911     1750 
    1783     2034     2188     2039     1788     1653     1647     1764 
    1908     1910     1809     1792     1885     1993     2030     1939 
    1756     1580     1553     1722     1881     1918     1998     2130 
    2074     1867     1836     1958     1876     1598     1433     1541 
    1869     2170     2241     2139     1957     1745     1588     1539 
    1626     1826     2022     2142     2162     2049     1821     1628 
    1628     1799     1929     1881     1792     1826     1938     2042 
    2104     2079     1931     1679     1453     1467     1745     2038 
    2141     2068     1908     1742     1699     1868     2130     2204 
    1906     1448     1278     1483     1768     1965     2047     2027 
    2046     2135     2119     1956     1750     1574     1478     1530 
    1719     1912     1999     1984     1915     1858     1929     2145 
    2290     2126     1733     1405     1275     1354     1705     2259 
    2640     2521     2023     1509     1220     1298     1703     2054 
    2046     1852     1815     1985     2135     2103     1900     1663 
    1588     1710     1863     1942     1942     1821     1583     1417 
    1555     1899     2139     2157     2026     1885     1860     1941 
    2041     2103     2022     1769     1615     1737     1923     2025 
    2039     1868     1622     1603     1764     1844     1779     1721 
    1818     1995     2099     2134     2095     1923     1711     1622 
    1715     1861     1842     1729     1777     1949     2045     2012 
    1818     1529     1389     1498     1729     1953     2128     2238 
    2207     2030     1849     1780     1790     1784     1711     1603 
    1526     1551     1738     2047     2358     2500     2327     1895 
    1483     1305     1404     1713     2084     2322     2234     1867 
    1572     1571     1750     1904     1927     1895     1942     2010 
    1973     1856     1761     1850     2111     2161     1853     1553 
    1455     1509     1709     1907     1989     2100     2258     2258 
    2035     1738     1556     1543     1586     1620     1742     2010 
    2296     2393     2162     1691     1309     1246     1421     1676 
    1983     2274     2336     2131     1868     1669     1625     1845 
    2097     1998     1647     1459     1580     1861     2079     2079 
    1973     2022     2208     2218     1869     1386     1127     1212 
    1557     1995     2304     2366     2253     2111     1945     1717 
    1544     1533     1642     1873     2232     2467     2340     2006 
    1665     1379     1332     1617     1984     2173     2138     1926 
    1667     1532     1610     1830     1995     1987     1887     1814 
    1894     2153     2270     1980     1533     1296     1335     1556 
    1826     2020     2087     2062     2053     2070     2010     1823 
    1621     1540     1630     1823     1998     2062     2027     2012 
    2043     1972     1792     1679     1630     1552     1530     1757 
    2205     2479     2290     1857     1578     1641     1910     2056 
    1987     1848     1699     1578     1594     1728     1871     1999 
    2050     1918     1711     1576     1513     1626     1960     2255 
    2322     2215     2002     1680     1335     1188     1393     1792 
    2089     2224     2273     2254     2165     1975     1729     1606 
    1672     1833     1983     2035     1976     1881     1818     1772 
    1675     1630     1863     2226     2293     2026     1732     1557 
    1520     1613     1750     1852     1884     1868     1894     1919 
    1831     1680     1595     1667     1875     2042     2096     2077 
    1935     1740     1652     1718     1919     2070     1918     1580 
    1449     1692     2069     2207     2027     1761     1655     1753 
    1961     2169     2209     1965     1629     1571     1826     2018 
    1919     1736     1640     1637     1811     2107     2232     2118 
    1903     1655     1498     1588     1846     2046     2018     1769 
    1601     1777     2092     2150     1911     1625     1528     1683 
    1931     2074     2035     1929     1914     1918     1833     1791 
    1867     1825     1547     1356     1615     2212     2633     2501 
    1966     1432     1163     1294     1715     2064     2107     1919 
    1791     1931     2124     2047     1810     1683     1698     1779 
    1900     2030     2149     2214     2064     1718     1548     1725 
    2025     2184     2047     1699     1433     1410     1641     2037 
    2343     2366     2177     1961     1755     1537     1372     1302 
    1363     1653     2107     2455     2478     2176     1718     1310 
    1147     1308     1683     2080     2296     2288     2181     2023 
    1833     1657     1520     1524     1696     1831     1876     2003 
    2184     2254     2222     2088     1865     1765     1809     1744 
    1625     1624     1651     1701     1922     2257     2475     2425 
    2147     1802     1501     1285     1185     1219     1435     1877 
    2419     2716     2593     2255     1926     1606     1274     1016 
     990     1331     2011     2689     2902     2604     2133     1695 
    1325     1078      981     1038     1281     1740     2323     2729 
    2701     2370     2060     1869     1695     1584     1649     1856 
    2118     2269     2141     1844     1583     1359     1183     1216 
    1539     2047     2466     2465     2091     1786     1787     1954 
    2068     1981     1718     1509     1548     1728     1823     1873 
    2045     2251     2254     1993     1605     1310     1309     1557 
    1826     2014     2205     2465     2646     2524     2103     1594 
    1212     1135     1401     1807     2157     2398     2448     2265 
    1972     1653     1386     1266     1204     1151     1300     1757 
    2332     2724     2768     2421     1773     1182      982     1170 
    1559     1956     2201     2242     2146     2027     1903     1772 
    1719     1784     1903     2004     2043     1980     1799     1552 
    1395     1491     1764     2020     2215     2316     2261     2133 
    2015     1825     1543     1329     1310     1476     1749     2010 
    2165     2268     2317     2153     1814     1634     1745     1867 
    1753     1570     1553     1671     1836     2008     2093     2066 
    1993     1949     2010     2120     2146     2037     1829     1669 
    1682     1799     1876     1823     1664     1568     1707     1957 
    2003     1899     1966     2151     2110     1806     1571     1606 
    1761     1852     1810     1601     1364     1417     1763     2046 
    2130     2182     2207     2079     1849     1672     1638     1761 
    1930     1995     1981     1984     1944     1829     1767     1769 
    1792     1896     1984     1918     1865     1961     2011     1864 
    1671     1590     1559     1553     1734     2111     2438     2501 
    2328     2089     1823     1526     1345     1318     1374     1539 
    1772     1931     1989     2039     2166     2296     2239     1993 
    1726     1563     1549     1606     1626     1644     1723     1868 
    2092     2355     2443     2181     1741     1479     1524     1678 
    1736     1802     2029     2253     2269     2065     1679     1351 
    1413     1757     1969     1946     1890     1837     1749     1792 
    2000     2103     1979     1792     1728     1831     1958     1962 
    1918     1896     1834     1796     1895     1934     1703     1401 
    1289     1331     1518     1923     2344     2440     2204     1950 
    1826     1638     1382     1368     1657     2033     2416     2697 
    2581     1979     1316     1135     1498     2027     2354     2357 
    2077     1651     1327     1263     1382     1602     1921     2184 
    2204     2042     1888     1757     1660     1707     1846     1954 
    2042     2127     2153     1971     1540     1209     1291     1698 
    2211     2538     2432     2064     1714     1482     1489     1759 
    2066     2253     2276     2123     1950     1965     2039     1884 
    1517     1236     1289     1675     2062     2151     2127     2174 
    2064     1753     1574     1628     1737     1792     1771     1706 
    1746     1972     2191     2201     2010     1680     1359     1331 
    1649     1949     1989     1946     1949     1949     1988     2096 
    2154     2104     2008     1845     1601     1422     1360     1416 
    1749     2223     2444     2428     2365     2165     1803     1503 
    1452     1661     1975     2157     2139     2060     1980     1722 
    1228      912     1105     1530     1881     2181     2436     2556 
    2482     2199     1741     1233      915      973     1404     2033 
    2554     2732     2598     2332     2031     1568      909      480 
     669     1246     1779     2151     2411     2600     2687     2493 
    1910     1167      762      965     1491     1950     2288     2532 
    2706     2922     3118     3052     2666     2099     1532     1136 
     923      812      831     1081     1547     1999     2290     2488 
    2527     2366     2228     2253     2285     2155     1846     1476 
    1364     1674     1948     1827     1557     1366     1312     1378 
    1344     1194     1208     1507     2018     2589     2995     3055 
    2824     2544     2253     1868     1576     1541     1578     1406 
     984      661      900     1674     2401     2702     2803     2898 
    2708     2043     1150      471      305      591     1127     1717 
    2047     1973     1767     1706     1759     1825     2047     2647 
    3551     4360     4486     3559     1958      595       86      324 
     838     1327     1725     1942     1722     1015      322      153 
     561     1372     2304     3063     3649     4044     3919     3208 
    2362     1757     1494     1528     1675     1679     1429     1065 
     770      653      901     1505     2052     2343     2482     2442 
    2232     2030     1960     2108     2473     2847     2909     2420 
    1466      438     -271     -438       18     1047     2340     3372 
    3784     3534     2714     1794     1329     1148      873      739 
    1115     2084     3375     4380     4621     3862     2142      143 
   -1258    -1757    -1405     -217     1490     3059     4050     4410 
    4079     2914     1225     -103     -379      540     2408     4337 
    5096     4409     2959     1304      -31     -363      344     1374 
    2023     2018     1687     1709     2385     3465     4276     3978 
    2376      225    -1389    -1718     -765      892     2646     3977 
    4567     4293     2964      895     -745     -980      166     1998 
    3670     4617     4729     4000     2515      776     -595    -1081 
    -405      912     2083     3002     3767     4075     3549     2373 
    1386     1148     1223     1026      837     1117     1750     2617 
    3580     3881     2934     1175     -571    -1740    -1884     -642 
    1706     4029     5228     5069     3946     2307      562     -741 
   -1016       56     2220     4482     5593     5109     3738     2388 
    1362      615       16     -526     -635       76     1341     2660 
    3650     3996     3627     2712     1521      349     -499     -622 
     213     1703     3308     4533     4908     4315     2976     1155 
    -484     -999     -191     1275     2592     3258     3343     3094 
    2370     1078     -214     -595      357     2193     3994     4884 
    4455     3044     1298     -175     -784     -332      839     2232 
    3198     3150     2361     1740     1632     1744     1922     2003 
    1738     1323     1094     1171     1730     2693     3442     3531 
    3033     2228     1445      873      483      437      930     1622 
    2046     2085     1894     1809     1942     2099     2234     2285 
    2155     2008     1942     1898     1929     2085     2370     2674 
    2673     2249     1664     1281     1312     1571     1594     1240 
     819      808     1468     2455     3173     3435     3222     2438 
    1468      970      927      901      908     1281     2091     2998 
    3477     3090     1779      153     -865     -826      116     1595 
    3171     4266     4473     3944     3017     1854      815      334 
     234      162      318      935     1765     2552     3213     3492 
    3130     2317     1459      839      765     1431     2482     3253 
    3375     2866     1980     1127      729     1004     1761     2504 
    2932     3123     3134     2772     1968      990       94     -611 
    -908     -369     1186     3200     4737     5132     4180     2317 
     515     -318       94     1174     2070     2504     2662     2697 
    2650     2594     2567     2384     1779      837       47     -133 
     426     1606     2890     3622     3726     3406     2596     1412 
     325     -332     -500     -220      500     1579     2790     3792 
    4128     3608     2579     1575     1065     1237     1738     2012 
    1871     1682     1860     2133     2072     1877     1775     1664 
    1775     2353     2941     2901     2127      982       62     -160 
     328     1362     2832     4268     4746     3701     1694        8 
    -494       62     1038     1964     2671     3090     3069     2454 
    1453      726      838     1695     2662     3285     3462     3069 
    2251     1590     1316     1147      930      832     1105     1784 
    2609     3186     3138     2416     1359      376     -197     -159 
     438     1352     2219     2702     2739     2506     2234     2160 
    2385     2577     2378     1995     1790     1713     1503     1210 
    1290     1960     2666     2785     2326     1590      904      662 
     978     1587     2230     2693     2762     2369     1679      955 
     442      442     1220     2527     3570     3835     3527     2955 
    2112     1061       83     -463     -226      793     2196     3491 
    4217     4078     3323     2517     1834     1201      862     1040 
    1514     1904     2065     2042     1817     1463     1321     1512 
    1718     1694     1499     1294     1236     1422     1737     1907 
    1838     1803     2145     2756     3115     2916     2365     1869 
    1579     1320     1031      999     1495     2336     2964     2990 
    2388     1409      607      549     1301     2378     3159     3256 
    2628     1682      999      745      778     1077     1664     2398 
    2938     2938     2380     1620      984      430      -51     -105 
     596     2000     3496     4212     3955     3284     2671     2276 
    2012     1584      935      436      446      928     1588     2196 
    2602     2629     2130     1275      614      622     1348     2457 
    3422     3827     3503     2566     1560     1086     1001      828 
     637      670      897     1328     2015     2724     3049     2882 
    2497     2112     1782     1652     1817     2187     2552     2650 
    2365     1842     1312      965      847      895     1105     1490 
    1930     2296     2670     3150     3445     3088     2091      972 
     186      -20      517     1553     2478     3018     3213     2955 
    2250     1468     1059     1227     1729     2022     1848     1507 
    1485     1954     2581     2828     2570     1984     1182      483 
     322      757     1679     2910     3867     3908     2918     1366 
      10     -508     -113      795     1830     2709     3159     3137 
    2839     2484     2182     1896     1620     1401     1228     1216 
    1483     1857     2138     2288     2285     2164     2045     1961 
    1733     1197      679      819     1710     2779     3477     3588 
    3137     2258     1194      448      388      800     1363     1872 
    2074     2045     2101     2332     2596     2529     1942     1225 
     747      534      742     1474     2371     3011     3352     3393 
    2941     2027     1073      484      468     1101     2184     3206 
    3640     3245     2185      981      180      -39      220      919 
    1907     2799     3360     3527     3180     2378     1472      882 
     810     1088     1532     2034     2389     2585     2775     2805 
    2448     1830     1134      418      -41       98      826     1919 
    3110     3893     3734     2713     1583      935      726      750 
    1027     1553     2106     2538     2906     3022     2655     2047 
    1371      592       60      160      835     1850     2913     3628 
    3655     3015     2074     1165      607      693     1259     1918 
    2513     2933     2944     2498     1872     1297      855      734 
    1084     1872     2859     3539     3443     2501     1181      257 
      78      480     1316     2324     3051     3300     3163     2790 
