Origin Time       2025/03/30 21:30:00
Lat.              38.535
Long.             142.295
Depth. (km)       44
Mag.              4.3
Station Code      MYGH03
Station Lat.      38.9207
Station Long.     141.6377
Station Height(m) -37
Record Time       2025/03/30 21:31:08
Sampling Freq(Hz) 100Hz
Duration Time(s)  120
Dir.              3
Scale Factor      2942(gal)/8224139
Max. Acc. (gal)   0.945
Last Correction   2025/03/30 21:31:08
Memo.             
[...]
  -28800   -28802   -28800   -28800   -28800   -28800   -28802   -28802 
  -28803   -28803   -28800   -28799   -28800   -28802   -28803   -28802 
  -28800   -28800   -28803   -28803   -28802   -28800   -28800   -28800 
  -28803   -28806   -28802   -28798   -28800   -28802   -28800   -28800 
  -28802   -28802   -28802   -28803   -28803   -28802   -28804   -28806 
  -28803   -28802   -28803   -28804   -28807   -28806   -28802   -28802 
  -28803   -28806   -28807   -28803   -28800   -28803   -28803   -28802 
  -28803   -28803   -28803   -28804   -28806   -28807   -28810   -28810 
  -28809   -28806   -28806   -28809   -28809   -28807   -28809   -28809 
  -28807   -28809   -28807   -28810   -28811   -28806   -28803   -28804 
  -28804   -28806   -28806   -28806   -28807   -28807   -28807   -28809 
  -28809   -28809   -28809   -28809   -28809   -28810   -28811   -28810 
  -28810   -28809   -28806   -28809   -28811   -28811   -28809   -28806 
  -28806   -28809   -28807   -28803   -28804   -28806   -28807   -28807 
  -28807   -28807   -28806   -28804   -28807   -28807   -28807   -28807 
  -28806   -28804   -28804   -28803   -28802   -28804   -28807   -28809 
  -28806   -28802   -28802   -28802   -28800   -28803   -28804   -28803 
  -28802   -28800   -28802   -28802   -28800   -28802   -28802   -28800 
  -28803   -28803   -28802   -28804   -28807   -28807   -28807   -28807 
  -28806   -28806   -28806   -28806   -28806   -28807   -28810   -28810 
  -28806   -28807   -28811   -28810   -28807   -28806   -28806   -28810 
  -28807   -28803   -28809   -28811   -28809   -28810   -28810   -28809 
  -28811   -28810   -28806   -28806   -28809   -28809   -28811   -28813 
  -28813   -28811   -28811   -28814   -28815   -28815   -28817   -28815 
  -28813   -28813   -28813   -28813   -28813   -28813   -28813   -28811 
  -28810   -28810   -28813   -28813   -28810   -28811   -28813   -28813 
  -28811   -28810   -28809   -28810   -28809   -28807   -28807   -28807 
  -28806   -28806   -28806   -28804   -28804   -28804   -28802   -28800 
  -28804   -28807   -28807   -28806   -28804   -28807   -28809   -28810 
  -28811   -28807   -28804   -28806   -28807   -28806   -28806   -28810 
  -28810   -28807   -28809   -28810   -28807   -28809   -28811   -28807 
  -28806   -28809   -28807   -28807   -28809   -28811   -28813   -28811 
  -28811   -28811   -28810   -28811   -28810   -28809   -28809   -28811 
  -28813   -28814   -28814   -28813   -28813   -28814   -28814   -28810 
  -28809   -28811   -28810   -28807   -28810   -28811   -28809   -28807 
  -28809   -28807   -28809   -28811   -28810   -28807   -28809   -28811 
  -28814   -28815   -28814   -28813   -28810   -28809   -28810   -28811 
  -28811   -28814   -28814   -28813   -28807   -28804   -28807   -28809 
  -28807   -28807   -28809   -28810   -28809   -28809   -28813   -28815 
  -28813   -28810   -28811   -28814   -28815   -28813   -28811   -28809 
  -28807   -28806   -28809   -28809   -28810   -28810   -28809   -28809 
  -28806   -28804   -28807   -28806   -28803   -28804   -28804   -28804 
  -28806   -28806   -28803   -28806   -28809   -28804   -28803   -28806 
  -28802   -28799   -28800   -28802   -28802   -28804   -28806   -28803 
  -28802   -28802   -28803   -28804   -28803   -28802   -28802   -28803 
  -28803   -28804   -28806   -28807   -28806   -28804   -28806   -28809 
  -28807   -28806   -28807   -28809   -28806   -28804   -28807   -28809 
  -28804   -28802   -28803   -28807   -28809   -28807   -28807   -28810 
  -28810   -28809   -28811   -28813   -28813   -28811   -28810   -28809 
  -28809   -28809   -28809   -28809   -28810   -28809   -28807   -28809 
  -28806   -28803   -28806   -28807   -28804   -28803   -28802   -28800 
  -28803   -28800   -28798   -28802   -28804   -28804   -28806   -28804 
  -28802   -28803   -28803   -28803   -28803   -28803   -28802   -28800 
  -28803   -28803   -28807   -28813   -28809   -28802   -28803   -28806 
  -28806   -28806   -28806   -28804   -28803   -28802   -28803   -28804 
  -28804   -28806   -28806   -28806   -28806   -28807   -28806   -28803 
  -28803   -28804   -28804   -28803   -28803   -28803   -28806   -28806 
  -28806   -28807   -28807   -28807   -28809   -28807   -28806   -28807 
  -28806   -28804   -28807   -28810   -28807   -28807   -28809   -28807 
  -28806   -28807   -28807   -28809   -28810   -28807   -28807   -28809 
  -28809   -28809   -28809   -28806   -28806   -28806   -28806   -28806 
  -28807   -28807   -28807   -28809   -28811   -28817   -28817   -28813 
  -28813   -28811   -28810   -28813   -28817   -28817   -28815   -28817 
  -28815   -28813   -28811   -28810   -28810   -28806   -28796   -28788 
  -28786   -28790   -28809   -28806   -28761   -28740   -28767   -28817 
  -28891   -28899   -28782   -28737   -28822   -28906   -29007   -28939 
  -28578   -28533   -28894   -28829   -28602   -28858   -28929   -28672 
  -28813   -29057   -28987   -28926   -28752   -28360   -28698   -29585 
  -29212   -28210   -28509   -29308   -29508   -29278   -28615   -28156 
  -28566   -29087   -29015   -28695   -28309   -27990   -28394   -29185 
  -29421   -29262   -28868   -28266   -28544   -29704   -29624   -28183 
  -27490   -28247   -29596   -29660   -28379   -28021   -28564   -29022 
  -29401   -28829   -27939   -28680   -29452   -28771   -28610   -28834 
  -28806   -29216   -28954   -28617   -28966   -28904   -29122   -29253 
  -28645   -28543   -28676   -28680   -29077   -29401   -28952   -28541 
  -28925   -28848   -28317   -28300   -28765   -29389   -28792   -27936 
  -28644   -29265   -29096   -28885   -28668   -28667   -28910   -28993 
  -28521   -28831   -29778   -28738   -27778   -29003   -29346   -28791 
  -28849   -28262   -28220   -29204   -28973   -28629   -28996   -28651 
  -28723   -29403   -28799   -28204   -29087   -29241   -28259   -28606 
  -29197   -28447   -28570   -29417   -29073   -28549   -28640   -29050 
  -29180   -28387   -28277   -29327   -29099   -28179   -28651   -29307 
  -29116   -28701   -28355   -28468   -29181   -29542   -28738   -28100 
  -28836   -29080   -28640   -29200   -29097   -28024   -28298   -29091 
  -29035   -28736   -28576   -28713   -28931   -28896   -29068   -29162 
  -28414   -28140   -29081   -29355   -28591   -28129   -28483   -29157 
  -29074   -28683   -29069   -29239   -28578   -28556   -29354   -29241 
  -28512   -28529   -28540   -28466   -28925   -28875   -28547   -28849 
  -28962   -28830   -29066   -29192   -28831   -28497   -28711   -29038 
  -28946   -28683   -28503   -28881   -29582   -29127   -28189   -28680 
  -29430   -28945   -28472   -28649   -28702   -28765   -29122   -29053 
  -28439   -28324   -28771   -29104   -29196   -28757   -28278   -28702 
  -29062   -28769   -28923   -28989   -28348   -28414   -29119   -29034 
  -28549   -28532   -28842   -29118   -28815   -28576   -29195   -29096 
  -28136   -28278   -29128   -29396   -28957   -28186   -28283   -29191 
  -29189   -28667   -29039   -29326   -28555   -28058   -28733   -29500 
  -29268   -28445   -28252   -28860   -29114   -28690   -28683   -29133 
  -29004   -28657   -28642   -28753   -29154   -29266   -28664   -28248 
  -28439   -28841   -29033   -29092   -28957   -28498   -28337   -28760 
  -29326   -29181   -28513   -28516   -28760   -28841   -29228   -28984 
  -28242   -28618   -29226   -28922   -28853   -29100   -28761   -28336 
  -28621   -29265   -29110   -28391   -28641   -29257   -29016   -28786 
  -28709   -28335   -28568   -29111   -28919   -28582   -28659   -28972 
  -29004   -28655   -28964   -29293   -28386   -28078   -29177   -29322 
  -28509   -28549   -28810   -28826   -29000   -28842   -28764   -28840 
  -28429   -28545   -29254   -29108   -28634   -28787   -28881   -28705 
  -28790   -29100   -28972   -28428   -28522   -28981   -28914   -28715 
  -28707   -28918   -29049   -28737   -28705   -28966   -28814   -28738 
  -28775   -28652   -28725   -28655   -28755   -29193   -28786   -28354 
  -28849   -28930   -28730   -28848   -28636   -28738   -29234   -28871 
  -28335   -28705   -29111   -28929   -28748   -28757   -28860   -28964 
  -28684   -28696   -29138   -28734   -28441   -29168   -29191   -28422 
  -28422   -29015   -29134   -28931   -28759   -28475   -28798   -29403 
  -28941   -28506   -28896   -28842   -28610   -28786   -28821   -28678 
  -28453   -28771   -29293   -28706   -28464   -28962   -28678   -28871 
  -29270   -28503   -28397   -29065   -29056   -28907   -28815   -28625 
  -28687   -28715   -28684   -29030   -29184   -28728   -28668   -28984 
  -28534   -28135   -28875   -29404   -29007   -28707   -28543   -28660 
  -29369   -29282   -28441   -28564   -28891   -28640   -28841   -28957 
  -28690   -28823   -28750   -28507   -28796   -29104   -29039   -28674 
  -28378   -28630   -28946   -28952   -28945   -28795   -28633   -28719 
  -28696   -28721   -29041   -29003   -28640   -28714   -28857   -28803 
  -29004   -29096   -28876   -28669   -28394   -28498   -29124   -29196 
  -28869   -28869   -28548   -28217   -28825   -29355   -28864   -28321 
  -28362   -28676   -29120   -29268   -29018   -28776   -28624   -28782 
  -29023   -28908   -28907   -28980   -28676   -28610   -28969   -28965 
  -28780   -28895   -28792   -28584   -28945   -29177   -28729   -28539 
  -28838   -28941   -28806   -28726   -28679   -28625   -28811   -28831 
  -28432   -28648   -29243   -29122   -28707   -28614   -28871   -29214 
  -29057   -28429   -28239   -28800   -29181   -28826   -28451   -28738 
  -29145   -28868   -28491   -28672   -28876   -28822   -28696   -28759 
  -28973   -28730   -28572   -29134   -29232   -28702   -28688   -28933 
  -28945   -29030   -29077   -28763   -28370   -28367   -28723   -29085 
  -29041   -28625   -28393   -28521   -28877   -29193   -29019   -28652 
  -28665   -28858   -29058   -29099   -28709   -28471   -28752   -29010 
  -29111   -29092   -28891   -28728   -28645   -28772   -29077   -28809 
  -28362   -28742   -28935   -28476   -28568   -28836   -28668   -28827 
  -28992   -28611   -28771   -29331   -29079   -28811   -28949   -28756 
  -28632   -28840   -28934   -28698   -28494   -28651   -28713   -28818 
  -29130   -28865   -28422   -28667   -29106   -29034   -28414   -28285 
  -29045   -29184   -28629   -28647   -28933   -28964   -28912   -28863 
  -28796   -28725   -28786   -28958   -28923   -28834   -28992   -28787 
  -28318   -28768   -29479   -29037   -28208   -28345   -28915   -28765 
  -28426   -28642   -28844   -28958   -29188   -28718   -28217   -29045 
  -29465   -28760   -28784   -28717   -28314   -29143   -29311   -28398 
  -28926   -29357   -28478   -28549   -29087   -28814   -28664   -28486 
  -28250   -28912   -29415   -28780   -28431   -28915   -29133   -28883 
  -28856   -29068   -28948   -28602   -28552   -28819   -29015   -28946 
  -28717   -28544   -28782   -28983   -28620   -28514   -28877   -28872 
  -28671   -28877   -28975   -28702   -28853   -29169   -28961   -28728 
  -28701   -28560   -28610   -29006   -29081   -28730   -28512   -28634 
  -29097   -29230   -28578   -28345   -29037   -29280   -28644   -28244 
  -28572   -29069   -29103   -28698   -28510   -28675   -28792   -28996 
  -29382   -29220   -28389   -28266   -28966   -28973   -28690   -28945 
  -28819   -28444   -28715   -29146   -28979   -28560   -28661   -28803 
  -28547   -28688   -29211   -29150   -28537   -28517   -28922   -28823 
  -28888   -28925   -28420   -28620   -29070   -28915   -29026   -28957 
  -28575   -28800   -28869   -28566   -28927   -29189   -28661   -28572 
  -28867   -28709   -28691   -28883   -28836   -28894   -28912   -28614 
  -28784   -29297   -28952   -28372   -28557   -28760   -28853   -29074 
  -28892   -28728   -28678   -28478   -28989   -29362   -28601   -28448 
  -29076   -28973   -28559   -28575   -28705   -28732   -28900   -29034 
  -28593   -28189   -28575   -29197   -29511   -29227   -28441   -28200 
  -28810   -29031   -28453   -28571   -29254   -28678   -28105   -28906 
  -29304   -28965   -28795   -28788   -29080   -29150   -28674   -28634 
  -28972   -28827   -28827   -28996   -28564   -28397   -28768   -28717 
  -28506   -28968   -29451   -29025   -28598   -28782   -28906   -28979 
  -29019   -28672   -28463   -28856   -29026   -28580   -28439   -28784 
  -28968   -28935   -28714   -28529   -28755   -28825   -28883   -29197 
  -28836   -28405   -28530   -28503   -28740   -29135   -29049   -29061 
  -28992   -28520   -28588   -29060   -28881   -28624   -28923   -29069 
  -28937   -28607   -28372   -28941   -29219   -28728   -28732   -28718 
  -28447   -28840   -28992   -28675   -28869   -28867   -28618   -28977 
  -29061   -28691   -28888   -29091   -28841   -28821   -28923   -28894 
  -28952   -28942   -28694   -28530   -28606   -28776   -29155   -29143 
  -28428   -28314   -28786   -28732   -28575   -28678   -28584   -28443 
  -28507   -28513   -28486   -28553   -28599   -28705   -28591   -28416 
  -28875   -29261   -28931   -28603   -28734   -28719   -27950   -27727 
  -28907   -29550   -28972   -28728   -28728   -28147   -28220   -29579 
  -30348   -29366   -27766   -27653   -29431   -30470   -29650   -28929 
  -29018   -29128   -28841   -28667   -29180   -29080   -28383   -29312 
  -30838   -29990   -27297   -26569   -28946   -30511   -29952   -29629 
  -29151   -28362   -28718   -29289   -29191   -29124   -29362   -29469 
  -28453   -27055   -27660   -29681   -29992   -28645   -28412   -28447 
  -27437   -27973   -29573   -29741   -29589   -29200   -28459   -29403 
  -30645   -29288   -27164   -27514   -28929   -29181   -29574   -29538 
  -27649   -26161   -26588   -28624   -30362   -29521   -27803   -26831 
  -26933   -28930   -30634   -30726   -30345   -28760   -27009   -27668 
  -29381   -29889   -29500   -29003   -28852   -28880   -28389   -27965 
  -28075   -28196   -28548   -28521   -27459   -27460   -29004   -29187 
  -28381   -28904   -29164   -28686   -29894   -31041   -29594   -28489 
  -29388   -29628   -28956   -28691   -28414   -28574   -29056   -28408 
  -27533   -27930   -28968   -29008   -27981   -28237   -29335   -28599 
  -27928   -29135   -30006   -30450   -30948   -30056   -28730   -28027 
  -27604   -28341   -29573   -29398   -28323   -28050   -28351   -27889 
  -27720   -28350   -28350   -28991   -30272   -29134   -27564   -29107 
  -30566   -29714   -29569   -29355   -27672   -27707   -28921   -28852 
  -28728   -28339   -27365   -27553   -28371   -28732   -28788   -28775 
  -29401   -29695   -28688   -28476   -29671   -30141   -29489   -29178 
  -29091   -28277   -28173   -29500   -29675   -27992   -27421   -28869 
  -29327   -27947   -27722   -28977   -29246   -29029   -29197   -28532 
  -28086   -28945   -29346   -28944   -29079   -29698   -29646   -28894 
  -28584   -28718   -28566   -28456   -28759   -29263   -29438   -28561 
  -27542   -27876   -28915   -29440   -28998   -28194   -28362   -28923 
  -29080   -29558   -29610   -28560   -28070   -28748   -29289   -29455 
  -29301   -28306   -28154   -29532   -29700   -28466   -27923   -28399 
  -29126   -29174   -28606   -28096   -28092   -28885   -29550   -29220 
  -28445   -28142   -28706   -29004   -28607   -28759   -28788   -28188 
  -28367   -28846   -28950   -29544   -29893   -29197   -28599   -28491 
  -28495   -28599   -28420   -28382   -29047   -29274   -28775   -28543 
  -28649   -28966   -29231   -29197   -28908   -28229   -28317   -29454 
  -29760   -29200   -28652   -28578   -29285   -29066   -28008   -28358 
  -29195   -29149   -28879   -28610   -28333   -28617   -29135   -28678 
  -28232   -29155   -29644   -28742   -28273   -28641   -28691   -28690 
  -28989   -28833   -28416   -28308   -28308   -28548   -29077   -29126 
  -28478   -28286   -29060   -29528   -29185   -28822   -28795   -28929 
  -28647   -28348   -28983   -29288   -28699   -28759   -28987   -28580 
  -28439   -28621   -28922   -29188   -28809   -28440   -28883   -29323 
  -29201   -28945   -28655   -28270   -28381   -29169   -29531   -29091 
  -28723   -28576   -28363   -28533   -29166   -29420   -29254   -29018 
  -28632   -28522   -28501   -28255   -28518   -29039   -29020   -28698 
  -28462   -28459   -28460   -28466   -28818   -28867   -28671   -28919 
  -29089   -29322   -29308   -28598   -28701   -29392   -29384   -29236 
  -28989   -28583   -28683   -28803   -28552   -28583   -28767   -28765 
  -28914   -28979   -28609   -28316   -28615   -29196   -29299   -28854 
  -28462   -28502   -28941   -29155   -28892   -28744   -28668   -28601 
  -28906   -28907   -28567   -28825   -28810   -28324   -28702   -29187 
  -28962   -28603   -28313   -28534   -29045   -28914   -28567   -28698 
  -28975   -28973   -28784   -28741   -28819   -28898   -29101   -29290 
  -29050   -28480   -28339   -28711   -28830   -28587   -28464   -28703 
  -28975   -28876   -28921   -29149   -28776   -28351   -28791   -29457 
  -29420   -28838   -28472   -28652   -28752   -28630   -28984   -29223 
  -28764   -28367   -28312   -28817   -29323   -28879   -28698   -28952 
  -28622   -28606   -28957   -29031   -28925   -28541   -28424   -28618 
  -28744   -29041   -28929   -28428   -28366   -28602   -29203   -29594 
  -28772   -28305   -29029   -28939   -28289   -28856   -29628   -29299 
  -28657   -28490   -28485   -28516   -29052   -29434   -28591   -27903 
  -28478   -28786   -28703   -28954   -28742   -28559   -28885   -28810 
  -28836   -28981   -28578   -28571   -28958   -28991   -28989   -29066 
  -29112   -29160   -29238   -29114   -28661   -28348   -28335   -28489 
  -28701   -28880   -28837   -28495   -28651   -29018   -28818   -28919 
  -29220   -29077   -28802   -28343   -28251   -28926   -29400   -29276 
  -29023   -28779   -28593   -28682   -28836   -28769   -28876   -29234 
  -28992   -28320   -28344   -28773   -28849   -28648   -28463   -28783 
  -29250   -28976   -28719   -29000   -28844   -28385   -28414   -28917 
  -29336   -28998   -28512   -28564   -28669   -29018   -29342   -28767 
  -28263   -28567   -28917   -29103   -29010   -28544   -28539   -29106 
  -28989   -28370   -28663   -29096   -28850   -28988   -29239   -28752 
  -28320   -28726   -29304   -29116   -28541   -28296   -28513   -29091 
  -29153   -28564   -28601   -28768   -28332   -28668   -29262   -28722 
  -28399   -28819   -28884   -28849   -29065   -28998   -28826   -28964 
  -28973   -28621   -28331   -28453   -28869   -29122   -28996   -28551 
  -28389   -28814   -28875   -28659   -28925   -28983   -28757   -29046 
  -29330   -28971   -28680   -28817   -28831   -28723   -28674   -28615 
  -28749   -29045   -29004   -28490   -28215   -28671   -29223   -28991 
  -28306   -28518   -29351   -29245   -28611   -28498   -28726   -29074 
  -29128   -28610   -28313   -28796   -29420   -29442   -29020   -28702 
  -28536   -28536   -28875   -28999   -28746   -28702   -28645   -28553 
  -28902   -29119   -28602   -28428   -29249   -29386   -28575   -28529 
  -28914   -29011   -29054   -28655   -28386   -28799   -28923   -28790 
  -28821   -28622   -28721   -29274   -29070   -28391   -28501   -28891 
  -28861   -28737   -28655   -28710   -28948   -29081   -28999   -28821 
  -28696   -28611   -28494   -28582   -28907   -29037   -28944   -28929 
  -28884   -28776   -28692   -28572   -28722   -29042   -28908   -28707 
  -28744   -28590   -28710   -29128   -28912   -28624   -28732   -28548 
  -28578   -28771   -28418   -28487   -28884   -28817   -28896   -28968 
  -28971   -29092   -28553   -28410   -29478   -29682   -28676   -28291 
