Origin Time       2025/03/30 21:30:00
Lat.              38.535
Long.             142.295
Depth. (km)       44
Mag.              4.3
Station Code      MYGH11
Station Lat.      38.5158
Station Long.     141.3421
Station Height(m) -202.1
Record Time       2025/03/30 21:31:20
Sampling Freq(Hz) 100Hz
Duration Time(s)  120
Dir.              3
Scale Factor      3923(gal)/8224838
Max. Acc. (gal)   0.549
Last Correction   2025/03/30 21:31:20
Memo.             
[...]
  -15581   -15581   -15579   -15579   -15583   -15580   -15577   -15580 
  -15581   -15576   -15576   -15581   -15580   -15576   -15579   -15581 
  -15576   -15576   -15579   -15576   -15576   -15579   -15574   -15576 
  -15580   -15577   -15577   -15579   -15579   -15579   -15577   -15576 
  -15577   -15577   -15576   -15576   -15576   -15576   -15576   -15577 
  -15577   -15576   -15577   -15574   -15572   -15573   -15574   -15576 
  -15574   -15573   -15577   -15579   -15577   -15576   -15577   -15579 
  -15576   -15577   -15579   -15576   -15576   -15579   -15579   -15577 
  -15576   -15579   -15581   -15581   -15580   -15581   -15580   -15577 
  -15579   -15580   -15579   -15577   -15579   -15580   -15581   -15581 
  -15579   -15580   -15583   -15579   -15576   -15580   -15581   -15579 
  -15579   -15581   -15583   -15579   -15580   -15583   -15583   -15580 
  -15579   -15580   -15583   -15581   -15579   -15580   -15581   -15581 
  -15580   -15579   -15584   -15584   -15580   -15580   -15583   -15583 
  -15581   -15580   -15580   -15579   -15577   -15581   -15581   -15579 
  -15579   -15580   -15581   -15580   -15580   -15581   -15581   -15580 
  -15580   -15580   -15580   -15580   -15581   -15583   -15581   -15579 
  -15580   -15583   -15581   -15581   -15581   -15579   -15576   -15579 
  -15580   -15577   -15579   -15580   -15579   -15579   -15581   -15579 
  -15576   -15579   -15577   -15574   -15579   -15580   -15577   -15577 
  -15577   -15577   -15576   -15577   -15580   -15581   -15580   -15580 
  -15581   -15581   -15576   -15577   -15580   -15580   -15579   -15579 
  -15579   -15576   -15576   -15581   -15583   -15580   -15581   -15581 
  -15577   -15579   -15580   -15577   -15579   -15579   -15580   -15581 
  -15581   -15580   -15580   -15579   -15577   -15577   -15581   -15580 
  -15580   -15583   -15580   -15576   -15580   -15583   -15583   -15580 
  -15577   -15579   -15583   -15581   -15581   -15583   -15579   -15576 
  -15580   -15583   -15580   -15581   -15581   -15581   -15580   -15577 
  -15581   -15583   -15576   -15577   -15583   -15580   -15579   -15580 
  -15580   -15580   -15580   -15581   -15579   -15577   -15580   -15581 
  -15577   -15577   -15579   -15577   -15577   -15580   -15580   -15580 
  -15580   -15577   -15579   -15580   -15576   -15579   -15580   -15576 
  -15576   -15579   -15580   -15577   -15574   -15579   -15583   -15579 
  -15574   -15576   -15579   -15577   -15577   -15577   -15576   -15576 
  -15580   -15580   -15577   -15579   -15579   -15577   -15579   -15580 
  -15579   -15579   -15580   -15577   -15577   -15580   -15579   -15577 
  -15580   -15579   -15576   -15579   -15583   -15581   -15577   -15577 
  -15580   -15579   -15576   -15579   -15581   -15581   -15580   -15577 
  -15576   -15579   -15580   -15579   -15579   -15581   -15583   -15580 
  -15579   -15579   -15580   -15583   -15581   -15581   -15581   -15579 
  -15579   -15580   -15579   -15580   -15580   -15579   -15579   -15579 
  -15579   -15581   -15580   -15577   -15580   -15579   -15579   -15583 
  -15580   -15579   -15580   -15577   -15579   -15580   -15577   -15579 
  -15580   -15580   -15580   -15583   -15583   -15579   -15576   -15577 
  -15579   -15577   -15581   -15583   -15579   -15577   -15580   -15581 
  -15580   -15579   -15577   -15577   -15579   -15579   -15576   -15577 
  -15579   -15574   -15572   -15574   -15574   -15577   -15587   -15591 
  -15587   -15583   -15579   -15579   -15588   -15595   -15593   -15589 
  -15583   -15576   -15569   -15562   -15554   -15558   -15595   -15641 
  -15637   -15576   -15499   -15457   -15499   -15620   -15715   -15684 
  -15577   -15519   -15541   -15589   -15614   -15610   -15630   -15637 
  -15554   -15511   -15626   -15647   -15491   -15511   -15699   -15705 
  -15552   -15418   -15476   -15712   -15700   -15427   -15444   -15701 
  -15708   -15560   -15488   -15483   -15568   -15546   -15489   -15631 
  -15672   -15589   -15587   -15603   -15657   -15678   -15554   -15394 
  -15441   -15665   -15781   -15701   -15421   -15267   -15627   -15916 
  -15579   -15310   -15537   -15623   -15520   -15452   -15421   -15865 
  -16044   -15299   -15149   -15890   -15985   -15469   -15350   -15569 
  -15660   -15626   -15600   -15700   -15782   -15525   -15267   -15484 
  -15853   -15850   -15573   -15435   -15449   -15550   -15793   -15820 
  -15426   -15225   -15579   -15785   -15565   -15531   -15670   -15619 
  -15488   -15444   -15523   -15610   -15570   -15520   -15703   -15828 
  -15404   -15148   -15666   -15977   -15634   -15438   -15541   -15539 
  -15468   -15554   -15674   -15504   -15380   -15662   -15863   -15697 
  -15406   -15211   -15372   -15799   -15889   -15603   -15433   -15394 
  -15452   -15724   -15843   -15473   -15256   -15661   -15901   -15662 
  -15538   -15534   -15492   -15492   -15487   -15576   -15738   -15709 
  -15542   -15422   -15508   -15765   -15777   -15534   -15489   -15615 
  -15561   -15464   -15539   -15579   -15558   -15570   -15633   -15773 
  -15695   -15437   -15418   -15411   -15373   -15759   -16050   -15722 
  -15437   -15404   -15326   -15461   -15739   -15661   -15503   -15643 
  -15678   -15522   -15568   -15638   -15472   -15435   -15623   -15576 
  -15546   -15753   -15572   -15408   -15749   -15736   -15321   -15348 
  -15790   -15867   -15512   -15465   -15637   -15678   -15669   -15512 
  -15583   -15776   -15514   -15411   -15672   -15664   -15569   -15568 
  -15526   -15618   -15681   -15510   -15462   -15635   -15669   -15569 
  -15624   -15600   -15392   -15557   -15826   -15588   -15363   -15457 
  -15592   -15726   -15624   -15400   -15495   -15631   -15558   -15533 
  -15619   -15673   -15538   -15361   -15512   -15735   -15660   -15587 
  -15591   -15500   -15514   -15542   -15545   -15678   -15620   -15493 
  -15566   -15552   -15531   -15580   -15618   -15753   -15660   -15407 
  -15468   -15589   -15653   -15776   -15693   -15427   -15402   -15639 
  -15699   -15558   -15546   -15620   -15556   -15439   -15569   -15766 
  -15624   -15394   -15556   -15792   -15619   -15452   -15522   -15561 
  -15731   -15761   -15435   -15452   -15693   -15678   -15653   -15606 
  -15481   -15441   -15529   -15674   -15719   -15592   -15396   -15460 
  -15719   -15711   -15591   -15565   -15479   -15429   -15508   -15696 
  -15789   -15561   -15454   -15570   -15537   -15600   -15649   -15527 
  -15583   -15588   -15535   -15569   -15493   -15550   -15709   -15699 
  -15645   -15576   -15453   -15384   -15554   -15789   -15684   -15464 
  -15481   -15543   -15462   -15472   -15763   -15897   -15552   -15299 
  -15427   -15600   -15754   -15750   -15519   -15429   -15584   -15703 
  -15579   -15508   -15622   -15510   -15430   -15720   -15749   -15445 
  -15531   -15765   -15579   -15375   -15545   -15753   -15658   -15484 
  -15475   -15530   -15593   -15618   -15624   -15680   -15581   -15345 
  -15446   -15788   -15759   -15570   -15475   -15348   -15539   -15778 
  -15666   -15628   -15596   -15506   -15614   -15619   -15535   -15603 
  -15538   -15471   -15646   -15700   -15623   -15599   -15512   -15429 
  -15433   -15565   -15665   -15645   -15755   -15738   -15406   -15298 
  -15534   -15723   -15704   -15566   -15518   -15589   -15634   -15589 
  -15511   -15547   -15678   -15645   -15452   -15448   -15664   -15709 
  -15597   -15516   -15427   -15593   -15881   -15624   -15288   -15606 
  -15762   -15395   -15392   -15592   -15574   -15699   -15709   -15468 
  -15457   -15618   -15592   -15396   -15487   -15790   -15601   -15342 
  -15628   -15831   -15643   -15480   -15418   -15395   -15572   -15803 
  -15745   -15568   -15450   -15361   -15493   -15716   -15726   -15655 
  -15612   -15588   -15622   -15597   -15491   -15458   -15603   -15750 
  -15630   -15526   -15606   -15537   -15504   -15696   -15727   -15599 
  -15574   -15534   -15519   -15743   -15790   -15552   -15600   -15704 
  -15506   -15391   -15437   -15519   -15712   -15774   -15520   -15390 
  -15529   -15584   -15607   -15603   -15583   -15684   -15546   -15356 
  -15543   -15611   -15554   -15695   -15696   -15639   -15576   -15322 
  -15402   -15824   -15835   -15498   -15383   -15434   -15448   -15596 
  -15761   -15757   -15654   -15453   -15417   -15580   -15531   -15429 
  -15534   -15601   -15614   -15805   -15907   -15480   -15010   -15233 
  -15719   -15905   -15867   -15662   -15601   -15649   -15475   -15353 
  -15404   -15535   -15691   -15792   -15715   -15435   -15552   -15774 
  -15406   -15327   -15790   -15900   -15628   -15407   -15426   -15566 
  -15645   -15651   -15584   -15583   -15543   -15311   -15396   -15859 
  -15936   -15660   -15510   -15403   -15407   -15585   -15714   -15726 
  -15606   -15480   -15534   -15635   -15591   -15522   -15541   -15546 
  -15520   -15468   -15514   -15769   -15886   -15691   -15449   -15314 
  -15404   -15776   -15855   -15387   -15286   -15712   -15784   -15580 
  -15561   -15533   -15394   -15392   -15608   -15832   -15799   -15556 
  -15492   -15539   -15516   -15572   -15466   -15404   -15734   -15797 
  -15593   -15624   -15553   -15422   -15550   -15665   -15615   -15491 
  -15465   -15665   -15745   -15535   -15408   -15489   -15570   -15565 
  -15645   -15772   -15626   -15454   -15546   -15543   -15498   -15624 
  -15599   -15516   -15661   -15707   -15523   -15496   -15687   -15735 
  -15639   -15538   -15383   -15376   -15469   -15519   -15688   -15653 
  -15515   -15778   -15788   -15356   -15418   -15773   -15705   -15570 
  -15634   -15600   -15535   -15522   -15499   -15647   -15701   -15472 
  -15407   -15523   -15674   -15709   -15527   -15593   -15718   -15450 
  -15321   -15543   -15647   -15579   -15658   -15701   -15542   -15651 
  -15763   -15558   -15665   -15846   -15600   -15364   -15406   -15596 
  -15646   -15552   -15611   -15576   -15321   -15352   -15677   -15751 
  -15628   -15672   -15569   -15268   -15365   -15657   -15799   -15900 
  -15635   -15280   -15368   -15495   -15520   -15681   -15792   -15681 
  -15566   -15565   -15431   -15336   -15739   -16033   -15643   -15296 
  -15252   -15340   -15746   -15909   -15543   -15442   -15630   -15554 
  -15579   -15885   -15786   -15376   -15403   -15654   -15691   -15654 
  -15545   -15356   -15415   -15680   -15687   -15574   -15631   -15608 
  -15522   -15452   -15485   -15734   -15614   -15252   -15418   -15757 
  -15847   -15715   -15458   -15471   -15610   -15600   -15645   -15562 
  -15506   -15804   -15750   -15349   -15479   -15808   -15734   -15552 
  -15558   -15556   -15441   -15466   -15581   -15633   -15650   -15545 
  -15375   -15388   -15684   -15931   -15789   -15412   -15221   -15557 
  -15920   -15692   -15360   -15346   -15519   -15624   -15580   -15635 
  -15654   -15566   -15627   -15614   -15507   -15552   -15560   -15500 
  -15527   -15651   -15736   -15533   -15493   -15840   -15722   -15461 
  -15633   -15507   -15358   -15642   -15692   -15547   -15547   -15453 
  -15365   -15595   -15917   -15892   -15649   -15546   -15471   -15363 
  -15449   -15685   -15661   -15411   -15491   -15714   -15610   -15510 
  -15655   -15722   -15572   -15479   -15562   -15601   -15547   -15418 
  -15356   -15633   -15851   -15650   -15313   -15259   -15739   -16048 
  -15676   -15431   -15561   -15587   -15520   -15435   -15511   -15813 
  -15784   -15496   -15553   -15669   -15562   -15427   -15357   -15529 
  -15754   -15618   -15516   -15622   -15539   -15592   -15741   -15589 
  -15628   -15719   -15449   -15475   -15730   -15658   -15635   -15612 
  -15371   -15390   -15635   -15689   -15543   -15390   -15456   -15677 
  -15641   -15523   -15734   -15790   -15504   -15377   -15511   -15669 
  -15545   -15408   -15647   -15796   -15637   -15441   -15290   -15330 
  -15684   -16029   -15847   -15429   -15415   -15535   -15543   -15591 
  -15682   -15723   -15464   -15391   -15809   -15726   -15315   -15587 
  -15859   -15495   -15322   -15535   -15445   -15461   -15898   -15839 
  -15439   -15421   -15500   -15637   -15627   -15352   -15561   -15963 
  -15720   -15349   -15472   -15677   -15612   -15518   -15502   -15622 
  -15731   -15510   -15358   -15583   -15747   -15631   -15403   -15377 
  -15601   -15646   -15503   -15493   -15537   -15628   -15699   -15593 
  -15527   -15506   -15472   -15526   -15549   -15619   -15815   -15800 
  -15554   -15499   -15651   -15669   -15589   -15633   -15576   -15408 
  -15477   -15534   -15410   -15550   -15727   -15522   -15427   -15593 
  -15693   -15832   -15803   -15441   -15242   -15460   -15770   -15654 
  -15448   -15680   -15722   -15584   -15620   -15321   -15159   -15533 
  -15608   -15520   -15780   -15780   -15319   -15194   -15496   -15587 
  -15658   -15881   -15603   -15222   -15574   -15923   -15724   -15727 
  -15839   -15649   -15665   -15732   -15554   -15488   -15426   -15418 
  -15649   -15720   -15483   -15348   -15697   -16047   -15731   -15321 
  -15498   -15765   -15568   -15510   -16001   -16127   -15777   -15616 
  -15523   -15641   -15773   -15454   -15327   -15380   -15271   -15411 
  -15533   -15623   -15813   -15577   -15350   -15543   -15800   -15985 
  -15830   -15512   -15471   -15407   -15238   -15190   -15156   -15322 
  -15840   -15992   -15687   -15844   -15920   -15267   -15168   -15638 
  -15493   -15223   -15485   -15930   -16039   -15730   -15385   -15190 
  -15385   -15824   -15549   -15093   -15557   -15994   -15836   -15539 
  -15234   -15492   -15884   -15523   -15196   -15277   -15381   -15700 
  -16000   -15940   -15849   -15947   -15661   -14625   -14428   -15817 
  -16445   -15718   -15666   -16083   -15691   -15417   -15990   -16133 
  -15395   -14983   -15256   -15441   -15452   -15757   -15990   -15826 
  -15777   -15923   -15927   -15662   -15395   -15392   -15242   -15188 
  -15660   -15959   -15861   -15785   -15553   -14975   -14848   -15512 
  -15923   -15607   -15256   -15176   -15114   -15221   -15527   -15688 
  -15624   -15345   -15309   -15642   -15523   -15169   -15365   -15446 
  -15264   -15892   -16428   -15631   -15201   -15928   -16046   -15554 
  -15672   -15935   -15682   -15481   -15668   -15481   -15075   -15415 
  -15847   -15804   -15955   -16000   -15624   -15639   -15839   -15511 
  -15385   -15601   -15255   -15088   -15718   -16025   -15909   -15865 
  -15681   -15472   -15450   -15651   -15735   -15458   -15385   -15437 
  -15454   -15824   -15834   -15445   -15556   -15610   -15444   -15722 
  -15866   -15406   -15016   -15207   -15693   -15792   -15279   -15097 
  -15723   -15866   -15479   -15869   -16070   -15357   -15249   -15727 
  -15688   -15340   -15194   -15419   -15739   -15688   -15485   -15450 
  -15419   -15369   -15358   -15580   -15961   -15759   -15329   -15498 
  -15746   -15885   -16094   -15940   -15560   -15198   -15018   -15574 
  -16221   -16031   -15645   -15574   -15585   -15565   -15429   -15296 
  -15425   -15766   -15727   -15426   -15819   -16096   -15758   -15982 
  -16052   -15469   -15306   -15322   -15196   -15148   -15192   -15422 
  -15666   -15804   -15741   -15480   -15430   -15419   -15298   -15553 
  -15673   -15156   -14905   -15252   -15633   -15830   -15807   -15685 
  -15753   -15780   -15369   -15113   -15596   -15886   -15538   -15530 
  -15778   -15645   -15529   -15638   -15746   -15746   -15581   -15487 
  -15566   -15484   -15421   -15742   -15986   -15934   -15982   -15766 
  -15282   -15495   -15913   -15597   -15321   -15427   -15296   -15363 
  -15749   -15677   -15568   -15589   -15282   -15334   -15691   -15560 
  -15329   -15381   -15585   -15919   -16114   -15907   -15426   -15091 
  -15411   -15871   -15658   -15241   -15196   -15574   -15925   -15681 
  -15515   -15749   -15739   -15820   -15965   -15658   -15526   -15599 
  -15570   -15816   -15720   -15260   -15452   -15687   -15457   -15566 
  -15854   -15647   -15336   -15460   -15673   -15631   -15611   -15742 
  -15732   -15464   -15318   -15537   -15655   -15539   -15639   -15606 
  -15282   -15384   -15573   -15412   -15466   -15581   -15415   -15318 
  -15265   -15242   -15464   -15674   -15647   -15456   -15452   -15664 
  -15581   -15511   -15669   -15599   -15570   -15693   -15646   -15619 
  -15816   -15979   -15735   -15472   -15654   -15714   -15457   -15487 
  -15657   -15600   -15670   -15834   -15699   -15537   -15651   -15723 
  -15479   -15421   -15838   -15849   -15327   -15495   -15966   -15543 
  -15310   -15819   -15735   -15414   -15570   -15539   -15412   -15492 
  -15489   -15429   -15492   -15762   -15904   -15560   -15349   -15541 
  -15425   -15186   -15412   -15874   -15873   -15202   -15111   -15830 
  -15886   -15512   -15601   -15714   -15526   -15435   -15666   -15673 
  -15399   -15439   -15542   -15508   -15627   -15734   -15655   -15534 
  -15591   -15753   -15691   -15412   -15399   -15727   -15658   -15331 
  -15491   -15670   -15587   -15714   -15747   -15448   -15309   -15404 
  -15596   -15762   -15676   -15677   -15890   -15828   -15573   -15510 
  -15593   -15585   -15457   -15542   -15843   -15846   -15604   -15523 
  -15562   -15599   -15566   -15319   -15152   -15487   -15658   -15358 
  -15549   -15857   -15411   -15205   -15692   -15853   -15535   -15180 
  -15088   -15684   -16216   -15815   -15327   -15385   -15627   -15759 
  -15650   -15564   -15580   -15454   -15579   -15759   -15398   -15340 
  -15755   -15635   -15415   -15700   -15831   -15552   -15499   -15827 
  -15877   -15570   -15489   -15599   -15580   -15596   -15705   -15695 
  -15584   -15534   -15574   -15554   -15577   -15781   -15716   -15329 
  -15188   -15402   -15655   -15682   -15574   -15511   -15412   -15388 
  -15388   -15288   -15457   -15762   -15633   -15383   -15592   -15873 
  -15731   -15560   -15601   -15573   -15429   -15479   -15766   -15726 
  -15547   -15724   -15606   -15445   -15838   -15785   -15525   -15988 
  -16069   -15376   -15218   -15718   -15741   -15404   -15511   -15541 
  -15387   -15560   -15604   -15410   -15433   -15619   -15612   -15530 
  -15604   -15585   -15600   -15772   -15758   -15565   -15398   -15309 
  -15217   -15385   -15769   -15664   -15477   -15654   -15522   -15400 
  -15661   -15664   -15587   -15711   -15705   -15634   -15583   -15676 
  -15822   -15603   -15507   -15719   -15583   -15421   -15527   -15499 
  -15516   -15673   -15626   -15454   -15414   -15562   -15727   -15634 
  -15456   -15479   -15539   -15673   -15828   -15565   -15336   -15603 
  -15754   -15728   -15755   -15666   -15639   -15626   -15531   -15479 
  -15384   -15477   -15604   -15438   -15464   -15618   -15583   -15664 
  -15639   -15448   -15462   -15439   -15504   -15840   -15714   -15259 
  -15358   -15796   -15920   -15741   -15645   -15728   -15539   -15276 
  -15637   -15826   -15391   -15487   -15776   -15545   -15556   -15668 
  -15547   -15562   -15514   -15615   -15859   -15529   -15233   -15533 
  -15722   -15591   -15508   -15665   -15785   -15661   -15624   -15510 
  -15384   -15788   -15927   -15422   -15299   -15465   -15425   -15488 
  -15653   -15688   -15504   -15400   -15607   -15565   -15346   -15538 
  -15654   -15504   -15592   -15633   -15485   -15508   -15591   -15633 
  -15538   -15279   -15429   -15877   -15782   -15438   -15468   -15498 
  -15433   -15569   -15527   -15344   -15561   -15819   -15738   -15674 
  -15728   -15751   -15637   -15458   -15558   -15699   -15619   -15704 
