Origin Time       2025/03/30 21:30:00
Lat.              38.535
Long.             142.295
Depth. (km)       44
Mag.              4.3
Station Code      MYGH08
Station Lat.      38.1133
Station Long.     140.8441
Station Height(m) -90
Record Time       2025/03/30 21:31:32
Sampling Freq(Hz) 100Hz
Duration Time(s)  120
Dir.              2
Scale Factor      3923(gal)/8224838
Max. Acc. (gal)   0.298
Last Correction   2025/03/30 21:31:33
Memo.             
[...]
  -18511   -18482   -18655   -18625   -18430   -18434   -18600   -18658 
  -18600   -18598   -18679   -18729   -18682   -18585   -18538   -18566 
  -18573   -18484   -18420   -18559   -18763   -18751   -18613   -18603 
  -18677   -18678   -18612   -18558   -18566   -18608   -18624   -18623 
  -18611   -18585   -18565   -18544   -18524   -18501   -18470   -18476 
  -18531   -18605   -18665   -18666   -18601   -18573   -18621   -18605 
  -18513   -18549   -18705   -18732   -18611   -18554   -18585   -18578 
  -18534   -18562   -18671   -18725   -18686   -18689   -18704   -18604 
  -18488   -18496   -18580   -18609   -18527   -18450   -18530   -18700 
  -18787   -18748   -18686   -18700   -18733   -18688   -18621   -18631 
  -18628   -18549   -18505   -18543   -18561   -18532   -18519   -18516 
  -18493   -18512   -18603   -18681   -18696   -18692   -18716   -18709 
  -18631   -18613   -18651   -18553   -18427   -18534   -18706   -18657 
  -18509   -18539   -18688   -18694   -18570   -18534   -18566   -18561 
  -18603   -18651   -18573   -18507   -18590   -18684   -18654   -18558 
  -18535   -18617   -18670   -18621   -18551   -18520   -18527   -18609 
  -18702   -18667   -18611   -18666   -18681   -18563   -18501   -18612 
  -18698   -18580   -18457   -18566   -18720   -18698   -18620   -18605 
  -18588   -18582   -18609   -18549   -18430   -18430   -18513   -18531 
  -18488   -18480   -18577   -18698   -18706   -18663   -18681   -18701 
  -18663   -18628   -18646   -18678   -18651   -18561   -18489   -18505 
  -18570   -18561   -18473   -18478   -18601   -18657   -18590   -18567 
  -18665   -18754   -18713   -18607   -18550   -18581   -18682   -18721 
  -18605   -18511   -18565   -18609   -18550   -18515   -18596   -18690 
  -18670   -18571   -18493   -18490   -18531   -18523   -18476   -18486 
  -18566   -18630   -18628   -18639   -18704   -18720   -18673   -18662 
  -18689   -18673   -18601   -18550   -18559   -18582   -18562   -18523 
  -18563   -18655   -18667   -18638   -18640   -18620   -18576   -18596 
  -18693   -18719   -18592   -18519   -18646   -18748   -18648   -18522 
  -18546   -18624   -18625   -18615   -18630   -18601   -18555   -18584 
  -18598   -18512   -18503   -18642   -18684   -18544   -18463   -18557 
  -18666   -18650   -18578   -18597   -18690   -18739   -18705   -18621 
  -18557   -18554   -18549   -18501   -18505   -18611   -18685   -18643 
  -18619   -18690   -18738   -18708   -18667   -18623   -18582   -18582 
  -18584   -18539   -18496   -18524   -18607   -18594   -18480   -18501 
  -18694   -18743   -18597   -18561   -18642   -18597   -18486   -18508 
  -18585   -18542   -18480   -18557   -18620   -18570   -18605   -18743 
  -18769   -18678   -18659   -18708   -18663   -18534   -18473   -18520 
  -18554   -18466   -18365   -18428   -18577   -18627   -18601   -18621 
  -18697   -18740   -18754   -18797   -18763   -18592   -18497   -18577 
  -18627   -18522   -18422   -18477   -18559   -18542   -18558   -18696 
  -18787   -18708   -18597   -18597   -18620   -18585   -18570   -18586 
  -18570   -18557   -18590   -18623   -18638   -18677   -18728   -18715 
  -18632   -18586   -18589   -18535   -18465   -18500   -18565   -18524 
  -18457   -18535   -18679   -18678   -18573   -18565   -18677   -18747 
  -18706   -18678   -18704   -18647   -18526   -18511   -18581   -18586 
  -18544   -18550   -18592   -18594   -18581   -18639   -18693   -18623 
  -18555   -18644   -18771   -18733   -18613   -18631   -18709   -18646 
  -18519   -18466   -18461   -18484   -18546   -18586   -18543   -18488 
  -18535   -18643   -18700   -18697   -18661   -18643   -18673   -18693 
  -18648   -18592   -18576   -18562   -18513   -18505   -18558   -18539 
  -18453   -18482   -18609   -18611   -18542   -18636   -18798   -18773 
  -18607   -18512   -18524   -18553   -18570   -18590   -18608   -18624 
  -18634   -18642   -18659   -18686   -18736   -18725   -18573   -18447 
  -18497   -18563   -18513   -18468   -18501   -18536   -18570   -18647 
  -18696   -18675   -18659   -18679   -18697   -18652   -18597   -18643 
  -18661   -18493   -18395   -18535   -18631   -18531   -18508   -18681 
  -18743   -18592   -18553   -18670   -18643   -18476   -18469   -18621 
  -18642   -18550   -18605   -18723   -18705   -18665   -18704   -18697 
  -18598   -18543   -18577   -18598   -18531   -18446   -18454   -18544 
  -18643   -18692   -18647   -18567   -18582   -18702   -18769   -18675 
  -18528   -18496   -18600   -18681   -18582   -18420   -18458   -18644 
  -18688   -18570   -18554   -18708   -18800   -18666   -18504   -18574 
  -18740   -18690   -18469   -18387   -18565   -18717   -18604   -18481 
  -18590   -18706   -18662   -18605   -18611   -18623   -18627   -18635 
  -18634   -18594   -18573   -18589   -18553   -18507   -18596   -18715 
  -18671   -18561   -18577   -18689   -18725   -18648   -18616   -18669 
  -18624   -18482   -18462   -18530   -18508   -18478   -18581   -18706 
  -18721   -18677   -18636   -18576   -18520   -18523   -18531   -18522 
  -18550   -18574   -18563   -18611   -18702   -18692   -18589   -18578 
  -18666   -18689   -18643   -18624   -18617   -18592   -18596   -18592 
  -18473   -18346   -18435   -18625   -18632   -18565   -18670   -18779 
  -18675   -18582   -18704   -18809   -18669   -18477   -18495   -18576 
  -18534   -18507   -18534   -18496   -18500   -18643   -18704   -18580 
  -18550   -18705   -18724   -18558   -18576   -18787   -18771   -18527 
  -18473   -18628   -18657   -18569   -18596   -18638   -18573   -18628 
  -18789   -18679   -18416   -18441   -18642   -18625   -18455   -18450 
  -18597   -18646   -18607   -18652   -18712   -18679   -18650   -18642 
  -18594   -18593   -18693   -18758   -18674   -18515   -18443   -18484 
  -18534   -18585   -18636   -18588   -18517   -18604   -18715   -18630 
  -18517   -18616   -18759   -18729   -18630   -18600   -18586   -18544 
  -18554   -18624   -18612   -18503   -18485   -18570   -18576   -18513 
  -18551   -18647   -18654   -18592   -18571   -18640   -18719   -18690 
  -18628   -18624   -18635   -18642   -18630   -18540   -18439   -18447 
  -18561   -18671   -18679   -18604   -18562   -18589   -18604   -18597 
  -18642   -18713   -18686   -18550   -18468   -18531   -18603   -18585 
  -18557   -18531   -18501   -18580   -18729   -18711   -18563   -18576 
  -18690   -18648   -18505   -18490   -18589   -18612   -18557   -18573 
  -18630   -18609   -18589   -18630   -18617   -18581   -18661   -18747 
  -18686   -18588   -18578   -18586   -18565   -18588   -18631   -18598 
  -18559   -18615   -18654   -18586   -18596   -18739   -18742   -18555 
  -18500   -18620   -18619   -18476   -18478   -18654   -18719   -18605 
  -18550   -18609   -18621   -18578   -18578   -18593   -18578   -18592 
  -18625   -18592   -18544   -18604   -18684   -18650   -18576   -18578 
  -18612   -18607   -18593   -18594   -18600   -18589   -18524   -18445 
  -18499   -18694   -18783   -18648   -18565   -18689   -18744   -18628 
  -18554   -18559   -18578   -18628   -18670   -18625   -18530   -18515 
  -18600   -18607   -18515   -18526   -18615   -18601   -18553   -18603 
  -18667   -18647   -18621   -18617   -18561   -18543   -18636   -18677 
  -18592   -18523   -18581   -18671   -18654   -18577   -18517   -18463 
  -18469   -18539   -18559   -18519   -18527   -18628   -18729   -18728 
  -18685   -18685   -18639   -18558   -18632   -18771   -18652   -18400 
  -18415   -18631   -18689   -18562   -18504   -18607   -18693   -18661 
  -18598   -18539   -18517   -18613   -18705   -18593   -18384   -18368 
  -18542   -18605   -18561   -18670   -18810   -18721   -18580   -18624 
  -18717   -18675   -18619   -18652   -18604   -18447   -18447   -18581 
  -18573   -18495   -18576   -18689   -18644   -18593   -18701   -18802 
  -18724   -18594   -18569   -18615   -18689   -18740   -18662   -18492 
  -18470   -18621   -18674   -18596   -18634   -18724   -18621   -18492 
  -18601   -18693   -18534   -18420   -18513   -18562   -18539   -18636 
  -18729   -18617   -18522   -18670   -18787   -18634   -18515   -18639 
  -18685   -18503   -18426   -18542   -18535   -18439   -18623   -18898 
  -18779   -18482   -18511   -18704   -18628   -18439   -18516   -18657 
  -18586   -18538   -18611   -18607   -18596   -18692   -18694   -18534 
  -18517   -18709   -18721   -18481   -18403   -18534   -18509   -18401 
  -18536   -18732   -18678   -18571   -18690   -18841   -18729   -18522 
  -18530   -18635   -18588   -18497   -18507   -18553   -18611   -18673 
  -18644   -18532   -18492   -18566   -18655   -18690   -18663   -18605 
  -18590   -18640   -18662   -18573   -18495   -18578   -18684   -18613 
  -18522   -18616   -18744   -18674   -18519   -18519   -18613   -18600 
  -18497   -18454   -18520   -18635   -18708   -18711   -18678   -18682 
  -18740   -18742   -18624   -18512   -18547   -18667   -18688   -18569 
  -18477   -18478   -18516   -18605   -18666   -18569   -18489   -18616 
  -18727   -18630   -18565   -18684   -18715   -18571   -18557   -18698 
  -18688   -18538   -18554   -18684   -18612   -18480   -18597   -18689 
  -18493   -18382   -18589   -18766   -18665   -18526   -18576   -18630 
  -18573   -18584   -18634   -18562   -18532   -18667   -18720   -18585 
  -18519   -18651   -18750   -18655   -18542   -18550   -18590   -18565 
  -18513   -18528   -18588   -18567   -18490   -18528   -18686   -18728 
  -18600   -18534   -18621   -18696   -18650   -18567   -18561   -18630 
  -18665   -18569   -18441   -18477   -18628   -18698   -18667   -18605 
  -18594   -18685   -18755   -18670   -18508   -18463   -18600   -18724 
  -18662   -18542   -18574   -18746   -18825   -18655   -18462   -18542 
  -18686   -18571   -18370   -18395   -18566   -18634   -18585   -18570 
  -18596   -18613   -18706   -18828   -18755   -18582   -18582   -18650 
  -18565   -18447   -18504   -18603   -18528   -18447   -18559   -18689 
  -18701   -18673   -18638   -18613   -18667   -18755   -18729   -18605 
  -18554   -18558   -18458   -18347   -18393   -18503   -18543   -18563 
  -18611   -18658   -18712   -18752   -18674   -18527   -18540   -18686 
  -18708   -18605   -18592   -18663   -18652   -18573   -18557   -18594 
  -18601   -18557   -18527   -18573   -18640   -18696   -18765   -18712 
  -18515   -18458   -18584   -18611   -18528   -18567   -18694   -18654 
  -18435   -18347   -18534   -18727   -18698   -18605   -18634   -18688 
  -18674   -18654   -18624   -18522   -18404   -18431   -18611   -18738 
  -18674   -18558   -18585   -18715   -18763   -18681   -18593   -18630 
  -18748   -18754   -18601   -18492   -18520   -18531   -18436   -18360 
  -18422   -18603   -18721   -18636   -18532   -18657   -18835   -18790 
  -18596   -18495   -18573   -18681   -18661   -18562   -18526   -18598 
  -18671   -18581   -18436   -18485   -18631   -18607   -18503   -18570 
  -18698   -18625   -18466   -18485   -18623   -18717   -18782   -18774 
  -18623   -18546   -18694   -18748   -18490   -18324   -18509   -18686 
  -18613   -18516   -18550   -18600   -18574   -18580   -18607   -18503 
  -18424   -18613   -18839   -18785   -18585   -18539   -18654   -18697 
  -18621   -18601   -18650   -18598   -18463   -18461   -18597   -18613 
  -18473   -18450   -18607   -18693   -18646   -18682   -18821   -18817 
  -18667   -18608   -18644   -18588   -18447   -18407   -18477   -18513 
  -18515   -18558   -18550   -18477   -18526   -18669   -18682   -18644 
  -18739   -18819   -18701   -18513   -18504   -18652   -18689   -18573 
  -18499   -18512   -18561   -18662   -18774   -18725   -18504   -18414 
  -18594   -18765   -18743   -18661   -18607   -18549   -18499   -18496 
  -18542   -18580   -18550   -18489   -18544   -18733   -18804   -18661 
  -18612   -18786   -18817   -18585   -18492   -18608   -18527   -18257 
  -18239   -18500   -18623   -18542   -18580   -18686   -18617   -18586 
  -18773   -18866   -18738   -18675   -18733   -18698   -18608   -18603 
  -18559   -18385   -18304   -18496   -18706   -18639   -18482   -18546 
  -18698   -18735   -18711   -18706   -18752   -18792   -18674   -18500 
  -18539   -18698   -18628   -18362   -18345   -18621   -18705   -18524 
  -18476   -18615   -18647   -18555   -18596   -18763   -18806   -18752 
  -18762   -18727   -18596   -18604   -18738   -18627   -18292   -18208 
  -18418   -18442   -18238   -18241   -18472   -18549   -18434   -18404 
  -18519   -18635   -18743   -18904   -18997   -18955   -18982   -19097 
  -18993   -18617   -18269   -18161   -18245   -18333   -18335   -18360 
  -18468   -18573   -18625   -18631   -18576   -18492   -18507   -18667 
  -18843   -18906   -18922   -18985   -18967   -18821   -18783   -18925 
  -18956   -18720   -18461   -18414   -18443   -18369   -18277   -18247 
  -18199   -18181   -18306   -18472   -18566   -18604   -18558   -18436 
  -18438   -18665   -18912   -19012   -19024   -19002   -18891   -18686 
  -18504   -18446   -18482   -18550   -18625   -18650   -18605   -18593 
  -18628   -18615   -18605   -18659   -18669   -18644   -18711   -18733 
  -18540   -18376   -18520   -18786   -18894   -18863   -18793   -18715 
  -18698   -18727   -18577   -18235   -18072   -18256   -18484   -18484 
  -18354   -18303   -18333   -18334   -18266   -18212   -18330   -18642 
  -18937   -19021   -18948   -18956   -19052   -18848   -18342   -18122 
  -18334   -18503   -18488   -18530   -18647   -18700   -18794   -19051 
  -19152   -18864   -18632   -18694   -18603   -18301   -18319   -18616 
  -18639   -18409   -18370   -18490   -18476   -18439   -18524   -18527 
  -18507   -18821   -19226   -19182   -18920   -18945   -19094   -19075 
  -18990   -18785   -18360   -18080   -18160   -18200   -18013   -18038 
  -18441   -18648   -18451   -18418   -18719   -18854   -18666   -18468 
  -18360   -18249   -18203   -18253   -18212   -18121   -18315   -18759 
  -19022   -19035   -19048   -19110   -19165   -19217   -19190   -19064 
  -18852   -18536   -18249   -18137   -18138   -18168   -18226   -18326 
  -18513   -18790   -19005   -19010   -18862   -18750   -18758   -18775 
  -18711   -18588   -18492   -18454   -18424   -18391   -18362   -18245 
  -18081   -18139   -18445   -18706   -18754   -18609   -18445   -18517 
  -18790   -18905   -18688   -18400   -18466   -18839   -18978   -18693 
  -18369   -18405   -18789   -19120   -19109   -18859   -18661   -18693 
  -18783   -18650   -18415   -18365   -18381   -18257   -18223   -18512 
  -18773   -18659   -18430   -18450   -18706   -18945   -18902   -18596 
  -18401   -18576   -18863   -18817   -18476   -18296   -18396   -18536 
  -18580   -18536   -18563   -18740   -18816   -18648   -18516   -18586 
  -18657   -18520   -18220   -17996   -18107   -18515   -18854   -18882 
  -18731   -18723   -18979   -19192   -19043   -18713   -18596   -18704 
  -18746   -18592   -18400   -18387   -18536   -18627   -18628   -18696 
  -18729   -18550   -18351   -18414   -18643   -18747   -18632   -18509 
  -18577   -18663   -18569   -18472   -18493   -18513   -18486   -18451 
  -18446   -18501   -18523   -18457   -18470   -18677   -18875   -18808 
  -18567   -18442   -18370   -18200   -18191   -18482   -18620   -18361 
  -18239   -18646   -19093   -19084   -18851   -18719   -18640   -18616 
  -18775   -18959   -18945   -18882   -18893   -18771   -18526   -18476 
  -18634   -18705   -18632   -18585   -18627   -18640   -18485   -18246 
  -18189   -18333   -18428   -18415   -18512   -18840   -19080   -18870 
  -18447   -18288   -18391   -18489   -18577   -18748   -18839   -18686 
  -18511   -18543   -18689   -18760   -18700   -18611   -18590   -18593 
  -18539   -18397   -18210   -18172   -18378   -18540   -18511   -18566 
  -18748   -18813   -18782   -18796   -18794   -18665   -18558   -18698 
  -18858   -18760   -18647   -18738   -18790   -18623   -18526   -18725 
  -18860   -18685   -18554   -18635   -18665   -18573   -18490   -18381 
  -18226   -18220   -18404   -18442   -18265   -18347   -18743   -18827 
  -18536   -18550   -18935   -19045   -18789   -18671   -18665   -18426 
  -18264   -18517   -18696   -18430   -18265   -18603   -18952   -18828 
  -18505   -18423   -18532   -18627   -18719   -18782   -18715   -18598 
  -18517   -18454   -18468   -18547   -18534   -18423   -18459   -18713 
  -18839   -18667   -18566   -18727   -18856   -18819   -18740   -18613 
  -18392   -18227   -18297   -18543   -18659   -18500   -18346   -18496 
  -18782   -18835   -18639   -18490   -18511   -18538   -18538   -18673 
  -18864   -18868   -18794   -18851   -18871   -18701   -18574   -18569 
  -18454   -18291   -18384   -18635   -18647   -18522   -18719   -19036 
  -18883   -18404   -18206   -18420   -18688   -18735   -18646   -18561 
  -18539   -18663   -18797   -18669   -18450   -18501   -18652   -18539 
  -18346   -18403   -18511   -18446   -18466   -18698   -18798   -18628 
  -18524   -18600   -18615   -18616   -18759   -18740   -18462   -18427 
  -18759   -18906   -18608   -18351   -18543   -18819   -18711   -18403 
  -18295   -18481   -18759   -18832   -18657   -18515   -18603   -18705 
  -18558   -18399   -18623   -18993   -19010   -18750   -18566   -18499 
  -18508   -18554   -18439   -18250   -18326   -18565   -18577   -18391 
  -18407   -18738   -19062   -19070   -18758   -18442   -18532   -18909 
  -18944   -18581   -18486   -18750   -18713   -18319   -18176   -18399 
  -18581   -18604   -18570   -18418   -18296   -18527   -18829   -18671 
  -18351   -18504   -18912   -18941   -18632   -18469   -18578   -18754 
  -18829   -18694   -18439   -18399   -18628   -18731   -18539   -18423 
  -18611   -18783   -18662   -18495   -18524   -18585   -18538   -18519 
  -18561   -18553   -18608   -18835   -18935   -18725   -18566   -18671 
  -18790   -18782   -18765   -18723   -18553   -18365   -18358   -18503 
  -18582   -18528   -18538   -18661   -18670   -18520   -18462   -18576 
  -18597   -18489   -18588   -18779   -18638   -18439   -18584   -18684 
  -18435   -18235   -18333   -18470   -18539   -18697   -18877   -18844 
  -18696   -18659   -18584   -18392   -18473   -18832   -18854   -18477 
  -18345   -18603   -18760   -18674   -18603   -18580   -18501   -18485 
  -18577   -18625   -18674   -18824   -18864   -18670   -18573   -18704 
  -18697   -18490   -18466   -18573   -18485   -18408   -18589   -18686 
  -18482   -18366   -18549   -18685   -18616   -18615   -18706   -18625 
  -18530   -18728   -18914   -18774   -18704   -18920   -18836   -18266 
  -17980   -18322   -18631   -18562   -18555   -18702   -18616   -18458 
  -18673   -18910   -18663   -18381   -18616   -18914   -18715   -18443 
  -18573   -18709   -18581   -18588   -18754   -18646   -18393   -18482 
  -18746   -18721   -18593   -18690   -18724   -18492   -18362   -18451 
  -18466   -18462   -18644   -18808   -18740   -18678   -18740   -18628 
  -18396   -18476   -18648   -18382   -18100   -18443   -18925   -18840 
  -18497   -18469   -18628   -18654   -18589   -18495   -18337   -18304 
  -18538   -18767   -18743   -18648   -18731   -18856   -18828   -18785 
  -18805   -18751   -18697   -18715   -18632   -18492   -18474   -18505 
  -18450   -18400   -18517   -18675   -18636   -18522   -18530   -18577 
  -18597   -18612   -18613   -18590   -18558   -18571   -18592   -18481 
  -18345   -18432   -18675   -18783   -18739   -18755   -18797   -18711 
  -18588   -18554   -18550   -18538   -18619   -18743   -18652   -18432 
  -18481   -18742   -18742   -18427   -18316   -18620   -18833   -18650 
