Origin Time       2025/03/28 11:34:00
Lat.              32.978
Long.             131.158
Depth. (km)       12
Mag.              2.7
Station Code      KMM004
Station Lat.      32.9318
Station Long.     131.1203
Station Height(m) 554
Record Time       2025/03/28 11:35:02
Sampling Freq(Hz) 100Hz
Duration Time(s)  60
Dir.              N-S
Scale Factor      7845(gal)/8223790
Max. Acc. (gal)   14.528
Last Correction   2025/03/28 11:35:01
Memo.             
[...]
   -2774    -2787    -2799    -2799    -2783    -2771    -2774    -2781 
   -2783    -2785    -2785    -2775    -2768    -2772    -2787    -2789 
   -2768    -2763    -2779    -2789    -2791    -2793    -2786    -2771 
   -2767    -2781    -2795    -2791    -2782    -2781    -2779    -2783 
   -2791    -2790    -2778    -2774    -2785    -2789    -2778    -2783 
   -2793    -2781    -2770    -2782    -2793    -2787    -2781    -2781 
   -2781    -2783    -2791    -2793    -2786    -2781    -2776    -2779 
   -2790    -2794    -2785    -2779    -2786    -2787    -2779    -2775 
   -2774    -2771    -2775    -2791    -2793    -2776    -2770    -2772 
   -2772    -2778    -2787    -2791    -2789    -2781    -2772    -2783 
   -2793    -2782    -2781    -2786    -2786    -2786    -2790    -2791 
   -2786    -2781    -2782    -2782    -2786    -2790    -2787    -2779 
   -2775    -2782    -2787    -2778    -2766    -2766    -2775    -2782 
   -2779    -2776    -2776    -2771    -2771    -2785    -2793    -2786 
   -2785    -2795    -2799    -2793    -2785    -2783    -2787    -2786 
   -2783    -2787    -2783    -2774    -2775    -2785    -2781    -2771 
   -2771    -2776    -2778    -2774    -2779    -2785    -2778    -2775 
   -2782    -2787    -2785    -2782    -2782    -2781    -2779    -2787 
   -2799    -2791    -2782    -2786    -2787    -2781    -2779    -2786 
   -2786    -2776    -2775    -2783    -2786    -2776    -2770    -2770 
   -2775    -2781    -2779    -2782    -2787    -2781    -2771    -2781 
   -2785    -2782    -2786    -2794    -2790    -2781    -2782    -2786 
   -2781    -2775    -2783    -2787    -2782    -2778    -2783    -2786 
   -2779    -2778    -2785    -2789    -2782    -2775    -2776    -2783 
   -2781    -2776    -2782    -2787    -2786    -2782    -2776    -2772 
   -2774    -2776    -2778    -2778    -2778    -2782    -2785    -2783 
   -2781    -2778    -2778    -2776    -2779    -2787    -2786    -2781 
   -2779    -2789    -2797    -2782    -2774    -2787    -2789    -2776 
   -2776    -2785    -2785    -2776    -2775    -2775    -2771    -2768 
   -2776    -2786    -2785    -2787    -2794    -2791    -2782    -2778 
   -2783    -2787    -2787    -2791    -2793    -2783    -2771    -2768 
   -2776    -2781    -2778    -2785    -2794    -2789    -2779    -2776 
   -2776    -2782    -2787    -2789    -2793    -2790    -2782    -2781 
   -2779    -2774    -2778    -2786    -2789    -2787    -2782    -2778 
   -2779    -2776    -2778    -2789    -2793    -2781    -2774    -2779 
   -2781    -2771    -2771    -2786    -2794    -2789    -2789    -2789 
   -2781    -2779    -2782    -2786    -2789    -2789    -2791    -2787 
   -2778    -2778    -2783    -2783    -2778    -2778    -2785    -2786 
   -2782    -2785    -2789    -2782    -2775    -2783    -2789    -2782 
   -2778    -2785    -2786    -2785    -2787    -2783    -2776    -2772 
   -2775    -2785    -2789    -2783    -2779    -2783    -2783    -2778 
   -2781    -2783    -2783    -2787    -2789    -2786    -2779    -2772 
   -2779    -2789    -2789    -2794    -2797    -2789    -2775    -2768 
   -2775    -2785    -2786    -2786    -2790    -2790    -2783    -2776 
   -2782    -2786    -2782    -2785    -2790    -2785    -2779    -2775 
   -2771    -2772    -2775    -2781    -2779    -2775    -2779    -2786 
   -2786    -2778    -2776    -2781    -2781    -2786    -2795    -2798 
   -2793    -2779    -2775    -2785    -2787    -2779    -2781    -2783 
   -2776    -2772    -2768    -2770    -2776    -2774    -2778    -2787 
   -2779    -2774    -2786    -2789    -2782    -2783    -2790    -2785 
   -2776    -2781    -2791    -2791    -2786    -2785    -2782    -2768 
   -2768    -2781    -2789    -2786    -2781    -2781    -2782    -2779 
   -2772    -2775    -2783    -2785    -2785    -2791    -2787    -2775 
   -2774    -2781    -2779    -2776    -2779    -2783    -2786    -2783 
   -2779    -2778    -2778    -2782    -2790    -2790    -2783    -2783 
   -2783    -2778    -2775    -2779    -2785    -2785    -2775    -2770 
   -2776    -2782    -2776    -2782    -2790    -2786    -2782    -2783 
   -2783    -2786    -2790    -2789    -2781    -2771    -2770    -2774 
   -2779    -2781    -2779    -2783    -2789    -2783    -2776    -2782 
   -2785    -2776    -2781    -2789    -2785    -2785    -2786    -2785 
   -2783    -2785    -2787    -2781    -2767    -2771    -2785    -2794 
   -2794    -2786    -2782    -2782    -2774    -2771    -2781    -2782 
   -2779    -2776    -2778    -2779    -2774    -2775    -2786    -2791 
   -2790    -2790    -2789    -2783    -2781    -2786    -2787    -2779 
   -2776    -2783    -2785    -2779    -2781    -2785    -2785    -2786 
   -2787    -2789    -2789    -2782    -2778    -2783    -2786    -2779 
   -2781    -2789    -2783    -2774    -2778    -2786    -2785    -2778 
   -2781    -2789    -2791    -2789    -2786    -2779    -2775    -2775 
   -2781    -2785    -2785    -2783    -2783    -2781    -2776    -2778 
   -2779    -2781    -2785    -2789    -2787    -2782    -2776    -2778 
   -2785    -2786    -2787    -2793    -2790    -2778    -2774    -2781 
   -2785    -2779    -2778    -2786    -2789    -2782    -2779    -2785 
   -2785    -2772    -2766    -2772    -2778    -2775    -2783    -2794 
   -2789    -2781    -2786    -2793    -2790    -2783    -2785    -2790 
   -2786    -2778    -2782    -2786    -2782    -2786    -2786    -2775 
   -2768    -2770    -2779    -2786    -2783    -2779    -2779    -2776 
   -2774    -2778    -2783    -2783    -2783    -2789    -2789    -2781 
   -2776    -2779    -2781    -2781    -2786    -2793    -2795    -2789 
   -2781    -2778    -2778    -2782    -2782    -2778    -2779    -2782 
   -2787    -2790    -2783    -2775    -2776    -2779    -2782    -2781 
   -2782    -2782    -2776    -2778    -2783    -2781    -2779    -2787 
   -2791    -2786    -2781    -2779    -2783    -2781    -2776    -2776 
   -2775    -2778    -2783    -2786    -2783    -2778    -2775    -2781 
   -2783    -2781    -2781    -2786    -2786    -2779    -2781    -2783 
   -2786    -2783    -2776    -2786    -2793    -2781    -2782    -2786 
   -2778    -2779    -2783    -2785    -2786    -2781    -2779    -2782 
   -2782    -2782    -2787    -2783    -2778    -2778    -2776    -2783 
   -2786    -2781    -2787    -2794    -2783    -2779    -2778    -2768 
   -2771    -2787    -2794    -2789    -2781    -2779    -2783    -2782 
   -2781    -2783    -2781    -2776    -2779    -2782    -2785    -2782 
   -2781    -2791    -2794    -2781    -2775    -2781    -2775    -2776 
   -2790    -2790    -2781    -2781    -2779    -2783    -2786    -2781 
   -2786    -2791    -2779    -2775    -2783    -2783    -2781    -2781 
   -2783    -2786    -2785    -2783    -2785    -2781    -2774    -2776 
   -2783    -2783    -2783    -2785    -2786    -2786    -2779    -2775 
   -2781    -2779    -2775    -2786    -2791    -2785    -2785    -2789 
   -2790    -2785    -2776    -2776    -2782    -2782    -2781    -2782 
   -2782    -2775    -2775    -2781    -2779    -2781    -2786    -2790 
   -2789    -2779    -2771    -2772    -2775    -2774    -2779    -2783 
   -2783    -2789    -2793    -2789    -2783    -2782    -2787    -2790 
   -2778    -2771    -2781    -2785    -2781    -2786    -2787    -2779 
   -2775    -2775    -2776    -2783    -2789    -2791    -2795    -2790 
   -2783    -2782    -2778    -2775    -2779    -2785    -2782    -2779 
   -2778    -2779    -2782    -2778    -2776    -2789    -2787    -2778 
   -2785    -2791    -2781    -2778    -2787    -2786    -2776    -2775 
   -2783    -2785    -2781    -2785    -2785    -2779    -2775    -2774 
   -2778    -2781    -2782    -2787    -2791    -2791    -2785    -2776 
   -2775    -2778    -2779    -2787    -2794    -2789    -2782    -2782 
   -2782    -2781    -2776    -2778    -2786    -2786    -2782    -2786 
   -2789    -2785    -2786    -2787    -2783    -2775    -2776    -2789 
   -2789    -2775    -2772    -2787    -2786    -2771    -2771    -2776 
   -2775    -2782    -2789    -2790    -2782    -2771    -2772    -2782 
   -2785    -2791    -2799    -2791    -2782    -2778    -2775    -2779 
   -2783    -2783    -2785    -2785    -2776    -2776    -2781    -2779 
   -2783    -2791    -2787    -2785    -2782    -2781    -2785    -2785 
   -2782    -2790    -2789    -2776    -2772    -2774    -2778    -2782 
   -2782    -2785    -2785    -2781    -2782    -2787    -2783    -2779 
   -2785    -2786    -2779    -2779    -2790    -2793    -2783    -2779 
   -2783    -2785    -2778    -2774    -2779    -2781    -2779    -2782 
   -2785    -2782    -2776    -2776    -2781    -2779    -2781    -2790 
   -2794    -2782    -2775    -2785    -2793    -2789    -2786    -2793 
   -2793    -2779    -2770    -2771    -2774    -2774    -2778    -2785 
   -2783    -2774    -2776    -2782    -2778    -2778    -2789    -2798 
   -2797    -2787    -2782    -2782    -2781    -2782    -2787    -2787 
   -2782    -2779    -2782    -2783    -2782    -2781    -2783    -2779 
   -2774    -2778    -2783    -2783    -2782    -2779    -2781    -2782 
   -2776    -2772    -2776    -2778    -2779    -2791    -2793    -2782 
   -2778    -2785    -2791    -2790    -2787    -2795    -2797    -2782 
   -2779    -2783    -2782    -2781    -2779    -2778    -2781    -2779 
   -2779    -2776    -2771    -2770    -2779    -2786    -2778    -2771 
   -2779    -2783    -2785    -2787    -2789    -2787    -2787    -2791 
   -2794    -2793    -2786    -2785    -2790    -2786    -2779    -2782 
   -2782    -2775    -2774    -2778    -2782    -2779    -2770    -2772 
   -2779    -2778    -2783    -2789    -2789    -2782    -2771    -2774 
   -2781    -2779    -2783    -2793    -2793    -2791    -2786    -2781 
   -2786    -2793    -2787    -2783    -2779    -2771    -2772    -2779 
   -2778    -2778    -2783    -2786    -2781    -2776    -2781    -2785 
   -2781    -2775    -2782    -2791    -2790    -2781    -2778    -2783 
   -2785    -2785    -2787    -2787    -2778    -2775    -2782    -2782 
   -2782    -2785    -2786    -2787    -2785    -2783    -2786    -2781 
   -2774    -2781    -2789    -2785    -2779    -2776    -2778    -2779 
   -2776    -2781    -2785    -2781    -2779    -2782    -2779    -2776 
   -2779    -2786    -2789    -2785    -2783    -2785    -2782    -2778 
   -2785    -2790    -2785    -2776    -2778    -2785    -2785    -2786 
   -2789    -2783    -2776    -2776    -2782    -2786    -2782    -2781 
   -2785    -2782    -2776    -2778    -2781    -2779    -2778    -2785 
   -2785    -2778    -2779    -2782    -2781    -2778    -2776    -2785 
   -2790    -2785    -2783    -2786    -2786    -2783    -2782    -2785 
   -2781    -2771    -2770    -2778    -2781    -2776    -2781    -2790 
   -2789    -2778    -2779    -2791    -2791    -2785    -2786    -2789 
   -2782    -2779    -2785    -2787    -2786    -2783    -2782    -2779 
   -2771    -2774    -2783    -2782    -2782    -2789    -2791    -2785 
   -2781    -2781    -2783    -2783    -2785    -2786    -2783    -2775 
   -2771    -2775    -2779    -2779    -2778    -2781    -2783    -2776 
   -2774    -2786    -2790    -2785    -2787    -2791    -2787    -2785 
   -2789    -2793    -2791    -2787    -2786    -2783    -2779    -2775 
   -2772    -2771    -2771    -2776    -2790    -2793    -2783    -2781 
   -2787    -2789    -2785    -2783    -2787    -2786    -2776    -2774 
   -2778    -2775    -2771    -2781    -2783    -2781    -2781    -2779 
   -2778    -2782    -2785    -2785    -2787    -2782    -2776    -2782 
   -2782    -2763    -2770    -2868    -2963    -2787    -2448    -2524 
   -2970    -3095    -2794    -2494    -2712    -3244    -2991    -2369 
   -2558    -2995    -2979    -2674    -2457    -2594    -3018    -3130 
   -2597    -2640    -3173    -2706    -2327    -2713    -2813    -3217 
   -3573    -2799    -2123    -2147    -2388    -2555    -3024    -3942 
   -3326    -2289    -2466    -1976    -2586    -3643    -2758    -3144 
   -3111    -2084    -3075    -2531    -2018    -3360    -2774    -3127 
   -3345    -1621    -3011    -3450    -1624    -3275    -3840    -2377 
   -2786    -2010    -2095    -3836    -2890    -2639    -2920    -1976 
   -3329    -3098    -1695    -3811    -3657    -1568    -2836    -3249 
   -2281    -3161    -2555    -1698    -3728    -3464    -1809    -3225 
   -3303    -2120    -2943    -2635    -2103    -3717    -4085    -2351 
   -1521    -2141    -3117    -3724    -2000    -1498    -5054    -4162 
    -565    -2459    -3534    -2389    -3348    -2882    -2215    -3576 
   -2695     -972    -2273    -4268    -4579    -2263     -199    -3346 
   -5205    -1868    -1464    -3126    -3720    -3932    -1073     -893 
   -4889    -3843    -1212    -2116    -3680    -4922    -2454      103 
   -2978    -4132    -2600    -2583    -2033    -3069    -3187    -2033 
   -3654    -3493    -3457    -2547      218    -4082    -5614    -1800 
   -2439     -610    -1169    -5798    -2629      122    -4278    -6415 
   -2839     -788    -2764    -2432    -1043    -3854    -5143    -1972 
   -3493    -5221     1526     2166    -4919    -5171    -3500    -4401 
   -3734    -1274      398    -2739    -5255    -3802    -3088    -1202 
   -1958    -5165    -1281     1042    -2727    -1537     -365    -6594 
  -11345    -8856    -3217     1192     3306     2448    -2928    -6924 
   -5306    -5818    -5757     1964     6046     2357      -52    -5432 
  -15232   -15994    -7488      147     7543    12447     7422    -3181 
  -11500   -12225    -4082    -1263    -7079    -2010     7148      388 
   -8463    -8024    -6292    -2991     -372    -1354     -751    -1189 
   -3609    -2713     -788    -1819    -4280    -4251    -3520    -5788 
   -6342    -2720     -657    -2289    -2906    -1476    -1660    -1092 
    1256     -148    -3631    -4477    -5476    -6804    -4133     -899 
   -1692    -3715    -5189    -4672    -1447     -116    -1309    -2560 
   -3785    -2485      634      580    -1552    -3464    -6802    -8338 
   -5354    -3789    -4306    -1499     2848     4116       95    -6913 
   -9896    -7469    -4484    -3129    -1054     2907     4064      676 
   -3092    -6243    -7916    -5402     -934      529    -1458    -3214 
   -3210    -3366    -4876    -5625    -3514    -1526    -2566    -4027 
   -3983    -2647      151      997    -2319    -4488    -3345    -3092 
   -3797    -2637     -963    -1844    -3530    -3234    -3024    -3009 
   -2076    -3160    -4660    -2732    -1229    -2641    -3626    -3411 
   -2820    -2020    -1721    -2169    -3222    -3763    -3924    -5063 
   -4510    -1177      290     -951    -2427    -3685    -3719    -3001 
   -3460    -4448    -3673     -922      345    -1089    -2307    -2826 
   -3991    -4822    -4082    -3160    -3343    -2855    -1528    -1799 
   -3154    -3520    -3017    -3005    -3315    -2239     -546     -615 
   -2112    -3613    -5036    -5930    -4903    -2381     -680     -160 
     332     -222    -2651    -4895    -5575    -4868    -3145    -2053 
   -2872    -4337    -4334    -3105    -2513    -2056    -1202    -1606 
   -2559    -2930    -3697    -3622    -2339    -2342    -2863    -2080 
   -1039    -1021    -2231    -3427    -3850    -4193    -4098    -3780 
   -3985    -3537    -2126    -1196    -1456    -2276    -2749    -3006 
   -3476    -3654    -2863    -1998    -2195    -2554    -2667    -3258 
   -3511    -2944    -2733    -2851    -2555    -2442    -3014    -3269 
   -2411    -1930    -2339    -2173    -2498    -3750    -3932    -3298 
   -2280    -1374    -2180    -3277    -3468    -3739    -3588    -3123 
   -3069    -2871    -2536    -2346    -2161    -2220    -2616    -2806 
   -2581    -2443    -2843    -3532    -3462    -2443    -1640    -1536 
   -2003    -2965    -3634    -3322    -2975    -3402    -3406    -2706 
   -2451    -2420    -2220    -2355    -2790    -3036    -2984    -2845 
   -2644    -2481    -2816    -3346    -3044    -2567    -3011    -3152 
   -2614    -2801    -3312    -3288    -2878    -1919    -1275    -1858 
   -2551    -2978    -3543    -3780    -3820    -3661    -3319    -3622 
   -3958    -3472    -2608    -1543     -773     -977    -1764    -2442 
   -2639    -2623    -2826    -2683    -2377    -3219    -4176    -3861 
   -3480    -3213    -2494    -2212    -2344    -2605    -3217    -3377 
   -2949    -2562    -2253    -2506    -3287    -3705    -3639    -3007 
   -1931    -1269    -1293    -2018    -3160    -3603    -3244    -2808 
   -2293    -1899    -2035    -2543    -3024    -3384    -3946    -4135 
   -3300    -2470    -2232    -2039    -2023    -2663    -3364    -3341 
   -3184    -3159    -2629    -2320    -2963    -3449    -3172    -2839 
   -2488    -1917    -1885    -2617    -3090    -3096    -3079    -2731 
   -2512    -3033    -3362    -3001    -2647    -2689    -2818    -2886 
   -3154    -3299    -2889    -2374    -2130    -2107    -2498    -2971 
   -2808    -2670    -2887    -2754    -2701    -2824    -2803    -3168 
   -3483    -3194    -2735    -2404    -2411    -2585    -2455    -2205 
   -2133    -2150    -2317    -2621    -2754    -2813    -3037    -3200 
   -3169    -3407    -3936    -3711    -2820    -2512    -2559    -2390 
   -2524    -3137    -3453    -3154    -2851    -2633    -2405    -2466 
   -2619    -2538    -2458    -2636    -2751    -2650    -2601    -2528 
   -2663    -3092    -3064    -2816    -2878    -2789    -2654    -2528 
   -2239    -2432    -2991    -3294    -3192    -2735    -2506    -2447 
   -2214    -2574    -3392    -3743    -3921    -4009    -3589    -3040 
   -2613    -2309    -2224    -2116    -1911    -1714    -1490    -1497 
   -2060    -2934    -3578    -3754    -3547    -3288    -3157    -3063 
   -3119    -3230    -3069    -2832    -2695    -2486    -2268    -2296 
   -2674    -3134    -3350    -3276    -2875    -2439    -2319    -2351 
   -2502    -2606    -2481    -2528    -2776    -2943    -3041    -2980 
   -2918    -3100    -3175    -2983    -2903    -3021    -3094    -3015 
   -2787    -2405    -2079    -2184    -2567    -2698    -2589    -2567 
   -2685    -2802    -2816    -2901    -3084    -3073    -3082    -3285 
   -3223    -2990    -2864    -2633    -2424    -2335    -2357    -2695 
   -2866    -2583    -2501    -2585    -2573    -2747    -2845    -2735 
   -2720    -2693    -2708    -2925    -3110    -3161    -3225    -3318 
   -3206    -3045    -3106    -2871    -2601    -2862    -2938    -2829 
   -2848    -2594    -2382    -2336    -2191    -2254    -2335    -2199 
   -2300    -2631    -2945    -3177    -3157    -3045    -2941    -2713 
   -2585    -2643    -2687    -2794    -3019    -3211    -3342    -3389 
   -3215    -2878    -2721    -2790    -2836    -2799    -2598    -2448 
   -2683    -2760    -2388    -2184    -2409    -2728    -2795    -2714 
   -2673    -2556    -2546    -2704    -2633    -2597    -2953    -3202 
   -3060    -2868    -2920    -3073    -2997    -2832    -2759    -2901 
   -3304    -3298    -2862    -2752    -2720    -2513    -2538    -2714 
   -2820    -2822    -2735    -2716    -2725    -2728    -2886    -2960 
   -2759    -2664    -2659    -2465    -2386    -2528    -2582    -2704 
   -2916    -2813    -2748    -3048    -3118    -2978    -3063    -3129 
   -3114    -3103    -2928    -2739    -2668    -2643    -2737    -2805 
