Origin Time       2025/03/28 11:34:00
Lat.              32.978
Long.             131.158
Depth. (km)       12
Mag.              2.7
Station Code      KMM004
Station Lat.      32.9318
Station Long.     131.1203
Station Height(m) 554
Record Time       2025/03/28 11:35:02
Sampling Freq(Hz) 100Hz
Duration Time(s)  60
Dir.              E-W
Scale Factor      7845(gal)/8223790
Max. Acc. (gal)   20.434
Last Correction   2025/03/28 11:35:01
Memo.             
[...]
   -2509    -2505    -2504    -2516    -2532    -2527    -2508    -2498 
   -2501    -2505    -2505    -2509    -2517    -2513    -2512    -2516 
   -2513    -2513    -2520    -2519    -2512    -2511    -2517    -2519 
   -2511    -2504    -2506    -2513    -2521    -2525    -2519    -2504 
   -2496    -2502    -2515    -2516    -2508    -2504    -2501    -2498 
   -2504    -2516    -2520    -2511    -2498    -2504    -2524    -2536 
   -2528    -2516    -2512    -2513    -2512    -2516    -2519    -2509 
   -2504    -2512    -2512    -2506    -2501    -2501    -2508    -2504 
   -2505    -2519    -2513    -2498    -2501    -2506    -2511    -2521 
   -2527    -2517    -2513    -2515    -2511    -2513    -2519    -2513 
   -2509    -2512    -2515    -2513    -2511    -2508    -2511    -2513 
   -2511    -2508    -2511    -2515    -2517    -2516    -2515    -2511 
   -2512    -2516    -2515    -2511    -2513    -2515    -2513    -2516 
   -2512    -2501    -2504    -2506    -2501    -2505    -2513    -2513 
   -2509    -2508    -2506    -2505    -2515    -2515    -2511    -2520 
   -2524    -2517    -2519    -2519    -2509    -2505    -2509    -2509 
   -2505    -2509    -2515    -2512    -2502    -2496    -2502    -2508 
   -2508    -2516    -2523    -2516    -2508    -2513    -2519    -2515 
   -2511    -2513    -2516    -2520    -2521    -2515    -2505    -2505 
   -2506    -2508    -2513    -2515    -2512    -2513    -2516    -2508 
   -2504    -2513    -2519    -2512    -2506    -2506    -2515    -2520 
   -2513    -2502    -2502    -2506    -2506    -2508    -2511    -2511 
   -2511    -2509    -2508    -2509    -2509    -2513    -2519    -2520 
   -2520    -2516    -2511    -2513    -2515    -2513    -2521    -2523 
   -2512    -2508    -2508    -2505    -2509    -2509    -2502    -2506 
   -2511    -2509    -2511    -2508    -2502    -2508    -2513    -2511 
   -2508    -2509    -2513    -2520    -2517    -2516    -2517    -2515 
   -2513    -2509    -2505    -2511    -2517    -2515    -2512    -2512 
   -2508    -2501    -2512    -2521    -2519    -2517    -2521    -2517 
   -2508    -2512    -2521    -2517    -2504    -2502    -2505    -2501 
   -2498    -2505    -2508    -2500    -2496    -2508    -2517    -2515 
   -2515    -2519    -2519    -2516    -2517    -2520    -2519    -2509 
   -2504    -2513    -2519    -2515    -2512    -2513    -2511    -2506 
   -2511    -2516    -2513    -2506    -2505    -2505    -2509    -2516 
   -2517    -2515    -2512    -2509    -2508    -2509    -2516    -2519 
   -2516    -2511    -2505    -2508    -2511    -2506    -2502    -2509 
   -2520    -2521    -2520    -2513    -2508    -2509    -2512    -2509 
   -2508    -2512    -2508    -2502    -2506    -2511    -2513    -2517 
   -2512    -2506    -2513    -2517    -2513    -2513    -2517    -2512 
   -2506    -2509    -2513    -2513    -2512    -2511    -2515    -2516 
   -2506    -2506    -2515    -2506    -2501    -2511    -2515    -2513 
   -2509    -2504    -2512    -2521    -2515    -2509    -2516    -2516 
   -2512    -2512    -2515    -2513    -2506    -2504    -2515    -2517 
   -2506    -2504    -2515    -2512    -2504    -2505    -2509    -2513 
   -2517    -2512    -2506    -2511    -2511    -2513    -2527    -2529 
   -2516    -2508    -2502    -2501    -2511    -2516    -2517    -2516 
   -2512    -2509    -2508    -2511    -2516    -2517    -2511    -2506 
   -2504    -2504    -2508    -2512    -2512    -2511    -2519    -2521 
   -2508    -2504    -2513    -2520    -2523    -2520    -2511    -2511 
   -2515    -2517    -2517    -2513    -2509    -2512    -2509    -2505 
   -2509    -2508    -2508    -2517    -2516    -2505    -2508    -2515 
   -2512    -2505    -2502    -2509    -2513    -2511    -2513    -2516 
   -2512    -2516    -2527    -2525    -2515    -2511    -2511    -2512 
   -2513    -2512    -2512    -2516    -2511    -2502    -2502    -2505 
   -2504    -2505    -2513    -2512    -2504    -2505    -2520    -2527 
   -2521    -2519    -2516    -2511    -2508    -2506    -2508    -2511 
   -2505    -2505    -2512    -2512    -2508    -2512    -2516    -2520 
   -2519    -2512    -2512    -2515    -2511    -2508    -2515    -2515 
   -2506    -2504    -2505    -2504    -2505    -2511    -2515    -2519 
   -2524    -2524    -2520    -2515    -2508    -2513    -2519    -2515 
   -2513    -2515    -2513    -2513    -2513    -2511    -2509    -2511 
   -2512    -2511    -2509    -2508    -2504    -2500    -2502    -2506 
   -2506    -2513    -2524    -2521    -2512    -2513    -2520    -2521 
   -2523    -2519    -2512    -2508    -2502    -2504    -2513    -2517 
   -2505    -2504    -2517    -2524    -2516    -2509    -2504    -2505 
   -2511    -2516    -2517    -2515    -2511    -2509    -2509    -2512 
   -2517    -2512    -2509    -2515    -2511    -2509    -2517    -2516 
   -2508    -2508    -2513    -2513    -2508    -2508    -2517    -2517 
   -2511    -2512    -2516    -2513    -2509    -2515    -2521    -2517 
   -2506    -2500    -2501    -2505    -2511    -2519    -2527    -2524 
   -2515    -2509    -2506    -2508    -2516    -2521    -2521    -2521 
   -2516    -2511    -2509    -2506    -2506    -2512    -2512    -2504 
   -2500    -2505    -2512    -2511    -2511    -2512    -2506    -2501 
   -2509    -2517    -2519    -2521    -2520    -2515    -2517    -2521 
   -2519    -2513    -2511    -2509    -2509    -2513    -2515    -2513 
   -2509    -2506    -2508    -2509    -2505    -2505    -2508    -2511 
   -2511    -2508    -2506    -2511    -2516    -2520    -2524    -2531 
   -2525    -2512    -2511    -2513    -2511    -2509    -2509    -2513 
   -2513    -2511    -2509    -2506    -2502    -2502    -2509    -2511 
   -2509    -2511    -2515    -2519    -2519    -2515    -2512    -2512 
   -2511    -2516    -2525    -2525    -2517    -2508    -2498    -2496 
   -2502    -2506    -2517    -2523    -2517    -2512    -2502    -2492 
   -2494    -2509    -2517    -2516    -2511    -2508    -2509    -2511 
   -2517    -2529    -2531    -2524    -2513    -2501    -2500    -2505 
   -2508    -2509    -2515    -2516    -2513    -2511    -2511    -2513 
   -2516    -2515    -2512    -2506    -2504    -2505    -2506    -2512 
   -2516    -2512    -2506    -2511    -2513    -2513    -2513    -2515 
   -2516    -2511    -2509    -2516    -2515    -2512    -2515    -2515 
   -2513    -2512    -2506    -2509    -2516    -2513    -2513    -2516 
   -2508    -2498    -2500    -2502    -2506    -2511    -2511    -2513 
   -2515    -2516    -2525    -2528    -2521    -2523    -2524    -2515 
   -2505    -2506    -2517    -2524    -2513    -2502    -2504    -2500 
   -2500    -2508    -2513    -2519    -2519    -2508    -2504    -2509 
   -2509    -2513    -2523    -2525    -2519    -2512    -2513    -2512 
   -2504    -2504    -2517    -2517    -2505    -2506    -2509    -2506 
   -2509    -2515    -2513    -2516    -2517    -2512    -2512    -2509 
   -2506    -2517    -2524    -2517    -2516    -2515    -2504    -2501 
   -2502    -2501    -2505    -2505    -2509    -2520    -2521    -2516 
   -2515    -2513    -2513    -2516    -2516    -2513    -2517    -2523 
   -2519    -2512    -2515    -2516    -2516    -2520    -2513    -2504 
   -2504    -2504    -2501    -2505    -2505    -2501    -2505    -2515 
   -2519    -2517    -2513    -2511    -2511    -2513    -2520    -2520 
   -2515    -2516    -2519    -2516    -2515    -2513    -2509    -2509 
   -2512    -2506    -2504    -2509    -2508    -2504    -2506    -2509 
   -2511    -2512    -2513    -2512    -2511    -2506    -2506    -2506 
   -2506    -2513    -2523    -2521    -2515    -2515    -2517    -2517 
   -2516    -2511    -2515    -2520    -2511    -2504    -2511    -2512 
   -2505    -2505    -2506    -2506    -2505    -2504    -2502    -2506 
   -2509    -2513    -2520    -2517    -2516    -2524    -2525    -2523 
   -2520    -2512    -2509    -2511    -2505    -2506    -2506    -2501 
   -2508    -2517    -2513    -2509    -2509    -2512    -2519    -2519 
   -2513    -2515    -2509    -2504    -2506    -2504    -2504    -2511 
   -2513    -2512    -2512    -2513    -2513    -2519    -2520    -2513 
   -2511    -2513    -2512    -2511    -2513    -2513    -2515    -2515 
   -2513    -2511    -2512    -2516    -2511    -2505    -2511    -2513 
   -2506    -2504    -2505    -2509    -2508    -2506    -2515    -2521 
   -2513    -2509    -2517    -2520    -2511    -2504    -2508    -2511 
   -2504    -2501    -2508    -2513    -2509    -2508    -2509    -2513 
   -2517    -2516    -2517    -2516    -2513    -2515    -2519    -2519 
   -2513    -2501    -2500    -2506    -2508    -2506    -2511    -2516 
   -2509    -2505    -2515    -2515    -2511    -2520    -2527    -2519 
   -2513    -2511    -2506    -2505    -2512    -2516    -2511    -2505 
   -2501    -2500    -2504    -2506    -2511    -2513    -2513    -2513 
   -2511    -2509    -2513    -2515    -2516    -2516    -2511    -2506 
   -2513    -2523    -2516    -2504    -2502    -2508    -2517    -2520 
   -2517    -2515    -2515    -2517    -2516    -2508    -2506    -2508 
   -2506    -2511    -2516    -2511    -2505    -2508    -2512    -2513 
   -2515    -2515    -2512    -2509    -2506    -2506    -2512    -2515 
   -2509    -2511    -2520    -2520    -2513    -2509    -2509    -2512 
   -2516    -2517    -2516    -2512    -2504    -2502    -2513    -2519 
   -2515    -2512    -2517    -2516    -2508    -2505    -2502    -2498 
   -2500    -2511    -2524    -2523    -2512    -2511    -2515    -2519 
   -2521    -2521    -2516    -2509    -2508    -2509    -2512    -2509 
   -2502    -2505    -2519    -2521    -2511    -2505    -2505    -2501 
   -2508    -2520    -2520    -2519    -2517    -2512    -2506    -2508 
   -2512    -2511    -2511    -2513    -2511    -2509    -2512    -2509 
   -2508    -2519    -2520    -2512    -2509    -2508    -2509    -2512 
   -2512    -2511    -2511    -2506    -2506    -2508    -2506    -2511 
   -2515    -2515    -2513    -2511    -2509    -2511    -2511    -2513 
   -2517    -2515    -2512    -2515    -2511    -2505    -2516    -2525 
   -2516    -2506    -2508    -2511    -2512    -2511    -2511    -2511 
   -2511    -2512    -2515    -2512    -2508    -2509    -2517    -2520 
   -2513    -2506    -2506    -2509    -2506    -2504    -2511    -2517 
   -2515    -2513    -2520    -2521    -2509    -2502    -2513    -2521 
   -2515    -2509    -2511    -2511    -2511    -2512    -2516    -2517 
   -2512    -2513    -2515    -2512    -2508    -2505    -2506    -2511 
   -2511    -2511    -2515    -2517    -2515    -2515    -2520    -2516 
   -2508    -2511    -2515    -2511    -2509    -2515    -2519    -2513 
   -2508    -2508    -2511    -2511    -2509    -2511    -2516    -2516 
   -2513    -2512    -2508    -2509    -2517    -2521    -2516    -2508 
   -2506    -2508    -2508    -2513    -2516    -2509    -2504    -2509 
   -2513    -2515    -2517    -2520    -2520    -2517    -2516    -2516 
   -2511    -2506    -2512    -2516    -2517    -2515    -2511    -2509 
   -2509    -2508    -2508    -2511    -2511    -2509    -2513    -2519 
   -2516    -2515    -2520    -2523    -2516    -2509    -2509    -2508 
   -2506    -2509    -2512    -2511    -2508    -2508    -2512    -2517 
   -2515    -2509    -2513    -2521    -2517    -2509    -2511    -2508 
   -2502    -2511    -2517    -2511    -2511    -2517    -2513    -2506 
   -2511    -2513    -2512    -2512    -2511    -2513    -2519    -2515 
   -2509    -2511    -2520    -2523    -2515    -2511    -2515    -2512 
   -2509    -2531    -2566    -2573    -2469    -2296    -2411    -2795 
   -2662    -2081    -2178    -2830    -3049    -2635    -2096    -2174 
   -2660    -2864    -2727    -2176    -1690    -2354    -3693    -3221 
   -1364    -1719    -3231    -3192    -2801    -2000    -1196    -2999 
   -4671    -2517     -410    -1968    -3591    -2826    -2452    -2056 
   -1075    -3196    -5054    -2307     -479    -2029    -3767    -3640 
   -1536    -1652    -3438    -2361    -1929    -2930    -2069    -2353 
   -3364    -2293    -2119    -2978    -2839    -2740    -2087    -1613 
   -3032    -3172    -1977    -2308    -2731    -2466    -1841    -2467 
   -4077    -2161     -908    -3879    -3096     -839    -3688    -3589 
    -568    -2762    -3321     -943    -3095    -4071    -1614    -1408 
   -2366    -3384    -3592    -1732    -1610    -3686    -3483    -1634 
   -1734    -1748    -2107    -5008    -2569     1059    -4113    -5483 
    -949    -1926    -2490    -1224    -4047    -4176     -400    -1386 
   -4322    -2889    -1294    -2671    -3468    -1912    -1406    -3812 
   -3488     -718    -2309    -3612    -1838    -2772    -3823    -1479 
    -436    -3854    -5097     -352     -103    -4868    -3546    -1309 
   -2700    -1420    -2527    -5352    -1374      126    -4222    -4517 
   -1085     -552    -4984    -4210      754    -3547    -4923      854 
   -1150    -4068    -2424    -2798    -2944     -846    -1964    -5333 
   -4255    -2200    -1482     -395    -2023    -5194    -4750      371 
     525    -5116    -3088      386    -2897    -3673    -2381    -3427 
   -3442    -2639    -3434    -2463     1219    -1540    -6670    -1849 
     598    -5398    -3381     3458     1215    -2747      943     1742 
   -9765   -19244   -11704      334     1764      585     2328      702 
   -3792    -8918   -10130      426    11565     8565    -1528   -13626 
  -20571    -4418    18909    16896     -801    -9417   -10574   -13680 
  -14234    -5136     5306     3757    -2890     -124     2895    -4233 
   -9099    -7925    -6967    -1907     2139    -2420    -4106     1410 
    3532     1521     -442    -4708    -8379    -5188      305     -291 
   -6006    -7218     -565     2944    -1772    -5518    -3312      847 
     418    -6103   -10419    -5432     4469     8004     1131    -7056 
   -8209    -6134    -7867    -9154    -2779     5751     8106     4006 
   -2057    -5360    -7036    -8785    -6268    -1439    -1248    -2219 
    -739    -1497    -4403    -5011    -2259     1260     1204    -1594 
   -3069    -4116    -6353    -6828    -2409     2978     3021     -330 
   -3183    -5414    -5702    -4456    -3499    -2170     -924    -1132 
   -2944    -5459    -5485    -1440     2031      648    -2691    -4133 
   -4557    -4140    -1983     -797    -1405    -1354    -1082    -1729 
   -3927    -6963    -6507    -2604      238      777    -1336    -4102 
   -3493    -1587    -1652    -2157    -2536    -3358    -2998    -1333 
   -1417    -4099    -5417    -3215    -1050     -618     -240    -1714 
   -5529    -6723    -3704     -730    -1435    -3784    -3056     -407 
     -20    -1412    -2386    -3133    -3481    -1788      133     -715 
   -2157    -1919    -1628    -2535    -3819    -4596    -5009    -4519 
   -3196    -3268    -4766    -5143    -3739    -2442    -2080    -1443 
    -882     -791     -120      243       20       16    -1574    -4768 
   -5965    -4741    -3647    -2802    -2025    -2394    -2905    -2361 
   -2214    -2929    -2825    -2447    -2893    -2238     -923    -1548 
   -2282    -1848    -2397    -3356    -3366    -3038    -2727    -3130 
   -3969    -3357    -1251      480      673      -14    -1663    -4931 
   -6897    -5724    -4337    -3766    -2463     -564      352     -340 
   -1594    -2732    -3395    -3073    -2241    -1756    -2054    -2546 
   -2805    -3423    -3769    -3281    -2975    -2907    -2968    -3333 
   -2891    -1698     -729      -35     -209    -1533    -3338    -4698 
   -4575    -3711    -3462    -2991    -1617     -592     -707    -1386 
   -2610    -4457    -5323    -4334    -2319     -252      599      -78 
   -1741    -3724    -4957    -4980    -3456    -1310     -838    -1941 
   -3338    -4467    -4345    -2924    -1599    -1097    -1159    -1564 
   -1902    -2208    -2895    -3181    -2787    -2721    -2795    -2169 
   -1534    -1818    -2451    -2776    -2884    -2949    -3021    -2882 
   -2918    -3368    -3279    -2818    -2363    -1297     -773    -1317 
   -1521    -1969    -2959    -3230    -3321    -3640    -3449    -3099 
   -3088    -3048    -2488    -1710    -1709    -2461    -2851    -2644 
   -2636    -2860    -2458    -1610    -1686    -2554    -2583    -2123 
   -2311    -2251    -1818    -2047    -2539    -2863    -3145    -3200 
   -3126    -2813    -2301    -2396    -2806    -2864    -3087    -3211 
   -2639    -2133    -1815    -1246    -1221    -1942    -2430    -2666 
   -2987    -3092    -3068    -3207    -3142    -2720    -2509    -2531 
   -2397    -2211    -2143    -2280    -2479    -2465    -2292    -2228 
   -2227    -2189    -2560    -3308    -3689    -3456    -2817    -2263 
   -1954    -1479    -1263    -1780    -2370    -2705    -2824    -2444 
   -1981    -2118    -2660    -3113    -3275    -3063    -2736    -2754 
   -2818    -2606    -2582    -2759    -2745    -2521    -2254    -1960 
   -1655    -1892    -2496    -2752    -2794    -2374    -1834    -2161 
   -2855    -3338    -3242    -2412    -1960    -2203    -2398    -2606 
   -3042    -3445    -3603    -3249    -2421    -1985    -2084    -1923 
   -1776    -2351    -3009    -2856    -2327    -2035    -1894    -1980 
   -2388    -2747    -2766    -2729    -2643    -2107    -1767    -2300 
   -3064    -3334    -3211    -2913    -2446    -2400    -2585    -2056 
   -1923    -2709    -2886    -2704    -2899    -2964    -2870    -2543 
   -1977    -1644    -1763    -2513    -3207    -2975    -2420    -2077 
   -1894    -1981    -2259    -2668    -3013    -2886    -2466    -2200 
   -2074    -2161    -2749    -3304    -3073    -2494    -2296    -2386 
   -2359    -2276    -2555    -2816    -2390    -1996    -2289    -2647 
   -2862    -3121    -2937    -2311    -2157    -2569    -2772    -2698 
   -2569    -2178    -1753    -1721    -1971    -2394    -2828    -3041 
   -3099    -2932    -2640    -2516    -2447    -2581    -3021    -3060 
   -2577    -2351    -2396    -2224    -2083    -2338    -2659    -2666 
   -2474    -2288    -2272    -2481    -2685    -2759    -2775    -2671 
   -2430    -2319    -2475    -2608    -2497    -2380    -2529    -2571 
   -2169    -1896    -1998    -2261    -2732    -2924    -2556    -2378 
   -2604    -2857    -3098    -3015    -2605    -2516    -2652    -2673 
   -2697    -2627    -2501    -2506    -2470    -2228    -1999    -1999 
   -2079    -2218    -2330    -2347    -2857    -3330    -2795    -2284 
   -2339    -2111    -1838    -1949    -2084    -2421    -2967    -3005 
   -2706    -2677    -2843    -3009    -2883    -2547    -2528    -2675 
   -2690    -2664    -2459    -2246    -2527    -2882    -2670    -2404 
   -2482    -2502    -2488    -2489    -2359    -2363    -2381    -2214 
   -2316    -2689    -2760    -2442    -2150    -2177    -2416    -2575 
   -2421    -2127    -2002    -2046    -2347    -2847    -3183    -3288 
   -3252    -3057    -2801    -2571    -2423    -2466    -2556    -2566 
   -2562    -2403    -2211    -2189    -2043    -1908    -2093    -2192 
   -2165    -2463    -2766    -2641    -2412    -2365    -2543    -2785 
   -2739    -2624    -2706    -2704    -2592    -2492    -2425    -2652 
   -3001    -2983    -2821    -2666    -2181    -1809    -2016    -2266 
   -2455    -2820    -2814    -2405    -2272    -2362    -2416    -2579 
