Origin Time       2025/03/28 11:34:00
Lat.              32.978
Long.             131.158
Depth. (km)       12
Mag.              2.7
Station Code      KMM004
Station Lat.      32.9318
Station Long.     131.1203
Station Height(m) 554
Record Time       2025/03/28 11:35:02
Sampling Freq(Hz) 100Hz
Duration Time(s)  60
Dir.              U-D
Scale Factor      7845(gal)/8223790
Max. Acc. (gal)   8.848
Last Correction   2025/03/28 11:35:01
Memo.             
[...]
   19827    19822    19823    19824    19830    19831    19824    19822 
   19830    19835    19827    19824    19826    19816    19813    19830 
   19838    19832    19830    19823    19818    19822    19831    19836 
   19828    19816    19815    19820    19824    19834    19832    19813 
   19811    19827    19831    19824    19830    19832    19826    19830 
   19839    19835    19824    19823    19822    19822    19832    19843 
   19838    19826    19815    19812    19823    19832    19827    19822 
   19827    19832    19830    19827    19828    19827    19820    19820 
   19823    19819    19818    19823    19824    19823    19826    19828 
   19828    19827    19826    19827    19828    19831    19831    19822 
   19813    19812    19818    19826    19831    19831    19830    19830 
   19828    19827    19827    19824    19823    19824    19823    19822 
   19823    19826    19824    19823    19824    19828    19830    19827 
   19823    19820    19819    19824    19832    19836    19827    19819 
   19819    19819    19819    19822    19824    19826    19826    19827 
   19824    19816    19816    19824    19831    19836    19835    19828 
   19822    19819    19820    19818    19822    19831    19832    19828 
   19827    19822    19816    19819    19824    19824    19824    19823 
   19824    19828    19830    19827    19827    19826    19824    19824 
   19827    19826    19820    19819    19819    19822    19823    19824 
   19827    19826    19828    19832    19831    19823    19822    19828 
   19826    19816    19818    19826    19823    19822    19828    19830 
   19824    19820    19826    19827    19822    19823    19824    19822 
   19827    19831    19827    19824    19826    19826    19832    19835 
   19823    19818    19823    19824    19823    19824    19822    19820 
   19823    19820    19819    19820    19823    19826    19828    19830 
   19832    19831    19826    19826    19826    19827    19828    19826 
   19822    19830    19835    19828    19826    19828    19824    19819 
   19818    19819    19826    19830    19826    19822    19824    19828 
   19830    19828    19823    19820    19826    19830    19831    19827 
   19823    19826    19828    19824    19820    19822    19822    19826 
   19832    19828    19824    19828    19831    19830    19826    19819 
   19816    19818    19822    19824    19826    19824    19824    19828 
   19831    19826    19823    19827    19828    19828    19827    19826 
   19826    19826    19826    19830    19830    19822    19818    19822 
   19819    19819    19827    19834    19831    19827    19823    19826 
   19830    19831    19831    19830    19826    19822    19818    19819 
   19827    19828    19827    19827    19827    19824    19822    19820 
   19822    19827    19828    19822    19818    19822    19826    19826 
   19827    19830    19832    19834    19831    19828    19828    19828 
   19828    19831    19828    19820    19818    19822    19820    19823 
   19832    19835    19830    19826    19827    19826    19820    19820 
   19826    19826    19826    19828    19827    19823    19822    19823 
   19827    19834    19831    19824    19830    19830    19819    19820 
   19830    19828    19822    19822    19826    19824    19822    19824 
   19826    19824    19827    19830    19831    19831    19830    19827 
   19824    19822    19823    19828    19828    19826    19831    19832 
   19827    19818    19813    19820    19827    19827    19828    19830 
   19824    19816    19813    19820    19827    19828    19830    19830 
   19827    19823    19819    19820    19826    19827    19824    19823 
   19824    19823    19820    19823    19826    19830    19832    19827 
   19820    19824    19830    19827    19824    19823    19823    19823 
   19823    19827    19834    19835    19830    19826    19826    19822 
   19819    19824    19828    19823    19822    19826    19827    19828 
   19828    19827    19824    19823    19826    19828    19827    19826 
   19826    19824    19823    19823    19824    19822    19815    19815 
   19824    19830    19830    19830    19828    19822    19823    19830 
   19828    19819    19815    19820    19824    19822    19822    19823 
   19824    19827    19827    19831    19830    19819    19816    19826 
   19830    19830    19827    19823    19822    19823    19823    19823 
   19823    19824    19827    19827    19824    19826    19830    19830 
   19822    19818    19822    19820    19816    19820    19824    19827 
   19827    19826    19823    19820    19820    19824    19830    19831 
   19828    19824    19818    19819    19826    19827    19826    19826 
   19826    19826    19822    19820    19826    19835    19836    19831 
   19827    19827    19823    19819    19823    19828    19824    19819 
   19816    19823    19831    19830    19823    19820    19822    19826 
   19830    19832    19828    19828    19834    19835    19827    19820 
   19819    19824    19827    19823    19823    19826    19826    19827 
   19827    19827    19830    19830    19827    19826    19823    19819 
   19819    19818    19819    19828    19834    19831    19830    19832 
   19830    19826    19827    19831    19828    19826    19824    19823 
   19823    19819    19819    19826    19828    19827    19831    19831 
   19826    19826    19826    19824    19826    19827    19828    19827 
   19826    19827    19824    19819    19820    19826    19826    19823 
   19824    19830    19832    19830    19828    19832    19831    19830 
   19835    19835    19828    19824    19823    19819    19818    19822 
   19822    19822    19823    19826    19827    19827    19830    19828 
   19824    19823    19820    19824    19832    19827    19818    19823 
   19830    19830    19828    19827    19827    19828    19824    19824 
   19831    19828    19820    19822    19831    19831    19822    19820 
   19827    19828    19822    19823    19828    19826    19823    19824 
   19826    19828    19832    19828    19822    19822    19823    19827 
   19835    19838    19831    19828    19828    19820    19818    19823 
   19822    19819    19823    19824    19823    19819    19822    19830 
   19834    19830    19831    19832    19826    19824    19828    19826 
   19820    19826    19834    19835    19830    19820    19823    19832 
   19830    19824    19827    19827    19824    19824    19826    19830 
   19831    19827    19827    19831    19830    19827    19826    19820 
   19823    19826    19823    19822    19827    19832    19836    19830 
   19819    19820    19827    19828    19826    19826    19827    19830 
   19827    19823    19823    19824    19828    19831    19830    19826 
   19824    19824    19827    19827    19828    19827    19822    19820 
   19827    19834    19831    19830    19830    19826    19826    19827 
   19824    19823    19820    19822    19831    19831    19822    19823 
   19830    19830    19827    19826    19826    19827    19828    19830 
   19827    19820    19820    19823    19822    19824    19828    19828 
   19826    19827    19827    19827    19826    19823    19823    19827 
   19827    19819    19818    19822    19822    19822    19827    19830 
   19830    19831    19830    19827    19824    19823    19823    19824 
   19820    19824    19832    19830    19826    19824    19822    19823 
   19831    19831    19827    19824    19820    19822    19823    19819 
   19820    19828    19830    19827    19827    19828    19827    19826 
   19826    19826    19824    19823    19824    19827    19827    19827 
   19831    19832    19827    19823    19820    19820    19822    19822 
   19820    19820    19820    19824    19831    19828    19826    19831 
   19828    19820    19820    19824    19826    19826    19820    19818 
   19826    19827    19823    19827    19834    19834    19835    19834 
   19830    19824    19820    19823    19826    19824    19826    19826 
   19819    19820    19827    19828    19828    19827    19826    19826 
   19824    19824    19826    19827    19827    19823    19820    19824 
   19828    19826    19827    19832    19831    19827    19828    19827 
   19824    19828    19828    19823    19824    19823    19822    19823 
   19824    19830    19830    19823    19824    19828    19828    19824 
   19820    19823    19828    19828    19826    19823    19823    19822 
   19823    19826    19826    19826    19831    19834    19831    19830 
   19828    19827    19827    19826    19822    19822    19822    19818 
   19824    19830    19823    19820    19827    19830    19827    19827 
   19831    19832    19822    19815    19824    19832    19828    19827 
   19827    19824    19823    19824    19823    19823    19823    19824 
   19826    19823    19823    19824    19828    19831    19831    19830 
   19830    19831    19827    19822    19823    19827    19826    19820 
   19816    19816    19823    19832    19834    19830    19827    19830 
   19830    19827    19824    19823    19822    19822    19822    19824 
   19823    19824    19826    19824    19822    19828    19834    19832 
   19830    19827    19827    19826    19822    19820    19826    19830 
   19830    19831    19830    19823    19819    19824    19828    19828 
   19826    19826    19827    19827    19826    19827    19828    19823 
   19823    19824    19823    19826    19828    19823    19822    19826 
   19827    19822    19819    19819    19822    19827    19827    19828 
   19831    19831    19831    19831    19828    19826    19826    19828 
   19830    19830    19824    19820    19826    19834    19831    19827 
   19828    19830    19826    19826    19826    19820    19816    19819 
   19826    19832    19828    19822    19828    19834    19828    19828 
   19830    19827    19828    19830    19823    19822    19823    19823 
   19826    19830    19826    19822    19820    19822    19828    19831 
   19827    19826    19827    19826    19824    19820    19820    19827 
   19830    19830    19830    19828    19827    19826    19824    19824 
   19828    19832    19830    19824    19820    19818    19819    19824 
   19827    19826    19828    19836    19835    19828    19828    19830 
   19826    19823    19824    19823    19823    19826    19826    19827 
   19827    19827    19831    19830    19824    19823    19824    19822 
   19824    19828    19827    19822    19820    19823    19827    19828 
   19830    19828    19824    19823    19830    19835    19828    19823 
   19827    19827    19824    19827    19827    19822    19823    19827 
   19828    19826    19819    19818    19820    19822    19824    19826 
   19823    19822    19826    19830    19830    19828    19827    19828 
   19830    19827    19823    19824    19826    19827    19831    19831 
   19827    19823    19819    19823    19827    19824    19823    19823 
   19820    19823    19827    19828    19828    19827    19828    19831 
   19832    19828    19824    19820    19820    19826    19828    19824 
   19818    19823    19828    19830    19830    19828    19827    19827 
   19827    19826    19824    19822    19823    19826    19828    19828 
   19827    19824    19824    19824    19826    19827    19826    19820 
   19819    19823    19827    19827    19824    19826    19831    19832 
   19831    19832    19831    19826    19824    19827    19823    19818 
   19818    19818    19822    19826    19827    19827    19827    19827 
   19831    19832    19828    19824    19826    19823    19820    19820 
   19819    19819    19823    19827    19830    19828    19823    19834 
   19896    20077    20341    20245    19314    18388    19182    21093 
   21103    18675    17396    19583    22195    21533    19202    18711 
   19866    20362    19827    19602    19916    20224    20086    19242 
   19010    19961    20220    19460    19359    19951    20322    20764 
   20629    18782    18013    20308    21555    20216    19391    19105 
   18877    19465    20313    20849    20158    19214    19641    19770 
   19762    20439    20289    19732    18975    18752    20440    20991 
   19855    19687    19294    19079    20633    21404    19527    17356 
   18936    22480    21008    17568    19386    21323    19377    18827 
   20505    20906    19950    19260    18875    19450    21271    20960 
   18210    17628    20086    21929    21158    18952    17585    19214 
   21910    21405    19219    18904    19986    20424    19704    19808 
   20216    18983    18769    19795    19839    20621    20962    18458 
   17509    21115    23033    19386    17416    20270    20889    18856 
   19885    21845    20671    18709    18015    19219    22532    22347 
   16633    14677    20351    24348    20475    15896    18507    22283 
   20524    19271    21544    22869    20520    15766    17113    24850 
   24803    16186    12829    18025    21652    19795    21096    22713 
   16676    14692    20972    24327    24559    23618    19742    14979 
   14891    22347    26694    20564    12976    13932    23080    26302 
   17261    12741    20206    23723    19488    20561    23535    19504 
   15493    17872    22913    23454    19931    18519    18931    19264 
   19118    19518    21890    20960    16599    16804    20888    23507 
   22256    18374    16918    18377    20403    21539    19770    18284 
   20251    21764    20070    17882    17963    19731    22102    23579 
   22269    20737    20190    17420    14651    15516    17109    18400 
   23049    28409    26102    16706    10982    14242    21076    26886 
   29101    22099    10856    10629    20966    26474    22122    16557 
   16717    21756    25866    23342    15988    11901    15238    21365 
   23110    21155    21797    23755    21671    18238    17755    19527 
   21450    20278    16915    17442    20000    18338    16600    19033 
   20185    19341    22027    26131    25240    20275    17388    17875 
   18732    19291    19782    19712    18370    15786    16101    21587 
   25593    23009    19105    19323    21004    20312    18378    17491 
   17159    17242    20073    24189    24358    21435    19747    19008 
   18436    18489    18299    18038    18439    19186    20150    20769 
   20233    19759    21232    23156    22292    19336    17980    18991 
   20024    20065    19618    18436    17177    18208    20753    20726 
   18466    18007    19620    21320    22837    23799    22567    19792 
   18496    18786    18612    17751    17745    19467    20927    20528 
   19441    18628    18554    19562    20640    21018    21394    21716 
   20903    19476    18999    19113    18567    18454    19672    20163 
   20023    20896    20563    18665    19040    21582    21902    19225 
   17871    18987    19106    18584    20047    21867    21940    21308 
   20605    19062    17652    18019    19013    19122    19395    20467 
   20926    20094    19187    19556    20999    21728    20622    19039 
   18789    19901    20988    20696    19317    18183    18042    18801 
   19680    20156    20494    20795    20741    20520    20420    19939 
   19132    18617    18486    19057    20125    20838    21328    21475 
   20641    19610    19369    19500    19024    17977    17610    18320 
   19738    21394    22107    22098    22195    21363    19481    18041 
   17725    18115    18551    19032    19638    20208    20826    20853 
   19777    18625    18589    19731    20952    21201    21050    21309 
   20988    19372    18301    19001    19584    18991    18677    19269 
   20125    20576    20394    20131    20024    20047    20493    20896 
   20294    18846    18129    18790    19516    19946    20553    20702 
   20363    19944    19164    18632    19132    20009    20413    20507 
   20800    20993    20452    19418    18607    18264    18496    19284 
   20034    20443    20721    20877    20594    19678    19053    19673 
   20636    20552    19645    19003    18716    18524    18924    19842 
   20565    20987    21143    20871    20341    19915    19749    19913 
   20024    19573    19062    18943    18812    18871    19402    19781 
   19812    19830    20105    20609    20718    20448    20283    19908 
   19440    19557    20090    20214    19450    18627    18864    19750 
   20406    20707    20542    19975    19641    19751    19934    19951 
   19731    19291    18804    18767    19512    20370    20582    20335 
   20208    20399    20494    20263    20127    20152    19990    19642 
   19165    18631    18331    18482    19152    19940    20306    20540 
   20819    20634    20169    20036    20179    20055    19369    18837 
   19161    19742    19963    20032    20143    20277    20486    20596 
   20287    19703    19272    19338    19818    20024    19711    19465 
   19440    19357    19465    19834    19969    19755    19627    19927 
   20260    20093    19784    19921    20341    20385    19903    19426 
   19295    19394    19469    19341    19152    19430    20213    20648 
   20451    20194    20210    20394    20344    19990    19597    19230 
   19076    19201    19388    19538    19619    19759    20054    20406 
   20595    20336    19928    19832    19766    19518    19438    19592 
   19693    19822    20102    20232    20109    19926    19512    18987 
   19083    19650    19973    20213    20501    20305    19623    19384 
   19901    20310    20237    20038    19917    19869    19678    19467 
   19534    19700    19797    19762    19587    19475    19404    19407 
   19542    19633    19919    20497    20893    20904    20606    20256 
   20031    19712    19327    19156    19191    19214    19192    19381 
   19836    20170    20159    20094    20240    20291    19982    19677 
   19634    19710    19923    20144    19932    19506    19566    19903 
   19894    19712    19526    19201    19056    19271    19464    19568 
   19971    20596    20834    20640    20576    20596    20332    19988 
   19695    19290    18982    19067    19315    19379    19476    19786 
   19942    19973    20294    20644    20524    20074    19791    19816 
   19761    19422    19126    19179    19465    19626    19646    19742 
   19791    19766    19969    20306    20364    20171    20047    20029 
   20036    19930    19637    19440    19545    19795    19994    20088 
   20121    20027    19786    19669    19680    19597    19538    19626 
   19786    19940    20007    19965    19786    19633    19796    19953 
   19830    19773    19765    19742    19886    19957    19838    19824 
   19934    19905    19730    19634    19641    19761    19986    19963 
   19743    19805    19916    19753    19700    19867    19927    19855 
   19784    19678    19531    19616    19967    20104    19973    19970 
   20081    20065    19867    19696    19795    19971    19911    19757 
   19761    19780    19597    19467    19677    19855    19692    19626 
   19897    20077    19870    19595    19665    19940    20096    20090 
   19981    19908    19919    19903    19854    19739    19677    19795 
   19869    19892    19970    20004    19938    19719    19479    19488 
   19673    19792    19770    19718    19757    19861    19930    19905 
   19842    19835    19867    19889    19904    19924    19948    19962 
   19932    19936    20025    19940    19570    19349    19531    19741 
   19778    19943    20136    19974    19714    19778    20007    20065 
   19935    19826    19870    19869    19680    19624    19715    19566 
