Origin Time       2025/03/30 22:55:00
Lat.              41.993
Long.             142.725
Depth. (km)       55
Mag.              4.6
Station Code      AOM011
Station Lat.      40.6803
Station Long.     141.3669
Station Height(m) 43
Record Time       2025/03/30 22:56:48
Sampling Freq(Hz) 100Hz
Duration Time(s)  60
Dir.              E-W
Scale Factor      7845(gal)/8223790
Max. Acc. (gal)   1.908
Last Correction   2025/03/30 22:56:49
Memo.             
[...]
    1039     1005      949      882      880     1001     1194     1362 
    1459     1490     1463     1399     1314     1212     1121     1054 
     972      884      839      862      963     1097     1183     1197 
    1155     1098     1088     1154     1256     1331     1358     1381 
    1414     1405     1321     1197     1057      918      830      827 
     904     1026     1128     1163     1142     1102     1057     1019 
    1017     1063     1163     1316     1467     1545     1520     1404 
    1233     1062      951      934      958      980     1004     1035 
    1084     1159     1232     1269     1271     1251     1198     1140 
    1135     1182     1208     1139      977      815      747      793 
     916     1089     1286     1455     1534     1521     1437     1283 
    1100      977      954     1008     1084     1119     1098     1051 
    1012     1008     1051     1117     1179     1236     1291     1328 
    1317     1269     1227     1206     1181     1147     1144     1167 
    1162     1116     1061     1016      978      951      947      970 
    1016     1081     1120     1097     1065     1096     1169     1231 
    1285     1352     1412     1431     1401     1347     1318     1314 
    1273     1163     1030      923      859      835      827      815 
     814      870      967     1069     1186     1290     1337     1370 
    1422     1478     1501     1464     1413     1398     1364     1229 
    1028      877      822      812      805      823      918     1089 
    1239     1281     1216     1125     1104     1144     1163     1154 
    1171     1225     1290     1316     1258     1155     1081     1059 
    1086     1125     1135     1123     1121     1113     1059      972 
     930     1005     1158     1283     1329     1306     1254     1213 
    1202     1200     1205     1227     1242     1233     1193     1116 
    1035      982      943      913      905      912      935      997 
    1096     1188     1247     1278     1302     1337     1377     1398 
    1387     1343     1308     1305     1308     1290     1205     1011 
     797      680      665      726      846      996     1146     1248 
    1258     1217     1204     1256     1359     1447     1455     1399 
    1341     1310     1282     1215     1097      990      951      954 
     958      970     1008     1058     1067     1015      967      986 
    1061     1151     1201     1179     1136     1154     1236     1317 
    1355     1366     1370     1339     1242     1134     1086     1057 
     976      892      896      989     1098     1169     1200     1190 
    1144     1132     1205     1294     1316     1258     1142     1004 
     926      972     1088     1152     1148     1150     1175     1217 
    1291     1381     1409     1364     1287     1192     1088      981 
     903      892      935      988     1040     1080     1090     1090 
    1108     1151     1220     1294     1336     1343     1313     1235 
    1148     1113     1120     1124     1119     1101     1071     1062 
    1089     1129     1169     1200     1216     1212     1192     1190 
    1216     1210     1138     1047      985      939      909      950 
    1084     1233     1309     1310     1259     1175     1127     1136 
    1148     1128     1097     1075     1084     1120     1166     1206 
    1228     1231     1232     1210     1120      989      915      959 
    1085     1188     1227     1237     1227     1190     1159     1171 
    1243     1348     1424     1405     1275     1098      958      895 
     881      869      862      888      930      958      981     1026 
    1116     1243     1371     1467     1487     1425     1347     1286 
    1213     1131     1080     1071     1084     1058      981      926 
     953     1046     1159     1251     1296     1287     1239     1210 
    1239     1279     1274     1210     1109     1039     1043     1086 
    1123     1142     1131     1094     1040      965      926      996 
    1140     1277     1364     1378     1314     1212     1124     1084 
    1101     1178     1278     1312     1215     1040      897      861 
     943     1080     1174     1208     1220     1233     1233     1213 
    1166     1092     1036     1034     1077     1148     1220     1262 
    1266     1252     1250     1270     1301     1332     1333     1275 
    1173     1058      950      877      837      783      745      823 
    1011     1185     1271     1293     1294     1297     1306     1305 
    1297     1325     1390     1408     1316     1169     1047      978 
     942      935      965     1012     1030     1004      980      978 
     990     1024     1090     1169     1233     1278     1328     1383 
    1399     1356     1287     1232     1223     1263     1305     1282 
    1178     1063     1004      992     1005     1020     1036     1047 
    1030      985      930      876      889     1007     1138     1198 
    1221     1247     1282     1316     1310     1267     1237     1279 
    1412     1561     1606     1503     1297     1046      816      641 
     531      534      664      849     1024     1158     1243     1314 
    1418     1518     1536     1444     1287     1129      976      831 
     772      824      949     1113     1255     1305     1301     1335 
    1409     1453     1404     1271     1151     1111     1107     1096 
    1058      986      919      881      859      865      926     1019 
    1100     1120     1093     1109     1233     1406     1536     1584 
    1544     1429     1291     1212     1215     1225     1183     1132 
    1100     1066     1011      928      843      823      888      957 
     981     1019     1116     1236     1318     1331     1294     1254 
    1215     1198     1225     1251     1231     1161     1077     1047 
    1090     1143     1163     1159     1128     1047      926      846 
     900     1058     1194     1240     1205     1132     1093     1111 
    1161     1239     1325     1381     1386     1341     1233     1062 
     886      819      901     1034     1132     1194     1217     1216 
    1227     1233     1229     1270     1372     1468     1472     1368 
    1189      950      738      683      803     1008     1169     1202 
    1132     1050     1021     1051     1129     1240     1321     1306 
    1221     1152     1154     1225     1308     1331     1285     1188 
    1054      923      815      761      841     1028     1204     1335 
    1436     1462     1405     1323     1239     1134     1028      997 
    1074     1182     1254     1287     1251     1125      974      880 
     895      999     1115     1186     1213     1231     1267     1316 
    1320     1240     1112     1005      973     1011     1081     1144 
    1183     1200     1194     1183     1208     1274     1354     1414 
    1404     1294     1129      963      858      859      928      977 
     974      969      996     1013      996      999     1043     1119 
    1227     1337     1422     1503     1566     1556     1437     1247 
    1094     1032     1026     1032     1030     1013     1007     1008 
     984      946      931      965     1054     1161     1270     1414 
    1560     1584     1452     1259     1102     1005      980     1028 
    1121     1224     1286     1266     1158     1000      886      915 
    1062     1206     1263     1220     1107      988      926      938 
    1027     1136     1190     1189     1156     1108     1119     1225 
    1355     1412     1375     1304     1242     1185     1129     1073 
    1001      922      864      862      934     1011     1028     1024 
    1055     1107     1155     1217     1287     1328     1302     1223 
    1171     1189     1240     1300     1366     1406     1405     1375 
    1325     1259     1201     1169     1135     1050      934      876 
     940     1108     1294     1408     1386     1233     1036      878 
     808      864      997     1102     1115     1044      939      859 
     853      904      940      923      884      858      849      862 
     888      888      861      851      912     1051     1216     1350 
    1424     1445     1426     1385     1341     1323     1324     1325 
    1337     1390     1474     1547     1557     1476     1328     1185 
    1098     1088     1152     1252     1333     1362     1320     1215 
    1077      936      831      820      918     1055     1150     1183 
    1162     1108     1063     1026      967      888      815      819 
     911      992     1021     1021      994      970      985     1038 
    1138     1302     1472     1564     1553     1490     1422     1345 
    1243     1150     1108     1140     1248     1395     1525     1603 
    1615     1588     1593     1636     1637     1551     1422     1332 
    1279     1181     1011      830      689      592      534      486 
     417      338      307      380      584      880     1169     1386 
    1545     1675     1787     1871     1879     1765     1528     1225 
     950      764      707      792      949     1090     1208     1298 
    1354     1390     1422     1463     1502     1499     1451     1405 
    1402     1436     1467     1451     1389     1316     1255     1186 
    1098     1009      938      903      938     1036     1135     1151 
    1003      638      143     -270     -418     -282       32      421 
     822     1186     1482     1652     1648     1543     1482     1528 
    1628     1660     1544     1343     1169     1032      909      822 
     823      900      965     1008     1092     1221     1356     1480 
    1566     1617     1706     1825     1863     1746     1510     1200 
     841      484      225      137      240      519      926     1344 
    1649     1764     1676     1483     1329     1291     1340     1374 
    1298     1096      795      453      210      203      376      550 
     641      666      710      911     1335     1877     2382     2718 
    2803     2609     2193     1740     1448     1331     1229     1017 
     708      410      221      172      240      384      564      756 
     970     1170     1251     1201     1139     1127     1136     1151 
    1183     1223     1246     1232     1138      969      845      838 
     908     1065     1335     1630     1858     2010     2088     2096 
    2056     1945     1740     1510     1336     1201     1020      756 
     442      159      -36     -117      -29      263      683     1073 
    1293     1293     1143      997      985     1151     1429     1701 
    1864     1894     1831     1719     1570     1399     1201      938 
     627      344      190      243      449      722     1021     1301 
    1491     1574     1553     1435     1251     1101     1069     1152 
    1324     1556     1780     1850     1676     1350     1066      920 
     904      996     1084     1004      760      533      467      558 
     741      961     1165     1293     1351     1413     1517     1609 
    1620     1528     1372     1186      966      716      476      283 
     182      224      425      791     1301     1831     2261     2555 
    2667     2582     2386     2169     1958     1699     1312      810 
     303      -76     -221     -106      180      511      793     1042 
    1304     1540     1698     1783     1796     1729     1591     1408 
    1209     1019      858      738      665      707      889     1105 
    1250     1293     1235     1116     1009      949      918      896 
     897      932      974     1000     1032     1058     1048     1046 
    1092     1154     1213     1296     1426     1559     1601     1568 
    1557     1528     1375     1131      885      679      552      538 
     634      762      849      912     1042     1310     1723     2178 
    2486     2496     2185     1640     1013      483      178      167 
     394      665      843      936     1004     1090     1196     1301 
    1451     1664     1842     1838     1587     1148      669      317 
     229      433      816     1223     1502     1557     1425     1244 
    1154     1221     1410     1626     1767     1729     1472     1085 
     700      375      108      -79      -75      230      770     1324 
    1729     1927     1891     1663     1393     1209     1173     1310 
    1532     1607     1414     1067      764      623      711     1046 
    1506     1814     1800     1570     1316     1169     1169     1287 
    1466     1640     1707     1560     1200      714      206     -221 
    -500     -569     -324      217      811     1201     1341     1405 
    1590     1921     2303     2620     2709     2430     1782      920 
     145     -230     -137      207      530      699      769      882 
    1119     1451     1807     2127     2361     2455     2353     1996 
    1462      943      572      368      341      452      607      768 
     951     1142     1269     1305     1304     1348     1462     1539 
    1479     1336     1194     1047      900      853      943     1100 
    1275     1422     1449     1336     1129      857      591      446 
     464      603      765      881      988     1146     1335     1524 
    1713     1915     2074     2072     1873     1534     1117      758 
     608      652      742      776      756      696      602      499 
     407      305      245      348      643     1042     1455     1841 
    2145     2289     2226     2006     1788     1728     1854     2111 
    2351     2394     2168     1713     1082      356     -321     -768 
    -857     -573      -44      519      969     1258     1405     1483 
    1568     1691     1850     2042     2246     2359     2242     1876 
    1395      939      608      423      326      276      287      383 
     541      696      826      972     1167     1344     1424     1428 
    1399     1360     1332     1336     1389     1467     1482     1355 
    1124      938      942     1140     1374     1505     1520     1455 
    1354     1259     1142      996      923      950      974      935 
     880      880      932      955      918      886      882      868 
     842      828      843      935     1125     1362     1563     1622 
    1505     1308     1143     1058     1067     1129     1182     1240 
    1341     1418     1387     1317     1347     1478     1580     1553 
    1387     1104      742      398      167       93      187      375 
     525      604      707      889     1115     1343     1580     1848 
    2091     2208     2161     2020     1879     1742     1547     1302 
    1086      926      854      888      943      969      969      904 
     747      588      577      789     1131     1431     1580     1553 
    1391     1206     1089     1063     1117     1217     1305     1328 
    1273     1113      885      706      679      804     1019     1262 
    1482     1629     1672     1617     1495     1366     1304     1348 
    1441     1491     1455     1317     1067      731      423      313 
     457      757     1067     1267     1274     1086      820      648 
     643      720      797      897     1070     1304     1501     1564 
    1499     1358     1204     1125     1175     1339     1549     1668 
    1567     1275      980      842      900     1112     1375     1532 
    1468     1219      903      681      683      907     1197     1379 
    1448     1521     1641     1752     1800     1768     1651     1458 
    1221     1007      874      827      846      931     1026      994 
     769      436      163       67      157      392      746     1163 
    1525     1718     1694     1490     1224     1004      872      847 
     926     1082     1283     1440     1444     1308     1150     1027 
     934      869      828      819      895     1104     1417     1742 
    1983     2081     2042     1914     1726     1482     1215      978 
     792      643      519      399      311      379      657     1036 
    1351     1499     1485     1413     1355     1278     1173     1117 
    1173     1320     1448     1421     1208      897      612      417 
     310      309      417      542      598      612      643      734 
     963     1331     1687     1921     2042     2110     2173     2245 
    2251     2185     2093     1935     1678     1386     1084      731 
     333      -48     -286     -245       66      535     1043     1455 
    1723     1910     2076     2239     2401     2508     2428     2061 
    1448      738       95     -337     -487     -394     -167      105 
     364      575      746      927     1161     1458     1752     1945 
    1989     1895     1717     1539     1386     1242     1128     1100 
    1189     1354     1456     1374     1086      706      419      352 
     465      675      918     1107     1152     1081     1015     1067 
    1294     1640     1935     2045     1971     1844     1800     1856 
    1906     1842     1609     1197      689      247       10        8 
     140      319      500      621      634      611      679      895 
    1196     1490     1744     1935     2045     2068     1961     1706 
    1383     1112      940      815      697      610      558      534 
     550      642      849     1148     1428     1588     1625     1587 
    1530     1499     1532     1605     1645     1649     1636     1570 
    1437     1291     1166     1067      989      877      670      379 
     116       18      140      426      797     1158     1418     1593 
    1752     1923     2087     2177     2137     1989     1764     1414 
     942      467      151       98      282      544      730      784 
     712      585      558      781     1260     1830     2241     2331 
    2134     1803     1458     1136      888      789      838      926 
     984     1027     1078     1116     1116     1115     1169     1274 
    1385     1472     1498     1412     1221     1000      795      626 
     569      679      885     1043     1067     1003      923      859 
     854      927     1027     1101     1143     1186     1260     1327 
    1305     1167      977      851      869     1020     1210     1321 
    1321     1298     1351     1494     1691     1887     2006     1981 
    1825     1602     1362     1115      846      535      232       64 
     155      519     1016     1447     1699     1769     1707     1594 
    1478     1371     1277     1194     1128     1088     1070     1070 
    1096     1140     1173     1173     1136     1093     1088     1088 
    1035      923      777      639      558      523      515      553 
     656      818     1032     1289     1571     1881     2162     2265 
    2127     1823     1474     1193     1035      972      922      807 
     619      414      282      326      619     1092     1505     1630 
    1441     1092      816      781      994     1324     1583     1640 
    1513     1329     1205     1175     1193     1231     1286     1332 
    1350     1395     1501     1594     1591     1466     1229      954 
     738      633      623      611      523      413      380      495 
     789     1204     1572     1757     1756     1665     1591     1534 
    1439     1329     1266     1243     1224     1155      965      666 
     390      292      433      734     1115     1543     1922     2115 
    2068     1846     1580     1359     1181      986      738      459 
     248      228      418      760     1185     1536     1674     1657 
