Origin Time       2025/03/30 22:55:00
Lat.              41.993
Long.             142.725
Depth. (km)       55
Mag.              4.6
Station Code      AOM012
Station Lat.      40.5127
Station Long.     141.4880
Station Height(m) 12
Record Time       2025/03/30 22:56:52
Sampling Freq(Hz) 100Hz
Duration Time(s)  60
Dir.              N-S
Scale Factor      7845(gal)/8223790
Max. Acc. (gal)   1.872
Last Correction   2025/03/30 22:56:52
Memo.             
[...]
   -3385    -3611    -3970    -4203    -4167    -3955    -3796    -3802 
   -3867    -3815    -3676    -3650    -3767    -3848    -3804    -3727 
   -3750    -3886    -3997    -3962    -3820    -3682    -3595    -3565 
   -3631    -3815    -4051    -4189    -4122    -3925    -3735    -3603 
   -3577    -3692    -3865    -3991    -4000    -3834    -3601    -3520 
   -3630    -3798    -3950    -4059    -4059    -3948    -3813    -3676 
   -3531    -3474    -3581    -3754    -3852    -3848    -3796    -3838 
   -4029    -4144    -4005    -3723    -3485    -3441    -3620    -3855 
   -4009    -4104    -4108    -3956    -3758    -3662    -3669    -3684 
   -3640    -3618    -3735    -3942    -4074    -4095    -4040    -3883 
   -3673    -3566    -3627    -3780    -3942    -4033    -3959    -3778 
   -3650    -3620    -3678    -3807    -3861    -3753    -3666    -3746 
   -3875    -3936    -3913    -3843    -3834    -3921    -3983    -3931 
   -3821    -3709    -3609    -3580    -3685    -3898    -4090    -4106 
   -3946    -3740    -3570    -3473    -3516    -3680    -3842    -3956 
   -4021    -4028    -4014    -3963    -3825    -3662    -3585    -3592 
   -3592    -3578    -3653    -3852    -4074    -4163    -4093    -3955 
   -3786    -3600    -3507    -3589    -3769    -3908    -3908    -3782 
   -3669    -3640    -3647    -3723    -3928    -4156    -4249    -4147 
   -3897    -3645    -3520    -3514    -3582    -3731    -3894    -3975 
   -3956    -3894    -3869    -3898    -3921    -3894    -3832    -3755 
   -3690    -3672    -3665    -3649    -3672    -3748    -3807    -3796 
   -3792    -3936    -4168    -4241    -4043    -3681    -3383    -3335 
   -3527    -3788    -3979    -4070    -4077    -4020    -3921    -3819 
   -3773    -3786    -3792    -3767    -3762    -3786    -3793    -3748 
   -3669    -3631    -3712    -3861    -3943    -3936    -3874    -3778 
   -3716    -3736    -3807    -3866    -3855    -3757    -3666    -3667 
   -3709    -3743    -3804    -3904    -3948    -3886    -3848    -3951 
   -4058    -3955    -3669    -3441    -3484    -3765    -4029    -4085 
   -3969    -3825    -3739    -3697    -3638    -3591    -3649    -3770 
   -3878    -4004    -4117    -4077    -3879    -3651    -3507    -3532 
   -3707    -3869    -3932    -3923    -3854    -3761    -3758    -3902 
   -4074    -4099    -3966    -3812    -3763    -3780    -3753    -3693 
   -3670    -3693    -3732    -3748    -3739    -3754    -3824    -3908 
   -3935    -3844    -3707    -3655    -3705    -3765    -3816    -3901 
   -3997    -4017    -3935    -3794    -3685    -3678    -3724    -3738 
   -3735    -3777    -3879    -4024    -4145    -4118    -3902    -3630 
   -3442    -3388    -3484    -3720    -3998    -4166    -4114    -3850 
   -3546    -3443    -3576    -3727    -3739    -3705    -3796    -3998 
   -4141    -4083    -3898    -3844    -4004    -4126    -3970    -3608 
   -3299    -3242    -3441    -3700    -3885    -4079    -4295    -4313 
   -4020    -3632    -3457    -3600    -3898    -4059    -3954    -3751 
   -3666    -3707    -3742    -3711    -3686    -3748    -3842    -3886 
   -3909    -3946    -3933    -3835    -3730    -3701    -3734    -3765 
   -3765    -3758    -3792    -3879    -3971    -4001    -3935    -3786 
   -3654    -3643    -3721    -3804    -3863    -3910    -3956    -3959 
   -3829    -3605    -3500    -3638    -3834    -3854    -3744    -3719 
   -3861    -4044    -4068    -3889    -3670    -3612    -3759    -3942 
   -3986    -3908    -3815    -3781    -3824    -3827    -3681    -3547 
   -3630    -3848    -4028    -4104    -4039    -3854    -3684    -3632 
   -3657    -3697    -3753    -3750    -3662    -3663    -3842    -4014 
   -3990    -3807    -3638    -3603    -3704    -3844    -3904    -3894 
   -3858    -3780    -3732    -3801    -3923    -3975    -3897    -3766 
   -3751    -3878    -3986    -3955    -3793    -3576    -3429    -3457 
   -3646    -3885    -4045    -4093    -4108    -4128    -4054    -3834 
   -3612    -3545    -3609    -3720    -3825    -3866    -3813    -3739 
   -3755    -3870    -3998    -4033    -3909    -3712    -3588    -3576 
   -3670    -3863    -4056    -4118    -4027    -3874    -3771    -3736 
   -3700    -3638    -3622    -3699    -3812    -3915    -4013    -4028 
   -3846    -3543    -3356    -3404    -3628    -3917    -4174    -4276 
   -4137    -3821    -3518    -3375    -3411    -3569    -3798    -4078 
   -4293    -4248    -3955    -3677    -3607    -3674    -3700    -3655 
   -3689    -3863    -4014    -3987    -3820    -3655    -3591    -3651 
   -3769    -3842    -3867    -3909    -3937    -3850    -3678    -3566 
   -3601    -3773    -3963    -4058    -4093    -4101    -4027    -3912 
   -3840    -3770    -3650    -3561    -3578    -3663    -3743    -3794 
   -3863    -3973    -4041    -3967    -3777    -3635    -3627    -3646 
   -3657    -3786    -4054    -4229    -4101    -3804    -3657    -3719 
   -3744    -3577    -3420    -3574    -3969    -4241    -4221    -4036 
   -3834    -3670    -3562    -3539    -3666    -3924    -4124    -4109 
   -3928    -3724    -3593    -3585    -3689    -3784    -3707    -3483 
   -3377    -3570    -3917    -4132    -4089    -3883    -3708    -3669 
   -3677    -3649    -3699    -3909    -4139    -4253    -4237    -4093 
   -3867    -3657    -3519    -3487    -3580    -3730    -3819    -3850 
   -3861    -3827    -3824    -3952    -4058    -3952    -3717    -3553 
   -3541    -3630    -3747    -3883    -4008    -3997    -3843    -3750 
   -3863    -4064    -4114    -3904    -3616    -3527    -3669    -3848 
   -3936    -3978    -4005    -3937    -3770    -3613    -3531    -3553 
   -3699    -3889    -3982    -3896    -3713    -3627    -3696    -3780 
   -3773    -3753    -3807    -3913    -3982    -3952    -3871    -3813 
   -3773    -3726    -3678    -3657    -3699    -3828    -3987    -4054 
   -4008    -3931    -3848    -3755    -3680    -3650    -3670    -3754 
   -3885    -3951    -3863    -3723    -3662    -3672    -3720    -3829 
   -3970    -4025    -3932    -3742    -3570    -3522    -3620    -3790 
   -3929    -3962    -3904    -3855    -3866    -3874    -3824    -3757 
   -3720    -3708    -3743    -3834    -3915    -3943    -3886    -3757 
   -3681    -3724    -3804    -3885    -3982    -4010    -3906    -3766 
   -3685    -3663    -3686    -3720    -3736    -3754    -3817    -3939 
   -4059    -4089    -3985    -3781    -3603    -3580    -3674    -3766 
   -3828    -3901    -3989    -4039    -3963    -3765    -3584    -3500 
   -3481    -3574    -3820    -4081    -4210    -4187    -3997    -3678 
   -3411    -3379    -3618    -3969    -4209    -4217    -4028    -3763 
   -3538    -3395    -3376    -3565    -3923    -4182    -4139    -3900 
   -3708    -3669    -3734    -3840    -3920    -3923    -3905    -3933 
   -3964    -3923    -3838    -3757    -3624    -3434    -3302    -3329 
   -3542    -3889    -4205    -4303    -4180    -4001    -3867    -3775 
   -3717    -3677    -3626    -3612    -3689    -3774    -3798    -3856 
   -3989    -4066    -4004    -3875    -3755    -3661    -3630    -3674 
   -3746    -3854    -3994    -4027    -3878    -3697    -3622    -3650 
   -3742    -3829    -3838    -3750    -3632    -3596    -3689    -3823 
   -3904    -3931    -3932    -3969    -4060    -4086    -3994    -3879 
   -3775    -3659    -3576    -3576    -3655    -3771    -3870    -3875 
   -3747    -3589    -3555    -3681    -3890    -4058    -4070    -3967 
   -3888    -3856    -3800    -3739    -3762    -3844    -3869    -3824 
   -3812    -3850    -3869    -3838    -3766    -3708    -3700    -3685 
   -3623    -3595    -3700    -3897    -4043    -4060    -3963    -3805 
   -3677    -3622    -3605    -3619    -3688    -3762    -3844    -4023 
   -4239    -4280    -4021    -3566    -3256    -3383    -3863    -4338 
   -4514    -4364    -4083    -3863    -3727    -3605    -3487    -3414 
   -3395    -3447    -3630    -3900    -4105    -4152    -4032    -3751 
   -3399    -3225    -3427    -3881    -4207    -4171    -3932    -3825 
   -3937    -4068    -4036    -3879    -3734    -3669    -3684    -3757 
   -3867    -3964    -4012    -4020    -4031    -4072    -4089    -3982 
   -3726    -3431    -3253    -3217    -3316    -3578    -3900    -4074 
   -4016    -3851    -3701    -3550    -3396    -3321    -3350    -3500 
   -3802    -4224    -4654    -4915    -4780    -4187    -3439    -2997 
   -3029    -3369    -3786    -4118    -4311    -4406    -4357    -4093 
   -3736    -3515    -3439    -3327    -3154    -3103    -3302    -3724 
   -4189    -4464    -4484    -4320    -4009    -3618    -3277    -3088 
   -3105    -3368    -3861    -4430    -4772    -4625    -4055    -3400 
   -2967    -2889    -3152    -3630    -4098    -4384    -4463    -4396 
   -4261    -4078    -3828    -3530    -3260    -3164    -3300    -3524 
   -3690    -3815    -3924    -4010    -4122    -4267    -4336    -4241 
   -3977    -3609    -3285    -3203    -3441    -3789    -3975    -4002 
   -4031    -4110    -4143    -4027    -3813    -3665    -3700    -3920 
   -4153    -4201    -4108    -4037    -3994    -3867    -3595    -3230 
   -3001    -3150    -3639    -4148    -4330    -4068    -3578    -3175 
   -3013    -3134    -3522    -4055    -4529    -4742    -4642    -4324 
   -3946    -3665    -3514    -3402    -3308    -3329    -3532    -3927 
   -4344    -4499    -4351    -4055    -3736    -3534    -3485    -3427 
   -3338    -3389    -3653    -4041    -4355    -4410    -4201    -3839 
   -3477    -3254    -3187    -3227    -3387    -3663    -3998    -4368 
   -4734    -4950    -4907    -4637    -4162    -3454    -2679    -2242 
   -2407    -2963    -3483    -3773    -3977    -4310    -4672    -4692 
   -4249    -3655    -3284    -3227    -3384    -3631    -3874    -4074 
   -4172    -4120    -4001    -3936    -3936    -3964    -3963    -3862 
   -3701    -3604    -3600    -3650    -3739    -3863    -4023    -4176 
   -4164    -3882    -3512    -3364    -3464    -3611    -3715    -3771 
   -3789    -3894    -4112    -4214    -4075    -3817    -3573    -3387 
   -3254    -3153    -3138    -3387    -3971    -4672    -5147    -5148 
   -4619    -3812    -3176    -2955    -3030    -3199    -3437    -3757 
   -4023    -4027    -3724    -3335    -3176    -3379    -3793    -4172 
   -4375    -4396    -4305    -4091    -3734    -3388    -3296    -3511 
   -3917    -4392    -4766    -4815    -4452    -3842    -3261    -2929 
   -2953    -3292    -3739    -4067    -4201    -4198    -4137    -4048 
   -3971    -3962    -3970    -3859    -3586    -3233    -2901    -2714 
   -2783    -3146    -3780    -4529    -5078    -5157    -4815    -4375 
   -4114    -4000    -3789    -3520    -3530    -3902    -4299    -4359 
   -4016    -3439    -2845    -2470    -2585    -3302    -4367    -5212 
   -5289    -4510    -3406    -2623    -2388    -2686    -3446    -4355 
   -4968    -4999    -4473    -3685    -2988    -2668    -2841    -3379 
   -4036    -4607    -4896    -4752    -4280    -3834    -3632    -3600 
   -3584    -3500    -3294    -3028    -2921    -3092    -3416    -3731 
   -3979    -4176    -4307    -4247    -3920    -3515    -3376    -3694 
   -4301    -4757    -4735    -4291    -3743    -3348    -3136    -3045 
   -3037    -3065    -3177    -3484    -3935    -4356    -4568    -4432 
   -4085    -3924    -4091    -4322    -4352    -4104    -3669    -3223 
   -2920    -2936    -3381    -4051    -4625    -4985    -5105    -4904 
   -4359    -3630    -3015    -2837    -3211    -3839    -4305    -4502 
   -4518    -4302    -3811    -3273    -2974    -3018    -3392    -3920 
   -4405    -4742    -4768    -4422    -3975    -3613    -3218    -2809 
   -2666    -2953    -3484    -3807    -3572    -2952    -2536    -2710 
   -3331    -4020    -4527    -4752    -4665    -4318    -3902    -3716 
   -3886    -4201    -4368    -4298    -4098    -3932    -3848    -3744 
   -3520    -3244    -3098    -3233    -3661    -4224    -4572    -4438 
   -4012    -3747    -3767    -3786    -3527    -3033    -2610    -2614 
   -3175    -3950    -4430    -4527    -4523    -4585    -4625    -4483 
   -4152    -3804    -3549    -3384    -3385    -3701    -4244    -4618 
   -4495    -4000    -3613    -3658    -3966    -4101    -3847    -3375 
   -3017    -2979    -3248    -3663    -4021    -4166    -4094    -3960 
   -3921    -3962    -3905    -3632    -3288    -3121    -3186    -3402 
   -3692    -4014    -4401    -4781    -4864    -4456    -3747    -3129 
   -2889    -3098    -3639    -4264    -4679    -4644    -4087    -3194 
   -2359    -2043    -2490    -3527    -4671    -5337    -5140    -4245 
   -3308    -2879    -3005    -3464    -4032    -4398    -4341    -4009 
   -3715    -3697    -4032    -4514    -4801    -4733    -4396    -3983 
   -3620    -3333    -3157    -3183    -3403    -3673    -3908    -4125 
   -4209    -3905    -3194    -2448    -2141    -2484    -3343    -4336 
   -5085    -5447    -5456    -5123    -4490    -3759    -3179    -2907 
   -2974    -3303    -3788    -4245    -4391    -4043    -3321    -2639 
   -2457    -2928    -3834    -4815    -5509    -5671    -5287    -4492 
   -3555    -2851    -2562    -2621    -2938    -3435    -3956    -4294 
   -4260    -3821    -3157    -2579    -2401    -2814    -3728    -4691 
   -5197    -5157    -4828    -4453    -4183    -4078    -4035    -3890 
   -3597    -3245    -3046    -3203    -3592    -3827    -3742    -3586 
   -3705    -4159    -4630    -4720    -4382    -3862    -3381    -2976 
   -2609    -2346    -2413    -3030    -4139    -5259    -5771    -5404 
   -4434    -3443    -2918    -3003    -3496    -4040    -4413    -4561 
   -4468    -4128    -3649    -3211    -2948    -2911    -3071    -3325 
   -3559    -3755    -4025    -4444    -4839    -4936    -4675    -4239 
   -3817    -3416    -3024    -2806    -2952    -3392    -3775    -3775 
   -3441    -3148    -3245    -3739    -4234    -4313    -4018    -3770 
   -3852    -4224    -4642    -4851    -4783    -4502    -4037    -3468 
   -2976    -2758    -2918    -3318    -3678    -3856    -3912    -3997 
   -4178    -4318    -4268    -4155    -4229    -4499    -4700    -4515 
   -3836    -2921    -2250    -2178    -2693    -3500    -4239    -4621 
   -4564    -4225    -3928    -3928    -4099    -4175    -4137    -4072 
   -3940    -3697    -3396    -3113    -2921    -2863    -2901    -3069 
   -3469    -3985    -4270    -4114    -3709    -3527    -3824    -4276 
   -4363    -3962    -3419    -3188    -3464    -4047    -4571    -4719 
   -4364    -3775    -3426    -3402    -3488    -3639    -3909    -4274 
   -4630    -4779    -4577    -4172    -3850    -3690    -3568    -3439 
   -3372    -3389    -3472    -3600    -3703    -3697    -3642    -3612 
   -3555    -3465    -3447    -3542    -3750    -4083    -4482    -4855 
   -5136    -5229    -5071    -4631    -3956    -3295    -2906    -2781 
   -2808    -2988    -3376    -3942    -4513    -4783    -4565    -3989 
   -3323    -2816    -2670    -2917    -3352    -3704    -3870    -3946 
   -4032    -4095    -4006    -3730    -3403    -3181    -3080    -3088 
   -3229    -3465    -3719    -3959    -4105    -4074    -3944    -3856 
   -3909    -4090    -4229    -4191    -4041    -3946    -4044    -4340 
   -4610    -4568    -4209    -3742    -3268    -2813    -2533    -2596 
   -3014    -3703    -4415    -4814    -4774    -4413    -3925    -3526 
   -3356    -3437    -3715    -4071    -4351    -4410    -4202    -3875 
   -3661    -3708    -4064    -4590    -4961    -4961    -4617    -4098 
   -3623    -3342    -3281    -3358    -3449    -3551    -3699    -3735 
   -3522    -3215    -3098    -3296    -3653    -3840    -3682    -3322 
   -3075    -3148    -3439    -3665    -3677    -3586    -3647    -4001 
   -4529    -4958    -5040    -4725    -4220    -3724    -3284    -2970 
   -2928    -3213    -3736    -4255    -4513    -4479    -4290    -4013 
   -3635    -3195    -2860    -2837    -3204    -3831    -4419    -4662 
   -4428    -3897    -3468    -3399    -3620    -3904    -4091    -4201 
   -4275    -4233    -4004    -3690    -3477    -3407    -3380    -3375 
   -3492    -3785    -4170    -4477    -4553    -4399    -4156    -3927 
   -3751    -3662    -3628    -3592    -3581    -3585    -3535    -3481 
   -3504    -3603    -3742    -3846    -3817    -3605    -3248    -2956 
   -3015    -3495    -4121    -4549    -4687    -4603    -4311    -3885 
   -3539    -3433    -3507    -3624    -3723    -3811    -3904    -3990 
   -4010    -3981    -3987    -4078    -4187    -4125    -3794    -3381 
   -3176    -3326    -3753    -4209    -4509    -4630    -4544    -4195 
   -3703    -3234    -2887    -2806    -3084    -3577    -4025    -4228 
   -4149    -3915    -3731    -3766    -4021    -4299    -4394    -4278 
   -4054    -3796    -3522    -3272    -3188    -3349    -3636    -3921 
   -4234    -4634    -4984    -4969    -4382    -3420    -2617    -2419 
   -2821    -3429    -3896    -4118    -4079    -3797    -3446    -3227 
   -3187    -3306    -3569    -3898    -4174    -4270    -4139    -3898 
   -3713    -3643    -3651    -3703    -3753    -3753    -3701    -3669 
   -3728    -3823    -3819    -3766    -3879    -4158    -4380    -4437 
   -4401    -4310    -4145    -3892    -3603    -3468    -3634    -3939 
   -4024    -3771    -3419    -3202    -3163    -3272    -3541    -3971 
   -4365    -4453    -4209    -3863    -3676    -3715    -3861    -4027 
   -4230    -4438    -4514    -4310    -3784    -3091    -2612    -2702 
   -3372    -4187    -4540    -4174    -3453    -2956    -2968    -3368 
   -3865    -4252    -4448    -4446    -4299    -4078    -3844    -3655 
   -3555    -3591    -3747    -3921    -3971    -3854    -3693    -3662 
   -3738    -3793    -3874    -4067    -4224    -4087    -3697    -3381 
   -3372    -3593    -3812    -3882    -3819    -3744    -3780    -3873 
   -3862    -3721    -3626    -3724    -3962    -4202    -4383    -4428 
   -4283    -3989    -3574    -3122    -2874    -3011    -3446    -3893 
   -4133    -4153    -4075    -4005    -3936    -3790    -3534    -3218 
   -2999    -3071    -3488    -4058    -4463    -4463    -4025    -3438 
   -3164    -3383    -3875    -4301    -4415    -4232    -3977    -3863 
   -3998    -4333    -4607    -4568    -4228    -3797    -3473    -3341 
   -3291    -3149    -3015    -3187    -3775    -4567    -5103    -4976 
   -4199    -3264    -2754    -2837    -3225    -3599    -3835    -3917 
   -3932    -4001    -4091    -4098    -4037    -3943    -3781    -3607 
   -3580    -3747    -3960    -4037    -3962    -3871    -3850    -3858 
   -3855    -3834    -3769    -3662    -3559    -3520    -3573    -3681 
   -3770    -3809    -3827    -3821    -3728    -3527    -3319    -3322 
   -3676    -4170    -4399    -4203    -3798    -3534    -3554    -3694 
   -3751    -3721    -3705    -3755    -3828    -3865    -3912    -4052 
   -4185    -4187    -4126    -4086    -4029    -3862    -3541    -3227 
   -3244    -3701    -4321    -4693    -4637    -4255    -3770    -3348 
   -3048    -2948    -3132    -3547    -4028    -4402    -4530    -4365 
   -4012    -3647    -3402    -3285    -3242    -3302    -3562    -3989 
   -4401    -4671    -4806    -4793    -4513    -3923    -3268    -2916 
   -3021    -3434    -3843    -4008    -3943    -3859    -3855    -3842 
   -3786    -3748    -3692    -3504    -3208    -3005    -3071    -3396 
