Origin Time       2025/03/30 22:55:00
Lat.              41.993
Long.             142.725
Depth. (km)       55
Mag.              4.6
Station Code      AOM003
Station Lat.      41.4054
Station Long.     141.1699
Station Height(m) 2
Record Time       2025/03/30 22:56:38
Sampling Freq(Hz) 100Hz
Duration Time(s)  60
Dir.              U-D
Scale Factor      7845(gal)/8223790
Max. Acc. (gal)   1.071
Last Correction   2025/03/30 22:56:38
Memo.             
[...]
   42403    42558    42450    42248    42358    42709    42801    42495 
   42174    42199    42426    42462    42314    42263    42331    42356 
   42283    42246    42394    42583    42574    42431    42338    42323 
   42337    42350    42388    42466    42487    42376    42252    42288 
   42469    42600    42518    42272    42082    42114    42348    42581 
   42657    42574    42427    42331    42363    42427    42384    42249 
   42141    42174    42365    42553    42560    42430    42317    42295 
   42364    42498    42627    42642    42449    42168    42117    42399 
   42714    42703    42336    41937    41854    42098    42403    42525 
   42438    42331    42387    42564    42685    42641    42475    42338 
   42363    42516    42655    42634    42396    42071    41910    42029 
   42298    42493    42500    42394    42331    42342    42340    42321 
   42365    42493    42646    42719    42655    42464    42157    41944 
   42120    42518    42651    42406    42122    42157    42489    42714 
   42593    42384    42410    42593    42616    42363    42030    41902 
   42061    42323    42466    42453    42390    42380    42469    42560 
   42496    42322    42229    42342    42608    42762    42568    42180 
   41986    42080    42240    42319    42330    42342    42431    42529 
   42534    42518    42541    42557    42561    42599    42633    42518 
   42277    42157    42199    42217    42134    42067    42183    42492 
   42778    42824    42611    42349    42260    42334    42414    42381 
   42264    42202    42257    42315    42248    42125    42137    42356 
   42623    42688    42515    42337    42330    42473    42623    42600 
   42392    42180    42105    42180    42391    42670    42854    42778 
   42460    42144    42075    42202    42277    42225    42217    42387 
   42580    42545    42309    42160    42260    42457    42504    42371 
   42255    42326    42493    42569    42539    42462    42368    42346 
   42460    42566    42503    42294    42113    42160    42423    42577 
   42379    42080    42106    42462    42803    42850    42601    42296 
   42134    42138    42256    42381    42402    42333    42288    42342 
   42460    42508    42430    42341    42380    42527    42623    42547 
   42369    42290    42411    42579    42562    42348    42133    42115 
   42303    42472    42414    42264    42292    42475    42600    42539 
   42298    42103    42187    42402    42448    42300    42149    42169 
   42404    42684    42762    42620    42435    42331    42299    42275 
   42241    42252    42365    42514    42522    42364    42259    42329 
   42488    42599    42580    42485    42408    42384    42431    42491 
   42446    42303    42153    42105    42176    42232    42229    42298 
   42489    42657    42580    42291    42117    42255    42556    42734 
   42627    42373    42245    42330    42477    42495    42380    42264 
   42264    42399    42503    42415    42244    42201    42372    42614 
   42647    42414    42172    42144    42255    42319    42341    42406 
   42475    42522    42599    42662    42611    42435    42240    42169 
   42279    42403    42394    42333    42326    42352    42334    42230 
   42117    42128    42250    42394    42518    42623    42662    42568 
   42438    42429    42476    42460    42346    42142    42020    42128 
   42353    42556    42657    42601    42511    42520    42535    42477 
   42419    42417    42449    42442    42402    42399    42340    42125 
   41962    42066    42344    42518    42476    42383    42468    42711 
   42796    42531    42145    41960    42063    42345    42601    42635 
   42388    42028    41897    42151    42579    42846    42774    42449 
   42156    42118    42273    42368    42346    42371    42411    42334 
   42255    42315    42479    42611    42564    42352    42265    42481 
   42732    42676    42384    42199    42288    42487    42572    42508 
   42411    42364    42323    42233    42221    42391    42566    42537 
   42319    42153    42261    42498    42534    42323    42082    42026 
   42176    42345    42427    42464    42492    42549    42607    42580 
   42503    42466    42449    42364    42210    42087    42094    42234 
   42396    42487    42541    42564    42518    42464    42431    42368 
   42275    42215    42264    42373    42396    42344    42318    42317 
   42356    42471    42597    42634    42560    42492    42539    42633 
   42637    42511    42319    42155    42072    42093    42241    42472 
   42580    42429    42213    42209    42419    42631    42618    42402 
   42273    42345    42462    42500    42429    42318    42290    42337 
   42364    42322    42240    42206    42276    42423    42583    42646 
   42545    42337    42118    42006    42099    42321    42445    42340 
   42129    42107    42391    42750    42855    42593    42280    42326 
   42631    42762    42601    42414    42375    42360    42233    42105 
   42147    42299    42358    42322    42398    42628    42757    42657 
   42530    42511    42460    42265    42071    42059    42171    42223 
   42210    42287    42471    42566    42471    42319    42314    42439 
   42511    42453    42348    42288    42291    42317    42379    42479 
   42503    42410    42319    42354    42489    42562    42499    42372 
   42280    42298    42398    42444    42372    42259    42214    42277 
   42388    42484    42530    42471    42325    42240    42336    42545 
   42654    42549    42358    42264    42272    42276    42210    42155 
   42225    42363    42444    42487    42576    42678    42658    42458 
   42248    42255    42462    42597    42502    42296    42155    42101 
   42094    42188    42421    42612    42550    42310    42183    42333 
   42589    42661    42492    42290    42252    42354    42422    42383 
   42337    42395    42557    42697    42664    42477    42345    42383 
   42511    42533    42318    42041    41966    42086    42250    42342 
   42341    42353    42448    42565    42631    42646    42628    42541 
   42369    42221    42210    42322    42404    42287    42060    42022 
   42207    42353    42306    42215    42338    42664    42862    42715 
   42433    42367    42518    42599    42506    42385    42365    42415 
   42387    42236    42155    42279    42444    42480    42431    42363 
   42303    42327    42453    42539    42448    42276    42271    42469 
   42603    42454    42159    42021    42168    42431    42522    42385 
   42277    42399    42670    42828    42684    42321    41987    41897 
   42103    42419    42553    42441    42290    42295    42415    42504 
   42547    42584    42552    42431    42287    42160    42133    42288 
   42535    42692    42661    42465    42240    42141    42218    42381 
   42465    42376    42237    42260    42429    42564    42599    42577 
   42460    42217    42025    42106    42406    42676    42720    42516 
   42295    42259    42304    42280    42255    42364    42584    42722 
   42650    42458    42331    42333    42349    42286    42201    42156 
   42202    42380    42579    42611    42483    42400    42479    42593 
   42560    42331    42076    42040    42252    42495    42545    42364 
   42136    42083    42249    42516    42727    42719    42448    42130 
   42075    42323    42570    42535    42315    42209    42325    42523 
   42614    42511    42275    42088    42111    42294    42466    42537 
   42496    42450    42511    42600    42583    42464    42314    42213 
   42228    42327    42430    42465    42421    42396    42408    42375 
   42345    42423    42543    42564    42438    42275    42249    42363 
   42414    42283    42134    42205    42423    42466    42256    42095 
   42240    42556    42682    42488    42265    42291    42471    42573 
   42507    42340    42257    42340    42454    42502    42458    42257 
   41975    41925    42277    42738    42857    42583    42299    42306 
   42473    42518    42395    42299    42361    42465    42472    42439 
   42449    42473    42448    42358    42269    42238    42269    42340 
   42340    42198    42055    42090    42280    42508    42678    42730 
   42684    42607    42480    42330    42277    42337    42430    42511 
   42541    42492    42395    42280    42171    42121    42184    42323 
   42415    42395    42352    42387    42491    42576    42529    42338 
   42187    42242    42407    42488    42426    42290    42244    42402 
   42619    42618    42337    42070    42107    42360    42549    42530 
   42417    42431    42554    42570    42448    42323    42280    42292 
   42280    42213    42142    42148    42275    42477    42627    42610 
   42477    42408    42441    42477    42493    42512    42530    42469 
   42292    42198    42334    42476    42363    42093    42007    42276 
   42622    42645    42411    42331    42552    42797    42716    42317 
   41978    41968    42230    42511    42554    42383    42253    42302 
   42460    42589    42611    42574    42554    42562    42534    42410 
   42269    42221    42242    42282    42277    42194    42109    42120 
   42245    42493    42793    42931    42732    42325    42051    42113 
   42418    42641    42503    42142    42001    42246    42585    42660 
   42427    42178    42174    42299    42294    42211    42291    42561 
   42808    42790    42518    42311    42400    42655    42784    42658 
   42422    42238    42106    42018    42039    42182    42385    42569 
   42662    42595    42384    42210    42226    42344    42410    42421 
   42411    42344    42242    42244    42384    42516    42452    42176 
   41931    41970    42237    42484    42612    42664    42684    42711 
   42711    42599    42431    42356    42429    42600    42731    42637 
   42346    42176    42309    42489    42383    42012    41702    41715 
   42020    42379    42584    42576    42422    42313    42407    42601 
   42670    42599    42510    42427    42331    42257    42271    42357 
   42371    42188    41935    41878    42130    42570    42963    43082 
   42876    42518    42209    42049    42018    42009    41995    42093 
   42392    42774    42948    42793    42527    42457    42620    42750 
   42576    42120    41696    41678    42117    42570    42642    42484 
   42458    42603    42731    42720    42574    42358    42071    41733 
   41573    41739    42067    42390    42664    42807    42726    42488 
   42294    42236    42234    42151    41963    41912    42246    42782 
   43123    43148    42997    42793    42639    42600    42592    42437 
   42052    41661    41666    42075    42408    42323    41955    41735 
   41935    42373    42727    42867    42817    42701    42643    42691 
   42778    42722    42437    42126    42093    42434    42835    42836 
   42437    42036    41945    42149    42329    42294    42210    42268 
   42489    42726    42785    42699    42588    42457    42288    42102 
   41990    42060    42268    42461    42512    42356    42128    42063 
   42168    42237    42144    41974    41952    42191    42547    42790 
   42862    42943    43129    43224    43092    42828    42538    42277 
   42090    41976    41895    41767    41631    41697    42055    42511 
   42800    42853    42807    42755    42697    42591    42310    41910 
   41787    42151    42651    42843    42610    42184    41985    42133 
   42303    42302    42252    42272    42394    42569    42720    42826 
   42855    42687    42288    41910    41818    42024    42348    42515 
   42431    42345    42411    42508    42564    42637    42728    42712 
   42568    42456    42453    42479    42394    42133    41905    41958 
   42223    42468    42510    42333    42141    42138    42329    42557 
   42583    42364    42188    42260    42417    42448    42391    42480 
   42840    43210    43245    42924    42473    42180    42153    42195 
   42148    42032    41908    41893    42113    42533    42934    42998 
   42576    41972    41725    41924    42105    41978    41767    41825 
   42196    42561    42649    42592    42569    42485    42269    42079 
   42124    42456    42881    43114    43056    42805    42569    42535 
   42653    42664    42426    42080    41885    42003    42388    42765 
   42827    42573    42263    42080    42075    42196    42300    42344 
   42427    42599    42766    42805    42643    42327    42020    41824 
   41728    41767    41975    42275    42592    42843    42962    42961 
   42808    42468    42071    41918    42182    42614    42785    42577 
   42277    42186    42252    42244    42145    42109    42155    42188 
   42206    42333    42630    42916    42971    42788    42562    42466 
   42417    42180    41825    41689    41905    42244    42348    42105 
   41841    41949    42364    42739    42927    43024    43089    43025 
   42820    42642    42547    42368    42009    41654    41590    41825 
   42056    42152    42342    42777    43216    43283    42957    42637 
   42599    42676    42653    42543    42461    42441    42345    42063 
   41763    41685    41859    42174    42465    42584    42499    42336 
   42242    42223    42222    42253    42303    42348    42403    42464 
   42500    42453    42233    41932    41866    42178    42660    43001 
   43009    42711    42357    42184    42223    42333    42384    42412 
   42561    42863    43125    43058    42635    42175    41917    41848 
   41920    42133    42462    42758    42819    42622    42265    41862 
   41644    41798    42182    42498    42611    42593    42543    42495 
   42414    42222    41914    41643    41705    42261    43033    43509 
   43372    42781    42263    42120    42174    42168    42084    42094 
   42273    42484    42684    42932    43066    42842    42295    41804 
   41724    41966    42194    42314    42514    42835    43016    42861 
   42549    42341    42244    42155    42105    42163    42299    42430 
   42530    42668    42807    42739    42402    42051    41945    42082 
   42284    42377    42357    42412    42560    42550    42273    41898 
   41717    41901    42283    42569    42735    42870    42863    42633 
   42350    42205    42164    42070    41886    41866    42244    42828 
   43113    42840    42322    42022    42026    42148    42268    42368 
   42418    42438    42539    42736    42830    42655    42323    42126 
   42221    42465    42561    42425    42271    42280    42364    42350 
   42240    42209    42431    42826    43044    42820    42364    42151 
   42309    42523    42475    42196    42014    42140    42400    42491 
   42400    42358    42404    42381    42252    42128    42107    42237 
   42461    42696    42888    42932    42769    42534    42348    42115 
   41763    41451    41442    41732    42018    42137    42222    42423 
   42669    42747    42660    42642    42768    42877    42849    42714 
   42633    42687    42750    42672    42460    42279    42267    42341 
   42341    42233    42095    42056    42157    42298    42361    42322 
   42269    42346    42562    42738    42684    42376    42009    41833 
   41893    42074    42315    42601    42896    43131    43202    43069 
   42803    42487    42163    41874    41723    41758    41856    41949 
   42183    42558    42815    42790    42588    42435    42456    42553 
   42584    42489    42296    42109    42010    42025    42115    42155 
   42152    42346    42762    43073    43047    42762    42418    42182 
   42113    42124    42141    42217    42341    42473    42676    42867 
   42824    42516    42165    42002    42083    42299    42510    42581 
   42442    42234    42149    42172    42209    42252    42336    42473 
   42566    42498    42348    42275    42268    42249    42207    42207 
   42313    42477    42565    42520    42399    42253    42142    42160 
   42300    42400    42360    42249    42194    42241    42280    42187 
   42111    42277    42562    42696    42668    42647    42728    42847 
   42857    42668    42364    42130    42090    42263    42568    42800 
   42800    42670    42600    42588    42546    42423    42236    42107 
   42144    42282    42458    42638    42672    42469    42171    41962 
   41935    42064    42175    42188    42259    42442    42589    42618 
   42553    42460    42383    42326    42342    42502    42700    42720 
   42519    42295    42194    42110    41889    41644    41648    41939 
   42291    42500    42600    42739    42854    42804    42670    42593 
   42588    42581    42465    42277    42203    42310    42457    42444 
   42232    42020    42033    42255    42411    42373    42344    42515 
   42813    43005    42912    42597    42344    42334    42417    42364 
   42183    42029    42037    42199    42354    42391    42352    42330 
   42407    42585    42766    42869    42842    42655    42408    42240 
   42161    42098    42005    41918    41939    42128    42452    42761 
   42877    42766    42592    42500    42472    42379    42196    42064 
   42132    42367    42550    42511    42311    42165    42234    42457 
   42564    42430    42245    42202    42294    42452    42552    42475 
   42318    42269    42330    42426    42502    42515    42500    42527 
   42592    42601    42466    42240    42074    42051    42133    42225 
   42276    42310    42361    42448    42560    42600    42437    42144 
   42005    42160    42468    42685    42674    42504    42357    42350 
   42421    42406    42264    42149    42230    42506    42736    42695 
   42484    42388    42419    42352    42114    41902    41902    42082 
   42286    42439    42552    42622    42668    42739    42815    42789 
   42624    42437    42367    42404    42390    42226    42043    42052 
   42311    42670    42916    42909    42674    42371    42161    42107 
   42141    42179    42234    42326    42360    42291    42222    42241 
   42334    42402    42358    42284    42302    42353    42326    42294 
   42368    42484    42508    42421    42334    42356    42446    42488 
   42468    42437    42373    42244    42115    42091    42194    42336 
   42371    42265    42144    42084    42102    42207    42338    42422 
   42450    42431    42419    42468    42542    42585    42577    42525 
   42491    42572    42735    42780    42630    42485    42504    42597 
   42595    42445    42272    42240    42319    42372    42371    42361 
   42390    42456    42511    42569    42664    42728    42726    42654 
   42485    42252    42043    41912    41897    41982    42107    42265 
   42394    42392    42306    42241    42205    42157    42103    42110 
   42192    42238    42217    42223    42330    42476    42515    42422 
   42395    42535    42715    42780    42674    42484    42414    42520 
   42634    42564    42275    41985    41982    42265    42539    42593 
   42508    42484    42572    42628    42504    42309    42317    42569 
   42788    42743    42499    42292    42250    42284    42268    42249 
   42327    42479    42639    42757    42765    42661    42489    42295 
   42159    42126    42161    42218    42284    42376    42465    42489 
   42444    42385    42349    42294    42149    41943    41818    41881 
   42093    42340    42516    42572    42562    42560    42565    42557 
   42484    42311    42140    42117    42273    42525    42745    42836 
   42757    42538    42329    42280    42390    42520    42507    42284 
   41986    41820    41898    42180    42468    42560    42464    42327 
