Origin Time       2025/03/30 22:55:00
Lat.              41.993
Long.             142.725
Depth. (km)       55
Mag.              4.6
Station Code      AOM007
Station Lat.      41.1689
Station Long.     141.3845
Station Height(m) 17
Record Time       2025/03/30 22:56:41
Sampling Freq(Hz) 100Hz
Duration Time(s)  60
Dir.              E-W
Scale Factor      7845(gal)/8223790
Max. Acc. (gal)   1.308
Last Correction   2025/03/30 22:56:43
Memo.             
[...]
     133      257      310      261      148       56       17      -13 
     -68     -148     -210     -183      -63       47       72       79 
     137      194      187      121       -1     -156     -247     -217 
    -151     -133     -109        6      178      292      297      230 
     125      -32     -214     -325     -309     -234     -163      -64 
      72      191      263      282      214       74      -62     -128 
    -136     -143     -167     -168     -103        0       89      168 
     263      288      172       20      -64     -118     -183     -222 
    -186      -79       36      108      139      148      129       74 
       9      -27      -29      -32      -58      -90     -108      -82 
      -2       72       94       79       36      -29      -86      -98 
     -52       27       87       97       71       36        0      -37 
     -85     -135     -147      -93       -6       78      153      198 
     178      108       28      -33      -75     -116     -166     -189 
    -166     -118      -40       89      224      267      207      118 
      29      -67     -133     -139     -109      -62       -1       68 
     118      108       63       55       76       70      -13     -137 
    -176     -112      -74      -98     -118      -91        5      116 
     156      160      155      106       22      -89     -179     -156 
     -72      -60      -83      -22      105      206      243      184 
      33     -125     -203     -203     -156      -64       55      153 
     209      209      135       22      -78     -170     -257     -287 
    -190       -1      176      287      322      286      190       54 
     -95     -243     -363     -371     -221       -4      180      290 
     302      213       71      -63     -186     -274     -260     -137 
      32      168      201      120       12      -37       -5       47 
      12     -101     -120       12      101       16     -135     -198 
    -105       89      214      189       93       39       56       75 
     -10     -170     -245     -163      -24       56       68       59 
      64       86      102       93       24      -83     -143     -117 
     -64      -24       28       90      121      102       51      -13 
     -85     -120     -101      -81      -60        4       95      159 
     148       48      -51      -71      -64      -98     -132     -102 
      -6      102      160      152      114       68        5      -70 
    -124     -118      -47       51       93       39      -43      -54 
     -13      -22      -75      -82      -25       41      109      176 
     193      130       35      -48     -108     -140     -139      -85 
      20      110       97      -31     -151     -152      -60       39 
      99       87       40       39       71       70        1      -99 
    -135      -93      -47       -2       76      164      179      114 
      47       -1      -64     -124     -137     -118      -99      -64 
       4       70      108      124      114       47      -68     -147 
    -112        0       86       85       20      -44      -86      -98 
     -52       28       87       98       47      -18      -20        8 
      -8      -24       13       41       17      -10      -10       -8 
      -2       16       29       27       21       18       24       35 
       8      -51      -70      -52      -62      -64       -2       90 
     133       78      -39     -117      -99      -24       41       52 
      -2      -60      -29       66      118       86       25      -10 
     -33      -67     -101     -106      -82      -55      -41       -5 
      79      171      234      252      191       72      -47     -148 
    -209     -220     -230     -224     -129       16      135      233 
     310      274       95      -93     -184     -205     -190     -117 
     -12       62       95      103       81       33        0       20 
      75      101       81       21      -58     -106     -122     -148 
    -163     -117      -21       87      159      155       87      -14 
    -101     -130     -110      -47       47      130      143       60 
     -24       -1       78       74      -43     -151     -136      -35 
      29        8      -31       -1       91      157      120        9 
     -51      -16        9      -63     -153     -133       -5      101 
     112       56       -2      -16        0      -17      -78     -130 
    -103        6       90       87       63       55       21      -39 
     -62      -21       52      120      126       54      -55     -170 
    -257     -228      -49      132      194      179      145       82 
      -1      -64      -93      -91      -66      -17       24       22 
       9       39       86       74       13       -2       47       70 
      13      -72     -108      -59       12       22      -40     -126 
    -141      -49       63      105       91       97      145      172 
      98      -45     -163     -203     -171      -82       20       72 
      60       52       93       99        4     -126     -193     -172 
     -82       39      139      180      143       52       -5        2 
      13      -35     -117     -147      -97      -24       36       75 
      89      114      148      128       28     -113     -225     -232 
    -144      -39       40       76       90      125      171      171 
     108       -4     -121     -176     -156     -108      -64       -2 
      89      157      170      144       72      -55     -189     -256 
    -216     -110      -27       48      166      271      260      118 
     -31      -90     -130     -217     -249     -160      -44       16 
      72      186      294      284      149      -18     -148     -224 
    -240     -191      -74       83      217      252      180      103 
      68        1     -121     -238     -297     -276     -189      -43 
     126      255      306      297      230       97      -76     -217 
    -274     -255     -179      -79        2       98      233      321 
     284      145      -40     -184     -216     -191     -184     -149 
     -54       75      184      203      153      114       82        1 
    -140     -278     -295     -155       16       79       70      118 
     220      255      171        8     -159     -251     -237     -151 
     -62       -4       71      189      290      292      163       -5 
     -85      -89     -110     -152     -179     -168      -91       32 
     128      147      103       39      -20      -86     -174     -217 
    -160      -74      -12      106      284      392      356      190 
     -36     -193     -245     -267     -271     -211      -85       67 
     220      337      348      232       90       -1      -82     -199 
    -334     -417     -368     -170      105      307      338      284 
     249      170        1     -186     -307     -315     -220      -71 
      78      186      224      203      156       76      -43     -139 
    -141      -59       22       37       21       39       66       40 
     -37     -102     -106      -78      -31       36       79       81 
      74       43      -48     -151     -184     -116        6       75 
      76       99      162      175       87      -47     -149     -156 
     -82      -25      -10       41      112      122       90       70 
      54       -2      -81     -139     -155     -128      -81      -31 
      32       78       71       59       78       62      -25     -110 
    -124      -71        1       36       25        5       -1       36 
     116      126       25      -35       48      151      114      -37 
    -163     -167      -70       58      114       45      -68     -108 
     -49       17       -6      -71      -45       43       71       16 
     -29        2       63       44      -33      -94     -118      -93 
     -32        9       52      125      166      135       71       24 
       1      -29      -87     -124      -94      -29       25       40 
       2      -25        0       24       21       35       62       81 
      89       66        9      -60     -124     -156     -151     -116 
     -28       85      149      166      172      155       78      -49 
    -155     -172     -116      -27       40       44       33       41 
      44       37        9      -78     -152     -114      -18       56 
     103      110       60       -5      -29        8       48       29 
     -25      -49      -41      -35      -20        0      -14      -63 
     -45       79      182      144        8     -132     -197     -145 
     -55      -12       35      148      270      291      203       55 
    -125     -255     -244     -163     -114      -79       -4      110 
     203      203      128       41      -31      -78     -103     -143 
    -171     -130      -28       79      128      122      120      144 
     160      124       49      -14      -87     -175     -224     -205 
    -124      -16       95      198      240      195      108      -13 
    -143     -211     -225     -222     -167      -31      136      268 
     336      311      186        8     -153     -276     -352     -341 
    -225      -44      139      287      394      432      363      206 
      25     -167     -348     -442     -421     -326     -186      -10 
     178      355      491      518      372       95     -206     -452 
    -573     -535     -386     -225      -81      122      364      483 
     415      256      122       47      -41     -194     -337     -363 
    -243      -60       63       97       97      118      132       64 
     -76     -198     -217     -151      -83      -59      -52      -32 
      13      108      226      257      140      -52     -217     -292 
    -283     -232     -126       91      357      472      360      144 
     -56     -203     -274     -275     -224     -105       75      240 
     279      164        1     -110     -152     -157     -149     -113 
     -49        0       33       71      102       82       10      -51 
     -62      -45      -20       14       67      143      190      151 
      63       12       -6      -33      -40       16      113      202 
     249      209       89      -28     -110     -182     -253     -299 
    -280     -168       16      176      226      201      186      179 
     125       25      -81     -140     -126      -78      -24       17 
      29       43      105      184      217      198      187      202 
     174       63      -87     -226     -319     -325     -259     -194 
    -155     -129     -101      -49        6       40       41       39 
      94      187      241      260      248      140      -18     -114 
    -133     -109      -49       -6      -13        4       87      137 
      86       -4      -68      -79      -18       75      118       55 
     -37      -70      -22       74      139      108       27      -75 
    -201     -298     -373     -441     -405     -226       40      348 
     598      685      619      472      321      168      -37     -278 
    -461     -518     -486     -459     -438     -360     -195       52 
     317      461      413      249      130      129      129       -4 
    -222     -356     -321     -172       -9      136      252      292 
     260      201      103      -70     -295     -467     -498     -378 
    -153      112      345      484      533      513      390      143 
    -153     -379     -454     -402     -325     -280     -190        6 
     271      508      584      453      217      -40     -278     -417 
    -427     -365     -237      -44      132      233      241      172 
      97       52       17      -24      -76      -97      -44       21 
      31       35       66       76       60       51       62       81 
      51      -85     -302     -522     -645     -603     -434     -218 
      32      348      691      897      830      523      106     -271 
    -518     -633     -614     -442     -132      247      556      673 
     576      329        6     -318     -584     -778     -922     -950 
    -747     -322      171      591      854      892      695      345 
     -10     -249     -309     -176       75      315      484      611 
     691      643      432      110     -209     -440     -530     -510 
    -514     -599     -607     -411     -112      145      329      471 
     546      454      160     -241     -614     -847     -878     -699 
    -336      129      587      939     1105     1008      648      162 
    -276     -607     -788     -747     -529     -234      110      446 
     611      502      171     -211     -502     -638     -602     -399 
     -94      234      495      564      402      140      -70     -159 
     -87      108      301      406      418      333      159      -55 
    -236     -318     -233       29      305      400      314      103 
    -244     -657     -918     -843     -460       66      553      847 
     905      761      461       64     -369     -716     -807     -588 
    -201      136      333      454      531      517      399      211 
      -6     -211     -371     -484     -571     -610     -518     -248 
     159      577      830      797      537      218      -54     -301 
    -531     -684     -699     -567     -287      106      534      891 
    1059      970      622       86     -487     -939    -1179    -1182 
    -945     -534      -81      375      804     1012      842      407 
     -81     -477     -727     -846     -774     -368      301      923 
    1263     1246      864      190     -580    -1173    -1370    -1166 
    -710     -147      383      751      905      865      687      454 
     256       72     -217     -584     -830     -873     -734     -410 
      35      476      788      820      531      105     -237     -422 
    -506     -535     -471     -272        0      210      284      286 
     342      434      413      236      -25     -286     -422     -422 
    -391     -337     -179       94      372      514      498      400 
     271      130        2      -99     -183     -253     -305     -291 
    -168       41      260      407      440      368      213       -9 
    -218     -325     -346     -321     -226      -85        0      -22 
     -70      -37       62      139      159      118       21      -55 
     -91     -167     -249     -228      -87      116      301      356 
     274      159       60      -63     -217     -328     -337     -243 
     -66      168      399      534      469      205      -95     -326 
    -477     -475     -292      -24      237      403      427      341 
     202       91       17     -128     -317     -382     -290     -132 
      45      234      390      437      330       91     -187     -436 
    -608     -638     -483     -195      135      419      587      627 
     584      472      228     -191     -654     -923     -892     -672 
    -399     -109      199      529      838      959      742      282 
    -201     -575     -811     -892     -757     -384      125      616 
     920      954      819      594      243     -206     -645     -959 
   -1034     -808     -363      102      445      657      741      650 
     402       55     -321     -616     -762     -810     -807     -657 
    -257      324      880     1240     1318     1094      594     -102 
    -792    -1221    -1267     -957     -386      260      772     1028 
     986      642      117     -346     -585     -646     -643     -583 
    -418     -137      207      517      707      719      537      248 
     -32     -267     -436     -486     -390     -183       45      201 
     247      253      306      363      305      156        5     -182 
    -452     -680     -708     -514     -139      313      621      646 
     456      159     -166     -419     -537     -514     -346      -43 
     301      531      584      531      436      261      -27     -351 
    -579     -638     -503     -217       72      299      522      669 
     571      256      -82     -299     -346     -272     -190     -184 
    -275     -383     -371     -201       40      282      507      641 
     565      290       -9     -198     -279     -264     -133       70 
     209      186       74       20       39       58       47        9 
     -64     -210     -388     -422     -224       47      224      288 
     241       70     -129     -216     -209     -207     -156       48 
     328      472      382      172       24        9       56       35 
     -89     -191     -166      -45       41      -14     -160     -190 
     -36      157      270      263      166       44      -76     -189 
    -240     -247     -280     -307     -240     -121      -63      -43 
      48      175      218      180      137      102       21      -89 
    -125      -52       74      209      278      198       16     -143 
    -251     -322     -326     -248      -81      133      249      187 
      47      -41      -58      -29       27      103      175      206 
     186      136       81       58       91      128      101       -6 
    -157     -263     -257     -180      -89      -16       -2      -83 
    -233     -349     -324     -125      174      450      571      463 
     163     -207     -504     -585     -394      -31      305      498 
     530      384       90     -213     -426     -518     -441     -201 
      93      352      513      513      364      135     -139     -399 
    -523     -454     -279     -105       49      184      225      139 
      40       32       63       54       22       44      113      143 
     126       98        9     -156     -274     -222      -59       36 
      14        8       68       95       21      -70      -67       29 
     122      139       75      -32     -140     -209     -202     -106 
      27      136      222      267      187      -27     -237     -290 
    -209     -144     -120      -39      132      338      457      383 
     176        5      -93     -210     -387     -560     -608     -464 
    -198       86      351      564      675      625      402      106 
    -124     -237     -267     -263     -214     -106       -6       52 
      89       68      -14      -82      -67       27      116      128 
      68      -27      -90      -68      -41      -58      -62      -67 
    -117     -143     -102      -56      -24       55      184      282 
     291      237      168       89      -25     -176     -330     -421 
    -380     -245      -85       91      255      368      457      480 
     317       35     -167     -243     -256     -214     -147      -93 
     -31       52       89       -8     -197     -319     -286     -137 
      66      260      379      402      318      135      -66     -162 
    -147      -98      -54      -40      -94     -166     -151      -39 
      91      171      176      153      162      175      132       18 
    -135     -283     -361     -319     -174       -6      136      241 
     276      228      140       49      -27      -60      -56      -58 
     -55      -28       -8       45      172      256      211       97 
     -28     -137     -206     -236     -217     -137      -27       41 
      16      -59      -91      -49       58      180      210      114 
      -9      -83     -153     -245     -295     -243      -68      151 
     299      336      279      163       21     -128     -264     -330 
