Origin Time       2025/03/30 22:55:00
Lat.              41.993
Long.             142.725
Depth. (km)       55
Mag.              4.6
Station Code      AOM011
Station Lat.      40.6803
Station Long.     141.3669
Station Height(m) 43
Record Time       2025/03/30 22:56:48
Sampling Freq(Hz) 100Hz
Duration Time(s)  60
Dir.              N-S
Scale Factor      7845(gal)/8223790
Max. Acc. (gal)   1.857
Last Correction   2025/03/30 22:56:49
Memo.             
[...]
   -8316    -8329    -8168    -7948    -7816    -7809    -7892    -8009 
   -8121    -8212    -8226    -8105    -7898    -7731    -7650    -7635 
   -7677    -7797    -7993    -8190    -8282    -8212    -8046    -7929 
   -7963    -8110    -8198    -8120    -7970    -7896    -7917    -7958 
   -7981    -8023    -8091    -8149    -8187    -8186    -8109    -7994 
   -7947    -8005    -8081    -8079    -8012    -7948    -7905    -7862 
   -7808    -7736    -7674    -7685    -7794    -7973    -8159    -8297 
   -8371    -8384    -8325    -8191    -8016    -7846    -7755    -7809 
   -7952    -8078    -8155    -8205    -8209    -8140    -8005    -7844 
   -7707    -7634    -7642    -7754    -7955    -8154    -8286    -8359 
   -8375    -8326    -8217    -8064    -7905    -7786    -7742    -7765 
   -7803    -7848    -7939    -8044    -8102    -8113    -8110    -8086 
   -8029    -7973    -7975    -8048    -8124    -8140    -8098    -8033 
   -7952    -7866    -7809    -7809    -7888    -8046    -8206    -8260 
   -8185    -8077    -8036    -8028    -7975    -7909    -7919    -8014 
   -8074    -7987    -7828    -7746    -7792    -7913    -8029    -8102 
   -8154    -8186    -8159    -8087    -8016    -7955    -7920    -7955 
   -8082    -8245    -8349    -8303    -8117    -7915    -7793    -7755 
   -7763    -7770    -7773    -7820    -7888    -7912    -7902    -7909 
   -7954    -8036    -8136    -8229    -8311    -8394    -8465    -8465 
   -8325    -8081    -7870    -7777    -7781    -7816    -7807    -7730 
   -7649    -7622    -7655    -7743    -7885    -8064    -8220    -8295 
   -8298    -8259    -8224    -8226    -8233    -8183    -8075    -7990 
   -8017    -8124    -8181    -8112    -7923    -7697    -7545    -7506 
   -7550    -7647    -7780    -7939    -8085    -8190    -8290    -8391 
   -8448    -8425    -8341    -8213    -8024    -7800    -7662    -7720 
   -7932    -8154    -8244    -8172    -8017    -7875    -7788    -7747 
   -7744    -7804    -7944    -8098    -8176    -8158    -8064    -7958 
   -7906    -7919    -7948    -7990    -8058    -8140    -8220    -8295 
   -8347    -8313    -8147    -7915    -7742    -7693    -7759    -7889 
   -7982    -7985    -7946    -7936    -7993    -8094    -8167    -8176 
   -8164    -8133    -8036    -7882    -7731    -7647    -7686    -7812 
   -7950    -8074    -8139    -8136    -8131    -8156    -8198    -8253 
   -8298    -8284    -8172    -7978    -7801    -7739    -7798    -7927 
   -8066    -8170    -8199    -8151    -8032    -7861    -7707    -7631 
   -7626    -7681    -7785    -7884    -7948    -7992    -8054    -8191 
   -8361    -8449    -8432    -8390    -8355    -8295    -8185    -8017 
   -7838    -7690    -7597    -7608    -7723    -7852    -7902    -7844 
   -7757    -7767    -7908    -8109    -8289    -8374    -8345    -8286 
   -8256    -8216    -8132    -8039    -7977    -7965    -7956    -7877 
   -7767    -7720    -7750    -7830    -7925    -7969    -7966    -7997 
   -8052    -8060    -8004    -7955    -8006    -8141    -8259    -8303 
   -8276    -8208    -8132    -8078    -8047    -8005    -7948    -7878 
   -7788    -7717    -7696    -7715    -7819    -8023    -8251    -8422 
   -8476    -8391    -8203    -7977    -7778    -7638    -7596    -7717 
   -7959    -8163    -8233    -8176    -8070    -8010    -8020    -8062 
   -8118    -8141    -8085    -7986    -7885    -7766    -7661    -7658 
   -7780    -7933    -8040    -8086    -8098    -8135    -8194    -8201 
   -8163    -8166    -8233    -8290    -8239    -8059    -7817    -7607 
   -7515    -7578    -7747    -7940    -8102    -8199    -8198    -8089 
   -7942    -7847    -7836    -7919    -8079    -8237    -8333    -8392 
   -8421    -8367    -8222    -8062    -7966    -7927    -7875    -7792 
   -7684    -7566    -7504    -7534    -7624    -7785    -8010    -8220 
   -8334    -8344    -8302    -8262    -8214    -8152    -8110    -8104 
   -8108    -8086    -8040    -8013    -8033    -8078    -8077    -7974 
   -7811    -7689    -7677    -7796    -7979    -8112    -8152    -8116 
   -8021    -7923    -7869    -7861    -7888    -7924    -7951    -7974 
   -8013    -8086    -8182    -8276    -8360    -8388    -8290    -8070 
   -7801    -7577    -7484    -7555    -7757    -8012    -8244    -8403 
   -8460    -8378    -8170    -7940    -7809    -7811    -7875    -7893 
   -7838    -7817    -7911    -8074    -8228    -8295    -8232    -8087 
   -7955    -7884    -7850    -7789    -7717    -7731    -7862    -8060 
   -8262    -8391    -8380    -8243    -8078    -7971    -7917    -7888 
   -7888    -7940    -8027    -8098    -8145    -8167    -8114    -7986 
   -7859    -7780    -7747    -7750    -7750    -7749    -7767    -7809 
   -7894    -8044    -8218    -8363    -8459    -8468    -8364    -8206 
   -8082    -8010    -7963    -7938    -7974    -8077    -8149    -8086 
   -7924    -7798    -7762    -7773    -7796    -7835    -7896    -7944 
   -7959    -7965    -7973    -7989    -8037    -8086    -8102    -8091 
   -8089    -8125    -8182    -8205    -8181    -8127    -8077    -8055 
   -8037    -7983    -7901    -7834    -7785    -7735    -7690    -7688 
   -7789    -7996    -8194    -8283    -8289    -8267    -8212    -8106 
   -7975    -7897    -7928    -8012    -8037    -7977    -7850    -7740 
   -7763    -7923    -8118    -8257    -8295    -8243    -8145    -8028 
   -7920    -7869    -7888    -7925    -7927    -7896    -7888    -7942 
   -8029    -8100    -8136    -8152    -8158    -8156    -8154    -8114 
   -8025    -7960    -7974    -8000    -7936    -7790    -7650    -7562 
   -7578    -7753    -8028    -8283    -8438    -8467    -8401    -8297 
   -8170    -8036    -7928    -7859    -7823    -7820    -7858    -7921 
   -7982    -8031    -8102    -8206    -8259    -8195    -8048    -7875 
   -7749    -7732    -7827    -7977    -8098    -8125    -8056    -7950 
   -7873    -7861    -7933    -8055    -8128    -8105    -8041    -8017 
   -8027    -8001    -7944    -7901    -7881    -7908    -8002    -8097 
   -8118    -8089    -8083    -8143    -8217    -8232    -8182    -8085 
   -7962    -7852    -7794    -7793    -7800    -7786    -7780    -7792 
   -7848    -7982    -8174    -8348    -8446    -8449    -8357    -8185 
   -7969    -7778    -7665    -7635    -7680    -7782    -7924    -8067 
   -8141    -8129    -8095    -8081    -8070    -8047    -8008    -7990 
   -8050    -8164    -8252    -8253    -8176    -8070    -7996    -7960 
   -7902    -7803    -7742    -7780    -7863    -7920    -7975    -8079 
   -8197    -8256    -8226    -8109    -7954    -7836    -7808    -7858 
   -7901    -7870    -7838    -7897    -8035    -8166    -8222    -8199 
   -8125    -8036    -7996    -8020    -8032    -7994    -7970    -8010 
   -8063    -8035    -7925    -7819    -7784    -7812    -7871    -7979 
   -8127    -8229    -8222    -8127    -8013    -7956    -7977    -8035 
   -8108    -8176    -8201    -8144    -7989    -7763    -7595    -7599 
   -7740    -7909    -8070    -8221    -8328    -8340    -8260    -8160 
   -8112    -8101    -8054    -7915    -7735    -7635    -7649    -7742 
   -7900    -8087    -8252    -8349    -8314    -8148    -7950    -7803 
   -7750    -7790    -7870    -7956    -8047    -8122    -8198    -8270 
   -8291    -8221    -8082    -7950    -7875    -7855    -7874    -7917 
   -7946    -7943    -7943    -7993    -8070    -8106    -8085    -8028 
   -7963    -7901    -7851    -7857    -7951    -8110    -8275    -8399 
   -8446    -8378    -8170    -7896    -7674    -7546    -7501    -7554 
   -7713    -7955    -8209    -8364    -8340    -8179    -8008    -7913 
   -7902    -7929    -7954    -7981    -8048    -8139    -8151    -8058 
   -7955    -7919    -7925    -7931    -7978    -8101    -8213    -8212 
   -8079    -7898    -7782    -7774    -7839    -7936    -8035    -8131 
   -8206    -8202    -8117    -8059    -8079    -8100    -8063    -8016 
   -7990    -7943    -7848    -7753    -7726    -7798    -7933    -8078 
   -8202    -8280    -8284    -8218    -8139    -8100    -8087    -8066 
   -8024    -7965    -7870    -7753    -7704    -7751    -7823    -7879 
   -7901    -7885    -7886    -7927    -7997    -8085    -8155    -8214 
   -8280    -8295    -8235    -8160    -8131    -8185    -8259    -8209 
   -7993    -7717    -7515    -7466    -7581    -7757    -7897    -8023 
   -8151    -8240    -8266    -8239    -8172    -8120    -8110    -8110 
   -8105    -8073    -7978    -7858    -7785    -7773    -7828    -7944 
   -8059    -8112    -8087    -8010    -7923    -7874    -7884    -7959 
   -8093    -8208    -8213    -8121    -8044    -8023    -7977    -7873 
   -7785    -7765    -7781    -7805    -7871    -8025    -8244    -8397 
   -8370    -8187    -7978    -7832    -7762    -7776    -7898    -8087 
   -8256    -8351    -8322    -8148    -7936    -7847    -7927    -8060 
   -8129    -8100    -7977    -7835    -7771    -7797    -7858    -7919 
   -7978    -8051    -8112    -8154    -8166    -8095    -7952    -7854 
   -7894    -8054    -8232    -8301    -8198    -7994    -7839    -7813 
   -7858    -7919    -8009    -8108    -8124    -8052    -7963    -7904 
   -7889    -7911    -7928    -7946    -8006    -8097    -8141    -8087 
   -7982    -7924    -7938    -7967    -7952    -7905    -7925    -8051 
   -8164    -8176    -8133    -8128    -8159    -8137    -8027    -7909 
   -7866    -7902    -7958    -7969    -7954    -7987    -8070    -8104 
   -8041    -7947    -7897    -7901    -7896    -7847    -7825    -7896 
   -8052    -8243    -8379    -8388    -8279    -8100    -7920    -7811 
   -7807    -7867    -7923    -7963    -8032    -8120    -8155    -8094 
   -7975    -7909    -7942    -7993    -8013    -8010    -8005    -8020 
   -8037    -8024    -7985    -7933    -7904    -7932    -7996    -8041 
   -8059    -8064    -8075    -8059    -8004    -7979    -8021    -8074 
   -8089    -8060    -8032    -8027    -8017    -7974    -7893    -7774 
   -7653    -7578    -7584    -7712    -7952    -8218    -8409    -8484 
   -8484    -8463    -8398    -8286    -8158    -8029    -7919    -7848 
   -7839    -7908    -8006    -8001    -7808    -7504    -7314    -7396 
   -7666    -7967    -8243    -8425    -8453    -8365    -8243    -8144 
   -8093    -8093    -8163    -8271    -8282    -8151    -8009    -7959 
   -7962    -7951    -7879    -7766    -7707    -7744    -7819    -7824 
   -7751    -7742    -7867    -8033    -8152    -8224    -8247    -8208 
   -8143    -8120    -8121    -8113    -8124    -8143    -8108    -8001 
   -7855    -7722    -7674    -7750    -7901    -8059    -8185    -8248 
   -8210    -8110    -8043    -8024    -8002    -7989    -8036    -8110 
   -8139    -8074    -7932    -7801    -7780    -7889    -8070    -8235 
   -8311    -8282    -8168    -8019    -7923    -7936    -8000    -8027 
   -7987    -7917    -7879    -7875    -7840    -7759    -7711    -7759 
   -7898    -8040    -8078    -7996    -7861    -7788    -7867    -8047 
   -8193    -8244    -8226    -8193    -8144    -8055    -7967    -7943 
   -7989    -8087    -8176    -8149    -8005    -7852    -7785    -7835 
   -7948    -8008    -7959    -7873    -7838    -7877    -7966    -8085 
   -8208    -8311    -8375    -8368    -8263    -8085    -7923    -7877 
   -7948    -7992    -7889    -7699    -7573    -7596    -7744    -7933 
   -8054    -8051    -7996    -7975    -7969    -7939    -7917    -7923 
   -7944    -7977    -7970    -7874    -7758    -7762    -7897    -8035 
   -8108    -8145    -8172    -8194    -8225    -8260    -8276    -8282 
   -8294    -8299    -8287    -8259    -8187    -8054    -7873    -7657 
   -7454    -7345    -7408    -7681    -8091    -8478    -8718    -8797 
   -8734    -8533    -8235    -7932    -7758    -7786    -7929    -8067 
   -8167    -8210    -8189    -8137    -8095    -8063    -8019    -7933 
   -7780    -7562    -7368    -7304    -7399    -7587    -7831    -8141 
   -8437    -8568    -8496    -8324    -8166    -8013    -7793    -7522 
   -7329    -7317    -7449    -7618    -7785    -7963    -8131    -8247 
   -8303    -8303    -8271    -8263    -8283    -8252    -8198    -8294 
   -8595    -8920    -9058    -8951    -8679    -8341    -8012    -7717 
   -7481    -7379    -7439    -7555    -7632    -7685    -7720    -7723 
   -7730    -7811    -7974    -8168    -8321    -8337    -8178    -7996 
   -7993    -8159    -8266    -8152    -7866    -7545    -7281    -7095 
   -6980    -6987    -7177    -7553    -8019    -8457    -8787    -8966 
   -9007    -8978    -8919    -8785    -8522    -8143    -7724    -7319 
   -7025    -7006    -7234    -7506    -7744    -8001    -8241    -8375 
   -8353    -8217    -8093    -8102    -8251    -8432    -8514    -8433 
   -8233    -8001    -7803    -7674    -7565    -7393    -7179    -7032 
   -7069    -7326    -7681    -7987    -8208    -8382    -8546    -8708 
   -8829    -8846    -8742    -8572    -8386    -8191    -7962    -7707 
   -7578    -7703    -7975    -8201    -8262    -8155    -7983    -7859 
   -7805    -7796    -7776    -7699    -7550    -7334    -7161    -7217 
   -7541    -7997    -8428    -8695    -8764    -8729    -8692    -8706 
   -8785    -8896    -8968    -8938    -8766    -8445    -7967    -7380 
   -6868    -6629    -6729    -7064    -7445    -7744    -7901    -7881 
   -7781    -7754    -7901    -8252    -8712    -9134    -9382    -9315 
   -8950    -8498    -8140    -7947    -7825    -7614    -7302    -7025 
   -6868    -6790    -6686    -6561    -6556    -6797    -7310    -8033 
   -8791    -9406    -9814    -9954    -9779    -9378    -8904    -8478 
   -8162    -7894    -7592    -7290    -7094    -7055    -7125    -7242 
   -7389    -7592    -7935    -8410    -8799    -8903    -8748    -8500 
   -8302    -8175    -8074    -8014    -8048    -8141    -8166    -7959 
   -7473    -6905    -6561    -6598    -6943    -7423    -7900    -8257 
   -8407    -8407    -8413    -8496    -8629    -8773    -8892    -8937 
   -8897    -8802    -8615    -8252    -7734    -7190    -6756    -6528 
   -6542    -6764    -7130    -7576    -8041    -8456    -8764    -8934 
   -8950    -8857    -8708    -8523    -8357    -8183    -7873    -7446 
   -7118    -7075    -7299    -7609    -7873    -8051    -8122    -8105 
   -8059    -8043    -8122    -8330    -8603    -8829    -8881    -8708 
   -8406    -8133    -7963    -7848    -7738    -7678    -7734    -7863 
   -7923    -7763    -7410    -7091    -7052    -7379    -7904    -8328 
   -8503    -8536    -8567    -8631    -8677    -8683    -8708    -8721 
   -8557    -8167    -7689    -7312    -7176    -7290    -7562    -7884 
   -8112    -8117    -7892    -7550    -7283    -7254    -7438    -7669 
   -7847    -7996    -8171    -8341    -8371    -8176    -7901    -7797 
   -7915    -8077    -8129    -8059    -7947    -7871    -7843    -7851 
   -7897    -7960    -8013    -8051    -8056    -8068    -8182    -8405 
   -8627    -8685    -8502    -8174    -7846    -7685    -7820    -8159 
   -8467    -8617    -8633    -8575    -8475    -8326    -8148    -7997 
   -7886    -7792    -7695    -7585    -7493    -7422    -7360    -7344 
   -7443    -7736    -8212    -8658    -8824    -8623    -8129    -7522 
   -7021    -6793    -6928    -7433    -8141    -8756    -9039    -8950 
   -8653    -8365    -8202    -8202    -8351    -8542    -8630    -8479 
   -8046    -7496    -7109    -7049    -7334    -7819    -8243    -8432 
   -8438    -8410    -8402    -8401    -8428    -8509    -8584    -8534 
   -8289    -7894    -7497    -7238    -7192    -7356    -7641    -7963 
   -8306    -8608    -8730    -8560    -8137    -7641    -7276    -7172 
   -7325    -7595    -7793    -7805    -7665    -7514    -7441    -7418 
   -7425    -7493    -7662    -7959    -8324    -8622    -8787    -8857 
   -8862    -8795    -8649    -8413    -8122    -7873    -7681    -7492 
   -7314    -7233    -7331    -7616    -7920    -8025    -7886    -7654 
   -7560    -7692    -7947    -8259    -8633    -9009    -9271    -9281 
   -9020    -8667    -8407    -8262    -8104    -7840    -7528    -7272 
   -7126    -7110    -7175    -7277    -7470    -7816    -8294    -8757 
   -9018    -8997    -8716    -8255    -7734    -7260    -6994    -7102 
   -7492    -7912    -8168    -8136    -7896    -7695    -7638    -7653 
   -7647    -7595    -7545    -7609    -7873    -8275    -8710    -9112 
   -9364    -9298    -8880    -8239    -7574    -7084    -6890    -7002 
   -7308    -7627    -7820    -7875    -7857    -7834    -7879    -8055 
   -8320    -8526    -8583    -8575    -8645    -8819    -9026    -9142 
   -8985    -8544    -8066    -7739    -7530    -7372    -7276    -7288 
   -7453    -7750    -8095    -8374    -8452    -8278    -7912    -7515 
   -7334    -7500    -7908    -8347    -8608    -8584    -8311    -7924 
   -7603    -7514    -7659    -7911    -8172    -8357    -8387    -8286 
   -8129    -7990    -7975    -8097    -8189    -8132    -7971    -7762 
   -7542    -7391    -7437    -7689    -7951    -8020    -7913    -7788 
   -7808    -8047    -8428    -8757    -8856    -8640    -8176    -7672 
   -7369    -7389    -7668    -8005    -8170    -8074    -7840    -7653 
   -7624    -7773    -7973    -8089    -8114    -8085    -8006    -7924 
   -7936    -8075    -8282    -8473    -8594    -8607    -8476    -8167 
   -7731    -7334    -7152    -7281    -7719    -8302    -8815    -9142 
   -9238    -9139    -8945    -8665    -8267    -7824    -7453    -7210 
   -7068    -6952    -6791    -6563    -6357    -6392    -6816    -7534 
   -8302    -8910    -9255    -9328    -9216    -9058    -8874    -8600 
   -8287    -8070    -8048    -8155    -8117    -7784    -7321    -6971 
   -6874    -7049    -7422    -7871    -8262    -8521    -8677    -8749 
   -8764    -8818    -8920    -8931    -8684    -8189    -7676    -7341 
   -7192    -7179    -7295    -7555    -7869    -8025    -7936    -7738 
   -7661    -7886    -8394    -8947    -9343    -9521    -9414    -8978 
   -8365    -7863    -7649    -7651    -7689    -7618    -7365    -7014 
   -6756    -6685    -6782    -7025    -7383    -7785    -8128    -8333 
   -8364    -8257    -8148    -8121    -8125    -8133    -8187    -8305 
   -8472    -8648    -8762    -8764    -8685    -8595    -8445    -8118 
   -7680    -7317    -7144    -7184    -7353    -7511    -7591    -7573 
   -7464    -7387    -7499    -7832    -8289    -8706    -8914    -8819 
   -8448    -7974    -7655    -7611    -7800    -8110    -8367    -8415 
   -8244    -7971    -7736    -7627    -7693    -7904    -8132    -8253 
   -8206    -7959    -7573    -7183    -6907    -6840    -7036    -7472 
   -8023    -8503    -8807    -8916    -8830    -8650    -8527    -8479 
   -8375    -8100    -7712    -7383    -7238    -7294    -7487    -7759 
   -8132    -8610    -9094    -9396    -9329    -8954    -8572    -8383 
   -8309    -8195    -7944    -7566    -7169    -6878    -6790    -6953 
   -7299    -7732    -8148    -8392    -8395    -8301    -8268    -8298 
   -8395    -8552    -8608    -8440    -8127    -7759    -7365    -7036 
   -6863    -6890    -7169    -7653    -8156    -8498    -8604    -8550 
   -8479    -8505    -8661    -8868    -9004    -9019    -8908    -8665 
   -8351    -8127    -8109    -8243    -8353    -8259    -7892    -7381 
   -6964    -6795    -6901    -7191    -7507    -7716    -7800    -7836 
   -7898    -7996    -8091    -8178    -8263    -8310    -8299    -8279 
