Origin Time       2025/03/30 22:55:00
Lat.              41.993
Long.             142.725
Depth. (km)       55
Mag.              4.6
Station Code      AOM012
Station Lat.      40.5127
Station Long.     141.4880
Station Height(m) 12
Record Time       2025/03/30 22:56:52
Sampling Freq(Hz) 100Hz
Duration Time(s)  60
Dir.              U-D
Scale Factor      7845(gal)/8223790
Max. Acc. (gal)   0.848
Last Correction   2025/03/30 22:56:52
Memo.             
[...]
  -14796   -14805   -14802   -14764   -14661   -14615   -14710   -14832 
  -14875   -14825   -14708   -14584   -14521   -14577   -14759   -14941 
  -14940   -14759   -14562   -14457   -14508   -14697   -14872   -14948 
  -14906   -14750   -14625   -14661   -14763   -14818   -14817   -14781 
  -14717   -14621   -14570   -14689   -14867   -14882   -14723   -14530 
  -14439   -14535   -14760   -14901   -14833   -14739   -14806   -14914 
  -14885   -14724   -14600   -14619   -14631   -14539   -14557   -14783 
  -14971   -14918   -14701   -14547   -14615   -14790   -14804   -14662 
  -14623   -14737   -14806   -14754   -14683   -14683   -14786   -14858 
  -14750   -14624   -14639   -14704   -14762   -14777   -14721   -14719 
  -14767   -14752   -14716   -14732   -14791   -14836   -14806   -14710 
  -14628   -14643   -14704   -14700   -14648   -14613   -14654   -14752 
  -14725   -14584   -14592   -14778   -14952   -15017   -14952   -14802 
  -14717   -14732   -14712   -14640   -14589   -14597   -14717   -14863 
  -14813   -14588   -14477   -14640   -14879   -14885   -14624   -14404 
  -14521   -14870   -15076   -15002   -14793   -14665   -14725   -14802 
  -14713   -14608   -14638   -14683   -14693   -14759   -14827   -14796 
  -14700   -14619   -14642   -14751   -14797   -14740   -14658   -14621 
  -14686   -14800   -14836   -14778   -14716   -14683   -14670   -14696 
  -14742   -14748   -14744   -14746   -14700   -14670   -14739   -14832 
  -14850   -14790   -14715   -14674   -14709   -14785   -14773   -14679 
  -14619   -14597   -14598   -14602   -14620   -14737   -14885   -14877 
  -14758   -14715   -14748   -14747   -14685   -14644   -14710   -14836 
  -14858   -14710   -14547   -14566   -14736   -14864   -14867   -14786 
  -14688   -14642   -14659   -14681   -14696   -14729   -14755   -14793 
  -14879   -14893   -14782   -14673   -14638   -14656   -14655   -14581 
  -14578   -14725   -14836   -14802   -14721   -14704   -14763   -14812 
  -14798   -14771   -14751   -14744   -14739   -14709   -14674   -14663 
  -14648   -14623   -14636   -14698   -14769   -14801   -14764   -14693 
  -14665   -14696   -14751   -14767   -14713   -14701   -14833   -14966 
  -14912   -14751   -14642   -14589   -14582   -14650   -14754   -14829 
  -14843   -14752   -14605   -14523   -14582   -14782   -14970   -14916 
  -14679   -14534   -14562   -14690   -14824   -14836   -14732   -14656 
  -14635   -14659   -14779   -14921   -14924   -14763   -14592   -14551 
  -14616   -14692   -14728   -14740   -14789   -14825   -14762   -14671 
  -14644   -14709   -14858   -14902   -14736   -14601   -14671   -14824 
  -14925   -14866   -14663   -14536   -14578   -14662   -14710   -14725 
  -14717   -14727   -14763   -14736   -14646   -14648   -14729   -14755 
  -14744   -14746   -14764   -14752   -14621   -14515   -14636   -14879 
  -14986   -14827   -14547   -14443   -14567   -14769   -14921   -14951 
  -14887   -14782   -14670   -14685   -14824   -14893   -14804   -14640 
  -14517   -14469   -14546   -14804   -15043   -15014   -14752   -14481 
  -14449   -14694   -14924   -14881   -14662   -14544   -14648   -14809 
  -14820   -14686   -14589   -14647   -14786   -14845   -14747   -14586 
  -14546   -14670   -14850   -14956   -14902   -14756   -14697   -14740 
  -14774   -14733   -14638   -14605   -14720   -14859   -14882   -14786 
  -14647   -14592   -14651   -14685   -14644   -14639   -14667   -14678 
  -14723   -14809   -14851   -14806   -14713   -14656   -14669   -14693 
  -14710   -14733   -14770   -14793   -14770   -14720   -14658   -14608 
  -14631   -14708   -14798   -14847   -14760   -14650   -14715   -14854 
  -14879   -14781   -14632   -14586   -14713   -14858   -14881   -14806 
  -14706   -14675   -14743   -14759   -14652   -14613   -14709   -14796 
  -14810   -14742   -14621   -14635   -14796   -14836   -14662   -14508 
  -14567   -14751   -14841   -14701   -14446   -14400   -14648   -14921 
  -14975   -14837   -14756   -14835   -14882   -14813   -14754   -14781 
  -14847   -14802   -14646   -14584   -14702   -14874   -14906   -14733 
  -14538   -14524   -14650   -14697   -14559   -14466   -14632   -14870 
  -14910   -14779   -14652   -14666   -14812   -14920   -14864   -14710 
  -14597   -14600   -14736   -14891   -14881   -14748   -14679   -14681 
  -14694   -14702   -14659   -14608   -14629   -14674   -14692   -14712 
  -14766   -14836   -14875   -14855   -14796   -14736   -14688   -14642 
  -14654   -14728   -14763   -14762   -14782   -14748   -14636   -14548 
  -14598   -14786   -14883   -14785   -14696   -14710   -14728   -14704 
  -14642   -14596   -14669   -14805   -14852   -14812   -14783   -14737 
  -14636   -14590   -14644   -14715   -14744   -14733   -14716   -14725 
  -14756   -14783   -14785   -14781   -14798   -14816   -14814   -14744 
  -14616   -14573   -14640   -14706   -14720   -14731   -14796   -14856 
  -14804   -14705   -14715   -14824   -14868   -14775   -14639   -14548 
  -14539   -14615   -14746   -14839   -14789   -14683   -14666   -14677 
  -14669   -14702   -14704   -14628   -14638   -14796   -14908   -14866 
  -14767   -14731   -14775   -14793   -14720   -14655   -14642   -14716 
  -14895   -14959   -14769   -14543   -14485   -14567   -14656   -14688 
  -14702   -14742   -14833   -14966   -14982   -14760   -14473   -14412 
  -14613   -14859   -14960   -14867   -14658   -14526   -14589   -14763 
  -14871   -14828   -14698   -14588   -14577   -14669   -14740   -14750 
  -14786   -14841   -14818   -14690   -14562   -14636   -14863   -14908 
  -14697   -14520   -14588   -14810   -14918   -14820   -14704   -14685 
  -14729   -14821   -14897   -14868   -14736   -14601   -14588   -14690 
  -14791   -14836   -14833   -14775   -14644   -14508   -14504   -14647 
  -14790   -14824   -14759   -14652   -14592   -14636   -14742   -14847 
  -14893   -14828   -14739   -14694   -14619   -14605   -14801   -14991 
  -14913   -14608   -14339   -14403   -14762   -15022   -14958   -14737 
  -14642   -14740   -14862   -14851   -14743   -14685   -14689   -14621 
  -14509   -14513   -14625   -14725   -14743   -14715   -14713   -14719 
  -14731   -14786   -14851   -14836   -14701   -14611   -14709   -14840 
  -14831   -14713   -14635   -14716   -14872   -14935   -14836   -14652 
  -14597   -14685   -14697   -14621   -14662   -14863   -15033   -14933 
  -14588   -14342   -14435   -14715   -14860   -14737   -14547   -14565 
  -14774   -14939   -14944   -14899   -14840   -14670   -14465   -14400 
  -14562   -14953   -15275   -15168   -14782   -14519   -14500   -14570 
  -14588   -14613   -14755   -14883   -14789   -14562   -14543   -14763 
  -14893   -14790   -14601   -14511   -14593   -14712   -14752   -14843 
  -15005   -15034   -14883   -14663   -14484   -14480   -14661   -14824 
  -14823   -14724   -14666   -14701   -14750   -14725   -14678   -14679 
  -14685   -14679   -14706   -14736   -14728   -14698   -14647   -14635 
  -14766   -14964   -15016   -14833   -14586   -14528   -14670   -14796 
  -14751   -14605   -14570   -14733   -14933   -14980   -14821   -14592 
  -14507   -14600   -14775   -14922   -14912   -14751   -14638   -14706 
  -14866   -14898   -14740   -14558   -14486   -14524   -14615   -14673 
  -14709   -14817   -14941   -14929   -14760   -14601   -14592   -14677 
  -14775   -14816   -14740   -14663   -14696   -14747   -14751   -14739 
  -14724   -14688   -14632   -14661   -14764   -14789   -14775   -14820 
  -14840   -14736   -14531   -14428   -14585   -14847   -14987   -14967 
  -14862   -14755   -14701   -14705   -14693   -14629   -14636   -14762 
  -14860   -14804   -14644   -14573   -14656   -14732   -14723   -14706 
  -14702   -14690   -14663   -14665   -14779   -14891   -14844   -14748 
  -14709   -14685   -14655   -14623   -14635   -14758   -14912   -14920 
  -14760   -14611   -14571   -14629   -14727   -14775   -14736   -14665 
  -14613   -14647   -14769   -14875   -14960   -15006   -14924   -14764 
  -14615   -14489   -14485   -14615   -14750   -14773   -14675   -14601 
  -14635   -14704   -14770   -14837   -14887   -14832   -14634   -14511 
  -14600   -14754   -14847   -14824   -14697   -14601   -14624   -14715 
  -14744   -14705   -14743   -14841   -14874   -14823   -14728   -14713 
  -14810   -14860   -14806   -14720   -14678   -14704   -14708   -14665 
  -14671   -14704   -14693   -14661   -14661   -14712   -14731   -14678 
  -14663   -14727   -14827   -14917   -14868   -14669   -14528   -14613 
  -14798   -14821   -14685   -14613   -14716   -14883   -14864   -14661 
  -14551   -14597   -14710   -14845   -14879   -14820   -14755   -14669 
  -14634   -14723   -14841   -14875   -14732   -14493   -14434   -14640 
  -14902   -14975   -14874   -14789   -14769   -14759   -14766   -14778 
  -14831   -14883   -14746   -14481   -14351   -14453   -14732   -15002 
  -14997   -14697   -14374   -14287   -14474   -14800   -15057   -15113 
  -14941   -14636   -14459   -14608   -14905   -15034   -14898   -14658 
  -14505   -14476   -14590   -14831   -14997   -14971   -14817   -14638 
  -14540   -14557   -14631   -14751   -14878   -14890   -14746   -14575 
  -14562   -14715   -14824   -14750   -14607   -14517   -14535   -14681 
  -14814   -14832   -14808   -14762   -14704   -14693   -14708   -14715 
  -14727   -14733   -14702   -14690   -14781   -14897   -14917   -14836 
  -14674   -14547   -14569   -14629   -14632   -14625   -14673   -14791 
  -14885   -14812   -14636   -14542   -14605   -14742   -14791   -14736 
  -14715   -14770   -14808   -14789   -14781   -14802   -14775   -14667 
  -14543   -14531   -14663   -14809   -14909   -14948   -14845   -14708 
  -14746   -14932   -15076   -15006   -14728   -14445   -14382   -14594 
  -14794   -14709   -14530   -14536   -14710   -14863   -14816   -14635 
  -14523   -14535   -14667   -14866   -14978   -14920   -14763   -14692 
  -14777   -14851   -14729   -14438   -14250   -14443   -14908   -15249 
  -15252   -14994   -14675   -14474   -14482   -14604   -14647   -14607 
  -14605   -14701   -14905   -15114   -15140   -14958   -14701   -14500 
  -14412   -14422   -14531   -14732   -14916   -14982   -14918   -14809 
  -14746   -14717   -14692   -14638   -14578   -14646   -14801   -14879 
  -14870   -14796   -14717   -14735   -14806   -14823   -14705   -14488 
  -14377   -14446   -14547   -14663   -14841   -14970   -14962   -14893 
  -14806   -14661   -14473   -14376   -14445   -14590   -14690   -14716 
  -14725   -14797   -14914   -15002   -15007   -14894   -14683   -14466 
  -14412   -14677   -15080   -15219   -14978   -14639   -14513   -14584 
  -14682   -14719   -14648   -14596   -14647   -14642   -14571   -14573 
  -14689   -14895   -14936   -14662   -14380   -14284   -14332   -14578 
  -14966   -15309   -15419   -15090   -14512   -14288   -14632   -15120 
  -15275   -15002   -14590   -14453   -14621   -14724   -14611   -14447 
  -14351   -14404   -14574   -14723   -14895   -15097   -15163   -15080 
  -14899   -14679   -14598   -14615   -14505   -14351   -14459   -14858 
  -15178   -15122   -14840   -14697   -14816   -14940   -14833   -14646 
  -14547   -14482   -14426   -14365   -14357   -14526   -14731   -14754 
  -14662   -14584   -14524   -14534   -14701   -14968   -15174   -15191 
  -14967   -14629   -14504   -14742   -15120   -15280   -15022   -14577 
  -14380   -14490   -14671   -14831   -14972   -15025   -14906   -14658 
  -14469   -14482   -14621   -14720   -14735   -14683   -14581   -14519 
  -14557   -14661   -14829   -15007   -15037   -14878   -14692   -14659 
  -14777   -14836   -14735   -14648   -14708   -14797   -14808   -14732 
  -14565   -14409   -14384   -14445   -14546   -14715   -14906   -15029 
  -15028   -14953   -14917   -14874   -14688   -14432   -14305   -14337 
  -14427   -14592   -14790   -14835   -14774   -14785   -14824   -14852 
  -14886   -14841   -14794   -14868   -14895   -14736   -14580   -14608 
  -14778   -14889   -14802   -14690   -14748   -14789   -14644   -14515 
  -14573   -14725   -14832   -14883   -14918   -14913   -14816   -14612 
  -14413   -14385   -14477   -14598   -14713   -14739   -14706   -14682 
  -14679   -14782   -14925   -14926   -14790   -14683   -14771   -14990 
  -15037   -14812   -14582   -14621   -14863   -14986   -14764   -14331 
  -14152   -14459   -14841   -14870   -14692   -14619   -14725   -14909 
  -15014   -14975   -14891   -14850   -14825   -14783   -14685   -14581 
  -14615   -14709   -14704   -14682   -14716   -14767   -14852   -14858 
  -14682   -14492   -14463   -14600   -14737   -14620   -14281   -14110 
  -14354   -14829   -15153   -15144   -14943   -14823   -14870   -14918 
  -14866   -14782   -14709   -14715   -14883   -15080   -15021   -14655 
  -14251   -14080   -14115   -14184   -14239   -14411   -14804   -15279 
  -15579   -15580   -15283   -14902   -14781   -14895   -14980   -14893 
  -14563   -14166   -14077   -14373   -14787   -15032   -15020   -14956 
  -15018   -15007   -14685   -14253   -14062   -14184   -14455   -14678 
  -14801   -14937   -15013   -14860   -14571   -14369   -14354   -14474 
  -14592   -14682   -14835   -14974   -14982   -14986   -15040   -14975 
  -14796   -14635   -14521   -14532   -14648   -14674   -14635   -14675 
  -14763   -14868   -14986   -15048   -15080   -15132   -15095   -14937 
  -14824   -14789   -14689   -14555   -14574   -14717   -14763   -14642 
  -14449   -14311   -14315   -14397   -14458   -14507   -14481   -14377 
  -14408   -14589   -14759   -14916   -14987   -14864   -14642   -14517 
  -14608   -14839   -15051   -15169   -15141   -14995   -14910   -15037 
  -15338   -15543   -15394   -14918   -14345   -13948   -13837   -13906 
  -14165   -14669   -15145   -15230   -14966   -14724   -14720   -14860 
  -14945   -14835   -14611   -14481   -14469   -14517   -14624   -14750 
  -14785   -14617   -14291   -14000   -13945   -14265   -14867   -15391 
  -15546   -15311   -14910   -14701   -14854   -15128   -15128   -14740 
  -14185   -13886   -14172   -14850   -15352   -15357   -14993   -14581 
  -14382   -14458   -14683   -14886   -15018   -15029   -14882   -14698 
  -14524   -14408   -14569   -14909   -15012   -14756   -14405   -14269 
  -14445   -14709   -14802   -14709   -14581   -14523   -14598   -14816 
  -15022   -15076   -15057   -15115   -15214   -15192   -15025   -14823 
  -14644   -14482   -14312   -14158   -14138   -14285   -14507   -14720 
  -14835   -14796   -14705   -14719   -14901   -15168   -15300   -15130 
  -14740   -14364   -14160   -14208   -14504   -14835   -14935   -14715 
  -14319   -14088   -14243   -14646   -15025   -15245   -15319   -15295 
  -15175   -14971   -14740   -14598   -14601   -14627   -14571   -14440 
  -14288   -14314   -14624   -14989   -15141   -15018   -14791   -14774 
  -14993   -15140   -15086   -15006   -15024   -15063   -14959   -14665 
  -14323   -14149   -14211   -14369   -14457   -14407   -14269   -14211 
  -14337   -14597   -14893   -15071   -15075   -15064   -15144   -15203 
  -15145   -15002   -14789   -14466   -14164   -14162   -14501   -14925 
  -15157   -15068   -14794   -14654   -14739   -14871   -14916   -14867 
  -14804   -14814   -14862   -14793   -14547   -14249   -14076   -14173 
  -14553   -14970   -15186   -15183   -14976   -14659   -14458   -14447 
  -14550   -14674   -14693   -14580   -14388   -14176   -14080   -14180 
  -14430   -14775   -15048   -15129   -15165   -15207   -15140   -14994 
  -14885   -14897   -14986   -15018   -14967   -14898   -14879   -14929 
  -14999   -14995   -14769   -14384   -14139   -14184   -14443   -14729 
  -14877   -14848   -14669   -14489   -14544   -14877   -15225   -15236 
  -14863   -14419   -14226   -14413   -14725   -14758   -14546   -14347 
  -14304   -14517   -14856   -15003   -14854   -14584   -14431   -14505 
  -14727   -14922   -15066   -15196   -15186   -15032   -14878   -14631 
  -14315   -14272   -14624   -15138   -15464   -15325   -14806   -14388 
  -14427   -14758   -14962   -14835   -14484   -14188   -14129   -14257 
  -14469   -14678   -14783   -14743   -14621   -14557   -14615   -14778 
  -14976   -15070   -15017   -14935   -14817   -14639   -14574   -14713 
  -14897   -14951   -14825   -14634   -14589   -14750   -14980   -15128 
  -15034   -14712   -14474   -14513   -14731   -14939   -14910   -14658 
  -14519   -14650   -14877   -14980   -14837   -14512   -14272   -14256 
  -14318   -14345   -14366   -14434   -14631   -14913   -15045   -14917 
  -14635   -14477   -14685   -15113   -15353   -15223   -14929   -14801 
  -14902   -15010   -14945   -14744   -14554   -14450   -14385   -14351 
  -14385   -14469   -14577   -14656   -14656   -14661   -14744   -14885 
  -15040   -15105   -15041   -14899   -14686   -14539   -14654   -14906 
  -15021   -14924   -14704   -14558   -14571   -14600   -14602   -14651 
  -14662   -14513   -14289   -14237   -14480   -14874   -15187   -15238 
  -14987   -14678   -14575   -14651   -14796   -15001   -15217   -15294 
  -15106   -14759   -14542   -14558   -14632   -14651   -14629   -14550 
  -14409   -14293   -14285   -14427   -14725   -15044   -15165   -15036 
  -14750   -14445   -14310   -14432   -14627   -14654   -14509   -14328 
  -14312   -14566   -14926   -15225   -15363   -15182   -14812   -14621 
  -14674   -14841   -15032   -15071   -14891   -14692   -14612   -14623 
  -14688   -14727   -14682   -14679   -14797   -14897   -14914   -14878 
  -14677   -14324   -14107   -14224   -14563   -14816   -14790   -14639 
  -14613   -14767   -14939   -14917   -14736   -14662   -14808   -15028 
  -15102   -14979   -14868   -14890   -14887   -14702   -14428   -14339 
  -14536   -14837   -15010   -14918   -14689   -14546   -14488   -14524 
  -14736   -14960   -14974   -14778   -14594   -14600   -14677   -14651 
  -14519   -14422   -14496   -14600   -14573   -14478   -14369   -14391 
  -14669   -14944   -14985   -14935   -14943   -15016   -15126   -15161 
  -15056   -14901   -14706   -14497   -14508   -14724   -14818   -14679 
  -14466   -14385   -14561   -14877   -15091   -15043   -14806   -14647 
  -14697   -14847   -14895   -14733   -14547   -14582   -14708   -14632 
  -14349   -14164   -14345   -14758   -15029   -15029   -14909   -14781 
  -14639   -14586   -14742   -14955   -15024   -14936   -14727   -14543 
  -14613   -14868   -14980   -14844   -14690   -14712   -14764   -14654 
  -14513   -14523   -14632   -14740   -14737   -14580   -14455   -14509 
  -14675   -14860   -14972   -14956   -14829   -14669   -14620   -14701 
  -14758   -14673   -14494   -14443   -14598   -14797   -14968   -15074 
  -15016   -14854   -14659   -14461   -14391   -14532   -14789   -14993 
  -15017   -14895   -14779   -14762   -14827   -14908   -14990   -15059 
  -14976   -14729   -14519   -14494   -14690   -14898   -14833   -14557 
  -14289   -14229   -14482   -14800   -14866   -14689   -14476   -14482 
  -14766   -15067   -15071   -14725   -14338   -14245   -14503   -14964 
  -15303   -15232   -14870   -14503   -14364   -14566   -14885   -14975 
  -14798   -14542   -14405   -14442   -14558   -14694   -14835   -14917 
  -14828   -14539   -14326   -14472   -14856   -15157   -15196   -14958 
  -14598   -14381   -14449   -14727   -15006   -15080   -14955   -14787 
  -14688   -14701   -14786   -14845   -14891   -14962   -14974   -14859 
  -14632   -14413   -14419   -14677   -14944   -15018   -14874   -14623 
  -14423   -14332   -14345   -14451   -14586   -14639   -14604   -14593 
  -14702   -14828   -14829   -14781   -14774   -14692   -14474   -14323 
