Origin Time       2025/03/30 22:55:00
Lat.              41.993
Long.             142.725
Depth. (km)       55
Mag.              4.6
Station Code      AOM007
Station Lat.      41.1689
Station Long.     141.3845
Station Height(m) 17
Record Time       2025/03/30 22:56:41
Sampling Freq(Hz) 100Hz
Duration Time(s)  60
Dir.              U-D
Scale Factor      7845(gal)/8223790
Max. Acc. (gal)   0.347
Last Correction   2025/03/30 22:56:43
Memo.             
   -6162    -6164    -6160    -6180    -6170    -6158    -6180    -6161 
   -6096    -6076    -6085    -6045    -6008    -6058    -6119    -6120 
   -6151    -6228    -6227    -6154    -6127    -6149    -6157    -6157 
   -6161    -6142    -6096    -6072    -6079    -6107    -6156    -6189 
   -6170    -6127    -6097    -6077    -6041    -6027    -6095    -6199 
   -6222    -6161    -6122    -6124    -6111    -6095    -6124    -6145 
   -6100    -6043    -6030    -6065    -6158    -6272    -6315    -6261 
   -6166    -6091    -6046    -6007    -5962    -5960    -6046    -6164 
   -6216    -6199    -6193    -6234    -6273    -6255    -6169    -6062 
   -6026    -6076    -6114    -6075    -6016    -6029    -6116    -6203 
   -6210    -6153    -6129    -6133    -6081    -6015    -6029    -6095 
   -6139    -6153    -6142    -6118    -6150    -6249    -6281    -6170 
   -6049    -6049    -6110    -6120    -6064    -6008    -6021    -6093 
   -6161    -6174    -6173    -6207    -6227    -6178    -6114    -6100 
   -6104    -6072    -6035    -6054    -6096    -6111    -6139    -6191 
   -6197    -6173    -6192    -6223    -6199    -6146    -6107    -6066 
   -6033    -6038    -6045    -5995    -5962    -6062    -6207    -6235 
   -6166    -6116    -6133    -6178    -6215    -6216    -6174    -6129 
   -6122    -6131    -6107    -6060    -6027    -6029    -6062    -6119 
   -6177    -6207    -6187    -6147    -6129    -6122    -6119    -6141 
   -6154    -6111    -6070    -6122    -6193    -6196    -6180    -6164 
   -6079    -5973    -5981    -6083    -6143    -6142    -6133    -6115 
   -6083    -6097    -6178    -6241    -6224    -6166    -6120    -6122 
   -6150    -6150    -6124    -6119    -6112    -6061    -6002    -5988 
   -6046    -6183    -6303    -6297    -6203    -6127    -6110    -6111 
   -6096    -6069    -6027    -6018    -6070    -6110    -6130    -6232 
   -6358    -6330    -6145    -6000    -5996    -6049    -6088    -6122 
   -6127    -6095    -6081    -6115    -6142    -6139    -6134    -6131 
   -6106    -6076    -6096    -6170    -6223    -6191    -6103    -6049 
   -6069    -6122    -6139    -6123    -6114    -6120    -6133    -6150 
   -6166    -6173    -6154    -6107    -6075    -6091    -6138    -6189 
   -6219    -6189    -6102    -6049    -6076    -6112    -6112    -6106 
   -6108    -6116    -6127    -6123    -6120    -6180    -6270    -6234 
   -6041    -5888    -5919    -6080    -6247    -6303    -6204    -6066 
   -6041    -6126    -6199    -6199    -6161    -6104    -6042    -6026 
   -6069    -6107    -6126    -6174    -6232    -6231    -6176    -6110 
   -6042    -5985    -5979    -6037    -6129    -6212    -6254    -6246 
   -6214    -6172    -6126    -6081    -6049    -6042    -6060    -6083 
   -6097    -6116    -6164    -6219    -6223    -6180    -6138    -6088 
   -6027    -6010    -6064    -6139    -6199    -6230    -6189    -6103 
   -6072    -6100    -6116    -6120    -6124    -6110    -6093    -6106 
   -6129    -6141    -6154    -6180    -6189    -6141    -6053    -6021 
   -6081    -6146    -6142    -6110    -6092    -6084    -6106    -6166 
   -6199    -6161    -6112    -6107    -6115    -6111    -6111    -6145 
   -6196    -6219    -6183    -6104    -6033    -6035    -6118    -6177 
   -6130    -6030    -5985    -6025    -6097    -6158    -6191    -6191 
   -6181    -6174    -6166    -6156    -6143    -6134    -6126    -6108 
   -6073    -6045    -6075    -6149    -6200    -6216    -6192    -6111 
   -6033    -6041    -6103    -6161    -6189    -6164    -6087    -6035 
   -6070    -6157    -6204    -6170    -6081    -6029    -6070    -6154 
   -6203    -6207    -6192    -6154    -6077    -6011    -6046    -6173 
   -6247    -6183    -6061    -6007    -6019    -6052    -6119    -6205 
   -6226    -6204    -6208    -6187    -6107    -6066    -6116    -6160 
   -6119    -6069    -6104    -6185    -6205    -6138    -6088    -6149 
   -6228    -6173    -6025    -5944    -5995    -6110    -6197    -6214 
   -6180    -6145    -6124    -6112    -6108    -6096    -6072    -6092 
   -6166    -6189    -6147    -6141    -6160    -6120    -6060    -6057 
   -6091    -6114    -6149    -6188    -6134    -5999    -5946    -6027 
   -6139    -6239    -6340    -6357    -6241    -6106    -6050    -6042 
   -6064    -6124    -6165    -6116    -6039    -6033    -6068    -6088 
   -6103    -6108    -6114    -6173    -6242    -6226    -6160    -6160 
   -6192    -6122    -6019    -6041    -6120    -6122    -6096    -6123 
   -6156    -6139    -6102    -6088    -6110    -6135    -6138    -6124 
   -6097    -6056    -6042    -6111    -6215    -6258    -6222    -6145 
   -6084    -6085    -6115    -6102    -6057    -6048    -6106    -6170 
   -6176    -6137    -6104    -6108    -6123    -6103    -6064    -6069 
   -6146    -6245    -6270    -6192    -6106    -6089    -6104    -6119 
   -6145    -6131    -6068    -6049    -6091    -6099    -6077    -6085 
   -6110    -6118    -6129    -6172    -6210    -6185    -6122    -6081 
   -6091    -6142    -6183    -6185    -6174    -6151    -6087    -6004 
   -5994    -6081    -6170    -6185    -6162    -6129    -6076    -6038 
   -6062    -6138    -6197    -6205    -6178    -6129    -6088    -6103 
   -6160    -6172    -6115    -6077    -6087    -6100    -6134    -6204 
   -6216    -6119    -6023    -6052    -6162    -6218    -6172    -6100 
   -6085    -6124    -6142    -6092    -6033    -6038    -6087    -6124 
   -6150    -6164    -6162    -6176    -6219    -6242    -6200    -6112 
   -6031    -6014    -6065    -6126    -6151    -6137    -6092    -6060 
   -6102    -6214    -6305    -6311    -6216    -6052    -5937    -5956 
   -6048    -6103    -6110    -6135    -6173    -6157    -6103    -6085 
   -6108    -6157    -6201    -6188    -6115    -6056    -6070    -6137 
   -6191    -6195    -6166    -6137    -6108    -6066    -6025    -6037 
   -6116    -6181    -6162    -6116    -6143    -6239    -6277    -6185 
   -6058    -6016    -6072    -6147    -6157    -6081    -6014    -6068 
   -6172    -6156    -6064    -6089    -6216    -6262    -6180    -6079 
   -6030    -6038    -6110    -6192    -6203    -6169    -6165    -6153 
   -6073    -6008    -6058    -6160    -6193    -6160    -6122    -6111 
   -6114    -6103    -6093    -6131    -6185    -6162    -6053    -5977 
   -6025    -6102    -6112    -6122    -6173    -6188    -6164    -6176 
   -6210    -6200    -6137    -6062    -6015    -6018    -6084    -6149 
   -6149    -6142    -6181    -6208    -6168    -6108    -6107    -6143 
   -6137    -6083    -6041    -6027    -6046    -6108    -6189    -6231 
   -6215    -6187    -6156    -6065    -5953    -5945    -6058    -6184 
   -6224    -6191    -6169    -6189    -6203    -6165    -6087    -6048 
   -6095    -6146    -6123    -6084    -6081    -6085    -6084    -6099 
   -6120    -6133    -6162    -6223    -6259    -6228    -6157    -6072 
   -6007    -6012    -6075    -6124    -6149    -6184    -6196    -6153 
   -6111    -6116    -6112    -6057    -6012    -6070    -6203    -6278 
   -6239    -6145    -6068    -6064    -6126    -6142    -6065    -5998 
   -6003    -6037    -6097    -6219    -6332    -6361    -6335    -6282 
   -6170    -6041    -5999    -6004    -5954    -5948    -6065    -6192 
   -6220    -6172    -6122    -6134    -6220    -6258    -6106    -5873 
   -5832    -6015    -6215    -6292    -6281    -6257    -6235    -6197 
   -6122    -6026    -5988    -6060    -6149    -6131    -6035    -5992 
   -6072    -6215    -6295    -6251    -6151    -6076    -6027    -6004 
   -6049    -6160    -6258    -6284    -6230    -6127    -6037    -5999 
   -6002    -6031    -6065    -6075    -6092    -6184    -6305    -6312 
   -6189    -6081    -6069    -6112    -6139    -6108    -6062    -6085 
   -6156    -6161    -6095    -6072    -6127    -6147    -6084    -6054 
   -6123    -6187    -6169    -6135    -6133    -6142    -6139    -6120 
   -6099    -6083    -6073    -6085    -6131    -6174    -6197    -6196 
   -6139    -6037    -5994    -6065    -6156    -6172    -6162    -6189 
   -6191    -6112    -6007    -5973    -6045    -6164    -6231    -6189 
   -6076    -6022    -6102    -6239    -6313    -6276    -6170    -6089 
   -6081    -6084    -6057    -6096    -6231    -6288    -6170    -6025 
   -5967    -5975    -6038    -6135    -6172    -6134    -6119    -6156 
   -6156    -6122    -6137    -6169    -6137    -6062    -6010    -6012 
   -6070    -6145    -6180    -6193    -6226    -6238    -6157    -6025 
   -5975    -6038    -6129    -6176    -6185    -6187    -6177    -6135 
   -6080    -6065    -6079    -6083    -6096    -6120    -6112    -6095 
   -6122    -6147    -6134    -6162    -6246    -6288    -6251    -6142 
   -5992    -5941    -6060    -6214    -6254    -6183    -6088    -6030 
   -6026    -6069    -6110    -6102    -6077    -6107    -6185    -6226 
   -6200    -6184    -6185    -6119    -6015    -6008    -6102    -6184 
   -6212    -6207    -6170    -6135    -6165    -6226    -6197    -6064 
   -5956    -6003    -6146    -6187    -6087    -6022    -6081    -6169 
   -6177    -6129    -6107    -6138    -6177    -6158    -6068    -5991 
   -6015    -6115    -6197    -6216    -6183    -6137    -6126    -6139 
   -6110    -6050    -6060    -6143    -6192    -6161    -6131    -6157 
   -6201    -6201    -6156    -6099    -6042    -6002    -6012    -6046 
   -6072    -6126    -6205    -6241    -6215    -6176    -6161    -6164 
   -6161    -6149    -6133    -6129    -6137    -6119    -6069    -6021 
   -5980    -5989    -6085    -6161    -6129    -6112    -6188    -6220 
   -6151    -6083    -6052    -6027    -6056    -6153    -6220    -6214 
   -6212    -6250    -6247    -6165    -6079    -6070    -6089    -6043 
   -5985    -6026    -6115    -6168    -6222    -6274    -6232    -6129 
   -6079    -6065    -6025    -6012    -6072    -6104    -6041    -6004 
   -6104    -6258    -6354    -6362    -6246    -6069    -5983    -5971 
   -5902    -5846    -5969    -6191    -6313    -6319    -6291    -6257 
   -6253    -6270    -6216    -6106    -6062    -6081    -6087    -6076 
   -6054    -6030    -6062    -6139    -6178    -6177    -6158    -6100 
   -6021    -6003    -6076    -6164    -6176    -6139    -6124    -6141 
   -6166    -6183    -6156    -6096    -6075    -6116    -6138    -6079 
   -6041    -6110    -6187    -6168    -6127    -6183    -6278    -6296 
   -6222    -6130    -6069    -6007    -5949    -5984    -6099    -6168 
   -6161    -6142    -6146    -6137    -6080    -6014    -6016    -6099 
   -6174    -6172    -6137    -6143    -6166    -6142    -6080    -6053 
   -6085    -6134    -6164    -6165    -6142    -6138    -6196    -6243 
   -6192    -6116    -6108    -6131    -6123    -6096    -6080    -6083 
   -6112    -6150    -6183    -6203    -6178    -6106    -6046    -6046 
   -6075    -6072    -6034    -6029    -6118    -6222    -6208    -6114 
   -6073    -6107    -6141    -6154    -6154    -6100    -6027    -6030 
   -6083    -6114    -6135    -6139    -6099    -6069    -6112    -6200 
   -6278    -6296    -6214    -6081    -6000    -6025    -6129    -6207 
   -6185    -6122    -6106    -6133    -6161    -6173    -6157    -6137 
   -6169    -6224    -6193    -6085    -6026    -6049    -6085    -6103 
   -6120    -6131    -6126    -6116    -6084    -6021    -6027    -6133 
   -6216    -6191    -6099    -6037    -6062    -6108    -6127    -6162 
   -6222    -6272    -6264    -6135    -5937    -5857    -5992    -6210 
   -6308    -6264    -6180    -6103    -6070    -6110    -6131    -6084 
   -6079    -6151    -6195    -6188    -6199    -6196    -6143    -6103 
   -6095    -6035    -5930    -5914    -6016    -6149    -6254    -6292 
   -6205    -6043    -5960    -6021    -6130    -6185    -6161    -6060 
   -5935    -5915    -6056    -6224    -6278    -6247    -6237    -6235 
   -6185    -6112    -6066    -6049    -6091    -6183    -6189    -6092 
   -6054    -6147    -6257    -6300    -6273    -6181    -6057    -5987 
   -6041    -6176    -6269    -6262    -6183    -6092    -6033    -6000 
   -5998    -6045    -6114    -6143    -6150    -6188    -6203    -6134 
   -6034    -5984    -6021    -6115    -6166    -6135    -6102    -6110 
   -6129    -6147    -6180    -6178    -6118    -6075    -6103    -6137 
   -6129    -6124    -6154    -6177    -6176    -6187    -6193    -6160 
   -6124    -6119    -6106    -6070    -6030    -6002    -5996    -5996 
   -6000    -6068    -6220    -6354    -6340    -6197    -6058    -5983 
   -5923    -5869    -5884    -6000    -6180    -6362    -6463    -6431 
   -6320    -6218    -6165    -6157    -6134    -6057    -5973    -5925 
   -5906    -5946    -6104    -6289    -6349    -6295    -6237    -6170 
   -6058    -5965    -5988    -6069    -6087    -6062    -6079    -6135 
   -6201    -6242    -6216    -6149    -6120    -6139    -6135    -6083 
   -6015    -5999    -6092    -6231    -6272    -6187    -6131    -6207 
   -6305    -6309    -6224    -6097    -5983    -5938    -5925    -5869 
   -5856    -6021    -6303    -6489    -6474    -6324    -6168    -6070 
   -6011    -5967    -5964    -6037    -6137    -6168    -6115    -6054 
   -6057    -6119    -6166    -6180    -6183    -6149    -6080    -6054 
   -6096    -6166    -6242    -6286    -6269    -6203    -6135    -6083 
   -6042    -6035    -6068    -6102    -6118    -6135    -6157    -6172 
   -6180    -6157    -6114    -6115    -6165    -6211    -6231    -6199 
   -6118    -6062    -6053    -6021    -5941    -5894    -5946    -6070 
   -6195    -6273    -6258    -6170    -6110    -6084    -6004    -5902 
   -5925    -6116    -6324    -6420    -6435    -6408    -6318    -6174 
   -6029    -5925    -5888    -5888    -5848    -5795    -5871    -6104 
   -6351    -6465    -6421    -6330    -6266    -6169    -5999    -5891 
   -5958    -6111    -6200    -6187    -6085    -6008    -6110    -6309 
   -6374    -6297    -6218    -6122    -5976    -5883    -5879    -5896 
   -5967    -6127    -6242    -6247    -6257    -6282    -6234    -6153 
   -6133    -6143    -6106    -6026    -5975    -5998    -6084    -6174 
   -6249    -6366    -6485    -6432    -6188    -5926    -5799    -5817 
   -5917    -6062    -6201    -6280    -6318    -6327    -6262    -6142 
   -6056    -6026    -5991    -5917    -5848    -5848    -5964    -6157 
   -6296    -6318    -6299    -6336    -6397    -6366    -6235    -6093 
   -6019    -6041    -6099    -6104    -6061    -6062    -6185    -6340 
   -6343    -6192    -6072    -6081    -6133    -6099    -5996    -5960 
   -6041    -6124    -6107    -6066    -6093    -6129    -6111    -6081 
   -6056    -6066    -6197    -6350    -6284    -6045    -5927    -5996 
   -6092    -6142    -6174    -6162    -6119    -6120    -6135    -6057 
   -5921    -5887    -5995    -6114    -6133    -6104    -6141    -6224 
   -6242    -6162    -6077    -6081    -6172    -6264    -6285    -6228 
   -6135    -6060    -6042    -6056    -6031    -6004    -6064    -6161 
   -6183    -6157    -6169    -6192    -6145    -6048    -6021    -6087 
   -6141    -6161    -6188    -6218    -6235    -6226    -6157    -6052 
   -5979    -5967    -6010    -6095    -6189    -6241    -6242    -6246 
   -6238    -6146    -6002    -5931    -5981    -6061    -6088    -6080 
   -6097    -6151    -6208    -6227    -6214    -6205    -6192    -6119 
   -6006    -5948    -5962    -5994    -6008    -6029    -6106    -6269 
   -6439    -6470    -6328    -6095    -5895    -5836    -5906    -6003 
   -6085    -6184    -6288    -6311    -6268    -6281    -6347    -6335 
   -6218    -6076    -5941    -5818    -5817    -6006    -6201    -6234 
   -6200    -6220    -6238    -6208    -6150    -6068    -5995    -5973 
   -5987    -6018    -6072    -6168    -6292    -6386    -6367    -6227 
   -6108    -6122    -6157    -6110    -6058    -6053    -6027    -5962 
   -5956    -6061    -6187    -6231    -6208    -6218    -6265    -6222 
   -6057    -5915    -5892    -5945    -6025    -6141    -6261    -6304 
   -6269    -6232    -6224    -6201    -6130    -6046    -5991    -5960 
   -5964    -6041    -6181    -6300    -6332    -6331    -6342    -6308 
   -6214    -6099    -6000    -5969    -5991    -6006    -6054    -6174 
   -6251    -6199    -6107    -6060    -6043    -6079    -6181    -6235 
   -6164    -6045    -5960    -5908    -5934    -6104    -6315    -6389 
   -6320    -6191    -6023    -5895    -5923    -6037    -6084    -6089 
   -6173    -6281    -6285    -6222    -6154    -6073    -6042    -6095 
   -6118    -6049    -5979    -5975    -6034    -6169    -6345    -6413 
   -6305    -6116    -5972    -5914    -5949    -6050    -6150    -6210 
   -6242    -6227    -6153    -6100    -6154    -6277    -6362    -6353 
   -6281    -6196    -6103    -6015    -5976    -6019    -6104    -6160 
   -6176    -6147    -6031    -5907    -5937    -6080    -6134    -6061 
   -6011    -6042    -6092    -6120    -6129    -6111    -6108    -6157 
   -6201    -6176    -6104    -6050    -6057    -6122    -6184    -6166 
   -6072    -6004    -6050    -6168    -6247    -6237    -6149    -6038 
   -6012    -6118    -6223    -6191    -6095    -6058    -6053    -6049 
   -6091    -6157    -6173    -6164    -6181    -6195    -6180    -6178 
   -6173    -6126    -6089    -6107    -6154    -6201    -6243    -6251 
   -6197    -6118    -6115    -6181    -6185    -6110    -6073    -6111 
   -6154    -6160    -6133    -6134    -6188    -6222    -6181    -6102 
   -6021    -5950    -5935    -5987    -6052    -6120    -6223    -6312 
   -6315    -6232    -6099    -5972    -5940    -6012    -6107    -6162 
   -6168    -6134    -6089    -6072    -6085    -6084    -6076    -6124 
   -6192    -6173    -6110    -6120    -6193    -6232    -6216    -6156 
   -6068    -6038    -6106    -6147    -6103    -6103    -6224    -6331 
   -6278    -6087    -5883    -5822    -5958    -6133    -6188    -6203 
   -6300    -6404    -6377    -6218    -6033    -5926    -5919    -5957 
   -6004    -6102    -6250    -6353    -6332    -6232    -6134    -6075 
   -6050    -6043    -6061    -6108    -6147    -6166    -6185    -6184 
   -6145    -6103    -6064    -6008    -5992    -6073    -6166    -6160 
   -6100    -6092    -6143    -6185    -6183    -6157    -6133    -6120 
   -6104    -6069    -6008    -5954    -6011    -6180    -6286    -6258 
   -6203    -6160    -6103    -6069    -6077    -6075    -6064    -6106 
   -6170    -6165    -6110    -6102    -6153    -6181    -6131    -6041 
   -5983    -5984    -6029    -6081    -6127    -6181    -6219    -6204 
   -6156    -6134    -6166    -6178    -6111    -6033    -6015    -6034 
   -6072    -6141    -6214    -6264    -6301    -6280    -6138    -6003 
   -6041    -6145    -6127    -6023    -5975    -6023    -6139    -6288 
   -6388    -6339    -6166    -6011    -5952    -5964    -6035    -6122 
   -6141    -6110    -6106    -6134    -6162    -6192    -6214    -6183 
   -6111    -6076    -6093    -6133    -6191    -6201    -6075    -5914 
   -5919    -6088    -6247    -6282    -6187    -6035    -5971    -6049 
   -6142    -6142    -6122    -6181    -6277    -6281    -6158    -6061 
   -6119    -6235    -6228    -6096    -5977    -5988    -6099    -6172 
   -6158    -6162    -6230    -6237    -6097    -5925    -5883    -6002 
   -6165    -6258    -6255    -6183    -6091    -6041    -6050    -6093 
   -6158    -6205    -6176    -6079    -6003    -6030    -6133    -6203 
