Origin Time       2025/03/30 22:55:00
Lat.              41.993
Long.             142.725
Depth. (km)       55
Mag.              4.6
Station Code      AOM012
Station Lat.      40.5127
Station Long.     141.4880
Station Height(m) 12
Record Time       2025/03/30 22:56:52
Sampling Freq(Hz) 100Hz
Duration Time(s)  60
Dir.              E-W
Scale Factor      7845(gal)/8223790
Max. Acc. (gal)   2.173
Last Correction   2025/03/30 22:56:52
Memo.             
[...]
  -20684   -20722   -20731   -20690   -20621   -20574   -20596   -20688 
  -20784   -20822   -20749   -20580   -20445   -20429   -20503   -20628 
  -20734   -20733   -20629   -20547   -20555   -20574   -20549   -20586 
  -20731   -20849   -20788   -20569   -20386   -20394   -20534   -20687 
  -20769   -20776   -20761   -20692   -20524   -20401   -20447   -20594 
  -20742   -20777   -20680   -20640   -20768   -20910   -20879   -20692 
  -20495   -20356   -20285   -20314   -20452   -20630   -20737   -20733 
  -20675   -20634   -20667   -20723   -20687   -20561   -20491   -20568 
  -20695   -20707   -20642   -20638   -20644   -20578   -20538   -20618 
  -20764   -20849   -20806   -20664   -20515   -20429   -20449   -20606 
  -20837   -20957   -20854   -20664   -20576   -20574   -20541   -20475 
  -20475   -20568   -20669   -20719   -20699   -20601   -20467   -20405 
  -20497   -20688   -20845   -20887   -20803   -20642   -20521   -20472 
  -20434   -20448   -20572   -20696   -20741   -20740   -20690   -20610 
  -20582   -20617   -20642   -20611   -20571   -20629   -20760   -20754 
  -20545   -20352   -20356   -20483   -20615   -20771   -20966   -21053 
  -20868   -20538   -20340   -20339   -20385   -20371   -20376   -20551 
  -20873   -21085   -21001   -20777   -20660   -20628   -20545   -20453 
  -20507   -20713   -20853   -20717   -20414   -20270   -20417   -20684 
  -20831   -20798   -20715   -20711   -20752   -20692   -20569   -20592 
  -20740   -20752   -20536   -20289   -20295   -20587   -20892   -20984 
  -20873   -20679   -20522   -20416   -20329   -20302   -20410   -20646 
  -20881   -20946   -20803   -20615   -20578   -20673   -20767   -20831 
  -20845   -20723   -20486   -20243   -20128   -20264   -20606   -20899 
  -20976   -20912   -20848   -20795   -20667   -20429   -20233   -20224 
  -20372   -20575   -20738   -20837   -20911   -20923   -20781   -20529 
  -20343   -20352   -20521   -20650   -20578   -20409   -20417   -20698 
  -21031   -21095   -20837   -20556   -20526   -20695   -20804   -20752 
  -20629   -20479   -20285   -20073   -19989   -20237   -20776   -21213 
  -21273   -21045   -20736   -20505   -20445   -20533   -20655   -20715 
  -20702   -20649   -20617   -20660   -20744   -20791   -20736   -20564 
  -20389   -20336   -20397   -20472   -20525   -20637   -20837   -20976 
  -20904   -20688   -20532   -20534   -20615   -20618   -20506   -20395 
  -20394   -20486   -20575   -20626   -20706   -20830   -20908   -20839 
  -20650   -20478   -20406   -20463   -20637   -20812   -20893   -20893 
  -20829   -20695   -20526   -20391   -20371   -20474   -20610   -20706 
  -20742   -20677   -20551   -20525   -20632   -20729   -20740   -20688 
  -20640   -20634   -20646   -20636   -20559   -20420   -20343   -20440 
  -20672   -20887   -20941   -20860   -20803   -20767   -20618   -20401 
  -20279   -20314   -20463   -20611   -20682   -20748   -20873   -20933 
  -20802   -20555   -20343   -20260   -20352   -20568   -20761   -20826 
  -20769   -20676   -20595   -20522   -20474   -20521   -20663   -20781 
  -20825   -20839   -20853   -20838   -20744   -20564   -20398   -20348 
  -20412   -20537   -20690   -20818   -20835   -20679   -20422   -20270 
  -20337   -20544   -20715   -20777   -20768   -20679   -20536   -20476 
  -20569   -20737   -20881   -20923   -20812   -20632   -20559   -20641 
  -20714   -20610   -20410   -20321   -20393   -20559   -20748   -20898 
  -20981   -20958   -20775   -20490   -20252   -20193   -20328   -20507 
  -20579   -20582   -20664   -20862   -21039   -21061   -20927   -20738 
  -20584   -20456   -20352   -20366   -20529   -20713   -20772   -20688 
  -20571   -20545   -20615   -20710   -20785   -20810   -20736   -20522 
  -20251   -20116   -20202   -20413   -20648   -20873   -21050   -21111 
  -20992   -20714   -20430   -20325   -20428   -20615   -20754   -20796 
  -20780   -20763   -20723   -20599   -20418   -20304   -20345   -20553 
  -20804   -20892   -20731   -20475   -20343   -20386   -20505   -20634 
  -20757   -20830   -20802   -20652   -20449   -20343   -20383   -20509 
  -20677   -20837   -20860   -20734   -20609   -20598   -20699   -20783 
  -20731   -20637   -20695   -20873   -20957   -20865   -20667   -20452 
  -20326   -20321   -20348   -20386   -20538   -20812   -21015   -20952 
  -20659   -20363   -20262   -20362   -20555   -20775   -20947   -20954 
  -20772   -20511   -20313   -20299   -20460   -20676   -20860   -20938 
  -20884   -20760   -20603   -20428   -20298   -20263   -20358   -20596 
  -20888   -21088   -21157   -21107   -20877   -20494   -20166   -20119 
  -20382   -20725   -20850   -20675   -20372   -20216   -20297   -20483 
  -20671   -20853   -21024   -21118   -20981   -20590   -20209   -20158 
  -20451   -20750   -20790   -20702   -20721   -20821   -20815   -20649 
  -20460   -20390   -20441   -20536   -20607   -20669   -20757   -20818 
  -20723   -20470   -20299   -20440   -20744   -20927   -20943   -20887 
  -20812   -20710   -20503   -20205   -20052   -20229   -20591   -20880 
  -21000   -20988   -20892   -20756   -20575   -20394   -20367   -20506 
  -20646   -20741   -20808   -20784   -20660   -20532   -20490   -20533 
  -20587   -20618   -20650   -20656   -20591   -20511   -20502   -20521 
  -20491   -20498   -20637   -20839   -20966   -20952   -20849   -20729 
  -20576   -20425   -20348   -20362   -20494   -20721   -20911   -20989 
  -20922   -20704   -20482   -20429   -20507   -20528   -20437   -20417 
  -20629   -20930   -20984   -20706   -20383   -20297   -20433   -20578 
  -20615   -20629   -20683   -20727   -20723   -20660   -20607   -20672 
  -20817   -20879   -20779   -20615   -20495   -20407   -20375   -20475 
  -20652   -20749   -20691   -20559   -20495   -20542   -20599   -20591 
  -20572   -20592   -20687   -20850   -20929   -20861   -20794   -20746 
  -20595   -20370   -20245   -20321   -20537   -20775   -20911   -20876 
  -20725   -20569   -20461   -20371   -20326   -20432   -20640   -20740 
  -20680   -20633   -20717   -20846   -20862   -20750   -20632   -20532 
  -20420   -20367   -20452   -20663   -20877   -20941   -20848   -20740 
  -20691   -20691   -20714   -20722   -20668   -20555   -20426   -20359 
  -20412   -20560   -20706   -20791   -20817   -20772   -20655   -20547 
  -20509   -20502   -20480   -20456   -20457   -20515   -20644   -20808 
  -20922   -20877   -20671   -20507   -20560   -20699   -20667   -20424 
  -20220   -20337   -20706   -20974   -20991   -20868   -20715   -20565 
  -20445   -20416   -20542   -20776   -20927   -20852   -20605   -20358 
  -20243   -20294   -20445   -20544   -20511   -20507   -20694   -20976 
  -21112   -20968   -20690   -20518   -20476   -20503   -20605   -20691 
  -20699   -20698   -20692   -20637   -20548   -20464   -20436   -20440 
  -20393   -20375   -20552   -20864   -21064   -21000   -20781   -20591 
  -20483   -20443   -20491   -20653   -20839   -20875   -20718   -20544 
  -20548   -20655   -20630   -20503   -20498   -20690   -20916   -20968 
  -20858   -20740   -20614   -20425   -20270   -20314   -20537   -20707 
  -20704   -20637   -20565   -20426   -20255   -20210   -20398   -20726 
  -20991   -21088   -21003   -20775   -20569   -20509   -20518   -20524 
  -20603   -20872   -21215   -21313   -21015   -20515   -20150   -20052 
  -20086   -20160   -20367   -20717   -21030   -21100   -20892   -20613 
  -20445   -20325   -20167   -20133   -20402   -20807   -21000   -20902 
  -20749   -20758   -20850   -20785   -20583   -20514   -20626   -20665 
  -20518   -20391   -20514   -20823   -21020   -20916   -20606   -20339 
  -20270   -20324   -20386   -20510   -20750   -20976   -21008   -20791 
  -20429   -20189   -20290   -20607   -20831   -20841   -20738   -20634 
  -20568   -20553   -20645   -20868   -21045   -20980   -20737   -20511 
  -20399   -20378   -20436   -20601   -20823   -20941   -20848   -20648 
  -20533   -20545   -20574   -20537   -20441   -20371   -20405   -20520 
  -20655   -20761   -20781   -20736   -20656   -20510   -20379   -20393 
  -20544   -20729   -20821   -20772   -20671   -20622   -20673   -20761 
  -20807   -20844   -20826   -20660   -20429   -20282   -20297   -20480 
  -20718   -20852   -20825   -20714   -20610   -20518   -20448   -20445 
  -20511   -20640   -20794   -20853   -20745   -20547   -20412   -20436 
  -20580   -20731   -20850   -20954   -20973   -20814   -20526   -20314 
  -20318   -20478   -20653   -20730   -20657   -20525   -20480   -20542 
  -20617   -20687   -20750   -20727   -20646   -20609   -20621   -20663 
  -20699   -20692   -20698   -20737   -20691   -20524   -20382   -20406 
  -20559   -20694   -20680   -20526   -20417   -20499   -20700   -20827 
  -20768   -20617   -20553   -20542   -20503   -20526   -20680   -20891 
  -21018   -20933   -20664   -20363   -20212   -20341   -20653   -20885 
  -20902   -20758   -20563   -20393   -20344   -20482   -20726   -20927 
  -20991   -20889   -20698   -20544   -20471   -20430   -20412   -20443 
  -20488   -20515   -20571   -20707   -20865   -20934   -20842   -20614 
  -20379   -20274   -20374   -20636   -20919   -21120   -21186   -21026 
  -20636   -20221   -20066   -20272   -20648   -20942   -21018   -20848 
  -20563   -20363   -20351   -20511   -20737   -20877   -20823   -20633 
  -20505   -20530   -20580   -20518   -20374   -20317   -20464   -20726 
  -20896   -20846   -20655   -20526   -20487   -20456   -20510   -20729 
  -21023   -21184   -21037   -20661   -20329   -20191   -20236   -20379 
  -20560   -20781   -20968   -20949   -20737   -20538   -20443   -20356 
  -20283   -20394   -20731   -21065   -21118   -20880   -20606   -20482 
  -20457   -20449   -20506   -20694   -20926   -21061   -21020   -20798 
  -20514   -20344   -20353   -20478   -20638   -20812   -20929   -20853 
  -20590   -20316   -20209   -20308   -20467   -20521   -20490   -20503 
  -20617   -20754   -20787   -20675   -20513   -20434   -20499   -20661 
  -20811   -20861   -20812   -20723   -20625   -20506   -20394   -20426 
  -20655   -20915   -21000   -20841   -20542   -20297   -20220   -20312 
  -20482   -20595   -20574   -20506   -20544   -20659   -20725   -20729 
  -20690   -20626   -20584   -20552   -20490   -20480   -20572   -20668 
  -20661   -20538   -20378   -20274   -20293   -20463   -20719   -20950 
  -21060   -21014   -20883   -20737   -20578   -20479   -20549   -20767 
  -21011   -21157   -21154   -21015   -20788   -20548   -20366   -20293 
  -20332   -20406   -20494   -20637   -20788   -20831   -20731   -20634 
  -20692   -20814   -20790   -20583   -20385   -20395   -20571   -20706 
  -20688   -20533   -20355   -20309   -20455   -20710   -20962   -21173 
  -21250   -21061   -20659   -20245   -19970   -19916   -20112   -20514 
  -20961   -21223   -21217   -21054   -20848   -20622   -20406   -20312 
  -20394   -20524   -20551   -20502   -20495   -20583   -20714   -20819 
  -20860   -20746   -20452   -20182   -20135   -20291   -20551   -20856 
  -21141   -21244   -21011   -20506   -19998   -19762   -19917   -20356 
  -20849   -21200   -21325   -21226   -20931   -20544   -20248   -20158 
  -20229   -20368   -20507   -20611   -20698   -20796   -20916   -21053 
  -21124   -21027   -20811   -20634   -20592   -20648   -20684   -20638 
  -20576   -20618   -20771   -20896   -20887   -20754   -20625   -20632 
  -20750   -20815   -20672   -20329   -20000   -19889   -20025   -20304 
  -20579   -20757   -20764   -20641   -20579   -20659   -20784   -20844 
  -20777   -20650   -20532   -20420   -20432   -20672   -21016   -21289 
  -21336   -21055   -20601   -20232   -20000   -19795   -19566   -19537 
  -19992   -20726   -21173   -21118   -20822   -20584   -20466   -20353 
  -20182   -20101   -20281   -20633   -20935   -21087   -21114   -21066 
  -20942   -20706   -20498   -20533   -20800   -21123   -21319   -21303 
  -21174   -21055   -20916   -20664   -20310   -20019   -20000   -20304 
  -20741   -21104   -21379   -21501   -21240   -20636   -20082   -19944 
  -20291   -20811   -21043   -20810   -20299   -19809   -19597   -19807 
  -20399   -21127   -21594   -21513   -20968   -20380   -20110   -20148 
  -20268   -20329   -20372   -20499   -20700   -20865   -20949   -21019 
  -21061   -20902   -20494   -20097   -20088   -20509   -20957   -21074 
  -20889   -20592   -20341   -20272   -20443   -20756   -21016   -21072 
  -20919   -20655   -20372   -20162   -20092   -20164   -20328   -20494 
  -20506   -20356   -20340   -20680   -21182   -21433   -21220   -20696 
  -20171   -19866   -19885   -20190   -20622   -21037   -21290   -21212 
  -20807   -20418   -20405   -20757   -21161   -21293   -21026   -20560 
  -20235   -20178   -20305   -20515   -20791   -21111   -21297   -21115 
  -20576   -19982   -19631   -19629   -19947   -20464   -20960   -21247 
  -21273   -21114   -20891   -20703   -20580   -20448   -20347   -20502 
  -20941   -21359   -21462   -21239   -20839   -20317   -19799   -19526 
  -19645   -20136   -20769   -21205   -21240   -20866   -20314   -20001 
  -20117   -20416   -20637   -20849   -21120   -21277   -21092   -20559 
  -20023   -19866   -20121   -20628   -21196   -21602   -21694   -21392 
  -20721   -19998   -19695   -20028   -20772   -21421   -21589   -21243 
  -20586   -19912   -19488   -19415   -19635   -20071   -20680   -21358 
  -21898   -22095   -21829   -21178   -20483   -20112   -20135   -20324 
  -20383   -20248   -20113   -20074   -20009   -19872   -19811   -20016 
  -20532   -21099   -21309   -21023   -20456   -19950   -19858   -20367 
  -21267   -22153   -22684   -22665   -22107   -21139   -19946   -18879 
  -18351   -18553   -19368   -20478   -21508   -22096   -22021   -21390 
  -20522   -19723   -19314   -19533   -20378   -21550   -22437   -22478 
  -21674   -20511   -19576   -19291   -19657   -20268   -20750   -20969 
  -20908   -20657   -20375   -20240   -20378   -20722   -21105   -21458 
  -21791   -22065   -22072   -21548   -20520   -19413   -18728   -18647 
  -19024   -19629   -20309   -20927   -21281   -21203   -20706   -20046 
  -19607   -19697   -20355   -21307   -22146   -22505   -22179   -21242 
  -20112   -19381   -19407   -19998   -20668   -21105   -21270   -21209 
  -21006   -20796   -20746   -20852   -20872   -20673   -20430   -20395 
  -20630   -20935   -21015   -20730   -20209   -19797   -19766   -20047 
  -20407   -20686   -20734   -20449   -19974   -19658   -19762   -20301 
  -21091   -21816   -22165   -22041   -21532   -20822   -20179   -19872 
  -19982   -20320   -20592   -20703   -20791   -21015   -21292   -21342 
  -21069   -20661   -20299   -19978   -19688   -19564   -19703   -19974 
  -20201   -20471   -21030   -21740   -22088   -21814   -21180   -20602 
  -20312   -20286   -20333   -20270   -20140   -20185   -20480   -20839 
  -21116   -21358   -21579   -21558   -21073   -20279   -19622   -19446 
  -19750   -20271   -20715   -20864   -20723   -20540   -20495   -20644 
  -20964   -21195   -21022   -20493   -19961   -19714   -19712   -19788 
  -20055   -20719   -21608   -22216   -22102   -21227   -20112   -19372 
  -19191   -19407   -19889   -20606   -21427   -22019   -22048   -21455 
  -20552   -19834   -19622   -19890   -20424   -21007   -21455   -21583 
  -21284   -20684   -20061   -19664   -19680   -20116   -20808   -21570 
  -22154   -22264   -21793   -20930   -20021   -19376   -19214   -19660 
  -20605   -21608   -22083   -21721   -20736   -19683   -19091   -19236 
  -20017   -21007   -21702   -21825   -21405   -20725   -20183   -20070 
  -20368   -20853   -21261   -21374   -21092   -20502   -19867   -19522 
  -19619   -20024   -20505   -20865   -20970   -20877   -20767   -20734 
  -20733   -20684   -20603   -20584   -20719   -20987   -21161   -20987 
  -20449   -19781   -19311   -19309   -19768   -20397   -20908   -21184 
  -21180   -20912   -20509   -20239   -20364   -20831   -21235   -21305 
  -21199   -21103   -20937   -20587   -20108   -19708   -19654   -20040 
  -20696   -21340   -21676   -21465   -20745   -19947   -19568   -19785 
  -20480   -21386   -22100   -22225   -21633   -20596   -19633   -19168 
  -19310   -19901   -20664   -21313   -21675   -21682   -21330   -20704 
  -20011   -19587   -19754   -20484   -21424   -22111   -22221   -21767 
  -20985   -20135   -19530   -19444   -19859   -20466   -20891   -20908 
  -20610   -20364   -20345   -20471   -20706   -20953   -20995   -20783 
  -20591   -20714   -21028   -21107   -20773   -20271   -19973   -20061 
  -20502   -21138   -21622   -21578   -20910   -19865   -18913   -18527 
  -18958   -20106   -21447   -22260   -22145   -21266   -20131   -19226 
  -18824   -18952   -19530   -20456   -21432   -21969   -21853   -21373 
  -20941   -20682   -20495   -20372   -20420   -20722   -21235   -21713 
  -21836   -21466   -20765   -20120   -19893   -20110   -20447   -20574 
  -20445   -20233   -20175   -20360   -20614   -20744   -20767   -20783 
  -20881   -21003   -20965   -20771   -20575   -20420   -20348   -20493 
  -20792   -20943   -20798   -20540   -20387   -20376   -20484   -20746 
  -21154   -21532   -21690   -21618   -21359   -20854   -20121   -19479 
  -19298   -19656   -20398   -21174   -21467   -21049   -20314   -19824 
  -19780   -20070   -20451   -20642   -20542   -20289   -20140   -20329 
  -20802   -21239   -21394   -21200   -20750   -20310   -20113   -20174 
  -20393   -20638   -20767   -20694   -20520   -20495   -20702   -20966 
  -21069   -20877   -20479   -20164   -20139   -20425   -20911   -21385 
  -21631   -21483   -20938   -20304   -19996   -20088   -20326   -20547 
  -20742   -20888   -20908   -20833   -20804   -20856   -20830   -20621 
  -20295   -20019   -19924   -20093   -20520   -21022   -21357   -21393 
  -21116   -20661   -20274   -20137   -20301   -20692   -21089   -21258 
  -21141   -20811   -20378   -19965   -19664   -19546   -19732   -20274 
  -20987   -21582   -21805   -21487   -20776   -20065   -19658   -19678 
  -20035   -20483   -20811   -20910   -20831   -20771   -20815   -20850 
  -20744   -20509   -20275   -20181   -20312   -20673   -21149   -21541 
  -21628   -21288   -20723   -20328   -20299   -20552   -20891   -21146 
  -21188   -20938   -20448   -19930   -19620   -19611   -19800   -20015 
  -20229   -20542   -20922   -21135   -21043   -20799   -20648   -20630 
  -20633   -20690   -20956   -21334   -21423   -21045   -20483   -20147 
  -20167   -20359   -20579   -20885   -21288   -21587   -21525   -21043 
  -20382   -19900   -19792   -19948   -20205   -20565   -20952   -21130 
  -20960   -20514   -20092   -19971   -20128   -20393   -20696   -20957 
  -20974   -20669   -20313   -20282   -20679   -21236   -21492   -21211 
  -20601   -20024   -19718   -19738   -20025   -20490   -21022   -21463 
  -21647   -21506   -21143   -20707   -20263   -19828   -19507   -19539 
  -20023   -20709   -21166   -21131   -20730   -20333   -20142   -20132 
  -20289   -20675   -21267   -21764   -21744   -21169   -20486   -20094 
  -20011   -20112   -20378   -20817   -21328   -21681   -21605   -21043 
  -20295   -19789   -19697   -19911   -20314   -20818   -21205   -21217 
  -20849   -20362   -20005   -19896   -20135   -20706   -21323   -21574 
  -21278   -20690   -20263   -20258   -20601   -20966   -21066   -20876 
  -20583   -20383   -20331   -20322   -20281   -20232   -20233   -20278 
  -20367   -20560   -20862   -21153   -21236   -20943   -20344   -19834 
  -19845   -20464   -21350   -21951   -21880   -21188   -20313   -19762 
  -19762   -20175   -20710   -21138   -21350   -21286   -20893   -20316 
