Origin Time       2025/03/30 22:55:00
Lat.              41.993
Long.             142.725
Depth. (km)       55
Mag.              4.6
Station Code      AOM003
Station Lat.      41.4054
Station Long.     141.1699
Station Height(m) 2
Record Time       2025/03/30 22:56:38
Sampling Freq(Hz) 100Hz
Duration Time(s)  60
Dir.              E-W
Scale Factor      7845(gal)/8223790
Max. Acc. (gal)   2.361
Last Correction   2025/03/30 22:56:38
Memo.             
[...]
   -1833    -1957    -2023    -1995    -1917    -1804    -1686    -1628 
   -1609    -1559    -1516    -1536    -1618    -1742    -1858    -1948 
   -2026    -2043    -1958    -1867    -1833    -1787    -1702    -1620 
   -1555    -1559    -1678    -1848    -1944    -1926    -1876    -1796 
   -1638    -1480    -1386    -1345    -1364    -1432    -1530    -1660 
   -1806    -1953    -2065    -2069    -1992    -1930    -1908    -1885 
   -1829    -1764    -1736    -1711    -1690    -1729    -1817    -1876 
   -1849    -1738    -1633    -1579    -1529    -1489    -1480    -1464 
   -1447    -1476    -1541    -1657    -1852    -2019    -2064    -2061 
   -2066    -2035    -1977    -1914    -1829    -1763    -1755    -1768 
   -1738    -1651    -1572    -1556    -1583    -1642    -1696    -1710 
   -1703    -1683    -1659    -1641    -1636    -1671    -1744    -1814 
   -1872    -1938    -1981    -1956    -1888    -1821    -1732    -1614 
   -1518    -1489    -1528    -1575    -1584    -1584    -1603    -1655 
   -1752    -1884    -2027    -2137    -2151    -2089    -2030    -1988 
   -1890    -1688    -1464    -1324    -1296    -1356    -1467    -1561 
   -1609    -1644    -1703    -1809    -1917    -1980    -1993    -1931 
   -1810    -1726    -1734    -1802    -1877    -1938    -1976    -1960 
   -1875    -1763    -1652    -1582    -1599    -1625    -1578    -1543 
   -1571    -1586    -1533    -1458    -1440    -1544    -1749    -1958 
   -2097    -2139    -2101    -2019    -1937    -1903    -1938    -1995 
   -1981    -1856    -1667    -1475    -1347    -1314    -1308    -1300 
   -1370    -1499    -1628    -1769    -1891    -1950    -2000    -2030 
   -2008    -1972    -1939    -1876    -1788    -1713    -1664    -1606 
   -1559    -1614    -1779    -1938    -2033    -2070    -2012    -1849 
   -1676    -1561    -1460    -1367    -1345    -1399    -1482    -1579 
   -1692    -1773    -1799    -1854    -1961    -2022    -2038    -2084 
   -2104    -2034    -1941    -1853    -1695    -1493    -1355    -1296 
   -1291    -1358    -1468    -1591    -1722    -1837    -1925    -1999 
   -2050    -2052    -1985    -1894    -1834    -1764    -1640    -1552 
   -1556    -1594    -1655    -1753    -1803    -1784    -1827    -1954 
   -2035    -1998    -1869    -1722    -1605    -1568    -1651    -1709 
   -1613    -1498    -1495    -1534    -1557    -1583    -1620    -1660 
   -1756    -1948    -2120    -2145    -2077    -1961    -1792    -1649 
   -1594    -1595    -1615    -1652    -1696    -1690    -1663    -1745 
   -1907    -2033    -2106    -2080    -1904    -1715    -1636    -1602 
   -1537    -1443    -1348    -1282    -1277    -1344    -1439    -1510 
   -1613    -1831    -2068    -2216    -2358    -2455    -2347    -2124 
   -1952    -1791    -1622    -1526    -1502    -1490    -1525    -1653 
   -1787    -1838    -1848    -1819    -1728    -1649    -1614    -1555 
   -1491    -1503    -1590    -1706    -1811    -1853    -1742    -1517 
   -1391    -1466    -1637    -1810    -1902    -1873    -1852    -1961 
   -2096    -2111    -2020    -1879    -1723    -1679    -1753    -1775 
   -1703    -1647    -1665    -1773    -1931    -2015    -1945    -1809 
   -1715    -1655    -1593    -1521    -1463    -1445    -1460    -1536 
   -1675    -1742    -1729    -1757    -1782    -1750    -1753    -1786 
   -1765    -1760    -1852    -1962    -2011    -2019    -2010    -1952 
   -1840    -1749    -1691    -1626    -1624    -1730    -1807    -1782 
   -1738    -1701    -1613    -1528    -1498    -1474    -1449    -1433 
   -1377    -1316    -1372    -1530    -1661    -1746    -1831    -1912 
   -1998    -2108    -2211    -2276    -2276    -2223    -2153    -2019 
   -1846    -1732    -1691    -1711    -1760    -1728    -1617    -1517 
   -1435    -1405    -1486    -1551    -1480    -1379    -1382    -1487 
   -1649    -1794    -1830    -1788    -1772    -1822    -1918    -2041 
   -2141    -2165    -2114    -2029    -1941    -1892    -1857    -1728 
   -1507    -1339    -1302    -1362    -1462    -1552    -1620    -1738 
   -1933    -2081    -2093    -1999    -1852    -1692    -1553    -1451 
   -1404    -1399    -1436    -1532    -1679    -1854    -2023    -2168 
   -2307    -2388    -2297    -2049    -1756    -1506    -1337    -1264 
   -1291    -1375    -1441    -1493    -1561    -1653    -1800    -1988 
   -2131    -2196    -2226    -2200    -2046    -1841    -1705    -1624 
   -1567    -1516    -1424    -1310    -1290    -1412    -1574    -1691 
   -1815    -1927    -1964    -2002    -2069    -2061    -1962    -1868 
   -1796    -1687    -1579    -1522    -1468    -1441    -1524    -1679 
   -1818    -1915    -1985    -2026    -2008    -1958    -1931    -1912 
   -1879    -1836    -1767    -1669    -1574    -1495    -1437    -1433 
   -1512    -1634    -1722    -1750    -1723    -1661    -1664    -1772 
   -1877    -1915    -1904    -1844    -1752    -1676    -1615    -1529 
   -1435    -1433    -1575    -1748    -1829    -1867    -1950    -2027 
   -2050    -2065    -2061    -1964    -1809    -1694    -1644    -1625 
   -1590    -1512    -1459    -1474    -1482    -1476    -1509    -1541 
   -1579    -1702    -1861    -1958    -2035    -2137    -2170    -2111 
   -2043    -1950    -1823    -1750    -1718    -1694    -1683    -1651 
   -1582    -1495    -1424    -1451    -1583    -1714    -1780    -1784 
   -1775    -1821    -1853    -1803    -1757    -1736    -1675    -1630 
   -1648    -1686    -1703    -1715    -1802    -1966    -2091    -2107 
   -2041    -1921    -1753    -1591    -1485    -1399    -1355    -1451 
   -1621    -1694    -1692    -1711    -1721    -1707    -1710    -1679 
   -1611    -1651    -1813    -1944    -2025    -2123    -2154    -2079 
   -1993    -1912    -1798    -1694    -1594    -1460    -1410    -1501 
   -1586    -1611    -1680    -1796    -1858    -1845    -1822    -1803 
   -1713    -1610    -1626    -1709    -1775    -1849    -1896    -1883 
   -1867    -1860    -1840    -1792    -1699    -1603    -1566    -1580 
   -1651    -1744    -1769    -1721    -1649    -1609    -1686    -1840 
   -1876    -1756    -1618    -1601    -1737    -1895    -1919    -1848 
   -1759    -1694    -1729    -1844    -1907    -1872    -1768    -1640 
   -1582    -1645    -1749    -1780    -1730    -1678    -1645    -1610 
   -1625    -1715    -1776    -1777    -1821    -1887    -1876    -1822 
   -1767    -1661    -1522    -1470    -1566    -1767    -1977    -2089 
   -2069    -1985    -1914    -1837    -1723    -1615    -1530    -1443 
   -1377    -1379    -1449    -1567    -1684    -1783    -1894    -1996 
   -2015    -1964    -1937    -1966    -1965    -1887    -1800    -1761 
   -1771    -1814    -1825    -1761    -1706    -1737    -1794    -1803 
   -1777    -1701    -1543    -1387    -1341    -1367    -1390    -1418 
   -1470    -1543    -1661    -1817    -1918    -1910    -1864    -1898 
   -2025    -2133    -2145    -2114    -2077    -2015    -1957    -1950 
   -1935    -1809    -1626    -1505    -1470    -1499    -1549    -1580 
   -1614    -1678    -1749    -1767    -1686    -1560    -1486    -1470 
   -1471    -1485    -1509    -1545    -1615    -1738    -1877    -1979 
   -2019    -2016    -2011    -2031    -2070    -2081    -2026    -1902 
   -1737    -1603    -1555    -1555    -1543    -1514    -1517    -1580 
   -1660    -1715    -1745    -1730    -1699    -1728    -1809    -1880 
   -1904    -1853    -1729    -1613    -1603    -1692    -1783    -1846 
   -1885    -1841    -1736    -1674    -1669    -1682    -1707    -1732 
   -1767    -1815    -1834    -1802    -1717    -1599    -1544    -1618 
   -1761    -1861    -1899    -1929    -1985    -2096    -2219    -2208 
   -2031    -1787    -1526    -1297    -1177    -1156    -1173    -1221 
   -1359    -1572    -1771    -1910    -1971    -1944    -1900    -1910 
   -1929    -1927    -1939    -1983    -2014    -1966    -1831    -1706 
   -1630    -1593    -1607    -1641    -1605    -1495    -1401    -1399 
   -1486    -1602    -1710    -1802    -1846    -1846    -1867    -1912 
   -1902    -1875    -1969    -2134    -2227    -2242    -2160    -1922 
   -1641    -1490    -1455    -1378    -1236    -1192    -1271    -1362 
   -1529    -1819    -2047    -2089    -2065    -2070    -2030    -1903 
   -1773    -1672    -1570    -1510    -1539    -1598    -1661    -1759 
   -1865    -1930    -1930    -1881    -1795    -1707    -1682    -1732 
   -1772    -1733    -1628    -1522    -1505    -1575    -1637    -1640 
   -1605    -1582    -1696    -1972    -2220    -2259    -2116    -1941 
   -1806    -1705    -1638    -1580    -1530    -1572    -1738    -1938 
   -2019    -1898    -1699    -1614    -1652    -1719    -1780    -1818 
   -1787    -1692    -1593    -1503    -1398    -1347    -1417    -1540 
   -1655    -1788    -1930    -1989    -1965    -1964    -1969    -1912 
   -1890    -1939    -1958    -1938    -1915    -1802    -1580    -1410 
   -1416    -1553    -1742    -1934    -2027    -1954    -1811    -1706 
   -1636    -1583    -1543    -1483    -1424    -1440    -1528    -1605 
   -1644    -1728    -1899    -2037    -2060    -2030    -1987    -1950 
   -1952    -1966    -1962    -1896    -1715    -1502    -1402    -1425 
   -1506    -1574    -1540    -1439    -1399    -1440    -1462    -1452 
   -1502    -1634    -1810    -2027    -2223    -2300    -2319    -2365 
   -2358    -2222    -1988    -1741    -1540    -1393    -1336    -1394 
   -1470    -1475    -1458    -1482    -1543    -1620    -1687    -1696 
   -1645    -1614    -1690    -1837    -1949    -1985    -1968    -1922 
   -1881    -1880    -1902    -1898    -1850    -1791    -1794    -1852 
   -1854    -1784    -1721    -1691    -1709    -1752    -1709    -1607 
   -1598    -1656    -1710    -1786    -1838    -1823    -1795    -1742 
   -1644    -1590    -1605    -1586    -1513    -1475    -1509    -1537 
   -1506    -1493    -1525    -1539    -1591    -1757    -1917    -1996 
   -2062    -2107    -2101    -2096    -2072    -1969    -1809    -1630 
   -1495    -1479    -1563    -1657    -1726    -1773    -1780    -1728 
   -1661    -1617    -1561    -1491    -1470    -1498    -1543    -1648 
   -1833    -1976    -2006    -2011    -2030    -2030    -2004    -1949 
   -1875    -1783    -1682    -1618    -1587    -1603    -1725    -1896 
   -2034    -2137    -2232    -2340    -2428    -2446    -2371    -2195 
   -1958    -1744    -1530    -1267    -1027     -893     -869     -934 
   -1082    -1264    -1433    -1593    -1750    -1892    -1981    -2000 
   -1973    -1912    -1837    -1818    -1844    -1806    -1692    -1582 
   -1502    -1483    -1578    -1725    -1837    -1931    -1991    -1973 
   -1948    -1991    -2073    -2108    -2073    -2038    -2000    -1915 
   -1825    -1771    -1764    -1768    -1707    -1607    -1568    -1622 
   -1701    -1722    -1674    -1563    -1428    -1378    -1480    -1694 
   -1891    -2023    -2138    -2203    -2197    -2177    -2074    -1811 
   -1518    -1372    -1366    -1371    -1352    -1358    -1414    -1553 
   -1817    -2128    -2326    -2377    -2411    -2470    -2461    -2347 
   -2191    -1979    -1657    -1278     -930     -584     -182      176 
     356      344      149     -270     -842    -1402    -1900    -2305 
   -2535    -2668    -2879    -3168    -3385    -3407    -3175    -2771 
   -2369    -2030    -1740    -1539    -1428    -1352    -1324    -1381 
   -1447    -1444    -1416    -1418    -1471    -1588    -1755    -1911 
   -1980    -1934    -1857    -1749    -1539    -1308    -1198    -1237 
   -1424    -1761    -2122    -2277    -2209    -2103    -2074    -2139 
   -2255    -2293    -2188    -2007    -1769    -1517    -1363    -1283 
   -1231    -1266    -1370    -1480    -1603    -1740    -1872    -1971 
   -1995    -1958    -1899    -1800    -1714    -1767    -1891    -1937 
   -1996    -2165    -2300    -2316    -2330    -2313    -2079    -1695 
   -1387    -1182    -1042     -959     -834     -614     -429     -456 
    -718    -1084    -1462    -1815    -2107    -2390    -2728    -3022 
   -3126    -3021    -2775    -2446    -2087    -1756    -1466    -1177 
    -820     -406     -106     -162     -625    -1258    -1817    -2242 
   -2479    -2519    -2511    -2542    -2528    -2405    -2214    -2023 
   -1899    -1911    -2014    -2070    -2079    -2095    -2118    -2161 
   -2133    -1912    -1555    -1165     -835     -702     -743     -812 
    -877     -992    -1147    -1337    -1587    -1850    -2066    -2258 
   -2447    -2605    -2722    -2797    -2781    -2644    -2411    -2076 
   -1706    -1489    -1486    -1564    -1556    -1406    -1289    -1398 
   -1605    -1674    -1588    -1420    -1170     -899     -742     -751 
    -846     -967    -1102    -1229    -1405    -1760    -2301    -2802 
   -3010    -2875    -2519    -2191    -2124    -2270    -2336    -2124 
   -1702    -1340    -1246    -1325    -1391    -1406    -1371    -1328 
   -1409    -1587    -1642    -1549    -1471    -1485    -1620    -1895 
   -2232    -2570    -2813    -2825    -2700    -2635    -2589    -2470 
   -2332    -2197    -2060    -1964    -1875    -1683    -1352     -936 
    -553     -336     -317     -386     -454     -546     -658     -824 
   -1189    -1732    -2216    -2500    -2609    -2629    -2614    -2548 
   -2454    -2404    -2411    -2450    -2479    -2450    -2428    -2554 
   -2775    -2829    -2500    -1799     -962     -284       99      220 
     166       -4     -306     -684     -969    -1169    -1352    -1421 
   -1406    -1533    -1867    -2385    -3126    -3861    -4218    -4199 
   -3979    -3632    -3275    -2928    -2407    -1669     -922     -386 
    -159     -145     -244     -472     -720     -870    -1036    -1244 
   -1336    -1350    -1468    -1714    -2018    -2265    -2259    -2045 
   -1934    -2006    -2089    -2116    -2095    -2049    -2056    -2162 
   -2290    -2281    -2089    -1819    -1578    -1432    -1343    -1190 
   -1020    -1050    -1382    -1849    -2092    -1907    -1453    -1073 
   -1046    -1410    -1860    -2030    -1918    -1779    -1752    -1771 
   -1702    -1494    -1210    -1040    -1173    -1587    -2072    -2403 
   -2506    -2502    -2520    -2502    -2309    -1910    -1440    -1132 
   -1116    -1254    -1270    -1082     -908    -1026    -1421    -1827 
   -2080    -2182    -2265    -2531    -2922    -3118    -2980    -2596 
   -2116    -1730    -1541    -1490    -1467    -1443    -1497    -1653 
   -1800    -1821    -1679    -1424    -1185    -1051    -1009    -1046 
   -1143    -1235    -1270    -1305    -1439    -1657    -1937    -2344 
   -2839    -3199    -3288    -3083    -2573    -1944    -1552    -1520 
   -1729    -2058    -2290    -2173    -1745    -1256     -849     -591 
    -548     -638     -712     -756     -845    -1003    -1121    -1075 
    -916     -804     -888    -1274    -1895    -2550    -3148    -3643 
   -3858    -3728    -3423    -3073    -2720    -2471    -2366    -2227 
   -1895    -1447    -1053     -810     -774     -896     -981     -939 
    -857     -826     -859     -957    -1105    -1263    -1406    -1556 
   -1761    -2053    -2344    -2501    -2492    -2377    -2262    -2263 
   -2396    -2513    -2459    -2265    -2154    -2285    -2543    -2670 
   -2544    -2270    -1972    -1655    -1327    -1000     -676     -440 
    -396     -535     -742     -950    -1166    -1355    -1417    -1324 
   -1219    -1297    -1582    -1917    -2157    -2300    -2376    -2359 
   -2243    -2039    -1792    -1622    -1637    -1829    -2083    -2181 
   -1976    -1645    -1491    -1545    -1675    -1752    -1638    -1395 
   -1343    -1645    -2119    -2500    -2631    -2478    -2195    -2020 
   -2033    -2114    -2143    -2091    -1944    -1672    -1264     -804 
    -426     -220     -224     -413     -711    -1066    -1447    -1795 
   -2081    -2262    -2254    -2110    -2015    -2046    -2155    -2288 
   -2405    -2479    -2492    -2461    -2452    -2516    -2621    -2683 
   -2604    -2350    -2014    -1738    -1586    -1456    -1185     -734 
    -280      -54      -81     -207     -346     -494     -625     -815 
   -1170    -1621    -2052    -2378    -2547    -2679    -2929    -3294 
   -3661    -3869    -3802    -3515    -3127    -2718    -2376    -2176 
   -2039    -1871    -1664    -1413    -1138     -886     -656     -459 
    -299     -176     -137     -167     -203     -294     -517     -896 
   -1333    -1647    -1814    -1961    -2141    -2330    -2484    -2542 
   -2458    -2277    -2196    -2338    -2589    -2776    -2758    -2473 
   -2079    -1796    -1664    -1570    -1391    -1104     -864     -877 
   -1236    -1884    -2525    -2832    -2812    -2606    -2304    -2022 
   -1809    -1607    -1391    -1178    -1023     -986    -1074    -1220 
   -1347    -1460    -1617    -1792    -1899    -1911    -1845    -1682 
   -1499    -1464    -1574    -1683    -1757    -1823    -1845    -1864 
   -2007    -2191    -2196    -2097    -2127    -2266    -2384    -2467 
   -2479    -2401    -2351    -2343    -2207    -1868    -1408     -919 
    -515     -359     -488     -730     -882     -895     -839     -843 
    -982    -1189    -1402    -1676    -2033    -2374    -2602    -2698 
   -2636    -2413    -2134    -1887    -1711    -1606    -1479    -1352 
   -1379    -1539    -1738    -1976    -2196    -2351    -2475    -2531 
   -2488    -2438    -2424    -2322    -2050    -1690    -1354    -1144 
   -1105    -1128    -1108    -1062    -1077    -1227    -1466    -1609 
   -1541    -1331    -1097    -1019    -1302    -1892    -2471    -2786 
   -2810    -2682    -2543    -2415    -2284    -2170    -2126    -2143 
   -2092    -1892    -1615    -1325    -1058     -882     -757     -579 
    -456     -533     -780    -1093    -1367    -1548    -1663    -1752 
   -1933    -2299    -2722    -3037    -3249    -3360    -3308    -3079 
   -2679    -2164    -1668    -1293    -1023     -838     -716     -641 
    -634     -711     -865    -1131    -1498    -1819    -1950    -1950 
   -1957    -1992    -2046    -2120    -2127    -2043    -2023    -2160 
   -2357    -2519    -2619    -2597    -2407    -2066    -1637    -1233 
    -981     -907     -994    -1179    -1331    -1426    -1548    -1718 
   -1894    -2057    -2203    -2265    -2234    -2208    -2208    -2196 
   -2168    -2115    -2006    -1817    -1588    -1405    -1260    -1057 
    -780     -533     -402     -400     -496     -631     -758     -922 
   -1232    -1718    -2270    -2728    -2968    -2970    -2835    -2748 
   -2781    -2839    -2868    -2864    -2758    -2525    -2238    -1949 
   -1692    -1514    -1389    -1270    -1155    -1039     -892     -751 
    -654     -626     -735     -949    -1123    -1237    -1368    -1506 
   -1629    -1795    -2011    -2196    -2336    -2470    -2548    -2502 
   -2382    -2290    -2218    -2126    -2079    -2072    -2022    -1946 
   -1875    -1767    -1696    -1740    -1771    -1684    -1543    -1410 
   -1291    -1186    -1094    -1021     -981    -1019    -1181    -1406 
   -1593    -1718    -1802    -1860    -1922    -1992    -2016    -1958 
   -1852    -1769    -1769    -1875    -2025    -2099    -2062    -2004 
   -1983    -1991    -2039    -2110    -2131    -2057    -1900    -1692 
   -1474    -1305    -1271    -1418    -1683    -1923    -2073    -2154 
   -2166    -2116    -2003    -1809    -1580    -1410    -1362    -1453 
