Origin Time       2025/03/30 22:55:00
Lat.              41.993
Long.             142.725
Depth. (km)       55
Mag.              4.6
Station Code      AOM011
Station Lat.      40.6803
Station Long.     141.3669
Station Height(m) 43
Record Time       2025/03/30 22:56:48
Sampling Freq(Hz) 100Hz
Duration Time(s)  60
Dir.              U-D
Scale Factor      7845(gal)/8223790
Max. Acc. (gal)   1.024
Last Correction   2025/03/30 22:56:49
Memo.             
[...]
   -7271    -7496    -7619    -7591    -7431    -7206    -7013    -6909 
   -6895    -7005    -7211    -7407    -7541    -7607    -7562    -7427 
   -7276    -7136    -7021    -6961    -6960    -7021    -7153    -7314 
   -7433    -7487    -7501    -7469    -7356    -7177    -6975    -6824 
   -6798    -6845    -6901    -7037    -7291    -7551    -7720    -7759 
   -7628    -7344    -7065    -6944    -6975    -7057    -7126    -7164 
   -7172    -7173    -7182    -7161    -7114    -7142    -7279    -7376 
   -7322    -7229    -7240    -7314    -7302    -7161    -7020    -7003 
   -7072    -7133    -7200    -7281    -7342    -7364    -7335    -7264 
   -7183    -7123    -7094    -7105    -7169    -7298    -7460    -7541 
   -7466    -7318    -7221    -7177    -7106    -6982    -6925    -7029 
   -7188    -7260    -7260    -7271    -7334    -7419    -7461    -7466 
   -7488    -7495    -7404    -7191    -6918    -6697    -6574    -6550 
   -6654    -6930    -7339    -7740    -7982    -8017    -7898    -7673 
   -7354    -7005    -6760    -6696    -6740    -6825    -6987    -7226 
   -7411    -7443    -7388    -7357    -7358    -7319    -7229    -7191 
   -7263    -7319    -7237    -7084    -7014    -7082    -7218    -7317 
   -7360    -7435    -7558    -7581    -7407    -7155    -6994    -6944 
   -6903    -6849    -6887    -7053    -7236    -7338    -7354    -7322 
   -7304    -7312    -7315    -7334    -7369    -7361    -7295    -7180 
   -7040    -6949    -6968    -7067    -7196    -7322    -7392    -7402 
   -7371    -7292    -7206    -7137    -7047    -6944    -6910    -6967 
   -7074    -7244    -7480    -7663    -7646    -7447    -7238    -7107 
   -7049    -7040    -7037    -7057    -7194    -7410    -7501    -7376 
   -7198    -7175    -7295    -7344    -7237    -7149    -7173    -7203 
   -7190    -7199    -7226    -7196    -7117    -7082    -7125    -7209 
   -7295    -7329    -7285    -7245    -7273    -7341    -7383    -7348 
   -7258    -7159    -7055    -6984    -7005    -7094    -7146    -7122 
   -7160    -7315    -7407    -7375    -7345    -7337    -7263    -7121 
   -7032    -7094    -7203    -7213    -7177    -7195    -7231    -7250 
   -7261    -7241    -7172    -7132    -7190    -7269    -7304    -7339 
   -7368    -7331    -7277    -7281    -7291    -7180    -6956    -6791 
   -6864    -7146    -7412    -7531    -7547    -7496    -7376    -7246 
   -7165    -7160    -7237    -7344    -7358    -7227    -7025    -6870 
   -6832    -6922    -7101    -7280    -7388    -7427    -7420    -7377 
   -7361    -7395    -7400    -7319    -7155    -6952    -6797    -6751 
   -6821    -6967    -7172    -7431    -7638    -7665    -7510    -7306 
   -7227    -7268    -7242    -7114    -7053    -7142    -7233    -7171 
   -7034    -6978    -7048    -7225    -7411    -7495    -7489    -7439 
   -7350    -7248    -7141    -7045    -7017    -7072    -7168    -7261 
   -7295    -7260    -7209    -7190    -7199    -7186    -7113    -7041 
   -7051    -7164    -7342    -7515    -7641    -7651    -7508    -7326 
   -7202    -7094    -6986    -6901    -6874    -6934    -7030    -7107 
   -7195    -7308    -7399    -7422    -7379    -7325    -7311    -7303 
   -7252    -7194    -7169    -7160    -7145    -7130    -7132    -7156 
   -7183    -7221    -7295    -7395    -7461    -7439    -7323    -7159 
   -7003    -6891    -6867    -6959    -7125    -7275    -7365    -7392 
   -7365    -7337    -7307    -7213    -7133    -7198    -7326    -7354 
   -7268    -7160    -7129    -7180    -7241    -7281    -7312    -7302 
   -7250    -7211    -7194    -7138    -7069    -7068    -7115    -7138 
   -7146    -7175    -7234    -7303    -7354    -7430    -7528    -7539 
   -7411    -7233    -7096    -7021    -6966    -6907    -6871    -6928 
   -7105    -7287    -7365    -7368    -7353    -7364    -7411    -7402 
   -7317    -7279    -7277    -7198    -7082    -7037    -7056    -7088 
   -7119    -7160    -7226    -7311    -7358    -7339    -7288    -7241 
   -7236    -7260    -7245    -7203    -7191    -7210    -7240    -7238 
   -7191    -7149    -7134    -7140    -7172    -7199    -7219    -7263 
   -7318    -7366    -7369    -7312    -7258    -7241    -7204    -7125 
   -7075    -7109    -7165    -7217    -7277    -7302    -7267    -7206 
   -7152    -7163    -7236    -7288    -7296    -7303    -7318    -7312 
   -7230    -7047    -6875    -6885    -7090    -7295    -7364    -7375 
   -7427    -7480    -7447    -7323    -7188    -7121    -7083    -7006 
   -6925    -6944    -7052    -7145    -7242    -7398    -7522    -7527 
   -7446    -7330    -7245    -7223    -7186    -7091    -7026    -7033 
   -7084    -7157    -7194    -7196    -7245    -7314    -7317    -7273 
   -7237    -7225    -7244    -7267    -7257    -7222    -7176    -7142 
   -7148    -7179    -7173    -7144    -7176    -7281    -7381    -7404 
   -7325    -7221    -7206    -7234    -7180    -7079    -7057    -7128 
   -7211    -7268    -7302    -7325    -7326    -7300    -7253    -7167 
   -7047    -6971    -7002    -7138    -7319    -7460    -7508    -7427 
   -7252    -7148    -7168    -7171    -7095    -7033    -7044    -7113 
   -7213    -7330    -7431    -7456    -7392    -7323    -7263    -7126 
   -6968    -6924    -6983    -7072    -7198    -7375    -7503    -7481 
   -7379    -7308    -7257    -7179    -7128    -7177    -7285    -7302 
   -7164    -7042    -7117    -7283    -7337    -7271    -7176    -7111 
   -7098    -7101    -7072    -7063    -7149    -7285    -7362    -7337 
   -7249    -7188    -7206    -7277    -7380    -7492    -7522    -7430 
   -7291    -7175    -7084    -7033    -7061    -7160    -7215    -7160 
   -7088    -7105    -7186    -7263    -7290    -7265    -7257    -7317 
   -7385    -7403    -7368    -7277    -7149    -7040    -6972    -6945 
   -6993    -7126    -7292    -7430    -7495    -7449    -7308    -7153 
   -7067    -7079    -7165    -7252    -7279    -7249    -7213    -7195 
   -7176    -7148    -7137    -7156    -7177    -7164    -7123    -7145 
   -7261    -7369    -7361    -7238    -7109    -7078    -7130    -7209 
   -7298    -7395    -7477    -7483    -7365    -7191    -7080    -7068 
   -7075    -7040    -7021    -7099    -7242    -7357    -7402    -7379 
   -7322    -7263    -7210    -7150    -7060    -6960    -6922    -6995 
   -7164    -7380    -7568    -7643    -7573    -7410    -7242    -7105 
   -6945    -6778    -6763    -6964    -7214    -7354    -7366    -7308 
   -7290    -7357    -7429    -7430    -7377    -7288    -7142    -6982 
   -6898    -6947    -7109    -7279    -7317    -7245    -7263    -7408 
   -7495    -7425    -7298    -7230    -7233    -7207    -7078    -6944 
   -6947    -7055    -7155    -7219    -7294    -7365    -7400    -7426 
   -7435    -7387    -7304    -7222    -7165    -7146    -7137    -7111 
   -7068    -7025    -7051    -7190    -7385    -7534    -7584    -7539 
   -7400    -7187    -6987    -6871    -6831    -6868    -6994    -7159 
   -7294    -7362    -7391    -7430    -7452    -7376    -7248    -7159 
   -7114    -7118    -7194    -7271    -7260    -7194    -7184    -7260 
   -7302    -7244    -7196    -7236    -7275    -7227    -7125    -7053 
   -7074    -7152    -7225    -7258    -7238    -7207    -7219    -7246 
   -7263    -7276    -7264    -7234    -7215    -7215    -7195    -7113 
   -7053    -7125    -7260    -7319    -7315    -7352    -7422    -7419 
   -7307    -7177    -7110    -7069    -7013    -6987    -7053    -7177 
   -7285    -7345    -7383    -7437    -7464    -7399    -7272    -7165 
   -7106    -7074    -7059    -7083    -7156    -7242    -7291    -7275 
   -7250    -7272    -7307    -7341    -7385    -7361    -7211    -7034 
   -6945    -6943    -6994    -7069    -7130    -7196    -7304    -7379 
   -7371    -7348    -7337    -7314    -7312    -7311    -7261    -7209 
   -7176    -7129    -7067    -7014    -7005    -7069    -7180    -7290 
   -7393    -7503    -7568    -7497    -7317    -7123    -6980    -6945 
   -7020    -7102    -7144    -7213    -7327    -7406    -7381    -7288 
   -7186    -7111    -7103    -7146    -7173    -7200    -7302    -7426 
   -7441    -7334    -7231    -7219    -7207    -7118    -7024    -7006 
   -7044    -7091    -7132    -7219    -7366    -7425    -7276    -7055 
   -7009    -7207    -7447    -7508    -7404    -7325    -7288    -7133 
   -6903    -6839    -7003    -7223    -7350    -7426    -7526    -7561 
   -7443    -7227    -7034    -6939    -6918    -6932    -6997    -7082 
   -7163    -7294    -7481    -7626    -7636    -7511    -7290    -7064 
   -6975    -7001    -6982    -6951    -7061    -7260    -7381    -7404 
   -7388    -7356    -7287    -7164    -7053    -7086    -7248    -7346 
   -7285    -7204    -7227    -7323    -7385    -7307    -7145    -7084 
   -7164    -7249    -7234    -7172    -7209    -7354    -7418    -7283 
   -7122    -7138    -7238    -7241    -7190    -7200    -7277    -7312 
   -7207    -7020    -6925    -7005    -7161    -7211    -7132    -7106 
   -7233    -7389    -7431    -7387    -7369    -7354    -7237    -7030 
   -6862    -6867    -7033    -7190    -7256    -7315    -7441    -7587 
   -7601    -7427    -7242    -7199    -7204    -7133    -7009    -6939 
   -7025    -7236    -7398    -7458    -7489    -7485    -7398    -7229 
   -7049    -6961    -6972    -7021    -7098    -7209    -7308    -7335 
   -7276    -7202    -7171    -7195    -7272    -7361    -7422    -7434 
   -7404    -7334    -7177    -6975    -6883    -6934    -7037    -7165 
   -7295    -7349    -7337    -7331    -7357    -7381    -7326    -7156 
   -6971    -6858    -6828    -6970    -7280    -7546    -7663    -7711 
   -7712    -7605    -7357    -7034    -6821    -6816    -6893    -6902 
   -6878    -6912    -7025    -7215    -7412    -7465    -7383    -7307 
   -7295    -7350    -7449    -7450    -7290    -7074    -6902    -6833 
   -6890    -7032    -7218    -7429    -7582    -7597    -7508    -7423 
   -7354    -7215    -7009    -6858    -6822    -6852    -6905    -7025 
   -7253    -7504    -7642    -7623    -7493    -7353    -7292    -7291 
   -7257    -7175    -7087    -7021    -6974    -6939    -6926    -6979 
   -7111    -7292    -7468    -7546    -7469    -7325    -7256    -7249 
   -7175    -7052    -7017    -7072    -7130    -7177    -7227    -7279 
   -7318    -7295    -7211    -7133    -7101    -7094    -7098    -7126 
   -7207    -7368    -7537    -7549    -7383    -7192    -7095    -7096 
   -7113    -7122    -7188    -7272    -7279    -7217    -7119    -7026 
   -7002    -7048    -7119    -7209    -7346    -7516    -7603    -7538 
   -7419    -7346    -7307    -7244    -7132    -7067    -7145    -7291 
   -7364    -7317    -7221    -7168    -7153    -7123    -7088    -7102 
   -7188    -7322    -7443    -7452    -7306    -7121    -7037    -7040 
   -7057    -7072    -7113    -7215    -7385    -7560    -7615    -7511 
   -7346    -7219    -7159    -7164    -7173    -7082    -6914    -6831 
   -6905    -7080    -7277    -7412    -7439    -7412    -7404    -7395 
   -7318    -7157    -6974    -6879    -6943    -7092    -7175    -7163 
   -7199    -7354    -7514    -7546    -7430    -7260    -7153    -7102 
   -7001    -6882    -6903    -7095    -7303    -7406    -7418    -7408 
   -7387    -7326    -7250    -7204    -7187    -7155    -7119    -7159 
   -7281    -7381    -7395    -7354    -7330    -7357    -7350    -7230 
   -7094    -7072    -7134    -7161    -7140    -7137    -7169    -7209 
   -7202    -7114    -7028    -7021    -7061    -7096    -7134    -7207 
   -7302    -7342    -7296    -7252    -7318    -7443    -7450    -7315 
   -7202    -7179    -7115    -6918    -6754    -6821    -7080    -7322 
   -7403    -7362    -7381    -7516    -7599    -7504    -7379    -7389 
   -7425    -7269    -6971    -6789    -6847    -7010    -7107    -7165 
   -7308    -7534    -7716    -7759    -7665    -7491    -7331    -7257 
   -7214    -7099    -6937    -6809    -6724    -6697    -6790    -7005 
   -7227    -7350    -7384    -7399    -7423    -7389    -7223    -6983 
   -6851    -6986    -7357    -7699    -7749    -7519    -7238    -7068 
   -6959    -6845    -6829    -6991    -7230    -7426    -7512    -7469 
   -7407    -7442    -7474    -7338    -7092    -6976    -7079    -7215 
   -7225    -7206    -7260    -7319    -7265    -7067    -6875    -6907 
   -7132    -7319    -7380    -7357    -7302    -7281    -7248    -7075 
   -6887    -6899    -7010    -7045    -7110    -7295    -7458    -7447 
   -7273    -7105    -7115    -7261    -7389    -7434    -7364    -7240 
   -7214    -7271    -7240    -7125    -7115    -7302    -7564    -7724 
   -7735    -7638    -7472    -7260    -6983    -6655    -6389    -6313 
   -6498    -6882    -7290    -7609    -7820    -7843    -7635    -7335 
   -7101    -6945    -6841    -6816    -6910    -7091    -7252    -7369 
   -7512    -7661    -7669    -7474    -7269    -7252    -7318    -7268 
   -7099    -6943    -6934    -7029    -7057    -7078    -7249    -7472 
   -7538    -7419    -7231    -7157    -7248    -7331    -7327    -7346 
   -7403    -7346    -7103    -6855    -6859    -7149    -7506    -7686 
   -7627    -7425    -7133    -6754    -6436    -6411    -6701    -7130 
   -7466    -7595    -7624    -7635    -7518    -7304    -7215    -7283 
   -7364    -7360    -7248    -7079    -6926    -6839    -6863    -7030 
   -7258    -7376    -7354    -7368    -7488    -7558    -7414    -7061 
   -6679    -6504    -6598    -6804    -6997    -7258    -7672    -8098 
   -8294    -8152    -7784    -7373    -7037    -6835    -6810    -6912 
   -7011    -7025    -6966    -6964    -7088    -7237    -7333    -7393 
   -7439    -7419    -7240    -6963    -6806    -6813    -6836    -6837 
   -6899    -7056    -7267    -7485    -7688    -7820    -7834    -7724 
   -7497    -7217    -6972    -6766    -6569    -6399    -6307    -6443 
   -6897    -7481    -7931    -8181    -8287    -8253    -8016    -7596 
   -7177    -6909    -6731    -6559    -6458    -6516    -6758    -7164 
   -7645    -8043    -8206    -8110    -7870    -7582    -7287    -7057 
   -6898    -6704    -6480    -6339    -6345    -6544    -6928    -7298 
   -7516    -7635    -7693    -7672    -7569    -7360    -7075    -6833 
   -6705    -6706    -6848    -7078    -7292    -7446    -7577    -7686 
   -7711    -7646    -7534    -7369    -7148    -6952    -6863    -6841 
   -6821    -6864    -7040    -7279    -7500    -7665    -7731    -7685 
   -7587    -7504    -7453    -7376    -7248    -7098    -6936    -6808 
   -6802    -6941    -7184    -7447    -7560    -7442    -7161    -6797 
   -6519    -6539    -6809    -7111    -7398    -7688    -7904    -7948 
   -7788    -7477    -7161    -6926    -6754    -6612    -6546    -6673 
   -6998    -7369    -7611    -7611    -7406    -7177    -7069    -7091 
   -7188    -7302    -7403    -7493    -7553    -7539    -7434    -7273 
   -7125    -7025    -6959    -6955    -7063    -7246    -7420    -7504 
   -7450    -7308    -7122    -6886    -6701    -6697    -6876    -7140 
   -7338    -7375    -7306    -7300    -7479    -7726    -7816    -7688 
   -7435    -7183    -6991    -6855    -6825    -7007    -7353    -7605 
   -7557    -7291    -7053    -6966    -7051    -7258    -7375    -7249 
   -7037    -6930    -6906    -6909    -6966    -7125    -7383    -7632 
   -7738    -7693    -7597    -7488    -7368    -7268    -7202    -7152 
   -7118    -7141    -7183    -7117    -6953    -6835    -6797    -6840 
   -7015    -7290    -7518    -7570    -7450    -7268    -7091    -6974 
   -6983    -7087    -7207    -7307    -7379    -7447    -7460    -7315 
   -7105    -6963    -6866    -6795    -6858    -7130    -7499    -7732 
   -7728    -7573    -7361    -7146    -7011    -7010    -7099    -7203 
   -7295    -7329    -7287    -7295    -7411    -7519    -7524    -7411 
   -7225    -7071    -7013    -7072    -7190    -7221    -7161    -7153 
   -7231    -7285    -7242    -7167    -7140    -7117    -7038    -6924 
   -6851    -6909    -7060    -7150    -7129    -7105    -7175    -7310 
   -7410    -7453    -7479    -7489    -7483    -7446    -7329    -7109 
   -6848    -6655    -6640    -6844    -7177    -7466    -7581    -7546 
   -7470    -7439    -7425    -7326    -7163    -7092    -7192    -7345 
   -7345    -7141    -6933    -6929    -7125    -7358    -7499    -7561 
   -7607    -7636    -7607    -7476    -7296    -7188    -7133    -7013 
   -6831    -6678    -6631    -6745    -6994    -7234    -7379    -7418 
   -7338    -7210    -7160    -7160    -7128    -7126    -7231    -7387 
   -7460    -7358    -7169    -7088    -7173    -7300    -7322    -7229 
   -7149    -7152    -7206    -7303    -7447    -7572    -7619    -7619 
   -7569    -7369    -7029    -6717    -6606    -6758    -7029    -7198 
   -7230    -7226    -7241    -7314    -7379    -7265    -7005    -6845 
   -6913    -7122    -7322    -7362    -7238    -7145    -7213    -7365 
   -7503    -7581    -7587    -7565    -7537    -7479    -7403    -7312 
   -7177    -7074    -7076    -7106    -7080    -7057    -7115    -7214 
   -7222    -7067    -6824    -6669    -6745    -7014    -7283    -7449 
   -7570    -7686    -7758    -7685    -7399    -7025    -6790    -6782 
   -6930    -7130    -7280    -7306    -7250    -7191    -7130    -7082 
   -7101    -7194    -7391    -7620    -7655    -7465    -7285    -7230 
   -7198    -7130    -7061    -7017    -6974    -6920    -6916    -7036 
   -7242    -7400    -7452    -7492    -7570    -7593    -7512    -7396 
   -7314    -7295    -7291    -7222    -7083    -6940    -6862    -6872 
   -6939    -7032    -7136    -7179    -7148    -7179    -7344    -7511 
   -7541    -7450    -7371    -7346    -7267    -7074    -6868    -6770 
   -6793    -6868    -6944    -7032    -7171    -7388    -7665    -7886 
   -7898    -7697    -7431    -7175    -6947    -6824    -6820    -6889 
   -6991    -7064    -7125    -7236    -7339    -7381    -7410    -7433 
   -7373    -7188    -6986    -6921    -7002    -7140    -7283    -7410 
   -7507    -7549    -7511    -7403    -7308    -7338    -7456    -7491 
   -7345    -7080    -6825    -6660    -6569    -6567    -6786    -7209 
   -7569    -7662    -7557    -7429    -7358    -7348    -7404    -7496 
   -7473    -7238    -6930    -6747    -6705    -6755    -6928    -7204 
   -7468    -7650    -7740    -7697    -7514    -7246    -6970    -6772 
   -6694    -6702    -6821    -7063    -7290    -7361    -7317    -7285 
   -7360    -7527    -7666    -7654    -7474    -7222    -7037    -6960 
   -6971    -7103    -7353    -7580    -7615    -7456    -7246    -7114 
   -7095    -7167    -7253    -7302    -7300    -7256    -7203    -7128 
   -7005    -6949    -7071    -7268    -7352    -7288    -7198    -7157 
   -7069    -6833    -6575    -6546    -6826    -7254    -7584    -7707 
   -7759    -7838    -7771    -7453    -7075    -6849    -6794    -6863 
   -7021    -7218    -7407    -7541    -7569    -7550    -7561    -7538 
   -7345    -7013    -6760    -6736    -6841    -6934    -7033    -7222 
   -7479    -7609    -7499    -7312    -7277    -7379    -7426    -7312 
   -7125    -7013    -7018    -7060    -7063    -7065    -7173    -7365 
   -7465    -7400    -7285    -7219    -7159    -7059    -6980    -7013 
   -7153    -7319    -7458    -7566    -7599    -7539    -7425    -7244 
   -7029    -6936    -7037    -7190    -7218    -7075    -6880    -6836 
