Origin Time       2025/03/30 22:55:00
Lat.              41.993
Long.             142.725
Depth. (km)       55
Mag.              4.6
Station Code      AOM007
Station Lat.      41.1689
Station Long.     141.3845
Station Height(m) 17
Record Time       2025/03/30 22:56:41
Sampling Freq(Hz) 100Hz
Duration Time(s)  60
Dir.              N-S
Scale Factor      7845(gal)/8223790
Max. Acc. (gal)   0.914
Last Correction   2025/03/30 22:56:43
Memo.             
[...]
    3958     4043     4102     4139     4156     4133     4078     4041 
    4043     4062     4085     4099     4101     4067     4004     3966 
    3981     4027     4087     4152     4203     4213     4164     4099 
    4072     4067     4031     3974     3952     3986     4029     4048 
    4063     4094     4108     4083     4063     4067     4071     4085 
    4137     4182     4162     4099     4063     4067     4063     4031 
    3991     3989     4055     4158     4213     4155     4024     3960 
    4006     4058     4045     4024     4070     4148     4152     4083 
    4027     3993     3977     4013     4086     4122     4112     4105 
    4117     4118     4098     4090     4098     4055     3959     3919 
    3983     4078     4116     4106     4097     4101     4106     4094 
    4074     4079     4117     4147     4137     4098     4055     4028 
    4014     3994     3975     3990     4044     4098     4104     4075 
    4052     4040     4055     4101     4141     4170     4209     4244 
    4212     4091     3947     3862     3840     3870     3944     4020 
    4082     4163     4229     4224     4175     4145     4144     4113 
    4017     3904     3842     3855     3931     4050     4187     4309 
    4380     4360     4255     4116     3991     3916     3892     3901 
    3935     3989     4035     4082     4167     4251     4237     4126 
    4024     3983     3955     3925     3963     4068     4174     4240 
    4261     4210     4078     3947     3893     3881     3874     3912 
    4008     4113     4222     4361     4452     4356     4118     3915 
    3836     3862     3888     3881     3959     4153     4307     4287 
    4149     4056     4077     4072     3950     3865     3952     4089 
    4147     4193     4286     4330     4221     4039     3920     3861 
    3825     3874     4017     4160     4229     4226     4186     4117 
    4039     3987     3973     3977     4002     4044     4075     4097 
    4125     4151     4159     4147     4124     4097     4060     4024 
    3997     3981     4000     4054     4083     4064     4040     4051 
    4081     4094     4081     4074     4089     4095     4083     4081 
    4078     4051     4033     4056     4097     4144     4198     4214 
    4159     4070     4017     4028     4045     3983     3875     3869 
    3994     4116     4143     4132     4178     4260     4243     4086 
    3923     3877     3948     4054     4114     4124     4137     4175 
    4193     4140     4028     3917     3875     3916     4017     4141 
    4233     4244     4201     4167     4125     4005     3865     3852 
    3955     4032     4045     4082     4156     4207     4218     4193 
    4125     4044     4010     4035     4067     4055     3990     3948 
    3993     4068     4082     4052     4077     4152     4198     4175 
    4133     4120     4109     4044     3952     3931     3994     4044 
    4050     4075     4129     4129     4055     4005     4021     4056 
    4085     4128     4178     4191     4136     4043     3970     3936 
    3929     3940     3974     4050     4166     4268     4299     4252 
    4158     4058     3981     3944     3962     4018     4059     4079 
    4112     4143     4141     4083     4002     3969     3989     4004 
    3993     4002     4068     4162     4226     4245     4222     4126 
    3983     3905     3939     4018     4079     4106     4129     4166 
    4153     4070     4013     4070     4168     4175     4070     3951 
    3909     3924     3933     3947     4029     4164     4229     4191 
    4172     4233     4261     4164     4025     3929     3867     3866 
    3960     4074     4114     4110     4163     4271     4298     4167 
    4001     3946     3964     3950     3924     3967     4074     4171 
    4182     4118     4085     4118     4137     4098     4032     3981 
    3977     4018     4070     4098     4095     4075     4081     4106 
    4098     4052     4000     3987     4039     4099     4131     4131 
    4131     4158     4171     4128     4102     4117     4055     3916 
    3835     3859     3936     4010     4075     4155     4210     4193 
    4149     4122     4095     4085     4113     4153     4133     4050 
    3989     4008     4063     4078     4067     4082     4108     4097 
    4064     4058     4064     4050     4021     4006     4018     4035 
    4036     4058     4101     4109     4087     4108     4158     4143 
    4051     3986     4000     4033     4047     4050     4067     4108 
    4144     4162     4140     4056     3958     3956     4056     4129 
    4098     4021     3983     4010     4071     4109     4110     4090 
    4059     4037     4032     4031     4040     4114     4236     4282 
    4210     4122     4074     4040     3989     3931     3928     3997 
    4067     4090     4099     4117     4124     4129     4155     4155 
    4068     3956     3939     4009     4059     4052     4072     4149 
    4183     4112     4002     3951     3978     4048     4122     4166 
    4160     4137     4137     4140     4105     4037     3958     3878 
    3846     3915     4055     4163     4213     4270     4310     4244 
    4087     3948     3906     3947     3991     4017     4059     4125 
    4189     4205     4167     4108     4054     4002     3962     3952 
    3966     3977     4017     4126     4237     4268     4240     4199 
    4145     4058     3946     3842     3774     3782     3893     4062 
    4212     4320     4380     4351     4236     4125     4052     3959 
    3840     3775     3834     4006     4198     4287     4260     4201 
    4149     4082     3991     3889     3813     3842     3964     4075 
    4153     4257     4374     4409     4290     4093     3946     3862 
    3802     3796     3879     4008     4118     4207     4248     4217 
    4185     4193     4149     3983     3831     3878     4062     4158 
    4108     4063     4117     4193     4201     4140     4056     3977 
    3924     3912     3912     3916     3985     4141     4260     4243 
    4172     4166     4190     4137     4020     3948     3959     3989 
    3998     4014     4066     4125     4148     4149     4162     4139 
    4058     4012     4047     4090     4077     4028     4028     4114 
    4193     4160     4067     4031     4060     4075     4035     3990 
    4040     4152     4156     4031     3948     3982     4041     4058 
    4037     4013     4021     4060     4094     4110     4102     4094 
    4149     4225     4209     4105     4035     4062     4102     4052 
    3947     3925     4020     4101     4082     4040     4063     4112 
    4135     4163     4180     4126     4044     4021     4045     4031 
    3959     3921     3970     4039     4072     4105     4168     4225 
    4244     4210     4147     4112     4098     4055     3986     3925 
    3905     3925     3969     4037     4101     4136     4183     4234 
    4226     4171     4114     4055     3990     3947     3932     3940 
    3983     4059     4137     4170     4133     4071     4027     3996 
    3967     3960     4006     4081     4153     4249     4324     4257 
    4071     3944     3979     4062     4032     3917     3883     3983 
    4118     4201     4229     4228     4220     4191     4095     3939 
    3811     3794     3900     4037     4126     4174     4221     4266 
    4274     4217     4109     4020     4001     4001     3952     3886 
    3883     3967     4105     4245     4318     4291     4207     4132 
    4071     3982     3893     3886     3987     4117     4144     4052 
    3993     4047     4109     4077     4000     3993     4082     4178 
    4197     4179     4191     4190     4104     3977     3912     3932 
    3963     3969     4016     4102     4140     4109     4072     4094 
    4144     4132     4045     3981     4013     4081     4086     4060 
    4097     4170     4171     4083     3979     3929     3956     4006 
    4033     4070     4143     4212     4245     4234     4160     4050 
    3990     4021     4040     3964     3871     3889     4031     4164 
    4185     4140     4132     4164     4191     4152     4017     3890 
    3913     4058     4179     4190     4122     4077     4077     4052 
    3982     3946     3997     4054     4031     3990     4039     4155 
    4245     4268     4237     4148     4004     3900     3916     3977 
    3993     4021     4113     4186     4156     4059     4016     4062 
    4128     4179     4186     4105     3989     3927     3933     3983 
    4075     4182     4232     4203     4144     4095     4062     4047 
    4044     4043     4032     4014     4020     4070     4114     4099 
    4062     4029     3985     3943     3958     4045     4166     4252 
    4256     4190     4110     4040     3963     3882     3829     3846 
    3946     4077     4195     4320     4406     4342     4163     4035 
    4004     3966     3865     3792     3865     4021     4124     4152 
    4144     4125     4156     4225     4248     4178     4056     3993 
    4031     4040     3936     3848     3902     4031     4122     4155 
    4152     4129     4077     4033     4072     4139     4108     4025 
    4025     4099     4145     4136     4117     4101     4054     3975 
    3940     3982     4055     4128     4171     4140     4043     3946 
    3904     3902     3883     3865     3931     4056     4166     4278 
    4407     4445     4333     4158     4024     3947     3881     3834 
    3859     3937     3998     4045     4129     4228     4274     4245 
    4172     4058     3950     3948     4027     4087     4133     4171 
    4148     4074     4025     4017     4000     4000     4072     4178 
    4241     4256     4278     4334     4341     4229     4044     3877 
    3767     3697     3677     3778     4009     4274     4468     4521 
    4429     4286     4172     4066     3921     3793     3780     3886 
    4009     4063     4086     4143     4183     4143     4066     4037 
    4040     4014     4006     4086     4189     4224     4203     4180 
    4174     4151     4094     4068     4082     4091     4135     4226 
    4266     4178     4031     3923     3839     3739     3717     3862 
    4072     4191     4216     4240     4280     4270     4186     4083 
    3967     3829     3769     3869     4031     4136     4203     4291 
    4357     4305     4131     3947     3874     3909     3958     3963 
    3970     4045     4143     4147     4052     3947     3889     3888 
    3952     4062     4158     4225     4276     4287     4239     4140 
    4020     3901     3804     3748     3753     3813     3894     3963 
    4044     4168     4276     4302     4243     4158     4104     4066 
    3989     3913     3892     3893     3929     4039     4176     4272 
    4282     4197     4055     3925     3855     3848     3882     3955 
    4063     4147     4156     4126     4135     4171     4168     4143 
    4170     4212     4199     4187     4222     4225     4164     4081 
    3977     3848     3750     3751     3834     3924     4031     4190 
    4363     4473     4476     4403     4340     4284     4160     3975 
    3828     3755     3715     3715     3821     4066     4376     4591 
    4619     4504     4298     4039     3801     3632     3546     3591 
    3777     4017     4221     4388     4492     4461     4333     4193 
    3997     3753     3628     3740     4017     4297     4456     4488 
    4449     4371     4218     3970     3709     3568     3601     3736 
    3862     3977     4121     4259     4368     4445     4395     4212 
    4045     3990     4016     4045     4016     3964     3923     3865 
    3821     3848     3936     4037     4136     4282     4488     4630 
    4544     4261     3982     3827     3759     3734     3763     3854 
    3950     3990     3990     4020     4079     4113     4159     4240 
    4247     4120     4002     4044     4167     4217     4201     4218 
    4270     4261     4141     3975     3851     3771     3717     3711 
    3793     3952     4106     4224     4329     4383     4338     4237 
    4132     4027     3939     3900     3940     4052     4199     4347 
    4414     4324     4105     3874     3731     3712     3792     3924 
    4063     4185     4302     4417     4453     4367     4228     4112 
    3990     3829     3650     3524     3515     3628     3784     3904 
    4032     4252     4546     4776     4846     4780     4619     4382 
    4126     3906     3703     3547     3572     3788     4009     4090 
    4062     4012     4020     4118     4220     4224     4176     4187 
    4255     4263     4140     3932     3732     3613     3603     3651 
    3727     3890     4141     4347     4410     4338     4167     3994 
    3956     4056     4160     4193     4179     4145     4083     3986 
    3882     3817     3808     3865     4020     4234     4414     4518 
    4545     4475     4299     4047     3758     3492     3342     3375 
    3570     3829     4072     4297     4511     4661     4683     4527 
    4222     3909     3703     3580     3507     3551     3782     4131 
    4464     4692     4795     4795     4669     4363     3959     3588 
    3294     3175     3322     3655     4047     4395     4614     4689 
    4650     4477     4224     4004     3846     3716     3636     3686 
    3928     4259     4480     4514     4380     4108     3820     3616 
    3512     3549     3763     4106     4440     4612     4630     4585 
    4441     4148     3805     3531     3354     3277     3341     3599 
    4037     4523     4891     5030     4953     4779     4557     4222 
    3811     3535     3512     3640     3812     4010     4214     4371 
    4460     4457     4333     4155     3985     3797     3646     3676 
    3865     4043     4158     4239     4240     4108     3900     3782 
    3900     4193     4469     4608     4583     4452     4320     4171 
    3927     3688     3651     3836     4075     4202     4191     4131 
    4064     3978     3885     3838     3865     3909     3931     3990 
    4087     4118     4056     4004     4043     4112     4087     3982 
    3963     4122     4367     4550     4591     4477     4251     3962 
    3665     3462     3447     3645     4004     4380     4606     4638 
    4542     4363     4114     3861     3704     3678     3711     3746 
    3823     3989     4185     4305     4329     4333     4318     4176 
    3920     3734     3719     3811     3942     4082     4171     4164 
    4124     4132     4152     4124     4110     4162     4186     4097 
    3960     3878     3900     4033     4207     4278     4189     4101 
    4144     4176     4051     3909     3933     4064     4125     4089 
    4045     4052     4099     4160     4197     4139     3989     3866 
    3873     3981     4098     4166     4194     4210     4229     4232 
    4176     4086     3998     3924     3920     3991     4035     4018 
    4006     4035     4083     4083     4027     3989     4002     4091 
    4274     4387     4306     4178     4126     4043     3865     3751 
    3835     4040     4203     4278     4307     4275     4145     3985 
    3870     3770     3680     3674     3767     3906     4093     4352 
    4615     4718     4563     4222     3886     3692     3623     3665 
    3842     4077     4280     4444     4498     4368     4168     4072 
    4063     3990     3847     3796     3931     4178     4440     4612 
    4580     4337     4066     3916     3816     3680     3620     3743 
    3986     4228     4379     4415     4379     4307     4220     4082 
    3827     3515     3357     3468     3727     3996     4259     4491 
    4591     4482     4207     3946     3836     3851     3912     3997 
    4083     4113     4090     4105     4159     4141     4041     3939 
    3874     3855     3877     3904     3935     4001     4102     4197 
    4252     4267     4256     4209     4102     4021     4101     4299 
    4434     4378     4158     3935     3828     3816     3813     3813 
    3906     4093     4198     4143     4072     4135     4268     4315 
    4212     4000     3805     3759     3820     3888     3986     4159 
    4342     4399     4259     4032     3881     3869     3978     4144 
    4271     4283     4224     4182     4140     4063     4023     4058 
    4085     4009     3869     3790     3829     3910     3997     4156 
    4344     4380     4244     4105     4018     3915     3796     3726 
    3739     3859     4029     4143     4170     4135     4135     4266 
    4433     4448     4284     4070     3920     3883     3947     4047 
    4120     4141     4114     4067     4018     3991     4040     4174 
    4310     4341     4244     4099     3964     3813     3661     3593 
    3685     3924     4224     4517     4752     4820     4656     4344 
    4036     3804     3659     3655     3808     4006     4112     4133 
    4168     4221     4213     4085     3869     3697     3682     3835 
    4062     4244     4355     4414     4409     4345     4266     4141 
    3979     3904     3962     4023     3987     3935     3981     4121 
    4264     4317     4261     4141     3996     3848     3713     3635 
    3677     3850     4072     4240     4342     4445     4533     4529 
    4391     4170     3906     3613     3414     3492     3819     4163 
    4359     4367     4236     4104     4043     4004     3970     3963 
    3981     4009     4028     4020     4010     4016     4021     4047 
    4090     4101     4091     4108     4194     4351     4417     4253 
    3958     3719     3623     3663     3796     3959     4152     4418 
    4672     4735     4538     4183     3859     3689     3653     3651 
    3684     3865     4212     4542     4675     4591     4425     4280 
    4126     3944     3774     3638     3584     3680     3902     4163 
    4372     4453     4379     4189     3954     3755     3635     3613 
    3771     4095     4411     4581     4602     4514     4355     4129 
    3851     3624     3549     3616     3780     3963     4090     4179 
    4298     4423     4456     4330     4094     3861     3713     3670 
    3715     3846     4062     4290     4421     4434     4388     4324 
    4241     4110     3925     3761     3708     3788     3946     4087 
    4162     4195     4234     4282     4280     4194     4070     3993 
    4005     4075     4162     4226     4236     4193     4141     4087 
    3982     3808     3649     3636     3809     4063     4263     4344 
    4301     4193     4101     4010     3877     3769     3785     3925 
    4097     4226     4315     4378     4379     4314     4212     4047 
    3827     3686     3726     3869     3981     4027     4041     4072 
    4158     4248     4260     4190     4104     4091     4162     4198 
    4151     4112     4144     4190     4159     4052     3960     3932 
    3933     3944     3966     3943     3881     3905     4070     4280 
    4406     4429     4398     4293     4067     3804     3647     3662 
    3805     3975     4105     4194     4243     4216     4117     4033 
    4035     4081     4099     4074     4058     4104     4163     4168 
    4132     4083     4017     3944     3873     3821     3861     4036 
    4287     4453     4437     4330     4236     4131     3987     3852 
    3796     3870     4013     4079     4055     4062     4158     4257 
    4244     4120     3989     3933     3958     4009     4063     4102 
