Origin Time       2025/03/30 22:55:00
Lat.              41.993
Long.             142.725
Depth. (km)       55
Mag.              4.6
Station Code      AOM003
Station Lat.      41.4054
Station Long.     141.1699
Station Height(m) 2
Record Time       2025/03/30 22:56:38
Sampling Freq(Hz) 100Hz
Duration Time(s)  60
Dir.              N-S
Scale Factor      7845(gal)/8223790
Max. Acc. (gal)   1.766
Last Correction   2025/03/30 22:56:38
Memo.             
[...]
    4333     4322     4433     4558     4635     4629     4576     4598 
    4681     4685     4588     4486     4436     4440     4461     4449 
    4415     4441     4536     4596     4580     4556     4556     4556 
    4571     4594     4552     4441     4337     4284     4284     4328 
    4378     4383     4378     4452     4607     4737     4760     4698 
    4618     4567     4556     4553     4504     4423     4419     4545 
    4699     4793     4799     4684     4488     4338     4275     4233 
    4198     4203     4247     4298     4347     4396     4449     4517 
    4611     4695     4722     4710     4700     4704     4691     4642 
    4588     4558     4531     4479     4405     4329     4309     4394 
    4523     4619     4679     4687     4646     4598     4531     4438 
    4361     4326     4328     4372     4440     4500     4560     4610 
    4596     4507     4414     4391     4472     4607     4680     4642 
    4538     4426     4364     4383     4452     4545     4639     4691 
    4714     4719     4662     4563     4499     4461     4417     4401 
    4392     4326     4253     4259     4301     4324     4351     4402 
    4448     4488     4579     4715     4784     4734     4631     4548 
    4504     4513     4537     4538     4567     4645     4706     4702 
    4639     4531     4415     4344     4317     4317     4352     4406 
    4450     4491     4518     4536     4556     4510     4402     4375 
    4484     4627     4708     4737     4761     4779     4768     4698 
    4546     4375     4280     4290     4347     4359     4314     4283 
    4307     4374     4446     4477     4477     4492     4541     4583 
    4548     4456     4415     4456     4545     4653     4727     4770 
    4820     4866     4854     4780     4671     4521     4363     4266 
    4206     4160     4162     4186     4202     4261     4378     4476 
    4502     4484     4503     4592     4726     4855     4918     4907 
    4870     4810     4716     4595     4429     4274     4233     4299 
    4355     4348     4349     4401     4441     4414     4341     4279 
    4271     4322     4441     4599     4699     4712     4700     4706 
    4719     4698     4645     4603     4569     4552     4581     4619 
    4590     4486     4384     4342     4361     4415     4444     4433 
    4468     4577     4681     4703     4617     4468     4364     4333 
    4322     4288     4251     4272     4337     4407     4517     4652 
    4727     4723     4702     4703     4681     4603     4510     4421 
    4353     4355     4425     4525     4600     4639     4693     4747 
    4727     4650     4575     4495     4423     4396     4394     4361 
    4302     4271     4263     4256     4283     4328     4367     4456 
    4587     4692     4777     4860     4888     4820     4719     4654 
    4606     4560     4538     4517     4445     4352     4305     4299 
    4301     4314     4345     4388     4467     4550     4575     4560 
    4552     4523     4472     4448     4459     4480     4518     4561 
    4573     4550     4533     4546     4554     4549     4554     4517 
    4433     4430     4504     4536     4537     4540     4483     4384 
    4345     4396     4472     4546     4649     4753     4803     4799 
    4750     4656     4560     4498     4448     4403     4413     4479 
    4513     4484     4434     4352     4256     4251     4341     4418 
    4445     4464     4511     4600     4722     4796     4716     4514 
    4355     4336     4434     4595     4738     4760     4664     4579 
    4546     4464     4306     4171     4121     4159     4301     4499 
    4618     4583     4492     4460     4467     4510     4617     4729 
    4784     4820     4877     4884     4789     4665     4573     4502 
    4432     4405     4434     4403     4288     4197     4197     4297 
    4417     4468     4446     4407     4387     4344     4299     4311 
    4320     4325     4450     4631     4702     4720     4837     5020 
    5150     5181     5100     4876     4614     4460     4348     4182 
    4055     4059     4124     4167     4193     4179     4095     4082 
    4256     4487     4675     4849     4939     4897     4828     4753 
    4600     4437     4375     4390     4414     4463     4491     4411 
    4332     4433     4665     4843     4881     4799     4639     4510 
    4483     4440     4299     4195     4190     4222     4298     4417 
    4534     4664     4822     4919     4873     4754     4666     4580 
    4473     4375     4266     4168     4175     4291     4425     4521 
    4612     4702     4738     4742     4720     4602     4429     4328 
    4284     4237     4230     4283     4332     4401     4568     4729 
    4710     4553     4445     4472     4598     4734     4799     4733 
    4598     4534     4536     4500     4465     4482     4490     4490 
    4518     4492     4380     4333     4422     4530     4584     4612 
    4604     4571     4565     4552     4461     4363     4336     4353 
    4375     4359     4286     4244     4326     4492     4649     4734 
    4714     4610     4519     4533     4611     4627     4579     4564 
    4587     4626     4702     4725     4631     4541     4548     4598 
    4603     4525     4406     4336     4348     4382     4357     4282 
    4247     4301     4411     4495     4471     4394     4391     4473 
    4564     4581     4506     4423     4440     4567     4693     4716 
    4658     4607     4614     4662     4689     4679     4689     4738 
    4773     4741     4619     4449     4297     4179     4086     4025 
    4051     4183     4337     4460     4560     4633     4673     4699 
    4738     4760     4745     4718     4649     4527     4440     4425 
    4433     4442     4480     4527     4526     4503     4511     4522 
    4540     4568     4523     4432     4428     4514     4572     4550 
    4502     4456     4417     4460     4526     4453     4338     4363 
    4473     4548     4563     4521     4460     4471     4577     4654 
    4642     4617     4583     4529     4507     4491     4436     4380 
    4380     4437     4511     4577     4598     4545     4506     4580 
    4708     4772     4749     4698     4679     4702     4708     4626 
    4440     4233     4153     4205     4228     4166     4116     4153 
    4278     4446     4592     4653     4626     4610     4666     4700 
    4658     4622     4596     4536     4484     4479     4488     4475 
    4421     4386     4449     4564     4631     4665     4707     4715 
    4681     4649     4588     4445     4299     4266     4298     4305 
    4283     4267     4291     4401     4573     4734     4818     4828 
    4779     4662     4518     4405     4328     4249     4183     4209 
    4320     4456     4621     4766     4850     4888     4855     4757 
    4681     4672     4662     4588     4502     4460     4372     4203 
    4067     3993     3927     3933     4091     4328     4581     4828 
    4972     4961     4888     4841     4780     4672     4546     4392 
    4260     4301     4465     4550     4542     4545     4558     4558 
    4563     4563     4502     4386     4328     4372     4459     4513 
    4461     4340     4336     4496     4649     4681     4653     4638 
    4614     4572     4507     4382     4301     4364     4463     4486 
    4459     4453     4534     4650     4695     4642     4560     4556 
    4653     4760     4806     4762     4637     4498     4407     4365 
    4309     4209     4148     4199     4330     4464     4550     4584 
    4544     4437     4380     4401     4410     4401     4402     4403 
    4433     4536     4689     4810     4872     4920     4919     4831 
    4768     4719     4561     4372     4287     4284     4322     4391 
    4456     4457     4418     4434     4504     4541     4502     4403 
    4334     4372     4429     4401     4355     4407     4536     4633 
    4648     4572     4441     4392     4513     4689     4801     4828 
    4765     4644     4507     4368     4237     4163     4183     4252 
    4318     4413     4526     4592     4629     4666     4681     4708 
    4785     4820     4731     4575     4446     4357     4284     4252 
    4272     4315     4414     4580     4700     4704     4653     4608 
    4568     4488     4405     4423     4492     4472     4379     4317 
    4320     4351     4376     4415     4468     4531     4656     4823 
    4904     4857     4745     4621     4513     4433     4361     4295 
    4263     4310     4429     4541     4599     4631     4714     4862 
    4946     4834     4573     4307     4117     4013     3993     4040 
    4106     4182     4301     4455     4596     4691     4727     4723 
    4747     4861     4972     4941     4774     4596     4503     4509 
    4548     4523     4436     4388     4425     4469     4450     4399 
    4361     4324     4310     4353     4391     4405     4444     4504 
    4560     4590     4575     4544     4522     4556     4673     4804 
    4885     4877     4766     4619     4471     4305     4156     4052 
    4051     4203     4394     4492     4526     4531     4517     4537 
    4634     4737     4735     4665     4618     4560     4486     4453 
    4436     4403     4415     4449     4425     4376     4379     4455 
    4558     4629     4631     4587     4561     4577     4603     4626 
    4621     4549     4486     4504     4522     4469     4418     4415 
    4382     4318     4360     4502     4607     4629     4610     4556 
    4494     4545     4710     4804     4761     4680     4575     4433 
    4332     4278     4186     4072     4041     4133     4295     4450 
    4610     4754     4800     4780     4773     4729     4648     4611 
    4604     4576     4549     4519     4465     4437     4495     4602 
    4683     4700     4622     4490     4430     4440     4402     4290 
    4147     4035     4045     4199     4398     4538     4638     4768 
    4895     4951     4949     4869     4698     4507     4347     4225 
    4185     4202     4221     4280     4402     4518     4604     4703 
    4808     4874     4897     4874     4766     4627     4563     4499 
    4341     4143     4014     4020     4212     4561     4827     4812 
    4642     4511     4464     4502     4567     4540     4448     4430 
    4525     4618     4580     4430     4270     4167     4182     4278 
    4349     4421     4581     4772     4865     4835     4723     4561 
    4429     4413     4460     4449     4403     4405     4426     4432 
    4438     4430     4428     4480     4572     4677     4792     4881 
    4919     4908     4826     4650     4471     4379     4313     4210 
    4124     4086     4095     4186     4290     4272     4213     4302 
    4511     4699     4841     4928     4934     4892     4846     4756 
    4563     4349     4248     4287     4415     4531     4530     4438 
    4353     4303     4307     4361     4372     4330     4375     4541 
    4706     4773     4747     4658     4525     4386     4302     4302 
    4371     4491     4600     4633     4614     4565     4503     4514 
    4591     4606     4585     4623     4634     4564     4503     4471 
    4392     4276     4207     4224     4305     4433     4564     4626 
    4619     4592     4498     4315     4151     4079     4113     4259 
    4465     4645     4799     4982     5155     5223     5136     4905 
    4652     4526     4522     4518     4448     4341     4271     4248 
    4261     4295     4299     4318     4450     4635     4706     4612 
    4434     4244     4113     4090     4139     4247     4449     4666 
    4797     4868     4931     4969     4988     5044     5121     5121 
    5027     4911     4826     4774     4687     4492     4210     3935 
    3802     3869     4024     4149     4220     4268     4348     4445 
    4475     4425     4368     4359     4399     4440     4423     4414 
    4507     4660     4783     4826     4777     4710     4710     4738 
    4727     4711     4746     4789     4765     4707     4646     4542 
    4411     4330     4336     4410     4519     4615     4641     4631 
    4692     4789     4803     4738     4622     4486     4432     4457 
    4417     4256     4070     3939     3869     3846     3862     3901 
    3967     4159     4499     4853     5144     5390     5529     5517 
    5431     5346     5255     5130     4977     4833     4718     4645 
    4577     4440     4198     3897     3642     3478     3352     3285 
    3412     3738     4093     4334     4468     4560     4604     4557 
    4410     4203     4040     4041     4205     4403     4550     4581 
    4475     4330     4240     4198     4245     4417     4618     4777 
    4895     4915     4831     4764     4774     4806     4827     4864 
    4855     4742     4612     4600     4722     4892     5070     5265 
    5393     5335     5108     4796     4448     4120     3798     3400 
    2997     2795     2905     3275     3767     4279     4787     5247 
    5570     5709     5687     5537     5308     5115     5062     5138 
    5238     5281     5235     5061     4749     4398     4118     3909 
    3746     3650     3557     3387     3281     3442     3800     4093 
    4182     4117     4018     4024     4217     4426     4374     4102 
    3870     3798     3952     4369     4881     5269     5490     5595 
    5575     5479     5416     5320     5119     4958     4941     5016 
    5169     5313     5277     5067     4889     4881     4974     5005 
    4822     4337     3657     3049     2714     2658     2808     3052 
    3234     3330     3553     4064     4706     5175     5360     5389 
    5440     5576     5671     5540     5204     4850     4619     4583 
    4708     4843     4905     4887     4811     4747     4669     4527 
    4367     4202     4041     3944     3908     3896     3859     3773 
    3700     3670     3670     3720     3840     4086     4480     4919 
    5254     5368     5255     5053     4862     4704     4631     4675 
    4831     5119     5470     5698     5678     5456     5189     4972 
    4683     4217     3738     3427     3257     3168     3142     3121 
    3091     3110     3167     3299     3634     4143     4683     5204 
    5652     5972     6177     6255     6160     5841     5285     4696 
    4390     4425     4612     4780     4841     4791     4687     4542 
    4328     4122     4020     3936     3797     3728     3874     4207 
    4549     4702     4653     4545     4463     4440     4476     4502 
    4553     4711     4909     5027     4995     4839     4692     4623 
    4599     4646     4764     4730     4367     3855     3477     3368 
    3558     3861     3955     3886     3958     4222     4526     4739 
    4792     4752     4746     4772     4731     4579     4361     4216 
    4247     4423     4629     4722     4742     4939     5316     5570 
    5591     5455     5155     4769     4500     4402     4380     4423 
    4515     4511     4401     4314     4214     4016     3805     3705 
    3781     4013     4317     4623     4878     5086     5205     5088 
    4774     4538     4490     4558     4704     4799     4661     4353 
    4091     3986     4035     4202     4392     4522     4626     4819 
    5030     5003     4669     4272     4081     4185     4446     4548 
    4325     3929     3619     3542     3659     3829     3944     3955 
    3958     4149     4537     4926     5194     5354     5431     5493 
    5594     5655     5610     5541     5467     5256     4907     4607 
    4449     4388     4345     4207     3925     3646     3578     3761 
    4086     4399     4483     4284     4048     3932     3861     3797 
    3800     3937     4301     4866     5454     5899     6130     6122 
    5872     5382     4758     4210     3834     3589     3457     3439 
    3572     3929     4437     4855     5009     4904     4699     4626 
    4747     4892     4872     4714     4571     4467     4384     4364 
    4352     4287     4274     4434     4695     4839     4788     4621 
    4394     4170     4001     3798     3581     3573     3726     3754 
    3704     3793     4012     4351     4811     5217     5410     5432 
    5364     5286     5335     5505     5555     5320     4908     4494 
    4206     4102     4151     4294     4428     4482     4525     4614 
    4688     4695     4608     4418     4249     4307     4560     4750 
    4653     4278     3852     3593     3591     3781     3970     4077 
    4176     4291     4365     4409     4502     4673     4874     5061 
    5169     5108     4865     4556     4347     4279     4317     4504 
    4828     5132     5292     5341     5377     5328     5020     4455 
    3870     3538     3514     3657     3865     4036     4048     4020 
    4159     4471     4874     5313     5632     5655     5333     4768 
    4198     3870     3839     3975     4183     4452     4669     4691 
    4563     4429     4299     4081     3797     3600     3530     3520 
    3616     3916     4406     4997     5551     5900     5903     5482 
    4780     4218     4102     4315     4617     4855     4970     4997 
    4953     4749     4407     4135     4105     4368     4818     5139 
    5120     4912     4707     4517     4324     4135     4016     4102 
    4386     4671     4758     4585     4266     3959     3784     3820 
    4004     4185     4347     4550     4784     4996     5127     5104 
    4989     4931     4943     4951     4922     4808     4607     4432 
    4369     4399     4464     4513     4475     4375     4355     4464 
    4596     4631     4491     4189     3863     3697     3736     3823 
    3794     3711     3755     4013     4396     4675     4742     4757 
    4841     4966     5120     5270     5408     5609     5834     5952 
    5876     5552     5063     4595     4209     3867     3596     3474 
    3491     3501     3441     3375     3368     3453     3646     3923 
    4252     4594     4911     5159     5285     5323     5352     5343 
    5300     5267     5169     4974     4789     4661     4585     4542 
    4482     4401     4347     4332     4337     4334     4311     4303 
    4291     4270     4341     4496     4595     4618     4594     4464 
    4290     4210     4152     4006     3885     3888     3935     3954 
    3982     4041     4105     4185     4280     4348     4395     4473 
    4540     4552     4606     4742     4868     4989     5167     5351 
    5478     5557     5597     5544     5336     4988     4584     4240 
    4052     3960     3882     3905     4102     4369     4540     4542 
    4428     4270     4095     3956     3940     4067     4261     4407 
    4433     4356     4288     4352     4564     4843     5063     5112 
    5013     4895     4814     4745     4635     4460     4301     4274 
    4375     4527     4656     4673     4619     4608     4621     4580 
    4488     4355     4179     3985     3825     3781     3904     4179 
    4530     4865     5130     5331     5483     5576     5575     5447 
    5198     4945     4792     4612     4232     3735     3287     3011 
    3064     3404     3765     4039     4299     4585     4854     5047 
    5150     5150     5013     4800     4619     4507     4446     4402 
    4348     4307     4298     4326     4419     4546     4607     4563 
    4459     4348     4268     4241     4245     4274     4391     4611 
