Origin Time       2025/03/30 22:55:00
Lat.              41.993
Long.             142.725
Depth. (km)       55
Mag.              4.6
Station Code      HKD098
Station Lat.      42.4985
Station Long.     143.2790
Station Height(m) 81
Record Time       2025/03/30 22:56:25
Sampling Freq(Hz) 100Hz
Duration Time(s)  60
Dir.              U-D
Scale Factor      7845(gal)/8223790
Max. Acc. (gal)   0.881
Last Correction   2025/03/30 22:56:25
Memo.             
  -15080   -15080   -15082   -15082   -15080   -15082   -15083   -15082 
  -15082   -15080   -15080   -15080   -15080   -15080   -15082   -15083 
  -15079   -15079   -15083   -15082   -15080   -15082   -15080   -15080 
  -15083   -15084   -15083   -15078   -15079   -15084   -15086   -15083 
  -15084   -15084   -15084   -15086   -15083   -15083   -15084   -15084 
  -15082   -15083   -15086   -15084   -15080   -15082   -15083   -15083 
  -15082   -15084   -15084   -15082   -15080   -15082   -15084   -15083 
  -15080   -15083   -15084   -15084   -15084   -15084   -15083   -15083 
  -15086   -15086   -15084   -15084   -15084   -15084   -15083   -15083 
  -15084   -15083   -15082   -15084   -15084   -15084   -15086   -15084 
  -15083   -15084   -15083   -15083   -15084   -15086   -15087   -15083 
  -15082   -15084   -15083   -15082   -15083   -15084   -15086   -15086 
  -15083   -15082   -15084   -15084   -15083   -15083   -15083   -15082 
  -15083   -15083   -15083   -15084   -15084   -15082   -15080   -15082 
  -15083   -15083   -15080   -15080   -15084   -15084   -15083   -15083 
  -15083   -15082   -15083   -15084   -15083   -15082   -15082   -15082 
  -15084   -15083   -15079   -15079   -15082   -15082   -15080   -15082 
  -15083   -15083   -15084   -15083   -15080   -15083   -15083   -15080 
  -15080   -15084   -15083   -15082   -15083   -15083   -15083   -15082 
  -15079   -15079   -15082   -15083   -15080   -15082   -15084   -15083 
  -15082   -15080   -15079   -15082   -15082   -15079   -15082   -15083 
  -15082   -15080   -15080   -15080   -15082   -15082   -15079   -15079 
  -15082   -15082   -15080   -15080   -15082   -15083   -15080   -15079 
  -15080   -15078   -15076   -15078   -15079   -15079   -15080   -15082 
  -15082   -15080   -15080   -15080   -15080   -15083   -15082   -15079 
  -15079   -15080   -15079   -15078   -15079   -15080   -15082   -15079 
  -15079   -15079   -15078   -15079   -15082   -15079   -15080   -15082 
  -15079   -15079   -15083   -15082   -15078   -15080   -15080   -15079 
  -15078   -15079   -15083   -15082   -15078   -15080   -15080   -15078 
  -15080   -15080   -15078   -15079   -15080   -15082   -15082   -15083 
  -15082   -15079   -15080   -15080   -15080   -15080   -15082   -15082 
  -15082   -15082   -15080   -15082   -15082   -15080   -15080   -15082 
  -15079   -15072   -15066   -15053   -15032   -15006   -14975   -14937 
  -14905   -14887   -14882   -14882   -14895   -14947   -15051   -15194 
  -15311   -15341   -15295   -15219   -15122   -15009   -14924   -14910 
  -14956   -14990   -14971   -14985   -15138   -15377   -15577   -15693 
  -15669   -15407   -15067   -15026   -15302   -15435   -15136   -14648 
  -14386   -14548   -15078   -15687   -15919   -15514   -14899   -14828 
  -15264   -15473   -15201   -14806   -14639   -14852   -15307   -15489 
  -15060   -14496   -14562   -15095   -15234   -14881   -14715   -14862 
  -14871   -14715   -14710   -14835   -14883   -14983   -15294   -15533 
  -15506   -15454   -15384   -15144   -14972   -15044   -15136   -15026 
  -14827   -14797   -14898   -14917   -14906   -15079   -15375   -15408 
  -15124   -15012   -15232   -15383   -15342   -15279   -15084   -14818 
  -14925   -15302   -15368   -15121   -15037   -15218   -15318   -15121 
  -14818   -14791   -15187   -15535   -15342   -14891   -14662   -14644 
  -14636   -14612   -14790   -15244   -15564   -15511   -15314   -15072 
  -14806   -14692   -14702   -14781   -15087   -15475   -15491   -15171 
  -14998   -15072   -15171   -15107   -14802   -14670   -15072   -15449 
  -15283   -14935   -14931   -15253   -15395   -15223   -15291   -15703 
  -15808   -15391   -14922   -14721   -14828   -15070   -15090   -14860 
  -14597   -14415   -14639   -15350   -15747   -15371   -14879   -14783 
  -14978   -15307   -15439   -15107   -14744   -14887   -15249   -15296 
  -15182   -15187   -15017   -14631   -14621   -15032   -15249   -15130 
  -14971   -14871   -14702   -14536   -14816   -15549   -16006   -15699 
  -15009   -14608   -14592   -14693   -14855   -15098   -15300   -15252 
  -14964   -14909   -15321   -15554   -15202   -14959   -15130   -15084 
  -14881   -15203   -15777   -15770   -15222   -14770   -14706   -15010 
  -15445   -15573   -15265   -14852   -14689   -14804   -15048   -15232 
  -15152   -14914   -14727   -14685   -14979   -15442   -15691   -15619 
  -15140   -14540   -14438   -14871   -15368   -15441   -15032   -14635 
  -14623   -14994   -15554   -15799   -15461   -14899   -14493   -14621 
  -15275   -15574   -15276   -15109   -15141   -14968   -14733   -14739 
  -14898   -14944   -14881   -14937   -15137   -15223   -15164   -15252 
  -15372   -15182   -14941   -14889   -14845   -15028   -15535   -15696 
  -15245   -14852   -14910   -15169   -15295   -15094   -14829   -14902 
  -15184   -15408   -15421   -15088   -14679   -14623   -14813   -14944 
  -15088   -15309   -15498   -15542   -15273   -14908   -14854   -14831 
  -14571   -14705   -15417   -15693   -15157   -14731   -14956   -15394 
  -15488   -15118   -14701   -14736   -15075   -15226   -15126   -15024 
  -14989   -15006   -15094   -15167   -15234   -15352   -15261   -14820 
  -14517   -14742   -15118   -15217   -15180   -15240   -15334   -15400 
  -15479   -15508   -15300   -14800   -14351   -14490   -15176   -15653 
  -15434   -14859   -14538   -14712   -15153   -15365   -15129   -14920 
  -15118   -15298   -15141   -15001   -15048   -15043   -14964   -15020 
  -15183   -15184   -14978   -14893   -15097   -15326   -15368   -15233 
  -14966   -14855   -15107   -15304   -15094   -14804   -14785   -14863 
  -14833   -14893   -15129   -15288   -15240   -15111   -15172   -15402 
  -15415   -15238   -15172   -15152   -14995   -14854   -15066   -15387 
  -15198   -14740   -14690   -15107   -15614   -15676   -15094   -14470 
  -14353   -14600   -14928   -15147   -15161   -15145   -15300   -15458 
  -15338   -15122   -15079   -15007   -14763   -14600   -14727   -15079 
  -15283   -15083   -14976   -15280   -15415   -15191   -15098   -15242 
  -15421   -15423   -15012   -14557   -14763   -15311   -15437   -15252 
  -15130   -15036   -14913   -14879   -15041   -15218   -15192   -15070 
  -14963   -14906   -14986   -15034   -14864   -14848   -15178   -15226 
  -14859   -14824   -15219   -15460   -15354   -15074   -14978   -15215 
  -15363   -15213   -15075   -15006   -14837   -14688   -14755   -14978 
  -15147   -15124   -15026   -15001   -14971   -15051   -15368   -15589 
  -15493   -15245   -14978   -14787   -14727   -14778   -14936   -15018 
  -14916   -14949   -15156   -15125   -15016   -15256   -15519   -15372 
  -15094   -15049   -15149   -15118   -14855   -14725   -14975   -15187 
  -15120   -15095   -15218   -15279   -15272   -15272   -15187   -15113 
  -15241   -15295   -15045   -14874   -14941   -14917   -14860   -15060 
  -15291   -15205   -14924   -14783   -14877   -15103   -15429   -15763 
  -15755   -15279   -14820   -14824   -15169   -15408   -15232   -14887 
  -14894   -15101   -14998   -14688   -14546   -14666   -14985   -15183 
  -14999   -14796   -14881   -14956   -14878   -14935   -15213   -15342 
  -15063   -14871   -15263   -15689   -15539   -15196   -15234   -15422 
  -15233   -14931   -15033   -15184   -14889   -14493   -14547   -15021 
  -15391   -15300   -15071   -15087   -15219   -15215   -14976   -14688 
  -14777   -15107   -15071   -14827   -15021   -15411   -15376   -15141 
  -15151   -15260   -15202   -14959   -14775   -14943   -15288   -15387 
  -15322   -15450   -15587   -15307   -14891   -14810   -14914   -15025 
  -15113   -15041   -14982   -15056   -14949   -14755   -14937   -15322 
  -15402   -15209   -15103   -15172   -15209   -15136   -15101   -15040 
  -14814   -14724   -15005   -15260   -15164   -15120   -15433   -15520 
  -14964   -14482   -14774   -15348   -15399   -15078   -14935   -14976 
  -14987   -14904   -14716   -14624   -14794   -14975   -14994   -15021 
  -15147   -15295   -15303   -15133   -15032   -15090   -15124   -15136 
  -15248   -15300   -15088   -14736   -14590   -14904   -15492   -15819 
  -15527   -14968   -14862   -15140   -15267   -15296   -15296   -15124 
  -14845   -14624   -14743   -15171   -15375   -15109   -14659   -14411 
  -14474   -14759   -15261   -15741   -15777   -15431   -15102   -14947 
  -14883   -14895   -15075   -15352   -15441   -15246   -15039   -14993 
  -14937   -14797   -14833   -15070   -15052   -14731   -14739   -15256 
  -15608   -15422   -15179   -15242   -15421   -15573   -15603   -15353 
  -15080   -15129   -15250   -15064   -14751   -14717   -14912   -14872 
  -14544   -14459   -14777   -15066   -15190   -15340   -15325   -15013 
  -14867   -15067   -15198   -15141   -15040   -14859   -14771   -15001 
  -15218   -15163   -15129   -15199   -15097   -14813   -14678   -14856 
  -15063   -15033   -14922   -14922   -15066   -15327   -15572   -15642 
  -15488   -15269   -15175   -15066   -14831   -14666   -14685   -14850 
  -15032   -15067   -15164   -15514   -15757   -15786   -15876   -15811 
  -15408   -15090   -15012   -14881   -14801   -14986   -15113   -14944 
  -14727   -14588   -14364   -14166   -14354   -14759   -14925   -15043 
  -15398   -15611   -15508   -15466   -15464   -15113   -14574   -14359 
  -14565   -14890   -15082   -15072   -14989   -15044   -15190   -15167 
  -15122   -15371   -15603   -15450   -15236   -15295   -15384   -15218 
  -14952   -14804   -14790   -14926   -15121   -15210   -15307   -15514 
  -15634   -15620   -15547   -15238   -14791   -14677   -14906   -15057 
  -15079   -15257   -15445   -15271   -14863   -14542   -14473   -14728 
  -15083   -15252   -15241   -15148   -15067   -15045   -14918   -14717 
  -14735   -14851   -14828   -14882   -15171   -15480   -15565   -15452 
  -15464   -15608   -15360   -14682   -14265   -14396   -14670   -14733 
  -14651   -14810   -15353   -15761   -15655   -15403   -15268   -15076 
  -14856   -14805   -14897   -15020   -15126   -15250   -15392   -15371 
  -15241   -15249   -15218   -14956   -14744   -14882   -15165   -15120 
  -14760   -14667   -15079   -15456   -15361   -15109   -15017   -15020 
  -15044   -15118   -15273   -15307   -15098   -14976   -15110   -15290 
  -15304   -15079   -14774   -14648   -14652   -14530   -14517   -15061 
  -15753   -15804   -15236   -14702   -14640   -14910   -15140   -15211 
  -15234   -15233   -15130   -14947   -14858   -15005   -15288   -15439 
  -15331   -15142   -15125   -15277   -15403   -15398   -15350   -15260 
  -15115   -15078   -15134   -15133   -15098   -15056   -14968   -14845 
  -14713   -14700   -14893   -15101   -15142   -15002   -14785   -14802 
  -15097   -15255   -15191   -15221   -15257   -15055   -14859   -14890 
  -14960   -14964   -14979   -15016   -15001   -14944   -14982   -15134 
  -15256   -15271   -15244   -15253   -15322   -15342   -15184   -14931 
  -14773   -14808   -14972   -15076   -15093   -15217   -15452   -15535 
  -15456   -15408   -15315   -15030   -14771   -14831   -15095   -15171 
  -14926   -14735   -14944   -15210   -15052   -14820   -15021   -15341 
  -15354   -15138   -14868   -14800   -15029   -15144   -14951   -14856 
  -15066   -15221   -15091   -15016   -15261   -15510   -15439   -15213 
  -15003   -14724   -14507   -14593   -14790   -14832   -14887   -15147 
  -15385   -15388   -15365   -15485   -15479   -15172   -14852   -14797 
  -14912   -15005   -14964   -14798   -14787   -15107   -15448   -15514 
  -15387   -15223   -15051   -14925   -14947   -15125   -15329   -15346 
  -15202   -15147   -15183   -15196   -15218   -15137   -14953   -14926 
  -14991   -14931   -14931   -15079   -15083   -14906   -14837   -14945 
  -15063   -15033   -14952   -15088   -15292   -15187   -14960   -15006 
  -15147   -14971   -14640   -14678   -15018   -15172   -15103   -15003 
  -14912   -14975   -15283   -15592   -15672   -15579   -15493   -15480 
  -15396   -15164   -14931   -14739   -14573   -14671   -15041   -15242 
  -15148   -15051   -15102   -15315   -15566   -15572   -15348   -15129 
  -14972   -15012   -15195   -15101   -14764   -14646   -14773   -14875 
  -14890   -14932   -15021   -15039   -14975   -14958   -15091   -15282 
  -15280   -15024   -14735   -14724   -15055   -15402   -15444   -15149 
  -14751   -14584   -14735   -14990   -15091   -14974   -14887   -15057 
  -15288   -15252   -15051   -15030   -15194   -15331   -15437   -15569 
  -15584   -15398   -15157   -14909   -14643   -14524   -14631   -14850 
  -15059   -15211   -15361   -15531   -15511   -15155   -14763   -14662 
  -14677   -14627   -14713   -14978   -15113   -15036   -15016   -15105 
  -15059   -14925   -14987   -15153   -15103   -14914   -14904   -15030 
  -15144   -15345   -15577   -15506   -15130   -14913   -15078   -15357 
  -15500   -15444   -15248   -15140   -15205   -15249   -15157   -15002 
  -14882   -14910   -15117   -15283   -15242   -15175   -15271   -15375 
  -15205   -14821   -14571   -14555   -14585   -14611   -14736   -14916 
  -15060   -15206   -15279   -15151   -14979   -14931   -14939   -14976 
  -15061   -15110   -15072   -14920   -14729   -14735   -14867   -14866 
  -14895   -15215   -15573   -15611   -15406   -15210   -15140   -15153 
  -15114   -15034   -15002   -14939   -14859   -14914   -15025   -15059 
  -15099   -15190   -15295   -15473   -15658   -15647   -15461   -15260 
  -15051   -14824   -14740   -14850   -14998   -15120   -15246   -15322 
  -15261   -15141   -15210   -15485   -15615   -15453   -15232   -15061 
  -14879   -14720   -14658   -14690   -14764   -14810   -14867   -15041 
  -15263   -15384   -15407   -15329   -15167   -15055   -15016   -14943 
  -14899   -15037   -15214   -15102   -14760   -14639   -14890   -15184 
  -15282   -15226   -15144   -15140   -15226   -15371   -15569   -15678 
  -15542   -15373   -15493   -15691   -15538   -15157   -14897   -14794 
  -14794   -14832   -14827   -14845   -15041   -15384   -15537   -15284 
  -14945   -14851   -14835   -14727   -14770   -15083   -15296   -15186 
  -14960   -14801   -14762   -14800   -14725   -14638   -14879   -15329 
  -15500   -15376   -15390   -15649   -15664   -15152   -14608   -14600 
  -14997   -15329   -15434   -15462   -15499   -15423   -15188   -15030 
  -15109   -15164   -14970   -14755   -14767   -14920   -15030   -15075 
  -15102   -15086   -15070   -15195   -15441   -15604   -15615   -15568 
  -15421   -15076   -14702   -14561   -14655   -14804   -14904   -14890 
  -14744   -14670   -14829   -15009   -14953   -14845   -15013   -15218 
  -15007   -14565   -14353   -14428   -14563   -14639   -14682   -14677 
  -14607   -14596   -14759   -14991   -15097   -15072   -15044   -15105 
  -15364   -15704   -15790   -15589   -15356   -15261   -15319   -15392 
  -15348   -15271   -15259   -15172   -14916   -14746   -14863   -14999 
  -14905   -14713   -14635   -14737   -14940   -15018   -14831   -14544 
  -14412   -14442   -14555   -14721   -14783   -14709   -14821   -15244 
  -15665   -15844   -15823   -15751   -15761   -15768   -15568   -15187 
  -14895   -14862   -15021   -15219   -15307   -15232   -15109   -15022 
  -14920   -14890   -15098   -15380   -15500   -15564   -15653   -15618 
  -15391   -15017   -14665   -14624   -14912   -15163   -15087   -14809 
  -14661   -14750   -14848   -14778   -14725   -14914   -15237   -15430 
  -15417   -15323   -15195   -15028   -14980   -15142   -15377   -15479 
  -15296   -14937   -14735   -14827   -15030   -15182   -15264   -15322 
  -15367   -15287   -15052   -14883   -14956   -15182   -15337   -15363 
  -15384   -15356   -15141   -14894   -14836   -14894   -14833   -14651 
  -14505   -14440   -14500   -14746   -15029   -15184   -15282   -15345 
  -15298   -15234   -15236   -15209   -15145   -15129   -15153   -15140 
  -15053   -14947   -14912   -14964   -15078   -15288   -15564   -15736 
  -15691   -15496   -15330   -15286   -15321   -15367   -15394   -15394 
  -15318   -15141   -14982   -14898   -14823   -14828   -15028   -15330 
  -15502   -15442   -15354   -15364   -15260   -14974   -14790   -14854 
  -14936   -14848   -14735   -14758   -14831   -14862   -14908   -15005 
  -15063   -15010   -14940   -15005   -15141   -15136   -15001   -14948 
  -15049   -15161   -15202   -15238   -15307   -15314   -15147   -14886 
  -14754   -14752   -14739   -14744   -14864   -15034   -15203   -15402 
  -15518   -15364   -15052   -14887   -14909   -14951   -14976   -15026 
  -15045   -15032   -15145   -15376   -15452   -15336   -15264   -15245 
  -15175   -15080   -14986   -14868   -14725   -14638   -14706   -14879 
  -15010   -15061   -15078   -15041   -14925   -14836   -14860   -14922 
  -14918   -14839   -14786   -14886   -15036   -14970   -14728   -14656 
  -14831   -14995   -15014   -14994   -15029   -15098   -15184   -15226 
  -15152   -15070   -15099   -15194   -15213   -15109   -15024   -15021 
  -14990   -14944   -14983   -15091   -15182   -15199   -15201   -15280 
  -15379   -15353   -15242   -15240   -15361   -15445   -15493   -15592 
  -15592   -15384   -15176   -15106   -15018   -14875   -14837   -14935 
  -15020   -15005   -14925   -14844   -14823   -14839   -14835   -14899 
  -15098   -15276   -15306   -15236   -15202   -15298   -15480   -15637 
  -15695   -15651   -15499   -15241   -14962   -14790   -14786   -14863 
  -14906   -14921   -14939   -14990   -15094   -15132   -15001   -14839 
  -14914   -15174   -15217   -15005   -14912   -15006   -15066   -15098 
  -15259   -15417   -15280   -14994   -14995   -15279   -15535   -15680 
  -15746   -15650   -15380   -15093   -14921   -14870   -14856   -14809 
  -14764   -14743   -14685   -14632   -14661   -14651   -14472   -14318 
  -14463   -14737   -14775   -14620   -14593   -14756   -14925   -15005 
  -15030   -15028   -14989   -14955   -15055   -15268   -15373   -15283 
  -15207   -15330   -15547   -15623   -15508   -15358   -15269   -15225 
  -15180   -15168   -15255   -15348   -15326   -15259   -15219   -15149 
  -15030   -14949   -14928   -14936   -14994   -15115   -15269   -15375 
  -15309   -15067   -14843   -14816   -14963   -15142   -15248   -15268 
  -15249   -15194   -15086   -14989   -14976   -15066   -15164   -15144 
  -15057   -15033   -15034   -15028   -15087   -15180   -15175   -15086 
  -15048   -15106   -15152   -15095   -14994   -14966   -15028   -15044 
  -14917   -14783   -14825   -15012   -15171   -15211   -15203   -15250 
  -15269   -15102   -14860   -14770   -14775   -14754   -14786   -14889 
  -14982   -15041   -15044   -15033   -15070   -15105   -15140   -15246 
  -15345   -15321   -15246   -15248   -15307   -15384   -15487   -15557 
  -15556   -15561   -15580   -15527   -15423   -15319   -15198   -15083 
  -14983   -14824   -14639   -14544   -14476   -14339   -14233   -14266 
  -14373   -14466   -14601   -14848   -15097   -15184   -15169   -15228 
  -15377   -15537   -15645   -15634   -15449   -15167   -14970   -14968 
  -15095   -15225   -15352   -15499   -15615   -15731   -15882   -15919 
  -15697   -15342   -15087   -15022   -15122   -15234   -15156   -14987 
  -14989   -15117   -15080   -14767   -14476   -14467   -14555   -14566 
  -14629   -14816   -14971   -14949   -14814   -14763   -14870   -15033 
  -15186   -15346   -15457   -15429   -15309   -15202   -15094   -14906 
  -14666   -14551   -14638   -14773   -14854   -14935   -15028   -15091 
  -15184   -15384   -15592   -15620   -15461   -15223   -14982   -14855 
  -14893   -14918   -14806   -14669   -14543   -14393   -14341   -14431 
