Origin Time       2025/03/30 22:55:00
Lat.              41.993
Long.             142.725
Depth. (km)       55
Mag.              4.6
Station Code      HKD098
Station Lat.      42.4985
Station Long.     143.2790
Station Height(m) 81
Record Time       2025/03/30 22:56:25
Sampling Freq(Hz) 100Hz
Duration Time(s)  60
Dir.              E-W
Scale Factor      7845(gal)/8223790
Max. Acc. (gal)   1.642
Last Correction   2025/03/30 22:56:25
Memo.             
[...]
    9451     9450     9451     9451     9450     9448     9450     9454 
    9454     9450     9450     9451     9450     9452     9454     9451 
    9452     9452     9450     9450     9452     9451     9451     9455 
    9455     9452     9452     9454     9452     9452     9452     9451 
    9454     9456     9455     9454     9454     9454     9455     9455 
    9452     9455     9455     9452     9454     9454     9452     9452 
    9452     9452     9455     9455     9452     9455     9455     9452 
    9454     9455     9454     9454     9452     9454     9455     9454 
    9454     9454     9454     9454     9452     9452     9454     9454 
    9454     9455     9458     9460     9463     9470     9477     9481 
    9486     9490     9489     9482     9474     9463     9443     9412 
    9389     9390     9409     9444     9490     9540     9570     9549 
    9482     9414     9398     9423     9431     9401     9360     9331 
    9327     9387     9510     9586     9508     9373     9363     9485 
    9586     9585     9493     9332     9185     9220     9443     9597 
    9537     9447     9467     9493     9451     9423     9424     9409 
    9421     9533     9663     9610     9456     9439     9444     9331 
    9317     9478     9555     9497     9525     9614     9502     9259 
    9227     9391     9472     9497     9579     9568     9431     9393 
    9491     9493     9360     9375     9567     9609     9458     9339 
    9313     9336     9356     9404     9504     9518     9471     9512 
    9551     9472     9359     9344     9429     9494     9508     9551 
    9553     9412     9313     9386     9455     9466     9490     9506 
    9533     9597     9593     9393     9163     9200     9355     9421 
    9551     9711     9709     9571     9339     9158     9224     9447 
    9675     9801     9724     9587     9498     9375     9290     9278 
    9254     9261     9321     9425     9599     9726     9572     9131 
    8893     9173     9563     9761     9845     9713     9375     9139 
    9184     9433     9637     9558     9305     9213     9382     9585 
    9568     9390     9298     9370     9540     9674     9578     9362 
    9391     9526     9439     9432     9695     9747     9454     9286 
    9390     9533     9663     9764     9616     9225     9047     9281 
    9576     9733     9709     9487     9367     9416     9354     9232 
    9229     9255     9181     9185     9549     9977     9942     9648 
    9548     9556     9478     9466     9651     9821     9709     9423 
    9194     9030     9080     9462     9791     9792     9670     9508 
    9231     9016     9099     9348     9429     9279     9093     8991 
    8982     9162     9441     9598     9663     9582     9364     9352 
    9509     9513     9289     8950     8833     9053     9370     9699 
    9907     9841     9710     9541     9250     9228     9645    10038 
   10027     9776     9711     9701     9485     9586    10122    10322 
    9960     9541     9462     9585     9566     9485     9391     9054 
    8719     8780     9097     9371     9521     9607     9568     9308 
    9100     9209     9405     9520     9576     9432     9177     9043 
    8974     9042     9262     9274     9153     9336     9724     9918 
    9863     9610     9202     8969     9197     9529     9458     9228 
    9337     9691     9900     9751     9420     9337     9491     9589 
    9626     9682     9753     9774     9612     9420     9502     9786 
    9957     9880     9628     9398     9358     9393     9312     9246 
    9319     9282     9103     9169     9477     9640     9640     9586 
    9472     9456     9525     9420     9234     9174     9043     8827 
    8905     9281     9591     9707     9663     9459     9255     9239 
    9332     9433     9580     9683     9629     9536     9495     9400 
    9316     9451     9652     9591     9390     9425     9676     9801 
    9633     9379     9232     9194     9325     9563     9640     9545 
    9479     9517     9571     9574     9571     9544     9466     9409 
    9459     9603     9603     9377     9251     9354     9518     9580 
    9448     9200     8962     8892     9161     9533     9674     9698 
    9707     9571     9320     9128     9240     9675     9954     9736 
    9335     9220     9371     9521     9683     9846     9741     9458 
    9267     9163     9274     9583     9664     9478     9346     9296 
    9261     9342     9585     9803     9757     9466     9229     9213 
    9297     9371     9382     9293     9197     9244     9396     9520 
    9679     9865     9722     9215     8984     9336     9753     9826 
    9699     9494     9224     9067     9154     9429     9733     9736 
    9343     9073     9333     9771     9842     9564     9387     9456 
    9409     9094     8999     9409     9882    10023     9904     9671 
    9460     9370     9366     9440     9540     9464     9227     9150 
    9323     9471     9470     9491     9610     9602     9373     9198 
    9213     9224     9163     9196     9404     9671     9753     9551 
    9279     9232     9478     9713     9618     9409     9435     9574 
    9547     9373     9298     9364     9402     9482     9694     9798 
    9671     9454     9254     9148     9159     9246     9373     9425 
    9317     9205     9255     9447     9710     9880     9776     9567 
    9525     9591     9643     9656     9555     9364     9184     9081 
    9228     9606     9821     9713     9591     9556     9421     9289 
    9409     9578     9429     9171     9282     9598     9605     9298 
    9057     9076     9250     9437     9622     9747     9730     9672 
    9624     9470     9336     9391     9477     9497     9525     9521 
    9418     9247     9144     9211     9313     9359     9401     9468 
    9521     9478     9351     9298     9425     9629     9717     9679 
    9620     9601     9644     9688     9694     9618     9409     9185 
    9084     9155     9371     9475     9402     9429     9467     9327 
    9310     9517     9575     9450     9466     9637     9634     9359 
    9198     9391     9541     9397     9302     9400     9423     9340 
    9373     9495     9562     9639     9749     9755     9630     9444 
    9294     9323     9486     9598     9586     9423     9209     9216 
    9458     9671     9675     9576     9602     9602     9337     9035 
    9000     9200     9386     9390     9319     9282     9254     9346 
    9597     9837     9987     9914     9566     9224     9078     9216 
    9536     9609     9387     9238     9375     9722     9890     9745 
    9622     9591     9443     9173     9043     9186     9337     9396 
    9571     9807     9849     9672     9493     9481     9455     9188 
    8958     9072     9289     9382     9452     9543     9590     9591 
    9535     9412     9350     9506     9788     9809     9452     9155 
    9213     9374     9402     9452     9535     9362     9072     9065 
    9239     9332     9389     9479     9559     9621     9675     9701 
    9666     9510     9308     9250     9359     9567     9876    10091 
    9933     9578     9308     9146     9165     9373     9620     9798 
    9764     9489     9239     9189     9259     9316     9320     9362 
    9405     9363     9359     9478     9664     9807     9691     9317 
    9045     9093     9342     9558     9568     9414     9239     9142 
    9215     9386     9470     9489     9525     9509     9489     9636 
    9776     9663     9552     9652     9687     9504     9343     9306 
    9240     9204     9320     9393     9366     9421     9558     9720 
    9836     9691     9320     9147     9362     9599     9544     9383 
    9340     9317     9223     9189     9250     9261     9248     9342 
    9489     9594     9664     9722     9711     9597     9501     9512 
    9506     9371     9155     9015     9181     9548     9783     9938 
   10030     9815     9456     9354     9478     9540     9531     9587 
    9572     9409     9313     9277     9153     9055     9115     9319 
    9528     9548     9521     9647     9726     9582     9306     9109 
    9169     9336     9350     9279     9310     9489     9713     9810 
    9790     9765     9675     9471     9261     9097     9005     9054 
    9223     9387     9510     9667     9764     9597     9333     9362 
    9644     9810     9742     9620     9489     9297     9144     9227 
    9651    10120    10114     9645     9265     9189     9153     9189 
    9479     9701     9566     9294     9221     9456     9722     9648 
    9251     8927     8946     9181     9518     9937    10143     9880 
    9402     9154     9175     9240     9292     9315     9256     9231 
    9331     9421     9431     9463     9524     9505     9371     9185 
    9086     9193     9424     9616     9713     9722     9655     9555 
    9537     9602     9566     9464     9470     9486     9451     9418 
    9321     9205     9227     9352     9472     9533     9559     9536 
    9348     9173     9252     9401     9464     9495     9420     9328 
    9471     9728     9837     9842     9815     9738     9678     9686 
    9698     9595     9371     9205     9194     9258     9305     9282 
    9220     9252     9454     9796    10072     9976     9579     9290 
    9332     9612     9855     9836     9597     9335     9155     9130 
    9312     9545     9562     9327     9054     8927     8943     9038 
    9198     9339     9325     9217     9109     9023     9100     9343 
    9528     9626     9710     9703     9580     9495     9576     9702 
    9668     9506     9356     9266     9315     9568     9844     9892 
    9759     9601     9464     9360     9308     9297     9329     9393 
    9383     9342     9450     9664     9817     9823     9683     9548 
    9568     9617     9517     9344     9247     9232     9227     9177 
    9186     9385     9580     9568     9491     9450     9383     9342 
    9366     9410     9431     9413     9379     9305     9190     9201 
    9436     9729     9849     9682     9363     9227     9337     9455 
    9521     9563     9478     9301     9229     9347     9522     9537 
    9412     9398     9572     9792     9890     9755     9463     9250 
    9265     9393     9448     9429     9424     9440     9462     9416 
    9215     9047     9167     9463     9645     9629     9540     9490 
    9514     9657     9809     9768     9643     9572     9491     9455 
    9531     9563     9448     9294     9232     9244     9282     9342 
    9382     9447     9548     9524     9312     9045     8851     8795 
    8945     9283     9580     9667     9660     9713     9745     9571 
    9327     9356     9610     9769     9783     9787     9771     9668 
    9514     9408     9454     9641     9838     9968     9964     9782 
    9498     9271     9173     9136     9193     9447     9668     9579 
    9366     9248     9167     9150     9351     9626     9612     9288 
    9016     9007     9158     9300     9328     9202     8999     8984 
    9325     9684     9725     9653     9652     9575     9454     9483 
    9674     9802     9684     9425     9250     9258     9382     9486 
    9513     9429     9224     9080     9189     9436     9518     9390 
    9350     9566     9780     9752     9589     9455     9383     9348 
    9298     9221     9153     9143     9219     9312     9396     9536 
    9670     9632     9450     9262     9089     8950     8926     9063 
    9333     9586     9683     9647     9636     9809    10102    10292 
   10274    10160    10104    10106    10079     9963     9676     9243 
    8895     8829     9030     9355     9633     9742     9618     9344 
    9212     9335     9427     9337     9358     9645     9969    10168 
   10281    10258    10027     9666     9282     9019     9008     9169 
    9321     9406     9410     9387     9518     9811     9936     9661 
    9163     8652     8189     8019     8409     9081     9464     9424 
    9239     9167     9369     9900    10490    10642    10174     9493 
    9151     9273     9545     9657     9528     9188     8758     8503 
    8634     9051     9490     9857    10133    10195    10064     9968 
    9931     9695     9302     9090     9057     8988     8945     9030 
    9086     8957     8791     8869     9162     9436     9679     9983 
   10233    10231     9999     9715     9517     9520     9656     9647 
    9458     9255     9078     9022     9211     9528     9721     9709 
    9580     9452     9382     9327     9171     8953     8883     8989 
    9049     9003     9027     9150     9221     9270     9459     9763 
    9929     9799     9505     9219     9045     9085     9290     9490 
    9591     9597     9560     9574     9709     9856     9798     9541 
    9347     9366     9452     9490     9556     9645     9648     9601 
    9657     9810     9811     9568     9317     9215     9223     9343 
    9499     9432     9085     8769     8692     8792     9043     9436 
    9725     9633     9223     8783     8526     8584     8981     9486 
    9786     9755     9524     9337     9347     9570     9945    10316 
   10550    10651    10764    10982    11126    11028    10778    10494 
   10238    10149    10296    10473    10388     9969     9373     8784 
    8330     8058     7927     7905     7959     8012     8062     8124 
    8154     8190     8287     8402     8510     8631     8780     9013 
    9375     9751     9961     9926     9733     9591     9509     9271 
    8908     8772     9184    10044    10836    11173    11060    10710 
   10351    10156    10187    10326    10319    10112     9930     9900 
    9876     9794     9865    10165    10327    10023     9494     9174 
    9180     9421     9726     9841     9591     9045     8533     8384 
    8559     8797     8999     9080     8939     8823     9088     9699 
   10320    10515    10131     9502     8986     8772     8868     9027 
    9081     9084     9034     8866     8656     8665     8996     9378 
    9552     9493     9243     9023     9067     9236     9274     9169 
    9022     8904     8880     8995     9290     9694    10030    10246 
   10412    10582    10736    10768    10593    10224     9786     9472 
    9312     9196     9136     9120     9074     9055     9107     9184 
    9274     9277     9062     8707     8491     8650     9062     9424 
    9690     9899     9927     9734     9498     9344     9208     9015 
    8827     8796     8980     9265     9529     9790    10065    10223 
   10197    10142    10114     9936     9543     9124     8904     8959 
    9254     9693    10123    10388    10453    10355    10158     9964 
    9855     9880    10011    10076     9994     9829     9585     9279 
    9038     8884     8745     8649     8703     8892     9030     9053 
    9127     9313     9483     9582     9621     9591     9510     9416 
    9342     9271     9171     9080     9101     9277     9490     9572 
    9498     9375     9323     9418     9613     9705     9612     9462 
    9389     9435     9535     9560     9505     9477     9539     9679 
    9891    10122    10138     9791     9336     9074     9013     9027 
    8981     8783     8464     8194     8170     8460     8924     9277 
    9344     9297     9346     9440     9533     9703     9867     9811 
    9513     9193     9045     9097     9277     9460     9563     9647 
    9741     9776     9791     9819     9791     9740     9759     9774 
    9568     9130     8764     8657     8721     8931     9329     9842 
   10334    10631    10590    10327    10131    10120    10183    10168 
   10027     9814     9616     9509     9432     9267     9107     9105 
    9196     9285     9462     9683     9697     9460     9275     9281 
    9331     9409     9560     9625     9521     9439     9494     9518 
    9387     9246     9162     9003     8749     8587     8673     8959 
    9215     9246     9140     9139     9270     9402     9495     9525 
    9450     9346     9315     9329     9290     9220     9252     9408 
    9643     9925    10141    10204    10162    10071     9981     9929 
    9907     9898     9923     9977     9975     9805     9441     9059 
    8892     8914     8927     8870     8768     8604     8422     8401 
    8621     8941     9221     9423     9529     9570     9644     9807 
    9972     9984     9802     9486     9127     8842     8749     8893 
    9234     9620     9906    10091    10234    10347    10380    10265 
   10073     9954     9875     9691     9405     9196     9181     9201 
    9063     8857     8742     8735     8768     8764     8746     8831 
    9040     9266     9391     9414     9444     9544     9621     9568 
    9444     9408     9502     9624     9691     9720     9698     9570 
    9423     9377     9400     9490     9703     9953    10091    10042 
    9896     9830     9884     9984    10072    10083     9972     9817 
    9760     9855    10026    10162    10135     9900     9625     9494 
    9497     9547     9593     9589     9552     9504     9370     9144 
    8978     8988     9127     9309     9477     9499     9290     8972 
    8769     8803     9026     9313     9571     9703     9644     9487 
    9397     9364     9274     9113     8926     8706     8486     8402 
    8475     8595     8741     8876     8897     8808     8760     8930 
    9227     9401     9490     9656     9911    10196    10427    10561 
   10544    10334    10093    10034    10123    10192    10126     9930 
    9676     9431     9247     9113     8980     8872     8870     9019 
    9265     9493     9680     9841     9836     9574     9293     9277 
    9463     9630     9679     9621     9528     9455     9427     9470 
    9518     9454     9290     9167     9163     9234     9310     9359 
    9379     9417     9533     9693     9747     9643     9551     9576 
    9621     9632     9660     9675     9661     9714     9846     9952 
    9987    10018    10037     9909     9652     9464     9317     9058 
    8788     8673     8729     8876     8980     9022     9089     9113 
    9019     8927     8972     9069     9078     9045     9062     9127 
    9231     9329     9343     9285     9193     9100     9065     9101 
    9155     9163     9174     9315     9514     9607     9634     9714 
    9819     9857     9888    10034    10146    10033     9790     9566 
    9379     9228     9107     9069     9154     9305     9483     9653 
    9736     9763     9855    10011    10130    10125     9981     9764 
    9564     9432     9382     9393     9418     9389     9251     9090 
    9101     9269     9391     9485     9691     9904     9906     9718 
    9593     9630     9679     9648     9624     9717     9903     9992 
    9857     9576     9297     9081     8926     8800     8621     8345 
    8100     8054     8248     8614     9007     9304     9451     9421 
    9266     9109     9035     9065     9170     9294     9432     9601 
    9813    10039    10181    10203    10200    10253    10382    10525 
   10527    10269     9806     9336     9039     9004     9190     9428 
    9599     9702     9757     9845    10004    10138    10143     9999 
    9786     9660     9653     9605     9424     9225     9146     9186 
    9300     9497     9702     9729     9605     9558     9674     9803 
    9749     9494     9185     8951     8834     8797     8822     8912 
