Origin Time       2025/03/30 22:55:00
Lat.              41.993
Long.             142.725
Depth. (km)       55
Mag.              4.6
Station Code      HKD097
Station Lat.      42.6181
Station Long.     143.4210
Station Height(m) 33
Record Time       2025/03/30 22:56:28
Sampling Freq(Hz) 100Hz
Duration Time(s)  60
Dir.              U-D
Scale Factor      7845(gal)/8223790
Max. Acc. (gal)   0.411
Last Correction   2025/03/30 22:56:12
Memo.             
[...]
   -3372    -3400    -3449    -3427    -3318    -3252    -3242    -3265 
   -3352    -3426    -3441    -3435    -3395    -3429    -3523    -3418 
   -3284    -3369    -3388    -3237    -3165    -3249    -3418    -3489 
   -3441    -3472    -3487    -3376    -3389    -3468    -3358    -3221 
   -3218    -3319    -3473    -3480    -3339    -3316    -3379    -3372 
   -3423    -3511    -3397    -3223    -3283    -3396    -3348    -3288 
   -3353    -3485    -3501    -3422    -3472    -3487    -3287    -3233 
   -3392    -3353    -3211    -3310    -3439    -3447    -3485    -3461 
   -3396    -3411    -3333    -3225    -3276    -3334    -3326    -3353 
   -3443    -3566    -3558    -3377    -3302    -3375    -3342    -3281 
   -3357    -3414    -3372    -3326    -3289    -3287    -3341    -3368 
   -3364    -3411    -3424    -3395    -3426    -3393    -3303    -3348 
   -3410    -3381    -3383    -3354    -3337    -3485    -3534    -3373 
   -3387    -3447    -3226    -3111    -3268    -3314    -3289    -3407 
   -3549    -3585    -3500    -3375    -3335    -3366    -3380    -3357 
   -3260    -3177    -3302    -3435    -3423    -3508    -3535    -3308 
   -3253    -3407    -3339    -3215    -3330    -3389    -3338    -3426 
   -3458    -3376    -3411    -3441    -3433    -3443    -3321    -3225 
   -3299    -3349    -3414    -3496    -3441    -3426    -3503    -3383 
   -3233    -3339    -3399    -3288    -3360    -3524    -3441    -3292 
   -3333    -3439    -3427    -3269    -3165    -3242    -3334    -3387 
   -3488    -3520    -3389    -3306    -3420    -3473    -3350    -3322 
   -3348    -3276    -3284    -3357    -3375    -3441    -3489    -3407 
   -3353    -3414    -3422    -3298    -3284    -3458    -3504    -3439 
   -3449    -3327    -3200    -3383    -3503    -3373    -3343    -3368 
   -3335    -3368    -3348    -3267    -3329    -3407    -3377    -3418 
   -3478    -3385    -3330    -3385    -3315    -3208    -3268    -3343 
   -3358    -3431    -3519    -3538    -3514    -3441    -3329    -3252 
   -3231    -3268    -3335    -3373    -3399    -3447    -3434    -3346 
   -3339    -3365    -3346    -3446    -3546    -3429    -3346    -3389 
   -3334    -3295    -3429    -3546    -3495    -3357    -3240    -3194 
   -3287    -3465    -3496    -3350    -3302    -3399    -3412    -3352 
   -3319    -3307    -3410    -3527    -3419    -3280    -3342    -3406 
   -3366    -3392    -3465    -3453    -3343    -3172    -3117    -3294 
   -3439    -3396    -3397    -3451    -3424    -3466    -3510    -3358 
   -3316    -3481    -3483    -3368    -3345    -3354    -3433    -3516 
   -3427    -3322    -3308    -3240    -3177    -3244    -3318    -3330 
   -3322    -3334    -3462    -3588    -3462    -3331    -3429    -3431 
   -3298    -3296    -3304    -3223    -3298    -3505    -3500    -3335 
   -3349    -3375    -3258    -3294    -3379    -3258    -3262    -3474 
   -3464    -3314    -3395    -3485    -3369    -3302    -3360    -3400 
   -3443    -3465    -3434    -3454    -3441    -3339    -3377    -3418 
   -3261    -3304    -3542    -3414    -3173    -3294    -3403    -3342 
   -3369    -3400    -3430    -3507    -3476    -3422    -3427    -3357 
   -3316    -3423    -3499    -3438    -3330    -3265    -3285    -3327 
   -3342    -3384    -3410    -3408    -3472    -3535    -3526    -3462 
   -3364    -3330    -3325    -3198    -3122    -3211    -3279    -3343 
   -3435    -3414    -3364    -3399    -3412    -3343    -3284    -3308 
   -3353    -3406    -3523    -3531    -3364    -3342    -3465    -3416 
   -3314    -3300    -3195    -3152    -3356    -3466    -3368    -3383 
   -3476    -3411    -3281    -3249    -3307    -3279    -3142    -3279 
   -3636    -3669    -3491    -3469    -3443    -3391    -3381    -3276 
   -3257    -3427    -3445    -3354    -3412    -3415    -3273    -3235 
   -3314    -3399    -3499    -3524    -3414    -3364    -3416    -3325 
   -3168    -3230    -3350    -3350    -3420    -3528    -3468    -3373 
   -3410    -3443    -3415    -3388    -3357    -3358    -3407    -3400 
   -3370    -3430    -3443    -3323    -3241    -3219    -3194    -3260 
   -3352    -3370    -3395    -3410    -3426    -3469    -3415    -3338 
   -3404    -3478    -3441    -3416    -3474    -3534    -3534    -3500 
   -3454    -3341    -3208    -3204    -3275    -3284    -3268    -3295 
   -3404    -3477    -3372    -3267    -3268    -3187    -3110    -3277 
   -3429    -3337    -3331    -3431    -3326    -3276    -3478    -3538 
   -3438    -3483    -3554    -3500    -3357    -3227    -3272    -3365 
   -3311    -3280    -3422    -3530    -3419    -3299    -3358    -3408 
   -3375    -3416    -3483    -3477    -3434    -3379    -3376    -3387 
   -3312    -3318    -3485    -3505    -3326    -3302    -3384    -3300 
   -3230    -3307    -3365    -3412    -3481    -3466    -3426    -3415 
   -3289    -3161    -3256    -3361    -3342    -3462    -3638    -3522 
   -3275    -3269    -3388    -3350    -3303    -3465    -3607    -3460 
   -3223    -3203    -3284    -3280    -3295    -3380    -3437    -3465 
   -3508    -3546    -3507    -3362    -3256    -3302    -3318    -3198 
   -3218    -3438    -3487    -3319    -3292    -3434    -3492    -3461 
   -3443    -3438    -3400    -3310    -3272    -3315    -3322    -3342 
   -3431    -3451    -3341    -3225    -3253    -3429    -3555    -3493 
   -3396    -3404    -3389    -3291    -3253    -3295    -3308    -3327 
   -3380    -3345    -3288    -3403    -3532    -3511    -3473    -3480 
   -3474    -3402    -3314    -3391    -3495    -3354    -3217    -3352 
   -3443    -3310    -3252    -3327    -3343    -3316    -3303    -3276 
   -3307    -3402    -3387    -3307    -3375    -3473    -3458    -3491 
   -3580    -3511    -3333    -3265    -3292    -3283    -3252    -3262 
   -3360    -3493    -3557    -3572    -3555    -3484    -3422    -3388 
   -3366    -3366    -3346    -3348    -3411    -3422    -3362    -3304 
   -3283    -3325    -3318    -3244    -3333    -3456    -3315    -3222 
   -3406    -3420    -3186    -3190    -3361    -3345    -3352    -3518 
   -3561    -3429    -3337    -3377    -3430    -3385    -3393    -3503 
   -3462    -3304    -3334    -3474    -3443    -3294    -3254    -3325 
   -3315    -3214    -3235    -3385    -3408    -3310    -3357    -3514 
   -3496    -3318    -3250    -3356    -3410    -3358    -3337    -3369 
   -3418    -3419    -3346    -3354    -3449    -3431    -3354    -3339 
   -3322    -3329    -3391    -3414    -3385    -3338    -3319    -3372 
   -3423    -3445    -3446    -3369    -3307    -3377    -3402    -3339 
   -3441    -3619    -3551    -3376    -3377    -3408    -3316    -3295 
   -3366    -3354    -3323    -3318    -3265    -3337    -3528    -3514 
   -3395    -3442    -3441    -3294    -3244    -3256    -3221    -3249 
   -3330    -3352    -3388    -3485    -3492    -3364    -3304    -3385 
   -3411    -3361    -3383    -3369    -3294    -3368    -3416    -3250 
   -3246    -3451    -3461    -3387    -3472    -3480    -3321    -3248 
   -3296    -3302    -3298    -3389    -3427    -3341    -3377    -3511 
   -3466    -3358    -3391    -3415    -3318    -3203    -3192    -3303 
   -3414    -3460    -3472    -3426    -3350    -3353    -3375    -3300 
   -3273    -3404    -3499    -3465    -3443    -3456    -3434    -3392 
   -3331    -3294    -3358    -3430    -3388    -3316    -3302    -3289 
   -3238    -3234    -3327    -3407    -3407    -3408    -3447    -3446 
   -3416    -3446    -3477    -3388    -3272    -3299    -3429    -3511 
   -3484    -3419    -3388    -3357    -3325    -3310    -3280    -3269 
   -3331    -3460    -3538    -3445    -3343    -3437    -3504    -3381 
   -3288    -3298    -3296    -3306    -3326    -3329    -3410    -3505 
   -3481    -3456    -3477    -3403    -3298    -3302    -3360    -3408 
   -3451    -3446    -3377    -3306    -3289    -3333    -3346    -3283 
   -3272    -3396    -3485    -3383    -3262    -3335    -3422    -3375 
   -3358    -3400    -3422    -3466    -3477    -3429    -3423    -3438 
   -3402    -3353    -3330    -3384    -3451    -3379    -3300    -3393 
   -3415    -3281    -3281    -3402    -3385    -3271    -3244    -3319 
   -3352    -3296    -3302    -3422    -3503    -3408    -3226    -3188 
   -3318    -3362    -3281    -3321    -3423    -3365    -3311    -3389 
   -3396    -3334    -3348    -3338    -3310    -3399    -3453    -3377 
   -3361    -3407    -3414    -3450    -3476    -3408    -3408    -3534 
   -3569    -3435    -3295    -3235    -3229    -3265    -3326    -3415 
   -3565    -3611    -3476    -3391    -3384    -3345    -3353    -3370 
   -3348    -3391    -3404    -3281    -3221    -3296    -3323    -3261 
   -3229    -3265    -3339    -3404    -3435    -3443    -3466    -3531 
   -3537    -3426    -3391    -3492    -3514    -3473    -3487    -3419 
   -3310    -3361    -3416    -3300    -3240    -3342    -3365    -3295 
   -3330    -3353    -3244    -3206    -3300    -3387    -3433    -3418 
   -3365    -3352    -3298    -3233    -3334    -3424    -3310    -3244 
   -3311    -3273    -3194    -3262    -3377    -3395    -3388    -3461 
   -3554    -3559    -3541    -3569    -3530    -3400    -3333    -3391 
   -3516    -3554    -3424    -3346    -3381    -3296    -3188    -3284 
   -3406    -3377    -3346    -3400    -3429    -3408    -3407    -3395 
   -3329    -3271    -3299    -3327    -3218    -3123    -3240    -3395 
   -3389    -3338    -3369    -3381    -3295    -3289    -3450    -3535 
   -3484    -3457    -3422    -3415    -3516    -3472    -3268    -3250 
   -3316    -3275    -3361    -3520    -3472    -3416    -3457    -3338 
   -3176    -3206    -3217    -3144    -3258    -3505    -3568    -3462 
   -3442    -3493    -3447    -3364    -3372    -3433    -3438    -3404 
   -3457    -3489    -3358    -3289    -3381    -3403    -3373    -3392 
   -3299    -3183    -3261    -3349    -3330    -3375    -3451    -3480 
   -3524    -3553    -3500    -3414    -3307    -3237    -3287    -3387 
   -3403    -3321    -3234    -3242    -3345    -3453    -3496    -3483 
   -3450    -3426    -3408    -3357    -3299    -3358    -3527    -3558 
   -3389    -3311    -3369    -3299    -3173    -3248    -3372    -3376 
   -3485    -3715    -3715    -3507    -3342    -3190    -3084    -3194 
   -3408    -3481    -3399    -3329    -3331    -3333    -3333    -3380 
   -3484    -3593    -3532    -3310    -3181    -3136    -3076    -3176 
   -3397    -3480    -3473    -3441    -3268    -3125    -3210    -3339 
   -3460    -3693    -3804    -3639    -3487    -3388    -3237    -3223 
   -3392    -3545    -3584    -3474    -3256    -3099    -3138    -3298 
   -3420    -3500    -3559    -3512    -3368    -3234    -3215    -3341 
   -3412    -3277    -3169    -3284    -3408    -3391    -3426    -3512 
   -3443    -3342    -3364    -3392    -3392    -3406    -3365    -3284 
   -3246    -3223    -3207    -3257    -3325    -3331    -3358    -3462 
   -3541    -3555    -3597    -3616    -3453    -3241    -3280    -3526 
   -3705    -3740    -3692    -3561    -3362    -3204    -3165    -3191 
   -3194    -3187    -3186    -3156    -3149    -3221    -3311    -3377 
   -3466    -3566    -3597    -3508    -3316    -3180    -3229    -3325 
   -3321    -3308    -3334    -3342    -3327    -3258    -3156    -3196 
   -3420    -3595    -3603    -3592    -3611    -3534    -3443    -3503 
   -3534    -3381    -3234    -3269    -3453    -3634    -3666    -3532 
   -3364    -3225    -3091    -3052    -3192    -3341    -3357    -3323 
   -3248    -3138    -3111    -3168    -3323    -3559    -3631    -3508 
   -3408    -3291    -3115    -3038    -3046    -3078    -3230    -3404 
   -3399    -3391    -3519    -3519    -3357    -3273    -3295    -3392 
   -3522    -3553    -3534    -3550    -3511    -3430    -3400    -3364 
   -3356    -3460    -3516    -3458    -3472    -3565    -3588    -3501 
   -3375    -3315    -3302    -3225    -3169    -3257    -3380    -3393 
   -3306    -3206    -3183    -3237    -3276    -3312    -3430    -3487 
   -3408    -3406    -3473    -3480    -3569    -3680    -3558    -3387 
   -3338    -3217    -3094    -3180    -3298    -3337    -3383    -3341 
   -3225    -3240    -3338    -3393    -3456    -3495    -3461    -3439 
   -3437    -3410    -3380    -3361    -3379    -3419    -3422    -3424 
   -3434    -3364    -3253    -3186    -3168    -3258    -3404    -3433 
   -3407    -3470    -3478    -3304    -3149    -3198    -3325    -3325 
   -3288    -3348    -3391    -3433    -3546    -3584    -3558    -3649 
   -3739    -3678    -3572    -3426    -3223    -3176    -3308    -3395 
   -3446    -3534    -3524    -3392    -3292    -3272    -3261    -3248 
   -3281    -3391    -3532    -3555    -3447    -3418    -3465    -3397 
   -3269    -3222    -3218    -3204    -3233    -3339    -3469    -3534 
   -3526    -3519    -3528    -3497    -3430    -3375    -3424    -3545 
   -3500    -3325    -3257    -3217    -3159    -3261    -3389    -3316 
   -3200    -3173    -3140    -3137    -3254    -3379    -3429    -3477 
   -3532    -3541    -3516    -3453    -3358    -3318    -3334    -3329 
   -3280    -3244    -3230    -3249    -3349    -3460    -3465    -3431 
   -3477    -3534    -3518    -3512    -3573    -3561    -3445    -3381 
   -3387    -3345    -3265    -3258    -3335    -3341    -3264    -3261 
   -3345    -3399    -3420    -3493    -3543    -3446    -3315    -3253 
   -3160    -3055    -3057    -3159    -3268    -3337    -3396    -3397 
   -3265    -3138    -3150    -3237    -3392    -3626    -3789    -3805 
   -3759    -3684    -3535    -3376    -3341    -3419    -3496    -3586 
   -3689    -3640    -3451    -3279    -3142    -3115    -3214    -3242 
   -3203    -3230    -3230    -3144    -3072    -3055    -3123    -3287 
   -3420    -3473    -3465    -3388    -3334    -3349    -3330    -3339 
   -3456    -3477    -3333    -3233    -3222    -3192    -3148    -3181 
   -3353    -3522    -3527    -3488    -3496    -3458    -3468    -3622 
   -3727    -3689    -3609    -3495    -3376    -3267    -3105    -3086 
   -3310    -3466    -3515    -3667    -3734    -3558    -3442    -3491 
   -3450    -3271    -3126    -3132    -3296    -3439    -3410    -3358 
   -3304    -3145    -3098    -3191    -3180    -3175    -3302    -3372 
   -3338    -3283    -3199    -3142    -3177    -3215    -3231    -3304 
   -3364    -3373    -3450    -3559    -3596    -3565    -3488    -3431 
   -3462    -3483    -3430    -3424    -3488    -3538    -3607    -3666 
   -3622    -3550    -3546    -3523    -3407    -3295    -3227    -3140 
   -3119    -3202    -3214    -3186    -3246    -3283    -3253    -3298 
   -3358    -3342    -3349    -3426    -3469    -3433    -3391    -3370 
   -3296    -3214    -3252    -3326    -3343    -3408    -3511    -3487 
   -3402    -3454    -3569    -3591    -3588    -3595    -3483    -3300 
   -3275    -3369    -3404    -3423    -3474    -3465    -3430    -3450 
   -3442    -3393    -3420    -3456    -3387    -3323    -3346    -3375 
   -3357    -3329    -3350    -3354    -3252    -3213    -3333    -3418 
   -3441    -3497    -3468    -3325    -3316    -3435    -3423    -3314 
   -3318    -3389    -3373    -3287    -3226    -3225    -3252    -3256 
   -3245    -3244    -3231    -3229    -3277    -3319    -3304    -3315 
   -3391    -3433    -3423    -3402    -3346    -3304    -3334    -3396 
   -3481    -3581    -3634    -3653    -3651    -3599    -3522    -3449 
   -3429    -3465    -3439    -3373    -3411    -3450    -3362    -3299 
   -3333    -3323    -3248    -3198    -3187    -3181    -3188    -3264 
   -3372    -3431    -3474    -3550    -3605    -3581    -3501    -3449 
   -3435    -3381    -3294    -3246    -3230    -3223    -3252    -3272 
   -3260    -3306    -3399    -3426    -3384    -3331    -3283    -3235 
   -3229    -3342    -3504    -3514    -3403    -3354    -3381    -3415 
   -3437    -3412    -3327    -3267    -3287    -3306    -3316    -3368 
   -3384    -3361    -3375    -3384    -3360    -3329    -3323    -3357 
   -3354    -3345    -3437    -3534    -3551    -3577    -3599    -3574 
   -3581    -3635    -3661    -3624    -3541    -3429    -3287    -3171 
   -3173    -3231    -3237    -3275    -3354    -3352    -3318    -3302 
   -3257    -3250    -3288    -3295    -3323    -3375    -3335    -3272 
   -3335    -3460    -3541    -3603    -3615    -3515    -3380    -3268 
   -3138    -3051    -3107    -3175    -3160    -3203    -3302    -3312 
   -3288    -3306    -3329    -3357    -3385    -3369    -3333    -3322 
   -3362    -3447    -3505    -3512    -3550    -3624    -3628    -3581 
   -3593    -3597    -3476    -3356    -3361    -3411    -3460    -3499 
   -3473    -3396    -3350    -3375    -3404    -3349    -3272    -3294 
   -3337    -3281    -3206    -3242    -3291    -3268    -3277    -3300 
   -3242    -3180    -3191    -3252    -3318    -3321    -3323    -3408 
   -3438    -3372    -3391    -3468    -3450    -3414    -3437    -3442 
   -3389    -3329    -3318    -3369    -3388    -3353    -3433    -3562 
   -3510    -3434    -3495    -3468    -3330    -3307    -3349    -3350 
   -3358    -3368    -3376    -3407    -3416    -3393    -3414    -3489 
   -3566    -3611    -3580    -3465    -3381    -3380    -3388    -3389 
   -3438    -3489    -3468    -3376    -3261    -3188    -3208    -3241 
   -3229    -3275    -3346    -3283    -3168    -3160    -3223    -3289 
   -3337    -3370    -3400    -3392    -3369    -3383    -3383    -3369 
   -3403    -3403    -3295    -3192    -3188    -3254    -3331    -3365 
   -3365    -3380    -3387    -3372    -3418    -3483    -3468    -3456 
   -3516    -3537    -3462    -3388    -3362    -3368    -3376    -3370 
   -3385    -3422    -3431    -3412    -3402    -3392    -3345    -3283 
   -3254    -3238    -3234    -3257    -3250    -3213    -3241    -3319 
   -3349    -3368    -3422    -3474    -3537    -3577    -3538    -3495 
   -3468    -3370    -3291    -3310    -3295    -3245    -3291    -3380 
   -3411    -3416    -3415    -3392    -3375    -3380    -3400    -3422 
   -3406    -3364    -3375    -3429    -3435    -3399    -3402    -3423 
   -3406    -3408    -3441    -3481    -3550    -3574    -3511    -3453 
   -3404    -3335    -3330    -3376    -3375    -3362    -3395    -3447 
   -3472    -3431    -3412    -3464    -3422    -3285    -3260    -3311 
   -3296    -3284    -3329    -3348    -3323    -3311    -3326    -3346 
   -3346    -3331    -3357    -3406    -3412    -3368    -3308    -3294 
   -3334    -3377    -3391    -3370    -3330    -3318    -3356    -3402 
   -3430    -3465    -3483    -3460    -3434    -3395    -3343    -3342 
   -3348    -3298    -3287    -3342    -3358    -3373    -3430    -3396 
   -3302    -3310    -3354    -3357    -3410    -3510    -3547    -3501 
   -3410    -3319    -3322    -3358    -3302    -3261    -3323    -3375 
   -3397    -3434    -3446    -3426    -3380    -3312    -3271    -3257 
   -3245    -3256    -3275    -3271    -3271    -3306    -3338    -3362 
   -3404    -3419    -3411    -3430    -3416    -3380    -3381    -3346 
   -3296    -3342    -3419    -3472    -3488    -3389    -3306    -3361 
   -3360    -3296    -3365    -3442    -3396    -3362    -3361    -3321 
   -3318    -3358    -3360    -3366    -3381    -3357    -3362    -3397 
   -3414    -3466    -3505    -3429    -3339    -3356    -3381    -3326 
