Origin Time       2025/03/30 22:55:00
Lat.              41.993
Long.             142.725
Depth. (km)       55
Mag.              4.6
Station Code      HKD097
Station Lat.      42.6181
Station Long.     143.4210
Station Height(m) 33
Record Time       2025/03/30 22:56:28
Sampling Freq(Hz) 100Hz
Duration Time(s)  60
Dir.              N-S
Scale Factor      7845(gal)/8223790
Max. Acc. (gal)   1.659
Last Correction   2025/03/30 22:56:12
Memo.             
[...]
  -14609   -14608   -14605   -14607   -14611   -14612   -14612   -14612 
  -14613   -14615   -14616   -14613   -14612   -14612   -14608   -14605 
  -14605   -14607   -14608   -14609   -14608   -14608   -14609   -14612 
  -14615   -14615   -14616   -14616   -14615   -14616   -14620   -14616 
  -14611   -14609   -14611   -14612   -14613   -14617   -14619   -14617 
  -14619   -14621   -14617   -14613   -14616   -14619   -14616   -14615 
  -14611   -14605   -14602   -14597   -14593   -14596   -14602   -14607 
  -14613   -14623   -14628   -14628   -14620   -14611   -14600   -14585 
  -14584   -14585   -14582   -14594   -14617   -14634   -14646   -14652 
  -14647   -14638   -14619   -14588   -14569   -14566   -14561   -14557 
  -14580   -14625   -14665   -14674   -14670   -14671   -14669   -14627 
  -14569   -14542   -14542   -14553   -14573   -14598   -14640   -14693 
  -14719   -14702   -14679   -14652   -14605   -14557   -14521   -14508 
  -14517   -14535   -14562   -14612   -14659   -14690   -14712   -14717 
  -14700   -14678   -14650   -14613   -14588   -14582   -14577   -14563 
  -14562   -14570   -14555   -14532   -14532   -14558   -14596   -14623 
  -14642   -14683   -14721   -14716   -14685   -14648   -14609   -14574 
  -14531   -14493   -14505   -14570   -14624   -14631   -14625   -14636 
  -14638   -14623   -14617   -14624   -14627   -14613   -14600   -14600 
  -14600   -14594   -14594   -14601   -14616   -14647   -14674   -14678 
  -14675   -14677   -14665   -14628   -14597   -14589   -14577   -14559 
  -14569   -14580   -14571   -14563   -14551   -14551   -14596   -14644 
  -14674   -14721   -14731   -14655   -14582   -14567   -14553   -14531 
  -14535   -14562   -14611   -14669   -14689   -14658   -14617   -14592 
  -14566   -14524   -14504   -14532   -14584   -14620   -14632   -14655 
  -14694   -14700   -14663   -14605   -14550   -14540   -14548   -14523 
  -14553   -14666   -14727   -14737   -14779   -14752   -14632   -14557 
  -14504   -14422   -14400   -14434   -14476   -14589   -14742   -14809 
  -14786   -14747   -14715   -14663   -14600   -14607   -14674   -14688 
  -14648   -14620   -14573   -14507   -14477   -14461   -14442   -14477 
  -14571   -14658   -14712   -14763   -14801   -14775   -14708   -14659 
  -14611   -14534   -14478   -14480   -14512   -14544   -14574   -14609 
  -14647   -14681   -14701   -14675   -14627   -14619   -14635   -14629 
  -14616   -14616   -14600   -14558   -14536   -14539   -14523   -14499 
  -14509   -14544   -14585   -14651   -14720   -14740   -14724   -14683 
  -14611   -14578   -14635   -14674   -14662   -14697   -14735   -14669 
  -14558   -14488   -14447   -14453   -14512   -14567   -14624   -14713 
  -14773   -14769   -14739   -14704   -14647   -14559   -14477   -14482 
  -14551   -14592   -14620   -14670   -14692   -14663   -14619   -14585 
  -14571   -14550   -14505   -14484   -14523   -14590   -14625   -14621 
  -14628   -14642   -14623   -14616   -14643   -14656   -14656   -14659 
  -14643   -14627   -14623   -14586   -14530   -14472   -14434   -14470 
  -14567   -14656   -14725   -14766   -14787   -14798   -14747   -14651 
  -14611   -14621   -14615   -14602   -14580   -14519   -14469   -14455 
  -14443   -14457   -14542   -14678   -14805   -14868   -14863   -14816 
  -14751   -14697   -14665   -14609   -14524   -14477   -14467   -14451 
  -14450   -14472   -14478   -14517   -14602   -14648   -14673   -14740 
  -14778   -14750   -14712   -14673   -14623   -14570   -14520   -14501 
  -14500   -14493   -14520   -14588   -14638   -14634   -14604   -14597 
  -14638   -14689   -14702   -14697   -14683   -14628   -14550   -14508 
  -14517   -14578   -14675   -14740   -14751   -14737   -14675   -14581 
  -14519   -14470   -14440   -14470   -14505   -14547   -14652   -14739 
  -14737   -14728   -14721   -14674   -14627   -14607   -14594   -14616 
  -14651   -14629   -14577   -14550   -14558   -14567   -14557   -14558 
  -14592   -14589   -14557   -14584   -14625   -14620   -14639   -14693 
  -14709   -14697   -14662   -14582   -14521   -14520   -14513   -14508 
  -14548   -14611   -14683   -14747   -14766   -14763   -14739   -14675 
  -14627   -14571   -14465   -14395   -14382   -14368   -14403   -14532 
  -14674   -14779   -14864   -14899   -14867   -14798   -14705   -14621 
  -14574   -14526   -14467   -14440   -14442   -14455   -14500   -14554 
  -14586   -14609   -14621   -14623   -14663   -14744   -14783   -14782 
  -14798   -14785   -14697   -14597   -14505   -14407   -14351   -14370 
  -14413   -14472   -14577   -14696   -14778   -14850   -14885   -14820 
  -14721   -14652   -14581   -14551   -14588   -14605   -14588   -14555 
  -14486   -14427   -14422   -14405   -14397   -14478   -14611   -14723 
  -14821   -14881   -14874   -14835   -14762   -14629   -14521   -14494 
  -14488   -14469   -14472   -14494   -14524   -14559   -14600   -14640 
  -14670   -14679   -14686   -14688   -14662   -14640   -14651   -14639 
  -14593   -14573   -14562   -14534   -14532   -14542   -14512   -14499 
  -14540   -14584   -14623   -14679   -14721   -14729   -14721   -14700 
  -14659   -14620   -14617   -14639   -14648   -14650   -14650   -14631 
  -14598   -14557   -14515   -14534   -14625   -14710   -14743   -14736 
  -14704   -14655   -14569   -14461   -14430   -14516   -14619   -14674 
  -14705   -14696   -14646   -14602   -14554   -14526   -14582   -14648 
  -14635   -14616   -14625   -14617   -14611   -14602   -14571   -14566 
  -14574   -14535   -14489   -14486   -14519   -14574   -14604   -14608 
  -14662   -14727   -14723   -14698   -14690   -14661   -14635   -14634 
  -14601   -14563   -14589   -14629   -14629   -14632   -14638   -14581 
  -14527   -14570   -14617   -14611   -14646   -14696   -14665   -14623 
  -14629   -14636   -14665   -14725   -14735   -14693   -14650   -14566 
  -14457   -14392   -14359   -14374   -14496   -14648   -14755   -14855 
  -14899   -14836   -14766   -14689   -14550   -14446   -14412   -14397 
  -14453   -14569   -14623   -14639   -14675   -14662   -14600   -14559 
  -14557   -14609   -14670   -14659   -14623   -14624   -14638   -14636 
  -14631   -14634   -14639   -14629   -14623   -14640   -14670   -14720 
  -14775   -14793   -14760   -14673   -14555   -14470   -14423   -14373 
  -14339   -14362   -14440   -14580   -14742   -14850   -14868   -14827 
  -14748   -14635   -14527   -14485   -14489   -14496   -14553   -14636 
  -14652   -14640   -14636   -14580   -14499   -14477   -14504   -14551 
  -14605   -14663   -14724   -14732   -14673   -14620   -14596   -14577 
  -14600   -14647   -14667   -14701   -14712   -14628   -14570   -14597 
  -14577   -14513   -14505   -14539   -14581   -14611   -14590   -14570 
  -14613   -14640   -14617   -14639   -14704   -14706   -14671   -14697 
  -14742   -14739   -14700   -14620   -14526   -14473   -14449   -14446 
  -14507   -14582   -14607   -14629   -14686   -14736   -14764   -14760 
  -14715   -14671   -14632   -14571   -14528   -14524   -14530   -14554 
  -14590   -14598   -14596   -14609   -14608   -14609   -14643   -14666 
  -14647   -14611   -14567   -14532   -14540   -14592   -14652   -14689 
  -14683   -14650   -14624   -14617   -14613   -14590   -14543   -14485 
  -14443   -14449   -14481   -14494   -14528   -14605   -14662   -14705 
  -14789   -14844   -14836   -14844   -14855   -14808   -14727   -14624 
  -14485   -14355   -14256   -14200   -14233   -14334   -14427   -14516 
  -14648   -14814   -14959   -15026   -15007   -14943   -14860   -14743 
  -14611   -14526   -14474   -14422   -14403   -14435   -14461   -14492 
  -14550   -14600   -14655   -14737   -14774   -14766   -14793   -14810 
  -14770   -14724   -14654   -14521   -14411   -14351   -14285   -14261 
  -14334   -14447   -14570   -14709   -14820   -14866   -14856   -14801 
  -14717   -14627   -14544   -14509   -14530   -14561   -14584   -14611 
  -14627   -14612   -14557   -14481   -14466   -14535   -14615   -14662 
  -14710   -14750   -14756   -14756   -14731   -14663   -14600   -14532 
  -14434   -14378   -14411   -14477   -14546   -14627   -14698   -14748 
  -14778   -14767   -14716   -14669   -14640   -14617   -14616   -14642 
  -14688   -14717   -14689   -14634   -14589   -14538   -14484   -14462 
  -14463   -14481   -14544   -14639   -14705   -14737   -14744   -14717 
  -14685   -14661   -14605   -14538   -14516   -14526   -14521   -14486 
  -14440   -14432   -14450   -14434   -14431   -14509   -14628   -14729 
  -14783   -14786   -14786   -14809   -14775   -14669   -14588   -14544 
  -14465   -14385   -14391   -14445   -14500   -14598   -14752   -14904 
  -14997   -15007   -14963   -14913   -14837   -14710   -14588   -14509 
  -14445   -14369   -14308   -14318   -14401   -14486   -14544   -14597 
  -14636   -14651   -14670   -14704   -14731   -14725   -14710   -14709 
  -14694   -14646   -14616   -14607   -14581   -14585   -14619   -14598 
  -14569   -14605   -14636   -14631   -14627   -14588   -14497   -14432 
  -14427   -14474   -14557   -14651   -14743   -14801   -14793   -14729 
  -14650   -14569   -14503   -14466   -14459   -14489   -14550   -14602 
  -14632   -14665   -14693   -14689   -14677   -14702   -14744   -14743 
  -14688   -14631   -14604   -14577   -14528   -14496   -14512   -14532 
  -14501   -14465   -14478   -14519   -14574   -14659   -14774   -14893 
  -14948   -14909   -14831   -14750   -14644   -14524   -14435   -14408 
  -14419   -14404   -14381   -14404   -14430   -14431   -14481   -14589 
  -14704   -14821   -14921   -14948   -14910   -14833   -14701   -14558 
  -14482   -14427   -14355   -14357   -14426   -14461   -14474   -14524 
  -14588   -14658   -14737   -14787   -14814   -14841   -14820   -14742 
  -14689   -14682   -14662   -14602   -14547   -14516   -14485   -14472 
  -14504   -14540   -14582   -14670   -14742   -14762   -14796   -14809 
  -14728   -14629   -14590   -14553   -14493   -14457   -14451   -14459 
  -14492   -14539   -14557   -14551   -14588   -14658   -14719   -14800 
  -14895   -14924   -14855   -14724   -14567   -14407   -14256   -14148 
  -14123   -14175   -14301   -14508   -14719   -14878   -14998   -15033 
  -14940   -14797   -14667   -14531   -14420   -14389   -14409   -14470 
  -14581   -14671   -14694   -14697   -14719   -14729   -14696   -14638 
  -14605   -14601   -14592   -14574   -14569   -14575   -14594   -14628 
  -14661   -14682   -14705   -14719   -14719   -14725   -14727   -14686 
  -14602   -14497   -14399   -14347   -14355   -14412   -14486   -14561 
  -14628   -14677   -14702   -14692   -14629   -14571   -14575   -14607 
  -14648   -14702   -14710   -14663   -14623   -14573   -14496   -14459 
  -14488   -14540   -14619   -14721   -14832   -14926   -14944   -14871 
  -14774   -14702   -14670   -14681   -14697   -14692   -14673   -14647 
  -14601   -14550   -14536   -14570   -14620   -14667   -14705   -14725 
  -14739   -14748   -14732   -14708   -14712   -14715   -14671   -14585 
  -14500   -14455   -14438   -14404   -14397   -14445   -14454   -14395 
  -14341   -14326   -14347   -14409   -14481   -14570   -14708   -14851 
  -14959   -15055   -15132   -15110   -14951   -14715   -14466   -14212 
  -13992   -13890   -13914   -14003   -14129   -14307   -14538   -14800 
  -15016   -15120   -15168   -15230   -15238   -15147   -15021   -14882 
  -14692   -14455   -14189   -13940   -13798   -13787   -13887   -14115 
  -14443   -14787   -15099   -15354   -15518   -15569   -15493   -15256 
  -14878   -14474   -14114   -13830   -13684   -13680   -13786   -13983 
  -14206   -14424   -14701   -15026   -15310   -15502   -15583   -15539 
  -15384   -15137   -14821   -14501   -14227   -13998   -13784   -13610 
  -13554   -13624   -13778   -14019   -14335   -14663   -14986   -15280 
  -15471   -15533   -15508   -15376   -15128   -14856   -14621   -14400 
  -14207   -14079   -13992   -13944   -13977   -14096   -14293   -14559 
  -14837   -15088   -15319   -15472   -15487   -15371   -15125   -14779 
  -14435   -14152   -13941   -13830   -13832   -13932   -14104   -14315 
  -14528   -14715   -14854   -14932   -14929   -14870   -14820   -14786 
  -14743   -14694   -14611   -14445   -14242   -14081   -13992   -14025 
  -14211   -14484   -14764   -15010   -15180   -15242   -15191   -15067 
  -14922   -14781   -14635   -14515   -14434   -14339   -14215   -14116 
  -14073   -14064   -14085   -14180   -14338   -14500   -14647   -14754 
  -14791   -14827   -14891   -14904   -14866   -14847   -14798   -14689 
  -14580   -14474   -14385   -14399   -14513   -14679   -14910   -15152 
  -15272   -15277   -15263   -15242   -15199   -15161   -15136   -15088 
  -14983   -14800   -14581   -14386   -14224   -14091   -14008   -13979 
  -14007   -14133   -14320   -14531   -14806   -15078   -15183   -15133 
  -14986   -14727   -14436   -14218   -14025   -13842   -13737   -13728 
  -13832   -14084   -14416   -14743   -15045   -15292   -15438   -15469 
  -15384   -15225   -15048   -14855   -14639   -14432   -14265   -14175 
  -14211   -14361   -14559   -14770   -14955   -15045   -15057   -15076 
  -15075   -14963   -14759   -14517   -14223   -13936   -13790   -13838 
  -14042   -14332   -14586   -14733   -14833   -14963   -15122   -15261 
  -15346   -15354   -15232   -14935   -14512   -14077   -13734   -13556 
  -13552   -13709   -13979   -14258   -14507   -14758   -14999   -15215 
  -15426   -15535   -15430   -15149   -14752   -14269   -13844   -13590 
  -13451   -13396   -13490   -13725   -14062   -14499   -14970   -15369 
  -15661   -15815   -15786   -15604   -15369   -15168   -15030   -14916 
  -14723   -14393   -13940   -13423   -13003   -12873   -13049   -13425 
  -13949   -14558   -15117   -15547   -15880   -16116   -16183   -16025 
  -15620   -15053   -14517   -14123   -13873   -13819   -13967   -14189 
  -14353   -14424   -14446   -14481   -14570   -14712   -14856   -14943 
  -14964   -14924   -14809   -14642   -14459   -14272   -14103   -14011 
  -14033   -14208   -14566   -15064   -15577   -15955   -16074   -15884 
  -15437   -14850   -14241   -13689   -13240   -12982   -12980   -13234 
  -13701   -14277   -14810   -15201   -15437   -15533   -15546   -15541 
  -15522   -15453   -15319   -15113   -14862   -14638   -14459   -14285 
  -14111   -13981   -13900   -13851   -13864   -13995   -14261   -14607 
  -14936   -15180   -15357   -15499   -15562   -15518   -15398   -15214 
  -14967   -14729   -14566   -14469   -14395   -14293   -14135   -13948 
  -13757   -13591   -13554   -13729   -14083   -14538   -15003   -15348 
  -15504   -15441   -15115   -14631   -14168   -13776   -13479   -13405 
  -13586   -13929   -14349   -14750   -15024   -15179   -15238   -15183 
  -15057   -14904   -14712   -14536   -14428   -14372   -14392   -14513 
  -14681   -14858   -15020   -15103   -15084   -14999   -14882   -14762 
  -14647   -14515   -14386   -14331   -14370   -14485   -14651   -14835 
  -14998   -15070   -14955   -14696   -14473   -14368   -14318   -14272 
  -14214   -14126   -14002   -13824   -13635   -13585   -13734   -14034 
  -14465   -14948   -15318   -15522   -15599   -15531   -15329   -15044 
  -14721   -14477   -14415   -14482   -14565   -14624   -14642   -14600 
  -14538   -14500   -14517   -14600   -14696   -14748   -14740   -14692 
  -14636   -14573   -14477   -14391   -14346   -14322   -14316   -14338 
  -14351   -14339   -14370   -14500   -14683   -14832   -14925   -14968 
  -14956   -14897   -14763   -14548   -14392   -14399   -14516   -14698 
  -14935   -15120   -15164   -15084   -14958   -14872   -14924   -15105 
  -15296   -15407   -15396   -15228   -14941   -14611   -14254   -13905 
  -13625   -13452   -13405   -13501   -13691   -13926   -14196   -14499 
  -14858   -15279   -15673   -15928   -15961   -15719   -15241   -14651 
  -14102   -13703   -13477   -13379   -13386   -13487   -13655   -13903 
  -14264   -14706   -15168   -15593   -15885   -15965   -15836   -15522 
  -15101   -14719   -14439   -14218   -14041   -13926   -13880   -13936 
  -14126   -14434   -14837   -15311   -15754   -16035   -16085   -15904 
  -15510   -14993   -14496   -14116   -13867   -13717   -13618   -13543 
  -13501   -13513   -13597   -13767   -14023   -14362   -14771   -15186 
  -15507   -15658   -15604   -15369   -15047   -14733   -14455   -14215 
  -14030   -13914   -13872   -13930   -14098   -14327   -14554   -14743 
  -14863   -14870   -14769   -14640   -14555   -14534   -14571   -14671 
  -14782   -14863   -14929   -14960   -14912   -14840   -14828   -14871 
  -14939   -15020   -15074   -15014   -14806   -14516   -14233   -13996 
  -13845   -13821   -13907   -14091   -14364   -14671   -14975   -15240 
  -15387   -15385   -15261   -15040   -14775   -14515   -14266   -14073 
  -13965   -13927   -13981   -14137   -14337   -14561   -14779   -14905 
  -14918   -14879   -14823   -14766   -14712   -14650   -14598   -14575 
  -14557   -14530   -14490   -14428   -14369   -14342   -14378   -14527 
  -14766   -14985   -15133   -15188   -15117   -14994   -14898   -14804 
  -14723   -14697   -14690   -14685   -14696   -14677   -14596   -14469 
  -14284   -14062   -13896   -13829   -13873   -14050   -14311   -14593 
  -14870   -15066   -15126   -15095   -14978   -14746   -14494   -14312 
  -14187   -14115   -14119   -14169   -14218   -14233   -14192   -14157 
  -14224   -14439   -14781   -15180   -15526   -15739   -15807   -15716 
  -15493   -15195   -14814   -14368   -13972   -13721   -13652   -13805 
  -14126   -14466   -14736   -14906   -14926   -14814   -14655   -14478 
  -14304   -14199   -14196   -14287   -14494   -14806   -15114   -15326 
  -15419   -15380   -15218   -14999   -14820   -14717   -14662   -14632 
  -14615   -14565   -14481   -14422   -14428   -14481   -14565   -14654 
  -14688   -14642   -14561   -14476   -14393   -14345   -14338   -14335 
  -14331   -14347   -14361   -14357   -14382   -14436   -14469   -14500 
  -14561   -14602   -14601   -14598   -14632   -14694   -14751   -14789 
  -14821   -14835   -14827   -14836   -14852   -14824   -14754   -14656 
  -14530   -14438   -14454   -14547   -14671   -14814   -14935   -14982 
  -14964   -14883   -14719   -14499   -14277   -14107   -14041   -14096 
  -14223   -14350   -14401   -14350   -14258   -14200   -14181   -14212 
  -14322   -14486   -14655   -14817   -14976   -15124   -15249   -15309 
  -15273   -15160   -14989   -14774   -14561   -14388   -14291   -14285 
  -14326   -14380   -14462   -14547   -14593   -14601   -14567   -14488 
  -14420   -14409   -14455   -14542   -14640   -14710   -14746   -14759 
  -14755   -14736   -14728   -14759   -14812   -14858   -14899   -14951 
  -15002   -15017   -14968   -14872   -14742   -14574   -14381   -14210 
  -14095   -14049   -14077   -14168   -14300   -14453   -14613   -14793 
  -14967   -15074   -15103   -15093   -15072   -15056   -15029   -14956 
  -14841   -14720   -14589   -14436   -14322   -14310   -14380   -14496 
  -14638   -14764   -14814   -14742   -14569   -14364   -14181   -14075 
  -14087   -14179   -14295   -14409   -14504   -14604   -14763   -14982 
  -15211   -15414   -15560   -15599   -15496   -15283   -14994   -14631 
  -14237   -13902   -13678   -13583   -13633   -13767   -13902   -14030 
  -14149   -14257   -14409   -14611   -14790   -14910   -14962   -14935 
  -14858   -14770   -14701   -14698   -14779   -14879   -14913   -14866 
  -14735   -14532   -14332   -14210   -14173   -14207   -14297   -14428 
  -14592   -14793   -15007   -15195   -15315   -15321   -15180   -14920 
