Origin Time       2025/03/30 22:55:00
Lat.              41.993
Long.             142.725
Depth. (km)       55
Mag.              4.6
Station Code      HKD097
Station Lat.      42.6181
Station Long.     143.4210
Station Height(m) 33
Record Time       2025/03/30 22:56:28
Sampling Freq(Hz) 100Hz
Duration Time(s)  60
Dir.              E-W
Scale Factor      7845(gal)/8223790
Max. Acc. (gal)   1.400
Last Correction   2025/03/30 22:56:12
Memo.             
[...]
  -17224   -17228   -17231   -17232   -17231   -17227   -17226   -17223 
  -17219   -17216   -17215   -17212   -17215   -17221   -17228   -17238 
  -17244   -17242   -17240   -17240   -17236   -17228   -17219   -17211 
  -17204   -17201   -17204   -17212   -17223   -17236   -17247   -17255 
  -17262   -17269   -17262   -17247   -17238   -17226   -17212   -17204 
  -17196   -17185   -17184   -17190   -17209   -17234   -17247   -17253 
  -17261   -17266   -17269   -17261   -17239   -17221   -17204   -17184 
  -17178   -17180   -17186   -17208   -17234   -17247   -17255   -17262 
  -17257   -17246   -17234   -17220   -17211   -17209   -17205   -17203 
  -17219   -17246   -17258   -17248   -17217   -17186   -17182   -17174 
  -17158   -17170   -17209   -17253   -17285   -17298   -17321   -17351 
  -17352   -17323   -17278   -17226   -17167   -17112   -17074   -17073 
  -17100   -17132   -17166   -17219   -17281   -17320   -17342   -17355 
  -17338   -17302   -17274   -17235   -17186   -17158   -17146   -17145 
  -17173   -17212   -17226   -17232   -17251   -17266   -17266   -17240 
  -17204   -17178   -17174   -17190   -17209   -17228   -17248   -17258 
  -17262   -17267   -17274   -17290   -17284   -17232   -17189   -17188 
  -17192   -17176   -17157   -17161   -17177   -17177   -17184   -17230 
  -17282   -17300   -17273   -17226   -17213   -17238   -17262   -17288 
  -17289   -17265   -17244   -17200   -17161   -17165   -17174   -17178 
  -17203   -17226   -17228   -17238   -17270   -17284   -17271   -17254 
  -17224   -17211   -17234   -17230   -17190   -17181   -17190   -17186 
  -17185   -17199   -17228   -17269   -17282   -17250   -17226   -17250 
  -17267   -17239   -17219   -17228   -17230   -17208   -17197   -17211 
  -17194   -17124   -17080   -17095   -17108   -17153   -17273   -17359 
  -17390   -17448   -17469   -17415   -17366   -17316   -17227   -17145 
  -17100   -17073   -17061   -17068   -17051   -17039   -17124   -17244 
  -17284   -17329   -17431   -17462   -17390   -17324   -17307   -17255 
  -17139   -17074   -17081   -17081   -17112   -17196   -17254   -17270 
  -17278   -17262   -17228   -17217   -17235   -17228   -17203   -17224 
  -17286   -17311   -17285   -17250   -17216   -17173   -17142   -17145 
  -17157   -17181   -17238   -17278   -17298   -17355   -17398   -17354 
  -17244   -17145   -17088   -17050   -17053   -17149   -17251   -17273 
  -17281   -17305   -17282   -17246   -17251   -17266   -17270   -17297 
  -17340   -17356   -17346   -17275   -17123   -17004   -17010   -17062 
  -17109   -17163   -17208   -17255   -17328   -17381   -17359   -17284 
  -17189   -17104   -17080   -17151   -17248   -17271   -17239   -17235 
  -17244   -17228   -17227   -17271   -17331   -17346   -17332   -17334 
  -17298   -17189   -17051   -16934   -16891   -16968   -17086   -17157 
  -17235   -17355   -17436   -17443   -17413   -17386   -17370   -17327 
  -17267   -17213   -17122   -17014   -16972   -17030   -17147   -17262 
  -17346   -17396   -17386   -17319   -17257   -17224   -17196   -17159 
  -17162   -17230   -17286   -17275   -17240   -17189   -17123   -17091 
  -17085   -17120   -17197   -17255   -17308   -17382   -17428   -17408 
  -17329   -17232   -17173   -17140   -17095   -17072   -17070   -17050 
  -17089   -17203   -17265   -17290   -17359   -17400   -17365   -17320 
  -17301   -17266   -17203   -17162   -17150   -17131   -17123   -17147 
  -17169   -17163   -17162   -17208   -17284   -17354   -17394   -17389 
  -17363   -17347   -17297   -17226   -17197   -17165   -17093   -17058 
  -17081   -17135   -17184   -17196   -17208   -17238   -17226   -17196 
  -17226   -17269   -17280   -17307   -17336   -17338   -17334   -17286 
  -17174   -17112   -17150   -17196   -17204   -17193   -17139   -17058 
  -17037   -17086   -17162   -17244   -17339   -17416   -17415   -17377 
  -17370   -17323   -17217   -17178   -17226   -17250   -17219   -17181 
  -17126   -17092   -17126   -17153   -17186   -17265   -17308   -17316 
  -17344   -17371   -17365   -17304   -17226   -17174   -17135   -17104 
  -17126   -17170   -17154   -17092   -17077   -17096   -17124   -17217 
  -17334   -17388   -17433   -17483   -17479   -17439   -17373   -17282 
  -17215   -17188   -17161   -17104   -17045   -17007   -16993   -17022 
  -17088   -17172   -17248   -17278   -17323   -17417   -17448   -17386 
  -17338   -17320   -17278   -17224   -17219   -17228   -17167   -17101 
  -17082   -17054   -17068   -17135   -17157   -17169   -17224   -17269 
  -17325   -17408   -17424   -17373   -17320   -17253   -17142   -17057 
  -17054   -17100   -17176   -17235   -17204   -17154   -17159   -17172 
  -17205   -17294   -17370   -17420   -17446   -17385   -17270   -17201 
  -17188   -17188   -17199   -17209   -17193   -17143   -17085   -17047 
  -17050   -17097   -17176   -17267   -17313   -17308   -17319   -17321 
  -17292   -17298   -17324   -17331   -17355   -17392   -17361   -17251 
  -17143   -17070   -17008   -16992   -17045   -17113   -17185   -17274 
  -17321   -17292   -17246   -17201   -17151   -17162   -17247   -17334 
  -17363   -17324   -17251   -17217   -17238   -17250   -17224   -17192 
  -17169   -17177   -17208   -17197   -17157   -17172   -17217   -17230 
  -17235   -17231   -17208   -17204   -17207   -17221   -17292   -17336 
  -17281   -17200   -17170   -17192   -17236   -17278   -17308   -17300 
  -17250   -17185   -17135   -17134   -17181   -17259   -17334   -17342 
  -17296   -17240   -17167   -17116   -17142   -17203   -17227   -17223 
  -17215   -17188   -17181   -17217   -17215   -17197   -17248   -17275 
  -17235   -17243   -17289   -17258   -17176   -17127   -17101   -17111 
  -17199   -17288   -17293   -17277   -17285   -17294   -17329   -17344 
  -17281   -17223   -17207   -17186   -17194   -17220   -17205   -17200 
  -17199   -17127   -17082   -17116   -17118   -17113   -17200   -17328 
  -17421   -17479   -17505   -17473   -17415   -17375   -17317   -17211 
  -17100   -17047   -17047   -17039   -17012   -17027   -17096   -17157 
  -17208   -17285   -17347   -17361   -17371   -17396   -17402   -17370 
  -17281   -17161   -17072   -17031   -17047   -17113   -17217   -17329 
  -17367   -17331   -17286   -17220   -17143   -17113   -17095   -17084 
  -17134   -17209   -17261   -17308   -17324   -17273   -17217   -17201 
  -17172   -17145   -17185   -17259   -17308   -17334   -17315   -17253 
  -17182   -17120   -17099   -17119   -17162   -17251   -17351   -17404 
  -17429   -17412   -17328   -17271   -17271   -17251   -17213   -17211 
  -17196   -17130   -17082   -17096   -17099   -17043   -16962   -16937 
  -17047   -17232   -17348   -17421   -17502   -17509   -17439   -17392 
  -17375   -17321   -17215   -17097   -17019   -17003   -17030   -17064 
  -17107   -17189   -17259   -17274   -17309   -17388   -17429   -17415 
  -17381   -17366   -17359   -17293   -17184   -17111   -17073   -17059 
  -17097   -17162   -17196   -17205   -17231   -17265   -17267   -17231 
  -17174   -17143   -17178   -17247   -17308   -17343   -17331   -17289 
  -17263   -17248   -17236   -17247   -17236   -17163   -17077   -17032 
  -17043   -17085   -17126   -17153   -17170   -17207   -17243   -17246 
  -17267   -17308   -17325   -17382   -17494   -17543   -17504   -17431 
  -17334   -17227   -17143   -17096   -17043   -16992   -16966   -16937 
  -16947   -17054   -17200   -17321   -17392   -17425   -17473   -17486 
  -17415   -17348   -17340   -17296   -17173   -17041   -16957   -16924 
  -16947   -17027   -17136   -17242   -17293   -17298   -17331   -17367 
  -17324   -17253   -17223   -17174   -17116   -17128   -17155   -17127 
  -17107   -17145   -17215   -17296   -17374   -17417   -17427   -17450 
  -17474   -17459   -17400   -17305   -17196   -17104   -17061   -17066 
  -17088   -17122   -17159   -17151   -17124   -17154   -17193   -17163 
  -17120   -17132   -17153   -17139   -17127   -17157   -17223   -17293 
  -17350   -17413   -17473   -17454   -17366   -17288   -17243   -17217 
  -17200   -17193   -17178   -17145   -17146   -17182   -17178   -17134 
  -17134   -17212   -17316   -17396   -17444   -17442   -17373   -17285 
  -17213   -17126   -17038   -16985   -16946   -16941   -17008   -17122 
  -17265   -17405   -17473   -17467   -17435   -17402   -17365   -17300 
  -17228   -17197   -17194   -17169   -17127   -17096   -17059   -17023 
  -17027   -17070   -17134   -17236   -17335   -17340   -17297   -17289 
  -17248   -17162   -17138   -17190   -17248   -17298   -17365   -17402 
  -17362   -17258   -17130   -17057   -17081   -17150   -17219   -17294 
  -17370   -17394   -17351   -17309   -17297   -17270   -17248   -17289 
  -17382   -17442   -17382   -17261   -17177   -17107   -17043   -17057 
  -17131   -17196   -17248   -17300   -17315   -17285   -17242   -17167 
  -17081   -17068   -17074   -17034   -17019   -17041   -17039   -17053 
  -17136   -17248   -17344   -17442   -17540   -17574   -17521   -17433 
  -17355   -17278   -17207   -17165   -17136   -17088   -17055   -17077 
  -17103   -17122   -17189   -17302   -17382   -17412   -17435   -17446 
  -17394   -17270   -17134   -17031   -16950   -16927   -17023   -17180 
  -17277   -17293   -17277   -17251   -17197   -17145   -17162   -17250 
  -17324   -17334   -17292   -17248   -17215   -17151   -17088   -17097 
  -17154   -17169   -17123   -17096   -17122   -17151   -17199   -17301 
  -17394   -17425   -17424   -17379   -17308   -17270   -17251   -17220 
  -17236   -17277   -17251   -17219   -17269   -17317   -17288   -17235 
  -17201   -17162   -17134   -17134   -17132   -17127   -17135   -17138 
  -17158   -17257   -17385   -17452   -17466   -17444   -17339   -17186 
  -17099   -17078   -17076   -17093   -17104   -17100   -17143   -17235 
  -17297   -17339   -17416   -17470   -17428   -17340   -17258   -17146 
  -17038   -16996   -17000   -17047   -17167   -17292   -17346   -17338 
  -17284   -17197   -17107   -17068   -17118   -17215   -17298   -17369 
  -17423   -17447   -17427   -17362   -17259   -17131   -17043   -17031 
  -17027   -17030   -17080   -17127   -17153   -17208   -17282   -17319 
  -17316   -17329   -17369   -17405   -17433   -17427   -17340   -17194 
  -17049   -16953   -16929   -16957   -17024   -17127   -17255   -17381 
  -17462   -17506   -17528   -17489   -17390   -17288   -17205   -17142 
  -17095   -17065   -17054   -17045   -17049   -17078   -17101   -17122 
  -17167   -17228   -17288   -17329   -17328   -17315   -17342   -17378 
  -17377   -17346   -17280   -17169   -17066   -17004   -16961   -16949 
  -16997   -17084   -17142   -17165   -17189   -17239   -17319   -17397 
  -17450   -17500   -17540   -17521   -17447   -17347   -17217   -17101 
  -17034   -16996   -17003   -17045   -17082   -17142   -17240   -17308 
  -17315   -17271   -17181   -17093   -17069   -17122   -17224   -17325 
  -17404   -17467   -17486   -17410   -17263   -17130   -17045   -17003 
  -17011   -17066   -17128   -17172   -17211   -17247   -17302   -17401 
  -17508   -17597   -17702   -17806   -17825   -17751   -17656   -17541 
  -17350   -17127   -16957   -16831   -16737   -16702   -16754   -16902 
  -17082   -17185   -17228   -17311   -17386   -17355   -17273   -17217 
  -17173   -17132   -17136   -17176   -17201   -17165   -17045   -16902 
  -16826   -16825   -16884   -17041   -17274   -17523   -17728   -17820 
  -17795   -17702   -17543   -17351   -17200   -17111   -17076   -17073 
  -17058   -17016   -17010   -17093   -17220   -17315   -17392   -17470 
  -17509   -17501   -17458   -17356   -17205   -17051   -16892   -16723 
  -16621   -16630   -16706   -16839   -17059   -17312   -17518   -17672 
  -17775   -17810   -17818   -17818   -17725   -17529   -17301   -17054 
  -16822   -16679   -16614   -16607   -16695   -16869   -17069   -17236 
  -17359   -17470   -17605   -17740   -17832   -17847   -17756   -17540 
  -17230   -16883   -16569   -16368   -16351   -16506   -16740   -17001 
  -17275   -17477   -17558   -17583   -17570   -17508   -17442   -17393 
  -17343   -17292   -17246   -17227   -17236   -17244   -17230   -17201 
  -17177   -17150   -17132   -17177   -17271   -17356   -17410   -17404 
  -17319   -17181   -17043   -16949   -16914   -16930   -16997   -17127 
  -17288   -17409   -17450   -17436   -17367   -17223   -17077   -16983 
  -16920   -16961   -17167   -17425   -17622   -17771   -17828   -17712 
  -17501   -17305   -17143   -17050   -17054   -17064   -17061   -17107 
  -17139   -17115   -17135   -17232   -17315   -17352   -17351   -17280 
  -17147   -17003   -16899   -16873   -16895   -16903   -16891   -16861 
  -16826   -16807   -16816   -16897   -17149   -17532   -17836   -17941 
  -17887   -17710   -17470   -17307   -17288   -17335   -17385   -17429 
  -17448   -17424   -17355   -17244   -17135   -17073   -17046   -17030 
  -17007   -16949   -16858   -16787   -16821   -17031   -17355   -17585 
  -17568   -17348   -17066   -16860   -16806   -16875   -16987   -17081 
  -17112   -17073   -17034   -17092   -17248   -17452   -17674   -17818 
  -17803   -17693   -17564   -17410   -17269   -17231   -17290   -17340 
  -17313   -17185   -16906   -16573   -16395   -16410   -16534   -16711 
  -16880   -17026   -17200   -17425   -17686   -17952   -18122   -18100 
  -17911   -17640   -17366   -17221   -17278   -17379   -17356   -17207 
  -16937   -16592   -16374   -16433   -16737   -17147   -17516   -17726 
  -17787   -17795   -17797   -17782   -17753   -17671   -17518   -17375 
  -17297   -17263   -17194   -16976   -16605   -16221   -15977   -15955 
  -16190   -16653   -17199   -17679   -18085   -18432   -18658   -18694 
  -18499   -18118   -17713   -17393   -17118   -16833   -16584   -16422 
  -16370   -16471   -16740   -17053   -17244   -17284   -17248   -17200 
  -17165   -17154   -17177   -17267   -17448   -17679   -17914   -18107 
  -18184   -18075   -17798   -17454   -17134   -16881   -16710   -16606 
  -16529   -16456   -16393   -16349   -16340   -16429   -16690   -17103 
  -17552   -17910   -18076   -18023   -17814   -17528   -17238   -17000 
  -16818   -16686   -16627   -16630   -16642   -16668   -16776   -16987 
  -17274   -17636   -17984   -18099   -17872   -17394   -16875   -16565 
  -16625   -16992   -17477   -17901   -18127   -18096   -17892   -17658 
  -17442   -17275   -17205   -17208   -17211   -17130   -16937   -16748 
  -16694   -16789   -17027   -17379   -17716   -17875   -17778   -17450 
  -16995   -16578   -16318   -16249   -16391   -16672   -16942   -17174 
  -17382   -17494   -17520   -17554   -17622   -17691   -17702   -17590 
  -17374   -17136   -16895   -16664   -16530   -16563   -16744   -16996 
  -17240   -17498   -17787   -18013   -18087   -18007   -17833   -17670 
  -17595   -17616   -17687   -17736   -17695   -17560   -17381   -17200 
  -17053   -16934   -16768   -16509   -16217   -15951   -15793   -15857 
  -16154   -16603   -17120   -17555   -17790   -17871   -17840   -17664 
  -17413   -17203   -17016   -16815   -16646   -16549   -16542   -16672 
  -16927   -17246   -17574   -17847   -17995   -18011   -17944   -17859 
  -17798   -17755   -17721   -17678   -17587   -17431   -17200   -16910 
  -16618   -16402   -16347   -16518   -16899   -17379   -17833   -18165 
  -18319   -18272   -18052   -17753   -17432   -17096   -16791   -16561 
  -16413   -16356   -16390   -16461   -16552   -16687   -16854   -17035 
  -17302   -17648   -17905   -17967   -17887   -17718   -17501   -17270 
  -17023   -16781   -16598   -16468   -16390   -16414   -16555   -16785 
  -17118   -17523   -17902   -18146   -18185   -18033   -17780   -17541 
  -17409   -17415   -17508   -17621   -17724   -17791   -17786   -17685 
  -17517   -17374   -17305   -17262   -17228   -17199   -17128   -17019 
  -16938   -16930   -17003   -17097   -17123   -17018   -16796   -16506 
  -16193   -15975   -15984   -16198   -16544   -16973   -17366   -17612 
  -17747   -17847   -17919   -17940   -17883   -17734   -17508   -17248 
  -17010   -16830   -16752   -16795   -16929   -17101   -17288   -17454 
  -17564   -17644   -17720   -17795   -17871   -17919   -17909   -17820 
  -17641   -17408   -17173   -16954   -16745   -16515   -16281   -16108 
  -16039   -16090   -16249   -16503   -16850   -17238   -17606   -17934 
  -18172   -18253   -18166   -17967   -17712   -17406   -17084   -16827 
  -16694   -16707   -16892   -17207   -17525   -17734   -17786   -17671 
  -17408   -17086   -16845   -16740   -16745   -16845   -17012   -17173 
  -17297   -17379   -17417   -17462   -17589   -17798   -17995   -18067 
  -17945   -17620   -17162   -16711   -16389   -16266   -16363   -16636 
  -16981   -17286   -17489   -17605   -17671   -17716   -17753   -17756 
  -17687   -17560   -17389   -17181   -16966   -16792   -16684   -16621 
  -16565   -16529   -16563   -16722   -17024   -17397   -17720   -17936 
  -18011   -17890   -17606   -17292   -17030   -16845   -16757   -16767 
  -16852   -16989   -17139   -17250   -17324   -17365   -17378   -17436 
  -17539   -17593   -17599   -17582   -17521   -17435   -17342   -17254 
  -17192   -17111   -16997   -16924   -16926   -16964   -17028   -17124 
  -17163   -17074   -16926   -16802   -16746   -16791   -16911   -17080 
  -17290   -17518   -17721   -17829   -17772   -17560   -17270   -16976 
  -16745   -16638   -16664   -16788   -16973   -17180   -17346   -17423 
  -17433   -17389   -17294   -17227   -17212   -17188   -17158   -17145 
  -17113   -17065   -17020   -16980   -16974   -17065   -17262   -17523 
  -17799   -18054   -18231   -18277   -18211   -18053   -17841   -17644 
  -17479   -17319   -17123   -16889   -16667   -16476   -16335   -16289 
  -16310   -16325   -16357   -16456   -16615   -16854   -17192   -17554 
  -17857   -18081   -18185   -18122   -17928   -17674   -17388   -17095 
  -16872   -16757   -16734   -16792   -16927   -17115   -17285   -17390 
  -17463   -17528   -17558   -17535   -17431   -17246   -17057   -16960 
  -16951   -16983   -17041   -17111   -17170   -17261   -17420   -17585 
  -17705   -17784   -17788   -17689   -17516   -17334   -17185   -17077 
  -16988   -16876   -16735   -16610   -16563   -16634   -16796   -16996 
  -17219   -17413   -17505   -17508   -17486   -17486   -17528   -17586 
  -17598   -17509   -17297   -17004   -16708   -16479   -16391   -16499 
  -16780   -17158   -17545   -17848   -17998   -18000   -17913   -17770 
  -17587   -17394   -17199   -16987   -16783   -16629   -16548   -16575 
  -16721   -16946   -17192   -17416   -17604   -17749   -17851   -17902 
  -17879   -17760   -17560   -17351   -17203   -17127   -17093   -17065 
  -17005   -16908   -16816   -16799   -16877   -17007   -17139   -17259 
  -17359   -17417   -17409   -17315   -17146   -16956   -16834   -16827 
  -16915   -17051   -17172   -17224   -17271   -17385   -17533   -17645 
  -17675   -17647   -17602   -17518   -17400   -17284   -17167   -17068 
  -17032   -17066   -17139   -17219   -17263   -17261   -17243   -17232 
  -17215   -17182   -17151   -17115   -17039   -16945   -16892   -16899 
  -16953   -17069   -17231   -17390   -17496   -17513   -17443   -17329 
  -17209   -17082   -16961   -16893   -16885   -16899   -16934   -16983 
  -17018   -17068   -17155   -17246   -17328   -17405   -17452   -17477 
  -17510   -17531   -17517   -17494   -17463   -17392   -17274   -17138 
  -17010   -16922   -16900   -16958   -17093   -17290   -17475   -17574 
  -17586   -17533   -17429   -17311   -17197   -17122   -17118   -17147 
