Origin Time       2025/03/30 22:55:00
Lat.              41.993
Long.             142.725
Depth. (km)       55
Mag.              4.6
Station Code      HKD098
Station Lat.      42.4985
Station Long.     143.2790
Station Height(m) 81
Record Time       2025/03/30 22:56:25
Sampling Freq(Hz) 100Hz
Duration Time(s)  60
Dir.              N-S
Scale Factor      7845(gal)/8223790
Max. Acc. (gal)   1.565
Last Correction   2025/03/30 22:56:25
Memo.             
[...]
   -9794    -9792    -9792    -9792    -9792    -9794    -9795    -9795 
   -9794    -9792    -9792    -9794    -9795    -9792    -9792    -9795 
   -9792    -9791    -9794    -9792    -9792    -9794    -9794    -9792 
   -9791    -9791    -9794    -9795    -9792    -9790    -9791    -9795 
   -9794    -9791    -9792    -9795    -9795    -9795    -9792    -9791 
   -9794    -9795    -9792    -9791    -9792    -9794    -9792    -9794 
   -9795    -9794    -9791    -9794    -9795    -9795    -9794    -9792 
   -9795    -9794    -9790    -9792    -9795    -9792    -9791    -9791 
   -9792    -9791    -9790    -9791    -9794    -9794    -9792    -9792 
   -9794    -9795    -9794    -9792    -9794    -9794    -9792    -9794 
   -9796    -9794    -9790    -9792    -9795    -9794    -9792    -9792 
   -9794    -9795    -9792    -9791    -9791    -9794    -9794    -9792 
   -9794    -9792    -9790    -9791    -9795    -9792    -9790    -9790 
   -9788    -9786    -9784    -9783    -9783    -9783    -9783    -9786 
   -9787    -9787    -9786    -9792    -9803    -9811    -9811    -9803 
   -9786    -9756    -9733    -9737    -9764    -9787    -9794    -9811 
   -9859    -9906    -9900    -9836    -9771    -9759    -9744    -9688 
   -9682    -9780    -9865    -9856    -9840    -9864    -9857    -9803 
   -9787    -9803    -9778    -9726    -9737    -9822    -9871    -9832 
   -9779    -9699    -9607    -9699    -9927    -9995    -9861    -9734 
   -9706    -9732    -9761    -9802    -9840    -9842    -9830    -9805 
   -9721    -9648    -9706    -9838    -9868    -9772    -9734    -9834 
   -9871    -9819    -9845    -9801    -9661    -9722    -9894    -9888 
   -9757    -9710    -9819    -9929    -9876    -9715    -9620    -9693 
   -9799    -9838    -9946   -10007    -9776    -9528    -9625    -9834 
   -9886    -9895    -9902    -9850    -9803    -9790    -9755    -9664 
   -9613    -9660    -9733    -9899   -10146   -10181    -9954    -9693 
   -9536    -9551    -9691    -9819    -9845    -9751    -9728    -9853 
   -9819    -9621    -9641    -9840    -9859    -9709    -9672    -9787 
   -9880    -9825    -9602    -9512    -9783    -9990    -9883    -9856 
  -10007   -10098   -10030    -9795    -9529    -9396    -9486    -9853 
  -10139    -9969    -9690    -9738    -9963   -10062    -9937    -9732 
   -9706    -9848    -9937    -9936    -9933    -9900    -9828    -9742 
   -9578    -9466    -9668    -9965    -9977    -9846    -9846    -9834 
   -9628    -9414    -9456    -9643    -9752    -9833    -9910    -9887 
   -9763    -9630    -9705    -9904    -9888    -9775    -9807    -9855 
   -9823    -9823    -9896    -9900    -9741    -9551    -9541    -9790 
  -10034    -9949    -9688    -9506    -9273    -9159    -9582   -10201 
  -10374   -10166    -9945    -9756    -9621    -9676    -9772    -9707 
   -9721    -9942   -10099   -10110   -10129   -10102    -9900    -9721 
   -9751    -9806    -9842    -9921    -9988   -10062    -9919    -9498 
   -9283    -9493    -9904   -10207   -10265   -10216    -9988    -9593 
   -9464    -9590    -9674    -9774    -9811    -9765    -9761    -9587 
   -9355    -9366    -9375    -9391    -9702   -10039   -10004    -9587 
   -9169    -9121    -9358    -9660    -9979   -10207   -10220   -10061 
   -9963    -9954    -9871    -9850    -9890    -9697    -9563    -9919 
  -10381   -10454   -10157    -9641    -9298    -9513    -9964   -10204 
  -10220   -10100    -9933    -9726    -9553    -9663    -9971   -10049 
   -9815    -9514    -9346    -9479    -9842   -10104   -10181   -10177 
   -9983    -9591    -9393    -9517    -9612    -9664    -9871    -9961 
   -9829    -9732    -9562    -9337    -9425    -9718    -9933   -10021 
   -9868    -9429    -9085    -9250    -9717   -10034   -10201   -10285 
  -10137    -9865    -9714    -9752    -9952   -10054    -9899    -9714 
   -9612    -9521    -9510    -9671    -9910   -10126   -10311   -10309 
  -10021    -9741    -9713    -9787    -9871    -9996    -9976    -9722 
   -9576    -9710    -9809    -9801    -9860    -9756    -9458    -9412 
   -9645    -9859    -9979    -9946    -9749    -9572    -9555    -9720 
   -9894    -9867    -9838    -9933    -9821    -9556    -9597    -9860 
   -9903    -9728    -9667    -9738    -9806    -9845    -9737    -9598 
   -9634    -9625    -9508    -9606   -10018   -10378   -10326   -10022 
   -9798    -9737    -9841    -9919    -9823    -9744    -9725    -9752 
   -9894    -9899    -9706    -9697    -9929   -10021    -9859    -9721 
   -9660    -9574    -9682   -10019   -10162    -9931    -9533    -9197 
   -9161    -9468    -9805    -9965    -9913    -9640    -9499    -9721 
   -9969   -10099   -10180    -9988    -9668    -9707    -9841    -9694 
   -9614    -9791    -9981    -9990    -9814    -9697    -9765    -9891 
   -9940    -9837    -9730    -9815    -9830    -9594    -9489    -9736 
  -10000   -10053   -10038   -10008    -9927    -9814    -9643    -9578 
   -9749    -9855    -9784    -9810    -9896    -9782    -9535    -9448 
   -9671   -10033   -10200   -10143   -10004    -9760    -9524    -9435 
   -9436    -9625    -9942   -10000    -9765    -9525    -9463    -9580 
   -9679    -9710    -9844    -9980    -9938    -9883    -9988   -10048 
   -9886    -9757    -9868   -10046   -10022    -9711    -9432    -9428 
   -9467    -9526    -9859   -10251   -10289   -10061    -9848    -9622 
   -9491    -9763   -10120    -9967    -9501    -9328    -9545    -9898 
  -10185   -10212    -9936    -9675    -9688    -9787    -9768    -9752 
   -9795    -9749    -9674    -9693    -9753    -9890   -10035    -9864 
   -9468    -9373    -9664    -9973    -9991    -9711    -9522    -9755 
  -10045    -9936    -9690    -9668    -9715    -9691    -9705    -9844 
  -10010    -9941    -9724    -9703    -9825    -9888    -9941   -10077 
  -10216   -10102    -9828    -9809    -9900    -9701    -9352    -9271 
   -9647   -10073   -10000    -9674    -9617    -9788    -9967   -10049 
  -10006    -9872    -9648    -9417    -9410    -9661    -9902    -9949 
   -9855    -9686    -9545    -9589    -9715    -9802    -9969   -10093 
   -9883    -9464    -9261    -9485    -9949   -10250   -10081    -9670 
   -9641    -9934   -10019   -10056   -10169    -9949    -9540    -9497 
   -9734    -9818    -9767    -9834    -9891    -9732    -9699   -10066 
  -10285    -9872    -9377    -9532   -10118   -10363   -10085    -9728 
   -9528    -9414    -9358    -9378    -9460    -9661   -10046   -10338 
  -10223    -9967    -9841    -9725    -9697    -9759    -9606    -9364 
   -9404    -9661    -9795    -9656    -9535    -9691    -9919   -10021 
  -10057    -9975    -9742    -9674    -9903   -10122   -10183   -10142 
   -9945    -9549    -9221    -9381    -9892   -10249   -10247    -9917 
   -9572    -9474    -9481    -9659    -9971   -10027    -9841    -9649 
   -9572    -9628    -9722    -9965   -10276   -10216    -9833    -9517 
   -9401    -9471    -9579    -9663    -9909   -10120    -9917    -9651 
   -9805   -10019    -9879    -9707    -9741    -9682    -9532    -9571 
   -9680    -9756   -10010   -10319   -10226    -9790    -9483    -9467 
   -9636    -9868    -9957    -9809    -9628    -9614    -9745    -9886 
   -9985   -10145   -10330   -10301    -9960    -9559    -9404    -9450 
   -9589    -9865   -10022    -9811    -9580    -9609    -9652    -9641 
   -9740    -9811    -9745    -9738    -9796    -9795    -9823    -9894 
   -9865    -9742    -9678    -9721    -9760    -9802    -9919    -9979 
   -9867    -9694    -9599    -9558    -9468    -9448    -9618    -9807 
  -10010   -10235   -10111    -9805    -9765    -9734    -9661    -9895 
  -10137    -9991    -9709    -9647    -9813   -10030   -10095    -9949 
   -9786    -9787    -9860    -9860    -9868    -9886    -9744    -9585 
   -9710    -9931    -9890    -9742    -9729    -9668    -9518    -9609 
   -9909    -9983    -9842    -9791    -9730    -9578    -9618    -9846 
   -9887    -9755    -9748    -9842    -9910    -9933    -9807    -9579 
   -9552    -9757    -9802    -9590    -9471    -9575    -9765    -9952 
  -10003    -9845    -9683    -9630    -9562    -9551    -9749    -9994 
  -10076   -10034    -9922    -9664    -9441    -9544    -9780    -9900 
   -9999   -10046    -9956    -9948   -10118   -10211   -10030    -9713 
   -9599    -9763    -9873    -9837    -9859    -9906    -9864    -9765 
   -9603    -9450    -9459    -9620    -9798    -9859    -9786    -9732 
   -9737    -9691    -9649    -9728    -9950   -10208   -10188    -9788 
   -9432    -9456    -9653    -9764    -9859    -9895    -9757    -9640 
   -9698    -9845    -9937    -9944    -9983   -10008    -9953    -9969 
   -9999    -9830    -9634    -9725    -9914    -9867    -9711    -9630 
   -9653    -9760    -9798    -9776    -9779    -9796    -9859    -9902 
   -9930    -9940    -9745    -9541    -9672    -9868    -9795    -9660 
   -9684    -9730    -9733    -9865   -10042    -9954    -9657    -9490 
   -9548    -9644    -9644    -9614    -9590    -9567    -9683    -9999 
  -10304   -10353   -10127    -9832    -9672    -9630    -9620    -9691 
   -9756    -9636    -9498    -9599    -9883   -10106   -10112   -10035 
  -10093   -10188   -10131    -9964    -9846    -9850    -9806    -9647 
   -9580    -9629    -9653    -9741    -9926    -9958    -9811    -9765 
   -9790    -9640    -9379    -9234    -9265    -9386    -9486    -9567 
   -9651    -9643    -9582    -9711   -10056   -10262   -10122    -9940 
   -9894    -9722    -9517    -9664    -9938    -9921    -9805    -9849 
   -9923    -9934    -9929    -9883    -9782    -9701    -9701    -9780 
   -9871    -9875    -9811    -9850   -10004   -10058    -9967    -9863 
   -9791    -9809    -9900    -9936   -10011   -10162   -10153    -9984 
   -9906    -9917    -9799    -9620    -9675    -9859    -9807    -9610 
   -9567    -9560    -9421    -9402    -9694   -10002    -9995    -9787 
   -9672    -9649    -9551    -9504    -9670    -9875    -9926    -9865 
   -9757    -9621    -9590    -9684    -9715    -9698    -9724    -9664 
   -9536    -9556    -9721    -9844    -9883    -9965   -10174   -10357 
  -10295   -10084    -9931    -9841    -9822    -9914    -9934    -9807 
   -9724    -9729    -9728    -9721    -9738    -9757    -9734    -9580 
   -9371    -9445    -9786    -9961    -9930    -9904    -9815    -9626 
   -9572    -9720    -9807    -9803    -9931   -10030    -9902    -9815 
   -9848    -9840    -9821    -9722    -9482    -9319    -9383    -9649 
   -9960   -10033    -9848    -9699    -9661    -9698    -9992   -10473 
  -10713   -10531   -10123    -9722    -9518    -9560    -9656    -9763 
   -9906    -9864    -9698    -9694    -9714    -9613    -9536    -9594 
   -9810   -10033   -10044    -9819    -9548    -9478    -9528    -9487 
   -9468    -9594    -9786    -9964   -10168   -10399   -10466   -10258 
   -9967    -9823    -9849    -9929   -10054   -10254   -10354   -10233 
  -10048    -9967    -9969    -9936    -9822    -9706    -9639    -9606 
   -9647    -9761    -9863    -9930    -9988   -10022   -10018   -10006 
  -10026   -10042   -10052   -10135   -10233   -10142    -9833    -9528 
   -9358    -9270    -9313    -9471    -9508    -9364    -9255    -9383 
   -9707    -9961    -9926    -9587    -9207    -9094    -9155    -9174 
   -9271    -9544    -9705    -9521    -9225    -9161    -9317    -9460 
   -9508    -9572    -9682    -9734    -9755    -9844    -9975   -10089 
  -10130   -10004    -9794    -9711    -9813   -10002   -10169   -10226 
  -10126    -9846    -9483    -9329    -9522    -9802    -9963   -10141 
  -10311   -10215    -9895    -9602    -9451    -9485    -9648    -9732 
   -9671    -9567    -9531    -9678    -9904    -9921    -9693    -9378 
   -9134    -9142    -9481    -9976   -10385   -10480   -10135    -9616 
   -9271    -9045    -8816    -8762    -8966    -9186    -9327    -9593 
  -10034   -10377   -10426   -10304   -10169   -10045    -9927    -9896 
  -10035   -10219   -10262   -10170    -9983    -9741    -9572    -9532 
   -9624    -9805    -9936   -10091   -10430   -10720   -10714   -10600 
  -10573   -10492   -10192    -9749    -9337    -9080    -9053    -9209 
   -9424    -9695    -9985   -10119   -10099   -10149   -10354   -10558 
  -10617   -10500   -10216    -9860    -9564    -9346    -9094    -8733 
   -8413    -8413    -8773    -9382   -10096   -10579   -10578   -10274 
  -10022    -9911    -9848    -9875    -9930    -9682    -9104    -8554 
   -8293    -8445    -9013    -9788   -10489   -10956   -11136   -10881 
  -10220    -9672    -9555    -9610    -9652    -9752    -9933   -10193 
  -10492   -10659   -10501   -10141    -9926    -9861    -9767    -9733 
   -9786    -9687    -9329    -8953    -8865    -9088    -9494    -9965 
  -10270   -10284   -10172   -10046    -9915    -9882    -9941    -9948 
  -10018   -10347   -10760   -11006   -11044   -10947   -10883   -10924 
  -10926   -10744   -10378    -9948    -9574    -9320    -9205    -9209 
   -9250    -9161    -8916    -8837    -9174    -9629    -9715    -9443 
   -9063    -8661    -8363    -8353    -8652    -9028    -9198    -9151 
   -9047    -9016    -9123    -9298    -9455    -9524    -9448    -9333 
   -9350    -9456    -9458    -9278    -9093    -9175    -9643   -10303 
  -10752   -10809   -10658   -10543   -10617   -10805   -10912   -10949 
  -10980   -10898   -10681   -10488   -10404   -10351   -10320   -10427 
  -10647   -10809   -10777   -10534   -10170    -9791    -9458    -9202 
   -9062    -9042    -9115    -9317    -9680    -9981    -9990    -9755 
   -9394    -9058    -8872    -8695    -8402    -8152    -8175    -8571 
   -9213    -9786   -10110   -10207   -10115    -9917    -9856   -10135 
  -10550   -10647   -10300    -9776    -9335    -9193    -9486    -9967 
  -10297   -10405   -10264    -9927    -9656    -9653    -9861   -10048 
  -10108   -10210   -10436   -10615   -10617   -10473   -10266   -10168 
  -10241   -10377   -10561   -10735   -10736   -10517   -10100    -9630 
   -9432    -9571    -9795    -9876    -9724    -9436    -9279    -9367 
   -9576    -9803   -10025   -10150   -10002    -9617    -9405    -9612 
  -10058   -10415   -10370    -9913    -9393    -9088    -9015    -9066 
   -9121    -9032    -8730    -8496    -8604    -8868    -9096    -9346 
   -9514    -9485    -9428    -9485    -9618    -9784    -9958   -10188 
  -10431   -10411   -10062    -9765    -9684    -9616    -9512    -9475 
   -9529    -9651    -9774    -9809    -9693    -9455    -9279    -9331 
   -9686   -10138   -10228    -9968    -9755    -9629    -9436    -9270 
   -9267    -9302    -9186    -9047    -9086    -9228    -9378    -9522 
   -9587    -9541    -9489    -9560    -9837   -10250   -10605   -10779 
  -10829   -10921   -11067   -11099   -11011   -10939   -10854   -10606 
  -10192    -9734    -9305    -8977    -8888    -9063    -9339    -9552 
   -9756   -10046   -10272   -10314   -10328   -10424   -10492   -10411 
  -10195    -9936    -9729    -9680    -9833   -10071   -10272   -10449 
  -10660   -10829   -10714   -10370   -10203   -10246   -10114    -9661 
   -9148    -8869    -8816    -8808    -8779    -8689    -8533    -8402 
   -8437    -8722    -9085    -9216    -9120    -9086    -9290    -9645 
   -9976   -10146   -10053    -9794    -9705    -9904   -10122   -10150 
  -10029    -9872    -9795    -9833    -9946   -10084   -10183   -10278 
  -10454   -10667   -10794   -10744   -10579   -10416   -10228    -9969 
   -9702    -9593    -9751    -9892    -9676    -9242    -8901    -8797 
   -8978    -9354    -9672    -9795    -9850    -9971   -10088   -10102 
  -10000    -9740    -9270    -8753    -8511    -8721    -9223    -9671 
   -9933   -10207   -10619   -10967   -10957   -10633   -10300   -10066 
   -9863    -9740    -9836   -10010    -9904    -9545    -9323    -9327 
   -9344    -9331    -9377    -9474    -9643    -9918   -10145   -10222 
  -10305   -10480   -10617   -10604   -10466   -10291   -10147   -10069 
   -9999    -9910    -9926   -10068   -10191   -10177   -10029    -9883 
   -9798    -9659    -9475    -9362    -9352    -9448    -9564    -9594 
   -9590    -9601    -9586    -9571    -9610    -9653    -9668    -9752 
   -9971   -10224   -10355   -10342   -10245   -10092    -9934    -9818 
   -9688    -9504    -9298    -9128    -9090    -9182    -9231    -9201 
   -9242    -9393    -9544    -9597    -9533    -9412    -9336    -9273 
   -9036    -8665    -8463    -8594    -8976    -9489    -9957   -10206 
  -10266   -10260   -10254   -10282   -10284   -10192   -10098   -10091 
  -10127   -10184   -10277   -10336   -10332   -10370   -10493   -10616 
  -10700   -10763   -10804   -10767   -10571   -10289   -10158   -10162 
   -9968    -9504    -9061    -8834    -8775    -8819    -8976    -9197 
   -9323    -9363    -9498    -9625    -9479    -9165    -9003    -9059 
   -9192    -9301    -9413    -9618    -9950   -10276   -10427   -10420 
  -10287    -9995    -9693    -9563    -9590    -9711    -9879   -10017 
  -10083   -10060    -9945    -9825    -9841    -9980   -10098   -10107 
   -9995    -9821    -9682    -9547    -9421    -9470    -9697    -9914 
  -10083   -10285   -10457   -10471   -10446   -10532   -10667   -10721 
  -10613   -10363   -10126    -9949    -9745    -9543    -9421    -9382 
   -9463    -9694    -9969   -10139   -10192   -10211   -10161    -9942 
   -9614    -9366    -9286    -9263    -9229    -9216    -9113    -8841 
   -8650    -8803    -9139    -9352    -9428    -9499    -9533    -9467 
   -9404    -9413    -9417    -9445    -9594    -9775    -9828    -9726 
   -9564    -9478    -9594    -9906   -10249   -10548   -10808   -10901 
  -10724   -10342    -9895    -9470    -9112    -8957    -9022    -9103 
   -9139    -9244    -9437    -9688    -9958   -10112   -10065    -9911 
   -9805    -9794    -9826    -9848    -9832    -9778    -9717    -9697 
   -9740    -9834    -9984   -10183   -10411   -10690   -10982   -11179 
  -11250   -11168   -10905   -10509   -10156   -10041   -10087   -10041 
   -9895    -9795    -9730    -9663    -9703    -9871   -10007    -9990 
   -9776    -9451    -9254    -9269    -9327    -9328    -9302    -9279 
   -9319    -9502    -9783    -9983    -9998    -9864    -9643    -9416 
   -9297    -9286    -9255    -9213    -9312    -9517    -9647    -9647 
   -9622    -9652    -9652    -9613    -9644    -9702    -9695    -9702 
   -9829   -10039   -10166   -10146   -10087   -10049    -9973    -9796 
   -9567    -9447    -9525    -9687    -9764    -9702    -9625    -9580 
   -9444    -9266    -9265    -9468    -9693    -9744    -9656    -9571 
   -9486    -9410    -9409    -9521    -9814   -10201   -10466   -10534 
  -10482   -10432   -10459   -10490   -10428   -10289   -10179   -10112 
   -9961    -9783    -9736    -9690    -9505    -9278    -9147    -9153 
   -9289    -9548    -9818    -9954   -10039   -10243   -10531   -10758 
  -10840   -10782   -10619   -10376   -10104    -9872    -9737    -9666 
   -9508    -9283    -9202    -9285    -9358    -9383    -9433    -9477 
   -9448    -9329    -9148    -9028    -9063    -9158    -9192    -9181 
   -9265    -9566    -9941   -10138   -10176   -10192   -10228   -10343 
  -10554   -10687   -10579   -10300   -10031    -9853    -9698    -9547 
   -9481    -9424    -9282    -9197    -9304    -9537    -9752    -9895 
  -10076   -10336   -10497   -10426   -10201    -9957    -9798    -9768 
   -9799    -9845    -9873    -9863    -9861    -9871    -9894   -10049 
