Origin Time       2025/03/30 22:55:00
Lat.              41.993
Long.             142.725
Depth. (km)       55
Mag.              4.6
Station Code      HKD108
Station Lat.      42.2528
Station Long.     142.5643
Station Height(m) 42
Record Time       2025/03/30 22:56:14
Sampling Freq(Hz) 100Hz
Duration Time(s)  69
Dir.              E-W
Scale Factor      3920(gal)/6182761
Max. Acc. (gal)   6.411
Last Correction   2025/03/30 22:56:14
Memo.             
[...]
    6288     6290     6290     6290     6289     6291     6291     6289 
    6290     6291     6290     6288     6288     6290     6291     6291 
    6290     6289     6288     6288     6289     6289     6290     6293 
    6293     6290     6289     6289     6289     6289     6290     6290 
    6287     6286     6289     6289     6288     6287     6288     6290 
    6291     6291     6291     6289     6289     6291     6290     6289 
    6290     6290     6290     6289     6289     6292     6292     6289 
    6291     6292     6291     6289     6288     6288     6287     6286 
    6287     6288     6288     6290     6292     6289     6289     6290 
    6291     6291     6289     6288     6289     6289     6287     6287 
    6289     6289     6288     6290     6291     6290     6290     6290 
    6290     6287     6287     6289     6290     6289     6287     6287 
    6290     6290     6289     6291     6291     6290     6290     6290 
    6289     6287     6288     6290     6289     6289     6288     6287 
    6288     6290     6291     6290     6290     6290     6289     6288 
    6288     6288     6289     6287     6287     6290     6290     6288 
    6288     6289     6289     6289     6287     6287     6288     6288 
    6290     6291     6291     6290     6289     6289     6289     6289 
    6289     6288     6286     6287     6290     6291     6289     6290 
    6290     6289     6289     6288     6289     6289     6286     6286 
    6287     6288     6287     6287     6289     6289     6289     6290 
    6291     6289     6287     6288     6289     6288     6289     6289 
    6291     6291     6288     6288     6288     6287     6286     6287 
    6287     6288     6288     6287     6289     6290     6289     6289 
    6289     6288     6289     6290     6291     6290     6289     6290 
    6288     6289     6292     6289     6287     6290     6290     6288 
    6289     6289     6288     6287     6289     6290     6291     6289 
    6287     6290     6291     6289     6290     6291     6288     6287 
    6290     6290     6286     6289     6294     6292     6289     6289 
    6291     6291     6289     6290     6290     6288     6288     6289 
    6290     6290     6289     6290     6291     6290     6289     6288 
    6290     6289     6287     6290     6292     6289     6288     6289 
    6289     6290     6291     6290     6289     6287     6287     6290 
    6292     6290     6290     6290     6290     6290     6290     6291 
    6291     6288     6285     6287     6289     6289     6288     6290 
    6290     6289     6289     6289     6290     6290     6289     6287 
    6286     6287     6289     6290     6290     6291     6290     6289 
    6292     6294     6291     6290     6290     6289     6287     6289 
    6295     6298     6297     6301     6304     6303     6300     6299 
    6302     6304     6300     6294     6289     6291     6300     6305 
    6305     6303     6301     6296     6289     6286     6289     6292 
    6287     6277     6275     6283     6294     6301     6301     6299 
    6287     6264     6246     6249     6266     6283     6288     6292 
    6302     6311     6313     6313     6313     6310     6301     6285 
    6264     6246     6246     6265     6285     6303     6318     6316 
    6307     6308     6302     6274     6245     6225     6197     6160 
    6136     6155     6228     6334     6431     6480     6459     6381 
    6296     6245     6209     6144     6047     5981     6028     6186 
    6391     6597     6750     6774     6631     6354     6039     5807 
    5739     5826     5995     6193     6394     6582     6757     6869 
    6797     6520     6183     5964     5940     6031     6118     6158 
    6120     6013     5965     6074     6322     6621     6804     6761 
    6586     6421     6292     6165     5995     5782     5618     5610 
    5826     6305     6958     7469     7508     7072     6482     6043 
    5805     5651     5529     5527     5743     6177     6721     7187 
    7398     7284     6889     6325     5771     5432     5398     5559 
    5736     5873     6079     6423     6768     6929     6853     6635 
    6458     6446     6558     6637     6537     6251     5938     5754 
    5728     5782     5813     5832     5975     6317     6754     7080 
    7180     7108     6933     6654     6310     6008     5878     5941 
    6016     5921     5723     5592     5595     5695     5833     6030 
    6376     6853     7301     7552     7478     7025     6368     5857 
    5718     5930     6296     6553     6547     6348     6140     6055 
    6056     5979     5765     5552     5495     5695     6187     6802 
    7215     7226     6916     6525     6255     6181     6282     6470 
    6605     6572     6348     6043     5844     5793     5694     5389 
    5065     5113     5714     6655     7523     7998     8015     7694 
    7201     6656     6118     5647     5308     5127     5122     5309 
    5607     5877     6080     6290     6549     6810     7046     7282 
    7466     7494     7350     7063     6665     6246     5867     5477 
    5036     4664     4600     4994     5725     6477     7008     7293 
    7393     7266     6837     6207     5708     5654     6043     6554 
    6842     6752     6366     5993     5954     6273     6643     6738 
    6503     6094     5706     5534     5664     5949     6188     6336 
    6469     6638     6854     7107     7308     7267     6863     6203 
    5501     4896     4488     4430     4821     5557     6371     7029 
    7459     7708     7809     7700     7327     6779     6245     5883 
    5703     5614     5582     5628     5730     5879     6110     6382 
    6581     6624     6553     6541     6670     6774     6664     6353 
    6005     5788     5772     5934     6201     6450     6551     6424 
    6064     5610     5310     5314     5583     5971     6334     6616 
    6860     7122     7404     7588     7494     7112     6634     6245 
    5980     5741     5438     5164     5066     5179     5500     5978 
    6452     6841     7177     7450     7573     7453     7077     6574 
    6109     5790     5674     5745     5931     6166     6355     6413 
    6402     6439     6469     6276     5807     5317     5081     5153 
    5476     6008     6660     7240     7538     7472     7122     6722 
    6579     6742     6874     6662     6170     5744     5679     5934 
    6246     6409     6319     6022     5759     5704     5813     6046 
    6370     6585     6460     6056     5699     5616     5780     6010 
    6141     6220     6474     6951     7378     7443     7118     6650 
    6249     5959     5810     5789     5793     5811     5943     6222 
    6584     6932     7170     7245     7143     6888     6547     6156 
    5713     5289     5002     4918     5065     5384     5706     5954 
    6251     6742     7390     7936     8097     7810     7221     6548 
    5945     5457     5141     5086     5313     5768     6273     6616 
    6736     6666     6447     6226     6158     6284     6560     6746 
    6545     6029     5561     5375     5500     5885     6472     7143 
    7592     7558     7194     6843     6582     6272     5864     5512 
    5395     5514     5765     6082     6417     6693     6809     6738 
    6579     6435     6309     6118     5805     5426     5106     4973 
    5154     5690     6458     7196     7680     7858     7780     7457 
    6885     6186     5638     5469     5611     5822     6061     6427 
    6837     7049     6959     6713     6531     6421     6237     5939 
    5614     5421     5525     5848     6075     6057     6006     6176 
    6510     6717     6623     6323     6007     5774     5639     5611 
    5734     6036     6399     6640     6744     6885     7226     7723 
    8071     7883     7030     5810     4751     4246     4324     4747 
    5282     5801     6263     6732     7318     7974     8419     8337 
    7679     6709     5817     5309     5188     5235     5322     5462 
    5642     5819     6000     6216     6458     6690     6876     6964 
    6918     6708     6299     5755     5315     5292     5809     6613 
    7220     7305     6891     6268     5758     5514     5485     5552 
    5668     5887     6247     6689     7145     7599     8011     8193 
    7845     6931     5868     5139     4888     4945     5058     5142 
    5311     5647     6088     6563     7023     7381     7559     7561 
    7423     7163     6767     6244     5696     5230     4894     4772 
    4980     5503     6162     6759     7158     7259     7084     6839 
    6731     6746     6719     6528     6203     5881     5709     5770 
    5992     6153     6091     5897     5766     5764     5858     6039 
    6316     6644     6925     7056     6970     6674     6266     5865 
    5544     5358     5367     5640     6192     6911     7584     7979 
    7949     7533     6864     6017     5107     4400     4140     4351 
    4892     5589     6291     6872     7253     7504     7779     8115 
    8315     8114     7455     6540     5687     5106     4768     4567 
    4526     4711     5111     5683     6397     7182     7780     7862 
    7420     6803     6357     6217     6282     6312     6147     5798 
    5403     5208     5429     5992     6563     6889     7039     7265 
    7647     7960     7917     7483     6879     6332     5963     5840 
    5963     6236     6511     6662     6665     6529     6195     5626 
    4955     4456     4390     4810     5483     6130     6644     7031 
    7304     7480     7592     7661     7650     7475     7111     6649 
    6212     5897     5781     5853     5987     6036     5966     5883 
    5852     5787     5650     5575     5692     5995     6405     6801 
    7010     6875     6375     5711     5183     4955     5024     5325 
    5775     6248     6584     6749     6906     7247     7797     8364 
    8645     8446     7775     6761     5581     4424     3456     2860 
    2809     3328     4279     5518     6942     8348     9363     9650 
    9137     8041     6765     5653     4840     4337     4155     4333 
    4875     5654     6434     7026     7352     7382     7107     6565 
    5908     5439     5448     5957     6701     7357     7733     7780 
    7496     6906     6141     5412     4884     4604     4509     4544 
    4779     5334     6213     7193     7865     7941     7524     6970 
    6582     6428     6366     6203     5891     5564     5423     5542 
    5833     6158     6392     6425     6209     5830     5494     5379 
    5547     6042     6935     8168     9421    10213    10171     9224 
    7603     5729     4106     3218     3281     4010     4843     5369 
    5495     5354     5142     5058     5228     5565     5814     5774 
    5493     5250     5336     5859     6732     7696     8395     8599 
    8354     7873     7365     6928     6536     6146     5752     5388 
    5165     5202     5552     6139     6731     7112     7195     7007 
    6658     6247     5852     5601     5611     5838     6067     6118 
    6032     6035     6344     6981     7723     8184     8026     7208 
    6005     4855     4126     3947     4233     4765     5345     5933 
    6556     7154     7545     7495     6949     6194     5665     5581 
    5831     6158     6385     6498     6608     6931     7683     8840 
   10017    10682    10542     9719     8549     7354     6288     5241 
    4044     2738     1528      631      208      390     1304     2975 
    5112     7171     8652     9304     9191     8548     7603     6602 
    5825     5474     5629     6230     7089     7966     8708     9367 
   10063    10741    11131    10917     9940     8324     6415     4536 
    2876     1590      885      952     1843     3373     5171     6866 
    8202     8972     8947     8049     6579     5130     4231     4082 
    4563     5441     6511     7610     8593     9304     9611     9476 
    8932     8052     6965     5802     4677     3728     3085     2809 
    2904     3424     4518     6244     8258     9837    10352     9636 
    7943     5743     3539     1776      787      723     1504     2872 
    4474     5990     7319     8577     9839    10959    11675    11818 
   11370    10375     8888     7071     5193     3532     2292     1577 
    1465     1971     2921     4046     5116     6021     6821     7613 
    8423     9204     9821    10011     9524     8454     7229     6289 
    5835     5741     5708     5521     5152     4768     4668     5105 
    6076     7291     8357     8950     8897     8244     7162     5886 
    4677     3725     3166     3068     3407     4125     5083     6037 
    6811     7339     7601     7654     7591     7504     7481     7543 
    7629     7695     7749     7805     7872     7938     7951     7822 
    7394     6562     5394     4095     2950     2278     2311     3046 
    4197     5378     6372     7163     7774     8143     8140     7752 
    7169     6578     6024     5460     4846     4311     4086     4341 
    5188     6521     7964     9138     9761     9751     9278     8528 
    7632     6722     5819     4819     3693     2595     1764     1473 
    1919     3085     4802     6790     8646    10011    10675    10570 
    9793     8531     7000     5444     4094     3133     2613     2429 
    2487     2877     3770     5176     6860     8475     9807    10829 
   11560    11941    11839    11122     9728     7748     5371     2876 
     676     -794    -1214     -420     1480     4107     7051    10022 
   12795    15071    16401    16322    14624    11503     7502     3353 
    -196    -2575    -3561    -3298    -2153     -478     1552     3890 
    6401     8752    10516    11348    11225    10499     9611     8794 
    8050     7328     6694     6289     6140     6096     5953     5572 
    4920     4123     3446     3168     3470     4394     5880     7752 
    9677    11266    12207    12312    11524     9904     7645     5086 
    2662      823      -91       41     1130     2916     5027     7078 
    8750     9823    10224    10080     9623     9034     8427     7875 
    7384     6906     6354     5638     4750     3745     2693     1732 
    1066      877     1259     2186     3515     5041     6567     7941 
    9053     9798    10096     9913     9281     8324     7239     6185 
    5258     4583     4272     4408     5063     6182     7522     8761 
    9625     9984     9870     9361     8520     7407     6133     4883 
    3833     3090     2750     2927     3679     4900     6296     7494 
    8196     8324     8032     7595     7244     7076     7020     6898 
    6529     5866     5046     4304     3847     3788     4122     4743 
    5510     6294     7010     7622     8092     8362     8400     8244 
    7955     7553     6989     6222     5319     4444     3781     3481 
    3628     4192     5055     6036     6922     7524     7769     7716 
    7499     7266     7136     7161     7311     7496     7653     7797 
    7928     7952     7739     7266     6662     6066     5532     5037 
    4589     4283     4211     4366     4653     4929     5072     5061 
    4975     4942     5076     5391     5817     6292     6769     7154 
    7365     7410     7381     7357     7335     7249     7036     6687 
    6263     5876     5636     5589     5724     5994     6326     6649 
    6932     7178     7376     7469     7411     7219     6988     6804 
    6647     6459     6245     6067     6000     6073     6229     6368 
    6403     6286     6045     5787     5610     5529     5460     5297 
    5047     4835     4787     4941     5277     5727     6143     6348 
    6272     6031     5849     5886     6157     6587     7048     7363 
    7424     7283     7082     6944     6949     7115     7391     7699 
    7947     8055     7981     7700     7191     6488     5669     4808 
    4029     3501     3328     3518     4003     4671     5402     6047 
    6465     6661     6814     7115     7597     8113     8478     8630 
    8608     8443     8126     7639     6988     6207     5364     4598 
    4087     3937     4108     4420     4682     4877     5174     5774 
    6704     7742     8537     8836     8608     8020     7298     6606 
    6010     5506     5098     4869     4924     5283     5850     6425 
    6777     6787     6508     6074     5607     5235     5101     5300 
    5795     6431     7028     7487     7788     7936     7950     7837 
    7594     7264     6922     6584     6176     5597     4842     4039 
    3376     3002     3026     3507     4411     5620     6971     8266 
    9277     9840     9912     9505     8657     7477     6140     4809 
    3603     2635     2049     2017     2691     4074     5934     7909 
    9639    10833    11325    11092    10219     8901     7419     6037 
    4934     4173     3707     3445     3335     3360     3533     3883 
    4412     5079     5822     6576     7264     7796     8107     8186 
    8082     7860     7555     7178     6717     6134     5398     4606 
    4020     3905     4342     5206     6280     7381     8369     9148 
    9654     9857     9748     9312     8534     7456     6175     4810 
    3527     2522     1970     1973     2522     3496     4702     5954 
    7100     8032     8724     9222     9576     9763     9676     9204 
    8370     7354     6392     5662     5225     5039     5013     5010 
    4922     4788     4767     5015     5586     6387     7188     7724 
    7813     7413     6655     5787     5054     4580     4356     4285 
    4281     4351     4573     5024     5719     6598     7501     8217 
    8559     8459     7987     7287     6520     5853     5435     5353 
    5601     6083     6673     7250     7699     7940     7944     7755 
    7450     7064     6586     6032     5465     4952     4572     4426 
    4565     4913     5302     5573     5699     5778     5939     6248 
    6685     7154     7500     7596     7447     7188     6951     6745 
    6511     6225     5909     5586     5273     5022     4934     5126 
    5658     6450     7269     7841     8034     7921     7665     7355 
    6974     6472     5857     5217     4689     4376     4291     4394 
    4642     4995     5407     5864     6380     6958     7538     8001 
    8252     8278     8122     7835     7468     7079     6719     6418 
    6182     6010     5904     5898     6020     6240     6476     6623 
    6581     6300     5816     5249     4745     4409     4298     4400 
    4650     4988     5378     5821     6351     6958     7557     8037 
    8308     8311     8052     7592     7003     6332     5642     5038 
    4614     4404     4407     4620     5071     5745     6519     7226 
    7743     8010     8047     7934     7721     7411     7023     6608 
    6212     5858     5574     5424     5456     5628     5817     5891 
    5812     5670     5593     5670     5923     6305     6723     7072 
    7272     7307     7208     7011     6744     6446     6161     5925 
    5757     5661     5617     5596     5597     5632     5694     5750 
    5772     5782     5851     6014     6219     6371     6429     6478 
    6629     6876     7092     7182     7153     7040     6850     6557 
    6130     5604     5093     4709     4523     4572     4882     5475 
    6318     7287     8204     8898     9241     9129     8549     7647 
    6641     5678     4812     4066     3488     3142     3071     3308 
