Origin Time       2025/03/30 22:55:00
Lat.              41.993
Long.             142.725
Depth. (km)       55
Mag.              4.6
Station Code      HKD131
Station Lat.      42.4206
Station Long.     141.0809
Station Height(m) 13
Record Time       2025/03/30 22:56:38
Sampling Freq(Hz) 100Hz
Duration Time(s)  60
Dir.              E-W
Scale Factor      7845(gal)/8223790
Max. Acc. (gal)   2.630
Last Correction   2025/03/30 22:56:38
Memo.             
[...]
  -33866   -33795   -33825   -33898   -34028   -34165   -34176   -34029 
  -33809   -33598   -33475   -33513   -33609   -33640   -33682   -33794 
  -33897   -33967   -34018   -34037   -34002   -33897   -33813   -33828 
  -33813   -33651   -33494   -33550   -33759   -33926   -33995   -34034 
  -34024   -33855   -33583   -33466   -33578   -33727   -33799   -33863 
  -33956   -34026   -33987   -33814   -33666   -33679   -33721   -33681 
  -33727   -33918   -34053   -34069   -34032   -33944   -33864   -33789 
  -33604   -33453   -33579   -33826   -33906   -33926   -34032   -33970 
  -33659   -33448   -33453   -33519   -33678   -33905   -33995   -33967 
  -33959   -33944   -33925   -33952   -33889   -33690   -33590   -33651 
  -33675   -33698   -33849   -34010   -34106   -34130   -33917   -33589 
  -33556   -33802   -33967   -33976   -33937   -33817   -33633   -33521 
  -33562   -33696   -33806   -33875   -33955   -34005   -33998   -33978 
  -33925   -33797   -33621   -33486   -33517   -33705   -33862   -33905 
  -33941   -33978   -33901   -33797   -33825   -33887   -33853   -33810 
  -33825   -33837   -33814   -33797   -33808   -33813   -33717   -33539 
  -33512   -33740   -33993   -34034   -33909   -33778   -33744   -33837 
  -33945   -33910   -33758   -33625   -33629   -33809   -33990   -33974 
  -33849   -33778   -33782   -33825   -33812   -33743   -33736   -33781 
  -33755   -33652   -33581   -33651   -33889   -34106   -34041   -33793 
  -33696   -33790   -33887   -33979   -34083   -33979   -33642   -33427 
  -33465   -33578   -33733   -33930   -34061   -34117   -34091   -33920 
  -33708   -33696   -33875   -33959   -33790   -33579   -33577   -33732 
  -33852   -33859   -33812   -33782   -33774   -33766   -33774   -33794 
  -33782   -33756   -33795   -33894   -33949   -33887   -33755   -33677 
  -33724   -33840   -33922   -33880   -33762   -33733   -33791   -33764 
  -33648   -33667   -33883   -34068   -34086   -33991   -33843   -33739 
  -33720   -33666   -33562   -33558   -33694   -33841   -33907   -33930 
  -33955   -33979   -34017   -34015   -33920   -33813   -33774   -33758 
  -33723   -33670   -33621   -33647   -33741   -33779   -33721   -33686 
  -33754   -33870   -33993   -34121   -34126   -33883   -33550   -33411 
  -33498   -33651   -33824   -34018   -34113   -34028   -33893   -33833 
  -33799   -33713   -33658   -33743   -33883   -33937   -33902   -33844 
  -33826   -33835   -33750   -33610   -33633   -33851   -34013   -33944 
  -33797   -33791   -33855   -33798   -33679   -33677   -33739   -33744 
  -33817   -34037   -34152   -33955   -33624   -33465   -33539   -33683 
  -33727   -33697   -33785   -33987   -34109   -34095   -34040   -34026 
  -34014   -33890   -33646   -33450   -33454   -33598   -33712   -33745 
  -33798   -33944   -34103   -34145   -34099   -34020   -33816   -33558 
  -33504   -33624   -33651   -33600   -33705   -33945   -34056   -33943 
  -33787   -33768   -33839   -33802   -33617   -33521   -33693   -33972 
  -34098   -34009   -33840   -33694   -33600   -33635   -33813   -33939 
  -33875   -33754   -33724   -33777   -33836   -33848   -33837   -33866 
  -33922   -33940   -33890   -33808   -33755   -33751   -33750   -33712 
  -33670   -33712   -33875   -34051   -34069   -33926   -33777   -33718 
  -33716   -33717   -33775   -33912   -33929   -33754   -33655   -33764 
  -33844   -33752   -33648   -33637   -33702   -33828   -33940   -33967 
  -33918   -33804   -33667   -33639   -33768   -33893   -33925   -33972 
  -34064   -34034   -33818   -33636   -33671   -33824   -33914   -33853 
  -33679   -33544   -33523   -33558   -33650   -33821   -33983   -34049 
  -33994   -33826   -33664   -33637   -33731   -33883   -34018   -34005 
  -33880   -33808   -33763   -33694   -33720   -33839   -33932   -33993 
  -33956   -33786   -33686   -33772   -33870   -33805   -33660   -33632 
  -33756   -33894   -33917   -33866   -33829   -33772   -33712   -33764 
  -33905   -33990   -33986   -33917   -33781   -33628   -33563   -33642 
  -33863   -34032   -33906   -33691   -33727   -33856   -33835   -33743 
  -33646   -33558   -33620   -33840   -34030   -34110   -34111   -33972 
  -33664   -33374   -33328   -33600   -33967   -34056   -33852   -33694 
  -33736   -33889   -34048   -34146   -34180   -34098   -33833   -33579 
  -33563   -33632   -33597   -33590   -33737   -33901   -33979   -34030 
  -33984   -33790   -33669   -33752   -33818   -33678   -33528   -33617 
  -33856   -34053   -34122   -34047   -33922   -33907   -33955   -33837 
  -33539   -33330   -33424   -33755   -34015   -34020   -33898   -33812 
  -33763   -33737   -33775   -33902   -34076   -34161   -34017   -33675 
  -33385   -33363   -33535   -33662   -33755   -33972   -34160   -34072 
  -33864   -33783   -33745   -33617   -33538   -33698   -33978   -34075 
  -33967   -33925   -33976   -33855   -33589   -33489   -33617   -33794 
  -33893   -33858   -33758   -33799   -33955   -34018   -34020   -33999 
  -33836   -33598   -33521   -33677   -33902   -34021   -34030   -33974 
  -33843   -33728   -33683   -33616   -33543   -33623   -33826   -33912 
  -33816   -33733   -33783   -33930   -34052   -33988   -33804   -33709 
  -33656   -33597   -33678   -33829   -33863   -33878   -33990   -34053 
  -33948   -33736   -33623   -33812   -34095   -34065   -33867   -33891 
  -33959   -33739   -33404   -33278   -33439   -33767   -34059   -34172 
  -34106   -33899   -33619   -33411   -33390   -33534   -33740   -33910 
  -34003   -33999   -33955   -34005   -34086   -34033   -33891   -33727 
  -33532   -33458   -33592   -33712   -33708   -33713   -33775   -33820 
  -33862   -33913   -33866   -33812   -33991   -34244   -34223   -33979 
  -33814   -33787   -33721   -33593   -33588   -33762   -33918   -33910 
  -33845   -33775   -33606   -33484   -33627   -33885   -33975   -33893 
  -33781   -33724   -33772   -33826   -33718   -33608   -33752   -33980 
  -34005   -33895   -33853   -33889   -33914   -33878   -33789   -33677 
  -33610   -33678   -33848   -33988   -34005   -33898   -33798   -33802 
  -33790   -33671   -33559   -33570   -33720   -33891   -33912   -33837 
  -33787   -33694   -33637   -33764   -33901   -33956   -34074   -34138 
  -33997   -33748   -33482   -33297   -33412   -33839   -34242   -34322 
  -34128   -33930   -33858   -33839   -33872   -33945   -33868   -33600 
  -33382   -33416   -33585   -33669   -33682   -33767   -33920   -33982 
  -33902   -33863   -33937   -33975   -33889   -33755   -33725   -33871 
  -34034   -33988   -33763   -33608   -33693   -33934   -34078   -33937 
  -33629   -33457   -33497   -33593   -33731   -33963   -34133   -34086 
  -33910   -33751   -33670   -33709   -33837   -33939   -33974   -33986 
  -33871   -33542   -33324   -33477   -33725   -33870   -33991   -34059 
  -34051   -34001   -33879   -33755   -33744   -33778   -33724   -33604 
  -33519   -33484   -33538   -33777   -34088   -34226   -34156   -33986 
  -33760   -33616   -33721   -33937   -34014   -33956   -33829   -33633 
  -33532   -33651   -33759   -33716   -33778   -33994   -34038   -33845 
  -33648   -33583   -33677   -33879   -34055   -34132   -34098   -33932 
  -33687   -33482   -33482   -33747   -34002   -33993   -33862   -33768 
  -33709   -33718   -33681   -33525   -33623   -34069   -34292   -34055 
  -33818   -33862   -33925   -33762   -33515   -33474   -33629   -33781 
  -33886   -33983   -34001   -33929   -33883   -33844   -33669   -33474 
  -33548   -33849   -34034   -33947   -33775   -33774   -33889   -33882 
  -33760   -33696   -33691   -33663   -33623   -33647   -33779   -33975 
  -34042   -33912   -33817   -33831   -33744   -33608   -33678   -33937 
  -34150   -34153   -33934   -33671   -33574   -33648   -33752   -33847 
  -33956   -33990   -33917   -33858   -33766   -33627   -33690   -33914 
  -33937   -33740   -33609   -33652   -33767   -33844   -33853   -33817 
  -33791   -33775   -33736   -33764   -33940   -34110   -34090   -33866 
  -33552   -33340   -33367   -33548   -33705   -33799   -33926   -34065 
  -34095   -34069   -34087   -34059   -33949   -33872   -33771   -33625 
  -33658   -33785   -33698   -33566   -33681   -33886   -33955   -33913 
  -33855   -33778   -33660   -33628   -33782   -34007   -34115   -34033 
  -33891   -33872   -33887   -33768   -33633   -33709   -33941   -34063 
  -33948   -33739   -33660   -33771   -33940   -34041   -34038   -33951 
  -33891   -33880   -33743   -33477   -33359   -33556   -33852   -33928 
  -33760   -33559   -33559   -33799   -34005   -33952   -33801   -33758 
  -33760   -33713   -33678   -33751   -33928   -34069   -34026   -33879 
  -33805   -33763   -33712   -33744   -33847   -33882   -33843   -33843 
  -33882   -33886   -33826   -33675   -33497   -33511   -33787   -34082 
  -34137   -34013   -33920   -33905   -33843   -33623   -33331   -33262 
  -33528   -33897   -34182   -34373   -34389   -34168   -33886   -33732 
  -33664   -33612   -33579   -33552   -33548   -33577   -33583   -33589 
  -33635   -33690   -33768   -33902   -34045   -34136   -34141   -34024 
  -33789   -33617   -33709   -33955   -34036   -33837   -33593   -33592 
  -33836   -34017   -33885   -33605   -33467   -33508   -33663   -33860 
  -33993   -34071   -34091   -33970   -33799   -33708   -33643   -33581 
  -33606   -33806   -34055   -34105   -33997   -33876   -33701   -33547 
  -33583   -33775   -33980   -34082   -34026   -33874   -33681   -33497 
  -33455   -33597   -33777   -33864   -33872   -33864   -33828   -33718 
  -33621   -33685   -33826   -33826   -33710   -33677   -33720   -33685 
  -33623   -33736   -34044   -34348   -34449   -34339   -34148   -33948 
  -33764   -33602   -33457   -33384   -33492   -33708   -33795   -33763 
  -33880   -34167   -34369   -34364   -34169   -33810   -33450   -33305 
  -33438   -33763   -34053   -34101   -33951   -33693   -33376   -33224 
  -33424   -33771   -33906   -33705   -33377   -33289   -33575   -33979 
  -34198   -34236   -34246   -34203   -34032   -33845   -33740   -33659 
  -33612   -33642   -33678   -33654   -33659   -33763   -33886   -33934 
  -33895   -33878   -33998   -34095   -33922   -33654   -33608   -33650 
  -33606   -33713   -34030   -34210   -34138   -34083   -34115   -33960 
  -33588   -33297   -33296   -33678   -34383   -35016   -35167   -34761 
  -34013   -33301   -32933   -32881   -32930   -33056   -33270   -33442 
  -33608   -33898   -34281   -34608   -34638   -34226   -33602   -33146 
  -32906   -32787   -32907   -33343   -33876   -34192   -34183   -34118 
  -34371   -34839   -35058   -34865   -34404   -33799   -33230   -32923 
  -32981   -33316   -33654   -33813   -33909   -34052   -34118   -33991 
  -33787   -33702   -33717   -33689   -33647   -33615   -33385   -32960 
  -32825   -33353   -34214   -34893   -35244   -35149   -34480   -33613 
  -33135   -33127   -33334   -33600   -33801   -33995   -34349   -34515 
  -34028   -33266   -32960   -33146   -33527   -34076   -34619   -34788 
  -34701   -34684   -34526   -33875   -32960   -32323   -32182   -32454 
  -33046   -33783   -34361   -34541   -34198   -33536   -33247   -33771 
  -34554   -34798   -34438   -33864   -33404   -33254   -33345   -33466 
  -33768   -34350   -34635   -34209   -33494   -33018   -32992   -33498 
  -34180   -34433   -34284   -34234   -34307   -34099   -33477   -32719 
  -32340   -32729   -33610   -34267   -34430   -34477   -34784   -35166 
  -35125   -34541   -33794   -33211   -32869   -32899   -33258   -33583 
  -33795   -34113   -34429   -34464   -34190   -33778   -33485   -33520 
  -33832   -34095   -33945   -33301   -32532   -32107   -32185   -32682 
  -33432   -34231   -34778   -34844   -34658   -34526   -34420   -34477 
  -34886   -35241   -34896   -33759   -32468   -31896   -32292   -33065 
  -33616   -33867   -34001   -34182   -34523   -35023   -35469   -35463 
  -34825   -33889   -33075   -32427   -31803   -31326   -31419   -32246 
  -33467   -34750   -35745   -35972   -35438   -34515   -33393   -32563 
  -32603   -33261   -33849   -33994   -33669   -33319   -33467   -33972 
  -34427   -34794   -34994   -34771   -34366   -34225   -34281   -34295 
  -34173   -33783   -33231   -32837   -32621   -32590   -33006   -33723 
  -34169   -34263   -34319   -34456   -34533   -34098   -32999   -32067 
  -32125   -32962   -33893   -34477   -34596   -34354   -34107   -34211 
  -34522   -34557   -34290   -34090   -33980   -33677   -33218   -33077 
  -33589   -34387   -34593   -33844   -32922   -32718   -33139   -33727 
  -34261   -34587   -34720   -34730   -34410   -33727   -33107   -32827 
  -32745   -32794   -33093   -33524   -33682   -33347   -32877   -33003 
  -33955   -35114   -35734   -35428   -34383   -33494   -33374   -33606 
  -33770   -34001   -34227   -34211   -34102   -34053   -33993   -34107 
  -34553   -34855   -34422   -33377   -32509   -32319   -32540   -32887 
  -33342   -33686   -33733   -33598   -33331   -33007   -33006   -33477 
  -34138   -34784   -35240   -35241   -34906   -34692   -34692   -34429 
  -33461   -32148   -31487   -32039   -33405   -34830   -35854   -36239 
  -35777   -34516   -33106   -32466   -32616   -32775   -32838   -33261 
  -33774   -33762   -33373   -33154   -33235   -33509   -33979   -34705 
  -35471   -35548   -34562   -33332   -33046   -33804   -34511   -34322 
  -33739   -33534   -33315   -32530   -32024   -32844   -34238   -34784 
  -34639   -34730   -35017   -34969   -34311   -33177   -32323   -32273 
  -32676   -33303   -34182   -34757   -34500   -33833   -33524   -33825 
  -34395   -34627   -34121   -32973   -31756   -31363   -32206   -33569 
  -34689   -35691   -36555   -36566   -35452   -33921   -32803   -32374 
  -32364   -32503   -32949   -33736   -34416   -34765   -34811   -34321 
  -33304   -32599   -32980   -33920   -34393   -34349   -34261   -34198 
  -33990   -33642   -33450   -33779   -34357   -34294   -33447   -32823 
  -33151   -34015   -34535   -34319   -33721   -33297   -33170   -33205 
  -33366   -33523   -33686   -34210   -34973   -35195   -34480   -33241 
  -32269   -32123   -32698   -33581   -34495   -35050   -34916   -34402 
  -34052   -33870   -33602   -33497   -33880   -34346   -34350   -33993 
  -33507   -33050   -33174   -34133   -35083   -35148   -34514   -33728 
  -33065   -32709   -32599   -32570   -32842   -33451   -33724   -33330 
  -32913   -33081   -33795   -34811   -35700   -35869   -35166   -34011 
  -32999   -32574   -32810   -33427   -33968   -34009   -33605   -33339 
  -33573   -34041   -34371   -34589   -34855   -34954   -34538   -33694 
  -32791   -32209   -32341   -33266   -34542   -35428   -35272   -34126 
  -32898   -32459   -32884   -33744   -34564   -34974   -34897   -34469 
  -33791   -33115   -32930   -33313   -33694   -33686   -33502   -33435 
  -33512   -33609   -33629   -33586   -33556   -33642   -33998   -34618 
  -35043   -34859   -34346   -34040   -33918   -33594   -33100   -32952 
  -33373   -33901   -34011   -33770   -33616   -33804   -34088   -33982 
  -33542   -33390   -33698   -33968   -33858   -33539   -33355   -33421 
  -33601   -33737   -33809   -33983   -34256   -34252   -33818   -33303 
  -33085   -33265   -33678   -34155   -34628   -34812   -34389   -33829 
  -33893   -34472   -34828   -34565   -33886   -33278   -33011   -33011 
  -33251   -33732   -34096   -34010   -33698   -33567   -33616   -33575 
  -33340   -33011   -32890   -33339   -34163   -34674   -34755   -34744 
  -34464   -33797   -33318   -33292   -33373   -33397   -33451   -33613 
  -33956   -34420   -34838   -35041   -34785   -34091   -33523   -33523 
  -33791   -33720   -33181   -32709   -32819   -33350   -33766   -33860 
  -33821   -33878   -34096   -34338   -34312   -33922   -33467   -33195 
  -33073   -33189   -33637   -34117   -34392   -34612   -34776   -34626 
  -34096   -33538   -33332   -33390   -33384   -33228   -33185   -33558 
  -34190   -34533   -34341   -33868   -33497   -33492   -33816   -34047 
  -33883   -33677   -33882   -34303   -34429   -34137   -33717   -33404 
  -33157   -32976   -33137   -33637   -33997   -34096   -34241   -34368 
  -34273   -34129   -34061   -33870   -33447   -32981   -32796   -33147 
  -33866   -34379   -34366   -34082   -33848   -33705   -33631   -33608 
  -33585   -33712   -34128   -34557   -34612   -34253   -33759   -33409 
  -33303   -33446   -33724   -33885   -33839   -33763   -33813   -33885 
  -33758   -33423   -33137   -33183   -33573   -33966   -34144   -34204 
  -34140   -33930   -33798   -33829   -33874   -33882   -33855   -33794 
  -33840   -33936   -33839   -33759   -34055   -34495   -34635   -34358 
  -33818   -33328   -33083   -33003   -33162   -33725   -34372   -34534 
  -34101   -33426   -32913   -32868   -33328   -33914   -34171   -34051 
  -33820   -33771   -34055   -34416   -34453   -34169   -33839   -33631 
  -33567   -33525   -33370   -33249   -33462   -33932   -34240   -34312 
  -34393   -34306   -33824   -33426   -33628   -34094   -34234   -33997 
  -33667   -33501   -33605   -33816   -33867   -33716   -33504   -33372 
  -33417   -33601   -33723   -33712   -33779   -33994   -34111   -34078 
  -34140   -34314   -34356   -34164   -33890   -33663   -33417   -33110 
  -32903   -32984   -33378   -33893   -34248   -34338   -34275   -34160 
  -33961   -33662   -33345   -33235   -33559   -34167   -34596   -34607 
  -34296   -33816   -33366   -33191   -33380   -33777   -34052   -33937 
  -33500   -33062   -32927   -33219   -33844   -34564   -35081   -35102 
  -34573   -33763   -32985   -32551   -32715   -33357   -34076   -34600 
  -34815   -34719   -34402   -33937   -33531   -33443   -33574   -33663 
  -33758   -33997   -34219   -34267   -34267   -34188   -33863   -33494 
  -33338   -33259   -33123   -33092   -33270   -33544   -33808   -33929 
  -33791   -33558   -33556   -33836   -34052   -33917   -33601   -33439 
  -33540   -33858   -34257   -34541   -34639   -34634   -34593   -34460 
  -34088   -33525   -33116   -33111   -33462   -33894   -34011   -33700 
  -33259   -33045   -33184   -33512   -33802   -33932   -33852   -33677 
  -33569   -33610   -33899   -34330   -34601   -34601   -34360   -33901 
  -33430   -33226   -33297   -33501   -33844   -34190   -34187   -33856 
  -33651   -33779   -34009   -34101   -33998   -33723   -33392   -33165 
  -33116   -33332   -33828   -34338   -34570   -34503   -34291   -34074 
  -33913   -33762   -33606   -33577   -33731   -33879   -33809   -33525 
  -33250   -33280   -33727   -34299   -34573   -34379   -33934   -33646 
  -33601   -33548   -33446   -33428   -33462   -33617   -33966   -34211 
  -34159   -33993   -33837   -33720   -33736   -33847   -33952   -34041 
  -34052   -33922   -33685   -33428   -33320   -33428   -33555   -33543 
  -33528   -33694   -33970   -34102   -33993   -33779   -33656   -33743 
  -33936   -34002   -33966   -34030   -34113   -33994   -33758   -33617 
  -33531   -33362   -33282   -33548   -34014   -34304   -34308   -34213 
  -34164   -34123   -34021   -33890   -33809   -33736   -33585   -33457 
  -33542   -33813   -34049   -34165   -34271   -34290   -33994   -33512 
  -33239   -33323   -33592   -33831   -33955   -33955   -33844   -33682 
  -33544   -33496   -33556   -33608   -33556   -33500   -33525   -33677 
  -34018   -34383   -34488   -34348   -34102   -33763   -33411   -33304 
  -33588   -34090   -34392   -34177   -33724   -33627   -33883   -34036 
  -33907   -33627   -33420   -33421   -33532   -33635   -33727   -33731 
  -33589   -33524   -33696   -33913   -34020   -34037   -33949   -33832 
