Origin Time       2025/03/30 22:55:00
Lat.              41.993
Long.             142.725
Depth. (km)       55
Mag.              4.6
Station Code      HKD106
Station Lat.      42.3414
Station Long.     142.3688
Station Height(m) 5
Record Time       2025/03/30 22:56:21
Sampling Freq(Hz) 100Hz
Duration Time(s)  60
Dir.              N-S
Scale Factor      7845(gal)/8223790
Max. Acc. (gal)   2.383
Last Correction   2025/03/30 22:56:21
Memo.             
[...]
   -2301    -2304    -2305    -2307    -2309    -2305    -2303    -2308 
   -2313    -2312    -2305    -2300    -2300    -2304    -2311    -2317 
   -2317    -2315    -2308    -2300    -2300    -2309    -2312    -2311 
   -2309    -2304    -2296    -2295    -2305    -2319    -2322    -2312 
   -2300    -2295    -2300    -2309    -2317    -2317    -2312    -2312 
   -2313    -2309    -2303    -2300    -2299    -2299    -2305    -2315 
   -2317    -2315    -2311    -2308    -2308    -2307    -2303    -2300 
   -2301    -2305    -2307    -2309    -2311    -2305    -2301    -2307 
   -2312    -2313    -2315    -2315    -2313    -2309    -2307    -2309 
   -2308    -2303    -2300    -2304    -2313    -2319    -2312    -2300 
   -2293    -2295    -2304    -2315    -2319    -2316    -2313    -2313 
   -2311    -2309    -2311    -2308    -2301    -2304    -2309    -2311 
   -2311    -2311    -2309    -2307    -2303    -2303    -2303    -2303 
   -2307    -2311    -2311    -2308    -2305    -2301    -2304    -2312 
   -2316    -2317    -2319    -2315    -2305    -2301    -2303    -2303 
   -2301    -2305    -2315    -2322    -2312    -2295    -2282    -2289 
   -2315    -2335    -2331    -2311    -2293    -2289    -2305    -2323 
   -2322    -2308    -2299    -2301    -2308    -2315    -2323    -2319 
   -2307    -2300    -2297    -2300    -2305    -2307    -2308    -2311 
   -2313    -2316    -2315    -2312    -2308    -2307    -2309    -2316 
   -2322    -2315    -2300    -2289    -2290    -2300    -2311    -2319 
   -2319    -2311    -2303    -2301    -2304    -2307    -2311    -2316 
   -2316    -2312    -2309    -2307    -2305    -2305    -2305    -2305 
   -2305    -2305    -2307    -2307    -2307    -2304    -2301    -2304 
   -2309    -2313    -2316    -2316    -2320    -2323    -2316    -2307 
   -2301    -2301    -2304    -2308    -2309    -2307    -2304    -2303 
   -2301    -2303    -2305    -2309    -2311    -2308    -2303    -2301 
   -2305    -2312    -2316    -2315    -2308    -2305    -2305    -2308 
   -2313    -2309    -2301    -2296    -2299    -2304    -2308    -2311 
   -2305    -2304    -2308    -2311    -2312    -2313    -2312    -2313 
   -2313    -2311    -2308    -2304    -2300    -2301    -2304    -2308 
   -2311    -2311    -2309    -2308    -2309    -2309    -2309    -2307 
   -2300    -2297    -2299    -2301    -2307    -2312    -2319    -2322 
   -2315    -2308    -2309    -2309    -2307    -2305    -2303    -2299 
   -2300    -2304    -2309    -2312    -2311    -2311    -2311    -2307 
   -2305    -2309    -2311    -2307    -2303    -2305    -2311    -2311 
   -2305    -2305    -2308    -2312    -2313    -2309    -2308    -2312 
   -2309    -2304    -2307    -2309    -2312    -2315    -2312    -2305 
   -2300    -2300    -2304    -2309    -2313    -2313    -2311    -2308 
   -2304    -2304    -2309    -2312    -2312    -2312    -2308    -2304 
   -2303    -2304    -2307    -2305    -2309    -2311    -2308    -2305 
   -2307    -2311    -2308    -2305    -2308    -2309    -2307    -2308 
   -2305    -2305    -2311    -2311    -2308    -2308    -2308    -2305 
   -2305    -2308    -2309    -2312    -2313    -2307    -2301    -2304 
   -2308    -2307    -2303    -2305    -2308    -2309    -2311    -2309 
   -2307    -2309    -2312    -2313    -2313    -2309    -2309    -2317 
   -2324    -2326    -2326    -2322    -2317    -2319    -2326    -2335 
   -2339    -2339    -2344    -2351    -2351    -2347    -2344    -2343 
   -2340    -2339    -2340    -2343    -2349    -2357    -2362    -2361 
   -2353    -2343    -2336    -2332    -2334    -2339    -2340    -2344 
   -2359    -2373    -2376    -2365    -2350    -2339    -2335    -2334 
   -2320    -2292    -2268    -2262    -2272    -2282    -2268    -2226 
   -2185    -2168    -2180    -2209    -2224    -2215    -2195    -2176 
   -2170    -2176    -2169    -2151    -2147    -2181    -2247    -2311 
   -2334    -2305    -2255    -2236    -2286    -2385    -2459    -2450 
   -2350    -2208    -2073    -1976    -1933    -1972    -2108    -2335 
   -2614    -2860    -2960    -2839    -2500    -2050    -1675    -1545 
   -1710    -2076    -2493    -2830    -3002    -2995    -2853    -2614 
   -2312    -2029    -1877    -1921    -2126    -2346    -2431    -2370 
   -2247    -2145    -2123    -2199    -2323    -2431    -2484    -2467 
   -2419    -2373    -2285    -2104    -1880    -1750    -1867    -2250 
   -2716    -3005    -2999    -2775    -2469    -2173    -1921    -1707 
   -1540    -1485    -1647    -2038    -2520    -2905    -3080    -3036 
   -2860    -2687    -2592    -2527    -2390    -2146    -1881    -1768 
   -1927    -2301    -2671    -2839    -2776    -2604    -2459    -2407 
   -2392    -2316    -2145    -1950    -1865    -1987    -2307    -2712 
   -3010    -3056    -2852    -2504    -2092    -1717    -1529    -1602 
   -1899    -2332    -2739    -2945    -2891    -2627    -2231    -1809 
   -1482    -1345    -1466    -1863    -2438    -2976    -3267    -3217 
   -2872    -2385    -1922    -1583    -1422    -1491    -1810    -2280 
   -2727    -3009    -3075    -2968    -2762    -2517    -2323    -2276 
   -2338    -2340    -2170    -1902    -1726    -1772    -2010    -2313 
   -2570    -2717    -2760    -2718    -2573    -2290    -1872    -1414 
   -1124    -1179    -1602    -2254    -2914    -3375    -3511    -3325 
   -2932    -2486    -2110    -1814    -1567    -1436    -1510    -1799 
   -2250    -2739    -3053    -3053    -2826    -2604    -2497    -2446 
   -2317    -2018    -1636    -1466    -1703    -2263    -2880    -3287 
   -3334    -3045    -2598    -2204    -1957    -1836    -1791    -1804 
   -1868    -1969    -2124    -2388    -2791    -3271    -3615    -3566 
   -2991    -2023    -1023     -387     -345     -895    -1819    -2821 
   -3628    -4052    -3990    -3457    -2613    -1750    -1169    -1009 
   -1197    -1566    -1989    -2431    -2887    -3321    -3607    -3549 
   -3073    -2350    -1661    -1208    -1040    -1113    -1364    -1760 
   -2263    -2786    -3191    -3373    -3312    -3042    -2643    -2259 
   -1993    -1817    -1671    -1552    -1536    -1755    -2199    -2667 
   -2978    -3105    -3094    -2947    -2631    -2165    -1698    -1475 
   -1641    -2103    -2646    -3051    -3153    -2921    -2457    -1923 
   -1513    -1374    -1516    -1837    -2239    -2651    -2986    -3134 
   -3015    -2660    -2192    -1753    -1448    -1293    -1271    -1383 
   -1602    -1880    -2199    -2550    -2907    -3218    -3383    -3291 
   -2897    -2305    -1745    -1463    -1568    -1988    -2506    -2868 
   -2957    -2864    -2743    -2659    -2546    -2351    -2151    -2062 
   -2146    -2386    -2708    -2986    -3099    -2988    -2667    -2200 
   -1691    -1286    -1113    -1192    -1443    -1780    -2149    -2519 
   -2857    -3100    -3145    -2933    -2565    -2238    -2072    -2068 
   -2172    -2308    -2424    -2490    -2497    -2444    -2339    -2200 
   -2073    -2018    -2034    -2080    -2133    -2177    -2208    -2268 
   -2412    -2639    -2872    -3011    -2986    -2759    -2365    -1964 
   -1768    -1857    -2137    -2443    -2644    -2656    -2478    -2180 
   -1891    -1725    -1701    -1773    -1891    -2027    -2185    -2374 
   -2587    -2785    -2882    -2829    -2675    -2497    -2327    -2165 
   -2015    -1892    -1810    -1809    -1945    -2245    -2664    -3087 
   -3366    -3407    -3188    -2766    -2277    -1868    -1613    -1528 
   -1586    -1741    -1979    -2278    -2536    -2628    -2523    -2274 
   -1996    -1845    -1887    -2074    -2339    -2605    -2779    -2783 
   -2601    -2300    -2004    -1845    -1934    -2263    -2647    -2826 
   -2675    -2290    -1894    -1686    -1753    -2031    -2396    -2756 
   -2997    -2975    -2663    -2174    -1718    -1499    -1559    -1771 
   -2008    -2219    -2373    -2465    -2521    -2587    -2697    -2818 
   -2829    -2659    -2393    -2176    -2085    -2081    -2097    -2130 
   -2220    -2403    -2641    -2824    -2826    -2637    -2354    -2060 
   -1782    -1567    -1509    -1657    -1957    -2330    -2700    -2941 
   -2926    -2635    -2215    -1906    -1848    -2047    -2444    -2889 
   -3153    -3106    -2768    -2238    -1692    -1366    -1418    -1845 
   -2447    -2907    -3021    -2768    -2265    -1736    -1453    -1587 
   -2057    -2619    -3034    -3177    -3064    -2803    -2517    -2289 
   -2161    -2127    -2158    -2234    -2344    -2451    -2513    -2494 
   -2357    -2124    -1929    -1894    -2041    -2288    -2465    -2444 
   -2280    -2111    -2031    -2068    -2214    -2373    -2417    -2304 
   -2072    -1792    -1584    -1571    -1776    -2158    -2641    -3102 
   -3422    -3499    -3303    -2955    -2597    -2268    -1968    -1748 
   -1709    -1926    -2300    -2585    -2602    -2354    -1989    -1779 
   -1910    -2295    -2697    -2913    -2848    -2571    -2265    -2083 
   -2073    -2201    -2374    -2486    -2478    -2342    -2135    -1966 
   -1918    -2000    -2160    -2346    -2505    -2565    -2532    -2502 
   -2492    -2434    -2323    -2243    -2277    -2398    -2498    -2504 
   -2423    -2280    -2095    -1915    -1800    -1802    -1966    -2269 
   -2605    -2878    -2997    -2899    -2635    -2286    -1896    -1582 
   -1548    -1846    -2297    -2666    -2802    -2674    -2357    -1975 
   -1675    -1588    -1753    -2128    -2616    -3041    -3233    -3137 
   -2828    -2405    -1953    -1579    -1414    -1525    -1834    -2200 
   -2478    -2578    -2505    -2344    -2258    -2376    -2619    -2781 
   -2724    -2466    -2111    -1749    -1458    -1337    -1471    -1841 
   -2327    -2775    -3030    -2990    -2712    -2401    -2238    -2232 
   -2272    -2293    -2315    -2354    -2401    -2401    -2295    -2143 
   -2089    -2214    -2486    -2735    -2803    -2755    -2725    -2787 
   -2945    -3059    -2967    -2686    -2336    -2011    -1767    -1633 
   -1640    -1806    -2097    -2396    -2538    -2446    -2193    -1942 
   -1880    -2037    -2280    -2509    -2641    -2590    -2416    -2228 
   -2045    -1883    -1803    -1837    -1962    -2088    -2095    -1984 
   -1904    -1958    -2177    -2539    -2913    -3187    -3348    -3373 
   -3249    -3007    -2644    -2195    -1834    -1750    -1966    -2347 
   -2705    -2857    -2724    -2376    -1987    -1740    -1698    -1814 
   -2012    -2246    -2502    -2712    -2740    -2524    -2135    -1715 
   -1404    -1302    -1475    -1895    -2420    -2855    -3042    -2982 
   -2775    -2523    -2353    -2393    -2593    -2803    -2952    -2956 
   -2713    -2278    -1841    -1534    -1382    -1375    -1507    -1738 
   -2029    -2332    -2556    -2614    -2501    -2338    -2281    -2347 
   -2394    -2303    -2089    -1908    -1896    -2049    -2292    -2524 
   -2625    -2563    -2403    -2216    -2066    -2046    -2219    -2533 
   -2872    -3118    -3163    -2941    -2489    -1973    -1628    -1591 
   -1777    -1996    -2153    -2247    -2238    -2126    -2031    -2069 
   -2266    -2548    -2749    -2770    -2651    -2443    -2196    -2008 
   -1998    -2178    -2447    -2679    -2791    -2756    -2620    -2411 
   -2172    -1988    -1942    -2041    -2184    -2224    -2126    -1991 
   -1933    -1991    -2146    -2382    -2667    -2903    -2991    -2916 
   -2748    -2575    -2419    -2276    -2153    -2065    -2020    -2023 
   -2081    -2195    -2349    -2509    -2585    -2502    -2335    -2254 
   -2326    -2488    -2624    -2623    -2479    -2303    -2128    -1961 
   -1868    -1903    -2069    -2332    -2601    -2794    -2866    -2791 
   -2608    -2419    -2303    -2232    -2137    -1979    -1784    -1659 
   -1690    -1865    -2118    -2384    -2616    -2776    -2836    -2790 
   -2660    -2493    -2340    -2251    -2254    -2312    -2362    -2359 
   -2277    -2119    -1922    -1757    -1718    -1877    -2245    -2737 
   -3179    -3350    -3121    -2585    -2039    -1765    -1858    -2242 
   -2739    -3137    -3291    -3156    -2809    -2397    -2020    -1707 
   -1517    -1528    -1756    -2139    -2544    -2843    -2963    -2883 
   -2648    -2359    -2096    -1910    -1826    -1818    -1825    -1788 
   -1691    -1598    -1597    -1691    -1846    -2076    -2386    -2685 
   -2841    -2813    -2652    -2417    -2166    -1980    -1904    -1910 
   -1995    -2201    -2542    -2974    -3366    -3546    -3434    -3072 
   -2543    -1953    -1414    -1026     -876    -1005    -1332    -1664 
   -1857    -1935    -2010    -2139    -2331    -2528    -2620    -2546 
   -2339    -2085    -1923    -1914    -1977    -2056    -2165    -2313 
   -2523    -2794    -3040    -3145    -3075    -2894    -2749    -2735 
   -2793    -2787    -2635    -2326    -1903    -1441    -1035     -747 
    -645     -842    -1402    -2236    -3138    -3885    -4334    -4401 
   -4060    -3430    -2709    -2046    -1555    -1318    -1347    -1598 
   -2038    -2598    -3146    -3542    -3680    -3538    -3198    -2745 
   -2245    -1761    -1371    -1138    -1115    -1310    -1668    -2089 
   -2463    -2743    -2974    -3180    -3306    -3273    -3053    -2681 
   -2235    -1768    -1317     -972     -850    -1013    -1410    -1892 
   -2280    -2443    -2377    -2222    -2168    -2312    -2598    -2866 
   -2972    -2857    -2539    -2103    -1702    -1458    -1414    -1613 
   -2039    -2551    -2968    -3206    -3295    -3341    -3427    -3524 
   -3488    -3153    -2509    -1773    -1212     -977    -1069    -1412 
   -1962    -2689    -3496    -4232    -4719    -4806    -4411    -3574 
   -2475    -1382     -577     -292     -581    -1278    -2092    -2764 
   -3163    -3242    -3024    -2590    -2074    -1622    -1313    -1129 
   -1048    -1073    -1208    -1425    -1686    -1946    -2162    -2327 
   -2458    -2555    -2583    -2516    -2371    -2196    -2037    -1975 
   -2112    -2486    -3010    -3503    -3743    -3620    -3217    -2698 
   -2208    -1868    -1714    -1692    -1794    -2062    -2448    -2778 
   -2920    -2895    -2768    -2554    -2262    -1926    -1564    -1225 
   -1013    -1036    -1352    -1942    -2689    -3388    -3824    -3892 
   -3605    -3052    -2355    -1641    -1020     -608     -465     -538 
    -746    -1082    -1563    -2176    -2863    -3500    -3923    -4037 
   -3869    -3470    -2925    -2376    -1942    -1667    -1553    -1617 
   -1876    -2332    -2911    -3462    -3848    -4024    -3997    -3771 
   -3346    -2778    -2207    -1788    -1597    -1599    -1675    -1683 
   -1614    -1528    -1428    -1297    -1148    -1040    -1051    -1223 
   -1540    -1941    -2359    -2760    -3080    -3222    -3130    -2874 
   -2646    -2609    -2748    -2910    -2953    -2818    -2558    -2304 
   -2135    -2019    -1911    -1782    -1633    -1532    -1544    -1690 
   -1956    -2266    -2512    -2644    -2662    -2590    -2500    -2461 
   -2508    -2594    -2606    -2505    -2350    -2180    -2023    -1929 
   -1918    -1989    -2081    -2100    -2045    -1988    -1977    -2022 
   -2101    -2166    -2176    -2124    -1981    -1726    -1416    -1170 
   -1129    -1378    -1902    -2605    -3322    -3888    -4194    -4217 
   -3997    -3613    -3173    -2776    -2470    -2250    -2074    -1931 
   -1846    -1842    -1957    -2196    -2496    -2775    -2956    -2992 
   -2891    -2704    -2479    -2234    -1989    -1803    -1753    -1877 
   -2127    -2408    -2636    -2759    -2776    -2712    -2602    -2505 
   -2447    -2430    -2444    -2450    -2412    -2344    -2273    -2230 
   -2230    -2228    -2162    -2022    -1814    -1552    -1308    -1167 
   -1138    -1210    -1420    -1772    -2187    -2535    -2695    -2569 
   -2170    -1676    -1320    -1278    -1653    -2384    -3203    -3807 
   -4014    -3821    -3348    -2755    -2220    -1900    -1844    -1981 
   -2164    -2258    -2231    -2124    -2006    -1956    -2006    -2138 
   -2293    -2389    -2376    -2282    -2193    -2195    -2363    -2700 
   -3098    -3404    -3484    -3300    -2947    -2581    -2354    -2331 
   -2457    -2629    -2739    -2702    -2516    -2239    -1962    -1806 
   -1880    -2185    -2609    -3011    -3283    -3373    -3267    -2959 
   -2509    -2049    -1696    -1493    -1429    -1436    -1413    -1327 
   -1212    -1128    -1161    -1358    -1684    -2070    -2439    -2716 
   -2872    -2916    -2839    -2662    -2477    -2358    -2288    -2239 
   -2219    -2215    -2176    -2077    -1925    -1733    -1582    -1555 
   -1655    -1856    -2133    -2420    -2675    -2876    -2986    -2999 
   -2968    -2948    -2941    -2899    -2760    -2489    -2108    -1715 
   -1459    -1453    -1691    -2058    -2405    -2606    -2590    -2355 
   -1962    -1507    -1120     -966    -1167    -1692    -2377    -3063 
   -3635    -3996    -4114    -3987    -3611    -3038    -2384    -1780 
   -1366    -1224    -1337    -1637    -2053    -2477    -2760    -2810 
   -2662    -2442    -2278    -2249    -2358    -2539    -2670    -2683 
   -2602    -2478    -2365    -2319    -2376    -2528    -2725    -2891 
   -2947    -2802    -2428    -1912    -1413    -1093    -1012    -1093 
   -1223    -1331    -1394    -1471    -1630    -1857    -2123    -2443 
   -2814    -3175    -3430    -3481    -3298    -2971    -2652    -2455 
   -2421    -2473    -2461    -2313    -2066    -1807    -1656    -1713 
   -1960    -2269    -2531    -2683    -2710    -2668    -2640    -2673 
   -2798    -2999    -3179    -3191    -2951    -2509    -1983    -1485 
   -1140    -1028    -1116    -1333    -1606    -1876    -2133    -2388 
   -2604    -2744    -2837    -2907    -2936    -2905    -2767    -2486 
   -2139    -1857    -1740    -1810    -2016    -2262    -2442    -2533 
   -2623    -2767    -2952    -3146    -3287    -3298    -3156    -2913 
   -2627    -2336    -2066    -1818    -1649    -1647    -1819    -2087 
   -2362    -2574    -2681    -2677    -2551    -2245    -1738    -1167 
    -747     -634     -847    -1271    -1721    -2056    -2250    -2305 
   -2205    -2008    -1791    -1609    -1572    -1777    -2172    -2592 
   -2878    -2955    -2910    -2918    -3076    -3356    -3636    -3785 
   -3727    -3496    -3235    -3060    -2975    -2964    -3001    -3019 
   -2979    -2841    -2560    -2154    -1694    -1291    -1058    -1039 
   -1239    -1580    -1917    -2181    -2357    -2419    -2458    -2560 
   -2691    -2810    -2901    -2903    -2794    -2612    -2380    -2084 
   -1750    -1453    -1262    -1250    -1490    -1903    -2297    -2552 
   -2605    -2451    -2188    -1931    -1776    -1806    -2026    -2349 
   -2666    -2876    -2879    -2631    -2203    -1722    -1318    -1111 
   -1190    -1555    -2061    -2501    -2749    -2785    -2656    -2443 
   -2216    -2043    -1992    -2084    -2259    -2466    -2714    -2972 
   -3175    -3312    -3354    -3253    -3059    -2808    -2501    -2200 
   -1937    -1721    -1618    -1657    -1807    -2046    -2342    -2651 
   -2955    -3196    -3296    -3272    -3159    -2997    -2870    -2758 
   -2613    -2457    -2266    -2006    -1729    -1526    -1449    -1539 
   -1823    -2184    -2463    -2600    -2544    -2343    -2101    -1871 
   -1695    -1609    -1610    -1675    -1763    -1844    -1879    -1856 
   -1803    -1757    -1755    -1786    -1829    -1861    -1899    -2031 
   -2284    -2581    -2826    -2929    -2867    -2701    -2508    -2338 
