Origin Time       2025/03/30 22:55:00
Lat.              41.993
Long.             142.725
Depth. (km)       55
Mag.              4.6
Station Code      HKD100
Station Lat.      42.2864
Station Long.     143.3120
Station Height(m) 36
Record Time       2025/03/30 22:56:20
Sampling Freq(Hz) 100Hz
Duration Time(s)  60
Dir.              U-D
Scale Factor      7845(gal)/8223790
Max. Acc. (gal)   2.762
Last Correction   2025/03/30 22:56:20
Memo.             
    3936     3935     3935     3937     3936     3935     3937     3936 
    3933     3935     3935     3935     3935     3935     3936     3937 
    3933     3935     3940     3937     3933     3935     3933     3935 
    3939     3937     3937     3937     3935     3935     3937     3937 
    3936     3935     3937     3940     3933     3931     3936     3937 
    3937     3937     3937     3935     3935     3935     3935     3939 
    3939     3935     3935     3939     3939     3936     3936     3937 
    3936     3936     3937     3937     3935     3935     3935     3935 
    3936     3937     3933     3933     3937     3937     3933     3933 
    3937     3939     3936     3937     3939     3935     3935     3939 
    3940     3937     3936     3936     3937     3939     3939     3937 
    3935     3935     3937     3937     3939     3936     3931     3932 
    3939     3942     3936     3933     3935     3939     3939     3936 
    3936     3936     3936     3937     3940     3939     3935     3932 
    3933     3937     3940     3936     3933     3937     3942     3936 
    3933     3935     3936     3935     3935     3936     3936     3937 
    3939     3939     3936     3935     3935     3933     3936     3939 
    3937     3933     3932     3935     3936     3936     3937     3935 
    3932     3935     3939     3939     3935     3931     3933     3940 
    3939     3935     3935     3936     3933     3935     3939     3939 
    3936     3935     3935     3936     3937     3937     3933     3933 
    3937     3939     3936     3936     3935     3935     3935     3936 
    3940     3936     3931     3933     3939     3937     3935     3933 
    3936     3939     3940     3939     3936     3936     3937     3936 
    3937     3937     3933     3937     3939     3936     3935     3939 
    3940     3933     3932     3937     3939     3933     3931     3931 
    3935     3939     3937     3933     3936     3939     3937     3936 
    3935     3936     3939     3937     3937     3935     3933     3935 
    3936     3935     3933     3935     3936     3937     3936     3933 
    3935     3937     3936     3935     3935     3937     3937     3935 
    3935     3936     3937     3936     3933     3935     3936     3933 
    3935     3937     3936     3933     3932     3935     3937     3936 
    3933     3937     3939     3936     3936     3936     3933     3936 
    3937     3935     3936     3932     3931     3937     3939     3936 
    3932     3932     3939     3939     3933     3936     3937     3936 
    3935     3935     3937     3937     3935     3937     3942     3937 
    3933     3935     3939     3940     3937     3933     3933     3936 
    3936     3939     3942     3937     3935     3933     3933     3939 
    3939     3935     3933     3935     3935     3936     3936     3935 
    3935     3936     3937     3937     3933     3932     3936     3940 
    3937     3935     3935     3937     3939     3935     3933     3937 
    3937     3933     3932     3937     3939     3935     3933     3937 
    3940     3936     3936     3935     3935     3935     3936     3936 
    3939     3940     3935     3936     3939     3937     3933     3936 
    3940     3939     3935     3931     3935     3937     3935     3935 
    3940     3942     3937     3933     3936     3936     3933     3935 
    3939     3937     3933     3933     3937     3939     3936     3933 
    3933     3937     3937     3935     3936     3935     3935     3936 
    3936     3935     3936     3933     3935     3939     3939     3935 
    3935     3939     3937     3933     3935     3937     3935     3932 
    3932     3933     3935     3936     3936     3937     3936     3932 
    3932     3935     3936     3937     3936     3936     3937     3935 
    3933     3935     3936     3936     3935     3936     3937     3935 
    3933     3933     3937     3937     3935     3932     3932     3936 
    3937     3935     3936     3936     3931     3931     3933     3935 
    3935     3936     3936     3935     3933     3935     3936     3935 
    3936     3936     3935     3937     3937     3933     3933     3936 
    3937     3935     3933     3935     3936     3933     3932     3935 
    3937     3936     3936     3937     3935     3935     3937     3937 
    3936     3935     3935     3936     3936     3933     3935     3937 
    3940     3937     3932     3933     3937     3935     3935     3939 
    3937     3935     3936     3936     3935     3933     3933     3933 
    3936     3937     3935     3933     3936     3937     3935     3932 
    3933     3933     3932     3936     3939     3939     3935     3932 
    3935     3937     3933     3931     3935     3937     3937     3939 
    3937     3935     3935     3936     3936     3935     3935     3935 
    3936     3937     3937     3936     3937     3937     3936     3937 
    3937     3937     3947     3963     3990     4031     4074     4104 
    4118     4113     4087     4041     3956     3835     3736     3738 
    3842     3940     3944     3919     4010     4195     4270     4093 
    3789     3654     3754     3817     3680     3496     3478     3628 
    3794     3901     4017     4197     4338     4244     3932     3700 
    3672     3694     3720     3801     3927     4149     4526     4776 
    4491     3744     3129     3173     3723     4075     4047     4167 
    4553     4822     4854     4560     3823     3028     2718     2882 
    3015     3114     3874     5134     5649     5086     4365     3936 
    3292     2362     2039     2776     3978     4970     5385     5209 
    5066     5204     4583     2673     1040     1401     3221     4526 
    4533     4380     5113     6031     5632     3677     1804     1764 
    3215     4274     4113     3794     4581     5864     5890     4502 
    2914     2056     2367     3411     4307     4734     4723     4526 
    4294     3888     3507     3414     3418     3588     4155     4918 
    5333     4645     3190     2513     2934     3497     3586     3280 
    3484     4747     5971     5944     4904     3753     3065     2790 
    2528     2365     2794     3821     4953     5674     5617     4737 
    3370     2477     2894     3923     4465     4468     4271     4191 
    4364     4324     3518     2454     2424     3663     4946     5242 
    4804     4475     4410     4043     3303     2786     2826     3461 
    4275     4606     4553     4519     4436     4081     3422     2899 
    2988     3468     3927     4322     4765     5200     5065     4176 
    3375     3051     3006     3314     3748     3904     3905     4106 
    4544     4739     4222     3488     3427     3843     3975     3801 
    3672     3735     4122     4553     4380     3839     3728     4055 
    4116     3620     3357     3778     4048     3886     4020     4441 
    4514     4158     3834     3836     3827     3474     3024     2891 
    3510     4603     5019     4498     3932     4101     4789     4765 
    3605     2560     2687     3653     4384     4186     3624     3782 
    4617     5170     4792     3829     3096     2994     3627     4445 
    4414     3589     3183     3902     4870     4895     4129     3458 
    3343     3534     3578     3404     3285     3586     4230     4685 
    4719     4450     4106     4139     4359     3807     2740     2663 
    3852     4745     4222     3295     3466     4515     5148     4739 
    3794     3480     4064     4405     3836     2936     2693     3538 
    4477     4448     4083     4297     4860     4924     3900     2733 
    2884     3753     3909     3380     3175     3963     5209     5643 
    4876     3550     2664     2995     3839     3896     3435     3646 
    4730     5489     4903     3639     2991     3165     3508     3646 
    3712     4027     4537     4692     4455     4180     3831     3415 
    3191     3319     3703     4116     4536     4851     4715     4267 
    4006     3766     3009     2239     2533     3672     4591     4877 
    4812     4791     4754     4243     3252     2558     2704     3487 
    4353     4680     4577     4557     4446     4112     3782     3574 
    3825     4434     4392     3655     3234     3442     3923     3824 
    2943     2722     3758     4891     5362     5161     4581     4014 
    3487     3141     3092     2920     2691     3208     4644     5880 
    5806     4968     4496     4245     3411     2022     1470     2830 
    4711     5080     4290     4005     4527     4703     3935     3088 
    2979     3558     4469     4807     4248     3966     4356     4585 
    4291     3481     2621     2778     3788     4216     3788     3599 
    4387     5471     5364     3944     2732     2702     3470     4203 
    4464     4557     4587     4214     3850     3804     3537     2982 
    2683     3173     4226     4688     4488     4752     5242     4900 
    4098     3415     2625     2110     2434     3434     4666     5364 
    5151     4688     4280     3701     3283     3338     3751     4082 
    3881     3727     4058     4203     4093     4180     4270     4020 
    3445     2952     3126     3931     4738     5032     4608     3854 
    3534     3736     3762     3283     2988     3520     4498     5036 
    4743     4036     3553     3631     4068     4201     3727     3123 
    3073     3784     4479     4325     3974     4322     4631     4035 
    3150     3026     3829     4689     4698     4172     3866     3692 
    3534     3677     3878     3734     3573     3735     4047     4311 
    4259     3898     3836     4151     4386     4364     4010     3535 
    3294     3333     3647     4085     4363     4433     4473     4537 
    4166     3150     2412     2909     4189     4997     4939     4729 
    4881     4795     3785     2565     2269     2709     3229     3985 
    4919     5263     4823     4226     4274     4804     4270     2567 
    1884     3021     4554     5005     4187     3535     3886     4206 
    3969     3694     3582     3817     4224     4206     4056     3946 
    3497     3183     3433     4043     4648     4648     4113     3627 
    3418     3850     4648     4503     3528     3384     4207     4546 
    3743     2735     3063     4442     4916     4418     4158     3963 
    3835     4283     4676     4382     3759     3379     3410     3468 
    3477     3782     4056     3996     4014     4160     4334     4531 
    4287     3920     3973     3696     3026     2844     3186     3886 
    4673     4783     4126     3397     3092     3350     4006     4671 
    4943     4428     3415     3198     4174     4884     4244     3198 
    3148     4010     4729     4568     3628     2848     3095     4110 
    4749     4425     4001     4382     4877     4360     3357     3200 
    3631     3630     3438     3477     3582     3912     4453     4743 
    4704     4525     4375     4071     3146     2350     2855     3847 
    4027     3993     4523     4739     4059     3600     3996     4306 
    3906     3470     3609     4035     4372     4396     4059     3936 
    4365     4511     3653     2658     2906     4374     5513     5093 
    3747     2934     3188     3785     3662     3071     3210     4340 
    5498     5421     4163     3341     3608     4025     3970     3468 
    2986     3281     4187     4795     4846     4661     4221     3306 
    2431     2299     2786     3632     4685     5487     5652     5089 
    4164     3676     3848     4039     3649     2648     1752     2116 
    3684     4992     5343     5239     5198     5235     4864     3831 
    2633     2139     2674     3358     3424     3566     4556     5714 
    5788     4591     3307     2990     3403     3889     4163     4129 
    4125     4448     4509     3711     2504     2174     3353     4558 
    4321     3609     3809     4414     4214     3418     3186     3686 
    4314     4653     4460     4135     4249     4247     3659     3339 
    3808     4483     4498     3724     3368     4036     4737     4827 
    4409     3928     4014     4276     3971     3416     3202     3515 
    4145     4413     4072     3813     3956     3828     3215     2984 
    3720     4681     4897     4660     4414     3750     2789     2412 
    2799     3261     3537     3940     4437     4707     4572     4105 
    3750     3935     4299     4221     3915     3735     3765     4263 
    4885     4617     3439     2945     4120     5440     5120     3801 
    3142     3588     4307     4109     2928     2215     2971     4313 
    4665     3898     3384     3858     4584     4727     4514     4513 
    4515     4139     3532     2960     2779     3272     3975     4313 
    4261     3950     3788     4067     4490     4739     4525     3886 
    3318     3113     3357     3828     4121     4268     4355     4109 
    3600     3423     3631     3678     3686     3991     4137     3906 
    3871     4194     4394     4309     4267     4356     4190     3658 
    3319     3584     4212     4749     4800     4303     3732     3531 
    3534     3446     3497     3917     4425     4711     4591     3909 
    3048     2790     3234     3640     3630     3699     4162     4769 
    5121     4779     3844     3075     3040     3727     4498     4718 
    4577     4430     4199     3954     3848     3751     3636     3727 
    4041     4380     4568     4514     4241     3838     3342     2841 
    2814     3504     4077     3933     3665     3807     4245     4541 
    4336     3913     3805     3963     4001     3915     3869     3960 
    4294     4567     4347     3842     3577     3709     3975     3951 
    3470     2978     3032     3690     4336     4263     3877     4028 
    4282     3792     3084     3013     3225     3345     3863     4842 
    5421     5136     4571     4059     3391     2995     3276     3661 
    3643     3531     3962     4951     5580     5282     4432     3511 
    3123     3555     3962     3628     2886     2270     2184     2729 
    3612     4506     5062     5121     5086     5148     4750     3723 
    2855     2747     3180     3682     3979     4050     4144     4521 
    4939     4810     4186     3754     3524     3146     3059     3568 
    4147     4351     4144     3812     3813     4082     4205     4121 
    3923     3728     3723     3954     4322     4629     4676     4450 
    4031     3523     3142     3140     3495     4001     4540     4824 
    4677     4518     4575     4376     3680     3002     2938     3292 
    3396     3327     3689     4422     4783     4396     3882     3727 
    3576     3468     3797     4221     4148     3562     2975     2944 
    3727     5101     6057     5759     4684     3591     2633     2065 
    2378     3489     4564     5077     5455     5838     5355     3890 
    2683     2292     2263     2592     3395     4160     4526     4683 
    4714     4575     4637     4873     4477     3553     3152     3439 
    3793     3817     3572     3607     4152     4615     4452     3755 
    3269     3501     3908     3956     3626     3064     3024     3828 
    4463     4295     4004     4298     4955     5073     4202     3049 
    2578     2943     3600     4001     3979     3686     3642     4324 
    5266     5481     4808     3940     3366     3191     3423     3794 
    4253     4972     5364     4756     3510     2552     2450     3001 
    3592     3870     3778     3630     4012     4760     4966     4407 
    3789     3667     3879     3982     3858     3655     3457     3407 
    3591     3820     4024     4261     4455     4595     4614     4372 
    4132     4124     3977     3574     3392     3565     3879     4338 
    4722     4502     3628     2758     2523     2739     2998     3538 
    4419     5090     5270     5057     4580     4071     3781     3773 
    3960     4270     4522     4320     3694     3312     3284     3160 
    3191     3642     3940     3974     4305     4872     5057     4608 
    3869     3307     3056     3072     3381     3919     4402     4457 
    3931     3219     2961     3206     3496     3713     4040     4411 
    4533     4378     4229     4085     3786     3631     3873     4152 
    4033     3600     3402     3892     4857     5526     5368     4575 
    3655     2971     2772     3075     3404     3387     3319     3681 
    4318     4631     4634     4750     4835     4590     4151     3743 
    3468     3380     3431     3581     3835     4110     4297     4303 
    4137     3951     3739     3456     3348     3592     3927     4099 
    4205     4313     4297     4052     3735     3638     3659     3650 
    3932     4409     4334     3654     3122     3136     3491     3850 
    4158     4471     4549     4477     4764     5196     4995     4091 
    3184     2781     2899     3395     3964     4195     4140     4243 
    4414     4224     3877     3763     3875     4114     4236     3937 
    3407     3075     2929     2716     2625     3242     4671     5968 
    6158     5383     4287     3326     2921     3145     3574     3816 
    3856     3924     4110     4298     4477     4579     4275     3628 
    3260     3510     4025     4268     4136     3823     3528     3481 
    3805     4329     4635     4537     4260     3944     3589     3306 
    3213     3280     3497     3943     4380     4352     3969     3770 
    3867     4002     4198     4587     4908     4796     4256     3541 
    2940     2799     3275     4045     4598     4762     4715     4504 
    4116     3694     3372     3260     3412     3649     3716     3569 
    3433     3634     4141     4502     4504     4301     4035     3846 
    3694     3451     3169     3029     3245     3705     4025     4195 
    4430     4698     4793     4572     4128     3742     3627     3905 
    4448     4722     4503     4064     3535     3094     3060     3254 
    3392     3690     4220     4598     4629     4509     4360     4020 
    3570     3423     3478     3358     3319     3655     4031     4190 
    4379     4769     4962     4492     3669     3156     3071     3230 
    3593     4008     4213     4201     4185     4129     3771     3346 
    3449     4014     4409     4294     3828     3446     3497     3932 
    4441     4715     4634     4334     3998     3757     3658     3665 
    3726     3878     4201     4513     4392     3765     3107     2894 
    3229     3996     4722     4892     4641     4421     4301     4114 
    3846     3620     3605     3746     3801     3784     3707     3512 
    3481     3832     4309     4565     4513     4295     4108     4039 
    4055     4037     3898     3694     3550     3468     3357     3273 
    3447     3888     4257     4369     4313     4203     4178     4251 
    4224     3963     3616     3501     3689     3873     3867     3828 
    3886     3970     3915     3674     3454     3447     3593     3808 
    4000     4023     3923     3910     4087     4302     4270     3977 
    3771     3881     4079     4043     3809     3680     3819     4133 
    4364     4282     3956     3677     3593     3720     4004     4166 
    3956     3635     3713     4255     4784     4903     4612     4121 
    3680     3538     3674     3754     3680     3639     3620     3566 
    3657     3932     4121     4099     4105     4266     4376     4357 
    4272     3897     3164     2686     3051     4052     4877     4872 
    4241     3759     3838     4253     4484     4251     3848     3690 
