Origin Time       2025/03/30 22:55:00
Lat.              41.993
Long.             142.725
Depth. (km)       55
Mag.              4.6
Station Code      HKD100
Station Lat.      42.2864
Station Long.     143.3120
Station Height(m) 36
Record Time       2025/03/30 22:56:20
Sampling Freq(Hz) 100Hz
Duration Time(s)  60
Dir.              N-S
Scale Factor      7845(gal)/8223790
Max. Acc. (gal)   4.667
Last Correction   2025/03/30 22:56:20
Memo.             
[...]
    -750     -749     -746     -749     -753     -749     -746     -747 
    -750     -749     -749     -746     -745     -746     -749     -751 
    -750     -746     -749     -753     -751     -749     -747     -746 
    -747     -749     -746     -746     -749     -749     -747     -749 
    -753     -753     -747     -746     -749     -750     -749     -747 
    -746     -746     -745     -745     -747     -749     -747     -745 
    -746     -747     -747     -745     -747     -751     -750     -747 
    -747     -749     -750     -749     -747     -750     -750     -749 
    -749     -749     -746     -745     -747     -753     -750     -745 
    -745     -747     -747     -746     -749     -751     -749     -745 
    -746     -749     -750     -747     -745     -747     -751     -751 
    -747     -747     -749     -749     -746     -745     -749     -751 
    -750     -749     -747     -747     -747     -746     -746     -750 
    -746     -742     -746     -751     -750     -750     -753     -750 
    -745     -746     -750     -749     -746     -746     -750     -750 
    -749     -747     -749     -751     -750     -747     -747     -750 
    -749     -747     -747     -747     -747     -745     -746     -751 
    -750     -743     -745     -750     -751     -750     -746     -749 
    -750     -747     -746     -750     -749     -747     -749     -749 
    -747     -747     -749     -749     -749     -747     -746     -747 
    -749     -747     -747     -749     -749     -749     -746     -749 
    -753     -751     -746     -745     -746     -750     -750     -747 
    -746     -749     -750     -749     -751     -750     -747     -749 
    -751     -750     -749     -747     -749     -747     -747     -749 
    -747     -746     -746     -749     -754     -753     -747     -749 
    -751     -750     -747     -745     -747     -749     -746     -747 
    -747     -749     -749     -746     -745     -749     -750     -746 
    -746     -750     -749     -746     -746     -750     -753     -747 
    -745     -749     -749     -749     -747     -747     -747     -747 
    -745     -747     -750     -749     -751     -751     -747     -747 
    -745     -746     -750     -746     -739     -746     -750     -747 
    -743     -747     -751     -749     -746     -747     -750     -749 
    -747     -749     -749     -747     -745     -745     -747     -750 
    -747     -746     -747     -747     -746     -745     -746     -750 
    -749     -745     -746     -747     -747     -747     -747     -749 
    -750     -749     -749     -751     -749     -745     -749     -750 
    -747     -745     -746     -746     -743     -745     -747     -749 
    -747     -747     -746     -745     -745     -746     -746     -746 
    -745     -743     -745     -749     -750     -749     -746     -746 
    -749     -751     -747     -743     -746     -747     -745     -749 
    -753     -750     -745     -745     -747     -749     -749     -747 
    -745     -746     -747     -747     -749     -749     -747     -749 
    -750     -749     -749     -749     -747     -746     -746     -745 
    -746     -747     -746     -743     -749     -753     -747     -737 
    -729     -724     -718     -706     -695     -685     -685     -691 
    -695     -699     -706     -723     -760     -793     -793     -765 
    -747     -758     -784     -774     -716     -693     -727     -761 
    -793     -823     -849     -889     -903     -874     -877     -909 
    -881     -764     -666     -657     -658     -648     -654     -642 
    -638     -712     -777     -785     -846     -881     -726     -595 
    -648     -668     -648     -677     -604     -549     -700     -805 
    -805     -864     -783     -579     -595     -768     -828     -811 
    -873     -958     -935     -973    -1105     -935     -507     -348 
    -522     -645     -583     -594     -862    -1132    -1086     -870 
    -780     -778     -729     -588     -392     -419     -849    -1291 
   -1301     -988     -778     -842     -834     -392      126       78 
    -433     -720     -756    -1039    -1360    -1360    -1129     -606 
    -209     -450     -642     -264       24     -426    -1367    -1865 
   -1451     -625     -171     -469     -992     -808     -197     -241 
    -985    -1737    -1957    -1343     -548     -432     -552     -322 
     -89     -140     -394     -683     -720     -529     -517     -843 
   -1266    -1363    -1063     -881     -993    -1139    -1262    -1124 
    -569       36      315       91     -375     -616     -681     -866 
   -1236    -1622    -1741    -1345     -527      116      162     -240 
    -816    -1235    -1345    -1435    -1387     -928     -517     -288 
      67      278       74     -405    -1020    -1491    -1524    -1201 
    -980    -1053    -1000     -699     -499     -473     -607     -780 
    -707     -576     -606     -611     -611     -781     -865     -616 
    -437     -673    -1034    -1129     -891     -634     -610     -634 
    -718     -989    -1077     -864     -657     -495     -481     -600 
    -477     -315     -490     -874    -1345    -1489     -973     -495 
    -576     -815     -851     -719     -715     -851     -777     -679 
    -766     -781     -708     -679     -704     -784     -920    -1042 
    -837     -313     -157     -653    -1223    -1321     -905     -418 
    -282     -361     -467     -589     -700     -745     -583     -515 
    -895    -1215    -1011     -645     -603     -842    -1047    -1003 
    -639     -318     -454     -930    -1348    -1337     -897     -576 
    -679     -897     -843     -479     -267     -503     -696     -527 
    -484     -799    -1075    -1140    -1127    -1030     -831     -691 
    -774     -819     -540     -180      -33     -411    -1282    -1676 
   -1314     -962     -745     -642     -803     -749     -264      121 
     -44     -649    -1085    -1131    -1162    -1212     -981     -523 
    -162     -156     -380     -410     -334     -583    -1094    -1570 
   -1775    -1557    -1100     -800     -739     -684     -364      225 
     383     -313    -1093    -1343    -1194     -962     -945    -1074 
   -1020     -672     -353     -403     -608     -766     -857     -828 
    -853     -966     -999     -877     -708     -751     -787     -506 
    -211     -187     -504    -1062    -1254     -812     -564     -936 
   -1240    -1220     -942     -305       63     -172     -368     -341 
    -330     -444     -830    -1169    -1259    -1439    -1489    -1233 
   -1001     -684     -486     -704     -615     -141     -253     -830 
   -1069    -1031    -1048    -1109    -1053     -711     -255     -197 
    -479     -527     -400     -500     -762     -945     -911     -824 
    -896     -900     -796     -974    -1301    -1246     -776     -301 
    -355     -812     -770     -367     -403     -608     -747     -911 
    -714     -440     -696     -959     -847     -785     -681     -519 
    -819    -1212     -954     -413     -307     -680    -1032     -978 
    -807     -872    -1131    -1304     -900     -317     -457     -803 
    -660     -531     -726    -1000    -1188     -992     -407      -86 
    -194     -494    -1067    -1389    -1048     -734     -757     -907 
   -1054     -842     -418     -221      -68       58      -63     -396 
    -827    -1092    -1194    -1385    -1459    -1296    -1193    -1047 
    -637     -400     -599     -847    -1026    -1058     -741     -514 
    -598     -500     -248     -145      -85     -120     -419     -846 
   -1250    -1579    -1678    -1391     -962     -834     -985    -1023 
    -846     -681     -630     -544     -241       87        9     -328 
    -422     -436     -683     -897     -950    -1082    -1385    -1728 
   -1695    -1100     -585     -588     -629     -471     -415     -442 
    -515     -618     -510     -425     -562     -681     -885    -1093 
    -957     -715     -707     -903    -1046     -957     -801     -762 
    -828     -903     -826     -572     -427     -517     -477     -409 
    -768    -1155    -1100     -878     -716     -754     -947     -823 
    -637     -881     -858     -193      270      -25     -824    -1200 
    -695     -396     -847    -1213    -1325    -1455    -1383    -1093 
    -688     -356     -463     -580     -230       18     -135     -545 
    -994     -953     -665     -762    -1115    -1494    -1495     -849 
    -272     -226     -411     -803    -1097     -774     -633    -1198 
   -1375     -986     -675     -337     -221     -310     -216     -487 
    -980     -916     -812    -1174    -1537    -1525    -1239    -1007 
    -778     -356     -116     -114       58        0     -507     -778 
    -703     -483     -396    -1078    -1848    -1529     -791     -526 
    -403     -390     -864    -1313    -1173     -923     -970    -1044 
    -874     -368      243      436      -39     -872    -1441    -1433 
   -1134     -892     -837    -1040    -1215     -996     -658     -434 
    -184     -132     -457     -750     -811     -908     -958     -727 
    -687    -1026    -1044     -758     -801     -881     -596     -444 
    -688     -859     -735     -584     -546     -629     -911    -1179 
   -1032     -614     -550    -1059    -1463    -1057     -288     -203 
    -805     -990     -585     -567     -916     -924     -683     -445 
    -213     -210     -544     -972    -1277    -1296    -1129    -1059 
    -885     -549     -454     -607     -677     -495     -346     -521 
    -664     -781    -1212    -1414     -962     -295      121      -94 
    -957    -1580    -1251     -560     -472     -949    -1363    -1254 
    -461      256      -28     -746     -892     -637     -598     -842 
   -1036     -908     -562     -486     -849    -1216    -1283    -1089 
    -834     -789     -842     -654     -144      433      599      221 
    -419    -1094    -1711    -2301    -2694    -2509    -1809     -967 
    -271       66      195      399      504      288     -195     -907 
   -1497    -1428     -866     -499     -652     -940     -936     -824 
    -718     -687    -1179    -1917    -2056    -1424     -668     -546 
    -712     -287      409      691      573      189      -31       97 
    -270    -1206    -1860    -2187    -2222    -1836    -1378     -835 
    -141      278      228      -97     -234     -136     -486    -1231 
   -1505    -1304    -1092     -720     -402     -642     -864     -648 
    -577     -814    -1154    -1537    -1691    -1445     -981     -486 
    -137     -222     -627     -846     -804     -778     -820     -831 
    -837     -849     -664     -249      -55     -384     -791     -808 
    -633     -558     -565     -554     -700    -1297    -1849    -1548 
    -830     -603     -708     -673     -562     -464     -403     -550 
    -787     -810     -739     -634     -305     -116     -359     -756 
   -1256    -1715    -1682    -1309    -1105    -1013     -693     -175 
      33     -228     -307      -39       59      -91     -494    -1096 
   -1480    -1510    -1358    -1178    -1124    -1123     -920     -592 
    -457     -419     -380     -561     -729     -706     -911    -1188 
   -1007     -645     -510     -459     -388     -307     -132      -43 
    -326    -1001    -1794    -2143    -1800    -1244     -963     -984 
    -982     -622     -201     -305     -746    -1140    -1579    -1871 
   -1752    -1547    -1521    -1652    -1730    -1335     -549      124 
     499      592      589      592      328     -167     -602    -1047 
   -1390    -1251     -762     -259      118      128     -205     -375 
    -207       -5        0     -270     -783    -1290    -1417    -1189 
    -988    -1004    -1206    -1255     -760       -4      525      793 
     808      429     -294    -1144    -1908    -2385    -2670    -2926 
   -2943    -2535    -1674     -369      834     1146      598     -113 
    -531     -704     -939    -1344    -1733    -1871    -1428     -422 
     422      608      423       90     -503    -1174    -1822    -2652 
   -3369    -3277    -2066     -247     1198     1806     1607      830 
      70     -422     -923    -1509    -2120    -2498    -2330    -1857 
   -1336     -677     -106       81      170      687     1588     2220 
    2101     1305      102    -1217    -2212    -2648    -2785    -2770 
   -2563    -2257    -1807    -1314    -1166    -1281    -1321    -1233 
    -926     -471     -233     -214     -149       79      430      436 
    -203     -843     -958     -822     -568     -276     -264     -488 
    -834    -1258    -1244     -625      -87      110      306      405 
     198     -216     -799    -1348    -1722    -2170    -2702    -3119 
   -3265    -2797    -1642     -261      760      993      486     -233 
    -639     -592     -506     -828    -1382    -1645    -1471    -1435 
   -1826    -1757     -681      585     1194     1051      469     -121 
    -159      461      730       18     -805     -966     -575     -108 
    -274    -1375    -2687    -3264    -2893    -1971    -1054     -519 
    -306      -95      333      892     1115      571     -598    -1642 
   -1890    -1521    -1124     -913     -955    -1243    -1617    -1848 
   -1588     -909     -342      -33       89       33      -66     -340 
    -981    -1879    -2710    -2813    -2043    -1190     -706     -580 
    -727     -660     -216      -22     -396     -858     -846     -205 
     758     1478     1682     1551     1235      820      527      326 
    -149    -1039    -1973    -2641    -3389    -4469    -5385    -5640 
   -4887    -3100    -1246      -79      823     1912     3094     4028 
    3983     2442      164    -1402    -1798    -1863    -2513    -3703 
   -4634    -4467    -3007    -1248     -527     -901    -1220     -494 
    1287     3125     3780     2986     1661      781      469      233 
    -356    -1420    -2772    -3809    -4067    -4041    -4176    -3882 
   -2817    -1305      518     2312     3389     3433     2797     2142 
    1582      831      -27     -912    -1865    -2554    -2656    -2270 
   -1894    -2215    -3298    -4355    -4695    -4170    -3015    -1749 
    -720       51      618     1156     1656     1563      507    -1111 
   -2465    -2930    -2332     -889      687     1645     2084     2671 
    3534     3958     3105      859    -1723    -3150    -3137    -2650 
   -2462    -2698    -2940    -2506    -1309      -81      329      -87 
    -380      112      924      934     -645    -3238    -5173    -5427 
   -4531    -3580    -3098    -2906    -2351     -936      928     2276 
    2664     2556     2708     3233     3476     2957     1821      298 
   -1341    -2623    -3318    -3672    -4035    -4237    -3608    -1964 
      14     1472     1821     1112      226     -255     -569     -708 
    -486     -193      -21       81       78       33      -81     -554 
   -1467    -2585    -3690    -4548    -4787    -4179    -2856    -1286 
     -98      365      508     1189     2466     3168     2430      837 
    -514     -965     -557     -184     -757    -2228    -3715    -4210 
   -3565    -2540    -1728    -1119     -449      499     1559     2220 
    2134     1390      519      132      244      329       20     -706 
   -1610    -2299    -2749    -3210    -3593    -3667    -3404    -2794 
   -1841     -726      307     1036     1359     1444     1437     1305 
    1086      835      471        6     -469    -1043    -1817    -2582 
   -3034    -3180    -3207    -3002    -2223     -919      411     1333 
    1664     1362      706      205      -22     -190     -368     -642 
   -1013    -1237    -1134     -720     -387     -768    -1871    -2933 
   -3273    -2857    -2061    -1251     -650     -122      627     1336 
    1464      999      346     -178     -600    -1039    -1514    -2027 
   -2393    -2328    -1950    -1638    -1486    -1456    -1533    -1377 
    -692      274     1047     1355     1325     1121      675       -4 
    -895    -1904    -2520    -2388    -1780    -1121     -739     -715 
    -746     -494       94      656      665      132     -448     -827 
   -1104    -1474    -2064    -2606    -2602    -1975    -1175     -796 
   -1067    -1543    -1567     -912      126      885      984      695 
     525      793     1228     1120      253     -957    -2060    -2741 
   -2922    -2924    -3083    -3202    -2847    -1964     -946     -278 
    -143     -301     -222      567     1788     2500     2145     1057 
      27     -480     -754    -1344    -2299    -3160    -3485    -3053 
   -1999     -818      167      977     1528     1664     1389      683 
    -415    -1462    -2011    -2115    -2056    -2097    -2359    -2560 
   -2347    -1794    -1138     -687     -729     -965     -835     -199 
     714     1422     1452      793       -4     -400     -529     -803 
   -1279    -1775    -2011    -1831    -1502    -1366    -1443    -1424 
    -977     -333      -29      -76      -99      171      711     1055 
     742     -109     -972    -1383    -1350    -1301    -1509    -1823 
   -1857    -1283     -314      403      569      346       -5     -263 
    -506     -994    -1570    -1919    -2064    -2173    -2288    -2176 
   -1586     -778     -310     -322     -484     -413       59      710 
     962      525     -182     -496     -168      378      345     -581 
   -1760    -2257    -1885    -1339    -1266    -1582    -1767    -1410 
    -558      276      450     -252    -1289    -1908    -1904    -1520 
   -1038     -603     -247      -14       87       78     -155     -733 
   -1617    -2596    -3214    -3096    -2446    -1707    -1054     -407 
     453     1518     2339     2478     1890      762     -584    -1657 
   -2093    -2062    -1981    -2100    -2315    -2193    -1503     -569 
      98      292      184      -35     -291     -518     -792    -1192 
   -1458    -1362    -1055     -716     -423     -217      -51      -94 
    -484     -882    -1003     -950     -911    -1081    -1443    -1617 
   -1296     -558      221      629      541      226       66       85 
    -132     -783    -1456    -1703    -1560    -1317    -1216    -1429 
   -1744    -1547     -720      207      726      642      305      180 
     110     -224     -783    -1493    -2245    -2749    -2940    -2972 
   -2776    -2147    -1050      248     1221     1571     1437     1017 
     399     -410    -1435    -2488    -3211    -3356    -2787    -1729 
    -839     -384        6      567     1256     1873     2002     1513 
     708      -94     -658     -957    -1398    -2285    -3253    -3750 
   -3592    -2982    -2307    -1771    -1323     -895     -471      -13 
     475      855     1107     1367     1579     1505      924     -170 
   -1331    -2073    -2353    -2412    -2555    -2828    -2824    -2205 
   -1078      209     1212     1587     1431     1156      942      572 
    -132     -982    -1613    -1777    -1520    -1219    -1279    -1645 
   -1985    -2130    -2053    -1837    -1587    -1233     -702      -60 
     662     1405     1885     1858     1329      446     -550    -1382 
   -1962    -2417    -2724    -2660    -2169    -1463     -803     -306 
    -116     -346     -783    -1070    -1093     -967     -869     -835 
    -726     -418        1      264      116     -519    -1344    -1906 
   -2065    -1885    -1471    -1027     -649     -290       44      311 
