Origin Time       2025/03/30 22:55:00
Lat.              41.993
Long.             142.725
Depth. (km)       55
Mag.              4.6
Station Code      HKD185
Station Lat.      42.7756
Station Long.     141.4016
Station Height(m) 266
Record Time       2025/03/30 22:56:41
Sampling Freq(Hz) 100Hz
Duration Time(s)  60
Dir.              E-W
Scale Factor      7845(gal)/8223790
Max. Acc. (gal)   1.833
Last Correction   2025/03/30 22:56:41
Memo.             
[...]
   -4367    -4264    -4301    -4486    -4703    -4804    -4693    -4449 
   -4293    -4287    -4302    -4313    -4398    -4465    -4390    -4249 
   -4195    -4282    -4477    -4658    -4673    -4529    -4425    -4457 
   -4469    -4371    -4342    -4476    -4550    -4436    -4259    -4153 
   -4226    -4475    -4676    -4648    -4457    -4291    -4283    -4398 
   -4518    -4619    -4641    -4515    -4359    -4287    -4291    -4395 
   -4569    -4665    -4617    -4456    -4260    -4182    -4286    -4414 
   -4411    -4317    -4301    -4456    -4630    -4669    -4619    -4507 
   -4345    -4274    -4341    -4464    -4571    -4590    -4513    -4392 
   -4248    -4207    -4391    -4652    -4769    -4675    -4432    -4243 
   -4249    -4329    -4334    -4326    -4388    -4475    -4464    -4355 
   -4352    -4519    -4668    -4698    -4584    -4344    -4170    -4144 
   -4162    -4255    -4448    -4575    -4523    -4342    -4199    -4282 
   -4504    -4635    -4631    -4533    -4383    -4342    -4434    -4479 
   -4437    -4436    -4480    -4491    -4475    -4459    -4440    -4417 
   -4444    -4611    -4789    -4706    -4406    -4174    -4081    -4071 
   -4206    -4464    -4660    -4723    -4711    -4644    -4536    -4459 
   -4442    -4429    -4352    -4232    -4160    -4236    -4444    -4580 
   -4521    -4446    -4473    -4460    -4322    -4178    -4183    -4330 
   -4415    -4363    -4351    -4499    -4712    -4806    -4684    -4429 
   -4206    -4137    -4194    -4256    -4324    -4475    -4657    -4720 
   -4614    -4457    -4395    -4384    -4353    -4387    -4513    -4595 
   -4576    -4518    -4442    -4341    -4256    -4228    -4251    -4321 
   -4418    -4513    -4603    -4649    -4587    -4496    -4484    -4461 
   -4336    -4243    -4322    -4437    -4403    -4355    -4523    -4768 
   -4747    -4467    -4243    -4224    -4314    -4409    -4450    -4417 
   -4388    -4438    -4452    -4324    -4240    -4394    -4611    -4598 
   -4406    -4298    -4345    -4463    -4530    -4440    -4280    -4282 
   -4467    -4626    -4672    -4712    -4716    -4515    -4230    -4155 
   -4274    -4367    -4387    -4434    -4525    -4571    -4482    -4333 
   -4320    -4401    -4355    -4182    -4120    -4336    -4700    -4869 
   -4718    -4492    -4392    -4351    -4264    -4191    -4272    -4529 
   -4716    -4603    -4345    -4272    -4426    -4595    -4584    -4428 
   -4333    -4360    -4347    -4284    -4297    -4355    -4429    -4545 
   -4595    -4529    -4471    -4433    -4337    -4266    -4305    -4371 
   -4386    -4410    -4548    -4685    -4622    -4448    -4340    -4278 
   -4247    -4326    -4502    -4625    -4610    -4571    -4627    -4656 
   -4500    -4270    -4145    -4186    -4324    -4410    -4434    -4477 
   -4438    -4286    -4190    -4229    -4371    -4581    -4776    -4822 
   -4654    -4398    -4230    -4191    -4275    -4459    -4587    -4579 
   -4564    -4592    -4580    -4488    -4425    -4467    -4488    -4371 
   -4230    -4217    -4315    -4365    -4270    -4147    -4260    -4604 
   -4741    -4455    -4148    -4220    -4521    -4657    -4565    -4503 
   -4577    -4630    -4519    -4320    -4217    -4259    -4363    -4465 
   -4530    -4546    -4507    -4405    -4320    -4364    -4509    -4561 
   -4383    -4180    -4275    -4594    -4783    -4723    -4533    -4384 
   -4414    -4537    -4488    -4230    -4037    -4136    -4440    -4650 
   -4662    -4621    -4584    -4473    -4284    -4113    -4064    -4197 
   -4433    -4592    -4600    -4549    -4545    -4545    -4444    -4310 
   -4315    -4450    -4510    -4421    -4364    -4476    -4649    -4645 
   -4395    -4147    -4153    -4379    -4623    -4695    -4590    -4515 
   -4542    -4518    -4423    -4329    -4244    -4272    -4452    -4604 
   -4644    -4577    -4396    -4187    -4077    -4118    -4260    -4399 
   -4509    -4603    -4654    -4602    -4437    -4264    -4218    -4310 
   -4453    -4573    -4649    -4729    -4793    -4673    -4365    -4114 
   -4001    -3939    -3974    -4144    -4386    -4653    -4773    -4623 
   -4398    -4279    -4283    -4422    -4622    -4741    -4764    -4720 
   -4612    -4496    -4448    -4413    -4329    -4253    -4282    -4388 
   -4445    -4409    -4386    -4465    -4580    -4541    -4309    -4116 
   -4170    -4396    -4580    -4627    -4634    -4677    -4656    -4527 
   -4442    -4437    -4382    -4230    -4037    -3948    -4124    -4472 
   -4699    -4692    -4598    -4538    -4492    -4426    -4368    -4356 
   -4417    -4482    -4441    -4352    -4330    -4329    -4247    -4152 
   -4212    -4441    -4703    -4828    -4693    -4407    -4276    -4418 
   -4591    -4554    -4428    -4456    -4604    -4633    -4409    -4145 
   -4152    -4333    -4388    -4310    -4259    -4310    -4457    -4588 
   -4618    -4607    -4571    -4446    -4241    -4099    -4224    -4552 
   -4760    -4725    -4563    -4419    -4375    -4333    -4229    -4245 
   -4486    -4808    -5004    -4899    -4541    -4210    -4051    -4027 
   -4114    -4291    -4483    -4615    -4664    -4585    -4357    -4179 
   -4244    -4432    -4572    -4639    -4626    -4499    -4275    -4095 
   -4116    -4320    -4530    -4588    -4491    -4411    -4477    -4546 
   -4464    -4357    -4344    -4349    -4321    -4283    -4307    -4432 
   -4540    -4560    -4495    -4321    -4214    -4320    -4430    -4457 
   -4596    -4864    -5011    -4843    -4480    -4225    -4170    -4180 
   -4202    -4266    -4369    -4500    -4598    -4604    -4546    -4495 
   -4518    -4606    -4610    -4484    -4334    -4241    -4202    -4182 
   -4197    -4287    -4353    -4318    -4290    -4371    -4548    -4727 
   -4768    -4650    -4491    -4367    -4240    -4098    -4054    -4210 
   -4456    -4588    -4545    -4450    -4448    -4544    -4646    -4671 
   -4561    -4413    -4403    -4494    -4514    -4477    -4456    -4367 
   -4160    -3986    -4027    -4310    -4625    -4685    -4568    -4598 
   -4757    -4762    -4571    -4398    -4380    -4442    -4459    -4409 
   -4364    -4387    -4437    -4394    -4245    -4198    -4386    -4548 
   -4468    -4364    -4425    -4499    -4414    -4257    -4252    -4426 
   -4549    -4467    -4318    -4344    -4542    -4668    -4603    -4479 
   -4388    -4306    -4233    -4253    -4449    -4630    -4518    -4282 
   -4270    -4429    -4511    -4453    -4344    -4306    -4368    -4434 
   -4440    -4453    -4546    -4660    -4660    -4541    -4438    -4417 
   -4450    -4534    -4625    -4572    -4333    -4172    -4333    -4603 
   -4644    -4465    -4294    -4263    -4341    -4422    -4479    -4541 
   -4602    -4595    -4444    -4193    -4018    -4048    -4270    -4511 
   -4573    -4459    -4353    -4390    -4511    -4573    -4531    -4446 
   -4375    -4330    -4333    -4407    -4504    -4529    -4444    -4326 
   -4302    -4409    -4564    -4668    -4677    -4637    -4590    -4464 
   -4239    -4072    -4099    -4256    -4409    -4540    -4699    -4792 
   -4722    -4565    -4382    -4199    -4126    -4185    -4311    -4440 
   -4467    -4415    -4434    -4504    -4502    -4461    -4465    -4514 
   -4612    -4741    -4781    -4621    -4382    -4301    -4368    -4384 
   -4299    -4225    -4256    -4392    -4515    -4473    -4263    -4060 
   -4072    -4295    -4482    -4461    -4363    -4394    -4569    -4719 
   -4730    -4634    -4523    -4537    -4652    -4617    -4417    -4322 
   -4392    -4484    -4487    -4376    -4274    -4301    -4386    -4411 
   -4398    -4428    -4475    -4455    -4419    -4444    -4436    -4360 
   -4328    -4376    -4488    -4610    -4612    -4503    -4465    -4554 
   -4626    -4525    -4267    -4056    -4002    -3989    -3970    -4068 
   -4340    -4680    -4930    -4957    -4761    -4546    -4483    -4453 
   -4328    -4241    -4318    -4419    -4382    -4286    -4291    -4374 
   -4428    -4488    -4618    -4749    -4833    -4872    -4788    -4569 
   -4324    -4152    -4077    -4056    -4077    -4141    -4197    -4266 
   -4455    -4729    -4893    -4838    -4671    -4506    -4364    -4320 
   -4398    -4469    -4433    -4294    -4158    -4164    -4313    -4461 
   -4523    -4538    -4599    -4671    -4553    -4279    -4186    -4391 
   -4585    -4492    -4256    -4182    -4332    -4545    -4627    -4515 
   -4356    -4363    -4544    -4652    -4522    -4348    -4334    -4367 
   -4303    -4282    -4463    -4706    -4734    -4509    -4175    -3925 
   -3956    -4255    -4591    -4835    -4951    -4850    -4568    -4282 
   -4102    -4102    -4315    -4556    -4607    -4523    -4433    -4353 
   -4325    -4422    -4617    -4747    -4646    -4334    -4025    -3871 
   -3937    -4229    -4522    -4560    -4452    -4438    -4518    -4611 
   -4688    -4722    -4754    -4816    -4797    -4607    -4334    -4114 
   -4032    -4093    -4213    -4347    -4477    -4525    -4455    -4313 
   -4140    -4027    -4099    -4425    -4885    -5178    -5105    -4785 
   -4449    -4212    -4072    -4002    -4048    -4272    -4521    -4536 
   -4342    -4233    -4344    -4490    -4483    -4417    -4448    -4487 
   -4401    -4305    -4367    -4552    -4681    -4637    -4476    -4371 
   -4476    -4707    -4791    -4714    -4656    -4540    -4259    -3997 
   -3919    -4010    -4189    -4338    -4437    -4594    -4783    -4833 
   -4685    -4483    -4428    -4514    -4534    -4434    -4340    -4255 
   -4159    -4186    -4396    -4634    -4722    -4591    -4338    -4171 
   -4194    -4356    -4499    -4456    -4263    -4166    -4302    -4560 
   -4693    -4553    -4253    -4055    -4086    -4294    -4580    -4874 
   -5139    -5286    -5188    -4838    -4396    -4018    -3816    -3842 
   -3942    -3898    -3865    -4174    -4693    -4935    -4774    -4521 
   -4369    -4290    -4314    -4455    -4521    -4409    -4270    -4274 
   -4463    -4723    -4841    -4696    -4380    -4122    -4109    -4287 
   -4514    -4750    -4793    -4391    -3854    -3789    -4243    -4722 
   -4777    -4395    -4048    -4151    -4527    -4799    -4924    -5049 
   -5166    -5015    -4467    -4009    -4224    -4865    -5119    -4666 
   -3991    -3611    -3562    -3726    -4102    -4563    -4797    -4747 
   -4692    -4812    -4968    -4914    -4626    -4244    -3859    -3665 
   -3906    -4456    -4874    -4851    -4418    -3896    -3638    -3744 
   -4104    -4486    -4695    -4739    -4729    -4675    -4550    -4433 
   -4476    -4664    -4747    -4518    -4043    -3700    -3913    -4625 
   -5229    -5302    -4966    -4495    -4089    -3921    -4005    -4233 
   -4490    -4652    -4739    -4785    -4649    -4379    -4276    -4405 
   -4537    -4498    -4279    -3940    -3608    -3694    -4488    -5398 
   -5540    -4978    -4468    -4407    -4563    -4473    -4090    -3921 
   -4280    -4808    -4892    -4333    -3640    -3472    -3839    -4280 
   -4421    -4216    -3942    -3852    -3952    -4293    -4950    -5597 
   -5695    -5179    -4534    -4224    -4222    -4293    -4506    -4999 
   -5432    -5310    -4676    -4031    -3792    -3993    -4311    -4368 
   -4124    -3863    -3820    -4021    -4410    -4901    -5248    -5148 
   -4617    -4051    -3835    -4044    -4467    -4761    -4761    -4665 
   -4753    -4950    -4955    -4731    -4433    -4151    -4018    -4056 
   -3982    -3754    -3817    -4340    -4792    -4622    -3948    -3415 
   -3424    -3734    -4005    -4276    -4666    -5116    -5478    -5518 
   -5127    -4630    -4445    -4537    -4598    -4513    -4450    -4556 
   -4664    -4536    -4288    -4155    -3996    -3622    -3420    -3944 
   -4992    -5714    -5611    -4992    -4425    -4087    -3821    -3607 
   -3650    -4035    -4567    -4911    -4885    -4702    -4774    -5158 
   -5413    -5224    -4774    -4437    -4402    -4479    -4229    -3570 
   -2976    -2929    -3430    -4020    -4334    -4521    -4849    -5227 
   -5352    -5070    -4531    -4122    -4125    -4413    -4644    -4679 
   -4599    -4421    -4172    -4099    -4390    -4851    -5067    -4827 
   -4359    -4039    -3901    -3769    -3788    -4253    -4888    -4966 
   -4288    -3516    -3403    -4035    -4907    -5547    -5864    -5904 
   -5643    -5152    -4581    -3986    -3451    -3154    -3204    -3578 
   -4062    -4355    -4428    -4488    -4576    -4540    -4444    -4583 
   -5034    -5536    -5725    -5400    -4699    -4072    -3870    -3939 
   -3913    -3697    -3439    -3381    -3658    -4101    -4503    -4801 
   -4934    -4891    -4735    -4492    -4251    -4222    -4473    -4727 
   -4689    -4465    -4337    -4414    -4688    -5113    -5513    -5541 
   -4992    -4195    -3674    -3472    -3423    -3609    -4033    -4374 
   -4348    -4006    -3645    -3565    -3993    -4897    -5765    -6012 
   -5659    -5178    -4850    -4650    -4546    -4553    -4602    -4621 
   -4612    -4541    -4379    -4283    -4275    -3993    -3341    -2878 
   -3091    -3775    -4365    -4556    -4486    -4483    -4679    -4857 
   -4819    -4702    -4622    -4459    -4222    -4172    -4498    -5061 
   -5417    -5206    -4554    -3952    -3746    -3888    -4149    -4399 
   -4631    -4792    -4753    -4545    -4409    -4525    -4831    -4953 
   -4587    -4031    -3821    -4079    -4592    -5030    -5059    -4747 
   -4482    -4383    -4297    -4153    -3951    -3635    -3306    -3303 
   -3844    -4711    -5382    -5490    -5013    -4182    -3450    -3257 
   -3622    -4236    -4896    -5499    -5819    -5630    -5077    -4695 
   -4795    -5008    -4853    -4445    -4267    -4491    -4745    -4523 
   -3757    -2909    -2511    -2687    -3227    -3867    -4488    -5128 
   -5721    -5954    -5640    -4946    -4298    -4041    -4112    -4264 
   -4467    -4685    -4752    -4661    -4495    -4174    -3684    -3303 
   -3397    -4028    -4824    -5382    -5652    -5710    -5449    -4777 
   -3950    -3450    -3561    -4137    -4799    -5219    -5184    -4681 
   -4035    -3659    -3662    -3865    -4051    -4095    -4033    -4056 
   -4288    -4591    -4749    -4733    -4671    -4692    -4777    -4815 
   -4837    -4965    -5112    -4978    -4464    -3877    -3545    -3500 
   -3651    -3962    -4334    -4552    -4525    -4398    -4333    -4352 
   -4453    -4704    -5039    -5209    -5085    -4772    -4421    -4126 
   -3974    -4108    -4545    -4984    -5051    -4747    -4290    -3800 
   -3480    -3649    -4314    -4976    -5127    -4849    -4541    -4372 
   -4320    -4349    -4403    -4477    -4673    -4962    -5076    -4864 
   -4553    -4409    -4344    -4071    -3596    -3335    -3604    -4126 
   -4352    -4198    -4075    -4255    -4594    -4818    -4822    -4668 
   -4483    -4368    -4342    -4347    -4384    -4591    -4928    -4996 
   -4565    -4062    -4032    -4406    -4650    -4491    -4257    -4375 
   -4753    -4973    -4899    -4681    -4463    -4330    -4314    -4414 
   -4631    -4799    -4742    -4558    -4484    -4621    -4793    -4692 
   -4247    -3721    -3473    -3578    -3798    -4006    -4314    -4666 
   -4772    -4534    -4178    -3955    -4000    -4282    -4602    -4747 
   -4653    -4436    -4317    -4421    -4652    -4828    -4878    -4887 
   -4976    -5059    -4876    -4411    -3974    -3874    -4101    -4326 
   -4332    -4259    -4291    -4402    -4434    -4294    -4193    -4399 
   -4743    -4884    -4793    -4677    -4718    -4895    -4989    -4797 
   -4345    -3836    -3499    -3481    -3758    -4149    -4488    -4653 
   -4623    -4546    -4503    -4398    -4236    -4141    -4160    -4256 
   -4423    -4700    -4990    -5034    -4754    -4406    -4183    -4066 
   -4052    -4187    -4384    -4487    -4453    -4388    -4475    -4743 
   -4942    -4837    -4521    -4253    -4158    -4172    -4233    -4348 
   -4500    -4652    -4750    -4675    -4441    -4318    -4452    -4602 
   -4514    -4220    -3933    -3910    -4236    -4629    -4842    -4982 
   -5150    -5178    -4855    -4287    -3916    -3978    -4236    -4364 
   -4286    -4232    -4401    -4546    -4380    -4075    -3986    -4236 
   -4600    -4679    -4351    -3969    -3923    -4152    -4309    -4293 
   -4321    -4558    -4854    -4932    -4826    -4783    -4799    -4656 
   -4321    -4033    -4051    -4411    -4833    -4939    -4738    -4639 
   -4787    -4806    -4475    -4079    -3921    -4018    -4253    -4477 
   -4631    -4754    -4781    -4612    -4345    -4101    -3935    -3909 
   -4062    -4348    -4600    -4580    -4274    -3971    -3925    -4110 
   -4402    -4739    -5053    -5251    -5293    -5104    -4631    -4063 
   -3707    -3694    -3960    -4317    -4545    -4556    -4444    -4321 
   -4237    -4244    -4367    -4518    -4579    -4548    -4500    -4506 
   -4576    -4622    -4563    -4463    -4432    -4503    -4660    -4831 
   -4915    -4843    -4580    -4147    -3775    -3774    -4098    -4440 
   -4579    -4460    -4236    -4135    -4201    -4351    -4550    -4737 
   -4743    -4523    -4270    -4202    -4403    -4725    -4860    -4729 
   -4496    -4243    -4023    -3989    -4286    -4774    -5013    -4842 
   -4594    -4548    -4598    -4484    -4147    -3809    -3742    -3929 
   -4166    -4386    -4617    -4760    -4680    -4425    -4213    -4210 
   -4351    -4425    -4344    -4298    -4483    -4745    -4769    -4565 
   -4423    -4475    -4579    -4569    -4503    -4557    -4739    -4896 
   -4912    -4789    -4564    -4279    -4055    -3983    -4010    -4023 
   -4027    -4141    -4365    -4534    -4542    -4448    -4391    -4428 
   -4484    -4507    -4490    -4472    -4563    -4720    -4766    -4646 
   -4392    -4082    -3916    -4009    -4261    -4552    -4761    -4796 
   -4726    -4657    -4556    -4372    -4163    -4036    -4068    -4241 
   -4411    -4467    -4450    -4476    -4569    -4652    -4695    -4726 
   -4699    -4580    -4410    -4255    -4214    -4334    -4500    -4615 
   -4668    -4614    -4411    -4120    -3943    -4075    -4415    -4687 
   -4730    -4564    -4369    -4307    -4355    -4423    -4483    -4537 
   -4548    -4499    -4463    -4490    -4530    -4468    -4237    -3960 
   -3846    -3956    -4186    -4364    -4415    -4449    -4567    -4679 
   -4711    -4762    -4915    -5092    -5130    -4897    -4476    -4171 
   -4198    -4426    -4530    -4429    -4325    -4295    -4257    -4168 
   -4023    -3904    -3932    -4086    -4307    -4627    -4928    -4954 
   -4685    -4374    -4216    -4247    -4368    -4463    -4459    -4360 
   -4288    -4305    -4328    -4347    -4371    -4337    -4309    -4380 
   -4511    -4675    -4831    -4831    -4619    -4378    -4330    -4472 
   -4565    -4473    -4352    -4363    -4490    -4650    -4727    -4630 
   -4444    -4318    -4240    -4126    -4045    -4120    -4321    -4468 
   -4428    -4299    -4287    -4452    -4693    -4857    -4847    -4662 
   -4368    -4104    -4012    -4131    -4365    -4627    -4854    -4905 
   -4727    -4456    -4243    -4172    -4224    -4271    -4298    -4372 
   -4457    -4455    -4391    -4405    -4534    -4669    -4688    -4568 
   -4355    -4152    -4098    -4187    -4271    -4337    -4503    -4762 
   -4926    -4792    -4352    -3862    -3636    -3786    -4163    -4471 
   -4550    -4584    -4742    -4911    -4926    -4801    -4693    -4735 
   -4837    -4779    -4500    -4162    -4024    -4153    -4293    -4267 
   -4220    -4318    -4521    -4666    -4657    -4573    -4588    -4711 
   -4738    -4530    -4237    -4139    -4247    -4320    -4260    -4186 
