Origin Time       2025/03/30 22:55:00
Lat.              41.993
Long.             142.725
Depth. (km)       55
Mag.              4.6
Station Code      HKD110
Station Lat.      42.1310
Station Long.     142.9354
Station Height(m) 4
Record Time       2025/03/30 22:56:07
Sampling Freq(Hz) 100Hz
Duration Time(s)  76
Dir.              U-D
Scale Factor      7845(gal)/8223790
Max. Acc. (gal)   5.049
Last Correction   2025/03/30 22:56:07
Memo.             
[...]
   -6065    -6064    -6065    -6066    -6064    -6064    -6066    -6064 
   -6064    -6066    -6065    -6064    -6065    -6064    -6064    -6065 
   -6064    -6065    -6068    -6066    -6064    -6062    -6065    -6068 
   -6069    -6066    -6064    -6065    -6065    -6062    -6064    -6064 
   -6062    -6065    -6066    -6065    -6064    -6064    -6065    -6066 
   -6066    -6066    -6066    -6065    -6065    -6065    -6066    -6066 
   -6065    -6065    -6066    -6065    -6064    -6064    -6064    -6066 
   -6066    -6065    -6065    -6066    -6065    -6065    -6068    -6068 
   -6066    -6065    -6065    -6065    -6066    -6062    -6062    -6065 
   -6065    -6062    -6062    -6065    -6065    -6064    -6066    -6068 
   -6064    -6064    -6065    -6065    -6065    -6065    -6062    -6065 
   -6068    -6064    -6065    -6066    -6065    -6065    -6066    -6066 
   -6064    -6065    -6066    -6066    -6066    -6066    -6066    -6065 
   -6065    -6064    -6065    -6065    -6062    -6061    -6065    -6066 
   -6066    -6065    -6062    -6062    -6064    -6064    -6065    -6065 
   -6066    -6065    -6064    -6064    -6065    -6066    -6065    -6066 
   -6064    -6062    -6064    -6065    -6066    -6068    -6065    -6064 
   -6065    -6065    -6062    -6062    -6065    -6065    -6064    -6064 
   -6062    -6062    -6064    -6065    -6065    -6066    -6066    -6064 
   -6065    -6065    -6064    -6065    -6066    -6064    -6064    -6062 
   -6061    -6062    -6064    -6064    -6064    -6064    -6064    -6065 
   -6066    -6065    -6065    -6065    -6065    -6066    -6066    -6064 
   -6064    -6065    -6062    -6061    -6064    -6065    -6064    -6064 
   -6066    -6066    -6064    -6061    -6061    -6062    -6065    -6066 
   -6064    -6062    -6064    -6062    -6061    -6064    -6065    -6065 
   -6065    -6062    -6062    -6062    -6062    -6062    -6065    -6064 
   -6061    -6062    -6064    -6062    -6064    -6066    -6066    -6064 
   -6064    -6066    -6068    -6064    -6062    -6066    -6066    -6062 
   -6062    -6064    -6064    -6062    -6062    -6064    -6065    -6064 
   -6064    -6064    -6065    -6064    -6064    -6064    -6062    -6064 
   -6066    -6065    -6065    -6064    -6064    -6065    -6064    -6064 
   -6064    -6062    -6064    -6065    -6062    -6065    -6068    -6066 
   -6065    -6065    -6066    -6066    -6064    -6064    -6064    -6064 
   -6065    -6065    -6066    -6066    -6065    -6064    -6064    -6065 
   -6064    -6064    -6066    -6066    -6065    -6061    -6062    -6065 
   -6064    -6065    -6066    -6065    -6064    -6065    -6066    -6066 
   -6064    -6064    -6065    -6066    -6065    -6065    -6066    -6064 
   -6064    -6068    -6066    -6065    -6066    -6065    -6065    -6066 
   -6066    -6064    -6064    -6066    -6068    -6065    -6064    -6064 
   -6065    -6065    -6065    -6066    -6068    -6066    -6065    -6066 
   -6066    -6065    -6068    -6068    -6065    -6065    -6065    -6065 
   -6066    -6066    -6065    -6065    -6065    -6065    -6065    -6065 
   -6066    -6066    -6065    -6066    -6066    -6065    -6065    -6066 
   -6066    -6068    -6068    -6066    -6066    -6066    -6066    -6065 
   -6066    -6065    -6064    -6066    -6066    -6065    -6065    -6068 
   -6068    -6066    -6065    -6065    -6066    -6064    -6064    -6066 
   -6066    -6066    -6066    -6064    -6062    -6064    -6065    -6066 
   -6065    -6064    -6064    -6065    -6064    -6064    -6066    -6068 
   -6064    -6062    -6065    -6066    -6065    -6062    -6064    -6065 
   -6065    -6066    -6068    -6065    -6064    -6061    -6062    -6064 
   -6062    -6064    -6065    -6066    -6066    -6066    -6066    -6065 
   -6065    -6065    -6064    -6064    -6065    -6065    -6065    -6062 
   -6061    -6064    -6066    -6065    -6065    -6068    -6066    -6065 
   -6065    -6065    -6065    -6064    -6062    -6064    -6065    -6064 
   -6062    -6065    -6065    -6064    -6065    -6065    -6064    -6064 
   -6065    -6065    -6064    -6064    -6062    -6066    -6066    -6065 
   -6065    -6065    -6062    -6062    -6062    -6062    -6065    -6065 
   -6062    -6062    -6062    -6065    -6065    -6064    -6065    -6066 
   -6065    -6065    -6065    -6064    -6065    -6065    -6062    -6062 
   -6064    -6062    -6062    -6064    -6064    -6066    -6068    -6065 
   -6065    -6064    -6064    -6066    -6066    -6062    -6064    -6065 
   -6065    -6064    -6065    -6065    -6064    -6064    -6064    -6062 
   -6061    -6065    -6065    -6064    -6065    -6065    -6062    -6064 
   -6066    -6066    -6064    -6062    -6064    -6065    -6064    -6064 
   -6064    -6064    -6062    -6064    -6064    -6064    -6065    -6065 
   -6065    -6064    -6061    -6062    -6064    -6065    -6066    -6062 
   -6062    -6065    -6065    -6065    -6065    -6065    -6065    -6064 
   -6064    -6064    -6065    -6064    -6064    -6064    -6064    -6065 
   -6065    -6064    -6062    -6061    -6062    -6064    -6064    -6064 
   -6065    -6065    -6065    -6065    -6065    -6065    -6066    -6065 
   -6062    -6062    -6062    -6064    -6065    -6064    -6065    -6065 
   -6062    -6064    -6064    -6064    -6064    -6065    -6065    -6065 
   -6066    -6065    -6065    -6065    -6065    -6065    -6064    -6064 
   -6064    -6064    -6064    -6066    -6066    -6066    -6065    -6065 
   -6065    -6066    -6066    -6065    -6065    -6065    -6065    -6065 
   -6065    -6065    -6064    -6062    -6064    -6065    -6066    -6065 
   -6065    -6065    -6064    -6065    -6065    -6065    -6065    -6065 
   -6065    -6065    -6065    -6064    -6062    -6065    -6066    -6066 
   -6065    -6064    -6064    -6062    -6064    -6066    -6066    -6064 
   -6066    -6066    -6064    -6066    -6069    -6066    -6066    -6066 
   -6064    -6065    -6065    -6062    -6065    -6066    -6064    -6062 
   -6065    -6065    -6064    -6064    -6066    -6065    -6061    -6064 
   -6065    -6064    -6065    -6066    -6064    -6066    -6068    -6065 
   -6064    -6064    -6062    -6064    -6064    -6065    -6066    -6065 
   -6064    -6065    -6065    -6065    -6065    -6065    -6066    -6066 
   -6064    -6064    -6065    -6068    -6066    -6064    -6065    -6065 
   -6062    -6064    -6068    -6068    -6062    -6061    -6064    -6065 
   -6064    -6064    -6064    -6065    -6065    -6064    -6064    -6066 
   -6066    -6065    -6065    -6065    -6062    -6061    -6064    -6064 
   -6064    -6065    -6066    -6065    -6066    -6066    -6066    -6065 
   -6064    -6064    -6066    -6065    -6064    -6064    -6062    -6064 
   -6065    -6066    -6064    -6064    -6064    -6064    -6065    -6065 
   -6062    -6062    -6062    -6062    -6065    -6066    -6065    -6064 
   -6065    -6066    -6066    -6064    -6061    -6062    -6064    -6062 
   -6064    -6066    -6065    -6062    -6061    -6062    -6062    -6064 
   -6065    -6065    -6062    -6061    -6065    -6065    -6064    -6066 
   -6068    -6062    -6061    -6064    -6062    -6061    -6064    -6065 
   -6066    -6065    -6065    -6064    -6064    -6065    -6064    -6065 
   -6066    -6064    -6062    -6065    -6065    -6064    -6065    -6065 
   -6065    -6065    -6064    -6064    -6064    -6064    -6064    -6065 
   -6065    -6065    -6065    -6066    -6065    -6065    -6065    -6064 
   -6061    -6064    -6064    -6062    -6065    -6066    -6064    -6062 
   -6064    -6064    -6064    -6065    -6065    -6064    -6065    -6069 
   -6066    -6062    -6062    -6061    -6064    -6066    -6065    -6064 
   -6064    -6065    -6068    -6066    -6064    -6064    -6065    -6068 
   -6068    -6064    -6064    -6065    -6064    -6065    -6066    -6064 
   -6064    -6064    -6062    -6064    -6064    -6062    -6062    -6065 
   -6066    -6066    -6065    -6064    -6064    -6064    -6065    -6065 
   -6065    -6065    -6065    -6065    -6065    -6064    -6062    -6064 
   -6066    -6066    -6065    -6065    -6065    -6064    -6064    -6064 
   -6064    -6065    -6064    -6062    -6064    -6064    -6062    -6064 
   -6065    -6064    -6064    -6062    -6061    -6062    -6065    -6066 
   -6066    -6065    -6064    -6065    -6065    -6065    -6065    -6064 
   -6065    -6065    -6064    -6062    -6064    -6066    -6064    -6064 
   -6066    -6066    -6064    -6064    -6066    -6066    -6066    -6066 
   -6065    -6065    -6066    -6066    -6065    -6064    -6064    -6065 
   -6064    -6065    -6064    -6062    -6065    -6065    -6064    -6066 
   -6068    -6065    -6064    -6065    -6066    -6066    -6064    -6062 
   -6062    -6064    -6065    -6064    -6065    -6065    -6065    -6065 
   -6064    -6064    -6065    -6064    -6065    -6066    -6066    -6065 
   -6065    -6064    -6064    -6065    -6065    -6062    -6064    -6066 
   -6065    -6064    -6064    -6065    -6068    -6069    -6066    -6065 
   -6065    -6064    -6066    -6068    -6066    -6066    -6068    -6065 
   -6064    -6065    -6065    -6064    -6064    -6066    -6066    -6068 
   -6068    -6065    -6065    -6064    -6066    -6066    -6065    -6066 
   -6066    -6065    -6065    -6068    -6065    -6064    -6065    -6065 
   -6064    -6064    -6065    -6065    -6064    -6064    -6066    -6068 
   -6065    -6062    -6062    -6065    -6066    -6065    -6065    -6065 
   -6065    -6065    -6065    -6065    -6065    -6065    -6068    -6065 
   -6064    -6065    -6065    -6065    -6065    -6065    -6065    -6065 
   -6062    -6062    -6065    -6066    -6066    -6065    -6064    -6064 
   -6062    -6062    -6066    -6066    -6062    -6062    -6065    -6066 
   -6064    -6064    -6064    -6062    -6062    -6065    -6066    -6062 
   -6062    -6065    -6065    -6062    -6062    -6065    -6066    -6064 
   -6062    -6064    -6064    -6064    -6065    -6064    -6064    -6065 
   -6064    -6064    -6064    -6064    -6065    -6065    -6062    -6061 
   -6064    -6065    -6065    -6065    -6064    -6062    -6061    -6062 
   -6064    -6065    -6064    -6064    -6064    -6066    -6066    -6062 
   -6064    -6065    -6065    -6065    -6065    -6065    -6064    -6064 
   -6065    -6064    -6062    -6065    -6068    -6066    -6064    -6064 
   -6065    -6066    -6066    -6064    -6064    -6066    -6065    -6061 
   -6060    -6062    -6064    -6065    -6066    -6065    -6062    -6064 
   -6065    -6065    -6066    -6068    -6065    -6064    -6064    -6064 
   -6064    -6065    -6065    -6062    -6062    -6065    -6064    -6064 
   -6064    -6066    -6069    -6064    -6064    -6066    -6065    -6065 
   -6065    -6064    -6065    -6065    -6061    -6061    -6061    -6064 
   -6066    -6065    -6065    -6065    -6064    -6064    -6065    -6064 
   -6064    -6064    -6064    -6065    -6065    -6065    -6065    -6065 
   -6066    -6066    -6062    -6062    -6062    -6062    -6066    -6068 
   -6064    -6065    -6064    -6061    -6064    -6066    -6064    -6064 
   -6065    -6065    -6065    -6065    -6066    -6066    -6066    -6065 
   -6062    -6064    -6066    -6062    -6061    -6064    -6065    -6066 
   -6066    -6064    -6065    -6066    -6064    -6064    -6068    -6066 
   -6064    -6064    -6065    -6064    -6064    -6064    -6065    -6068 
   -6068    -6064    -6064    -6064    -6064    -6065    -6065    -6066 
   -6068    -6062    -6060    -6064    -6065    -6068    -6068    -6064 
   -6062    -6064    -6064    -6064    -6066    -6066    -6065    -6065 
   -6066    -6065    -6064    -6065    -6066    -6066    -6068    -6066 
   -6062    -6062    -6064    -6065    -6065    -6065    -6066    -6065 
   -6064    -6066    -6066    -6065    -6066    -6066    -6065    -6065 
   -6066    -6066    -6065    -6065    -6065    -6065    -6066    -6065 
   -6064    -6064    -6064    -6064    -6062    -6064    -6066    -6066 
   -6064    -6065    -6065    -6065    -6066    -6068    -6066    -6065 
   -6065    -6065    -6064    -6064    -6065    -6066    -6065    -6064 
   -6064    -6064    -6065    -6068    -6068    -6066    -6065    -6065 
   -6065    -6065    -6065    -6065    -6062    -6061    -6064    -6064 
   -6062    -6064    -6064    -6062    -6065    -6065    -6064    -6062 
   -6062    -6065    -6066    -6065    -6064    -6065    -6062    -6062 
   -6065    -6065    -6062    -6062    -6064    -6064    -6062    -6062 
   -6064    -6064    -6066    -6069    -6066    -6062    -6064    -6064 
   -6064    -6064    -6064    -6064    -6064    -6065    -6065    -6064 
   -6062    -6062    -6062    -6064    -6064    -6062    -6064    -6064 
   -6065    -6066    -6066    -6066    -6066    -6064    -6062    -6062 
   -6062    -6065    -6068    -6066    -6062    -6064    -6064    -6062 
   -6065    -6065    -6064    -6065    -6064    -6062    -6064    -6065 
   -6066    -6066    -6065    -6066    -6065    -6064    -6065    -6065 
   -6066    -6066    -6065    -6064    -6064    -6065    -6066    -6068 
   -6064    -6064    -6066    -6064    -6062    -6065    -6065    -6065 
   -6066    -6064    -6061    -6061    -6061    -6061    -6057    -6050 
   -6037    -6015    -5980    -5927    -5854    -5765    -5672    -5593 
   -5579    -5694    -5957    -6296    -6539    -6508    -6145    -5553 
   -5007    -4819    -5101    -5715    -6481    -7202    -7557    -7312 
   -6685    -6201    -6169    -6254    -5796    -4827    -4365    -5233 
   -7045    -8600    -8972    -8172    -6663    -4985    -4159    -4596 
   -5116    -5042    -5404    -6835    -8321    -8334    -6600    -4741 
   -4232    -4533    -4880    -5913    -7514    -7715    -5917    -4352 
   -4403    -5051    -6075    -8129    -9545    -7744    -3524     -772 
   -2025    -5742    -8649    -9740   -10053    -9541    -7510    -5271 
   -4527    -4560    -4147    -3827    -4367    -5630    -7269    -8652 
   -9046    -8156    -5934    -3609    -3353    -5105    -6975    -8135 
   -8191    -6818    -5185    -4429    -4155    -4210    -5034    -6339 
   -7483    -7728    -6608    -5485    -5656    -5836    -5713    -6882 
   -7979    -6642    -4633    -4072    -4074    -4614    -6762    -9018 
   -8907    -6829    -5313    -5521    -6257    -6161    -5471    -5013 
   -4993    -5826    -7541    -8328    -6907    -4842    -4680    -6305 
   -6366    -4058    -3608    -6860    -9607    -8336    -5247    -4178 
   -4992    -5080    -3894    -3331    -5050    -8217   -10370   -10179 
   -7820    -4633    -2905    -3314    -4194    -4982    -7140   -10125 
  -10143    -5930    -2444    -4263    -7870    -7308    -4703    -5395 
   -7588    -7129    -5177    -4669    -5919    -6910    -5664    -3838 
   -4958    -7723    -7662    -5300    -4864    -6648    -7122    -5228 
   -4252    -6122    -7955    -7489    -6145    -5320    -5385    -6254 
   -6887    -6845    -6494    -5879    -5271    -5039    -5138    -5263 
   -5286    -5724    -6380    -6354    -6513    -7803    -8596    -7522 
   -5687    -4788    -5304    -6180    -5967    -5071    -5281    -6281 
   -6214    -5513    -5476    -5719    -6199    -6970    -6859    -6129 
   -6334    -6879    -5911    -3942    -3827    -6358    -8295    -7353 
   -5756    -5644    -5445    -4202    -4128    -6095    -7831    -7805 
   -6779    -5859    -5443    -5719    -6543    -7144    -7362    -7322 
   -6002    -3811    -3510    -5703    -7816    -7840    -6578    -5968 
   -5819    -5039    -4315    -4450    -5602    -7385    -7855    -6353 
   -5232    -5729    -6326    -6235    -6504    -7049    -6463    -5202 
   -4882    -5485    -6334    -6936    -6496    -5682    -6164    -7200 
   -6766    -5455    -5171    -5701    -5923    -5872    -5980    -6396 
   -6758    -6393    -5343    -4526    -4792    -5872    -6806    -7447 
   -7746    -6979    -5555    -4702    -4661    -5422    -6577    -6797 
   -6204    -6359    -7317    -7828    -7034    -5158    -3906    -4594 
   -5958    -6246    -5895    -5984    -6046    -5528    -5548    -6913 
   -8097    -7396    -5590    -4496    -4477    -5179    -6556    -7838 
   -7888    -6494    -4433    -3512    -4965    -7276    -8309    -7549 
   -5425    -4089    -5724    -8299    -8581    -6921    -5258    -4891 
   -5674    -5610    -4573    -4999    -6423    -6288    -5571    -6474 
   -7825    -7593    -5952    -4598    -4941    -6139    -6743    -7119 
   -6898    -5293    -4193    -4453    -4457    -4930    -6903    -8025 
   -7136    -6255    -6216    -6345    -6710    -6637    -5089    -4085 
   -5977    -8212    -7356    -5483    -5859    -6818    -5954    -4622 
   -4492    -5371    -6713    -7399    -6561    -5663    -6288    -7117 
   -6207    -4684    -5155    -6847    -6625    -5219    -5969    -7892 
   -7419    -5115    -4240    -5298    -6469    -6785    -6353    -5668 
   -5578    -6142    -6115    -5259    -5192    -6239    -6716    -6430 
   -6687    -7155    -7067    -6983    -6554    -5220    -4665    -5625 
   -6119    -5688    -5692    -5825    -5543    -5846    -6705    -7006 
   -6679    -5857    -5042    -5591    -6833    -6940    -6750    -7207 
   -6511    -4268    -3396    -4885    -6166    -6345    -6987    -7788 
   -7276    -5873    -4874    -4834    -5475    -5872    -5683    -5729 
   -6474    -7306    -7399    -6462    -5238    -5077    -6091    -6620 
   -5948    -5433    -5688    -5972    -6246    -6797    -7321    -7311 
   -6451    -5328    -5049    -5598    -5981    -5644    -5144    -5653 
   -7032    -7516    -6548    -5356    -4752    -5119    -6258    -6650 
   -6029    -6011    -6509    -6212    -5679    -5934    -6558    -6829 
   -6502    -5979    -5854    -5611    -4978    -5336    -6802    -7466 
   -6766    -5760    -5213    -5364    -5838    -6077    -6335    -6724 
   -6338    -5213    -4985    -6056    -7061    -7213    -6469    -5216 
   -4661    -5277    -5975    -6114    -6411    -7061    -6860    -5798 
   -5726    -6690    -6914    -6374    -5945    -5337    -4733    -5082 
   -5964    -6331    -6480    -6826    -6754    -6126    -5818    -6308 
   -6928    -6723    -5975    -5859    -6335    -6416    -6112    -6038 
   -6004    -5443    -4637    -4791    -6253    -7399    -6880    -5557 
   -4845    -5108    -5886    -6459    -6681    -6925    -7173    -6941 
   -6057    -5047    -4517    -4645    -5410    -6382    -6774    -6551 
   -6420    -6416    -6223    -6318    -6805    -6677    -5875    -5551 
   -5837    -5859    -5343    -5032    -5819    -7214    -7662    -6824 
   -5942    -5813    -5868    -5580    -5309    -5367    -5714    -6245 
   -6544    -6390    -6214    -6106    -5722    -5579    -6300    -7125 
   -7227    -6745    -5684    -4506    -4523    -5628    -6489    -7055 
   -7533    -7014    -5663    -4955    -5186    -5759    -6289    -6160 
   -5571    -5842    -6914    -7245    -6570    -5935    -5543    -5173 
   -5354    -6091    -6573    -6666    -6463    -5783    -5286    -5653 
   -6173    -6079    -5891    -6496    -7447    -6998    -4939    -3703 
   -4662    -6076    -6434    -6421    -6828    -7213    -6571    -4904 
   -4048    -5143    -6636    -7176    -7446    -7622    -6880    -5557 
   -4897    -5296    -5875    -5915    -6158    -6893    -6921    -6183 
   -5702    -5458    -5444    -6188    -7115    -6924    -5576    -4719 
   -5319    -6118    -6110    -6018    -6264    -6500    -6637    -6478 
   -5890    -5462    -5719    -6408    -6789    -6297    -5337    -4938 
   -5328    -5719    -5745    -6027    -6694    -6894    -6327    -5636 
   -5497    -6039    -6844    -7500    -7605    -6698    -5225    -4213 
