Origin Time       2025/03/30 22:55:00
Lat.              41.993
Long.             142.725
Depth. (km)       55
Mag.              4.6
Station Code      HKD111
Station Lat.      42.0170
Station Long.     143.1487
Station Height(m) 22
Record Time       2025/03/30 22:56:16
Sampling Freq(Hz) 100Hz
Duration Time(s)  60
Dir.              E-W
Scale Factor      7845(gal)/8223790
Max. Acc. (gal)   3.072
Last Correction   2025/03/30 22:56:16
Memo.             
[...]
   -3387    -3383    -3383    -3388    -3388    -3381    -3381    -3387 
   -3387    -3384    -3387    -3387    -3384    -3383    -3385    -3388 
   -3387    -3385    -3385    -3383    -3381    -3385    -3385    -3384 
   -3387    -3385    -3384    -3385    -3387    -3384    -3383    -3385 
   -3384    -3384    -3385    -3385    -3384    -3384    -3385    -3384 
   -3383    -3385    -3381    -3380    -3388    -3388    -3384    -3384 
   -3385    -3383    -3383    -3388    -3387    -3381    -3385    -3385 
   -3383    -3387    -3385    -3383    -3384    -3385    -3387    -3387 
   -3387    -3385    -3384    -3384    -3383    -3385    -3388    -3381 
   -3381    -3388    -3384    -3383    -3385    -3383    -3381    -3387 
   -3385    -3383    -3384    -3385    -3381    -3380    -3384    -3387 
   -3387    -3383    -3381    -3385    -3387    -3384    -3381    -3383 
   -3385    -3383    -3383    -3391    -3388    -3379    -3384    -3387 
   -3381    -3385    -3388    -3381    -3381    -3388    -3385    -3385 
   -3388    -3384    -3384    -3387    -3384    -3385    -3387    -3381 
   -3384    -3388    -3383    -3380    -3384    -3387    -3383    -3384 
   -3389    -3385    -3383    -3387    -3384    -3381    -3383    -3384 
   -3387    -3388    -3384    -3380    -3380    -3384    -3385    -3384 
   -3383    -3380    -3385    -3387    -3381    -3384    -3385    -3379 
   -3383    -3388    -3380    -3379    -3387    -3384    -3380    -3385 
   -3387    -3384    -3385    -3384    -3381    -3384    -3385    -3384 
   -3384    -3387    -3384    -3381    -3387    -3385    -3381    -3387 
   -3388    -3383    -3384    -3387    -3384    -3380    -3383    -3384 
   -3383    -3387    -3388    -3387    -3387    -3383    -3379    -3384 
   -3384    -3380    -3383    -3387    -3387    -3384    -3384    -3385 
   -3384    -3388    -3389    -3383    -3379    -3379    -3387    -3389 
   -3384    -3384    -3387    -3383    -3383    -3381    -3384    -3385 
   -3383    -3383    -3384    -3384    -3383    -3381    -3385    -3387 
   -3380    -3381    -3387    -3385    -3383    -3384    -3385    -3385 
   -3389    -3387    -3377    -3381    -3391    -3383    -3379    -3388 
   -3387    -3383    -3387    -3387    -3383    -3385    -3385    -3380 
   -3384    -3391    -3383    -3381    -3391    -3388    -3383    -3384 
   -3384    -3383    -3384    -3383    -3381    -3383    -3384    -3384 
   -3383    -3381    -3385    -3388    -3383    -3380    -3384    -3385 
   -3385    -3385    -3385    -3387    -3385    -3387    -3388    -3383 
   -3383    -3385    -3383    -3383    -3385    -3385    -3383    -3384 
   -3388    -3388    -3384    -3384    -3383    -3380    -3384    -3389 
   -3385    -3383    -3387    -3387    -3383    -3385    -3388    -3381 
   -3381    -3387    -3385    -3384    -3385    -3387    -3384    -3383 
   -3388    -3385    -3381    -3387    -3388    -3383    -3383    -3385 
   -3385    -3384    -3384    -3385    -3384    -3384    -3384    -3383 
   -3383    -3384    -3387    -3387    -3383    -3383    -3384    -3384 
   -3387    -3385    -3384    -3387    -3388    -3385    -3384    -3384 
   -3384    -3383    -3384    -3384    -3383    -3385    -3385    -3385 
   -3387    -3384    -3385    -3388    -3385    -3385    -3387    -3385 
   -3385    -3387    -3385    -3383    -3387    -3388    -3383    -3385 
   -3391    -3383    -3383    -3388    -3384    -3383    -3385    -3384 
   -3381    -3384    -3389    -3387    -3381    -3384    -3388    -3388 
   -3387    -3384    -3384    -3385    -3385    -3381    -3381    -3387 
   -3385    -3380    -3383    -3385    -3383    -3383    -3388    -3389 
   -3384    -3383    -3387    -3383    -3384    -3387    -3381    -3384 
   -3388    -3384    -3381    -3384    -3384    -3383    -3383    -3387 
   -3384    -3379    -3380    -3384    -3385    -3383    -3385    -3387 
   -3380    -3383    -3388    -3383    -3387    -3387    -3379    -3384 
   -3389    -3381    -3380    -3388    -3384    -3379    -3387    -3388 
   -3379    -3381    -3384    -3381    -3385    -3388    -3384    -3384 
   -3385    -3384    -3385    -3384    -3383    -3385    -3385    -3381 
   -3383    -3385    -3384    -3381    -3384    -3385    -3383    -3383 
   -3383    -3383    -3384    -3384    -3387    -3388    -3384    -3381 
   -3384    -3385    -3381    -3383    -3387    -3384    -3381    -3387 
   -3383    -3381    -3387    -3383    -3381    -3389    -3387    -3381 
   -3385    -3387    -3380    -3384    -3387    -3383    -3384    -3384 
   -3381    -3385    -3384    -3380    -3385    -3385    -3379    -3384 
   -3392    -3387    -3380    -3385    -3389    -3385    -3384    -3384 
   -3384    -3384    -3385    -3385    -3384    -3383    -3384    -3385 
   -3388    -3383    -3380    -3385    -3384    -3384    -3388    -3384 
   -3377    -3380    -3388    -3389    -3380    -3383    -3384    -3381 
   -3384    -3383    -3385    -3389    -3383    -3384    -3389    -3385 
   -3381    -3385    -3388    -3384    -3381    -3385    -3385    -3381 
   -3383    -3389    -3389    -3380    -3380    -3383    -3383    -3384 
   -3387    -3384    -3383    -3383    -3384    -3385    -3385    -3385 
   -3383    -3383    -3387    -3385    -3381    -3387    -3391    -3385 
   -3383    -3380    -3381    -3387    -3388    -3387    -3385    -3381 
   -3377    -3381    -3392    -3391    -3381    -3381    -3384    -3385 
   -3388    -3388    -3385    -3384    -3385    -3388    -3387    -3384 
   -3387    -3385    -3384    -3387    -3389    -3385    -3381    -3384 
   -3383    -3384    -3389    -3385    -3383    -3388    -3388    -3384 
   -3387    -3388    -3383    -3380    -3384    -3387    -3384    -3384 
   -3385    -3385    -3388    -3385    -3380    -3383    -3387    -3384 
   -3381    -3384    -3385    -3380    -3379    -3381    -3385    -3383 
   -3379    -3380    -3376    -3373    -3377    -3370    -3362    -3364 
   -3360    -3350    -3350    -3361    -3368    -3368    -3358    -3343 
   -3326    -3292    -3233    -3177    -3175    -3244    -3358    -3433 
   -3419    -3385    -3376    -3349    -3311    -3321    -3352    -3364 
   -3397    -3492    -3616    -3676    -3577    -3389    -3335    -3437 
   -3520    -3586    -3654    -3604    -3415    -3299    -3415    -3505 
   -3348    -3196    -3235    -3337    -3530    -3808    -3807    -3397 
   -3006    -2992    -3156    -3175    -3049    -2872    -2986    -3495 
   -3838    -3862    -3659    -3222    -2960    -3037    -3063    -3076 
   -3550    -4081    -4068    -3828    -3531    -3238    -3109    -3111 
   -3406    -3861    -4112    -4081    -3761    -3191    -2652    -2620 
   -3007    -3380    -3761    -4090    -3991    -3338    -2600    -2605 
   -3283    -3603    -3240    -2933    -3214    -3672    -3829    -3715 
   -3281    -2793    -2916    -3518    -3761    -3447    -3307    -3667 
   -3866    -3503    -3042    -3022    -3316    -3410    -3288    -3380 
   -3707    -3951    -3966    -3689    -3261    -2910    -2683    -2748 
   -3219    -3832    -4090    -3724    -3157    -2964    -3087    -3073 
   -2884    -2905    -3196    -3438    -3531    -3569    -3553    -3611 
   -3658    -3280    -2803    -2984    -3626    -3948    -3726    -3396 
   -3365    -3538    -3607    -3465    -3307    -3314    -3348    -3346 
   -3545    -3823    -3601    -2948    -2747    -3188    -3558    -3501 
   -3210    -3078    -3388    -3771    -3742    -3538    -3508    -3519 
   -3508    -3512    -3334    -2984    -2929    -3258    -3457    -3538 
   -3670    -3366    -2983    -3353    -3909    -3781    -3177    -2808 
   -3026    -3609    -4055    -3960    -3515    -3284    -3292    -3242 
   -3248    -3381    -3392    -3422    -3634    -3600    -3233    -3111 
   -3285    -3096    -2691    -2944    -3627    -3813    -3464    -3196 
   -3339    -3663    -3636    -3129    -2798    -3160    -3739    -3874 
   -3547    -3126    -3025    -3346    -3657    -3593    -3379    -3361 
   -3356    -3164    -3183    -3586    -3874    -3681    -3283    -3181 
   -3491    -3757    -3483    -3001    -3086    -3553    -3615    -3311 
   -3192    -3264    -3316    -3396    -3435    -3304    -3082    -2936 
   -3100    -3496    -3528    -3258    -3218    -3165    -3153    -3615 
   -4032    -3952    -3661    -3418    -3296    -3213    -3154    -3219 
   -3476    -3855    -3966    -3591    -3052    -2835    -3121    -3508 
   -3511    -3154    -2839    -2987    -3607    -4106    -3985    -3603 
   -3442    -3217    -2936    -3092    -3384    -3451    -3489    -3411 
   -3283    -3272    -3164    -3192    -3559    -3743    -3460    -3061 
   -3180    -3798    -4028    -3666    -3172    -2822    -2998    -3624 
   -3940    -3588    -3138    -3229    -3491    -3497    -3576    -3596 
   -3159    -2729    -2798    -3141    -3541    -3773    -3489    -3138 
   -3277    -3466    -3411    -3288    -3033    -3038    -3612    -3875 
   -3450    -3129    -3192    -3339    -3495    -3603    -3592    -3534 
   -3478    -3416    -3342    -3299    -3373    -3524    -3466    -3221 
   -3208    -3414    -3640    -3721    -3299    -2853    -3175    -3774 
   -3943    -3794    -3555    -3310    -3119    -3102    -3288    -3426 
   -3298    -3067    -3007    -3183    -3526    -3727    -3582    -3450 
   -3474    -3307    -3009    -3078    -3443    -3573    -3499    -3473 
   -3450    -3523    -3658    -3569    -3373    -3275    -3156    -3084 
   -3246    -3480    -3577    -3505    -3362    -3307    -3218    -3188 
   -3507    -3720    -3433    -3091    -3041    -3134    -3352    -3673 
   -3704    -3458    -3389    -3429    -3296    -3152    -3230    -3392 
   -3456    -3472    -3434    -3449    -3676    -3774    -3518    -3327 
   -3411    -3410    -3231    -3250    -3403    -3306    -3203    -3308 
   -3339    -3487    -3846    -3846    -3487    -3204    -3055    -3038 
   -3146    -3348    -3446    -3163    -2979    -3461    -3982    -3781 
   -3257    -3082    -3295    -3588    -3630    -3299    -2936    -2998 
   -3327    -3514    -3689    -3832    -3542    -3099    -3040    -3252 
   -3541    -3769    -3581    -3237    -3349    -3586    -3484    -3262 
   -3032    -2991    -3453    -3861    -3595    -3235    -3454    -3713 
   -3489    -3279    -3384    -3412    -3253    -3157    -3256    -3476 
   -3551    -3391    -3161    -2997    -3118    -3433    -3495    -3338 
   -3277    -3416    -3603    -3524    -3384    -3558    -3730    -3487 
   -3003    -2894    -3323    -3527    -3261    -3231    -3537    -3699 
   -3658    -3495    -3237    -3146    -3338    -3439    -3245    -3132 
   -3277    -3373    -3435    -3609    -3605    -3426    -3357    -3271 
   -3149    -3261    -3373    -3173    -3025    -3121    -3319    -3761 
   -4067    -3670    -3168    -3211    -3330    -3276    -3395    -3504 
   -3422    -3481    -3588    -3454    -3389    -3564    -3485    -3106 
   -2991    -3190    -3399    -3473    -3280    -3067    -3350    -3802 
   -3615    -3175    -3230    -3303    -3107    -3277    -3676    -3592 
   -3379    -3537    -3595    -3501    -3636    -3510    -3068    -3145 
   -3466    -3322    -3237    -3510    -3423    -2982    -2940    -3326 
   -3618    -3612    -3387    -3142    -3312    -3928    -4240    -3946 
   -3543    -3152    -2941    -3318    -3628    -3294    -3094    -3424 
   -3703    -3530    -3103    -3053    -3511    -3736    -3438    -3123 
   -3199    -3522    -3527    -3214    -3245    -3591    -3746    -3573 
   -3156    -2945    -3253    -3593    -3516    -3181    -2928    -2980 
   -3366    -3758    -3684    -3234    -2949    -3076    -3457    -3670 
   -3478    -3346    -3545    -3585    -3366    -3244    -3200    -3331 
   -3678    -3627    -3125    -3005    -3289    -3345    -3242    -3380 
   -3690    -3838    -3690    -3433    -3311    -3330    -3227    -3056 
   -3173    -3465    -3461    -3188    -3152    -3408    -3626    -3738 
   -3608    -3269    -3265    -3580    -3573    -3257    -3244    -3565 
   -3663    -3501    -3516    -3704    -3726    -3474    -3218    -3253 
   -3377    -3237    -3083    -3275    -3559    -3589    -3449    -3342 
   -3261    -3188    -3323    -3474    -3161    -2829    -3064    -3316 
   -3200    -3186    -3392    -3549    -3659    -3654    -3275    -2813 
   -2901    -3437    -3852    -3865    -3406    -2964    -3257    -3940 
   -4045    -3553    -3245    -3400    -3639    -3670    -3526    -3329 
   -3208    -3258    -3345    -3377    -3434    -3315    -3024    -3106 
   -3574    -3712    -3330    -2951    -3024    -3399    -3487    -3145 
   -2849    -3014    -3539    -3761    -3423    -3221    -3489    -3732 
   -3619    -3368    -3314    -3408    -3562    -3889    -4067    -3778 
   -3469    -3510    -3730    -3937    -3981    -3716    -3233    -2825 
   -2744    -2911    -2967    -2898    -2938    -2918    -2789    -2952 
   -3514    -4148    -4514    -4480    -4248    -4156    -4286    -4386 
   -3996    -2986    -1993    -1620    -1804    -2420    -3349    -4153 
   -4456    -4167    -3476    -2895    -2825    -3200    -3651    -3824 
   -3642    -3303    -3078    -2967    -2720    -2450    -2629    -3358 
   -4363    -5246    -5359    -4164    -2160     -843     -989    -1921 
   -3165    -4600    -5208    -4220    -2590    -2038    -3342    -5309 
   -5498    -3424    -1742    -2393    -4068    -4681    -3827    -2633 
   -2450    -3418    -4395    -4392    -3603    -2783    -2369    -2516 
   -2894    -2735    -2153    -1954    -2108    -2199    -2355    -3005 
   -4288    -5201    -4561    -3064    -2238    -2304    -2563    -3009 
   -4305    -6034    -6605    -5487    -4136    -4253    -5494    -5729 
   -4171    -2681    -2794    -3366    -2600     -989     -611    -2003 
   -3342    -3160    -2408    -2654    -3674    -4139    -3323    -2080 
   -2222    -3774    -4837    -4758    -4372    -4006    -3391    -2413 
   -1466    -1471    -2938    -4625    -4672    -3234    -2074    -2432 
   -4012    -5152    -4869    -4083    -3817    -3898    -3765    -3581 
   -3797    -3923    -3604    -3495    -3667    -3640    -3505    -3265 
   -2813    -2513    -2558    -2810    -3123    -3299    -3352    -3522 
   -3746    -3478    -2523    -1723    -2072    -3415    -4367    -3802 
   -2392    -1814    -2529    -3477    -3966    -4399    -5047    -5136 
   -3977    -2617    -2614    -3809    -4947    -5368    -5211    -4738 
   -3970    -2874    -1844    -1591    -2201    -3019    -3385    -3302 
   -3319    -3316    -2764    -2158    -2238    -2654    -2735    -2668 
   -2963    -3407    -3492    -3331    -3289    -3283    -3072    -2837 
   -3230    -4244    -4477    -3204    -1965    -2506    -4383    -5552 
   -5194    -4766    -5293    -5613    -4514    -2720    -1840    -2146 
   -2339    -1784    -1459    -2080    -2999    -3230    -2687    -2296 
   -2646    -3202    -3484    -3811    -4203    -3996    -3118    -2500 
   -2843    -3858    -4695    -4792    -4513    -4509    -4503    -3958 
   -3430    -3782    -4580    -4669    -4086    -3651    -3300    -2801 
   -2501    -2409    -2359    -2552    -2863    -3022    -3202    -3233 
   -2774    -2205    -2022    -2376    -3221    -4035    -4199    -3846 
   -3607    -3785    -4216    -4399    -3944    -3242    -2992    -3346 
   -4043    -4542    -4313    -3612    -3109    -2972    -2937    -2921 
   -3275    -3905    -3967    -3325    -2817    -2928    -3384    -3744 
   -3848    -3885    -3998    -3862    -2957    -1696    -1552    -2930 
   -4310    -4441    -3508    -2515    -2555    -3605    -4549    -4729 
   -4167    -3115    -2374    -2525    -2945    -3026    -3034    -3073 
   -2953    -2870    -3191    -3905    -4437    -4071    -2847    -1769 
   -1748    -2623    -3534    -3902    -3797    -3630    -3812    -4378 
   -4774    -4486    -3767    -3271    -3289    -3616    -3699    -3342 
   -2961    -2706    -2511    -2735    -3503    -4025    -3577    -2678 
   -2331    -2689    -3276    -3566    -3323    -3084    -3453    -3956 
   -3754    -2948    -2323    -2461    -3240    -3847    -3647    -3095 
   -3115    -3836    -4600    -4722    -3998    -2941    -2442    -2809 
   -3362    -3595    -3846    -4340    -4742    -4668    -4083    -3383 
   -3018    -3110    -3357    -3365    -3118    -2922    -2978    -3202 
   -3330    -3160    -2922    -3138    -3634    -3751    -3612    -3711 
   -3846    -3547    -2974    -2857    -3530    -4333    -4479    -3967 
   -3420    -3450    -3785    -3501    -2629    -2111    -2358    -3025 
   -3623    -3835    -3573    -3096    -2829    -2830    -2961    -3254 
   -3597    -3740    -3647    -3461    -3323    -3210    -2986    -2774 
   -2867    -3279    -3716    -3802    -3464    -3142    -3181    -3403 
   -3555    -3505    -3322    -3307    -3549    -3754    -3715    -3504 
   -3213    -2857    -2651    -2992    -3873    -4631    -4689    -4137 
   -3362    -2744    -2647    -3009    -3393    -3630    -3742    -3727 
   -3713    -3750    -3608    -3186    -2871    -3192    -3954    -4361 
   -4052    -3273    -2431    -1949    -2083    -2778    -3666    -4117 
   -3863    -3433    -3410    -3601    -3420    -2925    -2700    -2875 
   -3015    -2953    -3063    -3441    -3591    -3397    -3429    -3916 
   -4268    -3908    -3086    -2575    -2816    -3458    -3843    -3824 
   -3748    -3848    -3906    -3613    -3258    -3310    -3511    -3298 
   -2754    -2488    -2809    -3412    -3720    -3519    -3302    -3670 
   -4487    -4972    -4661    -3964    -3615    -3774    -3981    -3983 
   -3997    -3929    -3331    -2340    -1669    -1621    -1898    -2137 
   -2245    -2473    -3038    -3663    -3947    -3846    -3530    -3225 
   -3181    -3454    -3707    -3628    -3403    -3357    -3457    -3453 
   -3264    -3102    -3127    -3153    -3005    -2909    -3213    -3757 
   -3834    -3227    -2662    -2767    -3364    -3906    -4063    -3932 
   -3820    -3777    -3676    -3659    -3782    -3709    -3442    -3434 
   -3747    -3913    -3596    -2968    -2520    -2670    -3292    -3715 
   -3627    -3373    -3248    -3246    -3331    -3460    -3541    -3539 
   -3508    -3480    -3453    -3451    -3478    -3526    -3582    -3582 
   -3534    -3466    -3395    -3433    -3546    -3546    -3434    -3414 
   -3511    -3296    -2533    -1888    -2088    -2810    -3206    -3046 
   -2814    -2990    -3520    -3970    -4113    -4117    -4135    -4099 
   -4010    -3908    -3742    -3593    -3572    -3568    -3531    -3520 
   -3501    -3399    -3196    -2957    -2789    -2739    -2828    -3121 
   -3593    -3950    -3851    -3377    -3030    -3125    -3451    -3649 
   -3623    -3515    -3545    -3717    -3765    -3589    -3395    -3298 
   -3233    -3142    -3107    -3237    -3420    -3411    -3179    -3001 
   -3107    -3350    -3400    -3339    -3565    -3964    -3924    -3325 
   -2766    -2787    -3280    -3624    -3415    -3002    -2974    -3283 
   -3407    -3206    -3003    -3019    -3181    -3319    -3380    -3485 
   -3651    -3703    -3632    -3599    -3624    -3618    -3541    -3435 
   -3314    -3130    -2945    -2889    -2965    -3100    -3199    -3187 
   -3117    -3125    -3303    -3603    -3866    -3960    -3862    -3636 
   -3412    -3352    -3458    -3559    -3551    -3451    -3365    -3420 
   -3545    -3582    -3543    -3566    -3781    -4016    -3951    -3632 
   -3369    -3302    -3318    -3225    -3034    -2978    -3137    -3272 
   -3186    -3075    -3138    -3314    -3604    -3942    -4054    -3825 
