Origin Time       2025/03/30 22:55:00
Lat.              41.993
Long.             142.725
Depth. (km)       55
Mag.              4.6
Station Code      HKD157
Station Lat.      41.9053
Station Long.     140.9698
Station Height(m) 37
Record Time       2025/03/30 22:56:36
Sampling Freq(Hz) 100Hz
Duration Time(s)  60
Dir.              U-D
Scale Factor      7845(gal)/8223790
Max. Acc. (gal)   1.615
Last Correction   2025/03/30 22:56:37
Memo.             
[...]
   28788    28684    28792    29011    29178    29239    29189    29012 
   28761    28622    28719    28935    29147    29308    29339    29224 
   29031    28809    28647    28634    28757    28945    29185    29404 
   29405    29178    28910    28656    28463    28520    28823    29141 
   29340    29381    29189    28856    28622    28614    28815    29139 
   29397    29394    29146    28858    28659    28628    28810    29035 
   29166    29228    29138    28903    28756    28777    28906    29095 
   29254    29316    29197    28861    28534    28459    28657    29047 
   29390    29457    29316    29070    28738    28494    28494    28695 
   29047    29405    29500    29289    29000    28763    28590    28594 
   28869    29247    29501    29531    29274    28848    28510    28375 
   28501    28906    29342    29574    29556    29273    28810    28383 
   28193    28364    28849    29408    29729    29610    29149    28679 
   28452    28526    28829    29170    29392    29466    29346    29015 
   28678    28544    28586    28736    28973    29230    29382    29328 
   29092    28782    28556    28606    28880    29126    29288    29357 
   29222    28933    28687    28636    28823    29103    29254    29189 
   28954    28733    28699    28842    29077    29289    29290    29046 
   28759    28641    28757    29002    29168    29118    28966    28925 
   28980    29038    29091    29089    29018    28954    28953    29015 
   29061    29022    28911    28775    28713    28761    28858    29085 
   29409    29524    29274    28821    28493    28522    28819    29170 
   29390    29385    29254    29035    28696    28470    28575    28850 
   29049    29172    29249    29161    28945    28763    28661    28710 
   28946    29184    29265    29203    29070    28962    28921    28896 
   28849    28802    28830    28995    29223    29351    29280    29011 
   28695    28563    28657    28850    29095    29324    29390    29245 
   28946    28644    28557    28740    29047    29286    29274    29065 
   28861    28769    28883    29101    29169    29116    29020    28852 
   28779    28921    29114    29147    28929    28659    28647    28895 
   29218    29408    29292    28995    28748    28557    28513    28815 
   29296    29563    29492    29184    28798    28549    28560    28775 
   29066    29288    29354    29219    28944    28765    28784    28858 
   28907    28915    28894    28956    29124    29255    29205    28968 
   28715    28629    28734    28958    29182    29297    29276    29142 
   28892    28597    28483    28661    29003    29343    29556    29516 
   29201    28795    28539    28528    28722    28983    29182    29278 
   29218    29037    28911    28885    28904    28938    28941    28962 
   29035    29035    28962    28929    28935    28968    29003    28998 
   29012    29106    29147    29029    28841    28702    28701    28871 
   29091    29273    29332    29135    28799    28570    28530    28709 
   29046    29355    29492    29382    29031    28661    28533    28694 
   29011    29255    29324    29276    29120    28885    28691    28636 
   28771    28987    29080    29064    29083    29110    29061    28961 
   28863    28810    28840    28925    29011    29116    29185    29068 
   28825    28696    28733    28890    29133    29358    29457    29330 
   28976    28559    28336    28548    29081    29500    29563    29277 
   28838    28595    28598    28706    28902    29061    29119    29153 
   29100    29006    29022    29045    28987    28941    28894    28833 
   28844    28952    29084    29124    29058    29018    29053    29081 
   29027    28907    28806    28802    28926    29108    29196    29149 
   29050    28887    28669    28568    28721    29119    29538    29583 
   29180    28679    28402    28468    28836    29227    29397    29357 
   29170    28891    28668    28636    28823    29119    29300    29277 
   29103    28879    28773    28815    28809    28703    28734    29016 
   29315    29385    29207    28898    28671    28626    28732    29015 
   29355    29479    29323    28975    28580    28425    28638    29010 
   29303    29392    29209    28908    28750    28768    28879    29033 
   29162    29195    29095    28908    28750    28699    28799    29037 
   29205    29174    29092    29037    28961    28904    28876    28861 
   28956    29162    29278    29172    28903    28617    28541    28776 
   29093    29272    29303    29209    29053    28890    28709    28626 
   28796    29093    29273    29245    29031    28791    28710    28807 
   28993    29158    29218    29199    29087    28865    28729    28787 
   28902    29004    29110    29158    29120    29026    28869    28680 
   28607    28786    29128    29404    29458    29249    28856    28525 
   28460    28657    29008    29355    29459    29246    28942    28748 
   28660    28709    28952    29251    29421    29400    29168    28822 
   28563    28483    28567    28787    29057    29293    29458    29439 
   29150    28784    28602    28615    28741    28938    29139    29277 
   29289    29135    28895    28711    28684    28875    29164    29288 
   29230    29108    28903    28695    28613    28651    28863    29201 
   29424    29457    29344    29070    28702    28406    28371    28651 
   29052    29381    29562    29466    29088    28651    28391    28439 
   28761    29193    29501    29521    29305    28966    28606    28399 
   28432    28694    29138    29543    29670    29496    29147    28790 
   28520    28381    28466    28788    29196    29538    29641    29366 
   28857    28431    28352    28675    29089    29296    29311    29223 
   29068    28863    28683    28711    28952    29162    29230    29191 
   29074    28941    28848    28849    28958    29012    28925    28879 
   28953    28998    28987    28989    28957    28906    28929    28991 
   29037    29099    29145    29068    28935    28883    28849    28813 
   28881    29023    29104    29100    29066    28979    28854    28831 
   28911    28929    28887    28945    29070    29115    29108    29119 
   29107    29018    28813    28564    28513    28787    29212    29492 
   29470    29203    28827    28522    28486    28768    29162    29417 
   29435    29193    28776    28462    28475    28786    29182    29432 
   29401    29146    28912    28856    28879    28875    28823    28783 
   28864    29042    29230    29336    29216    28938    28732    28634 
   28668    28919    29293    29558    29497    29060    28551    28347 
   28480    28819    29219    29438    29354    29085    28822    28695 
   28729    28904    29145    29273    29216    29062    28914    28852 
   28861    28848    28811    28844    28983    29166    29276    29254 
   29100    28869    28738    28768    28849    28954    29095    29200 
   29158    28930    28711    28686    28813    29031    29295    29440 
   29323    29020    28734    28561    28544    28748    29112    29407 
   29458    29262    28968    28775    28690    28653    28756    29025 
   29278    29305    29110    28910    28804    28750    28780    28912 
   29111    29277    29231    28979    28728    28615    28686    28896 
   29153    29417    29538    29340    28946    28576    28390    28526 
   28908    29266    29451    29423    29178    28804    28478    28416 
   28690    29114    29417    29427    29168    28807    28566    28609 
   28838    29031    29162    29296    29390    29351    29111    28721 
   28418    28413    28711    29160    29492    29548    29351    28969 
   28615    28462    28462    28624    28972    29335    29535    29485 
   29224    28944    28725    28544    28518    28725    29033    29330 
   29500    29401    29087    28737    28499    28490    28719    29070 
   29397    29486    29238    28902    28690    28588    28674    28934 
   29164    29285    29317    29236    29042    28803    28649    28640 
   28707    28846    29061    29245    29346    29305    29026    28629 
   28414    28560    28985    29420    29660    29558    29074    28522 
   28246    28348    28831    29436    29716    29524    29062    28633 
   28439    28522    28827    29173    29346    29281    29052    28821 
   28783    28904    28985    28999    29038    29074    29058    29020 
   28979    28914    28852    28838    28861    28929    29089    29281 
   29311    29072    28741    28610    28750    29008    29188    29151 
   28987    28895    28885    28945    29077    29120    29030    28966 
   28927    28857    28795    28765    28841    29052    29223    29170 
   28960    28853    28969    29093    29037    28910    28854    28880 
   28941    28966    28973    29030    29103    29134    29123    29080 
   28996    28845    28702    28753    29008    29250    29309    29146 
   28836    28599    28637    28894    29201    29421    29370    29103 
   28895    28788    28750    28856    28987    29015    28996    28952 
   28861    28795    28826    28938    29060    29164    29231    29184 
   28995    28795    28722    28773    28871    29000    29139    29249 
   29339    29288    28973    28621    28489    28598    28930    29309 
   29419    29211    28900    28653    28545    28629    28899    29200 
   29355    29354    29216    28930    28664    28594    28723    28980 
   29218    29289    29189    28973    28784    28748    28833    28996 
   29199    29322    29320    29247    29095    28827    28578    28572 
   28826    29138    29312    29251    29014    28771    28634    28617 
   28709    28867    29007    29093    29153    29200    29201    29118 
   28945    28783    28796    28987    29128    29104    29002    28888 
   28856    28975    29100    29042    28856    28730    28746    28842 
   28937    29033    29169    29334    29403    29241    28949    28764 
   28741    28817    28926    29022    29089    29119    29097    28995 
   28850    28815    28911    29033    29114    29107    29066    29038 
   28958    28865    28817    28769    28786    28948    29180    29307 
   29204    28964    28777    28703    28779    29002    29204    29305 
   29290    29062    28738    28593    28696    28946    29207    29388 
   29366    29015    28534    28309    28444    28772    29114    29339 
   29409    29358    29199    28922    28610    28464    28620    28935 
   29204    29367    29447    29446    29274    28914    28607    28579 
   28803    29097    29268    29281    29214    29057    28841    28657 
   28575    28725    29124    29489    29481    29039    28443    28152 
   28368    28815    29174    29363    29369    29254    29158    29084 
   28950    28799    28722    28790    28977    29095    29062    28981 
   28899    28865    28908    28965    29052    29120    29093    29061 
   29034    28938    28892    28938    28965    28973    29004    29069 
   29181    29262    29191    28939    28605    28459    28784    29467 
   29932    29720    29000    28271    27900    28054    28617    29255 
   29682    29747    29457    28935    28409    28175    28271    28493 
   28848    29393    29824    29833    29451    28921    28566    28539 
   28718    28988    29247    29332    29263    29182    29045    28764 
   28516    28495    28671    28952    29257    29411    29286    28995 
   28719    28568    28629    28950    29412    29690    29529    28988 
   28358    28051    28343    29010    29567    29776    29620    29142 
   28576    28251    28287    28671    29242    29691    29821    29531 
   28850    28232    28120    28475    29003    29409    29563    29571 
   29416    28962    28389    28154    28495    29165    29613    29508 
   29035    28691    28737    28949    29033    29007    28991    29020 
   29072    29110    29142    29141    29022    28810    28611    28509 
   28663    29170    29682    29701    29239    28615    28086    27997 
   28544    29401    29992    29990    29469    28721    28100    27951 
   28362    29033    29532    29643    29471    29185    28856    28559 
   28401    28512    28869    29254    29521    29575    29253    28688 
   28323    28275    28348    28601    29209    29889    30087    29641 
   28903    28354    28244    28525    28995    29401    29524    29309 
   28946    28750    28814    28892    28854    28873    29035    29201 
   29280    29263    29085    28723    28366    28351    28836    29482 
   29782    29581    29052    28493    28271    28501    28907    29216 
   29370    29359    29099    28597    28228    28462    29166    29731 
   29805    29461    28888    28371    28243    28557    29062    29575 
   29933    29779    29050    28220    27824    28089    28821    29571 
   29991    29845    29101    28213    27866    28289    29052    29597 
   29667    29280    28713    28402    28537    28885    29150    29243 
   29108    28846    28850    29203    29428    29268    28988    28817 
   28750    28857    29197    29516    29490    29134    28709    28514 
   28753    29207    29415    29295    29023    28672    28337    28189 
   28386    28934    29559    29901    29733    29064    28309    28011 
   28289    28877    29478    29810    29735    29407    29031    28645 
   28290    28193    28549    29181    29686    29829    29519    28833 
   28175    27959    28291    28989    29664    29961    29797    29289 
   28617    28001    27760    28088    28788    29539    30117    30214 
   29677    28841    28163    27915    28173    28733    29332    29836 
   30024    29736    29065    28173    27479    27565    28436    29554 
   30424    30672    30152    29169    28251    27765    27865    28537 
   29416    29933    29867    29430    28945    28611    28463    28476 
   28648    28911    29116    29150    29054    28993    29043    29050 
   28890    28695    28678    28919    29253    29400    29313    29134 
   28900    28671    28572    28624    28800    29064    29216    29174 
   29050    28880    28733    28780    29003    29184    29168    28991 
   28815    28763    28868    29016    29012    28989    29208    29439 
   29344    29080    28925    28875    28827    28725    28695    28980 
   29415    29505    29138    28620    28375    28602    28964    29118 
   29154    29222    29228    29016    28664    28458    28548    28863 
   29254    29577    29701    29543    29143    28702    28422    28368 
   28507    28775    29128    29457    29478    29089    28560    28239 
   28323    28756    29250    29590    29741    29639    29269    28806 
   28437    28383    28788    29377    29690    29554    29088    28630 
   28495    28602    28676    28726    28919    29212    29382    29301 
   29010    28638    28443    28657    29130    29405    29288    28996 
   28829    28887    29031    29089    29066    29077    29092    29006 
   28935    29003    29074    29057    28958    28837    28881    29122 
   29292    29215    28903    28489    28255    28429    28915    29452 
   29768    29625    29061    28439    28124    28308    28863    29388 
   29608    29528    29262    28929    28642    28522    28624    28877 
   29168    29401    29454    29253    28966    28796    28726    28710 
   28782    28910    29056    29180    29161    29003    28902    28894 
   28869    28845    28885    29019    29232    29374    29317    29127 
   28899    28726    28723    28879    29085    29204    29057    28749 
   28629    28777    28992    29111    29088    28992    28900    28773 
   28669    28780    29070    29281    29269    29066    28853    28830 
   28979    29160    29261    29172    28971    28881    28890    28918 
   29008    29077    29073    29092    29079    28908    28617    28410 
   28587    29116    29521    29523    29274    28984    28756    28620 
   28607    28773    29083    29367    29427    29219    28911    28669 
   28561    28611    28790    29016    29205    29300    29243    29034 
   28837    28830    28965    29096    29193    29214    29058    28827 
   28763    28853    28894    28837    28792    28848    29007    29154 
   29164    29118    29096    28989    28796    28709    28837    29108 
   29350    29401    29199    28860    28676    28769    28969    29104 
   29107    28966    28803    28775    28896    29056    29116    29038 
   28911    28849    28873    28935    28975    29000    29058    29101 
   29076    29006    28895    28791    28833    29015    29147    29142 
   29047    28896    28791    28818    28879    28892    28876    28902 
   29056    29246    29265    29135    28973    28814    28746    28815 
   28965    29134    29181    29041    28898    28877    28948    29081 
   29189    29165    29054    28961    28923    28912    28902    28925 
   28980    28989    28962    28983    29023    29030    29033    29010 
   28896    28777    28813    28989    29150    29185    29107    28987 
   28879    28819    28836    28934    29103    29269    29261    29038 
   28777    28648    28696    28857    28957    28945    28965    29065 
   29111    29038    28926    28846    28840    28929    29058    29165 
   29216    29154    28995    28856    28827    28919    29079    29169 
   29130    29049    28952    28856    28858    28902    28926    29027 
   29118    29006    28806    28759    28869    29006    29104    29150 
   29085    28944    28868    28881    28934    29026    29096    29084 
   28979    28795    28699    28831    29088    29242    29149    28887 
   28690    28737    29006    29254    29273    29127    28966    28861 
   28850    28918    28988    29022    28996    28903    28787    28748 
   28888    29119    29257    29307    29281    29092    28848    28772 
   28849    28902    28896    28917    28956    29000    29115    29257 
   29280    29153    28929    28694    28607    28746    29018    29257 
   29331    29218    28995    28759    28621    28645    28794    28992 
   29134    29130    29043    29015    29060    29103    29101    29065 
   29019    28944    28827    28750    28819    29026    29178    29097 
   28923    28871    28906    28973    29080    29124    29045    28946 
   28892    28888    29002    29207    29327    29226    28944    28657 
   28536    28605    28802    29050    29223    29204    29030    28842 
   28767    28848    29000    29087    29128    29215    29224    29042 
   28817    28688    28674    28787    28972    29126    29218    29276 
   29274    29138    28915    28756    28698    28761    28948    29080 
   29087    29106    29145    29096    28956    28802    28748    28877 
   29108    29236    29173    28988    28794    28691    28740    28941 
   29203    29336    29203    28910    28703    28733    28926    29095 
   29138    29083    28979    28881    28842    28881    28962    29031 
   29091    29131    29069    28910    28776    28764    28875    29030 
   29122    29097    28995    28883    28818    28836    28908    28995 
   29131    29296    29349    29232    29025    28823    28719    28707 
   28764    28950    29209    29331    29208    28930    28684    28610 
   28679    28807    28976    29147    29222    29177    29066    28944 
   28894    28939    28991    29050    29149    29169    29045    28888 
   28821    28872    28989    29076    29101    29079    28981    28842 
   28745    28746    28865    29033    29142    29176    29146    29037 
   28871    28745    28746    28861    29014    29142    29192    29134 
   29034    28968    28907    28840    28831    28890    28977    29079 
