Origin Time       2025/03/30 22:55:00
Lat.              41.993
Long.             142.725
Depth. (km)       55
Mag.              4.6
Station Code      HKD113
Station Lat.      42.1287
Station Long.     143.3153
Station Height(m) 15
Record Time       2025/03/30 22:56:19
Sampling Freq(Hz) 100Hz
Duration Time(s)  60
Dir.              N-S
Scale Factor      3920(gal)/6182761
Max. Acc. (gal)   2.864
Last Correction   2025/03/30 22:56:19
Memo.             
[...]
    -152     -152     -151     -151     -152     -152     -149     -145 
    -144     -146     -150     -152     -151     -151     -150     -149 
    -147     -149     -150     -148     -149     -153     -152     -149 
    -147     -149     -151     -151     -150     -150     -149     -147 
    -150     -152     -151     -151     -150     -149     -148     -147 
    -147     -148     -150     -150     -149     -148     -148     -149 
    -150     -150     -150     -151     -148     -146     -150     -154 
    -153     -149     -146     -146     -148     -150     -152     -151 
    -150     -150     -148     -149     -149     -146     -146     -150 
    -152     -152     -152     -150     -149     -149     -147     -144 
    -146     -149     -150     -151     -152     -152     -150     -146 
    -146     -147     -149     -150     -152     -153     -151     -150 
    -151     -150     -147     -149     -150     -149     -149     -150 
    -152     -151     -150     -148     -147     -148     -152     -153 
    -151     -149     -147     -147     -148     -148     -147     -148 
    -151     -152     -150     -149     -148     -150     -150     -149 
    -148     -147     -151     -154     -151     -148     -149     -148 
    -146     -146     -148     -150     -152     -154     -154     -151 
    -148     -146     -146     -148     -149     -149     -150     -151 
    -154     -157     -155     -150     -150     -154     -157     -157 
    -155     -155     -157     -159     -159     -157     -159     -163 
    -163     -159     -158     -159     -161     -162     -161     -157 
    -152     -148     -145     -148     -160     -173     -179     -175 
    -162     -144     -123     -100      -89     -104     -143     -180 
    -202     -208     -184     -127      -69      -44      -58     -104 
    -166     -219     -251     -264     -251     -193      -98        2 
      63       37      -71     -217     -357     -434     -383     -229 
     -80       14       56       35      -47     -152     -252     -318 
    -328     -282     -184      -26      138      197       93     -106 
    -287     -394     -442     -432     -322     -108      121      247 
     233      104      -97     -303     -439     -483     -438     -305 
    -150      -53      -18      -21      -53     -102     -156     -196 
    -207     -196     -158     -116     -131     -151     -105     -105 
    -235     -335     -304     -254     -252     -246     -161       36 
     213      215       59     -158     -343     -456     -515     -498 
    -360      -95      221      370      219      -72     -318     -507 
    -635     -594     -318       35      261      397      519      424 
     -67     -703    -1063    -1006     -618      -67      398      596 
     548      373      107     -285     -718     -962     -863     -464 
      76      538      701      524      121     -411     -892    -1087 
    -937     -525       53      604      856      682      214     -290 
    -621     -731     -710     -607     -390      -84      228      409 
     337      124      -94     -355     -560     -548     -431     -314 
    -118      117      205      137       61      -17     -199     -450 
    -604     -536     -301      -82       95      282      329      106 
    -252     -596     -811     -731     -399      -79      187      510 
     691      458      -91     -643     -967     -992     -787     -414 
      85      571      835      724      219     -459     -929     -999 
    -804     -494      -52      466      732      487      -70     -545 
    -720     -605     -436     -380     -260       34      313      445 
     427      204     -222     -669     -901     -793     -476     -235 
     -62      249      553      545      290       56      -68     -217 
    -505     -809     -939     -809     -384      236      737      848 
     567       73     -413     -692     -740     -696     -627     -438 
       0      595      927      697       91     -530     -937    -1057 
    -911     -520       14      464      665      529       68     -482 
    -873    -1032     -890     -466      -11      297      472      466 
     206     -260     -748     -939     -668     -182      220      421 
     352      108      -63     -147     -295     -514     -656     -532 
    -116      316      524      533      335     -105     -568     -848 
    -949     -827     -428       89      503      725      669      263 
    -341     -844    -1043     -881     -508     -157      143      410 
     494      359      149     -133     -528     -850     -874     -566 
     -73      378      615      589      350        7     -354     -674 
    -801     -587     -149      192      188     -138     -418     -315 
      12      240      273       52     -344     -572     -458     -155 
     126      182      -14     -219     -303     -384     -480     -442 
    -202       88      197       54     -184     -311     -247      -98 
     -17      -42     -183     -417     -555     -450     -213       11 
     222      348      252      -13     -330     -638     -799     -740 
    -508     -128      216      280      167      110       54     -135 
    -357     -479     -534     -566     -498     -294      -14      280 
     493      476      193     -181     -433     -536     -508     -256 
     133      346      292      114     -159     -495     -693     -637 
    -396      -93      116      196      256      293      234       56 
    -224     -448     -525     -584     -606     -421      -49      337 
     500      275     -191     -576     -670     -474     -184        4 
      38      -65     -209     -251     -220     -267     -332     -236 
     -62      -26     -125     -169      -31      121       26     -248 
    -521     -713     -639     -233      164      245      120       14 
     -33      -57      -91     -194     -321     -332     -216     -102 
     -69      -62      -17        3     -131     -469     -843     -923 
    -582      -55      349      430      193      -81     -161      -75 
      51       66     -111     -338     -426     -379     -301     -197 
     -24      137      131      -54     -248     -309     -244      -98 
      44       36     -157     -397     -471     -343     -249     -230 
     -99       40       36       45      145      177       55     -157 
    -350     -458     -506     -512     -363        1      362      434 
     134     -367     -732     -744     -496     -226      -56       63 
     170      196      134       30     -144     -372     -521     -495 
    -289       21      284      333      118     -231     -535     -673 
    -585     -271      135      406      445      363      191     -102 
    -402     -590     -609     -442     -214      -12      145      131 
     -33     -105      -77     -182     -445     -648     -601     -295 
      94      347      354       38     -547     -878     -570     -103 
      25       92      318      406      183     -186     -469     -530 
    -487     -521     -498     -257       26      228      356      279 
      76      -25     -226     -631     -758     -388       81      299 
     249       59     -170     -397     -535     -491     -301      -82 
      83      157      110      -57     -241     -304     -315     -440 
    -602     -647     -624     -511     -134      435      863      860 
     380     -303     -850    -1048     -776     -236       91       51 
     -42      -40     -141     -298     -230      -53     -100     -264 
    -247      -84       61      160      174      -25     -397     -577 
    -344      -20       57       12       21       39       26      -26 
    -172     -392     -475     -263       16       45     -168     -385 
    -312       84      386      312       65     -107     -216     -421 
    -746     -940     -830     -524     -158      161      259       99 
    -122     -208     -191     -239     -375     -474     -480     -319 
     125      637      727      271     -344     -731     -773     -521 
    -134      167      251      172       91      111      207      202 
    -127     -633     -848     -644     -275       44      207      151 
     -72     -238     -158       29      103       73       -5     -131 
    -234     -219     -118     -125     -342     -544     -452     -175 
      17      155      257      100     -238     -452     -525     -541 
    -481     -353     -168       49      189      149      -49     -295 
    -497     -589     -576     -467     -128      383      654      489 
     104     -275     -585     -820     -919     -775     -367      188 
     663      810      577      150     -320     -764     -965     -735 
    -299      -50      -62     -125      -39      146      214       77 
    -272     -727     -866     -484      -38      134      313      618 
     663      296     -115     -316     -411     -456     -423     -440 
    -569     -604     -359       60      332      221     -159     -490 
    -592     -450     -121      226      437      456      228     -143 
    -419     -561     -587     -364       62      338      253       10 
    -170     -340     -487     -496     -457     -434     -249      130 
     374      195     -255     -595     -711     -712     -597     -362 
    -157      -27      163      334      197     -206     -541     -694 
    -696     -510     -163      329      906     1245     1173      876 
     432     -116     -450     -408     -150      216      601      763 
     568      156     -269     -562     -587     -387     -220     -207 
    -235     -217     -134      -19      -38     -306     -718    -1093 
   -1337    -1389    -1213     -901     -616     -477     -617    -1033 
   -1456    -1618    -1413     -915     -461     -338     -370     -198 
     179      436      436      469      771     1189     1519     1683 
    1582     1217      802      436       32     -413     -819    -1106 
   -1127     -810     -297      165      359      239        4     -126 
    -120      -65      -22        7       75      207      230      -86 
    -650    -1093    -1104     -589      230      894     1110      950 
     648      360       77     -292     -757    -1152    -1305    -1223 
    -946     -502     -114      -58     -308     -619     -806     -750 
    -369      218      642      609      244     -126     -360     -453 
    -378     -101      252      466      521      461      178     -293 
    -670     -769     -645     -493     -441     -373     -104      258 
     363       68     -424     -803     -865     -638     -371     -273 
    -288     -248     -144     -101     -152      -84      401     1167 
    1616     1395      624     -476    -1611    -2428    -2741    -2433 
   -1435      -91      934     1287     1154      860      505       19 
    -552     -985    -1137    -1021     -599       67      617      821 
     813      753      706      615      247     -495    -1312    -1789 
   -1704    -1102     -333      158      182     -110     -371     -338 
     -86      184      443      760     1148     1493     1599     1322 
     617     -455    -1616    -2360    -2284    -1497     -484      444 
    1202     1611     1466      778     -165     -957    -1333    -1266 
    -895     -368      257      902     1374     1410      773     -431 
   -1625    -2253    -2141    -1413     -411      488     1094     1319 
    1065      316     -718    -1607    -1939    -1531     -564      419 
     904      799      346     -141     -503     -799     -961     -669 
     127      951     1277      922       -6    -1099    -1741    -1715 
   -1334     -777       17      899     1538     1755     1510      794 
    -225    -1172    -1751    -1849    -1506     -930     -268      400 
     827      918      883      757      366     -222     -682     -807 
    -696     -551     -482     -546     -812    -1243    -1588    -1580 
   -1164     -428      488     1374     1995     2162     1736      741 
    -440    -1284    -1610    -1594    -1384     -971     -360      341 
     983     1416     1531     1334      977      646      385      100 
    -156     -171       -9       17     -187     -499     -811    -1051 
   -1234    -1364    -1260     -816     -225      244      421      272 
       8     -109     -149     -448    -1029    -1386    -1018       36 
    1284     2152     2240     1549      499     -435    -1096    -1554 
   -1796    -1691    -1198     -536      -82      -47     -292     -498 
    -485     -310      -88      126      309      356      115     -365 
    -779     -898     -789     -667     -622     -515     -119      655 
    1580     2146     1928     1030      -47     -899    -1381    -1423 
    -983     -165      719     1212      998      231     -587     -992 
    -844     -422     -143     -150     -336     -554     -634     -463 
    -140      149      344      458      416      120     -368     -757 
    -807     -680     -737    -1074    -1466    -1625    -1459    -1080 
    -619     -155      280      644      874     1091     1546     2163 
    2478     2128     1168      -66    -1184    -1889    -2067    -1692 
    -807      298     1128     1336      892        0    -1072    -2189 
   -3288    -4085    -4135    -3226    -1579      336     2092     3398 
    4048     3869     2814     1186     -404    -1396    -1518     -940 
    -236      158      296      429      621      615      108     -767 
   -1446    -1403     -516      850     1964     2120     1140     -525 
   -2269    -3677    -4499    -4535    -3630    -1875      360     2573 
    4104     4368     3392     1734      -75    -1696    -2776    -2962 
   -2147     -586     1172     2455     2744     1961      559     -702 
   -1265    -1050     -333      397      649      298     -389    -1131 
   -1737    -1951    -1562     -620      524     1341     1513     1184 
     621     -116    -1085    -2235    -3143    -3118    -1871       58 
    1673     2236     1736      684     -417    -1230    -1495    -1077 
     -48     1275     2351     2600     1733      -39    -2062    -3526 
   -3834    -2949    -1346      407     1884     2781     2873     2070 
     569    -1134    -2436    -2864    -2249     -794      997     2493 
    3206     2967     1950      548     -845    -1933    -2463    -2295 
   -1533     -527      240      403       -3     -536     -772     -634 
    -281       61      193      136       34     -164     -641    -1371 
   -1998    -2075    -1487     -482      620     1567     2183     2415 
    2285     1770      857     -264    -1244    -1797    -1788    -1237 
    -339      585     1208     1323      925      217     -501    -1034 
   -1358    -1486    -1384    -1087     -751     -498     -342     -297 
    -368     -454     -421     -238       21      265      430      461 
     286     -118     -634    -1008     -981     -458      434     1334 
    1799     1631      979      128     -662    -1195    -1362    -1162 
    -726     -287      -36      -15     -128     -237     -301     -341 
    -303      -76      359      855     1188     1230     1018      640 
     166     -266     -494     -477     -278      -46       23     -159 
    -531     -967    -1304    -1415    -1286     -968     -580     -288 
    -149     -105     -107     -115      -48      196      646     1109 
    1210      738     -164    -1155    -1885    -2132    -1854    -1136 
    -131      979     1970     2524     2350     1382     -145    -1752 
   -2885    -3156    -2525    -1328      -42      997     1601     1600 
     948      -68     -981    -1479    -1449     -930     -156      546 
     888      743      263     -291     -763    -1038    -1032     -772 
    -326      235      790     1173     1252     1001      478     -236 
    -961    -1416    -1407     -953     -231      495      968     1045 
     709       95     -526     -940    -1114    -1075     -845     -478 
     -36      429      767      751      353     -219     -697     -856 
    -674     -327       38      330      435      305      -17     -442 
    -799     -893     -628      -84      505      863      850      527 
      57     -429     -844    -1063     -973     -624     -206      120 
     294      323      212      -49     -407     -724     -842     -624 
     -67      561      901      805      390     -116     -566     -904 
   -1048     -939     -634     -248      105      306      272       32 
    -284     -573     -803     -940     -884     -563      -44      503 
     910     1081     1030      832      533      180     -140     -412 
    -656     -814     -848     -817     -762     -665     -498     -213 
     175      498      542      272     -121     -405     -466     -334 
    -131       43      156      181       94      -98     -354     -575 
    -628     -468     -156      181      354      214     -161     -537 
    -749     -777     -677     -511     -288        4      331      597 
     675      480      103     -232     -419     -489     -416     -154 
     240      628      827      677      156     -554    -1148    -1407 
   -1322    -1061     -837     -718     -619     -443     -170      111 
     286      356      381      367      299      189       57      -70 
    -183     -321     -558     -892    -1154    -1104     -654       70 
     828     1337     1399     1032      416     -257     -831    -1180 
   -1237    -1024     -624     -157      307      745     1073     1133 
     857      303     -426    -1141    -1583    -1583    -1180     -592 
     -54      309      439      328       92     -100     -146      -14 
     245      476      497      256     -123     -488     -785     -987 
   -1009     -793     -392      113      610      927      942      669 
     171     -463    -1077    -1503    -1628    -1420     -949     -367 
     135      416      473      424      353      270      206      226 
     316      362      271       67     -179     -411     -546     -485 
    -231       96      361      474      374       50     -386     -772 
   -1017    -1110    -1030     -756     -312      210      651      837 
     701      320     -153     -560     -820     -943     -945     -829 
    -613     -352     -150     -101     -169     -197      -74      175 
     442      591      529      271      -76     -401     -628     -700 
    -590     -348      -49      243      449      503      398      169 
    -121     -422     -722     -937     -892     -555     -111      246 
     433      428      245      -57     -345     -486     -487     -428 
    -320     -166      -56      -21        6       22      -27      -81 
     -37      100      261      373      346      101     -361     -919 
   -1355    -1462    -1159     -512      281      956     1332     1389 
    1167      672      -21     -720    -1247    -1528    -1559    -1384 
   -1080     -734     -396      -78      179      320      340      285 
     207       98     -106     -427     -777     -994     -943     -593 
     -41      545      990     1155      991      580       66     -425 
    -773     -882     -765     -545     -337     -165       12      198 
     325      353      297      161      -24     -161     -196     -206 
    -282     -407     -509     -539     -478     -329     -100      186 
     473      680      739      606      292      -86     -382     -560 
    -672     -715     -636     -412     -103      175      330      339 
     204      -65     -420     -774     -995     -945     -618     -185 
