Origin Time       2025/03/30 22:55:00
Lat.              41.993
Long.             142.725
Depth. (km)       55
Mag.              4.6
Station Code      HKD108
Station Lat.      42.2528
Station Long.     142.5643
Station Height(m) 42
Record Time       2025/03/30 22:56:14
Sampling Freq(Hz) 100Hz
Duration Time(s)  69
Dir.              U-D
Scale Factor      3920(gal)/6182761
Max. Acc. (gal)   1.790
Last Correction   2025/03/30 22:56:14
Memo.             
[...]
   23423    23422    23421    23422    23423    23423    23422    23422 
   23423    23423    23424    23422    23421    23423    23423    23423 
   23423    23423    23423    23422    23425    23426    23423    23421 
   23420    23421    23423    23423    23424    23424    23421    23421 
   23423    23423    23421    23423    23424    23423    23422    23423 
   23424    23423    23421    23423    23425    23422    23421    23423 
   23423    23422    23423    23424    23423    23423    23422    23422 
   23422    23422    23422    23422    23423    23422    23422    23423 
   23424    23423    23421    23421    23422    23423    23423    23422 
   23422    23423    23423    23424    23423    23423    23422    23421 
   23422    23425    23423    23421    23422    23423    23423    23424 
   23423    23422    23423    23422    23422    23425    23423    23422 
   23425    23425    23422    23421    23423    23423    23422    23423 
   23423    23423    23423    23425    23422    23420    23420    23422 
   23423    23422    23422    23425    23426    23424    23422    23423 
   23425    23422    23420    23424    23425    23421    23421    23425 
   23425    23422    23424    23425    23422    23419    23420    23424 
   23425    23423    23422    23422    23421    23422    23421    23421 
   23423    23424    23425    23424    23424    23424    23422    23423 
   23423    23420    23420    23423    23424    23423    23422    23422 
   23424    23423    23422    23421    23422    23422    23423    23423 
   23424    23423    23422    23423    23423    23422    23421    23421 
   23423    23425    23423    23422    23423    23423    23422    23422 
   23422    23422    23423    23423    23422    23421    23422    23424 
   23423    23422    23421    23422    23423    23423    23422    23423 
   23423    23422    23420    23422    23424    23423    23422    23423 
   23422    23421    23421    23422    23421    23420    23420    23422 
   23423    23423    23422    23423    23424    23422    23421    23422 
   23422    23421    23421    23421    23422    23422    23423    23425 
   23424    23421    23421    23422    23422    23423    23423    23421 
   23421    23422    23424    23424    23422    23420    23421    23422 
   23421    23421    23422    23421    23422    23422    23421    23421 
   23424    23424    23420    23420    23423    23422    23422    23423 
   23422    23421    23422    23424    23423    23420    23421    23421 
   23421    23422    23422    23422    23422    23421    23420    23422 
   23422    23421    23422    23422    23420    23419    23422    23423 
   23423    23422    23422    23423    23422    23422    23422    23423 
   23423    23424    23423    23423    23423    23421    23420    23421 
   23419    23418    23421    23422    23422    23421    23420    23421 
   23420    23417    23421    23425    23420    23418    23422    23423 
   23422    23422    23422    23420    23420    23422    23423    23423 
   23422    23422    23423    23423    23422    23423    23423    23422 
   23422    23422    23420    23420    23423    23423    23421    23421 
   23422    23423    23421    23421    23424    23423    23421    23422 
   23422    23422    23421    23422    23424    23423    23423    23424 
   23422    23421    23422    23422    23422    23423    23424    23425 
   23422    23421    23422    23423    23423    23422    23423    23425 
   23423    23422    23422    23423    23424    23423    23424    23423 
   23421    23421    23423    23423    23422    23422    23424    23426 
   23425    23423    23422    23423    23425    23426    23425    23423 
   23422    23423    23423    23423    23424    23422    23422    23423 
   23422    23424    23425    23422    23421    23423    23423    23422 
   23422    23422    23422    23422    23423    23422    23421    23421 
   23422    23422    23421    23421    23424    23424    23422    23424 
   23425    23424    23422    23421    23423    23423    23422    23424 
   23424    23423    23422    23423    23423    23422    23422    23424 
   23423    23422    23424    23424    23423    23422    23424    23425 
   23423    23421    23422    23424    23422    23421    23422    23424 
   23423    23422    23421    23422    23424    23423    23423    23424 
   23423    23422    23424    23424    23422    23422    23424    23423 
   23421    23422    23423    23423    23423    23423    23423    23423 
   23422    23422    23423    23423    23421    23419    23420    23422 
   23420    23419    23418    23417    23415    23414    23415    23416 
   23416    23414    23411    23410    23408    23405    23404    23401 
   23394    23389    23394    23408    23423    23425    23413    23399 
   23396    23404    23412    23405    23388    23376    23376    23383 
   23402    23436    23463    23458    23428    23409    23408    23401 
   23388    23392    23408    23411    23397    23388    23405    23445 
   23479    23478    23447    23395    23330    23283    23296    23347 
   23374    23394    23456    23516    23510    23476    23475    23480 
   23429    23332    23241    23168    23129    23194    23395    23666 
   23900    24010    23971    23823    23631    23453    23309    23143 
   22888    22629    22608    22984    23622    24215    24538    24548 
   24317    23945    23504    23015    22545    22271    22316    22594 
   22958    23367    23831    24310    24656    24644    24203    23572 
   23065    22787    22722    22804    22853    22874    23144    23667 
   24109    24248    24056    23637    23197    22900    22918    23337 
   23817    23902    23602    23267    23186    23397    23698    23857 
   23782    23531    23283    23195    23215    23189    23080    22939 
   22812    22835    23191    23824    24295    24197    23709    23401 
   23530    23800    23774    23322    22754    22511    22735    23202 
   23571    23648    23521    23392    23371    23491    23706    23836 
   23632    23147    22914    23288    23944    24331    24175    23589 
   22980    22673    22681    22838    22927    22857    22802    23011 
   23513    24046    24301    24205    23921    23719    23736    23800 
   23680    23359    23006    22884    23071    23265    23216    23089 
   23092    23225    23459    23773    24026    24039    23772    23402 
   23198    23215    23254    23235    23277    23382    23464    23501 
   23416    23164    22934    22938    23120    23311    23486    23705 
   23953    24175    24385    24453    24035    23130    22287    22039 
   22430    23002    23258    23200    23170    23339    23633    23906 
   24043    24016    23859    23621    23411    23334    23346    23358 
   23369    23390    23444    23573    23671    23512    23073    22745 
   22922    23412    23698    23596    23327    23191    23366    23818 
   24317    24579    24428    23896    23225    22657    22281    22121 
   22224    22606    23177    23738    24085    24166    24084    23871 
   23511    23210    23217    23512    23900    24094    23856    23345 
   23105    23455    23976    23918    23160    22341    22055    22374 
   22996    23545    23806    23828    23820    23878    23875    23725 
   23552    23455    23381    23274    23164    23077    22986    22932 
   23062    23427    23861    24098    23993    23644    23313    23209 
   23328    23435    23329    23168    23302    23752    24115    24025 
   23584    23197    23041    22983    22908    22863    23010    23460 
   23987    24181    23960    23607    23415    23455    23519    23401 
   23200    23067    22979    22940    22969    23057    23228    23439 
   23602    23691    23691    23660    23759    24035    24295    24241 
   23733    22952    22227    21891    22200    23001    23786    24198 
   24170    23810    23399    23158    23117    23266    23479    23564 
   23589    23693    23780    23709    23491    23353    23519    23752 
   23607    23164    22963    23219    23499    23367    23073    23174 
   23737    24279    24274    23665    23012    22920    23343    23657 
   23453    23048    22916    22976    22926    22834    22999    23413 
   23699    23681    23613    23748    24097    24375    24055    23085 
   22322    22534    23402    23992    23845    23357    23154    23317 
   23513    23548    23479    23486    23692    23906    23771    23272 
   22827    22746    22912    23140    23355    23467    23468    23416 
   23305    23271    23509    23841    23854    23498    23247    23435 
   23763    23841    23683    23423    23149    23017    23072    23154 
   23149    23088    23014    22961    23010    23398    24248    24993 
   24785    23658    22605    22398    22856    23370    23644    23738 
   23729    23605    23397    23281    23374    23493    23462    23368 
   23263    23167    23200    23329    23451    23589    23714    23836 
   24011    24063    23848    23517    23194    22991    23116    23466 
   23617    23394    23033    22900    23100    23346    23440    23526 
   23629    23554    23300    23043    22834    22650    22623    22909 
   23352    23647    23718    23692    23736    23943    24277    24654 
   24814    24396    23528    22894    22908    23199    23206    22991 
   23062    23509    23820    23597    23072    22719    22678    22862 
   23157    23286    23125    23085    23490    23993    24081    23771 
   23519    23536    23501    23234    23130    23499    23996    24064 
   23607    23057    22897    23178    23549    23691    23585    23415 
   23391    23568    23801    23942    24009    24044    23844    23158 
   22318    22100    22693    23400    23539    23192    22932    23140 
   23727    24266    24353    23997    23575    23319    23090    22793 
   22650    22881    23340    23605    23498    23318    23393    23647 
   23726    23475    23185    23196    23448    23657    23755    23914 
   24137    24142    23791    23274    22848    22686    22726    22741 
   22740    22929    23364    23903    24216    23970    23317    22894 
   23026    23278    23211    23055    23191    23528    23710    23569 
   23329    23364    23700    24005    23998    23640    23241    23227 
   23591    23888    23799    23435    23168    23196    23352    23425 
   23447    23505    23559    23613    23766    23934    23803    23264 
   22683    22484    22658    23034    23653    24410    24788    24388 
   23426    22457    21895    21910    22434    23098    23470    23454 
   23275    23181    23304    23660    24130    24491    24538    24255 
   23806    23344    22968    22826    22994    23323    23609    23776 
   23757    23514    23194    23006    22961    22920    22870    22987 
   23400    24015    24591    24943    24997    24753    24306    23759 
   23191    22760    22601    22610    22584    22513    22551    22788 
   23184    23628    23971    24022    23723    23312    23145    23293 
   23530    23716    23820    23730    23441    23141    22992    23076 
   23360    23610    23649    23528    23352    23203    23158    23193 
   23249    23344    23569    23967    24360    24436    24063    23403 
   22782    22485    22604    23019    23435    23497    23143    22776 
   22835    23333    23967    24471    24635    24309    23656    23101 
   22866    22825    22764    22685    22785    23137    23611    24135 
   24649    24880    24631    24104    23590    23158    22740    22343 
   22120    22183    22490    23018    23737    24335    24452    24128 
   23674    23291    22963    22647    22496    22652    23011    23413 
   23762    24035    24283    24485    24528    24368    24017    23554 
   23140    22853    22670    22613    22768    23232    23874    24279 
   24218    23878    23547    23352    23240    23108    22944    22790 
   22662    22600    22697    22998    23394    23664    23675    23526 
   23448    23526    23633    23670    23702    23841    24125    24450 
   24545    24162    23393    22651    22273    22216    22224    22213 
   22346    22775    23459    24205    24748    24879    24614    24117 
   23499    22839    22309    22171    22572    23310    23935    24073 
   23616    22817    22209    22208    22779    23480    23825    23699 
   23362    23155    23286    23739    24259    24518    24371    23902 
   23327    22933    22888    23052    23169    23181    23170    23193 
   23306    23524    23702    23647    23403    23225    23273    23494 
   23717    23760    23570    23305    23200    23342    23557    23597 
   23465    23409    23576    23811    23834    23624    23439    23511 
   23855    24263    24396    24044    23315    22532    22024    21925 
   22141    22559    23124    23716    24144    24237    23981    23555 
   23191    23075    23250    23552    23764    23818    23813    23822 
   23843    23959    24235    24536    24572    24123    23271    22393 
   21926    22043    22537    23080    23433    23514    23442    23369 
   23290    23139    23051    23312    23893    24331    24236    23711 
   23190    22927    22894    23053    23367    23616    23518    23124 
   22841    22971    23469    24000    24192    23974    23640    23581 
   23858    24098    23972    23557    23119    22767    22460    22277 
   22410    22844    23289    23453    23319    23149    23210    23527 
   23982    24467    24793    24767    24380    23772    23122    22624 
   22422    22475    22575    22576    22582    22804    23176    23381 
   23264    23036    22976    23031    22954    22753    22676    22977 
   23746    24799    25758    26246    26063    25348    24447    23561 
   22760    22232    22179    22582    23221    23796    24055    23957 
   23650    23289    22971    22762    22719    22865    23109    23311 
   23384    23288    23069    22829    22667    22685    22931    23356 
   23844    24228    24363    24272    24119    24043    24022    23908 
   23612    23217    22898    22793    22927    23187    23404    23462 
   23316    23064    22901    22914    23035    23117    23025    22792 
   22607    22649    22998    23626    24423    25135    25378    24947 
   23989    22938    22312    22276    22606    22977    23210    23384 
   23579    23778    23956    24072    24114    24023    23744    23385 
   23184    23325    23734    24159    24336    24106    23610    23141 
   22803    22565    22440    22451    22607    22938    23471    24066 
   24418    24357    23955    23466    23182    23132    23151    23137 
   23081    23019    23014    23098    23211    23335    23590    24080 
   24720    25221    25238    24689    23794    22822    21988    21466 
   21417    21824    22377    22739    22812    22748    22731    22786 
   22932    23294    23889    24482    24789    24754    24561    24412 
   24386    24475    24551    24392    23893    23130    22271    21526 
   21093    21118    21606    22345    23074    23649    24058    24349 
   24542    24646    24679    24661    24603    24472    24294    24165 
   24072    23924    23672    23378    23185    23134    23125    23078 
   22989    22884    22823    22863    23016    23203    23314    23343 
   23327    23259    23124    22955    22837    22839    22982    23242 
   23548    23834    24088    24297    24356    24139    23672    23150 
   22775    22681    22871    23157    23407    23621    23730    23687 
   23597    23590    23729    23991    24211    24162    23784    23206 
   22587    22117    22009    22321    22841    23247    23408    23446 
   23532    23703    23841    23851    23781    23670    23467    23176 
   22919    22798    22817    22911    22976    23009    23190    23664 
   24343    24942    25191    25056    24694    24279    23878    23450 
   22985    22566    22243    21980    21776    21700    21804    22040 
   22352    22708    23082    23470    23854    24217    24517    24636 
   24531    24331    24146    23976    23797    23590    23323    23014 
   22780    22723    22803    22934    23108    23358    23669    23936 
   24019    23875    23660    23570    23599    23563    23270    22727 
   22216    22117    22586    23386    24087    24369    24205    23829 
   23516    23393    23465    23704    24044    24397    24658    24689 
   24397    23791    22991    22266    21913    21984    22284    22660 
   23079    23487    23811    24051    24202    24215    24080    23874 
   23709    23610    23524    23436    23414    23534    23753    23900 
   23834    23545    23147    22817    22712    22839    23059    23241 
   23346    23404    23477    23662    24020    24459    24716    24571 
   24081    23525    23155    23031    23084    23206    23264    23135 
   22772    22264    21846    21768    22115    22779    23544    24199 
   24641    24871    24935    24854    24623    24277    23860    23382 
   22890    22527    22446    22639    22891    22967    22838    22662 
   22547    22434    22279    22196    22289    22521    22842    23275 
   23835    24425    24849    24964    24794    24470    24144    23953 
   23946    24060    24209    24329    24308    24021    23486    22914 
   22525    22353    22269    22190    22187    22368    22743    23209 
   23653    24024    24324    24513    24518    24327    24007    23649 
   23332    23073    22846    22631    22436    22315    22352    22564 
   22897    23310    23762    24150    24362    24404    24359    24239 
   23976    23566    23157    22929    22889    22910    22901    22864 
   22879    23073    23431    23732    23776    23611    23480    23508 
   23553    23467    23330    23295    23368    23437    23415    23273 
   23042    22850    22813    22911    23077    23249    23361    23407 
   23439    23502    23603    23716    23870    24145    24497    24735 
   24745    24562    24245    23839    23418    23102    22981    23021 
   23068    22984    22761    22522    22433    22574    22848    23051 
   23099    23125    23298    23627    24018    24371    24597    24628 
   24444    24101    23736    23476    23321    23139    22886    22739 
   22844    23075    23234    23259    23194    23135    23170    23284 
   23399    23494    23629    23850    24087    24166    23995    23697 
   23463    23379    23413    23492    23499    23337    23055    22833 
   22785    22842    22874    22877    22927    22996    22988    22897 
   22792    22757    22889    23221    23623    23891    23969    23979 
   24020    24038    23954    23804    23669    23555    23396    23173 
   23005    23042    23311    23656    23871    23865    23696    23468 
   23276    23196    23267    23466    23707    23862    23848    23723 
   23621    23619    23714    23814    23809    23706    23577    23437 
   23302    23231    23242    23252    23198    23115    23066    23061 
   23072    23096    23174    23322    23473    23573    23659    23751 
   23749    23566    23274    23021    22920    22989    23108    23108 
   22959    22850    23003    23415    23859    24111    24106    23913 
   23635    23361    23138    22972    22879    22911    23082    23316 
   23502    23599    23682    23850    24083    24235    24180    23921 
   23577    23281    23113    23058    23065    23117    23185    23222 
   23243    23302    23445    23649    23802    23815    23715    23612 
   23584    23590    23521    23372    23268    23283    23370    23435 
   23409    23302    23201    23183    23239    23294    23308    23278 
