Origin Time       2025/03/30 22:55:00
Lat.              41.993
Long.             142.725
Depth. (km)       55
Mag.              4.6
Station Code      HKD106
Station Lat.      42.3414
Station Long.     142.3688
Station Height(m) 5
Record Time       2025/03/30 22:56:21
Sampling Freq(Hz) 100Hz
Duration Time(s)  60
Dir.              U-D
Scale Factor      7845(gal)/8223790
Max. Acc. (gal)   1.114
Last Correction   2025/03/30 22:56:21
Memo.             
    9929     9930     9926     9925     9929     9930     9930     9930 
    9925     9926     9931     9931     9929     9929     9927     9929 
    9931     9934     9936     9933     9930     9930     9929     9927 
    9927     9929     9930     9933     9936     9930     9926     9921 
    9917     9926     9940     9946     9945     9931     9915     9914 
    9926     9938     9942     9936     9923     9919     9925     9933 
    9937     9936     9931     9927     9925     9925     9923     9925 
    9933     9938     9936     9927     9922     9926     9936     9940 
    9936     9926     9921     9921     9925     9931     9936     9933 
    9931     9930     9925     9919     9923     9933     9946     9953 
    9942     9921     9909     9914     9930     9942     9946     9941 
    9930     9921     9923     9926     9927     9927     9930     9931 
    9930     9926     9927     9929     9930     9933     9933     9929 
    9930     9930     9926     9927     9929     9930     9931     9931 
    9929     9929     9930     9930     9929     9930     9931     9931 
    9931     9930     9926     9921     9922     9936     9945     9938 
    9925     9918     9915     9919     9931     9941     9940     9930 
    9925     9923     9927     9931     9931     9931     9929     9925 
    9926     9929     9930     9933     9931     9929     9927     9929 
    9927     9926     9925     9926     9930     9937     9937     9933 
    9930     9927     9926     9929     9933     9934     9933     9927 
    9923     9921     9925     9937     9946     9945     9927     9909 
    9907     9921     9936     9944     9940     9929     9922     9925 
    9931     9934     9927     9922     9923     9931     9938     9934 
    9930     9927     9926     9929     9933     9936     9933     9930 
    9929     9927     9929     9934     9938     9934     9926     9922 
    9926     9933     9933     9929     9923     9921     9925     9934 
    9938     9933     9926     9925     9929     9933     9934     9933 
    9927     9927     9930     9930     9929     9930     9930     9929 
    9927     9926     9925     9926     9929     9930     9929     9930 
    9931     9933     9933     9931     9927     9926     9931     9934 
    9931     9925     9925     9927     9930     9931     9929     9926 
    9926     9929     9933     9934     9934     9931     9927     9926 
    9929     9933     9938     9941     9936     9929     9925     9925 
    9927     9929     9929     9926     9925     9930     9934     9931 
    9929     9929     9925     9927     9936     9937     9931     9934 
    9936     9934     9930     9925     9923     9926     9929     9927 
    9929     9930     9931     9933     9936     9933     9925     9922 
    9925     9927     9930     9933     9933     9931     9930     9933 
    9933     9930     9927     9927     9929     9929     9930     9931 
    9933     9934     9931     9927     9929     9931     9930     9926 
    9925     9926     9929     9929     9926     9929     9934     9936 
    9934     9929     9926     9931     9931     9923     9923     9931 
    9933     9929     9931     9934     9933     9930     9931     9936 
    9930     9925     9926     9929     9931     9936     9931     9929 
    9930     9930     9930     9930     9930     9930     9930     9927 
    9926     9927     9927     9927     9929     9929     9929     9930 
    9930     9931     9931     9931     9930     9929     9929     9929 
    9927     9927     9929     9929     9929     9930     9930     9927 
    9927     9930     9931     9931     9931     9930     9927     9926 
    9925     9926     9929     9927     9926     9925     9925     9922 
    9921     9918     9910     9902     9895     9888     9883     9882 
    9886     9895     9900     9898     9894     9888     9875     9859 
    9845     9836     9830     9834     9848     9865     9880     9888 
    9884     9871     9840     9792     9747     9722     9722     9734 
    9747     9759     9787     9857     9946     9969     9879     9726 
    9610     9607     9738     9927    10065    10138    10211    10335 
   10489    10585    10530    10330    10087     9900     9822     9842 
    9913    10010    10154    10347    10546    10678    10659    10451 
   10112     9779     9532     9383     9342     9451     9733    10141 
   10539    10743    10631    10257     9813     9505     9452     9613 
    9829     9977    10029     9999     9934     9871     9802     9702 
    9572     9455     9432     9567     9806    10002    10025     9882 
    9715     9705     9879    10095    10199    10153    10010     9895 
    9940    10146    10361    10428    10327    10156    10061    10087 
   10099     9944     9672     9493     9553     9814    10089    10218 
   10172    10014     9846     9775     9799     9838     9844     9845 
    9921    10110    10331    10417    10251     9865     9481     9348 
    9516     9788     9956     9972     9946    10023    10193    10288 
   10204     9984     9722     9535     9512     9655     9880     9994 
    9779     9320     9009     9130     9601    10104    10353    10278 
   10038     9825     9741     9799     9904     9895     9721     9543 
    9616     9981    10359    10446    10251     9987     9810     9780 
    9879    10011    10089    10103    10052     9957     9922     9976 
    9994     9913     9865     9950    10096    10180    10162    10119 
   10130    10158    10076     9842     9609     9571     9753    10007 
   10158    10160    10080     9988     9875     9721     9593     9597 
    9772    10042    10228    10193     9990     9788     9703     9761 
    9937    10093    10073     9896     9749     9784     9972    10133 
   10084     9841     9614     9616     9846    10116    10228    10164 
   10050     9987     9979    10014    10049     9984     9776     9518 
    9367     9443     9741    10111    10381    10477    10426    10303 
   10169    10006     9779     9529     9389     9463     9734    10071 
   10304    10357    10282    10154    10012     9914     9890     9913 
    9915     9810     9582     9378     9424     9799    10349    10779 
   10854    10509     9857     9163     8769     8860     9313     9861 
   10280    10485    10569    10662    10693    10478     9988     9377 
    8885     8762     9082     9649    10150    10363    10296    10150 
   10127    10258    10355    10212     9872     9558     9441     9549 
    9783     9994    10138    10282    10424    10459    10342    10135 
    9933     9805     9778     9819     9860     9821     9706     9634 
    9748    10029    10282    10307    10088     9791     9601     9578 
    9653     9728     9760     9806     9948    10183    10382    10401 
   10203     9903     9702     9721     9900    10054    10071    10034 
   10058    10104    10052     9882     9730     9724     9814     9861 
    9822     9763     9757     9837     9956    10041    10085    10103 
   10060     9961     9872     9794     9684     9572     9528     9589 
    9728     9867     9961    10050    10157    10241    10243    10146 
   10008     9887     9788     9722     9717     9794     9957    10130 
   10174    10030     9786     9602     9579     9714     9918    10106 
   10251    10338    10320    10223    10104     9988     9895     9834 
    9778     9752     9828     9969    10029     9952     9880     9954 
   10120    10195    10062     9799     9595     9583     9737     9915 
    9977     9925     9900    10015    10204    10303    10191     9886 
    9520     9274     9273     9520     9902    10234    10341    10172 
    9875     9664     9636     9769    10010    10253    10346    10216 
    9964     9782     9769     9864     9957     9987     9949     9877 
    9798     9728     9718     9805     9945    10098    10212    10247 
   10235    10197    10081     9913     9809     9814     9890    10012 
   10118    10103     9968     9814     9718     9734     9857     9965 
    9925     9753     9624     9663     9865    10170    10465    10582 
   10466    10215     9936     9693     9549     9541     9661     9882 
   10096    10146    10008     9837     9784     9868    10034    10193 
   10238    10112     9844     9540     9370     9418     9594     9769 
    9938    10123    10254    10235    10083     9923     9896    10046 
   10214    10196     9992     9749     9591     9621     9869    10204 
   10442    10504    10390    10131     9832     9661     9705     9884 
   10052    10092     9957     9726     9594     9657     9813     9927 
    9964     9904     9776     9661     9591     9535     9506     9599 
    9842    10103    10191    10029     9738     9553     9602     9802 
    9992    10122    10227    10293    10241    10044     9794     9602 
    9531     9609     9838    10143    10365    10363    10135     9856 
    9749     9872    10104    10269    10226     9969     9656     9486 
    9562     9840    10142    10270    10174     9972     9837     9872 
   10033    10139    10048     9832     9751     9940    10231    10357 
   10227     9985     9818     9757     9703     9644     9707     9957 
   10274    10453    10361    10037     9702     9601     9741     9888 
    9872     9772     9734     9792     9898     9972     9965     9875 
    9714     9541     9512     9682     9887     9933     9794     9597 
    9513     9628     9915    10268    10503    10473    10208     9894 
    9728     9760     9876     9945     9954     9971    10017    10054 
   10030     9946     9882     9919    10057    10177    10156     9972 
    9736     9572     9537     9607     9747     9976    10284    10527 
   10551    10386    10200    10127    10176    10207    10080     9871 
    9776     9855     9994    10073    10048     9958     9898     9904 
    9925     9888     9784     9705     9761     9968    10185    10265 
   10210    10103     9991     9898     9841     9801     9794     9871 
    9983    10049    10052     9980     9818     9640     9563     9634 
    9810     9977    10033     9960     9795     9574     9359     9251 
    9337     9634    10021    10255    10193     9975     9869     9973 
   10180    10300    10195     9942     9753     9729     9842     9976 
    9967     9783     9606     9629     9849    10123    10292    10253 
   10030     9805     9717     9730     9744     9711     9670     9687 
    9764     9856     9954    10060    10162    10264    10334    10338 
   10282    10191    10083    10007     9972     9919     9828     9749 
    9742     9787     9819     9819     9834     9872     9877     9833 
    9788     9801     9898    10015    10046    10019    10046    10141 
   10219    10214    10141    10062    10003     9906     9695     9428 
    9301     9460     9849    10242    10426    10359    10162     9952 
    9786     9694     9697     9768     9867     9956     9991     9956 
    9902     9876     9883     9930    10017    10072    10038     9965 
    9934     9944     9950     9917     9806     9680     9690     9890 
   10130    10196    10033     9787     9678     9786     9956     9967 
    9826     9741     9842    10069    10274    10357    10288    10091 
    9825     9602     9543     9674     9856     9937     9968    10112 
   10393    10627    10650    10481    10241    10002     9788     9657 
    9680     9844    10048    10170    10134     9968     9798     9725 
    9756     9842     9914     9868     9686     9505     9462     9553 
    9717     9914    10149    10432    10632    10534    10118     9612 
    9275     9219     9378     9612     9809     9941    10003     9979 
    9899     9852     9877     9900     9798     9586     9481     9641 
    9958    10176    10184    10129    10197    10376    10492    10444 
   10272    10057     9850     9688     9595     9594     9697     9834 
    9891     9857     9813     9819     9886    10006    10130    10147 
   10015     9845     9776     9850    10007    10134    10160    10115 
   10080    10084    10103    10103    10095    10133    10203    10214 
   10131    10019     9940     9909     9906     9898     9869     9810 
    9660     9435     9320     9474     9806    10091    10199    10197 
   10219    10262    10223    10075     9903     9825     9899    10065 
   10204    10249    10170     9969     9728     9599     9682     9913 
   10122    10165    10031     9838     9678     9570     9552     9676 
    9918    10162    10295    10274    10119     9913     9730     9598 
    9537     9587     9738     9902    10003    10046    10049    10041 
   10064    10119    10180    10218    10197    10111    10010     9944 
    9903     9863     9802     9721     9670     9705     9802     9872 
    9888     9880     9853     9796     9733     9684     9636     9605 
    9629     9698     9790     9900     9980     9979     9957     9995 
   10054    10033     9888     9687     9555     9562     9645     9705 
    9757     9907    10133    10273    10233    10057     9884     9859 
    9994    10130    10114     9963     9819     9786     9855     9926 
    9887     9734     9602     9641     9871    10142    10251    10139 
    9948     9857     9896     9983    10041    10033     9953     9826 
    9668     9528     9512     9675     9937    10154    10254    10264 
   10241    10210    10166    10065     9838     9502     9220     9173 
    9397     9779    10162    10442    10620    10716    10717    10624 
   10420    10087     9710     9456     9406     9532     9775    10062 
   10300    10453    10530    10530    10443    10295    10126     9952 
    9748     9516     9323     9252     9329     9520     9742     9926 
   10053    10149    10214    10200    10091     9961     9919     9996 
   10131    10237    10246    10173    10111    10084    10027     9888 
    9675     9464     9383     9509     9752     9950    10045    10089 
   10135    10200    10281    10304    10179     9898     9570     9342 
    9300     9427     9645     9886    10118    10315    10415    10392 
   10249    10011     9751     9555     9478     9529     9688     9926 
   10179    10351    10388    10311    10201    10150    10164    10146 
   10023     9834     9671     9610     9680     9813     9896     9906 
    9921     9976    10002     9938     9807     9656     9525     9479 
    9525     9612     9725     9880    10044    10187    10305    10355 
   10278    10106     9945     9873     9884     9929     9941     9906 
    9909    10025    10168    10188    10056     9842     9656     9591 
    9609     9571     9424     9254     9216     9433     9852    10242 
   10392    10258     9954     9668     9540     9591     9737     9876 
    9971    10044    10102    10130    10141    10164    10246    10400 
   10538    10508    10254     9891     9587     9440     9456     9562 
    9656     9717     9822    10014    10210    10285    10212    10061 
    9925     9864     9873     9882     9836     9772     9771     9890 
   10103    10323    10438    10395    10262    10149    10087    10046 
    9985     9896     9798     9705     9645     9641     9705     9837 
    9991    10065    10014     9906     9832     9821     9879     9987 
   10064    10062    10026     9994     9958     9913     9856     9799 
    9791     9887    10064    10195    10168     9983     9760     9649 
    9725     9917    10092    10181    10176    10106    10008     9918 
    9840     9769     9701     9614     9525     9472     9490     9622 
    9861    10115    10289    10365    10361    10311    10242    10130 
    9941     9720     9576     9616     9840    10153    10442    10598 
   10543    10323    10068     9890     9819     9796     9751     9663 
    9571     9566     9699     9869     9934     9875     9792     9798 
    9914    10037    10031     9859     9613     9402     9282     9274 
    9379     9603     9933    10292    10550    10611    10466    10195 
    9956     9869     9907     9952     9915     9769     9566     9441 
    9494     9653     9814     9958    10093    10184    10179    10031 
    9757     9479     9344     9405     9585     9782     9969    10143 
   10249    10216    10066     9942     9988    10203    10465    10647 
   10675    10570    10416    10269    10161    10122    10125    10106 
   10029     9906     9752     9545     9298     9105     9076     9250 
    9536     9752     9809     9768     9729     9733     9780     9871 
   10030    10262    10505    10648    10601    10405    10208    10111 
   10123    10239    10400    10484    10408    10185     9877     9593 
    9420     9383     9467     9639     9838    10003    10092    10110 
   10081    10025     9941     9864     9842     9880     9942     9985 
    9991     9979     9973     9949     9892     9860     9915    10048 
   10173    10197    10091     9918     9782     9709     9660     9616 
    9609     9675     9819     9991    10076    10004     9826     9644 
    9536     9568     9761    10026    10224    10303    10331    10388 
   10455    10478    10413    10251    10080    10006     9987     9903 
    9720     9497     9356     9404     9639     9927    10080    10023 
    9842     9679     9606     9598     9602     9599     9641     9780 
    9956    10084    10174    10249    10288    10300    10258    10107 
    9882     9674     9540     9516     9607     9763     9941    10120 
   10231    10200    10033     9807     9637     9601     9676     9772 
    9813     9798     9787     9828     9933    10085    10235    10324 
   10330    10276    10181    10035     9829     9590     9396     9329 
    9414     9587     9763     9886     9940     9948     9954    10015 
   10149    10312    10426    10430    10334    10187    10021     9852 
    9725     9703     9794     9926     9999     9944     9780     9617 
    9556     9598     9679     9760     9836     9884     9868     9809 
    9756     9749     9794     9855     9895     9898     9857     9810 
    9792     9814     9888    10008    10108    10135    10106    10042 
    9964     9919     9922     9957    10031    10130    10191    10173 
   10099    10018     9973     9976     9996    10010    10033    10065 
   10084    10076    10048    10011     9991     9999    10003     9948 
    9856     9802     9813     9860     9930    10007    10054    10080 
   10118    10173    10241    10309    10332    10268    10130     9960 
    9795     9671     9655     9791    10019    10211    10300    10287 
   10187    10030     9861     9737     9698     9717     9726     9682 
    9609     9572     9595     9621     9583     9518     9517     9621 
    9796     9968    10042     9988     9879     9828     9891    10035 
   10177    10272    10330    10374    10380    10278    10066     9867 
    9790     9798     9828     9868     9899     9879     9810     9699 
    9562     9462     9475     9598     9747     9828     9806     9715 
    9634     9645     9771     9957    10135    10277    10372    10420 
   10449    10457    10412    10309    10172    10039     9952     9925 
    9960    10053    10173    10242    10193    10034     9838     9684 
    9618     9639     9718     9830     9942     9999     9969     9906 
    9883     9918     9973     9994     9952     9884     9856     9882 
    9936     9977     9968     9903     9814     9728     9671     9657 
    9661     9668     9705     9778     9859     9922     9968    10033 
