Origin Time       2025/03/30 22:55:00
Lat.              41.993
Long.             142.725
Depth. (km)       55
Mag.              4.6
Station Code      HKD109
Station Lat.      42.1678
Station Long.     142.7673
Station Height(m) 4
Record Time       2025/03/30 22:56:09
Sampling Freq(Hz) 100Hz
Duration Time(s)  70
Dir.              N-S
Scale Factor      7845(gal)/8223790
Max. Acc. (gal)   4.432
Last Correction   2025/03/30 22:56:09
Memo.             
[...]
   13398    13400    13404    13405    13406    13406    13404    13402 
   13402    13401    13402    13404    13405    13405    13404    13401 
   13400    13398    13402    13405    13404    13402    13402    13402 
   13405    13406    13406    13408    13405    13404    13404    13400 
   13398    13398    13398    13401    13404    13405    13405    13405 
   13402    13401    13405    13406    13406    13405    13406    13405 
   13400    13400    13404    13404    13404    13405    13404    13402 
   13404    13406    13404    13400    13400    13402    13404    13404 
   13404    13405    13406    13405    13402    13405    13406    13405 
   13405    13408    13405    13402    13401    13400    13401    13405 
   13404    13401    13404    13406    13405    13406    13408    13406 
   13406    13405    13404    13404    13404    13401    13400    13402 
   13402    13404    13402    13404    13406    13405    13402    13402 
   13404    13404    13404    13404    13402    13401    13401    13404 
   13406    13406    13402    13402    13401    13401    13402    13405 
   13405    13404    13405    13404    13402    13402    13402    13404 
   13401    13400    13402    13406    13406    13405    13402    13402 
   13404    13402    13401    13404    13405    13402    13400    13400 
   13401    13404    13402    13402    13405    13404    13402    13402 
   13400    13400    13405    13405    13402    13401    13404    13405 
   13402    13400    13401    13402    13402    13402    13404    13402 
   13401    13400    13401    13401    13401    13402    13404    13402 
   13402    13404    13404    13402    13401    13402    13402    13402 
   13405    13406    13404    13402    13405    13404    13400    13397 
   13398    13404    13405    13404    13404    13405    13404    13402 
   13404    13404    13401    13401    13400    13398    13401    13405 
   13405    13404    13402    13400    13400    13404    13408    13409 
   13405    13400    13397    13400    13406    13408    13408    13405 
   13404    13404    13400    13400    13402    13402    13402    13406 
   13404    13401    13402    13404    13401    13402    13405    13402 
   13404    13405    13401    13401    13404    13404    13402    13402 
   13402    13402    13404    13404    13404    13402    13401    13402 
   13404    13404    13405    13406    13404    13401    13402    13402 
   13402    13405    13405    13402    13402    13401    13400    13402 
   13406    13402    13401    13401    13401    13402    13404    13405 
   13405    13406    13405    13404    13404    13406    13406    13402 
   13402    13405    13404    13402    13404    13404    13402    13404 
   13406    13405    13404    13405    13404    13401    13401    13401 
   13402    13405    13406    13405    13402    13401    13401    13401 
   13401    13402    13404    13406    13405    13402    13401    13400 
   13401    13404    13405    13404    13404    13404    13404    13401 
   13400    13402    13402    13398    13400    13404    13404    13402 
   13401    13402    13404    13402    13402    13402    13402    13402 
   13401    13401    13402    13402    13400    13401    13402    13402 
   13404    13405    13405    13408    13408    13405    13402    13401 
   13397    13398    13404    13406    13409    13409    13404    13400 
   13397    13400    13405    13405    13408    13410    13406    13401 
   13400    13402    13402    13402    13405    13405    13402    13405 
   13405    13400    13401    13404    13402    13404    13405    13406 
   13405    13401    13402    13406    13405    13402    13402    13401 
   13400    13402    13402    13402    13404    13404    13404    13404 
   13404    13402    13404    13404    13405    13408    13408    13406 
   13410    13414    13416    13419    13424    13431    13446    13459 
   13460    13436    13375    13308    13273    13292    13363    13459 
   13537    13551    13473    13339    13251    13273    13369    13443 
   13431    13387    13429    13528    13522    13400    13371    13540 
   13680    13591    13417    13324    13252    13130    13011    13018 
   13209    13498    13703    13741    13691    13605    13420    13151 
   12927    12829    12969    13424    13963    14233    14173    13972 
   13778    13501    13016    12609    12702    13203    13680    13886 
   13741    13355    13081    13115    13240    13227    13163    13230 
   13340    13435    13771    14276    14214    13371    12614    12667 
   13289    13761    13652    13274    13257    13606    13761    13475 
   13105    13001    12982    12798    12668    12837    13220    13711 
   14162    14239    13887    13458    13182    13049    13204    13690 
   13972    13737    13575    13797    13705    12993    12567    13194 
   14135    14045    13005    12347    12653    13381    13906    13914 
   13458    12893    12599    12885    13597    13986    13780    13603 
   13764    13693    13047    12548    12919    13716    14087    13890 
   13385    12742    12313    12569    13338    13755    13452    13092 
   13401    14067    14049    13216    12768    13383    14253    14328 
   13593    12989    13313    14277    14909    14585    13626    12858 
   12613    12680    12887    13162    13485    13788    13753    13208 
   12590    12397    12573    12891    13431    14138    14453    14072 
   13444    13095    13093    13284    13520    13587    13284    12825 
   12800    13336    13810    13786    13493    13250    13132    13073 
   12984    12926    13062    13409    13848    14297    14646    14667 
   14256    13657    13205    12949    12791    12829    13192    13621 
   13616    13170    13003    13548    14104    13775    12854    12413 
   12792    13338    13490    13479    13732    14080    14044    13622 
   13340    13393    13346    13047    12911    13014    13032    12958 
   13063    13294    13232    12893    12988    13738    14335    14161 
   13564    13225    13374    13666    13670    13309    12923    13108 
   13967    14608    14189    13177    12807    13409    13998    13749 
   13153    13115    13527    13540    13028    12842    13319    13738 
   13690    13528    13374    13019    12702    12918    13513    13783 
   13532    13267    13306    13437    13420    13252    13036    12856 
   12792    12997    13474    13852    13826    13610    13466    13306 
   13078    12977    13170    13563    13736    13398    12961    13074 
   13726    14334    14512    14335    13987    13598    13298    13163 
   13292    13787    14315    14237    13524    12704    12116    11940 
   12320    12993    13493    13649    13545    13323    13227    13419 
   13786    14075    14064    13659    13082    12846    13142    13491 
   13454    13190    13088    13221    13267    12992    12708    12804 
   13247    13767    14033    13845    13346    12888    12912    13464 
   13845    13578    13165    13105    13170    13088    13086    13558 
   14338    14642    14169    13589    13494    13760    13975    13929 
   13702    13398    13095    13082    13455    13679    13401    13107 
   13178    13316    13240    13004    12793    12880    13286    13702 
   13832    13479    12776    12298    12367    12772    13288    13825 
   14272    14396    14029    13490    13239    13203    13134    13085 
   13119    13159    13244    13518    13953    14241    14154    13863 
   13599    13269    12854    12787    13235    13716    13845    13691 
   13482    13393    13356    13167    12968    13154    13664    13884 
   13560    13073    12781    12815    13161    13564    13706    13585 
   13576    13900    14111    13684    13005    12935    13521    13848 
   13327    12625    12711    13398    13741    13539    13401    13575 
   13656    13446    13300    13362    13263    12970    12964    13294 
   13436    13236    13180    13589    14102    14215    13994    13863 
   13892    13869    13887    14052    13940    13242    12429    12170 
   12555    13084    13329    13331    13267    13248    13340    13371 
   13112    12671    12482    12927    13792    14405    14405    13906 
   13329    13255    13813    14407    14430    13984    13703    13690 
   13312    12463    11931    12178    12738    13015    12968    12862 
   12904    13263    13871    14281    14162    13710    13421    13501 
   13601    13522    13608    13883    13743    12943    12185    12299 
   13113    13649    13460    12955    12583    12595    13142    13936 
   14395    14272    13834    13625    13855    14058    13763    13178 
   12903    13134    13344    13038    12503    12370    12822    13644 
   14455    14715    14087    13046    12613    13177    14058    14438 
   14158    13624    13324    13360    13414    13377    13462    13575 
   13325    12756    12380    12541    13139    13851    14281    14130 
   13562    13165    13248    13467    13393    13069    12783    12681 
   12707    12758    12837    13022    13344    13775    14176    14291 
   13986    13468    13113    13166    13474    13647    13556    13392 
   13342    13470    13632    13585    13371    13381    13788    14229 
   14230    13774    13165    12663    12417    12503    12842    13209 
   13435    13547    13680    13814    13699    13301    13004    13043 
   13166    13143    13163    13502    14007    14183    13863    13448 
   13404    13691    13887    13830    13803    13899    13802    13381 
   13007    13112    13585    13848    13709    13470    13142    12515 
   11888    11911    12715    13618    13902    13632    13398    13525 
   13842    14064    14073    13811    13184    12402    12023    12320 
   12999    13648    14114    14385    14376    14045    13637    13439 
   13455    13556    13690    13703    13289    12425    11664    11588 
   12148    12950    13740    14268    14299    13963    13649    13535 
   13527    13616    13876    14204    14416    14416    14195    13867 
   13597    13401    13220    13012    12696    12332    12278    12730 
   13228    13204    12850    12806    13153    13382    13300    13285 
   13590    13998    14288    14428    14257    13636    12977    12904 
   13373    13716    13520    13042    12766    12785    12802    12673 
   12690    13136    13832    14384    14597    14411    13919    13473 
   13323    13385    13375    13089    12698    12583    12850    13246 
   13437    13351    13263    13404    13644    13711    13563    13446 
   13485    13429    13066    12561    12275    12418    12827    13057 
   12798    12251    11961    12163    12582    12933    13151    13224 
   13204    13127    12950    12827    12974    13225    13232    13042 
   13003    13263    13743    14420    15182    15654    15687    15565 
   15477    15206    14571    13859    13483    13512    13710    13879 
   13973    13976    13900    13922    14137    14196    13674    12710 
   11915    11628    11538    11327    11335    11977    13018    14017 
   14885    15639    16079    15939    15232    14283    13432    12835 
   12584    12699    12965    13062    12976    13101    13774    14759 
   15465    15583    15202    14509    13678    12955    12680    13043 
   13740    14045    13459    12177    10916    10389    10908    12128 
   13174    13437    13174    13041    13379    14185    15288    16294 
   16699    16312    15333    14099    12908    11973    11395    11195 
   11364    11799    12233    12471    12515    12318    11886    11628 
   12055    13153    14327    14945    14879    14507    14249    14231 
   14324    14291    13936    13219    12317    11541    11223    11626 
   12748    14154    15179    15417    15068    14715    14685    14821 
   14843    14608    14053    13328    12854    12870    13072    13003 
   12604    12058    11430    10818    10521    10710    11171    11512 
   11574    11539    11685    12129    12872    13896    15001    15672 
   15589    15067    14648    14602    14962    15574    16013    15780 
   14775    13447    12363    11755    11603    11790    11961    11689 
   11198    11426    12941    15184    17050    17849    17554    16492 
   15137    13986    13267    12796    12374    12075    11986    11961 
   11835    11692    11740    12073    12572    13053    13428    13683 
   13779    13791    13964    14350    14578    14285    13626    13127 
   13069    13254    13371    13308    13054    12617    12183    12159 
   12775    13686    14176    13837    12938    12158    12096    12922 
   14239    15271    15419    14735    13749    13000    12714    12785 
   12981    13058    12800    12170    11430    10968    11010    11568 
   12514    13558    14407    15055    15681    16335    16862    16972 
   16406    15261    13987    13070    12795    13131    13728    14060 
   13760    12946    12054    11394    11092    11191    11577    12015 
   12360    12667    13063    13529    13869    13917    13671    13335 
   13128    13024    12837    12610    12625    13057    13814    14683 
   15503    16189    16605    16488    15677    14415    13190    12299 
   11739    11487    11562    11804    11963    12051    12294    12749 
   13234    13576    13794    14023    14315    14539    14578    14504 
   14427    14246    13740    12978    12345    12029    11858    11670 
   11580    11731    12015    12309    12739    13385    14011    14355 
   14393    14241    14017    13853    13872    14042    14169    14108 
   13937    13905    14292    15151    16102    16588    16294    15298 
   13887    12339    10856     9648     8922     8757     9094     9887 
   11160    12802    14434    15673    16447    16784    16564    15765 
   14690    13695    12900    12255    11767    11628    12102    13176 
   14412    15306    15655    15529    15033    14253    13266    12129 
   10960    10010     9587     9964    11238    13135    15048    16470 
   17285    17621    17636    17416    16860    15757    14156    12523 
   11335    10666    10381    10436    10804    11300    11718    11982 
   12105    12106    12110    12336    12884    13586    14215    14774 
   15368    15894    16133    16050    15754    15194    14241    13097 
   12258    11913    11769    11568    11454    11638    12036    12414 
   12661    12831    13022    13265    13547    13923    14497    15217 
   15786    15932    15633    15022    14204    13266    12364    11689 
   11371    11392    11618    11950    12384    12938    13680    14669 
   15743    16546    16856    16679    16047    14947    13491    12054 
   11091    10786    10947    11349    11943    12667    13273    13504 
   13358    13042    12698    12351    12054    11921    12069    12460 
   12849    13032    13140    13444    13964    14465    14773    14840 
   14636    14215    13775    13485    13348    13213    12949    12683 
   12695    13039    13486    13797    13905    13861    13730    13582 
   13487    13443    13394    13327    13234    13100    12915    12683 
   12478    12484    12864    13545    14200    14535    14563    14476 
   14380    14258    14098    13948    13851    13776    13693    13653 
   13765    14027    14265    14293    14080    13733    13383    13124 
   12981    12914    12842    12704    12569    12621    12928    13302 
   13437    13173    12604    11988    11522    11252    11137    11192 
   11427    11751    12106    12582    13217    13878    14403    14744 
   14918    14899    14705    14492    14412    14420    14412    14407 
   14490    14646    14723    14612    14384    14196    14068    13891 
   13640    13375    13099    12798    12559    12499    12630    12907 
   13321    13824    14223    14377    14369    14366    14399    14284 
   13780    12838    11685    10700    10191    10237    10712    11400 
   12131    12846    13547    14170    14640    14944    15110    15156 
   15075    14844    14488    14119    13837    13689    13706    13846 
   13994    14053    14017    13961    13905    13716    13315    12781 
   12249    11882    11820    12009    12222    12307    12264    12137 
   12002    12016    12320    12884    13536    14122    14561    14790 
   14767    14512    14142    13772    13402    12969    12494    12101 
   11859    11785    11967    12545    13501    14569    15431    15955 
   16198    16244    16124    15793    15148    14142    12919    11784 
   11020    10736    10798    10963    11128    11375    11757    12190 
   12671    13331    14157    14874    15279    15498    15730    15919 
   15858    15495    14979    14453    13905    13323    12804    12414 
   12089    11789    11615    11685    11967    12353    12792    13263 
   13703    14033    14278    14566    14905    15105    15005    14696 
   14318    13824    13170    12536    12104    11847    11655    11578 
   11776    12282    12935    13548    14084    14598    15025    15172 
   14983    14634    14292    13930    13443    12779    12010    11342 
   10962    10891    11018    11171    11269    11443    11920    12754 
   13699    14474    15111    15800    16515    17064    17348    17377 
   17103    16470    15580    14625    13705    12810    11997    11427 
   11126    10893    10598    10401    10517    10856    11126    11241 
   11387    11701    12116    12564    13082    13617    14021    14273 
   14504    14777    14983    15075    15192    15417    15610    15601 
   15395    15091    14713    14222    13674    13185    12779    12447 
   12232    12156    12117    12058    12113    12430    12922    13355 
   13645    13913    14274    14667    14922    14920    14640    14138 
   13540    13024    12665    12393    12168    12046    11993    11861 
   11596    11360    11357    11618    12001    12360    12664    12995 
   13467    14116    14847    15492    15915    16059    15973    15715 
   15277    14658    13941    13217    12537    11911    11362    11003 
   10959    11246    11758    12318    12853    13456    14212    15024 
   15665    15985    16055    16015    15863    15534    15005    14299 
   13474    12629    11882    11308    10912    10709    10758    11076 
   11568    12060    12459    12810    13174    13533    13857    14162 
   14476    14783    14998    14998    14728    14254    13713    13205 
   12769    12432    12244    12245    12430    12744    13124    13531 
   13936    14308    14635    14881    14953    14775    14432    14123 
   13917    13703    13413    13146    13027    13019    12960    12765 
   12523    12383    12380    12465    12652    12991    13454    13946 
   14440    14948    15381    15580    15526    15348    15133    14855 
   14488    14056    13560    12991    12409    11935    11677    11654 
   11793    11989    12155    12253    12314    12394    12523    12719 
   12961    13178    13316    13393    13450    13467    13410    13302 
   13203    13155    13182    13271    13405    13589    13798    13959 
   14006    13952    13844    13714    13621    13612    13640    13594 
   13427    13174    12914    12733    12685    12754    12876    13024 
   13236    13517    13760    13859    13845    13845    13899    13934 
   13936    13991    14104    14106    13867    13463    13062    12753 
   12563    12499    12550    12652    12727    12773    12866    13097 
   13460    13860    14220    14531    14751    14797    14593    14150 
   13617    13192    12960    12853    12781    12749    12758    12753 
