Origin Time       2025/03/30 22:55:00
Lat.              41.993
Long.             142.725
Depth. (km)       55
Mag.              4.6
Station Code      HKD159
Station Lat.      41.7160
Station Long.     141.0046
Station Height(m) 23
Record Time       2025/03/30 22:56:37
Sampling Freq(Hz) 100Hz
Duration Time(s)  60
Dir.              E-W
Scale Factor      7845(gal)/8223790
Max. Acc. (gal)   4.932
Last Correction   2025/03/30 22:56:38
Memo.             
[...]
   -8347    -8317    -8198    -8056    -7958    -7965    -8051    -8132 
   -8179    -8174    -8089    -8005    -8040    -8185    -8337    -8402 
   -8349    -8263    -8245    -8270    -8241    -8125    -7971    -7859 
   -7825    -7846    -7898    -7989    -8101    -8202    -8260    -8235 
   -8158    -8141    -8248    -8437    -8595    -8606    -8445    -8213 
   -8025    -7955    -7986    -8033    -8043    -8014    -7983    -8019 
   -8116    -8201    -8230    -8171    -8033    -7924    -7921    -8019 
   -8162    -8272    -8320    -8325    -8317    -8322    -8376    -8449 
   -8467    -8410    -8297    -8131    -7944    -7790    -7719    -7742 
   -7809    -7866    -7909    -7966    -8079    -8249    -8401    -8456 
   -8418    -8365    -8348    -8338    -8325    -8317    -8301    -8255 
   -8176    -8105    -8095    -8132    -8135    -8070    -7979    -7894 
   -7830    -7823    -7884    -7977    -8077    -8159    -8222    -8298 
   -8398    -8476    -8459    -8321    -8148    -8046    -8047    -8144 
   -8306    -8425    -8379    -8194    -7997    -7882    -7893    -7992 
   -8077    -8102    -8064    -7987    -7971    -8085    -8287    -8460 
   -8494    -8405    -8283    -8179    -8128    -8110    -8073    -8016 
   -7981    -8000    -8083    -8193    -8287    -8336    -8298    -8181 
   -8058    -7996    -8010    -8071    -8144    -8221    -8243    -8171 
   -8101    -8097    -8137    -8217    -8321    -8379    -8324    -8176 
   -8009    -7879    -7831    -7881    -7970    -8058    -8172    -8313 
   -8415    -8426    -8351    -8230    -8125    -8105    -8178    -8270 
   -8316    -8291    -8208    -8125    -8087    -8078    -8050    -7992 
   -7946    -7948    -7989    -8071    -8176    -8233    -8205    -8132 
   -8063    -8058    -8131    -8228    -8303    -8347    -8345    -8306 
   -8278    -8270    -8237    -8167    -8079    -8016    -8001    -8039 
   -8117    -8201    -8225    -8183    -8122    -8056    -8000    -8009 
   -8082    -8159    -8199    -8185    -8116    -8054    -8081    -8185 
   -8295    -8353    -8322    -8213    -8109    -8068    -8073    -8097 
   -8170    -8270    -8321    -8297    -8220    -8120    -8039    -7990 
   -7956    -7940    -7948    -7981    -8066    -8195    -8286    -8298 
   -8272    -8245    -8226    -8213    -8213    -8230    -8232    -8209 
   -8203    -8218    -8224    -8206    -8162    -8091    -8037    -8019 
   -7981    -7923    -7927    -8021    -8145    -8237    -8271    -8263 
   -8249    -8252    -8263    -8271    -8264    -8252    -8225    -8181 
   -8162    -8159    -8104    -8013    -7981    -8031    -8101    -8124 
   -8067    -8001    -8027    -8090    -8101    -8116    -8163    -8205 
   -8262    -8332    -8361    -8336    -8255    -8135    -8044    -8041 
   -8109    -8174    -8193    -8212    -8263    -8276    -8202    -8100 
   -8036    -8010    -8013    -8056    -8127    -8168    -8147    -8079 
   -8002    -7965    -8023    -8162    -8306    -8405    -8432    -8395 
   -8318    -8222    -8156    -8154    -8179    -8201    -8209    -8175 
   -8091    -8001    -7962    -7975    -8002    -8017    -8008    -7997 
   -8013    -8059    -8148    -8259    -8301    -8278    -8291    -8356 
   -8424    -8438    -8378    -8248    -8087    -7960    -7919    -7948 
   -8004    -8063    -8133    -8185    -8159    -8077    -8009    -7978 
   -7978    -8031    -8154    -8278    -8338    -8375    -8426    -8456 
   -8460    -8428    -8306    -8108    -7908    -7776    -7751    -7843 
   -7996    -8110    -8120    -8074    -8064    -8110    -8181    -8247 
   -8272    -8263    -8270    -8286    -8309    -8360    -8399    -8375 
   -8311    -8221    -8097    -7974    -7898    -7885    -7901    -7912 
   -7940    -7998    -8073    -8176    -8301    -8361    -8324    -8253 
   -8199    -8148    -8131    -8170    -8220    -8257    -8313    -8356 
   -8322    -8225    -8122    -8052    -7993    -7920    -7855    -7832 
   -7874    -7975    -8090    -8176    -8213    -8213    -8232    -8316 
   -8425    -8475    -8451    -8386    -8291    -8222    -8226    -8251 
   -8220    -8128    -8012    -7902    -7816    -7762    -7755    -7793 
   -7850    -7938    -8098    -8294    -8425    -8456    -8421    -8370 
   -8355    -8402    -8445    -8394    -8253    -8118    -8067    -8087 
   -8110    -8090    -8028    -7967    -7943    -7950    -7973    -7993 
   -8001    -8002    -7989    -8008    -8129    -8334    -8534    -8648 
   -8645    -8557    -8411    -8259    -8144    -8058    -7970    -7882 
   -7821    -7819    -7896    -8016    -8109    -8143    -8106    -8039 
   -8024    -8101    -8237    -8372    -8430    -8359    -8235    -8197 
   -8279    -8417    -8529    -8536    -8395    -8143    -7882    -7715 
   -7661    -7685    -7750    -7831    -7925    -8054    -8209    -8341 
   -8418    -8459    -8448    -8374    -8284    -8209    -8166    -8199 
   -8299    -8380    -8357    -8206    -8004    -7859    -7836    -7932 
   -8058    -8105    -8082    -8075    -8109    -8171    -8260    -8325 
   -8279    -8176    -8132    -8167    -8228    -8248    -8203    -8135 
   -8091    -8097    -8143    -8212    -8264    -8235    -8101    -7955 
   -7921    -8020    -8162    -8229    -8191    -8133    -8132    -8185 
   -8240    -8267    -8268    -8232    -8158    -8089    -8044    -8010 
   -7996    -8028    -8101    -8187    -8293    -8387    -8422    -8395 
   -8279    -8087    -7965    -7970    -8016    -8050    -8083    -8100 
   -8079    -8050    -8031    -8041    -8120    -8229    -8270    -8229 
   -8185    -8201    -8276    -8351    -8388    -8403    -8370    -8283 
   -8199    -8137    -8063    -7974    -7906    -7886    -7932    -8005 
   -8050    -8064    -8086    -8137    -8209    -8264    -8271    -8229 
   -8191    -8195    -8243    -8317    -8348    -8298    -8209    -8109 
   -8027    -7994    -7992    -7983    -7966    -7944    -7963    -8056 
   -8187    -8303    -8378    -8364    -8290    -8248    -8272    -8330 
   -8361    -8295    -8168    -8079    -8048    -8074    -8151    -8183 
   -8089    -7933    -7821    -7792    -7840    -7935    -8054    -8212 
   -8409    -8571    -8600    -8487    -8326    -8221    -8194    -8182 
   -8133    -8070    -8035    -8067    -8133    -8155    -8124    -8062 
   -7959    -7861    -7852    -7944    -8055    -8097    -8059    -8033 
   -8116    -8310    -8525    -8627    -8588    -8502    -8411    -8306 
   -8230    -8203    -8164    -8059    -7923    -7836    -7850    -7923 
   -7960    -7928    -7881    -7873    -7931    -8071    -8270    -8441 
   -8510    -8486    -8425    -8371    -8349    -8336    -8276    -8171 
   -8060    -7969    -7919    -7920    -7939    -7940    -7929    -7932 
   -7959    -8009    -8090    -8198    -8272    -8293    -8328    -8394 
   -8479    -8599    -8687    -8637    -8480    -8314    -8167    -8016 
   -7851    -7674    -7511    -7433    -7488    -7669    -7912    -8101 
   -8183    -8222    -8286    -8392    -8525    -8608    -8571    -8460 
   -8380    -8375    -8445    -8519    -8478    -8309    -8129    -8016 
   -7956    -7925    -7878    -7758    -7566    -7410    -7407    -7589 
   -7908    -8255    -8494    -8571    -8552    -8533    -8561    -8621 
   -8672    -8648    -8505    -8295    -8127    -8039    -7997    -7959 
   -7886    -7809    -7823    -7943    -8077    -8151    -8128    -7996 
   -7838    -7790    -7896    -8108    -8348    -8488    -8468    -8365 
   -8295    -8322    -8411    -8424    -8283    -8078    -7944    -7950 
   -8091    -8283    -8372    -8290    -8112    -7952    -7869    -7830 
   -7800    -7797    -7813    -7836    -7900    -8035    -8222    -8407 
   -8534    -8577    -8548    -8530    -8590    -8680    -8699    -8588 
   -8368    -8110    -7881    -7742    -7728    -7777    -7774    -7688 
   -7601    -7592    -7695    -7917    -8182    -8355    -8425    -8480 
   -8532    -8529    -8499    -8505    -8532    -8519    -8453    -8348 
   -8224    -8121    -8054    -7963    -7800    -7642    -7600    -7665 
   -7758    -7842    -7896    -7938    -8021    -8160    -8325    -8478 
   -8606    -8698    -8704    -8618    -8482    -8286    -8091    -8016 
   -8051    -8100    -8085    -7986    -7863    -7798    -7844    -8010 
   -8202    -8291    -8262    -8220    -8237    -8260    -8202    -8070 
   -7970    -7989    -8109    -8275    -8424    -8428    -8226    -7956 
   -7782    -7759    -7902    -8167    -8422    -8564    -8590    -8513 
   -8336    -8132    -8035    -8071    -8128    -8122    -8071    -7996 
   -7906    -7851    -7858    -7932    -8063    -8195    -8276    -8310 
   -8328    -8329    -8289    -8201    -8085    -8009    -8047    -8213 
   -8451    -8634    -8641    -8444    -8129    -7835    -7641    -7565 
   -7619    -7803    -8037    -8197    -8251    -8274    -8305    -8357 
   -8451    -8517    -8464    -8295    -8082    -7908    -7881    -8028 
   -8206    -8248    -8141    -8039    -8070    -8214    -8387    -8506 
   -8465    -8266    -8025    -7828    -7669    -7568    -7593    -7755 
   -7962    -8135    -8280    -8406    -8511    -8607    -8683    -8703 
   -8681    -8633    -8511    -8295    -8027    -7755    -7550    -7497 
   -7634    -7888    -8105    -8160    -8094    -8043    -8087    -8203 
   -8307    -8325    -8252    -8156    -8078    -8019    -8005    -8073 
   -8194    -8314    -8421    -8498    -8496    -8376    -8152    -7950 
   -7917    -8054    -8260    -8449    -8518    -8430    -8262    -8052 
   -7821    -7672    -7659    -7707    -7767    -7844    -7902    -7911 
   -7931    -8012    -8151    -8365    -8675    -8976    -9126    -9094 
   -8951    -8733    -8491    -8349    -8284    -8104    -7755    -7384 
   -7144    -7080    -7183    -7410    -7622    -7680    -7661    -7753 
   -8028    -8433    -8854    -9121    -9132    -8942    -8729    -8661 
   -8734    -8800    -8738    -8503    -8118    -7753    -7568    -7507 
   -7461    -7426    -7422    -7469    -7591    -7809    -8104    -8383 
   -8559    -8633    -8652    -8641    -8602    -8540    -8453    -8298 
   -8056    -7793    -7618    -7604    -7751    -7989    -8202    -8280 
   -8193    -8012    -7889    -7939    -8164    -8440    -8575    -8523 
   -8415    -8401    -8532    -8719    -8769    -8544    -8051    -7479 
   -7111    -7110    -7399    -7785    -8062    -8137    -8141    -8271 
   -8554    -8868    -9078    -9112    -8986    -8791    -8568    -8289 
   -7919    -7526    -7238    -7105    -7101    -7179    -7298    -7454 
   -7657    -7901    -8174    -8414    -8523    -8511    -8526    -8668 
   -8876    -9063    -9201    -9252    -9189    -9013    -8716    -8317 
   -7927    -7620    -7362    -7137    -6986    -6897    -6860    -6982 
   -7350    -7929    -8587    -9131    -9386    -9305    -8973    -8556 
   -8232    -8091    -8098    -8110    -8027    -7928    -7993    -8214 
   -8363    -8289    -8062    -7848    -7786    -7897    -8073    -8199 
   -8198    -8021    -7762    -7616    -7690    -7950    -8278    -8536 
   -8668    -8711    -8681    -8545    -8290    -8004    -7858    -7940 
   -8149    -8325    -8336    -8131    -7857    -7780    -7979    -8245 
   -8268    -7955    -7520    -7264    -7415    -8047    -8876    -9418 
   -9474    -9192    -8780    -8430    -8305    -8421    -8587    -8498 
   -7965    -7140    -6436    -6237    -6592    -7169    -7604    -7825 
   -7959    -8112    -8359    -8729    -9144    -9478    -9609    -9497 
   -9246    -9031    -8978    -9130    -9332    -9258    -8679    -7638 
   -6440    -5571    -5391    -5842    -6535    -7117    -7465    -7626 
   -7766    -8124    -8793    -9576   -10125   -10179    -9780    -9282 
   -9082    -9198    -9248    -8912    -8233    -7503    -7013    -6887 
   -6948    -6847    -6527    -6311    -6482    -7047    -7807    -8445 
   -8712    -8623    -8459    -8568    -9109    -9850   -10315   -10162 
   -9454    -8622    -8209    -8399    -8810    -8792    -8012    -6750 
   -5625    -5175    -5579    -6596    -7696    -8321    -8328    -8137 
   -8222    -8653    -9162    -9381    -9174    -8796    -8634    -8834 
   -9194    -9447    -9477    -9248    -8785    -8190    -7580    -7017 
   -6543    -6262    -6291    -6605    -7072    -7569    -8016    -8349 
   -8588    -8811    -9030    -9197    -9329    -9409    -9283    -8877 
   -8275    -7591    -7017    -6843    -7146    -7639    -7998    -8149 
   -8121    -7904    -7607    -7487    -7709    -8249    -8950    -9555 
   -9830    -9769    -9571    -9381    -9201    -8883    -8203    -7194 
   -6235    -5680    -5609    -5880    -6273    -6698    -7230    -7835 
   -8372    -8916    -9693   -10644   -11384   -11515   -10885    -9671 
   -8259    -7022    -6214    -5980    -6358    -7125    -7755    -7904 
   -7798    -7800    -7919    -8013    -7982    -7746    -7393    -7300 
   -7840    -8910    -9884   -10103    -9437    -8398    -7754    -7966 
   -8727    -9202    -8962    -8280    -7553    -7087    -7153    -7701 
   -8329    -8649    -8523    -8100    -7696    -7499    -7425    -7311 
   -7142    -7049    -7198    -7654    -8317    -8974    -9327    -9112 
   -8486    -8017    -8058    -8494    -9115    -9756   -10141   -10004 
   -9412    -8723    -8116    -7423    -6493    -5449    -4706    -4776 
   -5792    -7233    -8387    -9055    -9547   -10165   -10893   -11344 
  -11048    -9906    -8371    -7215    -6955    -7381    -7834    -7842 
   -7415    -6940    -6883    -7369    -7954    -8008    -7319    -6214 
   -5317    -5256    -6174    -7601    -9074   -10527   -11936   -13001 
  -13323   -12699   -11202    -9188    -7275    -5998    -5458    -5400 
   -5535    -5644    -5614    -5620    -6034    -6917    -7898    -8586 
   -8860    -8857    -8841    -9038    -9578   -10400   -11091   -11075 
  -10189    -8885    -7796    -7221    -7047    -7009    -6966    -6925 
   -6876    -6762    -6646    -6751    -7184    -7716    -8035    -8163 
   -8386    -8860    -9431    -9761    -9679    -9378    -9207    -9360 
   -9763   -10088    -9936    -9142    -7924    -6736    -5934    -5583 
   -5574    -5771    -6061    -6477    -7105    -7839    -8480    -8934 
   -9163    -9211    -9239    -9354    -9460    -9437    -9351    -9343 
   -9316    -9026    -8465    -7859    -7356    -6983    -6809    -6863 
   -7020    -7140    -7214    -7276    -7317    -7388    -7607    -8068 
   -8772    -9528    -9976    -9821    -9132    -8367    -7967    -7989 
   -8213    -8395    -8361    -8102    -7798    -7669    -7774    -7954 
   -7974    -7776    -7595    -7723    -8190    -8760    -9078    -8930 
   -8457    -7959    -7627    -7531    -7646    -7886    -8112    -8167 
   -8052    -7956    -8033    -8257    -8506    -8669    -8684    -8646 
   -8710    -8761    -8599    -8278    -7938    -7605    -7331    -7225 
   -7308    -7535    -7919    -8418    -8831    -8954    -8804    -8564 
   -8361    -8133    -7746    -7196    -6673    -6512    -6943    -7831 
   -8814    -9513    -9632    -9177    -8522    -8091    -8039    -8276 
   -8619    -8858    -8907    -8866    -8826    -8737    -8509    -8128 
   -7668    -7250    -6999    -6921    -6885    -6832    -6864    -7079 
   -7454    -7897    -8318    -8689    -9081    -9504    -9726    -9521 
   -9023    -8575    -8370    -8442    -8694    -8826    -8629    -8225 
   -7790    -7331    -6934    -6795    -6885    -6993    -7094    -7352 
   -7782    -8212    -8513    -8661    -8703    -8768    -8946    -9154 
   -9250    -9190    -9047    -8899    -8765    -8631    -8467    -8158 
   -7589    -6912    -6480    -6480    -6864    -7481    -8046    -8240 
   -8024    -7720    -7722    -8132    -8723    -9163    -9262    -9055 
   -8760    -8591    -8559    -8540    -8510    -8465    -8295    -7923 
   -7487    -7253    -7302    -7474    -7592    -7589    -7545    -7626 
   -7906    -8309    -8672    -8873    -8920    -8878    -8799    -8734 
   -8726    -8739    -8688    -8565    -8415    -8214    -7935    -7628 
   -7345    -7113    -6949    -6905    -7032    -7319    -7734    -8222 
   -8656    -8914    -8988    -8932    -8822    -8748    -8762    -8812 
   -8737    -8407    -7854    -7217    -6720    -6633    -7055    -7785 
   -8472    -8795    -8664    -8360    -8284    -8530    -8884    -9100 
   -9062    -8831    -8525    -8236    -8059    -7982    -7815    -7464 
   -7087    -6899    -7030    -7483    -8046    -8418    -8473    -8347 
   -8286    -8442    -8823    -9238    -9379    -9158    -8830    -8650 
   -8544    -8283    -7808    -7213    -6670    -6405    -6531    -6940 
   -7439    -7901    -8282    -8595    -8833    -8970    -9042    -9104 
   -9104    -8937    -8619    -8256    -7954    -7825    -7892    -8001 
   -7977    -7852    -7807    -7871    -7951    -8032    -8133    -8182 
   -8152    -8120    -8112    -8101    -8102    -8122    -8120    -8095 
   -8101    -8129    -8163    -8233    -8357    -8473    -8511    -8467 
   -8351    -8170    -8035    -8039    -8087    -8051    -7925    -7793 
   -7773    -7950    -8236    -8419    -8390    -8237    -8117    -8077 
   -8063    -8052    -8066    -8127    -8218    -8291    -8326    -8356 
   -8387    -8347    -8166    -7935    -7836    -7911    -8031    -8101 
   -8162    -8252    -8314    -8325    -8364    -8483    -8595    -8563 
   -8321    -7940    -7582    -7360    -7258    -7283    -7511    -7921 
   -8380    -8764    -8969    -8914    -8603    -8241    -8158    -8465 
   -8910    -9119    -8907    -8322    -7578    -6975    -6758    -6966 
   -7420    -7817    -7935    -7832    -7798    -8071    -8580    -8991 
   -9032    -8766    -8464    -8294    -8293    -8483    -8815    -9076 
   -9046    -8718    -8217    -7677    -7258    -7065    -7040    -7036 
   -7009    -7092    -7435    -8027    -8671    -9120    -9196    -8869 
   -8375    -8079    -8147    -8426    -8644    -8634    -8417    -8187 
   -8229    -8556    -8818    -8733    -8334    -7767    -7215    -6956 
   -7141    -7573    -7931    -8081    -8060    -7969    -7970    -8174 
   -8498    -8760    -8824    -8656    -8310    -7963    -7848    -8048 
   -8407    -8692    -8758    -8615    -8380    -8201    -8144    -8135 
   -8051    -7809    -7461    -7230    -7285    -7570    -7966    -8338 
   -8478    -8286    -7954    -7793    -7963    -8345    -8640    -8633 
   -8432    -8334    -8488    -8845    -9251    -9405    -9100    -8498 
   -7884    -7392    -7080    -7010    -7134    -7213    -7095    -6993 
   -7198    -7716    -8332    -8822    -9030    -8958    -8803    -8745 
   -8761    -8742    -8665    -8626    -8727    -8954    -9131    -9049 
   -8599    -7881    -7150    -6673    -6574    -6751    -6964    -7091 
   -7160    -7267    -7564    -8075    -8536    -8698    -8644    -8610 
   -8752    -9088    -9520    -9871    -9933    -9629    -9121    -8656 
   -8349    -8106    -7736    -7196    -6646    -6312    -6324    -6627 
   -7051    -7423    -7608    -7643    -7759    -8144    -8746    -9348 
   -9709    -9676    -9300    -8838    -8569    -8565    -8699    -8761 
   -8541    -8028    -7489    -7187    -7164    -7331    -7547    -7685 
   -7726    -7751    -7827    -7987    -8214    -8441    -8613    -8700 
   -8688    -8630    -8626    -8706    -8785    -8729    -8463    -8071 
   -7700    -7410    -7244    -7241    -7322    -7377    -7461    -7678 
   -8012    -8363    -8669    -8888    -8951    -8865    -8797    -8899 
   -9085    -9165    -9026    -8650    -8139    -7712    -7528    -7524 
