Origin Time       2025/03/30 22:55:00
Lat.              41.993
Long.             142.725
Depth. (km)       55
Mag.              4.6
Station Code      HKD106
Station Lat.      42.3414
Station Long.     142.3688
Station Height(m) 5
Record Time       2025/03/30 22:56:21
Sampling Freq(Hz) 100Hz
Duration Time(s)  60
Dir.              E-W
Scale Factor      7845(gal)/8223790
Max. Acc. (gal)   2.505
Last Correction   2025/03/30 22:56:21
Memo.             
[...]
    2127     2116     2111     2114     2118     2122     2126     2128 
    2131     2130     2120     2115     2120     2124     2120     2123 
    2131     2130     2122     2118     2119     2123     2127     2128 
    2128     2123     2114     2114     2123     2130     2130     2126 
    2123     2120     2119     2126     2130     2126     2122     2123 
    2123     2120     2122     2122     2122     2123     2127     2128 
    2126     2123     2123     2126     2128     2126     2124     2126 
    2123     2120     2120     2123     2124     2124     2123     2123 
    2123     2122     2120     2122     2123     2124     2126     2124 
    2122     2126     2130     2127     2123     2127     2130     2124 
    2120     2126     2128     2123     2120     2120     2119     2122 
    2123     2123     2126     2124     2122     2120     2118     2118 
    2122     2126     2123     2115     2110     2111     2111     2108 
    2108     2107     2110     2116     2120     2127     2137     2142 
    2145     2150     2149     2138     2127     2123     2126     2133 
    2143     2157     2168     2180     2192     2193     2188     2184 
    2174     2160     2146     2139     2146     2172     2203     2230 
    2245     2241     2219     2200     2199     2212     2238     2261 
    2261     2236     2215     2203     2173     2123     2066     2019 
    1992     1975     1935     1863     1795     1794     1879     2025 
    2151     2184     2137     2073     2041     2026     1991     1906 
    1795     1732     1761     1840     1907     1966     2087     2328 
    2641     2870     2866     2616     2222     1815     1499     1339 
    1364     1595     2026     2578     3057     3260     3126     2762 
    2346     2015     1798     1672     1634     1722     1958     2288 
    2577     2710     2658     2465     2187     1861     1536     1274 
    1150     1227     1483     1827     2162     2432     2614     2695 
    2633     2371     1904     1367     1009     1038     1452     2045 
    2569     2872     2952     2867     2637     2251     1736     1200 
     897     1117     1895     2906     3669     3829     3358     2539 
    1752     1286     1275     1695     2407     3167     3658     3631 
    3032     2045     1097      652      864     1476     2093     2471 
    2597     2552     2412     2231     2042     1857     1683     1568 
    1629     1925     2327     2619     2667     2473     2114     1745 
    1568     1709     2107     2556     2826     2790     2481     2037 
    1636     1432     1459     1628     1853     2135     2467     2743 
    2779     2492     2000     1552     1406     1676     2219     2718 
    2911     2755     2435     2178     2022     1854     1649     1514 
    1601     1927     2312     2550     2598     2527     2409     2292 
    2168     2012     1819     1618     1495     1532     1737     2047 
    2353     2536     2536     2357     2064     1769     1599     1644 
    1930     2374     2810     3117     3242     3090     2610     1910 
    1225      819      849     1267     1842     2316     2592     2732 
    2799     2770     2555     2139     1680     1398     1391     1610 
    1926     2207     2432     2655     2859     2959     2884     2617 
    2235     1868     1582     1404     1401     1593     1871     2141 
    2381     2567     2658     2643     2524     2311     2089     1984 
    2034     2177     2293     2249     2002     1664     1453     1559 
    2003     2581     2944     2836     2295     1633     1233     1317 
    1837     2492     2924     2971     2716     2349     2027     1821 
    1701     1614     1526     1452     1462     1674     2172     2860 
    3411     3447     2862     1931     1125      803     1032     1568 
    2088     2430     2589     2627     2612     2571     2486     2324 
    2077     1825     1688     1732     1922     2158     2309     2300 
    2162     2022     2012     2154     2315     2334     2165     1896 
    1676     1584     1609     1738     1984     2300     2582     2728 
    2678     2444     2120     1809     1559     1437     1539     1926 
    2543     3153     3451     3265     2656     1876     1227      897 
     905     1163     1576     2052     2479     2768     2880     2809 
    2575     2255     1973     1853     1953     2219     2490     2609 
    2527     2284     1965     1680     1540     1615     1872     2177 
    2392     2459     2423     2382     2432     2546     2592     2446 
    2058     1533     1125     1035     1242     1602     1971     2253 
    2438     2555     2586     2527     2415     2249     2060     1956 
    1988     2100     2209     2250     2239     2276     2396     2508 
    2475     2270     2004     1842     1888     2097     2312     2400 
    2334     2142     1887     1663     1564     1636     1863     2150 
    2359     2438     2448     2473     2517     2517     2398     2120 
    1706     1290     1094     1237     1672     2245     2763     3086 
    3154     2982     2664     2359     2158     2020     1868     1684 
    1518     1452     1517     1676     1868     2057     2209     2295 
    2336     2411     2506     2539     2481     2386     2324     2317 
    2312     2215     1995     1728     1543     1536     1691     1890 
    2018     2049     2029     2029     2119     2304     2466     2458 
    2262     2008     1853     1885     2061     2228     2247     2092 
    1884     1787     1860     2058     2299     2540     2791     2997 
    3003     2722     2231     1723     1421     1420     1628     1891 
    2100     2219     2274     2303     2280     2155     1964     1823 
    1779     1779     1841     2033     2311     2524     2531     2336 
    2134     2108     2281     2544     2729     2736     2579     2295 
    1908     1502     1220     1201     1475     1896     2231     2340 
    2239     2065     1972     2002     2120     2324     2608     2905 
    3105     3065     2717     2153     1583     1239     1293     1738 
    2336     2747     2717     2276     1714     1317     1239     1497 
    1968     2443     2739     2791     2658     2442     2216     1980 
    1745     1578     1564     1783     2214     2675     2994     3069 
    2836     2350     1811     1385     1175     1246     1514     1833 
    2085     2174     2114     2049     2087     2257     2478     2523 
    2263     1815     1386     1154     1188     1397     1695     2057 
    2417     2695     2894     3042     3149     3175     3036     2705 
    2269     1872     1638     1628     1798     1987     2047     2025 
    2068     2238     2439     2531     2465     2297     2087     1869 
    1699     1647     1706     1811     1917     2011     2053     2038 
    2035     2087     2187     2301     2400     2485     2539     2478 
    2290     2057     1853     1763     1833     1998     2205     2473 
    2689     2673     2373     1888     1416     1194     1336     1736 
    2192     2511     2585     2493     2415     2451     2597     2764 
    2809     2635     2282     1867     1528     1435     1660     2069 
    2428     2569     2459     2181     1876     1672     1579     1537 
    1532     1614     1830     2165     2492     2643     2579     2411 
    2278     2261     2309     2297     2164     1966     1803     1718 
    1729     1818     1949     2107     2257     2344     2392     2438 
    2458     2448     2427     2377     2307     2250     2170     2020 
    1863     1750     1684     1729     1906     2128     2342     2474 
    2409     2192     2004     1946     2073     2339     2520     2458 
    2216     1930     1744     1768     1927     2089     2251     2381 
    2413     2380     2273     2066     1887     1844     1900     2026 
    2164     2197     2114     1949     1686     1416     1291     1368 
    1656     2110     2579     2922     3022     2813     2412     2046 
    1827     1767     1836     1950     2037     2115     2189     2211 
    2173     2099     2010     1996     2116     2272     2378     2415 
    2344     2155     1885     1591     1394     1417     1678     2138 
    2668     3045     3126     2902     2459     2007     1767     1772 
    1949     2227     2463     2543     2504     2357     2070     1740 
    1502     1426     1583     1944     2332     2600     2656     2458 
    2074     1669     1406     1404     1638     1946     2184     2308 
    2334     2307     2304     2396     2583     2795     2925     2880 
    2641     2231     1694     1163      862      936     1378     2020 
    2602     2960     3038     2824     2396     1921     1559     1437 
    1547     1757     1966     2141     2270     2378     2486     2566 
    2550     2401     2185     2037     2031     2155     2343     2501 
    2551     2489     2377     2276     2204     2147     2072     1984 
    1941     1969     2025     2066     2091     2101     2093     2074 
    2047     2020     1989     1915     1804     1755     1821     1969 
    2196     2475     2690     2731     2559     2205     1811     1541 
    1463     1541     1676     1798     1903     2016     2185     2423 
    2640     2725     2667     2535     2390     2285     2263     2342 
    2492     2636     2704     2686     2579     2353     2038     1733 
    1501     1378     1404     1583     1892     2239     2475     2532 
    2440     2241     1985     1763     1637     1638     1746     1861 
    1910     1915     1937     2026     2200     2423     2623     2727 
    2714     2594     2371     2065     1695     1345     1192     1356 
    1790     2301     2650     2689     2493     2257     2142     2203 
    2370     2500     2500     2339     2037     1737     1611     1699 
    1899     2057     2068     1971     1887     1912     2085     2347 
    2621     2876     3087     3222     3246     3090     2713     2205 
    1725     1397     1287     1359     1512     1683     1860     2016 
    2107     2138     2205     2386     2659     2926     3068     3021 
    2828     2566     2272     1976     1722     1571     1560     1675 
    1850     1999     2023     1902     1723     1610     1664     1908 
    2195     2320     2216     1931     1578     1331     1323     1547 
    1899     2258     2508     2515     2199     1649     1100      807 
     877     1173     1444     1551     1553     1613     1858     2253 
    2617     2805     2802     2701     2608     2533     2447     2366 
    2343     2424     2596     2740     2713     2454     2014     1556 
    1286     1290     1549     1975     2386     2620     2647     2550 
    2471     2508     2593     2587     2407     2072     1728     1506 
    1374     1251     1186     1274     1548     1958     2328     2462 
    2324     2034     1772     1695     1817     2023     2193     2281 
    2327     2382     2448     2516     2589     2637     2624     2513 
    2281     1938     1560     1281     1219     1354     1579     1831 
    2131     2501     2857     3028     2921     2597     2197     1841 
    1590     1495     1603     1917     2354     2732     2851     2700 
    2452     2281     2251     2349     2492     2575     2560     2474 
    2335     2142     1885     1580     1329     1256     1405     1750 
    2239     2790     3295     3604     3616     3356     2961     2631 
    2517     2613     2789     2920     2943     2847     2655     2419 
    2204     2058     1988     1968     1948     1887     1780     1633 
    1468     1335     1262     1240     1269     1354     1462     1536 
    1559     1572     1606     1668     1763     1865     1973     2122 
    2324     2544     2721     2806     2759     2589     2398     2312 
    2355     2450     2469     2293     1922     1521     1290     1331 
    1617     2014     2367     2582     2640     2600     2551     2525 
    2462     2307     2108     1991     2046     2285     2637     2934 
    2987     2737     2338     1992     1791     1713     1674     1593 
    1460     1333     1306     1458     1787     2218     2610     2798 
    2679     2284     1744     1259     1023     1084     1296     1470 
    1521     1509     1605     1949     2504     3125     3680     4008 
    3959     3515     2822     2111     1564     1266     1192     1217 
    1210     1097      908      787      865     1181     1705     2295 
    2717     2810     2567     2116     1702     1518     1580     1814 
    2146     2524     2940     3342     3634     3727     3568     3180 
    2678     2150     1648     1258     1059     1090     1409     2023 
    2809     3568     4074     4179     3921     3442     2906     2478 
    2235     2104     2002     1900     1783     1711     1780     1977 
    2215     2381     2349     2077     1648     1194      845      684 
     742      976     1293     1621     1938     2295     2705     3053 
    3192     3048     2614     1985     1345      874      680      795 
    1156     1636     2115     2470     2565     2358     1960     1536 
    1232     1125     1155     1213     1274     1367     1524     1772 
    2108     2513     2957     3376     3697     3866     3828     3585 
    3213     2828     2559     2455     2443     2451     2466     2489 
    2519     2555     2527     2319     1906     1418     1048      928 
    1059     1296     1490     1620     1711     1787     1858     1896 
    1883     1854     1821     1767     1710     1692     1769     2006 
    2403     2863     3291     3677     4047     4386     4617     4623 
    4301     3634     2716     1709      781       67     -367     -502 
    -336       82      637     1193     1630     1877     1961     1946 
    1885     1856     1953     2227     2643     3069     3316     3299 
    3084     2797     2566     2489     2546     2664     2795     2855 
    2766     2502     2099     1682     1412     1331     1328     1254 
    1048      784      596      594      807     1208     1722     2278 
    2803     3231     3514     3599     3474     3198     2853     2538 
    2350     2349     2524     2795     3036     3145     3125     3065 
    3013     2951     2845     2648     2343     1979     1617     1312 
    1116     1054     1084     1161     1287     1482     1732     2002 
    2247     2416     2469     2390     2193     1962     1790     1698 
    1672     1655     1580     1445     1285     1142     1094     1154 
    1212     1167     1047      962     1053     1414     1992     2637 
    3203     3539     3566     3365     3095     2897     2853     2909 
    2918     2794     2504     2106     1764     1626     1725     1989 
    2292     2521     2601     2484     2207     1872     1594     1460 
    1493     1642     1830     1975     2045     2114     2263     2506 
    2782     2990     3032     2901     2674     2416     2168     1972 
    1852     1829     1907     2038     2154     2196     2065     1726 
    1321     1065     1100     1487     2130     2802     3273     3389 
    3134     2678     2227     1891     1728     1726     1795     1852 
    1875     1877     1917     2034     2185     2288     2273     2085 
    1750     1371     1085     1016     1204     1591     2085     2552 
    2859     2949     2829     2567     2335     2290     2479     2808 
    3061     3044     2741     2261     1742     1344     1169     1209 
    1406     1684     1972     2235     2444     2546     2544     2482 
    2366     2189     1958     1668     1362     1151     1138     1360 
    1750     2166     2505     2706     2748     2664     2498     2285 
    2066     1891     1833     1892     1957     1938     1826     1674 
    1611     1761     2073     2384     2566     2569     2448     2324 
    2281     2334     2432     2512     2546     2517     2431     2292 
    2103     1922     1818     1829     1961     2160     2323     2359 
    2211     1958     1830     1964     2330     2808     3213     3415 
    3410     3218     2882     2481     2066     1667     1298     1004 
     896     1066     1474     1980     2427     2710     2817     2820 
    2843     2922     2970     2886     2639     2265     1857     1499 
    1246     1163     1293     1564     1857     2091     2227     2272 
    2247     2147     1992     1841     1699     1557     1462     1445 
    1474     1533     1618     1740     1949     2249     2539     2735 
    2794     2681     2439     2142     1823     1572     1464     1483 
    1621     1858     2128     2427     2736     2965     3083     3088 
    2937     2671     2388     2104     1895     1827     1850     1914 
    2019     2124     2203     2289     2384     2446     2447     2307 
    2027     1749     1584     1624     1919     2342     2687     2851 
    2798     2567     2274     1981     1707     1534     1486     1514 
    1620     1776     1922     2073     2230     2358     2423     2413 
    2332     2216     2099     1979     1850     1728     1621     1551 
    1521     1520     1549     1611     1723     1885     2042     2187 
    2322     2405     2454     2493     2479     2384     2235     2097 
    2088     2281     2600     2922     3190     3323     3280     3117 
    2867     2511     2096     1688     1332     1101     1009     1009 
    1112     1325     1610     1939     2277     2532     2654     2631 
    2430     2127     1888     1826     1960     2207     2455     2662 
    2801     2849     2820     2718     2546     2335     2124     1945 
    1831     1759     1676     1594     1532     1507     1533     1598 
    1698     1845     2037     2215     2292     2203     1961     1678 
    1476     1420     1520     1737     2014     2278     2477     2636 
    2790     2932     3049     3091     2991     2755     2454     2158 
    1911     1728     1603     1555     1613     1749     1906     2060 
    2164     2188     2157     2081     1983     1915     1898     1935 
    2041     2187     2313     2361     2290     2131     1976     1902 
    1946     2126     2388     2644     2832     2891     2802     2601 
    2349     2114     1937     1819     1729     1657     1649     1768 
    2010     2282     2501     2597     2484     2145     1692     1308 
    1183     1417     1944     2585     3123     3384     3289     2897 
    2362     1848     1480     1347     1474     1810     2234     2577 
    2717     2632     2343     1926     1521     1254     1217     1428 
    1787     2155     2409     2448     2255     1922     1598     1406 
    1417     1620     1958     2389     2860     3265     3504     3526 
    3319     2930     2448     1950     1536     1313     1297     1433 
    1638     1794     1834     1786     1694     1638     1734     2038 
    2484     2936     3241     3280     3071     2725     2343     2015 
    1799     1683     1652     1728     1915     2181     2432     2560 
    2516     2339     2141     2011     1996     2101     2257     2369 
    2394     2342     2259     2199     2161     2100     1971     1786 
    1625     1547     1524     1506     1493     1501     1549     1636 
    1717     1776     1827     1887     1991     2164     2382     2589 
    2721     2744     2658     2458     2180     1915     1750     1730 
    1825     1922     1933     1849     1729     1632     1575     1568 
    1628     1784     2057     2388     2686     2899     3010     3029 
    2992     2917     2797     2636     2461     2320     2246     2254 
