Origin Time       2025/03/30 22:55:00
Lat.              41.993
Long.             142.725
Depth. (km)       55
Mag.              4.6
Station Code      HKD112
Station Lat.      41.9370
Station Long.     143.2403
Station Height(m) 15
Record Time       2025/03/30 22:56:17
Sampling Freq(Hz) 100Hz
Duration Time(s)  60
Dir.              E-W
Scale Factor      7845(gal)/8223790
Max. Acc. (gal)   7.351
Last Correction   2025/03/30 22:56:17
Memo.             
[...]
   21293    21296    21301    21305    21308    21307    21301    21296 
   21290    21296    21303    21307    21307    21303    21296    21294 
   21293    21294    21301    21304    21304    21304    21303    21300 
   21296    21294    21298    21298    21300    21301    21301    21298 
   21297    21293    21292    21298    21305    21305    21304    21303 
   21301    21300    21296    21293    21294    21294    21298    21305 
   21307    21303    21300    21301    21301    21296    21294    21296 
   21297    21300    21301    21304    21304    21298    21294    21298 
   21300    21301    21301    21298    21297    21298    21298    21298 
   21300    21300    21303    21305    21303    21296    21293    21293 
   21297    21303    21301    21300    21303    21301    21297    21296 
   21294    21300    21304    21301    21296    21296    21297    21300 
   21303    21305    21303    21296    21296    21298    21300    21298 
   21297    21297    21303    21305    21300    21296    21293    21292 
   21296    21300    21303    21301    21298    21297    21296    21292 
   21294    21303    21305    21308    21309    21304    21297    21292 
   21289    21293    21301    21305    21308    21309    21305    21300 
   21298    21294    21290    21293    21301    21311    21313    21307 
   21298    21289    21286    21293    21300    21307    21311    21309 
   21301    21294    21289    21288    21293    21301    21308    21309 
   21308    21304    21298    21293    21290    21292    21296    21308 
   21316    21312    21301    21296    21293    21292    21296    21300 
   21303    21307    21307    21303    21296    21290    21292    21298 
   21307    21309    21308    21304    21298    21294    21292    21290 
   21296    21307    21313    21312    21307    21296    21288    21290 
   21297    21301    21305    21309    21311    21307    21298    21290 
   21293    21296    21296    21303    21312    21311    21305    21300 
   21293    21289    21292    21293    21298    21309    21313    21308 
   21298    21292    21289    21292    21298    21308    21313    21311 
   21304    21292    21285    21289    21296    21303    21309    21311 
   21305    21298    21294    21290    21290    21297    21304    21305 
   21305    21304    21298    21293    21288    21288    21297    21305 
   21311    21312    21308    21303    21293    21285    21286    21293 
   21303    21309    21308    21307    21304    21297    21290    21286 
   21292    21303    21305    21304    21301    21297    21297    21298 
   21296    21296    21303    21307    21305    21297    21289    21290 
   21297    21303    21305    21305    21307    21307    21304    21294 
   21288    21289    21296    21300    21305    21307    21305    21303 
   21298    21294    21293    21293    21296    21304    21311    21308 
   21301    21297    21293    21292    21296    21301    21303    21305 
   21304    21303    21298    21296    21297    21303    21303    21301 
   21303    21304    21301    21300    21298    21297    21296    21296 
   21298    21303    21303    21300    21297    21292    21293    21298 
   21300    21301    21307    21307    21304    21301    21293    21288 
   21292    21300    21305    21307    21304    21303    21301    21298 
   21300    21300    21296    21294    21298    21303    21305    21305 
   21303    21298    21294    21293    21294    21294    21300    21308 
   21308    21303    21298    21297    21293    21293    21298    21307 
   21312    21308    21297    21292    21293    21297    21303    21303 
   21298    21301    21303    21300    21294    21294    21297    21303 
   21305    21304    21303    21303    21300    21297    21297    21296 
   21293    21300    21308    21309    21307    21300    21294    21290 
   21289    21293    21304    21311    21311    21307    21296    21286 
   21288    21296    21304    21307    21307    21308    21307    21298 
   21296    21292    21289    21294    21303    21303    21298    21301 
   21303    21298    21296    21294    21297    21303    21307    21305 
   21300    21296    21294    21292    21293    21297    21298    21305 
   21309    21305    21300    21296    21292    21294    21300    21307 
   21312    21313    21309    21307    21307    21311    21323    21340 
   21354    21351    21336    21330    21357    21397    21412    21382 
   21335    21325    21385    21454    21456    21385    21289    21236 
   21278    21359    21369    21285    21204    21222    21312    21362 
   21294    21154    21112    21232    21343    21324    21224    21134 
   21151    21293    21357    21163    20930    20939    21159    21473 
   21660    21531    21338    21282    21155    21018    21095    21251 
   21357    21429    21496    21602    21546    21135    20761    20775 
   21061    21571    22102    22188    21909    21574    21039    20494 
   20530    20911    21108    21423    21882    21838    21448    21199 
   20819    20493    20677    20941    21154    21721    22307    22431 
   22049    21049    19899    19673    20414    21289    21990    22311 
   21875    21244    21324    21666    21304    20366    19793    20391 
   21895    22869    22561    21848    21535    21331    20833    20314 
   20352    21130    22102    22459    22098    21678    21531    21308 
   20710    20097    20208    21034    21690    21811    21778    21702 
   21471    21199    20953    20652    20590    21243    22121    22308 
   21928    21436    20957    20822    21047    21060    20960    21319 
   21724    21590    21168    20714    20502    20868    21438    21787 
   21913    21643    21205    21240    21487    21375    21078    20880 
   21043    21814    22439    21955    20914    20383    20479    20794 
   20965    21092    21570    22054    21918    21529    21405    21274 
   21085    21161    21411    21635    21763    21605    21146    20787 
   20746    20796    20910    21317    21744    21709    21533    21631 
   21612    21328    21127    21119    21307    21525    21440    21196 
   21120    21049    20861    20791    20906    21278    21907    22150 
   21567    20883    20892    21269    21379    21250    21107    21027 
   21236    21663    21726    21423    21280    21327    21446    21622 
   21589    21347    21257    21240    21084    20910    20754    20780 
   21269    21830    21818    21385    21242    21586    21899    21675 
   21069    20738    20961    21390    21568    21172    20363    19954 
   20437    21284    21806    21874    21622    21502    21865    22202 
   22014    21546    20983    20569    20877    21605    21825    21490 
   20960    20537    20714    21213    21273    21139    21393    21825 
   22022    21934    21618    21147    20848    20933    21105    21060 
   20881    20792    20798    20763    20933    21559    22014    21655 
   21043    21151    21902    22423    22473    22221    21317    20113 
   19984    21055    21809    21370    20461    20223    20981    21887 
   21936    21425    21281    21678    22160    22150    21523    20926 
   20790    20834    20985    21166    20857    20348    20719    21793 
   22285    21864    21247    21058    21308    21586    21764    21990 
   21951    21334    20821    20952    20962    20479    20335    20798 
   21251    21415    21409    21431    21701    21910    21532    20999 
   20923    21068    21362    21933    22123    21612    21101    20877 
   20745    20757    20792    20818    21151    21717    22013    21822 
   21440    21297    21487    21818    22030    21739    21039    20845 
   21398    21644    21186    20811    20741    20745    21069    21459 
   21224    20888    21319    22006    22269    22127    21419    20455 
   20271    20850    21195    21024    20695    20617    21185    22026 
   22330    22110    21578    20908    20858    21415    21559    21205 
   20983    21077    21452    21802    21716    21497    21581    21767 
   21905    21872    21366    20879    21001    21239    21208    20979 
   20486    20277    20844    21369    21166    20864    21047    21346 
   21249    20992    21231    21838    22011    21691    21415    21378 
   21546    21489    20853    20525    21182    21852    21888    21784 
   21640    21309    21043    20976    21085    21240    21193    21139 
   21340    21451    21298    21115    20946    20985    21331    21543 
   21652    21919    21903    21641    21695    21533    20741    20374 
   20861    21146    20995    21288    21805    21687    21222    21015 
   21037    21108    21165    21336    21666    21685    21211    20918 
   21262    21833    22010    21617    21060    20868    21173    21574 
   21359    20553    20132    20518    21073    21265    21235    21277 
   21470    21768    21982    21991    22037    22164    21941    21354 
   20933    20779    20680    20738    20918    20919    20857    21051 
   21274    21280    21396    21610    21670    21863    22072    21718 
   21150    21095    21389    21556    21555    21321    20790    20510 
   20868    21212    20920    20471    20594    21150    21459    21465 
   21772    22373    22638    22477    22087    21388    20606    20247 
   20295    20425    20517    20614    21084    22014    22488    22013 
   21433    21371    21521    21369    20763    20352    20956    22071 
   22349    21753    21369    21309    21031    20618    20444    20621 
   21001    21471    21986    22345    22272    21721    21277    21443 
   21616    21130    20359    20016    20528    21528    21951    21628 
   21420    21567    21676    21562    21134    20634    20680    21228 
   21668    21810    21574    21104    21101    21444    21394    21215 
   21222    21157    21277    21687    21718    21311    21147    21163 
   20903    20748    21003    21141    21131    21702    22640    22688 
   21663    20760    20484    20495    20717    20853    20688    20833 
   21517    22068    22072    21709    21316    21178    21193    21053 
   20950    21162    21357    21321    21432    21614    21450    21224 
   21100    20854    21028    21899    22485    22206    21512    20722 
   20150    20347    21028    21398    21296    21001    20898    21028 
   20993    20920    21230    21629    21702    21593    21589    21747 
   21736    21296    20983    21321    21654    21370    21031    21154 
   21531    21841    21845    21601    21330    21007    20818    21008 
   21320    21481    21456    21149    20780    20980    21601    21832 
   21685    21523    21155    20757    21001    21689    22010    21942 
   21766    21344    20868    20740    20788    20802    20927    21033 
   20807    20434    20430    21061    21944    22284    21937    21667 
   21836    21964    21805    21517    21219    21074    21061    20958 
   20830    20900    21288    21872    22225    21956    21243    20763 
   20862    21226    21489    21455    21142    20970    21128    21285 
   21305    21139    20657    20228    20290    20625    20827    20902 
   21147    21784    22566    22844    22427    21937    21764    21605 
   21207    20719    20422    20331    20370    20752    21313    21470 
   21537    22146    22658    22365    21747    21146    20584    20513 
   20862    21034    21119    21420    21670    21712    21655    21454 
   21261    21338    21504    21524    21424    21220    21091    21250 
   21359    21143    21011    21261    21716    22015    21693    20772 
   19917    19602    19801    20197    20499    20898    21768    22816 
   23014    22025    21092    21119    21316    21053    20663    20282 
   20139    20636    21132    20772    20036    19842    20507    21907 
   23247    23422    22350    20929    19858    19318    19287    19620 
   20170    20981    22221    23707    24372    23217    21038    19678 
   19958    21188    22192    22850    23846    24769    24491    23083 
   21423    20088    19599    20279    21667    22821    23021    22235 
   21142    20351    19646    18800    18493    19264    20652    21976 
   22788    22998    23101    23360    23229    22420    21601    21482 
   21884    21946    21150    19998    19325    19228    19350    19433 
   19296    19260    19884    20861    21404    21581    21832    21892 
   21541    21055    20463    19989    20464    22260    24630    26289 
   26477    25505    24254    23290    22308    20872    19512    19149 
   19984    21278    21949    21613    20528    18983    17674    17359 
   17821    18350    18638    18801    19512    21378    23508    24148 
   22982    21365    20418    20179    20356    20911    22007    23642 
   25284    26131    25702    24109    22127    20615    19623    18889 
   18619    18750    18843    19124    20013    21116    21969    22729 
   23437    23757    23673    23353    22446    20676    18798    17860 
   18099    19079    20205    21173    22083    22767    22698    21978 
   21394    21258    21087    20644    20340    20607    21454    22326 
   22513    21979    21330    21004    21064    21460    21999    22408 
   22485    22152    21648    21155    20358    19377    19159    20028 
   21309    22335    22642    22264    21952    21859    21467    21066 
   21228    21710    22164    22607    22881    22707    22241    21791 
   21282    20633    20023    19600    19241    18671    18261    18949 
   20818    22697    23479    23198    22662    22368    22299    22330 
   22187    21512    20440    19635    19461    19525    19400    19410 
   20198    21705    23102    23865    24258    24633    24881    24745 
   24097    22862    20974    18519    16042    14310    13593    13828 
   15121    17442    20351    23241    25299    25975    25783    25544 
   25313    24798    23950    22863    21671    20560    19673    19143 
   19246    20048    21120    22100    22968    23584    23610    23045 
   22281    21605    21023    20482    20137    20299    20912    21390 
   21001    19496    17616    16560    16853    18189    20024    21894 
   23472    24555    25074    25002    24189    22605    20806    19743 
   19718    20206    21019    22350    23843    24709    24366    22810 
   20580    18374    16854    16430    17107    18607    20426    22226 
   24005    25369    25763    25335    24489    23542    22941    22743 
   22543    22207    21775    20972    19634    18215    17205    16784 
   17165    18154    19053    19749    20694    21971    23194    23815 
   23467    22419    21550    21551    22211    22798    22833    22351 
   21794    21402    20780    19483    17828    16698    16671    17598 
   18831    19862    20852    22173    23720    25046    25821    26010 
   25735    24938    23413    21348    19457    18377    18176    18508 
   19240    20586    22415    23851    24039    23085    21717    20495 
   19791    19831    20433    20985    21159    21492    22437    23450 
   23808    23485    22916    22576    22594    22296    20946    18913 
   17142    16186    16209    16991    18139    19557    21236    23010 
   24679    26036    26742    26438    25084    23041    20690    18212 
   15967    14662    14817    16421    19039    21963    24482    26069 
   26393    25625    24445    23444    22774    22287    21871    21540 
   21324    21131    20737    20182    19947    20332    21091    21760 
   21961    21492    20414    19057    17919    17439    17764    18762 
   20058    21271    22361    23487    24579    25174    24907    23947 
   22777    21865    21443    21305    21049    20615    20382    20513 
   20622    20372    20051    20156    20714    21420    22015    22157 
   21597    20640    19907    19669    19735    19878    20034    20171 
   20309    20586    21020    21401    21752    22372    23311    24337 
   25085    25114    24347    23209    22106    21166    20367    19639 
   18983    18508    18311    18399    18646    18870    19180    19961 
   21271    22632    23507    23766    23712    23712    23765    23485 
   22638    21579    20984    21150    21674    21951    21837    21683 
   21751    21849    21648    21120    20455    19754    19089    18598 
   18432    18659    19198    19915    20763    21589    22075    22117 
   22053    22364    23118    23811    23943    23496    22711    21780 
   20722    19521    18492    18148    18689    19953    21605    23206 
   24336    24835    24786    24213    23048    21513    20151    19330 
   19001    18841    18500    17922    17523    17817    18862    20317 
   21849    23232    24362    25224    25704    25635    25076    24254 
   23240    21892    20177    18338    16812    16031    16237    17389 
   19215    21375    23546    25375    26464    26457    25218    22950 
   20353    18403    17631    17905    18882    20256    21664    22661 
   22923    22499    21774    21154    20803    20694    20794    20933 
   20826    20430    19903    19350    18975    19082    19714    20636 
   21648    22659    23564    24235    24502    24169    23240    22104 
   21216    20721    20540    20514    20505    20564    20791    21060 
   21213    21307    21450    21636    21817    21998    22164    22249 
   22238    22142    21961    21739    21473    21039    20370    19612 
   19010    18787    19060    19656    20243    20800    21586    22628 
   23568    23998    23832    23340    22869    22411    21604    20351 
   19075    18281    18149    18503    19075    19792    20741    21992 
   23363    24409    24840    24705    24246    23700    23045    22009 
   20568    19116    18019    17462    17604    18462    19785    21240 
   22457    23124    23256    23017    22378    21393    20443    19947 
   20079    20719    21573    22334    22771    22782    22477    22056 
   21604    21085    20599    20434    20722    21158    21320    21146 
   20891    20784    20929    21223    21467    21671    21913    22013 
   21786    21324    20891    20802    21195    21809    22200    22096 
   21487    20567    19600    18819    18391    18449    19093    20321 
   21922    23458    24505    24907    24772    24212    23249    22046 
   20911    20059    19568    19404    19344    19161    18924    18924 
   19377    20277    21436    22647    23723    24428    24598    24352 
   23870    23139    22131    20950    19750    18732    18040    17660 
   17541    17767    18513    19822    21417    22848    23931    24763 
   25342    25515    25147    24231    22994    21732    20499    19311 
   18389    17899    17778    17959    18472    19365    20625    22029 
   23184    23881    24224    24382    24290    23710    22626    21377 
   20318    19564    19195    19284    19701    20258    20845    21374 
   21825    22118    22079    21763    21431    21271    21389    21749 
   22125    22302    22226    21847    21089    20115    19313    18983 
   19187    19813    20590    21169    21435    21591    21778    21910 
   21936    21926    21983    22179    22469    22623    22441    22023 
   21640    21377    21089    20721    20432    20368    20552    20949 
   21448    21849    22006    21957    21791    21560    21298    20985 
   20641    20440    20493    20663    20779    20831    20879    20920 
   20937    20945    21024    21211    21384    21421    21357    21274 
   21232    21343    21725    22316    22848    23110    23103    22914 
   22615    22215    21681    21031    20376    19867    19588    19468 
   19403    19404    19570    19977    20629    21396    22030    22370 
