Origin Time       2025/03/30 22:55:00
Lat.              41.993
Long.             142.725
Depth. (km)       55
Mag.              4.6
Station Code      HKD113
Station Lat.      42.1287
Station Long.     143.3153
Station Height(m) 15
Record Time       2025/03/30 22:56:19
Sampling Freq(Hz) 100Hz
Duration Time(s)  60
Dir.              E-W
Scale Factor      3920(gal)/6182761
Max. Acc. (gal)   3.310
Last Correction   2025/03/30 22:56:19
Memo.             
[...]
    1819     1822     1824     1822     1820     1821     1822     1820 
    1820     1822     1822     1820     1822     1824     1823     1822 
    1821     1818     1819     1821     1821     1821     1823     1824 
    1822     1820     1820     1821     1823     1821     1818     1820 
    1822     1823     1823     1820     1818     1819     1821     1822 
    1822     1821     1823     1824     1821     1819     1818     1818 
    1821     1822     1821     1821     1822     1824     1823     1820 
    1819     1820     1822     1822     1820     1821     1823     1822 
    1822     1821     1819     1820     1820     1820     1821     1821 
    1821     1823     1822     1822     1823     1822     1821     1821 
    1820     1820     1820     1821     1823     1824     1823     1822 
    1821     1821     1820     1818     1819     1821     1823     1825 
    1824     1820     1816     1817     1821     1821     1819     1822 
    1824     1823     1822     1821     1820     1821     1820     1818 
    1820     1823     1825     1824     1820     1821     1823     1820 
    1816     1817     1819     1820     1821     1822     1823     1821 
    1819     1819     1817     1817     1821     1823     1824     1825 
    1824     1822     1823     1822     1818     1817     1821     1823 
    1824     1823     1823     1824     1822     1819     1818     1820 
    1821     1821     1822     1824     1824     1822     1820     1819 
    1817     1817     1821     1825     1825     1824     1823     1822 
    1820     1818     1819     1819     1819     1824     1826     1825 
    1823     1823     1822     1820     1819     1818     1819     1822 
    1823     1824     1826     1825     1821     1821     1820     1820 
    1823     1826     1827     1828     1827     1828     1830     1832 
    1835     1838     1841     1844     1847     1851     1857     1861 
    1863     1865     1865     1863     1865     1867     1867     1865 
    1857     1847     1838     1836     1851     1876     1901     1915 
    1902     1860     1809     1766     1740     1740     1774     1827 
    1881     1910     1893     1824     1731     1657     1630     1666 
    1764     1878     1938     1914     1834     1738     1655     1599 
    1583     1629     1751     1918     2053     2093     2004     1794 
    1563     1424     1422     1575     1840     2076     2183     2154 
    2017     1824     1637     1523     1530     1653     1819     1954 
    2056     2136     2122     1958     1710     1522     1490     1591 
    1757     1964     2176     2267     2134     1845     1566     1385 
    1306     1367     1619     1988     2308     2435     2327     2044 
    1664     1323     1198     1324     1609     1922     2110     2118 
    2007     1851     1780     1902     2041     1912     1598     1405 
    1425     1597     1876     2224     2566     2656     2292     1702 
    1249     1007      932     1117     1684     2457     3002     3070 
    2681     1966     1159      543      388      782     1536     2442 
    3284     3625     3135     2032      879      144       66      649 
    1673     2709     3299     3303     2910     2279     1450      577 
      47      223     1070     2191     3090     3475     3344     2741 
    1743      677      -19      -34      708     1947     3169     3871 
    3780     2952     1738      641       65      140      762     1705 
    2689     3381     3442     2840     1901     1005      511      649 
    1232     1889     2439     2799     2880     2653     2163     1559 
    1066      866      971     1279     1739     2263     2697     2884 
    2624     1972     1320      895      691      782     1222     1848 
    2432     2809     2827     2464     1966     1608     1428     1269 
    1076     1106     1586     2276     2714     2734     2415     1845 
    1242      956     1150     1617     1958     2031     2073     2224 
    2324     2165     1756     1406     1288     1255     1301     1595 
    2089     2511     2632     2432     2010     1509     1127     1042 
    1303     1738     2086     2275     2294     2081     1771     1591 
    1566     1622     1723     1851     1978     2029     1976     1874 
    1752     1579     1436     1542     1907     2220     2235     1959 
    1613     1474     1590     1798     1907     1867     1856     1986 
    2144     2188     2005     1608     1262     1242     1559     1915 
    2002     1899     1902     2095     2334     2371     2035     1476 
    1063     1028     1326     1746     2110     2381     2540     2483 
    2198     1797     1353     1024     1083     1543     2080     2448 
    2602     2504     2173     1693     1202      987     1116     1366 
    1742     2245     2517     2362     2001     1699     1518     1416 
    1440     1666     1993     2178     2136     2062     2046     1873 
    1513     1203     1057     1156     1588     2199     2698     2893 
    2706     2228     1675     1200      938     1040     1449     1985 
    2504     2809     2761     2395     1820     1224      880      903 
    1207     1714     2275     2635     2684     2391     1797     1249 
    1029     1041     1241     1716     2311     2747     2884     2696 
    2228     1577      926      561      707     1284     1910     2303 
    2523     2643     2570     2278     1859     1475     1273     1266 
    1406     1604     1760     1883     2014     2125     2117     1876 
    1479     1233     1357     1748     2126     2307     2311     2165 
    1815     1418     1290     1457     1708     1939     2179     2323 
    2128     1669     1340     1333     1519     1702     1851     1992 
    2005     1858     1755     1826     1969     2004     1872     1666 
    1546     1627     1880     2158     2288     2168     1899     1660 
    1548     1566     1631     1737     1919     2022     1922     1747 
    1623     1603     1728     1927     2085     2178     2236     2258 
    2185     1952     1593     1270     1181     1404     1824     2192 
    2302     2221     2121     2002     1812     1615     1555     1654 
    1762     1849     1917     1850     1755     1881     2110     2123 
    1855     1461     1108      984     1211     1686     2167     2465 
    2518     2333     1975     1606     1424     1520     1775     1987 
    2035     1901     1695     1561     1597     1786     1896     1785 
    1656     1699     1858     1979     1979     1947     1958     1871 
    1563     1235     1192     1439     1758     2055     2346     2528 
    2445     2161     1927     1809     1608     1279     1156     1438 
    1832     2048     2103     2018     1805     1613     1558     1632 
    1799     2055     2337     2458     2264     1837     1476     1345 
    1303     1323     1621     2150     2564     2648     2448     2115 
    1750     1417     1270     1433     1775     1986     1943     1883 
    2000     2091     1934     1649     1466     1431     1456     1546 
    1735     1941     2124     2336     2502     2372     1816     1162 
     907     1122     1556     2041     2446     2568     2306     1867 
    1597     1490     1358     1330     1554     1891     2141     2219 
    2169     1982     1574     1125     1068     1549     2147     2393 
    2277     1972     1613     1425     1486     1637     1767     1895 
    2043     2155     2154     2100     2088     1967     1525     1039 
    1012     1351     1666     1971     2272     2323     2087     1680 
    1254     1149     1522     2135     2657     2767     2392     1861 
    1442     1201     1198     1455     1894     2242     2293     2236 
    2235     2124     1828     1546     1439     1501     1718     2006 
    2140     2072     2031     2194     2408     2345     1916     1364 
     980      945     1362     2065     2503     2404     2156     2057 
    1988     1882     1721     1421     1089      979     1222     1684 
    2067     2203     2171     2048     1776     1502     1508     1751 
    2031     2243     2353     2405     2344     2018     1452      891 
     672      871     1320     1945     2540     2844     2840     2508 
    1924     1409     1124     1057     1146     1239     1355     1641 
    1982     2143     2147     2153     2146     2014     1865     1966 
    2296     2513     2404     2016     1494     1068      985     1315 
    1885     2397     2580     2384     2033     1705     1369     1066 
     947     1068     1404     1997     2767     3228     3033     2485 
    1966     1532     1082      657      603     1057     1747     2470 
    3025     3076     2501     1612      937      706      788     1089 
    1628     2271     2690     2771     2645     2256     1643     1248 
    1246     1349     1416     1609     2015     2430     2548     2333 
    1951     1446      824      412      618     1329     2089     2675 
    3032     3132     2932     2275     1265      421      107      334 
    1010     1971     2907     3422     3254     2548     1744     1176 
     989     1228     1732     2211     2517     2671     2680     2401 
    1762     1070      662      544      759     1429     2248     2768 
    2965     2856     2257     1357      740      692     1034     1602 
    2321     2946     3164     2888     2360     1905     1535     1094 
     771      913     1451     1999     2352     2536     2519     2265 
    1971     1874     1880     1660     1218      988     1195     1625 
    2001     2237     2349     2191     1698     1235     1106     1217 
    1534     2189     3039     3554     3338     2554     1632      903 
     630      859     1309     1726     2062     2238     2148     1860 
    1571     1347     1150     1029      972      909      950     1168 
    1491     1838     1977     1757     1475     1355     1233     1080 
    1122     1412     1768     1978     1929     1676     1324      929 
     636      658      988     1386     1732     2084     2384     2467 
    2325     2144     2028     1895     1754     1810     2195     2765 
    3212     3337     3161     2754     2175     1636     1444     1674 
    2161     2716     3197     3479     3431     3051     2469     1822 
    1325     1167     1284     1537     1891     2280     2572     2712 
    2755     2711     2520     2156     1711     1415     1451     1780 
    2194     2405     2270     1881     1394     1047     1037     1300 
    1630     1924     2225     2506     2527     2132     1478      909 
     726      957     1403     1891     2325     2598     2635     2445 
    2000     1263      382     -260     -307      275     1283     2474 
    3489     3961     3781     3056     1965      802        5     -140 
     212      687      967      892      610      453      652     1249 
    2061     2901     3715     4353     4568     4146     3048     1640 
     506       76      493     1518     2528     2817     2185     1149 
     435      425      976     1641     2114     2316     2229     1915 
    1475      993      684      984     2095     3521     4506     4694 
    4045     2657      944     -380     -769     -182      978     2107 
    2759     2835     2489     2013     1621     1353     1304     1620 
    2228     2879     3327     3405     3095     2442     1568      853 
     675     1030     1693     2466     3066     3158     2673     1883 
    1202     1007     1379     1988     2444     2505     2098     1380 
     666      318      500     1019     1603     2096     2339     2172 
    1657     1171     1033     1157     1294     1345     1366     1408 
    1378     1212     1095     1176     1326     1497     1926     2755 
    3694     4220     4105     3449     2324      913     -323     -953 
    -752      257     1695     3003     3749     3811     3352     2725 
    2293     2130     2045     1924     1800     1723     1679     1571 
    1382     1223     1134     1158     1459     2019     2465     2499 
    2305     2205     2119     1801     1348     1083     1180     1582 
    2137     2586     2555     1883      864       31     -252      -18 
     583     1506     2544     3389     3909     4000     3502     2461 
    1233      252     -236     -203      208      753     1282     1804 
    2343     2809     3019     2921     2726     2719     2957     3219 
    3236     2887     2238     1538     1081      998     1202     1502 
    1706     1742     1714     1749     1805     1745     1523     1202 
     890      695      794     1390     2459     3670     4616     4960 
    4450     3100     1368      -56     -688     -504      141      918 
    1625     1990     1889     1584     1416     1489     1783     2329 
    3061     3609     3487     2565     1187     -128     -860     -634 
     454     1902     3218     4120     4504     4374     3818     2965 
    1836      399    -1097    -1984    -1634     -129     1750     3234 
    4019     4206     4088     3858     3407     2548     1354      103 
    -878    -1283     -984     -127     1063     2491     3955     4886 
    4754     3591     1989      704      208      457      976     1237 
    1062      728      769     1486     2629     3661     4142     3902 
    3072     1925      832      225      310      897     1604     2143 
    2376     2310     2119     1978     1949     2036     2111     1966 
    1606     1326     1405     1769     2075     2080     1782     1359 
    1096     1221     1814     2762     3663     3975     3435     2247 
     866     -276     -859     -685      255     1757     3467     4998 
    6032     6247     5333     3278      571    -1917    -3352    -3399 
   -2260     -350     1873     3902     5306     5818     5325     3999 
    2453     1430     1177     1309     1304      956      493      298 
     429      605      628      590      801     1565     2755     3660 
    3607     2700     1642     1049     1146     1780     2524     2922 
    2794     2349     1851     1364      995      986     1408     1969 
    2157     1646      634     -195     -124     1024     2706     4082 
    4649     4472     3806     2706     1233     -223    -1115    -1028 
     117     1898     3567     4474     4353     3407     2094      788 
    -212     -551      -40     1122     2497     3528     3643     2681 
    1194      139      188     1246     2658     3782     4289     4067 
    3086     1474     -264    -1386    -1407     -342     1367     3042 
    4068     4189     3597     2718     1879     1243      880      768 
     856     1090     1383     1624     1713     1705     1802     2068 
    2349     2497     2559     2709     3030     3341     3271     2575 
    1393      162     -621     -581      295     1574     2709     3426 
    3709     3563     2975     2046     1052      366      246      622 
    1173     1634     1988     2378     2877     3370     3558     3127 
    2053      767      -99     -228      190      808     1424     1915 
    2217     2349     2366     2294     2167     2064     2044     2051 
    1969     1758     1498     1289     1170     1141     1201     1385 
    1694     2006     2133     1975     1562     1060      731      781 
    1225     1929     2672     3226     3438     3211     2543     1638 
     872      574      817     1450     2214     2787     2921     2601 
    1974     1247      665      462      793     1612     2640     3525 
    4017     3978     3328     2121      664     -507     -878     -263 
    1120     2747     3946     4238     3576     2294     1001      324 
     529     1465     2737     3850     4396     4206     3358     2126 
     860     -113     -531     -320      367     1287     2176     2784 
    2958     2672     2031     1313      854      796     1089     1640 
    2285     2754     2772     2262     1470      797      491      587 
    1023     1653     2238     2585     2621     2331     1749     1067 
     629      705     1256     1982     2579     2881     2890     2742 
    2541     2273     1901     1519     1354     1541     1949     2350 
    2619     2681     2491     2119     1754     1544     1478     1467 
    1508     1639     1797     1841     1666     1252      708      266 
     173      560     1344     2289     3168     3797     3985     3619 
    2782     1724      775      274      373      920     1624     2204 
    2441     2310     1971     1655     1567     1748     2062     2374 
    2599     2634     2425     2033     1559     1078      667      436 
     548     1101     1977     2880     3517     3704     3365     2562 
    1560      770      489      698     1187     1756     2244     2469 
    2320     1915     1506     1264     1234     1394     1645     1848 
    1892     1759     1566     1425     1339     1322     1429     1637 
    1827     1950     2096     2302     2455     2467     2313     1983 
    1561     1241     1196     1449     1860     2228     2428     2444 
    2294     1992     1590     1217     1019     1064     1365     1854 
    2342     2654     2705     2469     2042     1592     1236     1073 
    1180     1513     1933     2288     2445     2369     2161     1960 
    1829     1787     1858     1987     2074     2117     2152     2127 
    2017     1887     1792     1784     1872     1936     1855     1624 
    1319     1081     1052     1261     1602     1944     2149     2101 
    1816     1437     1145     1158     1608     2359     3049     3334 
    3109     2521     1797     1145      716      547      604      837 
    1203     1667     2136     2508     2731     2745     2501     2056 
    1555     1216     1235     1614     2106     2377     2233     1751 
    1203      897     1036     1582     2267     2803     3024     2890 
    2480     1920     1385     1103     1173     1442     1661     1720 
    1685     1656     1719     1903     2107     2204     2174     2053 
    1868     1647     1432     1287     1259     1323     1423     1523 
    1599     1634     1672     1815     2072     2325     2487     2563 
    2582     2543     2427     2206     1857     1427     1048      832 
     834     1095     1542     1953     2175     2196     2068     1871 
    1670     1556     1620     1813     1989     2050     1979     1826 
    1654     1560     1630     1820     2042     2258     2397     2368 
    2137     1772     1428     1256     1341     1665     2063     2325 
    2380     2316     2211     2086     1960     1863     1800     1735 
    1629     1477     1328     1262     1337     1566     1872     2087 
    2133     2116     2177     2343     2485     2421     2111     1691 
    1338     1154     1163     1308     1460     1539     1599     1700 
    1801     1850     1877     1927     1966     1940     1859     1806 
    1859     2015     2218     2390     2405     2188     1823     1458 
    1184     1076     1201     1526     1924     2261     2463     2521 
    2411     2109     1694     1297      972      783      862     1246 
    1795     2316     2653     2681     2362     1838     1348     1082 
    1123     1432     1876     2279     2466     2359     2031     1647 
    1389     1392     1683     2155     2629     2924     2910     2578 
    2040     1468     1017      766      742      953     1343     1803 
    2197     2413     2406     2205     1897     1604     1412     1342 
    1361     1431     1554     1725     1894     1985     1950     1828 
    1726     1727     1852     2083     2353     2559     2624     2538 
