Origin Time       2025/03/30 22:55:00
Lat.              41.993
Long.             142.725
Depth. (km)       55
Mag.              4.6
Station Code      HKD109
Station Lat.      42.1678
Station Long.     142.7673
Station Height(m) 4
Record Time       2025/03/30 22:56:09
Sampling Freq(Hz) 100Hz
Duration Time(s)  70
Dir.              E-W
Scale Factor      7845(gal)/8223790
Max. Acc. (gal)   7.046
Last Correction   2025/03/30 22:56:09
Memo.             
[...]
   -3281    -3280    -3281    -3281    -3281    -3280    -3280    -3277 
   -3276    -3281    -3283    -3280    -3281    -3281    -3280    -3281 
   -3285    -3284    -3281    -3285    -3287    -3284    -3280    -3279 
   -3279    -3276    -3279    -3288    -3288    -3285    -3284    -3281 
   -3280    -3285    -3285    -3285    -3287    -3285    -3283    -3283 
   -3283    -3281    -3280    -3280    -3280    -3281    -3281    -3283 
   -3287    -3287    -3285    -3285    -3283    -3281    -3281    -3283 
   -3285    -3285    -3281    -3280    -3280    -3280    -3280    -3281 
   -3281    -3281    -3283    -3284    -3284    -3285    -3287    -3284 
   -3283    -3284    -3284    -3281    -3283    -3285    -3284    -3281 
   -3279    -3279    -3281    -3281    -3283    -3287    -3284    -3280 
   -3283    -3287    -3285    -3284    -3284    -3287    -3285    -3283 
   -3283    -3281    -3281    -3281    -3280    -3279    -3281    -3285 
   -3283    -3280    -3284    -3288    -3284    -3283    -3284    -3281 
   -3281    -3284    -3284    -3281    -3283    -3287    -3285    -3283 
   -3283    -3283    -3281    -3283    -3284    -3281    -3280    -3283 
   -3283    -3279    -3281    -3285    -3287    -3284    -3284    -3285 
   -3281    -3280    -3281    -3285    -3287    -3284    -3283    -3283 
   -3283    -3283    -3279    -3279    -3284    -3287    -3285    -3283 
   -3283    -3284    -3284    -3283    -3281    -3281    -3284    -3285 
   -3283    -3280    -3284    -3284    -3279    -3280    -3283    -3281 
   -3283    -3287    -3287    -3283    -3281    -3284    -3285    -3287 
   -3287    -3285    -3284    -3283    -3284    -3285    -3285    -3285 
   -3285    -3283    -3283    -3284    -3284    -3285    -3288    -3287 
   -3283    -3281    -3280    -3280    -3281    -3285    -3285    -3285 
   -3285    -3284    -3283    -3281    -3280    -3280    -3283    -3283 
   -3284    -3287    -3285    -3283    -3284    -3284    -3283    -3283 
   -3284    -3284    -3281    -3281    -3283    -3281    -3281    -3283 
   -3281    -3281    -3281    -3281    -3284    -3285    -3285    -3284 
   -3283    -3285    -3284    -3281    -3283    -3283    -3283    -3285 
   -3284    -3280    -3279    -3281    -3284    -3284    -3281    -3281 
   -3285    -3285    -3281    -3280    -3284    -3285    -3284    -3285 
   -3285    -3281    -3281    -3281    -3281    -3283    -3284    -3284 
   -3284    -3284    -3284    -3285    -3284    -3283    -3281    -3281 
   -3283    -3284    -3284    -3284    -3283    -3283    -3283    -3284 
   -3284    -3283    -3281    -3284    -3284    -3283    -3283    -3281 
   -3279    -3281    -3281    -3281    -3283    -3281    -3281    -3285 
   -3283    -3280    -3281    -3283    -3284    -3284    -3284    -3285 
   -3283    -3280    -3281    -3284    -3284    -3284    -3283    -3284 
   -3283    -3281    -3283    -3284    -3283    -3284    -3284    -3284 
   -3284    -3283    -3283    -3285    -3287    -3284    -3280    -3280 
   -3284    -3285    -3284    -3285    -3288    -3285    -3283    -3283 
   -3284    -3284    -3285    -3287    -3285    -3283    -3283    -3283 
   -3281    -3281    -3281    -3280    -3284    -3288    -3287    -3281 
   -3281    -3283    -3283    -3283    -3284    -3283    -3284    -3285 
   -3284    -3281    -3280    -3281    -3281    -3283    -3285    -3284 
   -3284    -3288    -3288    -3283    -3281    -3283    -3283    -3283 
   -3283    -3283    -3283    -3283    -3283    -3284    -3283    -3281 
   -3283    -3284    -3287    -3288    -3285    -3283    -3283    -3283 
   -3279    -3279    -3284    -3285    -3284    -3285    -3285    -3280 
   -3277    -3281    -3283    -3284    -3287    -3289    -3288    -3285 
   -3283    -3283    -3283    -3281    -3281    -3284    -3284    -3284 
   -3284    -3285    -3285    -3281    -3281    -3283    -3279    -3280 
   -3284    -3285    -3285    -3285    -3283    -3281    -3281    -3281 
   -3283    -3281    -3281    -3283    -3281    -3279    -3279    -3281 
   -3288    -3296    -3303    -3312    -3326    -3334    -3333    -3316 
   -3287    -3262    -3269    -3319    -3391    -3414    -3348    -3242 
   -3184    -3207    -3279    -3331    -3345    -3354    -3350    -3275 
   -3118    -2987    -3064    -3331    -3501    -3427    -3294    -3262 
   -3238    -3123    -3017    -3014    -3090    -3252    -3450    -3565 
   -3612    -3582    -3384    -3114    -2920    -2836    -2926    -3194 
   -3474    -3586    -3485    -3325    -3306    -3338    -3202    -3018 
   -3042    -3206    -3299    -3302    -3292    -3326    -3411    -3522 
   -3574    -3466    -3337    -3427    -3489    -3273    -3254    -3685 
   -3920    -3585    -3098    -2793    -2668    -2740    -2998    -3310 
   -3528    -3580    -3420    -3136    -3040    -3281    -3474    -3271 
   -2941    -2897    -3110    -3477    -4021    -4347    -3915    -3029 
   -2442    -2367    -2725    -3260    -3396    -3087    -3068    -3584 
   -3933    -3591    -3009    -2867    -2878    -2519    -2340    -2975 
   -3939    -4522    -4583    -4275    -3816    -3333    -2837    -2465 
   -2497    -3045    -3672    -3793    -3569    -3397    -3125    -2771 
   -2791    -3146    -3333    -3196    -2918    -2644    -2739    -3472 
   -4160    -3979    -3272    -2940    -3292    -3825    -3935    -3766 
   -3689    -3511    -3018    -2479    -2455    -3217    -4126    -4244 
   -3423    -2376    -1987    -2417    -3003    -3302    -3453    -3527 
   -3335    -2957    -2940    -3458    -4023    -4229    -3969    -3348 
   -2857    -2843    -3117    -3457    -3742    -3716    -3323    -2938 
   -2934    -3253    -3480    -3304    -2934    -2791    -2894    -2971 
   -2988    -3173    -3608    -3998    -3940    -3370    -2727    -2560 
   -2905    -3395    -3883    -4328    -4445    -4036    -3393    -2899 
   -2628    -2673    -3114    -3595    -3589    -3137    -2874    -3134 
   -3442    -3260    -2786    -2648    -3017    -3477    -3717    -3863 
   -4116    -4236    -3694    -2625    -2026    -2479    -3429    -3982 
   -3696    -2832    -2142    -2108    -2694    -3465    -3769    -3550 
   -3445    -3711    -3917    -3709    -3279    -3100    -3315    -3534 
   -3356    -2884    -2623    -2914    -3446    -3572    -3161    -2852 
   -3226    -3807    -3732    -3181    -3001    -3399    -3701    -3333 
   -2755    -2894    -3709    -4213    -3908    -3429    -3434    -3561 
   -3279    -2979    -3153    -3547    -3715    -3419    -2697    -2103 
   -2209    -2813    -3334    -3608    -3663    -3438    -3052    -2818 
   -3005    -3585    -4210    -4513    -4365    -3856    -3222    -2673 
   -2193    -1826    -1883    -2431    -3034    -3299    -3381    -3603 
   -3824    -3742    -3485    -3393    -3578    -3905    -4032    -3662 
   -3056    -2737    -2729    -2799    -2968    -3296    -3624    -3797 
   -3778    -3576    -3397    -3457    -3636    -3690    -3514    -3181 
   -2890    -2851    -3096    -3393    -3504    -3366    -3164    -3110 
   -3100    -3046    -3072    -3184    -3364    -3665    -4040    -4199 
   -3784    -3052    -2781    -3034    -3163    -2934    -2679    -2762 
   -3122    -3241    -2982    -2955    -3356    -3557    -3246    -2771 
   -2617    -3048    -3607    -3645    -3391    -3343    -3400    -3397 
   -3456    -3561    -3577    -3477    -3152    -2635    -2469    -3088 
   -4093    -4572    -4098    -3195    -2582    -2438    -2606    -2794 
   -2832    -3036    -3592    -4145    -4442    -4475    -4167    -3564 
   -2902    -2389    -2172    -2347    -2830    -3393    -3855    -4040 
   -3901    -3599    -3238    -2930    -2857    -2964    -3087    -3221 
   -3312    -3302    -3342    -3487    -3532    -3423    -3281    -3114 
   -2930    -2971    -3325    -3639    -3666    -3468    -3157    -2841 
   -2570    -2454    -2598    -2947    -3553    -4283    -4541    -4078 
   -3466    -3323    -3487    -3391    -2949    -2585    -2667    -3133 
   -3623    -3923    -4025    -3871    -3375    -2724    -2450    -2749 
   -3086    -3003    -2668    -2392    -2407    -2901    -3685    -4234 
   -4318    -4113    -3802    -3488    -3233    -3076    -3145    -3441 
   -3632    -3397    -2821    -2384    -2419    -2805    -3327    -3758 
   -3832    -3570    -3245    -3136    -3291    -3439    -3499    -3715 
   -4118    -4472    -4459    -3875    -2986    -2317    -2110    -2187 
   -2251    -2390    -2871    -3383    -3481    -3412    -3615    -3981 
   -4059    -3774    -3453    -3244    -3186    -3311    -3383    -3250 
   -3150    -3330    -3719    -3856    -3433    -2921    -2930    -3303 
   -3380    -2839    -2169    -2068    -2462    -2879    -3210    -3424 
   -3407    -3285    -3376    -3882    -4607    -4931    -4517    -3757 
   -3140    -2731    -2470    -2376    -2531    -2948    -3296    -3273 
   -3075    -3060    -3329    -3719    -4067    -4205    -3904    -3314 
   -2964    -3068    -3341    -3456    -3323    -3090    -2913    -2736 
   -2444    -2199    -2328    -2860    -3368    -3485    -3423    -3585 
   -3937    -4159    -4087    -3811    -3535    -3450    -3493    -3361 
   -3026    -2795    -2766    -2733    -2609    -2691    -3195    -3736 
   -3906    -3788    -3591    -3427    -3348    -3241    -2968    -2708 
   -2737    -3024    -3384    -3697    -3908    -3975    -3924    -3873 
   -3817    -3618    -3234    -2751    -2382    -2359    -2593    -2739 
   -2673    -2710    -3144    -3786    -4195    -4143    -3821    -3549 
   -3350    -3179    -3211    -3528    -3793    -3580    -3019    -2749 
   -2998    -3267    -3109    -2721    -2569    -2736    -2928    -3063 
   -3383    -3923    -4280    -4089    -3595    -3365    -3368    -3103 
   -2592    -2343    -2498    -2698    -2781    -3019    -3551    -4091 
   -4351    -4268    -3986    -3697    -3372    -2949    -2693    -2839 
   -3148    -3291    -3300    -3349    -3439    -3464    -3369    -3211 
   -3073    -3055    -3207    -3438    -3572    -3473    -3222    -3033 
   -2949    -2921    -3032    -3306    -3514    -3496    -3492    -3758 
   -4105    -4182    -3997    -3734    -3396    -2997    -2666    -2566 
   -2843    -3341    -3555    -3186    -2521    -2166    -2350    -2768 
   -3051    -3123    -3157    -3244    -3231    -3041    -2963    -3346 
   -3960    -4183    -3937    -3707    -3692    -3689    -3612    -3577 
   -3546    -3341    -3033    -2882    -2952    -3187    -3518    -3713 
   -3551    -3190    -2938    -2860    -2943    -3187    -3331    -3137 
   -2839    -2802    -3028    -3231    -3304    -3392    -3493    -3501 
   -3464    -3397    -3281    -3153    -2983    -2768    -2633    -2677 
   -2840    -2874    -2546    -1987    -1615    -1701    -2084    -2392 
   -2355    -1896    -1216     -706     -631    -1105    -2064    -3053 
   -3558    -3545    -3356    -3295    -3403    -3600    -3916    -4313 
   -4606    -4797    -5003    -5220    -5431    -5566    -5571    -5613 
   -5830    -5979    -5795    -5458    -5209    -4881    -4306    -3775 
   -3604    -3670    -3678    -3458    -2987    -2376    -1945    -2007 
   -2374    -2554    -2409    -2169    -2145    -2461    -2936    -3381 
   -3819    -4240    -4444    -4333    -4267    -4671    -5313    -5562 
   -5196    -4498    -3781    -3192    -2763    -2482    -2261    -1919 
   -1432    -1073    -1135    -1563    -2042    -2401    -2712    -2978 
   -3049    -2916    -2907    -3404    -4376    -5336    -5821    -5865 
   -5738    -5440    -4845    -3994    -3057    -2369    -2347    -2970 
   -3667    -3982    -3977    -3835    -3485    -2803    -1894    -1034 
    -487     -359     -564     -934    -1433    -2019    -2465    -2700 
   -2941    -3322    -3790    -4252    -4584    -4585    -4108    -3322 
   -2636    -2412    -2720    -3140    -3105    -2494    -1582     -734 
    -364     -830    -2197    -4167    -6188    -7638    -8168    -7894 
   -7172    -6339    -5647    -5308    -5498    -6041    -6257    -5462 
   -3628    -1420      496     1867     2641     2899     2816     2440 
    1777      962      102     -876    -2151    -3738    -5377    -6820 
   -8027    -9074    -9836    -9877    -8991    -7518    -5825    -4028 
   -2270     -745      448     1223     1474     1201      583     -152 
    -864    -1537    -2330    -3397    -4735    -6242    -7627    -8379 
   -8230    -7425    -6365    -5274    -4228    -3277    -2451    -1769 
   -1267     -993     -951    -1092    -1404    -1958    -2717    -3483 
   -4122    -4621    -4995    -5215    -5107    -4546    -3747    -3082 
   -2627    -2124    -1433     -797     -552     -795    -1483    -2519 
   -3615    -4334    -4480    -4283    -4037    -3765    -3312    -2682 
   -2208    -2295    -3067    -4279    -5363    -5690    -5036    -3699 
   -2259    -1301    -1171    -1806    -2756    -3532    -3977    -4291 
   -4716    -5204    -5420    -5081    -4197    -2975    -1674     -560 
     118      228     -108     -565     -877    -1035    -1363    -2218 
   -3573    -5144    -6633    -7659    -7916    -7484    -6728    -5975 
   -5341    -4704    -3790    -2516    -1252     -522     -527    -1070 
   -1750    -2238    -2455    -2612    -2976    -3512    -3871    -3819 
   -3453    -2947    -2308    -1644    -1293    -1463    -2037    -2786 
   -3577    -4453    -5508    -6573    -7253    -7306    -6774    -5791 
   -4433    -2901    -1652    -1074    -1178    -1800    -2758    -3692 
   -4155    -3952    -3260    -2469    -1844    -1305     -691      -90 
     160     -199    -1088    -2268    -3730    -5518    -7392    -9004 
  -10143   -10669   -10384    -9107    -6829    -3881     -880     1587 
    3195     3807     3380     2084      380    -1235    -2562    -3601 
   -4286    -4488    -4259    -3920    -3765    -3797    -3902    -4031 
   -4113    -4063    -3928    -3865    -3979    -4244    -4533    -4699 
   -4656    -4419    -4063    -3685    -3462    -3530    -3730    -3746 
   -3453    -2957    -2474    -2253    -2386    -2710    -3073    -3443 
   -3615    -3335    -2813    -2512    -2637    -3095    -3605    -3850 
   -3834    -3850    -3997    -4140    -4222    -4280    -4325    -4310 
   -4113    -3609    -2810    -1944    -1271     -832     -618     -733 
   -1131    -1521    -1699    -1763    -1956    -2430    -3177    -4102 
   -5000    -5555    -5586    -5186    -4484    -3553    -2623    -2041 
   -1976    -2336    -2928    -3636    -4495    -5406    -5969    -5891 
   -5341    -4615    -3813    -2938    -2011    -1101     -315      263 
     567      484     -101    -1173    -2401    -3362    -4001    -4482 
   -4726    -4657    -4523    -4599    -4953    -5460    -5863    -6026 
   -6012    -5846    -5498    -4954    -4216    -3361    -2505    -1721 
   -1043     -427      147      500      400     -202    -1158    -2255 
   -3326    -4230    -4783    -4833    -4509    -4132    -3873    -3738 
   -3780    -4027    -4398    -4764    -4959    -4880    -4631    -4426 
   -4279    -4070    -3815    -3553    -3184    -2641    -2027    -1568 
   -1479    -1777    -2270    -2712    -3052    -3441    -3863    -4143 
   -4272    -4336    -4301    -4147    -3966    -3886    -3927    -3971 
   -3901    -3693    -3375    -2972    -2481    -1910    -1367     -980 
    -749     -594     -576     -872    -1466    -2180    -2967    -3896 
   -4888    -5713    -6183    -6249    -5995    -5540    -4939    -4313 
   -3861    -3647    -3588    -3531    -3372    -3217    -3153    -3037 
   -2798    -2656    -2878    -3447    -3967    -4058    -3751    -3364 
   -3169    -3223    -3433    -3689    -3811    -3558    -2917    -2180 
   -1645    -1304     -932     -494     -199     -244     -665    -1387 
   -2282    -3227    -4106    -4846    -5429    -5856    -6099    -6153 
   -6088    -5922    -5549    -4860    -3866    -2744    -1764    -1127 
    -974    -1327    -1966    -2654    -3304    -3839    -4101    -4016 
   -3694    -3362    -3203    -3300    -3623    -4044    -4441    -4770 
   -4949    -4851    -4503    -4008    -3353    -2527    -1686    -1046 
    -723     -693     -849    -1105    -1416    -1792    -2273    -2763 
   -3156    -3538    -4014    -4540    -4997    -5316    -5522    -5645 
   -5570    -5135    -4345    -3352    -2355    -1539    -1040     -926 
   -1117    -1475    -1899    -2322    -2702    -3060    -3400    -3603 
   -3499    -3095    -2616    -2323    -2315    -2532    -2903    -3434 
   -4102    -4803    -5432    -5926    -6208    -6195    -5891    -5402 
   -4877    -4396    -3916    -3372    -2812    -2313    -1904    -1618 
   -1521    -1633    -1925    -2346    -2787    -3103    -3225    -3154 
   -2916    -2592    -2289    -2077    -2076    -2424    -3069    -3715 
   -4147    -4463    -4808    -5103    -5192    -5032    -4654    -4102 
   -3474    -2925    -2610    -2608    -2785    -2876    -2787    -2666 
   -2705    -2961    -3327    -3654    -3878    -3940    -3730    -3271 
   -2787    -2498    -2457    -2619    -2867    -3030    -3078    -3187 
   -3518    -4025    -4567    -5067    -5463    -5576    -5256    -4531 
   -3600    -2721    -2043    -1532    -1159    -1032    -1189    -1478 
   -1737    -1926    -2052    -2153    -2377    -2844    -3487    -4104 
   -4546    -4791    -4888    -4870    -4722    -4452    -4129    -3844 
   -3649    -3572    -3654    -3850    -3967    -3858    -3546    -3142 
   -2710    -2242    -1776    -1435    -1287    -1291    -1414    -1691 
   -2165    -2813    -3551    -4288    -4946    -5445    -5728    -5800 
   -5732    -5530    -5159    -4666    -4163    -3689    -3203    -2691 
   -2185    -1705    -1215     -737     -441     -486     -847    -1408 
   -2046    -2623    -3030    -3276    -3469    -3773    -4239    -4749 
   -5174    -5412    -5344    -4969    -4467    -4024    -3709    -3483 
   -3215    -2770    -2164    -1539    -1008     -637     -492     -621 
   -1027    -1682    -2532    -3468    -4380    -5260    -6106    -6786 
   -7141    -7118    -6764    -6123    -5256    -4299    -3384    -2558 
   -1817    -1152     -603     -252     -147     -314     -815    -1651 
   -2687    -3739    -4687    -5459    -5929    -5972    -5560    -4783 
   -3801    -2806    -1957    -1340     -980     -907    -1144    -1611 
   -2185    -2802    -3439    -4027    -4423    -4557    -4537    -4537 
   -4612    -4688    -4658    -4492    -4207    -3800    -3257    -2667 
   -2169    -1806    -1501    -1193     -919     -808     -990    -1474 
   -2131    -2836    -3499    -4028    -4371    -4592    -4816    -5117 
   -5437    -5671    -5763    -5728    -5613    -5435    -5142    -4669 
   -3982    -3100    -2143    -1286     -637     -228     -101     -330 
    -874    -1499    -1988    -2338    -2671    -3088    -3559    -3983 
   -4341    -4689    -4992    -5108    -4997    -4803    -4642    -4482 
   -4248    -3936    -3562    -3161    -2825    -2632    -2554    -2539 
   -2585    -2709    -2921    -3242    -3699    -4233    -4689    -4920 
   -4909    -4741    -4480    -4156    -3831    -3562    -3338    -3109 
   -2820    -2436    -2007    -1648    -1449    -1425    -1516    -1659 
   -1815    -1992    -2215    -2446    -2609    -2681    -2718    -2816 
   -3056    -3476    -4023    -4552    -4927    -5063    -4949    -4664 
   -4326    -3986    -3622    -3227    -2845    -2500    -2201    -1996 
   -1983    -2263    -2820    -3466    -4017    -4391    -4567    -4538 
   -4347    -4067    -3744    -3349    -2866    -2404    -2118    -2054 
