Origin Time       2025/03/30 22:55:00
Lat.              41.993
Long.             142.725
Depth. (km)       55
Mag.              4.6
Station Code      HKD159
Station Lat.      41.7160
Station Long.     141.0046
Station Height(m) 23
Record Time       2025/03/30 22:56:37
Sampling Freq(Hz) 100Hz
Duration Time(s)  60
Dir.              U-D
Scale Factor      7845(gal)/8223790
Max. Acc. (gal)   1.913
Last Correction   2025/03/30 22:56:38
Memo.             
[...]
    9913     9892     9828     9729     9675     9706     9809     9892 
    9864     9756     9643     9541     9508     9597     9764     9950 
   10122    10196    10104     9888     9676     9575     9591     9656 
    9715     9765     9819     9855     9834     9802     9796     9796 
    9794     9806     9844     9886     9877     9806     9721     9649 
    9622     9661     9732     9806     9868     9892     9900     9921 
    9898     9801     9686     9618     9649     9780     9910     9937 
    9859     9724     9617     9624     9717     9806     9873     9934 
    9973     9975     9904     9740     9567     9495     9541     9694 
    9909    10046    10011     9871     9730     9661     9697     9780 
    9828     9826     9807     9769     9725     9726     9768     9809 
    9845     9876     9872     9818     9751     9744     9771     9761 
    9740     9760     9792     9802     9809     9823     9833     9819 
    9786     9748     9736     9768     9822     9852     9825     9763 
    9734     9760     9779     9771     9772     9805     9848     9864 
    9826     9736     9652     9644     9698     9786     9902     9995 
    9995     9913     9807     9717     9639     9582     9587     9644 
    9725     9830     9942    10019    10053    10030     9926     9767 
    9620     9518     9478     9566     9756     9886     9911     9891 
    9818     9742     9755     9830     9917     9983     9950     9811 
    9661     9564     9553     9636     9761     9871     9940     9968 
    9968     9907     9769     9624     9552     9574     9666     9799 
    9930    10011    10012     9923     9803     9717     9653     9637 
    9702     9792     9852     9871     9846     9817     9775     9676 
    9594     9644     9798     9940     9995     9960     9875     9771 
    9675     9624     9647     9736     9833     9890     9913     9895 
    9825     9737     9660     9610     9626     9706     9805     9899 
    9985    10000     9917     9830     9791     9747     9666     9606 
    9618     9697     9807     9899     9921     9860     9776     9751 
    9790     9828     9842     9856     9877     9883     9826     9714 
    9637     9624     9629     9678     9798     9907     9954     9957 
    9914     9838     9755     9657     9589     9612     9728     9871 
    9969    10002     9973     9846     9637     9491     9489     9574 
    9699     9841     9960    10056    10095     9995     9780     9580 
    9493     9551     9724     9910    10012    10000     9910     9799 
    9710     9657     9648     9686     9752     9806     9809     9772 
    9736     9733     9802     9886     9894     9855     9821     9784 
    9782     9829     9848     9803     9747     9718     9732     9782 
    9803     9751     9687     9694     9744     9772     9801     9853 
    9903     9945     9973     9949     9861     9737     9590     9477 
    9495     9657     9877    10061    10099     9965     9790     9679 
    9630     9664     9751     9782     9776     9825     9882     9867 
    9823     9810     9798     9764     9734     9722     9701     9709 
    9779     9846     9877     9904     9900     9852     9803     9748 
    9674     9644     9682     9725     9740     9733     9724     9767 
    9892    10026    10046     9942     9809     9695     9610     9579 
    9621     9706     9803     9898     9944     9906     9833     9788 
    9768     9760     9788     9807     9775     9749     9759     9761 
    9771     9814     9845     9823     9757     9686     9680     9757 
    9863     9957     9971     9867     9733     9659     9674     9791 
    9917     9917     9828     9741     9684     9680     9726     9760 
    9772     9790     9810     9836     9861     9855     9809     9755 
    9733     9760     9784     9755     9695     9668     9699     9776 
    9884     9983     9991     9883     9725     9610     9613     9706 
    9786     9826     9845     9828     9790     9765     9761     9767 
    9767     9767     9776     9796     9850     9933     9976     9934 
    9826     9698     9613     9628     9717     9765     9722     9668 
    9713     9867    10004    10017     9914     9756     9632     9621 
    9703     9796     9876     9941     9960     9900     9765     9614 
    9540     9572     9679     9829     9968    10014     9944     9788 
    9624     9579     9734     9956    10044     9979     9828     9647 
    9558     9620     9724     9769     9784     9809     9829     9828 
    9829     9863     9902     9891     9837     9768     9701     9664 
    9645     9637     9715     9875    10008    10027     9887     9686 
    9597     9661     9822     9972    10000     9896     9740     9620 
    9612     9714     9834     9894     9879     9809     9725     9693 
    9737     9791     9784     9747     9732     9736     9779     9871 
    9938     9938     9911     9871     9788     9694     9622     9563 
    9568     9686     9850     9985    10017     9896     9705     9583 
    9594     9738     9937    10046    10008     9884     9761     9725 
    9786     9845     9813     9699     9572     9533     9632     9803 
    9940     9960     9871     9763     9718     9756     9855     9945 
    9967     9892     9757     9641     9603     9637     9687     9702 
    9709     9779     9913    10041    10081     9992     9849     9755 
    9707     9684     9683     9657     9609     9599     9644     9751 
    9925    10065    10048     9875     9657     9537     9586     9730 
    9838     9857     9836     9841     9882     9903     9873     9819 
    9756     9678     9610     9576     9614     9768     9946    10027 
   10033     9988     9864     9724     9664     9701     9807     9898 
    9872     9747     9610     9533     9586     9748     9895     9954 
    9942     9884     9803     9748     9725     9706     9713     9765 
    9838     9899     9904     9821     9710     9660     9680     9744 
    9799     9817     9819     9828     9840     9872     9903     9856 
    9740     9656     9639     9652     9717     9852     9968     9976 
    9906     9830     9760     9679     9618     9626     9738     9911 
   10006     9941     9817     9756     9737     9707     9680     9687 
    9732     9790     9807     9779     9753     9737     9733     9774 
    9819     9790     9722     9706     9778     9927    10089    10125 
    9972     9730     9522     9458     9587     9796     9913     9883 
    9788     9738     9738     9737     9730     9751     9814     9884 
    9921     9933     9900     9794     9688     9674     9737     9813 
    9837     9795     9733     9715     9752     9794     9837     9900 
    9927     9876     9798     9714     9636     9613     9625     9628 
    9703     9887    10021    10006     9933     9865     9810     9814 
    9845     9814     9710     9593     9552     9640     9798     9925 
    9976     9945     9850     9737     9679     9721     9807     9833 
    9796     9780     9809     9837     9861     9903     9913     9844 
    9730     9624     9575     9603     9683     9778     9841     9852 
    9841     9826     9801     9783     9796     9828     9837     9826 
    9848     9872     9829     9765     9733     9682     9618     9620 
    9694     9802     9894     9921     9895     9864     9834     9796 
    9732     9676     9713     9836     9952     9995     9940     9819 
    9724     9682     9648     9613     9621     9657     9648     9632 
    9695     9840    10023    10176    10197    10058     9850     9684 
    9574     9512     9544     9639     9698     9748     9848     9938 
    9963     9953     9907     9810     9728     9717     9752     9771 
    9736     9676     9657     9714     9826     9914     9938     9942 
    9940     9882     9764     9653     9610     9618     9647     9721 
    9805     9829     9833     9850     9867     9910     9927     9821 
    9655     9552     9563     9703     9899    10002     9949     9786 
    9626     9610     9751     9910     9964     9895     9752     9622 
    9563     9580     9737    10012    10184    10145    10019     9859 
    9657     9491     9432     9474     9575     9690     9801     9914 
   10033    10106    10096    10029     9909     9711     9475     9335 
    9405     9649     9919    10102    10138    10011     9801     9625 
    9567     9664     9867    10038    10077     9968     9717     9390 
    9193     9313     9668    10006    10181    10197    10123    10018 
    9896     9764     9661     9625     9621     9601     9602     9668 
    9734     9768     9829     9903     9913     9872     9864     9913 
    9925     9832     9720     9675     9686     9710     9690     9621 
    9617     9706     9821     9929     9988     9957     9869     9792 
    9778     9803     9772     9682     9624     9621     9660     9747 
    9886    10050    10141    10022     9715     9414     9265     9298 
    9529     9913    10309    10534    10450    10123     9738     9425 
    9297     9404     9632     9842     9979    10000     9900     9744 
    9594     9545     9684     9907    10008     9953     9830     9698 
    9612     9598     9609     9640     9732     9826     9882     9980 
   10115    10142    10049     9930     9772     9567     9398     9327 
    9398     9616     9895    10110    10142    10003     9849     9759 
    9688     9644     9640     9657     9717     9836     9953    10011 
   10003     9946     9875     9807     9718     9620     9558     9566 
    9640     9726     9786     9814     9818     9833     9880     9913 
    9903     9883     9865     9837     9784     9699     9614     9616 
    9720     9850     9918     9882     9811     9826     9906     9919 
    9830     9725     9675     9684     9711     9705     9652     9594 
    9620     9768     9969    10130    10191    10129     9961     9756 
    9590     9477     9436     9535     9707     9805     9846     9906 
    9933     9925     9950     9977     9937     9830     9694     9579 
    9516     9497     9524     9606     9745     9922    10054    10068 
   10030    10033    10044     9930     9643     9332     9200     9317 
    9575     9794     9953    10129    10243    10206    10072     9892 
    9691     9574     9586     9664     9760     9852     9877     9764 
    9583     9505     9605     9872    10200    10346    10166     9792 
    9413     9146     9099     9317     9714    10154    10512    10628 
   10426    10037     9649     9359     9207     9193     9327     9614 
    9949    10161    10222    10142     9888     9571     9431     9583 
    9933    10251    10324    10098     9680     9250     8993     9040 
    9352     9755    10091    10305    10395    10377    10257    10023 
    9715     9451     9350     9439     9659     9926    10111    10062 
    9783     9501     9417     9513     9676     9799     9822     9809 
    9828     9823     9759     9745     9848     9963     9979     9873 
    9715     9622     9634     9749     9967    10153    10135     9902 
    9605     9390     9301     9352     9563     9848    10076    10177 
   10135    10033     9956     9890     9836     9833     9834     9767 
    9671     9583     9447     9294     9292     9514     9876    10197 
   10332    10324    10241    10010     9684     9455     9396     9516 
    9749     9936    10054    10141    10060     9713     9298     9050 
    9030     9266     9751    10284    10613    10620    10314     9900 
    9645     9562     9543     9590     9670     9687     9698     9815 
    9937     9887     9728     9629     9640     9687     9705     9729 
    9819     9917     9894     9741     9617     9703     9971    10164 
   10108     9910     9778     9788     9902     9977     9818     9458 
    9185     9188     9498    10042    10462    10416     9999     9516 
    9162     9066     9309     9786    10233    10440    10358    10031 
    9639     9389     9336     9414     9506     9567     9782    10281 
   10763    10756    10238     9637     9219     8996     9053     9425 
    9891    10196    10282    10215    10037     9794     9529     9302 
    9277     9537     9871    10031    10014     9927     9846     9788 
    9760     9769     9814     9903     9999    10010     9896     9666 
    9429     9421     9680     9948    10034     9938     9690     9462 
    9489     9730     9949    10026     9923     9636     9344     9301 
    9549     9913    10166    10270    10251    10054     9829     9834 
    9952     9910     9686     9416     9223     9154     9212     9412 
    9771    10253    10724    10982    10829    10277     9620     9123 
    8856     8842     9109     9616    10215    10652    10729    10435 
    9926     9460     9139     8893     8839     9142     9641    10110 
   10467    10578    10351     9983     9769     9772     9859     9953 
    9995     9872     9647     9472     9364     9316     9393     9575 
    9778     9960    10106    10196    10219    10085     9737     9324 
    9076     9089     9354     9805    10296    10674    10852    10731 
   10237     9545     9031     8899     8999     9139     9364     9786 
   10369    10886    11033    10650     9871     9085     8657     8702 
    9073     9489     9805    10123    10434    10513    10300     9987 
    9733     9536     9352     9275     9444     9742     9898     9915 
   10007    10241    10520    10693    10605    10254     9764     9212 
    8685     8321     8191     8383     9000     9933    10876    11566 
   11794    11445    10694     9883     9173     8588     8224     8190 
    8591     9450    10384    10809    10671    10386    10104     9703 
    9305     9158     9304     9645    10029    10292    10412    10411 
   10260     9987     9676     9425     9271     9169     9162     9375 
    9730    10033    10268    10413    10285     9964     9833     9977 
   10106    10006     9695     9286     8969     8985     9381     9914 
   10311    10446    10316    10045     9778     9522     9308     9201 
    9213     9413     9786    10116    10299    10393    10404    10239 
    9834     9387     9204     9258     9359     9509     9742     9953 
   10037    10048    10087    10096     9946     9693     9514     9485 
    9571     9686     9730     9741     9799     9887    10023    10216 
   10341    10261     9971     9618     9385     9333     9437     9633 
    9801     9853     9856     9906     9963     9902     9730     9545 
    9417     9450     9639     9802     9896    10015    10156    10277 
   10341    10291    10164     9960     9601     9174     8900     8912 
    9201     9587     9850     9926     9902     9902     9987    10100 
   10141    10087     9996     9910     9819     9711     9594     9468 
    9354     9340     9532     9894    10280    10532    10488    10138 
    9718     9425     9220     9094     9213     9571     9907    10122 
   10291    10357    10241    10010     9745     9516     9427     9455 
    9471     9508     9666     9896    10087    10183    10185    10161 
   10127     9953     9597     9277     9190     9310     9508     9693 
    9856    10022    10141    10127     9998     9882     9856     9848 
    9761     9640     9562     9518     9532     9629     9778     9961 
   10100    10118    10069     9963     9778     9622     9545     9486 
    9443     9466     9575     9792    10076    10235    10137     9876 
    9628     9526     9671     9977    10161    10066     9834     9676 
    9663     9745     9786     9715     9628     9559     9485     9509 
    9722    10018    10183    10130    10004     9921     9823     9710 
    9645     9602     9551     9543     9595     9676     9803    10007 
   10210    10285    10164     9883     9574     9342     9243     9336 
    9606     9925    10142    10197    10096     9875     9609     9397 
    9381     9649    10060    10322    10245     9877     9486     9339 
    9495     9801    10033    10050     9891     9715     9639     9676 
    9806     9927     9944     9899     9848     9799     9830     9921 
    9902     9759     9625     9555     9524     9506     9504     9532 
    9630     9828    10076    10255    10255    10041     9722     9525 
    9552     9676     9792     9922     9998     9957     9895     9815 
    9661     9570     9639     9703     9661     9618     9603     9602 
    9699     9915    10143    10238    10135     9952     9805     9667 
    9559     9576     9691     9806     9877     9879     9799     9693 
    9639     9683     9813     9958    10014     9902     9715     9621 
    9648     9694     9695     9721     9813     9883     9945    10054 
   10131    10081     9902     9641     9382     9238     9282     9466 
    9717    10075    10461    10606    10438    10119     9752     9375 
    9105     9032     9132     9346     9660    10027    10304    10366 
   10242    10012     9734     9499     9393     9420     9576     9833 
   10039    10092    10102    10111     9984     9733     9532     9472 
    9545     9691     9817     9868     9860     9840     9834     9863 
    9942    10012     9972     9828     9693     9595     9493     9432 
    9481     9612     9757     9868     9942     9968     9933     9925 
   10007    10103    10120     9965     9632     9317     9193     9263 
    9479     9783    10083    10308    10408    10334    10110     9819 
    9556     9423     9432     9474     9506     9589     9720     9850 
   10003    10156    10129     9882     9652     9598     9651     9733 
    9774     9705     9603     9570     9580     9628     9767     9940 
   10026    10069    10156    10141     9914     9670     9587     9622 
    9678     9706     9684     9625     9622     9751     9917     9980 
    9911     9776     9671     9670     9715     9720     9737     9852 
    9990    10030     9979     9911     9841     9734     9610     9513 
    9468     9528     9693     9837     9909     9995    10076    10075 
   10038    10008     9968     9946     9899     9702     9447     9320 
    9308     9325     9420     9640     9915    10135    10250    10266 
   10185     9988     9722     9490     9344     9336     9517     9845 
   10183    10359    10276     9998     9647     9300     9094     9190 
    9532     9869    10073    10176    10196    10135    10027     9904 
    9794     9710     9656     9639     9639     9649     9698     9747 
    9725     9693     9769     9981    10233    10320    10110     9728 
    9427     9335     9447     9664     9873     9991     9976     9876 
    9788     9734     9672     9601     9576     9634     9753     9890 
    9983    10014     9983     9849     9628     9450     9431     9575 
    9799    10027    10197    10204    10011     9775     9649     9637 
    9698     9776     9786     9688     9532     9420     9494     9783 
   10084    10228    10242    10126     9857     9582     9490     9582 
    9738     9880     9980     9981     9832     9610     9471     9490 
    9616     9755     9837     9837     9776     9714     9740     9922 
   10177    10278    10111     9755     9404     9283     9441     9715 
    9936    10026    10002     9950     9937     9940     9904     9805 
    9652     9491     9425     9524     9678     9763     9814     9898 
    9988     9999     9886     9732     9672     9769     9956    10076 
   10064     9967     9791     9568     9427     9475     9697     9945 
