Origin Time       2025/03/30 22:55:00
Lat.              41.993
Long.             142.725
Depth. (km)       55
Mag.              4.6
Station Code      HKD110
Station Lat.      42.1310
Station Long.     142.9354
Station Height(m) 4
Record Time       2025/03/30 22:56:07
Sampling Freq(Hz) 100Hz
Duration Time(s)  76
Dir.              E-W
Scale Factor      7845(gal)/8223790
Max. Acc. (gal)   7.267
Last Correction   2025/03/30 22:56:07
Memo.             
[...]
   -2648    -2648    -2647    -2647    -2646    -2644    -2646    -2647 
   -2647    -2647    -2646    -2646    -2646    -2644    -2644    -2646 
   -2647    -2646    -2644    -2646    -2646    -2644    -2646    -2646 
   -2644    -2646    -2647    -2647    -2644    -2643    -2646    -2647 
   -2644    -2646    -2647    -2644    -2644    -2646    -2646    -2647 
   -2648    -2647    -2646    -2646    -2644    -2644    -2644    -2643 
   -2646    -2646    -2644    -2646    -2647    -2646    -2643    -2644 
   -2648    -2647    -2644    -2646    -2646    -2646    -2647    -2647 
   -2646    -2647    -2646    -2644    -2643    -2643    -2646    -2647 
   -2644    -2644    -2646    -2646    -2644    -2646    -2646    -2643 
   -2641    -2643    -2647    -2647    -2641    -2641    -2646    -2647 
   -2646    -2644    -2644    -2644    -2644    -2644    -2644    -2647 
   -2646    -2643    -2641    -2643    -2644    -2646    -2646    -2644 
   -2647    -2646    -2643    -2643    -2646    -2646    -2646    -2646 
   -2646    -2644    -2643    -2641    -2646    -2646    -2646    -2644 
   -2644    -2646    -2647    -2646    -2644    -2644    -2644    -2646 
   -2644    -2644    -2644    -2644    -2644    -2644    -2646    -2646 
   -2646    -2646    -2644    -2646    -2646    -2646    -2643    -2643 
   -2646    -2646    -2643    -2644    -2646    -2644    -2647    -2647 
   -2644    -2646    -2647    -2644    -2646    -2646    -2644    -2644 
   -2644    -2644    -2643    -2643    -2644    -2646    -2646    -2646 
   -2644    -2644    -2646    -2647    -2647    -2646    -2644    -2647 
   -2644    -2643    -2644    -2643    -2643    -2646    -2647    -2644 
   -2643    -2643    -2643    -2646    -2646    -2643    -2644    -2646 
   -2644    -2644    -2644    -2646    -2646    -2643    -2643    -2646 
   -2644    -2643    -2643    -2647    -2647    -2648    -2647    -2646 
   -2647    -2647    -2646    -2647    -2648    -2648    -2648    -2644 
   -2644    -2647    -2647    -2647    -2646    -2646    -2647    -2647 
   -2647    -2644    -2644    -2644    -2644    -2646    -2646    -2644 
   -2646    -2646    -2644    -2644    -2644    -2646    -2647    -2647 
   -2647    -2647    -2646    -2644    -2647    -2647    -2644    -2644 
   -2644    -2646    -2647    -2648    -2647    -2646    -2647    -2648 
   -2647    -2644    -2646    -2646    -2646    -2647    -2646    -2646 
   -2647    -2647    -2646    -2647    -2646    -2646    -2648    -2646 
   -2644    -2647    -2648    -2646    -2646    -2644    -2644    -2643 
   -2644    -2646    -2646    -2646    -2644    -2646    -2647    -2646 
   -2646    -2644    -2643    -2646    -2647    -2646    -2647    -2646 
   -2644    -2644    -2646    -2646    -2646    -2644    -2644    -2644 
   -2646    -2647    -2647    -2647    -2648    -2648    -2646    -2643 
   -2646    -2646    -2647    -2647    -2646    -2644    -2646    -2646 
   -2646    -2647    -2648    -2647    -2644    -2647    -2646    -2643 
   -2644    -2646    -2646    -2647    -2648    -2646    -2641    -2641 
   -2644    -2644    -2644    -2648    -2646    -2640    -2644    -2647 
   -2646    -2644    -2644    -2644    -2646    -2643    -2646    -2647 
   -2644    -2641    -2647    -2648    -2646    -2644    -2646    -2646 
   -2646    -2647    -2647    -2644    -2641    -2644    -2646    -2641 
   -2644    -2647    -2644    -2643    -2647    -2646    -2643    -2644 
   -2647    -2646    -2643    -2644    -2646    -2643    -2641    -2644 
   -2647    -2647    -2647    -2646    -2646    -2646    -2646    -2644 
   -2643    -2641    -2643    -2644    -2643    -2643    -2646    -2643 
   -2643    -2646    -2647    -2644    -2643    -2644    -2646    -2644 
   -2646    -2646    -2646    -2643    -2643    -2646    -2648    -2648 
   -2647    -2646    -2646    -2647    -2647    -2644    -2644    -2644 
   -2646    -2646    -2647    -2646    -2644    -2644    -2644    -2644 
   -2646    -2647    -2646    -2644    -2644    -2646    -2646    -2647 
   -2646    -2646    -2646    -2644    -2644    -2643    -2644    -2647 
   -2648    -2647    -2644    -2643    -2644    -2647    -2647    -2646 
   -2646    -2644    -2641    -2643    -2646    -2647    -2646    -2646 
   -2644    -2644    -2644    -2647    -2647    -2646    -2646    -2647 
   -2647    -2647    -2646    -2643    -2644    -2647    -2646    -2644 
   -2648    -2647    -2643    -2646    -2651    -2647    -2644    -2648 
   -2647    -2643    -2646    -2646    -2644    -2647    -2648    -2647 
   -2647    -2646    -2643    -2644    -2647    -2648    -2648    -2646 
   -2646    -2648    -2650    -2646    -2644    -2646    -2647    -2647 
   -2646    -2644    -2644    -2646    -2648    -2648    -2647    -2648 
   -2648    -2647    -2644    -2643    -2648    -2650    -2646    -2644 
   -2646    -2646    -2646    -2647    -2644    -2644    -2647    -2647 
   -2646    -2643    -2646    -2648    -2648    -2647    -2646    -2644 
   -2643    -2646    -2646    -2646    -2648    -2648    -2648    -2647 
   -2644    -2644    -2647    -2647    -2646    -2644    -2644    -2644 
   -2644    -2646    -2646    -2647    -2647    -2646    -2646    -2647 
   -2644    -2643    -2646    -2647    -2646    -2646    -2647    -2646 
   -2646    -2647    -2647    -2644    -2644    -2646    -2647    -2648 
   -2644    -2643    -2648    -2651    -2647    -2644    -2644    -2643 
   -2643    -2646    -2647    -2647    -2646    -2644    -2644    -2647 
   -2648    -2647    -2644    -2643    -2644    -2644    -2647    -2648 
   -2644    -2644    -2647    -2646    -2644    -2646    -2646    -2644 
   -2643    -2646    -2648    -2646    -2641    -2646    -2647    -2644 
   -2646    -2647    -2646    -2646    -2646    -2644    -2644    -2646 
   -2644    -2644    -2647    -2647    -2646    -2644    -2641    -2647 
   -2650    -2646    -2646    -2648    -2647    -2644    -2647    -2646 
   -2644    -2646    -2646    -2644    -2644    -2646    -2646    -2644 
   -2643    -2647    -2648    -2646    -2644    -2644    -2646    -2648 
   -2648    -2646    -2644    -2646    -2644    -2646    -2646    -2646 
   -2646    -2648    -2647    -2644    -2643    -2644    -2646    -2646 
   -2648    -2648    -2647    -2644    -2643    -2643    -2644    -2644 
   -2646    -2643    -2641    -2643    -2644    -2646    -2646    -2644 
   -2644    -2646    -2646    -2646    -2644    -2646    -2648    -2648 
   -2650    -2648    -2647    -2647    -2648    -2648    -2647    -2647 
   -2648    -2648    -2647    -2646    -2646    -2646    -2647    -2647 
   -2646    -2641    -2640    -2641    -2641    -2640    -2641    -2643 
   -2647    -2656    -2666    -2673    -2667    -2640    -2606    -2592 
   -2620    -2683    -2756    -2789    -2752    -2675    -2604    -2551 
   -2532    -2574    -2683    -2809    -2830    -2686    -2506    -2493 
   -2658    -2789    -2681    -2396    -2203    -2276    -2556    -2889 
   -3052    -2868    -2463    -2203    -2274    -2477    -2525    -2462 
   -2566    -2840    -2957    -2818    -2639    -2513    -2338    -2212 
   -2454    -3028    -3403    -3292    -2933    -2524    -2092    -1948 
   -2482    -3422    -3870    -3369    -2496    -2060    -2153    -2428 
   -2732    -3059    -3203    -2932    -2478    -2300    -2439    -2605 
   -2624    -2482    -2227    -2066    -2336    -3067    -3665    -3410 
   -2409    -1603    -1663    -2388    -3117    -3396    -3226    -2843 
   -2494    -2280    -2138    -2108    -2327    -2687    -2991    -3250 
   -3396    -3126    -2450    -1931    -2070    -2706    -3231    -3245 
   -2847    -2381    -2232    -2585    -3041    -3033    -2617    -2280 
   -2286    -2558    -2795    -2766    -2543    -2285    -2269    -2806 
   -3412    -3160    -2241    -1918    -2608    -3234    -2957    -2299 
   -2192    -2714    -3102    -2903    -2525    -2446    -2547    -2434 
   -2095    -1948    -2305    -3079    -3731    -3655    -2990    -2478 
   -2367    -2123    -1528    -1483    -2662    -3902    -3630    -2230 
   -1408    -1831    -2652    -2975    -2820    -2601    -2496    -2563 
   -2949    -3483    -3562    -3018    -2409    -2219    -2230    -2034 
   -1957    -2548    -3385    -3531    -2963    -2506    -2604    -3011 
   -3410    -3532    -3148    -2323    -1551    -1478    -2076    -2606 
   -2816    -3021    -3231    -3153    -2709    -2303    -2215    -2096 
   -1796    -1725    -2176    -2998    -3558    -3342    -2743    -2454 
   -2585    -2791    -2737    -2497    -2424    -2598    -2867    -3007 
   -2797    -2442    -2347    -2475    -2659    -2957    -3223    -3010 
   -2407    -2189    -2563    -2859    -2713    -2463    -2430    -2535 
   -2598    -2664    -2768    -2752    -2671    -2789    -2971    -2887 
   -2585    -2386    -2550    -3040    -3437    -3302    -2713    -2222 
   -2180    -2361    -2523    -2776    -3024    -2957    -2675    -2448 
   -2350    -2432    -2590    -2635    -2581    -2488    -2361    -2181 
   -2092    -2465    -3136    -3384    -2970    -2320    -2011    -2211 
   -2492    -2489    -2327    -2226    -2309    -2600    -2943    -3177 
   -3168    -2886    -2558    -2435    -2582    -2857    -3079    -3223 
   -3256    -3009    -2520    -2146    -2119    -2404    -2886    -3295 
   -3343    -3133    -2974    -2953    -2952    -2803    -2532    -2407 
   -2540    -2683    -2604    -2369    -2209    -2262    -2420    -2559 
   -2673    -2620    -2320    -2047    -2020    -2203    -2461    -2567 
   -2400    -2126    -2042    -2351    -2909    -3213    -2932    -2278 
   -1772    -1817    -2434    -3226    -3574    -3190    -2521    -2257 
   -2575    -3096    -3387    -3454    -3522    -3496    -3235    -2902 
   -2728    -2747    -2697    -2444    -2417    -2891    -3415    -3522 
   -3211    -2700    -2369    -2532    -2938    -3022    -2625    -2093 
   -1823    -1869    -1973    -1962    -1910    -1854    -1798    -1848 
   -2149    -2691    -3006    -2614    -1988    -1937    -2288    -2427 
   -2416    -2648    -3067    -3226    -2911    -2440    -2319    -2735 
   -3389    -3778    -3732    -3530    -3330    -3055    -2821    -2847 
   -3048    -3184    -3271    -3434    -3438    -2901    -2079    -1629 
   -1637    -1860    -2365    -3003    -3237    -2945    -2554    -2363 
   -2309    -2312    -2407    -2539    -2589    -2443    -2026    -1591 
   -1611    -2088    -2488    -2413    -2089    -2122    -2625    -3034 
   -3017    -2810    -2677    -2728    -2911    -2959    -2778    -2686 
   -2851    -2979    -2963    -3163    -3557    -3474    -2737    -2124 
   -2228    -2716    -3065    -3157    -3106    -3013    -2836    -2538 
   -2259    -2188    -2280    -2311    -2246    -2286    -2479    -2617 
   -2511    -2188    -1977    -2182    -2582    -2748    -2647    -2565 
   -2718    -2961    -2961    -2732    -2577    -2667    -2867    -2949 
   -2983    -3065    -3017    -2795    -2563    -2482    -2760    -3285 
   -3519    -3231    -2778    -2531    -2531    -2596    -2596    -2551 
   -2444    -2265    -2204    -2366    -2559    -2648    -2670    -2570 
   -2312    -2118    -2205    -2440    -2519    -2409    -2371    -2512 
   -2558    -2370    -2280    -2529    -2867    -2890    -2544    -2227 
   -2362    -2899    -3412    -3569    -3333    -2907    -2587    -2574 
   -2836    -3177    -3370    -3267    -3053    -2998    -2956    -2717 
   -2393    -2177    -2151    -2262    -2373    -2400    -2336    -2268 
   -2273    -2284    -2207    -2106    -2154    -2394    -2666    -2855 
   -2948    -2833    -2485    -2247    -2451    -2901    -3107    -2918 
   -2656    -2643    -2818    -2906    -2771    -2524    -2394    -2508 
   -2759    -2975    -3068    -3007    -2813    -2606    -2474    -2336 
   -2204    -2250    -2490    -2782    -3001    -3046    -2905    -2693 
   -2578    -2629    -2725    -2755    -2758    -2781    -2826    -2886 
   -2907    -2859    -2736    -2516    -2300    -2276    -2463    -2701 
   -2797    -2667    -2459    -2434    -2592    -2709    -2687    -2566 
   -2408    -2300    -2277    -2262    -2242    -2398    -2794    -3157 
   -3175    -2809    -2411    -2443    -2936    -3389    -3311    -2705 
   -2047    -1860    -2280    -2893    -3117    -2878    -2646    -2717 
   -2909    -3005    -2987    -2826    -2551    -2380    -2442    -2617 
   -2763    -2848    -2883    -2883    -2862    -2740    -2401    -2019 
   -2000    -2401    -2820    -2880    -2598    -2327    -2300    -2365 
   -2367    -2393    -2459    -2465    -2455    -2520    -2521    -2327 
   -2127    -2247    -2675    -2957    -2844    -2674    -2744    -2889 
   -2957    -3053    -3200    -3245    -3071    -2803    -2683    -2772 
   -2986    -3203    -3194    -2930    -2695    -2619    -2627    -2686 
   -2729    -2709    -2641    -2517    -2404    -2332    -2262    -2286 
   -2461    -2632    -2647    -2485    -2278    -2201    -2246    -2288 
   -2278    -2281    -2396    -2517    -2413    -2208    -2250    -2621 
   -3121    -3458    -3441    -3059    -2450    -1995    -2047    -2458 
   -2862    -3099    -3111    -2871    -2524    -2374    -2609    -2978 
   -3088    -2951    -2771    -2551    -2251    -1992    -1829    -1618 
   -1328    -1132    -1109    -1148    -1048     -731     -425     -491 
   -1009    -1572    -1815    -1991    -2411    -2867    -3173    -3491 
   -3889    -4303    -4826    -5563    -6345    -6855    -7090    -7412 
   -7960    -8409    -8409    -7863    -6939    -5950    -5038    -4050 
   -2917    -1892    -1271    -1109    -1310    -1723    -2126    -2236 
   -1873    -1171     -382      515     1637     2928     4202     4973 
    4612     3152     1397      166     -311     -448     -789    -1447 
   -2050    -2185    -1850    -1545    -1833    -2760    -3916    -4950 
   -5737    -6246    -6482    -6532    -6571    -6610    -6389    -5760 
   -4900    -4166    -3898    -4233    -5090    -6268    -7399    -7965 
   -7569    -6250    -4484    -2839    -1641     -791       72     1062 
    1894     2361     2571     2698     2748     2533     1887      796 
    -673    -2243    -3424    -3925    -3797    -3373    -3030    -2782 
   -2446    -2151    -2241    -2891    -3906    -4826    -5486    -6100 
   -6805    -7483    -7832    -7528    -6367    -4307    -1652      903 
    2652     3169     2454      895    -1017    -2809    -4114    -4899 
   -5236    -5009    -4153    -2862    -1501     -417      419     1266 
    1987     2023      990     -797    -2555    -3801    -4633    -5247 
   -5559    -5286    -4305    -2932    -1819    -1598    -2497    -4027 
   -5278    -5670    -5248    -4414    -3589    -3018    -2795    -2956 
   -3343    -3603    -3407    -2641    -1498     -399      355      766 
     895      711      340       16     -301     -839    -1640    -2524 
   -3303    -3915    -4383    -4774    -5070    -5130    -4877    -4475 
   -4302    -4649    -5390    -6111    -6392    -5903    -4641    -3013 
   -1470     -271      434      619      341     -302    -1154    -2007 
   -2663    -2975    -2839    -2262    -1440     -683     -194      109 
     452      789      811      314     -785    -2589    -4869    -6949 
   -8225    -8492    -7894    -6872    -5906    -5269    -5057    -5138 
   -5258    -5320    -5341    -5319    -5221    -4941    -4272    -3087 
   -1559     -118      865     1279     1301     1324     1679     2317 
    2891     3067     2775     2096     1027     -379    -1763    -2683 
   -3102    -3377    -3767    -4247    -4699    -5074    -5408    -5680 
   -5726    -5443    -4915    -4406    -4261    -4646    -5435    -6319 
   -6868    -6732    -5940    -4743    -3281    -1671     -210      756 
    1089      872      194     -896    -2218    -3419    -4207    -4509 
   -4383    -3846    -2980    -2062    -1252     -444      355      918 
    1077      853      388     -207     -884    -1561    -2265    -3132 
   -4118    -4924    -5297    -5243    -4922    -4475    -3951    -3388 
   -2924    -2685    -2640    -2682    -2859    -3330    -4024    -4561 
   -4673    -4411    -3944    -3435    -3022    -2751    -2540    -2230 
   -1763    -1287     -893     -503     -140       72      110       39 
    -149     -588    -1354    -2296    -3175    -3816    -4162    -4263 
   -4180    -3977    -3780    -3649    -3488    -3308    -3300    -3508 
   -3792    -4101    -4387    -4423    -4044    -3379    -2714    -2250 
   -1957    -1674    -1285     -769     -225      113      113     -137 
    -483     -839    -1255    -1823    -2509    -3230    -3962    -4611 
   -4980    -4978    -4712    -4410    -4274    -4333    -4469    -4500 
   -4248    -3667    -2955    -2409    -2169    -2103    -1938    -1549 
   -1038     -575     -328     -449     -936    -1649    -2404    -2990 
   -3308    -3485    -3638    -3736    -3743    -3708    -3736    -3921 
   -4260    -4610    -4699    -4338    -3643    -2889    -2242    -1729 
   -1350    -1120    -1021     -984     -990    -1120    -1391    -1671 
   -1814    -1775    -1603    -1453    -1487    -1728    -2045    -2346 
   -2658    -3011    -3323    -3489    -3496    -3399    -3265    -3196 
   -3284    -3516    -3797    -3986    -3943    -3634    -3204    -2868 
   -2763    -2824    -2821    -2637    -2313    -1881    -1424    -1146 
   -1233    -1756    -2612    -3512    -4164    -4499    -4583    -4477 
   -4253    -3956    -3573    -3106    -2693    -2548    -2716    -2940 
   -2925    -2592    -2034    -1464    -1069     -850     -741     -695 
    -604     -373       -4      391      552      217     -615    -1674 
   -2664    -3456    -4060    -4522    -4864    -5123    -5308    -5335 
   -5108    -4695    -4299    -4040    -3870    -3696    -3443    -3092 
   -2721    -2430    -2243    -2122    -2060    -2080    -2146    -2116 
   -1898    -1595    -1375    -1304    -1377    -1516    -1637    -1733 
   -1806    -1813    -1749    -1746    -1958    -2367    -2825    -3184 
   -3296    -3145    -2963    -2956    -3087    -3222    -3370    -3649 
   -4005    -4224    -4252    -4221    -4166    -3987    -3616    -3099 
   -2577    -2162    -1873    -1703    -1657    -1686    -1684    -1570 
   -1371    -1212    -1186    -1271    -1440    -1713    -2052    -2326 
   -2450    -2481    -2567    -2801    -3159    -3561    -3935    -4210 
   -4369    -4453    -4430    -4191    -3700    -3024    -2301    -1763 
   -1590    -1749    -2060    -2313    -2349    -2161    -1929    -1860 
   -2030    -2362    -2652    -2702    -2497    -2211    -1989    -1885 
   -1927    -2160    -2570    -3059    -3487    -3762    -3883    -3933 
   -3960    -3924    -3754    -3442    -3109    -2916    -2860    -2768 
   -2559    -2366    -2326    -2408    -2523    -2664    -2837    -2937 
   -2806    -2474    -2184    -2091    -2112    -2149    -2222    -2367 
   -2538    -2683    -2841    -3053    -3260    -3420    -3564    -3640 
   -3504    -3110    -2597    -2164    -1904    -1798    -1787    -1830 
   -1891    -1956    -1992    -1954    -1888    -1895    -2008    -2230 
   -2529    -2795    -2928    -2887    -2709    -2554    -2547    -2643 
   -2737    -2787    -2802    -2837    -2934    -3094    -3264    -3362 
   -3375    -3361    -3323    -3180    -2891    -2529    -2243    -2101 
   -2011    -1875    -1757    -1798    -2030    -2361    -2708    -3038 
   -3310    -3462    -3438    -3186    -2736    -2207    -1737    -1435 
   -1325    -1344    -1412    -1490    -1605    -1807    -2112    -2454 
