Origin Time       2025/03/30 22:55:00
Lat.              41.993
Long.             142.725
Depth. (km)       55
Mag.              4.6
Station Code      HKD111
Station Lat.      42.0170
Station Long.     143.1487
Station Height(m) 22
Record Time       2025/03/30 22:56:16
Sampling Freq(Hz) 100Hz
Duration Time(s)  60
Dir.              N-S
Scale Factor      7845(gal)/8223790
Max. Acc. (gal)   2.373
Last Correction   2025/03/30 22:56:16
Memo.             
[...]
   -1063    -1061    -1065    -1063    -1058    -1063    -1065    -1059 
   -1062    -1063    -1059    -1063    -1065    -1061    -1065    -1063 
   -1059    -1065    -1063    -1059    -1065    -1063    -1062    -1067 
   -1066    -1059    -1063    -1065    -1058    -1061    -1067    -1063 
   -1061    -1065    -1065    -1062    -1063    -1061    -1059    -1066 
   -1066    -1059    -1061    -1065    -1066    -1062    -1059    -1061 
   -1065    -1063    -1059    -1061    -1063    -1063    -1063    -1066 
   -1065    -1058    -1062    -1063    -1062    -1063    -1062    -1062 
   -1063    -1063    -1062    -1059    -1063    -1067    -1062    -1059 
   -1063    -1062    -1057    -1062    -1066    -1062    -1062    -1063 
   -1061    -1061    -1062    -1062    -1062    -1062    -1061    -1063 
   -1063    -1058    -1065    -1067    -1062    -1065    -1066    -1058 
   -1059    -1066    -1063    -1061    -1065    -1063    -1059    -1063 
   -1066    -1062    -1062    -1066    -1065    -1063    -1066    -1065 
   -1062    -1063    -1065    -1063    -1062    -1061    -1062    -1065 
   -1063    -1062    -1063    -1065    -1061    -1062    -1070    -1066 
   -1062    -1065    -1063    -1062    -1063    -1062    -1061    -1063 
   -1063    -1063    -1066    -1066    -1059    -1057    -1063    -1066 
   -1062    -1062    -1062    -1061    -1063    -1059    -1059    -1065 
   -1063    -1061    -1063    -1063    -1063    -1059    -1062    -1062 
   -1058    -1062    -1066    -1062    -1061    -1059    -1059    -1063 
   -1065    -1061    -1062    -1065    -1062    -1063    -1065    -1063 
   -1063    -1063    -1063    -1066    -1066    -1065    -1061    -1063 
   -1066    -1059    -1058    -1063    -1063    -1063    -1063    -1059 
   -1062    -1066    -1061    -1059    -1067    -1062    -1055    -1062 
   -1065    -1063    -1065    -1059    -1058    -1066    -1062    -1058 
   -1065    -1063    -1059    -1061    -1062    -1062    -1062    -1063 
   -1065    -1059    -1059    -1066    -1063    -1057    -1059    -1063 
   -1063    -1063    -1061    -1059    -1063    -1063    -1059    -1063 
   -1062    -1057    -1062    -1067    -1065    -1062    -1062    -1063 
   -1063    -1065    -1065    -1061    -1059    -1062    -1062    -1062 
   -1066    -1063    -1059    -1062    -1065    -1061    -1062    -1063 
   -1059    -1059    -1063    -1065    -1062    -1059    -1061    -1066 
   -1065    -1061    -1061    -1062    -1065    -1065    -1062    -1063 
   -1063    -1059    -1062    -1065    -1062    -1061    -1063    -1065 
   -1063    -1062    -1065    -1065    -1059    -1059    -1065    -1065 
   -1058    -1059    -1061    -1059    -1062    -1063    -1061    -1061 
   -1063    -1062    -1058    -1061    -1066    -1059    -1059    -1066 
   -1062    -1059    -1062    -1063    -1065    -1062    -1059    -1062 
   -1065    -1061    -1061    -1065    -1062    -1059    -1063    -1063 
   -1062    -1065    -1061    -1059    -1066    -1063    -1055    -1062 
   -1071    -1065    -1061    -1065    -1062    -1061    -1066    -1066 
   -1061    -1062    -1066    -1063    -1062    -1062    -1061    -1065 
   -1066    -1062    -1063    -1066    -1063    -1063    -1065    -1062 
   -1062    -1062    -1061    -1062    -1063    -1063    -1065    -1066 
   -1061    -1057    -1065    -1066    -1062    -1063    -1062    -1058 
   -1063    -1065    -1059    -1062    -1065    -1061    -1062    -1067 
   -1062    -1057    -1065    -1066    -1057    -1059    -1066    -1062 
   -1062    -1065    -1062    -1062    -1065    -1061    -1059    -1061 
   -1063    -1062    -1063    -1065    -1059    -1059    -1063    -1062 
   -1059    -1062    -1063    -1063    -1065    -1063    -1058    -1062 
   -1066    -1058    -1062    -1069    -1058    -1061    -1069    -1059 
   -1061    -1071    -1062    -1058    -1069    -1065    -1058    -1063 
   -1063    -1059    -1065    -1062    -1059    -1066    -1065    -1058 
   -1062    -1061    -1063    -1067    -1063    -1063    -1065    -1057 
   -1057    -1065    -1065    -1061    -1066    -1065    -1054    -1061 
   -1069    -1058    -1061    -1069    -1062    -1062    -1066    -1061 
   -1062    -1067    -1062    -1059    -1065    -1067    -1062    -1059 
   -1066    -1065    -1055    -1062    -1067    -1058    -1058    -1065 
   -1065    -1062    -1062    -1062    -1062    -1062    -1063    -1059 
   -1059    -1067    -1066    -1061    -1062    -1058    -1057    -1067 
   -1065    -1055    -1061    -1063    -1059    -1061    -1065    -1062 
   -1062    -1062    -1059    -1059    -1065    -1069    -1063    -1057 
   -1062    -1067    -1062    -1059    -1063    -1063    -1062    -1062 
   -1061    -1061    -1061    -1063    -1065    -1058    -1059    -1065 
   -1062    -1059    -1062    -1066    -1063    -1058    -1058    -1062 
   -1065    -1065    -1062    -1058    -1062    -1063    -1062    -1061 
   -1065    -1065    -1059    -1059    -1065    -1065    -1063    -1059 
   -1059    -1062    -1061    -1062    -1063    -1061    -1059    -1061 
   -1062    -1063    -1063    -1063    -1061    -1059    -1065    -1065 
   -1058    -1062    -1065    -1061    -1063    -1067    -1063    -1059 
   -1061    -1063    -1066    -1065    -1062    -1061    -1065    -1063 
   -1059    -1062    -1063    -1062    -1059    -1059    -1065    -1065 
   -1059    -1061    -1066    -1062    -1058    -1062    -1063    -1057 
   -1050    -1050    -1048    -1046    -1043    -1039    -1038    -1035 
   -1028    -1031    -1040    -1046    -1054    -1053    -1028     -984 
    -935     -900     -884     -891     -928     -981    -1038    -1100 
   -1146    -1128    -1092    -1121    -1201    -1273    -1340    -1378 
   -1329    -1194    -1007     -882     -969    -1177    -1285    -1267 
   -1183    -1078    -1040    -1027     -965     -881     -799     -818 
    -984    -1101    -1084     -997     -869     -895    -1129    -1200 
   -1020     -986    -1206    -1337    -1291    -1200     -876     -552 
    -714     -976    -1000    -1112    -1358    -1593    -1809    -1649 
    -947     -395     -375     -769    -1433    -1595    -1252    -1425 
   -1706    -1173     -365     -108     -535    -1350    -1891    -1799 
   -1306     -648     -264     -541     -916    -1028    -1250    -1397 
   -1246    -1186    -1424    -1810    -1930    -1366     -500     -182 
    -488     -854    -1044    -1123    -1231    -1318     -993     -530 
    -571     -864    -1026    -1111    -1113    -1162    -1379    -1470 
   -1165     -541      -87     -427    -1298    -1796    -1706    -1398 
   -1086     -957    -1089    -1104     -756     -437     -507     -820 
   -1159    -1483    -1628    -1356     -920     -791     -854     -819 
    -940    -1225    -1150     -884    -1036    -1308    -1152     -816 
    -691     -800    -1124    -1551    -1591    -1038     -583     -719 
    -945     -990    -1212    -1397    -1146     -822     -792     -988 
   -1300    -1462    -1414    -1467    -1424     -978     -662     -826 
   -1077    -1321    -1459    -1035     -464     -571    -1012    -1170 
   -1347    -1491     -990     -419     -760    -1466    -1582    -1274 
   -1097    -1192    -1475    -1636    -1316     -801     -652     -823 
   -1011    -1216    -1286     -945     -622     -874    -1192     -940 
    -599     -756    -1038    -1090    -1198    -1331    -1182     -988 
    -953     -950    -1098    -1323    -1228    -1004    -1062    -1246 
   -1286    -1124     -824     -700     -922    -1156    -1132    -1057 
   -1155    -1260    -1144     -862     -639     -702    -1129    -1561 
   -1412     -981    -1094    -1362    -1156    -1016    -1111    -1039 
   -1050    -1144     -939     -855    -1154    -1197     -838     -565 
    -537     -797    -1250    -1264     -954    -1100    -1363    -1290 
   -1228    -1090     -868     -873     -847     -839    -1233    -1580 
   -1436    -1105     -788     -584     -724     -966    -1013     -959 
    -778     -662     -974    -1414    -1506    -1323    -1109     -967 
   -1063    -1424    -1470     -999     -723     -754     -756     -912 
   -1117    -1189    -1278    -1228    -1115    -1186    -1182    -1138 
   -1255    -1254    -1035     -814     -845    -1171    -1256     -939 
    -870    -1086    -1120    -1215    -1467    -1344     -918     -652 
    -654     -908    -1173    -1093     -818     -901    -1395    -1633 
   -1435    -1158     -862     -789    -1017     -962     -872    -1337 
   -1582    -1113     -820     -954     -999    -1007    -1032     -907 
    -849     -981    -1144    -1291    -1250     -967     -853     -986 
   -1071    -1043     -943    -1023    -1345    -1291     -773     -521 
    -731    -1134    -1458    -1323     -963    -1027    -1260    -1051 
    -562     -480    -1150    -1822    -1615    -1098     -994    -1009 
   -1081    -1202     -901     -545     -846    -1250    -1136    -1027 
   -1128    -1039     -967    -1127    -1120     -909     -878    -1111 
   -1371    -1286     -923     -950    -1416    -1640    -1371     -837 
    -627    -1138    -1487    -1044     -719     -868     -810     -781 
   -1216    -1449    -1220    -1031     -889     -692     -676     -911 
   -1204    -1314    -1188     -969     -974    -1339    -1549    -1289 
   -1000     -963    -1043    -1100    -1055     -940     -916    -1146 
   -1372    -1147     -818     -884     -985     -876     -808     -869 
   -1063    -1293    -1389    -1343    -1032     -711    -1009    -1460 
   -1166     -648     -693    -1011    -1159    -1206    -1248    -1155 
    -963    -1023    -1372    -1512    -1085     -521     -558    -1061 
   -1223    -1107    -1177    -1107     -940    -1171    -1306    -1124 
   -1301    -1534    -1210     -953    -1138    -1094     -718     -643 
    -878    -1005    -1001     -849     -549     -604    -1194    -1669 
   -1610    -1310    -1129    -1030     -904     -978    -1151     -955 
    -708     -996    -1459    -1517    -1219     -930     -835     -893 
    -977     -943     -884     -985    -1024     -861     -772     -847 
   -1074    -1470    -1640    -1325    -1016    -1023    -1026     -967 
   -1121    -1386    -1378    -1028     -653     -542     -754    -1036 
   -1038     -882     -909     -966     -958    -1213    -1429    -1182 
   -1059    -1262    -1120     -781     -851    -1096    -1171    -1198 
   -1170    -1067    -1023     -974     -918    -1054    -1278    -1224 
    -942     -711     -577     -751    -1274    -1377     -882     -764 
   -1136    -1198    -1170    -1507    -1526    -1012     -862    -1185 
   -1350    -1367    -1215     -589     -288    -1034    -1674    -1410 
   -1123    -1035     -750     -838    -1345    -1335     -972     -943 
    -897     -675     -838    -1306    -1397    -1067     -868     -903 
   -1062    -1417    -1545    -1327    -1435    -1495     -826     -333 
    -697    -1274    -1524    -1177     -495     -407     -900    -1216 
   -1233    -1044     -839     -945    -1161    -1254    -1328    -1302 
   -1131     -954     -845     -868    -1023    -1320    -1652    -1539 
    -969     -765    -1132    -1378    -1228     -919     -677     -737 
    -927     -814     -645     -870    -1190    -1252    -1117     -877 
    -884    -1262    -1316     -853     -577     -768    -1183    -1441 
   -1212     -913    -1124    -1489    -1417    -1039     -811     -916 
   -1171    -1247    -1082     -876     -704     -676     -916    -1310 
   -1520    -1189     -652     -724    -1248    -1417    -1200     -981 
    -864     -947    -1294    -1528    -1333    -1027     -837     -619 
    -621    -1088    -1549    -1574    -1296     -945     -724     -764 
    -961    -1147    -1178    -1055     -874     -648     -658    -1088 
   -1382    -1333    -1371    -1393    -1197    -1152    -1339    -1329 
    -986     -619     -556     -870    -1274    -1310     -996     -908 
   -1202    -1352    -1198    -1050     -963     -972    -1135    -1243 
   -1220    -1139     -912     -606     -629    -1138    -1617    -1575 
   -1213     -904     -793     -939    -1194    -1237     -962     -643 
    -693    -1051    -1197    -1075    -1057    -1081     -953     -811 
    -756     -750     -889    -1170    -1233     -935     -675     -661 
    -735     -858     -872     -638     -465     -568     -808    -1065 
   -1252    -1445    -1722    -1750    -1556    -1686    -1942    -1701 
   -1096     -654     -669     -977     -946     -382      103       75 
    -427    -1082    -1360    -1275    -1216    -1161    -1302    -1945 
   -2601    -2910    -3041    -2864    -2349    -1753    -1020     -275 
      58      151      190     -319    -1432    -2363    -2481    -1686 
    -305      885      909     -517    -2133    -2224     -903      301 
     799      731     -203    -1802    -2943    -2870    -1748     -542 
    -406    -1152    -1507    -1061     -371     -163     -954    -2085 
   -2436    -2369    -2619    -2651    -2077    -1543    -1128     -172 
     872      966      596      535      130     -901    -1451     -985 
    -510     -989    -1753    -1437      -95      900      546     -911 
   -2254    -2408    -1458     -506     -521    -1425    -2569    -3404 
   -3345    -2201     -899     -542     -980    -1163     -838     -908 
   -1725    -2266    -1849    -1161     -603      249     1030     1075 
     747      260     -533    -1116    -1363    -1858    -2336    -2282 
   -2106    -1912    -1287     -487      229      923     1031       87 
   -1459    -2806    -3034    -1858     -554     -627    -2068    -3504 
   -3550    -2135     -595     -248     -928    -1235     -534      201 
     106     -438     -708     -469     -317    -1017    -1981    -2027 
   -1417    -1105    -1102     -950     -517       18      257      -89 
    -801    -1324    -1479    -1524    -1479    -1383    -1648    -2104 
   -1840     -858     -541    -1448    -2320    -2200    -1443     -510 
     199      209     -261     -669    -1092    -1705    -2177    -2062 
   -1574    -1459    -1540    -1008     -376     -515     -638      170 
     897      109    -1663    -2709    -2628    -2319    -2153    -1660 
    -612      321      368      -25      -86     -270    -1113    -1954 
   -2170    -2135    -2425    -2943    -2886    -1858     -641      -28 
     176      467      764      629      167        0      137       45 
    -391     -913    -1198    -1097    -1063    -1590    -2218    -2056 
   -1159     -488     -697    -1537    -2039    -1610     -907     -648 
    -675     -907    -1529    -2033    -1717     -946     -490     -445 
    -865    -1759    -2239    -1838    -1613    -2127    -2585    -2465 
   -1811     -986     -683     -819     -746     -583     -625     -665 
    -646     -630     -654     -908    -1152     -911     -486     -346 
    -311     -264     -352     -630    -1193    -1900    -2285    -2045 
   -1224     -380      -81       13      207      -29     -753    -1298 
   -1432    -1196     -741     -666    -1124    -1316     -881     -596 
   -1078    -1968    -2617    -2643    -2204    -1971    -2069    -1991 
   -1786    -1611    -1081     -504     -540     -660     -450     -540 
    -878     -834     -652     -677     -648     -673    -1088    -1561 
   -1586    -1169     -788     -999    -1649    -1899    -1471    -1020 
    -981    -1027     -974    -1066    -1162     -967     -769     -834 
   -1059    -1418    -1556     -986     -283     -311     -842    -1170 
    -988     -423     -199     -932    -1927    -2085    -1622    -1362 
   -1209     -746     -315     -361     -660     -851     -872     -760 
    -639     -627     -710     -799     -756     -602     -587     -903 
   -1490    -2029    -2374    -2694    -2886    -2658    -2069    -1474 
   -1246    -1341    -1259     -648      357     1233     1385      692 
    -483    -1601    -2119    -2004    -1819    -1730    -1363     -896 
    -795     -839     -681     -421     -216     -120     -148     -186 
    -252     -602    -1227    -1752    -1987    -2037    -1999    -1960 
   -1991    -1914    -1444     -758     -480     -876    -1452    -1606 
   -1283     -823     -585     -616     -544     -263     -332     -907 
   -1331    -1336    -1327    -1420    -1397    -1293    -1327    -1517 
   -1740    -1937    -2010    -1798    -1363     -893     -475     -260 
    -359     -471     -298      -22      117      113     -206     -974 
   -1772    -2052    -1715    -1129     -789     -780     -900    -1186 
   -1582    -1734    -1539    -1152     -696     -488     -891    -1620 
   -2004    -1856    -1448    -1063     -903    -1026    -1297    -1470 
   -1324     -850     -426     -519    -1032    -1347    -1182     -908 
    -864     -837     -596     -498     -904    -1486    -1809    -1925 
   -1903    -1574    -1038     -703     -621     -495     -378     -544 
    -799     -746     -571     -700     -908     -756     -465     -396 
    -515     -827    -1274    -1584    -1810    -2100    -2178    -1826 
   -1309    -1017     -996     -923     -633     -363     -371     -666 
   -1075    -1294    -1078     -650     -577     -974    -1318    -1300 
   -1094     -859     -691     -797    -1208    -1656    -1849    -1728 
   -1444    -1206    -1223    -1433    -1420     -965     -356      -64 
    -360    -1012    -1417    -1360    -1210    -1121     -989    -1089 
   -1567    -1825    -1499    -1066     -872     -777     -773     -919 
   -1092    -1289    -1541    -1625    -1489    -1390    -1391    -1355 
   -1224     -938     -492     -183     -336     -724     -870     -791 
    -822    -1044    -1201    -1129    -1082    -1255    -1410    -1425 
   -1470    -1472    -1264    -1012     -835     -580     -324     -338 
    -622     -970    -1163    -1142    -1163    -1390    -1489    -1147 
    -762     -986    -1624    -1796    -1286     -729     -596     -810 
   -1005     -886     -683     -805    -1023     -938     -791     -893 
   -1089    -1201    -1146     -857     -695    -1058    -1556    -1615 
   -1312     -980     -780     -772     -930    -1213    -1512    -1537 
   -1240    -1001    -1066    -1246    -1313    -1305    -1327    -1301 
   -1121     -885     -743     -743     -841     -885     -816     -838 
   -1093    -1428    -1638    -1607    -1297     -892     -673     -676 
    -751     -873    -1061    -1142     -999     -878     -965    -1088 
   -1193    -1339    -1366    -1200     -986     -830     -828    -1057 
   -1291    -1290    -1194    -1232    -1360    -1441    -1424    -1317 
   -1186    -1073     -947     -803     -735     -878    -1189    -1368 
   -1258    -1063     -990    -1017    -1015     -893     -703     -537 
    -411     -365     -414     -519     -751    -1111    -1371    -1433 
   -1393    -1297    -1188    -1117    -1102    -1134    -1071     -827 
    -634     -751    -1127    -1431    -1382    -1161    -1117    -1236 
   -1306    -1229     -969     -654     -542     -685     -973    -1318 
   -1564    -1588    -1498    -1381    -1212    -1147    -1304    -1475 
   -1464    -1243     -896     -722     -923    -1205    -1294    -1320 
   -1328    -1198    -1043     -950     -788     -615     -630     -700 
    -611     -545     -642     -704     -716     -877    -1154    -1433 
   -1653    -1659    -1452    -1260    -1140    -1039    -1036    -1171 
   -1274    -1146     -853     -703     -805     -913     -832     -710 
    -747     -950    -1232    -1463    -1509    -1332    -1019     -808 
