Origin Time       2025/03/30 22:55:00
Lat.              41.993
Long.             142.725
Depth. (km)       55
Mag.              4.6
Station Code      HKD159
Station Lat.      41.7160
Station Long.     141.0046
Station Height(m) 23
Record Time       2025/03/30 22:56:37
Sampling Freq(Hz) 100Hz
Duration Time(s)  60
Dir.              N-S
Scale Factor      7845(gal)/8223790
Max. Acc. (gal)   2.601
Last Correction   2025/03/30 22:56:38
Memo.             
[...]
    5398     5287     5278     5381     5516     5603     5629     5620 
    5597     5576     5584     5638     5725     5782     5769     5733 
    5702     5659     5617     5605     5587     5539     5482     5428 
    5412     5470     5568     5637     5651     5637     5614     5586 
    5555     5525     5541     5618     5692     5730     5746     5717 
    5652     5605     5574     5551     5578     5655     5710     5698 
    5614     5501     5455     5502     5572     5622     5638     5601 
    5544     5513     5474     5420     5406     5471     5587     5690 
    5745     5769     5769     5736     5710     5729     5746     5732 
    5732     5749     5709     5590     5478     5444     5452     5441 
    5431     5440     5462     5494     5521     5517     5505     5548 
    5633     5672     5657     5657     5698     5744     5784     5838 
    5871     5836     5746     5622     5472     5362     5370     5471 
    5562     5567     5486     5387     5347     5377     5470     5618 
    5768     5868     5908     5865     5742     5620     5568     5586 
    5626     5630     5598     5562     5509     5449     5435     5471 
    5517     5566     5616     5644     5641     5633     5641     5674 
    5715     5745     5737     5672     5580     5525     5510     5513 
    5555     5624     5634     5559     5467     5433     5486     5580 
    5644     5676     5721     5741     5691     5634     5629     5649 
    5674     5688     5674     5634     5562     5451     5381     5398 
    5452     5530     5644     5719     5706     5657     5626     5610 
    5603     5613     5652     5706     5697     5617     5556     5532 
    5517     5537     5603     5626     5567     5510     5494     5490 
    5522     5614     5711     5748     5722     5668     5597     5533 
    5524     5575     5649     5703     5730     5726     5670     5575 
    5525     5559     5603     5601     5584     5568     5524     5481 
    5472     5466     5467     5520     5616     5695     5733     5746 
    5722     5653     5613     5644     5679     5675     5660     5632 
    5587     5566     5587     5637     5664     5602     5491     5432 
    5416     5393     5409     5520     5675     5800     5844     5771 
    5618     5482     5444     5533     5672     5748     5755     5744 
    5687     5557     5447     5458     5556     5641     5675     5682 
    5657     5594     5503     5406     5344     5362     5463     5616 
    5752     5798     5763     5734     5718     5651     5568     5545 
    5551     5547     5579     5670     5760     5792     5753     5679 
    5601     5517     5445     5439     5463     5458     5466     5513 
    5528     5512     5545     5621     5676     5714     5756     5768 
    5726     5657     5595     5576     5599     5611     5610     5622 
    5645     5680     5709     5675     5587     5502     5409     5324 
    5336     5456     5610     5730     5756     5674     5555     5478 
    5472     5526     5614     5724     5821     5837     5788     5746 
    5695     5598     5526     5547     5614     5638     5587     5528 
    5532     5568     5559     5503     5436     5401     5440     5522 
    5587     5648     5725     5764     5715     5629     5582     5593 
    5636     5699     5780     5838     5815     5714     5587     5471 
    5406     5445     5541     5591     5578     5525     5433     5354 
    5348     5408     5505     5613     5699     5772     5814     5779 
    5721     5728     5765     5776     5787     5794     5738     5636 
    5525     5431     5386     5370     5344     5346     5386     5429 
    5482     5559     5625     5661     5711     5782     5802     5765 
    5736     5721     5710     5724     5733     5683     5620     5601 
    5582     5544     5520     5486     5443     5428     5428     5431 
    5468     5551     5633     5657     5606     5555     5575     5624 
    5624     5605     5641     5721     5772     5759     5725     5715 
    5728     5753     5773     5738     5624     5460     5309     5243 
    5319     5502     5678     5772     5756     5616     5405     5250 
    5236     5373     5583     5764     5863     5868     5806     5741 
    5706     5671     5668     5748     5833     5800     5641     5460 
    5375     5393     5424     5422     5412     5421     5478     5553 
    5586     5594     5625     5661     5684     5707     5721     5722 
    5734     5722     5680     5676     5705     5690     5626     5578 
    5575     5597     5610     5602     5575     5517     5410     5306 
    5260     5274     5341     5463     5590     5686     5778     5879 
    5961     5981     5929     5854     5776     5661     5564     5541 
    5541     5520     5528     5574     5591     5562     5525     5476 
    5371     5252     5231     5339     5478     5572     5632     5663 
    5655     5638     5682     5813     5968     6056     6037     5925 
    5755     5578     5460     5436     5482     5516     5474     5374 
    5281     5250     5293     5381     5487     5595     5680     5733 
    5772     5800     5798     5787     5814     5823     5744     5606 
    5479     5424     5483     5602     5687     5718     5717     5690 
    5614     5487     5386     5404     5499     5536     5498     5466 
    5451     5468     5553     5657     5740     5836     5940     5960 
    5836     5645     5529     5526     5563     5566     5513     5433 
    5387     5425     5517     5606     5678     5709     5656     5557 
    5509     5548     5651     5767     5813     5751     5632     5516 
    5451     5464     5509     5541     5580     5620     5616     5603 
    5645     5710     5728     5679     5595     5502     5429     5437 
    5545     5670     5721     5697     5626     5532     5459     5460 
    5537     5667     5817     5900     5884     5813     5679     5508 
    5420     5437     5486     5517     5501     5439     5395     5417 
    5475     5545     5633     5707     5732     5734     5776     5871 
    5952     5915     5761     5597     5463     5337     5266     5310 
    5444     5583     5630     5539     5406     5373     5468     5643 
    5803     5865     5833     5764     5706     5676     5682     5725 
    5813     5863     5764     5572     5455     5444     5455     5428 
    5356     5289     5286     5347     5454     5571     5667     5744 
    5805     5792     5721     5663     5640     5663     5732     5755 
    5670     5564     5536     5576     5617     5625     5632     5675 
    5707     5647     5514     5395     5328     5348     5448     5551 
    5617     5640     5606     5559     5535     5520     5564     5722 
    5898     5994     6021     5980     5827     5589     5360     5274 
    5385     5540     5583     5540     5471     5404     5421     5560 
    5694     5705     5637     5603     5632     5665     5655     5609 
    5568     5556     5578     5616     5636     5624     5587     5556 
    5559     5586     5606     5606     5587     5589     5621     5611 
    5540     5489     5486     5506     5570     5665     5699     5634 
    5578     5625     5748     5829     5794     5718     5690     5687 
    5674     5634     5556     5481     5471     5493     5490     5518 
    5616     5676     5633     5529     5378     5236     5269     5475 
    5688     5819     5857     5814     5745     5678     5630     5668 
    5803     5911     5877     5732     5544     5377     5320     5394 
    5494     5529     5499     5424     5346     5351     5451     5548 
    5587     5598     5625     5695     5784     5837     5850     5850 
    5842     5837     5832     5773     5634     5476     5366     5302 
    5277     5310     5395     5467     5490     5497     5510     5544 
    5622     5734     5818     5849     5841     5810     5786     5784 
    5752     5656     5529     5441     5436     5483     5552     5634 
    5709     5717     5634     5522     5456     5444     5437     5437 
    5497     5582     5601     5603     5674     5721     5660     5590 
    5599     5651     5699     5760     5821     5811     5703     5555 
    5444     5389     5394     5493     5626     5663     5589     5503 
    5474     5483     5514     5560     5587     5584     5557     5494 
    5437     5476     5576     5661     5752     5854     5911     5938 
    5985     6012     5964     5859     5705     5528     5374     5239 
    5105     4993     4949     5038     5262     5510     5702     5826 
    5853     5765     5661     5675     5803     5964     6104     6161 
    6066     5848     5603     5427     5367     5400     5432     5402 
    5325     5267     5278     5356     5448     5549     5682     5809 
    5886     5903     5854     5748     5576     5347     5213     5324 
    5587     5791     5846     5784     5678     5593     5543     5513 
    5524     5595     5725     5898     6025     5988     5796     5545 
    5324     5231     5281     5373     5427     5437     5400     5332 
    5283     5281     5356     5559     5841     6072     6157     6066 
    5877     5733     5711     5806     5919     5908     5732     5490 
    5286     5150     5115     5219     5405     5533     5491     5316 
    5167     5192     5432     5807     6173     6396     6396     6157 
    5778     5455     5335     5444     5695     5894     5879     5664 
    5383     5173     5059     5022     5100     5316     5580     5772 
    5818     5741     5672     5679     5675     5614     5602     5697 
    5779     5741     5643     5589     5616     5706     5802     5834 
    5763     5622     5512     5456     5381     5277     5233     5292 
    5366     5394     5393     5375     5377     5464     5613     5740 
    5849     5991     6145     6201     6066     5806     5617     5638 
    5844     6091     6193     6041     5674     5216     4808     4587 
    4617     4851     5198     5528     5695     5670     5548     5459 
    5478     5617     5821     6010     6099     6039     5890     5783 
    5765     5763     5768     5840     5945     5994     5934     5756 
    5514     5316     5247     5302     5359     5297     5161     5047 
    4938     4823     4812     4992     5346     5775     6115     6259 
    6216     6085     6018     6104     6281     6423     6444     6315 
    6042     5663     5242     4912     4799     4872     4995     5082 
    5116     5088     5038     5065     5211     5440     5705     5962 
    6170     6276     6264     6191     6129     6116     6135     6104 
    5961     5738     5530     5378     5287     5263     5298     5386 
    5506     5594     5570     5417     5204     5054     5063     5212 
    5410     5552     5568     5535     5583     5707     5863     6076 
    6273     6328     6242     6118     6037     6002     5971     5913 
    5810     5632     5402     5242     5182     5101     4943     4800 
    4730     4729     4806     4935     5113     5382     5684     5861 
    5840     5707     5686     5930     6330     6640     6720     6582 
    6336     6129     6014     5886     5621     5266     4943     4707 
    4561     4581     4822     5130     5309     5364     5402     5481 
    5645     5896     6123     6238     6293     6342     6312     6147 
    5922     5779     5741     5715     5705     5775     5819     5718 
    5522     5317     5125     4992     4969     5055     5174     5243 
    5265     5254     5146     4946     4845     4963     5194     5416 
    5659     5999     6397     6674     6694     6498     6195     5863 
    5625     5637     5892     6146     6138     5840     5404     4965 
    4604     4413     4446     4693     5020     5243     5412     5748 
    6196     6448     6396     6234     6188     6315     6508     6617 
    6578     6421     6215     5975     5610     5123     4657     4310 
    4109     4085     4270     4673     5221     5737     6085     6251 
    6272     6199     6073     5902     5687     5449     5223     5038 
    4928     4864     4774     4675     4672     4889     5440     6218 
    6837     7022     6862     6586     6397     6454     6736     7024 
    7028     6544     5617     4560     3720     3322     3457     3959 
    4432     4704     4989     5427     5899     6227     6316     6285 
    6345     6467     6488     6396     6284     6180     6050     5829 
    5491     5140     4942     5016     5348     5732     5950     5967 
    5822     5539     5217     5053     5181     5537     5908     6083 
    5965     5672     5413     5265     5270     5524     5998     6502 
    6787     6594     5849     4835     3975     3520     3599     4232 
    5067     5607     5746     5710     5705     5908     6385     6853 
    6868     6342     5737     5567     5859     6268     6509     6435 
    5907     5013     4193     3859     4102     4729     5441     6031 
    6295     6084     5649     5456     5683     6172     6652     6929 
    6959     6732     6257     5637     5008     4500     4272     4394 
    4752     5127     5309     5251     5135     5197     5474     5796 
    5991     6104     6273     6478     6594     6579     6435     6162 
    5814     5391     4858     4306     3915     3838     4148     4749 
    5387     5890     6285     6675     7117     7561     7835     7761 
    7206     6147     4874     3867     3379     3262     3140     2943 
    3118     3898     4841     5541     6096     6605     6984     7334 
    7740     7969     7911     7836     7834     7607     6983     6107 
    5182     4307     3530     2988     2874     3134     3466     3717 
    4029     4557     5216     5856     6474     7083     7584     7888 
    7985     7804     7196     6259     5413     4992     4959     5055 
    5159     5406     5806     5989     5651     4938     4164     3578 
    3508     4071     4843     5328     5502     5634     5881     6243 
    6643     6933     7014     6994     7094     7333     7445     7144 
    6404     5462     4598     3998     3771     3928     4287     4576 
    4679     4749     4934     5100     5023     4791     4766     5165 
    5829     6501     6970     7067     6891     6743     6677     6535 
    6319     6161     6137     6207     6191     5908     5336     4517 
    3676     3285     3546     4104     4625     5134     5664     6110 
    6392     6432     6216     5937     5780     5784     5998     6397 
    6686     6639     6411     6126     5772     5545     5559     5571 
    5436     5242     5046     4907     4884     4924     4934     4895 
    4842     4801     4784     4814     5049     5683     6578     7207 
    7194     6682     6138     5957     6218     6651     6871     6704 
    6262     5713     5147     4649     4291     4102     4048     4117 
    4375     4772     5104     5262     5359     5566     5906     6322 
    6733     7010     7078     6967     6656     6153     5610     5206 
    5035     5109     5367     5618     5641     5414     5138     5008 
    5076     5259     5424     5498     5502     5499     5532     5544 
    5443     5260     5146     5143     5143     5101     5134     5346 
    5736     6172     6513     6750     6891     6897     6743     6453 
    6170     6070     6025     5760     5294     4800     4313     3905 
    3757     3908     4209     4581     5107     5749     6276     6555 
    6625     6543     6448     6547     6880     7253     7368     7065 
    6438     5661     4873     4245     3943     3985     4255     4634 
    5046     5381     5464     5220     4860     4702     4819     5065 
    5340     5670     6084     6554     6964     7159     7094     6880 
    6694     6632     6588     6370     5933     5400     4927     4550 
    4230     3975     3781     3616     3596     3931     4588     5283 
    5838     6320     6739     6922     6882     6909     7123     7339 
    7379     7186     6763     6212     5672     5154     4556     3942 
    3588     3635     3905     4197     4519     4922     5335     5676 
    5961     6216     6389     6469     6552     6643     6662     6637 
    6624     6579     6467     6259     5871     5324     4850     4625 
    4595     4585     4471     4306     4255     4407     4698     5003 
    5325     5744     6137     6280     6193     6124     6269     6551 
    6745     6782     6751     6691     6612     6520     6358     6008 
    5452     4862     4452     4232     4077     3978     4013     4160 
    4353     4588     4876     5252     5749     6332     6848     7098 
    7056     6914     6858     6879     6868     6712     6355     5891 
    5458     5066     4700     4399     4186     4104     4214     4488 
    4839     5252     5713     6077     6203     6129     5980     5823 
    5730     5759     5842     5918     6030     6170     6204     6037 
    5780     5668     5718     5726     5663     5690     5792     5710 
    5298     4746     4379     4345     4611     5090     5611     5983 
    6134     6102     5922     5652     5466     5513     5725     5953 
    6120     6174     6096     5946     5746     5514     5406     5516 
    5675     5711     5660     5587     5490     5362     5213     5090 
    5024     4965     4931     5067     5325     5470     5562     5872 
    6345     6686     6794     6670     6258     5653     5131     4853 
    4819     5031     5448     5869     6026     5838     5514     5363 
    5476     5651     5697     5664     5641     5553     5328     5090 
    5036     5167     5328     5444     5545     5637     5756     5969 
    6237     6496     6772     7005     7003     6671     6116     5509 
    4926     4415     4112     4093     4232     4382     4518     4646 
    4783     4997     5340     5768     6210     6592     6847     6906 
    6777     6547     6296     6064     5919     5906     5956     5933 
    5800     5643     5503     5339     5121     4891     4706     4619 
    4679     4877     5152     5391     5475     5417     5381     5460 
    5618     5848     6141     6380     6488     6511     6443     6250 
    6022     5881     5815     5736     5586     5363     5127     4963 
    4915     4974     5081     5130     5051     4907     4835     4935 
    5184     5486     5822     6208     6505     6538     6353     6154 
    6037     5976     5971     6006     5979     5842     5680     5536 
    5332     5022     4703     4540     4581     4766     5067     5474 
    5871     6127     6242     6272     6224     6075     5845     5633 
    5514     5443     5371     5395     5609     5896     6068     6070 
    5980     5859     5707     5556     5481     5432     5270     5007 
    4784     4648     4599     4738     5100     5514     5795     5985 
    6232     6519     6652     6538     6299     6122     6092     6161 
    6192     6026     5632     5120     4584     4128     3963     4185 
    4626     5055     5347     5539     5748     6035     6365     6629 
    6732     6637     6420     6204     6015     5783     5530     5360 
    5292     5247     5179     5157     5289     5503     5598     5593 
    5657     5722     5605     5331     5076     4958     4950     4977 
    5097     5402     5775     6046     6188     6203     6104     6000 
    5980     6064     6211     6292     6184     5900     5575     5329 
    5200     5202     5347     5525     5552     5387     5161     4958 
    4776     4642     4685     4945     5265     5503     5730     6035 
