Origin Time       2025/03/30 22:55:00
Lat.              41.993
Long.             142.725
Depth. (km)       55
Mag.              4.6
Station Code      HKD157
Station Lat.      41.9053
Station Long.     140.9698
Station Height(m) 37
Record Time       2025/03/30 22:56:36
Sampling Freq(Hz) 100Hz
Duration Time(s)  60
Dir.              E-W
Scale Factor      7845(gal)/8223790
Max. Acc. (gal)   2.273
Last Correction   2025/03/30 22:56:37
Memo.             
[...]
   -6432    -6448    -6536    -6575    -6486    -6373    -6372    -6457 
   -6521    -6527    -6496    -6471    -6462    -6470    -6525    -6617 
   -6677    -6655    -6571    -6459    -6349    -6280    -6320    -6486 
   -6690    -6802    -6739    -6508    -6270    -6220    -6340    -6490 
   -6623    -6710    -6704    -6609    -6470    -6359    -6334    -6381 
   -6489    -6598    -6561    -6382    -6301    -6451    -6710    -6880 
   -6855    -6659    -6413    -6226    -6133    -6146    -6270    -6451 
   -6636    -6797    -6851    -6747    -6592    -6524    -6532    -6500 
   -6372    -6211    -6139    -6228    -6442    -6658    -6748    -6675 
   -6546    -6507    -6585    -6659    -6598    -6397    -6212    -6191 
   -6322    -6488    -6583    -6604    -6635    -6690    -6687    -6627 
   -6551    -6450    -6335    -6255    -6251    -6328    -6439    -6543 
   -6639    -6687    -6670    -6639    -6615    -6574    -6501    -6389 
   -6265    -6212    -6311    -6509    -6658    -6706    -6736    -6770 
   -6725    -6547    -6308    -6166    -6214    -6384    -6551    -6606 
   -6519    -6401    -6448    -6656    -6797    -6725    -6516    -6303 
   -6187    -6224    -6386    -6556    -6644    -6660    -6670    -6705 
   -6709    -6598    -6439    -6381    -6392    -6327    -6210    -6196 
   -6332    -6540    -6718    -6770    -6673    -6551    -6523    -6589 
   -6656    -6627    -6507    -6389    -6315    -6251    -6230    -6339 
   -6552    -6740    -6793    -6659    -6397    -6204    -6218    -6389 
   -6570    -6660    -6655    -6612    -6569    -6508    -6430    -6404 
   -6444    -6507    -6565    -6567    -6497    -6453    -6469    -6458 
   -6430    -6490    -6651    -6779    -6724    -6513    -6318    -6214 
   -6219    -6366    -6575    -6702    -6701    -6590    -6438    -6353 
   -6378    -6480    -6602    -6683    -6670    -6569    -6450    -6359 
   -6319    -6396    -6556    -6650    -6646    -6592    -6488    -6397 
   -6374    -6353    -6326    -6386    -6540    -6682    -6704    -6598 
   -6488    -6489    -6563    -6602    -6577    -6535    -6496    -6427 
   -6320    -6227    -6216    -6335    -6538    -6701    -6739    -6644 
   -6516    -6490    -6543    -6550    -6489    -6420    -6427    -6540 
   -6644    -6625    -6509    -6386    -6339    -6386    -6473    -6535 
   -6542    -6497    -6454    -6466    -6519    -6547    -6532    -6527 
   -6544    -6540    -6509    -6511    -6512    -6453    -6396    -6405 
   -6427    -6451    -6521    -6600    -6620    -6589    -6567    -6605 
   -6652    -6608    -6454    -6293    -6235    -6286    -6384    -6463 
   -6493    -6528    -6617    -6691    -6677    -6593    -6525    -6552 
   -6631    -6624    -6494    -6342    -6261    -6289    -6427    -6567 
   -6582    -6534    -6515    -6459    -6381    -6378    -6428    -6489 
   -6562    -6589    -6556    -6559    -6619    -6643    -6578    -6457 
   -6324    -6249    -6303    -6459    -6625    -6716    -6670    -6534 
   -6430    -6407    -6447    -6502    -6502    -6447    -6408    -6430 
   -6465    -6486    -6573    -6720    -6756    -6620    -6450    -6389 
   -6443    -6500    -6458    -6343    -6268    -6338    -6539    -6677 
   -6666    -6659    -6701    -6654    -6500    -6334    -6218    -6191 
   -6286    -6465    -6590    -6567    -6497    -6520    -6627    -6732 
   -6767    -6731    -6686    -6609    -6444    -6285    -6196    -6153 
   -6196    -6340    -6496    -6601    -6647    -6635    -6598    -6620 
   -6718    -6766    -6628    -6385    -6246    -6296    -6443    -6540 
   -6512    -6386    -6286    -6335    -6540    -6758    -6835    -6770 
   -6628    -6454    -6339    -6351    -6443    -6500    -6439    -6313 
   -6251    -6293    -6397    -6538    -6673    -6754    -6779    -6732 
   -6582    -6413    -6397    -6525    -6585    -6490    -6367    -6335 
   -6405    -6519    -6585    -6582    -6524    -6407    -6307    -6327 
   -6482    -6702    -6849    -6809    -6610    -6369    -6204    -6204 
   -6324    -6453    -6547    -6589    -6565    -6513    -6482    -6524 
   -6655    -6747    -6652    -6438    -6293    -6289    -6351    -6405 
   -6454    -6546    -6677    -6764    -6723    -6582    -6475    -6467 
   -6490    -6473    -6385    -6255    -6245    -6443    -6673    -6720 
   -6592    -6482    -6500    -6534    -6482    -6419    -6397    -6373 
   -6345    -6370    -6474    -6633    -6789    -6829    -6698    -6492 
   -6357    -6335    -6340    -6289    -6237    -6313    -6508    -6660 
   -6700    -6704    -6709    -6694    -6652    -6566    -6444    -6346 
   -6293    -6250    -6264    -6380    -6501    -6558    -6585    -6592 
   -6621    -6697    -6702    -6585    -6404    -6205    -6139    -6301 
   -6551    -6729    -6785    -6731    -6606    -6467    -6389    -6405 
   -6484    -6546    -6502    -6380    -6313    -6382    -6561    -6705 
   -6696    -6646    -6644    -6543    -6332    -6234    -6330    -6532 
   -6693    -6675    -6509    -6370    -6330    -6357    -6443    -6562 
   -6659    -6701    -6637    -6457    -6318    -6357    -6501    -6615 
   -6648    -6628    -6593    -6531    -6401    -6205    -6042    -6080 
   -6394    -6786    -6945    -6816    -6578    -6401    -6382    -6519 
   -6667    -6701    -6592    -6392    -6192    -6057    -6042    -6242 
   -6616    -6916    -6956    -6814    -6682    -6625    -6590    -6540 
   -6448    -6327    -6268    -6297    -6328    -6343    -6435    -6606 
   -6718    -6666    -6523    -6459    -6523    -6602    -6579    -6434 
   -6277    -6282    -6490    -6731    -6787    -6631    -6412    -6288 
   -6315    -6426    -6517    -6552    -6531    -6482    -6466    -6477 
   -6509    -6590    -6678    -6683    -6604    -6498    -6390    -6297 
   -6270    -6336    -6469    -6586    -6636    -6635    -6597    -6536 
   -6521    -6569    -6583    -6504    -6374    -6255    -6196    -6254 
   -6401    -6505    -6551    -6651    -6804    -6883    -6816    -6639 
   -6458    -6351    -6319    -6334    -6386    -6459    -6502    -6504 
   -6488    -6451    -6423    -6469    -6582    -6671    -6671    -6593 
   -6498    -6453    -6448    -6426    -6400    -6413    -6407    -6363 
   -6370    -6466    -6598    -6687    -6675    -6617    -6632    -6705 
   -6691    -6540    -6324    -6145    -6126    -6273    -6407    -6424 
   -6411    -6458    -6590    -6731    -6763    -6690    -6612    -6575 
   -6524    -6419    -6349    -6396    -6531    -6667    -6694    -6571 
   -6400    -6301    -6340    -6513    -6652    -6566    -6343    -6224 
   -6285    -6462    -6664    -6794    -6781    -6667    -6574    -6538 
   -6484    -6362    -6228    -6197    -6305    -6497    -6693    -6775 
   -6690    -6540    -6412    -6323    -6357    -6539    -6709    -6691 
   -6500    -6313    -6291    -6448    -6690    -6801    -6667    -6493 
   -6520    -6669    -6656    -6370    -6027    -5922    -6085    -6358 
   -6571    -6620    -6629    -6810    -7015    -6945    -6615    -6311 
   -6289    -6474    -6509    -6274    -6060    -6111    -6370    -6636 
   -6758    -6720    -6659    -6686    -6737    -6717    -6633    -6489 
   -6307    -6195    -6172    -6178    -6272    -6502    -6740    -6832 
   -6748    -6565    -6397    -6334    -6396    -6546    -6690    -6741 
   -6674    -6539    -6384    -6215    -6091    -6115    -6308    -6570 
   -6766    -6831    -6799    -6708    -6540    -6342    -6242    -6307 
   -6471    -6620    -6701    -6713    -6654    -6517    -6346    -6218 
   -6214    -6330    -6470    -6620    -6764    -6754    -6566    -6378 
   -6286    -6323    -6465    -6547    -6482    -6409    -6436    -6544 
   -6683    -6756    -6714    -6664    -6654    -6548    -6288    -6068 
   -6103    -6351    -6579    -6596    -6444    -6338    -6396    -6589 
   -6818    -6914    -6831    -6712    -6602    -6450    -6331    -6359 
   -6480    -6548    -6470    -6281    -6143    -6220    -6475    -6689 
   -6678    -6480    -6334    -6394    -6536    -6610    -6625    -6608 
   -6579    -6608    -6662    -6625    -6527    -6455    -6388    -6303 
   -6245    -6243    -6331    -6511    -6716    -6851    -6856    -6744 
   -6582    -6446    -6373    -6358    -6388    -6411    -6357    -6288 
   -6342    -6508    -6643    -6643    -6547    -6497    -6550    -6624 
   -6660    -6664    -6623    -6547    -6513    -6520    -6455    -6286 
   -6139    -6103    -6192    -6381    -6571    -6679    -6697    -6652 
   -6623    -6689    -6802    -6826    -6693    -6470    -6295    -6243 
   -6282    -6311    -6303    -6335    -6455    -6616    -6754    -6826 
   -6783    -6616    -6407    -6250    -6181    -6204    -6292    -6350 
   -6334    -6362    -6521    -6727    -6860    -6886    -6845    -6801 
   -6706    -6528    -6324    -6141    -6073    -6211    -6388    -6381 
   -6280    -6320    -6581    -6932    -7121    -7009    -6709    -6434 
   -6304    -6291    -6308    -6316    -6320    -6349    -6438    -6569 
   -6662    -6673    -6646    -6605    -6538    -6469    -6439    -6434 
   -6427    -6430    -6455    -6478    -6481    -6473    -6435    -6403 
   -6500    -6674    -6744    -6687    -6594    -6496    -6380    -6272 
   -6243    -6330    -6470    -6602    -6691    -6694    -6593    -6412 
   -6265    -6284    -6438    -6602    -6705    -6674    -6529    -6411 
   -6413    -6507    -6538    -6405    -6276    -6355    -6588    -6799 
   -6868    -6760    -6535    -6307    -6161    -6133    -6242    -6457 
   -6628    -6635    -6527    -6430    -6467    -6659    -6813    -6781 
   -6650    -6566    -6532    -6453    -6324    -6269    -6385    -6596 
   -6639    -6381    -6079    -6061    -6313    -6601    -6741    -6666 
   -6496    -6430    -6512    -6663    -6829    -6930    -6856    -6596 
   -6266    -6012    -5926    -6011    -6170    -6334    -6519    -6712 
   -6859    -6955    -6978    -6876    -6690    -6523    -6394    -6255 
   -6124    -6110    -6238    -6412    -6534    -6571    -6577    -6639 
   -6768    -6829    -6718    -6512    -6326    -6227    -6269    -6392 
   -6423    -6346    -6303    -6366    -6515    -6670    -6735    -6705 
   -6642    -6556    -6497    -6489    -6446    -6355    -6330    -6435 
   -6602    -6664    -6540    -6369    -6324    -6427    -6604    -6774 
   -6812    -6691    -6589    -6588    -6598    -6624    -6663    -6586 
   -6382    -6223    -6210    -6288    -6359    -6392    -6426    -6542 
   -6751    -6943    -6964    -6752    -6430    -6253    -6254    -6214 
   -6062    -5952    -6002    -6239    -6543    -6708    -6689    -6600 
   -6523    -6484    -6504    -6556    -6610    -6686    -6755    -6736 
   -6636    -6490    -6315    -6238    -6385    -6669    -6880    -6868 
   -6608    -6300    -6281    -6615    -6944    -6922    -6604    -6305 
   -6249    -6397    -6515    -6432    -6219    -5999    -5846    -5849 
   -6073    -6485    -6960    -7302    -7356    -7171    -6974    -6925 
   -6921    -6731    -6369    -6075    -5948    -5925    -5954    -6016 
   -6131    -6390    -6790    -7134    -7219    -6970    -6461    -5984 
   -5857    -6057    -6315    -6455    -6446    -6349    -6327    -6462 
   -6616    -6655    -6625    -6606    -6594    -6523    -6335    -6079 
   -5948    -6111    -6523    -6997    -7306    -7237    -6821    -6384 
   -6222    -6372    -6682    -6943    -6955    -6637    -6199    -5984 
   -6146    -6547    -6821    -6674    -6308    -6235    -6613    -7076 
   -7218    -6960    -6484    -6007    -5668    -5428    -5255    -5332 
   -5792    -6471    -7130    -7603    -7746    -7516    -7084    -6758 
   -6787    -7119    -7345    -6970    -5910    -4779    -4407    -5113 
   -6411    -7373    -7492    -7142    -6960    -7078    -7258    -7271 
   -6993    -6485    -5965    -5665    -5711    -6006    -6276    -6326 
   -6211    -6164    -6319    -6579    -6755    -6679    -6286    -5805 
   -5656    -5948    -6408    -6725    -6691    -6409    -6330    -6666 
   -7055    -6983    -6382    -5830    -5967    -6717    -7416    -7604 
   -7406    -7153    -6932    -6616    -6211    -6008    -6357    -7040 
   -7245    -6528    -5464    -5104    -5891    -7098    -7555    -7024 
   -6324    -6220    -6639    -6912    -6583    -5930    -5624    -5913 
   -6336    -6444    -6392    -6523    -6851    -7119    -7044    -6620 
   -6193    -6072    -6156    -6099    -5830    -5668    -5813    -6111 
   -6353    -6570    -7049    -7879    -8603    -8642    -7913    -6768 
   -5648    -4963    -4980    -5609    -6417    -6921    -6930    -6644 
   -6382    -6258    -6178    -6176    -6474    -6978    -7144    -6689 
   -6011    -5738    -6127    -6804    -7074    -6723    -6264    -6281 
   -6741    -7047    -6806    -6350    -6241    -6457    -6521    -6282 
   -6081    -6276    -6801    -7180    -7087    -6820    -6874    -7149 
   -7095    -6508    -5722    -5163    -4932    -4920    -5286    -6304 
   -7609    -8318    -7906    -6650    -5436    -5035    -5390    -5886 
   -6143    -6305    -6669    -7300    -7943    -8229    -8116    -7885 
   -7682    -7380    -6804    -5935    -5092    -4738    -4889    -5121 
   -5301    -5728    -6432    -7002    -7145    -7042    -7101    -7414 
   -7601    -7237    -6308    -5329    -4912    -5215    -6002    -6936 
   -7659    -7900    -7580    -6880    -6218    -5935    -5899    -5717 
   -5478    -5734    -6629    -7609    -8050    -7776    -7052    -6285 
   -5710    -5304    -4995    -4903    -5283    -6200    -7334    -8160 
   -8321    -7894    -7302    -6899    -6732    -6717    -6804    -6818 
   -6434    -5553    -4557    -4118    -4714    -6073    -7303    -7693 
   -7272    -6682    -6636    -7250    -7905    -7901    -7103    -6018 
   -5389    -5575    -6191    -6508    -6215    -5688    -5499    -5783 
   -6257    -6609    -6602    -6218    -6004    -6596    -7666    -8247 
   -7987    -7371    -6961    -6966    -7177    -7041    -6234    -5251 
   -4896    -5344    -6142    -6654    -6436    -5738    -5363    -5746 
   -6694    -7765    -8351    -7921    -6678    -5513    -5193    -5760 
   -6608    -7064    -6990    -6829    -6940    -7026    -6647    -5929 
   -5363    -5354    -6060    -7080    -7479    -6832    -5977    -5969 
   -6710    -7323    -7314    -6789    -6147    -5776    -5705    -5815 
   -6228    -6818    -7003    -6652    -6293    -6361    -6956    -7751 
   -8016    -7488    -6700    -6160    -5950    -5914    -5837    -5732 
   -5803    -5995    -6129    -6331    -6691    -6941    -6928    -6755 
   -6388    -5930    -5898    -6509    -7279    -7585    -7265    -6713 
   -6381    -6272    -6143    -6003    -6137    -6678    -7219    -7182 
   -6559    -5899    -5626    -5738    -5985    -6184    -6415    -6743 
   -6897    -6667    -6405    -6586    -7110    -7461    -7398    -7090 
   -6743    -6361    -5833    -5233    -4957    -5325    -6115    -6817 
   -7184    -7307    -7377    -7425    -7250    -6755    -6135    -5683 
   -5601    -5913    -6426    -6860    -7075    -7038    -6650    -5949 
   -5383    -5428    -6126    -7056    -7587    -7392    -6825    -6447 
   -6358    -6318    -6220    -6243    -6604    -7148    -7334    -6867 
   -6053    -5410    -5250    -5551    -6081    -6573    -6841    -6990 
   -7231    -7443    -7399    -7214    -7032    -6736    -6307    -6016 
   -6114    -6455    -6598    -6276    -5755    -5628    -6097    -6683 
   -6912    -6864    -6814    -6871    -6845    -6432    -5849    -5643 
   -5788    -5875    -5890    -6097    -6604    -7246    -7713    -7794 
   -7457    -6839    -6249    -5946    -5918    -5954    -5914    -5977 
   -6378    -6970    -7365    -7272    -6690    -6008    -5694    -5906 
   -6442    -6832    -6725    -6301    -6076    -6205    -6384    -6439 
   -6550    -6862    -7234    -7388    -7237    -6975    -6737    -6361 
   -5736    -5244    -5440    -6288    -7141    -7408    -6979    -6211 
   -5709    -5854    -6473    -6999    -7009    -6660    -6490    -6716 
   -7003    -6971    -6579    -6062    -5756    -5919    -6430    -6768 
   -6563    -6066    -5867    -6188    -6701    -6999    -7029    -6967 
   -6899    -6795    -6712    -6741    -6693    -6274    -5655    -5340 
   -5539    -6062    -6604    -6943    -7140    -7399    -7666    -7673 
   -7275    -6555    -5778    -5258    -5135    -5344    -5748    -6149 
   -6342    -6427    -6787    -7456    -7881    -7655    -7010    -6492 
   -6392    -6482    -6331    -5911    -5607    -5638    -5867    -6126 
   -6421    -6862    -7422    -7831    -7758    -7207    -6542    -6088 
   -5894    -5815    -5648    -5408    -5479    -6033    -6681    -7017 
   -7015    -6912    -6974    -7191    -7327    -7312    -7202    -6910 
   -6401    -5900    -5645    -5640    -5771    -5965    -6220    -6567 
   -6924    -7091    -7007    -6777    -6473    -6199    -6133    -6307 
   -6528    -6663    -6727    -6709    -6575    -6362    -6133    -5994 
   -6064    -6291    -6505    -6644    -6744    -6849    -6994    -7078 
   -6899    -6466    -6021    -5783    -5922    -6390    -6806    -6874 
   -6593    -6116    -5800    -6056    -6794    -7438    -7562    -7253 
   -6795    -6419    -6311    -6411    -6453    -6361    -6196    -6038 
   -6134    -6559    -6902    -6764    -6251    -5853    -5954    -6454 
   -6903    -6953    -6619    -6277    -6319    -6675    -6899    -6679 
   -6150    -5782    -5908    -6358    -6716    -6822    -6795    -6741 
   -6648    -6492    -6326    -6234    -6288    -6470    -6664    -6793 
   -6874    -6912    -6855    -6733    -6624    -6548    -6458    -6220 
   -5800    -5490    -5660    -6319    -7055    -7365    -7092    -6525 
   -6095    -6099    -6485    -6855    -6967    -6963    -6941    -6828 
   -6623    -6366    -6115    -5992    -6015    -6018    -5964    -6042 
   -6332    -6616    -6675    -6597    -6659    -6970    -7341    -7491 
   -7231    -6590    -5923    -5624    -5733    -6011    -6181    -6147 
   -6114    -6296    -6606    -6866    -7010    -7001    -6891    -6890 
   -7015    -6980    -6623    -6178    -5960    -5983    -6076    -6075 
   -5923    -5867    -6211    -6795    -7204    -7349    -7418    -7530 
   -7576    -7296    -6651    -5975    -5567    -5395    -5313    -5281 
   -5452    -6014    -6812    -7425    -7597    -7339    -6920    -6705 
   -6718    -6620    -6223    -5738    -5555    -5853    -6430    -6902 
   -7067    -6983    -6810    -6642    -6486    -6335    -6203    -6169 
   -6318    -6575    -6764    -6822    -6751    -6508    -6181    -6022 
   -6191    -6601    -6966    -6979    -6616    -6237    -6234    -6574 
   -6847    -6801    -6559    -6319    -6181    -6134    -6118    -6145 
   -6212    -6218    -6164    -6254    -6651    -7221    -7622    -7674 
   -7411    -6872    -6150    -5490    -5134    -5197    -5691    -6482 
   -7217    -7573    -7554    -7280    -6871    -6540    -6349    -6168 
   -6046    -6088    -6204    -6313    -6390    -6393    -6366    -6419 
   -6536    -6636    -6790    -7037    -7130    -6894    -6504    -6192 
   -6053    -6093    -6227    -6345    -6424    -6489    -6509    -6396 
   -6180    -6072    -6189    -6424    -6651    -6825    -6934    -6975 
   -6925    -6766    -6585    -6507    -6504    -6455    -6296    -6056 
   -5923    -6139    -6628    -6991    -6934    -6532    -6161    -6208 
   -6636    -6987    -6926    -6573    -6297    -6311    -6466    -6515 
   -6454    -6453    -6578    -6737    -6755    -6521    -6238    -6268 
