Origin Time       2025/03/30 22:55:00
Lat.              41.993
Long.             142.725
Depth. (km)       55
Mag.              4.6
Station Code      HKD157
Station Lat.      41.9053
Station Long.     140.9698
Station Height(m) 37
Record Time       2025/03/30 22:56:36
Sampling Freq(Hz) 100Hz
Duration Time(s)  60
Dir.              N-S
Scale Factor      7845(gal)/8223790
Max. Acc. (gal)   2.988
Last Correction   2025/03/30 22:56:37
Memo.             
[...]
   -2122    -2120    -2204    -2370    -2550    -2640    -2563    -2385 
   -2219    -2080    -1960    -1907    -1980    -2168    -2344    -2398 
   -2351    -2277    -2258    -2331    -2407    -2366    -2219    -2073 
   -2007    -2053    -2197    -2339    -2377    -2350    -2354    -2409 
   -2431    -2334    -2131    -1965    -1958    -2084    -2224    -2319 
   -2385    -2431    -2430    -2363    -2246    -2134    -2139    -2268 
   -2342    -2235    -2033    -1910    -1984    -2205    -2423    -2536 
   -2521    -2439    -2384    -2339    -2246    -2104    -1993    -2000 
   -2108    -2222    -2266    -2219    -2164    -2251    -2473    -2637 
   -2593    -2369    -2110    -1910    -1791    -1794    -1966    -2257 
   -2517    -2623    -2560    -2432    -2367    -2419    -2478    -2363 
   -2052    -1759    -1726    -1944    -2203    -2381    -2462    -2446 
   -2376    -2324    -2322    -2338    -2307    -2209    -2099    -2019 
   -2004    -2101    -2304    -2482    -2481    -2308    -2161    -2164 
   -2258    -2357    -2400    -2336    -2222    -2185    -2242    -2266 
   -2196    -2115    -2093    -2149    -2269    -2380    -2401    -2308 
   -2141    -2041    -2093    -2222    -2344    -2455    -2531    -2494 
   -2300    -2073    -1961    -1953    -2045    -2231    -2378    -2394 
   -2334    -2250    -2180    -2145    -2169    -2293    -2458    -2508 
   -2377    -2160    -2015    -2030    -2137    -2245    -2305    -2319 
   -2349    -2388    -2332    -2200    -2124    -2166    -2284    -2385 
   -2388    -2288    -2138    -2033    -2069    -2230    -2385    -2427 
   -2344    -2239    -2195    -2157    -2097    -2091    -2201    -2392 
   -2521    -2482    -2320    -2172    -2114    -2101    -2087    -2095 
   -2155    -2268    -2390    -2423    -2338    -2250    -2236    -2266 
   -2319    -2370    -2317    -2145    -2007    -2011    -2106    -2193 
   -2218    -2220    -2324    -2513    -2601    -2482    -2255    -2101 
   -2096    -2143    -2149    -2114    -2112    -2222    -2346    -2326 
   -2236    -2224    -2269    -2281    -2236    -2205    -2230    -2263 
   -2262    -2241    -2241    -2280    -2327    -2338    -2303    -2270 
   -2276    -2334    -2403    -2367    -2177    -1931    -1764    -1803 
   -2101    -2498    -2732    -2682    -2469    -2293    -2196    -2118 
   -2081    -2096    -2145    -2216    -2242    -2232    -2277    -2367 
   -2409    -2319    -2135    -2026    -2081    -2272    -2485    -2529 
   -2342    -2089    -1979    -2069    -2254    -2371    -2385    -2353 
   -2281    -2176    -2073    -2034    -2124    -2320    -2490    -2516 
   -2389    -2253    -2219    -2209    -2147    -2079    -2069    -2138 
   -2241    -2278    -2234    -2228    -2349    -2488    -2478    -2308 
   -2106    -1973    -1975    -2146    -2376    -2469    -2390    -2245 
   -2120    -2095    -2226    -2446    -2573    -2497    -2280    -2043 
   -1927    -2003    -2154    -2235    -2246    -2234    -2228    -2278 
   -2393    -2494    -2509    -2436    -2292    -2120    -2062    -2208 
   -2396    -2384    -2161    -1904    -1777    -1852    -2101    -2393 
   -2573    -2614    -2577    -2485    -2346    -2224    -2188    -2222 
   -2223    -2111    -1944    -1850    -1892    -2081    -2385    -2664 
   -2752    -2579    -2265    -2033    -1981    -2050    -2155    -2239 
   -2280    -2320    -2370    -2400    -2371    -2262    -2112    -2037 
   -2073    -2142    -2199    -2266    -2374    -2498    -2544    -2461 
   -2277    -2058    -1923    -1975    -2162    -2342    -2407    -2355 
   -2263    -2211    -2230    -2285    -2323    -2323    -2273    -2188 
   -2096    -2060    -2142    -2281    -2363    -2386    -2363    -2278 
   -2203    -2209    -2241    -2218    -2118    -2003    -2007    -2188 
   -2477    -2720    -2766    -2606    -2351    -2097    -1918    -1844 
   -1863    -1933    -2018    -2142    -2324    -2497    -2620    -2705 
   -2716    -2575    -2281    -1962    -1811    -1885    -2041    -2108 
   -2074    -2077    -2223    -2423    -2516    -2443    -2301    -2246 
   -2307    -2366    -2281    -2091    -2008    -2112    -2253    -2299 
   -2253    -2230    -2297    -2407    -2486    -2450    -2270    -2103 
   -2056    -2069    -2114    -2203    -2315    -2420    -2442    -2331 
   -2165    -2084    -2157    -2273    -2288    -2232    -2185    -2177 
   -2219    -2257    -2309    -2451    -2579    -2548    -2350    -2057 
   -1842    -1857    -2026    -2187    -2254    -2238    -2266    -2396 
   -2477    -2440    -2367    -2289    -2262    -2334    -2350    -2197 
   -1999    -1904    -1965    -2161    -2371    -2463    -2420    -2307 
   -2192    -2145    -2227    -2438    -2655    -2641    -2285    -1821 
   -1593    -1721    -2089    -2454    -2635    -2609    -2446    -2241 
   -2065    -1980    -2081    -2346    -2533    -2477    -2300    -2176 
   -2155    -2199    -2211    -2153    -2114    -2201    -2351    -2386 
   -2296    -2189    -2126    -2104    -2115    -2181    -2326    -2478 
   -2505    -2347    -2116    -2026    -2161    -2416    -2573    -2471 
   -2185    -1949    -1902    -1981    -2099    -2236    -2371    -2458 
   -2470    -2435    -2394    -2349    -2266    -2154    -2073    -2084 
   -2157    -2182    -2112    -2049    -2118    -2317    -2519    -2565 
   -2427    -2224    -2080    -2068    -2187    -2338    -2430    -2450 
   -2405    -2315    -2204    -2079    -1975    -1988    -2170    -2407 
   -2506    -2403    -2189    -2029    -2052    -2223    -2374    -2388 
   -2284    -2176    -2172    -2238    -2253    -2219    -2235    -2326 
   -2408    -2397    -2300    -2193    -2107    -2034    -2007    -2076 
   -2231    -2396    -2506    -2523    -2403    -2173    -1937    -1842 
   -1998    -2327    -2613    -2682    -2512    -2232    -2065    -2085 
   -2174    -2223    -2218    -2182    -2142    -2135    -2230    -2388 
   -2485    -2473    -2357    -2209    -2137    -2131    -2133    -2112 
   -2084    -2108    -2197    -2266    -2272    -2270    -2343    -2493 
   -2573    -2455    -2263    -2173    -2162    -2162    -2160    -2153 
   -2126    -2085    -2084    -2128    -2170    -2215    -2322    -2486 
   -2597    -2562    -2412    -2243    -2114    -2029    -2006    -2068 
   -2184    -2281    -2295    -2263    -2300    -2431    -2552    -2547 
   -2386    -2131    -1910    -1881    -2015    -2097    -2064    -2068 
   -2212    -2419    -2556    -2575    -2515    -2428    -2346    -2262 
   -2143    -2041    -2043    -2135    -2200    -2161    -2041    -1968 
   -2092    -2394    -2654    -2721    -2643    -2502    -2353    -2184 
   -1953    -1752    -1763    -1976    -2205    -2316    -2315    -2336 
   -2467    -2614    -2629    -2451    -2173    -1987    -1960    -1999 
   -2054    -2154    -2258    -2307    -2305    -2262    -2211    -2273 
   -2455    -2596    -2571    -2396    -2158    -1976    -1929    -1976 
   -2035    -2119    -2249    -2382    -2475    -2489    -2428    -2331 
   -2239    -2176    -2116    -2031    -1983    -2095    -2381    -2624 
   -2565    -2211    -1896    -1952    -2288    -2536    -2523    -2340 
   -2160    -2045    -1971    -1983    -2177    -2486    -2712    -2681 
   -2382    -2035    -1895    -1981    -2119    -2169    -2149    -2174 
   -2300    -2457    -2569    -2569    -2425    -2200    -1999    -1883 
   -1863    -1958    -2218    -2531    -2673    -2538    -2258    -2092 
   -2182    -2409    -2517    -2377    -2120    -1995    -2072    -2180 
   -2165    -2046    -1957    -2022    -2226    -2450    -2581    -2617 
   -2621    -2547    -2342    -2115    -1973    -1926    -1948    -2006 
   -2076    -2118    -2128    -2208    -2384    -2521    -2556    -2538 
   -2500    -2465    -2386    -2226    -2069    -2000    -2045    -2135 
   -2154    -2103    -2081    -2142    -2274    -2382    -2431    -2493 
   -2519    -2419    -2245    -2100    -2050    -2092    -2160    -2208 
   -2234    -2272    -2355    -2417    -2385    -2288    -2187    -2099 
   -2046    -2061    -2150    -2269    -2377    -2435    -2417    -2403 
   -2432    -2365    -2126    -1865    -1767    -1849    -1992    -2126 
   -2288    -2490    -2670    -2758    -2754    -2679    -2512    -2278 
   -2080    -1946    -1844    -1769    -1734    -1787    -1985    -2272 
   -2536    -2685    -2636    -2469    -2342    -2303    -2289    -2228 
   -2126    -2058    -2074    -2133    -2187    -2265    -2377    -2467 
   -2520    -2539    -2454    -2227    -1971    -1831    -1840    -1948 
   -2096    -2226    -2282    -2290    -2376    -2556    -2686    -2689 
   -2601    -2403    -2066    -1744    -1665    -1860    -2182    -2477 
   -2577    -2446    -2281    -2236    -2292    -2347    -2320    -2224 
   -2143    -2120    -2143    -2157    -2177    -2258    -2336    -2363 
   -2376    -2346    -2276    -2228    -2169    -2034    -1876    -1829 
   -1983    -2266    -2519    -2667    -2685    -2555    -2361    -2203 
   -2142    -2177    -2222    -2188    -2080    -1965    -1927    -2030 
   -2281    -2556    -2640    -2500    -2292    -2108    -1998    -2020 
   -2145    -2293    -2405    -2394    -2262    -2141    -2114    -2172 
   -2290    -2424    -2475    -2393    -2258    -2164    -2128    -2141 
   -2189    -2263    -2342    -2374    -2323    -2215    -2124    -2092 
   -2114    -2162    -2207    -2220    -2209    -2236    -2324    -2411 
   -2444    -2438    -2404    -2353    -2307    -2222    -2045    -1885 
   -1884    -1992    -2101    -2187    -2236    -2259    -2301    -2358 
   -2415    -2497    -2573    -2535    -2369    -2222    -2182    -2166 
   -2100    -1976    -1857    -1890    -2112    -2346    -2420    -2384 
   -2385    -2501    -2677    -2758    -2608    -2295    -2011    -1865 
   -1860    -2003    -2277    -2551    -2627    -2474    -2241    -2033 
   -1922    -1934    -1971    -2030    -2235    -2473    -2504    -2355 
   -2228    -2222    -2272    -2276    -2211    -2116    -2030    -1985 
   -2006    -2118    -2347    -2609    -2783    -2862    -2870    -2759 
   -2482    -2064    -1665    -1507    -1624    -1818    -1914    -1914 
   -1950    -2091    -2262    -2390    -2486    -2600    -2785    -3009 
   -3113    -2971    -2606    -2173    -1868    -1745    -1706    -1671 
   -1637    -1642    -1721    -1885    -2137    -2416    -2652    -2848 
   -3006    -3055    -2924    -2647    -2328    -2057    -1890    -1800 
   -1709    -1667    -1827    -2170    -2504    -2694    -2709    -2562 
   -2332    -2123    -1953    -1810    -1787    -1979    -2296    -2550 
   -2654    -2677    -2682    -2628    -2459    -2166    -1834    -1609 
   -1544    -1625    -1814    -2002    -2077    -2080    -2191    -2486 
   -2771    -2801    -2550    -2188    -1957    -2043    -2457    -2991 
   -3331    -3257    -2870    -2450    -2176    -2072    -1984    -1688 
   -1228     -874     -853    -1186    -1684    -2145    -2490    -2754 
   -3007    -3234    -3258    -2967    -2469    -1976    -1669    -1698 
   -2025    -2369    -2490    -2396    -2305    -2466    -2832    -2995 
   -2691    -2155    -1755    -1614    -1620    -1603    -1613    -1814 
   -2176    -2556    -2879    -3102    -3156    -2926    -2394    -1746 
   -1281    -1227    -1557    -1950    -2169    -2293    -2463    -2605 
   -2519    -2157    -1798    -1856    -2409    -3082    -3370    -3067 
   -2417    -1884    -1664    -1587    -1478    -1371    -1422    -1703 
   -2103    -2500    -2857    -3133    -3352    -3603    -3815    -3765 
   -3241    -2257    -1174     -415     -168     -411     -959    -1642 
   -2493    -3492    -4357    -4696    -4253    -3140    -1837     -850 
    -372     -286     -495     -970    -1524    -1980    -2411    -2953 
   -3584    -4137    -4436    -4302    -3588    -2409    -1225     -537 
    -525     -928    -1247    -1331    -1537    -2157    -2997    -3539 
   -3380    -2700    -2093    -1863    -1868    -1942    -2074    -2276 
   -2516    -2683    -2637    -2470    -2474    -2631    -2523    -1969 
   -1371    -1266    -1698    -2196    -2365    -2311    -2438    -2857 
   -3159    -2817    -1845     -953     -907    -1719    -2735    -3354 
   -3404    -3075    -2648    -2280    -2064    -2031    -2068    -2045 
   -1941    -1790    -1656    -1609    -1695    -2008    -2597    -3234 
   -3543    -3419    -3078    -2693    -2223    -1571     -776     -163 
    -193     -946    -2002    -2887    -3408    -3657    -3746    -3593 
   -3129    -2546    -2145    -1993    -1910    -1776    -1606    -1480 
   -1593    -2076    -2837    -3526    -3605    -2837    -1698     -943 
    -866    -1223    -1602    -1760    -1837    -2224    -2998    -3742 
   -4017    -3742    -3134    -2481    -1937    -1444     -859     -301 
    -233    -1038    -2506    -3840    -4290    -3771    -2763    -1813 
   -1248    -1161    -1512    -2133    -2724    -3045    -3033    -2760 
   -2400    -2178    -2162    -2147    -1922    -1590    -1429    -1591 
   -2011    -2454    -2655    -2593    -2412    -2238    -2257    -2524 
   -2650    -2278    -1659    -1367    -1696    -2315    -2597    -2443 
   -2303    -2496    -2976    -3385    -3204    -2419    -1709    -1645 
   -2127    -2573    -2465    -1883    -1455    -1628    -2108    -2297 
   -2093    -1869    -1904    -2189    -2559    -2867    -2968    -2741 
   -2251    -1686    -1250    -1173    -1557    -2322    -3257    -3917 
   -3856    -3138    -2319    -1953    -2115    -2288    -1846     -760 
     251      448     -175    -1227    -2457    -3603    -4430    -5016 
   -5379    -5190    -4290    -3033    -1867     -954     -337      -78 
    -152     -438     -876    -1580    -2555    -3366    -3576    -3244 
   -2717    -2354    -2304    -2371    -2389    -2465    -2540    -2332 
   -1929    -1698    -1701    -1784    -1898    -1952    -1826    -1632 
   -1691    -2286    -3311    -4131    -4199    -3688    -3029    -2319 
   -1547     -886     -635     -926    -1389    -1540    -1468    -1609 
   -2143    -2903    -3608    -3987    -3829    -3249    -2562    -1788 
    -934     -390     -523    -1389    -2741    -3920    -4240    -3686 
   -2891    -2409    -2172    -1815    -1188     -475     -321    -1246 
   -2640    -3414    -3285    -2600    -1861    -1642    -2000    -2431 
   -2685    -2952    -3312    -3456    -2998    -2053    -1228    -1005 
   -1368    -1922    -2211    -2070    -1748    -1644    -1971    -2593 
   -3165    -3399    -3106    -2394    -1845    -1888    -2224    -2355 
   -2178    -1861    -1609    -1568    -1787    -2265    -2856    -3165 
   -2963    -2531    -2324    -2496    -2833    -2995    -2783    -2263 
   -1667    -1167     -828     -726     -934    -1471    -2281    -3098 
   -3507    -3379    -3068    -3021    -3207    -3069    -2203     -978 
    -247     -459    -1312    -2181    -2686    -2909    -3123    -3366 
   -3323    -2793    -2115    -1761    -1738    -1799    -1829    -1934 
   -2218    -2436    -2300    -1975    -1872    -2142    -2543    -2802 
   -2963    -3152    -3245    -2968    -2259    -1482    -1058     -994 
   -1113    -1451    -2022    -2569    -2816    -2783    -2789    -3060 
   -3352    -3233    -2710    -2180    -1867    -1645    -1363    -1120 
   -1102    -1383    -1879    -2350    -2589    -2664    -2718    -2647 
   -2343    -2030    -2079    -2533    -3002    -3064    -2708    -2315 
   -2180    -2145    -1898    -1458    -1120    -1127    -1452    -1912 
   -2482    -3167    -3634    -3582    -3215    -2847    -2547    -2288 
   -2012    -1660    -1255     -961    -1021    -1534    -2290    -2907 
   -3138    -3068    -2925    -2793    -2624    -2362    -2006    -1713 
   -1710    -1944    -2123    -2166    -2278    -2525    -2625    -2349 
   -1957    -1917    -2204    -2241    -1750    -1279    -1490    -2347 
   -3203    -3419    -2976    -2482    -2384    -2459    -2282    -1846 
   -1561    -1732    -2091    -2173    -2060    -2180    -2550    -2778 
   -2577    -2103    -1863    -2100    -2489    -2575    -2249    -1792 
   -1563    -1668    -2010    -2424    -2781    -3061    -3192    -3057 
   -2714    -2265    -1745    -1354    -1394    -1927    -2633    -2994 
   -2724    -2080    -1549    -1375    -1498    -1755    -2029    -2293 
   -2556    -2830    -3138    -3430    -3469    -3029    -2236    -1463 
   -1023    -1021    -1282    -1566    -1756    -1858    -2058    -2515 
   -3153    -3769    -4052    -3765    -3067    -2297    -1614    -1066 
    -724     -710    -1132    -1860    -2466    -2694    -2702    -2716 
   -2783    -2855    -2871    -2791    -2540    -2111    -1703    -1520 
   -1640    -2033    -2420    -2446    -2108    -1807    -1919    -2370 
   -2648    -2412    -1933    -1753    -2114    -2729    -3092    -3017 
   -2710    -2428    -2305    -2276    -2165    -1966    -1831    -1831 
   -1877    -1852    -1813    -1895    -2101    -2377    -2668    -2857 
   -2860    -2650    -2239    -1811    -1579    -1560    -1680    -1925 
   -2326    -2862    -3322    -3415    -3051    -2447    -1998    -1854 
   -1795    -1636    -1472    -1444    -1675    -2199    -2739    -2949 
   -2847    -2685    -2637    -2637    -2477    -2135    -1798    -1580 
   -1513    -1615    -1852    -2187    -2601    -2961    -3114    -3028 
   -2748    -2357    -2006    -1746    -1476    -1239    -1287    -1750 
   -2474    -3106    -3300    -3041    -2596    -2201    -1983    -1881 
   -1750    -1624    -1632    -1871    -2366    -2863    -3040    -2930 
   -2749    -2542    -2232    -1811    -1421    -1351    -1764    -2450 
   -2982    -3073    -2756    -2326    -2064    -1980    -1912    -1763 
   -1586    -1548    -1776    -2234    -2748    -3150    -3361    -3342 
   -3053    -2528    -1910    -1428    -1264    -1385    -1617    -1875 
   -2120    -2305    -2442    -2513    -2452    -2334    -2312    -2393 
   -2513    -2639    -2729    -2745    -2700    -2555    -2269    -1917 
   -1622    -1401    -1258    -1273    -1556    -2097    -2652    -3001 
   -3173    -3260    -3249    -3075    -2677    -2151    -1723    -1493 
   -1410    -1429    -1543    -1750    -2003    -2192    -2282    -2371 
   -2555    -2794    -2953    -2944    -2790    -2639    -2571    -2409 
   -1984    -1516    -1324    -1409    -1541    -1641    -1879    -2371 
   -2980    -3403    -3411    -3079    -2679    -2354    -2037    -1672 
   -1422    -1452    -1651    -1810    -1896    -1992    -2189    -2529 
   -2911    -3179    -3289    -3223    -2911    -2362    -1725    -1279 
   -1302    -1736    -2123    -2122    -1937    -1922    -2084    -2259 
   -2389    -2494    -2596    -2627    -2533    -2424    -2440    -2528 
   -2506    -2319    -2084    -1895    -1772    -1690    -1625    -1622 
   -1809    -2266    -2852    -3235    -3246    -2964    -2501    -1989 
   -1676    -1705    -1933    -2160    -2292    -2335    -2388    -2535 
   -2681    -2623    -2313    -1979    -1849    -1907    -2003    -2029 
   -1945    -1849    -1948    -2258    -2589    -2801    -2787    -2474 
   -2041    -1825    -1944    -2258    -2528    -2596    -2515    -2416 
   -2322    -2174    -1954    -1768    -1740    -1869    -2096    -2343 
   -2528    -2633    -2659    -2598    -2532    -2509    -2438    -2228 
   -1949    -1771    -1796    -1988    -2196    -2309    -2377    -2485 
   -2597    -2593    -2434    -2200    -2008    -1922    -1926    -1939 
   -1966    -2099    -2317    -2516    -2651    -2700    -2643    -2505 
