Origin Time       2025/03/30 22:55:00
Lat.              41.993
Long.             142.725
Depth. (km)       55
Mag.              4.6
Station Code      HKD185
Station Lat.      42.7756
Station Long.     141.4016
Station Height(m) 266
Record Time       2025/03/30 22:56:41
Sampling Freq(Hz) 100Hz
Duration Time(s)  60
Dir.              N-S
Scale Factor      7845(gal)/8223790
Max. Acc. (gal)   1.812
Last Correction   2025/03/30 22:56:41
Memo.             
[...]
     970     1067     1112     1132     1155     1163     1248     1424 
    1539     1512     1428     1339     1215     1135     1159     1169 
    1120     1112     1193     1335     1437     1422     1340     1302 
    1343     1398     1379     1262     1101     1019     1086     1209 
    1246     1182     1131     1177     1229     1155     1073     1208 
    1512     1707     1683     1559     1413     1240     1136     1113 
    1055      962      889      892     1036     1244     1410     1502 
    1502     1437     1318     1194     1228     1412     1516     1424 
    1206     1051     1108     1254     1312     1345     1406     1395 
    1325     1283     1270     1263     1267     1259     1185     1108 
    1142     1220     1250     1308     1443     1490     1327     1092 
     957     1020     1256     1399     1281     1090     1044     1136 
    1259     1321     1300     1286     1390     1549     1574     1362 
    1062      936     1026     1171     1271     1344     1424     1443 
    1328     1208     1224     1324     1391     1375     1283     1154 
    1059     1066     1154     1283     1412     1464     1394     1213 
    1046     1032     1150     1302     1401     1404     1374     1343 
    1281     1190     1094     1036     1051     1150     1312     1475 
    1571     1572     1541     1506     1393     1213     1062      984 
     990     1071     1217     1321     1306     1266     1206     1131 
    1177     1282     1297     1247     1194     1242     1431     1579 
    1522     1298     1162     1289     1471     1382     1021      727 
     808     1134     1340     1324     1224     1189     1316     1530 
    1602     1497     1401     1333     1209     1088     1061     1117 
    1229     1336     1297     1140     1075     1183     1352     1439 
    1375     1231     1131     1115     1192     1335     1420     1399 
    1390     1421     1352     1138      972     1026     1236     1444 
    1520     1468     1404     1316     1138     1012     1082     1219 
    1259     1285     1393     1444     1298     1071      977     1069 
    1252     1409     1443     1289     1053      967     1104     1340 
    1521     1507     1337     1166     1058     1028     1066     1139 
    1283     1483     1586     1510     1350     1244     1264     1352 
    1351     1225     1143     1183     1206     1151     1097     1127 
    1246     1339     1341     1344     1414     1487     1468     1383 
    1358     1370     1336     1356     1489     1534     1382     1155 
     965      837      768      739      743      797     1027     1431 
    1715     1711     1548     1424     1410     1420     1391     1345 
    1255     1128     1040      966      865      838      972     1210 
    1444     1543     1491     1428     1462     1570     1559     1355 
    1177     1107     1067     1111     1246     1354     1325     1212 
    1217     1366     1472     1433     1302     1202     1188     1224 
    1247     1227     1232     1304     1399     1445     1371     1231 
    1124     1026      893      804      888     1177     1541     1752 
    1648     1312     1021      999     1219     1439     1467     1352 
    1255     1264     1348     1387     1314     1206     1154     1119 
    1024      966     1063     1248     1453     1655     1717     1587 
    1418     1331     1302     1221     1043      913      981     1132 
    1193     1182     1193     1250     1293     1277     1262     1323 
    1439     1470     1296     1078     1044     1190     1383     1475 
    1383     1194     1077     1085     1100     1065     1096     1291 
    1570     1674     1525     1364     1269     1088      872      847 
    1088     1374     1494     1528     1537     1456     1306     1171 
    1146     1231     1345     1490     1567     1425     1169     1011 
    1038     1161     1204     1142     1135     1237     1312     1309 
    1308     1270     1167     1093     1102     1174     1221     1216 
    1270     1414     1494     1408     1262     1186     1196     1266 
    1360     1386     1293     1162     1125     1239     1410     1455 
    1320     1169     1165     1341     1567     1582     1302     1009 
    1016     1283     1501     1513     1401     1270     1165     1059 
     976     1021     1178     1267     1194     1044     1004     1136 
    1287     1344     1341     1296     1188     1061     1017     1112 
    1283     1404     1393     1341     1379     1429     1358     1231 
    1169     1217     1343     1445     1422     1291     1210     1223 
    1190     1129     1146     1282     1540     1755     1699     1421 
    1193     1163     1248     1317     1287     1155     1050     1073 
    1159     1188     1107      972      895      980     1204     1391 
    1470     1574     1725     1742     1567     1337     1185     1100 
    1043     1115     1287     1287     1074      913      930     1023 
    1057     1039     1101     1259     1414     1502     1512     1472 
    1409     1351     1343     1386     1375     1233     1097     1088 
    1136     1182     1250     1324     1325     1273     1305     1424 
    1505     1497     1409     1283     1154     1004      919     1012 
    1236     1468     1629     1624     1436     1217     1117     1150 
    1270     1375     1321     1146     1088     1242     1416     1395 
    1161      949     1003     1215     1336     1313     1219     1136 
    1138     1196     1221     1264     1437     1583     1472     1204 
    1012     1009     1129     1174     1108     1115     1291     1510 
    1605     1560     1426     1250     1151     1169     1208     1289 
    1394     1351     1135      957     1015     1278     1475     1413 
    1219     1109     1117     1215     1448     1728     1819     1621 
    1273     1023      970     1003     1015     1027     1124     1285 
    1337     1213     1134     1279     1460     1452     1328     1223 
    1144     1069     1038     1101     1235     1336     1313     1208 
    1147     1185     1287     1366     1405     1458     1475     1443 
    1456     1475     1381     1237     1239     1378     1401     1221 
     989      880      996     1236     1339     1264     1235     1320 
    1370     1286     1123     1054     1148     1270     1344     1375 
    1313     1217     1223     1300     1293     1190     1138     1219 
    1344     1382     1355     1379     1386     1269     1125     1043 
    1051     1186     1345     1363     1216     1047     1032     1217 
    1497     1659     1568     1348     1162     1070     1147     1308 
    1332     1240     1229     1333     1409     1343     1200     1097 
    1055     1057     1098     1209     1413     1593     1597     1451 
    1318     1298     1364     1436     1418     1314     1263     1325 
    1387     1320     1093      811      658      720      939     1221 
    1480     1648     1713     1683     1566     1393     1233     1151 
    1139     1177     1213     1162     1085     1069     1090     1159 
    1294     1436     1487     1394     1221     1084     1020     1007 
    1047     1159     1289     1324     1246     1189     1243     1328 
    1335     1266     1217     1259     1379     1487     1482     1367 
    1231     1173     1229     1235     1107     1108     1355     1590 
    1591     1374     1146     1075     1129     1198     1196     1134 
    1140     1270     1433     1541     1560     1507     1398     1220 
    1039      986     1085     1282     1472     1474     1277     1098 
    1051     1085     1155     1200     1169     1139     1220     1355 
    1379     1286     1209     1189     1196     1254     1383     1509 
    1499     1356     1233     1175     1102     1028      992      989 
    1051     1213     1398     1459     1406     1370     1368     1333 
    1235     1194     1310     1426     1421     1347     1289     1327 
    1402     1348     1163     1051     1171     1398     1512     1472 
    1316     1069      826      756      924     1166     1335     1489 
    1656     1711     1576     1370     1248     1263     1391     1474 
    1381     1177      990      904      895      912     1003     1143 
    1243     1287     1289     1282     1324     1410     1478     1431 
    1243     1040      957     1024     1161     1219     1174     1165 
    1270     1418     1497     1453     1314     1177     1173     1291 
    1366     1318     1221     1104      997     1047     1298     1526 
    1548     1471     1436     1464     1471     1318     1107     1094 
    1248     1348     1331     1224     1108     1090     1144     1212 
    1318     1389     1318     1170     1046     1020     1165     1383 
    1466     1362     1181     1054     1057     1155     1354     1605 
    1663     1489     1362     1387     1467     1516     1497     1422 
    1270     1082      976      950      996     1128     1228     1162 
     965      858     1000     1298     1583     1732     1669     1460 
    1228     1055      972      963      980     1020     1183     1439 
    1567     1479     1333     1291     1393     1526     1509     1304 
    1028      743      544      635     1071     1591     1860     1802 
    1618     1521     1534     1524     1374     1097      816      670 
     672      746      904     1171     1456     1621     1567     1323 
    1108     1140     1399     1630     1613     1426     1294     1279 
    1351     1422     1329     1070      823      708      780     1107 
    1613     1941     1837     1534     1390     1471     1586     1472 
    1082      657      469      612     1000     1494     1933     2124 
    1939     1451      963      827     1073     1318     1273     1136 
    1263     1622     1852     1733     1382     1035      901     1013 
    1132     1039      788      533      415      556      962     1471 
    1803     1715     1323     1062     1201     1620     1954     1858 
    1440     1170     1194     1209      965      591      446      677 
    1071     1314     1351     1409     1626     1907     2174     2354 
    2232     1799     1393     1174      990      834      772      677 
     546      625     1004     1429     1551     1267      770      395 
     444      864     1356     1792     2107     2157     1890     1452 
    1169     1236     1445     1468     1223      896      758      936 
    1252     1414     1421     1494     1656     1710     1563     1377 
    1348     1468     1545     1409     1120      915      861      823 
     726      561      311       59       58      515     1345     2166 
    2581     2529     2268     2029     1825     1509     1096      904 
    1100     1399     1475     1304     1009      772      787     1059 
    1439     1733     1777     1570     1228     1023     1252     1748 
    1937     1563      958      639      780     1101     1278     1270 
    1193     1119     1016      812      491      190      139      440 
     985     1544     1937     2118     2085     1861     1576     1418 
    1464     1578     1561     1422     1359     1447     1497     1309 
     927      550      337      361      646     1115     1594     1939 
    2146     2286     2340     2124     1485      591      -58      -74 
     506     1259     1699     1707     1594     1598     1659     1707 
    1813     1895     1648      946      248      216      824     1401 
    1582     1588     1657     1691     1516     1242     1061      885 
     604      390      446      650      734      718      854     1250 
    1753     2114     2266     2304     2115     1487      723      453 
     834     1470     1981     2265     2245     1788     1078      579 
     514      712      835      731      693     1021     1493     1736 
    1779     1822     1846     1664     1178      594      276      319 
     537      889     1394     1788     1806     1578     1416     1491 
    1709     1761     1494     1104      838      858     1255     1830 
    2118     1858     1240      635      271      251      622     1170 
    1532     1563     1350     1077      994     1264     1775     2174 
    2212     1985     1701     1344      765       52     -336       16 
    1005     2026     2430     2033     1281      764      652      783 
    1032     1331     1595     1755     1767     1634     1503     1644 
    2046     2212     1813     1139      629      410      383      403 
     448      612      901     1262     1688     2080     2289     2253 
    1945     1451      988      753      768      842      805      812 
    1090     1433     1418     1119     1035     1382     1794     1742 
    1158      561      538     1134     1908     2431     2434     1826 
     946      353      286      631     1119     1377     1185      789 
     695     1100     1660     1938     1857     1549     1178      981 
    1020     1120     1206     1285     1302     1302     1339     1397 
    1528     1715     1740     1451     1024      796      850      974 
    1036     1117     1244     1333     1474     1776     2034     1975 
    1607     1115      658      356      326      618     1032     1293 
    1399     1525     1622     1534     1410     1499     1661     1567 
    1150      689      629     1127     1841     2266     2137     1642 
    1254     1173     1217     1117      770      365      191      328 
     681     1131     1572     1902     2039     1960     1609     1047 
     589      518      780     1063     1252     1571     2092     2529 
    2655     2428     1827      927      -16     -629     -638     -149 
     411      785     1146     1703     2344     2853     3092     2932 
    2367     1634     1053      847     1059     1475     1667     1344 
     706      143     -193     -203      226      908     1467     1707 
    1682     1613     1661     1715     1678     1671     1736     1709 
    1437      926      434      368      776     1281     1548     1490 
    1250     1129     1310     1595     1638     1463     1360     1328 
    1119      730      472      623     1150     1780     2230     2354 
    2170     1776     1327     1016      963     1053      976      637 
     344      426      827     1204     1317     1254     1300     1564 
    1761     1705     1606     1622     1671     1641     1448     1135 
     882      814      897     1021     1101     1200     1429     1687 
    1773     1660     1435     1183      915      615      476      710 
    1186     1566     1645     1491     1296     1175     1170     1271 
    1418     1536     1521     1323     1044      818      704      730 
     876     1075     1260     1363     1345     1310     1436     1767 
    2122     2236     2058     1792     1560     1343     1123      880 
     691      662      738      846      967     1048     1098     1239 
    1456     1572     1526     1439     1345     1158      868      639 
     689     1055     1518     1796     1811     1717     1714     1860 
    1973     1864     1567     1208      832      472      245      288 
     544      746      769      791     1000     1329     1614     1804 
    1918     1942     1850     1664     1437     1224     1109     1188 
    1386     1491     1420     1250     1084      972      868      756 
     747      903     1113     1277     1394     1443     1381     1337 
    1509     1822     1956     1740     1331      994      851      878 
    1050     1368     1783     1998     1707     1120      780      911 
    1259     1449     1378     1266     1286     1324     1267     1188 
    1148     1112     1101     1132     1100     1001      954      980 
    1084     1259     1393     1421     1416     1435     1466     1503 
    1453     1196      807      556      689     1148     1533     1621 
    1591     1622     1660     1532     1228     1001     1053     1293 
    1494     1521     1378     1152     1007     1058     1290     1541 
    1583     1368     1075      885      861      920      954      972 
    1042     1244     1582     1877     1944     1738     1318      861 
     598      596      738      893     1059     1297     1578     1779 
    1837     1777     1641     1509     1437     1374     1281     1229 
    1259     1274     1185     1067     1080     1215     1300     1219 
    1043      942     1050     1325     1576     1637     1487     1267 
    1132     1071     1074     1197     1377     1493     1440     1216 
    1046     1058     1111     1084      986      895      884      930 
    1032     1224     1402     1425     1355     1367     1529     1721 
    1726     1501     1275     1277     1471     1622     1560     1383 
    1286     1281     1233     1119     1088     1152     1078      816 
     656      795     1084     1274     1305     1302     1374     1468 
    1451     1355     1368     1533     1707     1744     1605     1325 
     972      679      557      649      939     1217     1286     1279 
    1401     1633     1902     2127     2135     1841     1378      951 
     696      653      785     1005     1169     1201     1131      966 
     773      723      928     1320     1714     1952     1926     1613 
    1181      924      980     1243     1516     1641     1547     1337 
    1179     1084     1011      984     1016     1085     1152     1201 
    1278     1431     1590     1595     1397     1220     1323     1629 
    1802     1669     1394     1260     1312     1300     1040      684 
     480      460      533      665      877     1197     1539     1773 
    1891     1879     1672     1329     1069     1062     1247     1432 
    1447     1270     1097     1109     1239     1332     1324     1250 
    1198     1197     1215     1251     1282     1274     1229     1165 
    1146     1224     1374     1594     1842     1987     1961     1715 
    1231      739      491      490      685      966     1111     1113 
    1148     1232     1243     1111      978     1077     1386     1665 
    1725     1570     1372     1250     1185     1198     1332     1489 
    1505     1374     1200     1020      859      837     1062     1453 
    1799     1950     1875     1637     1362     1151     1028      972 
     954      996     1128     1224     1116      899      861     1098 
    1371     1443     1344     1210     1125     1119     1175     1358 
    1653     1841     1755     1444     1065      807      795      989 
    1258     1464     1552     1532     1420     1269     1197     1250 
    1341     1393     1381     1316     1223     1097      980      930 
     930     1009     1194     1381     1493     1536     1498     1416 
    1323     1192     1061     1040     1155     1378     1661     1849 
    1773     1449     1032      711      607      679      843     1123 
    1491     1767     1813     1676     1502     1399     1354     1266 
    1074      838      699      702      757      761      737      851 
    1165     1498     1634     1537     1397     1390     1460     1482 
    1467     1534     1722     1868     1763     1426     1167     1189 
    1305     1260     1086     1001     1121     1263     1212     1070 
    1077     1264     1482     1615     1691     1723     1636     1367 
    1017      808      846     1000     1100     1082      986      938 
    1023     1213     1391     1420     1263     1036      870      789 
     807      959     1213     1494     1776     2015     2104     1946 
