Origin Time       2025/03/30 22:55:00
Lat.              41.993
Long.             142.725
Depth. (km)       55
Mag.              4.6
Station Code      HKD131
Station Lat.      42.4206
Station Long.     141.0809
Station Height(m) 13
Record Time       2025/03/30 22:56:38
Sampling Freq(Hz) 100Hz
Duration Time(s)  60
Dir.              U-D
Scale Factor      7845(gal)/8223790
Max. Acc. (gal)   1.230
Last Correction   2025/03/30 22:56:38
Memo.             
[...]
   16148    16119    16077    16160    15954    15682    15781    15952 
   15842    15647    15699    15948    15938    15657    15778    16221 
   16254    15988    15886    15827    15615    15460    15593    15786 
   15799    15892    16175    16177    15736    15534    15827    15971 
   15998    16330    16322    15688    15456    15877    16029    15768 
   15716    15912    15936    15684    15484    15624    15793    15734 
   15901    16313    16195    15728    15820    16117    15931    15781 
   16005    16046    15831    15869    16070    15939    15668    15712 
   15812    15697    15642    15739    15832    15809    15689    15792 
   16055    15925    15599    15776    16274    16305    15870    15716 
   15874    15777    15631    15843    16048    15988    15912    15842 
   15743    15816    15808    15607    15858    16335    16112    15657 
   15653    15722    15838    16089    15951    15633    15842    16170 
   16020    15921    16114    15962    15611    15697    15898    15836 
   15846    15843    15623    15765    16120    15853    15574    15954 
   16098    15747    15669    15862    15940    15936    15951    16015 
   16071    15966    15776    15734    15757    15716    15777    15880 
   15808    15747    15828    15809    15711    15859    16119    16033 
   15781    15816    15971    15998    15944    15803    15772    15898 
   15807    15699    15931    16024    15822    15832    16006    16002 
   15861    15743    15816    15916    15726    15641    15942    16065 
   15894    15876    15963    15855    15800    16105    16151    15668 
   15569    15870    15777    15670    15944    16017    15838    15778 
   15707    15681    15916    16114    16078    16012    15947    15778 
   15677    15761    15743    15693    16025    16276    16009    15843 
   15923    15790    15623    15711    15862    15894    15844    15812 
   15857    15957    16015    15901    15722    15684    15711    15773 
   15901    15948    15957    15951    15935    16060    16042    15800 
   15823    15911    15742    15712    15824    15793    15874    16042 
   15893    15735    15877    15861    15736    15955    16124    15921 
   15765    15851    15975    15970    15862    15793    15735    15701 
   15866    16065    16000    15817    15769    15799    15769    15655 
   15669    15925    16052    15927    15919    16086    16123    15908 
   15738    15762    15678    15546    15673    15947    16078    15954 
   15795    15807    15925    16096    16055    15762    15808    15971 
   15664    15583    16011    16097    15878    15920    15998    15817 
   15600    15626    15796    15827    15788    15903    16042    15967 
   15811    15890    16098    16074    15861    15826    16011    15963 
   15651    15645    15876    15885    15832    15867    15804    15731 
   15784    15801    15792    15886    15993    16110    16175    15881 
   15534    15639    15846    15805    15824    15967    15961    15903 
   15988    16012    15934    15954    15912    15708    15680    15884 
   15903    15728    15739    15861    15843    15766    15822    16032 
   16094    15947    15967    15958    15709    15709    15843    15742 
   15808    16000    15857    15751    16012    16086    15785    15718 
   15935    15900    15720    15751    15804    15820    15988    16033 
   15828    15851    15993    15728    15538    15865    16085    15954 
   15888    15904    15908    15938    15904    15881    15932    15823 
   15703    15861    15878    15654    15743    16016    16016    15896 
   15930    16009    15927    15824    15817    15747    15681    15751 
   15847    15880    15820    15774    15938    16150    16071    15785 
   15655    15789    15938    15897    15826    15882    15838    15674 
   15716    15932    16152    16291    16119    15763    15600    15568 
   15572    15709    15844    15815    15763    15870    16009    15975 
   15979    16158    16163    16016    15969    15842    15741    15862 
   15927    15863    15743    15560    15560    15765    15932    16005 
   15952    15832    15780    15758    15741    15738    15822    16125 
   16276    15893    15572    15747    15984    16056    16082    16082 
   16060    15904    15651    15701    15963    15865    15603    15718 
   15897    15786    15727    15866    15942    15921    15967    16017 
   15893    15734    15793    15855    15703    15730    16021    16039 
   15819    15855    15958    15804    15712    15819    15894    16038 
   16212    16098    15803    15624    15669    15858    15943    15930 
   15871    15583    15344    15556    15916    16077    16051    15913 
   15855    15900    15855    15832    15986    16108    16065    15986 
   15951    15874    15728    15672    15813    15948    15842    15747 
   15924    15942    15650    15647    15874    15822    15827    16120 
   16105    15758    15684    15835    15867    15842    15812    15793 
   15900    16048    16017    15823    15812    15994    15921    15853 
   16101    15948    15446    15587    16002    15869    15731    15994 
   15996    15643    15611    15938    16092    15903    15723    15854 
   15990    15826    15772    16079    16222    15942    15718    15786 
   15866    15828    15792    15948    16183    15998    15647    15782 
   15944    15699    15600    15805    15874    15822    15943    16071 
   15844    15531    15614    15889    15985    16005    16100    16143 
   15990    15693    15481    15587    15869    15957    15916    15925 
   15835    15803    15959    15923    15881    16225    16367    16044 
   15834    15739    15558    15545    15708    15932    16085    15809 
   15475    15728    16012    15782    15630    15924    16240    16125 
   15822    15858    15981    15712    15388    15579    16055    16140 
   15989    16044    15997    15778    15792    16001    16029    15786 
   15597    15668    15774    15834    15946    15903    15746    15907 
   16097    15993    16033    16040    15623    15558    16125    16258 
   15734    15489    15662    15761    15921    16216    16190    15850 
   15552    15408    15535    15867    16062    16065    15954    15770 
   15827    16116    16060    15736    15770    15954    15871    15934 
   16182    15943    15385    15373    15873    16071    15880    15907 
   16060    15963    15873    15873    15844    15904    15896    15735 
   15718    15857    15873    15823    15975    16019    15720    15646 
   15828    15789    15782    15973    15984    15870    15904    15948 
   15878    15930    16128    16078    15842    15855    15907    15699 
   15643    15862    15813    15519    15600    15996    16098    15942 
   15966    16087    15992    15869    15940    15934    15763    15727 
   15786    15708    15611    15778    16019    15859    15620    15858 
   16066    15865    15876    16148    15998    15607    15658    15884 
   15813    15828    16060    16023    15817    15832    15850    15777 
   15909    16146    16108    15831    15718    15816    15758    15668 
   15807    15801    15611    15705    15973    16094    16105    15981 
   15817    15886    15986    15793    15593    15778    16096    16093 
   15955    15928    15780    15611    15677    15795    15863    15921 
   15923    15944    15996    15908    15812    15938    15947    15732 
   15776    15994    16009    15919    15854    15871    15896    15734 
   15684    15967    16077    15869    15768    15751    15618    15527 
   15673    15913    15905    15780    16019    16356    16185    15827 
   15815    15903    15774    15677    15839    15940    15885    16035 
   16128    15784    15477    15627    15890    15824    15716    15919 
   15951    15778    15885    15928    15828    16044    16141    15832 
   15768    15994    15947    15807    15938    16005    15854    15866 
   15947    15803    15755    15881    15758    15583    15718    15836 
   15776    15885    16067    15932    15849    16097    16006    15607 
   15724    16027    15884    15780    15958    15919    15685    15726 
   15971    16058    15965    15865    15769    15734    15836    15857 
   15704    15704    15859    15804    15704    15957    16247    16160 
   16052    16224    16144    15558    15346    15944    16289    15812 
   15479    15738    15884    15741    15736    15788    15670    15596 
   15674    15785    15959    16179    16283    16150    15831    15660 
   15878    16124    15966    15753    15846    15755    15422    15689 
   16348    16298    15793    15758    15915    15768    15754    16004 
   15901    15603    15753    16001    15897    15793    15801    15746 
   15865    16151    16050    15585    15543    15921    16044    16048 
   16117    15965    15747    15654    15645    15745    15820    15865 
   15885    15715    15630    15939    16260    16202    15944    15803 
   15830    15931    15957    15854    15801    15842    15827    15749 
   15672    15628    15612    15669    15861    16027    16042    15975 
   15892    15865    15878    15917    16035    16011    15750    15689 
   15961    16124    15993    15772    15681    15803    15948    15925 
   15822    15811    15905    15917    15750    15670    15804    15839 
   15765    15871    15973    15994    16194    16191    15849    15832 
   15923    15654    15660    15925    15827    15751    15897    15834 
   15723    15738    15722    15838    16067    16033    15766    15676 
   15808    15874    15896    16029    16070    15930    15865    15903 
   15904    15901    15874    15844    15836    15703    15604    15792 
   16023    16042    15985    16002    15921    15673    15649    15950 
   16104    15969    15866    15828    15699    15701    15889    15890 
   15790    15871    15979    15985    15915    15815    15742    15750 
   15971    16227    16147    15924    15808    15665    15623    15839 
   15962    15823    15769    15905    15954    15774    15550    15618 
   15861    15866    15804    15832    15680    15614    15916    16132 
   16019    15851    15862    16056    16100    15938    16019    16204 
   16125    16017    15890    15620    15492    15678    16055    16213 
   15917    15673    15761    15816    15761    15795    15915    15930 
   15790    15786    15917    15889    15803    15831    15957    16063 
   15931    15755    15853    15915    15738    15687    15839    15822 
   15645    15735    16033    16151    16140    16090    15890    15743 
   15753    15728    15750    15869    15888    15796    15743    15846 
   16044    16102    16009    15907    15730    15570    15681    15890 
   16019    16159    16002    15515    15507    15975    16032    15835 
   15985    16158    16028    15776    15611    15758    16070    16021 
   15720    15664    15719    15687    15878    16177    15969    15471 
   15435    15801    15969    15888    15862    15904    15955    16060 
   16052    15870    15844    16009    16044    15947    15844    15735 
   15685    15685    15676    15699    15786    15946    16144    16177 
   15946    15838    16085    16200    15921    15738    15811    15705 
   15523    15681    15859    15784    15786    15908    16040    16232 
   16164    15712    15564    16013    16255    15855    15489    15479 
   15512    15665    15885    15867    15882    16114    16195    16075 
   15974    15851    15697    15646    15716    15846    16028    16208 
   16135    15751    15426    15340    15510    16031    16410    16162 
   15812    15838    15881    15704    15584    15633    15701    15850 
   16154    16370    16210    15745    15511    15854    16249    16158 
   15796    15518    15473    15646    15865    16051    15958    15402 
   15178    15923    16710    16767    16470    15862    15148    15201 
   15796    16212    16511    16443    15844    15516    15622    15546 
   15454    15724    15942    15688    15379    15628    16143    16422 
   16596    16443    15803    15414    15512    15662    15828    15984 
   16012    15990    15867    15651    15547    15630    15940    16194 
   15951    15622    15684    15857    16032    16177    15990    15708 
   15808    16205    16464    16345    15973    15552    15272    15260 
   15394    15655    16016    16046    15653    15372    15616    16112 
   16228    16058    16121    16221    16200    16403    16495    15951 
   15353    15322    15591    15901    16096    15843    15350    15342 
   15811    16021    15896    15842    15741    15623    15797    16027 
   16160    16306    16232    15935    15707    15603    15687    15996 
   16204    16051    15804    15773    15770    15639    15618    15728 
   15712    15750    16002    15917    15503    15444    15593    15834 
   16356    16368    15684    15533    16081    16310    16137    16195 
   16310    15942    15500    15653    15973    15834    15649    15777 
   15943    16193    16429    16241    15859    15535    15209    15125 
   15284    15481    15786    15950    15894    16024    15996    15669 
   15874    16271    16120    16191    16675    16524    15691    15228 
   15503    15691    15476    15619    16170    16421    16371    16382 
   16200    15626    15394    15811    15912    15453    15385    15774 
   15946    15985    16046    15828    15403    15175    15461    16245 
   16827    16573    15981    15785    15695    15330    15149    15427 
   15822    15978    15842    15772    15898    15861    15826    16120 
   16384    16347    16048    15813    16198    16760    16519    15653 
   14839    14575    15253    16303    16691    16374    15835    15336 
   15130    15265    15410    15471    15826    16424    16567    16259 
   16174    16129    15718    15446    15669    16028    16243    16384 
   16552    16510    16038    15480    15122    15049    15492    16151 
   16378    16164    15834    15488    15244    15483    16264    16729 
   16174    15313    15187    15661    16069    16201    16032    15633 
   15329    15356    15650    16054    16389    16378    15986    15681 
   15703    15705    15668    15866    15978    15824    15924    16209 
   16217    16131    15975    15665    15633    15877    15992    15965 
   15747    15444    15464    15603    15666    16102    16524    16189 
   15786    16043    16240    15827    15442    15601    15938    15981 
   15800    15789    16038    16073    15677    15423    15624    15774 
   15745    15928    16185    16279    16275    16023    15666    15654 
   15882    16029    15996    15700    15368    15376    15687    16019 
   16059    15858    15801    15800    15726    15722    15623    15688 
   16252    16538    16166    15874    15873    15869    15874    16012 
   16254    16301    15982    15619    15572    15734    15692    15568 
   15697    15657    15418    15653    16132    16220    16027    15934 
   15997    16036    16052    16181    16201    15861    15453    15542 
   15979    16056    15801    15592    15325    15206    15561    15905 
   15948    16151    16393    16232    16052    15990    15689    15614 
   15975    15989    15678    15708    15816    15682    15776    16144 
   16185    15839    15615    15718    15919    15969    15897    15907 
   15898    15642    15561    16119    16590    16395    16120    15828 
   15272    15130    15728    16347    16313    15742    15294    15329 
   15608    15781    15784    15799    15909    16051    16141    16206 
   16222    16079    15942    15915    15765    15692    15954    16050 
   15765    15614    15654    15592    15631    15912    16074    15970 
   15927    15967    15874    15903    16038    15782    15514    15834 
   16243    16231    16113    16086    15903    15564    15391    15514 
   15770    15871    15788    15813    15916    15805    15653    15830 
   16189    16328    16190    16021    16015    15977    15673    15396 
   15379    15520    15766    15743    15449    15669    16117    15905 
   15637    15967    16318    16335    16236    16191    16221    16170 
   15996    15886    15828    15670    15511    15588    15858    15935 
   15699    15639    15889    15834    15533    15666    16012    15970 
   15693    15681    15990    16174    16052    15901    15819    15873 
   16119    16094    15766    15803    15994    15828    15720    15853 
   15873    15784    15836    16054    16074    15734    15469    15543 
   15762    15898    15827    15726    15797    15965    16135    16205 
   16160    16186    16156    15859    15603    15623    15655    15691 
   15858    15942    15909    15975    16143    16299    16247    15920 
   15653    15599    15552    15525    15552    15441    15338    15607 
   16038    16127    15952    15911    15974    16074    16320    16395 
   16015    15647    15762    16081    16106    15909    15734    15449 
   15256    15566    15967    16038    16035    15975    15765    15666 
   15670    15612    15704    15975    16087    16046    16035    15969 
   15866    15877    15958    16011    15923    15774    15847    15962 
   15792    15595    15707    16001    16147    16029    15869    15847 
   15975    16190    16220    15927    15623    15561    15614    15619 
   15655    15731    15707    15728    15908    16043    16011    15855 
   15714    15743    15911    16039    16029    15985    15957    15923 
   15989    16069    15957    15835    15948    16114    16040    15854 
   15844    15851    15691    15624    15647    15530    15461    15546 
   15682    15921    16054    15917    15836    15947    16001    15888 
   15850    16100    16279    16028    15750    15801    15838    15718 
   15820    15974    15692    15434    15695    15921    15838    15849 
   15966    15971    16005    16181    16270    16147    15947    15662 
   15487    15641    15689    15522    15596    15689    15518    15585 
   16059    16314    16140    16023    16051    16009    16109    16337 
   16272    16023    15954    15938    15790    15623    15511    15377 
   15384    15786    16179    16119    15975    15924    15711    15565 
   15727    15974    16063    15981    15978    16140    16096    15754 
   15591    15763    15840    15716    15788    15901    15634    15395 
   15631    15932    15965    15967    16036    16024    16017    16140 
   16224    16167    16005    15696    15461    15550    15657    15614 
   15743    15989    16039    15962    15927    15870    15766    15759 
   15840    15816    15709    15724    15866    15940    15893    15961 
   16147    16123    15952    15871    15703    15596    15890    16120 
   15924    15701    15709    15896    16123    16150    15990    15930 
   15989    15950    15893    15911    15801    15653    15711    15777 
   15707    15685    15734    15778    15803    15765    15730    15790 
   15869    15907    15966    16036    15997    15919    16052    16278 
   16195    15884    15696    15651    15699    15893    16008    15850 
   15642    15531    15531    15673    15780    15777    15773    15735 
   15780    16008    16158    16110    16050    16086    16110    15992 
   15815    15741    15789    15878    15938    15961    15861    15639 
   15561    15627    15649    15745    15919    16067    16266    16308 
   15982    15651    15607    15697    15813    15978    16081    15978 
   15857    15994    16051    15746    15677    16033    16141    15917 
   15780    15731    15666    15697    15824    15822    15753    15836 
