Origin Time       2025/03/30 22:55:00
Lat.              41.993
Long.             142.725
Depth. (km)       55
Mag.              4.6
Station Code      HKD112
Station Lat.      41.9370
Station Long.     143.2403
Station Height(m) 15
Record Time       2025/03/30 22:56:17
Sampling Freq(Hz) 100Hz
Duration Time(s)  60
Dir.              N-S
Scale Factor      7845(gal)/8223790
Max. Acc. (gal)   12.668
Last Correction   2025/03/30 22:56:17
Memo.             
[...]
    1308     1306     1312     1312     1309     1310     1310     1310 
    1313     1312     1312     1313     1308     1304     1308     1312 
    1310     1308     1309     1310     1310     1312     1313     1309 
    1308     1310     1310     1310     1312     1309     1308     1309 
    1310     1310     1313     1313     1310     1306     1306     1309 
    1309     1309     1310     1313     1314     1310     1306     1306 
    1308     1312     1314     1314     1309     1306     1306     1306 
    1308     1309     1310     1310     1312     1310     1310     1310 
    1310     1309     1312     1310     1306     1308     1310     1310 
    1310     1309     1306     1306     1309     1313     1317     1317 
    1313     1306     1304     1304     1304     1309     1314     1312 
    1310     1312     1308     1306     1310     1310     1312     1318 
    1320     1314     1310     1308     1301     1301     1306     1309 
    1312     1313     1312     1310     1309     1306     1308     1310 
    1310     1316     1318     1312     1305     1305     1305     1305 
    1306     1309     1309     1310     1314     1313     1306     1305 
    1308     1310     1313     1313     1313     1312     1308     1305 
    1305     1304     1305     1308     1316     1320     1316     1313 
    1312     1306     1302     1304     1309     1313     1314     1314 
    1309     1302     1301     1305     1308     1309     1310     1312 
    1313     1310     1306     1304     1304     1306     1312     1313 
    1312     1312     1308     1304     1304     1306     1308     1310 
    1313     1312     1313     1312     1306     1308     1310     1309 
    1309     1312     1312     1309     1306     1305     1305     1304 
    1305     1309     1312     1313     1313     1313     1309     1305 
    1305     1308     1310     1313     1313     1312     1309     1306 
    1305     1306     1308     1310     1314     1313     1308     1305 
    1305     1310     1313     1313     1312     1309     1308     1308 
    1305     1306     1309     1308     1309     1313     1314     1314 
    1310     1306     1308     1308     1306     1306     1309     1313 
    1313     1312     1310     1306     1302     1302     1305     1310 
    1316     1316     1313     1308     1306     1308     1310     1312 
    1310     1308     1309     1312     1310     1308     1306     1308 
    1310     1310     1308     1309     1310     1309     1306     1308 
    1308     1309     1312     1312     1310     1309     1306     1304 
    1305     1310     1310     1312     1316     1313     1309     1306 
    1305     1306     1306     1309     1312     1312     1310     1309 
    1308     1309     1309     1305     1306     1312     1310     1312 
    1314     1313     1309     1306     1305     1305     1309     1312 
    1313     1314     1312     1308     1302     1304     1310     1313 
    1314     1313     1312     1310     1309     1306     1306     1309 
    1310     1309     1309     1306     1305     1305     1308     1312 
    1310     1310     1314     1316     1313     1309     1305     1306 
    1306     1302     1302     1309     1314     1314     1312     1309 
    1306     1306     1308     1310     1312     1313     1316     1316 
    1310     1305     1304     1305     1309     1313     1314     1310 
    1306     1306     1306     1305     1308     1310     1310     1312 
    1313     1310     1308     1308     1309     1305     1309     1316 
    1317     1314     1312     1309     1305     1302     1306     1310 
    1313     1314     1310     1302     1296     1294     1304     1313 
    1312     1294     1275     1273     1293     1318     1313     1262 
    1210     1232     1325     1402     1381     1279     1197     1204 
    1294     1387     1387     1277     1182     1244     1425     1529 
    1422     1232     1188     1336     1499     1524     1428     1335 
    1335     1417     1447     1273     1024     1050     1408     1722 
    1686     1417     1194     1096     1034     1040     1259     1539 
    1505     1236     1201     1452     1563     1279      832      703 
    1036     1548     1969     2049     1682     1251     1009      800 
     739      994     1298     1482     1688     2004     2246     1934 
     973      155      132      573     1004     1601     2450     2714 
    1780      476      -47      317     1023     1661     2020     1814 
    1142      918     1587     2164     1564       62     -839        5 
    1813     2876     2621     1656      913      845     1032     1169 
    1613     2284     2289     1297      454      984     2138     2068 
     596     -483      156     1787     2609     1999     1134     1090 
    1474     1453     1051      958     1514     2053     1804     1117 
     888     1325     1800     1665     1142      931     1109     1313 
    1358     1132      797      760      931     1000     1098     1383 
    1733     1922     1761     1487     1524     1688     1495     1090 
    1127     1680     1864     1167      460      637     1188     1139 
     662      726     1471     1981     1698     1277     1528     2025 
    1877     1277     1043     1289     1452     1235     1030     1324 
    1763     1634     1113      972     1394     1771     1587     1140 
     984     1026      843      514      499      988     1594     1767 
    1638     1737     1961     1809     1306     1047     1372     1756 
    1462      780      600      967     1178      816      375      726 
    1661     2081     1757     1495     1817     2200     1826     1040 
     803      938      754      480      619     1081     1553     1879 
    2015     1912     1590     1347     1462     1719     1779     1513 
     969      589      750     1073     1101      877      600      703 
    1526     2485     2662     2058     1482     1475     1795     1960 
    1810     1316      508     -197      -78     1048     2165     2154 
    1306      714      927     1706     2176     1647      641      253 
     842     1688     1834     1463     1398     1517     1329     1030 
     963     1120     1250     1231     1358     1756     1944     1537 
     853      588     1048     1701     1718      994      338      557 
    1597     2648     2775     1665      213      -99     1135     2594 
    2705     1509      481      446      827     1127     1410     1453 
    1005      546      785     1506     1733     1332     1196     1529 
    1624     1329     1209     1480     1752     1722     1624     1705 
    1680     1204      631      661     1297     1748     1491     1013 
    1047     1429     1485     1139      862      842      842      793 
    1066     1818     2467     2382     1661      953      857     1331 
    1597     1169      567      507     1053     1759     2039     1621 
     872      483      837     1534     1779     1483     1254     1420 
    1868     2147     1823     1287     1181     1394     1605     1628 
    1200      558      464     1088     1661     1426      557      -94 
     102     1036     1921     2126     1858     1590     1603     2047 
    2551     2350     1317      286      125      819     1602     1822 
    1381      677      484     1198     2112     2335     1944     1405 
     909      684      835     1132     1401     1483     1170      742 
     758     1350     2177     2501     1830      957      943     1470 
    1543     1098      881     1036      826      141      121     1294 
    2400     2278     1536     1437     2228     2902     2524     1526 
     750      162     -267     -133      469     1170     1741     1791 
    1387     1271     1695     2031     1696     1086     1047     1354 
    1213      982     1327     1726     1501      940      784     1294 
    1869     1821     1455     1401     1472     1260     1036     1190 
    1497     1536     1228      758      479      685     1223     1626 
    1817     2112     2324     1863     1035      846     1347     1505 
     751     -268     -459      629     2108     2555     1998     1680 
    1952     2120     1790     1306     1158     1174      908      602 
     804     1339     1494     1092      753      913     1263     1532 
    1711     1671     1507     1591     1854     1827     1458     1140 
    1028      978      901      810      758      795     1046     1665 
    2353     2366     1517      675      719     1341     1490      922 
     506      885     1657     1998     1682     1416     1711     1958 
    1568     1058      978      907      542      508     1123     1668 
    1711     1709     1831     1695     1405     1490     1919     1931 
    1093      160      125      777     1174     1080     1043     1242 
    1309     1266     1521     2018     2154     1800     1628     1912 
    1989     1259      120     -359      283     1364     1993     2019 
    1848     1771     1723     1502     1135      874      791      720 
     584      575      916     1459     1900     2203     2323     2145 
    1825     1513     1250     1239     1336      980      211     -224 
      56      662     1030     1212     1750     2663     3279     3103 
    2269     1370      938      865      765      515      137      -90 
     228      886     1431     1968     2548     2721     2380     1933 
    1641     1475     1194      561      -44       59      747     1198 
    1084      985     1414     2146     2678     2678     2092     1196 
     550      685     1318     1513     1090      710      631      669 
     851     1309     1838     1831     1081      581     1243     2254 
    2138      869      -47      519     1755     2012     1441     1576 
    2455     2708     2033     1441     1509     1603     1073      459 
     572     1088     1174      720      313      513     1189     1687 
    1661     1401     1393     1763     2112     1935     1274      629 
     217      -39      122     1027     2133     2401     1848     1449 
    1590     1829     1844     1719     1494      985      305      202 
    1151     2393     2710     1945     1204     1417     2076     2139 
    1594     1077      793      588      302      -40       -1      679 
    1451     1674     1480     1462     1822     2168     2182     2123 
    2177     1872      872      -67       49      916     1317      926 
     633     1138     2100     2706     2571     1879     1088      672 
     703      822      865      939      972      820      734     1174 
    2130     2895     2717     1699      866      913     1378     1575 
    1420      977      452      361      762     1256     1642     1730 
    1443     1216     1343     1509     1409     1154      985      922 
     780      630      808     1432     2328     3121     3169     2227 
    1248     1364     2187     2427     1711      820      670     1158 
    1244      683      369      607      754      513      383      838 
    1455     1611     1640     2115     2768     2906     2205     1038 
      37     -741    -1404    -1333       18     2197     4199     5096 
    4379     2558     1044      665      634      -81     -912     -471 
    1248     2708     2862     2083     1016     -261    -1765    -2787 
   -2284     -444     1287     2149     2670     3179     3052     1740 
    -202    -1637    -2120    -1783     -410     2061     4752     6405 
    6404     5163     3499     1786      209     -769     -762      298 
    2089     3858     4896     5007     4311     3045     1514      171 
    -310      324     1363     1957     2050     1898     1206     -476 
   -2732    -4540    -5467    -5551    -4302    -1227     2928     6597 
    8729     9248     8658     7250     4818     1510    -1576    -3334 
   -3777    -3604    -2955    -1690     -499     -341     -961     -934 
     633     2982     4711     5429     5718     5971     5869     4806 
    2698      166    -2124    -3636    -3867    -2749     -753     1498 
    3480     4893     5705     5848     5043     3219      772    -1597 
   -2982    -2878    -1792     -548      706     2245     4000     5316 
    5517     4691     3591     2702     1953     1252      680       85 
    -770    -1549    -1675    -1240     -884     -935    -1124     -893 
     221     2180     4104     4770     3882     2367     1142      190 
    -711    -1066     -198     1624     3365     4375     4615     4004 
    2435      445     -942    -1298    -1179    -1097     -691      519 
    2066     3005     3087     2794     2493     2134     1640     1302 
    1583     2421     3213     3635     3739     3447     2687     1552 
     294     -626     -994    -1136    -1318    -1339     -970     -399 
      72      491      997     1418     1621     1899     2497     3161 
    3565     3730     3719     3350     2384      847     -774    -1833 
   -2058    -1510     -322     1113     2328     3202     3674     3488 
    2567     1212     -159    -1171    -1556    -1174      -49     1382 
    2505     3271     3917     4212     3813     2754     1285     -168 
   -1232    -1775    -1617     -773      226     1100     2037     3041 
    3855     4233     4099     3750     3538     3442     3149     2439 
    1452      565       66      -32      156      683     1561     2166 
    1564     -197    -1958    -2787    -2727    -2180    -1151      541 
    2498     3839     4203     4082     4091     4352     4585     4453 
    3740     2332      225    -2282    -4552    -6014    -6421    -5695 
   -3750     -567     3547     7843    11241    12787    12314    10285 
    7148     3191    -1360    -6048    -9918   -11970   -11792    -9661 
   -6106    -1705     2889     7299    11049    13208    13490    12148 
    9269     5463     1529    -2236    -5530    -7886    -8978    -8559 
   -6326    -2573     1626     5522     8829    11065    11890    11330 
    9420     6308     2381    -1898    -5891    -8781   -10049    -9616 
   -7638    -4622    -1156     2500     5981     8549     9585     8945 
    7005     4329     1382    -1235    -2762    -2852    -1849     -372 
    1117     2398     3356     3738     3407     2785     2347     2004 
    1449      630     -265    -1003    -1456    -1572    -1183     -155 
    1383     3059     4433     5312     5811     5902     5233     3716 
    1803      -72    -1780    -3103    -3751    -3757    -3302    -2338 
    -710     1456     3523     4706     4800     4271     3585     2766 
    1779      963      661      664      445      -55     -352     -268 
    -209     -437     -607     -145     1088     2659     4075     5140 
    5671     5317     4039     2366      926       64     -286     -515 
    -773     -853     -719     -476       13      993     2469     4083 
    5242     5493     4801     3568     2297     1055     -479    -2292 
   -3788    -4337    -3821    -2506     -642     1572     3785     5495 
    6346     6311     5548     4144     2245      190    -1728    -3354 
   -4417    -4452    -3096     -587     2223     4514     5917     6542 
    6743     6571     5709     4114     2200      341    -1283    -2539 
   -3229    -3169    -2459    -1385      -85     1256     2286     2866 
    3088     3051     2740     2003      835     -340    -1054    -1212 
    -955     -353      688     2092     3399     4379     5208     5703 
    5375     4274     2897     1588      345     -918    -1984    -2485 
   -2466    -2292    -2072    -1556     -579      642     1827     3032 
    4318     5308     5466     4661     3281     1881      720     -257 
    -994    -1205     -660      594     2114     3306     3998     4264 
    3979     3024     1598      217     -714    -1364    -1979    -2315 
   -2138    -1545     -623      629     2120     3550     4510     4835 
    4729     4434     3981     3319     2562     1853     1125      367 
    -135     -139      193      445      402      198       89      232 
     621     1054     1205      885      267     -220     -243      193 
     922     1876     2932     3731     3935     3514     2671     1668 
     811      367      434      884     1270     1102      436     -179 
    -406     -367     -178      284     1082     2010     2781     3235 
    3407     3362     3079     2602     2165     1968     2019     2153 
    2107     1684      918       66     -554     -823     -810     -437 
     484     1769     2889     3495     3609     3318     2585     1443 
     180     -839    -1467    -1705    -1552     -973      -25     1066 
    2056     2848     3399     3616     3411     2666     1405       41 
    -835     -935     -476      109      589     1013     1599     2533 
    3632     4434     4680     4417     3763     2797     1601      306 
    -868    -1632    -1809    -1385     -405      940     2253     3164 
    3516     3306     2606     1605      585     -195     -627     -754 
    -622     -191      496     1260     1984     2664     3217     3433 
    3231     2802     2388     2064     1718     1252      793      500 
     326      149      -41     -155      -95      148      583     1291 
    2204     2974     3279     3087     2593     2025     1413      673 
     -12     -260       27      568     1034     1291     1340     1113 
     592       68      -85      213      810     1509     2192     2835 
    3330     3429     3053     2413     1740     1197      896      827 
     965     1294     1660     1861     1798     1498     1127      811 
     522      317      360      611      780      623      249      -18 
     -39      170      625     1271     1949     2532     2952     3206 
    3321     3240     2822     2046     1179      631      534      626 
     621      502      475      693     1031     1217     1159     1013 
     950      949      858      610      334      248      386      589 
     837     1246     1777     2295     2863     3653     4550     5063 
    4795     3931     3002     2196     1270       64    -1196    -2101 
   -2400    -2141    -1451     -430      657     1412     1640     1514 
    1351     1316     1335     1321     1417     1761     2178     2466 
    2695     2982     3226     3191     2783     2203     1680     1293 
    1082     1054     1003      668       48     -562     -842     -707 
    -306      207      822     1524     2227     2789     3049     2957 
    2623     2174     1717     1341     1107      988      923      919 
    1046     1331     1660     1838     1809     1717     1645     1449 
     972      303     -311     -764    -1090    -1193     -868     -108 
     893     1981     3065     4004     4583     4656     4226     3403 
    2346     1232      241     -499     -935    -1065     -839     -252 
     500     1111     1432     1524     1512     1468     1429     1381 
    1248     1019      834      841     1062     1445     1922     2390 
    2729     2876     2897     2879     2793     2504     1996     1435 
     993      693      460      326      438      835     1320     1637 
    1698     1582     1366     1048      643      234      -75     -207 
    -145       58      325      607      909     1255     1674     2222 
    2855     3362     3582     3488     3083     2432     1642      838 
     197     -117      -97      122      378      625      915     1208 
    1410     1510     1513     1437     1414     1539     1706     1757 
    1683     1625     1692     1817     1826     1633     1300      990 
     831      816      880      978     1073     1104     1034      903 
