Origin Time       2025/03/30 22:55:00
Lat.              41.993
Long.             142.725
Depth. (km)       55
Mag.              4.6
Station Code      HKD127
Station Lat.      42.8743
Station Long.     141.8204
Station Height(m) 61
Record Time       2025/03/30 22:56:35
Sampling Freq(Hz) 100Hz
Duration Time(s)  60
Dir.              N-S
Scale Factor      7845(gal)/8223790
Max. Acc. (gal)   3.092
Last Correction   2025/03/30 22:56:36
Memo.             
[...]
  -10443   -10183   -10048   -10034   -10092   -10253   -10504   -10708 
  -10709   -10488   -10227   -10160   -10281   -10411   -10480   -10535 
  -10584   -10593   -10559   -10482   -10349   -10199   -10168   -10309 
  -10466   -10474   -10417   -10462   -10566   -10571   -10447   -10304 
  -10235   -10255   -10334   -10423   -10465   -10440   -10422   -10480 
  -10571   -10616   -10612   -10590   -10554   -10488   -10404   -10350 
  -10341   -10328   -10293   -10284   -10312   -10330   -10326   -10366 
  -10486   -10632   -10725   -10746   -10708   -10608   -10440   -10247 
  -10111   -10091   -10191   -10373   -10551   -10604   -10496   -10368 
  -10380   -10519   -10627   -10590   -10403   -10135    -9937    -9961 
  -10207   -10497   -10642   -10612   -10498   -10413   -10413   -10486 
  -10585   -10651   -10615   -10503   -10434   -10471   -10540   -10516 
  -10376   -10216   -10133   -10147   -10266   -10457   -10617   -10646 
  -10551   -10432   -10351   -10297   -10238   -10179   -10157   -10170 
  -10189   -10258   -10444   -10698   -10891   -10933   -10816   -10585 
  -10320   -10150   -10177   -10351   -10519   -10586   -10520   -10365 
  -10281   -10374   -10566   -10686   -10613   -10377   -10133   -10015 
  -10065   -10241   -10436   -10552   -10567   -10546   -10530   -10474 
  -10370   -10299   -10296   -10342   -10416   -10504   -10608   -10708 
  -10751   -10713   -10578   -10330   -10057    -9913    -9976   -10197 
  -10434   -10532   -10458   -10322   -10243   -10297   -10486   -10689 
  -10760   -10659   -10481   -10390   -10473   -10624   -10679   -10571 
  -10342   -10120   -10062   -10181   -10345   -10430   -10408   -10332 
  -10300   -10342   -10424   -10540   -10635   -10613   -10492   -10376 
  -10362   -10467   -10562   -10538   -10430   -10304   -10231   -10291 
  -10450   -10581   -10609   -10494   -10266   -10076   -10068   -10266 
  -10598   -10893   -10945   -10690   -10265    -9931    -9914   -10207 
  -10602   -10878   -10926   -10782   -10555   -10359   -10249   -10200 
  -10184   -10181   -10195   -10241   -10304   -10380   -10505   -10660 
  -10710   -10578   -10377   -10288   -10381   -10596   -10793   -10825 
  -10660   -10438   -10319   -10349   -10447   -10486   -10404   -10234 
  -10066    -9980   -10004   -10116   -10243   -10328   -10382   -10427 
  -10466   -10530   -10627   -10728   -10759   -10643   -10461   -10343 
  -10285   -10254   -10289   -10397   -10536   -10683   -10801   -10787 
  -10542   -10145    -9856    -9853   -10092   -10407   -10633   -10717 
  -10682   -10558   -10422   -10369   -10366   -10318   -10253   -10261 
  -10374   -10547   -10682   -10704   -10631   -10488   -10276   -10089 
  -10054   -10143   -10258   -10350   -10453   -10638   -10852   -10935 
  -10806   -10551   -10342   -10304   -10390   -10449   -10392   -10226 
  -10006    -9857    -9910   -10166   -10476   -10658   -10670   -10631 
  -10620   -10608   -10569   -10520   -10488   -10496   -10543   -10586 
  -10566   -10470   -10336   -10223   -10177   -10170   -10142   -10118 
  -10170   -10301   -10465   -10640   -10797   -10817   -10586   -10207 
   -9968   -10044   -10381   -10771   -10968   -10878   -10571   -10230 
  -10053   -10114   -10299   -10473   -10605   -10729   -10822   -10797 
  -10615   -10334   -10065    -9936    -9983   -10138   -10305   -10411 
  -10422   -10380   -10376   -10482   -10646   -10721   -10650   -10515 
  -10459   -10525   -10589   -10559   -10480   -10388   -10315   -10309 
  -10365   -10432   -10474   -10453   -10376   -10289   -10228   -10224 
  -10312   -10470   -10619   -10678   -10625   -10508   -10374   -10257 
  -10230   -10347   -10532   -10625   -10521   -10235    -9937    -9837 
   -9977   -10250   -10538   -10781   -10941   -10947   -10785   -10563 
  -10355   -10191   -10170   -10311   -10471   -10527   -10469   -10362 
  -10288   -10297   -10382   -10473   -10497   -10455   -10419   -10439 
  -10469   -10400   -10226   -10103   -10165   -10332   -10453   -10496 
  -10494   -10447   -10399   -10442   -10569   -10701   -10797   -10835 
  -10797   -10683   -10512   -10332   -10193   -10081    -9994    -9969 
  -10041   -10227   -10477   -10631   -10609   -10471   -10299   -10187 
  -10215   -10380   -10628   -10867   -10959   -10836   -10546   -10246 
  -10112   -10191   -10381   -10539   -10542   -10374   -10174   -10111 
  -10224   -10409   -10538   -10559   -10505   -10443   -10435   -10477 
  -10512   -10493   -10399   -10253   -10149   -10180   -10343   -10565 
  -10732   -10746   -10578   -10350   -10246   -10315   -10428   -10461 
  -10417   -10358   -10326   -10346   -10424   -10524   -10586   -10554 
  -10426   -10319   -10346   -10449   -10488   -10386   -10179    -9994 
  -10002   -10278   -10696   -11003   -11056   -10854   -10478   -10080 
   -9841    -9871   -10102   -10345   -10477   -10517   -10558   -10638 
  -10708   -10731   -10719   -10662   -10539   -10403   -10331   -10293 
  -10241   -10228   -10277   -10334   -10376   -10401   -10426   -10473 
  -10503   -10466   -10390   -10365   -10438   -10542   -10558   -10486 
  -10397   -10326   -10301   -10365   -10476   -10558   -10601   -10601 
  -10531   -10404   -10254   -10154   -10212   -10443   -10682   -10706 
  -10449   -10103    -9942   -10057   -10335   -10552   -10520   -10316 
  -10191   -10265   -10519   -10820   -10937   -10773   -10454   -10195 
  -10153   -10336   -10596   -10740   -10681   -10488   -10304   -10223 
  -10247   -10315   -10323   -10260   -10268   -10424   -10579   -10550 
  -10370   -10188   -10119   -10222   -10428   -10600   -10693   -10725 
  -10717   -10702   -10669   -10546   -10331   -10156   -10139   -10228 
  -10287   -10268   -10231   -10277   -10458   -10743   -10989   -11018 
  -10779   -10409   -10093    -9933    -9938   -10038   -10142   -10228 
  -10284   -10342   -10498   -10743   -10933   -10940   -10740   -10461 
  -10250   -10158   -10212   -10424   -10682   -10820   -10770   -10562 
  -10266    -9950    -9729    -9756   -10035   -10390   -10662   -10795 
  -10795   -10741   -10705   -10659   -10562   -10439   -10328   -10235 
  -10156   -10062    -9967    -9957   -10112   -10378   -10606   -10693 
  -10638   -10520   -10476   -10567   -10694   -10729   -10655   -10535 
  -10412   -10292   -10212   -10203   -10215   -10230   -10300   -10426 
  -10544   -10585   -10524   -10416   -10363   -10397   -10461   -10508 
  -10531   -10516   -10451   -10357   -10288   -10312   -10435   -10563 
  -10585   -10473   -10322   -10230   -10226   -10293   -10378   -10420 
  -10477   -10628   -10801   -10835   -10663   -10376   -10130   -10015 
  -10046   -10219   -10480   -10736   -10863   -10779   -10535   -10226 
   -9944    -9844   -10007   -10296   -10490   -10546   -10600   -10714 
  -10774   -10710   -10592   -10446   -10270   -10133   -10104   -10223 
  -10439   -10608   -10675   -10696   -10647   -10496   -10322   -10207 
  -10149   -10126   -10153   -10269   -10476   -10678   -10720   -10554 
  -10315   -10192   -10280   -10527   -10740   -10758   -10593   -10357 
  -10174   -10131   -10215   -10369   -10517   -10600   -10632   -10643 
  -10585   -10458   -10358   -10330   -10347   -10396   -10443   -10455 
  -10423   -10334   -10189   -10038    -9991   -10099   -10280   -10457 
  -10632   -10785   -10876   -10922   -10883   -10667   -10334   -10093 
  -10073   -10196   -10303   -10342   -10386   -10494   -10627   -10667 
  -10534   -10297   -10118   -10084   -10191   -10377   -10554   -10654 
  -10671   -10638   -10561   -10461   -10395   -10366   -10308   -10218 
  -10189   -10273   -10439   -10611   -10652   -10516   -10343   -10280 
  -10309   -10339   -10349   -10386   -10477   -10575   -10616   -10590 
  -10512   -10407   -10355   -10401   -10462   -10440   -10372   -10351 
  -10396   -10451   -10473   -10467   -10473   -10477   -10436   -10393 
  -10395   -10376   -10274   -10165   -10142   -10196   -10257   -10278 
  -10287   -10320   -10377   -10474   -10606   -10687   -10682   -10658 
  -10670   -10694   -10667   -10569   -10434   -10308   -10239   -10261 
  -10343   -10401   -10385   -10314   -10226   -10177   -10223   -10372 
  -10575   -10751   -10822   -10766   -10611   -10403   -10212   -10154 
  -10264   -10435   -10532   -10524   -10470   -10427   -10415   -10443 
  -10498   -10513   -10458   -10396   -10393   -10417   -10412   -10386 
  -10363   -10338   -10296   -10234   -10162   -10098   -10065   -10102 
  -10211   -10330   -10396   -10399   -10403   -10517   -10768   -11037 
  -11180   -11159   -11001   -10755   -10465   -10127    -9767    -9514 
   -9547    -9900   -10368   -10647   -10615   -10401   -10268   -10411 
  -10785   -11152   -11269   -11040   -10565   -10080    -9786    -9732 
   -9846   -10034   -10235   -10392   -10469   -10542   -10681   -10783 
  -10706   -10519   -10413   -10435   -10482   -10498   -10471   -10420 
  -10432   -10569   -10716   -10679   -10397   -10045    -9914   -10114 
  -10450   -10665   -10669   -10539   -10431   -10428   -10474   -10457 
  -10334   -10193   -10137   -10138   -10112   -10034    -9950    -9945 
  -10091   -10389   -10773   -11133   -11315   -11188   -10741   -10157 
   -9767    -9817   -10251   -10737   -10922   -10721   -10342   -10022 
   -9899    -9976   -10107   -10146   -10096   -10039   -10041   -10133 
  -10285   -10450   -10660   -10908   -11106   -11244   -11368   -11446 
  -11368   -11049   -10512    -9925    -9505    -9379    -9526    -9810 
  -10081   -10297   -10477   -10608   -10679   -10714   -10731   -10717 
  -10673   -10594   -10466   -10301   -10179   -10179   -10295   -10447 
  -10566   -10642   -10728   -10883   -11075   -11172   -11082   -10818 
  -10476   -10184   -10054   -10104   -10251   -10339   -10210    -9857 
   -9477    -9327    -9521    -9950   -10386   -10670   -10798   -10882 
  -11018   -11190   -11302   -11291   -11192   -11080   -10937   -10687 
  -10350   -10012    -9737    -9535    -9367    -9274    -9417    -9853 
  -10427   -10897   -11090   -10984   -10728   -10544   -10571   -10743 
  -10885   -10879   -10723   -10486   -10273   -10164   -10169   -10247 
  -10319   -10301   -10170    -9996    -9863    -9784    -9776    -9887 
  -10143   -10512   -10856   -10993   -10845   -10521   -10214   -10052 
  -10048   -10131   -10245   -10424   -10723   -11028   -11102   -10794 
  -10166    -9548    -9329    -9643   -10343   -11159   -11800   -12062 
  -11912   -11503   -11016   -10555   -10187   -10012   -10083   -10269 
  -10357   -10261   -10035    -9745    -9493    -9414    -9555    -9871 
  -10300   -10750   -11109   -11246   -11088   -10721   -10350   -10149 
  -10181   -10408   -10747   -11059   -11134   -10836   -10349   -10049 
  -10083   -10264   -10319   -10100    -9707    -9427    -9468    -9803 
  -10222   -10501   -10597   -10646   -10741   -10882   -11087   -11360 
  -11604   -11669   -11468   -11084   -10683   -10361   -10157   -10049 
   -9909    -9671    -9441    -9333    -9359    -9494    -9741   -10125 
  -10592   -10993   -11207   -11191   -10924   -10470   -10021    -9776 
   -9805   -10030   -10336   -10674   -11011   -11240   -11245   -11041 
  -10729   -10457   -10385   -10535   -10731   -10775   -10617   -10385 
  -10237   -10157   -10014    -9720    -9319    -9015    -9031    -9412 
  -10008   -10575   -10883   -10893   -10752   -10648   -10700   -10895 
  -11078   -11061   -10775   -10349   -10075   -10170   -10600   -11113 
  -11398   -11307   -10935   -10485   -10176   -10085   -10102   -10092 
  -10023    -9965   -10018   -10188   -10409   -10579   -10586   -10438 
  -10268   -10219   -10380   -10714   -11065   -11214   -10982   -10413 
   -9787    -9383    -9321    -9540    -9882   -10210   -10484   -10746 
  -11029   -11246   -11221   -10903   -10444   -10080    -9958   -10061 
  -10300   -10567   -10701   -10602   -10318    -9992    -9811    -9882 
  -10157   -10525   -10914   -11303   -11634   -11759   -11564   -11075 
  -10485   -10035    -9809    -9722    -9695    -9721    -9817    -9946 
   -9964    -9780    -9549    -9547    -9909   -10525   -11122   -11452 
  -11465   -11304   -11144   -11034   -10881   -10593   -10195    -9740 
   -9274    -8965    -9073    -9691   -10596   -11364   -11670   -11503 
  -11121   -10852   -10858   -10997   -10974   -10669   -10242    -9985 
  -10064   -10368   -10642   -10681   -10438   -10023    -9621    -9342 
   -9175    -9101    -9201    -9566   -10138   -10689   -10979   -10945 
  -10740   -10615   -10781   -11257   -11824   -12177   -12089   -11495 
  -10512    -9429    -8646    -8498    -9024    -9968   -10959   -11650 
  -11828   -11522   -10948   -10347    -9891    -9675    -9659    -9702 
   -9702    -9633    -9571    -9651    -9990   -10608   -11353   -11943 
  -12154   -11962   -11512   -10963   -10432    -9985    -9656    -9498 
   -9535    -9693    -9909   -10158   -10404   -10592   -10652   -10577 
  -10457   -10363   -10332   -10463   -10805   -11261   -11639   -11704 
  -11315   -10573    -9749    -9100    -8749    -8664    -8731    -8887 
   -9130    -9552   -10241   -11098   -11878   -12349   -12390   -12027 
  -11416   -10777   -10358   -10331   -10609   -10875   -10886   -10633 
  -10238    -9809    -9444    -9227    -9138    -9090    -9089    -9278 
   -9756   -10407   -11029   -11496   -11736   -11799   -11871   -12028 
  -12101   -11840   -11149   -10265    -9593    -9323    -9333    -9409 
   -9417    -9286    -9023    -8768    -8706    -8919    -9371   -10000 
  -10755   -11477   -11958   -12190   -12348   -12545   -12748   -12783 
  -12397   -11426    -9994    -8495    -7442    -7180    -7693    -8683 
   -9814   -10785   -11319   -11319   -10991   -10693   -10639   -10782 
  -10928   -10932   -10763   -10498   -10319   -10372   -10625   -10893 
  -11011   -10952   -10782   -10608   -10488   -10374   -10201    -9984 
   -9830    -9830    -9963   -10119   -10204   -10249   -10423   -10771 
  -11138   -11337   -11222   -10751   -10098    -9558    -9363    -9552 
   -9980   -10492   -10986   -11345   -11487   -11410   -11124   -10652 
  -10093    -9595    -9289    -9204    -9270    -9423    -9637    -9875 
  -10116   -10338   -10470   -10534   -10669   -10989   -11473   -11893 
  -11977   -11655   -11076   -10524   -10227   -10172   -10176   -10143 
  -10126   -10193   -10332   -10459   -10482   -10345   -10041    -9641 
   -9282    -9161    -9432   -10041   -10748   -11365   -11812   -12035 
  -11982   -11619   -10966   -10207    -9607    -9340    -9424    -9737 
  -10079   -10336   -10525   -10651   -10651   -10471   -10141    -9784 
   -9563    -9624   -10000   -10563   -11141   -11574   -11677   -11381 
  -10820   -10185    -9682    -9481    -9632   -10049   -10547   -10893 
  -10920   -10639   -10208    -9863    -9786   -10003   -10355   -10578 
  -10511   -10281   -10184   -10392   -10831   -11260   -11480   -11479 
  -11368   -11249   -11101   -10829   -10385    -9879    -9531    -9466 
   -9620    -9842   -10010   -10050    -9973    -9864    -9819    -9899 
  -10161   -10561   -10939   -11156   -11145   -10945   -10700   -10548 
  -10519   -10542   -10542   -10482   -10351   -10187   -10068   -10033 
  -10071   -10176   -10316   -10438   -10493   -10450   -10374   -10411 
  -10624   -10966   -11273   -11350   -11132   -10679   -10102    -9522 
   -9084    -8912    -9085    -9601   -10358   -11133   -11645   -11730 
  -11429   -10941   -10535   -10341   -10253   -10146   -10045   -10044 
  -10195   -10436   -10655   -10777   -10760   -10611   -10438   -10362 
  -10384   -10408   -10404   -10415   -10436   -10422   -10341   -10192 
   -9988    -9787    -9691    -9780   -10010   -10253   -10382   -10368 
  -10297   -10300   -10413   -10552   -10582   -10451   -10314   -10411 
  -10782   -11207   -11418   -11306   -10978   -10617   -10386   -10382 
  -10497   -10490   -10260    -9923    -9706    -9752   -10033   -10409 
  -10735   -10859   -10689   -10305    -9941    -9813   -10008   -10473 
  -11041   -11502   -11680   -11523   -11132   -10685   -10331   -10120 
  -10004    -9894    -9756    -9630    -9567    -9613    -9806   -10110 
  -10435   -10686   -10779   -10725   -10650   -10658   -10721   -10748 
  -10713   -10666   -10632   -10563   -10422   -10239   -10085   -10012 
  -10042   -10161   -10328   -10482   -10570   -10621   -10700   -10768 
  -10733   -10540   -10226    -9936    -9832   -10025   -10528   -11156 
  -11550   -11445   -10895   -10227    -9779    -9720    -9980   -10308 
  -10450   -10323   -10037    -9767    -9676    -9852   -10245   -10710 
  -11075   -11199   -11075   -10786   -10420   -10099    -9958   -10049 
  -10311   -10613   -10841   -10937   -10908   -10795   -10605   -10351 
  -10125   -10017   -10075   -10255   -10432   -10476   -10331   -10033 
   -9690    -9459    -9499    -9896   -10592   -11349   -11847   -11924 
  -11688   -11331   -10953   -10566   -10180    -9830    -9544    -9333 
   -9254    -9386    -9726   -10154   -10538   -10801   -10916   -10916 
  -10879   -10781   -10542   -10226   -10006   -10041   -10341   -10725 
  -10989   -11037   -10929   -10754   -10524   -10249    -9990    -9788 
   -9670    -9699    -9919   -10258   -10612   -10897   -11028   -10970 
  -10774   -10558   -10455   -10503   -10585   -10584   -10494   -10373 
  -10246   -10119   -10011    -9964   -10015   -10158   -10349   -10543 
  -10724   -10864   -10932   -10909   -10752   -10457   -10134    -9873 
   -9691    -9629    -9767   -10137   -10651   -11136   -11425   -11434 
  -11202   -10831   -10450   -10189   -10108   -10166   -10260   -10303 
  -10285   -10274   -10346   -10465   -10504   -10407   -10223   -10052 
  -10023   -10187   -10474   -10755   -10875   -10750   -10447   -10106 
   -9873    -9869   -10102   -10455   -10783   -10987   -11041   -10979 
  -10868   -10732   -10585   -10432   -10231    -9983    -9776    -9699 
   -9792   -10015   -10230   -10304   -10224   -10092   -10035   -10126 
  -10331   -10577   -10821   -11021   -11149   -11230   -11298   -11325 
  -11236   -10966   -10540   -10092    -9786    -9714    -9829   -10008 
  -10164   -10274   -10355   -10404   -10405   -10354   -10268   -10184 
  -10134   -10123   -10138   -10191   -10319   -10509   -10690   -10806 
  -10849   -10837   -10794   -10729   -10609   -10420   -10227   -10095 
  -10034   -10035   -10080   -10153   -10260   -10381   -10501   -10639 
  -10766   -10800   -10702   -10509   -10305   -10199   -10261   -10473 
  -10697   -10770   -10667   -10486   -10342   -10284   -10284   -10270 
  -10180   -10019    -9871    -9821    -9911   -10135   -10461   -10821 
  -11137   -11354   -11454   -11396   -11126   -10696   -10272    -9996 
   -9904    -9964   -10093   -10185   -10184   -10139   -10129   -10201 
  -10385   -10639   -10871   -11001   -10956   -10721   -10390   -10118 
  -10029   -10169   -10463   -10717   -10763   -10567   -10237    -9930 
   -9755    -9736    -9864   -10083   -10335   -10590   -10791   -10909 
  -10983   -11045   -11079   -11068   -11003   -10905   -10797   -10662 
  -10463   -10192    -9886    -9633    -9512    -9513    -9587    -9725 
   -9931   -10199   -10482   -10658   -10650   -10542   -10484   -10567 
  -10800   -11111   -11373   -11462   -11319   -10964   -10449    -9836 
   -9250    -8912    -9009    -9499   -10126   -10662   -11034   -11240 
  -11254   -11067   -10710   -10266    -9869    -9695    -9838   -10189 
  -10488   -10579   -10543   -10519   -10571   -10667   -10732   -10748 
