Origin Time       2025/03/30 22:55:00
Lat.              41.993
Long.             142.725
Depth. (km)       55
Mag.              4.6
Station Code      HKD112
Station Lat.      41.9370
Station Long.     143.2403
Station Height(m) 15
Record Time       2025/03/30 22:56:17
Sampling Freq(Hz) 100Hz
Duration Time(s)  60
Dir.              U-D
Scale Factor      7845(gal)/8223790
Max. Acc. (gal)   2.667
Last Correction   2025/03/30 22:56:17
Memo.             
   -9505    -9502    -9502    -9505    -9508    -9508    -9506    -9506 
   -9506    -9505    -9505    -9504    -9506    -9506    -9504    -9505 
   -9505    -9506    -9509    -9509    -9508    -9506    -9505    -9508 
   -9509    -9505    -9505    -9508    -9505    -9504    -9506    -9508 
   -9505    -9504    -9506    -9506    -9505    -9504    -9504    -9505 
   -9506    -9506    -9506    -9504    -9505    -9509    -9509    -9506 
   -9504    -9505    -9509    -9509    -9506    -9506    -9506    -9506 
   -9506    -9505    -9508    -9509    -9508    -9505    -9505    -9506 
   -9508    -9506    -9505    -9506    -9506    -9504    -9506    -9508 
   -9506    -9506    -9506    -9506    -9506    -9506    -9509    -9510 
   -9509    -9508    -9505    -9501    -9504    -9508    -9508    -9508 
   -9508    -9505    -9505    -9506    -9506    -9506    -9504    -9505 
   -9505    -9506    -9509    -9508    -9504    -9504    -9505    -9508 
   -9510    -9508    -9504    -9506    -9508    -9505    -9504    -9505 
   -9508    -9509    -9506    -9504    -9506    -9508    -9506    -9506 
   -9506    -9506    -9506    -9506    -9506    -9508    -9508    -9508 
   -9508    -9506    -9504    -9508    -9512    -9512    -9508    -9505 
   -9505    -9505    -9508    -9509    -9506    -9506    -9508    -9505 
   -9504    -9508    -9506    -9504    -9505    -9508    -9506    -9505 
   -9506    -9508    -9505    -9504    -9505    -9506    -9505    -9505 
   -9506    -9506    -9505    -9504    -9502    -9504    -9506    -9506 
   -9505    -9508    -9508    -9504    -9501    -9504    -9506    -9508 
   -9506    -9506    -9506    -9506    -9505    -9505    -9506    -9508 
   -9506    -9505    -9505    -9506    -9506    -9506    -9506    -9505 
   -9504    -9505    -9505    -9506    -9508    -9506    -9505    -9506 
   -9505    -9504    -9505    -9505    -9504    -9504    -9506    -9509 
   -9508    -9504    -9508    -9512    -9508    -9506    -9508    -9508 
   -9508    -9506    -9508    -9505    -9504    -9502    -9504    -9508 
   -9509    -9505    -9504    -9506    -9505    -9505    -9509    -9508 
   -9505    -9504    -9505    -9505    -9504    -9506    -9508    -9505 
   -9504    -9506    -9508    -9504    -9502    -9505    -9508    -9508 
   -9504    -9502    -9505    -9508    -9506    -9505    -9508    -9508 
   -9504    -9505    -9508    -9505    -9502    -9504    -9504    -9505 
   -9508    -9506    -9504    -9506    -9508    -9505    -9505    -9506 
   -9504    -9505    -9508    -9505    -9506    -9506    -9505    -9504 
   -9502    -9506    -9510    -9508    -9502    -9505    -9509    -9508 
   -9505    -9504    -9506    -9509    -9508    -9505    -9506    -9508 
   -9505    -9505    -9508    -9506    -9501    -9502    -9509    -9510 
   -9506    -9504    -9505    -9505    -9504    -9505    -9508    -9506 
   -9504    -9506    -9508    -9508    -9506    -9505    -9504    -9504 
   -9506    -9506    -9505    -9508    -9508    -9505    -9505    -9505 
   -9505    -9508    -9506    -9504    -9505    -9508    -9505    -9505 
   -9508    -9505    -9504    -9506    -9509    -9506    -9505    -9505 
   -9504    -9505    -9505    -9504    -9506    -9510    -9509    -9506 
   -9506    -9504    -9502    -9502    -9505    -9508    -9506    -9505 
   -9505    -9505    -9504    -9506    -9509    -9506    -9504    -9505 
   -9509    -9508    -9502    -9504    -9505    -9505    -9508    -9510 
   -9506    -9506    -9509    -9506    -9502    -9502    -9502    -9508 
   -9512    -9506    -9505    -9506    -9505    -9504    -9504    -9505 
   -9505    -9505    -9508    -9510    -9508    -9504    -9502    -9504 
   -9505    -9506    -9506    -9506    -9505    -9505    -9506    -9506 
   -9505    -9501    -9501    -9509    -9513    -9509    -9504    -9504 
   -9502    -9501    -9502    -9508    -9510    -9506    -9505    -9508 
   -9508    -9505    -9502    -9502    -9506    -9509    -9509    -9509 
   -9506    -9502    -9505    -9506    -9504    -9504    -9506    -9508 
   -9509    -9508    -9504    -9502    -9502    -9502    -9505    -9509 
   -9508    -9506    -9505    -9504    -9506    -9506    -9502    -9502 
   -9508    -9508    -9505    -9505    -9504    -9505    -9506    -9504 
   -9505    -9510    -9512    -9506    -9504    -9502    -9504    -9508 
   -9506    -9502    -9504    -9506    -9508    -9504    -9502    -9505 
   -9506    -9502    -9505    -9510    -9509    -9504    -9502    -9506 
   -9505    -9501    -9502    -9505    -9505    -9504    -9504    -9506 
   -9505    -9499    -9499    -9505    -9509    -9508    -9505    -9505 
   -9506    -9504    -9504    -9506    -9506    -9506    -9509    -9510 
   -9505    -9502    -9504    -9505    -9504    -9505    -9506    -9505 
   -9504    -9504    -9504    -9505    -9505    -9504    -9504    -9505 
   -9508    -9509    -9508    -9502    -9499    -9504    -9506    -9505 
   -9506    -9509    -9510    -9504    -9498    -9502    -9505    -9504 
   -9502    -9505    -9506    -9504    -9502    -9506    -9506    -9505 
   -9505    -9504    -9506    -9506    -9506    -9506    -9505    -9504 
   -9505    -9506    -9506    -9505    -9508    -9506    -9506    -9506 
   -9505    -9505    -9505    -9506    -9506    -9506    -9505    -9505 
   -9504    -9505    -9506    -9505    -9504    -9505    -9508    -9509 
   -9506    -9502    -9504    -9505    -9504    -9506    -9506    -9506 
   -9506    -9505    -9506    -9505    -9501    -9505    -9508    -9504 
   -9505    -9508    -9506    -9506    -9508    -9506    -9504    -9502 
   -9502    -9505    -9509    -9509    -9508    -9506    -9501    -9499 
   -9505    -9509    -9506    -9505    -9506    -9508    -9505    -9504 
   -9505    -9506    -9505    -9505    -9504    -9506    -9510    -9506 
   -9501    -9504    -9505    -9502    -9505    -9510    -9510    -9505 
   -9504    -9506    -9504    -9502    -9505    -9508    -9509    -9506 
   -9504    -9506    -9506    -9504    -9505    -9506    -9506    -9508 
   -9506    -9506    -9508    -9504    -9501    -9504    -9505    -9508 
   -9512    -9508    -9501    -9499    -9504    -9505    -9505    -9504 
   -9506    -9509    -9508    -9505    -9502    -9504    -9505    -9504 
   -9504    -9506    -9505    -9501    -9501    -9495    -9485    -9470 
   -9458    -9458    -9472    -9485    -9468    -9420    -9367    -9355 
   -9398    -9448    -9425    -9305    -9180    -9193    -9381    -9562 
   -9539    -9359    -9224    -9248    -9433    -9652    -9671    -9429 
   -9234    -9402    -9779    -9911    -9648    -9297    -9312    -9751 
  -10112   -10057    -9790    -9579    -9626   -10075   -10400    -9844 
   -8949    -8932    -9711   -10312   -10266    -9747    -9344    -9337 
   -9269    -9143    -9408    -9722    -9715    -9652    -9724    -9867 
   -9639    -8773    -8195    -8467    -8865    -9521   -10663   -10686 
   -9217    -8426    -8846    -9049    -9155    -9783   -10014    -9563 
   -9543   -10176   -10650   -10323    -9243    -8752    -9475    -9559 
   -8571    -8831   -10339   -10804   -10195    -9539    -8689    -8127 
   -8807   -10170   -10665    -9614    -8249    -8594   -10609   -11728 
  -10242    -7661    -6710    -8252   -10798   -11920   -10478    -8343 
   -8299    -9971   -10496    -9080    -7974    -8730   -10007   -10143 
   -9713    -9915   -10393   -10187    -9148    -8014    -8193   -10014 
  -11330   -10304    -8368    -8054    -9418   -10490   -10072    -8723 
   -7954    -8973   -10771   -10933    -9564    -8838    -9076    -9358 
   -9583    -9455    -9005    -9344   -10226   -10295    -9634    -8982 
   -8927    -9761   -10282    -9819    -9622    -9666    -9193    -9377 
  -10395   -10332    -8949    -7998    -8622   -10255   -10871    -9636 
   -8633    -9184    -9917    -9892    -9367    -8922    -9424   -10251 
   -9697    -8509    -8661    -9533    -9655    -9444    -9610    -9798 
   -9821    -9998    -9899    -9042    -8448    -9009    -9787    -9961 
   -9892    -9537    -9007    -9063    -9583   -10039   -10085    -9424 
   -9054    -9861   -10342    -9532    -8965    -9313    -9607    -9531 
   -9246    -9034    -9472   -10231   -10083    -8988    -8583    -9644 
  -10515    -9832    -8785    -8743    -9575   -10540   -10548    -9504 
   -8783    -8691    -8669    -9086    -9714    -9715    -9680   -10118 
  -10157    -9601    -9190    -9320    -9868   -10130    -9518    -8714 
   -8776    -9471    -9717    -9126    -8509    -8811    -9828   -10762 
  -11061   -10130    -8276    -7650    -9467   -11362   -10705    -8656 
   -7804    -8660   -10098   -10781   -10357    -9535    -8538    -7848 
   -8965   -11022   -11190    -9822    -8966    -8527    -8622   -10018 
  -11236   -10312    -8190    -7735    -9788   -11477   -10380    -8247 
   -7724    -8739   -10046   -10908   -10647    -9263    -8271    -8958 
  -10470   -11140   -10663    -9567    -8186    -7601    -8977   -10905 
  -11082    -9829    -8490    -7596    -8149   -10465   -12031   -10417 
   -7437    -7105    -9900   -11886   -10501    -8255    -8040    -9034 
  -10006   -10943   -10629    -8529    -7142    -8549   -11207   -11766 
   -9373    -7118    -7709    -9710   -10577   -10291    -9699    -8945 
   -8554    -9130   -10191   -10835   -10578    -9509    -8625    -9000 
  -10002   -10354   -10191    -9926    -9398    -9161    -9684   -10053 
   -9749    -9324    -8912    -8812    -9490   -10014    -9744    -9514 
   -9090    -8198    -8573   -10323   -10940    -9769    -8563    -8467 
   -9188    -9927   -10170    -9533    -8253    -8073    -9752   -11059 
  -10444    -9116    -8363    -8924   -10635   -11219    -9630    -8163 
   -8305    -9163   -10187   -10868    -9967    -8244    -8334   -10188 
  -11119   -10188    -8648    -7996    -9054   -10767   -11176   -10189 
   -8812    -7728    -8037    -9717   -10805   -10489    -9506    -8461 
   -8461    -9906   -10975   -10453    -9200    -8405    -8924   -10341 
  -10917   -10245    -9130    -8120    -8391    -9963   -10409    -9306 
   -8807    -9239    -9618    -9680    -9292    -9012    -9560    -9925 
   -9247    -8700    -9374   -10492   -10368    -9089    -9055   -10449 
  -10455    -9134    -9028    -9765    -9756    -9327    -8954    -8908 
   -9497    -9977    -9987    -9895    -9302    -8658    -9269   -10308 
  -10115    -9175    -8934    -9548    -9869    -9462    -9591   -10180 
   -9351    -8193    -9089   -10095    -9063    -8378    -9532   -10374 
   -9985    -9765   -10191   -10336    -9778    -9107    -8923    -9317 
   -9763    -9602    -9046    -8648    -8567    -9124   -10138   -10404 
   -9720    -9158    -8943    -8878    -9390   -10230   -10350    -9559 
   -8700    -8588    -9428   -10633   -10837    -9427    -8182    -8997 
  -10482   -10137    -8607    -8189    -9067   -10019   -10521   -10507 
   -9954    -9417    -9441    -9745    -9910    -9670    -9047    -9028 
   -9786    -9666    -8749    -9155   -10179    -9468    -8341    -9036 
  -10174   -10060    -9555    -9401    -9186    -9216   -10108   -10960 
  -10246    -8276    -7141    -8070    -9937   -10702    -9822    -8792 
   -9146   -10446   -10829    -9559    -8364    -9005   -10486   -10747 
   -9721    -8769    -8748    -9601   -10453   -10519    -9821    -8669 
   -8124    -9136   -10038    -9212    -8613    -9832   -10891   -10112 
   -8634    -8124    -8874    -9796    -9768    -9424    -9890   -10362 
   -9904    -9352    -9252    -9065    -8946    -9680   -10681   -10276 
   -8515    -7585    -8901   -11102   -11669   -10233    -8660    -8097 
   -8579    -9861   -10521    -9625    -8833    -9552   -10585   -10254 
   -8672    -7653    -8581   -10297   -10986   -10732    -9867    -8606 
   -8592    -9933   -10206    -9347    -9250    -9433    -8943    -8860 
   -9482    -9421    -8901    -9605   -10879   -10467    -8846    -8314 
   -8883    -9409   -10069   -10543    -9844    -8762    -8576    -9111 
   -9769    -9919    -9493    -9620   -10322   -10238    -9514    -9131 
   -8888    -8853    -9468    -9926    -9782    -9910   -10035    -9185 
   -8594    -9661   -10844   -10513    -9323    -8284    -8109    -9252 
  -10710   -10952    -9842    -8313    -7866    -9471   -11275   -10820 
   -9097    -8510    -9198    -9648    -9190    -8946    -9502    -9478 
   -8677    -8823    -9998   -10582    -9776    -8336    -8266   -10260 
  -11727   -10650    -8764    -8233    -8976    -9887   -10075    -9691 
   -9246    -8587    -8429    -9645   -10736   -10392    -9968   -10061 
   -9278    -8224    -9018   -10642   -10382    -8708    -8081    -8795 
   -9624   -10142   -10189    -9540    -8622    -8141    -8559    -9567 
  -10025    -9718    -9774   -10338   -10482   -10120    -9890   -10096 
  -10477   -10354    -9494    -8826    -9085    -9435    -9039    -8461 
   -8517    -9271   -10030    -9899    -8874    -7992    -8415   -10184 
  -11573   -10827    -8876    -8330    -9560   -10504   -10272    -9784 
   -9464    -9115    -9020    -9540   -10257   -10116    -8993    -8490 
   -9566   -10746   -10575    -9688    -9040    -8673    -8758    -9386 
   -9572    -8581    -7736    -8731   -10465   -10596    -9663    -9559 
   -9838    -9620    -9501    -9478    -9262    -9564    -9949    -9274 
   -8506    -8856    -9752   -10444   -10457    -9667    -9184    -9587 
   -9845    -9526    -9109    -8677    -8633    -9448   -10258   -10035 
   -9242    -8962    -9447   -10052   -10085    -9520    -8788    -8318 
   -8807   -10288   -10895    -9489    -8070    -8588    -9946   -10126 
   -9194    -8891    -9980   -11333   -11346    -9645    -8105    -8644 
   -9896    -9803    -9242    -9150    -8973    -9274   -10288   -10282 
   -9018    -8452    -9416   -10835   -11156    -9882    -8280    -7604 
   -7843    -8837   -10276   -10864    -9617    -7843    -8122   -10594 
  -12017   -10442    -8236    -8079    -9559   -10868   -10650    -9094 
   -8232    -9082   -10314   -10808   -10427    -9290    -8364    -8522 
   -9292   -10000   -10408   -10169    -9436    -9030    -9181    -9587 
  -10215   -10636    -9938    -8499    -8131    -9301   -10373   -10440 
  -10280   -10226    -9744    -9067    -9085    -9589    -9495    -9059 
   -9450   -10071    -9603    -8804    -8877    -9270    -9201    -8926 
   -8770    -8876    -9386    -9950   -10272   -10609   -10658    -9846 
   -8946    -9198   -10253   -10530    -9455    -8264    -8363    -9679 
  -10849   -10777    -9687    -8517    -7916    -7913    -8372    -9508 
  -10731   -10373    -8768    -8536   -10129   -11111   -10292    -8822 
   -7915    -8028    -8903    -9594    -9541    -9200    -9294   -10145 
  -11227   -11503   -10790    -9883    -9460    -9909   -10845   -10655 
   -8839    -7597    -8195    -8849    -8428    -8035    -8097    -8024 
   -8212    -9229   -10426   -11130   -11415   -11273   -10629    -9956 
   -9734    -9748    -9486    -8787    -8106    -8221    -9063    -9562 
   -9409    -9412    -9591    -9274    -8899    -9294    -9875    -9647 
   -8843    -8507    -9285   -10584   -10966   -10087    -9309    -9552 
  -10075    -9968    -9333    -8914    -9130    -9563    -9868   -10222 
  -10192    -9456    -9192    -9850   -10027    -9351    -8733    -8526 
   -9004   -10007   -10446   -10125    -9798    -9709    -9837    -9942 
   -9540    -9030    -9161    -9467    -9254    -8942    -9026    -9335 
   -9532    -9371    -9070    -9124    -9563   -10095   -10287    -9709 
   -8780    -8541    -9281   -10115    -9949    -8850    -8145    -8696 
   -9852   -10546   -10606   -10486   -10405   -10258    -9937    -9366 
   -8650    -8276    -8725    -9751   -10424   -10289    -9823    -9413 
   -9136    -9331    -9907    -9981    -9292    -8633    -8615    -9205 
   -9782    -9626    -9197    -9332    -9607    -9548    -9660    -9956 
   -9738    -9175    -9134    -9675   -10081   -10015    -9802    -9703 
   -9626    -9564    -9467    -9016    -8324    -8241    -9148    -9896 
   -9421    -8710    -9173   -10303   -10687   -10046    -9251    -8997 
   -9051    -8980    -8853    -8829    -9000    -9518   -10133   -10372 
  -10265   -10075    -9784    -9427    -9115    -8760    -8557    -8904 
   -9612   -10150   -10368   -10423   -10235    -9644    -9162    -9428 
   -9958    -9792    -9062    -8795    -9351    -9823    -9499    -9070 
   -9189    -9298    -9126    -9221    -9437    -9410    -9814   -11029 
  -12108   -11969   -10497    -8880    -8568    -9162    -8985    -7892 
   -7222    -7604    -8776   -10230   -11087   -10910   -10384   -10315 
  -10620   -10488    -9447    -8178    -7693    -7921    -8086    -8051 
   -8270    -8892    -9640   -10332   -11055   -11619   -11568   -11013 
  -10497    -9963    -9074    -8256    -8075    -8156    -8016    -8137 
   -8915    -9697    -9856    -9725    -9902   -10347   -10687   -10867 
  -10764    -9957    -8687    -8055    -8449    -9066    -9379    -9420 
   -9085    -8739    -9174   -10312   -11184   -10974    -9749    -8676 
   -8862    -9707    -9913    -9572    -9317    -8991    -8691    -9039 
   -9819    -9990    -9128    -8186    -8464    -9922   -11159   -11219 
  -10596   -10204   -10153    -9918    -9244    -8549    -8329    -8554 
   -8962    -9358    -9539    -9464    -9340    -9421    -9840   -10416 
  -10719   -10501    -9923    -9281    -8922    -9204    -9856    -9936 
   -9113    -8222    -8044    -8538    -9296    -9882    -9930    -9393 
   -8797    -8869    -9656   -10538   -10964   -10681    -9776    -8966 
   -9086    -9774    -9653    -8459    -7658    -8311    -9618   -10385 
  -10439   -10112    -9786    -9900   -10309   -10116    -9081    -8267 
   -8445    -9084    -9471    -9591    -9567    -9333    -9171    -9553 
  -10206   -10358    -9996    -9767    -9744    -9526    -9139    -8847 
   -8831    -9105    -9379    -9489    -9671   -10044   -10343   -10324 
  -10095    -9952    -9936    -9786    -9499    -9363    -9404    -9485 
   -9586    -9636    -9599    -9567    -9528    -9439    -9302    -9042 
   -8791    -8943    -9564   -10048    -9715    -8841    -8522    -9181 
   -9899    -9791    -9096    -8505    -8328    -8542    -9030    -9566 
   -9745    -9467    -9413   -10107   -10984   -11307   -11007   -10251 
   -9290    -8611    -8502    -8627    -8438    -8058    -8241    -9124 
   -9968   -10311   -10305   -10223   -10160    -9975    -9629    -9381 
   -9332    -9389    -9597    -9877    -9953    -9876   -10039   -10489 
  -10648   -10087    -9258    -8854    -8926    -9144    -9288    -9216 
   -8996    -8970    -9251    -9558    -9637    -9443    -9090    -8845 
   -8877    -9027    -9061    -9051    -9223    -9535    -9687    -9566 
   -9439    -9540    -9815   -10095   -10196    -9999    -9664    -9598 
   -9944   -10320   -10260    -9706    -8993    -8599    -8845    -9589 
  -10243   -10273    -9822    -9633    -9965   -10153    -9686    -9038 
   -8792    -8791    -8793    -8997    -9371    -9504    -9336    -9181 
   -9146    -9197    -9397    -9691    -9834    -9656    -9296    -9189 
   -9602   -10069    -9877    -9181    -8834    -9192    -9787   -10052 
   -9833    -9418    -9248    -9459    -9825   -10060   -10007    -9706 
   -9466    -9612    -9999   -10158    -9999    -9782    -9613    -9524 
   -9548    -9440    -9012    -8573    -8495    -8773    -9251    -9702 
   -9829    -9632    -9556    -9865   -10120    -9802    -9111    -8641 
   -8662    -9015    -9340    -9433    -9400    -9493    -9906   -10515 
  -10820   -10430    -9605    -9063    -9101    -9265    -9092    -8660 
