Origin Time       2025/03/30 22:55:00
Lat.              41.993
Long.             142.725
Depth. (km)       55
Mag.              4.6
Station Code      HKD127
Station Lat.      42.8743
Station Long.     141.8204
Station Height(m) 61
Record Time       2025/03/30 22:56:35
Sampling Freq(Hz) 100Hz
Duration Time(s)  60
Dir.              E-W
Scale Factor      7845(gal)/8223790
Max. Acc. (gal)   2.906
Last Correction   2025/03/30 22:56:36
Memo.             
[...]
    1181     1042     1017     1080     1129     1089      999     1013 
    1223     1526     1748     1788     1665     1485     1366     1364 
    1410     1405     1360     1355     1372     1325     1201     1059 
     926      814      819     1020     1348     1642     1796     1811 
    1752     1661     1559     1458     1345     1209     1059      903 
     799      823      972     1202     1493     1792     1983     1957 
    1734     1426     1170     1071     1136     1244     1267     1152 
     967      850      884     1059     1329     1611     1782     1753 
    1566     1368     1296     1367     1476     1513     1452     1351 
    1260     1205     1196     1204     1163     1066      982      988 
    1089     1256     1431     1541     1579     1598     1613     1580 
    1499     1433     1414     1399     1327     1208     1134     1175 
    1287     1364     1348     1266     1185     1128     1071     1040 
    1109     1279     1460     1576     1642     1652     1524     1250 
     994      954     1144     1405     1551     1483     1293     1182 
    1260     1441     1552     1509     1386     1327     1366     1386 
    1318     1235     1193     1173     1165     1206     1336     1522 
    1667     1651     1436     1135      927      904     1034     1231 
    1422     1543     1525     1385     1275     1308     1410     1441 
    1379     1332     1371     1440     1426     1302     1158     1109 
    1155     1227     1306     1410     1495     1510     1485     1474 
    1458     1374     1210     1039      988     1092     1236     1317 
    1313     1290     1335     1417     1418     1325     1271     1363 
    1541     1664     1647     1521     1406     1363     1323     1235 
    1148     1120     1148     1198     1236     1269     1301     1302 
    1254     1209     1252     1375     1471     1470     1402     1339 
    1339     1371     1333     1185     1024      986     1132     1395 
    1629     1723     1686     1599     1485     1324     1156     1042 
     989      986     1030     1125     1266     1402     1494     1566 
    1632     1641     1541     1358     1173     1031      965      997 
    1096     1231     1374     1476     1545     1628     1703     1690 
    1576     1444     1351     1259     1116      961      904     1023 
    1252     1444     1516     1474     1372     1285     1250     1237 
    1220     1231     1291     1399     1533     1621     1571     1389 
    1171     1024     1000     1098     1281     1468     1563     1506 
    1358     1248     1254     1335     1425     1495     1539     1520 
    1420     1267     1109      986      934      951     1015     1139 
    1378     1687     1873     1783     1486     1197     1080     1128 
    1244     1367     1466     1478     1391     1318     1385     1568 
    1682     1547     1196      855      729      870     1212     1597 
    1807     1696     1358     1085     1096     1321     1520     1552 
    1478     1398     1341     1313     1327     1331     1243     1082 
     969      990     1127     1277     1348     1347     1354     1413 
    1509     1613     1702     1718     1580     1300     1000      830 
     849     1004     1219     1432     1576     1598     1517     1421 
    1343     1252     1166     1134     1177     1264     1337     1397 
    1486     1576     1595     1506     1324     1121      988      961 
    1031     1178     1350     1463     1470     1381     1260     1209 
    1275     1410     1536     1580     1493     1298     1121     1074 
    1201     1433     1593     1557     1401     1278     1252     1318 
    1449     1561     1532     1314     1005      785      783      955 
    1175     1389     1572     1641     1547     1364     1256     1327 
    1518     1664     1713     1736     1705     1502     1169      922 
     886      973     1046     1093     1182     1316     1395     1327 
    1169     1102     1227     1445     1601     1645     1625     1584 
    1525     1404     1217     1036      924      920     1059     1282 
    1452     1512     1513     1502     1464     1377     1266     1231 
    1339     1532     1661     1628     1453     1252     1128     1097 
    1123     1181     1243     1256     1186     1063      985     1038 
    1219     1455     1675     1810     1806     1663     1428     1204 
    1129     1232     1345     1325     1248     1271     1382     1472 
    1490     1435     1329     1244     1229     1264     1282     1233 
    1127     1026      973      965     1012     1129     1297     1475 
    1645     1773     1840     1842     1745     1545     1339     1227 
    1212     1223     1228     1232     1208     1115      959      830 
     864     1102     1426     1680     1783     1717     1547     1425 
    1445     1495     1409     1198     1012      942      974     1047 
    1129     1247     1417     1599     1742     1827     1825     1679 
    1385     1034      774      706      841     1116     1416     1633 
    1702     1617     1449     1291     1194     1194     1297     1422 
    1510     1552     1522     1364     1092      818      702      820 
    1111     1451     1738     1864     1746     1445     1156     1069 
    1196     1375     1458     1451     1439     1441     1451     1464 
    1471     1440     1327     1138      986      984     1089     1186 
    1229     1263     1331     1383     1352     1282     1302     1453 
    1637     1709     1605     1391     1200     1096     1084     1179 
    1356     1482     1448     1266     1047      918      931     1061 
    1274     1536     1759     1852     1780     1553     1262     1054 
    1017     1112     1247     1339     1325     1255     1254     1337 
    1395     1364     1294     1273     1313     1327     1264     1209 
    1227     1294     1416     1603     1767     1782     1625     1394 
    1205     1116     1070      990      943     1062     1301     1483 
    1536     1491     1395     1305     1290     1356     1414     1401 
    1362     1367     1406     1402     1290     1113      997     1008 
    1121     1290     1490     1657     1702     1580     1350     1140 
    1054     1088     1175     1269     1354     1435     1512     1572 
    1597     1552     1410     1217     1075     1035     1089     1201 
    1306     1339     1273     1161     1101     1147     1259     1348 
    1363     1296     1208     1240     1460     1726     1848     1768 
    1564     1358     1242     1240     1289     1271     1158     1039 
    1028     1185     1463     1687     1668     1418     1144     1027 
    1092     1236     1359     1451     1513     1490     1378     1262 
    1185     1086      955      897     1019     1279     1553     1784 
    2007     2166     2099     1740     1227      814      666      745 
     909     1069     1167     1192     1213     1321     1497     1624 
    1640     1591     1561     1559     1489     1274      990      812 
     830      993     1201     1389     1549     1691     1756     1642 
    1370     1116     1053     1219     1474     1607     1524     1297 
    1071      958     1011     1212     1425     1482     1379     1269 
    1300     1497     1713     1756     1568     1266     1015      901 
     919     1012     1111     1181     1227     1254     1275     1347 
    1513     1706     1776     1665     1503     1444     1483     1470 
    1324     1136     1036     1032     1053     1094     1239     1501 
    1725     1718     1472     1167      969      926     1019     1208 
    1439     1637     1717     1644     1482     1305     1138      997 
     926      955     1104     1336     1545     1652     1660     1597 
    1486     1359     1250     1202     1251     1339     1335     1231 
    1171     1198     1182     1088     1047     1189     1480     1729 
    1767     1644     1497     1348     1185     1080     1085     1156 
    1244     1328     1397     1435     1412     1321     1212     1132 
    1117     1210     1412     1618     1699     1618     1471     1385 
    1371     1328     1217     1102     1036     1044     1131     1250 
    1351     1413     1421     1391     1379     1422     1517     1628 
    1687     1653     1507     1229      874      623      602      769 
    1034     1325     1561     1679     1680     1632     1603     1591 
    1495     1300     1166     1242     1447     1582     1507     1274 
    1084     1057     1088     1046      967      996     1197     1468 
    1672     1769     1777     1694     1528     1355     1252     1204 
    1120      955      793      791      985     1217     1339     1395 
    1536     1769     1922     1871     1678     1474     1314     1182 
    1078     1027     1011     1005     1054     1220     1453     1594 
    1553     1420     1304     1219     1127     1048     1082     1274 
    1494     1572     1479     1300     1143     1100     1183     1318 
    1408     1410     1360     1327     1354     1453     1560     1570 
    1472     1381     1375     1412     1408     1363     1359     1447 
    1568     1598     1478     1277     1080      946      905      959 
    1102     1279     1401     1440     1412     1335     1258     1243 
    1309     1418     1497     1445     1224      930      735      768 
    1055     1514     1952     2199     2216     2076     1868     1610 
    1293      973      722      565      526      634      850     1040 
    1093     1071     1165     1463     1860     2154     2238     2138 
    1888     1462      931      542      495      743     1075     1313 
    1441     1547     1653     1686     1614     1518     1474     1475 
    1467     1412     1356     1352     1351     1279     1158     1067 
    1058     1085     1101     1158     1339     1602     1779     1765 
    1602     1372     1147      981      889      839      834      934 
    1161     1417     1588     1675     1732     1771     1746     1595 
    1358     1169     1062      954      834      826     1048     1485 
    1938     2172     2118     1854     1462     1038      743      639 
     627      603      567      592      762     1063     1381     1593 
    1679     1691     1682     1659     1630     1617     1640     1665 
    1629     1498     1301     1104      977      959     1039     1150 
    1206     1190     1188     1305     1544     1760     1822     1759 
    1682     1626     1524     1317     1094      996     1077     1250 
    1368     1375     1320     1236     1098      926      830      912 
    1151     1416     1587     1660     1678     1626     1467     1269 
    1202     1389     1749     2043     2062     1807     1455     1167 
     986      919      966     1085     1194     1251     1273     1291 
    1278     1196     1108     1117     1219     1313     1340     1298 
    1202     1112     1096     1167     1302     1458     1582     1657 
    1672     1555     1269      909      697      796     1154     1572 
    1899     2069     2052     1864     1607     1362     1121      882 
     672      504      414      427      553      819     1237     1728 
    2181     2524     2674     2565     2228     1786     1367     1050 
     842      734      739      864     1020     1063      931      697 
     564      706     1098     1498     1671     1624     1548     1557 
    1617     1659     1660     1659     1672     1663     1663     1771 
    1949     1960     1647     1159      796      731      920     1193 
    1372     1381     1219      949      696      569      633      919 
    1341     1691     1837     1819     1698     1480     1215     1007 
     954     1097     1366     1590     1659     1599     1499     1451 
    1524     1709     1867     1825     1506      961      382       25 
      54      460     1066     1601     1875     1898     1798     1687 
    1588     1522     1544     1692     1966     2266     2374     2099 
    1458      673       22     -292     -179      329     1069     1810 
    2359     2582     2424     2008     1575     1263     1031      785 
     510      313      345      656     1125     1580     1923     2182 
    2400     2500     2347     1918     1347      800      371       94 
       0      125      471      946     1417     1776     1976     2041 
    2015     1941     1885     1906     1977     1991     1811     1371 
     769      234       12      226      772     1343     1648     1617 
    1377     1117      989     1065     1309     1595     1787     1800 
    1613     1290      985      854      949     1146     1270     1275 
    1240     1242     1291     1351     1416     1512     1587     1540 
    1351     1136     1051     1162     1401     1683     1973     2215 
    2295     2122     1718     1202      711      391      379      734 
    1328     1840     1948     1582      927      270     -137     -121 
     338     1101     1942     2647     3051     3071     2722     2170 
    1683     1386     1175      936      688      507      441      479 
     602      807     1071     1352     1582     1672     1563     1332 
    1186     1283     1580     1863     1923     1695     1269      861 
     729      970     1420     1759     1733     1313      711      278 
     279      702     1275     1705     1846     1799     1784     1922 
    2135     2235     2068     1640     1104      661      448      477 
     706     1069     1490     1929     2331     2563     2498     2108 
    1464      757      328      460     1142     2027     2593     2423 
    1487      145    -1080    -1722    -1528     -558      837     2182 
    3110     3520     3562     3423     3152     2689     2035     1318 
     695      241      -17      -56      106      367      625      868 
    1136     1441     1699     1730     1420      916      569      668 
    1232     2031     2741     3110     3003     2454     1715     1158 
    1015     1200     1398     1302      799       60     -518     -573 
     -35      808     1534     1917     1973     1800     1499     1232 
    1201     1505     2066     2670     3030     2901     2235     1269 
     441      117      355      900     1383     1518     1217      592 
     -76     -479     -423       95      961     1965     2828     3299 
    3275     2832     2146     1429      927      849     1213     1815 
    2350     2586     2466     2033     1364      631       78     -155 
    -121       35      251      534      818      999     1044     1042 
    1124     1372     1783     2300     2820     3167     3188     2875 
    2312     1598      846      160     -378     -658     -548      -39 
     693     1370     1780     1888     1795     1651     1541     1491 
    1505     1567     1655     1738     1773     1709     1501     1159 
     795      557      562      803     1124     1317     1298     1188 
    1198     1453     1894     2344     2640     2679     2434     1933 
    1286      653      207      121      469     1098     1668     1904 
    1742     1260      621       27     -319     -256      275     1142 
    2093     2940     3538     3748     3516     2905     2045     1105 
     260     -332     -573     -465     -114      330      789     1260 
    1715     2045     2153     2039     1804     1602     1525     1561 
    1663     1823     2027     2197     2181     1837     1163      371 
    -241     -479     -334       98      746     1518     2211     2571 
    2494     2164     1891     1782     1699     1482     1085      611 
     274      280      718     1444     2103     2384     2189     1614 
     877      270       33      256      866     1657     2342     2637 
    2384     1659      815      282      278      743     1436     2042 
    2312     2170     1723     1182      784      662      789     1059 
    1374     1607     1684     1671     1669     1696     1707     1645 
    1499     1340     1227     1150     1097     1124     1273     1459 
    1518     1374     1098      830      672      666      799     1020 
    1264     1487     1706     1915     2012     1917     1653     1316 
    1016      826      791      926     1169     1405     1536     1520 
    1390     1227     1086      977      915      974     1229     1657 
    2130     2448     2479     2281     2030     1845     1713     1534 
    1246      862      479      222      186      375      693     1027 
    1308     1433     1285      913      546      444      758     1404 
    2101     2548     2560     2160     1541      989      793     1111 
    1827     2596     3022     2898     2272     1358      407     -346 
    -742     -745     -436       44      630     1314     2012     2556 
    2849     2883     2695     2367     2004     1661     1305      858 
     337     -110     -282      -62      479     1111     1566     1722 
    1684     1655     1748     1954     2150     2176     1969     1605 
    1235      980      882      904      966     1011     1032     1059 
    1139     1343     1692     2065     2258     2170     1861     1449 
     982      491      112       45      365      940     1525     1876 
    1840     1493     1121      990     1167     1522     1892     2200 
    2420     2481     2307     1867     1190      392     -319     -700 
    -585       -4      820     1588     2084     2266     2272     2330 
    2539     2739     2710     2394     1911     1425     1000      608 
     272      106      172      369      517      502      364      272 
     406      797     1370     2053     2775     3402     3730     3609 
    3057     2241     1366      568     -114     -661     -980     -953 
    -527      248     1212     2104     2695     2893     2729     2347 
    1931     1576     1283     1044      893      886     1048     1296 
    1478     1510     1408     1252     1163     1236     1435     1580 
    1545     1397     1317     1401     1576     1674     1566     1266 
     891      599      560      845     1375     1929     2228     2097 
    1583      961      588      670     1115     1620     1896     1841 
    1539     1150      837      697      731      869     1031     1158 
    1221     1232     1266     1416     1702     2016     2193     2143 
    1922     1669     1470     1306     1158     1019      908      872 
     932     1008     1009      980     1030     1162     1293     1382 
    1467     1587     1706     1748     1713     1660     1615     1548 
    1424     1221      935      627      449      544      969     1649 
    2330     2709     2662     2263     1679     1075      606      386 
     437      662      897     1012     1000      967     1000     1098 
    1240     1426     1644     1834     1926     1880     1696     1432 
    1220     1204     1444     1814     2062     2003     1638     1143 
     727      507      471      531      621      726      878     1116 
    1443     1794     2053     2133     2025     1798     1563     1417 
    1410     1516     1637     1652     1494     1217      946      770 
     680      623      614      731     1020     1398     1687     1771 
    1651     1409     1197     1174     1343     1532     1568     1444 
    1279     1188     1183     1210     1250     1328     1420     1459 
    1424     1362     1345     1410     1524     1628     1661     1559 
    1323     1050      865      826      930     1162     1490     1829 
    2035     1961     1572     1046      670      641      924     1314 
