Origin Time       2025/03/30 22:55:00
Lat.              41.993
Long.             142.725
Depth. (km)       55
Mag.              4.6
Station Code      HKD185
Station Lat.      42.7756
Station Long.     141.4016
Station Height(m) 266
Record Time       2025/03/30 22:56:41
Sampling Freq(Hz) 100Hz
Duration Time(s)  60
Dir.              U-D
Scale Factor      7845(gal)/8223790
Max. Acc. (gal)   1.244
Last Correction   2025/03/30 22:56:41
Memo.             
    5059     4888     4935     5107     5360     5601     5568     5351 
    5121     4896     4931     5224     5339     5227     5108     5073 
    5273     5617     5732     5589     5325     4957     4715     4789 
    5049     5308     5395     5400     5553     5647     5416     5001 
    4630     4591     5049     5574     5714     5598     5391     5192 
    5162     5127     4976     5020     5267     5432     5466     5351 
    5132     5062     5246     5466     5454     5209     5015     5032 
    5213     5458     5462     5161     5044     5146     5077     5103 
    5440     5602     5435     5289     5238     5162     5070     5077 
    5188     5267     5325     5368     5271     5194     5294     5267 
    5013     4924     5163     5499     5599     5358     5086     5081 
    5198     5193     5144     5221     5285     5228     5204     5174 
    5069     5140     5389     5501     5510     5536     5414     5148 
    4950     4892     4951     5142     5398     5547     5549     5522 
    5451     5227     4973     4926     5049     5174     5323     5412 
    5251     5082     5142     5147     5094     5252     5447     5541 
    5587     5427     5090     4824     4750     5001     5386     5447 
    5310     5293     5271     5233     5321     5400     5356     5313 
    5242     5034     4904     5054     5325     5487     5472     5385 
    5320     5250     5220     5194     5089     5100     5244     5274 
    5205     5105     5061     5229     5355     5175     4974     5040 
    5395     5802     5786     5313     4949     4946     5094     5304 
    5475     5412     5200     5043     4972     4976     5097     5337 
    5495     5382     5243     5313     5405     5466     5491     5242 
    4901     4831     4932     5143     5383     5414     5406     5458 
    5255     4966     5017     5239     5370     5435     5340     5112 
    5034     5159     5336     5413     5310     5227     5325     5371 
    5292     5287     5270     5206     5279     5250     4943     4823 
    5112     5443     5544     5402     5134     5019     5165     5286 
    5211     5166     5355     5575     5509     5259     5103     5080 
    5151     5174     5049     4982     5042     5123     5294     5493 
    5490     5336     5267     5346     5386     5243     5036     4946 
    5024     5243     5512     5678     5601     5395     5301     5223 
    5023     4891     4932     5032     5236     5552     5625     5247 
    4804     4739     5000     5296     5516     5603     5528     5494 
    5572     5466     5177     5036     5044     5047     5116     5248 
    5247     5135     5107     5123     5111     5167     5256     5246 
    5202     5263     5337     5325     5440     5705     5670     5193 
    4707     4649     5053     5448     5439     5267     5279     5452 
    5602     5530     5162     4743     4661     4949     5267     5452 
    5555     5475     5235     5080     4984     4939     5208     5614 
    5721     5574     5327     5013     4872     5031     5192     5132 
    5031     5085     5258     5395     5427     5412     5418     5414 
    5310     5115     5004     5151     5464     5614     5487     5292 
    5080     4874     4841     4926     5040     5255     5486     5567 
    5464     5290     5213     5193     5067     4976     5138     5417 
    5518     5377     5162     5081     5175     5289     5364     5433 
    5394     5293     5250     5113     4861     4752     4905     5258 
    5528     5445     5235     5143     5109     5255     5495     5475 
    5382     5433     5401     5327     5319     5171     4945     4858 
    4895     5065     5348     5566     5633     5517     5225     5024 
    5070     5132     5128     5285     5533     5513     5233     5047 
    5130     5309     5287     5081     4946     4995     5242     5566 
    5672     5439     5108     5008     5130     5281     5385     5354 
    5186     5034     4981     5076     5324     5501     5375     5111 
    5028     5211     5451     5424     5163     5067     5217     5308 
    5216     5078     5071     5300     5641     5698     5324     4957 
    5012     5352     5512     5258     4963     5073     5409     5560 
    5432     5170     4946     4854     4970     5320     5651     5706 
    5540     5186     4753     4658     4990     5328     5454     5472 
    5449     5358     5216     5049     4862     4861     5250     5729 
    5836     5597     5246     4945     4868     4957     5031     5136 
    5324     5516     5660     5663     5363     4870     4648     4878 
    5227     5429     5445     5355     5356     5428     5379     5296 
    5242     5081     4923     4974     5189     5479     5695     5626 
    5341     5059     4851     4796     4931     5050     5028     5152 
    5587     5918     5788     5316     4797     4635     4996     5448 
    5634     5688     5670     5467     5197     4992     4785     4652 
    4793     5138     5483     5717     5671     5314     4915     4762 
    4946     5278     5481     5520     5570     5657     5644     5447 
    5090     4723     4595     4733     4962     5211     5395     5435 
    5559     5815     5718     5212     4895     4938     5108     5346 
    5459     5279     5036     4966     5089     5328     5467     5366 
    5152     4982     4939     5090     5343     5533     5593     5483 
    5282     5193     5289     5381     5256     4989     4870     5013 
    5269     5416     5362     5223     5152     5150     5201     5328 
    5474     5501     5309     5028     4930     5004     5032     5042 
    5189     5432     5651     5726     5499     5096     4969     5192 
    5332     5248     5174     5239     5405     5509     5358     5026 
    4866     4990     5107     5173     5333     5401     5294     5184 
    5105     5130     5283     5356     5240     5138     5277     5562 
    5668     5445     5004     4689     4851     5277     5409     5252 
    5200     5356     5645     5796     5435     4803     4560     4866 
    5346     5641     5692     5547     5219     4903     4853     5003 
    5121     5190     5377     5652     5698     5427     5061     4669 
    4479     4822     5406     5815     5944     5675     5239     5034 
    4996     4996     5016     5012     5096     5275     5375     5460 
    5556     5451     5286     5362     5391     5070     4761     4839 
    5101     5314     5491     5513     5305     5120     5076     5092 
    5235     5412     5443     5494     5575     5413     5109     4897 
    4777     4841     5113     5378     5560     5663     5566     5298 
    5054     4945     5023     5229     5325     5279     5292     5236 
    4918     4722     5043     5570     5799     5606     5140     4806 
    5023     5533     5721     5584     5387     5119     4980     5113 
    5166     5058     5071     5144     5147     5252     5460     5439 
    5148     5005     5144     5274     5290     5346     5391     5250 
    5071     5085     5162     5171     5219     5317     5343     5335 
    5454     5614     5555     5351     5293     5297     5140     4957 
    4935     5003     5147     5371     5395     5112     4915     5031 
    5212     5300     5331     5301     5296     5358     5310     5161 
    5121     5213     5325     5370     5323     5256     5313     5454 
    5431     5259     5146     5089     5154     5424     5560     5387 
    5219     5084     4846     4776     4990     5247     5394     5402 
    5312     5158     4995     5053     5368     5665     5721     5498 
    5179     4981     4943     5020     5127     5224     5335     5394 
    5397     5414     5386     5273     5115     4908     4788     4978 
    5371     5630     5672     5487     5009     4630     4807     5233 
    5448     5454     5356     5327     5559     5783     5555     5092 
    4919     4946     4958     5109     5332     5482     5621     5533 
    5117     4845     4957     5115     5113     5098     5197     5366 
    5460     5385     5158     4959     5019     5246     5344     5343 
    5362     5340     5348     5370     5198     4982     5047     5287 
    5432     5448     5389     5300     5243     5196     5143     5146 
    5196     5251     5339     5408     5294     5043     4928     4984 
    5144     5410     5530     5362     5143     5088     5238     5402 
    5336     5185     5190     5301     5408     5344     5049     4849 
    4931     5163     5437     5548     5428     5317     5283     5298 
    5331     5184     4919     4855     5044     5332     5578     5562 
    5283     5201     5433     5460     5120     4781     4692     4934 
    5402     5725     5667     5394     5204     5177     5181     5147 
    5194     5382     5582     5686     5575     5186     4770     4625 
    4758     4989     5161     5281     5398     5448     5454     5470 
    5352     5107     5008     5103     5206     5305     5513     5678 
    5541     5236     5044     5049     5178     5200     5043     4962 
    5026     5131     5275     5405     5478     5458     5300     5116 
    5008     4981     5094     5347     5574     5626     5509     5256 
    4974     4924     5115     5239     5219     5251     5394     5482 
    5458     5405     5265     5044     5000     5131     5162     5177 
    5389     5543     5425     5287     5189     5042     5065     5252 
    5313     5273     5271     5244     5142     5051     5039     5040 
    5034     5194     5520     5655     5479     5294     5242     5212 
    5201     5194     5100     5036     5127     5282     5474     5611 
    5482     5223     5131     5227     5389     5386     5055     4702 
    4696     4958     5274     5530     5563     5367     5158     5007 
    4978     5206     5518     5651     5575     5335     5093     5047 
    5155     5251     5255     5235     5228     5212     5319     5506 
    5458     5212     5040     4954     4947     5065     5223     5341 
    5363     5223     5044     5074     5329     5516     5422     5250 
    5293     5429     5393     5301     5309     5337     5391     5362 
    5050     4726     4769     5166     5601     5649     5286     4862 
    4599     4684     5117     5424     5402     5389     5474     5481 
    5468     5451     5306     5151     5111     5171     5420     5706 
    5636     5220     4820     4707     4972     5409     5664     5560 
    5171     4796     4669     4733     5015     5444     5678     5707 
    5682     5435     4992     4720     4788     5128     5591     5844 
    5645     5258     5111     5250     5346     5134     4831     4811 
    5076     5494     5876     5791     5217     4819     4931     5200 
    5302     5246     5159     5105     5101     5227     5344     5202 
    4974     4850     4743     4882     5418     5810     5703     5424 
    5208     5181     5476     5815     5869     5598     5054     4631 
    4822     5448     5852     5556     4783     4367     4679     5184 
    5467     5539     5313     4941     4819     4976     5269     5622 
    5769     5539     5212     5101     5181     5285     5343     5290 
    5089     4932     5011     5252     5564     5798     5687     5377 
    5229     5186     5059     4880     4707     4603     4677     5004 
    5503     5806     5590     5082     4762     4861     5319     5802 
    5960     5765     5439     5209     5167     5246     5412     5537 
    5370     5089     5084     5202     5161     5030     4927     4980 
    5147     5213     5310     5475     5368     5154     5093     4957 
    4819     4977     5286     5575     5814     5853     5629     5260 
    4968     4947     5062     5028     4934     5040     5292     5381 
    5151     4849     4928     5454     5923     5887     5567     5440 
    5481     5333     4899     4430     4274     4587     5150     5530 
    5614     5653     5676     5516     5289     5196     5274     5539 
    5800     5746     5512     5377     5167     4687     4190     4058 
    4307     4645     4959     5335     5736     6031     6053     5756 
    5370     5071     4977     5220     5548     5564     5373     5285 
    5336     5405     5363     5236     5188     5154     5053     5094 
    5316     5448     5351     5069     4760     4695     4968     5319 
    5481     5440     5333     5240     5217     5328     5445     5364 
    5144     4931     4711     4558     4742     5256     5664     5695 
    5549     5378     5130     4954     5088     5522     6039     6313 
    6151     5769     5549     5510     5252     4603     4008     3936 
    4360     4938     5290     5247     4974     4739     4702     4928 
    5379     5903     6301     6324     5910     5374     5082     5161 
    5390     5391     5243     5252     5343     5317     5039     4488 
    4101     4311     4896     5374     5476     5255     5124     5383 
    5830     6115     6061     5784     5471     5151     4939     4927 
    5035     5186     5166     4905     4899     5344     5653     5493 
    5194     4962     4688     4490     4618     5016     5464     5826 
    5903     5672     5490     5449     5301     5205     5427     5680 
    5655     5444     5194     5011     4973     4966     4895     4918 
    5109     5213     5152     5184     5219     5034     4927     5120 
    5356     5525     5671     5598     5179     4710     4518     4633 
    5015     5478     5734     5753     5602     5360     5252     5296 
    5320     5404     5576     5634     5598     5525     5246     4842 
    4646     4753     4993     5217     5481     5721     5591     4990 
    4302     4074     4533     5324     5892     5950     5603     5260 
    5243     5516     5799     5783     5439     5152     5179     5313 
    5292     5057     4742     4561     4591     4815     5128     5387 
    5643     5857     5734     5296     5005     5100     5339     5482 
    5520     5441     5260     5142     5113     5073     5098     5209 
    5201     5081     5022     5012     5085     5358     5599     5526 
    5381     5474     5548     5327     5003     4785     4719     4897 
    5277     5566     5516     5228     5011     4996     5162     5437 
    5545     5358     5208     5242     5233     5154     5081     4988 
    4995     5290     5715     5865     5624     5260     5038     5027 
    5193     5337     5250     5066     4953     4868     4878     5038 
    5178     5279     5440     5545     5537     5580     5688     5682 
    5489     5181     4828     4575     4638     5016     5431     5590 
    5414     5147     5066     5147     5273     5327     5229     5190 
    5336     5449     5449     5417     5251     4918     4696     4768 
    5017     5351     5728     5956     5865     5548     5157     4824 
    4806     5077     5155     4887     4768     5088     5553     5780 
    5575     5142     4973     5177     5493     5753     5732     5346 
    4974     4918     5121     5382     5482     5368     5163     4945 
    4789     4788     4889     4997     5138     5366     5587     5640 
    5582     5485     5308     5204     5274     5368     5412     5356 
    5205     5143     5233     5287     5184     4992     4847     4895 
    5111     5269     5262     5127     4950     4997     5329     5551 
    5452     5287     5298     5427     5481     5425     5351     5275 
    5254     5358     5427     5308     5151     5053     5004     5043 
    5071     5034     5007     4977     4980     5088     5243     5348 
    5404     5556     5868     6097     5964     5516     5109     4986 
    5035     5046     4947     4846     4881     4974     5022     5157 
    5313     5212     4981     4936     5142     5520     5840     5887 
    5620     5188     5049     5351     5541     5337     5073     4953 
    4934     5040     5297     5505     5421     5184     5046     5015 
    5115     5286     5302     5161     5061     5093     5206     5339 
    5402     5304     5139     5107     5211     5294     5282     5297 
    5427     5476     5327     5182     5182     5228     5173     5035 
    5065     5335     5591     5659     5503     5225     5130     5217 
    5206     5151     5080     4834     4715     5004     5310     5277 
    5100     5088     5285     5468     5441     5332     5375     5590 
    5822     5800     5367     4847     4654     4696     4810     5028 
    5263     5416     5456     5301     5151     5287     5462     5452 
    5481     5560     5509     5347     5117     4888     4822     4900 
    4982     5127     5352     5441     5314     5143     5063     5096 
    5158     5233     5366     5433     5395     5412     5431     5386 
    5406     5443     5456     5552     5582     5414     5194     5008 
    4911     4924     4927     4946     5042     5023     4849     4768 
    4869     5023     5177     5410     5761     6083     6130     5867 
    5444     5031     4826     4900     5127     5286     5150     4895 
    4978     5313     5471     5456     5363     5157     5026     5111 
    5269     5418     5467     5308     5070     4920     4872     4901 
    5000     5166     5394     5559     5536     5393     5211     5054 
    5103     5387     5620     5582     5352     5200     5290     5417 
    5374     5281     5246     5292     5387     5297     4950     4687 
    4757     5027     5205     5120     4920     4914     5165     5414 
    5454     5356     5323     5366     5382     5513     5821     5919 
    5644     5262     4920     4754     4915     5174     5225     5125 
    5057     5076     5134     5144     5189     5390     5570     5532 
    5314     5082     5043     5171     5247     5194     5049     4977 
    5105     5333     5548     5621     5460     5219     5084     5084 
    5202     5404     5536     5518     5436     5300     5053     4774 
    4625     4711     5016     5347     5448     5328     5266     5370 
    5439     5282     5024     4959     5152     5505     5875     5971 
    5672     5236     4905     4812     5026     5300     5323     5184 
    5101     5178     5374     5413     5227     5151     5252     5260 
    5166     5170     5313     5487     5552     5393     5055     4824 
    4842     4889     4868     4941     5155     5402     5551     5571 
    5548     5495     5359     5200     5140     5198     5252     5184 
    5027     4969     5138     5373     5458     5431     5416     5412 
    5400     5449     5518     5382     5046     4810     4824     4959 
    5019     4981     4995     5140     5328     5490     5645     5724 
    5643     5445     5236     5098     5049     5088     5171     5162 
    4997     4853     4936     5228     5545     5672     5506     5258 
    5171     5233     5294     5290     5327     5445     5449     5279 
    5097     4969     4919     4982     5065     5151     5312     5405 
    5364     5305     5205     5085     5050     5111     5271     5463 
    5518     5405     5260     5138     5008     4974     5113     5356 
    5541     5483     5242     5059     5053     5174     5309     5367 
    5359     5323     5252     5140     5069     5167     5390     5503 
    5429     5331     5282     5238     5185     5111     5036     5051 
    5233     5489     5530     5300     5074     5067     5211     5231 
    5043     4953     5084     5209     5247     5235     5147     5088 
    5219     5452     5575     5566     5501     5386     5238     5150 
