Origin Time       2025/03/30 22:55:00
Lat.              41.993
Long.             142.725
Depth. (km)       55
Mag.              4.6
Station Code      HKD108
Station Lat.      42.2528
Station Long.     142.5643
Station Height(m) 42
Record Time       2025/03/30 22:56:14
Sampling Freq(Hz) 100Hz
Duration Time(s)  69
Dir.              N-S
Scale Factor      3920(gal)/6182761
Max. Acc. (gal)   7.542
Last Correction   2025/03/30 22:56:14
Memo.             
[...]
   20003    20001    20002    20003    20003    20003    20003    20004 
   20005    20004    20003    20003    20004    20005    20005    20003 
   20003    20003    20000    20001    20006    20006    20006    20007 
   20005    20005    20006    20004    20002    20003    20004    20001 
   20000    20004    20005    20003    20002    20004    20005    20005 
   20005    20005    20005    20005    20005    20004    20003    20004 
   20005    20004    20005    20006    20005    20006    20005    20003 
   20003    20002    20002    20004    20005    20006    20005    20002 
   20001    20003    20004    20004    20004    20004    20005    20005 
   20002    20003    20005    20002    19999    20001    20004    20005 
   20004    20004    20005    20005    20006    20005    20004    20005 
   20007    20007    20004    20002    20004    20005    20002    20001 
   20003    20005    20006    20007    20004    20003    20006    20006 
   20004    20005    20006    20004    20003    20005    20006    20006 
   20004    20002    20003    20004    20004    20004    20006    20007 
   20005    20003    20004    20004    20003    20004    20005    20006 
   20005    20003    20003    20003    20002    20005    20006    20004 
   20004    20006    20003    20001    20000    20003    20006    20004 
   20003    20005    20006    20005    20004    20005    20006    20006 
   20005    20005    20007    20006    20005    20006    20004    20001 
   20003    20004    20002    20004    20006    20005    20005    20006 
   20004    20005    20008    20006    20005    20005    20004    20003 
   20004    20007    20006    20002    20003    20005    20002    20004 
   20005    20003    20003    20006    20005    20004    20006    20005 
   20003    20005    20007    20008    20006    20003    20003    20004 
   20005    20004    20004    20004    20003    20005    20007    20007 
   20006    20006    20006    20005    20004    20003    20004    20005 
   20004    20004    20004    20002    20002    20004    20006    20006 
   20006    20005    20007    20008    20006    20005    20006    20006 
   20004    20005    20005    20003    20003    20006    20005    20003 
   20004    20005    20003    20002    20003    20002    20003    20005 
   20004    20005    20006    20003    20002    20004    20004    20004 
   20007    20008    20006    20004    20003    20003    20003    20004 
   20002    20001    20004    20005    20005    20004    20003    20002 
   20002    20003    20004    20002    20002    20004    20004    20002 
   20003    20004    20005    20004    20003    20005    20007    20005 
   20003    20005    20006    20005    20005    20004    20003    20003 
   20002    20002    20003    20003    20004    20004    20004    20006 
   20007    20005    20004    20007    20007    20007    20006    20005 
   20004    20006    20006    20003    20003    20006    20006    20003 
   20004    20006    20005    20004    20005    20004    20005    20007 
   20005    20004    20004    20002    20001    20002    20002    20003 
   20003    20001    20002    20006    20005    20003    20004    20005 
   20004    20004    20005    20005    20003    20003    20003    20002 
   20003    20003    20003    20004    20004    20003    20002    20002 
   20003    20005    20005    20003    20003    20004    20003    20003 
   20006    20006    20003    20003    20005    20005    20004    20007 
   20007    20003    20003    20005    20004    20004    20003    20001 
   20003    20004    20004    20004    20005    20005    20004    20003 
   20006    20007    20007    20006    20003    20003    20005    20005 
   20006    20004    20003    20004    20003    20003    20005    20003 
   20002    20005    20005    20004    20004    20004    20006    20007 
   20007    20004    20002    20003    20004    20005    20004    20003 
   20002    20002    20003    20004    20003    20001    20001    20004 
   20004    20003    20004    20004    20003    20005    20005    20002 
   20004    20007    20006    20005    20007    20008    20005    20005 
   20006    20004    20004    20006    20003    20003    20006    20007 
   20007    20008    20007    20006    20007    20006    20006    20005 
   20004    20006    20006    20006    20007    20005    20004    20004 
   20002    19999    19994    19991    19994    19997    19994    19993 
   19998    20003    20007    20008    20010    20011    20002    19989 
   19987    19999    20007    20002    19997    20003    20013    20017 
   20015    20014    20013    20004    19987    19969    19959    19958 
   19961    19975    20002    20027    20028    20011    19999    19995 
   19984    19963    19934    19904    19894    19927    19995    20068 
   20128    20170    20188    20177    20143    20079    19978    19868 
   19791    19765    19781    19826    19895    20003    20162    20327 
   20405    20335    20154    19984    19907    19892    19864    19793 
   19727    19739    19835    19953    20058    20164    20279    20368 
   20387    20321    20189    20033    19872    19693    19520    19421 
   19450    19619    19876    20108    20256    20356    20450    20507 
   20450    20267    20064    19938    19887    19859    19823    19792 
   19796    19844    19952    20137    20330    20386    20247    20015 
   19838    19771    19743    19675    19609    19646    19793    19966 
   20125    20326    20588    20761    20662    20293    19867    19637 
   19664    19768    19747    19563    19366    19373    19660    20097 
   20489    20698    20714    20614    20477    20373    20302    20142 
   19809    19409    19131    19106    19338    19711    20053    20227 
   20233    20206    20273    20462    20685    20761    20586    20233 
   19861    19600    19459    19377    19356    19445    19646    19913 
   20167    20311    20312    20245    20213    20252    20283    20187 
   19954    19721    19646    19768    19973    20116    20177    20243 
   20327    20346    20269    20168    20132    20161    20134    19930 
   19601    19345    19315    19470    19632    19715    19770    19841 
   19942    20103    20312    20503    20611    20604    20530    20488 
   20492    20426    20149    19645    19064    18644    18567    18862 
   19403    19988    20446    20744    20953    21112    21158    20998 
   20646    20237    19905    19696    19570    19435    19265    19160 
   19238    19517    19925    20304    20465    20345    20100    19995 
   20172    20534    20804    20698    20176    19500    18998    18843 
   19029    19445    19911    20261    20441    20519    20599    20709 
   20754    20591    20173    19648    19304    19304    19547    19870 
   20204    20504    20680    20640    20385    20023    19703    19530 
   19504    19525    19496    19406    19320    19307    19409    19676 
   20117    20635    21054    21202    20995    20529    20072    19856 
   19893    20018    20078    20016    19813    19480    19189    19229 
   19707    20380    20873    20992    20845    20666    20560    20457 
   20213    19734    19095    18524    18205    18209    18555    19202 
   20060    20998    21769    22092    21829    21099    20294    19809 
   19690    19665    19505    19236    19048    19081    19308    19568 
   19678    19605    19520    19673    20163    20789    21192    21175 
   20841    20452    20220    20169    20154    20049    19897    19793 
   19765    19781    19777    19742    19735    19782    19824    19779 
   19686    19740    20037    20386    20535    20476    20399    20397 
   20347    20093    19683    19366    19309    19412    19464    19412 
   19401    19611    20047    20530    20913    21163    21210    20962 
   20451    19849    19348    19062    19056    19356    19851    20311 
   20545    20494    20267    20115    20211    20432    20468    20139 
   19553    19020    18811    18961    19276    19539    19756    20131 
   20742    21331    21533    21266    20772    20291    19924    19708 
   19606    19543    19515    19535    19572    19608    19659    19707 
   19735    19816    20014    20187    20108    19812    19613    19748 
   20159    20604    20882    20989    21016    20928    20610    20119 
   19702    19522    19482    19355    19113    19019    19272    19736 
   20110    20229    20144    20020    20004    20151    20396    20623 
   20708    20570    20257    19892    19573    19421    19621    20248 
   21045    21486    21223    20473    19788    19482    19433    19350 
   19104    18828    18677    18638    18715    19049    19708    20497 
   21043    21098    20780    20423    20272    20344    20465    20405 
   20073    19643    19405    19456    19682    19972    20312    20691 
   21027    21155    20932    20376    19649    18949    18473    18367 
   18634    19141    19773    20489    21193    21680    21777    21522 
   21107    20638    20080    19471    18970    18657    18491    18442 
   18559    18960    19681    20530    21179    21398    21205    20841 
   20513    20219    19885    19535    19255    19102    19080    19154 
   19328    19674    20196    20719    20991    20930    20694    20471 
   20356    20350    20352    20246    20019    19755    19511    19290 
   19156    19239    19587    20075    20439    20470    20244    20046 
   20028    20072    19985    19746    19496    19361    19387    19634 
   20166    20860    21396    21493    21089    20398    19773    19464 
   19466    19591    19668    19622    19400    19047    18751    18695 
   18969    19568    20377    21159    21603    21542    21124    20675 
   20447    20466    20600    20697    20580    20115    19437    18885 
   18646    18647    18747    18928    19268    19755    20208    20483 
   20621    20776    21027    21247    21208    20828    20249    19748 
   19561    19686    19872    19886    19717    19541    19540    19721 
   19908    19995    20083    20306    20596    20641    20197    19446 
   18885    18806    19072    19416    19760    20162    20610    20978 
   21119    21004    20764    20547    20356    20110    19789    19469 
   19258    19242    19438    19773    20099    20280    20306    20249 
   20143    20010    19915    19881    19846    19761    19680    19696 
   19841    20086    20364    20571    20615    20503    20329    20177 
   20054    19929    19842    19888    20089    20314    20353    20132 
   19818    19635    19605    19563    19403    19207    19105    19155 
   19354    19651    19960    20162    20182    20100    20055    20107 
   20286    20588    20919    21106    20962    20448    19787    19290 
   19099    19132    19226    19359    19628    20013    20363    20550 
   20535    20313    19871    19263    18732    18584    18897    19437 
   19901    20206    20445    20657    20770    20743    20694    20795 
   21052    21299    21352    21073    20421    19533    18691    18206 
   18291    18923    19837    20697    21241    21367    21163    20800 
   20407    20060    19775    19533    19321    19123    18946    18826 
   18809    18972    19392    20022    20650    20968    20774    20203 
   19660    19489    19734    20166    20543    20819    21033    21144 
   21101    20928    20687    20386    19965    19389    18733    18126 
   17696    17511    17584    18000    18919    20307    21805    22949 
   23467    23359    22755    21760    20481    19158    18125    17623 
   17679    18138    18749    19258    19536    19665    19879    20374 
   21109    21794    22144    22074    21613    20824    19865    19012 
   18526    18467    18691    19032    19418    19866    20448    21174 
   21866    22191    21913    21121    20171    19357    18726    18254 
   18056    18300    18963    19771    20392    20660    20600    20262 
   19657    18906    18267    17961    18043    18451    19173    20225 
   21441    22480    23077    23184    22920    22455    21926    21420 
   20950    20411    19663    18749    17962    17603    17690    18013 
   18413    18889    19474    20113    20748    21411    22104    22687 
   22932    22652    21821    20606    19290    18141    17274    16628 
   16109    15726    15657    16181    17401    19090    20869    22406 
   23481    24014    24013    23577    22922    22282    21823    21570 
   21310    20686    19493    17950    16662    16235    16825    18035 
   19254    20079    20475    20617    20667    20775    21064    21541 
   22109    22610    22907    22954    22681    21926    20618    18956 
   17375    16275    15846    16071    16781    17723    18648    19345 
   19682    19716    19692    19843    20229    20768    21331    21836 
   22290    22728    23113    23275    22988    22127    20724    18923 
   16931    15036    13648    13232    14083    16073    18589    20903 
   22611    23763    24765    26007    27379    28227    27834    25893 
   22691    18918    15295    12430    10798    10575    11559    13311 
   15399    17636    20027    22421    24392    25513    25714    25371 
   24912    24345    23332    21686    19684    17879    16665    16156 
   16316    17051    18185    19426    20461    21094    21357    21494 
   21731    22067    22339    22373    22077    21472    20623    19589 
   18452    17340    16408    15833    15778    16272    17201    18384 
   19555    20407    20758    20645    20373    20411    21089    22435 
   24154    25691    26419    25856    23829    20597    16808    13319 
   10908    10005    10631    12553    15474    19113    23149    27098 
   30254    31900    31667    29622    26188    22009    17767    14119 
   11548    10198     9957    10694    12388    14990    18217    21578 
   24559    26767    28014    28334    27830    26568    24632    22213 
   19700    17635    16410    16070    16378    16981    17689    18569 
   19701    20962    22012    22455    21996    20540    18310    15818 
   13788    12958    13674    15737    18496    21152    23167    24323 
   24695    24673    24646    24671    24513    23863    22606    21015 
   19560    18544    18057    17998    18028    17785    17165    16341 
   15757    15936    17185    19467    22278    24843    26517    26946 
   26124    24371    22132    19837    17838    16300    15175    14310 
   13676    13506    14097    15551    17727    20237    22584    24442 
   25694    26249    26057    25177    23680    21647    19246    16715 
   14453    12967    12582    13309    14802    16609    18537    20608 
   22884    25245    27268    28509    28773    28093    26602    24451 
   21889    19308    17079    15463    14569    14237    14241    14501 
   14970    15572    16336    17421    18884    20508    21927    22828 
   23067    22771    22290    21946    21852    21897    21853    21562 
   21012    20333    19650    18952    18258    17741    17571    17836 
   18582    19770    21246    22698    23700    23970    23507    22544 
   21430    20363    19264    17995    16594    15302    14442    14220 
   14681    15824    17559    19666    21877    23935    25595    26650 
   26957    26464    25277    23650    21852    20072    18423    17078 
   16306    16278    16929    18011    19164    20024    20391    20283 
   19785    18995    18155    17606    17565    18075    19059    20341 
   21698    22910    23786    24215    24203    23851    23223    22289 
   21044    19671    18472    17646    17220    17100    17143    17240 
   17276    17137    16812    16381    16000    15918    16362    17463 
   19264    21577    23978    26021    27369    27787    27201    25773 
   23861    21909    20231    18848    17628    16533    15732    15506 
   15926    16749    17682    18519    19188    19723    20086    20235 
   20248    20200    20148    20150    20205    20300    20430    20552 
   20623    20569    20287    19782    19193    18726    18570    18773 
   19244    19821    20387    20884    21217    21269    21044    20645 
   20198    19790    19458    19236    19106    18950    18721    18531 
   18578    19002    19732    20514    21117    21435    21489    21425 
   21424    21575    21821    21996    21916    21499    20813    20022 
   19274    18602    17985    17468    17177    17224    17596    18149 
   18768    19446    20169    20802    21159    21163    20916    20630 
   20491    20574    20853    21292    21850    22416    22813    22858 
   22446    21642    20662    19729    18940    18251    17605    17046 
   16696    16701    17188    18208    19699    21443    23071    24160 
   24393    23720    22421    20941    19623    18602    17895    17562 
   17725    18438    19567    20832    21956    22777    23212    23195 
   22662    21622    20233    18747    17346    16141    15293    15042 
   15600    16947    18757    20530    21822    22447    22492    22167 
   21670    21137    20643    20221    19844    19422    18930    18519 
   18443    18859    19661    20556    21277    21722    21931    21956 
   21817    21520    21077    20526    19965    19550    19445    19685 
   20085    20311    20082    19346    18323    17346    16673    16422 
   16579    17081    17889    18945    20161    21415    22515    23246 
   23478    23185    22413    21273    19995    18894    18212    18033 
   18270    18749    19334    19939    20461    20782    20827    20682 
   20599    20744    21039    21264    21208    20791    20122    19398 
   18812    18495    18471    18678    19011    19372    19717    20011 
   20195    20234    20123    19912    19740    19741    19932    20231 
   20565    20911    21240    21509    21687    21736    21642    21430 
   21089    20603    20033    19506    19148    18980    18917    18866 
   18791    18763    18920    19314    19832    20294    20574    20636 
   20495    20174    19732    19253    18823    18538    18459    18575 
   18856    19300    19928    20704    21457    21964    22128    22018 
   21757    21414    20986    20442    19785    19081    18389    17706 
   17083    16701    16771    17379    18440    19750    21088    22263 
   23126    23577    23557    23113    22422    21666    20916    20161 
   19423    18784    18317    18050    17997    18168    18537    19051 
   19611    20085    20384    20490    20420    20230    20040    19963 
   20043    20283    20632    20954    21119    21082    20882    20613 
   20368    20164    19901    19458    18861    18284    17916    17868 
   18119    18555    19091    19667    20167    20459    20509    20441 
   20441    20593    20827    21021    21122    21157    21182    21233 
   21319    21404    21392    21167    20694    20035    19289    18552 
   17918    17456    17169    17007    16966    17165    17764    18804 
   20117    21395    22362    22921    23137    23111    22905    22557 
   22101    21566    20983    20409    19916    19523    19196    18885 
   18580    18356    18315    18475    18738    18961    19095    19209 
   19404    19712    20100    20503    20857    21134    21350    21535 
   21669    21685    21510    21122    20587    20020    19515    19131 
   18925    18932    19091    19280    19392    19374    19254    19127 
   19087    19147    19218    19210    19137    19102    19188    19371 
   19596    19890    20336    20964    21668    22245    22517    22410 
   21973    21348    20711    20171    19717    19275    18838    18483 
   18315    18390    18658    19030    19447    19858    20205    20448 
