Origin Time       2025/03/30 22:55:00
Lat.              41.993
Long.             142.725
Depth. (km)       55
Mag.              4.6
Station Code      HKD111
Station Lat.      42.0170
Station Long.     143.1487
Station Height(m) 22
Record Time       2025/03/30 22:56:16
Sampling Freq(Hz) 100Hz
Duration Time(s)  60
Dir.              U-D
Scale Factor      7845(gal)/8223790
Max. Acc. (gal)   1.945
Last Correction   2025/03/30 22:56:16
Memo.             
[...]
   31598    31599    31595    31594    31599    31598    31592    31596 
   31602    31598    31594    31596    31598    31596    31596    31598 
   31600    31598    31596    31598    31596    31598    31599    31596 
   31596    31598    31598    31596    31598    31599    31598    31598 
   31602    31598    31594    31598    31596    31594    31596    31598 
   31596    31598    31596    31596    31598    31596    31596    31598 
   31599    31598    31598    31596    31596    31598    31595    31592 
   31596    31600    31598    31598    31599    31596    31596    31598 
   31596    31598    31599    31599    31598    31596    31595    31599 
   31600    31596    31596    31602    31598    31595    31599    31596 
   31594    31598    31599    31599    31598    31596    31599    31598 
   31595    31596    31598    31598    31599    31600    31596    31595 
   31599    31602    31599    31595    31596    31599    31598    31595 
   31598    31598    31594    31596    31599    31595    31596    31602 
   31598    31596    31599    31598    31598    31600    31599    31599 
   31602    31598    31595    31599    31599    31596    31600    31602 
   31599    31598    31599    31598    31596    31599    31599    31596 
   31598    31599    31596    31598    31599    31598    31598    31599 
   31598    31598    31602    31600    31596    31598    31596    31595 
   31598    31598    31598    31599    31599    31598    31599    31599 
   31596    31596    31598    31596    31596    31598    31598    31596 
   31599    31600    31599    31598    31600    31600    31599    31602 
   31598    31595    31596    31595    31595    31599    31598    31598 
   31602    31598    31596    31600    31600    31596    31599    31599 
   31596    31598    31600    31598    31598    31599    31598    31598 
   31599    31598    31598    31600    31600    31598    31598    31599 
   31599    31595    31596    31598    31598    31599    31598    31596 
   31599    31596    31592    31595    31600    31598    31598    31602 
   31599    31596    31600    31599    31596    31598    31596    31594 
   31596    31596    31592    31596    31599    31596    31598    31603 
   31600    31596    31598    31598    31594    31598    31599    31594 
   31594    31599    31599    31596    31598    31596    31595    31596 
   31596    31598    31600    31599    31596    31596    31596    31596 
   31599    31600    31598    31598    31599    31598    31599    31598 
   31595    31598    31599    31596    31596    31599    31600    31600 
   31599    31596    31595    31599    31598    31592    31596    31598 
   31595    31596    31599    31595    31595    31598    31596    31596 
   31598    31598    31596    31598    31598    31595    31595    31602 
   31600    31595    31598    31599    31596    31596    31600    31598 
   31598    31600    31598    31598    31602    31599    31595    31599 
   31598    31595    31599    31602    31598    31596    31598    31596 
   31596    31598    31598    31598    31595    31595    31599    31599 
   31598    31596    31598    31600    31596    31596    31600    31596 
   31595    31600    31598    31595    31599    31600    31598    31596 
   31598    31599    31598    31598    31600    31598    31595    31599 
   31599    31595    31598    31599    31596    31599    31599    31598 
   31600    31600    31598    31600    31600    31594    31594    31599 
   31598    31595    31598    31599    31598    31596    31600    31599 
   31594    31596    31602    31598    31596    31599    31599    31598 
   31598    31599    31600    31596    31598    31600    31596    31598 
   31599    31594    31596    31600    31596    31598    31600    31596 
   31595    31599    31595    31596    31599    31595    31598    31603 
   31598    31596    31602    31599    31595    31598    31598    31596 
   31598    31599    31598    31595    31599    31600    31596    31596 
   31599    31602    31598    31595    31598    31598    31595    31598 
   31599    31598    31598    31599    31598    31596    31599    31602 
   31599    31596    31600    31599    31596    31599    31599    31595 
   31600    31602    31596    31599    31603    31599    31598    31600 
   31596    31594    31602    31600    31598    31603    31600    31595 
   31600    31602    31596    31600    31600    31596    31600    31600 
   31598    31600    31600    31598    31599    31600    31602    31599 
   31598    31596    31598    31600    31600    31598    31598    31600 
   31602    31599    31600    31599    31594    31599    31603    31596 
   31596    31602    31599    31600    31602    31594    31598    31604 
   31596    31594    31603    31602    31598    31600    31600    31599 
   31598    31598    31599    31595    31594    31600    31598    31594 
   31599    31596    31594    31599    31600    31596    31596    31599 
   31596    31595    31600    31602    31595    31600    31604    31595 
   31595    31603    31599    31596    31602    31600    31599    31600 
   31596    31596    31599    31598    31598    31600    31602    31596 
   31592    31599    31603    31596    31598    31602    31595    31595 
   31603    31602    31598    31602    31600    31598    31599    31599 
   31599    31599    31598    31598    31599    31600    31596    31595 
   31600    31602    31599    31598    31599    31598    31598    31599 
   31599    31596    31598    31598    31599    31599    31600    31599 
   31598    31599    31596    31595    31602    31600    31595    31599 
   31599    31596    31598    31598    31598    31599    31596    31595 
   31599    31602    31600    31596    31595    31599    31599    31599 
   31600    31598    31595    31599    31599    31596    31595    31596 
   31598    31599    31598    31598    31596    31596    31596    31595 
   31598    31600    31599    31596    31595    31595    31598    31599 
   31598    31599    31599    31596    31598    31598    31596    31600 
   31600    31598    31596    31596    31598    31596    31596    31598 
   31598    31596    31598    31598    31595    31595    31599    31600 
   31598    31598    31595    31598    31603    31603    31608    31619 
   31629    31634    31634    31637    31645    31648    31656    31676 
   31698    31695    31646    31598    31619    31708    31800    31870 
   31961    32065    32113    32035    31769    31395    31198    31303 
   31490    31606    31726    31774    31565    31217    31055    31137 
   31203    31126    31120    31321    31496    31461    31436    31530 
   31437    31078    30927    31374    31984    32134    32104    32154 
   31892    31553    31660    31658    31025    30582    31248    32340 
   32593    32348    32393    32333    31861    31224    30847    30835 
   30750    30924    31800    32656    32903    32760    32166    30951 
   29952    29955    30694    31369    31486    31907    32925    33019 
   31892    30755    30191    30262    30901    31803    32792    33473 
   33146    32085    30942    29968    30210    31756    32521    31795 
   31135    31645    32578    32385    31436    31326    31707    31448 
   30813    30518    30897    32009    33066    32817    31573    30846 
   31062    31494    31567    31509    31671    31715    31715    32163 
   32252    31417    30904    31294    31850    32080    31904    31513 
   31082    30794    31048    31587    31664    31622    32132    32432 
   31801    31055    30939    31259    31688    31941    31815    31553 
   31530    31688    31638    31349    31355    31696    31743    31579 
   31783    32132    32024    31359    30777    31110    32007    32096 
   31261    31036    31862    32320    31830    31407    31644    31954 
   31708    31202    31185    31538    31449    31043    31245    31959 
   32167    31687    31182    31009    31419    32281    32390    31514 
   30960    31237    31845    32161    31947    31595    31307    31299 
   31638    31580    31244    31599    32287    32375    31976    31596 
   31372    31220    31185    31492    32100    32424    31785    30770 
   30998    32154    32255    31232    30697    31230    31907    31915 
   31581    31468    31612    31851    31901    31572    31162    31098 
   31351    31585    31615    31456    31383    31600    31799    31846 
   31945    31887    31476    31063    31074    31541    32005    31788 
   31222    31588    32464    32138    31195    31414    32217    32040 
   31155    30894    31422    31695    31557    31834    32128    31455 
   30827    31598    32472    32044    31284    30989    30828    30712 
   31010    31915    32383    31702    31120    31342    31735    31988 
   31908    31380    31099    31576    32109    32065    31708    31244 
   30920    31171    31720    31990    32030    32040    31735    31158 
   31338    32350    32614    31699    30991    31391    32074    31884 
   31388    31465    31638    31614    31545    31525    31622    31280 
   30812    31294    31963    31907    31695    31522    31321    31548 
   32101    32040    31390    31386    31947    31982    31681    31714 
   31815    31602    31386    31284    31037    31072    31801    32528 
   32398    31625    31348    31785    31791    31395    31503    31587 
   31191    31028    31345    31702    31730    31615    31769    31814 
   31496    31530    31828    31514    31006    31244    31711    31703 
   31491    31224    31241    31922    32373    31868    31063    30843 
   31423    31918    31654    31422    31614    31839    32163    32185 
   31421    30935    31418    31862    31796    31546    31125    30936 
   31502    32236    32120    31395    31228    31688    31806    31438 
   31455    32081    32341    31764    31278    31502    31806    31725 
   31561    31649    31907    31685    31062    31147    31594    31410 
   31286    31757    32170    32124    31828    31531    31268    31182 
   31395    31534    31428    31591    32034    32038    31510    30975 
   30904    31384    31612    31224    31270    32047    32397    31837 
   31298    31500    31760    31500    31440    31842    31995    31696 
   31351    31396    31903    32335    32151    31502    31313    31750 
   31595    30939    31095    31645    31631    31594    31943    31915 
   31233    30940    31514    31950    31873    31801    31630    31479 
   31783    32030    31704    31174    31089    31515    31664    31332 
   31386    31878    31854    31271    31051    31386    31750    31928 
   31747    31110    30875    31839    32791    32186    31118    31360 
   32188    32104    31430    31268    31563    31536    31261    31271 
   31488    31820    32030    31658    31311    31592    31826    31533 
   31079    31079    31626    31939    31766    31631    31800    32049 
   31699    31055    31405    32193    31963    31160    30925    31415 
   32039    32266    32121    31754    31382    31259    31135    31074 
   31596    32165    31916    31298    31276    31924    32305    31876 
   31330    31268    31311    31259    31569    31905    31514    31079 
   31396    31749    31596    31537    31788    31870    31862    32162 
   32378    31969    31411    31295    31398    31595    31793    31553 
   31077    30886    31013    31483    32104    32197    31799    31606 
   31449    31023    31089    31870    32197    31604    31148    31351 
   31666    31870    31870    31540    31325    31363    31206    31245 
   32117    32807    32077    30913    30931    31841    32331    31901 
   31093    30861    31484    31982    31692    31376    31442    31499 
   31680    31814    31482    31355    31720    31901    31696    31398 
   31461    31777    31598    31332    31700    32055    31892    31321 
   30788    31189    32107    32181    31396    30672    30993    32201 
   32545    31729    31279    31436    31395    31239    31496    31969 
   31926    31432    31365    31799    31685    30973    31097    32117 
   32443    31978    31762    31702    31531    31553    31696    31750 
   31699    31545    31325    31039    31198    32154    32524    31550 
   30955    31533    32077    32042    31830    31649    31441    31306 
   31469    31791    31909    31723    31441    31230    31199    31526 
   31808    31483    30983    30950    31239    31345    31248    31445 
   31754    31422    30743    30580    31010    31588    31842    31691 
   31625    31945    32394    32624    32321    31405    30653    31145 
   32296    32319    31467    31425    31907    31887    32035    32837 
   33048    31988    31072    31310    31766    31946    32350    32545 
   31731    30337    29713    30497    31625    31785    31252    31239 
   31826    31897    31523    32019    33010    32796    31617    31140 
   31604    31812    31031    30271    30897    32078    32178    31599 
   31617    32286    32625    31986    31152    31102    31569    32035 
   32125    31598    31311    31968    32494    31692    30276    29932 
   30696    31212    31252    31221    30896    30558    30933    31810 
   32246    31950    31672    31787    31830    31861    32103    32030 
   31639    31452    31170    30754    30927    31531    31880    32020 
   32239    32378    32119    31738    31857    32069    31607    31288 
   31899    32220    31448    30699    30708    30875    30677    30693 
   31788    33153    33118    31877    30963    31002    31475    31853 
   32143    32231    31955    31816    32043    31930    31364    31151 
   31348    31436    31671    32053    31646    30870    31244    32409 
   32809    32217    31684    31830    31966    31259    30041    29558 
   30541    31884    31982    31131    30794    31479    32490    32971 
   32576    31622    30943    31023    31260    30996    30665    31047 
   31699    31495    30873    31113    31835    32080    31950    31838 
   31953    32227    32377    32179    31588    31271    31595    31627 
   31276    31588    32300    32244    31423    31087    31889    32779 
   32564    31438    30531    30774    31552    31419    30793    31105 
   31799    31673    31486    31959    32070    31433    30916    30847 
   31155    31764    32178    31963    31355    31029    31220    31495 
   31595    31664    31830    31943    31989    32250    32332    31681 
   31052    31425    32259    32121    31047    30673    30996    30782 
   30647    31226    31661    31851    32370    32919    32834    32224 
   32085    32471    32100    31131    30948    31438    31668    31571 
   31428    31299    31324    31507    31468    31113    30960    31338 
   31734    31665    31611    31927    31901    31248    31025    31567 
   31723    31202    30869    31117    31700    32059    31899    31725 
   31980    32320    32304    31957    31733    31980    31968    31206 
   30947    31599    31743    31247    31422    32117    31878    30935 
   31105    32140    32012    31041    31018    31608    31529    30947 
   30915    31629    31951    31348    30869    31272    32026    32301 
   32027    31846    32012    32127    31947    31610    31418    31513 
   31617    31622    31685    31627    31432    31498    31765    31826 
   31653    31425    31340    31652    32039    31814    31279    31365 
   31835    31727    31302    31415    31710    31526    31527    32171 
   32163    31098    30599    31036    31432    31765    32101    31951 
   31399    31118    31534    32044    31637    30874    31144    32016 
   32182    31675    31303    31461    31830    31907    31765    31652 
   31518    31503    31789    31887    31433    31217    31785    32267 
   31911    31324    31468    31982    31652    30989    31298    31633 
   30954    30593    31479    32414    32233    31463    31253    31617 
   31745    31410    31159    31572    32283    32290    31816    31864 
   32251    32188    31595    31059    31041    31202    31118    31122 
   31318    31206    30923    31081    31452    31467    31332    31525 
   32013    32449    32495    31939    31108    30804    31201    31545 
   31388    31137    31195    31482    31776    31934    32026    32238 
   32323    31976    31650    31712    31752    31479    31029    30748 
   30950    31336    31455    31391    31398    31510    31615    31780 
   32081    32209    32034    31822    31677    31687    31954    32146 
   31955    31726    31889    32236    32297    32152    32111    32054 
   31783    31464    31290    31241    31380    31510    31309    31245 
   31750    32155    31806    31174    31099    31476    31652    31565 
   31459    31461    31661    31878    31841    31576    31278    31164 
   31390    31710    31623    31278    31372    31818    31807    31395 
   31446    31901    31823    31172    30781    30894    31162    31388 
   31568    31696    31706    31687    31814    31850    31588    31302 
   31298    31661    32030    31892    31491    31332    31386    31465 
   31473    31449    31491    31575    31764    32081    32196    31926 
   31540    31329    31341    31441    31529    31638    31723    31729 
   31725    31702    31630    31603    31729    31926    31914    31618 
   31394    31486    31572    31419    31440    31826    31931    31479 
   31272    31730    32092    31846    31519    31594    31804    31801 
   31719    31849    32113    32035    31469    31129    31452    31677 
   31212    30595    30532    31070    31610    31658    31544    31785 
   32166    32119    31664    31391    31469    31469    31330    31460 
   31737    31585    31122    31062    31525    31892    31900    31922 
   32067    32000    31673    31406    31355    31379    31326    31205 
   31101    31190    31515    31696    31499    31395    31760    32148 
   32054    31642    31363    31467    31787    31901    31710    31544 
   31587    31652    31556    31355    31255    31444    31827    32112 
   32188    32115    31938    31695    31564    31792    32166    32069 
   31488    31117    31234    31403    31329    31280    31565    31955 
   31958    31607    31391    31486    31599    31541    31461    31477 
   31515    31596    31783    31864    31552    31018    30967    31641 
   32162    31901    31525    31654    31962    32097    32040    31712 
   31286    31194    31330    31257    31079    31205    31592    31881 
   31962    31915    31810    31810    31823    31600    31382    31506 
   31722    31580    31209    31091    31195    31210    31313    31623 
   31788    31699    31633    31623    31529    31491    31691    31965 
   32092    32040    31833    31571    31530    31845    32059    31772 
   31500    31745    32022    31816    31405    31237    31287    31325 
   31313    31318    31353    31367    31276    31191    31280    31444 
   31595    31788    31889    31857    31815    31745    31661    31592 
   31436    31283    31324    31434    31410    31340    31472    31688 
   31617    31442    31637    31949    31914    31760    31826    31947 
   31878    31730    31758    31889    31831    31611    31527    31642 
   31695    31507    31368    31553    31743    31575    31253    31133 
   31245    31457    31585    31533    31553    31789    31926    31827 
   31720    31706    31738    31752    31645    31440    31305    31382 
   31638    31810    31750    31677    31708    31662    31558    31576 
   31664    31692    31654    31650    31779    31857    31671    31480 
   31571    31695    31509    31105    30935    31202    31529    31569 
