Origin Time       2025/03/30 22:55:00
Lat.              41.993
Long.             142.725
Depth. (km)       55
Mag.              4.6
Station Code      HKD113
Station Lat.      42.1287
Station Long.     143.3153
Station Height(m) 15
Record Time       2025/03/30 22:56:19
Sampling Freq(Hz) 100Hz
Duration Time(s)  60
Dir.              U-D
Scale Factor      3920(gal)/6182761
Max. Acc. (gal)   1.019
Last Correction   2025/03/30 22:56:19
Memo.             
  -15434   -15437   -15439   -15438   -15433   -15433   -15438   -15437 
  -15435   -15436   -15435   -15436   -15438   -15436   -15436   -15437 
  -15436   -15435   -15435   -15435   -15435   -15437   -15438   -15437 
  -15435   -15435   -15434   -15433   -15434   -15438   -15438   -15436 
  -15434   -15432   -15437   -15440   -15438   -15436   -15435   -15436 
  -15437   -15436   -15434   -15433   -15436   -15439   -15436   -15434 
  -15436   -15436   -15434   -15436   -15437   -15436   -15438   -15438 
  -15433   -15434   -15435   -15436   -15438   -15438   -15438   -15438 
  -15436   -15435   -15434   -15433   -15436   -15439   -15437   -15434 
  -15437   -15439   -15436   -15436   -15437   -15434   -15434   -15437 
  -15438   -15437   -15436   -15436   -15436   -15436   -15438   -15436 
  -15434   -15437   -15440   -15439   -15436   -15436   -15437   -15436 
  -15437   -15436   -15435   -15436   -15437   -15436   -15435   -15434 
  -15436   -15437   -15437   -15439   -15439   -15437   -15435   -15436 
  -15437   -15437   -15436   -15437   -15438   -15437   -15436   -15437 
  -15438   -15437   -15438   -15438   -15437   -15437   -15438   -15437 
  -15435   -15434   -15437   -15439   -15436   -15435   -15437   -15438 
  -15435   -15434   -15436   -15438   -15436   -15437   -15436   -15433 
  -15435   -15437   -15436   -15435   -15436   -15436   -15436   -15435 
  -15437   -15438   -15436   -15434   -15435   -15436   -15435   -15437 
  -15438   -15438   -15436   -15436   -15435   -15434   -15435   -15438 
  -15438   -15433   -15433   -15436   -15438   -15438   -15437   -15437 
  -15438   -15436   -15435   -15436   -15436   -15437   -15438   -15438 
  -15438   -15438   -15436   -15437   -15438   -15435   -15435   -15437 
  -15438   -15438   -15437   -15435   -15435   -15437   -15437   -15436 
  -15436   -15436   -15436   -15437   -15436   -15434   -15434   -15436 
  -15435   -15436   -15438   -15438   -15437   -15435   -15435   -15437 
  -15437   -15436   -15437   -15438   -15438   -15439   -15439   -15435 
  -15433   -15437   -15439   -15436   -15434   -15435   -15438   -15438 
  -15437   -15437   -15440   -15439   -15435   -15436   -15438   -15436 
  -15436   -15438   -15436   -15435   -15438   -15438   -15436   -15436 
  -15437   -15436   -15436   -15436   -15437   -15438   -15438   -15436 
  -15436   -15436   -15436   -15438   -15437   -15434   -15436   -15438 
  -15437   -15436   -15437   -15436   -15434   -15436   -15438   -15436 
  -15434   -15434   -15437   -15439   -15438   -15436   -15437   -15438 
  -15438   -15436   -15435   -15437   -15439   -15440   -15438   -15436 
  -15437   -15438   -15436   -15437   -15439   -15437   -15436   -15436 
  -15435   -15435   -15437   -15438   -15436   -15436   -15438   -15436 
  -15436   -15437   -15434   -15433   -15438   -15439   -15436   -15437 
  -15439   -15439   -15437   -15434   -15436   -15437   -15437   -15439 
  -15440   -15437   -15435   -15437   -15439   -15438   -15437   -15436 
  -15436   -15438   -15440   -15437   -15435   -15436   -15438   -15438 
  -15438   -15437   -15436   -15435   -15435   -15435   -15436   -15438 
  -15438   -15436   -15436   -15437   -15436   -15436   -15436   -15437 
  -15436   -15436   -15438   -15436   -15435   -15437   -15437   -15436 
  -15436   -15437   -15438   -15437   -15436   -15437   -15436   -15436 
  -15436   -15435   -15437   -15437   -15436   -15436   -15437   -15436 
  -15434   -15434   -15434   -15437   -15437   -15435   -15436   -15437 
  -15435   -15438   -15438   -15437   -15438   -15436   -15435   -15438 
  -15438   -15437   -15436   -15435   -15435   -15436   -15435   -15436 
  -15438   -15438   -15438   -15438   -15437   -15437   -15437   -15436 
  -15434   -15434   -15437   -15438   -15436   -15435   -15436   -15434 
  -15434   -15436   -15436   -15436   -15438   -15437   -15436   -15436 
  -15436   -15436   -15438   -15438   -15438   -15436   -15435   -15436 
  -15435   -15434   -15436   -15436   -15434   -15435   -15436   -15435 
  -15435   -15435   -15436   -15437   -15435   -15436   -15438   -15438 
  -15436   -15436   -15435   -15436   -15436   -15436   -15438   -15438 
  -15436   -15435   -15436   -15436   -15435   -15434   -15433   -15434 
  -15435   -15434   -15435   -15437   -15438   -15435   -15434   -15436 
  -15437   -15436   -15436   -15436   -15436   -15436   -15437   -15437 
  -15436   -15436   -15438   -15436   -15432   -15435   -15437   -15435 
  -15435   -15438   -15436   -15434   -15435   -15436   -15435   -15436 
  -15437   -15435   -15436   -15437   -15435   -15434   -15437   -15436 
  -15436   -15436   -15435   -15435   -15438   -15437   -15435   -15434 
  -15434   -15437   -15437   -15435   -15435   -15437   -15436   -15434 
  -15435   -15436   -15435   -15435   -15437   -15436   -15436   -15437 
  -15438   -15437   -15434   -15433   -15436   -15436   -15435   -15437 
  -15438   -15436   -15437   -15438   -15435   -15435   -15436   -15435 
  -15437   -15437   -15434   -15434   -15436   -15434   -15431   -15432 
  -15431   -15429   -15427   -15423   -15419   -15416   -15411   -15408 
  -15406   -15400   -15392   -15387   -15381   -15375   -15372   -15371 
  -15365   -15358   -15355   -15357   -15362   -15379   -15407   -15428 
  -15422   -15393   -15357   -15338   -15350   -15369   -15383   -15409 
  -15457   -15518   -15550   -15521   -15464   -15440   -15457   -15489 
  -15531   -15600   -15651   -15595   -15476   -15422   -15456   -15512 
  -15538   -15534   -15552   -15639   -15733   -15701   -15524   -15318 
  -15177   -15159   -15300   -15518   -15704   -15864   -15863   -15558 
  -15248   -15159   -15133   -15152   -15306   -15510   -15639   -15617 
  -15472   -15380   -15464   -15538   -15336   -15068   -15205   -15643 
  -15780   -15467   -15231   -15370   -15542   -15452   -15291   -15327 
  -15441   -15393   -15253   -15294   -15610   -15924   -15946   -15716 
  -15471   -15328   -15104   -14859   -14936   -15184   -15364   -15543 
  -15632   -15622   -15649   -15707   -15883   -16003   -15494   -14751 
  -14823   -15314   -15196   -14963   -15391   -16023   -16245   -15849 
  -15151   -14934   -15102   -15020   -14897   -15186   -15849   -16305 
  -16067   -15681   -15486   -14995   -14570   -14821   -15189   -15372 
  -15857   -16416   -16159   -15178   -14677   -15042   -15371   -15361 
  -15523   -15747   -15790   -15828   -15565   -14993   -14889   -15151 
  -15099   -15029   -15555   -16251   -16166   -15482   -15221   -15513 
  -15658   -15351   -14920   -14843   -15271   -15873   -16069   -15694 
  -15453   -15635   -15453   -14946   -14983   -15358   -15382   -15261 
  -15445   -15790   -15970   -15807   -15321   -14995   -15171   -15473 
  -15670   -15785   -15603   -15398   -15531   -15480   -15085   -14905 
  -14945   -15143   -15666   -16034   -15678   -14999   -14955   -15588 
  -15927   -15550   -15058   -15228   -15876   -16029   -15683   -15447 
  -15234   -15115   -15389   -15525   -15176   -15216   -15912   -16112 
  -15387   -14684   -14819   -15544   -15882   -15501   -15213   -15455 
  -15590   -15223   -14867   -15082   -15586   -15585   -15056   -15046 
  -15962   -16505   -15883   -15234   -15531   -16199   -15976   -14810 
  -14285   -14821   -15237   -15316   -15535   -15897   -16166   -16013 
  -15577   -15512   -15789   -15630   -14882   -14319   -14481   -15242 
  -16071   -16189   -15563   -15300   -15827   -16198   -15777   -15028 
  -14662   -14692   -14833   -15320   -16092   -16437   -16070   -15491 
  -15232   -15255   -15395   -15375   -14807   -14429   -15137   -16027 
  -16030   -15574   -15480   -15786   -15904   -15684   -15491   -15288 
  -15070   -15081   -15135   -15212   -15401   -15324   -15149   -15225 
  -15352   -15626   -15980   -15980   -15805   -15720   -15518   -15179 
  -14842   -14704   -15178   -15662   -15305   -15083   -15570   -15721 
  -15555   -15791   -15926   -15408   -14820   -14748   -15129   -15732 
  -15987   -15702   -15574   -15551   -15221   -15233   -15647   -15597 
  -15228   -15186   -15463   -15727   -15596   -15143   -15003   -15303 
  -15452   -15299   -15370   -15611   -15543   -15543   -15893   -16002 
  -15753   -15438   -15028   -14839   -15130   -15327   -15159   -15078 
  -15266   -15736   -16202   -16013   -15377   -14922   -14800   -15136 
  -15688   -15836   -15621   -15586   -15767   -15872   -15804   -15446 
  -15015   -14953   -14935   -14816   -15257   -15930   -15882   -15494 
  -15451   -15543   -15519   -15390   -15312   -15512   -15740   -15636 
  -15267   -14917   -15009   -15430   -15618   -15697   -15856   -15837 
  -15626   -15341   -15151   -15193   -15310   -15373   -15395   -15487 
  -15721   -15831   -15655   -15482   -15440   -15354   -15376   -15636 
  -15632   -15019   -14440   -14789   -15671   -15947   -15808   -15831 
  -15639   -15117   -14778   -14976   -15365   -15420   -15382   -15543 
  -15629   -15488   -15278   -15265   -15603   -15985   -16051   -15717 
  -15193   -15024   -15260   -15315   -15173   -15291   -15514   -15586 
  -15713   -15680   -15343   -15308   -15612   -15756   -15660   -15369 
  -15221   -15411   -15465   -15457   -15600   -15447   -15272   -15493 
  -15513   -15213   -15190   -15409   -15408   -15113   -15148   -15728 
  -15927   -15699   -15879   -15963   -15338   -14826   -14914   -15020 
  -15104   -15467   -15694   -15622   -15455   -15228   -15236   -15412 
  -15428   -15554   -15713   -15442   -15143   -15369   -15693   -15656 
  -15511   -15472   -15537   -15642   -15661   -15546   -15203   -14798 
  -14800   -15259   -15712   -15778   -15611   -15603   -15903   -16045 
  -15367   -14505   -14575   -15265   -15762   -15794   -15522   -15446 
  -15489   -15175   -15022   -15605   -16137   -15727   -15025   -15231 
  -15897   -15606   -14689   -14663   -15416   -15687   -15418   -15387 
  -15770   -16173   -16129   -15593   -15005   -14800   -15180   -15699 
  -15612   -15304   -15508   -15739   -15451   -15086   -15231   -15725 
  -15772   -15092   -14614   -15333   -16569   -16616   -15402   -14561 
  -14941   -15682   -15661   -15032   -14770   -15002   -15085   -15060 
  -15414   -15925   -15913   -15291   -14956   -15442   -15925   -15655 
  -15113   -15023   -15169   -15219   -15602   -16134   -15936   -15251 
  -15047   -15388   -15731   -15963   -16179   -16110   -15490   -14866 
  -14947   -15458   -15736   -15375   -14802   -15094   -15872   -16095 
  -16013   -15909   -15635   -15093   -14516   -14956   -16353   -16697 
  -15466   -14476   -14541   -15034   -15862   -16524   -15844   -14798 
  -15202   -15939   -15421   -14674   -14706   -14995   -15156   -15255 
  -15416   -15725   -15804   -15350   -15113   -15708   -16267   -16059 
  -15418   -14701   -14628   -15631   -16346   -15821   -15086   -14812 
  -15002   -15666   -15830   -15266   -15039   -15020   -14943   -15378 
  -16064   -16253   -15729   -15047   -14999   -15334   -15473   -15617 
  -15799   -15526   -14968   -14954   -15509   -15862   -15699   -15407 
  -15285   -15187   -15259   -15803   -16249   -15800   -14980   -14947 
  -15521   -15630   -15453   -15799   -15848   -15002   -14613   -15150 
  -15642   -15771   -15845   -15877   -15603   -15265   -15341   -15664 
  -15769   -15529   -15171   -14880   -15054   -15822   -15969   -15201 
  -15052   -15709   -16041   -15718   -15222   -15041   -15053   -15173 
  -15362   -14908   -14313   -14936   -16011   -16337   -16106   -15593 
  -15379   -15682   -15627   -15261   -15178   -14968   -14628   -14861 
  -15614   -16213   -16040   -15285   -14982   -15186   -15158   -15092 
  -15310   -15569   -15624   -15361   -15102   -15282   -15755   -15870 
  -15350   -15042   -15431   -15642   -15458   -15666   -15954   -15454 
  -15051   -15797   -16269   -15371   -14577   -14956   -15705   -15783 
  -15568   -15815   -15657   -14911   -14918   -15404   -15387   -15341 
  -15683   -15869   -15642   -15503   -15675   -15797   -15618   -15234 
  -15284   -15879   -15776   -14906   -14763   -15377   -15673   -15535 
  -15482   -15845   -16127   -15591   -15021   -15419   -15967   -15679 
  -14986   -14841   -15552   -16362   -15978   -14441   -13830   -14943 
  -15827   -15583   -15411   -15837   -16200   -16001   -15541   -15240 
  -14900   -14525   -14752   -15411   -15652   -15773   -16060   -15656 
  -14863   -14935   -15591   -15829   -15654   -15630   -15810   -15617 
  -15033   -15110   -15822   -15601   -14735   -15024   -15917   -15785 
  -15092   -15009   -15380   -15510   -15332   -15192   -15198   -15253 
  -15353   -15512   -15737   -15851   -15525   -15100   -15356   -16004 
  -15899   -15090   -14875   -15415   -15501   -14861   -14624   -15169 
  -15438   -15255   -15468   -15782   -15664   -15517   -15580   -15603 
  -15358   -15235   -15620   -15948   -15940   -16007   -15997   -15644 
  -15322   -15267   -15337   -15379   -15394   -15640   -15828   -15315 
  -14676   -14824   -15297   -15379   -15332   -15474   -15560   -15519 
  -15587   -15549   -15250   -15072   -14922   -14900   -15480   -15708 
  -14954   -14780   -15737   -16186   -15617   -15109   -15158   -15431 
  -15408   -15041   -14865   -15097   -15464   -15612   -15535   -15629 
  -15855   -15797   -15667   -15925   -16105   -15526   -14833   -14912 
  -15221   -15129   -15159   -15580   -15857   -15873   -15873   -15858 
  -15853   -15813   -15553   -15129   -14949   -15332   -15792   -15687 
  -15327   -15296   -15684   -16084   -16020   -15797   -15738   -15443 
  -15097   -15295   -15687   -15694   -15404   -15021   -14796   -15140 
  -15564   -15307   -14962   -15155   -15489   -15548   -15304   -15236 
  -15685   -16077   -15995   -15707   -15413   -15002   -14385   -14042 
  -14540   -15501   -16036   -15834   -15521   -15638   -15805   -15639 
  -15479   -15709   -16033   -16112   -16137   -16082   -15838   -15731 
  -15887   -15850   -15406   -15131   -15263   -15275   -15069   -14928 
  -14815   -14755   -14878   -15104   -15288   -15303   -15231   -15310 
  -15528   -15649   -15524   -15486   -15604   -15205   -14603   -14676 
  -15197   -15828   -16191   -15827   -15428   -15627   -15850   -15569 
  -15099   -15038   -15351   -15693   -16059   -16181   -15731   -15096 
  -14851   -15043   -15150   -14863   -14773   -15302   -15696   -15537 
  -15641   -15947   -15556   -15066   -15282   -15623   -15737   -15863 
  -15852   -15574   -15275   -15028   -14803   -14847   -15198   -15579 
  -15862   -15773   -15254   -15134   -15690   -15955   -15609   -15205 
  -15097   -15592   -16308   -16224   -15623   -15471   -15625   -15708 
  -15789   -15852   -15836   -15680   -15216   -14661   -14564   -14717 
  -14657   -14726   -15170   -15827   -16325   -16077   -15466   -15282 
  -15248   -14986   -14919   -15412   -15857   -15628   -15347   -15550 
  -15685   -15380   -15008   -15056   -15524   -15838   -15578   -15173 
  -15239   -15639   -15792   -15490   -15212   -15296   -15331   -15260 
  -15337   -15348   -15441   -15740   -15682   -15303   -15177   -15294 
  -15319   -15194   -15201   -15386   -15491   -15641   -15816   -15545 
  -15028   -14915   -15216   -15501   -15459   -15307   -15498   -15822 
  -15982   -16212   -16278   -15726   -15050   -15065   -15559   -15631 
  -15264   -15225   -15667   -16046   -15918   -15536   -15457   -15609 
  -15513   -15097   -14852   -15025   -15211   -15346   -15642   -15723 
  -15486   -15383   -15353   -15209   -15149   -15197   -15219   -15178 
  -15160   -15292   -15455   -15418   -15345   -15586   -15855   -15658 
  -15300   -15250   -15391   -15540   -15660   -15517   -15114   -15014 
  -15438   -15789   -15776   -15803   -15959   -15999   -15900   -15687 
  -15371   -15137   -15163   -15278   -15343   -15497   -15527   -15247 
  -15097   -15283   -15360   -15103   -14851   -14897   -15278   -15801 
  -16119   -16106   -15650   -14857   -14574   -14932   -15001   -14765 
  -14854   -15221   -15583   -15826   -15878   -15783   -15644   -15563 
  -15718   -15989   -15927   -15534   -15066   -14529   -14178   -14360 
  -14972   -15625   -15887   -15748   -15747   -16098   -16396   -16294 
  -15880   -15464   -15242   -15216   -15272   -15330   -15427   -15488 
  -15295   -15033   -15211   -15672   -15847   -15741   -15680   -15755 
  -15652   -15108   -14598   -14616   -14963   -15326   -15518   -15569 
  -15784   -16089   -16119   -15896   -15637   -15468   -15533   -15829 
  -15881   -15409   -14979   -14930   -14969   -15091   -15355   -15465 
  -15293   -15154   -15213   -15199   -15103   -15212   -15493   -15719 
  -15780   -15730   -15713   -15865   -16153   -16185   -15794   -15481 
  -15457   -15346   -15052   -14809   -14867   -15311   -15697   -15616 
  -15418   -15559   -15955   -16310   -16484   -16382   -15839   -15019 
  -14412   -14248   -14425   -14676   -14813   -15057   -15497   -15668 
  -15407   -15229   -15498   -15818   -15618   -15085   -14774   -14784 
  -14961   -15124   -15038   -14850   -15041   -15772   -16647   -16954 
  -16456   -15856   -15849   -16294   -16415   -15772   -15095   -15085 
  -15270   -15246   -15231   -15200   -15067   -15178   -15741   -16302 
  -16259   -15594   -14890   -14747   -15099   -15419   -15459   -15199 
  -14904   -15120   -15627   -15539   -14843   -14454   -14832   -15537 
  -15946   -15807   -15246   -14688   -14599   -15046   -15697   -16059 
  -15923   -15799   -16093   -16382   -16292   -15920   -15324   -14750 
  -14667   -15054   -15497   -15658   -15376   -15007   -15203   -15771 
  -15890   -15475   -15063   -15070   -15552   -15959   -15858   -15617 
  -15483   -15273   -15171   -15421   -15788   -16012   -16026   -16061 
  -16340   -16367   -15681   -14734   -14225   -14352   -14830   -15320 
  -15539   -15373   -15170   -15211   -15264   -15104   -14813   -14604 
  -14576   -14642   -14785   -15137   -15669   -16100   -16169   -15936 
  -15737   -15717   -15614   -15309   -15172   -15452   -15754   -15692 
  -15537   -15551   -15505   -15303   -15152   -15203   -15535   -16062 
  -16381   -16203   -15891   -15773   -15477   -14839   -14399   -14553 
  -14995   -15232   -15246   -15212   -15188   -15294   -15576   -15825 
  -15751   -15366   -15055   -15018   -15120   -15306   -15483   -15451 
  -15337   -15405   -15563   -15594   -15504   -15495   -15701   -15916 
  -15817   -15493   -15319   -15409   -15608   -15737   -15674   -15514 
  -15506   -15650   -15788   -15948   -16052   -15880   -15543   -15317 
  -15269   -15298   -15311   -15345   -15536   -15892   -16102   -15866 
  -15420   -15184   -15045   -14743   -14493   -14620   -15052   -15350 
  -15275   -15149   -15263   -15515   -15683   -15651   -15507   -15420 
  -15398   -15353   -15400   -15650   -15837   -15694   -15330   -15114 
  -15311   -15715   -15911   -15826   -15576   -15192   -14798   -14525 
  -14504   -14942   -15559   -15862   -16040   -16291   -16326   -16065 
  -15703   -15399   -15208   -15093   -15075   -15208   -15293   -15107 
  -14985   -15235   -15507   -15541   -15410   -15290   -15443   -15702 
  -15721   -15702   -15789   -15688   -15352   -15102   -15125   -15334 
  -15560   -15725   -15848   -15913   -15922   -15878   -15626   -15176 
  -14894   -14947   -15089   -15240   -15499   -15682   -15646   -15483 
  -15322   -15418   -15681   -15608   -15286   -15263   -15537   -15741 
  -15762   -15693   -15624   -15543   -15395   -15282   -15309   -15385 
  -15429   -15356   -15095   -14868   -14843   -14902   -14992   -15025 
