Origin Time       2025/03/30 22:55:00
Lat.              41.993
Long.             142.725
Depth. (km)       55
Mag.              4.6
Station Code      HKD109
Station Lat.      42.1678
Station Long.     142.7673
Station Height(m) 4
Record Time       2025/03/30 22:56:09
Sampling Freq(Hz) 100Hz
Duration Time(s)  70
Dir.              U-D
Scale Factor      7845(gal)/8223790
Max. Acc. (gal)   2.986
Last Correction   2025/03/30 22:56:09
Memo.             
    4666     4666     4665     4664     4664     4665     4668     4668 
    4664     4665     4665     4664     4666     4669     4668     4666 
    4665     4665     4668     4668     4669     4666     4662     4664 
    4666     4666     4665     4665     4666     4669     4669     4666 
    4664     4665     4668     4666     4662     4665     4666     4665 
    4666     4666     4665     4666     4666     4665     4666     4665 
    4664     4665     4668     4669     4666     4664     4665     4664 
    4665     4669     4669     4665     4665     4664     4664     4664 
    4664     4665     4666     4666     4668     4666     4664     4666 
    4666     4664     4665     4666     4666     4665     4668     4669 
    4668     4668     4666     4664     4666     4668     4666     4665 
    4665     4665     4668     4668     4665     4665     4666     4668 
    4668     4666     4668     4666     4664     4665     4664     4665 
    4666     4666     4666     4665     4662     4664     4668     4668 
    4666     4668     4668     4666     4666     4668     4665     4664 
    4665     4666     4666     4666     4666     4666     4665     4664 
    4665     4664     4665     4669     4668     4666     4666     4665 
    4665     4668     4666     4664     4662     4666     4671     4668 
    4666     4666     4668     4666     4664     4665     4665     4668 
    4671     4668     4665     4666     4668     4665     4662     4664 
    4666     4668     4666     4666     4668     4665     4664     4665 
    4662     4664     4668     4666     4664     4665     4666     4665 
    4664     4664     4665     4666     4664     4666     4668     4665 
    4668     4669     4665     4662     4664     4666     4668     4666 
    4666     4668     4666     4665     4666     4669     4668     4666 
    4666     4668     4669     4669     4666     4666     4666     4666 
    4666     4666     4666     4668     4668     4665     4665     4666 
    4665     4665     4666     4666     4666     4668     4666     4666 
    4668     4666     4666     4666     4666     4666     4664     4665 
    4668     4666     4665     4666     4668     4666     4665     4666 
    4665     4665     4665     4665     4665     4666     4669     4666 
    4662     4665     4668     4666     4665     4666     4665     4665 
    4669     4668     4664     4665     4666     4664     4666     4668 
    4666     4665     4665     4665     4666     4668     4671     4669 
    4665     4665     4668     4665     4664     4666     4668     4666 
    4666     4666     4666     4665     4665     4668     4668     4666 
    4666     4665     4662     4664     4669     4671     4669     4666 
    4662     4664     4669     4671     4668     4664     4664     4665 
    4665     4668     4666     4664     4665     4666     4665     4665 
    4666     4666     4668     4669     4666     4665     4666     4669 
    4668     4666     4666     4666     4668     4665     4665     4665 
    4665     4665     4666     4666     4666     4668     4666     4665 
    4666     4666     4666     4668     4666     4664     4665     4669 
    4666     4662     4662     4665     4666     4665     4668     4668 
    4666     4665     4664     4664     4665     4665     4664     4664 
    4666     4666     4666     4665     4664     4666     4669     4666 
    4665     4666     4666     4662     4662     4668     4669     4665 
    4664     4664     4664     4666     4668     4666     4665     4666 
    4669     4668     4665     4665     4668     4666     4664     4665 
    4665     4664     4666     4666     4666     4668     4666     4664 
    4664     4662     4666     4669     4665     4664     4665     4665 
    4665     4665     4665     4665     4665     4665     4666     4665 
    4665     4668     4668     4664     4665     4666     4666     4666 
    4665     4664     4664     4666     4668     4666     4665     4665 
    4666     4666     4668     4668     4666     4668     4668     4664 
    4664     4664     4662     4664     4666     4666     4665     4665 
    4665     4665     4666     4668     4666     4665     4668     4668 
    4666     4666     4666     4665     4668     4668     4666     4666 
    4669     4668     4665     4665     4664     4662     4665     4668 
    4668     4668     4666     4664     4664     4665     4666     4665 
    4665     4669     4669     4665     4665     4668     4666     4665 
    4666     4669     4668     4665     4665     4665     4664     4666 
    4668     4666     4666     4668     4669     4669     4668     4665 
    4665     4666     4665     4665     4665     4666     4668     4666 
    4666     4666     4666     4666     4666     4666     4669     4669 
    4668     4669     4669     4665     4665     4665     4664     4666 
    4669     4668     4669     4671     4669     4668     4665     4664 
    4665     4666     4666     4666     4666     4666     4666     4666 
    4668     4668     4666     4665     4666     4668     4669     4668 
    4666     4668     4668     4665     4665     4668     4668     4668 
    4668     4666     4668     4668     4665     4664     4666     4668 
    4669     4669     4666     4665     4665     4666     4665     4668 
    4669     4664     4665     4672     4671     4666     4666     4666 
    4668     4666     4665     4666     4668     4666     4664     4664 
    4664     4665     4665     4666     4669     4668     4665     4664 
    4664     4665     4666     4665     4666     4665     4665     4668 
    4664     4661     4664     4669     4668     4665     4666     4671 
    4669     4665     4664     4665     4666     4664     4665     4668 
    4666     4668     4671     4669     4666     4666     4664     4662 
    4665     4666     4668     4668     4665     4666     4669     4668 
    4665     4665     4668     4669     4666     4664     4665     4669 
    4668     4665     4666     4666     4665     4666     4668     4666 
    4665     4665     4666     4665     4665     4665     4666     4666 
    4666     4665     4668     4668     4665     4666     4666     4665 
    4665     4666     4666     4666     4666     4666     4668     4666 
    4664     4665     4668     4666     4665     4668     4669     4668 
    4666     4666     4665     4666     4668     4666     4666     4665 
    4662     4665     4668     4664     4662     4668     4671     4665 
    4664     4666     4666     4664     4665     4668     4665     4665 
    4668     4668     4662     4661     4664     4665     4665     4665 
    4666     4665     4664     4666     4666     4665     4665     4666 
    4666     4665     4665     4665     4665     4664     4666     4671 
    4666     4664     4666     4666     4664     4664     4665     4668 
    4669     4666     4665     4665     4664     4664     4668     4666 
    4665     4668     4669     4666     4665     4665     4664     4664 
    4665     4665     4665     4665     4669     4668     4665     4664 
    4664     4666     4666     4666     4666     4669     4668     4662 
    4664     4666     4664     4662     4665     4668     4669     4669 
    4669     4665     4664     4666     4668     4665     4664     4666 
    4666     4666     4668     4665     4664     4666     4665     4662 
    4666     4671     4669     4665     4666     4669     4664     4661 
    4665     4665     4665     4665     4664     4665     4665     4665 
    4666     4668     4666     4665     4668     4668     4666     4664 
    4664     4666     4665     4666     4666     4665     4666     4668 
    4666     4666     4665     4662     4664     4666     4669     4669 
    4668     4668     4666     4664     4662     4665     4666     4668 
    4666     4666     4668     4665     4666     4668     4665     4666 
    4668     4666     4666     4666     4666     4664     4661     4665 
    4666     4665     4665     4665     4666     4666     4665     4662 
    4664     4668     4669     4666     4664     4666     4668     4668 
    4666     4662     4665     4666     4665     4666     4666     4662 
    4664     4666     4665     4665     4668     4668     4666     4666 
    4664     4664     4665     4665     4662     4665     4666     4666 
    4666     4666     4665     4664     4665     4668     4668     4666 
    4668     4671     4669     4665     4665     4665     4665     4666 
    4665     4665     4665     4664     4664     4665     4665     4664 
    4664     4665     4668     4666     4666     4666     4665     4665 
    4665     4665     4664     4664     4664     4665     4668     4669 
    4668     4665     4661     4658     4660     4664     4666     4668 
    4665     4664     4665     4664     4664     4665     4666     4665 
    4665     4666     4664     4664     4668     4666     4665     4664 
    4662     4664     4666     4668     4666     4668     4668     4665 
    4662     4662     4664     4666     4668     4669     4671     4664 
    4662     4666     4666     4662     4666     4669     4666     4662 
    4662     4664     4662     4662     4664     4664     4665     4668 
    4668     4665     4664     4664     4665     4665     4662     4666 
    4671     4668     4666     4666     4662     4661     4665     4665 
    4665     4668     4671     4666     4664     4664     4665     4664 
    4664     4666     4666     4665     4665     4666     4668     4665 
    4661     4662     4665     4666     4666     4665     4665     4665 
    4666     4666     4664     4665     4666     4666     4666     4665 
    4664     4664     4664     4665     4666     4665     4665     4664 
    4664     4666     4666     4666     4668     4668     4664     4662 
    4666     4666     4665     4665     4668     4666     4664     4666 
    4666     4665     4666     4668     4666     4665     4665     4666 
    4668     4665     4665     4668     4669     4665     4665     4668 
    4666     4666     4668     4666     4665     4666     4665     4665 
    4665     4666     4666     4665     4666     4668     4666     4668 
    4666     4664     4666     4668     4665     4665     4666     4665 
    4665     4666     4665     4664     4664     4668     4668     4665 
    4664     4665     4668     4665     4664     4666     4666     4664 
    4662     4665     4669     4668     4665     4665     4668     4668 
    4666     4666     4668     4666     4665     4664     4665     4665 
    4664     4666     4664     4662     4664     4666     4668     4668 
    4665     4665     4666     4666     4666     4666     4669     4669 
    4665     4661     4664     4665     4666     4668     4666     4666 
    4666     4666     4666     4668     4665     4664     4665     4666 
    4665     4665     4664     4664     4665     4669     4669     4665 
    4665     4666     4668     4666     4662     4664     4669     4669 
    4666     4664     4662     4665     4666     4666     4665     4666 
    4665     4665     4666     4665     4664     4669     4668     4664 
    4665     4666     4664     4665     4665     4665     4665     4666 
    4665     4666     4668     4665     4668     4668     4665     4665 
    4666     4664     4664     4666     4665     4665     4666     4665 
    4664     4668     4671     4668     4664     4664     4666     4665 
    4664     4664     4664     4668     4671     4668     4664     4665 
    4666     4666     4665     4664     4665     4666     4665     4665 
    4666     4665     4666     4665     4664     4665     4666     4665 
    4662     4662     4665     4666     4664     4665     4668     4668 
    4666     4668     4666     4664     4664     4664     4665     4666 
    4665     4665     4668     4666     4664     4665     4665     4664 
    4665     4666     4666     4665     4664     4664     4665     4665 
    4662     4662     4665     4665     4665     4668     4668     4665 
    4662     4661     4665     4669     4668     4665     4668     4668 
    4669     4669     4665     4662     4664     4665     4665     4666 
    4668     4668     4668     4666     4662     4661     4666     4669 
    4668     4668     4666     4665     4665     4666     4665     4665 
    4665     4665     4665     4665     4668     4672     4676     4685 
    4699     4716     4743     4781     4833     4899     4965     5017 
    5047     5043     4965     4764     4456     4143     4013     4256 
    4909     5687     6100     5857     5084     4147     3408     3067 
    3180     3821     4881     5805     5979     5352     4561     4357 
    4618     4523     4016     3828     4112     4363     4461     4695 
    4999     5066     4810     4314     3924     3975     4225     4452 
    4780     4950     4780     4687     4753     4676     4484     4249 
    4225     4827     5445     5316     5088     5313     5413     5107 
    4591     3950     3574     3878     4743     5678     6065     5900 
    5433     4106     2528     3038     5378     6496     5602     4348 
    3585     3360     3686     4430     5512     6366     6000     4548 
    3337     3361     4376     5188     4984     4241     3609     3115 
    3327     4916     6646     6656     5130     3537     3129     4383 
    5709     4969     3353     3730     5811     6736     5346     3781 
    4213     5356     5364     5188     5304     4384     3053     3314 
    4989     6153     5559     3888     2878     3172     4212     5449 
    6461     6793     5892     3736     1834     1900     3897     6455 
    7797     6458     3411     2193     4255     6646     6494     4529 
    3142     3402     4224     4491     4874     5742     5842     4558 
    3144     3327     5085     6393     5969     4590     3635     3947 
    4876     4896     4298     4719     5918     6008     4627     3354 
    3376     4514     5571     5225     4014     3847     4723     5111 
    4947     5078     5417     5367     4671     3832     3748     4367 
    5036     5772     6276     5551     3805     2403     2092     2890 
    4552     6261     6852     5972     4386     3184     3244     4772 
    6764     7584     6590     4606     2729     1829     2579     4595 
    6183     5989     4752     4367     5089     5270     4282     3650 
    4507     5748     5780     4784     4202     4698     5277     4666 
    3362     2997     3924     5259     6052     5552     4229     3488 
    3902     5143     6180     5741     4324     3692     4041     4336 
    4221     3959     3977     4483     4976     4830     4244     4298 
    5718     7252     6640     3928     2172     3231     4931     4942 
    4387     5085     6327     6084     4139     2910     4060     5717 
    5520     4282     4121     4962     4990     3865     3246     4031 
    5433     6343     5802     3936     2689     3357     4666     5170 
    5201     5574     6100     5618     3882     2805     3742     5213 
    5417     4645     4179     4608     5213     4860     3894     3720 
    4517     5134     4881     4450     4815     5620     5664     4760 
    4025     4433     5536     5755     4581     3519     3639     4164 
    4216     4009     4290     5476     6821     6860     5591     4388 
    3753     3495     3627     3840     3937     4309     4932     5235 
    5235     5131     4791     4638     4877     4876     4644     4392 
    3721     3164     4009     5999     7129     6012     3829     2805 
    3204     3912     4673     5838     7036     6879     4527     1976 
    2119     4540     6646     7018     5501     3419     2851     3696 
    4486     4930     4923     4351     4126     4498     4741     5200 
    5869     5252     3647     3411     5134     6909     6721     4706 
    3106     3090     3589     3900     4233     4482     4718     5177 
    5506     5333     4706     4113     4378     5448     6119     5722 
    4627     3325     2592     3303     5067     6440     6420     5238 
    4140     3904     4171     4818     5778     5827     4432     3069 
    2980     4002     5374     5976     5154     3931     3943     5179 
    6262     6223     5171     4108     3784     4013     4460     4596 
    4167     4249     5217     5329     3878     2883     3809     5292 
    5401     4379     3989     4672     5059     4719     4768     5252 
    4908     3670     3229     4583     6138     5830     4324     3778 
    4565     5391     5385     4698     4166     4585     5732     6462 
    5845     4040     2552     2841     4415     5589     5551     4919 
    4708     4924     4932     4780     4741     4668     4545     4603 
    4922     5101     4545     3531     3042     3603     5086     6532 
    6551     5243     4224     4280     4515     4064     3665     4206 
    4919     4887     4627     4853     5108     4668     4017     3932 
    4112     4185     4322     4483     4585     4873     5541     6062 
    5196     3184     2546     4374     6551     6979     5698     3920 
    2635     2114     2776     4957     7092     7025     5073     3379 
    3360     4693     5798     5726     5193     4900     4621     4051 
    3199     2731     3474     4974     5949     5896     5298     4922 
    5258     6088     6386     5355     3723     2947     3285     3883 
    4172     4293     4714     5535     6023     5641     5012     4976 
    5412     5290     4018     2666     2708     3994     5259     5810 
    5618     4882     4162     3901     4114     4774     5613     5969 
    5443     4522     4305     4976     5363     4828     4176     4132 
    4378     4266     3565     2874     3238     4741     6250     6640 
    5741     4361     3468     3415     4037     4985     5826     5969 
    5170     4236     4152     4591     4503     4002     4202     5275 
    6053     5622     4522     3982     4153     4168     3964     4386 
    5433     5923     5155     4029     3921     4774     5296     4849 
    3990     3505     3611     3943     4260     4743     5316     5362 
    4783     4714     5779     6573     5795     4444     4081     4534 
    4540     3748     3260     3967     5225     5736     5086     4129 
    3792     4028     4492     5178     5787     5748     5001     3919 
    3090     3169     4021     4716     4723     4430     4536     5169 
    5737     5715     5375     5293     5312     4969     4579     4693 
    4926     4565     3888     3761     4293     4695     4604     4646 
    5063     5146     4500     3495     2887     3470     4953     5751 
    5036     4028     4272     5543     6278     5653     4614     4496 
    5101     5124     4218     3568     4163     5161     5109     4259 
    3883     4126     4413     4969     5979     6466     5717     4531 
    3877     3704     3703     3846     4039     4260     4699     5262 
    5644     5737     5417     4738     4209     4025     4027     4290 
    4754     5171     5427     5243     4681     4351     4434     4776 
    5290     5540     5124     4359     3879     3977     4361     4472 
    4229     4176     4587     5186     5780     6127     5687     4565 
    3697     3651     4239     4857     4866     4368     4166     4696 
    5591     6043     5652     4874     4182     3744     3881     4580 
    5238     5220     4271     3119     3258     4850     6085     5694 
    4471     3690     3631     4010     4573     4938     4837     4553 
    4608     4873     4653     4168     4357     4950     5000     4687 
    4804     5417     5691     4893     3696     3562     4499     5049 
