Origin Time       2025/03/30 22:55:00
Lat.              41.993
Long.             142.725
Depth. (km)       55
Mag.              4.6
Station Code      HKD110
Station Lat.      42.1310
Station Long.     142.9354
Station Height(m) 4
Record Time       2025/03/30 22:56:07
Sampling Freq(Hz) 100Hz
Duration Time(s)  76
Dir.              N-S
Scale Factor      7845(gal)/8223790
Max. Acc. (gal)   9.384
Last Correction   2025/03/30 22:56:07
Memo.             
[...]
   -2277    -2278    -2274    -2273    -2277    -2276    -2274    -2278 
   -2278    -2277    -2277    -2274    -2276    -2280    -2278    -2277 
   -2276    -2274    -2276    -2277    -2278    -2278    -2277    -2278 
   -2278    -2276    -2276    -2276    -2276    -2276    -2274    -2276 
   -2278    -2276    -2273    -2276    -2277    -2277    -2276    -2276 
   -2277    -2276    -2274    -2276    -2278    -2278    -2277    -2277 
   -2277    -2276    -2277    -2278    -2276    -2274    -2277    -2276 
   -2274    -2274    -2274    -2277    -2277    -2274    -2276    -2278 
   -2280    -2277    -2274    -2276    -2277    -2276    -2276    -2276 
   -2274    -2274    -2278    -2278    -2277    -2277    -2278    -2278 
   -2277    -2277    -2278    -2278    -2278    -2277    -2277    -2277 
   -2276    -2273    -2276    -2277    -2277    -2277    -2276    -2274 
   -2277    -2277    -2277    -2278    -2278    -2277    -2276    -2276 
   -2277    -2277    -2276    -2277    -2277    -2277    -2276    -2276 
   -2277    -2277    -2277    -2278    -2278    -2277    -2278    -2276 
   -2274    -2277    -2278    -2276    -2277    -2278    -2277    -2277 
   -2277    -2276    -2276    -2280    -2281    -2277    -2276    -2277 
   -2277    -2276    -2276    -2277    -2277    -2274    -2276    -2278 
   -2277    -2277    -2277    -2276    -2277    -2277    -2274    -2273 
   -2276    -2276    -2277    -2280    -2277    -2274    -2276    -2276 
   -2277    -2278    -2277    -2278    -2278    -2276    -2273    -2274 
   -2278    -2277    -2276    -2277    -2276    -2274    -2276    -2277 
   -2277    -2277    -2276    -2277    -2280    -2277    -2274    -2277 
   -2276    -2276    -2278    -2277    -2276    -2276    -2276    -2276 
   -2277    -2278    -2277    -2276    -2277    -2278    -2276    -2274 
   -2277    -2278    -2278    -2278    -2277    -2273    -2272    -2274 
   -2278    -2278    -2278    -2276    -2274    -2276    -2276    -2276 
   -2277    -2276    -2274    -2277    -2277    -2273    -2274    -2277 
   -2278    -2278    -2274    -2274    -2276    -2276    -2276    -2278 
   -2278    -2278    -2277    -2277    -2278    -2277    -2278    -2277 
   -2276    -2277    -2278    -2273    -2272    -2274    -2276    -2277 
   -2278    -2276    -2274    -2274    -2276    -2276    -2274    -2277 
   -2277    -2276    -2274    -2277    -2277    -2276    -2277    -2278 
   -2277    -2277    -2277    -2276    -2277    -2278    -2276    -2276 
   -2278    -2278    -2276    -2278    -2278    -2276    -2276    -2278 
   -2277    -2276    -2274    -2274    -2276    -2277    -2277    -2277 
   -2278    -2277    -2274    -2276    -2278    -2278    -2277    -2276 
   -2278    -2277    -2276    -2274    -2276    -2276    -2276    -2276 
   -2277    -2274    -2274    -2274    -2276    -2278    -2278    -2276 
   -2276    -2274    -2274    -2274    -2277    -2278    -2277    -2277 
   -2276    -2274    -2276    -2274    -2274    -2277    -2277    -2274 
   -2274    -2276    -2274    -2277    -2278    -2277    -2277    -2277 
   -2276    -2274    -2276    -2277    -2276    -2274    -2277    -2276 
   -2274    -2276    -2276    -2274    -2276    -2276    -2277    -2277 
   -2276    -2277    -2277    -2276    -2278    -2278    -2277    -2276 
   -2277    -2277    -2278    -2278    -2276    -2277    -2277    -2277 
   -2278    -2278    -2277    -2276    -2277    -2277    -2276    -2277 
   -2277    -2276    -2276    -2278    -2278    -2278    -2274    -2274 
   -2278    -2278    -2277    -2276    -2276    -2277    -2277    -2276 
   -2277    -2278    -2277    -2278    -2281    -2278    -2278    -2277 
   -2276    -2277    -2276    -2276    -2277    -2278    -2276    -2273 
   -2276    -2277    -2276    -2274    -2276    -2277    -2278    -2277 
   -2274    -2274    -2276    -2276    -2277    -2277    -2276    -2276 
   -2276    -2276    -2276    -2280    -2280    -2276    -2276    -2277 
   -2277    -2277    -2277    -2278    -2277    -2277    -2277    -2277 
   -2276    -2274    -2274    -2276    -2277    -2276    -2274    -2276 
   -2276    -2277    -2278    -2274    -2273    -2276    -2276    -2274 
   -2274    -2276    -2277    -2278    -2276    -2276    -2278    -2277 
   -2277    -2280    -2278    -2276    -2277    -2276    -2274    -2277 
   -2280    -2278    -2278    -2281    -2278    -2276    -2277    -2277 
   -2277    -2280    -2277    -2274    -2274    -2277    -2277    -2274 
   -2273    -2276    -2277    -2277    -2277    -2277    -2278    -2277 
   -2276    -2276    -2274    -2276    -2278    -2278    -2276    -2280 
   -2280    -2278    -2280    -2277    -2274    -2278    -2278    -2277 
   -2278    -2278    -2277    -2274    -2274    -2276    -2276    -2274 
   -2276    -2277    -2276    -2276    -2277    -2278    -2280    -2280 
   -2277    -2274    -2276    -2277    -2276    -2274    -2274    -2277 
   -2277    -2276    -2276    -2274    -2277    -2280    -2278    -2277 
   -2278    -2277    -2276    -2277    -2277    -2276    -2277    -2280 
   -2278    -2276    -2276    -2274    -2276    -2278    -2277    -2277 
   -2278    -2276    -2273    -2276    -2276    -2274    -2277    -2277 
   -2276    -2278    -2276    -2274    -2277    -2276    -2277    -2280 
   -2277    -2274    -2276    -2276    -2277    -2278    -2277    -2274 
   -2276    -2276    -2276    -2277    -2280    -2278    -2276    -2277 
   -2277    -2276    -2276    -2277    -2278    -2277    -2276    -2278 
   -2278    -2277    -2277    -2277    -2277    -2277    -2278    -2278 
   -2277    -2276    -2276    -2277    -2277    -2276    -2276    -2276 
   -2277    -2277    -2277    -2277    -2277    -2277    -2276    -2273 
   -2274    -2274    -2274    -2274    -2278    -2281    -2280    -2277 
   -2277    -2277    -2277    -2277    -2277    -2276    -2277    -2277 
   -2276    -2277    -2278    -2278    -2278    -2280    -2282    -2285 
   -2285    -2286    -2286    -2281    -2270    -2266    -2277    -2301 
   -2335    -2363    -2362    -2330    -2292    -2266    -2253    -2261 
   -2301    -2331    -2311    -2261    -2224    -2247    -2330    -2380 
   -2334    -2222    -2077    -1960    -1973    -2131    -2343    -2432 
   -2282    -2134    -2207    -2216    -1998    -1858    -1966    -2223 
   -2469    -2528    -2416    -2235    -1989    -1898    -2200    -2577 
   -2508    -2151    -2157    -2466    -2362    -1977    -2111    -2675 
   -2987    -2848    -2431    -1946    -1587    -1549    -2033    -2824 
   -3223    -2991    -2659    -2511    -2215    -1740    -1622    -2085 
   -2631    -2755    -2477    -2218    -2344    -2565    -2384    -2000 
   -1804    -1989    -2633    -3118    -2776    -2095    -1748    -1755 
   -2087    -2439    -2259    -1834    -1852    -2216    -2494    -2385 
   -1784    -1409    -1922    -2538    -2540    -2488    -2589    -2376 
   -1991    -1853    -1933    -2128    -2548    -3152    -3389    -2862 
   -2184    -2137    -2440    -2389    -2095    -2128    -2477    -2820 
   -3032    -2991    -2695    -2230    -1885    -2061    -2378    -2297 
   -2178    -2358    -2443    -2101    -1696    -1718    -1969    -1980 
   -1707    -1486    -1687    -2128    -2251    -2093    -2085    -2253 
   -2378    -2346    -2239    -2177    -2072    -1906    -1830    -1683 
   -1503    -2123    -3487    -4012    -3218    -2338    -1985    -1848 
   -1800    -1946    -2461    -3161    -3225    -2420    -1798    -2035 
   -2492    -2421    -2084    -2357    -3094    -3098    -2535    -2512 
   -2552    -1885    -1232    -1416    -2218    -2606    -2081    -1657 
   -2069    -2586    -2465    -1861    -1540    -1826    -2153    -2312 
   -2496    -2504    -2535    -2903    -3106    -2740    -2046    -1483 
   -1571    -2247    -2627    -2319    -2088    -2394    -2559    -2185 
   -1782    -1771    -2249    -2934    -3121    -2593    -1991    -1988 
   -2457    -2558    -2081    -1784    -1811    -1571    -1350    -1841 
   -2536    -2655    -2681    -3322    -3981    -3543    -2226    -1312 
   -1362    -2049    -2860    -3096    -2670    -2369    -2416    -2408 
   -2300    -2316    -2454    -2268    -1798    -1890    -2398    -2505 
   -2409    -2415    -2423    -2463    -2257    -1638    -1148    -1246 
   -1779    -2243    -2392    -2361    -2119    -1745    -1680    -1937 
   -2208    -2411    -2351    -2002    -1838    -2069    -2396    -2635 
   -2809    -2882    -2799    -2617    -2513    -2546    -2455    -2157 
   -2014    -2249    -2720    -3040    -2880    -2550    -2517    -2597 
   -2527    -2335    -2047    -1926    -2060    -2020    -1849    -1919 
   -2058    -2123    -2185    -2146    -2083    -2147    -2276    -2351 
   -2257    -2079    -2014    -1969    -1923    -2080    -2255    -2084 
   -1729    -1618    -1750    -1914    -2106    -2335    -2565    -2736 
   -2631    -2367    -2361    -2489    -2608    -2874    -2894    -2524 
   -2342    -2311    -2268    -2540    -2812    -2739    -2685    -2569 
   -2295    -2490    -3086    -3184    -2687    -2222    -2168    -2420 
   -2417    -2147    -2347    -2725    -2479    -2111    -1944    -1476 
   -1125    -1362    -1674    -1919    -2164    -1957    -1331     -907 
    -934    -1169    -1444    -1917    -2367    -2218    -1827    -1946 
   -2184    -2173    -2546    -3275    -3462    -3059    -2810    -3022 
   -3345    -3338    -3029    -2859    -3087    -3518    -3549    -2848 
   -2350    -2965    -3700    -3339    -2500    -2116    -1892    -1483 
   -1475    -2108    -2478    -2026    -1451    -1410    -1620    -1634 
   -1422    -1138    -1105    -1470    -1686    -1417    -1266    -1503 
   -1651    -1672    -1841    -2123    -2513    -2751    -2350    -1691 
   -1669    -2340    -3154    -3623    -3415    -2880    -2732    -2817 
   -2679    -2593    -2743    -2864    -3030    -3435    -3670    -3204 
   -2527    -2548    -2990    -2968    -2477    -2020    -1779    -1710 
   -1775    -1931    -2050    -1976    -1776    -1590    -1360    -1059 
    -884    -1028    -1417    -1836    -2154    -2141    -1823    -1756 
   -1979    -1988    -1831    -1891    -2239    -2579    -2523    -2274 
   -2347    -2663    -2916    -3013    -2914    -2932    -3275    -3419 
   -3203    -3103    -3136    -3199    -3350    -3244    -2806    -2486 
   -2286    -1999    -1802    -1852    -2143    -2455    -2263    -1705 
   -1626    -1957    -1938    -1636    -1417    -1235    -1105    -1113 
   -1254    -1536    -1732    -1597    -1474    -1802    -2253    -2295 
   -2095    -2070    -2277    -2579    -2787    -2818    -2810    -2836 
   -2816    -2602    -2358    -2535    -2880    -2802    -2705    -3037 
   -3287    -3156    -3002    -2960    -2870    -2727    -2648    -2583 
   -2373    -2037    -1807    -1771    -1791    -1875    -2126    -2330 
   -2276    -2142    -2034    -1800    -1521    -1459    -1664    -1900 
   -1935    -1887    -1954    -1972    -1840    -1811    -1945    -2039 
   -1993    -1896    -1941    -2250    -2693    -2926    -2785    -2681 
   -2979    -3310    -3207    -2759    -2293    -2058    -2211    -2625 
   -2906    -2913    -2833    -2754    -2647    -2525    -2407    -2407 
   -2569    -2694    -2651    -2448    -2053    -1602    -1404    -1441 
   -1405    -1316    -1491    -1942    -2371    -2520    -2289    -1873 
   -1686    -1814    -1908    -1887    -2008    -2207    -2255    -2168 
   -2031    -2045    -2416    -2801    -2694    -2370    -2344    -2477 
   -2560    -2671    -2671    -2533    -2547    -2683    -2686    -2628 
   -2691    -2802    -2835    -2903    -3007    -2886    -2547    -2268 
   -2142    -2150    -2188    -2093    -1915    -1803    -1803    -1856 
   -1788    -1625    -1636    -1750    -1714    -1769    -2154    -2508 
   -2539    -2397    -2239    -2143    -2031    -1759    -1683    -2235 
   -2964    -3091    -2589    -2045    -1958    -2205    -2344    -2488 
   -2787    -2803    -2484    -2181    -1852    -1572    -1647    -1979 
   -2239    -2219    -2056    -2077    -2250    -2439    -2625    -2504 
   -2079    -1973    -2361    -2803    -2971    -2805    -2524    -2384 
   -2367    -2369    -2241    -1919    -1740    -1945    -2239    -2223 
   -1966    -1948    -2315    -2713    -2868    -2779    -2686    -2813 
   -2891    -2643    -2282    -2097    -2255    -2592    -2598    -2305 
   -2182    -2151    -1941    -1807    -2022    -2371    -2562    -2569 
   -2434    -2134    -1741    -1588    -1919    -2357    -2498    -2581 
   -2766    -2848    -2928    -3249    -3728    -4122    -4307    -4309 
   -4166    -3939    -3758    -3410    -2687    -2224    -2435    -2608 
   -2493    -2632    -2767    -2280    -1412     -668     -145      336 
     891     1246     1090      630       60     -746    -1584    -2119 
   -2401    -2292    -1765    -1499    -1653    -1501     -930     -496 
    -348     -321     -450     -970    -1956    -3049    -3866    -4369 
   -4515    -4278    -3975    -3731    -3292    -2785    -2563    -2697 
   -3268    -4248    -5252    -6031    -6484    -6421    -5836    -4927 
   -3932    -2991    -1952     -531     1231     2675     2932     1787 
    -180    -2127    -3337    -3379    -2128       22     2033     2806 
    1988       70    -2138    -4105    -5493    -5945    -5591    -5024 
   -4542    -4324    -4471    -4523    -4108    -3476    -2941    -2663 
   -2532    -2178    -1594     -901       56     1192     2147     2681 
    2629     1976      811     -583    -1637    -2026    -1834    -1363 
   -1107    -1213    -1387    -1498    -1621    -2039    -3165    -4936 
   -7041    -9348   -11340   -12113   -11280    -9220    -6760    -4513 
   -2497     -720      486      864      465     -341    -1096    -1534 
   -1556    -1293    -1102    -1139    -1298    -1389    -1233    -1008 
    -957     -783     -211      402      530      -72    -1229    -2446 
   -3295    -3526    -2951    -1663     -194      918     1532     1617 
    1021     -105    -1304    -2251    -2843    -3153    -3353    -3549 
   -3832    -4260    -4880    -5768    -6588    -6724    -6270    -5908 
   -5864    -5946    -6003    -5713    -4811    -3450    -1792       91 
    1798     2798     2953     2523     1902     1351      830      163 
    -726    -1849    -3025    -3727    -3597    -2857    -2019    -1652 
   -2049    -2929    -3798    -4432    -4707    -4363    -3460    -2609 
   -2261    -2312    -2570    -3046    -3726    -4266    -4162    -3284 
   -1981     -735       22        5     -734    -1699    -2270    -2176 
   -1652    -1107     -824     -976    -1513    -2147    -2643    -2938 
   -3053    -3099    -3165    -3183    -3078    -2930    -2943    -3202 
   -3392    -3194    -2826    -2600    -2393    -1953    -1364    -1061 
   -1255    -1726    -2439    -3427    -4203    -4365    -4097    -3569 
   -2768    -1792     -789       32      371       93     -569    -1251 
   -1846    -2463    -2987    -3190    -3130    -2964    -2748    -2517 
   -2224    -1810    -1358    -1024    -1027    -1482    -2069    -2263 
   -1898    -1223     -540       -9      159     -387    -1698    -3339 
   -4838    -5898    -6257    -5780    -4683    -3449    -2377    -1340 
    -233      662     1061      985      535     -187    -1024    -1881 
   -2619    -2980    -2978    -2897    -2913    -2964    -3068    -3422 
   -3881    -3959    -3643    -3323    -3059    -2691    -2286    -2197 
   -2709    -3620    -4548    -5394    -6041    -6241    -5956    -5274 
   -4268    -3159    -2223    -1547    -1013     -471      101      537 
     599      243     -248     -514     -477     -268       58      422 
     565      257     -499    -1593    -2814    -3780    -4251    -4360 
   -4317    -4232    -4197    -4243    -4314    -4311    -4155    -3870 
   -3541    -3211    -2945    -2783    -2706    -2641    -2398    -1857 
   -1179     -487      344     1290     2045     2323     2006     1206 
     202     -823    -1695    -2250    -2600    -2863    -2987    -3095 
   -3348    -3677    -4055    -4461    -4742    -4882    -5036    -5282 
   -5532    -5539    -5196    -4750    -4390    -3937    -3198    -2265 
   -1329     -463      318     1004     1637     2157     2357     2143 
    1611      868       10     -877    -1726    -2419    -2933    -3396 
   -3801    -3987    -3996    -4048    -4168    -4309    -4629    -5244 
   -5956    -6520    -6836    -6843    -6544    -6050    -5449    -4671 
   -3570    -2208     -866      297     1251     1853     1998     1818 
    1518     1179      839      641      699      851      872      739 
     480      108     -261     -589     -967    -1425    -2060    -2970 
   -3924    -4603    -4926    -4868    -4460    -3955    -3615    -3550 
   -3735    -4001    -4226    -4448    -4671    -4828    -4877    -4742 
   -4401    -3969    -3530    -3037    -2498    -1931    -1251     -548 
    -125     -162     -608    -1306    -1998    -2430    -2571    -2602 
   -2571    -2320    -1790    -1140     -594     -236      -36      -17 
    -230     -673    -1296    -1987    -2614    -3115    -3480    -3754 
   -3874    -3624    -3057    -2486    -2023    -1667    -1517    -1561 
   -1660    -1782    -1984    -2282    -2662    -3071    -3335    -3307 
   -3096    -2924    -2849    -2801    -2758    -2760    -2782    -2710 
   -2550    -2500    -2659    -2813    -2740    -2444    -1992    -1479 
   -1113    -1004    -1108    -1344    -1576    -1721    -1921    -2297 
   -2720    -3038    -3252    -3376    -3399    -3292    -2995    -2524 
   -2074    -1809    -1745    -1903    -2245    -2593    -2870    -3157 
   -3445    -3640    -3738    -3717    -3438    -2791    -1879     -938 
    -205      159      170        6     -213     -427     -549     -622 
    -795    -1113    -1509    -1876    -2134    -2300    -2462    -2644 
   -2772    -2816    -2851    -2959    -3161    -3457    -3835    -4255 
   -4588    -4698    -4654    -4653    -4695    -4610    -4315    -3896 
   -3484    -3140    -2822    -2475    -2077    -1626    -1152     -718 
    -382     -163       -6       95       76      -16      -32       -1 
    -124     -452     -865    -1325    -1890    -2466    -2820    -2829 
   -2606    -2347    -2231    -2378    -2783    -3358    -3987    -4499 
   -4796    -4853    -4626    -4210    -3778    -3408    -3215    -3184 
   -2988    -2511    -1969    -1428     -849     -326       49      217 
     110     -156     -449     -788    -1139    -1337    -1374    -1416 
   -1521    -1652    -1869    -2169    -2420    -2567    -2624    -2592 
   -2575    -2712    -3007    -3391    -3759    -3923    -3697    -3142 
   -2542    -2119    -1919    -1899    -1988    -2166    -2439    -2667 
   -2686    -2551    -2393    -2235    -2069    -1860    -1614    -1475 
   -1537    -1691    -1846    -2033    -2290    -2659    -3163    -3709 
   -4151    -4359    -4233    -3815    -3338    -3007    -2797    -2633 
   -2639    -2863    -3040    -2978    -2805    -2600    -2258    -1788 
   -1350    -1085    -1023    -1070    -1132    -1208    -1271    -1269 
   -1236    -1259    -1405    -1703    -2088    -2421    -2566    -2481 
   -2251    -2054    -2050    -2247    -2562    -2945    -3353    -3750 
   -4079    -4221    -4132    -3920    -3681    -3441    -3223    -2987 
   -2691    -2367    -1964    -1404     -820     -422     -272     -353 
    -557     -731     -823     -814     -666     -484     -465     -706 
   -1173    -1741    -2218    -2440    -2420    -2297    -2162    -2058 
