Origin Time       2025/03/30 22:55:00
Lat.              41.993
Long.             142.725
Depth. (km)       55
Mag.              4.6
Station Code      HKD127
Station Lat.      42.8743
Station Long.     141.8204
Station Height(m) 61
Record Time       2025/03/30 22:56:35
Sampling Freq(Hz) 100Hz
Duration Time(s)  60
Dir.              U-D
Scale Factor      7845(gal)/8223790
Max. Acc. (gal)   0.695
Last Correction   2025/03/30 22:56:36
Memo.             
[...]
   -3836    -4047    -4243    -4197    -3989    -3916    -4028    -4068 
   -3893    -3669    -3632    -3800    -3985    -4054    -4024    -3925 
   -3771    -3692    -3809    -4036    -4183    -4217    -4233    -4218 
   -4044    -3758    -3612    -3704    -3863    -3987    -4105    -4152 
   -4060    -3943    -3942    -4016    -4041    -4040    -4093    -4120 
   -4009    -3865    -3827    -3871    -3904    -3896    -3888    -3920 
   -3975    -3982    -3935    -3923    -3979    -4010    -3955    -3901 
   -3943    -4044    -4066    -3913    -3682    -3605    -3802    -4140 
   -4341    -4263    -4031    -3820    -3680    -3680    -3888    -4163 
   -4234    -4031    -3786    -3747    -3879    -4012    -4075    -4078 
   -4017    -3935    -3908    -3936    -3966    -3994    -4040    -4093 
   -4128    -4070    -3892    -3774    -3886    -4079    -4094    -3940 
   -3823    -3815    -3821    -3807    -3844    -3931    -3954    -3902 
   -3925    -4047    -4102    -4043    -3973    -3937    -3915    -3881 
   -3863    -3909    -3950    -3920    -3910    -4002    -4095    -4078 
   -4005    -3946    -3866    -3767    -3726    -3774    -3923    -4121 
   -4256    -4266    -4136    -3900    -3716    -3721    -3896    -4145 
   -4295    -4217    -4037    -3931    -3855    -3739    -3694    -3836 
   -4039    -4086    -3950    -3811    -3846    -4010    -4101    -4021 
   -3846    -3715    -3723    -3861    -4025    -4121    -4098    -3993 
   -3917    -3937    -3994    -3983    -3923    -3954    -4089    -4122 
   -3956    -3762    -3727    -3825    -3904    -3902    -3904    -3956 
   -3986    -3981    -4010    -4043    -4032    -4033    -4058    -4041 
   -3985    -3954    -3990    -4050    -4016    -3890    -3858    -3958 
   -3989    -3881    -3811    -3883    -4020    -4106    -4109    -4056 
   -3991    -3932    -3893    -3874    -3873    -3900    -3959    -4029 
   -4097    -4126    -4010    -3796    -3738    -3932    -4129    -4114 
   -3978    -3892    -3829    -3715    -3669    -3821    -4035    -4095 
   -4018    -3986    -4066    -4094    -3942    -3753    -3735    -3890 
   -4082    -4187    -4167    -4055    -3925    -3846    -3820    -3852 
   -3964    -4110    -4185    -4106    -3913    -3782    -3825    -3967 
   -4086    -4118    -4016    -3827    -3716    -3785    -3916    -3963 
   -3944    -3971    -4086    -4164    -4023    -3736    -3591    -3662 
   -3821    -4016    -4183    -4198    -4052    -3879    -3836    -3935 
   -4020    -3991    -3928    -3894    -3886    -3951    -4090    -4139 
   -4010    -3839    -3754    -3759    -3850    -4005    -4162    -4243 
   -4195    -4082    -4002    -3935    -3812    -3719    -3773    -3917 
   -4024    -4059    -4040    -3994    -3916    -3778    -3678    -3798 
   -4108    -4338    -4286    -4013    -3781    -3759    -3844    -3905 
   -4013    -4179    -4176    -3894    -3611    -3635    -3896    -4085 
   -4083    -4045    -4081    -4056    -3878    -3738    -3836    -4074 
   -4176    -4071    -3948    -3939    -3889    -3716    -3692    -3989 
   -4298    -4255    -3940    -3699    -3689    -3794    -3915    -4077 
   -4212    -4148    -3886    -3653    -3639    -3812    -4001    -4102 
   -4144    -4175    -4155    -4059    -3960    -3915    -3917    -3962 
   -4013    -4024    -4012    -4012    -4031    -4048    -4028    -3955 
   -3871    -3844    -3885    -3919    -3896    -3886    -3955    -4018 
   -3971    -3847    -3774    -3794    -3852    -3917    -4005    -4079 
   -4098    -4077    -4024    -3927    -3831    -3812    -3874    -3964 
   -4027    -4017    -3933    -3844    -3813    -3842    -3927    -4072 
   -4229    -4274    -4122    -3879    -3726    -3711    -3788    -3927 
   -4086    -4183    -4164    -4039    -3855    -3757    -3865    -4018 
   -3997    -3904    -3921    -3973    -3933    -3892    -3921    -3923 
   -3871    -3921    -4074    -4144    -4083    -4021    -4017    -4002 
   -3913    -3796    -3777    -3912    -4078    -4098    -3967    -3878 
   -3912    -3951    -3939    -3924    -3921    -3919    -3936    -3989 
   -4040    -4024    -3947    -3882    -3863    -3908    -4027    -4147 
   -4164    -4082    -3973    -3896    -3877    -3915    -3952    -3942 
   -3939    -3973    -3944    -3852    -3855    -3978    -4082    -4077 
   -4002    -3947    -3908    -3819    -3731    -3793    -3989    -4116 
   -4062    -3923    -3871    -3956    -4036    -4001    -3960    -4009 
   -4016    -3898    -3808    -3858    -3964    -4010    -3978    -3915 
   -3869    -3878    -3958    -4072    -4122    -4051    -3931    -3877 
   -3915    -3963    -3933    -3851    -3812    -3859    -3973    -4109 
   -4206    -4172    -4001    -3812    -3701    -3699    -3802    -3978 
   -4158    -4228    -4099    -3886    -3786    -3789    -3775    -3782 
   -3892    -4063    -4160    -4099    -3986    -3982    -4050    -4018 
   -3900    -3873    -3955    -3977    -3904    -3867    -3905    -3924 
   -3897    -3915    -4001    -4021    -3931    -3912    -4066    -4185 
   -4066    -3828    -3747    -3893    -4085    -4114    -3955    -3763 
   -3709    -3827    -4050    -4255    -4272    -4047    -3758    -3655 
   -3828    -4116    -4255    -4179    -4024    -3888    -3767    -3704 
   -3770    -3909    -4001    -4028    -4043    -4054    -4079    -4125 
   -4101    -3990    -3896    -3871    -3896    -3970    -4067    -4087 
   -3970    -3793    -3699    -3766    -3952    -4114    -4160    -4114 
   -4031    -3955    -3902    -3855    -3811    -3763    -3717    -3763 
   -3933    -4062    -4048    -4018    -4056    -4054    -3944    -3851 
   -3888    -3997    -4067    -4085    -4066    -3977    -3801    -3651 
   -3681    -3902    -4148    -4203    -4059    -3947    -3973    -3991 
   -3966    -4013    -4087    -4043    -3888    -3793    -3865    -3981 
   -3983    -3943    -4002    -4081    -4001    -3800    -3685    -3770 
   -3963    -4097    -4128    -4094    -3986    -3827    -3769    -3888 
   -4051    -4139    -4170    -4163    -4089    -3964    -3838    -3727 
   -3647    -3684    -3881    -4124    -4216    -4090    -3881    -3769 
   -3808    -3896    -3940    -3956    -3987    -4006    -3982    -3919 
   -3858    -3858    -3923    -4024    -4114    -4098    -3937    -3767 
   -3758    -3936    -4166    -4248    -4143    -4006    -3933    -3877 
   -3798    -3762    -3854    -4037    -4152    -4104    -3987    -3905 
   -3859    -3871    -3956    -4017    -3987    -3925    -3908    -3963 
   -4033    -3989    -3838    -3769    -3878    -4017    -4016    -3947 
   -4018    -4190    -4175    -3925    -3766    -3867    -4016    -4045 
   -4002    -3923    -3817    -3744    -3757    -3869    -3955    -3902 
   -3874    -4043    -4217    -4178    -4039    -4004    -4040    -3996 
   -3883    -3879    -4013    -4085    -4005    -3969    -4079    -4093 
   -3879    -3684    -3701    -3819    -3874    -3859    -3875    -3983 
   -4090    -4094    -4050    -4014    -3927    -3770    -3689    -3815 
   -4062    -4206    -4120    -3919    -3838    -3900    -3931    -3900 
   -3896    -3908    -3940    -4037    -4124    -4105    -3985    -3839 
   -3834    -4055    -4279    -4237    -4016    -3840    -3759    -3755 
   -3820    -3924    -4050    -4158    -4159    -4087    -4051    -4018 
   -3929    -3855    -3827    -3796    -3746    -3692    -3717    -3915 
   -4159    -4279    -4299    -4222    -4012    -3823    -3790    -3829 
   -3898    -4017    -4050    -3908    -3780    -3863    -4085    -4197 
   -4079    -3856    -3738    -3793    -3935    -4036    -4031    -3990 
   -4028    -4070    -3946    -3727    -3655    -3804    -4032    -4172 
   -4158    -4066    -3985    -3894    -3823    -3875    -3989    -3987 
   -3859    -3807    -3933    -4056    -3994    -3881    -3929    -4051 
   -4035    -3915    -3885    -3966    -4009    -3952    -3898    -3940 
   -4009    -3994    -3924    -3905    -3979    -4050    -4013    -3929 
   -3890    -3865    -3831    -3854    -3905    -3925    -3977    -4072 
   -4078    -3955    -3859    -3890    -3969    -4005    -4009    -3985 
   -3906    -3842    -3919    -4081    -4129    -4060    -4013    -3991 
   -3970    -4001    -4006    -3878    -3734    -3759    -3932    -4064 
   -4064    -4013    -3989    -3962    -3928    -3927    -3923    -3894 
   -3902    -3932    -3931    -3954    -3996    -3950    -3867    -3878 
   -3931    -3954    -3983    -4017    -4009    -3985    -4005    -4064 
   -4074    -3985    -3875    -3821    -3819    -3874    -3952    -3963 
   -3923    -3924    -3924    -3846    -3828    -3996    -4171    -4133 
   -3964    -3874    -3878    -3893    -3940    -4033    -4117    -4153 
   -4126    -4037    -3993    -4078    -4131    -3939    -3597    -3443 
   -3653    -4005    -4125    -3997    -3902    -3942    -4002    -4018 
   -3975    -3883    -3823    -3856    -4001    -4189    -4191    -3908 
   -3635    -3665    -3894    -4085    -4174    -4226    -4259    -4201 
   -4017    -3824    -3743    -3754    -3798    -3890    -4039    -4191 
   -4237    -4095    -3867    -3758    -3761    -3742    -3777    -3998 
   -4295    -4422    -4244    -3886    -3654    -3670    -3824    -4018 
   -4174    -4186    -4059    -3889    -3771    -3809    -4002    -4144 
   -4070    -3893    -3782    -3789    -3894    -3975    -3920    -3823 
   -3815    -3886    -3987    -4052    -4051    -4025    -3990    -3936 
   -3940    -4028    -4072    -4001    -3928    -3942    -3971    -3947 
   -3898    -3889    -3902    -3901    -3946    -4095    -4225    -4168 
   -3950    -3721    -3628    -3721    -3919    -4059    -4044    -3906 
   -3769    -3747    -3858    -3991    -4013    -3956    -3967    -4079 
   -4135    -4023    -3871    -3871    -3969    -3952    -3798    -3726 
   -3873    -4095    -4156    -4044    -3929    -3900    -3927    -3978 
   -4045    -4058    -3954    -3870    -3989    -4190    -4166    -3883 
   -3604    -3557    -3732    -3942    -4051    -4124    -4209    -4212 
   -4082    -3906    -3786    -3774    -3869    -4028    -4193    -4303 
   -4274    -4070    -3798    -3599    -3561    -3761    -4095    -4287 
   -4214    -3986    -3740    -3609    -3666    -3813    -3962    -4095 
   -4125    -3974    -3775    -3723    -3842    -4035    -4172    -4170 
   -4097    -4033    -3983    -3964    -3928    -3775    -3645    -3771 
   -4093    -4321    -4284    -4062    -3862    -3802    -3812    -3829 
   -3927    -4089    -4129    -3998    -3890    -3948    -4068    -4055 
   -3908    -3824    -3840    -3824    -3808    -3912    -4098    -4228 
   -4207    -4025    -3780    -3605    -3599    -3815    -4133    -4271 
   -4135    -3905    -3761    -3746    -3813    -3873    -3929    -4028 
   -4101    -4117    -4212    -4367    -4359    -4137    -3866    -3643 
   -3527    -3619    -3927    -4266    -4386    -4198    -3890    -3728 
   -3808    -4009    -4128    -4041    -3820    -3677    -3721    -3877 
   -4056    -4183    -4129    -3856    -3557    -3524    -3801    -4113 
   -4259    -4293    -4270    -4137    -3901    -3693    -3628    -3703 
   -3829    -3936    -3977    -3900    -3758    -3774    -4036    -4286 
   -4267    -4043    -3828    -3763    -3865    -4035    -4159    -4179 
   -4064    -3885    -3813    -3902    -4055    -4187    -4222    -4094 
   -3812    -3497    -3354    -3539    -3956    -4284    -4310    -4137 
   -3959    -3851    -3802    -3775    -3755    -3790    -3909    -4045 
   -4148    -4189    -4116    -3974    -3889    -3917    -4047    -4199 
   -4267    -4243    -4155    -3960    -3713    -3612    -3777    -4101 
   -4318    -4249    -3956    -3646    -3481    -3519    -3750    -4051 
   -4193    -4086    -3894    -3802    -3812    -3843    -3894    -4002 
   -4085    -4024    -3896    -3905    -4094    -4249    -4168    -3940 
   -3848    -3975    -4091    -4004    -3824    -3805    -3982    -4156 
   -4147    -3963    -3755    -3676    -3758    -3901    -3982    -3991 
   -4006    -4012    -3958    -3901    -3912    -3969    -4056    -4156 
   -4201    -4151    -4060    -3971    -3873    -3758    -3697    -3750 
   -3874    -3989    -4050    -4044    -3982    -3932    -3974    -4082 
   -4163    -4202    -4171    -3969    -3646    -3472    -3609    -3897 
   -4087    -4112    -4027    -3916    -3866    -3885    -3863    -3719 
   -3592    -3724    -4112    -4479    -4572    -4353    -3974    -3649 
   -3541    -3682    -3959    -4187    -4247    -4108    -3850    -3653 
   -3689    -3966    -4263    -4284    -4025    -3793    -3832    -4066 
   -4222    -4153    -3987    -3932    -4000    -4056    -4017    -3867 
   -3657    -3542    -3647    -3894    -4106    -4207    -4201    -4099 
   -3937    -3763    -3650    -3685    -3870    -4113    -4255    -4191 
   -4025    -3927    -3900    -3874    -3855    -3905    -4054    -4194 
   -4159    -3929    -3689    -3643    -3823    -4058    -4164    -4124 
   -4012    -3892    -3835    -3861    -3927    -4029    -4136    -4125 
   -3981    -3856    -3840    -3861    -3840    -3807    -3840    -3979 
   -4147    -4209    -4097    -3877    -3705    -3716    -3879    -4035 
   -4120    -4174    -4160    -4051    -3916    -3839    -3851    -3915 
   -3962    -4028    -4167    -4259    -4121    -3839    -3665    -3649 
   -3676    -3778    -4024    -4271    -4286    -4059    -3809    -3678 
   -3622    -3634    -3796    -4043    -4143    -4008    -3840    -3842 
   -3952    -3964    -3865    -3871    -4083    -4305    -4349    -4274 
   -4164    -3964    -3694    -3543    -3630    -3874    -4105    -4168 
   -3994    -3662    -3424    -3528    -3952    -4426    -4683    -4639 
   -4340    -3879    -3484    -3407    -3635    -3947    -4175    -4248 
   -4171    -4012    -3827    -3674    -3628    -3684    -3788    -3912 
   -4023    -4060    -4039    -4021    -4023    -3994    -3939    -3931 
   -3993    -4078    -4159    -4263    -4374    -4378    -4159    -3797 
   -3520    -3460    -3623    -3927    -4166    -4147    -3885    -3586 
   -3493    -3693    -4047    -4310    -4333    -4144    -3901    -3759 
   -3766    -3878    -4017    -4137    -4198    -4149    -3997    -3847 
   -3793    -3831    -3921    -4056    -4189    -4197    -4004    -3719 
   -3558    -3622    -3801    -3921    -3929    -3908    -3936    -3981 
   -3944    -3819    -3721    -3774    -3993    -4271    -4422    -4330 
   -4112    -3982    -3973    -3939    -3852    -3828    -3916    -4060 
   -4158    -4104    -3912    -3731    -3709    -3886    -4129    -4201 
   -4035    -3805    -3727    -3875    -4125    -4239    -4104    -3823 
   -3620    -3643    -3805    -3943    -4010    -4024    -3969    -3855 
   -3790    -3901    -4186    -4471    -4565    -4403    -4036    -3636 
   -3450    -3576    -3846    -4025    -4067    -4054    -4018    -3950 
   -3882    -3902    -4004    -4043    -3977    -3954    -4052    -4143 
   -4099    -3967    -3839    -3739    -3678    -3715    -3866    -4040 
   -4087    -3948    -3757    -3715    -3877    -4117    -4253    -4214 
   -4079    -3936    -3813    -3743    -3750    -3800    -3862    -3974 
   -4118    -4145    -3982    -3766    -3704    -3885    -4179    -4344 
   -4287    -4117    -3966    -3869    -3797    -3758    -3817    -3952 
   -4055    -4078    -4068    -4047    -3986    -3906    -3871    -3859 
   -3840    -3862    -3933    -3994    -3982    -3879    -3724    -3593 
   -3588    -3784    -4102    -4334    -4363    -4245    -4074    -3897 
   -3785    -3781    -3848    -3928    -3998    -4036    -4013    -3944 
   -3882    -3881    -3948    -3983    -3898    -3782    -3780    -3897 
   -4082    -4279    -4352    -4176    -3834    -3626    -3766    -4108 
   -4264    -4101    -3859    -3746    -3707    -3690    -3746    -3840 
   -3905    -3954    -4016    -4062    -4050    -3996    -3987    -4083 
   -4221    -4278    -4216    -4070    -3893    -3767    -3740    -3794 
   -3951    -4202    -4382    -4299    -3946    -3514    -3288    -3430 
   -3801    -4108    -4198    -4114    -3963    -3838    -3804    -3904 
   -4089    -4201    -4168    -4117    -4139    -4140    -4031    -3874 
   -3794    -3839    -3933    -3944    -3861    -3798    -3797    -3807 
   -3831    -3897    -3936    -3906    -3923    -4086    -4291    -4342 
   -4195    -4001    -3892    -3861    -3913    -4048    -4125    -4029 
   -3878    -3846    -3928    -3970    -3921    -3913    -4004    -4058 
   -3996    -3906    -3882    -3916    -3946    -3927    -3873    -3851 
   -3897    -3933    -3904    -3871    -3900    -3975    -4068    -4149 
   -4135    -3943    -3655    -3500    -3608    -3883    -4170    -4374 
   -4429    -4284    -4008    -3815    -3817    -3890    -3897    -3905 
   -4024    -4187    -4214    -4047    -3808    -3665    -3689    -3808 
   -3910    -3970    -4017    -4043    -4012    -3915    -3801    -3748 
   -3754    -3778    -3869    -4067    -4301    -4440    -4391    -4164 
   -3904    -3735    -3704    -3850    -4118    -4264    -4131    -3865 
   -3685    -3645    -3708    -3856    -4020    -4083    -3997    -3858 
   -3793    -3800    -3790    -3770    -3835    -4009    -4183    -4248 
   -4195    -4101    -4021    -3958    -3927    -3974    -4078    -4168 
   -4191    -4118    -3969    -3797    -3672    -3673    -3809    -3931 
   -3948    -3952    -4001    -4017    -3978    -3956    -3954    -3904 
   -3836    -3861    -3981    -4074    -4070    -4021    -3979    -3943 
   -3931    -3946    -3928    -3839    -3751    -3738    -3794    -3897 
   -4023    -4087    -4033    -3955    -3986    -4095    -4149    -4110 
   -4032    -3954    -3881    -3846    -3900    -4029    -4135    -4140 
   -4064    -3962    -3858    -3744    -3665    -3740    -4013    -4298 
   -4353    -4191    -4009    -3898    -3811    -3748    -3763    -3839 
   -3916    -3960    -3973    -3948    -3905    -3885    -3889    -3867 
   -3829    -3856    -3983    -4155    -4274    -4251    -4090    -3893 
   -3784    -3820    -3950    -4037    -3989    -3839    -3715    -3744 
   -3908    -4050    -4091    -4106    -4140    -4137    -4058    -3954 
   -3890    -3865    -3838    -3829    -3874    -3944    -3947    -3855 
   -3770    -3809    -3952    -4090    -4144    -4094    -3993    -3909 
   -3856    -3847    -3905    -3987    -4032    -4054    -4081    -4095 
   -4097    -4097    -4077    -4037    -3990    -3921    -3858    -3840 
   -3844    -3856    -3882    -3886    -3848    -3816    -3823    -3842 
   -3850    -3834    -3790    -3771    -3836    -3947    -4017    -4024 
   -4002    -3993    -3982    -3929    -3890    -3969    -4108    -4163 
   -4093    -3944    -3790    -3755    -3897    -4106    -4226    -4191 
   -4045    -3897    -3829    -3838    -3883    -3950    -4005    -4027 
   -4027    -4028    -4052    -4079    -4039    -3901    -3766    -3751 
   -3865    -4027    -4144    -4135    -3971    -3739    -3591    -3616 
   -3794    -4064    -4305    -4355    -4193    -3944    -3736    -3645 
   -3708    -3881    -4041    -4095    -4059    -4008    -3971    -3936 
   -3933    -3981    -4016    -3986    -3925    -3879    -3856    -3883 
   -3969    -4025    -3971    -3859    -3821    -3915    -4045    -4086 
   -4054    -4041    -4033    -3973    -3893    -3843    -3854    -3952 
   -4113    -4217    -4141    -3908    -3697    -3678    -3817    -3916 
   -3890    -3862    -3939    -4077    -4170    -4159    -4043    -3867 
   -3758    -3823    -4008    -4143    -4128    -4024    -3936    -3892 
