Origin Time       2025/03/30 22:55:00
Lat.              41.993
Long.             142.725
Depth. (km)       55
Mag.              4.6
Station Code      HKD100
Station Lat.      42.2864
Station Long.     143.3120
Station Height(m) 36
Record Time       2025/03/30 22:56:20
Sampling Freq(Hz) 100Hz
Duration Time(s)  60
Dir.              E-W
Scale Factor      7845(gal)/8223790
Max. Acc. (gal)   7.448
Last Correction   2025/03/30 22:56:20
Memo.             
[...]
    3960     3958     3955     3955     3958     3959     3955     3951 
    3954     3955     3955     3958     3958     3956     3959     3958 
    3958     3956     3952     3952     3956     3955     3955     3955 
    3956     3959     3958     3955     3958     3959     3958     3958 
    3959     3959     3958     3954     3954     3958     3955     3952 
    3956     3958     3955     3955     3956     3959     3960     3958 
    3955     3958     3958     3955     3954     3958     3958     3955 
    3955     3956     3959     3958     3955     3955     3958     3954 
    3955     3959     3956     3954     3958     3959     3956     3955 
    3954     3958     3962     3962     3958     3955     3955     3958 
    3958     3956     3958     3958     3955     3956     3962     3962 
    3955     3952     3956     3958     3955     3955     3958     3956 
    3955     3956     3960     3959     3956     3956     3960     3960 
    3954     3951     3956     3962     3959     3954     3955     3955 
    3956     3956     3958     3959     3956     3955     3958     3959 
    3958     3955     3954     3959     3960     3955     3954     3956 
    3958     3958     3958     3954     3956     3958     3956     3956 
    3956     3956     3958     3959     3958     3956     3954     3954 
    3958     3959     3952     3952     3959     3960     3956     3958 
    3959     3956     3954     3956     3959     3958     3956     3956 
    3959     3955     3951     3954     3958     3956     3954     3954 
    3955     3956     3956     3958     3959     3958     3955     3955 
    3956     3955     3955     3955     3956     3956     3954     3952 
    3955     3958     3955     3952     3954     3959     3958     3954 
    3955     3958     3958     3956     3956     3955     3954     3954 
    3952     3955     3960     3960     3954     3954     3955     3954 
    3954     3954     3951     3951     3952     3955     3958     3954 
    3951     3955     3958     3958     3956     3955     3954     3952 
    3954     3958     3958     3955     3955     3955     3958     3960 
    3958     3955     3955     3958     3959     3955     3952     3955 
    3956     3956     3958     3956     3952     3954     3958     3958 
    3955     3954     3955     3958     3959     3960     3962     3969 
    3983     3998     4013     4027     4040     4059     4070     4058 
    4033     4020     4016     3997     3940     3869     3850     3902 
    3946     3915     3863     3889     3987     4050     4012     3947 
    3923     3888     3784     3704     3746     3798     3728     3622 
    3655     3879     4164     4264     4148     4071     4145     4167 
    4085     4059     4004     3782     3626     3766     4058     4228 
    4145     3940     3929     4139     4284     4340     4365     4121 
    3667     3539     3773     3865     3789     3819     3786     3630 
    3744     4168     4353     3989     3537     3640     4114     4195 
    3808     3643     4010     4391     4237     3712     3465     3771 
    4152     4110     3847     3854     4195     4455     4232     3712 
    3586     3962     3956     3268     2947     3623     4480     4710 
    4529     4557     4895     4843     3974     3144     3241     3713 
    3585     3136     3256     4021     4900     5216     4546     3586 
    3389     3812     4050     3862     3511     3387     3825     4537 
    4715     4239     3855     3889     3963     3871     3643     3338 
    3249     3558     4051     4626     5252     5408     4704     3761 
    3339     3249     2964     2627     2805     3519     4195     4549 
    4688     4719     4731     4617     4190     3642     3323     3275 
    3356     3581     3996     4463     4800     4827     4514     4162 
    3942     3623     3256     3296     3784     4186     4135     3886 
    3823     3855     3727     3406     3241     3735     4623     5100 
    5022     4648     4135     3742     3493     3186     3056     3410 
    3819     3847     3912     4325     4576     4374     4117     4106 
    4176     4118     3975     3908     3896     3732     3454     3415 
    3712     3950     3834     3639     3848     4413     4774     4662 
    4405     4309     4206     3751     3180     3250     3890     4008 
    3439     3322     4024     4621     4433     3809     3543     3881 
    4234     4135     3905     3910     3894     3685     3607     3847 
    4199     4411     4398     4243     4168     4298     4252     3707 
    3291     3708     4321     4180     3711     3793     4236     4330 
    4067     3842     3662     3447     3358     3512     3790     3946 
    3947     4097     4615     5151     5082     4401     3677     3145 
    2709     2643     3235     3982     4240     4263     4561     4934 
    4935     4542     4035     3611     3254     2938     2870     3342 
    4058     4329     4224     4310     4590     4635     4205     3495 
    3117     3488     4226     4488     4097     3808     4077     4432 
    4271     3754     3599     3862     3870     3609     3632     3838 
    3877     3875     4050     4390     4664     4703     4644     4425 
    3762     3040     2983     3333     3379     3280     3600     4303 
    4818     4766     4415     4229     4212     4018     3636     3468 
    3559     3670     3855     4028     3909     3778     4113     4608 
    4542     3933     3447     3481     3824     3944     3734     3623 
    3855     4241     4468     4457     4317     4062     3759     3635 
    3840     4275     4596     4388     3655     3159     3439     4004 
    4194     3889     3426     3522     4341     4966     4750     4163 
    3782     3464     3107     3291     4059     4406     3919     3349 
    3369     3973     4553     4482     4054     3943     3960     3717 
    3730     4349     4743     4345     3877     4086     4622     4467 
    3438     2690     2922     3342     3294     3350     4108     5107 
    5454     5013     4545     4500     4444     4027     3550     3360 
    3326     3133     2902     3009     3454     4044     4502     4475 
    4139     3991     4159     4568     4843     4372     3570     3605 
    4230     4035     2938     2313     2871     3861     4375     4530 
    4799     5000     4712     4244     4163     4199     3920     3684 
    3742     3636     3127     2783     3180     4070     4735     4850 
    4689     4444     3856     3192     3214     3667     3890     4074 
    4345     4367     4162     4060     4212     4437     4371     3879 
    3403     3403     3680     3998     4352     4348     3900     3750 
    4074     4110     3682     3365     3222     3084     3360     4151 
    4753     4698     4284     4132     4384     4414     3832     3291 
    3337     3481     3443     3780     4417     4446     3834     3570 
    4113     4814     4959     4716     4515     4186     3593     3245 
    3530     3986     3817     3011     2528     3019     3981     4621 
    4752     4607     4507     4656     4919     4834     4155     3327 
    2859     2793     3110     3596     3789     3773     4090     4594 
    4619     4263     4078     4008     3819     3658     3763     4033 
    3908     3249     3006     3711     4414     4440     4546     5212 
    5397     4336     3079     2924     3520     3694     3410     3696 
    4526     4648     3940     3568     3916     4214     3928     3592 
    3948     4563     4398     3588     3195     3504     3935     3963 
    3785     4106     4833     5094     4780     4357     3882     3418 
    3368     3676     3844     3836     3844     3744     3465     3280 
    3545     4062     4172     3882     3944     4526     4816     4405 
    3994     4032     4066     3901     3700     3420     3272     3447 
    3627     3816     4125     4090     3819     3921     4162     4241 
    4483     4783     4644     4247     4148     4158     3832     3464 
    3312     3215     3337     3655     3792     4009     4583     4838 
    4321     3620     3369     3616     4095     4384     4212     3844 
    3680     3774     4139     4699     4893     4271     3360     3118 
    3669     4270     4401     4067     3586     3584     4063     3987 
    3160     2775     3211     3736     4167     4521     4487     4328 
    4437     4571     4537     4356     3962     3491     3171     3113 
    3481     4093     4217     3699     3539     4309     5080     4941 
    4306     4021     4062     3780     3198     3026     3396     3697 
    3682     3744     4106     4553     4811     4769     4490     4187 
    4041     3751     3068     2643     3109     4017     4531     4471 
    4368     4560     4606     4133     3634     3685     3931     3829 
    3613     3512     3478     3838     4554     4777     4278     3855 
    3820     3680     3410     3458     3840     4197     4118     3489 
    2984     3365     4328     5038     5151     4692     3982     3711 
    4087     4460     4243     3549     2971     2934     3393     4148 
    4729     4546     3894     3624     3842     4094     4122     3894 
    3670     3682     3684     3613     3959     4693     5007     4611 
    4105     3701     3065     2523     2733     3532     4298     4784 
    5154     5400     5069     4101     3287     3203     3393     3122 
    2546     2663     3800     4882     5053     4793     4769     4946 
    5016     4688     3910     3267     3311     3508     3294     3298 
    3898     4372     4365     4288     4367     4411     4159     3568 
    3051     3186     3807     4137     4054     4098     4329     4284 
    3909     3616     3624     3839     3859     3412     3087     3473 
    3900     3551     2991     3059     3456     3705     4055     4673 
    5217     5381     5290     5314     5406     5197     4824     4455 
    3726     2725     2178     2323     2791     3242     3592     3927 
    4288     4502     4409     4209     4168     4178     4162     4341 
    4544     4321     3761     3203     2901     3176     3919     4293 
    3954     3685     3977     4261     4114     3869     3896     4136 
    4241     4033     3828     3881     4144     4599     5020     5022 
    4581     3942     3434     3298     3241     2837     2404     2608 
    3387     4175     4703     4895     4714     4357     4133     4136 
    4224     4297     4302     4174     4051     4056     3969     3669 
    3446     3516     3731     3865     3811     3562     3304     3457 
    4270     5247     5570     5154     4633     4344     4153     4028 
    3960     3739     3379     3237     3473     3862     4095     4095 
    4012     3970     3901     3757     3586     3268     2781     2490 
    2317     1830     1449     1807     2443     2700     2760     2986 
    3392     3867     4267     4565     4839     4909     4607     4421 
    4938     5902     6794     7643     8433     8718     8272     7391 
    6469     5535     4351     2945     1678      799      369      541 
    1389     2558     3526     4060     4199     4004     3549     2991 
    2409     1867     1490     1344     1520     2128     2983     3700 
    4298     5306     6870     8213     8591     8124     7172     5826 
    4364     3295     2889     3111     3757     4558     5148     5082 
    4313     3334     2484     1487      137    -1019    -1352     -882 
     237     2081     4384     6376     7611     8536     9528     9946 
    9136     7466     5682     4163     3060     2242     1251      214 
     102     1289     3059     4526     5116     4941     4781     4958 
    5086     5017     4815     4214     3117     2101     1756     1818 
    1621     1244     1449     2450     3639     4615     5487     6100 
    6065     5587     5221     5174     5296     5301     5140     5051 
    4995     4750     4429     4267     4203     3811     2744     1370 
     584      816     1561     2145     2569     3218     4148     5038 
    5661     6185     6624     6659     6513     6548     6026     4236 
    2166     1271     1584     2093     1944     1209     1143     2689 
    5023     6724     7298     6816     5633     4743     4865     5269 
    4830     3592     2413     1987     2394     3011     3219     3298 
    3797     4414     4731     5023     5117     4287     2922     2515 
    3755     5514     5913     4429     2598     2147     3053     4133 
    4572     4218     3462     3007     3067     3314     3622     3983 
    4230     4457     4903     5294     5051     4151     3194     2724 
    2859     3285     3541     3566     3840     4704     5787     6326 
    5929     5027     4476     4347     3735     2413     1502     1887 
    3167     4396     4961     4796     4163     3449     3137     3345 
    3608     3599     3543     3771     4298     4795     4862     4390 
    3566     2627     1895     1809     2428     3230     3778     4268 
    5076     6142     7109     7634     7465     6674     5684     4712 
    3430     1502     -604    -1838    -1557      -14     1954     3454 
    4198     4862     6215     7970     9045     8789     7655     6606 
    5917     5069     3793     2385     1107      137      -59      834 
    2276     3265     3553     3678     3950     4313     4799     5323 
    5544     5341     5039     5020     5236     5289     5057     4853 
    4695     4176     3264     2326     1475      666      167      359 
    1185     2158     2916     3748     5259     7346     9254    10554 
   11159    10667     8698     5760     2920      648    -1206    -2791 
   -3852    -3689    -1975      637     3289     5559     7233     8175 
    8432     8120     7248     5859     4368     3312     2670     2034 
    1402     1343     2292     3881     5286     5950     5786     5081 
    4298     3931     4228     4768     4791     4179     3588     3505 
    3709     3863     3927     3867     3666     3484     3485     3707 
    3946     3858     3422     3017     2899     3045     3322     3564 
    3726     3844     3939     4036     4025     3889     3946     4388 
    4996     5466     5757     6054     6349     6327     5767     4779 
    3632     2525     1671     1360     1543     1730     1663     1701 
    2280     3303     4271     4784     4795     4608     4650     5058 
    5552     5661     5256     4872     5015     5487     5867     5946 
    5509     4357     2689     1108       18     -579     -560      267 
    1641     3223     5100     7248     9082     9917     9498     8029 
    6021     3908     1854      140     -893    -1221     -834      486 
    2737     5290     7276     8235     8168     7470     6691     5991 
    5131     3982     2608     1206      230       35      425     1039 
    1854     3026     4553     6160     7404     7923     7701     7032 
    6129     4934     3468     2097     1124      575      607     1378 
    2543     3470     3913     4110     4295     4371     4117     3632 
    3445     4037     5296     6600     7327     7200     6411     5433 
    4654     4180     3913     3696     3353     2795     2068     1227 
     481      445     1549     3307     4845     5819     6355     6637 
    6833     6906     6536     5524     3955     2077      395     -475 
    -334      480     1678     3342     5425     7360     8401     8118 
    6590     4384     2351     1158      842      989     1296     1794 
    2698     4145     5921     7450     8131     7639     6208     4573 
    3304     2474     2014     1900     2122     2729     3788     5121 
    6130     6273     5725     5182     5077     5208     5047     4290 
    3159     2114     1371      899      646      562      712     1479 
    3111     5143     6781     7738     8214     8395     8245     7561 
    6205     4375     2489      935      -28     -351     -132      591 
    1737     3042     4299     5381     5971     5813     5170     4591 
    4391     4519     4795     5143     5475     5566     5233     4599 
    3950     3345     2727     2234     2004     2089     2531     3148 
    3666     3967     3967     3674     3338     3173     3227     3562 
    4162     4822     5350     5638     5634     5374     4949     4398 
    3640     2705     1883     1570     1979     2975     4195     5324 
    6161     6646     6867     6806     6285     5250     3877     2539 
    1580     1011      661      494      608     1205     2470     4263 
    6012     7053     7200     6899     6552     6054     5182     3998 
    2766     1794     1331     1491     2188     3102     3959     4823 
    5891     7034     7701     7312     5845     3998     2647     2050 
    1810     1559     1317     1305     1809     3037     4770     6251 
    6710     6026     4716     3411     2469     1989     1961     2292 
    2863     3663     4700     5849     6786     7117     6766     6106 
    5427     4567     3384     2245     1637     1629     1915     2286 
    2824     3599     4388     4912     5250     5643     5961     5802 
    4982     3701     2358     1308      734      719     1309     2400 
    3763     5304     6886     8027     8244     7545     6361     5081 
    3800     2565     1595     1169     1399     2115     3006     3751 
    4097     4077     3867     3507     3096     2809     2620     2451 
    2454     2926     3954     5242     6288     6774     6797     6485 
    5728     4676     3720     2844     1919     1333     1563     2470 
    3553     4602     5645     6582     7161     7169     6585     5563 
    4266     2884     1653      588     -405    -1031     -766      467 
    2223     4002     5549     6768     7585     7940     7825     7300 
    6450     5404     4387     3518     2710     1976     1567     1634 
    2054     2673     3492     4448     5208     5452     5320     5244 
    5363     5385     5009     4293     3449     2546     1706     1198 
    1215     1738     2574     3488     4256     4749     5030     5224 
    5460     5794     6029     5857     5292     4747     4515     4388 
    4056     3527     3056     2894     3014     3164     3211     3129 
    2903     2714     2871     3418     4031     4384     4428     4337 
    4340     4507     4683     4693     4564     4417     4290     4159 
    4031     3928     3798     3520     3060     2628     2585     2982 
    3478     3870     4270     4815     5440     5907     6066     5908 
    5386     4452     3238     2126     1480     1258     1250     1467 
    1954     2658     3547     4523     5368     5977     6358     6439 
    6222     5823     5225     4351     3372     2655     2412     2569 
    2934     3392     3881     4275     4457     4413     4155     3716 
    3231     2932     2982     3316     3774     4332     4927     5270 
    5135     4621     4005     3514     3248     3184     3199     3291 
    3716     4558     5444     5981     6081     5836     5408     4851 
    4063     3015     1912     1058      614      596      978     1582 
    2211     2910     3804     4877     6029     7102     7809     7888 
    7366     6473     5348     4152     3080     2203     1661     1703 
    2230     2822     3264     3612     3971     4411     4909     5232 
    5124     4641     4063     3589     3304     3245     3330     3449 
    3603     3753     3831     3942     4152     4248     4153     4168 
    4398     4498     4266     3875     3520     3281     3223     3357 
    3597     3859     4116     4338     4519     4650     4635     4438 
