Origin Time       2025/03/30 22:55:00
Lat.              41.993
Long.             142.725
Depth. (km)       55
Mag.              4.6
Station Code      HKD131
Station Lat.      42.4206
Station Long.     141.0809
Station Height(m) 13
Record Time       2025/03/30 22:56:38
Sampling Freq(Hz) 100Hz
Duration Time(s)  60
Dir.              N-S
Scale Factor      7845(gal)/8223790
Max. Acc. (gal)   1.853
Last Correction   2025/03/30 22:56:38
Memo.             
[...]
  -19707   -19904   -20150   -20135   -19980   -19992   -20142   -20213 
  -20156   -20031   -19851   -19661   -19514   -19475   -19696   -20156 
  -20510   -20513   -20267   -20002   -19866   -19845   -19796   -19700 
  -19714   -19873   -20062   -20210   -20285   -20221   -20008   -19785 
  -19742   -19862   -19994   -20097   -20152   -20058   -19823   -19670 
  -19769   -20015   -20202   -20214   -20088   -19973   -19908   -19857 
  -19899   -19993   -19939   -19808   -19809   -19858   -19824   -19855 
  -20047   -20268   -20387   -20348   -20152   -19894   -19719   -19724 
  -19851   -19936   -19943   -19965   -20007   -20039   -20093   -20090 
  -19921   -19720   -19688   -19815   -20013   -20170   -20133   -19980 
  -19982   -20160   -20285   -20254   -20106   -19885   -19678   -19592 
  -19638   -19770   -19947   -20088   -20090   -19973   -19849   -19807 
  -19886   -20027   -20100   -20096   -20105   -20146   -20187   -20152 
  -19962   -19739   -19691   -19776   -19809   -19780   -19804   -19894 
  -20015   -20143   -20214   -20229   -20237   -20164   -19975   -19849 
  -19907   -20025   -20039   -19940   -19811   -19701   -19685   -19823 
  -20020   -20159   -20233   -20197   -20032   -19870   -19834   -19911 
  -19989   -20005   -20019   -20039   -20005   -19905   -19782   -19750 
  -19867   -20023   -20113   -20125   -20039   -19889   -19834   -19988 
  -20171   -20109   -19880   -19723   -19727   -19905   -20167   -20282 
  -20190   -20044   -19927   -19827   -19773   -19791   -19905   -20097 
  -20177   -20056   -19959   -20016   -20063   -20000   -19900   -19846 
  -19874   -19970   -20059   -20071   -19994   -19866   -19815   -19912 
  -20009   -19993   -19977   -20039   -20096   -20075   -20012   -19961 
  -19947   -20001   -20096   -20113   -19998   -19832   -19747   -19808 
  -19919   -19980   -20024   -20019   -19905   -19822   -19901   -20035 
  -20070   -20007   -19924   -19892   -19934   -20025   -20129   -20156 
  -20035   -19866   -19788   -19768   -19719   -19710   -19863   -20088 
  -20229   -20297   -20314   -20252   -20128   -19985   -19867   -19826 
  -19847   -19834   -19769   -19768   -19885   -20046   -20116   -19998 
  -19792   -19720   -19819   -19966   -20108   -20187   -20129   -20032 
  -20050   -20125   -20102   -19961   -19843   -19869   -20005   -20116 
  -20067   -19861   -19705   -19791   -20013   -20124   -20075   -19961 
  -19820   -19719   -19773   -19969   -20164   -20278   -20310   -20264 
  -20116   -19866   -19712   -19827   -19967   -19894   -19749   -19691 
  -19815   -20131   -20351   -20224   -19921   -19774   -19872   -20058 
  -20132   -20017   -19796   -19658   -19695   -19873   -20139   -20324 
  -20260   -20074   -19977   -19946   -19907   -19897   -19866   -19739 
  -19631   -19673   -19874   -20128   -20224   -20143   -20124   -20245 
  -20277   -20051   -19803   -19828   -19994   -20015   -19924   -19935 
  -20083   -20166   -20067   -19905   -19757   -19641   -19669   -19855 
  -20065   -20194   -20221   -20140   -20005   -19948   -19985   -19958 
  -19839   -19780   -19854   -19955   -19963   -19934   -20004   -20152 
  -20231   -20202   -20106   -19953   -19800   -19753   -19788   -19820 
  -19830   -19855   -19928   -20002   -20025   -20038   -20109   -20177 
  -20132   -20047   -20011   -19942   -19804   -19757   -19908   -20093 
  -20054   -19811   -19606   -19618   -19835   -20090   -20223   -20224 
  -20150   -19992   -19826   -19855   -20047   -20147   -20116   -20047 
  -19954   -19930   -20031   -20132   -20100   -19899   -19645   -19592 
  -19796   -20036   -20155   -20160   -20106   -20043   -19994   -19980 
  -20013   -20043   -20029   -20019   -20034   -19986   -19888   -19884 
  -19959   -19935   -19770   -19615   -19653   -19886   -20143   -20318 
  -20395   -20259   -19934   -19730   -19774   -19835   -19809   -19849 
  -20002   -20171   -20268   -20213   -19978   -19745   -19747   -19946 
  -20116   -20136   -20035   -19967   -20027   -20062   -19975   -19894 
  -19822   -19662   -19585   -19792   -20101   -20220   -20135   -20023 
  -19985   -19961   -19865   -19780   -19793   -19849   -19942   -20175 
  -20426   -20390   -20112   -19880   -19700   -19525   -19535   -19826 
  -20194   -20382   -20305   -20125   -20063   -20124   -20120   -19950 
  -19700   -19530   -19585   -19854   -20085   -20116   -20081   -20124 
  -20225   -20268   -20151   -19934   -19785   -19746   -19770   -19863 
  -19973   -19980   -19950   -20061   -20224   -20193   -19966   -19746 
  -19700   -19838   -19958   -19926   -19900   -20001   -20089   -20082 
  -20032   -19936   -19839   -19853   -19934   -19975   -20038   -20155 
  -20154   -19994   -19885   -19877   -19908   -19954   -19919   -19835 
  -19858   -19961   -20056   -20166   -20240   -20164   -20019   -19978 
  -19938   -19770   -19696   -19828   -19943   -19913   -19859   -19870 
  -19974   -20187   -20345   -20256   -20062   -19944   -19832   -19758 
  -19822   -19900   -19870   -19830   -19923   -20131   -20318   -20374 
  -20263   -20029   -19781   -19619   -19573   -19604   -19685   -19822 
  -20005   -20232   -20436   -20459   -20221   -19863   -19669   -19734 
  -19885   -20016   -20127   -20142   -20043   -19971   -19994   -19974 
  -19824   -19668   -19620   -19664   -19792   -19988   -20125   -20156 
  -20170   -20196   -20212   -20216   -20154   -20028   -19911   -19824 
  -19754   -19737   -19811   -19926   -20011   -20044   -20052   -20105 
  -20159   -20067   -19845   -19688   -19681   -19750   -19865   -20055 
  -20223   -20256   -20217   -20159   -20062   -19954   -19836   -19734 
  -19746   -19872   -19985   -20025   -20028   -19997   -19953   -19980 
  -20079   -20142   -20093   -19970   -19904   -19946   -19974   -19917 
  -19886   -19935   -19931   -19838   -19834   -19961   -20051   -20029 
  -19977   -19942   -19943   -20000   -20028   -19958   -19850   -19772 
  -19759   -19881   -20121   -20287   -20236   -20069   -19944   -19907 
  -19942   -19996   -19961   -19822   -19735   -19835   -20020   -20112 
  -20132   -20166   -20148   -20074   -20075   -20093   -19967   -19793 
  -19718   -19762   -19926   -20073   -20034   -19951   -20005   -20007 
  -19831   -19749   -19884   -20047   -20140   -20147   -19998   -19818 
  -19808   -19928   -20027   -20075   -20067   -19963   -19826   -19828 
  -20031   -20263   -20336   -20210   -19977   -19759   -19639   -19660 
  -19816   -19996   -20047   -19947   -19858   -19936   -20097   -20160 
  -20131   -20097   -20054   -19974   -19893   -19870   -19923   -19970 
  -19915   -19797   -19800   -20007   -20185   -20123   -19965   -19912 
  -19985   -20093   -20125   -20025   -19812   -19635   -19658   -19812 
  -19942   -20029   -20047   -20002   -20044   -20181   -20216   -20101 
  -20021   -20085   -20155   -20075   -19855   -19639   -19618   -19781 
  -19919   -19975   -20032   -20070   -20025   -19973   -20024   -20093 
  -20065   -20021   -20075   -20217   -20295   -20166   -19932   -19753 
  -19627   -19573   -19623   -19731   -19843   -19938   -20024   -20085 
  -20046   -19934   -19916   -20019   -20093   -20077   -20028   -20023 
  -20093   -20169   -20144   -20001   -19807   -19681   -19716   -19801 
  -19782   -19766   -19903   -20121   -20299   -20379   -20312   -20140 
  -19989   -19909   -19881   -19886   -19893   -19882   -19845   -19834 
  -19967   -20210   -20324   -20124   -19743   -19556   -19685   -19913 
  -20088   -20202   -20198   -20101   -20052   -20032   -19938   -19807 
  -19726   -19770   -19977   -20170   -20129   -19973   -19894   -19832 
  -19801   -19936   -20085   -20051   -19985   -20005   -19961   -19846 
  -19843   -19953   -20019   -19994   -19948   -19946   -19982   -20023 
  -20032   -20050   -20179   -20337   -20250   -19896   -19579   -19476 
  -19589   -19904   -20221   -20224   -19939   -19749   -19866   -20139 
  -20309   -20247   -20005   -19811   -19780   -19782   -19785   -19851 
  -19944   -20096   -20241   -20137   -19912   -19907   -19992   -19894 
  -19816   -20005   -20224   -20162   -19928   -19786   -19799   -19881 
  -19962   -20005   -20013   -20070   -20186   -20244   -20205   -20083 
  -19908   -19792   -19714   -19600   -19581   -19720   -19892   -20101 
  -20389   -20572   -20460   -20148   -19827   -19603   -19634   -19931 
  -20127   -19994   -19801   -19823   -19955   -20015   -19982   -19928 
  -19946   -20015   -19973   -19819   -19750   -19858   -20004   -20040 
  -20009   -19993   -19997   -20025   -20077   -20125   -20144   -20089 
  -19974   -19850   -19710   -19607   -19701   -19982   -20221   -20297 
  -20227   -20063   -19989   -20113   -20204   -20048   -19799   -19703 
  -19768   -19870   -19916   -19862   -19823   -19927   -20061   -20085 
  -20070   -20089   -20055   -19973   -20011   -20152   -20183   -20038 
  -19876   -19890   -19975   -19890   -19727   -19681   -19755   -19867 
  -19942   -19998   -20073   -20096   -20106   -20200   -20254   -20088 
  -19791   -19604   -19623   -19786   -19989   -20085   -20071   -20066 
  -20042   -19973   -19986   -20133   -20275   -20228   -20005   -19820 
  -19765   -19751   -19734   -19751   -19800   -19885   -20065   -20259 
  -20316   -20290   -20225   -20051   -19876   -19840   -19894   -19935 
  -19897   -19788   -19726   -19830   -19993   -19980   -19872   -19957 
  -20182   -20326   -20341   -20212   -19896   -19500   -19364   -19665 
  -20078   -20274   -20252   -20097   -19963   -19971   -19996   -19920 
  -19863   -19885   -19828   -19668   -19645   -19896   -20217   -20343 
  -20254   -20065   -19863   -19797   -19981   -20231   -20229   -19975 
  -19732   -19684   -19838   -20067   -20167   -20081   -19989   -20005 
  -20044   -20009   -19917   -19859   -19890   -19973   -20016   -20021 
  -20066   -20108   -20035   -19936   -19926   -19884   -19689   -19504 
  -19588   -19951   -20299   -20378   -20291   -20248   -20181   -19967 
  -19687   -19510   -19531   -19711   -19946   -20144   -20278   -20378 
  -20374   -20189   -19980   -19894   -19861   -19795   -19734   -19747 
  -19808   -19791   -19738   -19900   -20286   -20510   -20282   -19789 
  -19461   -19492   -19750   -20042   -20241   -20295   -20272   -20227 
  -20127   -19998   -19936   -19962   -19963   -19828   -19661   -19685 
  -19944   -20218   -20251   -20132   -20073   -19971   -19780   -19711 
  -19796   -19921   -20062   -20128   -20073   -20096   -20248   -20217 
  -19932   -19747   -19778   -19809   -19812   -19863   -19899   -19892 
  -19932   -20079   -20236   -20204   -19977   -19772   -19759   -19907 
  -20015   -19963   -19857   -19880   -20090   -20343   -20402   -20205 
  -19913   -19685   -19584   -19647   -19822   -19954   -19994   -20043 
  -20160   -20247   -20204   -20056   -19881   -19770   -19820   -19984 
  -20050   -19953   -19897   -20011   -20173   -20241   -20191   -20065 
  -19884   -19665   -19498   -19506   -19753   -20120   -20304   -20209 
  -20098   -20117   -20131   -20089   -20054   -20017   -19959   -19878 
  -19800   -19793   -19834   -19847   -19916   -20085   -20171   -20085 
  -19938   -19835   -19801   -19850   -19994   -20140   -20132   -19954 
  -19755   -19695   -19776   -19854   -19859   -19840   -19834   -19893 
  -20044   -20186   -20245   -20256   -20255   -20239   -20181   -20058 
  -19885   -19703   -19585   -19606   -19792   -20025   -20078   -20021 
  -20159   -20395   -20353   -20059   -19822   -19718   -19676   -19737 
  -19855   -19911   -19971   -20088   -20148   -20119   -20092   -20086 
  -20043   -20000   -19980   -19862   -19697   -19665   -19741   -19820 
  -19946   -20135   -20282   -20355   -20422   -20467   -20413   -20275 
  -20074   -19831   -19616   -19473   -19427   -19525   -19759   -20040 
  -20205   -20179   -20109   -20096   -20015   -19847   -19757   -19726 
  -19681   -19732   -19892   -20012   -20056   -20058   -19958   -19789 
  -19720   -19757   -19838   -20000   -20156   -20131   -19958   -19816 
  -19784   -19799   -19803   -19781   -19735   -19777   -19959   -20090 
  -20073   -20011   -19967   -20029   -20231   -20359   -20298   -20178 
  -20078   -20046   -20146   -20281   -20352   -20448   -20534   -20433 
  -20193   -19982   -19792   -19566   -19406   -19414   -19554   -19784 
  -20082   -20326   -20389   -20271   -20044   -19800   -19602   -19458 
  -19415   -19549   -19839   -20121   -20239   -20281   -20374   -20343 
  -20101   -19903   -19854   -19869   -19962   -20036   -19905   -19727 
  -19781   -19900   -19799   -19568   -19433   -19530   -19897   -20283 
  -20405   -20390   -20387   -20210   -19840   -19606   -19731   -20129 
  -20544   -20637   -20324   -20001   -19938   -19939   -19888   -19893 
  -19985   -20059   -20021   -19861   -19592   -19357   -19368   -19584 
  -19765   -19808   -19812   -19985   -20399   -20794   -20846   -20552 
  -20055   -19534   -19273   -19422   -19757   -19978   -20007   -19890 
  -19734   -19710   -19953   -20457   -21020   -21249   -20781   -19800 
  -19009   -18862   -19267   -19885   -20326   -20456   -20421   -20206 
  -19701   -19157   -19039   -19398   -19899   -20244   -20348   -20418 
  -20723   -21053   -21007   -20607   -19988   -19188   -18553   -18543 
  -19107   -19796   -20279   -20398   -20159   -19855   -19890   -20370 
  -20902   -20891   -20142   -19194   -18812   -19120   -19666   -20174 
  -20607   -20833   -20744   -20476   -20283   -20131   -19758   -19284 
  -19174   -19565   -20086   -20356   -20383   -20336   -20243   -20096 
  -19961   -19870   -19747   -19585   -19534   -19637   -19745   -19836 
  -20162   -20703   -20864   -20209   -19067   -18142   -18027   -18906 
  -20325   -21451   -21709   -21153   -20309   -19722   -19577   -19770 
  -20154   -20457   -20295   -19639   -19036   -18999   -19437   -19975 
  -20439   -20664   -20448   -20015   -19869   -20093   -20322   -20333 
  -20218   -20069   -19890   -19750   -19823   -20247   -20757   -20776 
  -20079   -19114   -18512   -18617   -19326   -20137   -20567   -20475 
  -20024   -19735   -20038   -20534   -20532   -19926   -19211   -19026 
  -19483   -20050   -20336   -20440   -20538   -20578   -20439   -20210 
  -19993   -19727   -19468   -19344   -19323   -19359   -19539   -19994 
  -20610   -20992   -20848   -20333   -19889   -19723   -19707   -19666 
  -19495   -19276   -19238   -19481   -20012   -20746   -21309   -21255 
  -20661   -20113   -19962   -20078   -20272   -20364   -20125   -19608 
  -19230   -19314   -19654   -19777   -19494   -18970   -18657   -18994 
  -19801   -20537   -20964   -21088   -20887   -20414   -19992   -20027 
  -20536   -21070   -21182   -20748   -19857   -18800   -18187   -18459 
  -19279   -20007   -20394   -20322   -19826   -19435   -19526   -19743 
  -19650   -19237   -18820   -18837   -19523   -20629   -21512   -21672 
  -21270   -20736   -20264   -19971   -19805   -19471   -19074   -19207 
  -20035   -21042   -21648   -21477   -20522   -19354   -18638   -18584 
  -19022   -19549   -19862   -20044   -20097   -19862   -19612   -19782 
  -20200   -20372   -20228   -20110   -20302   -20653   -20669   -20236 
  -19838   -19678   -19460   -19198   -19290   -19899   -20680   -21038 
  -20756   -20262   -20024   -19988   -19808   -19442   -19143   -19006 
  -18997   -19197   -19572   -19839   -19870   -19963   -20501   -21316 
  -21735   -21348   -20371   -19336   -18812   -19047   -19728   -20399 
  -20808   -20656   -19857   -19059   -18964   -19515   -20210   -20641 
  -20611   -20152   -19545   -19090   -18928   -19175   -19846   -20637 
  -21201   -21432   -21392   -20964   -19955   -18763   -18117   -18189 
  -18910   -20133   -21073   -21061   -20559   -20305   -20356   -20444 
  -20425   -20278   -20023   -19765   -19608   -19458   -19215   -19052 
  -19170   -19477   -19759   -19944   -20178   -20505   -20606   -20378 
  -20228   -20254   -20115   -19822   -19674   -19701   -19735   -19878 
  -20364   -20814   -20497   -19503   -18744   -18825   -19543   -20370 
  -20980   -21239   -21011   -20309   -19503   -19121   -19329   -19778 
  -20150   -20428   -20588   -20498   -20135   -19615   -19074   -18787 
  -19028   -19581   -19947   -19997   -19998   -20206   -20545   -20688 
  -20564   -20352   -20029   -19622   -19480   -19826   -20424   -20864 
  -20925   -20684   -20271   -19712   -19117   -18816   -19044   -19427 
  -19481   -19422   -19641   -20066   -20506   -20773   -20583   -20005 
  -19575   -19665   -20200   -20833   -21162   -20995   -20459   -19826 
  -19296   -19029   -19165   -19562   -19832   -19701   -19275   -19002 
  -19257   -19963   -20640   -20760   -20312   -19926   -20140   -20677 
  -20814   -20406   -19973   -19931   -20144   -20109   -19737   -19573 
  -19800   -19876   -19512   -19138   -19183   -19569   -20027   -20399 
  -20642   -20721   -20505   -20011   -19649   -19739   -20035   -20147 
  -20085   -20021   -20044   -20202   -20328   -20167   -19782   -19468 
  -19434   -19610   -19724   -19730   -19851   -20082   -20137   -20042 
  -20023   -20067   -20129   -20289   -20456   -20375   -19911   -19265 
  -18851   -18932   -19575   -20537   -21250   -21408   -21118   -20486 
  -19672   -18986   -18639   -18721   -19213   -19831   -20262   -20540 
  -20765   -20768   -20526   -20321   -20177   -19880   -19476   -19197 
  -19221   -19653   -20358   -20891   -20910   -20556   -20139   -19670 
  -19160   -18949   -19202   -19610   -20032   -20505   -20711   -20521 
  -20212   -19723   -19020   -18675   -19080   -19847   -20363   -20394 
  -20171   -20140   -20417   -20618   -20553   -20483   -20449   -20150 
  -19627   -19330   -19534   -20046   -20399   -20445   -20434   -20331 
  -19959   -19650   -19707   -19826   -19691   -19456   -19359   -19435 
  -19546   -19472   -19356   -19701   -20439   -20907   -20947   -20849 
  -20603   -20128   -19718   -19670   -19764   -19647   -19564   -19944 
  -20619   -21014   -20742   -19916   -19053   -18638   -18804   -19291 
  -19697   -19912   -20127   -20426   -20633   -20536   -20240   -20101 
  -20147   -20097   -19955   -19851   -19678   -19454   -19537   -20093 
  -20673   -20742   -20445   -20187   -20008   -19812   -19622   -19485 
  -19519   -19823   -20181   -20173   -19832   -19683   -19904   -20171 
  -20308   -20424   -20487   -20271   -19680   -18982   -18702   -19120 
  -19917   -20553   -20761   -20525   -20031   -19714   -19839   -20139 
  -20260   -20232   -20216   -20185   -20105   -20029   -19975   -19981 
  -20011   -19874   -19561   -19310   -19326   -19633   -20019   -20255 
  -20318   -20244   -20069   -19903   -19836   -19935   -20187   -20297 
  -19997   -19587   -19566   -19953   -20447   -20810   -20810   -20287 
  -19487   -18952   -18944   -19237   -19535   -19750   -19924   -20117 
  -20301   -20336   -20125   -19803   -19650   -19789   -20093   -20306 
  -20255   -20066   -19962   -20019   -20289   -20687   -20938   -20893 
  -20602   -20193   -19881   -19877   -20089   -20124   -19803   -19431 
  -19349   -19462   -19461   -19269   -19071   -19082   -19390   -19828 
  -20108   -20158   -20186   -20337   -20548   -20679   -20564   -20162 
  -19738   -19580   -19719   -20044   -20294   -20166   -19730   -19395 
  -19465   -19878   -20268   -20349   -20194   -20027   -19974   -20065 
  -20225   -20306   -20185   -19907   -19700   -19741   -19971   -20129 
  -20021   -19811   -19808   -20047   -20310   -20452   -20366   -20004 
  -19626   -19473   -19471   -19570   -19811   -20017   -20044   -20085 
