Origin Time       2025/03/30 22:55:00
Lat.              41.993
Long.             142.725
Depth. (km)       55
Mag.              4.6
Station Code      IWT001
Station Lat.      40.4101
Station Long.     141.7193
Station Height(m) 14
Record Time       2025/03/30 22:56:51
Sampling Freq(Hz) 100Hz
Duration Time(s)  60
Dir.              U-D
Scale Factor      7845(gal)/8223790
Max. Acc. (gal)   0.641
Last Correction   2025/03/30 22:56:51
Memo.             
[...]
   -4401    -4216    -4139    -4183    -4245    -4256    -4191    -4143 
   -4240    -4403    -4428    -4266    -4068    -4002    -4133    -4360 
   -4479    -4405    -4243    -4152    -4199    -4295    -4314    -4239 
   -4143    -4121    -4207    -4318    -4332    -4248    -4176    -4197 
   -4284    -4360    -4349    -4256    -4171    -4193    -4290    -4345 
   -4297    -4186    -4121    -4156    -4247    -4303    -4298    -4294 
   -4320    -4317    -4267    -4203    -4158    -4191    -4290    -4309 
   -4228    -4180    -4234    -4336    -4387    -4328    -4220    -4160 
   -4174    -4232    -4270    -4249    -4233    -4270    -4282    -4224 
   -4185    -4220    -4287    -4333    -4302    -4210    -4193    -4275 
   -4318    -4245    -4162    -4160    -4247    -4388    -4463    -4361 
   -4179    -4083    -4117    -4228    -4336    -4369    -4328    -4263 
   -4203    -4180    -4222    -4264    -4220    -4118    -4079    -4171 
   -4355    -4494    -4472    -4322    -4156    -4083    -4152    -4275 
   -4336    -4313    -4255    -4220    -4221    -4247    -4256    -4237 
   -4230    -4240    -4249    -4278    -4295    -4243    -4171    -4185 
   -4287    -4386    -4398    -4307    -4189    -4166    -4221    -4257 
   -4268    -4284    -4283    -4256    -4212    -4163    -4139    -4158 
   -4194    -4225    -4259    -4311    -4348    -4315    -4266    -4267 
   -4318    -4376    -4376    -4284    -4162    -4089    -4106    -4203 
   -4340    -4442    -4405    -4222    -4040    -3969    -4033    -4240 
   -4526    -4679    -4552    -4253    -3994    -3902    -3996    -4176 
   -4320    -4396    -4430    -4405    -4301    -4145    -4013    -4018 
   -4191    -4430    -4591    -4590    -4414    -4151    -3944    -3883 
   -4002    -4267    -4517    -4584    -4472    -4287    -4110    -4017 
   -4045    -4143    -4288    -4456    -4533    -4455    -4259    -4033 
   -3896    -3958    -4206    -4473    -4560    -4390    -4120    -4016 
   -4147    -4351    -4433    -4332    -4166    -4086    -4125    -4218 
   -4290    -4309    -4321    -4387    -4468    -4442    -4267    -4078 
   -4056    -4191    -4321    -4340    -4249    -4141    -4116    -4176 
   -4272    -4351    -4340    -4232    -4136    -4176    -4329    -4457 
   -4472    -4368    -4229    -4151    -4145    -4151    -4116    -4089 
   -4149    -4259    -4326    -4322    -4279    -4247    -4232    -4224 
   -4272    -4396    -4488    -4426    -4249    -4121    -4125    -4189 
   -4209    -4195    -4217    -4278    -4344    -4345    -4222    -4064 
   -4035    -4164    -4360    -4496    -4484    -4347    -4209    -4160 
   -4178    -4205    -4203    -4158    -4126    -4220    -4401    -4500 
   -4433    -4234    -4009    -3916    -4058    -4353    -4591    -4621 
   -4436    -4139    -3909    -3908    -4114    -4337    -4432    -4403 
   -4311    -4207    -4166    -4205    -4244    -4261    -4291    -4294 
   -4267    -4291    -4320    -4263    -4199    -4202    -4229    -4253 
   -4280    -4305    -4301    -4243    -4171    -4160    -4212    -4283 
   -4305    -4243    -4193    -4229    -4295    -4317    -4288    -4225 
   -4143    -4113    -4178    -4261    -4318    -4401    -4506    -4510 
   -4348    -4135    -4027    -4098    -4290    -4415    -4364    -4226 
   -4137    -4141    -4206    -4248    -4203    -4120    -4141    -4284 
   -4369    -4294    -4164    -4132    -4225    -4361    -4413    -4325 
   -4198    -4172    -4252    -4336    -4341    -4218    -4045    -4032 
   -4230    -4445    -4517    -4441    -4271    -4105    -4063    -4158 
   -4263    -4294    -4298    -4336    -4395    -4390    -4274    -4122 
   -4060    -4163    -4344    -4409    -4291    -4125    -4052    -4104 
   -4237    -4365    -4422    -4444    -4473    -4419    -4210    -3987 
   -3919    -4032    -4257    -4433    -4448    -4356    -4245    -4141 
   -4077    -4102    -4206    -4309    -4338    -4294    -4240    -4249 
   -4321    -4361    -4309    -4222    -4206    -4303    -4448    -4461 
   -4276    -4047    -3932    -3982    -4143    -4297    -4360    -4367 
   -4399    -4433    -4364    -4168    -3954    -3882    -4055    -4383 
   -4641    -4657    -4430    -4117    -3909    -3924    -4151    -4415 
   -4526    -4460    -4325    -4224    -4202    -4199    -4137    -4064 
   -4083    -4221    -4398    -4461    -4347    -4182    -4102    -4140 
   -4266    -4394    -4452    -4411    -4288    -4128    -3993    -3994 
   -4166    -4374    -4477    -4417    -4228    -4063    -4058    -4202 
   -4382    -4476    -4437    -4320    -4220    -4212    -4282    -4333 
   -4315    -4251    -4149    -4070    -4070    -4124    -4191    -4275 
   -4361    -4409    -4361    -4252    -4197    -4189    -4167    -4156 
   -4189    -4286    -4415    -4453    -4340    -4194    -4121    -4110 
   -4156    -4249    -4295    -4272    -4271    -4287    -4263    -4267 
   -4321    -4321    -4264    -4234    -4256    -4282    -4263    -4195 
   -4117    -4091    -4141    -4239    -4367    -4461    -4437    -4313 
   -4171    -4060    -4018    -4078    -4222    -4403    -4513    -4444 
   -4260    -4149    -4160    -4210    -4256    -4267    -4225    -4210 
   -4266    -4274    -4180    -4106    -4166    -4332    -4484    -4488 
   -4324    -4118    -4048    -4185    -4422    -4556    -4487    -4299 
   -4144    -4102    -4097    -4033    -3998    -4122    -4372    -4565 
   -4553    -4315    -3983    -3812    -3946    -4274    -4546    -4585 
   -4399    -4179    -4098    -4137    -4180    -4182    -4175    -4229 
   -4357    -4475    -4496    -4444    -4369    -4282    -4201    -4155 
   -4114    -4110    -4201    -4325    -4376    -4298    -4113    -3967 
   -3983    -4164    -4382    -4460    -4365    -4237    -4216    -4322 
   -4423    -4364    -4156    -3998    -4064    -4287    -4445    -4422 
   -4270    -4132    -4126    -4206    -4225    -4149    -4116    -4225 
   -4433    -4621    -4635    -4448    -4190    -4002    -3966    -4086 
   -4266    -4410    -4472    -4428    -4307    -4175    -4060    -3983 
   -3994    -4094    -4213    -4303    -4361    -4369    -4334    -4271 
   -4159    -4070    -4145    -4341    -4502    -4572    -4526    -4369 
   -4187    -4052    -4002    -4054    -4170    -4271    -4302    -4303 
   -4311    -4261    -4182    -4170    -4193    -4212    -4236    -4247 
   -4261    -4282    -4264    -4264    -4349    -4434    -4422    -4333 
   -4228    -4164    -4180    -4267    -4379    -4442    -4383    -4189 
   -3956    -3863    -3981    -4232    -4464    -4495    -4303    -4099 
   -4050    -4129    -4247    -4326    -4359    -4384    -4398    -4375 
   -4299    -4158    -4033    -4056    -4218    -4375    -4399    -4257 
   -4048    -3952    -4081    -4341    -4538    -4602    -4564    -4422 
   -4214    -4028    -3917    -3954    -4166    -4406    -4491    -4410 
   -4261    -4152    -4194    -4391    -4552    -4506    -4309    -4112 
   -4031    -4075    -4151    -4179    -4175    -4207    -4294    -4321 
   -4174    -3937    -3815    -3924    -4202    -4455    -4526    -4444 
   -4344    -4311    -4361    -4472    -4534    -4421    -4168    -3974 
   -4017    -4278    -4542    -4607    -4437    -4175    -4023    -4072 
   -4241    -4365    -4340    -4224    -4151    -4167    -4194    -4147 
   -4085    -4141    -4337    -4529    -4534    -4279    -3904    -3673 
   -3740    -4058    -4433    -4698    -4769    -4603    -4317    -4110 
   -4035    -4085    -4279    -4491    -4546    -4463    -4333    -4194 
   -4112    -4116    -4116    -4048    -3971    -3996    -4174    -4429 
   -4579    -4507    -4274    -4058    -4047    -4267    -4511    -4577 
   -4450    -4236    -4064    -4018    -4052    -4047    -4032    -4126 
   -4310    -4477    -4560    -4510    -4347    -4172    -4052    -3997 
   -4039    -4176    -4303    -4337    -4264    -4149    -4135    -4267 
   -4426    -4482    -4407    -4301    -4266    -4328    -4455    -4523 
   -4425    -4193    -3963    -3877    -3991    -4164    -4195    -4106 
   -4081    -4216    -4426    -4560    -4579    -4521    -4380    -4185 
   -4008    -3932    -4052    -4326    -4504    -4406    -4148    -3964 
   -3917    -3910    -3904    -4009    -4315    -4688    -4905    -4827 
   -4494    -4117    -3894    -3890    -4097    -4392    -4538    -4422 
   -4197    -4064    -4120    -4330    -4486    -4386    -4143    -4040 
   -4158    -4356    -4492    -4506    -4405    -4252    -4090    -3952 
   -3954    -4151    -4386    -4483    -4441    -4322    -4167    -4014 
   -3932    -3990    -4190    -4433    -4583    -4525    -4230    -3901 
   -3862    -4179    -4600    -4842    -4711    -4272    -3888    -3824 
   -4001    -4171    -4198    -4139    -4097    -4133    -4234    -4294 
   -4299    -4364    -4504    -4621    -4645    -4549    -4353    -4151 
   -4031    -4044    -4195    -4387    -4464    -4314    -4032    -3871 
   -3924    -4074    -4229    -4356    -4406    -4375    -4357    -4402 
   -4441    -4429    -4367    -4228    -4051    -3955    -3981    -4070 
   -4129    -4067    -3933    -3944    -4172    -4426    -4545    -4525 
   -4422    -4342    -4374    -4483    -4540    -4419    -4186    -4048 
   -4110    -4279    -4388    -4365    -4263    -4163    -4110    -4109 
   -4167    -4275    -4387    -4436    -4367    -4214    -4120    -4180 
   -4325    -4394    -4338    -4245    -4194    -4195    -4205    -4148 
   -4041    -3987    -3993    -3993    -4017    -4131    -4298    -4459 
   -4553    -4503    -4357    -4251    -4225    -4268    -4365    -4453 
   -4464    -4369    -4206    -4045    -3986    -4128    -4378    -4552 
   -4602    -4546    -4405    -4226    -4055    -3935    -3928    -4050 
   -4244    -4390    -4375    -4243    -4125    -4054    -4009    -4031 
   -4118    -4224    -4351    -4488    -4529    -4403    -4202    -4032 
   -3981    -4126    -4375    -4540    -4564    -4502    -4395    -4293 
   -4249    -4243    -4220    -4193    -4202    -4233    -4249    -4264 
   -4274    -4207    -4064    -3970    -4014    -4135    -4244    -4288 
   -4256    -4201    -4189    -4259    -4383    -4455    -4396    -4229 
   -4055    -4025    -4197    -4472    -4692    -4731    -4540    -4217 
   -3959    -3888    -3998    -4182    -4342    -4434    -4418    -4320 
   -4224    -4183    -4202    -4230    -4230    -4232    -4264    -4313 
   -4309    -4182    -3993    -3925    -4082    -4317    -4410    -4305 
   -4109    -4009    -4108    -4321    -4490    -4540    -4492    -4376 
   -4232    -4135    -4101    -4112    -4191    -4326    -4450    -4517 
   -4506    -4429    -4360    -4315    -4267    -4241    -4253    -4271 
   -4237    -4078    -3846    -3753    -3906    -4187    -4375    -4334 
   -4122    -3959    -4045    -4313    -4509    -4554    -4541    -4500 
   -4407    -4256    -4082    -3969    -3977    -4093    -4252    -4388 
   -4488    -4564    -4577    -4515    -4429    -4360    -4287    -4178 
   -4091    -4078    -4104    -4132    -4153    -4128    -4072    -4074 
   -4178    -4349    -4496    -4561    -4526    -4406    -4275    -4166 
   -4045    -3951    -3920    -3943    -4028    -4133    -4194    -4249 
   -4307    -4330    -4333    -4341    -4360    -4407    -4442    -4386 
   -4260    -4182    -4203    -4280    -4371    -4432    -4417    -4333 
   -4185    -3981    -3861    -4008    -4383    -4729    -4803    -4588 
   -4305    -4163    -4178    -4209    -4116    -3913    -3750    -3726 
   -3820    -3987    -4186    -4386    -4569    -4691    -4702    -4587 
   -4338    -4044    -3923    -4094    -4440    -4683    -4612    -4291 
   -3966    -3824    -3904    -4106    -4314    -4445    -4463    -4410 
   -4334    -4284    -4322    -4418    -4484    -4437    -4229    -3937 
   -3766    -3843    -4070    -4271    -4374    -4355    -4234    -4124 
   -4125    -4221    -4347    -4449    -4471    -4438    -4437    -4403 
   -4237    -4035    -3942    -4005    -4194    -4376    -4415    -4347 
   -4303    -4338    -4379    -4347    -4224    -4098    -4108    -4249 
   -4379    -4402    -4303    -4129    -3963    -3908    -4032    -4283 
   -4488    -4495    -4305    -4101    -4072    -4234    -4428    -4464 
   -4326    -4197    -4205    -4298    -4344    -4224    -3990    -3882 
   -4035    -4341    -4625    -4760    -4700    -4509    -4306    -4148 
   -4023    -3963    -4039    -4236    -4419    -4445    -4318    -4155 
   -4085    -4137    -4206    -4195    -4144    -4140    -4201    -4247 
   -4228    -4185    -4151    -4156    -4234    -4315    -4332    -4338 
   -4298    -4151    -4058    -4148    -4295    -4372    -4367    -4284 
   -4190    -4179    -4257    -4355    -4433    -4450    -4395    -4355 
   -4379    -4388    -4325    -4247    -4228    -4297    -4380    -4328 
   -4113    -3894    -3797    -3856    -4051    -4297    -4504    -4626 
   -4633    -4525    -4317    -4101    -3993    -3991    -4067    -4191 
   -4287    -4297    -4224    -4122    -4112    -4255    -4418    -4444 
   -4307    -4087    -3942    -3996    -4189    -4411    -4594    -4653 
   -4542    -4314    -4117    -4062    -4153    -4342    -4495    -4459 
   -4244    -3994    -3851    -3889    -4071    -4286    -4438    -4480 
   -4418    -4299    -4166    -4064    -4041    -4114    -4288    -4511 
   -4656    -4617    -4406    -4180    -4113    -4214    -4357    -4417 
   -4336    -4178    -4078    -4090    -4155    -4194    -4168    -4106 
   -4101    -4221    -4406    -4506    -4419    -4199    -3987    -3909 
   -3994    -4160    -4301    -4399    -4440    -4356    -4176    -3991 
   -3871    -3937    -4252    -4661    -4924    -4877    -4521    -4099 
   -3906    -4005    -4225    -4353    -4314    -4203    -4156    -4197 
   -4243    -4259    -4307    -4401    -4446    -4394    -4268    -4133 
   -4070    -4104    -4174    -4210    -4193    -4159    -4162    -4201 
   -4241    -4275    -4301    -4305    -4299    -4287    -4247    -4195 
   -4159    -4198    -4325    -4437    -4432    -4283    -4089    -4021 
   -4132    -4347    -4545    -4565    -4391    -4201    -4110    -4125 
   -4210    -4307    -4357    -4313    -4206    -4114    -4036    -3974 
   -4033    -4241    -4494    -4675    -4677    -4465    -4168    -3969 
   -3943    -4072    -4280    -4410    -4344    -4144    -3998    -3996 
   -4094    -4245    -4382    -4426    -4376    -4272    -4155    -4086 
   -4145    -4313    -4457    -4509    -4477    -4363    -4216    -4113 
   -4054    -4032    -4104    -4298    -4534    -4683    -4672    -4484 
   -4203    -3989    -3927    -3998    -4135    -4251    -4293    -4216 
   -4060    -3963    -3977    -4091    -4287    -4484    -4610    -4656 
   -4584    -4334    -4004    -3829    -3948    -4274    -4606    -4750 
   -4617    -4318    -4054    -3915    -3939    -4139    -4349    -4382 
   -4274    -4193    -4236    -4360    -4448    -4402    -4229    -4037 
   -3925    -3943    -4094    -4294    -4406    -4384    -4314    -4252 
   -4202    -4139    -4036    -3975    -4087    -4337    -4563    -4629 
   -4506    -4290    -4136    -4145    -4299    -4498    -4610    -4546 
   -4345    -4116    -3947    -3894    -3955    -4058    -4167    -4318 
   -4488    -4588    -4561    -4391    -4147    -3989    -4010    -4118 
   -4189    -4203    -4191    -4178    -4195    -4206    -4174    -4175 
   -4249    -4301    -4280    -4244    -4278    -4386    -4468    -4450 
   -4365    -4266    -4185    -4137    -4099    -4087    -4174    -4363 
   -4558    -4612    -4461    -4193    -3977    -3940    -4085    -4294 
   -4440    -4457    -4351    -4191    -4077    -4052    -4110    -4193 
   -4218    -4202    -4209    -4261    -4345    -4406    -4409    -4372 
   -4298    -4182    -4083    -4113    -4288    -4496    -4608    -4567 
   -4405    -4194    -4017    -3927    -3939    -4045    -4191    -4306 
   -4353    -4305    -4203    -4160    -4202    -4264    -4294    -4263 
   -4174    -4117    -4149    -4206    -4234    -4255    -4280    -4298 
   -4321    -4349    -4352    -4336    -4322    -4314    -4309    -4320 
   -4345    -4371    -4344    -4230    -4114    -4097    -4178    -4293 
   -4332    -4236    -4132    -4167    -4298    -4367    -4305    -4185 
   -4145    -4252    -4419    -4471    -4347    -4163    -4033    -4016 
   -4117    -4249    -4330    -4337    -4249    -4118    -4067    -4112 
   -4182    -4264    -4390    -4531    -4587    -4482    -4248    -4023 
   -3956    -4062    -4220    -4340    -4417    -4446    -4401    -4253 
   -4059    -3963    -4060    -4278    -4452    -4434    -4245    -4090 
   -4117    -4247    -4329    -4321    -4275    -4217    -4151    -4137 
   -4195    -4270    -4332    -4376    -4379    -4372    -4372    -4341 
   -4295    -4283    -4290    -4303    -4305    -4247    -4148    -4102 
   -4189    -4340    -4382    -4266    -4089    -3970    -3994    -4116 
   -4218    -4283    -4352    -4388    -4347    -4255    -4193    -4212 
   -4268    -4272    -4205    -4141    -4168    -4298    -4464    -4553 
   -4487    -4321    -4158    -4048    -4058    -4230    -4449    -4533 
   -4453    -4287    -4112    -4020    -4054    -4131    -4190    -4263 
   -4359    -4409    -4356    -4239    -4141    -4113    -4175    -4287 
   -4320    -4224    -4101    -4051    -4105    -4218    -4348    -4464 
   -4465    -4288    -4054    -3931    -4028    -4334    -4653    -4762 
   -4654    -4453    -4239    -4037    -3898    -3904    -4072    -4302 
   -4415    -4332    -4193    -4178    -4303    -4434    -4440    -4309 
   -4163    -4099    -4099    -4141    -4217    -4295    -4372    -4418 
   -4320    -4090    -3931    -4006    -4264    -4504    -4561    -4415 
   -4201    -4078    -4085    -4156    -4239    -4305    -4328    -4315 
   -4290    -4255    -4198    -4135    -4149    -4283    -4453    -4567 
   -4556    -4383    -4137    -3987    -4023    -4185    -4363    -4463 
   -4417    -4247    -4072    -3982    -3998    -4116    -4267    -4363 
   -4384    -4355    -4284    -4217    -4212    -4247    -4286    -4344 
   -4367    -4279    -4140    -4052    -4054    -4137    -4253    -4351 
   -4388    -4359    -4290    -4212    -4167    -4199    -4288    -4399 
   -4504    -4527    -4399    -4176    -3975    -3892    -3975    -4209 
   -4480    -4641    -4595    -4374    -4079    -3842    -3796    -3997 
   -4336    -4622    -4689    -4510    -4221    -4009    -3947    -3989 
   -4094    -4255    -4430    -4541    -4523    -4367    -4144    -4010 
   -4066    -4232    -4345    -4347    -4298    -4275    -4309    -4364 
   -4356    -4251    -4145    -4149    -4212    -4221    -4179    -4170 
   -4225    -4318    -4379    -4306    -4101    -3929    -3935    -4102 
   -4341    -4533    -4569    -4428    -4218    -4086    -4108    -4243 
   -4364    -4374    -4317    -4314    -4386    -4418    -4321    -4162 
   -4083    -4121    -4194    -4247    -4270    -4263    -4245    -4222 
   -4209    -4237    -4280    -4291    -4272    -4251    -4243    -4255 
   -4280    -4290    -4282    -4280    -4271    -4244    -4210    -4185 
   -4189    -4230    -4291    -4322    -4317    -4291    -4234    -4144 
   -4058    -4035    -4118    -4268    -4395    -4422    -4336    -4210 
   -4145    -4167    -4251    -4344    -4383    -4355    -4291    -4226 
   -4202    -4252    -4329    -4351    -4302    -4206    -4125    -4133 
   -4213    -4272    -4284    -4298    -4355    -4425    -4438    -4372 
   -4234    -4085    -4047    -4140    -4264    -4340    -4334    -4251 
