Origin Time       2025/03/30 22:55:00
Lat.              41.993
Long.             142.725
Depth. (km)       55
Mag.              4.6
Station Code      IWT001
Station Lat.      40.4101
Station Long.     141.7193
Station Height(m) 14
Record Time       2025/03/30 22:56:51
Sampling Freq(Hz) 100Hz
Duration Time(s)  60
Dir.              N-S
Scale Factor      7845(gal)/8223790
Max. Acc. (gal)   1.109
Last Correction   2025/03/30 22:56:51
Memo.             
[...]
  -20918   -20937   -20938   -20910   -20861   -20881   -20961   -21024 
  -21027   -20935   -20780   -20664   -20640   -20675   -20729   -20795 
  -20865   -20915   -20918   -20845   -20758   -20775   -20892   -21010 
  -21050   -20989   -20872   -20794   -20780   -20772   -20738   -20733 
  -20811   -20925   -20983   -20957   -20873   -20806   -20821   -20884 
  -20919   -20915   -20907   -20915   -20912   -20856   -20738   -20615 
  -20586   -20688   -20841   -20945   -20980   -20965   -20910   -20835 
  -20783   -20798   -20884   -20997   -21070   -21043   -20907   -20737 
  -20637   -20652   -20736   -20811   -20849   -20846   -20831   -20853 
  -20906   -20958   -20995   -20974   -20887   -20787   -20729   -20742 
  -20827   -20923   -20946   -20899   -20822   -20717   -20632   -20628 
  -20722   -20887   -20996   -20985   -20916   -20853   -20871   -20996 
  -21108   -21096   -21014   -20947   -20900   -20853   -20780   -20675 
  -20603   -20609   -20677   -20763   -20787   -20749   -20744   -20814 
  -20906   -20945   -20938   -20969   -21042   -21088   -21053   -20934 
  -20775   -20663   -20667   -20767   -20880   -20945   -20931   -20853 
  -20754   -20676   -20659   -20711   -20814   -20956   -21089   -21118 
  -21008   -20838   -20688   -20641   -20722   -20845   -20934   -20988 
  -21007   -20991   -20923   -20795   -20686   -20679   -20750   -20839 
  -20880   -20831   -20761   -20745   -20777   -20831   -20866   -20893 
  -20969   -21066   -21101   -21022   -20856   -20723   -20707   -20807 
  -20929   -20929   -20811   -20710   -20688   -20754   -20857   -20889 
  -20839   -20806   -20856   -20949   -20985   -20939   -20877   -20885 
  -20943   -20949   -20868   -20729   -20621   -20677   -20861   -20995 
  -20993   -20876   -20745   -20721   -20791   -20862   -20879   -20823 
  -20753   -20761   -20839   -20908   -20939   -20920   -20872   -20853 
  -20877   -20904   -20887   -20830   -20812   -20862   -20906   -20889 
  -20839   -20795   -20773   -20807   -20883   -20934   -20949   -20954 
  -20935   -20879   -20791   -20737   -20779   -20854   -20861   -20807 
  -20754   -20742   -20781   -20833   -20830   -20817   -20884   -20989 
  -21035   -20993   -20896   -20848   -20896   -20939   -20907   -20833 
  -20773   -20756   -20742   -20714   -20706   -20773   -20925   -21046 
  -21022   -20854   -20663   -20598   -20694   -20842   -20918   -20888 
  -20834   -20830   -20876   -20952   -21008   -21024   -21019   -20984 
  -20923   -20872   -20817   -20734   -20640   -20547   -20533   -20645 
  -20802   -20929   -20984   -20949   -20880   -20852   -20895   -20973 
  -21024   -21030   -20995   -20945   -20893   -20854   -20842   -20811 
  -20764   -20741   -20746   -20788   -20834   -20839   -20842   -20858 
  -20871   -20866   -20823   -20748   -20711   -20758   -20846   -20934 
  -21000   -21022   -21000   -20962   -20953   -20972   -20943   -20862 
  -20787   -20736   -20707   -20686   -20652   -20614   -20618   -20730 
  -20903   -21023   -21045   -20989   -20908   -20848   -20842   -20885 
  -20916   -20929   -20922   -20861   -20764   -20675   -20649   -20741 
  -20892   -20997   -21024   -20989   -20927   -20857   -20768   -20694 
  -20702   -20799   -20919   -20992   -20957   -20800   -20629   -20567 
  -20665   -20908   -21177   -21304   -21219   -20961   -20653   -20459 
  -20488   -20699   -20942   -21108   -21141   -21051   -20923   -20800 
  -20699   -20672   -20742   -20902   -21084   -21147   -21006   -20740 
  -20525   -20479   -20587   -20733   -20800   -20792   -20815   -20923 
  -21080   -21176   -21131   -21000   -20879   -20796   -20764   -20756 
  -20736   -20741   -20796   -20857   -20861   -20780   -20669   -20656 
  -20808   -21061   -21266   -21290   -21089   -20760   -20506   -20459 
  -20603   -20830   -20983   -21006   -20950   -20883   -20852   -20833 
  -20819   -20862   -20937   -20983   -20966   -20865   -20729   -20640 
  -20636   -20723   -20846   -20907   -20889   -20871   -20906   -20988 
  -21072   -21060   -20929   -20758   -20641   -20655   -20760   -20804 
  -20763   -20729   -20763   -20873   -21006   -21046   -20957   -20856 
  -20835   -20885   -20942   -20937   -20857   -20765   -20727   -20752 
  -20808   -20856   -20866   -20852   -20825   -20815   -20866   -20953 
  -20991   -20949   -20862   -20795   -20796   -20868   -20943   -20956 
  -20915   -20849   -20765   -20699   -20659   -20636   -20669   -20779 
  -20912   -20988   -20983   -20933   -20889   -20888   -20923   -20981 
  -21028   -20987   -20853   -20723   -20649   -20657   -20763   -20889 
  -20980   -21012   -20937   -20787   -20682   -20686   -20758   -20826 
  -20842   -20830   -20864   -20954   -21038   -21072   -21035   -20942 
  -20844   -20768   -20740   -20753   -20781   -20841   -20900   -20875 
  -20748   -20617   -20602   -20717   -20873   -20977   -20989   -20960 
  -20957   -20960   -20911   -20817   -20753   -20807   -20980   -21138 
  -21126   -20941   -20721   -20568   -20515   -20567   -20656   -20721 
  -20787   -20877   -20965   -21008   -20974   -20888   -20802   -20773 
  -20864   -21042   -21169   -21141   -20992   -20837   -20722   -20642 
  -20588   -20556   -20607   -20785   -20989   -21082   -21010   -20845 
  -20773   -20861   -20993   -21061   -21042   -20992   -20934   -20835 
  -20729   -20656   -20632   -20677   -20757   -20811   -20839   -20868 
  -20912   -20923   -20857   -20763   -20730   -20780   -20850   -20889 
  -20912   -20957   -21008   -21011   -20925   -20787   -20726   -20819 
  -20973   -21037   -20935   -20754   -20672   -20745   -20889   -20976 
  -20926   -20819   -20777   -20791   -20784   -20727   -20677   -20717 
  -20852   -21011   -21078   -20999   -20838   -20715   -20722   -20872 
  -21045   -21108   -21035   -20865   -20703   -20655   -20676   -20682 
  -20682   -20704   -20795   -20957   -21064   -21023   -20896   -20794 
  -20819   -20970   -21107   -21119   -21004   -20860   -20760   -20677 
  -20606   -20580   -20619   -20717   -20807   -20819   -20780   -20785 
  -20888   -21058   -21200   -21232   -21162   -21054   -20960   -20904 
  -20866   -20808   -20714   -20606   -20520   -20491   -20537   -20660 
  -20810   -20916   -20961   -20950   -20926   -20941   -20973   -21019 
  -21093   -21141   -21128   -21089   -21007   -20864   -20745   -20738 
  -20787   -20796   -20715   -20544   -20368   -20322   -20436   -20640 
  -20865   -21028   -21089   -21088   -21054   -21019   -21003   -21000 
  -20995   -20954   -20884   -20814   -20771   -20798   -20877   -20946 
  -20961   -20877   -20734   -20641   -20638   -20699   -20798   -20881 
  -20864   -20727   -20586   -20549   -20637   -20808   -20973   -21073 
  -21131   -21163   -21139   -21039   -20895   -20815   -20889   -21038 
  -21114   -21031   -20807   -20582   -20541   -20702   -20877   -20910 
  -20795   -20652   -20637   -20757   -20884   -20937   -20922   -20911 
  -20934   -20939   -20888   -20821   -20817   -20904   -21014   -21043 
  -20925   -20676   -20467   -20478   -20717   -21035   -21263   -21282 
  -21104   -20866   -20691   -20603   -20583   -20625   -20706   -20804 
  -20895   -20916   -20854   -20733   -20623   -20663   -20839   -21015 
  -21141   -21184   -21155   -21111   -20995   -20794   -20607   -20505 
  -20545   -20738   -20974   -21093   -21038   -20902   -20790   -20731 
  -20710   -20677   -20671   -20768   -20973   -21188   -21246   -21088 
  -20845   -20669   -20625   -20671   -20752   -20856   -20941   -21015 
  -21093   -21085   -20964   -20790   -20618   -20524   -20537   -20614 
  -20726   -20853   -20950   -20987   -20973   -20931   -20864   -20808 
  -20837   -20941   -21053   -21127   -21116   -20995   -20784   -20544 
  -20397   -20398   -20506   -20717   -20962   -21131   -21189   -21096 
  -20891   -20707   -20609   -20637   -20794   -20987   -21142   -21188 
  -21101   -20980   -20922   -20926   -20946   -20943   -20904   -20853 
  -20794   -20691   -20568   -20487   -20459   -20476   -20537   -20605 
  -20667   -20749   -20893   -21128   -21382   -21498   -21406   -21168 
  -20911   -20758   -20763   -20853   -20891   -20835   -20737   -20634 
  -20568   -20561   -20602   -20702   -20872   -21043   -21116   -21049 
  -20893   -20756   -20753   -20929   -21165   -21251   -21081   -20738 
  -20405   -20247   -20318   -20530   -20779   -20996   -21127   -21150 
  -21081   -20958   -20864   -20887   -21041   -21223   -21280   -21118 
  -20817   -20565   -20455   -20461   -20537   -20617   -20671   -20764 
  -20888   -20968   -20993   -20961   -20888   -20841   -20848   -20877 
  -20920   -20969   -21012   -21050   -21047   -20937   -20745   -20599 
  -20606   -20806   -21092   -21243   -21145   -20803   -20399   -20217 
  -20340   -20630   -20903   -21024   -21006   -20957   -20970   -21054 
  -21128   -21147   -21136   -21107   -21053   -20926   -20675   -20368 
  -20175   -20254   -20607   -21012   -21266   -21315   -21188   -21003 
  -20877   -20838   -20872   -20920   -20898   -20729   -20457   -20241 
  -20208   -20394   -20709   -20988   -21163   -21209   -21145   -21085 
  -21108   -21181   -21231   -21181   -21008   -20811   -20698   -20684 
  -20736   -20760   -20696   -20618   -20625   -20734   -20885   -20993 
  -21028   -21003   -20941   -20849   -20721   -20592   -20510   -20515 
  -20638   -20849   -21077   -21265   -21373   -21346   -21176   -20980 
  -20853   -20785   -20742   -20669   -20568   -20480   -20433   -20420 
  -20403   -20368   -20385   -20559   -20899   -21296   -21609   -21728 
  -21637   -21435   -21232   -21073   -20916   -20758   -20642   -20551 
  -20459   -20382   -20353   -20407   -20521   -20614   -20607   -20521 
  -20505   -20711   -21128   -21535   -21724   -21686   -21485   -21212 
  -20941   -20686   -20520   -20518   -20628   -20738   -20779   -20704 
  -20545   -20444   -20474   -20618   -20852   -21041   -21073   -21030 
  -21026   -21089   -21178   -21211   -21170   -21101   -21037   -21022 
  -21069   -21105   -21068   -20981   -20869   -20672   -20364   -20038 
  -19820   -19839   -20146   -20637   -21127   -21425   -21433   -21186 
  -20825   -20610   -20709   -21028   -21343   -21394   -21091   -20625 
  -20282   -20245   -20455   -20684   -20826   -20898   -20961   -21060 
  -21122   -21088   -21031   -21020   -21042   -21033   -20943   -20803 
  -20665   -20591   -20636   -20765   -20888   -20966   -20981   -20938 
  -20937   -21037   -21177   -21274   -21270   -21146   -20939   -20744 
  -20653   -20656   -20676   -20661   -20575   -20466   -20441   -20528 
  -20686   -20849   -20933   -20923   -20923   -21016   -21146   -21215 
  -21158   -21000   -20885   -20891   -20974   -21047   -20976   -20757 
  -20534   -20395   -20332   -20321   -20344   -20440   -20641   -20860 
  -20939   -20869   -20796   -20866   -21118   -21398   -21505   -21428 
  -21307   -21236   -21190   -21078   -20889   -20692   -20540   -20434 
  -20326   -20190   -20113   -20183   -20370   -20592   -20787   -20929 
  -21099   -21362   -21637   -21806   -21774   -21502   -21100   -20764 
  -20644   -20733   -20844   -20810   -20634   -20436   -20353   -20428 
  -20582   -20711   -20737   -20657   -20538   -20472   -20545   -20769 
  -21095   -21446   -21724   -21820   -21697   -21435   -21134   -20845 
  -20648   -20572   -20495   -20321   -20097   -19959   -20056   -20429 
  -20919   -21334   -21554   -21555   -21405   -21176   -20888   -20621 
  -20490   -20518   -20636   -20754   -20803   -20761   -20680   -20638 
  -20672   -20763   -20868   -20983   -21130   -21255   -21270   -21185 
  -21033   -20841   -20680   -20613   -20676   -20839   -20977   -20985 
  -20841   -20614   -20449   -20449   -20591   -20744   -20798   -20767 
  -20723   -20710   -20769   -20943   -21189   -21435   -21614   -21637 
  -21452   -21111   -20760   -20567   -20520   -20484   -20409   -20295 
  -20189   -20187   -20363   -20696   -21116   -21502   -21699   -21655 
  -21435   -21134   -20911   -20869   -20931   -20945   -20791   -20467 
  -20109   -19894   -19954   -20278   -20717   -21116   -21393   -21533 
  -21559   -21471   -21312   -21169   -21061   -20960   -20871   -20738 
  -20514   -20256   -20032   -19900   -19948   -20260   -20795   -21334 
  -21640   -21644   -21442   -21220   -21091   -21037   -20993   -20903 
  -20796   -20757   -20794   -20868   -20945   -20960   -20906   -20835 
  -20752   -20640   -20538   -20493   -20499   -20522   -20532   -20505 
  -20464   -20510   -20706   -20972   -21182   -21267   -21232   -21157 
  -21115   -21150   -21265   -21362   -21338   -21143   -20783   -20389 
  -20124   -20067   -20237   -20538   -20842   -21089   -21231   -21267 
  -21234   -21142   -21055   -21027   -20999   -20884   -20668   -20418 
  -20240   -20194   -20291   -20522   -20814   -21058   -21189   -21215 
  -21211   -21243   -21315   -21392   -21436   -21427   -21332   -21085 
  -20706   -20328   -20105   -20115   -20283   -20443   -20484   -20445 
  -20467   -20655   -20985   -21300   -21416   -21320   -21118   -20891 
  -20706   -20622   -20672   -20856   -21060   -21145   -21045   -20771 
  -20457   -20282   -20355   -20684   -21111   -21415   -21481   -21339 
  -21122   -20916   -20748   -20644   -20618   -20675   -20776   -20829 
  -20756   -20571   -20444   -20544   -20861   -21234   -21431   -21370 
  -21192   -21027   -20899   -20745   -20529   -20332   -20290   -20498 
  -20898   -21311   -21587   -21614   -21394   -21080   -20784   -20544 
  -20360   -20225   -20163   -20155   -20160   -20212   -20363   -20634 
  -20997   -21413   -21805   -22014   -21982   -21768   -21454   -21134 
  -20857   -20630   -20479   -20376   -20286   -20244   -20313   -20478 
  -20601   -20603   -20552   -20532   -20590   -20709   -20790   -20804 
  -20854   -21049   -21359   -21577   -21498   -21155   -20767   -20540 
  -20528   -20640   -20790   -20988   -21263   -21533   -21606   -21378 
  -20943   -20545   -20399   -20534   -20781   -20903   -20773   -20510 
  -20325   -20358   -20622   -20999   -21313   -21470   -21432   -21228 
  -20966   -20683   -20378   -20164   -20135   -20255   -20467   -20704 
  -20914   -21081   -21205   -21269   -21246   -21122   -20915   -20744 
  -20745   -20895   -21057   -21105   -20973   -20741   -20559   -20487 
  -20461   -20418   -20395   -20468   -20668   -20931   -21127   -21216 
  -21259   -21331   -21433   -21435   -21267   -21028   -20829   -20745 
  -20761   -20800   -20799   -20749   -20700   -20718   -20825   -20953 
  -20996   -20914   -20719   -20480   -20349   -20420   -20652   -20912 
  -21055   -21062   -20989   -20904   -20884   -20953   -21055   -21099 
  -21010   -20823   -20652   -20623   -20790   -21031   -21163   -21096 
  -20865   -20599   -20417   -20345   -20366   -20472   -20638   -20827 
  -21015   -21166   -21258   -21266   -21180   -21028   -20857   -20699 
  -20575   -20495   -20518   -20690   -20969   -21250   -21397   -21317 
  -21074   -20826   -20695   -20698   -20745   -20730   -20648   -20587 
  -20634   -20823   -21081   -21262   -21294   -21184   -20973   -20772 
  -20638   -20536   -20464   -20448   -20468   -20524   -20578   -20567 
  -20556   -20671   -20930   -21238   -21436   -21433   -21313   -21231 
  -21270   -21374   -21385   -21215   -20938   -20694   -20540   -20394 
  -20187   -19985   -19942   -20163   -20555   -20885   -21035   -21100 
  -21251   -21508   -21687   -21616   -21300   -20927   -20650   -20518 
  -20525   -20611   -20692   -20740   -20777   -20844   -20896   -20888 
  -20857   -20819   -20760   -20676   -20529   -20322   -20162   -20181 
  -20451   -20866   -21209   -21370   -21338   -21196   -21119   -21186 
  -21317   -21425   -21489   -21485   -21358   -21033   -20528   -20050 
  -19843   -19986   -20367   -20775   -21046   -21149   -21124   -21037 
  -20964   -20956   -20979   -20969   -20914   -20845   -20829   -20880 
  -20918   -20892   -20811   -20669   -20544   -20542   -20679   -20893 
  -21055   -21058   -20930   -20765   -20656   -20650   -20744   -20881 
  -20943   -20880   -20772   -20696   -20673   -20672   -20675   -20748 
  -20900   -21064   -21162   -21119   -20964   -20829   -20771   -20754 
  -20740   -20730   -20741   -20779   -20866   -21042   -21292   -21493 
  -21498   -21211   -20687   -20170   -19901   -20012   -20456   -20980 
  -21307   -21334   -21166   -21015   -21031   -21236   -21504   -21625 
  -21481   -21095   -20599   -20181   -19971   -19954   -20025   -20147 
  -20349   -20653   -21011   -21286   -21390   -21354   -21253   -21147 
  -21031   -20877   -20742   -20718   -20834   -20991   -21026   -20864 
  -20572   -20348   -20363   -20583   -20862   -21068   -21149   -21155 
  -21128   -21053   -20943   -20818   -20679   -20561   -20542   -20679 
  -20900   -21020   -20937   -20756   -20641   -20695   -20883   -21054 
  -21099   -21045   -20974   -20920   -20865   -20819   -20835   -20919 
  -21022   -21069   -21020   -20929   -20866   -20835   -20800   -20729 
  -20617   -20503   -20422   -20401   -20476   -20686   -20992   -21293 
  -21470   -21442   -21231   -20952   -20726   -20592   -20529   -20567 
  -20721   -20891   -20964   -20904   -20752   -20588   -20486   -20484 
  -20591   -20798   -21062   -21307   -21431   -21355   -21130   -20900 
  -20768   -20756   -20826   -20902   -20914   -20844   -20763   -20714 
  -20690   -20691   -20698   -20703   -20749   -20845   -20956   -21023 
  -20991   -20852   -20684   -20578   -20563   -20636   -20773   -20953 
  -21169   -21382   -21506   -21473   -21290   -21024   -20777   -20637 
  -20580   -20534   -20470   -20367   -20250   -20233   -20387   -20646 
  -20888   -21004   -20972   -20902   -20933   -21105   -21319   -21405 
  -21294   -21076   -20885   -20787   -20729   -20665   -20619   -20610 
  -20659   -20768   -20858   -20884   -20884   -20877   -20858   -20823 
  -20817   -20908   -21070   -21217   -21262   -21135   -20862   -20574 
  -20426   -20499   -20713   -20916   -21018   -21010   -20941   -20854 
  -20771   -20704   -20690   -20738   -20803   -20835   -20826   -20784 
  -20776   -20854   -20995   -21111   -21109   -20991   -20862   -20829 
  -20925   -21062   -21100   -21014   -20877   -20730   -20610   -20559 
  -20556   -20557   -20564   -20586   -20633   -20679   -20719   -20796 
  -20904   -21030   -21157   -21239   -21254   -21190   -21084   -21014 
  -20984   -20935   -20822   -20669   -20564   -20559   -20623   -20696 
  -20771   -20884   -21020   -21108   -21095   -20972   -20795   -20665 
  -20640   -20655   -20652   -20660   -20691   -20746   -20844   -20946 
  -20981   -20920   -20807   -20725   -20750   -20912   -21149   -21339 
  -21384   -21273   -21085   -20906   -20777   -20719   -20690   -20656 
  -20634   -20611   -20557   -20503   -20495   -20578   -20718   -20830 
  -20923   -21038   -21170   -21290   -21357   -21335   -21222   -21037 
  -20807   -20582   -20440   -20456   -20648   -20900   -21045   -21047 
  -20991   -20923   -20841   -20769   -20731   -20746   -20802   -20822 
  -20733   -20580   -20490   -20534   -20684   -20830   -20895   -20943 
  -21008   -21030   -20991   -20903   -20837   -20891   -21028   -21115 
  -21051   -20856   -20677   -20644   -20700   -20718   -20672   -20648 
  -20673   -20721   -20784   -20866   -20972   -21134   -21315   -21369 
  -21217   -20942   -20672   -20518   -20530   -20688   -20912   -21089 
  -21108   -20935   -20687   -20510   -20476   -20590   -20781   -20961 
