Origin Time       2025/03/30 22:55:00
Lat.              41.993
Long.             142.725
Depth. (km)       55
Mag.              4.6
Station Code      IWT001
Station Lat.      40.4101
Station Long.     141.7193
Station Height(m) 14
Record Time       2025/03/30 22:56:51
Sampling Freq(Hz) 100Hz
Duration Time(s)  60
Dir.              E-W
Scale Factor      7845(gal)/8223790
Max. Acc. (gal)   1.461
Last Correction   2025/03/30 22:56:51
Memo.             
[...]
   -4946    -4951    -5023    -5100    -5101    -5058    -5036    -5055 
   -5078    -5059    -4966    -4826    -4729    -4722    -4789    -4885 
   -4962    -5012    -5049    -5073    -5063    -5009    -4924    -4853 
   -4847    -4901    -4942    -4939    -4946    -4988    -5026    -5030 
   -5027    -5027    -5028    -5054    -5084    -5051    -4945    -4819 
   -4743    -4726    -4731    -4770    -4868    -4990    -5097    -5146 
   -5098    -5001    -4963    -5003    -5049    -5042    -4985    -4932 
   -4928    -4963    -4981    -4923    -4814    -4753    -4820    -4978 
   -5096    -5112    -5067    -5012    -4978    -4982    -4982    -4926 
   -4831    -4774    -4800    -4876    -4941    -4982    -5031    -5097 
   -5174    -5219    -5177    -5040    -4896    -4826    -4818    -4814 
   -4785    -4753    -4773    -4864    -4966    -5022    -5034    -5050 
   -5104    -5161    -5162    -5117    -5066    -4988    -4882    -4803 
   -4768    -4746    -4734    -4756    -4819    -4911    -5004    -5082 
   -5139    -5154    -5140    -5131    -5104    -5046    -4977    -4901 
   -4824    -4766    -4746    -4774    -4826    -4869    -4911    -4958 
   -5000    -5047    -5103    -5107    -5034    -4957    -4930    -4958 
   -5003    -5011    -4989    -4978    -4996    -5036    -5062    -5030 
   -4957    -4909    -4900    -4868    -4785    -4723    -4752    -4868 
   -4990    -5031    -4997    -4985    -5049    -5157    -5215    -5161 
   -5049    -4961    -4916    -4895    -4869    -4837    -4793    -4739 
   -4712    -4738    -4818    -4946    -5067    -5124    -5127    -5128 
   -5165    -5189    -5128    -4989    -4861    -4818    -4873    -4970 
   -5013    -4953    -4858    -4827    -4864    -4904    -4915    -4919 
   -4945    -4950    -4903    -4853    -4845    -4895    -5001    -5117 
   -5190    -5205    -5175    -5150    -5154    -5138    -5059    -4931 
   -4785    -4672    -4630    -4658    -4720    -4785    -4841    -4892 
   -4941    -4985    -5039    -5112    -5177    -5198    -5169    -5093 
   -5008    -4959    -4923    -4864    -4820    -4827    -4866    -4901 
   -4928    -4961    -4993    -5000    -4974    -4939    -4926    -4935 
   -4950    -4957    -4934    -4885    -4855    -4889    -4965    -5039 
   -5097    -5119    -5113    -5098    -5050    -4961    -4888    -4862 
   -4854    -4843    -4857    -4900    -4932    -4923    -4896    -4897 
   -4953    -5059    -5189    -5265    -5202    -5040    -4892    -4807 
   -4783    -4804    -4855    -4924    -4973    -4957    -4876    -4807 
   -4833    -4969    -5157    -5269    -5208    -5026    -4855    -4793 
   -4833    -4876    -4866    -4842    -4865    -4962    -5100    -5179 
   -5140    -5036    -4963    -4939    -4912    -4847    -4780    -4766 
   -4819    -4897    -4949    -4941    -4909    -4936    -5027    -5121 
   -5182    -5198    -5169    -5088    -4968    -4866    -4827    -4819 
   -4818    -4824    -4826    -4839    -4905    -5001    -5062    -5065 
   -5046    -5050    -5071    -5062    -5000    -4896    -4788    -4764 
   -4868    -5023    -5128    -5150    -5089    -5004    -4950    -4914 
   -4860    -4801    -4784    -4837    -4919    -4949    -4918    -4896 
   -4924    -5003    -5086    -5108    -5057    -5000    -5009    -5054 
   -5043    -4968    -4889    -4834    -4807    -4827    -4912    -5036 
   -5117    -5085    -4959    -4833    -4789    -4853    -4955    -5015 
   -4993    -4912    -4860    -4905    -5005    -5065    -5054    -5000 
   -4951    -4945    -4970    -4999    -5030    -5038    -4999    -4942 
   -4885    -4846    -4869    -4931    -4977    -4980    -4934    -4877 
   -4889    -4988    -5093    -5115    -5043    -4957    -4928    -4947 
   -4970    -4984    -4985    -4968    -4932    -4895    -4874    -4882 
   -4918    -4958    -4963    -4915    -4864    -4887    -4973    -5032 
   -5004    -4928    -4903    -4970    -5073    -5107    -5034    -4922 
   -4864    -4885    -4924    -4926    -4911    -4939    -5023    -5084 
   -5053    -4962    -4885    -4872    -4922    -4969    -4954    -4909 
   -4912    -4973    -5034    -5039    -4986    -4922    -4896    -4928 
   -4993    -5019    -4959    -4866    -4824    -4843    -4901    -5004 
   -5107    -5159    -5144    -5076    -5009    -4953    -4880    -4837 
   -4862    -4919    -4959    -4970    -4959    -4934    -4905    -4897 
   -4918    -4957    -4996    -5020    -5015    -4974    -4914    -4873 
   -4865    -4893    -4962    -5057    -5162    -5240    -5225    -5108 
   -4949    -4833    -4816    -4851    -4830    -4742    -4699    -4758 
   -4874    -4962    -4963    -4899    -4884    -5013    -5224    -5356 
   -5316    -5154    -4992    -4897    -4855    -4841    -4847    -4872 
   -4919    -4977    -4997    -4957    -4892    -4851    -4846    -4853 
   -4851    -4846    -4839    -4839    -4876    -4969    -5086    -5169 
   -5174    -5132    -5097    -5089    -5100    -5093    -5024    -4907 
   -4807    -4757    -4749    -4760    -4756    -4739    -4758    -4838 
   -4965    -5098    -5185    -5217    -5212    -5143    -5017    -4920 
   -4904    -4951    -5011    -5023    -4965    -4877    -4838    -4877 
   -4951    -4981    -4936    -4869    -4831    -4824    -4862    -4945 
   -5011    -5038    -5055    -5076    -5094    -5121    -5143    -5124 
   -5043    -4923    -4828    -4793    -4789    -4770    -4733    -4692 
   -4693    -4806    -5001    -5159    -5206    -5157    -5085    -5058 
   -5053    -5050    -5059    -5054    -5000    -4884    -4725    -4611 
   -4631    -4761    -4926    -5057    -5117    -5128    -5131    -5143 
   -5134    -5071    -4981    -4919    -4919    -4958    -4993    -5013 
   -5016    -4984    -4930    -4900    -4922    -4951    -4935    -4847 
   -4702    -4571    -4557    -4665    -4797    -4901    -5007    -5131 
   -5238    -5275    -5242    -5209    -5240    -5304    -5331    -5260 
   -5070    -4837    -4681    -4622    -4591    -4573    -4639    -4806 
   -4986    -5084    -5057    -4907    -4723    -4669    -4818    -5047 
   -5193    -5227    -5193    -5125    -5070    -5065    -5093    -5093 
   -5043    -4997    -4970    -4924    -4858    -4807    -4812    -4853 
   -4857    -4826    -4801    -4792    -4827    -4888    -4904    -4861 
   -4785    -4731    -4772    -4946    -5211    -5447    -5537    -5467 
   -5312    -5148    -4985    -4827    -4737    -4752    -4845    -4958 
   -5000    -4915    -4774    -4699    -4742    -4854    -4958    -5017 
   -5030    -5017    -5019    -5035    -5040    -5007    -4924    -4830 
   -4793    -4858    -5000    -5130    -5197    -5189    -5117    -5032 
   -4981    -4958    -4905    -4788    -4660    -4599    -4634    -4753 
   -4905    -5049    -5163    -5216    -5206    -5159    -5073    -4963 
   -4868    -4800    -4780    -4800    -4826    -4851    -4903    -4981 
   -5063    -5123    -5173    -5246    -5333    -5373    -5286    -5076 
   -4827    -4635    -4549    -4577    -4669    -4723    -4719    -4738 
   -4816    -4900    -4945    -4955    -4981    -5059    -5155    -5197 
   -5154    -5053    -4955    -4907    -4907    -4930    -4951    -4980 
   -5030    -5107    -5193    -5238    -5205    -5098    -4930    -4787 
   -4774    -4873    -4968    -4966    -4874    -4797    -4808    -4847 
   -4830    -4741    -4646    -4637    -4739    -4888    -5023    -5121 
   -5193    -5289    -5406    -5487    -5497    -5422    -5259    -5046 
   -4823    -4611    -4465    -4457    -4568    -4707    -4777    -4742 
   -4680    -4710    -4868    -5113    -5354    -5485    -5475    -5351 
   -5165    -4988    -4858    -4756    -4673    -4621    -4608    -4660 
   -4797    -4995    -5193    -5321    -5321    -5204    -5019    -4795 
   -4599    -4540    -4642    -4853    -5080    -5223    -5248    -5211 
   -5205    -5281    -5364    -5317    -5112    -4882    -4760    -4752 
   -4803    -4845    -4826    -4756    -4679    -4623    -4629    -4700 
   -4806    -4915    -4985    -4976    -4905    -4830    -4803    -4873 
   -5042    -5251    -5437    -5570    -5605    -5490    -5258    -5012 
   -4838    -4722    -4594    -4440    -4317    -4252    -4272    -4407 
   -4626    -4874    -5100    -5238    -5296    -5348    -5428    -5528 
   -5589    -5494    -5209    -4862    -4634    -4608    -4718    -4835 
   -4881    -4870    -4889    -4969    -5049    -5088    -5112    -5124 
   -5069    -4905    -4699    -4614    -4741    -4973    -5151    -5219 
   -5221    -5233    -5250    -5193    -5023    -4792    -4607    -4518 
   -4507    -4564    -4669    -4799    -4962    -5174    -5385    -5493 
   -5455    -5351    -5271    -5204    -5085    -4891    -4619    -4284 
   -3975    -3835    -3921    -4190    -4577    -5012    -5418    -5740 
   -5946    -6042    -6030    -5873    -5562    -5148    -4753    -4513 
   -4436    -4438    -4498    -4648    -4884    -5130    -5240    -5151 
   -4986    -4888    -4868    -4876    -4834    -4684    -4519    -4490 
   -4617    -4804    -4970    -5121    -5304    -5499    -5647    -5719 
   -5721    -5641    -5444    -5073    -4526    -3974    -3613    -3519 
   -3673    -3998    -4378    -4735    -5047    -5362    -5717    -6026 
   -6203    -6243    -6150    -5940    -5624    -5223    -4800    -4430 
   -4186    -4136    -4267    -4457    -4575    -4567    -4488    -4425 
   -4442    -4556    -4735    -4992    -5319    -5605    -5778    -5840 
   -5800    -5668    -5467    -5196    -4870    -4533    -4221    -3975 
   -3854    -3900    -4113    -4444    -4849    -5300    -5698    -5911 
   -5913    -5790    -5653    -5556    -5437    -5220    -4934    -4681 
   -4531    -4483    -4469    -4425    -4374    -4390    -4519    -4720 
   -4881    -4943    -4951    -4988    -5073    -5165    -5216    -5254 
   -5348    -5508    -5634    -5632    -5499    -5320    -5154    -4954 
   -4688    -4422    -4243    -4180    -4206    -4247    -4275    -4314 
   -4410    -4650    -5049    -5470    -5765    -5879    -5840    -5724 
   -5595    -5479    -5393    -5306    -5170    -4954    -4615    -4171 
   -3775    -3604    -3726    -4086    -4544    -4947    -5235    -5439 
   -5594    -5671    -5629    -5478    -5306    -5224    -5232    -5259 
   -5282    -5266    -5144    -4918    -4662    -4460    -4345    -4318 
   -4388    -4529    -4677    -4797    -4901    -4988    -5034    -5080 
   -5215    -5400    -5505    -5483    -5368    -5239    -5165    -5125 
   -5043    -4870    -4627    -4411    -4326    -4376    -4499    -4652 
   -4841    -5066    -5279    -5429    -5499    -5479    -5393    -5269 
   -5101    -4896    -4675    -4471    -4324    -4295    -4461    -4800 
   -5173    -5409    -5429    -5302    -5127    -4932    -4752    -4646 
   -4592    -4565    -4623    -4795    -5016    -5205    -5323    -5378 
   -5379    -5325    -5256    -5223    -5212    -5167    -5044    -4858 
   -4679    -4581    -4607    -4761    -4968    -5115    -5157    -5103 
   -4993    -4887    -4811    -4770    -4769    -4765    -4737    -4738 
   -4781    -4846    -4963    -5151    -5363    -5532    -5591    -5530 
   -5367    -5136    -4892    -4634    -4340    -4058    -3890    -3900 
   -4082    -4396    -4839    -5344    -5751    -5931    -5887    -5699 
   -5482    -5286    -5069    -4796    -4502    -4290    -4276    -4482 
   -4812    -5148    -5414    -5591    -5679    -5621    -5324    -4831 
   -4382    -4170    -4195    -4340    -4484    -4637    -4903    -5274 
   -5571    -5636    -5475    -5229    -5047    -4981    -5004    -5053 
   -5055    -4943    -4695    -4394    -4190    -4217    -4510    -4928 
   -5265    -5433    -5514    -5625    -5763    -5769    -5549    -5209 
   -4896    -4645    -4426    -4257    -4220    -4353    -4588    -4823 
   -5008    -5155    -5275    -5343    -5317    -5179    -4993    -4889 
   -4947    -5078    -5116    -4982    -4766    -4595    -4486    -4378 
   -4305    -4399    -4720    -5130    -5424    -5536    -5533    -5460 
   -5313    -5125    -4974    -4914    -4934    -4951    -4904    -4814 
   -4753    -4810    -5026    -5279    -5390    -5282    -5034    -4792 
   -4607    -4453    -4369    -4421    -4607    -4858    -5074    -5201 
   -5231    -5167    -5082    -5089    -5208    -5321    -5289    -5093 
   -4864    -4756    -4818    -4958    -5062    -5090    -5031    -4891 
   -4725    -4615    -4637    -4773    -4909    -4984    -5046    -5142 
   -5281    -5454    -5575    -5508    -5219    -4838    -4531    -4322 
   -4166    -4094    -4156    -4309    -4494    -4703    -4945    -5200 
   -5459    -5737    -5994    -6129    -6042    -5717    -5233    -4707 
   -4266    -4012    -3940    -3979    -4072    -4217    -4446    -4787 
   -5200    -5583    -5815    -5838    -5692    -5464    -5273    -5174 
   -5088    -4935    -4749    -4648    -4731    -4942    -5105    -5128 
   -5062    -5011    -5044    -5138    -5165    -5036    -4800    -4585 
   -4479    -4465    -4468    -4461    -4509    -4669    -4947    -5301 
   -5620    -5779    -5746    -5572    -5313    -4984    -4608    -4280 
   -4089    -4051    -4153    -4368    -4664    -4989    -5316    -5653 
   -5927    -6012    -5872    -5570    -5205    -4870    -4596    -4394 
   -4260    -4176    -4139    -4216    -4487    -4891    -5244    -5424 
   -5425    -5336    -5266    -5260    -5302    -5360    -5381    -5309 
   -5181    -5063    -4963    -4880    -4823    -4776    -4718    -4656 
   -4646    -4739    -4865    -4873    -4715    -4491    -4336    -4336 
   -4483    -4745    -5096    -5485    -5849    -6134    -6261    -6174 
   -5879    -5382    -4733    -4068    -3589    -3426    -3554    -3834 
   -4156    -4490    -4850    -5269    -5729    -6126    -6315    -6222 
   -5899    -5456    -5020    -4699    -4504    -4403    -4371    -4363 
   -4330    -4275    -4271    -4411    -4703    -5059    -5389    -5625 
   -5745    -5782    -5764    -5668    -5483    -5240    -4997    -4814 
   -4684    -4575    -4503    -4496    -4527    -4571    -4630    -4681 
   -4715    -4785    -4915    -5057    -5152    -5170    -5115    -5019 
   -4946    -4966    -5067    -5194    -5319    -5377    -5297    -5109 
   -4897    -4734    -4664    -4653    -4664    -4679    -4677    -4669 
   -4725    -4900    -5151    -5363    -5443    -5347    -5140    -4970 
   -4932    -4978    -5001    -4966    -4928    -4938    -4966    -4945 
   -4846    -4726    -4648    -4606    -4569    -4540    -4557    -4689 
   -4957    -5273    -5516    -5643    -5680    -5649    -5547    -5387 
   -5188    -4968    -4742    -4526    -4344    -4194    -4086    -4070 
   -4155    -4321    -4627    -5097    -5572    -5859    -5896    -5772 
   -5634    -5582    -5594    -5506    -5171    -4669    -4260    -4102 
   -4158    -4340    -4561    -4747    -4896    -5027    -5147    -5251 
   -5293    -5233    -5109    -4978    -4870    -4816    -4822    -4862 
   -4939    -5054    -5159    -5196    -5123    -4962    -4803    -4706 
   -4684    -4708    -4726    -4750    -4823    -4922    -4974    -4961 
   -4969    -5074    -5238    -5355    -5358    -5279    -5235    -5263 
   -5275    -5179    -4978    -4743    -4540    -4386    -4291    -4280 
   -4380    -4595    -4888    -5216    -5537    -5783    -5877    -5795 
   -5562    -5251    -4932    -4633    -4356    -4113    -3962    -3990 
   -4237    -4646    -5065    -5354    -5517    -5644    -5772    -5832 
   -5707    -5385    -4996    -4708    -4598    -4594    -4558    -4457 
   -4360    -4318    -4368    -4554    -4872    -5244    -5539    -5630 
   -5510    -5266    -4993    -4795    -4720    -4745    -4799    -4843 
   -4878    -4897    -4881    -4853    -4895    -5069    -5333    -5539 
   -5537    -5290    -4888    -4511    -4322    -4356    -4536    -4766 
   -5000    -5216    -5375    -5439    -5406    -5297    -5143    -4984 
   -4822    -4650    -4510    -4469    -4549    -4688    -4815    -4935 
   -5089    -5250    -5350    -5340    -5236    -5116    -5038    -5001 
   -4985    -4932    -4814    -4707    -4714    -4801    -4846    -4819 
   -4826    -4934    -5108    -5267    -5343    -5293    -5136    -4916 
   -4666    -4467    -4423    -4588    -4884    -5161    -5340    -5445 
   -5471    -5377    -5193    -4966    -4741    -4617    -4665    -4803 
   -4873    -4810    -4685    -4625    -4679    -4800    -4919    -5017 
   -5125    -5240    -5306    -5282    -5194    -5117    -5050    -4916 
   -4715    -4556    -4536    -4662    -4864    -5057    -5192    -5250 
   -5255    -5275    -5336    -5394    -5404    -5350    -5211    -4996 
   -4770    -4604    -4519    -4463    -4369    -4267    -4252    -4374 
   -4580    -4828    -5094    -5319    -5448    -5475    -5433    -5379 
   -5336    -5290    -5239    -5157    -5019    -4865    -4731    -4606 
   -4472    -4374    -4406    -4608    -4896    -5142    -5262    -5270 
   -5224    -5157    -5078    -5013    -4977    -4973    -4996    -5016 
   -5017    -5011    -4992    -4950    -4872    -4780    -4768    -4888 
   -5062    -5175    -5182    -5097    -4949    -4780    -4656    -4621 
   -4672    -4776    -4880    -4943    -4968    -4982    -5000    -5030 
   -5096    -5213    -5362    -5483    -5517    -5448    -5301    -5104 
   -4865    -4576    -4305    -4164    -4186    -4298    -4425    -4556 
   -4753    -5031    -5317    -5541    -5660    -5655    -5541    -5378 
   -5215    -5054    -4897    -4795    -4766    -4752    -4695    -4650 
   -4706    -4824    -4891    -4877    -4843    -4864    -4968    -5116 
   -5221    -5225    -5139    -5036    -4941    -4835    -4764    -4764 
   -4785    -4770    -4695    -4573    -4510    -4606    -4868    -5190 
   -5422    -5498    -5475    -5428    -5394    -5373    -5301    -5116 
   -4847    -4604    -4448    -4388    -4437    -4561    -4706    -4845 
   -4976    -5088    -5166    -5209    -5263    -5337    -5371    -5331 
   -5221    -5054    -4870    -4738    -4687    -4692    -4735    -4822 
   -4905    -4923    -4876    -4830    -4826    -4860    -4932    -5039 
   -5121    -5130    -5096    -5078    -5073    -5066    -5069    -5047 
   -4951    -4780    -4602    -4530    -4600    -4720    -4815    -4888 
   -4947    -5003    -5078    -5150    -5186    -5208    -5247    -5283 
   -5259    -5184    -5100    -5011    -4915    -4816    -4726    -4683 
   -4695    -4741    -4792    -4819    -4846    -4957    -5148    -5304 
   -5319    -5194    -4990    -4785    -4634    -4567    -4610    -4764 
   -4969    -5181    -5362    -5459    -5464    -5413    -5325    -5200 
   -5028    -4820    -4626    -4509    -4484    -4480    -4432    -4390 
   -4428    -4560    -4749    -4932    -5098    -5281    -5472    -5605 
   -5603    -5448    -5201    -4972    -4835    -4792    -4788    -4774 
   -4738    -4706    -4691    -4668    -4650    -4687    -4788    -4924 
   -5050    -5150    -5251    -5370    -5463    -5467    -5390    -5292 
   -5202    -5105    -4985    -4837    -4668    -4531    -4486    -4518 
   -4595    -4730    -4920    -5093    -5208    -5287    -5319    -5254 
   -5123    -5019    -4972    -4920    -4826    -4719    -4662    -4698 
   -4815    -4959    -5039    -4990    -4891    -4858    -4881    -4888 
   -4877    -4891    -4945    -5007    -5036    -5042    -5044    -5062 
   -5107    -5175    -5247    -5274    -5202    -5016    -4762    -4548 
   -4488    -4596    -4752    -4819    -4793    -4779    -4862    -5035 
   -5208    -5304    -5344    -5383    -5389    -5273    -5024    -4753 
