Origin Time       2025/03/29 04:45:00
Lat.              31.090
Long.             131.512
Depth. (km)       33
Mag.              4.6
Station Code      KGSH06
Station Lat.      31.6988
Station Long.     130.4594
Station Height(m) 131.07
Record Time       2025/03/29 04:45:49
Sampling Freq(Hz) 100Hz
Duration Time(s)  120
Dir.              5
Scale Factor      3920(gal)/6170801
Max. Acc. (gal)   0.894
Last Correction   2025/03/29 04:45:34
Memo.             
[...]
   -7902    -8009    -8129    -8219    -8225    -8143    -8017    -7887 
   -7776    -7698    -7653    -7639    -7678    -7789    -7967    -8170 
   -8339    -8421    -8384    -8228    -7995    -7756    -7590    -7560 
   -7674    -7878    -8085    -8218    -8243    -8174    -8037    -7873 
   -7737    -7672    -7699    -7802    -7940    -8080    -8190    -8238 
   -8215    -8137    -8025    -7905    -7787    -7689    -7651    -7690 
   -7777    -7883    -7976    -8028    -8032    -8000    -7955    -7917 
   -7913    -7965    -8055    -8130    -8166    -8166    -8122    -8037 
   -7937    -7855    -7833    -7875    -7958    -8054    -8125    -8134 
   -8074    -7976    -7887    -7842    -7837    -7836    -7803    -7745 
   -7707    -7714    -7767    -7861    -7980    -8106    -8215    -8278 
   -8267    -8175    -8020    -7849    -7723    -7690    -7766    -7937 
   -8145    -8313    -8382    -8328    -8174    -7977    -7803    -7703 
   -7681    -7704    -7733    -7751    -7758    -7765    -7796    -7859 
   -7947    -8051    -8128    -8124    -8050    -7958    -7899    -7900 
   -7962    -8051    -8121    -8127    -8056    -7951    -7871    -7868 
   -7958    -8103    -8222    -8257    -8179    -7993    -7762    -7588 
   -7549    -7664    -7883    -8119    -8293    -8350    -8288    -8132 
   -7921    -7723    -7604    -7579    -7631    -7741    -7873    -7980 
   -8038    -8057    -8052    -8044    -8063    -8103    -8120    -8092 
   -8020    -7913    -7788    -7678    -7614    -7618    -7713    -7889 
   -8083    -8230    -8295    -8269    -8173    -8050    -7945    -7889 
   -7888    -7924    -7966    -7981    -7959    -7907    -7837    -7777 
   -7767    -7812    -7897    -7989    -8047    -8054    -8020    -7962 
   -7906    -7869    -7848    -7831    -7810    -7799    -7829    -7928 
   -8091    -8272    -8398    -8412    -8309    -8132    -7938    -7795 
   -7748    -7789    -7890    -8010    -8094    -8107    -8061    -7981 
   -7898    -7850    -7850    -7883    -7919    -7934    -7926    -7927 
   -7955    -7986    -7992    -7964    -7906    -7839    -7805    -7835 
   -7917    -8019    -8105    -8133    -8100    -8055    -8047    -8088 
   -8161    -8212    -8184    -8066    -7892    -7720    -7607    -7590 
   -7670    -7816    -7976    -8104    -8172    -8178    -8147    -8099 
   -8039    -7971    -7902    -7832    -7784    -7793    -7864    -7967 
   -8043    -8040    -7948    -7812    -7695    -7641    -7665    -7759 
   -7899    -8049    -8185    -8297    -8372    -8393    -8361    -8275 
   -8132    -7959    -7801    -7695    -7659    -7696    -7788    -7896 
   -7979    -8011    -7990    -7933    -7866    -7819    -7802    -7807 
   -7832    -7860    -7871    -7862    -7835    -7794    -7753    -7725 
   -7726    -7774    -7877    -8034    -8226    -8412    -8531    -8539 
   -8428    -8225    -7985    -7781    -7680    -7705    -7827    -7985 
   -8118    -8169    -8117    -7987    -7826    -7682    -7598    -7593 
   -7648    -7752    -7893    -8037    -8141    -8177    -8141    -8040 
   -7906    -7787    -7717    -7720    -7811    -7964    -8144    -8316 
   -8436    -8467    -8401    -8249    -8050    -7852    -7691    -7597 
   -7592    -7669    -7804    -7956    -8076    -8137    -8128    -8053 
   -7936    -7808    -7701    -7661    -7700    -7793    -7914    -8017 
   -8060    -8035    -7965    -7889    -7852    -7878    -7966    -8088 
   -8199    -8255    -8238    -8154    -8025    -7896    -7812    -7785 
   -7797    -7827    -7861    -7901    -7948    -7990    -8017    -8015 
   -7984    -7947    -7925    -7925    -7948    -7985    -8015    -8023 
   -8007    -7975    -7943    -7927    -7926    -7945    -7965    -7958 
   -7931    -7908    -7910    -7960    -8065    -8198    -8299    -8316 
   -8234    -8076    -7895    -7764    -7731    -7802    -7951    -8106 
   -8196    -8190    -8072    -7861    -7641    -7492    -7449    -7528 
   -7708    -7934    -8153    -8315    -8385    -8356    -8237    -8048 
   -7832    -7638    -7506    -7468    -7539    -7716    -7974    -8252 
   -8474    -8590    -8572    -8431    -8219    -7985    -7779    -7643 
   -7585    -7595    -7650    -7725    -7812    -7893    -7954    -8007 
   -8066    -8115    -8135    -8116    -8057    -7966    -7857    -7771 
   -7737    -7744    -7799    -7915    -8071    -8222    -8334    -8372 
   -8309    -8148    -7925    -7699    -7528    -7454    -7492    -7618 
   -7778    -7928    -8045    -8131    -8196    -8254    -8299    -8299 
   -8220    -8064    -7863    -7675    -7560    -7563    -7685    -7883 
   -8093    -8245    -8287    -8221    -8098    -7956    -7829    -7745 
   -7696    -7670    -7680    -7724    -7801    -7912    -8023    -8099 
   -8136    -8126    -8068    -7987    -7920    -7887    -7890    -7928 
   -7994    -8068    -8130    -8173    -8199    -8202    -8170    -8100 
   -7995    -7876    -7787    -7748    -7756    -7811    -7907    -8020 
   -8116    -8168    -8183    -8183    -8166    -8127    -8074    -7993 
   -7877    -7745    -7638    -7598    -7642    -7773    -7959    -8137 
   -8261    -8312    -8280    -8176    -8029    -7876    -7761    -7698 
   -7685    -7716    -7773    -7839    -7915    -7990    -8046    -8080 
   -8092    -8084    -8062    -8024    -7972    -7923    -7878    -7831 
   -7795    -7773    -7764    -7776    -7811    -7866    -7938    -8008 
   -8056    -8072    -8048    -7999    -7952    -7918    -7906    -7927 
   -7966    -8008    -8042    -8062    -8080    -8100    -8098    -8062 
   -7993    -7895    -7784    -7692    -7652    -7683    -7771    -7895 
   -8029    -8127    -8154    -8117    -8049    -7982    -7941    -7931 
   -7940    -7958    -7983    -8003    -8006    -8002    -7990    -7965 
   -7933    -7915    -7918    -7945    -7995    -8047    -8087    -8110 
   -8104    -8060    -7989    -7917    -7861    -7839    -7852    -7871 
   -7864    -7823    -7776    -7756    -7784    -7866    -7984    -8099 
   -8175    -8195    -8157    -8067    -7951    -7848    -7782    -7765 
   -7801    -7883    -7982    -8065    -8117    -8142    -8143    -8120 
   -8086    -8058    -8024    -7979    -7941    -7908    -7876    -7857 
   -7857    -7874    -7900    -7930    -7961    -7988    -8008    -8013 
   -7991    -7938    -7871    -7815    -7797    -7828    -7899    -7980 
   -8041    -8062    -8025    -7954    -7882    -7818    -7783    -7794 
   -7835    -7878    -7915    -7944    -7962    -7967    -7971    -7978 
   -7977    -7970    -7963    -7960    -7961    -7955    -7936    -7915 
   -7894    -7888    -7917    -7993    -8110    -8241    -8345    -8385 
   -8342    -8223    -8068    -7937    -7860    -7836    -7855    -7906 
   -7957    -7980    -7975    -7949    -7902    -7837    -7774    -7732 
   -7718    -7746    -7823    -7941    -8078    -8207    -8290    -8301 
   -8248    -8150    -8038    -7957    -7928    -7929    -7946    -7970 
   -7978    -7954    -7916    -7872    -7829    -7809    -7818    -7843 
   -7872    -7893    -7895    -7884    -7877    -7883    -7901    -7921 
   -7928    -7920    -7905    -7884    -7878    -7915    -7994    -8094 
   -8189    -8236    -8209    -8123    -8014    -7910    -7837    -7816 
   -7843    -7902    -7970    -8015    -8018    -7984    -7927    -7868 
   -7831    -7832    -7868    -7917    -7952    -7958    -7933    -7883 
   -7826    -7782    -7768    -7798    -7870    -7963    -8049    -8106 
   -8119    -8078    -8005    -7924    -7863    -7853    -7879    -7913 
   -7948    -7985    -8019    -8046    -8058    -8060    -8059    -8041 
   -8012    -7982    -7945    -7906    -7878    -7864    -7866    -7889 
   -7931    -7982    -8024    -8051    -8076    -8104    -8119    -8117 
   -8096    -8049    -7970    -7872    -7783    -7727    -7722    -7776 
   -7883    -8017    -8150    -8250    -8286    -8241    -8120    -7959 
   -7794    -7661    -7606    -7644    -7751    -7896    -8047    -8166 
   -8232    -8241    -8200    -8121    -8026    -7939    -7877    -7851 
   -7869    -7926    -7998    -8075    -8143    -8176    -8158    -8090 
   -7982    -7856    -7748    -7682    -7674    -7722    -7805    -7899 
   -7978    -8024    -8047    -8060    -8059    -8040    -8006    -7956 
   -7890    -7817    -7755    -7725    -7729    -7771    -7858    -7966 
   -8060    -8127    -8158    -8150    -8124    -8101    -8075    -8040 
   -7995    -7939    -7889    -7871    -7891    -7950    -8040    -8136 
   -8201    -8198    -8115    -7977    -7822    -7686    -7605    -7600 
   -7672    -7798    -7938    -8054    -8119    -8123    -8071    -7978 
   -7873    -7779    -7707    -7668    -7668    -7709    -7794    -7919 
   -8067    -8212    -8328    -8396    -8402    -8337    -8213    -8065 
   -7931    -7831    -7780    -7786    -7832    -7895    -7961    -8014 
   -8040    -8027    -7978    -7910    -7838    -7771    -7719    -7697 
   -7709    -7752    -7837    -7968    -8113    -8231    -8301    -8295 
   -8200    -8036    -7841    -7655    -7522    -7474    -7525    -7664 
   -7849    -8033    -8176    -8258    -8271    -8219    -8118    -7997 
   -7874    -7762    -7687    -7680    -7746    -7863    -8004    -8136 
   -8213    -8210    -8145    -8053    -7954    -7882    -7869    -7912 
   -7981    -8057    -8130    -8185    -8210    -8201    -8170    -8130 
   -8080    -8022    -7967    -7920    -7882    -7854    -7836    -7839 
   -7863    -7902    -7949    -7998    -8039    -8060    -8063    -8046 
   -7999    -7920    -7827    -7736    -7663    -7629    -7651    -7718 
   -7803    -7894    -7991    -8082    -8150    -8187    -8189    -8146 
   -8063    -7966    -7890    -7863    -7890    -7960    -8054    -8144 
   -8200    -8198    -8136    -8024    -7887    -7766    -7690    -7673 
   -7711    -7782    -7865    -7940    -7983    -7995    -7998    -8006 
   -8025    -8070    -8139    -8195    -8209    -8171    -8084    -7951 
   -7806    -7695    -7641    -7653    -7736    -7866    -8006    -8125 
   -8197    -8204    -8147    -8044    -7921    -7803    -7720    -7689 
   -7709    -7767    -7845    -7926    -7986    -8017    -8013    -7964 
   -7880    -7794    -7733    -7718    -7754    -7834    -7944    -8057 
   -8146    -8198    -8193    -8135    -8065    -8006    -7967    -7977 
   -8033    -8097    -8147    -8172    -8158    -8112    -8051    -7988 
   -7938    -7903    -7876    -7864    -7870    -7882    -7894    -7907 
   -7920    -7927    -7931    -7940    -7956    -7981    -8015    -8054 
   -8084    -8080    -8023    -7921    -7807    -7717    -7681    -7722 
   -7833    -7979    -8128    -8244    -8290    -8251    -8136    -7981 
   -7829    -7711    -7643    -7630    -7669    -7754    -7866    -7982 
   -8089    -8173    -8214    -8200    -8141    -8058    -7977    -7917 
   -7885    -7877    -7876    -7875    -7871    -7862    -7859    -7879 
   -7924    -7986    -8042    -8078    -8090    -8074    -8044    -8019 
   -8010    -8019    -8035    -8040    -8028    -8003    -7966    -7928 
   -7913    -7917    -7930    -7958    -7995    -8019    -8022    -8006 
   -7982    -7955    -7919    -7883    -7856    -7837    -7822    -7806 
   -7790    -7782    -7789    -7822    -7883    -7958    -8029    -8071 
   -8070    -8021    -7931    -7836    -7783    -7793    -7859    -7963 
   -8070    -8143    -8169    -8156    -8105    -8027    -7946    -7874 
   -7808    -7748    -7696    -7659    -7652    -7684    -7759    -7866 
   -7974    -8048    -8067    -8028    -7947    -7857    -7792    -7765 
   -7776    -7819    -7881    -7941    -7976    -7972    -7936    -7884 
   -7838    -7811    -7807    -7840    -7913    -8002    -8098    -8201 
   -8285    -8335    -8353    -8342    -8315    -8290    -8275    -8269 
   -8266    -8253    -8232    -8211    -8189    -8183    -8194    -8207 
   -8214    -8205    -8167    -8108    -8040    -7957    -7871    -7792 
   -7724    -7683    -7679    -7693    -7709    -7715    -7707    -7701 
   -7710    -7737    -7786    -7844    -7898    -7942    -7960    -7954 
   -7940    -7928    -7939    -7981    -8045    -8127    -8208    -8260 
   -8277    -8267    -8233    -8188    -8150    -8134    -8137    -8153 
   -8175    -8195    -8201    -8192    -8176    -8155    -8138    -8121 
   -8092    -8055    -8026    -8005    -7979    -7946    -7893    -7802 
   -7668    -7507    -7347    -7215    -7131    -7121    -7186    -7313 
   -7478    -7647    -7796    -7903    -7958    -7967    -7954    -7937 
   -7934    -7961    -8021    -8111    -8228    -8349    -8459    -8543 
   -8575    -8539    -8432    -8269    -8077    -7890    -7746    -7668 
   -7648    -7676    -7738    -7803    -7858    -7907    -7939    -7952 
   -7964    -7982    -7999    -8020    -8040    -8041    -8024    -7992 
   -7938    -7863    -7768    -7677    -7622    -7609    -7638    -7711 
   -7811    -7922    -8022    -8089    -8118    -8109    -8058    -7971 
   -7875    -7792    -7742    -7741    -7786    -7866    -7972    -8076 
   -8149    -8174    -8135    -8022    -7853    -7667    -7501    -7373 
   -7307    -7320    -7399    -7520    -7670    -7828    -7975    -8094 
   -8177    -8227    -8252    -8262    -8256    -8222    -8157    -8061 
   -7935    -7802    -7698    -7640    -7645    -7729    -7884    -8078 
   -8275    -8448    -8564    -8593    -8536    -8423    -8269    -8090 
   -7921    -7777    -7650    -7557    -7515    -7511    -7532    -7583 
   -7648    -7708    -7752    -7775    -7770    -7733    -7668    -7596 
   -7540    -7523    -7555    -7635    -7757    -7908    -8073    -8248 
   -8432    -8619    -8811    -8999    -9172    -9306    -9365    -9326 
   -9191    -8966    -8684    -8406    -8178    -8024    -7954    -7952 
   -7985    -8017    -8023    -8004    -7973    -7943    -7928    -7942 
   -7981    -8038    -8097    -8144    -8174    -8178    -8142    -8072 
   -7981    -7880    -7783    -7700    -7631    -7582    -7557    -7563 
   -7604    -7678    -7774    -7882    -7965    -7988    -7954    -7884 
   -7798    -7725    -7689    -7700    -7754    -7830    -7916    -8012 
   -8100    -8179    -8266    -8354    -8419    -8445    -8425    -8348 
   -8209    -8030    -7846    -7692    -7590    -7547    -7554    -7596 
   -7659    -7725    -7780    -7818    -7822    -7768    -7655    -7502 
   -7325    -7149    -7011    -6927    -6897    -6922    -7002    -7121 
   -7259    -7395    -7517    -7619    -7698    -7757    -7807    -7860 
   -7928    -8016    -8117    -8221    -8309    -8362    -8367    -8310 
   -8199    -8045    -7873    -7736    -7669    -7694    -7823    -8016 
   -8218    -8390    -8490    -8497    -8434    -8325    -8196    -8077 
   -7993    -7952    -7936    -7928    -7918    -7895    -7863    -7844 
   -7843    -7853    -7866    -7864    -7837    -7792    -7739    -7698 
   -7690    -7718    -7779    -7868    -7975    -8093    -8208    -8308 
   -8398    -8473    -8522    -8533    -8488    -8378    -8212    -8011 
   -7815    -7663    -7595    -7653    -7843    -8134    -8478    -8811 
   -9058    -9186    -9178    -9035    -8810    -8571    -8372    -8260 
   -8246    -8305    -8403    -8484    -8502    -8457    -8355    -8206 
   -8043    -7889    -7733    -7578    -7440    -7324    -7237    -7204 
   -7228    -7296    -7395    -7510    -7610    -7665    -7673    -7659 
   -7646    -7653    -7694    -7767    -7854    -7934    -7984    -7997 
   -7987    -7968    -7955    -7955    -7961    -7964    -7966    -7967 
   -7965    -7968    -7992    -8041    -8105    -8169    -8220    -8244 
   -8226    -8160    -8051    -7916    -7773    -7635    -7516    -7433 
   -7392    -7389    -7418    -7469    -7530    -7590    -7639    -7683 
   -7732    -7777    -7804    -7829    -7867    -7916    -7990    -8101 
   -8233    -8371    -8505    -8612    -8673    -8681    -8624    -8506 
   -8345    -8160    -7982    -7847    -7778    -7792    -7886    -8028 
   -8193    -8352    -8468    -8531    -8537    -8472    -8348    -8195 
   -8028    -7868    -7748    -7670    -7622    -7587    -7553    -7492 
   -7383    -7233    -7063    -6899    -6782    -6750    -6820    -6977 
   -7190    -7437    -7687    -7902    -8068    -8187    -8252    -8262 
   -8244    -8225    -8219    -8234    -8288    -8390    -8523    -8655 
   -8762    -8821    -8814    -8740    -8616    -8470    -8328    -8212 
   -8129    -8077    -8034    -7983    -7920    -7841    -7745    -7640 
   -7541    -7461    -7408    -7379    -7376    -7398    -7435    -7483 
   -7552    -7645    -7757    -7889    -8033    -8165    -8262    -8312 
   -8313    -8264    -8172    -8061    -7955    -7878    -7847    -7861 
   -7918    -8006    -8094    -8146    -8146    -8084    -7963    -7818 
   -7689    -7596    -7555    -7570    -7632    -7729    -7846    -7964 
   -8060    -8112    -8110    -8072    -8019    -7961    -7914    -7902 
   -7926    -7980    -8064    -8167    -8255    -8308    -8321    -8296 
   -8240    -8169    -8105    -8066    -8056    -8067    -8093    -8119 
   -8133    -8129    -8116    -8102    -8093    -8096    -8109    -8132 
   -8155    -8165    -8164    -8151    -8124    -8103    -8091    -8069 
   -8039    -8002    -7955    -7906    -7869    -7862    -7890    -7938 
   -8001    -8071    -8127    -8154    -8139    -8073    -7969    -7847 
   -7733    -7657    -7643    -7694    -7796    -7920    -8041    -8141 
   -8206    -8230    -8215    -8169    -8094    -7993    -7890    -7811 
   -7769    -7774    -7822    -7903    -8001    -8079    -8119    -8132 
   -8120    -8087    -8047    -8005    -7965    -7924    -7882    -7846 
   -7820    -7797    -7781    -7773    -7756    -7712    -7643    -7557 
   -7459    -7360    -7276    -7215    -7184    -7193    -7248    -7347 
   -7486    -7647    -7804    -7929    -8002    -8019    -7990    -7952 
   -7937    -7951    -7989    -8055    -8127    -8178    -8204    -8211 
   -8202    -8189    -8180    -8176    -8172    -8161    -8140    -8107 
   -8061    -8003    -7939    -7872    -7804    -7747    -7705    -7685 
   -7689    -7714    -7758    -7813    -7865    -7913    -7955    -7997 
   -8046    -8106    -8171    -8228    -8277    -8313    -8330    -8333 
   -8325    -8294    -8237    -8173    -8116    -8063    -8013    -7981 
   -7961    -7935    -7908    -7881    -7839    -7781    -7712    -7638 
   -7565    -7500    -7466    -7486    -7563    -7684    -7841    -8012 
   -8171    -8304    -8401    -8451    -8455    -8421    -8355    -8265 
   -8166    -8071    -7992    -7935    -7904    -7900    -7920    -7949 
   -7968    -7977    -7973    -7947    -7907    -7862    -7815    -7768 
   -7717    -7658    -7603    -7567    -7553    -7580    -7659    -7784 
   -7940    -8111    -8271    -8396    -8469    -8491    -8478    -8439 
   -8388    -8342    -8305    -8271    -8242    -8216    -8186    -8159 
   -8141    -8128    -8115    -8094    -8066    -8042    -8017    -7979 
   -7938    -7894    -7845    -7802    -7766    -7740    -7731    -7733 
   -7750    -7796    -7859    -7926    -7995    -8055    -8094    -8108 
   -8099    -8066    -8015    -7962    -7918    -7889    -7890    -7927 
   -7987    -8060    -8130    -8182    -8207    -8197    -8159    -8111 
   -8054    -7991    -7939    -7896    -7854    -7823    -7811    -7809 
   -7816    -7835    -7861    -7892    -7925    -7950    -7968    -7976 
   -7966    -7949    -7938    -7926    -7914    -7903    -7879    -7840 
   -7784    -7715    -7647    -7581    -7514    -7456    -7415    -7385 
