Origin Time       2025/03/29 04:45:00
Lat.              31.090
Long.             131.512
Depth. (km)       33
Mag.              4.6
Station Code      KGSH09
Station Lat.      31.3741
Station Long.     130.4333
Station Height(m) 119.391
Record Time       2025/03/29 04:45:34
Sampling Freq(Hz) 100Hz
Duration Time(s)  120
Dir.              6
Scale Factor      7845(gal)/8223790
Max. Acc. (gal)   1.565
Last Correction   2025/03/29 04:45:34
Memo.             
[...]
   -8907    -8904    -8904    -8904    -8905    -8910    -8908    -8907 
   -8907    -8904    -8900    -8901    -8908    -8911    -8910    -8904 
   -8899    -8901    -8908    -8908    -8907    -8904    -8901    -8903 
   -8907    -8907    -8910    -8908    -8901    -8899    -8903    -8905 
   -8905    -8904    -8904    -8903    -8903    -8908    -8912    -8911 
   -8905    -8897    -8896    -8904    -8911    -8911    -8905    -8903 
   -8901    -8903    -8907    -8907    -8905    -8904    -8901    -8901 
   -8904    -8905    -8910    -8911    -8905    -8903    -8903    -8903 
   -8905    -8907    -8905    -8904    -8903    -8904    -8907    -8910 
   -8907    -8903    -8907    -8910    -8907    -8907    -8905    -8903 
   -8903    -8905    -8905    -8905    -8907    -8904    -8903    -8908 
   -8910    -8904    -8904    -8905    -8903    -8907    -8908    -8904 
   -8905    -8908    -8904    -8904    -8905    -8908    -8908    -8903 
   -8901    -8904    -8905    -8905    -8907    -8907    -8904    -8901 
   -8903    -8907    -8910    -8907    -8904    -8905    -8907    -8905 
   -8905    -8905    -8907    -8903    -8903    -8904    -8905    -8907 
   -8907    -8905    -8903    -8903    -8903    -8904    -8908    -8908 
   -8905    -8903    -8899    -8900    -8903    -8907    -8910    -8907 
   -8904    -8901    -8899    -8901    -8908    -8911    -8908    -8904 
   -8901    -8900    -8901    -8904    -8905    -8905    -8904    -8907 
   -8908    -8903    -8900    -8903    -8904    -8903    -8904    -8905 
   -8905    -8907    -8904    -8903    -8905    -8908    -8910    -8910 
   -8904    -8901    -8904    -8903    -8904    -8907    -8907    -8907 
   -8907    -8904    -8905    -8908    -8908    -8904    -8900    -8900 
   -8905    -8908    -8908    -8908    -8905    -8901    -8900    -8904 
   -8908    -8907    -8904    -8903    -8904    -8905    -8907    -8907 
   -8905    -8904    -8904    -8904    -8907    -8905    -8904    -8905 
   -8907    -8908    -8905    -8905    -8904    -8904    -8905    -8905 
   -8904    -8908    -8910    -8904    -8903    -8903    -8903    -8904 
   -8908    -8907    -8901    -8901    -8907    -8907    -8908    -8907 
   -8903    -8901    -8903    -8907    -8911    -8910    -8904    -8900 
   -8904    -8908    -8908    -8905    -8903    -8903    -8903    -8904 
   -8908    -8907    -8904    -8905    -8907    -8905    -8907    -8908 
   -8907    -8904    -8899    -8903    -8907    -8907    -8907    -8908 
   -8903    -8899    -8904    -8910    -8907    -8904    -8903    -8900 
   -8903    -8905    -8905    -8907    -8905    -8904    -8905    -8904 
   -8903    -8903    -8905    -8911    -8910    -8905    -8905    -8904 
   -8903    -8901    -8904    -8904    -8903    -8903    -8904    -8905 
   -8908    -8907    -8903    -8904    -8908    -8907    -8901    -8900 
   -8903    -8908    -8910    -8904    -8903    -8905    -8905    -8907 
   -8907    -8905    -8904    -8905    -8907    -8905    -8905    -8905 
   -8907    -8907    -8901    -8900    -8905    -8905    -8904    -8905 
   -8908    -8908    -8905    -8904    -8905    -8907    -8907    -8905 
   -8904    -8903    -8905    -8905    -8903    -8905    -8908    -8905 
   -8904    -8905    -8905    -8901    -8903    -8905    -8904    -8905 
   -8900    -8897    -8903    -8907    -8905    -8904    -8905    -8905 
   -8907    -8905    -8904    -8904    -8908    -8910    -8904    -8901 
   -8901    -8907    -8910    -8904    -8897    -8901    -8905    -8905 
   -8907    -8904    -8900    -8901    -8905    -8908    -8905    -8903 
   -8904    -8905    -8905    -8908    -8905    -8901    -8903    -8905 
   -8907    -8908    -8908    -8907    -8905    -8905    -8907    -8910 
   -8908    -8905    -8905    -8901    -8901    -8905    -8904    -8904 
   -8908    -8908    -8904    -8903    -8904    -8904    -8903    -8901 
   -8904    -8904    -8900    -8901    -8905    -8908    -8905    -8905 
   -8904    -8903    -8904    -8907    -8904    -8905    -8907    -8903 
   -8901    -8905    -8911    -8910    -8904    -8901    -8903    -8907 
   -8907    -8905    -8904    -8905    -8905    -8905    -8905    -8905 
   -8908    -8910    -8904    -8901    -8905    -8904    -8904    -8907 
   -8904    -8901    -8905    -8911    -8912    -8907    -8899    -8900 
   -8905    -8908    -8908    -8907    -8901    -8903    -8908    -8907 
   -8905    -8905    -8904    -8903    -8903    -8904    -8907    -8907 
   -8904    -8904    -8904    -8904    -8907    -8910    -8908    -8903 
   -8900    -8903    -8904    -8907    -8910    -8908    -8904    -8903 
   -8903    -8905    -8904    -8903    -8903    -8905    -8905    -8904 
   -8907    -8908    -8904    -8904    -8904    -8904    -8907    -8905 
   -8904    -8905    -8903    -8904    -8908    -8907    -8907    -8907 
   -8907    -8905    -8903    -8903    -8904    -8905    -8904    -8905 
   -8907    -8905    -8907    -8907    -8903    -8899    -8897    -8903 
   -8910    -8907    -8905    -8904    -8903    -8905    -8905    -8905 
   -8907    -8903    -8899    -8900    -8904    -8908    -8911    -8908 
   -8904    -8904    -8904    -8901    -8903    -8905    -8907    -8905 
   -8905    -8904    -8905    -8905    -8904    -8904    -8905    -8900 
   -8901    -8908    -8908    -8905    -8907    -8905    -8904    -8905 
   -8905    -8905    -8904    -8903    -8903    -8904    -8904    -8908 
   -8911    -8908    -8901    -8904    -8910    -8908    -8904    -8903 
   -8904    -8904    -8904    -8907    -8907    -8907    -8905    -8903 
   -8903    -8905    -8907    -8904    -8903    -8903    -8901    -8903 
   -8908    -8908    -8904    -8903    -8904    -8904    -8910    -8911 
   -8907    -8904    -8904    -8904    -8905    -8907    -8905    -8904 
   -8904    -8905    -8907    -8907    -8903    -8900    -8903    -8904 
   -8904    -8905    -8907    -8907    -8907    -8903    -8899    -8904 
   -8908    -8905    -8903    -8903    -8903    -8905    -8908    -8905 
   -8905    -8904    -8901    -8903    -8904    -8907    -8910    -8905 
   -8903    -8905    -8905    -8903    -8901    -8903    -8903    -8903 
   -8904    -8907    -8908    -8907    -8904    -8903    -8903    -8903 
   -8905    -8910    -8907    -8903    -8903    -8904    -8907    -8910 
   -8907    -8903    -8903    -8903    -8901    -8904    -8907    -8907 
   -8907    -8907    -8904    -8901    -8900    -8900    -8903    -8908 
   -8910    -8905    -8899    -8899    -8905    -8911    -8912    -8911 
   -8904    -8900    -8904    -8905    -8905    -8910    -8905    -8901 
   -8907    -8908    -8904    -8903    -8904    -8904    -8904    -8904 
   -8905    -8910    -8908    -8903    -8903    -8907    -8907    -8904 
   -8903    -8901    -8900    -8905    -8911    -8908    -8904    -8903 
   -8903    -8904    -8905    -8904    -8907    -8908    -8908    -8905 
   -8903    -8905    -8907    -8904    -8905    -8907    -8905    -8904 
   -8905    -8908    -8908    -8905    -8904    -8904    -8907    -8908 
   -8907    -8908    -8905    -8901    -8903    -8907    -8907    -8905 
   -8905    -8905    -8907    -8908    -8904    -8900    -8904    -8908 
   -8910    -8908    -8905    -8905    -8905    -8904    -8904    -8907 
   -8907    -8904    -8903    -8905    -8907    -8904    -8904    -8904 
   -8905    -8907    -8905    -8905    -8907    -8904    -8903    -8907 
   -8905    -8904    -8907    -8907    -8904    -8904    -8904    -8908 
   -8911    -8905    -8901    -8903    -8905    -8905    -8907    -8910 
   -8907    -8904    -8903    -8904    -8911    -8910    -8903    -8900 
   -8900    -8904    -8910    -8911    -8907    -8901    -8901    -8905 
   -8905    -8907    -8908    -8903    -8899    -8901    -8905    -8905 
   -8905    -8905    -8904    -8903    -8904    -8907    -8904    -8901 
   -8901    -8903    -8905    -8904    -8903    -8907    -8907    -8907 
   -8908    -8905    -8901    -8903    -8903    -8905    -8904    -8904 
   -8907    -8905    -8904    -8904    -8905    -8910    -8910    -8904 
   -8900    -8903    -8907    -8907    -8905    -8907    -8908    -8903 
   -8901    -8907    -8908    -8904    -8903    -8904    -8905    -8904 
   -8903    -8903    -8904    -8908    -8911    -8908    -8904    -8901 
   -8901    -8901    -8903    -8907    -8911    -8908    -8901    -8900 
   -8901    -8904    -8910    -8910    -8907    -8905    -8904    -8901 
   -8905    -8907    -8908    -8908    -8904    -8904    -8905    -8903 
   -8905    -8908    -8905    -8903    -8904    -8908    -8907    -8904 
   -8905    -8905    -8901    -8901    -8905    -8904    -8903    -8908 
   -8910    -8905    -8903    -8904    -8904    -8904    -8905    -8907 
   -8905    -8904    -8903    -8903    -8903    -8904    -8905    -8905 
   -8901    -8903    -8904    -8907    -8905    -8903    -8903    -8905 
   -8908    -8908    -8905    -8904    -8901    -8904    -8908    -8905 
   -8903    -8904    -8904    -8903    -8905    -8907    -8907    -8907 
   -8905    -8901    -8900    -8904    -8908    -8908    -8903    -8903 
   -8907    -8907    -8901    -8904    -8907    -8904    -8904    -8907 
   -8908    -8910    -8908    -8901    -8900    -8905    -8904    -8905 
   -8908    -8905    -8905    -8905    -8904    -8903    -8903    -8905 
   -8907    -8905    -8903    -8901    -8904    -8905    -8905    -8904 
   -8904    -8905    -8908    -8910    -8907    -8903    -8900    -8903 
   -8905    -8907    -8905    -8905    -8904    -8904    -8908    -8908 
   -8904    -8903    -8905    -8908    -8908    -8907    -8903    -8904 
   -8904    -8904    -8908    -8907    -8903    -8904    -8905    -8905 
   -8905    -8905    -8903    -8901    -8904    -8907    -8908    -8908 
   -8905    -8903    -8903    -8904    -8904    -8905    -8905    -8904 
   -8903    -8907    -8910    -8910    -8905    -8900    -8901    -8905 
   -8908    -8910    -8907    -8901    -8903    -8904    -8904    -8907 
   -8907    -8905    -8905    -8905    -8905    -8905    -8905    -8904 
   -8904    -8904    -8908    -8908    -8907    -8907    -8905    -8900 
   -8900    -8904    -8905    -8907    -8908    -8905    -8905    -8905 
   -8904    -8903    -8903    -8904    -8907    -8908    -8905    -8903 
   -8905    -8908    -8907    -8904    -8903    -8905    -8907    -8905 
   -8904    -8904    -8901    -8900    -8903    -8905    -8905    -8905 
   -8904    -8904    -8905    -8905    -8907    -8905    -8905    -8907 
   -8905    -8904    -8905    -8907    -8905    -8904    -8904    -8905 
   -8908    -8908    -8904    -8901    -8901    -8907    -8908    -8905 
   -8903    -8903    -8904    -8907    -8911    -8910    -8904    -8901 
   -8901    -8905    -8910    -8911    -8908    -8908    -8905    -8901 
   -8904    -8907    -8907    -8907    -8905    -8904    -8904    -8904 
   -8904    -8904    -8904    -8905    -8905    -8903    -8903    -8905 
   -8908    -8908    -8905    -8903    -8900    -8901    -8903    -8907 
   -8910    -8910    -8907    -8901    -8900    -8905    -8907    -8907 
   -8911    -8910    -8901    -8901    -8907    -8907    -8904    -8905 
   -8907    -8907    -8903    -8901    -8901    -8903    -8907    -8905 
   -8904    -8905    -8904    -8903    -8904    -8907    -8908    -8904 
   -8903    -8905    -8907    -8904    -8907    -8908    -8905    -8903 
   -8900    -8901    -8907    -8908    -8907    -8907    -8904    -8903 
   -8908    -8910    -8903    -8901    -8908    -8911    -8911    -8911 
   -8905    -8905    -8912    -8918    -8916    -8915    -8916    -8918 
   -8918    -8919    -8920    -8916    -8912    -8911    -8905    -8899 
   -8888    -8878    -8861    -8831    -8810    -8802    -8804    -8826 
   -8868    -8908    -8943    -8974    -8999    -9019    -9028    -9019 
   -8986    -8931    -8869    -8833    -8834    -8873    -8941    -8992 
   -9011    -9005    -8989    -8969    -8939    -8893    -8822    -8741 
   -8694    -8704    -8760    -8826    -8864    -8860    -8842    -8851 
   -8901    -8980    -9055    -9107    -9132    -9134    -9113    -9055 
   -8938    -8795    -8673    -8598    -8604    -8706    -8854    -9018 
   -9180    -9315    -9381    -9333    -9148    -8847    -8519    -8303 
   -8275    -8399    -8599    -8781    -8918    -9043    -9171    -9273 
   -9270    -9136    -8954    -8837    -8841    -8951    -9067    -9101 
   -9036    -8918    -8789    -8692    -8665    -8722    -8814    -8877 
   -8876    -8816    -8775    -8820    -8953    -9117    -9239    -9267 
   -9205    -9080    -8938    -8833    -8770    -8741    -8742    -8738 
   -8727    -8750    -8820    -8919    -8988    -8961    -8834    -8681 
   -8590    -8600    -8725    -8980    -9336    -9667    -9788    -9587 
   -9103    -8498    -7994    -7765    -7861    -8237    -8839    -9560 
  -10192   -10496   -10342    -9774    -8977    -8194    -7681    -7608 
   -7921    -8375    -8729    -8888    -8919    -8937    -8985    -9030 
   -9027    -9008    -9049    -9170    -9310    -9375    -9310    -9108 
   -8830    -8621    -8577    -8672    -8807    -8873    -8891    -8996 
   -9251    -9537    -9607    -9296    -8725    -8255    -8149    -8343 
   -8546    -8556    -8399    -8305    -8484    -8920    -9375    -9589 
   -9474    -9181    -8935    -8866    -8958    -9104    -9200    -9213 
   -9198    -9173    -9103    -8991    -8870    -8792    -8743    -8654 
   -8509    -8372    -8351    -8538    -8895    -9212    -9294    -9155 
   -8978    -8923    -8993    -9038    -8942    -8758    -8611    -8594 
   -8706    -8816    -8789    -8650    -8599    -8856    -9437   -10077 
  -10378   -10125    -9443    -8623    -7900    -7411    -7265    -7576 
   -8368    -9406   -10219   -10389    -9876    -9028    -8291    -7924 
   -7909    -8079    -8349    -8797    -9435   -10060   -10370   -10141 
   -9436    -8621    -8074    -7974    -8235    -8627    -8946    -9092 
   -9108    -9115    -9138    -9086    -8910    -8685    -8569    -8683 
   -8974    -9213    -9216    -8993    -8696    -8486    -8432    -8538 
   -8779    -9090    -9377    -9489    -9319    -8958    -8667    -8668 
   -8947    -9243    -9252    -8954    -8623    -8506    -8629    -8860 
   -9016    -8984    -8806    -8619    -8540    -8614    -8795    -8958 
   -9028    -9043    -9073    -9146    -9234    -9308    -9325    -9244 
   -9080    -8838    -8572    -8445    -8545    -8760    -8910    -8900 
   -8785    -8716    -8807    -9022    -9184    -9175    -9034    -8868 
   -8784    -8834    -8985    -9105    -9065    -8860    -8595    -8428 
   -8469    -8679    -8899    -9020    -9074    -9151    -9282    -9409 
   -9412    -9208    -8876    -8576    -8401    -8386    -8519    -8729 
   -8920    -9035    -9055    -8976    -8846    -8780    -8861    -9062 
   -9261    -9329    -9216    -8968    -8694    -8530    -8557    -8742 
   -8988    -9184    -9261    -9225    -9101    -8915    -8698    -8488 
   -8383    -8463    -8712    -9049    -9337    -9471    -9431    -9262 
   -9030    -8808    -8652    -8544    -8444    -8406    -8525    -8814 
   -9155    -9343    -9273    -9036    -8793    -8654    -8622    -8617 
   -8630    -8773    -9077    -9375    -9448    -9228    -8860    -8581 
   -8523    -8633    -8780    -8918    -9096    -9343    -9590    -9678 
   -9506    -9132    -8711    -8375    -8189    -8162    -8253    -8414 
   -8631    -8888    -9113    -9263    -9339    -9340    -9265    -9132 
   -8976    -8829    -8710    -8633    -8604    -8617    -8671    -8764 
   -8869    -8986    -9121    -9267    -9397    -9404    -9192    -8845 
   -8548    -8476    -8676    -8985    -9178    -9150    -8969    -8802 
   -8735    -8730    -8731    -8714    -8669    -8633    -8630    -8650 
   -8716    -8885    -9121    -9308    -9325    -9153    -8912    -8802 
   -8912    -9128    -9236    -9143    -8934    -8773    -8803    -9016 
   -9227    -9236    -9016    -8687    -8415    -8347    -8487    -8692 
   -8824    -8868    -8891    -8973    -9147    -9329    -9367    -9197 
   -8912    -8662    -8536    -8541    -8629    -8750    -8897    -9072 
   -9248    -9396    -9472    -9432    -9247    -8937    -8590    -8333 
   -8262    -8399    -8684    -8968    -9117    -9086    -8912    -8719 
   -8618    -8623    -8695    -8780    -8846    -8904    -8981    -9086 
   -9194    -9267    -9271    -9208    -9112    -9020    -8931    -8816 
   -8677    -8572    -8571    -8708    -8942    -9153    -9258    -9255 
   -9184    -9077    -8954    -8858    -8835    -8857    -8861    -8822 
   -8752    -8696    -8681    -8692    -8710    -8741    -8795    -8865 
   -8905    -8873    -8784    -8694    -8660    -8733    -8926    -9193 
   -9462    -9651    -9710    -9667    -9545    -9321    -8997    -8634 
   -8280    -8027    -7967    -8108    -8388    -8727    -9059    -9319 
   -9432    -9358    -9128    -8862    -8688    -8645    -8698    -8791 
   -8892    -8989    -9065    -9117    -9124    -9066    -8962    -8846 
   -8750    -8725    -8779    -8865    -8946    -8988    -8977    -8970 
   -9016    -9096    -9126    -9023    -8820    -8637    -8549    -8573 
   -8680    -8802    -8914    -9011    -9073    -9089    -9061    -9008 
   -8954    -8910    -8881    -8884    -8916    -8935    -8900    -8802 
   -8669    -8613    -8696    -8864    -9028    -9128    -9136    -9072 
   -8985    -8935    -8945    -8991    -9045    -9055    -8966    -8814 
   -8692    -8660    -8702    -8743    -8726    -8677    -8668    -8753 
   -8934    -9167    -9391    -9528    -9505    -9313    -9015    -8695 
   -8440    -8310    -8286    -8321    -8426    -8637    -8949    -9286 
   -9509    -9499    -9259    -8928    -8695    -8675    -8851    -9085 
   -9202    -9148    -9019    -8924    -8922    -8980    -8985    -8892 
   -8769    -8700    -8737    -8837    -8911    -8920    -8878    -8830 
   -8820    -8864    -8937    -8986    -8954    -8823    -8644    -8482 
   -8414    -8484    -8668    -8899    -9104    -9236    -9281    -9259 
   -9207    -9121    -9013    -8941    -8911    -8900    -8935    -9054 
   -9216    -9323    -9282    -9072    -8795    -8598    -8573    -8704 
   -8860    -8911    -8837    -8710    -8633    -8648    -8712    -8769 
   -8803    -8822    -8849    -8899    -8961    -9000    -8980    -8899 
   -8799    -8745    -8799    -8962    -9142    -9220    -9142    -8957 
   -8766    -8652    -8675    -8827    -9018    -9165    -9227    -9198 
   -9120    -9045    -9011    -8996    -8955    -8896    -8842    -8820 
   -8849    -8892    -8885    -8812    -8718    -8667    -8688    -8742 
   -8777    -8785    -8799    -8846    -8916    -8982    -9028    -9063 
   -9100    -9132    -9134    -9051    -8896    -8746    -8671    -8706 
   -8853    -9022    -9109    -9088    -8989    -8870    -8792    -8783 
   -8815    -8860    -8912    -8947    -8935    -8873    -8784    -8700 
   -8662    -8702    -8807    -8935    -9065    -9175    -9236    -9225 
   -9155    -9050    -8914    -8772    -8675    -8634    -8627    -8658 
   -8742    -8866    -9028    -9198    -9290    -9261    -9142    -8986 
   -8860    -8818    -8831    -8814    -8742    -8672    -8653    -8700 
   -8776    -8822    -8824    -8808    -8822    -8903    -9032    -9143 
   -9162    -9077    -8986    -9000    -9120    -9273    -9369    -9347 
   -9236    -9104    -8959    -8785    -8590    -8398    -8257    -8197 
   -8225    -8329    -8487    -8673    -8849    -8969    -9039    -9093 
   -9148    -9201    -9224    -9188    -9099    -8992    -8919    -8924 
