Origin Time       2025/03/29 04:45:00
Lat.              31.090
Long.             131.512
Depth. (km)       33
Mag.              4.6
Station Code      KGSH09
Station Lat.      31.3741
Station Long.     130.4333
Station Height(m) 19.091
Record Time       2025/03/29 04:45:34
Sampling Freq(Hz) 100Hz
Duration Time(s)  120
Dir.              2
Scale Factor      3923(gal)/8224838
Max. Acc. (gal)   0.535
Last Correction   2025/03/29 04:45:34
Memo.             
[...]
    1668     1671     1678     1686     1690     1690     1692     1695 
    1696     1696     1695     1690     1688     1695     1702     1710 
    1721     1728     1730     1732     1730     1723     1715     1707 
    1701     1694     1691     1692     1687     1676     1665     1656 
    1657     1672     1692     1717     1742     1755     1755     1746 
    1721     1684     1653     1640     1649     1674     1702     1726 
    1744     1755     1768     1779     1775     1756     1721     1680 
    1651     1634     1626     1628     1637     1651     1667     1686 
    1698     1694     1690     1703     1726     1750     1773     1776 
    1748     1706     1659     1613     1602     1632     1674     1723 
    1769     1780     1745     1682     1630     1628     1672     1740 
    1804     1831     1787     1702     1632     1587     1582     1653 
    1769     1844     1856     1826     1750     1637     1553     1537 
    1566     1613     1674     1736     1786     1794     1744     1687 
    1665     1642     1606     1598     1611     1630     1686     1776 
    1841     1861     1858     1826     1741     1655     1626     1648 
    1684     1711     1707     1678     1641     1602     1571     1572 
    1606     1657     1711     1750     1752     1711     1669     1648 
    1624     1606     1634     1696     1738     1744     1753     1786 
    1826     1860     1873     1844     1780     1694     1609     1574 
    1595     1609     1576     1545     1563     1613     1656     1672 
    1687     1732     1780     1787     1756     1706     1644     1601 
    1626     1692     1740     1756     1745     1711     1701     1734 
    1771     1788     1807     1822     1794     1728     1655     1575 
    1501     1495     1575     1686     1782     1815     1765     1682 
    1629     1611     1603     1610     1672     1782     1875     1904 
    1858     1756     1652     1572     1532     1559     1640     1728 
    1798     1842     1836     1763     1648     1540     1482     1505 
    1601     1705     1752     1748     1722     1675     1621     1597 
    1620     1694     1796     1868     1867     1819     1761     1691 
    1625     1599     1620     1664     1719     1769     1775     1723 
    1661     1637     1633     1642     1676     1715     1737     1744 
    1749     1756     1745     1710     1676     1648     1618     1597 
    1607     1663     1748     1836     1891     1881     1823     1761 
    1702     1649     1621     1611     1609     1611     1614     1615 
    1610     1603     1611     1641     1687     1752     1815     1845 
    1833     1788     1721     1651     1621     1648     1698     1730 
    1740     1736     1726     1719     1710     1691     1668     1657 
    1672     1710     1742     1748     1730     1710     1698     1692 
    1691     1696     1709     1715     1717     1719     1726     1725 
    1707     1679     1649     1633     1640     1653     1655     1642 
    1628     1625     1638     1669     1696     1707     1714     1722 
    1719     1713     1706     1680     1651     1661     1696     1722 
    1734     1726     1711     1713     1736     1763     1775     1767 
    1744     1703     1656     1632     1642     1676     1717     1744 
    1753     1756     1755     1736     1705     1682     1684     1709 
    1722     1713     1690     1661     1633     1617     1621     1642 
    1683     1740     1787     1810     1799     1737     1640     1555 
    1509     1520     1586     1660     1711     1748     1772     1775 
    1761     1741     1721     1703     1690     1671     1649     1629 
    1606     1599     1637     1717     1795     1845     1871     1876 
    1844     1787     1730     1686     1659     1653     1656     1657 
    1648     1625     1618     1633     1648     1667     1694     1707 
    1699     1676     1652     1645     1660     1674     1675     1683 
    1707     1732     1744     1744     1744     1742     1734     1717 
    1686     1640     1601     1590     1607     1644     1680     1711 
    1734     1738     1734     1741     1753     1765     1776     1783 
    1783     1777     1756     1725     1694     1660     1621     1588 
    1574     1574     1598     1653     1719     1760     1757     1715 
    1671     1647     1632     1634     1661     1702     1745     1779 
    1786     1761     1725     1695     1690     1710     1748     1786 
    1806     1791     1753     1711     1675     1641     1620     1610 
    1611     1624     1636     1634     1638     1660     1691     1717 
    1742     1771     1790     1787     1757     1701     1629     1568 
    1541     1547     1583     1644     1710     1761     1795     1804 
    1784     1749     1721     1713     1713     1709     1701     1701 
    1710     1722     1733     1742     1746     1750     1753     1745 
    1736     1726     1719     1706     1690     1688     1703     1719 
    1733     1749     1772     1795     1803     1790     1764     1726 
    1679     1634     1609     1615     1648     1671     1671     1665 
    1663     1655     1644     1637     1626     1614     1607     1609 
    1620     1649     1691     1725     1745     1753     1745     1728 
    1721     1723     1732     1742     1745     1732     1714     1701 
    1691     1683     1672     1669     1683     1695     1694     1691 
    1696     1710     1732     1750     1759     1761     1749     1719 
    1691     1675     1656     1638     1633     1636     1640     1644 
    1657     1679     1696     1706     1709     1698     1672     1647 
    1632     1628     1625     1630     1648     1682     1736     1798 
    1841     1840     1791     1721     1660     1630     1633     1655 
    1678     1699     1714     1722     1721     1710     1691     1665 
    1644     1638     1644     1657     1680     1705     1715     1707 
    1687     1664     1642     1621     1609     1611     1628     1641 
    1645     1644     1648     1663     1686     1722     1783     1854 
    1902     1914     1892     1849     1800     1760     1733     1725 
    1734     1753     1765     1753     1714     1679     1655     1626 
    1597     1579     1579     1587     1602     1614     1605     1586 
    1572     1575     1594     1630     1678     1715     1738     1759 
    1775     1788     1799     1792     1768     1745     1736     1733 
    1721     1694     1668     1653     1653     1678     1723     1771 
    1804     1810     1786     1738     1678     1629     1614     1624 
    1645     1659     1656     1649     1636     1628     1645     1684 
    1732     1775     1796     1791     1752     1691     1642     1630 
    1645     1678     1719     1741     1730     1706     1678     1647 
    1632     1638     1652     1674     1694     1694     1682     1680 
    1687     1699     1726     1765     1807     1838     1841     1814 
    1776     1742     1719     1706     1695     1691     1692     1692 
    1698     1705     1706     1705     1698     1688     1683     1683 
    1684     1683     1682     1674     1652     1624     1599     1586 
    1580     1578     1584     1606     1633     1664     1698     1719 
    1725     1713     1684     1653     1638     1636     1645     1664 
    1688     1721     1763     1809     1852     1885     1899     1900 
    1898     1879     1840     1790     1732     1669     1624     1599 
    1593     1613     1653     1692     1713     1710     1691     1661 
    1638     1618     1591     1572     1571     1583     1615     1660 
    1696     1728     1767     1799     1811     1813     1807     1782 
    1734     1680     1629     1587     1566     1563     1576     1607 
    1647     1680     1705     1718     1713     1691     1655     1620 
    1605     1609     1625     1651     1675     1696     1722     1753 
    1796     1840     1869     1880     1864     1830     1788     1740 
    1698     1674     1660     1656     1661     1678     1698     1709 
    1709     1709     1717     1729     1734     1725     1705     1692 
    1702     1733     1779     1818     1842     1849     1836     1804 
    1765     1721     1683     1653     1633     1622     1620     1626 
    1638     1649     1667     1684     1688     1686     1684     1690 
    1698     1701     1696     1694     1695     1698     1701     1698 
    1684     1665     1653     1659     1665     1665     1664     1653 
    1632     1606     1590     1597     1618     1647     1682     1714 
    1742     1773     1795     1800     1794     1771     1738     1714 
    1702     1691     1675     1665     1676     1703     1725     1722 
    1705     1688     1669     1648     1641     1644     1634     1614 
    1591     1582     1599     1640     1684     1713     1726     1732 
    1732     1714     1694     1690     1699     1710     1711     1705 
    1692     1682     1687     1707     1729     1742     1748     1748 
    1738     1718     1691     1660     1629     1611     1614     1637 
    1664     1695     1741     1786     1802     1794     1780     1756 
    1722     1706     1714     1729     1740     1741     1722     1698 
    1682     1671     1667     1663     1656     1655     1660     1660 
    1664     1675     1676     1672     1676     1687     1691     1698 
    1713     1729     1741     1737     1707     1664     1629     1607 
    1601     1605     1618     1644     1672     1688     1687     1682 
    1678     1668     1664     1683     1713     1742     1769     1799 
    1826     1830     1811     1782     1742     1698     1664     1648 
    1644     1649     1652     1642     1617     1586     1566     1561 
    1575     1597     1625     1660     1691     1714     1733     1744 
    1745     1740     1736     1738     1742     1745     1736     1711 
    1686     1664     1655     1660     1678     1702     1722     1732 
    1732     1717     1691     1671     1675     1707     1760     1807 
    1831     1834     1821     1796     1768     1738     1707     1680 
    1664     1653     1644     1636     1629     1637     1665     1703 
    1734     1755     1756     1726     1678     1634     1593     1548 
    1522     1526     1555     1603     1674     1744     1794     1834 
    1868     1877     1867     1852     1826     1791     1763     1749 
    1740     1721     1694     1669     1660     1667     1687     1709 
    1726     1742     1749     1738     1718     1698     1680     1672 
    1680     1703     1730     1752     1768     1767     1745     1714 
    1686     1661     1642     1630     1620     1597     1563     1539 
    1522     1513     1520     1547     1595     1659     1715     1752 
    1776     1794     1799     1799     1802     1802     1798     1788 
    1772     1746     1725     1718     1726     1737     1745     1750 
    1749     1728     1699     1679     1659     1638     1629     1625 
    1622     1622     1618     1614     1614     1609     1607     1630 
    1665     1694     1717     1738     1749     1750     1744     1733 
    1719     1710     1710     1718     1728     1730     1717     1686 
    1648     1624     1620     1634     1655     1679     1707     1730 
    1741     1750     1765     1783     1794     1799     1803     1802 
    1796     1786     1753     1699     1647     1607     1587     1594 
    1622     1653     1669     1663     1633     1591     1561     1552 
    1563     1599     1648     1691     1729     1768     1795     1802 
    1804     1818     1827     1827     1830     1827     1802     1757 
    1713     1669     1642     1648     1669     1694     1726     1750 
    1757     1757     1757     1741     1706     1678     1655     1632 
    1617     1621     1634     1648     1665     1683     1686     1680 
    1674     1661     1642     1626     1617     1621     1634     1652 
    1669     1686     1701     1711     1722     1737     1748     1746 
    1740     1725     1699     1682     1684     1703     1744     1791 
    1822     1834     1833     1815     1788     1761     1733     1696 
    1660     1632     1613     1601     1605     1622     1642     1665 
    1701     1734     1750     1749     1736     1715     1701     1694 
    1682     1656     1615     1567     1526     1510     1517     1526 
    1533     1548     1561     1560     1551     1537     1513     1487 
    1475     1479     1494     1522     1559     1602     1649     1683 
    1696     1702     1695     1671     1640     1609     1587     1580 
    1584     1595     1618     1657     1701     1741     1776     1804 
    1826     1857     1900     1948     1995     2043     2095     2150 
    2201     2238     2245     2201     2107     1975     1823     1668 
    1522     1387     1275     1197     1151     1143     1171     1235 
    1329     1451     1595     1753     1919     2080     2220     2324 
    2384     2390     2350     2265     2153     2031     1912     1794 
    1671     1537     1404     1285     1202     1190     1250     1360 
    1516     1686     1826     1917     1952     1923     1841     1738 
    1632     1517     1404     1301     1219     1174     1189     1252 
    1354     1487     1637     1777     1896     2003     2099     2182 
    2255     2317     2355     2353     2295     2192     2053     1902 
    1767     1665     1591     1545     1516     1482     1447     1413 
    1391     1402     1455     1530     1611     1696     1787     1871 
    1946     2018     2070     2089     2066     1989     1861     1695 
    1503     1293     1077      862      680      575      581      697 
     905     1190     1513     1831     2120     2351     2501     2552 
    2498     2359     2166     1944     1721     1529     1386     1301 
    1281     1325     1425     1556     1686     1798     1888     1958 
    2003     2038     2080     2126     2180     2255     2328     2380 
    2380     2303     2153     1958     1741     1528     1335     1162 
    1020      923      859      824      823      850      912     1023 
    1179     1363     1560     1742     1875     1948     1973     1966 
    1948     1927     1904     1880     1860     1848     1848     1852 
    1845     1823     1792     1750     1694     1640     1605     1590 
    1591     1609     1636     1668     1706     1740     1761     1773 
    1776     1776     1772     1768     1769     1768     1746     1711 
    1682     1667     1675     1718     1790     1865     1925     1957 
    1957     1926     1876     1829     1794     1769     1767     1764 
    1734     1671     1580     1476     1389     1340     1343     1385 
    1433     1472     1497     1510     1522     1544     1566     1582 
    1597     1601     1580     1537     1475     1409     1368     1379 
    1449     1574     1732     1891     2029     2120     2151     2120 
    2037     1911     1764     1626     1510     1418     1370     1371 
    1417     1521     1684     1883     2084     2249     2342     2354 
    2289     2160     1998     1837     1699     1610     1588     1621 
    1680     1757     1823     1849     1836     1786     1692     1561 
    1418     1297     1220     1193     1212     1260     1317     1375 
    1441     1522     1611     1709     1800     1871     1910     1912 
    1885     1827     1748     1667     1594     1534     1501     1486 
    1476     1478     1498     1540     1617     1736     1884     2039 
    2178     2277     2326     2328     2278     2187     2076     1968 
    1879     1819     1782     1755     1722     1684     1644     1598 
    1561     1557     1582     1628     1682     1723     1752     1771 
    1780     1786     1798     1825     1858     1880     1879     1849 
    1779     1676     1571     1470     1378     1317     1298     1306 
    1336     1382     1424     1458     1490     1520     1556     1617 
    1701     1794     1890     1984     2069     2122     2142     2135 
    2104     2042     1964     1876     1787     1705     1636     1582 
    1541     1509     1480     1456     1439     1432     1439     1458 
    1485     1522     1568     1606     1632     1642     1638     1628 
    1613     1597     1579     1552     1517     1480     1448     1428 
    1428     1443     1475     1533     1609     1694     1776     1848 
    1892     1895     1867     1814     1733     1642     1556     1483 
    1440     1441     1486     1564     1660     1759     1848     1923 
    1987     2038     2072     2087     2089     2084     2072     2050 
    2008     1949     1881     1813     1745     1686     1632     1586 
    1549     1530     1517     1503     1498     1514     1555     1629 
    1730     1841     1938     2004     2027     2008     1956     1895 
    1841     1790     1752     1723     1690     1647     1593     1529 
    1467     1416     1389     1393     1418     1467     1530     1595 
    1655     1703     1737     1749     1742     1728     1714     1695 
    1665     1628     1582     1529     1482     1445     1432     1444 
    1475     1521     1587     1655     1707     1746     1773     1791 
    1799     1796     1790     1775     1750     1723     1703     1698 
    1711     1734     1763     1787     1798     1803     1799     1784 
    1767     1745     1721     1703     1690     1680     1680     1691 
    1714     1746     1790     1838     1884     1921     1942     1938 
    1912     1877     1840     1799     1761     1729     1706     1692 
    1688     1694     1705     1721     1741     1750     1755     1755 
    1738     1709     1667     1615     1557     1501     1456     1426 
    1410     1413     1431     1449     1470     1494     1524     1553 
    1579     1595     1601     1603     1605     1609     1621     1642 
    1676     1718     1759     1800     1850     1899     1946     1993 
    2027     2045     2043     2022     1972     1910     1849     1786 
    1723     1676     1642     1613     1587     1574     1570     1572 
    1587     1610     1634     1659     1683     1696     1706     1715 
    1715     1714     1714     1721     1732     1742     1749     1756 
    1755     1750     1746     1728     1694     1660     1630     1606 
    1591     1587     1583     1578     1574     1571     1572     1580 
    1598     1618     1641     1675     1705     1730     1763     1787 
    1804     1818     1821     1810     1795     1779     1757     1725 
    1684     1641     1603     1583     1575     1571     1580     1601 
    1625     1644     1656     1664     1672     1678     1678     1672 
    1678     1692     1713     1737     1771     1810     1848     1875 
    1888     1887     1871     1842     1814     1788     1768     1746 
    1725     1705     1686     1674     1671     1672     1671     1671 
    1669     1660     1649     1641     1626     1610     1598     1595 
    1606     1633     1669     1718     1771     1822     1854     1864 
    1857     1838     1817     1796     1780     1768     1761     1755 
    1748     1741     1734     1728     1717     1706     1691     1669 
    1651     1638     1626     1621     1624     1626     1622     1615 
    1606     1595     1584     1579     1582     1595     1614     1638 
    1661     1675     1680     1674     1657     1637     1617     1598 
    1591     1591     1597     1613     1634     1652     1669     1688 
    1707     1726     1738     1742     1742     1740     1734     1729 
