Origin Time       2025/03/29 04:45:00
Lat.              31.090
Long.             131.512
Depth. (km)       33
Mag.              4.6
Station Code      KGSH09
Station Lat.      31.3741
Station Long.     130.4333
Station Height(m) 19.091
Record Time       2025/03/29 04:45:34
Sampling Freq(Hz) 100Hz
Duration Time(s)  120
Dir.              1
Scale Factor      3923(gal)/8224838
Max. Acc. (gal)   0.644
Last Correction   2025/03/29 04:45:34
Memo.             
[...]
   -3194    -3196    -3199    -3204    -3213    -3215    -3215    -3214 
   -3210    -3204    -3200    -3198    -3198    -3196    -3194    -3195 
   -3202    -3210    -3217    -3218    -3210    -3200    -3198    -3195 
   -3194    -3192    -3187    -3180    -3179    -3180    -3181    -3186 
   -3198    -3210    -3218    -3227    -3238    -3237    -3225    -3207 
   -3194    -3186    -3179    -3177    -3179    -3181    -3191    -3213 
   -3235    -3250    -3249    -3234    -3214    -3195    -3181    -3172 
   -3157    -3138    -3132    -3144    -3167    -3194    -3217    -3229 
   -3231    -3235    -3240    -3248    -3257    -3246    -3200    -3144 
   -3111    -3114    -3140    -3172    -3204    -3231    -3237    -3227 
   -3229    -3235    -3223    -3210    -3226    -3256    -3265    -3261 
   -3246    -3206    -3161    -3140    -3136    -3137    -3152    -3187 
   -3217    -3219    -3210    -3208    -3213    -3192    -3150    -3132 
   -3149    -3172    -3198    -3248    -3295    -3287    -3230    -3168 
   -3123    -3113    -3148    -3207    -3242    -3244    -3235    -3237 
   -3234    -3222    -3215    -3234    -3257    -3260    -3242    -3210 
   -3157    -3094    -3046    -3052    -3107    -3163    -3173    -3149 
   -3142    -3187    -3260    -3310    -3314    -3291    -3272    -3260 
   -3240    -3211    -3184    -3164    -3159    -3168    -3180    -3183 
   -3180    -3179    -3198    -3242    -3295    -3335    -3333    -3271 
   -3175    -3090    -3028    -3003    -3029    -3094    -3173    -3248 
   -3308    -3337    -3310    -3238    -3169    -3137    -3137    -3150 
   -3181    -3226    -3250    -3230    -3180    -3126    -3109    -3142 
   -3196    -3260    -3323    -3346    -3316    -3249    -3173    -3133 
   -3133    -3134    -3132    -3156    -3218    -3283    -3291    -3230 
   -3157    -3119    -3121    -3146    -3192    -3248    -3292    -3300 
   -3260    -3192    -3134    -3094    -3084    -3122    -3192    -3249 
   -3273    -3261    -3217    -3165    -3134    -3141    -3186    -3242 
   -3304    -3366    -3389    -3352    -3271    -3175    -3094    -3045 
   -3032    -3061    -3129    -3196    -3240    -3260    -3253    -3230 
   -3214    -3199    -3173    -3157    -3164    -3183    -3199    -3210 
   -3240    -3272    -3271    -3233    -3186    -3146    -3134    -3146 
   -3167    -3183    -3194    -3202    -3203    -3202    -3215    -3241 
   -3267    -3273    -3253    -3226    -3206    -3183    -3149    -3113 
   -3090    -3084    -3102    -3142    -3192    -3241    -3279    -3294 
   -3276    -3240    -3208    -3194    -3191    -3202    -3211    -3200 
   -3187    -3196    -3214    -3223    -3222    -3210    -3198    -3194 
   -3194    -3195    -3203    -3213    -3217    -3217    -3221    -3223 
   -3218    -3207    -3191    -3167    -3138    -3114    -3113    -3130 
   -3153    -3180    -3213    -3249    -3283    -3294    -3273    -3240 
   -3211    -3192    -3183    -3179    -3173    -3164    -3163    -3177 
   -3200    -3215    -3218    -3208    -3204    -3221    -3256    -3272 
   -3252    -3222    -3208    -3210    -3213    -3203    -3177    -3153 
   -3145    -3141    -3132    -3137    -3156    -3168    -3175    -3181 
   -3194    -3218    -3242    -3253    -3254    -3257    -3257    -3242 
   -3207    -3157    -3118    -3109    -3133    -3171    -3194    -3196 
   -3200    -3214    -3230    -3242    -3245    -3244    -3254    -3273 
   -3284    -3273    -3240    -3195    -3159    -3138    -3136    -3146 
   -3161    -3168    -3172    -3186    -3210    -3231    -3237    -3226 
   -3206    -3180    -3152    -3125    -3100    -3084    -3098    -3138 
   -3181    -3234    -3291    -3329    -3333    -3311    -3283    -3258 
   -3240    -3227    -3218    -3203    -3177    -3142    -3109    -3092 
   -3103    -3137    -3186    -3233    -3268    -3283    -3264    -3227 
   -3194    -3169    -3153    -3142    -3136    -3138    -3142    -3141 
   -3148    -3176    -3213    -3242    -3260    -3261    -3248    -3231 
   -3213    -3183    -3160    -3156    -3161    -3184    -3223    -3254 
   -3268    -3272    -3262    -3237    -3200    -3156    -3122    -3106 
   -3103    -3118    -3153    -3192    -3230    -3264    -3284    -3294 
   -3299    -3303    -3303    -3285    -3248    -3210    -3179    -3156 
   -3144    -3144    -3160    -3186    -3208    -3214    -3208    -3200 
   -3181    -3160    -3150    -3163    -3181    -3196    -3203    -3198 
   -3180    -3153    -3133    -3130    -3141    -3163    -3198    -3229 
   -3248    -3261    -3273    -3276    -3273    -3260    -3231    -3196 
   -3164    -3129    -3096    -3079    -3088    -3130    -3190    -3245 
   -3285    -3306    -3304    -3279    -3235    -3183    -3142    -3137 
   -3161    -3196    -3226    -3238    -3230    -3203    -3171    -3149 
   -3149    -3168    -3192    -3208    -3219    -3231    -3248    -3261 
   -3264    -3249    -3218    -3187    -3171    -3171    -3183    -3196 
   -3214    -3238    -3253    -3253    -3246    -3227    -3192    -3149 
   -3111    -3095    -3102    -3132    -3175    -3225    -3275    -3306 
   -3306    -3283    -3246    -3207    -3167    -3130    -3109    -3103 
   -3100    -3107    -3126    -3134    -3130    -3138    -3173    -3233 
   -3295    -3330    -3334    -3321    -3306    -3294    -3283    -3280 
   -3271    -3248    -3218    -3180    -3142    -3123    -3129    -3145 
   -3168    -3191    -3204    -3206    -3207    -3215    -3227    -3231 
   -3227    -3215    -3196    -3180    -3176    -3187    -3190    -3168 
   -3140    -3110    -3086    -3084    -3110    -3154    -3207    -3248 
   -3265    -3260    -3242    -3222    -3204    -3183    -3157    -3145 
   -3153    -3169    -3188    -3211    -3229    -3230    -3215    -3206 
   -3210    -3214    -3215    -3218    -3213    -3194    -3176    -3160 
   -3142    -3130    -3132    -3148    -3176    -3211    -3250    -3291 
   -3319    -3333    -3333    -3322    -3294    -3246    -3188    -3138 
   -3114    -3110    -3123    -3150    -3176    -3186    -3184    -3176 
   -3177    -3192    -3210    -3214    -3202    -3181    -3169    -3171 
   -3183    -3200    -3213    -3217    -3210    -3191    -3164    -3138 
   -3126    -3122    -3129    -3150    -3180    -3207    -3227    -3245 
   -3275    -3308    -3326    -3322    -3307    -3283    -3250    -3215 
   -3177    -3150    -3159    -3195    -3234    -3268    -3287    -3285 
   -3264    -3235    -3214    -3204    -3195    -3183    -3161    -3140 
   -3123    -3109    -3092    -3087    -3100    -3121    -3140    -3161 
   -3187    -3208    -3222    -3226    -3218    -3208    -3204    -3206 
   -3211    -3227    -3260    -3288    -3298    -3288    -3260    -3223 
   -3191    -3160    -3137    -3129    -3133    -3145    -3160    -3173 
   -3179    -3190    -3207    -3221    -3229    -3235    -3231    -3222 
   -3218    -3207    -3194    -3187    -3180    -3175    -3171    -3167 
   -3168    -3180    -3199    -3214    -3222    -3223    -3223    -3226 
   -3226    -3223    -3234    -3256    -3265    -3264    -3252    -3227 
   -3204    -3192    -3179    -3153    -3126    -3100    -3075    -3059 
   -3053    -3059    -3084    -3127    -3177    -3227    -3267    -3279 
   -3267    -3246    -3230    -3227    -3245    -3281    -3329    -3361 
   -3364    -3349    -3318    -3276    -3240    -3207    -3177    -3169 
   -3177    -3186    -3176    -3150    -3123    -3100    -3088    -3095 
   -3110    -3130    -3159    -3190    -3215    -3225    -3217    -3194 
   -3164    -3142    -3145    -3164    -3191    -3214    -3233    -3249 
   -3260    -3260    -3249    -3227    -3206    -3192    -3184    -3176 
   -3172    -3168    -3161    -3159    -3161    -3169    -3183    -3206 
   -3229    -3244    -3254    -3262    -3257    -3241    -3217    -3186 
   -3157    -3141    -3140    -3154    -3181    -3219    -3262    -3296 
   -3304    -3289    -3265    -3241    -3219    -3202    -3181    -3157 
   -3140    -3137    -3146    -3161    -3168    -3165    -3168    -3195 
   -3233    -3257    -3262    -3256    -3235    -3211    -3196    -3192 
   -3192    -3192    -3195    -3206    -3222    -3237    -3249    -3250 
   -3234    -3204    -3175    -3150    -3126    -3099    -3079    -3082 
   -3107    -3142    -3180    -3214    -3234    -3241    -3241    -3238 
   -3230    -3213    -3188    -3161    -3134    -3125    -3132    -3148 
   -3173    -3204    -3234    -3261    -3285    -3302    -3308    -3306 
   -3294    -3280    -3264    -3244    -3223    -3210    -3198    -3183 
   -3173    -3177    -3188    -3202    -3221    -3241    -3246    -3235 
   -3214    -3186    -3159    -3140    -3126    -3118    -3119    -3126 
   -3127    -3136    -3152    -3171    -3187    -3203    -3221    -3237 
   -3238    -3219    -3195    -3171    -3153    -3150    -3160    -3172 
   -3181    -3184    -3181    -3175    -3163    -3157    -3160    -3167 
   -3181    -3208    -3237    -3262    -3280    -3285    -3276    -3245 
   -3200    -3171    -3165    -3168    -3177    -3191    -3204    -3225 
   -3242    -3248    -3241    -3227    -3214    -3214    -3226    -3233 
   -3230    -3211    -3177    -3142    -3118    -3115    -3145    -3200 
   -3260    -3308    -3333    -3333    -3310    -3271    -3217    -3150 
   -3087    -3045    -3030    -3037    -3064    -3107    -3156    -3196 
   -3227    -3248    -3258    -3267    -3275    -3272    -3256    -3233 
   -3202    -3161    -3119    -3098    -3102    -3125    -3164    -3218 
   -3275    -3318    -3339    -3339    -3319    -3287    -3242    -3191 
   -3152    -3141    -3149    -3163    -3177    -3190    -3196    -3202 
   -3217    -3237    -3258    -3276    -3277    -3252    -3214    -3172 
   -3141    -3141    -3169    -3203    -3225    -3229    -3219    -3202 
   -3184    -3175    -3176    -3190    -3203    -3204    -3191    -3163 
   -3127    -3099    -3078    -3068    -3088    -3138    -3192    -3227 
   -3245    -3252    -3250    -3238    -3218    -3200    -3192    -3196 
   -3218    -3249    -3273    -3287    -3295    -3291    -3279    -3261 
   -3230    -3200    -3195    -3211    -3235    -3265    -3279    -3258 
   -3218    -3171    -3132    -3107    -3100    -3107    -3123    -3140 
   -3149    -3154    -3161    -3172    -3183    -3192    -3200    -3206 
   -3208    -3198    -3173    -3144    -3121    -3115    -3136    -3171 
   -3202    -3219    -3226    -3229    -3235    -3246    -3265    -3291 
   -3314    -3316    -3294    -3253    -3214    -3187    -3177    -3186 
   -3200    -3218    -3235    -3248    -3252    -3240    -3218    -3199 
   -3183    -3168    -3159    -3150    -3137    -3117    -3096    -3080 
   -3076    -3092    -3130    -3180    -3233    -3276    -3302    -3303 
   -3287    -3254    -3208    -3165    -3138    -3118    -3114    -3141 
   -3179    -3213    -3242    -3268    -3280    -3269    -3240    -3202 
   -3167    -3154    -3164    -3188    -3225    -3256    -3260    -3241 
   -3214    -3190    -3180    -3180    -3180    -3183    -3181    -3167 
   -3154    -3149    -3136    -3118    -3113    -3122    -3140    -3160 
   -3183    -3213    -3241    -3261    -3279    -3303    -3323    -3323 
   -3289    -3235    -3181    -3140    -3125    -3144    -3181    -3225 
   -3264    -3289    -3296    -3285    -3265    -3242    -3223    -3213 
   -3211    -3215    -3231    -3248    -3252    -3252    -3248    -3237 
   -3215    -3187    -3152    -3115    -3090    -3086    -3090    -3094 
   -3098    -3103    -3106    -3099    -3086    -3076    -3067    -3065 
   -3084    -3113    -3144    -3172    -3192    -3208    -3231    -3249 
   -3249    -3242    -3237    -3227    -3211    -3194    -3176    -3171 
   -3180    -3191    -3192    -3196    -3200    -3195    -3181    -3176 
   -3180    -3198    -3226    -3261    -3289    -3308    -3316    -3316 
   -3315    -3316    -3321    -3333    -3346    -3356    -3362    -3366 
   -3364    -3350    -3330    -3304    -3277    -3254    -3242    -3237 
   -3229    -3214    -3204    -3206    -3218    -3227    -3234    -3244 
   -3244    -3219    -3181    -3144    -3105    -3071    -3036    -2992 
   -2955    -2926    -2897    -2867    -2845    -2832    -2826    -2836 
   -2864    -2905    -2952    -3009    -3065    -3125    -3195    -3276 
   -3362    -3457    -3554    -3642    -3717    -3767    -3778    -3748 
   -3677    -3568    -3434    -3287    -3141    -3013    -2898    -2801 
   -2732    -2694    -2674    -2667    -2667    -2675    -2708    -2775 
   -2874    -2991    -3118    -3244    -3368    -3489    -3609    -3723 
   -3825    -3901    -3942    -3943    -3908    -3832    -3723    -3585 
   -3431    -3271    -3121    -3005    -2926    -2876    -2837    -2794 
   -2743    -2695    -2666    -2664    -2697    -2768    -2872    -2998 
   -3133    -3262    -3368    -3437    -3469    -3480    -3487    -3507 
   -3550    -3611    -3670    -3709    -3723    -3700    -3638    -3541 
   -3410    -3257    -3090    -2918    -2759    -2637    -2562    -2531 
   -2548    -2608    -2697    -2810    -2936    -3056    -3149    -3207 
   -3237    -3245    -3245    -3258    -3294    -3343    -3393    -3434 
   -3456    -3465    -3481    -3505    -3534    -3573    -3616    -3639 
   -3630    -3586    -3522    -3449    -3376    -3314    -3269    -3231 
   -3186    -3125    -3037    -2920    -2787    -2664    -2560    -2485 
   -2451    -2473    -2558    -2686    -2830    -2970    -3096    -3213 
   -3319    -3414    -3505    -3605    -3700    -3781    -3856    -3932 
   -4012    -4095    -4162    -4187    -4153    -4041    -3846    -3570 
   -3235    -2876    -2525    -2222    -1995    -1865    -1850    -1950 
   -2161    -2470    -2851    -3254    -3618    -3896    -4067    -4124 
   -4071    -3936    -3758    -3554    -3356    -3183    -3040    -2922 
   -2813    -2706    -2600    -2500    -2425    -2403    -2450    -2578 
   -2782    -3030    -3284    -3503    -3654    -3730    -3731    -3680 
   -3612    -3557    -3524    -3499    -3446    -3343    -3195    -3017 
   -2835    -2675    -2562    -2517    -2536    -2604    -2700    -2801 
   -2899    -2997    -3090    -3183    -3292    -3416    -3551    -3678 
   -3769    -3805    -3778    -3689    -3549    -3383    -3217    -3065 
   -2941    -2864    -2844    -2882    -2980    -3130    -3306    -3478 
   -3638    -3771    -3873    -3937    -3950    -3897    -3788    -3622 
   -3422    -3208    -2998    -2813    -2674    -2602    -2610    -2686 
   -2810    -2949    -3069    -3156    -3200    -3208    -3211    -3223 
   -3237    -3242    -3233    -3206    -3167    -3119    -3071    -3028 
   -2992    -2963    -2952    -2960    -2979    -2995    -2990    -2952 
   -2883    -2801    -2727    -2681    -2675    -2710    -2771    -2853 
   -2963    -3096    -3244    -3403    -3566    -3712    -3821    -3892 
   -3915    -3889    -3828    -3757    -3688    -3618    -3539    -3447 
   -3338    -3218    -3103    -3014    -2957    -2940    -2974    -3052 
   -3144    -3225    -3276    -3294    -3283    -3260    -3240    -3231 
   -3240    -3262    -3302    -3335    -3342    -3331    -3306    -3258 
   -3211    -3190    -3210    -3273    -3368    -3461    -3528    -3549 
   -3512    -3429    -3319    -3208    -3106    -3030    -2987    -2968 
   -2961    -2963    -2964    -2972    -2992    -3029    -3078    -3123 
   -3149    -3144    -3107    -3052    -2995    -2955    -2943    -2968 
   -3032    -3127    -3237    -3346    -3441    -3501    -3532    -3538 
   -3518    -3476    -3419    -3345    -3253    -3157    -3064    -2982 
   -2928    -2901    -2895    -2909    -2937    -2984    -3053    -3134 
   -3222    -3307    -3375    -3426    -3461    -3470    -3451    -3408 
   -3341    -3258    -3180    -3115    -3065    -3030    -3013    -3009 
   -3013    -3018    -3025    -3042    -3065    -3087    -3107    -3115 
   -3099    -3068    -3038    -3017    -3011    -3034    -3086    -3154 
   -3229    -3296    -3352    -3399    -3439    -3470    -3493    -3510 
   -3510    -3497    -3476    -3438    -3385    -3330    -3277    -3237 
   -3218    -3229    -3261    -3296    -3319    -3315    -3281    -3211 
   -3118    -3019    -2934    -2882    -2868    -2891    -2941    -3006 
   -3075    -3134    -3173    -3198    -3214    -3219    -3222    -3225 
   -3218    -3213    -3222    -3245    -3279    -3318    -3350    -3360 
   -3342    -3296    -3227    -3156    -3099    -3069    -3068    -3084 
   -3113    -3145    -3167    -3177    -3175    -3167    -3172    -3192 
   -3219    -3260    -3307    -3352    -3387    -3406    -3411    -3402 
   -3377    -3348    -3318    -3280    -3230    -3168    -3100    -3034 
   -2968    -2924    -2903    -2902    -2924    -2964    -3013    -3068 
   -3125    -3181    -3238    -3296    -3358    -3414    -3451    -3468 
   -3456    -3412    -3353    -3284    -3210    -3146    -3095    -3051 
   -3017    -3001    -2995    -2999    -3017    -3049    -3091    -3134 
   -3181    -3227    -3260    -3277    -3276    -3250    -3207    -3144 
   -3068    -3001    -2949    -2911    -2901    -2917    -2951    -3002 
   -3068    -3134    -3204    -3281    -3358    -3435    -3496    -3527 
   -3522    -3489    -3434    -3366    -3306    -3264    -3245    -3248 
   -3264    -3285    -3306    -3322    -3331    -3331    -3325    -3318 
   -3307    -3291    -3272    -3254    -3238    -3226    -3217    -3210 
   -3204    -3206    -3210    -3210    -3203    -3194    -3177    -3157 
   -3137    -3119    -3107    -3098    -3091    -3084    -3078    -3072 
   -3073    -3088    -3106    -3123    -3141    -3157    -3164    -3165 
   -3168    -3165    -3157    -3148    -3137    -3132    -3138    -3146 
   -3153    -3161    -3173    -3192    -3219    -3248    -3277    -3303 
   -3319    -3326    -3327    -3326    -3327    -3335    -3345    -3354 
   -3368    -3384    -3393    -3396    -3391    -3368    -3329    -3277 
   -3214    -3145    -3079    -3022    -2984    -2965    -2959    -2964 
   -2975    -2991    -3019    -3060    -3111    -3168    -3227    -3279 
   -3321    -3350    -3364    -3366    -3362    -3349    -3330    -3314 
   -3300    -3273    -3222    -3150    -3069    -2992    -2929    -2884 
   -2860    -2848    -2849    -2874    -2917    -2972    -3040    -3113 
   -3179    -3234    -3280    -3315    -3341    -3354    -3358    -3362 
   -3366    -3370    -3373    -3368    -3353    -3331    -3303    -3275 
   -3244    -3223    -3219    -3222    -3234    -3258    -3287    -3312 
   -3330    -3333    -3319    -3295    -3265    -3229    -3195    -3164 
   -3141    -3127    -3121    -3119    -3127    -3137    -3140    -3142 
   -3150    -3159    -3163    -3169    -3176    -3177    -3175    -3171 
   -3164    -3157    -3146    -3137    -3136    -3140    -3149    -3165 
   -3184    -3206    -3225    -3237    -3240    -3235    -3233    -3234 
   -3235    -3235    -3229    -3217    -3208    -3203    -3203    -3206 
   -3206    -3208    -3213    -3215    -3215    -3217    -3218    -3221 
   -3223    -3227    -3233    -3234    -3241    -3254    -3268    -3280 
   -3291    -3289    -3269    -3245    -3219    -3196    -3177    -3160 
   -3146    -3136    -3122    -3105    -3092    -3088    -3094    -3107 
   -3129    -3154    -3186    -3215    -3241    -3262    -3281    -3288 
   -3284    -3275    -3264    -3258    -3264    -3269    -3269    -3264 
   -3249    -3223    -3198    -3177    -3157    -3148    -3152    -3164 
   -3183    -3211    -3233    -3242    -3235    -3214    -3183    -3150 
