Origin Time       2025/03/29 04:45:00
Lat.              31.090
Long.             131.512
Depth. (km)       33
Mag.              4.6
Station Code      KGSH05
Station Lat.      31.8699
Station Long.     130.4958
Station Height(m) 73.342
Record Time       2025/03/29 04:45:54
Sampling Freq(Hz) 100Hz
Duration Time(s)  120
Dir.              4
Scale Factor      7845(gal)/8223790
Max. Acc. (gal)   1.017
Last Correction   2025/03/29 04:45:54
Memo.             
[...]
   13062    13120    13161    13163    13122    13045    12949    12853 
   12779    12741    12735    12749    12776    12815    12865    12935 
   13028    13119    13184    13211    13190    13130    13050    12972 
   12911    12879    12876    12893    12924    12951    12966    12974 
   12977    12973    12970    12972    12978    12987    12995    13007 
   13012    13007    12996    12981    12954    12924    12912    12912 
   12914    12926    12950    12981    13014    13041    13046    13035 
   13020    12999    12980    12966    12961    12961    12972    12989 
   13012    13038    13062    13078    13088    13086    13068    13028 
   12973    12904    12829    12758    12702    12672    12679    12722 
   12806    12928    13068    13193    13278    13305    13270    13184 
   13070    12954    12858    12803    12796    12839    12923    13026 
   13113    13171    13185    13153    13089    13004    12912    12827 
   12762    12734    12742    12775    12830    12903    12977    13042 
   13093    13120    13120    13096    13053    13008    12965    12926 
   12899    12888    12896    12923    12955    12988    13011    13019 
   13022    13026    13035    13049    13061    13062    13049    13020 
   12977    12920    12864    12815    12776    12756    12761    12789 
   12838    12903    12978    13058    13131    13181    13207    13211 
   13190    13153    13113    13073    13028    12985    12947    12922 
   12906    12896    12891    12889    12893    12907    12922    12938 
   12954    12972    13001    13045    13085    13120    13138    13123 
   13072    12988    12884    12780    12695    12642    12641    12696 
   12795    12915    13034    13128    13184    13198    13181    13144 
   13095    13050    13027    13023    13027    13036    13036    13020 
   12996    12961    12920    12887    12865    12854    12857    12876 
   12911    12954    12996    13032    13059    13074    13065    13035 
   12996    12957    12930    12930    12955    12997    13041    13077 
   13092    13077    13036    12981    12914    12842    12779    12731 
   12710    12715    12753    12816    12901    13001    13103    13186 
   13239    13254    13235    13189    13120    13039    12962    12895 
   12845    12819    12822    12838    12857    12881    12910    12950 
   13008    13073    13127    13167    13192    13190    13159    13108 
   13039    12960    12880    12818    12785    12779    12787    12802 
   12827    12858    12889    12924    12968    13005    13041    13073 
   13100    13117    13124    13117    13100    13072    13031    12978 
   12916    12861    12827    12819    12835    12869    12904    12943 
   12989    13032    13069    13105    13126    13119    13095    13055 
   13008    12965    12933    12915    12927    12960    12997    13039 
   13077    13095    13088    13058    13014    12954    12885    12825 
   12789    12780    12798    12838    12893    12954    13015    13068 
   13105    13124    13126    13103    13058    13007    12958    12910 
   12861    12818    12788    12777    12785    12815    12858    12899 
   12937    12973    13008    13042    13069    13089    13097    13089 
   13065    13026    12980    12941    12912    12900    12906    12920 
   12941    12972    13015    13061    13099    13117    13105    13065 
   13014    12961    12914    12881    12864    12856    12860    12877 
   12903    12939    12981    13018    13041    13049    13035    13000 
   12957    12912    12883    12874    12887    12914    12950    12988 
   13019    13046    13069    13081    13084    13084    13080    13066 
   13046    13023    13001    12987    12974    12960    12945    12926 
   12904    12889    12887    12900    12930    12969    13008    13049 
   13081    13103    13113    13112    13090    13045    12985    12927 
   12881    12850    12838    12846    12872    12906    12941    12972 
   12993    13003    13005    13000    12984    12961    12933    12899 
   12866    12843    12841    12847    12856    12870    12895    12924 
   12965    13014    13061    13105    13142    13167    13184    13192 
   13189    13173    13143    13107    13061    13001    12934    12876 
   12833    12808    12804    12820    12854    12899    12949    13001 
   13047    13080    13092    13082    13057    13024    12999    12978 
   12969    12968    12966    12961    12955    12942    12914    12879 
   12841    12811    12798    12796    12814    12853    12911    12985 
   13068    13130    13159    13153    13109    13039    12957    12876 
   12808    12768    12764    12802    12877    12969    13063    13147 
   13201    13216    13196    13147    13072    12985    12907    12850 
   12826    12830    12854    12900    12962    13023    13077    13120 
   13147    13153    13131    13092    13043    12988    12937    12891 
   12856    12839    12847    12870    12896    12928    12968    13001 
   13026    13046    13049    13038    13024    13011    13003    12999 
   12997    12991    12976    12950    12923    12897    12872    12858 
   12868    12895    12937    12992    13046    13084    13108    13120 
   13112    13085    13038    12976    12912    12854    12811    12795 
   12802    12829    12884    12962    13043    13116    13167    13189 
   13182    13154    13109    13050    12982    12914    12856    12812 
   12788    12787    12800    12829    12873    12931    12991    13046 
   13093    13138    13170    13180    13165    13122    13051    12969 
   12891    12827    12795    12796    12823    12872    12937    13014 
   13081    13120    13128    13100    13046    12988    12935    12891 
   12860    12842    12838    12852    12880    12916    12960    13008 
   13050    13082    13108    13111    13082    13038    12982    12924 
   12872    12830    12807    12806    12827    12873    12946    13032 
   13112    13170    13200    13196    13157    13095    13016    12931 
   12858    12811    12791    12795    12819    12860    12906    12947 
   12982    13005    13011    13003    12988    12974    12965    12961 
   12964    12968    12972    12980    12991    13004    13020    13039 
   13059    13081    13096    13097    13082    13055    13018    12974 
   12928    12895    12873    12866    12883    12920    12976    13035 
   13078    13100    13097    13068    13020    12962    12897    12841 
   12802    12787    12802    12835    12879    12922    12965    13011 
   13055    13092    13113    13124    13130    13124    13104    13069 
   13019    12953    12881    12822    12781    12760    12761    12789 
   12846    12931    13034    13138    13227    13293    13328    13324 
   13285    13215    13115    12999    12884    12784    12717    12685 
   12688    12717    12768    12830    12892    12946    12982    12997 
   12995    12984    12972    12957    12938    12916    12906    12911 
   12933    12964    13000    13039    13081    13119    13143    13155 
   13159    13144    13116    13086    13058    13028    12996    12968 
   12950    12941    12945    12965    12992    13018    13034    13035 
   13024    12996    12950    12889    12825    12769    12733    12718 
   12723    12746    12789    12849    12918    12993    13062    13111 
   13140    13155    13149    13117    13063    12997    12926    12862 
   12818    12798    12799    12823    12870    12933    13005    13084 
   13153    13204    13231    13230    13198    13138    13053    12955 
   12860    12787    12746    12737    12758    12811    12896    13005 
   13120    13217    13281    13300    13274    13208    13115    13003 
   12881    12765    12675    12621    12609    12642    12712    12806 
   12906    12997    13074    13127    13140    13119    13078    13020 
   12953    12893    12843    12807    12799    12815    12850    12906 
   12972    13035    13096    13149    13194    13225    13230    13211 
   13178    13127    13066    13007    12955    12912    12879    12860 
   12858    12870    12889    12912    12943    12976    13008    13045 
   13073    13081    13070    13045    13012    12978    12946    12926 
   12919    12924    12947    12982    13016    13041    13057    13059 
   13043    13007    12958    12896    12831    12777    12742    12727 
   12735    12771    12827    12895    12966    13032    13080    13104 
   13111    13105    13090    13066    13041    13022    13007    12999 
   13001    13008    13016    13023    13026    13027    13034    13035 
   13027    13016    13005    12996    12987    12977    12965    12942 
   12908    12873    12841    12807    12779    12766    12783    12833 
   12910    12997    13086    13165    13223    13254    13257    13230 
   13173    13089    12992    12896    12814    12753    12721    12712 
   12733    12780    12846    12914    12976    13028    13066    13086 
   13093    13089    13074    13057    13047    13042    13034    13023 
   13005    12972    12924    12880    12838    12800    12780    12781 
   12800    12841    12900    12969    13036    13095    13147    13186 
   13208    13211    13189    13151    13101    13049    13008    12982 
   12966    12958    12955    12961    12968    12976    12987    12989 
   12981    12966    12945    12912    12873    12839    12822    12823 
   12846    12889    12941    12991    13038    13084    13120    13146 
   13158    13146    13111    13069    13027    12988    12953    12924 
   12916    12919    12924    12935    12949    12961    12970    12974 
   12972    12968    12970    12977    12988    13004    13026    13049 
   13070    13078    13080    13081    13073    13050    13020    12978 
   12930    12888    12858    12841    12834    12838    12850    12872 
   12895    12919    12945    12966    12985    13005    13016    13015 
   13005    12987    12957    12922    12893    12880    12874    12877 
   12893    12919    12945    12973    13000    13022    13041    13059 
   13073    13081    13082    13070    13043    13009    12962    12906 
   12842    12773    12712    12671    12642    12630    12638    12656 
   12681    12727    12789    12869    12961    13055    13143    13224 
   13286    13316    13309    13273    13208    13126    13038    12957 
   12895    12861    12866    12911    12991    13095    13198    13285 
   13340    13367    13363    13325    13261    13181    13095    13003 
   12922    12856    12798    12749    12714    12694    12690    12699 
   12715    12734    12757    12787    12818    12839    12856    12868 
   12880    12893    12911    12931    12955    12981    13012    13055 
   13107    13162    13208    13235    13243    13228    13189    13126 
   13045    12953    12869    12802    12758    12745    12761    12799 
   12860    12941    13028    13116    13198    13273    13336    13386 
   13424    13443    13429    13382    13302    13190    13059    12926 
   12791    12671    12582    12530    12515    12534    12583    12652 
   12729    12808    12883    12941    12976    12988    12980    12955 
   12924    12895    12861    12827    12800    12775    12757    12754 
   12757    12761    12766    12775    12791    12820    12864    12924 
   13004    13105    13217    13327    13421    13490    13521    13513 
   13470    13396    13301    13198    13097    13015    12957    12920 
   12906    12906    12919    12943    12969    12987    12999    12996 
   12977    12950    12923    12891    12856    12820    12787    12754 
   12729    12718    12723    12742    12777    12831    12895    12954 
   12997    13016    13016    13003    12978    12951    12927    12907 
   12899    12915    12950    12995    13047    13096    13130    13144 
   13134    13097    13043    12974    12903    12852    12838    12865 
   12934    13043    13181    13328    13466    13568    13617    13602 
   13518    13374    13186    12968    12741    12525    12345    12218 
   12159    12171    12245    12371    12542    12739    12939    13123 
   13273    13374    13419    13406    13346    13248    13122    12977 
   12837    12727    12661    12644    12676    12753    12860    12981 
   13099    13189    13240    13244    13205    13127    13026    12924 
   12834    12776    12764    12800    12879    12996    13136    13279 
   13416    13532    13616    13655    13636    13560    13440    13286 
   13113    12934    12764    12622    12517    12455    12438    12465 
   12528    12619    12731    12850    12966    13068    13144    13188 
   13198    13178    13134    13073    13005    12941    12889    12862 
   12858    12865    12868    12854    12819    12766    12696    12618 
   12548    12499    12487    12523    12607    12735    12900    13078 
   13255    13423    13564    13671    13730    13730    13675    13579 
   13448    13290    13122    12960    12822    12719    12656    12634 
   12650    12692    12761    12847    12938    13023    13082    13101 
   13092    13065    13016    12953    12888    12835    12793    12765 
   12760    12777    12804    12843    12889    12928    12960    12972 
   12950    12900    12834    12754    12675    12607    12560    12544 
   12571    12641    12753    12892    13031    13151    13244    13304 
   13323    13312    13284    13236    13188    13157    13149    13162 
   13193    13235    13279    13313    13327    13313    13266    13181 
   13062    12919    12761    12595    12434    12302    12217    12199 
   12264    12413    12629    12889    13181    13477    13738    13934 
   14041    14040    13929    13725    13450    13127    12793    12491 
   12249    12093    12046    12098    12236    12449    12706    12974 
   13230    13437    13572    13622    13589    13481    13317    13124 
   12923    12734    12582    12480    12440    12464    12544    12669 
   12822    12985    13131    13240    13297    13292    13220    13107 
   12977    12843    12727    12646    12615    12626    12676    12762 
   12874    12997    13126    13250    13351    13427    13467    13452 
   13389    13290    13158    13008    12856    12717    12623    12595 
   12623    12707    12843    13009    13185    13354    13491    13575 
   13594    13551    13458    13331    13189    13051    12937    12854 
   12814    12818    12854    12914    12980    13030    13050    13035 
   12984    12897    12784    12663    12556    12476    12425    12409 
   12425    12471    12549    12652    12766    12889    13011    13108 
   13174    13212    13223    13194    13122    13012    12883    12748 
   12627    12537    12486    12476    12513    12596    12715    12864 
   13031    13200    13343    13452    13514    13518    13467    13365 
   13228    13085    12954    12856    12811    12823    12888    13009 
   13166    13327    13467    13568    13614    13601    13527    13400 
   13225    13018    12807    12615    12469    12384    12359    12394 
   12483    12613    12766    12920    13043    13126    13161    13144 
   13081    12988    12879    12766    12675    12615    12594    12604 
   12646    12718    12810    12910    13009    13097    13161    13194 
   13204    13190    13154    13105    13050    12991    12943    12923 
   12935    12977    13047    13138    13239    13339    13424    13486 
   13520    13513    13468    13394    13297    13173    13022    12862 
   12707    12573    12479    12432    12429    12479    12575    12703 
   12853    13005    13136    13232    13278    13271    13219    13128 
   13011    12885    12772    12680    12621    12600    12618    12667 
   12737    12820    12910    12995    13059    13101    13122    13126 
   13124    13122    13120    13130    13146    13171    13205    13240 
   13261    13267    13254    13212    13151    13080    12995    12907 
   12826    12756    12708    12684    12675    12679    12692    12707 
   12731    12754    12776    12810    12853    12903    12961    13027 
   13089    13134    13158    13169    13165    13139    13100    13058 
   13015    12977    12962    12973    12996    13020    13039    13049 
   13039    13014    12972    12918    12860    12812    12781    12766 
   12768    12791    12827    12870    12918    12962    12993    12999 
   12985    12966    12945    12926    12915    12910    12910    12908 
   12906    12903    12895    12877    12857    12843    12847    12873 
   12926    13012    13126    13262    13408    13541    13645    13705 
   13717    13680    13597    13481    13342    13189    13051    12942 
   12866    12834    12837    12864    12908    12964    13019    13066 
   13095    13093    13062    13008    12931    12841    12750    12663 
   12591    12553    12555    12588    12649    12726    12808    12891 
   12960    13004    13015    12984    12916    12835    12745    12653 
   12584    12541    12523    12542    12599    12681    12781    12892 
   13001    13095    13170    13232    13271    13282    13270    13244 
   13204    13150    13089    13031    12982    12951    12939    12945 
   12968    13000    13032    13070    13112    13143    13159    13157 
   13130    13084    13024    12955    12887    12827    12784    12760 
   12758    12776    12807    12845    12881    12910    12926    12924 
   12914    12892    12865    12846    12841    12843    12850    12865 
   12888    12922    12966    13022    13088    13154    13219    13282 
   13336    13381    13401    13389    13355    13298    13221    13134 
   13045    12958    12881    12816    12769    12744    12738    12749 
   12768    12799    12842    12884    12919    12950    12984    13024 
   13066    13103    13126    13126    13104    13070    13023    12965 
   12904    12841    12776    12718    12677    12653    12636    12626 
   12634    12660    12703    12764    12839    12918    13004    13096 
   13184    13261    13320    13352    13358    13336    13292    13227 
   13146    13055    12970    12906    12869    12854    12857    12879 
   12916    12970    13032    13090    13143    13178    13188    13170 
   13138    13095    13042    12980    12924    12887    12868    12869 
   12891    12927    12972    13024    13074    13116    13140    13142 
   13123    13093    13054    13011    12965    12926    12893    12870 
   12858    12850    12843    12839    12830    12823    12830    12843 
   12854    12862    12870    12885    12903    12926    12951    12974 
   12993    13012    13030    13043    13051    13050    13041    13026 
   13008    12991    12969    12941    12915    12903    12907    12923 
   12951    12989    13031    13076    13123    13163    13193    13209 
   13208    13186    13151    13104    13042    12968    12892    12823 
   12768    12727    12700    12691    12702    12735    12784    12842 
   12904    12964    13016    13063    13100    13123    13131    13124 
   13100    13054    12997    12928    12843    12752    12668    12596 
   12549    12529    12540    12575    12626    12698    12785    12877 
   12970    13055    13124    13185    13236    13275    13298    13300 
   13289    13273    13251    13231    13216    13200    13184    13169 
   13157    13146    13124    13086    13041    12988    12927    12865 
   12802    12741    12692    12668    12660    12667    12691    12722 
   12757    12793    12822    12843    12858    12861    12850    12834 
   12823    12820    12820    12829    12845    12877    12924    12974 
