Origin Time       2025/03/29 04:45:00
Lat.              31.090
Long.             131.512
Depth. (km)       33
Mag.              4.6
Station Code      KGSH09
Station Lat.      31.3741
Station Long.     130.4333
Station Height(m) 19.091
Record Time       2025/03/29 04:45:34
Sampling Freq(Hz) 100Hz
Duration Time(s)  120
Dir.              3
Scale Factor      3923(gal)/8224838
Max. Acc. (gal)   0.339
Last Correction   2025/03/29 04:45:34
Memo.             
[...]
   15584    15585    15584    15581    15581    15580    15580    15583 
   15580    15577    15580    15580    15577    15577    15577    15574 
   15572    15570    15570    15568    15566    15568    15570    15570 
   15573    15583    15591    15601    15614    15624    15633    15633 
   15624    15615    15607    15599    15592    15587    15581    15573 
   15568    15577    15593    15601    15600    15585    15561    15535 
   15519    15512    15512    15514    15520    15530    15545    15568 
   15588    15599    15607    15618    15628    15646    15661    15662 
   15650    15619    15579    15543    15523    15519    15533    15564 
   15606    15641    15665    15668    15643    15604    15565    15527 
   15488    15446    15411    15398    15415    15476    15579    15677 
   15730    15735    15715    15687    15661    15634    15600    15569 
   15558    15564    15570    15568    15560    15547    15546    15569 
   15603    15637    15673    15693    15661    15574    15485    15441 
   15456    15518    15606    15674    15672    15587    15479    15411 
   15407    15473    15592    15712    15766    15728    15615    15475 
   15381    15381    15460    15581    15714    15809    15811    15722 
   15615    15554    15538    15535    15515    15487    15504    15568 
   15635    15708    15778    15804    15765    15680    15570    15448 
   15342    15279    15271    15321    15414    15518    15615    15670 
   15662    15645    15688    15766    15803    15762    15687    15627 
   15573    15507    15464    15481    15534    15592    15650    15709 
   15772    15792    15732    15631    15554    15520    15507    15469 
   15383    15271    15202    15236    15363    15526    15669    15749 
   15773    15786    15811    15831    15813    15730    15619    15542 
   15514    15531    15588    15670    15735    15735    15682    15606 
   15527    15475    15454    15457    15481    15511    15519    15502 
   15480    15452    15406    15377    15427    15539    15654    15735 
   15755    15688    15579    15499    15483    15547    15681    15812 
   15873    15869    15824    15746    15622    15465    15322    15246 
   15282    15411    15553    15657    15715    15731    15697    15616 
   15514    15442    15448    15529    15616    15645    15624    15604 
   15615    15657    15703    15719    15718    15707    15666    15608 
   15574    15549    15503    15476    15496    15534    15556    15552 
   15538    15530    15525    15520    15519    15520    15549    15595 
   15618    15607    15574    15537    15526    15564    15627    15687 
   15715    15687    15623    15583    15581    15597    15610    15599 
   15558    15516    15489    15473    15485    15543    15614    15651 
   15643    15611    15595    15614    15639    15646    15628    15604 
   15585    15568    15557    15574    15612    15626    15587    15522 
   15480    15483    15529    15585    15603    15583    15557    15547 
   15550    15561    15568    15560    15533    15507    15511    15538 
   15574    15612    15634    15623    15607    15614    15647    15697 
   15730    15720    15672    15608    15560    15529    15488    15437 
   15403    15434    15530    15626    15670    15678    15677    15680 
   15682    15669    15638    15601    15562    15523    15488    15466 
   15476    15512    15561    15616    15669    15699    15692    15643 
   15576    15525    15500    15498    15514    15539    15560    15558 
   15539    15531    15556    15584    15585    15564    15541    15533 
   15546    15565    15579    15599    15628    15639    15615    15574 
   15560    15583    15626    15660    15674    15678    15681    15680 
   15673    15650    15607    15561    15549    15587    15650    15695 
   15701    15660    15588    15525    15491    15475    15465    15456 
   15438    15411    15391    15400    15453    15543    15642    15708 
   15723    15693    15639    15584    15534    15498    15487    15508 
   15568    15646    15715    15746    15736    15709    15685    15669 
   15657    15643    15604    15530    15450    15403    15403    15448 
   15516    15579    15612    15603    15569    15547    15553    15579 
   15600    15611    15619    15624    15620    15610    15616    15647 
   15692    15724    15730    15711    15689    15674    15657    15634 
   15597    15558    15523    15506    15511    15514    15491    15452 
   15418    15408    15430    15472    15514    15549    15572    15587 
   15596    15599    15591    15570    15543    15541    15574    15635 
   15699    15741    15754    15750    15719    15661    15592    15530 
   15491    15476    15468    15461    15472    15503    15531    15541 
   15541    15543    15552    15574    15612    15645    15658    15654 
   15639    15623    15623    15639    15670    15704    15730    15745 
   15730    15685    15645    15626    15618    15606    15593    15577 
   15552    15520    15488    15461    15442    15433    15442    15468 
   15493    15507    15500    15473    15445    15441    15469    15510 
   15546    15579    15600    15610    15630    15665    15695    15716 
   15723    15708    15682    15670    15680    15700    15715    15705 
   15647    15554    15464    15406    15380    15385    15414    15460 
   15511    15558    15595    15608    15595    15565    15527    15493 
   15480    15488    15507    15537    15581    15634    15678    15712 
   15745    15766    15754    15719    15687    15653    15620    15606 
   15601    15587    15553    15508    15472    15466    15491    15530 
   15566    15592    15603    15593    15579    15580    15596    15610 
   15615    15610    15587    15557    15537    15537    15558    15585 
   15606    15628    15651    15655    15635    15608    15588    15595 
   15628    15666    15678    15660    15622    15576    15535    15512 
   15520    15550    15579    15589    15581    15564    15549    15547 
   15560    15581    15603    15612    15614    15612    15599    15569 
   15537    15510    15484    15476    15504    15562    15638    15708 
   15732    15709    15674    15646    15620    15606    15596    15580 
   15558    15549    15554    15577    15603    15607    15585    15562 
   15561    15581    15606    15606    15581    15538    15488    15453 
   15450    15475    15518    15554    15569    15560    15533    15496 
   15473    15476    15512    15574    15649    15718    15754    15751 
   15726    15700    15695    15705    15720    15723    15715    15696 
   15666    15628    15585    15543    15508    15489    15493    15503 
   15493    15461    15422    15394    15383    15390    15410    15434 
   15465    15503    15545    15585    15615    15628    15626    15615 
   15611    15623    15646    15674    15703    15719    15719    15714 
   15718    15732    15750    15750    15719    15674    15641    15623 
   15614    15610    15599    15576    15554    15539    15526    15515 
   15510    15508    15495    15477    15469    15464    15460    15453 
   15438    15426    15418    15412    15431    15483    15552    15618 
   15668    15700    15715    15712    15699    15680    15655    15637 
   15626    15615    15596    15581    15577    15581    15587    15591 
   15593    15591    15588    15576    15554    15527    15512    15522 
   15543    15566    15587    15593    15597    15622    15664    15705 
   15732    15732    15705    15665    15615    15570    15538    15522 
   15519    15525    15542    15570    15593    15608    15612    15604 
   15589    15570    15543    15507    15475    15454    15457    15477 
   15507    15542    15576    15599    15615    15626    15628    15631 
   15631    15618    15597    15589    15592    15604    15626    15646 
   15654    15643    15610    15558    15512    15483    15466    15458 
   15458    15458    15452    15448    15458    15491    15542    15607 
   15672    15726    15750    15742    15714    15691    15685    15700 
   15727    15755    15777    15782    15766    15743    15720    15689 
   15649    15596    15529    15464    15419    15399    15398    15400 
   15394    15381    15385    15422    15473    15510    15534    15560 
   15588    15620    15649    15650    15623    15588    15568    15573 
   15603    15645    15673    15672    15650    15616    15583    15560 
   15543    15523    15507    15499    15498    15499    15502    15506 
   15506    15506    15516    15535    15558    15581    15593    15597 
   15601    15603    15606    15619    15630    15633    15631    15630 
   15637    15653    15672    15688    15689    15682    15682    15676 
   15655    15628    15599    15568    15549    15542    15543    15550 
   15560    15565    15562    15547    15529    15514    15508    15515 
   15529    15539    15541    15537    15535    15539    15561    15596 
   15634    15670    15705    15732    15747    15741    15722    15709 
   15697    15676    15642    15599    15553    15514    15489    15477 
   15473    15477    15477    15464    15446    15439    15444    15460 
   15492    15530    15561    15593    15620    15639    15657    15673 
   15680    15681    15678    15673    15670    15664    15650    15639 
   15631    15626    15627    15627    15611    15587    15558    15529 
   15504    15479    15449    15435    15449    15477    15508    15538 
   15570    15593    15593    15576    15558    15550    15549    15558 
   15569    15572    15557    15529    15506    15507    15539    15592 
   15645    15677    15693    15703    15696    15673    15645    15614 
   15587    15574    15573    15581    15595    15608    15619    15631 
   15655    15681    15693    15692    15665    15607    15542    15485 
   15441    15422    15419    15422    15427    15434    15452    15483 
   15512    15538    15564    15589    15615    15635    15643    15647 
   15661    15681    15705    15735    15759    15777    15788    15780 
   15761    15743    15720    15688    15657    15623    15583    15543 
   15519    15502    15483    15475    15479    15480    15481    15492 
   15507    15527    15550    15560    15561    15566    15577    15581 
   15572    15556    15539    15526    15520    15514    15504    15503 
   15510    15515    15529    15541    15539    15534    15537    15543 
   15546    15546    15541    15537    15542    15553    15568    15591 
   15624    15662    15692    15722    15750    15763    15761    15745 
   15716    15681    15647    15619    15601    15589    15580    15565 
   15547    15531    15511    15484    15458    15438    15430    15431 
   15437    15444    15445    15448    15457    15477    15512    15554 
   15585    15608    15630    15649    15669    15684    15685    15677 
   15672    15666    15661    15668    15677    15676    15666    15646 
   15612    15580    15558    15546    15541    15554    15576    15592 
   15610    15622    15618    15611    15600    15579    15561    15556 
   15546    15531    15525    15533    15538    15538    15541    15550 
   15562    15577    15593    15597    15585    15566    15550    15541 
   15538    15545    15572    15614    15647    15661    15657    15642 
   15626    15619    15620    15631    15646    15651    15642    15616 
   15584    15556    15534    15526    15543    15569    15589    15603 
   15607    15601    15595    15595    15599    15608    15618    15616 
   15607    15591    15576    15574    15591    15604    15607    15606 
   15601    15588    15566    15549    15531    15508    15491    15485 
   15487    15491    15504    15526    15552    15577    15599    15608 
   15618    15634    15643    15643    15650    15661    15666    15664 
   15653    15630    15604    15583    15561    15547    15547    15561 
   15576    15573    15556    15534    15516    15510    15519    15529 
   15529    15530    15535    15543    15565    15589    15603    15608 
   15619    15626    15607    15576    15547    15530    15525    15530 
   15542    15558    15572    15576    15570    15562    15556    15558 
   15570    15595    15626    15651    15673    15691    15693    15687 
   15676    15654    15627    15607    15593    15588    15587    15591 
   15597    15611    15624    15642    15662    15672    15670    15666 
   15664    15674    15691    15704    15711    15707    15691    15674 
   15660    15647    15633    15607    15564    15515    15471    15437 
   15415    15400    15381    15357    15330    15315    15315    15327 
   15342    15353    15363    15372    15394    15422    15448    15475 
   15506    15534    15569    15608    15637    15645    15646    15642 
   15633    15623    15614    15595    15572    15553    15534    15522 
   15526    15537    15549    15553    15550    15552    15564    15583 
   15604    15628    15650    15672    15691    15700    15699    15685 
   15666    15641    15601    15556    15516    15488    15481    15489 
   15496    15491    15472    15445    15422    15399    15376    15367 
   15371    15385    15410    15444    15491    15553    15618    15685 
   15759    15838    15905    15959    15988    15984    15951    15900 
   15847    15808    15780    15757    15735    15716    15697    15673 
   15647    15615    15562    15499    15446    15415    15400    15406 
   15433    15468    15510    15547    15579    15597    15589    15539 
   15456    15349    15241    15161    15129    15147    15217    15329 
   15461    15597    15731    15858    15981    16093    16187    16259 
   16294    16287    16240    16170    16087    16001    15920    15851 
   15782    15701    15624    15552    15473    15385    15288    15195 
   15129    15103    15107    15130    15179    15253    15342    15444 
   15549    15646    15726    15782    15807    15808    15797    15777 
   15759    15751    15754    15766    15782    15799    15805    15793 
   15757    15691    15608    15520    15427    15333    15244    15171 
   15120    15098    15107    15153    15233    15325    15408    15472 
   15523    15566    15604    15646    15692    15731    15755    15761 
   15757    15746    15720    15685    15654    15626    15611    15612 
   15628    15661    15707    15751    15788    15809    15816    15817 
   15820    15819    15813    15801    15778    15750    15718    15673 
   15612    15534    15441    15337    15230    15137    15072    15030 
   15006    15003    15016    15041    15088    15160    15249    15338 
   15411    15469    15496    15502    15515    15553    15610    15688 
   15772    15843    15897    15934    15943    15924    15892    15859 
   15830    15803    15774    15739    15697    15650    15607    15584 
   15580    15576    15560    15531    15491    15462    15461    15483 
   15519    15564    15596    15608    15622    15649    15682    15722 
   15757    15784    15803    15804    15785    15749    15692    15628 
   15565    15507    15454    15411    15367    15322    15282    15241 
   15198    15163    15132    15109    15110    15145    15223    15349 
   15510    15684    15843    15975    16081    16155    16190    16178 
   16119    16029    15925    15816    15709    15611    15526    15457 
   15411    15379    15353    15342    15346    15363    15395    15439 
   15487    15531    15572    15610    15654    15709    15765    15809 
   15843    15871    15885    15876    15842    15776    15678    15570 
   15471    15394    15350    15342    15360    15402    15454    15498 
   15526    15538    15539    15533    15516    15499    15485    15469 
   15449    15418    15376    15334    15306    15296    15318    15372 
   15448    15529    15607    15670    15714    15741    15759    15774 
   15786    15797    15811    15830    15846    15857    15861    15865 
   15863    15846    15813    15773    15723    15661    15599    15550 
   15519    15500    15493    15499    15515    15534    15547    15556 
   15564    15579    15601    15635    15669    15691    15693    15669 
   15611    15525    15418    15307    15203    15120    15068    15055 
   15072    15114    15168    15234    15302    15367    15433    15502 
   15574    15645    15701    15743    15769    15782    15790    15799 
   15800    15789    15768    15749    15728    15711    15695    15681 
   15672    15670    15668    15651    15624    15593    15562    15535 
   15518    15518    15541    15579    15619    15654    15676    15687 
   15682    15655    15610    15558    15518    15495    15485    15485 
   15496    15514    15537    15568    15603    15630    15646    15647 
   15639    15633    15619    15589    15552    15512    15477    15456 
   15444    15431    15407    15377    15361    15363    15384    15429 
   15484    15542    15601    15660    15722    15781    15828    15865 
   15894    15911    15915    15911    15897    15873    15843    15807 
   15770    15741    15711    15677    15646    15623    15601    15579 
   15561    15547    15538    15529    15516    15503    15491    15480 
   15479    15489    15508    15529    15546    15556    15553    15537 
   15514    15487    15461    15445    15442    15445    15449    15458 
   15468    15472    15483    15496    15500    15499    15502    15508 
   15522    15539    15553    15562    15570    15579    15581    15583 
   15588    15599    15619    15645    15673    15700    15727    15749 
   15757    15757    15755    15753    15751    15750    15738    15720 
   15700    15674    15643    15615    15596    15581    15570    15562 
   15557    15553    15549    15542    15538    15541    15545    15547 
   15546    15547    15549    15543    15537    15535    15533    15530 
   15527    15531    15542    15553    15561    15566    15562    15550 
   15541    15539    15543    15549    15557    15570    15584    15599 
   15615    15628    15634    15633    15624    15607    15580    15553 
   15526    15504    15480    15457    15449    15454    15465    15483 
   15504    15526    15546    15561    15574    15591    15603    15607 
   15611    15614    15612    15610    15612    15626    15641    15654 
   15668    15673    15670    15668    15664    15657    15657    15661 
   15665    15664    15661    15651    15639    15628    15624    15624 
   15622    15619    15623    15626    15623    15624    15628    15626 
   15618    15603    15584    15565    15546    15527    15514    15504 
   15493    15481    15472    15461    15446    15434    15425    15421 
   15427    15446    15476    15508    15538    15561    15579    15589 
   15595    15604    15612    15615    15615    15610    15596    15581 
   15564    15546    15539    15543    15554    15564    15569    15574 
   15577    15577    15587    15606    15638    15678    15724    15768 
   15797    15815    15823    15819    15793    15755    15722    15688 
   15645    15607    15580    15554    15522    15492    15466    15446 
   15437    15437    15441    15449    15462    15479    15496    15516 
   15543    15573    15597    15616    15626    15627    15624    15619 
   15603    15580    15554    15531    15504    15473    15450    15435 
   15423    15418    15422    15437    15456    15476    15499    15525 
   15552    15573    15589    15607    15623    15645    15666    15681 
   15688    15687    15672    15649    15631    15618    15601    15593 
   15595    15599    15610    15626    15643    15664    15676    15677 
