Origin Time       2025/03/29 04:45:00
Lat.              31.090
Long.             131.512
Depth. (km)       33
Mag.              4.6
Station Code      KGSH06
Station Lat.      31.6988
Station Long.     130.4594
Station Height(m) -71.93
Record Time       2025/03/29 04:45:49
Sampling Freq(Hz) 100Hz
Duration Time(s)  120
Dir.              3
Scale Factor      2940(gal)/6170270
Max. Acc. (gal)   0.203
Last Correction   2025/03/29 04:45:34
Memo.             
[...]
   63611    63593    63591    63606    63637    63680    63728    63776 
   63817    63851    63872    63873    63861    63837    63805    63772 
   63734    63692    63656    63631    63614    63611    63622    63648 
   63688    63732    63772    63806    63827    63833    63825    63805 
   63778    63749    63723    63699    63676    63657    63651    63656 
   63663    63668    63678    63692    63705    63714    63715    63715 
   63722    63727    63727    63725    63723    63720    63714    63706 
   63695    63685    63678    63670    63668    63677    63695    63726 
   63762    63794    63824    63846    63852    63843    63820    63791 
   63766    63745    63731    63725    63723    63728    63742    63756 
   63768    63777    63777    63769    63750    63717    63670    63615 
   63565    63525    63499    63491    63504    63536    63580    63628 
   63677    63721    63758    63792    63823    63848    63863    63863 
   63848    63828    63809    63783    63754    63732    63721    63719 
   63725    63736    63745    63750    63751    63746    63733    63718 
   63705    63695    63687    63678    63668    63660    63653    63648 
   63647    63654    63679    63718    63760    63803    63847    63887 
   63912    63920    63911    63885    63849    63807    63756    63701 
   63648    63600    63564    63542    63530    63529    63547    63586 
   63635    63688    63740    63779    63805    63821    63818    63797 
   63770    63741    63712    63692    63684    63682    63685    63690 
   63690    63690    63690    63688    63685    63674    63662    63663 
   63679    63703    63728    63744    63752    63760    63765    63764 
   63759    63753    63743    63729    63717    63708    63700    63699 
   63701    63693    63683    63683    63691    63706    63728    63751 
   63771    63787    63798    63804    63802    63791    63776    63767 
   63765    63777    63794    63807    63814    63811    63796    63774 
   63751    63724    63698    63673    63646    63621    63602    63588 
   63584    63592    63607    63631    63666    63703    63736    63758 
   63766    63760    63744    63728    63717    63708    63699    63696 
   63701    63715    63741    63772    63795    63808    63816    63811 
   63794    63772    63742    63700    63660    63625    63597    63586 
   63589    63604    63632    63666    63698    63729    63760    63790 
   63815    63831    63831    63820    63798    63762    63717    63673 
   63633    63600    63581    63576    63585    63611    63648    63690 
   63730    63763    63795    63832    63867    63896    63922    63941 
   63946    63933    63909    63876    63835    63786    63736    63691 
   63653    63622    63603    63599    63602    63605    63610    63622 
   63641    63668    63694    63711    63726    63734    63739    63746 
   63748    63745    63741    63739    63745    63755    63761    63762 
   63757    63746    63734    63726    63722    63723    63734    63754 
   63772    63782    63779    63762    63733    63702    63670    63641 
   63624    63620    63619    63622    63628    63634    63649    63678 
   63715    63752    63786    63810    63818    63812    63798    63775 
   63749    63723    63701    63688    63681    63678    63681    63690 
   63701    63717    63730    63734    63732    63726    63715    63701 
   63687    63680    63681    63686    63694    63702    63707    63701 
   63686    63675    63673    63675    63685    63701    63719    63739 
   63756    63767    63774    63780    63786    63795    63811    63828 
   63840    63853    63867    63869    63853    63823    63782    63733 
   63685    63649    63621    63598    63587    63589    63597    63607 
   63625    63655    63688    63723    63755    63781    63803    63822 
   63834    63844    63855    63863    63862    63851    63831    63798 
   63757    63713    63671    63636    63614    63610    63619    63639 
   63666    63693    63720    63743    63760    63766    63765    63755 
   63735    63716    63699    63677    63651    63632    63621    63613 
   63612    63617    63627    63646    63671    63692    63713    63734 
   63753    63773    63789    63798    63800    63800    63796    63781 
   63762    63747    63735    63729    63730    63738    63748    63756 
   63759    63758    63751    63738    63722    63703    63683    63665 
   63653    63651    63654    63658    63666    63675    63684    63691 
   63704    63728    63755    63776    63796    63813    63819    63817 
   63809    63791    63771    63755    63736    63720    63703    63685 
   63672    63664    63651    63636    63620    63605    63595    63592 
   63595    63606    63624    63649    63678    63703    63720    63732 
   63739    63742    63746    63753    63754    63746    63739    63730 
   63718    63714    63718    63724    63730    63744    63759    63769 
   63776    63779    63783    63783    63773    63762    63754    63746 
   63739    63731    63721    63711    63701    63693    63691    63696 
   63712    63736    63757    63774    63789    63796    63795    63793 
   63781    63761    63742    63727    63714    63700    63688    63681 
   63676    63675    63680    63692    63700    63706    63710    63711 
   63712    63717    63718    63718    63724    63732    63739    63742 
   63744    63740    63725    63707    63696    63686    63673    63667 
   63672    63687    63706    63730    63755    63773    63781    63777 
   63764    63753    63746    63740    63742    63748    63754    63764 
   63773    63774    63768    63759    63750    63737    63719    63701 
   63683    63659    63633    63612    63600    63603    63621    63650 
   63685    63722    63755    63775    63781    63779    63770    63753 
   63732    63714    63698    63684    63675    63670    63672    63679 
   63686    63698    63708    63714    63720    63723    63717    63709 
   63705    63704    63708    63716    63727    63742    63755    63765 
   63774    63780    63783    63783    63780    63777    63775    63770 
   63763    63753    63742    63732    63727    63731    63741    63756 
   63782    63810    63834    63849    63846    63827    63797    63759 
   63718    63680    63647    63625    63609    63595    63588    63584 
   63586    63599    63620    63647    63682    63723    63762    63795 
   63817    63825    63817    63802    63780    63751    63724    63705 
   63691    63682    63686    63696    63705    63718    63730    63740 
   63752    63760    63761    63761    63759    63756    63759    63767 
   63777    63785    63790    63787    63768    63741    63707    63661 
   63614    63572    63540    63524    63519    63528    63554    63589 
   63627    63665    63702    63741    63780    63816    63842    63858 
   63866    63862    63842    63813    63784    63754    63726    63704 
   63692    63693    63704    63721    63742    63766    63789    63800 
   63800    63794    63784    63768    63743    63718    63694    63670 
   63653    63645    63643    63652    63670    63692    63715    63730 
   63738    63741    63741    63742    63746    63750    63756    63766 
   63773    63774    63772    63766    63757    63745    63732    63716 
   63692    63663    63633    63604    63576    63557    63552    63563 
   63586    63614    63647    63684    63717    63746    63767    63777 
   63783    63784    63782    63785    63791    63801    63807    63803 
   63796    63783    63762    63745    63730    63715    63707    63712 
   63721    63735    63754    63774    63793    63809    63815    63808 
   63792    63765    63730    63698    63673    63657    63651    63654 
   63665    63682    63697    63704    63709    63709    63700    63688 
   63677    63665    63654    63647    63640    63635    63629    63620 
   63617    63623    63632    63647    63668    63693    63717    63741 
   63763    63774    63774    63765    63754    63747    63740    63732 
   63727    63726    63727    63734    63744    63752    63764    63783 
   63805    63828    63848    63862    63869    63873    63874    63870 
   63864    63855    63843    63828    63806    63775    63739    63705 
   63675    63650    63633    63627    63629    63637    63645    63649 
   63652    63652    63646    63636    63625    63619    63613    63606 
   63603    63596    63589    63583    63578    63580    63586    63592 
   63605    63620    63632    63646    63653    63654    63662    63672 
   63685    63709    63735    63757    63781    63800    63810    63814 
   63815    63813    63808    63804    63798    63798    63803    63812 
   63823    63836    63850    63862    63872    63878    63878    63872 
   63856    63834    63808    63779    63744    63705    63665    63626 
   63591    63569    63560    63558    63563    63580    63605    63635 
   63668    63703    63730    63751    63769    63781    63784    63780 
   63777    63772    63764    63759    63759    63764    63775    63792 
   63815    63847    63879    63908    63933    63949    63956    63953 
   63937    63910    63880    63848    63817    63792    63776    63767 
   63766    63772    63782    63796    63807    63810    63806    63792 
   63764    63723    63673    63620    63576    63547    63538    63553 
   63589    63636    63683    63719    63736    63735    63720    63690 
   63649    63605    63560    63522    63497    63489    63497    63523 
   63567    63623    63682    63734    63781    63819    63842    63850 
   63842    63819    63788    63754    63721    63692    63673    63665 
   63672    63690    63712    63737    63758    63771    63778    63778 
   63769    63753    63729    63698    63665    63642    63632    63637 
   63655    63683    63711    63741    63765    63777    63779    63779 
   63774    63766    63756    63743    63730    63714    63693    63669 
   63642    63608    63572    63538    63504    63474    63453    63444 
   63447    63460    63485    63520    63563    63616    63672    63723 
   63771    63820    63867    63909    63946    63980    64010    64032 
   64047    64056    64055    64044    64028    64010    63986    63951 
   63916    63882    63847    63821    63806    63797    63796    63802 
   63805    63802    63791    63771    63742    63708    63667    63619 
   63572    63528    63485    63447    63421    63404    63397    63405 
   63423    63452    63492    63542    63597    63651    63699    63732 
   63746    63747    63737    63721    63706    63700    63704    63719 
   63744    63772    63790    63798    63791    63768    63744    63723 
   63705    63703    63714    63736    63772    63813    63851    63884 
   63907    63911    63895    63863    63818    63763    63706    63657 
   63618    63595    63593    63607    63632    63657    63677    63698 
   63718    63731    63744    63763    63787    63815    63843    63864 
   63872    63867    63850    63815    63770    63718    63661    63614 
   63577    63543    63519    63506    63502    63515    63538    63561 
   63587    63617    63645    63666    63685    63702    63716    63727 
   63737    63743    63748    63750    63750    63753    63754    63744 
   63730    63711    63681    63649    63620    63597    63591    63605 
   63632    63674    63728    63782    63826    63860    63876    63870 
   63847    63809    63767    63725    63685    63657    63646    63650 
   63663    63680    63698    63716    63732    63749    63764    63774 
   63784    63799    63817    63838    63856    63873    63889    63898 
   63897    63890    63873    63842    63804    63765    63719    63669 
   63623    63581    63546    63525    63515    63520    63547    63584 
   63629    63681    63731    63776    63813    63838    63857    63866 
   63862    63860    63860    63855    63850    63841    63827    63811 
   63792    63772    63752    63731    63716    63711    63718    63733 
   63753    63780    63808    63830    63850    63861    63863    63857 
   63845    63824    63792    63751    63702    63646    63586    63529 
   63476    63432    63407    63402    63418    63457    63515    63583 
   63653    63723    63790    63844    63882    63907    63922    63928 
   63921    63908    63893    63873    63848    63819    63784    63745 
   63703    63662    63623    63590    63569    63561    63568    63587 
   63611    63640    63671    63703    63738    63771    63794    63810 
   63820    63815    63800    63782    63760    63730    63695    63662 
   63630    63601    63576    63552    63532    63521    63516    63521 
   63540    63570    63610    63655    63702    63744    63785    63822 
   63847    63861    63868    63864    63850    63836    63821    63809 
   63803    63804    63807    63814    63823    63830    63833    63835 
   63838    63838    63836    63832    63822    63808    63786    63757 
   63727    63698    63668    63641    63620    63608    63603    63604 
   63611    63625    63644    63667    63694    63727    63762    63800 
   63840    63875    63906    63928    63937    63940    63931    63906 
   63877    63843    63800    63755    63709    63661    63614    63570 
   63528    63489    63453    63425    63407    63399    63405    63425 
   63459    63506    63563    63628    63696    63764    63833    63893 
   63942    63980    64003    64007    63991    63950    63894    63831 
   63762    63692    63633    63592    63569    63568    63590    63627 
   63675    63732    63795    63850    63893    63927    63948    63949 
   63933    63902    63857    63801    63739    63672    63607    63547 
   63489    63435    63388    63348    63321    63305    63296    63296 
   63310    63338    63373    63420    63474    63528    63583    63632 
   63670    63701    63721    63730    63738    63740    63733    63726 
   63722    63721    63725    63733    63744    63763    63792    63821 
   63852    63884    63915    63938    63951    63958    63956    63945 
   63933    63915    63898    63885    63870    63861    63862    63866 
   63866    63867    63870    63869    63859    63847    63828    63801 
   63773    63747    63716    63682    63651    63620    63596    63584 
   63581    63587    63602    63624    63647    63672    63697    63721 
   63743    63765    63784    63795    63805    63815    63817    63814 
   63812    63810    63813    63822    63833    63850    63873    63891 
   63908    63925    63937    63943    63946    63945    63940    63931 
   63918    63904    63882    63856    63835    63813    63790    63777 
   63765    63751    63733    63712    63690    63672    63657    63647 
   63646    63649    63653    63662    63670    63673    63672    63665 
   63657    63648    63641    63637    63636    63639    63645    63648 
   63651    63654    63649    63641    63635    63628    63617    63605 
   63592    63577    63561    63549    63540    63534    63533    63538 
   63543    63552    63565    63579    63593    63607    63624    63644 
   63665    63685    63700    63710    63717    63719    63715    63710 
   63700    63688    63675    63658    63638    63621    63606    63592 
   63578    63566    63561    63562    63565    63574    63588    63603 
   63618    63632    63644    63660    63679    63702    63732    63766 
   63799    63833    63862    63882    63896    63906    63911    63912 
   63911    63910    63907    63903    63901    63896    63885    63874 
   63858    63838    63815    63791    63772    63755    63734    63714 
   63697    63680    63667    63656    63647    63641    63637    63638 
   63646    63653    63662    63674    63682    63691    63701    63707 
   63712    63721    63728    63732    63735    63737    63740    63746 
   63754    63759    63763    63765    63763    63759    63755    63749 
   63747    63750    63755    63763    63776    63791    63805    63818 
   63826    63829    63828    63825    63818    63810    63805    63800 
   63799    63802    63797    63790    63787    63780    63770    63763 
   63760    63763    63769    63774    63780    63788    63791    63789 
   63786    63782    63774    63762    63750    63731    63709    63686 
   63661    63635    63609    63587    63568    63556    63552    63554 
   63560    63573    63591    63609    63629    63650    63670    63690 
   63708    63725    63742    63753    63759    63766    63772    63776 
   63781    63781    63777    63774    63771    63766    63765    63768 
   63771    63774    63777    63779    63783    63785    63786    63790 
   63792    63790    63789    63782    63771    63762    63751    63737 
   63725    63712    63701    63697    63694    63691    63688    63686 
   63691    63696    63700    63706    63714    63718    63719    63719 
   63711    63702    63690    63671    63653    63642    63634    63628 
   63628    63632    63636    63636    63635    63636    63633    63626 
   63619    63615    63611    63611    63618    63628    63641    63657 
   63673    63687    63704    63719    63730    63739    63746    63749 
   63750    63748    63743    63734    63724    63714    63703    63692 
   63687    63685    63681    63681    63687    63688    63690    63697 
   63699    63699    63702    63701    63700    63702    63706    63711 
   63719    63728    63738    63750    63763    63770    63770    63770 
   63770    63766    63755    63744    63736    63727    63721    63717 
   63710    63707    63706    63705    63706    63706    63704    63710 
   63718    63726    63736    63752    63774    63795    63814    63837 
   63855    63867    63877    63882    63879    63873    63865    63853 
   63839    63825    63808    63793    63781    63770    63759    63750 
   63739    63726    63712    63700    63690    63684    63681    63677 
   63677    63681    63687    63696    63706    63714    63724    63737 
   63747    63757    63769    63779    63784    63788    63792    63794 
   63792    63791    63791    63788    63782    63774    63763    63750 
   63736    63719    63700    63683    63667    63652    63638    63626 
   63616    63606    63598    63590    63580    63568    63561    63556 
   63553    63553    63560    63575    63595    63618    63644    63672 
   63695    63715    63734    63749    63763    63776    63784    63791 
   63801    63808    63810    63813    63814    63814    63811    63808 
   63805    63798    63784    63765    63747    63725    63701    63680 
   63663    63650    63642    63635    63629    63629    63631    63635 
   63641    63646    63653    63665    63673    63683    63696    63707 
   63715    63726    63734    63739    63747    63755    63760    63767 
   63778    63784    63787    63792    63794    63797    63802    63806 
   63806    63805    63802    63790    63772    63751    63725    63694 
   63662    63630    63599    63573    63552    63536    63528    63525 
   63527    63536    63546    63558    63578    63601    63629    63658 
   63688    63722    63755    63782    63806    63828    63848    63867 
   63882    63894    63905    63913    63915    63913    63909    63902 
   63891    63875    63857    63838    63816    63793    63775    63762 
   63753    63747    63745    63749    63757    63766    63775    63782 
   63789    63797    63801    63798    63793    63786    63779    63772 
   63760    63746    63731    63715    63703    63694    63680    63666 
   63658    63650    63639    63633    63632    63629    63629    63633 
   63640    63651    63662    63673    63688    63702    63714    63726 
