Origin Time       2025/03/29 04:45:00
Lat.              31.090
Long.             131.512
Depth. (km)       33
Mag.              4.6
Station Code      KGSH05
Station Lat.      31.8699
Station Long.     130.4958
Station Height(m) -33.658
Record Time       2025/03/29 04:45:54
Sampling Freq(Hz) 100Hz
Duration Time(s)  120
Dir.              3
Scale Factor      3923(gal)/8224838
Max. Acc. (gal)   0.190
Last Correction   2025/03/29 04:45:54
Memo.             
[...]
   22879    22881    22877    22877    22887    22902    22910    22917 
   22917    22905    22893    22886    22879    22878    22883    22897 
   22918    22936    22945    22954    22954    22945    22944    22947 
   22939    22929    22916    22891    22866    22848    22837    22840 
   22851    22862    22874    22885    22893    22898    22904    22916 
   22929    22937    22940    22933    22918    22900    22879    22862 
   22852    22852    22858    22869    22877    22874    22862    22850 
   22837    22827    22820    22820    22831    22854    22878    22904 
   22935    22962    22977    22986    22993    22991    22990    22991 
   22993    22995    22998    22998    22995    22990    22982    22971 
   22959    22951    22936    22917    22905    22889    22873    22866 
   22863    22862    22869    22877    22882    22890    22893    22893 
   22896    22896    22898    22908    22916    22929    22945    22954 
   22962    22968    22966    22962    22956    22944    22932    22928 
   22923    22910    22904    22897    22889    22879    22867    22858 
   22855    22854    22844    22839    22839    22833    22828    22825 
   22824    22824    22828    22832    22837    22852    22874    22900 
   22928    22963    22991    23016    23035    23040    23040    23041 
   23033    23018    23008    22995    22987    22982    22971    22954 
   22931    22905    22879    22854    22832    22819    22805    22792 
   22783    22781    22781    22789    22805    22825    22848    22873 
   22893    22902    22905    22906    22905    22905    22914    22928 
   22940    22955    22966    22975    22983    22990    22990    22985 
   22983    22983    22982    22979    22977    22972    22968    22967 
   22966    22959    22947    22935    22923    22908    22900    22894 
   22898    22906    22908    22906    22906    22900    22883    22869 
   22854    22839    22828    22827    22831    22839    22851    22863 
   22877    22889    22896    22894    22891    22891    22889    22886 
   22885    22887    22904    22924    22933    22940    22951    22954 
   22950    22943    22936    22932    22925    22909    22896    22885 
   22873    22866    22864    22869    22881    22894    22905    22913 
   22921    22924    22923    22921    22921    22918    22917    22914 
   22910    22906    22910    22914    22918    22932    22950    22959 
   22962    22963    22955    22944    22935    22923    22916    22917 
   22925    22931    22939    22947    22947    22939    22920    22896 
   22879    22874    22871    22873    22877    22885    22891    22893 
   22896    22900    22902    22905    22909    22910    22910    22913 
   22914    22914    22910    22908    22906    22901    22894    22889 
   22881    22875    22875    22879    22889    22898    22908    22917 
   22923    22924    22925    22929    22924    22918    22923    22928 
   22932    22943    22958    22966    22971    22974    22971    22964 
   22959    22950    22939    22935    22936    22937    22937    22935 
   22925    22910    22891    22874    22855    22839    22824    22813 
   22809    22806    22812    22831    22852    22867    22886    22904 
   22914    22918    22920    22918    22912    22908    22912    22913 
   22917    22932    22945    22950    22947    22940    22937    22933 
   22920    22904    22889    22873    22860    22856    22858    22860 
   22869    22878    22885    22896    22906    22912    22912    22909 
   22905    22902    22904    22908    22909    22910    22913    22917 
   22927    22928    22921    22917    22916    22912    22914    22921 
   22929    22935    22936    22936    22933    22925    22920    22917 
   22918    22921    22925    22928    22928    22924    22920    22912 
   22905    22901    22902    22904    22901    22902    22908    22910 
   22905    22904    22909    22914    22917    22931    22952    22966 
   22968    22967    22960    22948    22936    22924    22909    22901 
   22900    22901    22901    22908    22910    22912    22925    22944 
   22959    22967    22971    22971    22963    22951    22945    22940 
   22935    22929    22923    22918    22913    22902    22886    22869 
   22855    22843    22831    22817    22806    22802    22805    22805 
   22806    22810    22815    22823    22831    22835    22850    22866 
   22878    22891    22900    22901    22908    22913    22916    22920 
   22929    22939    22951    22964    22978    22990    22999    23006 
   23012    23009    22997    22981    22962    22940    22917    22896 
   22878    22856    22840    22831    22821    22815    22820    22829 
   22842    22859    22875    22887    22900    22904    22906    22912 
   22913    22914    22920    22925    22929    22937    22947    22956 
   22964    22966    22966    22966    22963    22960    22956    22952 
   22948    22944    22941    22937    22931    22925    22924    22925 
   22927    22927    22924    22925    22923    22914    22909    22900 
   22882    22867    22855    22842    22833    22832    22824    22825 
   22833    22833    22833    22844    22854    22863    22877    22886 
   22894    22905    22917    22923    22929    22940    22940    22940 
   22951    22959    22966    22981    22995    23006    23012    23014 
   23008    22991    22979    22970    22960    22958    22956    22955 
   22958    22956    22951    22950    22943    22929    22914    22897 
   22875    22856    22839    22823    22809    22802    22806    22816 
   22829    22851    22870    22886    22904    22916    22923    22927 
   22923    22917    22918    22917    22914    22917    22914    22904 
   22893    22882    22870    22859    22854    22851    22852    22852 
   22850    22850    22848    22846    22850    22856    22860    22871 
   22891    22908    22925    22950    22966    22972    22985    22997 
   23001    23001    22998    22989    22978    22975    22972    22970 
   22972    22972    22972    22970    22964    22960    22954    22944 
   22940    22935    22927    22918    22908    22897    22891    22882 
   22866    22858    22850    22839    22840    22844    22847    22851 
   22846    22840    22837    22831    22831    22835    22843    22856 
   22869    22883    22904    22921    22933    22943    22951    22958 
   22962    22964    22962    22956    22955    22952    22945    22941 
   22940    22936    22927    22921    22916    22905    22897    22891 
   22885    22881    22883    22893    22905    22918    22935    22948 
   22963    22977    22985    22993    22993    22989    22986    22981 
   22971    22959    22947    22936    22924    22908    22890    22877 
   22862    22846    22836    22825    22819    22816    22808    22801 
   22802    22804    22805    22820    22840    22854    22875    22906 
   22936    22966    22993    23014    23035    23052    23056    23056 
   23055    23047    23039    23028    23014    23005    22994    22978 
   22968    22960    22944    22933    22923    22902    22885    22875 
   22864    22855    22852    22851    22848    22844    22843    22839 
   22833    22831    22827    22825    22828    22836    22848    22863 
   22878    22891    22904    22912    22916    22913    22908    22901 
   22891    22889    22896    22897    22896    22900    22896    22883 
   22873    22864    22854    22850    22848    22844    22852    22875 
   22900    22920    22944    22970    22986    22990    22994    22994 
   22990    22986    22983    22983    22993    23001    23008    23024 
   23040    23044    23051    23060    23055    23039    23020    23001 
   22981    22967    22958    22952    22948    22943    22933    22918 
   22897    22874    22848    22825    22806    22790    22785    22788 
   22790    22793    22794    22801    22812    22820    22836    22859 
   22882    22906    22928    22945    22962    22974    22975    22972 
   22970    22952    22929    22914    22894    22874    22869    22879 
   22897    22917    22943    22968    22986    22993    22993    22979 
   22951    22917    22882    22847    22815    22786    22765    22754 
   22748    22743    22738    22742    22755    22771    22792    22817 
   22846    22874    22901    22923    22941    22959    22972    22986 
   22999    23016    23035    23053    23072    23093    23099    23095 
   23086    23068    23045    23017    22985    22955    22925    22889 
   22855    22831    22805    22782    22777    22775    22774    22783 
   22805    22823    22840    22866    22886    22901    22914    22921 
   22921    22913    22898    22882    22867    22852    22839    22831 
   22824    22819    22817    22821    22832    22858    22887    22914 
   22939    22962    22979    22987    22985    22978    22977    22974 
   22966    22964    22971    22970    22967    22968    22971    22979 
   22990    23002    23014    23024    23032    23033    23021    23002 
   22981    22958    22933    22912    22893    22877    22869    22866 
   22858    22860    22873    22878    22887    22902    22909    22912 
   22912    22905    22891    22878    22864    22848    22833    22823 
   22815    22812    22815    22821    22833    22851    22871    22891 
   22913    22937    22959    22977    22993    23012    23028    23037 
   23043    23039    23025    23013    23001    22985    22968    22955 
   22939    22912    22875    22828    22774    22721    22673    22635 
   22611    22603    22616    22640    22662    22685    22712    22738 
   22761    22785    22806    22829    22855    22879    22901    22918 
   22929    22939    22950    22960    22972    22987    23008    23029 
   23056    23082    23101    23110    23112    23105    23093    23076 
   23051    23022    22991    22951    22910    22874    22835    22800 
   22771    22754    22744    22746    22754    22766    22788    22815 
   22839    22862    22878    22889    22897    22897    22890    22879 
   22871    22871    22871    22873    22890    22914    22931    22950 
   22970    22987    23005    23025    23047    23063    23075    23082 
   23085    23085    23074    23055    23033    23009    22985    22963 
   22951    22947    22948    22958    22979    23009    23040    23067 
   23091    23102    23094    23078    23058    23028    22993    22964 
   22936    22905    22878    22854    22829    22801    22777    22765 
   22765    22774    22790    22808    22827    22847    22863    22878 
   22885    22879    22871    22856    22831    22808    22788    22766 
   22746    22727    22715    22705    22700    22709    22738    22774 
   22812    22855    22902    22943    22975    23005    23035    23062 
   23083    23106    23130    23143    23143    23137    23120    23091 
   23049    23001    22951    22897    22839    22790    22747    22709 
   22678    22653    22635    22627    22624    22628    22639    22657 
   22684    22711    22738    22770    22805    22840    22877    22914 
   22956    23001    23041    23074    23109    23145    23170    23184 
   23197    23206    23211    23215    23214    23211    23201    23188 
   23178    23159    23139    23122    23098    23071    23049    23029 
   23013    23009    23001    22989    22985    22977    22952    22928 
   22902    22859    22810    22762    22709    22663    22627    22593 
   22574    22574    22580    22593    22619    22650    22682    22724 
   22770    22816    22864    22909    22950    22986    23013    23029 
   23040    23049    23056    23062    23059    23049    23040    23022 
   22997    22971    22939    22906    22875    22837    22805    22782 
   22762    22748    22744    22747    22756    22765    22771    22781 
   22793    22796    22797    22808    22815    22815    22827    22843 
   22855    22864    22869    22867    22866    22856    22844    22839 
   22829    22824    22829    22831    22840    22858    22873    22891 
   22916    22944    22977    23004    23031    23063    23082    23090 
   23091    23085    23075    23066    23055    23045    23037    23024 
   23006    22990    22970    22952    22940    22927    22918    22924 
   22932    22944    22962    22982    22998    23013    23024    23025 
   23022    23021    23016    23008    23002    22994    22985    22982 
   22978    22974    22972    22972    22968    22963    22956    22948 
   22937    22923    22906    22896    22887    22879    22873    22874 
   22881    22890    22902    22910    22912    22910    22902    22889 
   22873    22855    22840    22829    22819    22816    22816    22815 
   22817    22824    22827    22829    22833    22828    22819    22816 
   22806    22796    22789    22781    22775    22774    22773    22775 
   22781    22782    22785    22792    22804    22823    22843    22866 
   22890    22910    22929    22958    22991    23024    23055    23082 
   23102    23116    23126    23133    23136    23133    23126    23112 
   23090    23070    23048    23022    22998    22970    22943    22914 
   22883    22863    22851    22842    22837    22835    22832    22833 
   22836    22839    22844    22850    22856    22856    22852    22851 
   22854    22854    22855    22866    22875    22882    22897    22917 
   22931    22944    22959    22971    22974    22974    22981    22986 
   22989    22998    23009    23016    23020    23021    23025    23028 
   23022    23017    23014    23001    22981    22963    22943    22913 
   22875    22837    22796    22744    22692    22643    22599    22561 
   22534    22519    22513    22522    22542    22569    22607    22651 
   22701    22755    22809    22860    22914    22968    23012    23053 
   23095    23126    23155    23180    23191    23197    23203    23202 
   23197    23193    23186    23182    23178    23174    23171    23174 
   23170    23160    23145    23122    23098    23070    23029    22990 
   22955    22920    22887    22859    22832    22802    22774    22751 
   22727    22708    22690    22667    22650    22642    22631    22619 
   22619    22626    22630    22635    22644    22662    22678    22693 
   22711    22729    22748    22767    22786    22805    22824    22840 
   22859    22882    22902    22923    22941    22962    22982    22995 
   23010    23031    23048    23064    23078    23094    23114    23124 
   23130    23139    23136    23130    23126    23117    23106    23095 
   23086    23080    23072    23064    23063    23060    23056    23055 
   23048    23037    23032    23022    23010    23001    22987    22968 
   22945    22923    22902    22879    22856    22837    22824    22813 
   22804    22798    22789    22777    22770    22758    22740    22732 
   22728    22720    22712    22705    22705    22709    22711    22716 
   22725    22738    22755    22769    22782    22802    22824    22842 
   22858    22873    22887    22901    22910    22918    22931    22940 
   22947    22963    22978    22989    23005    23018    23026    23032 
   23036    23040    23041    23039    23035    23029    23016    22999 
   22986    22966    22939    22916    22896    22869    22844    22824 
   22802    22788    22775    22759    22742    22725    22712    22705 
   22700    22700    22711    22727    22744    22769    22797    22824 
   22851    22882    22913    22944    22968    22991    23012    23029 
   23039    23045    23049    23052    23052    23044    23033    23028 
   23024    23014    23005    22994    22986    22982    22978    22974 
   22967    22963    22964    22964    22964    22971    22977    22982 
   22995    23004    23008    23014    23021    23018    23012    23005 
   22993    22974    22955    22937    22921    22914    22914    22916 
   22916    22923    22932    22932    22932    22939    22941    22939 
   22932    22927    22920    22908    22896    22887    22885    22882 
   22874    22866    22858    22847    22836    22828    22820    22808 
   22801    22796    22788    22786    22790    22797    22810    22820 
   22825    22833    22835    22835    22842    22847    22850    22850 
   22847    22843    22836    22832    22832    22831    22833    22840 
   22850    22859    22870    22879    22886    22896    22909    22914 
   22916    22924    22933    22941    22947    22948    22951    22952 
   22952    22955    22952    22950    22952    22950    22944    22945 
   22947    22952    22962    22968    22978    22991    23002    23010 
   23021    23031    23037    23048    23056    23059    23064    23064 
   23059    23056    23051    23040    23028    23016    23001    22986 
   22972    22959    22945    22937    22932    22920    22906    22898 
   22890    22883    22879    22878    22877    22875    22882    22893 
   22904    22912    22920    22932    22941    22945    22947    22951 
   22955    22958    22955    22954    22954    22944    22936    22931 
   22920    22913    22910    22908    22908    22906    22908    22912 
   22913    22914    22918    22921    22924    22921    22917    22912 
   22904    22896    22889    22878    22866    22856    22847    22835 
   22823    22813    22806    22796    22786    22782    22774    22762 
   22758    22756    22756    22763    22769    22771    22777    22783 
   22788    22793    22801    22809    22816    22823    22832    22844 
   22855    22864    22869    22874    22878    22877    22875    22878 
   22874    22864    22860    22860    22854    22846    22850    22859 
   22862    22870    22879    22883    22887    22898    22905    22909 
   22917    22921    22921    22920    22916    22913    22910    22908 
   22904    22894    22889    22890    22893    22893    22896    22902 
   22908    22916    22923    22928    22943    22960    22974    22987 
   23001    23012    23022    23033    23039    23040    23041    23039 
   23035    23026    23014    23002    22994    22983    22972    22967 
   22959    22951    22948    22941    22932    22929    22932    22932 
   22928    22928    22925    22921    22920    22913    22904    22900 
   22900    22897    22890    22886    22882    22879    22879    22883 
   22893    22908    22920    22931    22940    22951    22964    22974 
   22977    22983    22987    22985    22985    22985    22975    22963 
   22956    22947    22928    22913    22905    22893    22886    22883 
   22875    22871    22879    22882    22877    22879    22886    22889 
   22894    22900    22904    22908    22917    22925    22924    22927 
   22935    22932    22925    22924    22913    22901    22897    22885 
   22864    22854    22846    22831    22817    22808    22800    22794 
   22790    22789    22789    22788    22793    22804    22812    22817 
   22824    22833    22847    22860    22877    22890    22897    22909 
   22923    22929    22940    22956    22967    22975    22979    22989 
   22995    23001    23014    23026    23032    23041    23053    23056 
   23062    23068    23070    23074    23075    23071    23068    23059 
   23051    23045    23033    23021    23013    22998    22979    22960 
   22943    22923    22902    22885    22870    22855    22843    22839 
   22837    22832    22833    22837    22839    22836    22829    22828 
   22827    22817    22809    22805    22800    22798    22801    22805 
   22815    22824    22833    22846    22860    22873    22885    22900 
   22917    22932    22939    22943    22948    22950    22947    22943 
