Origin Time       2025/03/29 04:45:00
Lat.              31.090
Long.             131.512
Depth. (km)       33
Mag.              4.6
Station Code      KGSH06
Station Lat.      31.6988
Station Long.     130.4594
Station Height(m) 131.07
Record Time       2025/03/29 04:45:49
Sampling Freq(Hz) 100Hz
Duration Time(s)  120
Dir.              6
Scale Factor      3920(gal)/6170801
Max. Acc. (gal)   0.601
Last Correction   2025/03/29 04:45:34
Memo.             
[...]
  -42318   -42342   -42364   -42382   -42402   -42433   -42469   -42492 
  -42485   -42454   -42419   -42394   -42365   -42326   -42293   -42286 
  -42315   -42360   -42396   -42421   -42440   -42456   -42464   -42463 
  -42457   -42451   -42443   -42437   -42439   -42455   -42482   -42506 
  -42496   -42448   -42387   -42338   -42307   -42289   -42284   -42293 
  -42308   -42318   -42311   -42281   -42245   -42234   -42252   -42274 
  -42275   -42251   -42225   -42219   -42246   -42305   -42381   -42463 
  -42557   -42661   -42750   -42803   -42813   -42794   -42772   -42768 
  -42771   -42756   -42705   -42624   -42545   -42479   -42409   -42327 
  -42241   -42172   -42145   -42149   -42154   -42141   -42117   -42095 
  -42092   -42106   -42120   -42122   -42127   -42152   -42196   -42247 
  -42296   -42330   -42349   -42371   -42416   -42481   -42546   -42599 
  -42644   -42671   -42666   -42619   -42541   -42460   -42397   -42351 
  -42307   -42262   -42231   -42242   -42303   -42389   -42471   -42539 
  -42582   -42601   -42614   -42615   -42588   -42543   -42501   -42484 
  -42489   -42486   -42450   -42394   -42339   -42299   -42270   -42249 
  -42234   -42221   -42216   -42236   -42273   -42300   -42301   -42289 
  -42289   -42317   -42369   -42411   -42418   -42412   -42435   -42487 
  -42540   -42561   -42534   -42481   -42449   -42458   -42494   -42526 
  -42536   -42523   -42504   -42491   -42481   -42465   -42435   -42396 
  -42370   -42366   -42374   -42381   -42376   -42358   -42330   -42289 
  -42231   -42169   -42120   -42104   -42122   -42162   -42226   -42308 
  -42384   -42436   -42452   -42419   -42353   -42299   -42281   -42301 
  -42341   -42391   -42450   -42511   -42567   -42618   -42655   -42679 
  -42699   -42708   -42700   -42684   -42655   -42604   -42540   -42476 
  -42416   -42368   -42346   -42347   -42349   -42344   -42333   -42310 
  -42278   -42248   -42220   -42189   -42166   -42162   -42175   -42197 
  -42228   -42280   -42350   -42417   -42476   -42527   -42567   -42597 
  -42601   -42561   -42492   -42422   -42362   -42313   -42278   -42265 
  -42263   -42260   -42256   -42255   -42259   -42277   -42320   -42380 
  -42441   -42493   -42540   -42583   -42613   -42620   -42612   -42591 
  -42543   -42465   -42376   -42304   -42262   -42245   -42245   -42250 
  -42257   -42271   -42284   -42292   -42301   -42307   -42309   -42317 
  -42326   -42335   -42359   -42402   -42449   -42488   -42510   -42517 
  -42512   -42498   -42475   -42443   -42411   -42398   -42416   -42464 
  -42532   -42587   -42609   -42608   -42603   -42588   -42548   -42486 
  -42422   -42379   -42369   -42373   -42363   -42334   -42295   -42248 
  -42189   -42117   -42051   -42022   -42034   -42082   -42150   -42218 
  -42277   -42327   -42372   -42420   -42463   -42494   -42513   -42524 
  -42526   -42510   -42478   -42439   -42411   -42418   -42463   -42530 
  -42590   -42620   -42620   -42611   -42605   -42597   -42575   -42540 
  -42506   -42484   -42472   -42456   -42425   -42389   -42363   -42348 
  -42339   -42329   -42304   -42271   -42252   -42254   -42271   -42289 
  -42301   -42302   -42298   -42304   -42309   -42292   -42262   -42243 
  -42241   -42253   -42280   -42313   -42341   -42361   -42378   -42397 
  -42410   -42403   -42386   -42382   -42399   -42438   -42496   -42557 
  -42615   -42669   -42698   -42688   -42646   -42592   -42545   -42507 
  -42479   -42453   -42415   -42369   -42320   -42270   -42226   -42197 
  -42178   -42166   -42161   -42166   -42175   -42187   -42208   -42240 
  -42280   -42330   -42384   -42432   -42476   -42510   -42528   -42526 
  -42507   -42483   -42464   -42450   -42439   -42428   -42420   -42417 
  -42422   -42441   -42469   -42487   -42498   -42516   -42550   -42585 
  -42600   -42592   -42571   -42540   -42504   -42462   -42412   -42360 
  -42313   -42278   -42262   -42252   -42239   -42231   -42245   -42270 
  -42286   -42297   -42312   -42327   -42334   -42333   -42322   -42303 
  -42280   -42258   -42252   -42269   -42301   -42336   -42373   -42420 
  -42463   -42480   -42472   -42452   -42431   -42427   -42438   -42449 
  -42451   -42444   -42439   -42438   -42436   -42432   -42436   -42449 
  -42467   -42490   -42503   -42499   -42493   -42498   -42511   -42529 
  -42539   -42533   -42515   -42488   -42466   -42458   -42445   -42421 
  -42401   -42388   -42386   -42392   -42382   -42357   -42339   -42332 
  -42335   -42341   -42334   -42312   -42289   -42268   -42260   -42267 
  -42284   -42310   -42341   -42368   -42398   -42429   -42448   -42447 
  -42429   -42393   -42350   -42316   -42295   -42298   -42320   -42354 
  -42397   -42442   -42477   -42506   -42526   -42526   -42504   -42469 
  -42434   -42402   -42367   -42326   -42285   -42263   -42272   -42289 
  -42290   -42281   -42280   -42292   -42316   -42351   -42393   -42439 
  -42487   -42521   -42542   -42563   -42579   -42583   -42581   -42571 
  -42551   -42530   -42505   -42469   -42434   -42418   -42414   -42403 
  -42385   -42360   -42328   -42299   -42277   -42265   -42264   -42271 
  -42283   -42294   -42299   -42302   -42299   -42290   -42294   -42326 
  -42373   -42414   -42444   -42464   -42472   -42472   -42463   -42439 
  -42410   -42394   -42392   -42395   -42407   -42427   -42443   -42453 
  -42463   -42479   -42493   -42502   -42513   -42524   -42521   -42487 
  -42438   -42397   -42358   -42310   -42267   -42244   -42245   -42268 
  -42300   -42326   -42346   -42366   -42383   -42397   -42406   -42403 
  -42388   -42371   -42361   -42354   -42357   -42370   -42385   -42401 
  -42421   -42447   -42472   -42480   -42463   -42432   -42405   -42395 
  -42398   -42400   -42400   -42401   -42403   -42409   -42419   -42428 
  -42429   -42426   -42426   -42430   -42428   -42415   -42393   -42368 
  -42338   -42293   -42238   -42200   -42191   -42210   -42245   -42278 
  -42315   -42364   -42409   -42436   -42445   -42448   -42456   -42473 
  -42503   -42537   -42558   -42554   -42531   -42499   -42471   -42446 
  -42415   -42384   -42363   -42359   -42376   -42402   -42414   -42416 
  -42412   -42411   -42416   -42418   -42411   -42396   -42382   -42384 
  -42407   -42428   -42431   -42417   -42399   -42377   -42350   -42334 
  -42336   -42342   -42339   -42336   -42338   -42351   -42379   -42411 
  -42440   -42479   -42525   -42569   -42597   -42592   -42558   -42517 
  -42474   -42424   -42374   -42331   -42297   -42273   -42257   -42255 
  -42269   -42281   -42286   -42294   -42304   -42320   -42339   -42357 
  -42375   -42404   -42434   -42444   -42426   -42392   -42358   -42329 
  -42311   -42297   -42283   -42274   -42285   -42316   -42361   -42413 
  -42465   -42506   -42524   -42512   -42479   -42437   -42402   -42381 
  -42373   -42373   -42381   -42405   -42440   -42468   -42481   -42486 
  -42492   -42497   -42493   -42476   -42451   -42425   -42409   -42411 
  -42429   -42456   -42489   -42522   -42543   -42544   -42526   -42494 
  -42454   -42402   -42339   -42282   -42250   -42240   -42246   -42261 
  -42275   -42283   -42289   -42292   -42290   -42280   -42267   -42270 
  -42294   -42329   -42360   -42386   -42406   -42422   -42449   -42488 
  -42517   -42513   -42481   -42439   -42405   -42382   -42367   -42356 
  -42353   -42361   -42378   -42408   -42442   -42458   -42445   -42417 
  -42390   -42379   -42385   -42387   -42381   -42385   -42414   -42460 
  -42504   -42533   -42547   -42550   -42550   -42555   -42560   -42559 
  -42554   -42551   -42554   -42558   -42550   -42518   -42466   -42405 
  -42344   -42290   -42243   -42213   -42209   -42224   -42249   -42280 
  -42303   -42312   -42317   -42318   -42320   -42328   -42341   -42355 
  -42367   -42369   -42353   -42326   -42308   -42310   -42321   -42328 
  -42331   -42338   -42347   -42359   -42380   -42399   -42403   -42406 
  -42419   -42435   -42446   -42447   -42429   -42400   -42377   -42363 
  -42353   -42347   -42345   -42348   -42353   -42359   -42372   -42390 
  -42405   -42421   -42450   -42491   -42530   -42565   -42589   -42589 
  -42572   -42546   -42505   -42459   -42422   -42388   -42368   -42378 
  -42402   -42413   -42420   -42435   -42458   -42488   -42512   -42524 
  -42531   -42543   -42567   -42598   -42617   -42626   -42633   -42634 
  -42623   -42597   -42546   -42471   -42389   -42304   -42219   -42143 
  -42077   -42015   -41954   -41903   -41869   -41849   -41842   -41854 
  -41888   -41945   -42024   -42113   -42195   -42264   -42322   -42372 
  -42415   -42434   -42426   -42414   -42414   -42427   -42458   -42501 
  -42547   -42597   -42653   -42708   -42750   -42776   -42780   -42755 
  -42716   -42676   -42626   -42561   -42487   -42412   -42350   -42311 
  -42279   -42241   -42215   -42215   -42233   -42258   -42281   -42293 
  -42298   -42304   -42317   -42332   -42346   -42362   -42386   -42423 
  -42460   -42485   -42491   -42485   -42478   -42470   -42450   -42420 
  -42389   -42356   -42318   -42283   -42258   -42245   -42242   -42245 
  -42253   -42258   -42258   -42267   -42293   -42333   -42383   -42435 
  -42476   -42501   -42510   -42508   -42496   -42474   -42444   -42416 
  -42406   -42430   -42487   -42557   -42618   -42675   -42730   -42769 
  -42795   -42804   -42782   -42739   -42700   -42675   -42665   -42667 
  -42672   -42673   -42665   -42657   -42649   -42618   -42561   -42482 
  -42390   -42294   -42202   -42102   -41982   -41861   -41760   -41677 
  -41603   -41548   -41513   -41501   -41520   -41575   -41660   -41767 
  -41892   -42029   -42163   -42299   -42439   -42568   -42685   -42787 
  -42865   -42924   -42969   -42995   -43010   -43023   -43030   -43028 
  -43016   -42990   -42949   -42895   -42830   -42758   -42691   -42635 
  -42581   -42535   -42493   -42444   -42385   -42313   -42214   -42094 
  -41978   -41883   -41810   -41759   -41731   -41713   -41692   -41669 
  -41641   -41612   -41600   -41617   -41669   -41767   -41903   -42063 
  -42236   -42402   -42548   -42659   -42722   -42734   -42707   -42658 
  -42604   -42564   -42547   -42554   -42578   -42616   -42666   -42722 
  -42784   -42851   -42921   -42998   -43076   -43143   -43190   -43214 
  -43219   -43205   -43181   -43153   -43112   -43053   -42979   -42889 
  -42781   -42662   -42547   -42440   -42336   -42236   -42136   -42031 
  -41926   -41820   -41715   -41623   -41555   -41521   -41529   -41575 
  -41659   -41768   -41876   -41974   -42059   -42117   -42150   -42163 
  -42154   -42135   -42117   -42109   -42122   -42153   -42198   -42267 
  -42366   -42484   -42604   -42707   -42783   -42836   -42874   -42904 
  -42938   -42978   -43020   -43057   -43077   -43077   -43058   -43025 
  -42982   -42927   -42856   -42780   -42711   -42652   -42599   -42538 
  -42469   -42405   -42340   -42266   -42191   -42126   -42065   -42015 
  -41986   -41968   -41952   -41930   -41890   -41832   -41765   -41697 
  -41635   -41580   -41542   -41536   -41568   -41638   -41751   -41892 
  -42040   -42184   -42324   -42457   -42571   -42673   -42775   -42882 
  -42994   -43106   -43193   -43246   -43267   -43245   -43181   -43088 
  -42993   -42918   -42862   -42813   -42770   -42731   -42689   -42638 
  -42565   -42466   -42353   -42243   -42148   -42082   -42058   -42069 
  -42103   -42153   -42207   -42243   -42244   -42197   -42104   -41985 
  -41871   -41782   -41724   -41696   -41703   -41744   -41808   -41884 
  -41964   -42040   -42108   -42173   -42235   -42300   -42384   -42484 
  -42586   -42691   -42799   -42906   -43002   -43079   -43137   -43165 
  -43153   -43105   -43039   -42969   -42898   -42830   -42768   -42702 
  -42625   -42540   -42453   -42365   -42275   -42186   -42111   -42066 
  -42050   -42057   -42080   -42102   -42115   -42121   -42117   -42094 
  -42045   -41975   -41902   -41848   -41822   -41824   -41847   -41891 
  -41956   -42037   -42127   -42212   -42291   -42370   -42450   -42530 
  -42603   -42665   -42716   -42761   -42804   -42848   -42897   -42938 
  -42948   -42930   -42897   -42843   -42773   -42702   -42635   -42581 
  -42551   -42550   -42565   -42581   -42590   -42587   -42566   -42529 
  -42484   -42433   -42368   -42299   -42245   -42208   -42187   -42174 
  -42163   -42155   -42149   -42140   -42129   -42117   -42108   -42109 
  -42122   -42147   -42186   -42241   -42305   -42367   -42416   -42441 
  -42440   -42415   -42375   -42326   -42275   -42226   -42187   -42165 
  -42168   -42187   -42217   -42257   -42296   -42337   -42401   -42484 
  -42570   -42656   -42733   -42789   -42832   -42857   -42855   -42842 
  -42829   -42812   -42789   -42769   -42739   -42683   -42610   -42530 
  -42445   -42368   -42306   -42251   -42200   -42163   -42138   -42106 
  -42063   -42019   -41981   -41949   -41928   -41914   -41908   -41925 
  -41967   -42022   -42091   -42176   -42265   -42351   -42431   -42500 
  -42555   -42606   -42653   -42691   -42728   -42770   -42808   -42833 
  -42835   -42817   -42790   -42757   -42708   -42651   -42603   -42567 
  -42538   -42509   -42473   -42430   -42384   -42336   -42281   -42217 
  -42146   -42078   -42015   -41958   -41915   -41884   -41862   -41852 
  -41857   -41877   -41913   -41961   -42012   -42063   -42118   -42181 
  -42249   -42328   -42424   -42542   -42678   -42817   -42940   -43046 
  -43136   -43190   -43209   -43205   -43175   -43127   -43080   -43037 
  -42995   -42959   -42937   -42920   -42896   -42864   -42826   -42779 
  -42723   -42650   -42562   -42465   -42362   -42257   -42155   -42051 
  -41946   -41847   -41757   -41671   -41593   -41527   -41478   -41451 
  -41453   -41493   -41567   -41656   -41748   -41837   -41912   -41975 
  -42039   -42098   -42143   -42188   -42246   -42314   -42391   -42477 
  -42564   -42647   -42725   -42794   -42853   -42906   -42957   -43004 
  -43037   -43059   -43078   -43091   -43090   -43067   -43023   -42957 
  -42877   -42793   -42705   -42615   -42534   -42460   -42394   -42342 
  -42298   -42252   -42206   -42164   -42121   -42075   -42026   -41973 
  -41924   -41879   -41840   -41802   -41774   -41759   -41752   -41758 
  -41782   -41815   -41860   -41922   -41999   -42083   -42164   -42242 
  -42320   -42390   -42460   -42529   -42590   -42648   -42704   -42738 
  -42748   -42740   -42708   -42652   -42580   -42504   -42437   -42384 
  -42351   -42336   -42332   -42338   -42358   -42385   -42409   -42429 
  -42449   -42464   -42482   -42510   -42539   -42570   -42603   -42634 
  -42660   -42681   -42690   -42687   -42675   -42665   -42661   -42664 
  -42682   -42715   -42755   -42794   -42822   -42834   -42831   -42809 
  -42769   -42719   -42663   -42611   -42562   -42513   -42465   -42417 
  -42374   -42340   -42309   -42278   -42246   -42210   -42169   -42130 
  -42091   -42056   -42028   -42006   -41994   -41994   -42001   -42023 
  -42053   -42077   -42095   -42098   -42091   -42081   -42057   -42026 
  -42001   -41989   -41990   -42002   -42030   -42079   -42144   -42221 
  -42305   -42388   -42468   -42539   -42596   -42643   -42684   -42732 
  -42783   -42826   -42862   -42889   -42904   -42907   -42894   -42861 
  -42811   -42758   -42708   -42659   -42611   -42571   -42544   -42526 
  -42513   -42504   -42495   -42491   -42489   -42482   -42478   -42480 
  -42480   -42473   -42462   -42446   -42429   -42407   -42374   -42330 
  -42280   -42226   -42173   -42124   -42073   -42020   -41975   -41941 
  -41916   -41898   -41887   -41885   -41893   -41905   -41922   -41941 
  -41958   -41985   -42026   -42075   -42136   -42210   -42291   -42378 
  -42470   -42560   -42650   -42740   -42824   -42892   -42946   -42989 
  -43015   -43021   -43006   -42978   -42943   -42893   -42827   -42754 
  -42681   -42607   -42539   -42475   -42409   -42342   -42284   -42232 
  -42181   -42130   -42084   -42045   -42019   -42008   -42005   -42010 
  -42033   -42068   -42104   -42138   -42173   -42215   -42260   -42300 
  -42339   -42384   -42436   -42487   -42531   -42573   -42613   -42640 
  -42655   -42664   -42668   -42663   -42648   -42626   -42592   -42545 
  -42495   -42443   -42393   -42350   -42312   -42278   -42250   -42226 
  -42200   -42170   -42146   -42134   -42136   -42152   -42178   -42205 
  -42231   -42261   -42291   -42309   -42315   -42320   -42324   -42325 
  -42326   -42332   -42347   -42363   -42377   -42391   -42411   -42438 
  -42465   -42484   -42498   -42508   -42512   -42517   -42531   -42542 
  -42548   -42558   -42570   -42585   -42601   -42614   -42626   -42636 
  -42644   -42652   -42657   -42656   -42652   -42646   -42635   -42623 
  -42610   -42589   -42565   -42546   -42527   -42502   -42474   -42441 
  -42402   -42359   -42315   -42272   -42228   -42188   -42155   -42127 
  -42104   -42093   -42090   -42096   -42107   -42128   -42163   -42204 
  -42247   -42287   -42318   -42346   -42380   -42407   -42418   -42425 
  -42432   -42436   -42434   -42430   -42423   -42411   -42398   -42388 
  -42376   -42364   -42348   -42330   -42316   -42305   -42306   -42322 
  -42344   -42376   -42421   -42476   -42528   -42571   -42610   -42642 
  -42660   -42670   -42679   -42682   -42683   -42679   -42662   -42632 
  -42598   -42558   -42513   -42464   -42414   -42366   -42320   -42284 
  -42259   -42237   -42217   -42204   -42192   -42178   -42170   -42164 
  -42150   -42134   -42122   -42119   -42128   -42140   -42151   -42168 
  -42191   -42207   -42220   -42232   -42233   -42232   -42236   -42238 
  -42242   -42255   -42274   -42293   -42316   -42347   -42382   -42410 
  -42432   -42454   -42477   -42501   -42528   -42553   -42576   -42599 
  -42626   -42647   -42654   -42655   -42654   -42645   -42633   -42628 
  -42625   -42620   -42618   -42622   -42627   -42632   -42635   -42634 
  -42628   -42618   -42606   -42592   -42569   -42540   -42511   -42485 
  -42455   -42422   -42395   -42372   -42347   -42321   -42295   -42268 
  -42244   -42221   -42200   -42179   -42165   -42156   -42146   -42146 
  -42153   -42156   -42158   -42167   -42180   -42193   -42211   -42234 
  -42256   -42276   -42300   -42326   -42346   -42358   -42360   -42359 
  -42362   -42359   -42348   -42337   -42325   -42321   -42330   -42346 
  -42364   -42386   -42409   -42438   -42473   -42504   -42532   -42563 
  -42591   -42615   -42634   -42651   -42666   -42672   -42670   -42663 
  -42648   -42627   -42607   -42589   -42567   -42545   -42533   -42524 
  -42515   -42507   -42498   -42489   -42477   -42459   -42440   -42418 
  -42391   -42366   -42338   -42306   -42279   -42261   -42246   -42228 
  -42211   -42199   -42189   -42178   -42169   -42162   -42154   -42150 
  -42145   -42136   -42127   -42127   -42132   -42139   -42145   -42157 
  -42177   -42201   -42224   -42250   -42282   -42323   -42367   -42406 
  -42437   -42466   -42500   -42528   -42543   -42555   -42567   -42572 
  -42575   -42578   -42578   -42580   -42586   -42590   -42597   -42608 
  -42619   -42628   -42637   -42646   -42647   -42637   -42623   -42606 
  -42578   -42544   -42517   -42490   -42460   -42430   -42402   -42373 
  -42344   -42313   -42280   -42246   -42215   -42194   -42176   -42155 
  -42138   -42127   -42119   -42107   -42093   -42084   -42087   -42097 
  -42113   -42137   -42171   -42217   -42269   -42319   -42362   -42405 
  -42445   -42477   -42507   -42543   -42574   -42598   -42624   -42644 
  -42650   -42652   -42647   -42627   -42595   -42561   -42524   -42489 
