Origin Time       2025/03/29 04:45:00
Lat.              31.090
Long.             131.512
Depth. (km)       33
Mag.              4.6
Station Code      KGSH05
Station Lat.      31.8699
Station Long.     130.4958
Station Height(m) 73.342
Record Time       2025/03/29 04:45:54
Sampling Freq(Hz) 100Hz
Duration Time(s)  120
Dir.              6
Scale Factor      7845(gal)/8223790
Max. Acc. (gal)   0.349
Last Correction   2025/03/29 04:45:54
Memo.             
[...]
   13941    13960    13965    13956    13941    13936    13944    13961 
   13977    13994    14002    13998    13980    13961    13946    13942 
   13957    13990    14019    14045    14065    14073    14068    14050 
   14029    14010    13992    13977    13969    13961    13941    13911 
   13884    13864    13855    13864    13890    13911    13923    13933 
   13942    13953    13972    14004    14038    14062    14071    14058 
   14022    13973    13932    13903    13890    13898    13923    13950 
   13975    13998    14019    14035    14040    14031    14019    14004 
   13995    13990    13975    13946    13919    13902    13896    13915 
   13956    14004    14041    14054    14060    14064    14060    14049 
   14034    14008    13977    13953    13942    13948    13968    13995 
   14017    14022    14003    13968    13922    13876    13851    13852 
   13867    13883    13896    13911    13930    13949    13969    13996 
   14021    14042    14060    14068    14062    14042    14017    13998 
   13986    13976    13969    13963    13952    13942    13941    13949 
   13963    13981    14003    14019    14031    14040    14041    14037 
   14033    14019    13998    13979    13959    13941    13930    13923 
   13923    13926    13927    13932    13937    13942    13954    13972 
   13984    13980    13961    13932    13909    13896    13898    13918 
   13944    13971    13998    14023    14038    14045    14044    14031 
   14008    13994    13986    13981    13981    13992    14011    14029 
   14042    14044    14033    14021    14013    14004    13991    13971 
   13949    13932    13915    13895    13879    13865    13848    13840 
   13849    13868    13894    13922    13944    13961    13976    13990 
   13999    13999    13991    13980    13968    13961    13961    13967 
   13975    13979    13984    13990    13991    13998    14014    14031 
   14044    14053    14054    14044    14029    14018    14007    13995 
   13980    13964    13948    13937    13930    13930    13936    13946 
   13964    13977    13984    13988    13995    14003    14000    13988 
   13969    13946    13925    13907    13899    13905    13923    13944 
   13964    13983    13998    14010    14019    14022    14013    13996 
   13981    13975    13981    14003    14030    14050    14061    14056 
   14031    14004    13983    13965    13956    13953    13948    13938 
   13927    13919    13921    13926    13941    13961    13976    13987 
   14000    14013    14015    14010    14007    14007    14006    14000 
   13996    13992    13990    13990    13995    14003    14003    14000 
   13996    13988    13980    13972    13963    13957    13953    13942 
   13926    13911    13905    13913    13938    13968    13987    13992 
   13981    13960    13948    13945    13941    13944    13954    13964 
   13971    13973    13972    13973    13987    14004    14015    14015 
   14007    13994    13975    13957    13941    13919    13890    13869 
   13872    13892    13918    13948    13973    13984    13980    13972 
   13965    13965    13975    13995    14018    14037    14050    14057 
   14054    14048    14046    14042    14029    14010    13996    13986 
   13971    13960    13960    13961    13956    13949    13950    13957 
   13963    13967    13967    13964    13965    13968    13972    13973 
   13972    13971    13973    13973    13975    13975    13969    13963 
   13959    13961    13969    13979    13987    13992    14003    14015 
   14022    14022    14018    14008    14003    14000    13994    13983 
   13971    13954    13944    13933    13921    13906    13891    13878 
   13868    13865    13875    13894    13909    13921    13930    13941 
   13957    13980    14014    14053    14083    14100    14104    14098 
   14084    14075    14069    14067    14057    14037    14003    13964 
   13936    13923    13923    13932    13941    13942    13942    13940 
   13937    13933    13923    13909    13898    13890    13882    13882 
   13890    13905    13926    13952    13977    13996    14007    14013 
   14010    14000    13986    13973    13963    13956    13964    13979 
   13995    14015    14035    14054    14068    14073    14080    14088 
   14096    14099    14094    14080    14060    14033    14000    13969 
   13941    13919    13903    13883    13861    13846    13840    13842 
   13860    13882    13905    13926    13941    13949    13954    13957 
   13965    13977    13987    13996    14004    14011    14019    14034 
   14046    14052    14052    14041    14015    13981    13954    13937 
   13930    13929    13932    13940    13940    13938    13941    13944 
   13944    13948    13956    13967    13981    13996    14004    14002 
   13994    13984    13969    13954    13949    13949    13954    13963 
   13973    13984    13990    13992    13998    14002    14007    14011 
   14014    14011    14008    14013    14015    14010    13999    13980 
   13954    13927    13907    13896    13900    13911    13929    13957 
   13984    13999    14007    14014    14023    14031    14041    14046 
   14040    14026    14010    13999    13992    13988    13980    13968 
   13953    13938    13918    13896    13882    13876    13878    13882 
   13886    13886    13884    13887    13903    13930    13957    13979 
   14000    14025    14045    14064    14081    14091    14091    14077 
   14060    14044    14029    14022    14026    14033    14040    14048 
   14046    14031    14010    13983    13959    13938    13923    13915 
   13900    13882    13868    13861    13860    13864    13872    13886 
   13900    13915    13936    13959    13977    13992    14000    14000 
   13999    13998    13992    13988    13991    13990    13980    13971 
   13963    13959    13961    13969    13976    13984    13998    14007 
   14017    14030    14040    14040    14031    14021    14004    13988 
   13969    13948    13927    13914    13909    13909    13918    13934 
   13950    13963    13971    13979    13984    13987    13984    13979 
   13971    13965    13965    13967    13964    13961    13961    13959 
   13953    13946    13941    13942    13954    13968    13979    13987 
   13996    14004    14011    14022    14033    14034    14026    14019 
   14019    14019    14015    14006    13990    13969    13954    13944 
   13936    13937    13942    13949    13957    13964    13968    13976 
   13987    13998    14011    14021    14019    14007    13990    13972 
   13963    13963    13968    13972    13972    13967    13964    13971 
   13984    14002    14019    14034    14040    14035    14027    14015 
   14002    13986    13975    13967    13952    13936    13923    13911 
   13902    13902    13903    13902    13896    13891    13888    13886 
   13888    13900    13915    13929    13941    13952    13960    13968 
   13979    13992    14006    14015    14025    14033    14034    14027 
   14023    14019    14014    14010    14003    13988    13972    13954 
   13937    13932    13938    13952    13969    13988    14004    14008 
   13999    13990    13983    13975    13969    13969    13964    13953 
   13944    13936    13930    13923    13918    13922    13933    13946 
   13967    13986    13996    14002    14002    13996    13991    13990 
   13991    13998    14007    14018    14022    14014    14002    13992 
   13986    13986    13991    13995    13995    13995    13995    13999 
   14004    14006    13998    13984    13976    13965    13953    13948 
   13948    13949    13956    13956    13942    13927    13911    13895 
   13895    13899    13905    13905    13892    13883    13882    13882 
   13899    13933    13967    13999    14030    14068    14100    14122 
   14137    14138    14126    14102    14069    14038    14008    13987 
   13975    13971    13971    13968    13959    13948    13938    13940 
   13950    13959    13964    13967    13964    13960    13953    13945 
   13938    13933    13932    13934    13942    13948    13956    13975 
   13994    14010    14022    14018    14006    13994    13987    13988 
   13988    13980    13968    13953    13942    13937    13933    13932 
   13933    13937    13942    13948    13957    13968    13971    13973 
   13976    13971    13953    13933    13921    13913    13910    13911 
   13913    13914    13919    13936    13959    13981    14002    14019 
   14027    14029    14030    14037    14040    14035    14037    14031 
   14021    14010    13995    13981    13979    13981    13987    13995 
   13999    14000    13999    14002    14010    14021    14029    14025 
   14004    13979    13953    13925    13899    13883    13872    13869 
   13880    13903    13927    13953    13979    13995    14002    14004 
   14002    13991    13977    13972    13972    13976    13983    13990 
   13995    14003    14006    14006    14006    14002    13998    13998 
   13995    13991    13981    13965    13946    13932    13925    13929 
   13938    13946    13954    13965    13971    13976    13987    13994 
   13998    14004    14006    14003    14002    14003    14002    13994 
   13987    13984    13977    13968    13957    13949    13942    13934 
   13927    13925    13923    13922    13929    13942    13952    13967 
   13983    13994    14003    14011    14011    13999    13983    13967 
   13952    13938    13933    13938    13948    13961    13975    13994 
   14015    14026    14035    14046    14054    14064    14079    14091 
   14091    14081    14065    14042    14015    13988    13964    13941 
   13917    13894    13876    13863    13855    13855    13860    13869 
   13884    13900    13917    13932    13948    13967    13984    13999 
   14006    14011    14022    14037    14053    14065    14071    14069 
   14058    14042    14025    14007    13987    13961    13934    13914 
   13900    13895    13899    13911    13925    13936    13944    13942 
   13933    13922    13918    13917    13917    13919    13922    13923 
   13922    13925    13936    13949    13967    13984    14006    14033 
   14058    14081    14107    14126    14142    14153    14152    14134 
   14110    14079    14045    14019    13999    13981    13967    13954 
   13944    13936    13927    13922    13915    13907    13907    13909 
   13907    13911    13918    13925    13932    13933    13934    13934 
   13926    13921    13927    13944    13963    13984    14002    14014 
   14015    14013    14008    14004    13998    13986    13973    13968 
   13965    13967    13973    13980    13992    14013    14034    14048 
   14056    14061    14054    14038    14011    13972    13922    13873 
   13834    13801    13771    13761    13775    13798    13828    13867 
   13906    13944    13980    14010    14041    14073    14100    14115 
   14112    14099    14081    14067    14057    14056    14057    14050 
   14033    14015    13994    13967    13944    13930    13926    13926 
   13925    13929    13934    13941    13959    13983    14003    14017 
   14023    14017    14000    13987    13973    13959    13946    13940 
   13934    13930    13925    13917    13907    13892    13880    13876 
   13876    13876    13878    13882    13884    13890    13906    13929 
   13954    13987    14023    14061    14096    14119    14123    14110 
   14081    14044    14002    13961    13932    13918    13911    13914 
   13926    13938    13944    13952    13972    14003    14037    14069 
   14102    14123    14125    14112    14087    14041    13991    13949 
   13925    13921    13930    13950    13971    13990    14010    14030 
   14042    14037    14013    13975    13929    13884    13841    13799 
   13763    13737    13733    13757    13807    13879    13964    14050 
   14130    14195    14235    14250    14245    14219    14176    14122 
   14064    14007    13954    13907    13879    13865    13846    13828 
   13815    13813    13821    13842    13876    13913    13941    13957 
   13959    13946    13932    13921    13909    13892    13878    13869 
   13861    13851    13846    13859    13875    13900    13938    13981 
   14025    14061    14089    14107    14115    14111    14098    14083 
   14073    14071    14069    14065    14052    14037    14023    14006 
   13996    13996    13988    13963    13933    13902    13872    13852 
   13844    13840    13837    13832    13828    13824    13819    13832 
   13855    13876    13898    13923    13950    13979    14013    14049 
   14077    14096    14107    14096    14072    14052    14035    14022 
   14021    14031    14048    14067    14084    14102    14111    14104 
   14089    14072    14053    14035    14025    14022    14015    14011 
   14017    14015    14003    13994    13987    13977    13965    13957 
   13956    13953    13954    13968    13987    13998    13998    13988 
   13971    13946    13929    13922    13921    13926    13942    13957 
   13963    13969    13977    13977    13976    13969    13956    13938 
   13914    13892    13887    13890    13899    13917    13934    13949 
   13967    13987    14003    14014    14013    13998    13972    13938 
   13903    13872    13845    13840    13860    13892    13936    13984 
   14027    14058    14080    14100    14116    14126    14130    14125 
   14112    14096    14075    14045    14015    13981    13950    13922 
   13892    13859    13821    13783    13748    13721    13707    13703 
   13703    13713    13730    13756    13798    13849    13894    13927 
   13956    13977    13986    13988    14002    14026    14054    14092 
   14137    14180    14220    14261    14299    14326    14339    14334 
   14304    14261    14218    14180    14148    14115    14084    14054 
   14025    13994    13967    13952    13944    13938    13945    13956 
   13957    13957    13960    13956    13950    13944    13930    13903 
   13868    13830    13795    13768    13748    13734    13729    13736 
   13752    13774    13803    13838    13875    13906    13934    13961 
   13988    14011    14027    14041    14050    14061    14076    14092 
   14106    14111    14103    14091    14077    14054    14025    13995 
   13961    13934    13919    13913    13907    13909    13919    13934 
   13949    13964    13973    13972    13965    13956    13942    13925 
   13903    13884    13871    13864    13857    13852    13852    13856 
   13860    13865    13867    13873    13886    13899    13919    13942 
   13969    13991    14002    14011    14021    14026    14035    14048 
   14054    14058    14060    14061    14060    14060    14064    14075 
   14080    14085    14089    14080    14058    14038    14022    14007 
   13998    13991    13984    13990    14000    14010    14021    14030 
   14033    14027    14019    14011    14003    13995    13990    13990 
   14000    14015    14030    14038    14040    14037    14031    14027 
   14023    14017    14007    13998    13991    13986    13983    13983 
   13979    13971    13965    13959    13941    13922    13902    13882 
   13865    13853    13851    13856    13867    13888    13919    13945 
   13959    13960    13954    13944    13927    13915    13911    13902 
   13888    13887    13895    13903    13914    13926    13932    13922 
   13906    13888    13873    13864    13863    13864    13872    13890 
   13913    13937    13971    14008    14048    14087    14123    14149 
   14162    14165    14165    14165    14160    14143    14126    14106 
   14081    14062    14052    14044    14038    14037    14038    14031 
   14017    13996    13969    13926    13879    13841    13809    13784 
   13774    13775    13784    13801    13826    13856    13891    13933 
   13973    14013    14045    14067    14077    14079    14069    14062 
   14061    14058    14058    14057    14058    14068    14076    14081 
   14091    14098    14103    14112    14118    14115    14107    14094 
   14073    14050    14023    13990    13953    13918    13891    13865 
   13833    13801    13761    13717    13683    13660    13644    13639 
   13641    13652    13675    13705    13740    13780    13819    13856 
   13888    13923    13964    14010    14060    14108    14149    14183 
   14208    14220    14223    14226    14227    14219    14206    14179 
   14141    14103    14067    14037    14019    14011    14008    14006 
   14010    14025    14049    14075    14091    14095    14087    14068 
   14044    14022    14002    13984    13967    13949    13933    13917 
   13903    13895    13890    13886    13883    13879    13864    13842 
   13819    13799    13779    13761    13751    13744    13747    13763 
   13786    13811    13840    13869    13898    13930    13964    13994 
   14015    14031    14045    14053    14058    14060    14060    14060 
   14060    14060    14062    14069    14076    14077    14081    14092 
   14095    14085    14076    14067    14050    14033    14018    14004 
   13995    13986    13979    13979    13987    13998    14007    14015 
   14026    14038    14044    14042    14037    14023    14007    13999 
   13995    13994    14002    14008    14015    14022    14026    14025 
   14018    14004    13991    13977    13960    13940    13919    13900 
   13882    13867    13860    13852    13844    13834    13828    13828 
   13836    13840    13841    13845    13844    13841    13842    13841 
   13836    13833    13834    13838    13848    13867    13888    13913 
   13945    13981    14019    14056    14095    14131    14162    14188 
   14203    14207    14204    14196    14179    14156    14135    14114 
   14088    14060    14037    14014    13988    13960    13933    13903 
   13871    13841    13817    13799    13784    13778    13779    13784 
   13790    13801    13818    13837    13859    13888    13922    13948 
   13971    13995    14014    14023    14033    14045    14050    14052 
   14050    14045    14038    14026    14015    14010    14007    14007 
   14008    14013    14017    14022    14026    14034    14041    14045 
   14046    14045    14042    14035    14033    14033    14025    14008 
   13994    13975    13949    13925    13907    13892    13886    13890 
   13903    13915    13932    13956    13980    14000    14021    14040 
   14053    14065    14073    14077    14080    14084    14081    14076 
   14071    14065    14056    14044    14029    14015    14002    13987 
   13973    13961    13946    13929    13911    13892    13873    13853 
   13841    13828    13811    13807    13813    13818    13824    13836 
   13859    13891    13925    13957    13984    14003    14014    14022 
   14030    14031    14022    14008    13994    13973    13956    13946 
   13938    13929    13926    13927    13927    13929    13932    13938 
   13945    13960    13979    13991    13998    14006    14011    14010 
   14011    14013    14006    14002    13999    13995    13992    13992 
   13988    13984    13987    13992    14000    14011    14022    14031 
   14038    14041    14042    14045    14050    14045    14040    14042 
   14044    14033    14023    14023    14030    14041    14053    14057 
   14054    14045    14027    14010    13998    13987    13975    13960 
   13948    13941    13938    13937    13936    13933    13932    13930 
   13925    13919    13917    13921    13927    13937    13952    13964 
   13971    13979    13984    13994    14010    14025    14029    14031 
   14037    14038    14038    14035    14027    14015    14000    13988 
