Origin Time       2025/03/29 04:45:00
Lat.              31.090
Long.             131.512
Depth. (km)       33
Mag.              4.6
Station Code      KGSH06
Station Lat.      31.6988
Station Long.     130.4594
Station Height(m) -71.93
Record Time       2025/03/29 04:45:49
Sampling Freq(Hz) 100Hz
Duration Time(s)  120
Dir.              2
Scale Factor      2940(gal)/6170270
Max. Acc. (gal)   0.397
Last Correction   2025/03/29 04:45:34
Memo.             
[...]
   93108    93123    93149    93184    93211    93224    93226    93220 
   93208    93193    93173    93152    93135    93127    93125    93135 
   93160    93189    93212    93230    93244    93249    93252    93254 
   93256    93262    93265    93256    93238    93212    93178    93142 
   93110    93081    93060    93057    93075    93109    93153    93195 
   93224    93239    93242    93237    93228    93221    93218    93212 
   93203    93192    93172    93149    93129    93114    93106    93104 
   93107    93120    93141    93163    93186    93206    93217    93223 
   93224    93219    93220    93226    93237    93253    93271    93290 
   93306    93315    93314    93299    93275    93254    93238    93221 
   93203    93186    93165    93145    93136    93129    93122    93122 
   93126    93129    93134    93145    93157    93172    93190    93204 
   93213    93216    93214    93208    93203    93194    93181    93169 
   93160    93154    93156    93166    93184    93205    93221    93224 
   93216    93203    93193    93185    93177    93170    93165    93168 
   93180    93195    93212    93234    93258    93276    93280    93272 
   93259    93247    93237    93229    93222    93212    93199    93181 
   93162    93150    93144    93144    93148    93154    93159    93161 
   93156    93148    93141    93133    93128    93135    93152    93177 
   93203    93222    93232    93235    93240    93252    93267    93279 
   93280    93271    93258    93242    93225    93211    93200    93193 
   93190    93188    93189    93193    93197    93196    93186    93167 
   93143    93119    93109    93120    93144    93169    93190    93210 
   93218    93208    93194    93180    93165    93148    93128    93111 
   93094    93078    93072    93082    93110    93148    93185    93215 
   93236    93251    93268    93288    93308    93321    93321    93308 
   93280    93244    93216    93200    93190    93189    93191    93187 
   93180    93176    93173    93173    93174    93174    93171    93164 
   93152    93136    93123    93114    93109    93111    93118    93131 
   93147    93161    93168    93169    93165    93158    93154    93161 
   93178    93197    93219    93237    93240    93228    93210    93192 
   93179    93176    93180    93186    93192    93199    93204    93208 
   93210    93210    93219    93238    93254    93265    93275    93278 
   93273    93266    93254    93233    93211    93193    93175    93150 
   93123    93104    93096    93099    93115    93139    93163    93185 
   93204    93213    93209    93195    93184    93183    93190    93208 
   93227    93237    93238    93234    93231    93232    93235    93240 
   93244    93242    93236    93230    93223    93211    93197    93181 
   93162    93144    93135    93135    93141    93156    93170    93172 
   93164    93153    93140    93127    93115    93104    93095    93092 
   93098    93109    93122    93137    93155    93172    93182    93188 
   93196    93205    93214    93229    93247    93258    93261    93259 
   93255    93249    93244    93237    93227    93216    93212    93214 
   93214    93213    93223    93240    93257    93268    93272    93267 
   93254    93231    93200    93169    93146    93139    93146    93156 
   93164    93169    93164    93150    93133    93117    93102    93091 
   93093    93107    93129    93158    93180    93196    93211    93217 
   93214    93213    93214    93214    93215    93217    93216    93212 
   93211    93214    93221    93232    93247    93263    93275    93279 
   93274    93258    93231    93196    93159    93127    93105    93096 
   93105    93132    93167    93203    93237    93258    93265    93264 
   93254    93237    93211    93178    93144    93112    93087    93067 
   93057    93064    93084    93118    93167    93214    93244    93260 
   93264    93257    93250    93246    93239    93227    93221    93223 
   93229    93236    93242    93243    93243    93241    93241    93241 
   93236    93225    93209    93186    93162    93142    93125    93110 
   93102    93104    93116    93137    93161    93177    93179    93172 
   93163    93153    93146    93143    93146    93153    93161    93172 
   93184    93196    93211    93239    93276    93310    93336    93348 
   93342    93327    93302    93266    93225    93186    93152    93125 
   93110    93113    93124    93137    93158    93185    93208    93231 
   93249    93255    93250    93236    93214    93190    93165    93145 
   93131    93124    93121    93119    93117    93117    93120    93119 
   93118    93121    93123    93133    93152    93168    93185    93205 
   93225    93245    93265    93279    93285    93285    93279    93268 
   93253    93242    93234    93220    93206    93194    93175    93151 
   93129    93114    93109    93109    93115    93128    93145    93161 
   93171    93176    93177    93173    93167    93164    93158    93148 
   93141    93138    93138    93144    93160    93178    93193    93205 
   93212    93219    93226    93232    93237    93244    93250    93256 
   93258    93255    93249    93235    93215    93202    93198    93201 
   93211    93223    93230    93230    93227    93223    93217    93208 
   93196    93183    93166    93149    93139    93131    93126    93130 
   93144    93166    93191    93212    93226    93232    93229    93224 
   93218    93214    93211    93206    93203    93199    93193    93191 
   93191    93193    93199    93199    93189    93178    93168    93160 
   93157    93158    93155    93154    93151    93139    93130    93131 
   93137    93151    93170    93192    93215    93227    93226    93221 
   93217    93217    93221    93229    93238    93246    93251    93248 
   93234    93213    93192    93174    93161    93157    93162    93171 
   93179    93183    93189    93200    93213    93229    93243    93249 
   93249    93239    93221    93203    93186    93176    93171    93166 
   93161    93160    93156    93151    93147    93146    93147    93148 
   93151    93158    93163    93163    93162    93162    93164    93168 
   93171    93174    93182    93191    93204    93223    93241    93250 
   93249    93241    93223    93199    93178    93158    93143    93133 
   93124    93116    93114    93115    93117    93125    93135    93142 
   93145    93149    93159    93175    93193    93207    93223    93238 
   93245    93249    93252    93253    93255    93257    93258    93257 
   93262    93270    93276    93280    93277    93263    93246    93229 
   93207    93186    93170    93157    93141    93124    93109    93103 
   93104    93107    93115    93126    93130    93127    93123    93119 
   93119    93128    93147    93175    93206    93236    93258    93268 
   93269    93266    93259    93246    93234    93224    93213    93205 
   93199    93196    93200    93203    93208    93220    93234    93247 
   93261    93270    93269    93262    93258    93257    93258    93253 
   93246    93232    93211    93190    93169    93149    93134    93122 
   93114    93113    93115    93119    93125    93128    93128    93129 
   93130    93136    93142    93139    93135    93137    93143    93149 
   93154    93158    93165    93177    93194    93217    93242    93263 
   93284    93304    93317    93321    93316    93307    93300    93288 
   93271    93256    93242    93223    93206    93189    93173    93162 
   93157    93155    93156    93161    93165    93167    93168    93169 
   93169    93166    93165    93165    93167    93169    93172    93174 
   93174    93172    93168    93160    93146    93125    93103    93086 
   93072    93062    93060    93067    93082    93102    93131    93163 
   93192    93219    93238    93246    93252    93251    93243    93238 
   93240    93249    93262    93279    93296    93306    93309    93306 
   93296    93284    93266    93243    93224    93207    93190    93174 
   93161    93151    93143    93137    93135    93136    93140    93153 
   93170    93190    93208    93217    93217    93212    93206    93198 
   93189    93178    93171    93167    93165    93162    93158    93158 
   93160    93161    93164    93166    93169    93172    93177    93185 
   93195    93203    93210    93219    93226    93234    93242    93244 
   93239    93233    93221    93205    93194    93189    93184    93182 
   93181    93181    93183    93181    93177    93176    93174    93173 
   93175    93181    93183    93177    93172    93167    93155    93143 
   93135    93127    93127    93138    93157    93183    93211    93235 
   93253    93263    93266    93259    93242    93222    93197    93165 
   93137    93114    93096    93089    93093    93105    93126    93149 
   93174    93201    93229    93258    93287    93312    93328    93332 
   93327    93317    93302    93287    93272    93256    93237    93211 
   93182    93159    93140    93123    93111    93103    93103    93114 
   93127    93139    93151    93161    93167    93169    93163    93153 
   93147    93146    93153    93169    93184    93195    93200    93195 
   93184    93167    93147    93135    93133    93144    93166    93197 
   93234    93270    93299    93316    93322    93320    93312    93302 
   93292    93281    93267    93257    93255    93262    93274    93284 
   93288    93281    93264    93241    93216    93193    93172    93157 
   93154    93164    93181    93202    93225    93247    93262    93269 
   93264    93247    93229    93206    93179    93157    93135    93113 
   93099    93090    93084    93085    93087    93081    93072    93065 
   93057    93047    93038    93029    93019    93008    92998    92992 
   92990    92994    93010    93037    93070    93102    93135    93175 
   93218    93259    93302    93349    93393    93432    93465    93489 
   93501    93502    93495    93477    93451    93422    93396    93368 
   93333    93297    93264    93231    93197    93169    93142    93114 
   93085    93052    93019    92994    92973    92952    92933    92918 
   92903    92887    92874    92860    92843    92827    92812    92794 
   92779    92769    92764    92770    92790    92827    92881    92949 
   93027    93120    93222    93321    93418    93504    93567    93611 
   93639    93646    93638    93619    93588    93549    93506    93460 
   93411    93364    93317    93277    93249    93234    93234    93251 
   93276    93305    93335    93358    93366    93360    93346    93319 
   93275    93224    93174    93128    93092    93070    93058    93052 
   93042    93020    92987    92952    92914    92885    92877    92886 
   92913    92957    93011    93069    93125    93169    93204    93232 
   93253    93274    93297    93315    93327    93340    93352    93359 
   93360    93358    93352    93344    93340    93342    93348    93358 
   93368    93368    93360    93349    93330    93307    93288    93279 
   93277    93282    93294    93311    93326    93329    93318    93297 
   93269    93234    93198    93164    93136    93117    93113    93124 
   93150    93191    93237    93281    93319    93340    93337    93307 
   93254    93175    93085    92998    92918    92859    92828    92818 
   92824    92842    92866    92894    92928    92972    93025    93091 
   93166    93241    93312    93378    93434    93482    93524    93558 
   93592    93630    93668    93700    93719    93714    93675    93600 
   93498    93376    93242    93109    92982    92870    92779    92713 
   92679    92681    92716    92779    92859    92945    93028    93108 
   93180    93246    93302    93339    93352    93341    93304    93245 
   93169    93085    93000    92920    92850    92795    92759    92740 
   92736    92742    92755    92773    92791    92815    92856    92921 
   93010    93121    93249    93387    93520    93636    93731    93796 
   93829    93834    93817    93777    93718    93646    93564    93475 
   93380    93276    93167    93057    92949    92853    92779    92726 
   92691    92674    92667    92662    92661    92666    92679    92704 
   92738    92781    92833    92896    92968    93050    93137    93227 
   93310    93380    93434    93470    93490    93496    93484    93454 
   93410    93358    93301    93250    93212    93187    93172    93165 
   93165    93167    93166    93173    93194    93233    93292    93365 
   93445    93527    93606    93674    93727    93766    93784    93777 
   93746    93693    93621    93545    93464    93381    93306    93240 
   93181    93131    93089    93051    93011    92977    92945    92914 
   92891    92886    92897    92925    92968    93029    93112    93206 
   93305    93404    93495    93563    93602    93619    93615    93594 
   93564    93529    93491    93456    93425    93393    93356    93315 
   93267    93209    93139    93061    92976    92891    92816    92756 
   92708    92673    92662    92670    92696    92743    92802    92870 
   92940    93004    93064    93124    93181    93233    93283    93328 
   93362    93382    93390    93392    93387    93375    93364    93355 
   93349    93346    93342    93339    93342    93347    93352    93362 
   93370    93371    93359    93333    93298    93255    93208    93168 
   93131    93092    93048    92999    92946    92892    92845    92806 
   92769    92733    92700    92667    92634    92600    92566    92537 
   92521    92521    92534    92562    92608    92666    92731    92803 
   92879    92960    93053    93156    93272    93399    93525    93650 
   93770    93870    93945    93999    94023    94022    94006    93969 
   93917    93858    93783    93693    93601    93502    93395    93294 
   93203    93127    93072    93041    93033    93047    93070    93093 
   93108    93111    93092    93047    92985    92907    92823    92749 
   92690    92653    92645    92659    92688    92735    92788    92842 
   92897    92950    93003    93060    93115    93171    93226    93278 
   93325    93370    93410    93444    93470    93487    93500    93514 
   93527    93544    93572    93604    93633    93647    93638    93606 
   93557    93497    93430    93367    93316    93285    93271    93267 
   93272    93281    93284    93281    93273    93254    93221    93183 
   93148    93122    93106    93099    93104    93119    93134    93143 
   93142    93127    93101    93066    93023    92977    92935    92902 
   92882    92878    92891    92919    92962    93017    93075    93133 
   93187    93233    93273    93310    93342    93368    93383    93386 
   93380    93365    93337    93307    93276    93242    93211    93184 
   93163    93154    93157    93172    93195    93228    93267    93304 
   93337    93366    93383    93383    93370    93343    93306    93264 
   93219    93172    93126    93078    93031    92995    92971    92957 
   92954    92962    92974    92987    92999    93007    93019    93037 
   93060    93085    93110    93134    93157    93174    93184    93187 
   93185    93177    93166    93157    93144    93122    93100    93082 
   93068    93061    93065    93077    93099    93135    93177    93224 
   93272    93308    93330    93341    93335    93316    93291    93262 
   93235    93215    93197    93186    93183    93182    93183    93187 
   93194    93203    93210    93214    93220    93224    93225    93223 
   93209    93190    93172    93149    93127    93107    93085    93063 
   93043    93024    93007    92994    92985    92983    92988    92993 
   92996    93001    93010    93025    93048    93073    93099    93130 
   93162    93192    93220    93247    93274    93299    93319    93339 
   93363    93386    93408    93426    93438    93448    93450    93444 
   93435    93420    93402    93386    93366    93348    93334    93318 
   93300    93281    93261    93238    93217    93199    93187    93182 
   93187    93205    93230    93258    93290    93315    93325    93319 
   93298    93267    93230    93192    93158    93132    93115    93106 
   93100    93098    93099    93102    93105    93108    93111    93115 
   93123    93138    93160    93189    93224    93264    93305    93342 
   93377    93407    93431    93449    93461    93466    93458    93435 
   93399    93352    93293    93228    93167    93112    93066    93037 
   93023    93023    93037    93064    93099    93137    93178    93219 
   93251    93272    93285    93288    93276    93256    93229    93199 
   93169    93143    93118    93094    93077    93068    93063    93060 
   93061    93065    93070    93077    93086    93094    93103    93113 
   93122    93130    93139    93153    93171    93192    93218    93248 
   93273    93291    93302    93301    93284    93249    93203    93153 
   93100    93051    93015    92988    92968    92955    92953    92960 
   92974    92989    93009    93029    93044    93055    93064    93069 
   93072    93075    93082    93093    93106    93120    93139    93164 
   93183    93191    93196    93198    93192    93185    93181    93176 
   93171    93169    93168    93171    93176    93183    93190    93198 
   93207    93217    93224    93229    93231    93232    93232    93227 
   93215    93202    93188    93169    93152    93136    93125    93124 
   93127    93135    93149    93163    93178    93195    93212    93229 
   93250    93266    93278    93285    93285    93282    93276    93264 
   93252    93249    93254    93263    93282    93309    93334    93364 
   93396    93421    93439    93448    93445    93432    93412    93390 
   93369    93351    93337    93329    93322    93317    93310    93297 
   93281    93264    93240    93215    93192    93165    93136    93110 
   93087    93070    93060    93057    93068    93084    93101    93123 
   93149    93170    93189    93207    93222    93234    93249    93264 
   93276    93286    93289    93286    93279    93268    93251    93232 
   93216    93201    93190    93182    93178    93178    93178    93178 
   93178    93173    93164    93151    93136    93120    93105    93094 
   93089    93083    93072    93061    93049    93033    93016    93000 
   92985    92978    92983    92994    93014    93048    93091    93139 
   93192    93247    93301    93350    93386    93409    93423    93426 
   93416    93400    93380    93353    93320    93286    93248    93207 
   93166    93126    93088    93055    93028    93007    92993    92983 
   92977    92975    92979    92984    92993    93009    93031    93055 
   93079    93100    93119    93137    93148    93154    93152    93145 
   93134    93119    93108    93107    93109    93114    93121    93130 
   93142    93156    93171    93186    93203    93222    93242    93265 
   93292    93317    93340    93365    93391    93416    93437    93449 
   93451    93446    93430    93404    93375    93343    93312    93287 
   93268    93250    93241    93238    93232    93229    93230    93229 
   93226    93225    93225    93224    93218    93211    93206    93202 
   93194    93186    93182    93177    93172    93164    93156    93147 
   93138    93129    93122    93116    93114    93116    93121    93127 
   93134    93139    93140    93138    93135    93125    93116    93114 
   93113    93113    93117    93124    93133    93141    93152    93164 
   93177    93191    93203    93214    93225    93233    93240    93252 
   93269    93287    93306    93326    93345    93359    93363    93358 
