Origin Time       2025/03/29 04:45:00
Lat.              31.090
Long.             131.512
Depth. (km)       33
Mag.              4.6
Station Code      KGSH05
Station Lat.      31.8699
Station Long.     130.4958
Station Height(m) 73.342
Record Time       2025/03/29 04:45:54
Sampling Freq(Hz) 100Hz
Duration Time(s)  120
Dir.              5
Scale Factor      7845(gal)/8223790
Max. Acc. (gal)   0.963
Last Correction   2025/03/29 04:45:54
Memo.             
[...]
   11574    11568    11584    11622    11680    11747    11807    11846 
   11861    11847    11801    11728    11641    11547    11461    11394 
   11352    11345    11380    11458    11565    11684    11793    11886 
   11956    11993    11983    11932    11842    11722    11589    11472 
   11387    11350    11365    11414    11484    11561    11627    11678 
   11716    11740    11745    11727    11697    11655    11605    11564 
   11537    11530    11541    11562    11592    11620    11645    11662 
   11670    11669    11662    11653    11649    11654    11669    11685 
   11699    11709    11720    11731    11749    11767    11777    11773 
   11751    11712    11664    11607    11553    11514    11499    11508 
   11543    11601    11664    11718    11755    11762    11735    11678 
   11593    11499    11408    11326    11268    11248    11272    11340 
   11450    11592    11742    11874    11970    12016    12010    11961 
   11878    11782    11689    11608    11545    11503    11485    11497 
   11529    11573    11624    11677    11724    11757    11770    11763 
   11735    11684    11623    11570    11526    11499    11499    11520 
   11556    11596    11632    11662    11689    11716    11740    11761 
   11780    11792    11792    11772    11731    11676    11618    11566 
   11535    11530    11547    11581    11618    11645    11658    11658 
   11642    11618    11595    11576    11572    11583    11607    11638 
   11672    11696    11715    11719    11696    11657    11614    11569 
   11534    11520    11530    11557    11603    11657    11711    11757 
   11789    11808    11819    11815    11801    11780    11736    11672 
   11591    11500    11418    11361    11338    11357    11421    11514 
   11624    11740    11835    11889    11892    11847    11765    11669 
   11583    11523    11500    11516    11558    11618    11677    11727 
   11762    11774    11762    11726    11673    11607    11534    11475 
   11437    11421    11429    11461    11511    11568    11630    11699 
   11762    11809    11839    11851    11846    11827    11799    11767 
   11727    11673    11611    11551    11503    11472    11466    11491 
   11543    11616    11692    11755    11807    11834    11828    11796 
   11749    11682    11607    11535    11476    11435    11412    11406 
   11414    11439    11487    11547    11607    11661    11700    11720 
   11727    11726    11724    11732    11751    11773    11785    11788 
   11781    11769    11755    11743    11730    11709    11685    11654 
   11615    11577    11553    11538    11529    11524    11522    11519 
   11520    11530    11550    11578    11618    11659    11692    11708 
   11707    11685    11649    11604    11556    11514    11489    11489 
   11519    11574    11646    11727    11807    11870    11911    11925 
   11911    11861    11793    11718    11638    11560    11492    11438 
   11403    11388    11389    11414    11461    11531    11616    11708 
   11797    11867    11912    11921    11894    11839    11762    11676 
   11596    11539    11508    11500    11518    11556    11601    11651 
   11695    11718    11715    11688    11641    11589    11550    11530 
   11533    11558    11607    11665    11720    11762    11780    11773 
   11735    11670    11589    11502    11415    11344    11300    11296 
   11337    11414    11523    11653    11786    11912    12015    12075 
   12087    12052    11974    11863    11735    11600    11484    11398 
   11353    11362    11414    11495    11592    11682    11747    11780 
   11770    11722    11642    11553    11476    11423    11408    11429 
   11476    11545    11620    11689    11743    11773    11780    11774 
   11757    11728    11700    11676    11650    11628    11616    11618 
   11627    11645    11665    11685    11703    11720    11731    11734 
   11731    11724    11712    11697    11677    11645    11600    11554 
   11504    11464    11441    11438    11457    11497    11549    11607 
   11668    11719    11751    11765    11767    11758    11738    11713 
   11681    11647    11618    11588    11558    11537    11527    11530 
   11546    11572    11599    11628    11654    11680    11709    11736 
   11755    11763    11751    11723    11688    11651    11615    11585 
   11569    11562    11569    11584    11610    11645    11684    11719 
   11746    11763    11766    11753    11728    11699    11662    11620 
   11584    11558    11541    11547    11576    11612    11653    11682 
   11692    11686    11670    11642    11615    11599    11596    11603 
   11616    11627    11628    11619    11607    11587    11562    11543 
   11530    11526    11537    11561    11596    11638    11681    11723 
   11757    11770    11770    11762    11742    11715    11688    11659 
   11634    11612    11596    11584    11576    11574    11581    11595 
   11616    11645    11670    11691    11709    11718    11708    11685 
   11649    11604    11565    11539    11533    11543    11570    11605 
   11639    11665    11691    11711    11719    11724    11727    11720 
   11708    11688    11658    11624    11589    11553    11530    11520 
   11526    11547    11578    11612    11646    11668    11674    11676 
   11674    11673    11672    11672    11669    11664    11655    11647 
   11637    11622    11601    11578    11562    11558    11574    11607 
   11657    11718    11778    11830    11861    11865    11840    11788 
   11718    11639    11557    11481    11425    11391    11392    11423 
   11480    11551    11628    11704    11765    11801    11815    11803 
   11759    11700    11639    11581    11529    11492    11476    11480 
   11499    11533    11576    11623    11670    11709    11747    11785 
   11812    11831    11835    11819    11788    11743    11681    11616 
   11561    11523    11508    11519    11551    11597    11650    11701 
   11740    11766    11772    11758    11731    11697    11661    11627 
   11604    11596    11595    11601    11616    11631    11638    11634 
   11614    11576    11529    11475    11421    11376    11353    11357 
   11388    11442    11516    11608    11700    11780    11842    11881 
   11890    11866    11819    11757    11688    11628    11588    11562 
   11553    11568    11597    11641    11693    11750    11807    11858 
   11896    11911    11893    11840    11763    11676    11585    11504 
   11442    11406    11394    11402    11423    11458    11504    11557 
   11611    11664    11715    11754    11774    11772    11746    11705 
   11659    11616    11578    11551    11542    11553    11578    11614 
   11658    11707    11747    11774    11785    11777    11754    11723 
   11685    11643    11603    11572    11553    11545    11550    11568 
   11599    11639    11681    11720    11755    11776    11778    11763 
   11730    11678    11619    11564    11519    11492    11491    11514 
   11551    11600    11658    11713    11749    11765    11761    11731 
   11682    11624    11564    11510    11464    11426    11404    11400 
   11408    11435    11481    11537    11599    11662    11720    11766 
   11790    11786    11765    11731    11693    11658    11631    11618 
   11619    11632    11653    11669    11677    11682    11685    11677 
   11662    11649    11635    11622    11616    11619    11628    11643 
   11659    11678    11695    11707    11711    11712    11709    11699 
   11684    11665    11642    11622    11603    11588    11585    11597 
   11626    11665    11704    11738    11755    11749    11720    11673 
   11619    11564    11515    11479    11466    11473    11496    11538 
   11597    11662    11726    11781    11817    11832    11831    11815 
   11782    11739    11689    11628    11570    11529    11500    11487 
   11491    11514    11550    11587    11619    11639    11649    11646 
   11631    11612    11589    11566    11557    11556    11562    11585 
   11615    11650    11692    11727    11755    11774    11786    11792 
   11785    11769    11753    11735    11716    11695    11670    11643 
   11622    11601    11584    11566    11546    11531    11526    11526 
   11531    11551    11589    11634    11682    11728    11766    11789 
   11790    11777    11746    11699    11645    11588    11531    11483 
   11456    11452    11468    11496    11531    11570    11610    11643 
   11668    11681    11691    11693    11695    11695    11688    11680 
   11673    11666    11658    11650    11643    11641    11641    11643 
   11654    11677    11704    11728    11749    11761    11761    11749 
   11727    11699    11668    11638    11616    11601    11588    11580 
   11581    11595    11618    11643    11674    11700    11716    11720 
   11703    11673    11642    11605    11569    11546    11533    11531 
   11547    11574    11605    11635    11661    11680    11685    11681 
   11674    11662    11646    11630    11614    11603    11597    11592 
   11587    11584    11577    11569    11564    11564    11564    11570 
   11591    11612    11626    11637    11643    11643    11638    11624 
   11605    11591    11577    11562    11549    11546    11549    11558 
   11580    11614    11658    11709    11759    11799    11827    11838 
   11828    11804    11762    11701    11643    11592    11543    11515 
   11512    11526    11560    11607    11659    11716    11765    11800 
   11821    11823    11803    11770    11727    11676    11624    11578 
   11539    11507    11479    11454    11433    11419    11418    11419 
   11425    11437    11450    11457    11458    11460    11464    11466 
   11475    11492    11518    11547    11581    11622    11669    11724 
   11788    11861    11940    12020    12091    12147    12182    12190 
   12163    12101    12009    11892    11762    11638    11530    11456 
   11430    11450    11506    11589    11682    11762    11815    11830 
   11803    11735    11634    11516    11398    11292    11215    11175 
   11176    11210    11268    11342    11421    11495    11556    11601 
   11635    11659    11678    11692    11700    11704    11711    11719 
   11731    11743    11750    11746    11734    11719    11701    11688 
   11686    11701    11726    11757    11794    11827    11846    11853 
   11844    11821    11782    11736    11692    11646    11600    11572 
   11560    11553    11554    11566    11585    11607    11626    11642 
   11657    11668    11669    11669    11666    11659    11651    11646 
   11638    11631    11628    11627    11627    11631    11639    11649 
   11655    11657    11651    11638    11619    11596    11573    11553 
   11541    11537    11542    11560    11593    11638    11691    11754 
   11827    11897    11959    12006    12029    12017    11970    11886 
   11765    11612    11448    11291    11160    11074    11044    11072 
   11161    11300    11468    11650    11824    11965    12054    12078 
   12039    11940    11799    11631    11456    11298    11175    11094 
   11061    11076    11132    11219    11329    11450    11580    11701 
   11803    11884    11946    11982    11994    11983    11952    11904 
   11836    11763    11697    11638    11595    11574    11580    11607 
   11646    11680    11700    11709    11707    11681    11637    11578 
   11515    11453    11395    11358    11350    11364    11406    11475 
   11554    11641    11727    11800    11846    11866    11859    11826 
   11778    11723    11661    11603    11562    11537    11531    11554 
   11600    11665    11745    11831    11921    12017    12104    12174 
   12224    12244    12229    12183    12101    11985    11847    11701 
   11553    11414    11292    11196    11137    11117    11126    11157 
   11205    11257    11303    11338    11364    11387    11411    11438 
   11468    11507    11553    11599    11635    11658    11664    11655 
   11623    11570    11511    11456    11404    11371    11362    11381 
   11423    11484    11562    11654    11742    11820    11892    11951 
   11994    12025    12052    12077    12102    12137    12185    12235 
   12280    12317    12329    12302    12221    12082    11888    11653 
   11392    11129    10898    10732    10654    10669    10781    10980 
   11240    11523    11797    12033    12205    12294    12293    12208 
   12055    11851    11623    11403    11214    11080    11017    11024 
   11097    11226    11389    11569    11739    11875    11974    12029 
   12039    12009    11951    11878    11801    11730    11680    11657 
   11659    11689    11735    11789    11844    11893    11923    11929 
   11911    11869    11800    11709    11607    11500    11395    11298 
   11218    11160    11119    11087    11064    11061    11087    11140 
   11222    11333    11454    11566    11653    11708    11724    11701 
   11651    11593    11545    11523    11538    11593    11692    11820 
   11962    12109    12243    12337    12382    12364    12283    12147 
   11974    11782    11593    11433    11326    11276    11276    11326 
   11412    11510    11603    11682    11742    11774    11788    11793 
   11793    11786    11777    11762    11735    11692    11635    11566 
   11492    11422    11358    11307    11283    11288    11314    11356 
   11404    11457    11511    11565    11623    11688    11754    11820 
   11881    11925    11944    11936    11897    11824    11732    11628 
   11516    11406    11304    11218    11149    11106    11090    11099 
   11144    11232    11369    11549    11757    11979    12204    12403 
   12555    12640    12650    12580    12437    12235    11994    11745 
   11516    11337    11222    11172    11190    11268    11379    11496 
   11605    11693    11738    11738    11704    11645    11561    11468 
   11380    11302    11240    11202    11186    11200    11249    11327 
   11435    11561    11691    11812    11911    11983    12028    12039 
   12017    11966    11896    11819    11743    11676    11620    11576 
   11542    11514    11485    11457    11426    11400    11388    11395 
   11429    11497    11600    11726    11866    12015    12152    12259 
   12322    12333    12289    12189    12046    11874    11693    11526 
   11389    11288    11236    11227    11253    11304    11372    11452 
   11534    11603    11659    11705    11738    11758    11766    11755 
   11720    11659    11574    11475    11373    11273    11187    11124 
   11086    11082    11110    11165    11250    11362    11495    11637 
   11777    11905    12016    12096    12143    12155    12129    12066 
   11973    11862    11750    11643    11551    11485    11443    11416 
   11403    11398    11399    11408    11421    11437    11464    11497 
   11537    11587    11642    11695    11739    11773    11793    11796 
   11781    11761    11736    11711    11696    11684    11668    11654 
   11641    11623    11600    11574    11550    11535    11530    11531 
   11547    11583    11628    11680    11735    11790    11835    11863 
   11878    11875    11855    11823    11782    11740    11700    11659 
   11623    11589    11560    11531    11503    11477    11457    11445 
   11441    11442    11452    11473    11502    11537    11580    11634 
   11689    11742    11794    11844    11889    11924    11944    11947 
   11936    11907    11863    11812    11754    11696    11638    11583 
   11535    11493    11457    11434    11425    11425    11435    11457 
   11487    11524    11569    11615    11661    11709    11755    11793 
   11828    11853    11866    11874    11863    11835    11797    11746 
   11689    11634    11581    11533    11492    11465    11454    11466 
   11499    11547    11610    11672    11719    11749    11757    11736 
   11701    11659    11612    11565    11527    11506    11506    11527 
   11569    11628    11688    11734    11763    11766    11738    11685 
   11607    11508    11406    11307    11223    11169    11151    11169 
   11226    11321    11445    11588    11740    11889    12016    12112 
   12170    12181    12143    12071    11975    11869    11776    11703 
   11654    11638    11651    11697    11770    11854    11932    11992 
   12015    12004    11962    11888    11790    11685    11583    11495 
   11422    11368    11340    11337    11348    11369    11387    11392 
   11380    11349    11303    11253    11209    11184    11183    11205 
   11252    11319    11404    11500    11600    11693    11769    11828 
   11866    11881    11880    11871    11858    11847    11842    11840 
   11840    11840    11840    11840    11839    11834    11824    11811 
   11794    11776    11755    11736    11716    11697    11680    11670 
   11669    11672    11672    11672    11661    11639    11603    11550 
   11488    11422    11354    11290    11237    11210    11209    11234 
   11290    11371    11470    11584    11701    11809    11900    11974 
   12029    12064    12082    12082    12063    12027    11977    11913 
   11839    11765    11703    11651    11620    11616    11637    11672 
   11716    11763    11801    11816    11809    11782    11735    11677 
   11620    11569    11524    11495    11473    11457    11442    11421 
   11396    11372    11345    11317    11295    11284    11283    11291 
   11313    11354    11407    11462    11524    11589    11650    11699 
   11734    11759    11767    11758    11742    11719    11681    11641 
   11591    11533    11480    11437    11404    11395    11408    11443 
   11504    11584    11669    11751    11826    11885    11919    11929 
   11919    11889    11844    11797    11751    11712    11684    11668 
   11664    11672    11681    11688    11700    11704    11693    11677 
   11657    11628    11599    11572    11553    11543    11550    11568 
   11595    11630    11668    11700    11722    11735    11735    11718 
   11688    11653    11616    11585    11560    11543    11539    11546 
   11561    11581    11608    11634    11654    11672    11688    11699 
   11704    11703    11699    11697    11700    11707    11722    11739 
   11761    11785    11804    11821    11836    11836    11821    11805 
   11780    11736    11686    11641    11591    11541    11499    11461 
   11427    11407    11398    11391    11392    11406    11429    11452 
   11477    11508    11546    11585    11624    11666    11715    11759 
   11799    11834    11861    11878    11882    11873    11854    11828 
   11793    11753    11712    11672    11642    11631    11631    11647 
   11680    11719    11761    11797    11828    11848    11851    11840 
   11820    11790    11757    11722    11685    11650    11620    11595 
   11576    11565    11553    11541    11533    11523    11512    11503 
   11488    11464    11437    11406    11372    11334    11300    11276 
   11265    11272    11310    11373    11449    11533    11626    11709 
   11773    11815    11830    11812    11767    11705    11641    11581 
   11533    11506    11506    11527    11572    11635    11708    11781 
   11848    11897    11924    11932    11924    11894    11846    11797 
   11750    11697    11645    11605    11576    11556    11551    11554 
   11558    11570    11587    11604    11622    11638    11651    11659 
   11654    11637    11612    11577    11533    11484    11433    11384 
   11342    11307    11284    11279    11292    11326    11379    11442 
   11512    11587    11661    11728    11786    11836    11869    11886 
