Origin Time       2025/03/29 04:45:00
Lat.              31.090
Long.             131.512
Depth. (km)       33
Mag.              4.6
Station Code      KGSH05
Station Lat.      31.8699
Station Long.     130.4958
Station Height(m) -33.658
Record Time       2025/03/29 04:45:54
Sampling Freq(Hz) 100Hz
Duration Time(s)  120
Dir.              2
Scale Factor      3923(gal)/8224838
Max. Acc. (gal)   0.181
Last Correction   2025/03/29 04:45:54
Memo.             
[...]
  -26997   -26989   -26990   -27001   -27010   -27016   -27017   -27005 
  -26994   -26991   -26986   -26983   -26990   -26998   -26998   -26998 
  -27000   -26994   -26985   -26970   -26956   -26952   -26946   -26940 
  -26939   -26940   -26951   -26970   -26990   -27008   -27016   -27013 
  -27004   -26987   -26978   -26981   -26983   -26985   -26990   -26995 
  -27004   -27012   -27016   -27012   -27004   -26989   -26967   -26943 
  -26925   -26925   -26933   -26943   -26962   -26986   -27006   -27024 
  -27037   -27039   -27032   -27014   -26989   -26963   -26940   -26927 
  -26929   -26944   -26960   -26974   -26983   -26985   -26985   -26989 
  -26993   -26995   -27009   -27021   -27021   -27024   -27029   -27031 
  -27032   -27032   -27033   -27033   -27025   -27018   -27005   -26989 
  -26981   -26975   -26967   -26962   -26959   -26947   -26933   -26923 
  -26913   -26912   -26914   -26924   -26944   -26967   -26990   -27014 
  -27033   -27044   -27045   -27041   -27025   -27006   -26995   -26991 
  -26990   -26991   -26991   -26987   -26979   -26967   -26955   -26943 
  -26935   -26935   -26937   -26936   -26939   -26944   -26951   -26963 
  -26977   -26983   -26989   -26998   -27001   -26997   -26991   -26982 
  -26975   -26975   -26977   -26985   -26993   -26995   -26997   -26993 
  -26989   -26995   -27001   -27005   -27014   -27024   -27029   -27032 
  -27032   -27036   -27039   -27035   -27031   -27022   -27006   -26987 
  -26973   -26956   -26937   -26925   -26925   -26928   -26929   -26933 
  -26935   -26935   -26935   -26932   -26932   -26940   -26955   -26968 
  -26986   -27010   -27032   -27045   -27055   -27052   -27039   -27024 
  -27009   -26998   -26991   -26983   -26971   -26959   -26947   -26941 
  -26940   -26940   -26950   -26966   -26979   -26994   -27008   -27014 
  -27010   -26998   -26983   -26973   -26958   -26943   -26937   -26939 
  -26947   -26958   -26971   -26989   -27004   -27014   -27025   -27029 
  -27025   -27021   -27009   -26986   -26971   -26963   -26951   -26947 
  -26951   -26952   -26958   -26971   -26989   -27010   -27032   -27043 
  -27048   -27045   -27028   -27004   -26981   -26962   -26954   -26951 
  -26946   -26940   -26937   -26941   -26950   -26956   -26960   -26967 
  -26982   -26997   -27008   -27017   -27021   -27021   -27024   -27024 
  -27028   -27037   -27048   -27056   -27056   -27048   -27029   -27006 
  -26983   -26958   -26943   -26936   -26935   -26939   -26952   -26971 
  -26997   -27014   -27021   -27028   -27031   -27017   -27001   -26989 
  -26978   -26973   -26974   -26978   -26994   -27016   -27028   -27033 
  -27036   -27029   -27013   -26989   -26964   -26950   -26943   -26937 
  -26940   -26956   -26970   -26978   -26983   -26987   -26993   -26990 
  -26982   -26974   -26964   -26956   -26948   -26940   -26936   -26935 
  -26936   -26946   -26956   -26970   -26987   -27004   -27016   -27020 
  -27020   -27022   -27014   -27002   -27000   -26995   -26986   -26975 
  -26964   -26959   -26956   -26952   -26956   -26966   -26971   -26973 
  -26970   -26966   -26963   -26964   -26970   -26971   -26967   -26960 
  -26952   -26954   -26963   -26977   -26998   -27016   -27027   -27035 
  -27035   -27029   -27022   -27017   -27018   -27020   -27016   -27014 
  -27012   -27006   -27004   -27001   -26990   -26977   -26963   -26950 
  -26937   -26927   -26921   -26917   -26917   -26923   -26932   -26951 
  -26979   -27004   -27028   -27048   -27059   -27063   -27063   -27056 
  -27047   -27029   -27006   -26986   -26971   -26956   -26947   -26946 
  -26947   -26941   -26935   -26931   -26931   -26932   -26941   -26958 
  -26981   -27006   -27032   -27049   -27063   -27062   -27049   -27039 
  -27022   -26995   -26971   -26954   -26933   -26925   -26927   -26924 
  -26925   -26939   -26955   -26964   -26975   -26986   -26990   -26986 
  -26979   -26975   -26981   -26985   -26986   -26997   -27006   -27010 
  -27013   -27017   -27018   -27016   -27010   -26998   -26983   -26970 
  -26962   -26955   -26950   -26948   -26948   -26950   -26955   -26963 
  -26973   -26986   -27006   -27025   -27036   -27035   -27024   -27006 
  -26990   -26979   -26968   -26962   -26967   -26973   -26982   -26987 
  -26977   -26963   -26951   -26936   -26923   -26920   -26921   -26923 
  -26928   -26936   -26951   -26973   -26993   -27012   -27033   -27056 
  -27074   -27083   -27090   -27095   -27091   -27085   -27075   -27064 
  -27047   -27021   -26995   -26968   -26939   -26914   -26897   -26883 
  -26878   -26881   -26886   -26893   -26910   -26932   -26950   -26964 
  -26975   -26978   -26975   -26967   -26962   -26962   -26959   -26959 
  -26967   -26974   -26981   -26987   -26998   -27012   -27017   -27017 
  -27013   -27002   -26989   -26989   -26995   -27001   -27010   -27021 
  -27027   -27021   -27014   -27013   -27010   -27000   -26985   -26971 
  -26958   -26943   -26932   -26931   -26935   -26941   -26951   -26964 
  -26981   -27001   -27016   -27027   -27041   -27044   -27036   -27027 
  -27016   -27000   -26986   -26982   -26978   -26978   -26987   -27004 
  -27020   -27039   -27051   -27051   -27044   -27036   -27028   -27020 
  -27008   -26998   -26991   -26982   -26970   -26958   -26946   -26933 
  -26927   -26924   -26921   -26924   -26936   -26946   -26956   -26974 
  -26989   -26994   -26995   -26991   -26985   -26978   -26977   -26975 
  -26968   -26967   -26970   -26967   -26968   -26974   -26978   -26986 
  -27000   -27008   -27010   -27010   -27008   -26994   -26982   -26978 
  -26973   -26967   -26970   -26974   -26983   -26994   -27005   -27017 
  -27027   -27036   -27039   -27036   -27028   -27014   -26995   -26979 
  -26966   -26955   -26950   -26956   -26968   -26981   -26990   -26998 
  -27002   -26997   -26987   -26983   -26975   -26964   -26959   -26954 
  -26946   -26941   -26943   -26950   -26959   -26971   -26975   -26971 
  -26963   -26958   -26956   -26956   -26963   -26971   -26977   -26985 
  -26990   -26994   -27004   -27016   -27022   -27027   -27028   -27025 
  -27018   -27009   -27000   -26991   -26978   -26966   -26956   -26952 
  -26962   -26974   -26985   -26994   -27009   -27017   -27016   -27010 
  -27004   -26991   -26975   -26959   -26943   -26932   -26927   -26921 
  -26921   -26929   -26944   -26962   -26985   -27009   -27021   -27025 
  -27025   -27017   -27000   -26983   -26977   -26975   -26978   -26987 
  -27001   -27013   -27031   -27043   -27047   -27052   -27054   -27041 
  -27027   -27014   -26998   -26982   -26967   -26952   -26936   -26924 
  -26919   -26914   -26912   -26916   -26931   -26948   -26970   -26993 
  -27010   -27024   -27035   -27039   -27033   -27029   -27031   -27028 
  -27021   -27013   -27004   -26994   -26983   -26971   -26964   -26959 
  -26956   -26959   -26959   -26959   -26967   -26974   -26981   -26990 
  -26995   -26995   -26990   -26983   -26975   -26968   -26962   -26956 
  -26958   -26966   -26979   -26991   -27000   -27006   -27016   -27018 
  -27018   -27021   -27016   -27005   -26995   -26986   -26977   -26974 
  -26978   -26979   -26981   -26991   -27000   -26998   -26995   -26994 
  -26983   -26970   -26962   -26956   -26954   -26956   -26963   -26970 
  -26974   -26974   -26970   -26963   -26954   -26947   -26943   -26935 
  -26931   -26939   -26948   -26959   -26974   -26990   -27016   -27039 
  -27058   -27074   -27085   -27081   -27063   -27041   -27013   -26982 
  -26951   -26924   -26904   -26889   -26881   -26879   -26883   -26893 
  -26896   -26898   -26912   -26924   -26940   -26966   -26987   -27009 
  -27031   -27043   -27054   -27068   -27072   -27070   -27071   -27071 
  -27068   -27068   -27067   -27063   -27056   -27047   -27041   -27039 
  -27033   -27028   -27025   -27018   -27008   -26997   -26983   -26966 
  -26950   -26933   -26921   -26913   -26901   -26892   -26890   -26889 
  -26886   -26890   -26901   -26917   -26936   -26955   -26977   -27000 
  -27017   -27029   -27037   -27037   -27035   -27035   -27025   -27012 
  -27006   -27000   -26993   -26991   -26993   -26994   -26993   -26991 
  -26993   -26986   -26978   -26966   -26950   -26937   -26924   -26913 
  -26910   -26906   -26909   -26916   -26921   -26931   -26943   -26951 
  -26966   -26975   -26981   -26990   -27000   -26995   -26987   -26982 
  -26974   -26964   -26960   -26959   -26966   -26971   -26966   -26968 
  -26974   -26964   -26958   -26962   -26963   -26966   -26974   -26989 
  -27001   -27014   -27032   -27041   -27047   -27059   -27063   -27060 
  -27058   -27051   -27041   -27029   -27013   -27001   -26990   -26979 
  -26970   -26967   -26968   -26968   -26968   -26974   -26978   -26979 
  -26986   -26995   -27001   -27012   -27022   -27028   -27031   -27029 
  -27027   -27021   -27012   -27008   -27005   -27002   -27009   -27016 
  -27021   -27029   -27039   -27047   -27055   -27064   -27063   -27054 
  -27039   -27017   -26998   -26986   -26970   -26955   -26940   -26920 
  -26905   -26892   -26883   -26885   -26885   -26889   -26897   -26904 
  -26910   -26919   -26927   -26939   -26951   -26964   -26981   -26997 
  -27009   -27017   -27021   -27020   -27020   -27013   -26998   -26990 
  -26982   -26967   -26955   -26944   -26940   -26946   -26952   -26960 
  -26971   -26977   -26979   -26985   -26989   -26990   -26985   -26978 
  -26975   -26977   -26974   -26968   -26964   -26962   -26958   -26959 
  -26967   -26971   -26977   -26981   -26981   -26982   -26983   -26987 
  -26995   -27002   -27009   -27021   -27031   -27033   -27031   -27024 
  -27014   -27004   -26994   -26985   -26977   -26970   -26970   -26971 
  -26964   -26962   -26968   -26968   -26968   -26970   -26967   -26963 
  -26956   -26950   -26941   -26939   -26939   -26940   -26947   -26963 
  -26986   -27012   -27031   -27043   -27049   -27044   -27025   -27004 
  -26985   -26967   -26960   -26966   -26970   -26977   -26985   -26985 
  -26989   -26994   -26989   -26990   -26994   -26987   -26986   -26987 
  -26985   -26985   -26983   -26982   -26982   -26979   -26975   -26975 
  -26975   -26974   -26971   -26974   -26982   -26989   -27000   -27008 
  -27010   -27013   -27013   -27009   -27004   -26995   -26989   -26978 
  -26960   -26955   -26948   -26937   -26931   -26925   -26921   -26923 
  -26920   -26923   -26932   -26941   -26959   -26979   -26994   -27010 
  -27025   -27035   -27041   -27040   -27031   -27020   -27008   -26991 
  -26973   -26956   -26943   -26935   -26935   -26943   -26948   -26959 
  -26974   -26981   -26987   -26998   -27002   -27004   -27012   -27022 
  -27024   -27022   -27027   -27029   -27027   -27025   -27029   -27037 
  -27047   -27056   -27072   -27086   -27090   -27087   -27075   -27051 
  -27025   -27004   -26982   -26960   -26947   -26940   -26935   -26932 
  -26928   -26920   -26923   -26923   -26919   -26923   -26935   -26941 
  -26951   -26964   -26977   -26983   -26991   -27004   -27010   -27016 
  -27025   -27029   -27029   -27036   -27040   -27040   -27047   -27051 
  -27049   -27055   -27067   -27075   -27082   -27093   -27102   -27105 
  -27110   -27112   -27106   -27099   -27089   -27064   -27035   -27002 
  -26968   -26929   -26890   -26865   -26847   -26829   -26824   -26824 
  -26821   -26829   -26846   -26860   -26881   -26909   -26939   -26968 
  -26994   -27014   -27032   -27040   -27047   -27055   -27058   -27055 
  -27052   -27049   -27047   -27045   -27047   -27049   -27049   -27049 
  -27049   -27044   -27033   -27016   -26995   -26981   -26960   -26940 
  -26931   -26923   -26916   -26917   -26917   -26917   -26917   -26910 
  -26908   -26905   -26894   -26887   -26887   -26887   -26889   -26893 
  -26896   -26900   -26902   -26898   -26900   -26902   -26897   -26894 
  -26905   -26917   -26928   -26948   -26973   -27004   -27037   -27071 
  -27109   -27144   -27178   -27205   -27218   -27225   -27217   -27190 
  -27153   -27112   -27062   -27010   -26966   -26924   -26885   -26856 
  -26839   -26827   -26817   -26816   -26820   -26827   -26838   -26846 
  -26848   -26851   -26852   -26843   -26831   -26823   -26819   -26820 
  -26828   -26844   -26862   -26882   -26906   -26928   -26950   -26968 
  -26977   -26982   -26991   -26994   -26997   -27001   -27001   -27004 
  -27012   -27018   -27027   -27044   -27063   -27079   -27101   -27120 
  -27129   -27130   -27126   -27112   -27087   -27056   -27016   -26977 
  -26947   -26925   -26920   -26929   -26946   -26974   -27009   -27035 
  -27052   -27064   -27063   -27051   -27031   -27005   -26978   -26956 
  -26940   -26929   -26927   -26933   -26948   -26973   -27002   -27032 
  -27060   -27089   -27108   -27118   -27126   -27135   -27130   -27113 
  -27089   -27063   -27037   -27020   -27008   -27006   -27024   -27048 
  -27072   -27101   -27130   -27156   -27183   -27203   -27211   -27207 
  -27193   -27163   -27125   -27086   -27047   -27005   -26968   -26933 
  -26900   -26867   -26833   -26806   -26789   -26777   -26782   -26796 
  -26809   -26831   -26858   -26883   -26909   -26932   -26950   -26967 
  -26979   -26985   -26985   -26970   -26944   -26912   -26878   -26846 
  -26825   -26821   -26828   -26851   -26887   -26929   -26971   -27017 
  -27059   -27091   -27116   -27129   -27128   -27117   -27102   -27076 
  -27047   -27022   -26997   -26973   -26960   -26956   -26958   -26963 
  -26966   -26963   -26955   -26936   -26910   -26886   -26867   -26854 
  -26852   -26870   -26901   -26944   -27002   -27072   -27144   -27211 
  -27270   -27314   -27344   -27351   -27330   -27288   -27225   -27143 
  -27049   -26955   -26862   -26781   -26712   -26658   -26619   -26604 
  -26616   -26642   -26690   -26761   -26835   -26912   -26981   -27035 
  -27072   -27090   -27087   -27068   -27033   -26994   -26954   -26912 
  -26889   -26886   -26890   -26902   -26924   -26941   -26951   -26951 
  -26948   -26944   -26941   -26946   -26954   -26964   -26978   -26991 
  -27002   -27005   -27002   -26998   -26986   -26971   -26955   -26936 
  -26917   -26904   -26894   -26887   -26881   -26879   -26879   -26879 
  -26879   -26881   -26885   -26901   -26920   -26946   -26983   -27025 
  -27064   -27105   -27137   -27155   -27163   -27166   -27164   -27157 
  -27145   -27137   -27132   -27125   -27120   -27114   -27110   -27103 
  -27095   -27087   -27075   -27060   -27047   -27028   -27005   -26979 
  -26951   -26923   -26897   -26871   -26846   -26829   -26819   -26812 
  -26812   -26825   -26848   -26879   -26921   -26967   -27010   -27055 
  -27098   -27130   -27149   -27160   -27170   -27174   -27162   -27143 
  -27126   -27110   -27085   -27056   -27028   -26994   -26958   -26932 
  -26908   -26883   -26874   -26874   -26873   -26877   -26878   -26870 
  -26858   -26844   -26831   -26819   -26811   -26816   -26829   -26846 
  -26873   -26908   -26947   -26985   -27018   -27056   -27093   -27121 
  -27140   -27145   -27140   -27126   -27106   -27083   -27064   -27059 
  -27064   -27070   -27087   -27113   -27128   -27139   -27140   -27126 
  -27106   -27071   -27021   -26967   -26910   -26862   -26823   -26782 
  -26755   -26748   -26752   -26774   -26808   -26838   -26869   -26900 
  -26925   -26951   -26974   -26995   -27020   -27048   -27075   -27098 
  -27121   -27143   -27160   -27175   -27183   -27184   -27175   -27155 
  -27118   -27070   -27018   -26964   -26904   -26848   -26804   -26762 
  -26727   -26705   -26692   -26689   -26698   -26716   -26746   -26788 
  -26840   -26892   -26943   -27001   -27055   -27099   -27140   -27178 
  -27205   -27217   -27222   -27226   -27226   -27221   -27206   -27183 
  -27149   -27108   -27052   -26990   -26927   -26860   -26802   -26754 
  -26709   -26678   -26661   -26651   -26653   -26665   -26686   -26721 
  -26759   -26800   -26846   -26890   -26929   -26967   -27006   -27047 
  -27078   -27102   -27124   -27137   -27144   -27151   -27148   -27139 
  -27126   -27106   -27082   -27060   -27037   -27013   -26998   -26990 
  -26989   -26998   -27013   -27040   -27071   -27099   -27124   -27141 
  -27143   -27130   -27109   -27081   -27045   -27017   -27004   -26993 
  -26985   -26993   -27012   -27027   -27043   -27068   -27091   -27108 
  -27124   -27135   -27140   -27145   -27151   -27149   -27145   -27141 
  -27130   -27110   -27093   -27072   -27037   -26997   -26958   -26920 
  -26885   -26852   -26827   -26808   -26796   -26798   -26809   -26827 
  -26856   -26892   -26928   -26968   -27002   -27029   -27052   -27072 
  -27087   -27099   -27106   -27110   -27110   -27103   -27090   -27075 
  -27058   -27035   -27012   -26987   -26964   -26948   -26940   -26935 
  -26933   -26933   -26935   -26937   -26940   -26939   -26937   -26940 
  -26947   -26951   -26955   -26963   -26973   -26974   -26973   -26968 
  -26955   -26937   -26923   -26902   -26878   -26860   -26846   -26833 
  -26827   -26828   -26835   -26846   -26859   -26878   -26902   -26927 
  -26951   -26973   -26990   -27005   -27016   -27025   -27028   -27024 
  -27017   -27006   -26989   -26971   -26954   -26927   -26896   -26875 
  -26858   -26838   -26823   -26823   -26833   -26852   -26886   -26927 
  -26967   -27006   -27048   -27087   -27120   -27145   -27170   -27189 
  -27205   -27213   -27210   -27209   -27206   -27194   -27176   -27159 
  -27133   -27102   -27074   -27049   -27018   -26985   -26956   -26920 
  -26882   -26850   -26820   -26794   -26779   -26775   -26782   -26798 
  -26819   -26846   -26870   -26896   -26921   -26941   -26959   -26977 
  -26991   -27004   -27017   -27029   -27043   -27052   -27052   -27051 
  -27054   -27055   -27056   -27055   -27049   -27040   -27031   -27025 
  -27021   -27017   -27009   -26997   -26985   -26968   -26943   -26921 
  -26901   -26873   -26844   -26820   -26789   -26766   -26759   -26752 
  -26751   -26766   -26784   -26808   -26844   -26886   -26931   -26978 
  -27014   -27043   -27064   -27082   -27094   -27101   -27102   -27105 
  -27108   -27108   -27106   -27105   -27103   -27101   -27099   -27099 
  -27095   -27086   -27074   -27066   -27055   -27041   -27035   -27031 
  -27029   -27031   -27031   -27029   -27031   -27032   -27029   -27022 
  -27013   -27008   -26997   -26979   -26967   -26959   -26956   -26958 
  -26962   -26970   -26982   -26997   -27012   -27022   -27027   -27025 
  -27018   -27010   -27005   -26997   -26983   -26978   -26973   -26958 
  -26948   -26940   -26928   -26917   -26905   -26890   -26878   -26871 
  -26866   -26862   -26862   -26867   -26877   -26890   -26906   -26919 
  -26932   -26943   -26941   -26940   -26935   -26919   -26905   -26892 
  -26871   -26851   -26836   -26820   -26813   -26816   -26819   -26828 
  -26848   -26867   -26892   -26923   -26954   -26986   -27022   -27059 
  -27093   -27130   -27162   -27179   -27195   -27202   -27195   -27187 
  -27174   -27149   -27122   -27095   -27066   -27036   -27012   -26989 
  -26967   -26951   -26944   -26943   -26947   -26959   -26978   -27001 
  -27024   -27045   -27067   -27086   -27101   -27110   -27120   -27128 
  -27133   -27133   -27140   -27151   -27156   -27166   -27179   -27186 
  -27194   -27201   -27194   -27182   -27167   -27144   -27114   -27082 
  -27049   -27017   -26991   -26971   -26948   -26931   -26919   -26910 
  -26908   -26909   -26910   -26916   -26925   -26935   -26939   -26937 
  -26937   -26933   -26925   -26916   -26906   -26898   -26893   -26889 
  -26885   -26881   -26882   -26890   -26897   -26905   -26916   -26921 
