Origin Time       2025/03/29 04:45:00
Lat.              31.090
Long.             131.512
Depth. (km)       33
Mag.              4.6
Station Code      KGSH09
Station Lat.      31.3741
Station Long.     130.4333
Station Height(m) 119.391
Record Time       2025/03/29 04:45:34
Sampling Freq(Hz) 100Hz
Duration Time(s)  120
Dir.              5
Scale Factor      7845(gal)/8223790
Max. Acc. (gal)   3.223
Last Correction   2025/03/29 04:45:34
Memo.             
[...]
   -9769    -9771    -9774    -9776    -9775    -9771    -9772    -9778 
   -9779    -9778    -9776    -9772    -9767    -9767    -9768    -9771 
   -9771    -9771    -9771    -9769    -9767    -9765    -9768    -9769 
   -9767    -9769    -9771    -9769    -9774    -9782    -9790    -9796 
   -9796    -9792    -9780    -9765    -9756    -9759    -9769    -9783 
   -9796    -9813    -9823    -9837    -9856    -9863    -9848    -9813 
   -9763    -9713    -9680    -9671    -9683    -9702    -9720    -9740 
   -9767    -9795    -9809    -9795    -9757    -9711    -9686    -9691 
   -9717    -9741    -9763    -9778    -9786    -9798    -9813    -9826 
   -9838    -9860    -9894    -9923    -9929    -9902    -9841    -9756 
   -9680    -9636    -9617    -9613    -9610    -9625    -9683    -9784 
   -9909   -10022   -10069   -10008    -9867    -9714    -9593    -9501 
   -9441    -9432    -9505    -9675    -9906   -10106   -10195   -10158 
  -10042    -9907    -9788    -9676    -9575    -9516    -9522    -9591 
   -9690    -9792    -9895    -9984   -10033   -10008    -9892    -9686 
   -9450    -9305    -9348    -9567    -9863   -10134   -10300   -10273 
  -10033    -9679    -9382    -9261    -9346    -9590    -9899   -10174 
  -10326   -10268    -9994    -9587    -9204    -9012    -9059    -9269 
   -9585   -10002   -10428   -10716   -10787   -10643   -10293    -9799 
   -9308    -8981    -8892    -9000    -9244    -9589    -9952   -10226 
  -10361   -10363   -10245   -10019    -9760    -9564    -9427    -9288 
   -9184    -9202    -9359    -9606    -9900   -10176   -10341   -10358 
  -10285   -10180   -10015    -9752    -9456    -9275    -9333    -9625 
  -10011   -10307   -10369   -10139    -9682    -9201    -8927    -8966 
   -9286    -9772   -10277   -10635   -10701   -10399    -9774    -9026 
   -8465    -8390    -8866    -9674   -10496   -11110   -11406   -11345 
  -10895   -10092    -9147    -8359    -7962    -8082    -8699    -9618 
  -10535   -11190   -11460   -11315   -10754    -9872    -8919    -8221 
   -8017    -8341    -9020    -9749   -10260   -10477   -10478   -10372 
  -10253   -10154   -10060    -9967    -9904    -9913    -9979    -9977 
   -9782    -9425    -9101    -9004    -9147    -9381    -9597    -9784 
   -9961   -10129   -10266   -10336   -10324   -10233   -10057    -9775 
   -9414    -9077    -8905    -9030    -9455   -10008   -10446   -10624 
  -10527   -10214    -9819    -9481    -9251    -9173    -9327    -9707 
  -10139   -10422   -10484   -10307    -9872    -9267    -8704    -8428 
   -8592    -9155    -9915   -10612   -10976   -10891   -10469    -9925 
   -9410    -9039    -8946    -9221    -9784   -10403   -10821   -10848 
  -10430    -9674    -8845    -8275    -8224    -8750    -9680   -10677 
  -11391   -11601   -11284   -10554    -9599    -8676    -8070    -7967 
   -8355    -9082    -9940   -10670   -11064   -11034   -10648   -10091 
   -9578    -9262    -9211    -9406    -9771   -10170   -10423   -10386 
  -10054    -9529    -8964    -8544    -8413    -8631    -9209   -10042 
  -10886   -11433   -11453   -10945   -10133    -9310    -8702    -8428 
   -8536    -8982    -9637   -10295   -10721   -10748   -10405    -9917 
   -9505    -9262    -9221    -9433    -9848   -10280   -10523   -10469 
  -10138    -9674    -9267    -9047    -9043    -9239    -9579    -9942 
  -10200   -10291   -10211   -10018    -9802    -9645    -9568    -9555 
   -9614    -9753    -9911   -10014   -10019    -9922    -9753    -9566 
   -9428    -9385    -9437    -9563    -9714    -9837    -9884    -9859 
   -9809    -9784    -9765    -9729    -9730    -9829    -9985   -10087 
  -10046    -9860    -9612    -9437    -9428    -9555    -9744    -9964 
  -10200   -10388   -10415   -10226    -9861    -9412    -9027    -8891 
   -9089    -9520    -9984   -10354   -10581   -10628   -10454   -10053 
   -9520    -9034    -8768    -8804    -9092    -9502    -9936   -10336 
  -10642   -10741   -10544   -10073    -9495    -9019    -8787    -8839 
   -9132    -9562   -10003   -10331   -10447   -10312    -9977    -9601 
   -9351    -9306    -9462    -9747   -10045   -10289   -10435   -10407 
  -10181    -9856    -9564    -9397    -9358    -9410    -9552    -9787 
  -10076   -10327   -10428   -10307    -9991    -9606    -9289    -9130 
   -9148    -9300    -9526    -9749    -9867    -9838    -9714    -9583 
   -9513    -9547    -9668    -9841   -10037   -10212   -10322   -10330 
  -10193    -9909    -9570    -9320    -9243    -9316    -9463    -9634 
   -9796    -9938   -10083   -10212   -10258   -10192   -10041    -9879 
   -9784    -9769    -9795    -9806    -9749    -9614    -9450    -9328 
   -9288    -9329    -9452    -9640    -9842   -10011   -10123   -10153 
  -10096    -9957    -9748    -9545    -9447    -9475    -9586    -9684 
   -9699    -9644    -9589    -9598    -9714    -9933   -10207   -10457 
  -10579   -10517   -10265    -9880    -9493    -9236    -9185    -9306 
   -9505    -9720    -9895    -9981    -9977    -9896    -9757    -9634 
   -9601    -9690    -9884   -10103   -10234   -10204    -9995    -9645 
   -9250    -8931    -8787    -8866    -9159    -9597   -10057   -10392 
  -10488   -10326    -9975    -9576    -9288    -9217    -9405    -9790 
  -10233   -10579   -10704   -10542   -10129    -9587    -9093    -8810 
   -8830    -9146    -9661   -10212   -10619   -10775   -10678   -10370 
   -9938    -9499    -9158    -8981    -9005    -9219    -9545    -9886 
  -10150   -10295   -10316   -10224   -10030    -9787    -9578    -9475 
   -9499    -9589    -9668    -9713    -9718    -9702    -9690    -9684 
   -9660    -9612    -9572    -9571    -9603    -9667    -9775    -9937 
  -10115   -10260   -10332   -10308   -10168    -9925    -9636    -9387 
   -9248    -9236    -9362    -9621    -9913   -10120   -10192   -10107 
   -9913    -9729    -9649    -9703    -9830    -9940    -9994    -9980 
   -9880    -9693    -9448    -9217    -9080    -9103    -9301    -9630 
  -10003   -10328   -10535   -10558   -10374   -10034    -9649    -9358 
   -9248    -9324    -9520    -9755    -9981   -10164   -10255   -10239 
  -10115    -9886    -9602    -9342    -9177    -9161    -9301    -9552 
   -9849   -10093   -10196   -10147   -10015    -9842    -9668    -9545 
   -9512    -9578    -9726    -9930   -10146   -10309   -10358   -10282 
  -10135    -9980    -9841    -9711    -9570    -9401    -9204    -9019 
   -8889    -8820    -8833    -8970    -9246    -9632   -10085   -10525 
  -10831   -10913   -10762   -10395    -9918    -9508    -9290    -9301 
   -9491    -9752    -9967   -10060   -10031    -9944    -9856    -9818 
   -9856    -9946   -10045   -10115   -10134   -10106   -10026    -9873 
   -9653    -9425    -9263    -9211    -9269    -9387    -9485    -9504 
   -9451    -9391    -9381    -9424    -9498    -9586    -9652    -9694 
   -9752    -9857   -10012   -10180   -10318   -10403   -10417   -10362 
  -10268   -10158   -10027    -9865    -9702    -9589    -9551    -9585 
   -9667    -9761    -9834    -9868    -9857    -9788    -9684    -9605 
   -9595    -9666    -9776    -9861    -9884    -9842    -9742    -9609 
   -9489    -9416    -9404    -9459    -9567    -9675    -9714    -9663 
   -9562    -9470    -9424    -9427    -9441    -9470    -9586    -9853 
  -10243   -10619   -10828   -10804   -10573   -10211    -9822    -9518 
   -9378    -9410    -9579    -9815   -10026   -10122   -10084    -9967 
   -9859    -9814    -9814    -9809    -9756    -9664    -9589    -9567 
   -9586    -9601    -9585    -9545    -9510    -9499    -9514    -9564 
   -9640    -9713    -9759    -9782    -9780    -9748    -9695    -9661 
   -9687    -9771    -9864    -9929    -9927    -9853    -9744    -9639 
   -9555    -9502    -9501    -9578    -9756   -10034   -10361   -10625 
  -10719   -10602   -10336   -10004    -9660    -9355    -9166    -9155 
   -9342    -9670   -10019   -10246   -10251   -10045    -9736    -9439 
   -9236    -9157    -9190    -9331    -9548    -9772    -9909    -9929 
   -9868    -9753    -9644    -9626    -9728    -9915   -10133   -10314 
  -10397   -10326   -10099    -9792    -9499    -9313    -9315    -9517 
   -9849   -10207   -10458   -10511   -10365   -10053    -9628    -9175 
   -8791    -8568    -8586    -8865    -9327    -9817   -10210   -10434 
  -10465   -10335   -10103    -9838    -9626    -9529    -9567    -9705 
   -9880   -10025   -10083   -10038    -9906    -9721    -9549    -9452 
   -9447    -9509    -9620    -9764    -9891    -9960    -9950    -9838 
   -9653    -9472    -9363    -9374    -9516    -9757   -10021   -10237 
  -10385   -10443   -10397   -10268   -10079    -9864    -9678    -9545 
   -9483    -9493    -9543    -9589    -9606    -9585    -9544    -9512 
   -9520    -9590    -9718    -9873   -10010   -10081   -10062    -9964 
   -9836    -9736    -9682    -9663    -9682    -9753    -9880   -10045 
  -10195   -10264   -10203   -10000    -9710    -9397    -9111    -8914 
   -8866    -9004    -9313    -9709   -10054   -10241   -10258   -10168 
  -10050    -9979    -9981   -10033   -10107   -10181   -10234   -10238 
  -10172   -10026    -9826    -9630    -9483    -9394    -9363    -9381 
   -9420    -9459    -9482    -9483    -9459    -9443    -9471    -9556 
   -9705    -9900   -10095   -10233   -10265   -10179    -9992    -9744 
   -9497    -9316    -9250    -9333    -9559    -9852   -10135   -10354 
  -10459   -10430   -10284   -10062    -9826    -9621    -9470    -9396 
   -9416    -9521    -9661    -9775    -9840    -9857    -9819    -9759 
   -9720    -9717    -9737    -9753    -9738    -9697    -9645    -9599 
   -9572    -9572    -9605    -9676    -9801    -9957   -10099   -10179 
  -10162   -10053    -9903    -9772    -9688    -9656    -9668    -9710 
   -9759    -9799    -9825    -9825    -9806    -9787    -9771    -9752 
   -9752    -9779    -9810    -9807    -9757    -9688    -9633    -9594 
   -9571    -9579    -9626    -9705    -9787    -9845    -9869    -9864 
   -9840    -9815    -9810    -9826    -9859    -9904    -9963   -10010 
  -10027   -10012    -9963    -9898    -9857    -9838    -9826    -9815 
   -9801    -9764    -9687    -9570    -9437    -9336    -9315    -9381 
   -9509    -9668    -9819    -9907    -9906    -9837    -9728    -9624 
   -9553    -9524    -9547    -9624    -9742    -9879   -10011   -10115 
  -10147   -10080    -9925    -9718    -9518    -9409    -9452    -9639 
   -9918   -10231   -10498   -10643   -10620   -10419   -10079    -9686 
   -9340    -9135    -9123    -9263    -9464    -9647    -9778    -9829 
   -9778    -9644    -9485    -9382    -9396    -9528    -9713    -9867 
   -9946    -9942    -9876    -9790    -9710    -9656    -9659    -9734 
   -9875   -10037   -10147   -10150   -10044    -9865    -9656    -9460 
   -9321    -9275    -9327    -9456    -9641    -9848   -10037   -10207 
  -10342   -10395   -10365   -10282   -10165   -10031    -9890    -9722 
   -9522    -9315    -9148    -9082    -9153    -9342    -9609    -9902 
  -10162   -10336   -10380   -10284   -10100    -9890    -9703    -9589 
   -9559    -9598    -9670    -9724    -9720    -9648    -9521    -9379 
   -9274    -9240    -9277    -9374    -9531    -9720    -9890   -10018 
  -10092   -10107   -10106   -10123   -10153   -10195   -10231   -10238 
  -10223   -10188   -10116   -10010    -9884    -9768    -9678    -9609 
   -9564    -9556    -9586    -9607    -9575    -9494    -9401    -9327 
   -9302    -9348    -9447    -9555    -9664    -9774    -9844    -9869 
   -9861    -9834    -9829    -9865    -9913    -9941    -9927    -9863 
   -9752    -9629    -9559    -9590    -9717    -9895   -10075   -10192 
  -10215   -10162   -10076    -9998    -9942    -9888    -9828    -9752 
   -9641    -9506    -9402    -9385    -9474    -9645    -9848   -10030 
  -10142   -10162   -10096    -9948    -9737    -9506    -9305    -9192 
   -9175    -9239    -9370    -9555    -9736    -9864    -9946    -9980 
   -9946    -9863    -9760    -9666    -9605    -9595    -9652    -9787 
   -9973   -10165   -10312   -10377   -10359   -10285   -10166   -10031 
   -9906    -9802    -9717    -9656    -9612    -9566    -9512    -9470 
   -9447    -9451    -9495    -9579    -9682    -9788    -9877    -9923 
   -9918    -9877    -9817    -9752    -9687    -9612    -9536    -9504 
   -9539    -9621    -9703    -9740    -9721    -9664    -9595    -9533 
   -9506    -9533    -9606    -9710    -9829    -9942   -10035   -10103 
  -10152   -10184   -10210   -10224   -10222   -10195   -10142   -10058 
   -9945    -9810    -9668    -9541    -9455    -9432    -9472    -9567 
   -9701    -9844    -9961   -10041   -10085   -10103   -10093   -10044 
   -9961    -9861    -9759    -9687    -9670    -9693    -9734    -9784 
   -9829    -9850    -9850    -9846    -9844    -9845    -9855    -9877 
   -9907    -9923    -9898    -9806    -9651    -9462    -9277    -9138 
   -9074    -9096    -9194    -9355    -9552    -9734    -9834    -9836 
   -9788    -9742    -9722    -9744    -9790    -9834    -9860    -9840 
   -9753    -9606    -9427    -9285    -9265    -9421    -9742   -10185 
  -10687   -11148   -11468   -11584   -11462   -11114   -10609   -10031 
   -9454    -8934    -8509    -8175    -7923    -7755    -7676    -7700 
   -7854    -8159    -8635    -9262    -9967   -10662   -11267   -11707 
  -11943   -11966   -11800   -11489   -11080   -10601   -10085    -9579 
   -9113    -8694    -8352    -8124    -8044    -8186    -8608    -9294 
  -10181   -11140   -11996   -12602   -12849   -12665   -12070   -11151 
  -10029    -8864    -7820    -7015    -6528    -6396    -6606    -7071 
   -7666    -8283    -8843    -9337    -9807   -10309   -10864   -11402 
  -11808   -12012   -11969   -11665   -11121   -10388    -9574    -8833 
   -8299    -8066    -8156    -8536    -9104    -9742   -10350   -10827 
  -11113   -11218   -11195   -11118   -11047   -11022   -11060   -11144 
  -11226   -11242   -11121   -10798   -10251    -9548    -8806    -8116 
   -7542    -7136    -6902    -6825    -6885    -7067    -7376    -7832 
   -8422    -9090    -9774   -10420   -10972   -11389   -11662   -11749 
  -11580   -11184   -10693   -10242    -9930    -9819    -9922   -10180 
  -10507   -10829   -11078   -11190   -11146   -10947   -10601   -10164 
   -9715    -9297    -8934    -8658    -8480    -8398    -8392    -8417 
   -8457    -8530    -8627    -8734    -8835    -8931    -9069    -9300 
   -9643   -10118   -10731   -11415   -12040   -12472   -12603   -12386 
  -11853   -11084   -10187    -9306    -8583    -8104    -7911    -7982 
   -8251    -8625    -9034    -9436    -9803   -10107   -10326   -10446 
  -10474   -10423   -10281   -10045    -9717    -9285    -8772    -8290 
   -7970    -7904    -8144    -8672    -9381   -10129   -10783   -11252 
  -11477   -11442   -11221   -10906   -10552   -10176    -9772    -9359 
   -8993    -8712    -8559    -8577    -8787    -9162    -9644   -10162 
  -10665   -11074   -11327   -11421   -11353   -11142   -10867   -10592 
  -10338   -10104    -9856    -9544    -9151    -8725    -8355    -8108 
   -8025    -8164    -8529    -9035    -9580   -10076   -10458   -10687 
  -10725   -10565   -10241    -9830    -9452    -9202    -9113    -9196 
   -9410    -9703   -10038   -10358   -10570   -10605   -10466   -10203 
   -9864    -9504    -9184    -8958    -8847    -8845    -8935    -9100 
   -9313    -9555    -9805   -10060   -10315   -10524   -10654   -10698 
  -10642   -10486   -10266   -10015    -9738    -9440    -9147    -8905 
   -8772    -8776    -8911    -9150    -9445    -9765   -10068   -10309 
  -10488   -10616   -10712   -10818   -10956   -11103   -11187   -11137 
  -10913   -10509    -9977    -9425    -8965    -8679    -8594    -8681 
   -8864    -9063    -9205    -9211    -9045    -8734    -8363    -8039 
   -7867    -7893    -8120    -8517    -9018    -9541   -10017   -10409 
  -10732   -11010   -11261   -11481   -11651   -11759   -11790   -11705 
  -11468   -11082   -10605   -10125    -9711    -9406    -9223    -9136 
   -9120    -9167    -9236    -9234    -9121    -8934    -8714    -8536 
   -8486    -8595    -8843    -9189    -9562    -9892   -10149   -10299 
  -10334   -10305   -10261   -10215   -10184   -10165   -10137   -10096 
  -10058   -10031    -9999    -9944    -9857    -9748    -9653    -9607 
   -9609    -9636    -9686    -9765    -9865    -9964   -10025   -10006 
   -9887    -9684    -9454    -9261    -9158    -9188    -9379    -9694 
  -10027   -10295   -10447   -10461   -10363   -10238   -10156   -10187 
  -10342   -10558   -10737   -10779   -10604   -10191    -9598    -8935 
   -8343    -7963    -7881    -8116    -8625    -9286    -9937   -10440 
  -10709   -10729   -10562   -10307   -10058    -9915    -9937   -10103 
  -10323   -10494   -10538   -10386   -10018    -9468    -8819    -8201 
   -7755    -7573    -7676    -8025    -8552    -9167    -9786   -10324 
  -10725   -10957   -11029   -10987   -10898   -10802   -10712   -10625 
  -10531   -10403   -10222    -9992    -9724    -9433    -9159    -8946 
   -8808    -8757    -8819    -9005    -9294    -9644    -9998   -10314 
  -10559   -10683   -10647   -10458   -10169    -9849    -9552    -9317 
   -9166    -9097    -9093    -9144    -9259    -9427    -9639    -9910 
  -10228   -10563   -10889   -11138   -11233   -11141   -10867   -10465 
   -9995    -9504    -9065    -8746    -8571    -8540    -8631    -8819 
   -9061    -9313    -9556    -9763    -9929   -10081   -10216   -10328 
  -10434   -10508   -10516   -10466   -10372   -10238   -10072    -9882 
   -9680    -9481    -9296    -9143    -9040    -8984    -8958    -8965 
   -9026    -9143    -9300    -9463    -9602    -9705    -9764    -9783 
   -9784    -9788    -9795    -9802    -9833    -9891    -9972   -10080 
  -10199   -10292   -10331   -10316   -10255   -10154   -10026    -9892 
   -9753    -9612    -9482    -9382    -9317    -9298    -9346    -9479 
   -9706   -10000   -10312   -10616   -10893   -11099   -11211   -11215 
  -11079   -10810   -10439    -9988    -9495    -9007    -8567    -8217 
   -8019    -8002    -8129    -8341    -8602    -8880    -9157    -9432 
   -9693    -9910   -10080   -10210   -10285   -10292   -10227   -10104 
   -9960    -9832    -9761    -9783    -9904   -10111   -10373   -10639 
  -10843   -10935   -10890   -10710   -10442   -10135    -9823    -9524 
   -9255    -9022    -8835    -8688    -8564    -8478    -8473    -8567 
   -8760    -9066    -9462    -9891   -10303   -10635   -10840   -10897 
  -10820   -10663   -10485   -10342   -10268   -10254   -10272   -10284 
  -10242   -10116    -9902    -9614    -9315    -9069    -8915    -8864 
   -8915    -9049    -9224    -9396    -9537    -9648    -9734    -9798 
   -9856    -9937   -10035   -10123   -10193   -10237   -10235   -10192 
  -10104    -9972    -9813    -9649    -9509    -9425    -9405    -9431 
   -9491    -9583    -9683    -9772    -9842    -9896    -9945    -9976 
   -9967    -9919    -9841    -9748    -9655    -9582    -9536    -9520 
   -9539    -9591    -9666    -9753    -9841    -9894    -9894    -9860 
   -9822    -9805    -9819    -9877    -9972   -10075   -10153   -10183 
  -10154   -10076    -9965    -9837    -9711    -9624    -9578    -9547 
   -9520    -9487    -9429    -9333    -9211    -9096    -9024    -9020 
   -9100    -9265    -9482    -9728    -9980   -10197   -10351   -10436 
  -10454   -10404   -10303   -10188   -10072    -9972    -9902    -9846 
