Origin Time       2025/03/29 04:45:00
Lat.              31.090
Long.             131.512
Depth. (km)       33
Mag.              4.6
Station Code      KGSH06
Station Lat.      31.6988
Station Long.     130.4594
Station Height(m) -71.93
Record Time       2025/03/29 04:45:49
Sampling Freq(Hz) 100Hz
Duration Time(s)  120
Dir.              1
Scale Factor      2940(gal)/6170270
Max. Acc. (gal)   0.292
Last Correction   2025/03/29 04:45:34
Memo.             
[...]
   47863    47852    47833    47810    47791    47788    47804    47821 
   47829    47831    47823    47804    47782    47763    47751    47747 
   47744    47742    47749    47761    47770    47776    47783    47790 
   47798    47805    47805    47804    47808    47816    47820    47815 
   47806    47800    47796    47796    47798    47799    47797    47794 
   47793    47794    47792    47784    47766    47746    47727    47713 
   47706    47711    47726    47748    47769    47789    47815    47841 
   47863    47881    47888    47882    47865    47844    47825    47812 
   47803    47796    47787    47771    47749    47734    47735    47744 
   47759    47777    47790    47795    47794    47791    47789    47792 
   47796    47800    47802    47803    47807    47809    47805    47794 
   47779    47764    47758    47759    47765    47778    47791    47799 
   47800    47795    47786    47773    47755    47740    47734    47740 
   47753    47768    47780    47793    47804    47813    47820    47828 
   47834    47837    47840    47839    47829    47816    47808    47801 
   47789    47777    47766    47760    47757    47757    47759    47762 
   47767    47775    47785    47793    47796    47796    47789    47777 
   47769    47777    47800    47830    47856    47866    47860    47846 
   47828    47808    47793    47781    47764    47751    47745    47744 
   47746    47746    47738    47724    47712    47713    47731    47764 
   47807    47846    47871    47881    47873    47853    47826    47796 
   47769    47753    47750    47754    47760    47770    47786    47807 
   47831    47848    47851    47842    47829    47816    47809    47808 
   47812    47821    47826    47830    47832    47824    47804    47777 
   47745    47720    47710    47713    47731    47761    47790    47813 
   47828    47832    47827    47816    47799    47782    47773    47773 
   47778    47784    47785    47781    47774    47771    47780    47795 
   47811    47833    47853    47861    47855    47837    47816    47794 
   47775    47765    47764    47771    47782    47791    47797    47798 
   47792    47782    47769    47757    47750    47751    47757    47765 
   47772    47779    47786    47791    47797    47808    47816    47817 
   47817    47816    47821    47827    47827    47824    47816    47803 
   47793    47782    47768    47755    47741    47734    47738    47744 
   47752    47766    47783    47795    47801    47803    47801    47797 
   47790    47785    47781    47775    47769    47769    47775    47788 
   47805    47821    47831    47834    47832    47828    47818    47812 
   47815    47816    47809    47798    47782    47762    47748    47739 
   47733    47727    47724    47728    47744    47766    47789    47810 
   47822    47819    47807    47798    47791    47788    47789    47792 
   47797    47804    47808    47809    47808    47807    47804    47803 
   47805    47804    47807    47811    47809    47803    47790    47771 
   47757    47748    47745    47751    47762    47778    47797    47809 
   47812    47812    47812    47807    47803    47802    47799    47794 
   47788    47784    47786    47795    47807    47819    47828    47831 
   47833    47835    47832    47825    47818    47816    47818    47819 
   47818    47813    47804    47787    47767    47746    47721    47696 
   47684    47684    47694    47713    47734    47758    47786    47815 
   47845    47869    47882    47884    47879    47864    47845    47824 
   47805    47790    47776    47766    47762    47760    47764    47779 
   47797    47813    47831    47845    47847    47837    47824    47809 
   47792    47774    47756    47746    47747    47756    47773    47796 
   47817    47829    47834    47838    47840    47837    47832    47827 
   47822    47821    47823    47822    47815    47806    47795    47777 
   47754    47729    47706    47694    47692    47698    47714    47731 
   47747    47760    47766    47765    47755    47740    47725    47713 
   47715    47731    47755    47784    47814    47842    47867    47886 
   47900    47909    47911    47905    47890    47875    47860    47843 
   47829    47821    47814    47807    47802    47798    47790    47780 
   47774    47770    47769    47774    47784    47796    47804    47800 
   47783    47760    47746    47740    47733    47732    47734    47738 
   47747    47760    47777    47795    47806    47810    47816    47822 
   47827    47829    47823    47811    47798    47781    47763    47749 
   47741    47738    47741    47749    47764    47779    47793    47809 
   47827    47841    47852    47862    47873    47882    47885    47884 
   47879    47864    47841    47818    47797    47776    47758    47751 
   47748    47742    47738    47737    47740    47750    47759    47762 
   47766    47774    47778    47781    47786    47785    47778    47774 
   47767    47758    47756    47757    47763    47774    47785    47797 
   47807    47815    47825    47836    47846    47848    47842    47831 
   47817    47805    47797    47789    47787    47791    47796    47793 
   47781    47765    47748    47736    47731    47732    47737    47739 
   47737    47734    47730    47721    47716    47718    47728    47743 
   47764    47786    47809    47829    47846    47856    47857    47850 
   47840    47832    47826    47823    47822    47819    47813    47808 
   47803    47795    47784    47774    47766    47757    47748    47740 
   47737    47733    47728    47725    47727    47737    47757    47781 
   47808    47839    47870    47897    47916    47924    47918    47901 
   47874    47841    47802    47762    47728    47704    47690    47685 
   47691    47702    47714    47730    47748    47766    47783    47798 
   47812    47826    47837    47845    47852    47852    47844    47838 
   47831    47821    47813    47810    47808    47806    47807    47811 
   47816    47820    47823    47821    47819    47816    47807    47799 
   47794    47790    47786    47780    47776    47774    47769    47759 
   47750    47743    47738    47742    47752    47762    47770    47773 
   47770    47766    47765    47769    47778    47790    47802    47815 
   47831    47845    47849    47850    47849    47842    47831    47820 
   47814    47812    47809    47806    47808    47809    47808    47809 
   47808    47808    47809    47809    47812    47815    47811    47800 
   47782    47757    47734    47720    47718    47734    47761    47791 
   47818    47839    47846    47840    47822    47793    47765    47746 
   47733    47725    47723    47728    47741    47754    47764    47771 
   47774    47771    47765    47760    47765    47776    47789    47807 
   47831    47853    47867    47875    47874    47863    47843    47822 
   47802    47786    47779    47783    47790    47793    47792    47789 
   47785    47782    47784    47789    47794    47799    47804    47808 
   47808    47807    47810    47811    47808    47800    47790    47784 
   47782    47784    47787    47790    47788    47781    47772    47765 
   47754    47745    47742    47741    47744    47751    47761    47772 
   47782    47789    47795    47799    47799    47796    47787    47781 
   47779    47775    47771    47774    47781    47790    47802    47818 
   47836    47849    47852    47848    47843    47838    47833    47829 
   47823    47817    47812    47805    47799    47799    47797    47787 
   47776    47764    47753    47747    47747    47750    47755    47759 
   47759    47757    47757    47763    47778    47798    47821    47843 
   47860    47872    47881    47886    47888    47886    47877    47864 
   47850    47832    47810    47791    47774    47758    47742    47731 
   47722    47716    47714    47708    47703    47701    47699    47702 
   47710    47718    47727    47737    47742    47745    47748    47755 
   47768    47779    47788    47800    47810    47817    47824    47831 
   47838    47843    47847    47845    47840    47835    47826    47811 
   47796    47785    47776    47774    47779    47786    47796    47812 
   47826    47836    47849    47853    47844    47834    47824    47818 
   47824    47837    47848    47858    47863    47858    47846    47832 
   47819    47807    47800    47794    47786    47775    47760    47745 
   47734    47720    47703    47688    47677    47673    47673    47678 
   47692    47710    47731    47754    47776    47800    47827    47849 
   47863    47870    47872    47871    47868    47867    47868    47866 
   47865    47866    47860    47848    47834    47816    47797    47783 
   47777    47782    47793    47805    47816    47824    47823    47815 
   47804    47788    47769    47750    47733    47721    47714    47712 
   47713    47715    47713    47708    47700    47691    47687    47686 
   47690    47697    47707    47720    47737    47759    47785    47811 
   47837    47860    47879    47895    47904    47908    47913    47914 
   47907    47894    47880    47867    47851    47835    47820    47805 
   47790    47779    47773    47769    47765    47760    47759    47765 
   47768    47765    47760    47757    47756    47758    47762    47767 
   47770    47773    47774    47771    47762    47747    47726    47707 
   47696    47696    47703    47717    47736    47759    47784    47809 
   47833    47854    47870    47879    47876    47866    47851    47831 
   47813    47803    47801    47805    47809    47810    47807    47798 
   47786    47769    47752    47742    47736    47737    47749    47765 
   47779    47794    47806    47812    47813    47812    47809    47802 
   47791    47782    47776    47777    47783    47791    47797    47803 
   47806    47801    47794    47785    47776    47771    47773    47781 
   47792    47801    47806    47808    47804    47798    47796    47797 
   47800    47807    47817    47826    47835    47840    47840    47832 
   47817    47799    47778    47753    47727    47703    47685    47677 
   47681    47697    47721    47748    47776    47803    47827    47847 
   47862    47875    47883    47884    47884    47884    47886    47889 
   47886    47877    47865    47847    47828    47814    47805    47802 
   47801    47800    47801    47797    47786    47772    47754    47732 
   47715    47704    47694    47689    47688    47692    47707    47724 
   47737    47751    47760    47762    47763    47766    47771    47781 
   47795    47809    47824    47838    47850    47856    47859    47860 
   47861    47864    47868    47871    47875    47878    47876    47869 
   47859    47846    47833    47820    47809    47803    47802    47807 
   47815    47824    47834    47842    47849    47856    47860    47857 
   47856    47859    47859    47859    47859    47856    47855    47855 
   47847    47834    47817    47793    47768    47747    47729    47715 
   47704    47695    47687    47678    47671    47669    47671    47668 
   47662    47655    47647    47640    47637    47637    47641    47653 
   47666    47680    47697    47714    47727    47741    47755    47770 
   47784    47795    47803    47813    47823    47831    47836    47841 
   47851    47865    47879    47895    47912    47929    47946    47952 
   47945    47932    47913    47887    47857    47825    47799    47780 
   47766    47760    47765    47770    47773    47779    47784    47786 
   47786    47781    47770    47756    47743    47737    47735    47735 
   47738    47743    47748    47754    47763    47776    47791    47807 
   47828    47853    47877    47899    47915    47921    47918    47904 
   47874    47828    47767    47696    47625    47560    47507    47471 
   47456    47464    47493    47543    47610    47682    47756    47831 
   47898    47957    48006    48044    48069    48082    48087    48088 
   48086    48081    48078    48081    48089    48104    48124    48142 
   48162    48180    48183    48167    48128    48065    47982    47880 
   47769    47658    47553    47467    47403    47359    47336    47330 
   47333    47335    47334    47328    47314    47293    47270    47251 
   47246    47261    47300    47365    47455    47567    47693    47827 
   47963    48090    48197    48279    48333    48354    48341    48296 
   48222    48129    48029    47931    47842    47768    47711    47671 
   47652    47660    47694    47754    47836    47925    48010    48078 
   48113    48104    48055    47975    47874    47761    47647    47543 
   47455    47384    47335    47310    47304    47314    47329    47342 
   47359    47381    47410    47450    47502    47565    47637    47717 
   47801    47885    47964    48035    48096    48145    48175    48181 
   48162    48114    48036    47939    47834    47730    47641    47581 
   47561    47584    47643    47722    47806    47883    47939    47963 
   47956    47920    47866    47815    47777    47759    47768    47803 
   47854    47912    47959    47988    48000    47994    47973    47939 
   47899    47864    47833    47803    47780    47760    47740    47724 
   47712    47701    47692    47684    47675    47666    47657    47647 
   47642    47642    47652    47681    47726    47788    47860    47934 
   47997    48038    48053    48038    47995    47932    47860    47787 
   47724    47681    47662    47671    47708    47772    47855    47944 
   48030    48102    48162    48208    48240    48256    48248    48213 
   48159    48091    48026    47974    47938    47918    47910    47905 
   47891    47859    47803    47718    47611    47493    47373    47268 
   47201    47178    47197    47258    47342    47433    47527    47614 
   47694    47770    47841    47909    47977    48040    48097    48143 
   48175    48194    48194    48173    48125    48053    47961    47854 
   47749    47655    47575    47514    47471    47445    47437    47446 
   47474    47519    47578    47649    47735    47828    47915    47992 
   48059    48106    48137    48153    48150    48129    48099    48057 
   48003    47943    47879    47814    47751    47693    47645    47614 
   47601    47606    47623    47641    47657    47666    47663    47652 
   47640    47629    47621    47617    47615    47611    47608    47602 
   47592    47578    47564    47550    47538    47529    47528    47543 
   47577    47629    47694    47765    47833    47894    47946    47986 
   48010    48017    48013    47996    47969    47935    47902    47875 
   47861    47865    47887    47923    47965    48010    48046    48066 
   48073    48062    48031    47987    47935    47874    47806    47738 
   47670    47607    47551    47502    47461    47430    47406    47393 
   47390    47396    47415    47446    47489    47545    47613    47687 
   47767    47853    47940    48026    48107    48175    48225    48255 
   48259    48234    48187    48118    48022    47907    47791    47680 
   47577    47496    47437    47396    47382    47394    47422    47468 
   47527    47589    47651    47710    47761    47803    47838    47864 
   47874    47875    47870    47853    47827    47799    47773    47750 
   47728    47710    47698    47691    47693    47707    47737    47781 
   47832    47893    47957    48011    48057    48096    48119    48128 
   48128    48116    48091    48056    48013    47958    47896    47830 
   47766    47709    47658    47620    47601    47595    47599    47612 
   47627    47642    47659    47675    47689    47704    47713    47715 
   47710    47702    47689    47675    47665    47667    47678    47695 
   47717    47747    47784    47819    47855    47887    47917    47950 
   47981    48012    48042    48069    48097    48119    48130    48134 
   48125    48100    48068    48029    47983    47936    47885    47827 
   47771    47720    47677    47643    47621    47613    47614    47625 
   47643    47664    47679    47692    47703    47715    47731    47754 
   47783    47816    47852    47886    47917    47941    47955    47962 
   47960    47947    47928    47903    47870    47832    47798    47767 
   47740    47721    47709    47700    47692    47685    47680    47678 
   47676    47673    47666    47656    47648    47643    47639    47642 
   47657    47677    47697    47718    47738    47753    47764    47771 
   47776    47781    47785    47793    47805    47819    47837    47857 
   47873    47886    47898    47902    47898    47889    47872    47849 
   47824    47796    47770    47753    47744    47737    47735    47738 
   47739    47740    47743    47741    47736    47734    47730    47725 
   47722    47715    47706    47697    47688    47678    47674    47676 
   47684    47699    47721    47751    47786    47829    47882    47936 
   47985    48028    48060    48076    48075    48059    48033    47995 
   47951    47907    47866    47827    47792    47762    47735    47710 
   47688    47672    47661    47660    47671    47687    47705    47724 
   47739    47752    47758    47757    47753    47741    47726    47711 
   47694    47679    47668    47657    47648    47646    47643    47643 
   47649    47661    47677    47701    47736    47776    47820    47867 
   47911    47950    47987    48017    48037    48051    48057    48055 
   48046    48032    48013    47984    47947    47911    47879    47850 
   47830    47821    47822    47829    47842    47852    47854    47852 
   47847    47834    47819    47803    47787    47773    47762    47746 
   47725    47697    47660    47616    47569    47521    47476    47440 
   47412    47393    47383    47385    47397    47417    47447    47488 
   47537    47593    47655    47724    47797    47870    47942    48010 
   48068    48114    48147    48164    48168    48163    48148    48127 
   48103    48071    48033    47993    47947    47898    47852    47809 
   47770    47738    47713    47691    47674    47663    47657    47654 
   47659    47674    47695    47721    47754    47792    47825    47851 
   47868    47876    47874    47865    47849    47826    47799    47771 
   47743    47720    47701    47687    47686    47693    47704    47725 
   47750    47774    47798    47821    47841    47862    47885    47910 
   47936    47963    47991    48018    48042    48058    48063    48058 
   48040    48007    47964    47914    47857    47794    47735    47680 
   47627    47586    47556    47533    47520    47516    47519    47527 
   47541    47558    47578    47598    47616    47636    47661    47692 
   47725    47762    47800    47833    47861    47888    47911    47933 
   47955    47975    47995    48013    48025    48031    48032    48027 
   48013    47994    47968    47936    47901    47860    47815    47774 
   47735    47699    47669    47646    47630    47622    47623    47633 
   47651    47675    47702    47727    47747    47758    47762    47757 
   47745    47731    47717    47701    47688    47675    47663    47653 
   47642    47633    47625    47617    47615    47620    47629    47640 
   47656    47669    47679    47691    47703    47713    47722    47731 
   47741    47755    47769    47784    47801    47817    47831    47844 
   47858    47870    47882    47898    47916    47936    47959    47980 
   47999    48015    48027    48036    48038    48033    48021    48002 
   47973    47937    47897    47851    47803    47758    47715    47675 
   47644    47620    47603    47596    47597    47610    47629    47649 
   47675    47701    47721    47737    47749    47754    47756    47757 
