Origin Time       2025/03/29 04:45:00
Lat.              31.090
Long.             131.512
Depth. (km)       33
Mag.              4.6
Station Code      KGSH06
Station Lat.      31.6988
Station Long.     130.4594
Station Height(m) 131.07
Record Time       2025/03/29 04:45:49
Sampling Freq(Hz) 100Hz
Duration Time(s)  120
Dir.              4
Scale Factor      3920(gal)/6170801
Max. Acc. (gal)   0.714
Last Correction   2025/03/29 04:45:34
Memo.             
[...]
   24649    24636    24669    24749    24871    24992    25047    25006 
   24888    24735    24598    24532    24578    24733    24955    25165 
   25276    25258    25141    24967    24797    24689    24655    24670 
   24716    24792    24895    25014    25129    25200    25173    25032 
   24806    24575    24435    24440    24577    24775    24939    24989 
   24911    24768    24658    24649    24749    24900    25016    25041 
   24985    24893    24809    24778    24812    24876    24913    24881 
   24785    24681    24632    24674    24798    24948    25058    25095 
   25071    25030    25015    25030    25056    25053    24986    24863 
   24725    24617    24579    24621    24711    24799    24858    24873 
   24855    24844    24860    24883    24890    24869    24829    24794 
   24790    24826    24891    24953    24976    24944    24862    24769 
   24724    24755    24853    24982    25086    25122    25090    25021 
   24938    24862    24812    24771    24712    24632    24546    24484 
   24490    24582    24736    24906    25038    25084    25032    24917 
   24795    24723    24737    24836    24982    25111    25173    25157 
   25082    24973    24858    24772    24732    24737    24775    24834 
   24888    24914    24900    24841    24737    24610    24492    24414 
   24403    24464    24574    24704    24834    24942    25027    25094 
   25122    25094    25008    24887    24771    24698    24707    24820 
   25006    25209    25362    25394    25274    25030    24740    24503 
   24399    24450    24623    24859    25071    25185    25179    25074 
   24913    24752    24633    24575    24577    24614    24662    24722 
   24798    24890    24990    25060    25061    24987    24856    24722 
   24647    24650    24712    24800    24875    24909    24901    24870 
   24858    24890    24961    25038    25073    25036    24938    24816 
   24728    24713    24779    24893    24991    25027    24995    24912 
   24808    24715    24658    24649    24673    24707    24739    24767 
   24789    24805    24823    24846    24865    24882    24898    24905 
   24903    24887    24851    24807    24779    24771    24792    24863 
   24971    25077    25144    25136    25044    24904    24764    24674 
   24674    24748    24850    24944    24995    24987    24937    24878 
   24836    24825    24841    24869    24882    24869    24855    24867 
   24906    24967    25025    25035    24959    24795    24587    24413 
   24340    24386    24535    24745    24933    25030    25041    25009 
   24976    24975    25018    25073    25082    25006    24850    24667 
   24543    24544    24670    24870    25073    25204    25220    25136 
   25010    24902    24838    24822    24824    24792    24708    24604 
   24531    24530    24619    24774    24935    25034    25029    24932 
   24802    24706    24685    24735    24822    24917    24997    25038 
   25045    25041    25021    24967    24878    24760    24629    24539 
   24533    24612    24755    24903    24995    25007    24952    24877 
   24837    24833    24832    24814    24765    24682    24612    24608 
   24694    24866    25077    25246    25310    25256    25116    24950 
   24823    24777    24808    24867    24901    24893    24858    24807 
   24768    24771    24813    24862    24873    24819    24716    24608 
   24547    24564    24657    24794    24921    24989    24980    24924 
   24854    24807    24817    24882    24971    25047    25078    25063 
   25036    25036    25075    25130    25173    25177    25121    25010 
   24868    24721    24602    24524    24488    24497    24530    24558 
   24584    24611    24638    24670    24715    24756    24783    24808 
   24840    24889    24957    25025    25075    25088    25057    24996 
   24936    24906    24917    24952    24978    24976    24932    24847 
   24763    24720    24727    24767    24810    24819    24793    24762 
   24758    24794    24863    24930    24957    24927    24845    24738 
   24651    24623    24658    24735    24816    24856    24849    24823 
   24807    24826    24892    24979    25050    25087    25086    25042 
   24973    24908    24857    24817    24794    24790    24798    24812 
   24835    24857    24866    24862    24845    24808    24761    24722 
   24694    24681    24690    24714    24741    24763    24775    24782 
   24802    24844    24907    24974    25022    25034    25005    24950 
   24904    24890    24906    24936    24967    24978    24948    24896 
   24846    24805    24781    24776    24771    24751    24718    24680 
   24647    24640    24669    24726    24795    24867    24926    24959 
   24976    24999    25042    25092    25125    25132    25117    25081 
   25033    24984    24936    24872    24777    24662    24569    24544 
   24599    24717    24875    25024    25098    25071    24959    24808 
   24673    24600    24607    24682    24789    24896    24977    25011 
   24994    24935    24845    24743    24652    24601    24618    24708 
   24848    24995    25096    25116    25052    24937    24825    24755 
   24745    24789    24858    24923    24966    24980    24978    24978 
   24971    24943    24891    24816    24729    24660    24628    24633 
   24668    24731    24807    24870    24902    24898    24868    24834 
   24811    24793    24773    24747    24725    24717    24731    24780 
   24865    24964    25046    25096    25105    25075    25033    25005 
   24997    25011    25035    25030    24972    24870    24744    24636 
   24590    24615    24688    24782    24860    24887    24859    24805 
   24756    24738    24767    24822    24869    24885    24863    24817 
   24778    24769    24789    24829    24879    24917    24924    24902 
   24860    24804    24759    24747    24771    24818    24869    24909 
   24933    24939    24934    24930    24926    24922    24921    24919 
   24906    24885    24853    24810    24764    24727    24713    24729 
   24772    24836    24902    24955    24990    25003    24994    24983 
   24979    24964    24921    24851    24760    24669    24596    24561 
   24592    24687    24816    24944    25031    25041    24969    24850 
   24724    24631    24604    24650    24749    24881    25023    25151 
   25237    25262    25223    25122    24971    24799    24648    24554 
   24537    24597    24703    24814    24909    24969    24982    24967 
   24946    24925    24899    24872    24845    24814    24781    24764 
   24773    24806    24856    24900    24912    24883    24828    24769 
   24730    24728    24767    24827    24886    24929    24946    24931 
   24894    24859    24847    24859    24888    24914    24909    24876 
   24836    24798    24777    24785    24819    24873    24936    24990 
   25020    25006    24943    24858    24772    24693    24640    24629 
   24653    24704    24773    24838    24870    24867    24836    24789 
   24736    24690    24662    24655    24667    24698    24751    24820 
   24897    24979    25054    25099    25102    25064    24998    24929 
   24879    24855    24846    24841    24827    24805    24785    24789 
   24829    24899    24987    25074    25127    25117    25041    24928 
   24821    24749    24720    24738    24793    24854    24902    24939 
   24964    24983    24999    25002    24983    24947    24909    24891 
   24906    24950    25018    25082    25093    25028    24911    24759 
   24600    24486    24440    24451    24497    24552    24600    24642 
   24673    24695    24721    24754    24789    24817    24826    24816 
   24804    24798    24801    24821    24853    24872    24888    24913 
   24939    24969    25006    25036    25038    25013    24975    24934 
   24900    24888    24897    24916    24936    24943    24931    24912 
   24883    24847    24813    24777    24732    24693    24678    24688 
   24719    24768    24821    24858    24867    24843    24785    24717 
   24669    24662    24699    24779    24890    25011    25124    25217 
   25274    25277    25227    25132    25006    24873    24758    24677 
   24642    24648    24679    24713    24736    24741    24733    24730 
   24749    24794    24862    24936    24990    25000    24955    24867 
   24772    24708    24702    24753    24841    24937    25013    25046 
   25029    24976    24905    24831    24763    24702    24642    24591 
   24562    24564    24608    24691    24799    24902    24972    25000 
   24990    24956    24928    24920    24926    24937    24942    24925 
   24883    24826    24767    24718    24693    24695    24711    24740 
   24786    24843    24913    24996    25066    25109    25122    25087 
   25003    24897    24802    24743    24735    24762    24807    24851 
   24874    24874    24862    24854    24858    24877    24904    24922 
   24922    24895    24844    24796    24765    24759    24775    24806 
   24855    24915    24967    24998    25000    24962    24893    24813 
   24739    24691    24684    24722    24797    24889    24962    24994 
   24979    24927    24857    24787    24725    24674    24638    24625 
   24634    24661    24711    24783    24862    24940    25009    25049 
   25060    25057    25053    25052    25053    25041    25010    24967 
   24914    24850    24799    24778    24779    24786    24798    24819 
   24839    24859    24887    24915    24918    24882    24817    24744 
   24691    24676    24710    24783    24864    24919    24932    24903 
   24846    24794    24768    24766    24782    24800    24792    24757 
   24713    24680    24679    24729    24823    24935    25029    25084 
   25097    25075    25036    24998    24964    24931    24906    24892 
   24886    24894    24908    24913    24911    24902    24891    24885 
   24888    24905    24947    25004    25046    25063    25063    25050 
   25030    25019    25021    25017    24989    24935    24856    24764 
   24689    24654    24658    24688    24735    24767    24757    24714 
   24660    24608    24574    24567    24578    24593    24606    24615 
   24616    24602    24588    24590    24588    24578    24578    24578 
   24574    24587    24609    24634    24666    24704    24738    24767 
   24797    24836    24875    24895    24888    24863    24828    24796 
   24779    24785    24817    24884    24977    25071    25154    25228 
   25282    25302    25292    25266    25233    25191    25147    25107 
   25068    25032    25005    24999    25017    25057    25102    25141 
   25163    25158    25123    25064    24995    24924    24866    24836 
   24843    24883    24940    25004    25065    25110    25127    25122 
   25102    25061    25007    24945    24863    24771    24684    24598 
   24511    24432    24358    24279    24196    24121    24065    24037 
   24056    24136    24265    24427    24607    24786    24946    25080 
   25180    25234    25238    25203    25141    25066    24998    24957 
   24954    25004    25111    25243    25369    25472    25535    25551 
   25533    25492    25425    25335    25222    25070    24889    24694 
   24496    24321    24193    24106    24060    24046    24046    24062 
   24108    24184    24282    24388    24478    24527    24528    24502 
   24479    24483    24541    24664    24850    25080    25319    25535 
   25702    25792    25785    25693    25531    25318    25092    24882 
   24699    24552    24447    24373    24313    24259    24204    24149 
   24121    24150    24248    24418    24653    24910    25131    25267 
   25283    25175    24968    24700    24428    24221    24126    24150 
   24284    24509    24789    25080    25341    25550    25697    25766 
   25752    25681    25579    25460    25343    25255    25208    25211 
   25268    25348    25412    25432    25384    25252    25042    24785 
   24522    24279    24075    23926    23825    23769    23765    23829 
   23972    24199    24501    24850    25198    25504    25726    25834 
   25824    25707    25505    25271    25063    24914    24842    24850 
   24911    24988    25055    25098    25101    25059    24987    24906 
   24819    24731    24653    24592    24566    24590    24659    24758 
   24857    24907    24884    24793    24655    24516    24434    24442 
   24548    24738    24977    25215    25406    25523    25552    25490 
   25350    25159    24950    24751    24588    24478    24423    24416 
   24435    24460    24489    24525    24573    24650    24761    24881 
   24983    25049    25068    25049    25014    24979    24947    24923 
   24907    24896    24890    24898    24940    25015    25107    25202 
   25269    25271    25193    25047    24861    24670    24524    24461 
   24483    24564    24678    24795    24884    24930    24945    24945 
   24940    24948    24978    25026    25076    25111    25111    25062 
   24967    24835    24681    24526    24390    24279    24201    24166 
   24168    24201    24266    24351    24442    24534    24622    24704 
   24773    24824    24856    24864    24841    24807    24782    24786 
   24843    24951    25096    25256    25389    25454    25439    25363 
   25252    25133    25026    24959    24938    24943    24964    24996 
   25023    25047    25076    25097    25089    25040    24934    24763 
   24555    24352    24192    24121    24161    24288    24463    24648 
   24805    24912    24973    25007    25027    25035    25031    25013 
   24977    24926    24881    24873    24908    24975    25045    25075 
   25026    24889    24672    24409    24163    23997    23939    24000 
   24174    24442    24774    25138    25487    25769    25937    25975 
   25896    25714    25468    25227    25043    24943    24936    24999 
   25085    25150    25160    25096    24973    24823    24680    24564 
   24479    24430    24417    24429    24462    24518    24593    24665 
   24715    24732    24712    24662    24605    24560    24536    24551 
   24603    24677    24751    24810    24837    24819    24758    24674 
   24592    24538    24536    24588    24673    24765    24852    24930 
   24997    25057    25111    25151    25165    25144    25073    24959 
   24828    24709    24620    24572    24566    24589    24624    24657 
   24688    24725    24769    24817    24872    24934    25007    25103 
   25225    25364    25505    25628    25712    25740    25692    25566 
   25384    25172    24947    24735    24564    24438    24355    24319 
   24312    24320    24343    24375    24417    24472    24536    24606 
   24681    24752    24813    24861    24899    24927    24936    24923 
   24897    24874    24863    24876    24929    25016    25120    25231 
   25335    25404    25423    25395    25326    25229    25133    25065 
   25032    25034    25060    25087    25094    25072    25017    24937 
   24856    24784    24725    24694    24688    24688    24694    24701 
   24699    24693    24682    24668    24664    24669    24678    24694 
   24707    24704    24689    24676    24669    24663    24664    24675 
   24687    24702    24722    24746    24783    24836    24888    24928 
   24945    24934    24907    24876    24840    24794    24744    24694 
   24642    24596    24572    24568    24578    24605    24644    24679 
   24711    24755    24805    24846    24882    24905    24899    24866 
   24817    24767    24724    24694    24682    24689    24712    24757 
   24820    24881    24933    24988    25040    25084    25134    25194 
   25255    25311    25351    25366    25353    25319    25276    25224 
   25173    25120    25056    24982    24901    24818    24745    24686 
   24625    24560    24501    24448    24408    24398    24419    24471 
   24540    24610    24671    24722    24761    24800    24842    24874 
   24897    24913    24921    24934    24972    25038    25119    25199 
   25256    25268    25233    25167    25092    25031    24994    24970 
   24944    24912    24874    24847    24845    24871    24911    24940 
   24927    24855    24727    24568    24421    24333    24329    24412 
   24553    24706    24839    24934    24971    24954    24900    24817 
   24723    24637    24569    24531    24533    24573    24635    24696 
   24735    24748    24738    24719    24712    24725    24769    24853 
   24961    25068    25164    25245    25295    25306    25288    25250 
   25191    25121    25053    24989    24932    24885    24852    24845 
   24872    24925    24994    25074    25145    25189    25208    25200 
   25157    25083    24996    24902    24809    24723    24648    24588 
   24543    24504    24462    24408    24334    24239    24137    24042 
   23972    23940    23951    24012    24123    24268    24431    24594 
   24752    24901    25032    25141    25234    25319    25407    25500 
   25594    25683    25756    25792    25772    25691    25554    25375 
   25178    24997    24858    24772    24740    24759    24808    24854 
   24879    24870    24825    24761    24694    24639    24617    24642 
   24707    24794    24886    24970    25026    25045    25038    25012 
   24975    24947    24930    24909    24881    24848    24804    24750 
   24703    24669    24652    24648    24652    24660    24660    24650 
   24637    24626    24617    24621    24644    24673    24699    24730 
   24769    24818    24877    24940    24997    25043    25069    25059 
   25023    24982    24950    24930    24929    24952    24990    25020 
   25025    25000    24946    24868    24781    24701    24637    24601 
   24590    24602    24633    24673    24704    24728    24744    24747 
   24737    24722    24711    24711    24721    24736    24756    24784 
   24825    24876    24937    25007    25082    25151    25202    25232 
   25236    25221    25199    25173    25140    25100    25051    24995 
   24936    24872    24803    24743    24707    24691    24694    24714 
   24738    24755    24768    24769    24756    24727    24680    24612 
   24532    24448    24368    24308    24282    24287    24320    24375 
   24437    24490    24531    24569    24612    24675    24755    24839 
   24921    24992    25044    25077    25093    25101    25109    25118 
   25130    25137    25132    25111    25081    25048    25027    25030 
   25055    25088    25120    25143    25148    25141    25129    25117 
   25118    25133    25149    25162    25157    25123    25077    25023 
   24957    24883    24804    24719    24636    24568    24516    24482 
   24463    24454    24454    24458    24464    24482    24521    24577 
   24655    24755    24857    24943    25013    25067    25095    25098 
   25090    25081    25072    25067    25076    25097    25122    25145 
   25154    25143    25116    25077    25033    24991    24954    24926 
   24909    24897    24886    24877    24870    24869    24877    24885 
   24888    24881    24855    24813    24758    24698    24647    24610 
   24588    24591    24618    24657    24700    24742    24785    24822 
   24850    24874    24889    24881    24857    24826    24787    24746 
   24715    24698    24699    24714    24738    24760    24772    24774 
   24770    24757    24738    24720    24705    24690    24679    24684 
   24705    24740    24788    24845    24902    24952    24990    25015 
   25028    25031    25028    25021    25009    24988    24954    24908 
   24855    24800    24745    24697    24672    24668    24676    24705 
   24741    24766    24790    24819    24843    24863    24886    24909 
