Origin Time       2025/03/29 04:45:00
Lat.              31.090
Long.             131.512
Depth. (km)       33
Mag.              4.6
Station Code      KGSH05
Station Lat.      31.8699
Station Long.     130.4958
Station Height(m) -33.658
Record Time       2025/03/29 04:45:54
Sampling Freq(Hz) 100Hz
Duration Time(s)  120
Dir.              1
Scale Factor      3923(gal)/8224838
Max. Acc. (gal)   0.222
Last Correction   2025/03/29 04:45:54
Memo.             
[...]
  -23334   -23307   -23288   -23275   -23269   -23272   -23282   -23299 
  -23319   -23346   -23373   -23396   -23417   -23429   -23436   -23441 
  -23449   -23460   -23469   -23469   -23458   -23444   -23419   -23392 
  -23371   -23353   -23340   -23334   -23337   -23345   -23359   -23372 
  -23382   -23394   -23409   -23413   -23410   -23409   -23410   -23410 
  -23407   -23399   -23388   -23377   -23373   -23376   -23384   -23396 
  -23406   -23410   -23410   -23404   -23399   -23403   -23409   -23411 
  -23413   -23411   -23403   -23386   -23363   -23348   -23338   -23336 
  -23344   -23359   -23373   -23391   -23406   -23418   -23423   -23421 
  -23407   -23384   -23361   -23345   -23330   -23317   -23309   -23309 
  -23315   -23328   -23349   -23377   -23403   -23425   -23433   -23431 
  -23433   -23426   -23409   -23392   -23372   -23346   -23326   -23313 
  -23310   -23310   -23310   -23317   -23325   -23329   -23337   -23344 
  -23350   -23361   -23372   -23382   -23391   -23402   -23406   -23403 
  -23404   -23407   -23403   -23399   -23395   -23387   -23383   -23388 
  -23391   -23392   -23400   -23403   -23399   -23395   -23391   -23383 
  -23376   -23369   -23359   -23350   -23346   -23340   -23333   -23333 
  -23333   -23334   -23340   -23345   -23352   -23360   -23365   -23377 
  -23395   -23414   -23429   -23441   -23453   -23461   -23464   -23458 
  -23438   -23413   -23390   -23364   -23338   -23318   -23299   -23283 
  -23275   -23278   -23287   -23302   -23322   -23341   -23355   -23359 
  -23359   -23361   -23364   -23365   -23373   -23387   -23400   -23417 
  -23438   -23452   -23457   -23457   -23453   -23441   -23421   -23399 
  -23382   -23365   -23349   -23342   -23348   -23350   -23356   -23368 
  -23383   -23392   -23399   -23400   -23400   -23396   -23392   -23395 
  -23398   -23402   -23409   -23418   -23423   -23423   -23422   -23419 
  -23414   -23398   -23375   -23352   -23332   -23314   -23306   -23310 
  -23323   -23341   -23364   -23382   -23387   -23394   -23390   -23373 
  -23355   -23338   -23319   -23307   -23307   -23313   -23319   -23330 
  -23344   -23357   -23369   -23375   -23368   -23360   -23352   -23344 
  -23341   -23346   -23357   -23371   -23390   -23409   -23418   -23427 
  -23442   -23448   -23449   -23449   -23441   -23429   -23415   -23396 
  -23376   -23359   -23341   -23326   -23319   -23317   -23318   -23325 
  -23334   -23345   -23353   -23359   -23367   -23371   -23375   -23382 
  -23384   -23383   -23382   -23375   -23372   -23375   -23368   -23368 
  -23382   -23383   -23376   -23371   -23356   -23338   -23323   -23309 
  -23301   -23302   -23305   -23311   -23332   -23360   -23386   -23413 
  -23437   -23450   -23457   -23460   -23453   -23444   -23436   -23421 
  -23407   -23398   -23394   -23394   -23395   -23402   -23410   -23407 
  -23398   -23392   -23384   -23375   -23367   -23363   -23355   -23342 
  -23337   -23338   -23337   -23344   -23357   -23367   -23376   -23392 
  -23404   -23410   -23414   -23414   -23406   -23394   -23375   -23359 
  -23350   -23346   -23346   -23353   -23357   -23356   -23355   -23360 
  -23365   -23376   -23396   -23421   -23441   -23464   -23484   -23488 
  -23487   -23484   -23468   -23444   -23421   -23396   -23369   -23344 
  -23326   -23311   -23298   -23288   -23290   -23292   -23296   -23311 
  -23329   -23340   -23357   -23382   -23402   -23414   -23423   -23430 
  -23431   -23430   -23430   -23423   -23414   -23406   -23390   -23368 
  -23350   -23332   -23309   -23292   -23287   -23290   -23299   -23314 
  -23334   -23357   -23380   -23400   -23418   -23430   -23437   -23445 
  -23440   -23426   -23411   -23390   -23367   -23352   -23338   -23334 
  -23340   -23340   -23344   -23357   -23369   -23382   -23395   -23404 
  -23409   -23409   -23406   -23400   -23391   -23379   -23368   -23357 
  -23346   -23334   -23325   -23322   -23321   -23315   -23318   -23323 
  -23328   -23333   -23340   -23350   -23364   -23373   -23380   -23388 
  -23390   -23390   -23392   -23390   -23383   -23382   -23382   -23377 
  -23376   -23375   -23376   -23383   -23383   -23380   -23376   -23371 
  -23369   -23372   -23380   -23386   -23390   -23402   -23418   -23429 
  -23440   -23450   -23453   -23446   -23434   -23417   -23398   -23376 
  -23353   -23337   -23329   -23330   -23340   -23344   -23346   -23359 
  -23365   -23371   -23382   -23390   -23388   -23382   -23367   -23348 
  -23329   -23309   -23299   -23298   -23299   -23313   -23332   -23345 
  -23367   -23387   -23399   -23418   -23437   -23449   -23461   -23473 
  -23480   -23480   -23471   -23453   -23436   -23418   -23403   -23392 
  -23387   -23382   -23376   -23371   -23365   -23356   -23346   -23341 
  -23342   -23346   -23355   -23367   -23380   -23391   -23396   -23395 
  -23391   -23386   -23376   -23361   -23345   -23333   -23321   -23313 
  -23314   -23328   -23345   -23364   -23388   -23411   -23427   -23445 
  -23463   -23464   -23456   -23445   -23427   -23406   -23386   -23365 
  -23348   -23340   -23340   -23346   -23355   -23363   -23372   -23388 
  -23399   -23407   -23415   -23417   -23411   -23410   -23409   -23404 
  -23402   -23398   -23392   -23383   -23365   -23348   -23326   -23303 
  -23280   -23261   -23248   -23238   -23238   -23249   -23265   -23284 
  -23306   -23336   -23367   -23394   -23413   -23427   -23434   -23436 
  -23438   -23440   -23440   -23442   -23444   -23446   -23449   -23446 
  -23441   -23431   -23418   -23399   -23376   -23356   -23341   -23333 
  -23328   -23319   -23318   -23328   -23336   -23341   -23353   -23364 
  -23373   -23384   -23394   -23400   -23404   -23407   -23413   -23418 
  -23417   -23414   -23411   -23400   -23386   -23375   -23360   -23345 
  -23336   -23328   -23318   -23317   -23323   -23337   -23357   -23382 
  -23399   -23410   -23421   -23426   -23421   -23413   -23400   -23388 
  -23377   -23371   -23368   -23373   -23376   -23380   -23388   -23396 
  -23406   -23410   -23411   -23415   -23411   -23404   -23402   -23396 
  -23387   -23376   -23368   -23363   -23360   -23360   -23367   -23377 
  -23384   -23388   -23395   -23394   -23387   -23382   -23373   -23363 
  -23356   -23353   -23349   -23342   -23333   -23326   -23325   -23325 
  -23322   -23318   -23318   -23323   -23332   -23341   -23352   -23359 
  -23364   -23371   -23373   -23372   -23375   -23377   -23377   -23372 
  -23365   -23360   -23361   -23365   -23368   -23373   -23382   -23384 
  -23383   -23375   -23364   -23352   -23337   -23329   -23323   -23318 
  -23321   -23326   -23332   -23344   -23357   -23369   -23376   -23377 
  -23379   -23380   -23379   -23373   -23365   -23355   -23341   -23329 
  -23325   -23322   -23321   -23323   -23325   -23325   -23325   -23323 
  -23325   -23328   -23325   -23321   -23317   -23314   -23317   -23325 
  -23337   -23357   -23380   -23402   -23418   -23423   -23427   -23433 
  -23426   -23417   -23413   -23407   -23404   -23407   -23410   -23415 
  -23417   -23414   -23415   -23419   -23418   -23419   -23431   -23441 
  -23450   -23472   -23494   -23508   -23526   -23538   -23544   -23548 
  -23546   -23537   -23527   -23515   -23499   -23477   -23453   -23425 
  -23396   -23371   -23348   -23337   -23333   -23332   -23338   -23350 
  -23361   -23371   -23380   -23384   -23382   -23376   -23369   -23360 
  -23355   -23348   -23337   -23333   -23336   -23333   -23330   -23333 
  -23334   -23342   -23355   -23363   -23373   -23383   -23388   -23402 
  -23417   -23425   -23433   -23438   -23442   -23444   -23436   -23423 
  -23418   -23415   -23410   -23400   -23391   -23379   -23364   -23349 
  -23334   -23311   -23290   -23275   -23263   -23257   -23251   -23245 
  -23249   -23257   -23264   -23278   -23294   -23311   -23332   -23355 
  -23384   -23417   -23452   -23484   -23511   -23527   -23526   -23517 
  -23498   -23461   -23414   -23367   -23318   -23268   -23230   -23205 
  -23186   -23178   -23184   -23199   -23226   -23264   -23303   -23344 
  -23380   -23413   -23445   -23465   -23469   -23472   -23471   -23452 
  -23429   -23415   -23395   -23373   -23360   -23352   -23349   -23355 
  -23361   -23373   -23391   -23406   -23421   -23434   -23440   -23437 
  -23430   -23415   -23395   -23376   -23361   -23349   -23338   -23334 
  -23344   -23360   -23382   -23415   -23450   -23479   -23503   -23523 
  -23530   -23522   -23511   -23495   -23472   -23450   -23430   -23406 
  -23386   -23363   -23342   -23332   -23326   -23321   -23322   -23328 
  -23334   -23338   -23336   -23332   -23322   -23309   -23296   -23290 
  -23284   -23282   -23282   -23282   -23290   -23301   -23311   -23328 
  -23346   -23363   -23373   -23377   -23373   -23368   -23364   -23356 
  -23353   -23356   -23360   -23365   -23375   -23383   -23391   -23402 
  -23414   -23426   -23444   -23461   -23476   -23491   -23496   -23494 
  -23487   -23475   -23460   -23449   -23434   -23411   -23391   -23372 
  -23353   -23338   -23328   -23319   -23318   -23319   -23326   -23341 
  -23359   -23375   -23394   -23411   -23418   -23413   -23409   -23399 
  -23376   -23344   -23310   -23274   -23234   -23201   -23176   -23168 
  -23174   -23195   -23228   -23264   -23303   -23340   -23379   -23422 
  -23457   -23495   -23537   -23568   -23591   -23610   -23622   -23626 
  -23622   -23608   -23585   -23553   -23519   -23477   -23427   -23379 
  -23323   -23265   -23220   -23184   -23153   -23148   -23161   -23184 
  -23213   -23245   -23282   -23313   -23333   -23352   -23367   -23369 
  -23368   -23356   -23333   -23315   -23290   -23257   -23238   -23226 
  -23209   -23199   -23201   -23199   -23195   -23205   -23221   -23236 
  -23257   -23288   -23321   -23361   -23402   -23437   -23472   -23499 
  -23518   -23529   -23531   -23530   -23527   -23526   -23526   -23522 
  -23515   -23504   -23483   -23453   -23425   -23402   -23380   -23365 
  -23364   -23372   -23380   -23392   -23409   -23427   -23452   -23473 
  -23490   -23499   -23498   -23491   -23479   -23461   -23441   -23417 
  -23392   -23369   -23340   -23310   -23280   -23244   -23210   -23180 
  -23153   -23137   -23133   -23145   -23166   -23197   -23242   -23294 
  -23342   -23390   -23429   -23464   -23495   -23529   -23564   -23602 
  -23641   -23676   -23699   -23712   -23711   -23691   -23653   -23595 
  -23526   -23452   -23376   -23305   -23249   -23211   -23193   -23191 
  -23201   -23220   -23241   -23267   -23292   -23314   -23334   -23357 
  -23377   -23399   -23417   -23423   -23426   -23423   -23410   -23388 
  -23361   -23330   -23305   -23279   -23255   -23244   -23242   -23241 
  -23253   -23279   -23310   -23348   -23386   -23417   -23441   -23463 
  -23479   -23483   -23475   -23457   -23426   -23391   -23357   -23323 
  -23299   -23290   -23298   -23318   -23345   -23382   -23413   -23433 
  -23446   -23449   -23440   -23425   -23402   -23376   -23353   -23338 
  -23332   -23332   -23336   -23346   -23365   -23391   -23419   -23449 
  -23476   -23494   -23502   -23502   -23488   -23472   -23453   -23429 
  -23409   -23392   -23368   -23342   -23319   -23299   -23286   -23279 
  -23279   -23286   -23296   -23303   -23303   -23303   -23301   -23287 
  -23268   -23248   -23226   -23206   -23193   -23195   -23209   -23226 
  -23253   -23291   -23328   -23364   -23400   -23433   -23461   -23480 
  -23484   -23484   -23483   -23464   -23442   -23422   -23396   -23363 
  -23330   -23294   -23255   -23225   -23209   -23201   -23202   -23218 
  -23247   -23282   -23317   -23350   -23377   -23399   -23409   -23402 
  -23386   -23371   -23355   -23344   -23349   -23361   -23386   -23429 
  -23480   -23535   -23595   -23646   -23689   -23720   -23738   -23741 
  -23726   -23701   -23673   -23638   -23600   -23568   -23538   -23508 
  -23481   -23456   -23427   -23396   -23359   -23317   -23282   -23255 
  -23232   -23215   -23209   -23213   -23226   -23242   -23264   -23288 
  -23313   -23334   -23346   -23350   -23355   -23357   -23355   -23348 
  -23344   -23338   -23326   -23314   -23301   -23283   -23268   -23260 
  -23256   -23255   -23267   -23291   -23319   -23353   -23386   -23411 
  -23437   -23465   -23488   -23500   -23504   -23511   -23521   -23527 
  -23534   -23546   -23558   -23565   -23561   -23552   -23533   -23499 
  -23454   -23400   -23337   -23269   -23201   -23139   -23087   -23052 
  -23035   -23037   -23059   -23094   -23145   -23206   -23267   -23326 
  -23383   -23426   -23460   -23480   -23488   -23487   -23479   -23465 
  -23453   -23431   -23402   -23375   -23346   -23313   -23290   -23271 
  -23247   -23234   -23233   -23233   -23242   -23263   -23288   -23313 
  -23342   -23377   -23411   -23442   -23473   -23496   -23515   -23533 
  -23541   -23534   -23529   -23522   -23507   -23495   -23483   -23460 
  -23438   -23414   -23377   -23341   -23311   -23286   -23268   -23264 
  -23272   -23287   -23310   -23342   -23375   -23403   -23429   -23450 
  -23469   -23490   -23506   -23512   -23514   -23507   -23494   -23475 
  -23452   -23423   -23388   -23356   -23323   -23291   -23268   -23253 
  -23238   -23228   -23221   -23220   -23226   -23234   -23240   -23249 
  -23265   -23284   -23306   -23333   -23371   -23410   -23450   -23492 
  -23531   -23558   -23575   -23585   -23584   -23569   -23550   -23534 
  -23518   -23506   -23494   -23490   -23494   -23498   -23507   -23518 
  -23529   -23538   -23546   -23545   -23539   -23527   -23506   -23476 
  -23441   -23400   -23352   -23299   -23245   -23186   -23128   -23076 
  -23032   -22991   -22959   -22932   -22914   -22910   -22920   -22940 
  -22967   -22999   -23041   -23087   -23136   -23187   -23237   -23286 
  -23328   -23367   -23402   -23430   -23456   -23477   -23491   -23499 
  -23503   -23503   -23499   -23492   -23483   -23467   -23445   -23422 
  -23394   -23361   -23334   -23311   -23294   -23283   -23282   -23282 
  -23287   -23306   -23333   -23361   -23394   -23427   -23461   -23494 
  -23525   -23549   -23566   -23585   -23603   -23623   -23641   -23650 
  -23660   -23672   -23672   -23661   -23650   -23630   -23600   -23569 
  -23541   -23508   -23480   -23457   -23431   -23409   -23391   -23369 
  -23345   -23325   -23305   -23288   -23283   -23279   -23278   -23282 
  -23282   -23284   -23294   -23295   -23294   -23295   -23291   -23290 
  -23299   -23310   -23323   -23341   -23353   -23367   -23383   -23398 
  -23413   -23426   -23434   -23437   -23437   -23436   -23426   -23414 
  -23402   -23383   -23368   -23352   -23337   -23334   -23338   -23345 
  -23364   -23380   -23394   -23413   -23429   -23444   -23453   -23449 
  -23437   -23419   -23390   -23353   -23321   -23290   -23259   -23236 
  -23220   -23209   -23213   -23228   -23245   -23274   -23309   -23344 
  -23383   -23423   -23465   -23504   -23530   -23548   -23560   -23562 
  -23556   -23542   -23523   -23503   -23479   -23448   -23421   -23398 
  -23380   -23364   -23345   -23328   -23315   -23301   -23286   -23284 
  -23284   -23279   -23278   -23280   -23283   -23292   -23303   -23309 
  -23314   -23325   -23329   -23328   -23329   -23333   -23333   -23332 
  -23330   -23332   -23330   -23326   -23325   -23328   -23333   -23342 
  -23348   -23355   -23364   -23369   -23372   -23377   -23379   -23377 
  -23372   -23364   -23355   -23341   -23328   -23322   -23314   -23296 
  -23286   -23291   -23292   -23292   -23302   -23319   -23334   -23348 
  -23371   -23394   -23414   -23438   -23461   -23477   -23491   -23500 
  -23503   -23500   -23499   -23490   -23473   -23456   -23436   -23410 
  -23386   -23361   -23336   -23314   -23301   -23295   -23294   -23295 
  -23303   -23313   -23321   -23328   -23336   -23345   -23356   -23361 
  -23363   -23363   -23364   -23364   -23365   -23364   -23364   -23369 
  -23376   -23386   -23400   -23414   -23422   -23436   -23452   -23458 
  -23464   -23465   -23456   -23445   -23434   -23414   -23392   -23379 
  -23369   -23364   -23364   -23371   -23386   -23407   -23437   -23475 
  -23508   -23533   -23557   -23583   -23592   -23589   -23585   -23569 
  -23542   -23514   -23485   -23457   -23431   -23406   -23379   -23357 
  -23337   -23317   -23302   -23288   -23275   -23269   -23267   -23268 
  -23275   -23284   -23296   -23315   -23337   -23364   -23391   -23414 
  -23436   -23460   -23481   -23494   -23498   -23502   -23500   -23490 
  -23473   -23454   -23436   -23419   -23400   -23382   -23369   -23364 
  -23360   -23360   -23359   -23360   -23368   -23377   -23380   -23382 
  -23383   -23384   -23384   -23382   -23377   -23372   -23372   -23368 
  -23361   -23363   -23361   -23355   -23348   -23341   -23329   -23314 
  -23296   -23275   -23249   -23224   -23198   -23175   -23157   -23143 
  -23133   -23134   -23149   -23170   -23186   -23199   -23214   -23226 
  -23236   -23236   -23233   -23232   -23229   -23226   -23230   -23236 
  -23234   -23233   -23233   -23233   -23229   -23221   -23217   -23217 
  -23209   -23203   -23209   -23218   -23230   -23245   -23264   -23295 
  -23328   -23356   -23384   -23417   -23445   -23465   -23490   -23511 
  -23526   -23539   -23552   -23558   -23562   -23566   -23571   -23572 
  -23565   -23552   -23531   -23507   -23480   -23452   -23423   -23394 
  -23361   -23337   -23319   -23303   -23298   -23295   -23296   -23310 
  -23321   -23329   -23342   -23357   -23367   -23377   -23390   -23399 
  -23411   -23425   -23433   -23448   -23469   -23490   -23507   -23526 
  -23546   -23572   -23598   -23615   -23635   -23653   -23662   -23673 
  -23680   -23680   -23681   -23680   -23673   -23664   -23649   -23635 
  -23619   -23595   -23568   -23544   -23515   -23481   -23449   -23421 
  -23394   -23372   -23355   -23340   -23332   -23329   -23326   -23328 
  -23330   -23332   -23333   -23336   -23340   -23341   -23336   -23325 
  -23317   -23305   -23291   -23280   -23272   -23263   -23255   -23252 
  -23249   -23247   -23247   -23244   -23237   -23233   -23230   -23221 
  -23211   -23205   -23199   -23190   -23180   -23175   -23172   -23167 
  -23161   -23157   -23156   -23157   -23159   -23160   -23166   -23172 
  -23182   -23202   -23225   -23248   -23274   -23305   -23338   -23365 
  -23387   -23413   -23442   -23468   -23490   -23508   -23529   -23542 
  -23549   -23552   -23556   -23556   -23548   -23535   -23526   -23511 
  -23492   -23477   -23460   -23438   -23418   -23396   -23373   -23353 
  -23338   -23330   -23325   -23322   -23333   -23348   -23361   -23382 
  -23404   -23426   -23448   -23469   -23487   -23495   -23499   -23496 
  -23487   -23480   -23469   -23449   -23433   -23419   -23402   -23375 
  -23349   -23333   -23321   -23307   -23292   -23280   -23276   -23279 
  -23284   -23290   -23303   -23317   -23326   -23340   -23357   -23369 
  -23382   -23392   -23399   -23406   -23417   -23426   -23429   -23425 
  -23425   -23430   -23427   -23419   -23418   -23417   -23413   -23411 
  -23406   -23396   -23387   -23377   -23368   -23357   -23350   -23345 
  -23336   -23332   -23334   -23340   -23345   -23355   -23365   -23376 
  -23387   -23390   -23390   -23392   -23394   -23387   -23373   -23359 
  -23349   -23337   -23325   -23318   -23313   -23307   -23303   -23302 
  -23305   -23311   -23318   -23325   -23333   -23340   -23345   -23352 
  -23360   -23369   -23377   -23382   -23388   -23399   -23406   -23410 
  -23413   -23417   -23421   -23423   -23427   -23425   -23423   -23426 
