Origin Time       2025/03/29 04:45:00
Lat.              31.090
Long.             131.512
Depth. (km)       33
Mag.              4.6
Station Code      KGSH09
Station Lat.      31.3741
Station Long.     130.4333
Station Height(m) 119.391
Record Time       2025/03/29 04:45:34
Sampling Freq(Hz) 100Hz
Duration Time(s)  120
Dir.              4
Scale Factor      7845(gal)/8223790
Max. Acc. (gal)   5.949
Last Correction   2025/03/29 04:45:34
Memo.             
[...]
   -7759    -7747    -7734    -7724    -7728    -7736    -7736    -7736 
   -7739    -7744    -7762    -7796    -7828    -7843    -7835    -7809 
   -7778    -7747    -7717    -7685    -7651    -7632    -7643    -7680 
   -7723    -7754    -7762    -7761    -7770    -7805    -7861    -7892 
   -7865    -7781    -7680    -7596    -7549    -7537    -7561    -7624 
   -7713    -7820    -7936    -8027    -8037    -7956    -7834    -7731 
   -7672    -7638    -7597    -7538    -7495    -7534    -7674    -7865 
   -8005    -8037    -7982    -7892    -7794    -7695    -7603    -7553 
   -7576    -7663    -7784    -7882    -7881    -7730    -7514    -7399 
   -7464    -7668    -7948    -8232    -8371    -8245    -7892    -7496 
   -7230    -7148    -7234    -7450    -7722    -7958    -8094    -8108 
   -8023    -7935    -7935    -7992    -8004    -7915    -7723    -7454 
   -7182    -7028    -7101    -7403    -7809    -8156    -8341    -8318 
   -8112    -7836    -7639    -7542    -7461    -7371    -7349    -7423 
   -7549    -7705    -7893    -8082    -8225    -8290    -8279    -8179 
   -7939    -7577    -7250    -7134    -7271    -7561    -7855    -8023 
   -7962    -7705    -7438    -7349    -7501    -7824    -8172    -8409 
   -8478    -8374    -8086    -7630    -7101    -6660    -6473    -6647 
   -7173    -7886    -8500    -8802    -8769    -8550    -8311    -8087 
   -7789    -7384    -6995    -6829    -6993    -7372    -7722    -7901 
   -7955    -8001    -8127    -8306    -8372    -8164    -7712    -7257 
   -7053    -7156    -7431    -7695    -7851    -7931    -7983    -8017 
   -8013    -7947    -7823    -7689    -7620    -7634    -7673    -7659 
   -7560    -7392    -7248    -7283    -7560    -7962    -8341    -8619 
   -8739    -8641    -8294    -7759    -7213    -6844    -6741    -6890 
   -7214    -7601    -7944    -8189    -8310    -8255    -8023    -7767 
   -7669    -7739    -7840    -7836    -7695    -7497    -7361    -7321 
   -7321    -7339    -7446    -7724    -8139    -8517    -8675    -8559 
   -8262    -7890    -7485    -7109    -6890    -6906    -7136    -7519 
   -7993    -8453    -8765    -8807    -8510    -7924    -7244    -6709 
   -6502    -6690    -7191    -7827    -8401    -8733    -8725    -8399 
   -7871    -7310    -6885    -6725    -6886    -7307    -7839    -8298 
   -8527    -8478    -8220    -7897    -7681    -7661    -7782    -7897 
   -7896    -7761    -7535    -7294    -7144    -7169    -7402    -7811 
   -8275    -8606    -8664    -8425    -7994    -7539    -7199    -7056 
   -7141    -7410    -7736    -7985    -8068    -7977    -7753    -7473 
   -7241    -7172    -7308    -7568    -7839    -8068    -8233    -8309 
   -8293    -8195    -8002    -7708    -7391    -7180    -7152    -7329 
   -7681    -8094    -8428    -8567    -8442    -8073    -7580    -7138 
   -6895    -6926    -7221    -7655    -8066    -8326    -8363    -8178 
   -7874    -7592    -7419    -7369    -7430    -7569    -7722    -7831 
   -7861    -7816    -7735    -7678    -7701    -7811    -7925    -7927 
   -7770    -7545    -7383    -7356    -7464    -7668    -7897    -8071 
   -8145    -8141    -8118    -8102    -8058    -7932    -7726    -7512 
   -7415    -7493    -7659    -7759    -7703    -7554    -7462    -7515 
   -7669    -7817    -7900    -7924    -7920    -7879    -7771    -7596 
   -7420    -7368    -7526    -7835    -8137    -8298    -8275    -8078 
   -7765    -7420    -7123    -6949    -6976    -7221    -7626    -8082 
   -8453    -8622    -8565    -8338    -8037    -7762    -7557    -7406 
   -7294    -7241    -7275    -7406    -7611    -7817    -7943    -7958 
   -7909    -7858    -7834    -7840    -7867    -7892    -7902    -7893 
   -7835    -7700    -7506    -7325    -7254    -7361    -7603    -7869 
   -8074    -8176    -8155    -8019    -7798    -7553    -7349    -7258 
   -7318    -7480    -7665    -7828    -7954    -8029    -8062    -8078 
   -8087    -8074    -8012    -7865    -7631    -7385    -7238    -7269 
   -7489    -7809    -8085    -8226    -8240    -8155    -7977    -7732 
   -7468    -7230    -7087    -7122    -7339    -7657    -7970    -8202 
   -8301    -8275    -8174    -8046    -7897    -7689    -7410    -7138 
   -6997    -7052    -7287    -7627    -7969    -8209    -8306    -8278 
   -8158    -7962    -7716    -7492    -7380    -7430    -7607    -7809 
   -7946    -7982    -7933    -7830    -7709    -7612    -7574    -7597 
   -7657    -7731    -7815    -7893    -7936    -7916    -7839    -7743 
   -7655    -7569    -7483    -7419    -7404    -7449    -7562    -7743 
   -7950    -8133    -8259    -8289    -8193    -7981    -7707    -7446 
   -7257    -7176    -7225    -7396    -7658    -7942    -8178    -8324 
   -8355    -8275    -8113    -7916    -7722    -7551    -7415    -7318 
   -7273    -7299    -7403    -7573    -7761    -7911    -7993    -7982 
   -7870    -7700    -7564    -7557    -7722    -7990    -8225    -8318 
   -8210    -7911    -7504    -7119    -6897    -6922    -7207    -7678 
   -8193    -8556    -8625    -8392    -7975    -7508    -7114    -6903 
   -6928    -7157    -7495    -7838    -8129    -8341    -8434    -8421 
   -8363    -8283    -8167    -8000    -7776    -7545    -7376    -7321 
   -7383    -7501    -7584    -7589    -7547    -7503    -7495    -7545 
   -7650    -7811    -8001    -8141    -8167    -8074    -7896    -7686 
   -7496    -7346    -7253    -7253    -7371    -7578    -7821    -8039 
   -8174    -8187    -8067    -7838    -7560    -7326    -7241    -7356 
   -7630    -7958    -8240    -8401    -8398    -8251    -7996    -7682 
   -7385    -7183    -7117    -7188    -7365    -7597    -7831    -8014 
   -8116    -8145    -8132    -8108    -8089    -8071    -8032    -7942 
   -7782    -7564    -7325    -7115    -6997    -7040    -7257    -7595 
   -7955    -8233    -8349    -8294    -8120    -7894    -7653    -7416 
   -7230    -7171    -7280    -7535    -7834    -8050    -8116    -8047 
   -7925    -7857    -7878    -7940    -7970    -7927    -7804    -7630 
   -7457    -7335    -7296    -7362    -7537    -7797    -8093    -8347 
   -8459    -8375    -8127    -7805    -7503    -7281    -7182    -7226 
   -7398    -7670    -7997    -8275    -8380    -8235    -7867    -7415 
   -7038    -6851    -6890    -7118    -7456    -7843    -8230    -8533 
   -8672    -8623    -8415    -8117    -7819    -7584    -7427    -7334 
   -7310    -7358    -7480    -7631    -7731    -7731    -7642    -7516 
   -7429    -7442    -7585    -7834    -8105    -8314    -8402    -8333 
   -8113    -7793    -7456    -7198    -7087    -7128    -7271    -7446 
   -7597    -7700    -7746    -7757    -7774    -7842    -7977    -8156 
   -8324    -8422    -8417    -8310    -8148    -8001    -7908    -7846 
   -7781    -7686    -7557    -7419    -7323    -7290    -7302    -7338 
   -7387    -7453    -7522    -7558    -7554    -7537    -7542    -7597 
   -7707    -7850    -7967    -8008    -7979    -7917    -7840    -7758 
   -7697    -7697    -7770    -7879    -7969    -7975    -7862    -7655 
   -7439    -7303    -7319    -7506    -7815    -8183    -8534    -8781 
   -8862    -8745    -8429    -7990    -7546    -7194    -6984    -6930 
   -7018    -7196    -7400    -7592    -7743    -7805    -7762    -7651 
   -7526    -7418    -7339    -7318    -7387    -7573    -7850    -8131 
   -8329    -8384    -8259    -8005    -7735    -7547    -7500    -7584 
   -7728    -7858    -7920    -7885    -7771    -7638    -7530    -7473 
   -7508    -7665    -7912    -8159    -8322    -8351    -8239    -8019 
   -7751    -7508    -7338    -7254    -7260    -7352    -7497    -7665 
   -7820    -7929    -7985    -8002    -8001    -7983    -7938    -7840 
   -7674    -7464    -7263    -7121    -7090    -7209    -7474    -7836 
   -8197    -8437    -8492    -8376    -8156    -7900    -7657    -7462 
   -7345    -7326    -7418    -7596    -7792    -7939    -8023    -8056 
   -8056    -8044    -8028    -7989    -7881    -7688    -7464    -7304 
   -7277    -7392    -7589    -7781    -7906    -7958    -7946    -7874 
   -7749    -7588    -7431    -7326    -7308    -7372    -7473    -7557 
   -7600    -7631    -7693    -7800    -7928    -8051    -8162    -8256 
   -8314    -8311    -8225    -8046    -7803    -7578    -7454    -7468 
   -7589    -7758    -7897    -7935    -7878    -7798    -7742    -7705 
   -7669    -7604    -7511    -7420    -7360    -7353    -7419    -7557 
   -7755    -8009    -8276    -8471    -8522    -8405    -8155    -7855 
   -7566    -7315    -7118    -6993    -6960    -7030    -7188    -7395 
   -7595    -7747    -7830    -7839    -7793    -7734    -7720    -7800 
   -7973    -8190    -8376    -8453    -8384    -8201    -7967    -7738 
   -7568    -7507    -7564    -7697    -7840    -7929    -7924    -7813 
   -7627    -7435    -7308    -7290    -7366    -7499    -7649    -7800 
   -7936    -8023    -8023    -7921    -7747    -7558    -7412    -7349 
   -7392    -7543    -7762    -8013    -8256    -8417    -8426    -8272 
   -7998    -7685    -7414    -7248    -7210    -7288    -7454    -7673 
   -7885    -8046    -8121    -8086    -7951    -7781    -7638    -7555 
   -7539    -7565    -7600    -7622    -7607    -7550    -7495    -7495 
   -7576    -7736    -7954    -8182    -8359    -8418    -8324    -8083 
   -7736    -7356    -7037    -6859    -6862    -7044    -7380    -7812 
   -8240    -8565    -8733    -8729    -8567    -8282    -7927    -7582 
   -7334    -7238    -7290    -7412    -7526    -7584    -7569    -7497 
   -7419    -7395    -7470    -7665    -7948    -8241    -8417    -8379 
   -8122    -7739    -7358    -7113    -7095    -7327    -7727    -8141 
   -8424    -8482    -8302    -7946    -7541    -7211    -7036    -7055 
   -7238    -7497    -7730    -7858    -7858    -7773    -7681    -7643 
   -7689    -7828    -8016    -8181    -8264    -8249    -8152    -8013 
   -7886    -7812    -7820    -7898    -8002    -8068    -8056    -7956 
   -7797    -7623    -7470    -7348    -7248    -7177    -7160    -7210 
   -7318    -7443    -7531    -7560    -7542    -7508    -7476    -7454 
   -7452    -7504    -7641    -7867    -8139    -8357    -8445    -8394 
   -8240    -8040    -7852    -7700    -7608    -7607    -7696    -7839 
   -7997    -8136    -8233    -8280    -8278    -8216    -8094    -7936 
   -7767    -7582    -7398    -7264    -7218    -7245    -7310    -7383 
   -7437    -7476    -7530    -7618    -7731    -7842    -7902    -7866 
   -7713    -7479    -7231    -7060    -7034    -7186    -7492    -7877 
   -8236    -8475    -8532    -8401    -8147    -7888    -7731    -7743 
   -7894    -8077    -8185    -8155    -7978    -7716    -7472    -7339 
   -7356    -7493    -7705    -7938    -8117    -8185    -8136    -7994 
   -7800    -7595    -7411    -7261    -7156    -7109    -7134    -7252 
   -7450    -7677    -7862    -7946    -7906    -7758    -7569    -7430 
   -7410    -7538    -7784    -8060    -8279    -8378    -8322    -8139 
   -7908    -7738    -7713    -7854    -8087    -8307    -8428    -8411 
   -8272    -8055    -7825    -7635    -7479    -7334    -7203    -7110 
   -7090    -7172    -7349    -7581    -7813    -7966    -7977    -7840 
   -7611    -7384    -7246    -7242    -7368    -7574    -7782    -7900 
   -7888    -7776    -7622    -7483    -7418    -7464    -7614    -7840 
   -8079    -8256    -8338    -8338    -8282    -8197    -8095    -7970 
   -7812    -7620    -7423    -7268    -7190    -7222    -7380    -7642 
   -7950    -8216    -8356    -8334    -8179    -7938    -7663    -7423 
   -7281    -7269    -7368    -7515    -7659    -7771    -7817    -7793 
   -7715    -7607    -7514    -7477    -7524    -7663    -7873    -8101 
   -8303    -8438    -8479    -8418    -8278    -8106    -7952    -7846 
   -7800    -7812    -7850    -7863    -7812    -7677    -7481    -7285 
   -7156    -7141    -7256    -7460    -7699    -7923    -8073    -8118 
   -8074    -7975    -7854    -7722    -7582    -7437    -7276    -7080 
   -6878    -6727    -6658    -6666    -6728    -6825    -6951    -7103 
   -7276    -7473    -7696    -7928    -8168    -8433    -8715    -8999 
   -9267    -9506    -9690    -9786    -9772    -9640    -9396    -9059 
   -8662    -8237    -7808    -7399    -7024    -6660    -6293    -5945 
   -5668    -5525    -5551    -5742    -6065    -6451    -6808    -7074 
   -7237    -7325    -7384    -7466    -7600    -7812    -8112    -8471 
   -8845    -9189    -9464    -9645    -9707    -9651    -9468    -9155 
   -8733    -8245    -7759    -7366    -7144    -7114    -7257    -7522 
   -7839    -8125    -8284    -8263    -8067    -7743    -7379    -7078 
   -6891    -6810    -6795    -6805    -6797    -6739    -6623    -6489 
   -6408    -6434    -6577    -6835    -7195    -7623    -8073    -8498 
   -8858    -9109    -9205    -9105    -8810    -8360    -7815    -7265 
   -6852    -6698    -6874    -7385    -8148    -8993    -9730   -10218 
  -10384   -10246    -9909    -9502    -9085    -8677    -8290    -7855 
   -7295    -6608    -5821    -5011    -4307    -3827    -3662    -3847 
   -4348    -5108    -6065    -7136    -8210    -9178    -9948   -10457 
  -10679   -10628   -10363    -9952    -9435    -8819    -8122    -7387 
   -6659    -5999    -5521    -5371    -5665    -6424    -7538    -8806 
  -10010   -10967   -11556   -11708   -11457   -10912   -10179    -9339 
   -8482    -7676    -6961    -6330    -5740    -5166    -4594    -4020 
   -3464    -2983    -2685    -2698    -3138    -4054    -5420    -7115 
   -8942   -10693   -12185   -13277   -13884   -13983   -13579   -12696 
  -11402    -9817    -8108    -6474    -5088    -4075    -3541    -3532 
   -4001    -4806    -5755    -6667    -7427    -7979    -8348    -8623 
   -8896    -9197    -9495    -9745    -9887    -9877    -9697    -9292 
   -8608    -7678    -6598    -5475    -4457    -3715    -3384    -3555 
   -4271    -5501    -7101    -8800   -10304   -11372   -11848   -11730 
  -11152   -10324    -9464    -8712    -8133    -7746    -7499    -7268 
   -6933    -6461    -5919    -5414    -5081    -5066    -5452    -6218 
   -7233    -8303    -9234    -9895   -10253   -10353   -10268   -10088 
   -9909    -9778    -9674    -9532    -9231    -8648    -7747    -6596 
   -5355    -4259    -3520    -3296    -3657    -4544    -5760    -7029 
   -8109    -8831    -9130    -9074    -8818    -8511    -8276    -8183 
   -8213    -8260    -8224    -8041    -7726    -7373    -7119    -7045 
   -7159    -7396    -7659    -7878    -8013    -8055    -8040    -8023 
   -8037    -8118    -8279    -8491    -8706    -8853    -8872    -8746 
   -8507    -8205    -7881    -7578    -7345    -7217    -7222    -7345 
   -7510    -7599    -7519    -7245    -6833    -6427    -6204    -6269 
   -6600    -7090    -7601    -8006    -8243    -8318    -8271    -8186 
   -8181    -8341    -8661    -9057    -9396    -9544    -9412    -9023 
   -8550    -8171    -7944    -7888    -7965    -8059    -8070    -7913 
   -7528    -6945    -6274    -5663    -5274    -5232    -5545    -6114 
   -6801    -7470    -8036    -8453    -8696    -8761    -8660    -8421 
   -8101    -7778    -7528    -7407    -7430    -7607    -7924    -8324 
   -8725    -9026    -9099    -8873    -8372    -7682    -6963    -6419 
   -6201    -6354    -6810    -7431    -8028    -8445    -8614    -8545 
   -8298    -7960    -7641    -7419    -7308    -7290    -7350    -7469 
   -7636    -7834    -8024    -8170    -8245    -8226    -8121    -7973 
   -7828    -7708    -7607    -7528    -7488    -7503    -7587    -7730 
   -7879    -7967    -7948    -7800    -7546    -7254    -6994    -6822 
   -6790    -6905    -7130    -7412    -7678    -7866    -7940    -7919 
   -7870    -7873    -7983    -8212    -8523    -8850    -9108    -9236 
   -9208    -9036    -8768    -8461    -8155    -7871    -7611    -7364 
   -7115    -6839    -6528    -6226    -6016    -5984    -6199    -6663 
   -7284    -7923    -8461    -8816    -8945    -8834    -8518    -8086 
   -7650    -7314    -7145    -7145    -7273    -7464    -7646    -7782 
   -7874    -7925    -7956    -7985    -8000    -7973    -7875    -7724 
   -7573    -7485    -7495    -7622    -7865    -8181    -8487    -8687 
   -8688    -8460    -8046    -7541    -7060    -6704    -6529    -6567 
   -6824    -7254    -7776    -8293    -8708    -8972    -9069    -9011 
   -8818    -8532    -8210    -7917    -7690    -7537    -7437    -7346 
   -7229    -7074    -6875    -6635    -6389    -6169    -6008    -5946 
   -6014    -6253    -6702    -7365    -8195    -9096    -9918   -10521 
  -10810   -10729   -10295    -9599    -8775    -7954    -7249    -6718 
   -6367    -6187    -6156    -6251    -6454    -6744    -7106    -7507 
   -7897    -8214    -8394    -8397    -8245    -8012    -7781    -7620 
   -7561    -7604    -7713    -7804    -7788    -7612    -7272    -6837 
   -6424    -6147    -6099    -6327    -6809    -7472    -8205    -8881 
   -9393    -9699    -9802    -9736    -9559    -9329    -9057    -8730 
   -8348    -7913    -7434    -6939    -6509    -6234    -6169    -6327 
   -6677    -7146    -7646    -8094    -8442    -8662    -8745    -8681 
   -8488    -8214    -7915    -7638    -7415    -7267    -7188    -7169 
   -7198    -7257    -7334    -7416    -7503    -7580    -7627    -7624 
   -7558    -7439    -7315    -7233    -7231    -7329    -7512    -7755 
   -8009    -8216    -8349    -8379    -8294    -8133    -7959    -7828 
   -7781    -7824    -7940    -8073    -8151    -8145    -8070    -7951 
   -7838    -7774    -7770    -7813    -7884    -7948    -7973    -7933 
   -7820    -7654    -7465    -7277    -7118    -7021    -7009    -7090 
   -7260    -7497    -7769    -8031    -8226    -8294    -8217    -8023 
   -7761    -7499    -7304    -7222    -7249    -7357    -7514    -7693 
   -7870    -8029    -8175    -8309    -8432    -8542    -8613    -8598 
   -8475    -8253    -7971    -7682    -7442    -7294    -7245    -7279 
   -7353    -7423    -7445    -7392    -7263    -7064    -6835    -6642 
   -6550    -6594    -6783    -7079    -7419    -7757    -8063    -8314 
   -8486    -8579    -8626    -8652    -8669    -8684    -8685    -8649 
   -8556    -8401    -8208    -8017    -7859    -7751    -7699    -7690 
   -7699    -7705    -7704    -7697    -7689    -7674    -7647    -7601 
   -7535    -7454    -7337    -7167    -6972    -6804    -6697    -6696 
   -6828    -7061    -7350    -7655    -7942    -8183    -8368    -8490 
   -8542    -8510    -8405    -8262    -8102    -7942    -7790    -7658 
   -7557    -7489    -7460    -7460    -7470    -7488    -7537    -7634 
   -7784    -7982    -8208    -8403    -8519    -8534    -8442    -8251 
   -7994    -7720    -7462    -7254    -7121    -7069    -7092    -7161 
   -7242    -7318    -7387    -7460    -7551    -7669    -7797    -7920 
   -8032    -8122    -8182    -8205    -8176    -8089    -7956    -7805 
   -7654    -7516    -7407    -7331    -7285    -7277    -7330    -7453 
   -7632    -7843    -8060    -8263    -8436    -8571    -8654    -8669 
   -8608    -8465    -8245    -7969    -7661    -7358    -7091    -6894 
   -6798    -6806    -6893    -7021    -7153    -7248    -7295    -7311 
   -7321    -7372    -7504    -7713    -7967    -8208    -8378    -8449 
   -8413    -8294    -8141    -8002    -7913    -7894    -7942    -8032 
   -8128    -8198    -8228    -8230    -8229    -8237    -8255    -8266 
