Origin Time       2025/03/29 04:45:00
Lat.              31.090
Long.             131.512
Depth. (km)       33
Mag.              4.6
Station Code      MYZH08
Station Lat.      32.2132
Station Long.     131.5309
Station Height(m) 68
Record Time       2025/03/29 04:46:03
Sampling Freq(Hz) 100Hz
Duration Time(s)  120
Dir.              4
Scale Factor      3920(gal)/6170801
Max. Acc. (gal)   0.456
Last Correction   2025/03/29 04:45:48
Memo.             
    -547     -494     -412     -320     -250     -227     -252     -320 
    -418     -517     -585     -600     -565     -497     -418     -350 
    -314     -316     -349     -396     -451     -502     -531     -534 
    -516     -483     -442     -405     -381     -374     -386     -417 
    -455     -489     -518     -536     -537     -528     -509     -474 
    -434     -412     -405     -402     -406     -415     -422     -425 
    -424     -416     -399     -379     -363     -356     -363     -382 
    -409     -433     -443     -439     -423     -397     -381     -386 
    -408     -439     -480     -521     -543     -538     -503     -443 
    -377     -328     -316     -342     -397     -477     -568     -632 
    -649     -617     -544     -447     -359     -303     -289     -318 
    -387     -471     -531     -545     -516     -451     -365     -295 
    -264     -276     -328     -408     -493     -557     -575     -544 
    -479     -404     -340     -303     -295     -317     -365     -429 
    -495     -546     -573     -587     -589     -574     -547     -516 
    -477     -432     -389     -355     -335     -331     -342     -359 
    -376     -390     -396     -392     -389     -398     -419     -446 
    -475     -505     -528     -532     -516     -492     -470     -452 
    -440     -431     -410     -372     -329     -294     -271     -265 
    -279     -311     -356     -414     -478     -527     -549     -546 
    -526     -495     -461     -435     -425     -435     -455     -478 
    -501     -516     -512     -495     -475     -455     -435     -427 
    -435     -446     -452     -453     -443     -416     -389     -369 
    -350     -338     -339     -349     -370     -408     -454     -494 
    -517     -524     -516     -495     -471     -453     -440     -434 
    -436     -448     -471     -492     -502     -499     -480     -444 
    -408     -374     -338     -309     -298     -304     -320     -344 
    -376     -402     -419     -434     -444     -451     -465     -484 
    -501     -517     -534     -549     -550     -538     -516     -479 
    -426     -373     -323     -285     -270     -285     -331     -401 
    -479     -553     -604     -614     -586     -529     -450     -374 
    -328     -325     -359     -417     -481     -526     -533     -499 
    -436     -361     -292     -252     -259     -308     -386     -470 
    -538     -570     -559     -509     -437     -375     -342     -339 
    -363     -410     -463     -504     -528     -528     -506     -475 
    -452     -445     -455     -473     -494     -507     -506     -492 
    -468     -440     -418     -407     -409     -423     -434     -434 
    -430     -420     -395     -360     -333     -319     -312     -309 
    -318     -344     -388     -455     -544     -631     -694     -716 
    -689     -612     -510     -413     -338     -295     -297     -343 
    -415     -490     -549     -576     -557     -499     -418     -324 
    -244     -205     -211     -261     -345     -437     -510     -546 
    -540     -494     -423     -350     -296     -278     -306     -368 
    -437     -498     -539     -535     -484     -415     -348     -300 
    -294     -336     -409     -495     -570     -611     -603     -548 
    -468     -393     -352     -362     -423     -513     -606     -683 
    -721     -704     -642     -550     -441     -337     -262     -226 
    -218     -218     -218     -219     -211     -194     -180     -182 
    -207     -250     -304     -358     -409     -459     -505     -543 
    -576     -603     -626     -650     -668     -665     -626     -545 
    -433     -304     -186     -110      -89     -117     -188     -286 
    -378     -442     -468     -457     -423     -392     -389     -435 
    -525     -632     -736     -806     -812     -753     -659     -560 
    -478     -436     -455     -508     -558     -586     -577     -517 
    -426     -342     -299     -309     -368     -457     -544     -588 
    -565     -477     -337     -182      -63      -27     -104     -278 
    -502     -721     -877     -923     -844     -659     -422     -201 
     -53      -19     -113     -312     -555     -775     -914     -922 
    -778     -518     -206       82      264      284      140     -130 
    -458     -756     -941     -974     -871     -686     -477     -302 
    -206     -196     -248     -338     -444     -539     -606     -654 
    -690     -705     -699     -671     -615     -541     -465     -400 
    -359     -350     -378     -431     -491     -544     -573     -560 
    -504     -412     -292     -165      -62       -6      -12      -75 
    -178     -300     -413     -498     -543     -544     -512     -464 
    -402     -332     -271     -235     -232     -271     -353     -460 
    -564     -640     -671     -645     -560     -434     -301     -195 
    -145     -172     -273     -426     -596     -740     -818     -808 
    -713     -569     -427     -336     -326     -395     -511     -629 
    -699     -692     -604     -452     -288     -166     -125     -170 
    -277     -407     -511     -554     -542     -498     -445     -413 
    -424     -475     -543     -594     -596     -529     -399     -241 
    -101      -25      -43     -157     -339     -539     -703     -783 
    -756     -651     -507     -368     -289     -305     -395     -521 
    -638     -694     -651     -515     -330     -153      -37      -22 
    -122     -306     -514     -682     -765     -729     -585     -392 
    -230     -152     -185     -326     -534     -731     -854     -866 
    -761     -563     -323     -105       37       69      -17     -199 
    -426     -631     -758     -773     -680     -513     -324     -178 
    -126     -176     -310     -485     -642     -741     -755     -678 
    -546     -410     -302     -261     -300     -387     -476     -532 
    -532     -476     -384     -290     -240     -256     -327     -433 
    -549     -628     -639     -584     -482     -361     -251     -181 
    -164     -195     -261     -340     -417     -474     -496     -481 
    -446     -412     -391     -396     -437     -503     -564     -598 
    -591     -536     -445     -347     -272     -241     -263     -324 
    -398     -452     -473     -465     -438     -412     -409     -438 
    -496     -571     -648     -708     -733     -714     -662     -603 
    -547     -491     -441     -402     -360     -320     -302     -319 
    -365     -438     -539     -641     -708     -722     -676     -568 
    -420     -272     -169     -129     -157     -249     -384     -517 
    -602     -624     -582     -484     -354     -230     -138      -96 
    -105     -164     -262     -380     -492     -584     -648     -679 
    -676     -649     -607     -552     -494     -449     -418     -400 
    -409     -445     -494     -551     -609     -651     -656     -621 
    -553     -470     -394     -342     -316     -318     -349     -384 
    -393     -368     -318     -254     -199     -186     -227     -309 
    -418     -525     -599     -627     -603     -532     -438     -348 
    -293     -294     -346     -429     -518     -579     -585     -520 
    -402     -260     -130      -47      -40     -118     -262     -427 
    -562     -632     -619     -529     -399     -286     -223     -228 
    -308     -441     -586     -699     -742     -705     -603     -465 
    -337     -264     -261     -318     -421     -540     -636     -684 
    -676     -617     -533     -451     -395     -382     -417     -488 
    -571     -639     -666     -631     -541     -430     -336     -281 
    -279     -330     -408     -473     -498     -467     -379     -249 
    -118      -25        6      -35     -135     -264     -381     -449 
    -455     -414     -353     -294     -265     -280     -327     -383 
    -437     -477     -490     -476     -454     -434     -429     -445 
    -481     -530     -584     -634     -670     -687     -686     -672 
    -656     -638     -616     -591     -568     -549     -537     -528 
    -511     -488     -463     -446     -452     -486     -545     -627 
    -715     -777     -795     -770     -701     -599     -492     -398 
    -328     -285     -266     -265     -265     -249     -218     -183 
    -158     -155     -188     -253     -335     -412     -464     -477 
    -444     -379     -299     -229     -186     -187     -234     -317 
    -408     -479     -508     -480     -401     -299     -208     -161 
    -180     -273     -426     -594     -733     -816     -822     -751 
    -629     -507     -426     -404     -444     -526     -606     -649 
    -637     -574     -485     -403     -364     -387     -467     -577 
    -689     -761     -758     -677     -539     -367     -201      -89 
     -54      -88     -170     -280     -388     -463     -491     -481 
    -443     -388     -342     -324     -340     -377     -415     -436 
    -429     -383     -308     -231     -176     -160     -189     -251 
    -326     -395     -440     -456     -451     -441     -433     -438 
    -470     -529     -595     -650     -685     -688     -644     -568 
    -485     -412     -363     -354     -381     -425     -471     -509 
    -526     -515     -479     -426     -370     -320     -286     -279 
    -300     -336     -385     -444     -502     -557     -613     -659 
    -692     -725     -756     -764     -741     -687     -601     -491 
    -387     -312     -272     -270     -305     -362     -407     -410 
    -359     -264     -148      -42       15       -7     -107     -267 
    -460     -642     -769     -816     -775     -658     -491     -317 
    -177     -104     -119     -219     -382     -563     -714     -804 
    -820     -757     -635     -500     -384     -301     -265     -274 
    -312     -346     -355     -341     -306     -254     -217     -224 
    -278     -371     -487     -594     -657     -656     -595     -498 
    -403     -339     -325     -372     -472     -593     -697     -763 
    -770     -708     -595     -473     -373     -315     -322     -396 
    -505     -613     -683     -684     -614     -486     -322     -163 
     -53      -19      -64     -172     -314     -447     -528     -538 
    -484     -381     -263     -168     -119     -120     -161     -221 
    -276     -310     -319     -310     -293     -282     -290     -325 
    -380     -441     -493     -523     -522     -495     -459     -434 
    -435     -464     -522     -593     -648     -670     -650     -594 
    -516     -436     -377     -348     -348     -367     -397     -429 
    -450     -454     -449     -440     -431     -431     -445     -459 
    -472     -500     -535     -565     -593     -622     -644     -657 
    -663     -662     -648     -619     -581     -539     -498     -467 
    -453     -459     -479     -495     -503     -500     -483     -458 
    -439     -431     -430     -436     -463     -510     -555     -580 
    -581     -555     -497     -419     -340     -281     -256     -274 
    -334     -418     -494     -532     -518     -452     -350     -240 
    -155     -116     -123     -172     -256     -355     -442     -504 
    -540     -546     -524     -491     -459     -431     -410     -407 
    -421     -436     -434     -411     -367     -302     -237     -196 
    -184     -202     -256     -338     -420     -489     -537     -548 
    -518     -468     -425     -412     -447     -534     -656     -787 
    -898     -957     -944     -850     -688     -492     -300     -146 
     -56      -38      -87     -183     -293     -397     -479     -521 
    -520     -494     -461     -427     -397     -383     -382     -379 
    -366     -351     -339     -339     -358     -392     -426     -443 
    -435     -406     -368     -335     -316     -312     -323     -343 
    -366     -390     -407     -407     -390     -367     -340     -314 
    -306     -326     -374     -437     -509     -580     -629     -647 
    -645     -629     -610     -601     -602     -609     -619     -628 
    -634     -637     -636     -631     -623     -619     -628     -655 
    -691     -717     -726     -713     -676     -613     -533     -448 
    -378     -337     -332     -357     -396     -426     -431     -407 
    -347     -255     -148      -49       12       15      -41     -144 
    -261     -364     -433     -449     -412     -343     -273     -222 
    -199     -208     -242     -275     -290     -284     -257     -222 
    -191     -178     -189     -221     -261     -297     -320     -319 
    -291     -248     -210     -185     -185     -220     -285     -369 
    -464     -565     -660     -739     -790     -815     -824     -814 
    -793     -766     -731     -690     -641     -578     -514     -459 
    -414     -384     -370     -376     -410     -473     -554     -641 
    -722     -776     -793     -775     -733     -683     -639     -610 
    -599     -598     -592     -575     -542     -496     -438     -376 
    -326     -294     -276     -277     -294     -311     -314     -302 
    -272     -217     -152      -95      -62      -62     -101     -176 
    -269     -360     -438     -492     -521     -530     -525     -506 
    -475     -437     -389     -336     -285     -241     -207     -188 
    -182     -189     -207     -246     -305     -370     -439     -509 
    -565     -602     -625     -641     -659     -685     -721     -762 
    -801     -831     -845     -841     -822     -791     -757     -720 
    -679     -637     -604     -576     -550     -528     -513     -501 
    -489     -487     -496     -509     -533     -568     -599     -620 
    -629     -613     -562     -479     -375     -257     -132      -20 
      63      114      130      111       74       39        8      -17 
     -34      -49      -75     -124     -194     -284     -387     -482 
    -546     -573     -573     -556     -540     -551     -602     -682 
    -770     -840     -868     -844     -770     -663     -554     -475 
    -447     -471     -530     -593     -629     -618     -556     -462 
    -355     -263     -218     -234     -302     -396     -486     -535 
    -524     -454     -346     -228     -129      -77      -84     -141 
    -231     -327     -399     -422     -384     -297     -185      -78 
     -15      -16      -74     -170     -282     -378     -432     -443 
    -426     -403     -402     -445     -533     -646     -760     -846 
    -877     -843     -757     -643     -536     -468     -447     -468 
    -518     -572     -601     -597     -556     -484     -406     -341 
    -295     -271     -269     -286     -312     -334     -349     -361 
    -376     -395     -417     -448     -489     -534     -581     -623 
    -650     -659     -647     -613     -573     -539     -509     -480 
    -456     -436     -419     -413     -427     -459     -512     -582 
    -651     -703     -729     -729     -709     -680     -649     -624 
    -603     -587     -571     -541     -486     -412     -328     -238 
    -156     -110     -108     -141     -199     -269     -325     -352 
    -350     -331     -304     -282     -274     -275     -276     -278 
    -281     -280     -282     -291     -307     -336     -377     -420 
    -458     -483     -493     -492     -490     -496     -511     -539 
    -573     -601     -612     -605     -578     -535     -482     -436 
    -397     -359     -328     -300     -270     -243     -224     -209 
    -203     -215     -243     -281     -323     -369     -412     -446 
    -469     -485     -499     -510     -521     -533     -542     -544 
    -535     -514     -487     -452     -411     -372     -339     -318 
    -301     -286     -280     -277     -277     -286     -310     -350 
    -402     -463     -521     -559     -563     -538     -499     -460 
    -431     -421     -438     -473     -513     -548     -562     -548 
    -514     -477     -456     -458     -481     -522     -577     -634 
    -682     -719     -738     -736     -720     -701     -684     -675 
    -678     -688     -698     -705     -702     -677     -629     -575 
    -525     -487     -468     -460     -453     -441     -420     -388 
    -344     -289     -238     -202     -186     -190     -213     -246 
    -272     -275     -250     -198     -131      -79      -60      -82 
    -146     -238     -337     -418     -463     -463     -422     -357 
    -296     -265     -274     -323     -396     -472     -535     -565 
    -549     -497     -428     -351     -281     -242     -243     -271 
    -319     -374     -417     -441     -458     -482     -515     -565 
    -635     -713     -778     -815     -809     -761     -680     -581 
    -489     -420     -378     -365     -375     -392     -405     -403 
    -372     -318     -258     -196     -147     -124     -120     -128 
    -149     -175     -202     -234     -281     -339     -395     -447 
    -496     -534     -562     -587     -614     -634     -650     -668 
    -684     -697     -706     -711     -709     -696     -670     -632 
    -588     -550     -518     -495     -483     -473     -457     -436 
    -402     -351     -287     -221     -172     -151     -167     -219 
    -291     -362     -424     -468     -487     -486     -477     -478 
    -497     -536     -585     -628     -650     -637     -586     -505 
    -402     -299     -218     -174     -168     -196     -245     -302 
    -354     -386     -396     -399     -403     -420     -461     -523 
    -585     -637     -665     -658     -614     -550     -485     -426 
    -380     -359     -363     -379     -404     -435     -454     -455 
    -448     -432     -407     -387     -386     -404     -432     -456 
    -462     -448     -414     -363     -312     -277     -267     -294 
    -357     -445     -534     -600     -631     -620     -574     -514 
    -460     -427     -425     -452     -488     -514     -517     -485 
    -420     -334     -243     -166     -120     -112     -144     -208 
    -284     -353     -399     -414     -390     -336     -278     -238 
    -226     -254     -317     -392     -462     -513     -541     -551 
    -552     -558     -580     -615     -653     -683     -701     -699 
    -671     -624     -572     -522     -476     -447     -445     -459 
    -479     -502     -522     -532     -537     -537     -533     -532 
    -537     -545     -557     -571     -582     -583     -576     -564 
    -542     -514     -488     -471     -460     -453     -448     -439 
    -423     -400     -373     -344     -317     -299     -301     -324 
    -368     -423     -479     -525     -549     -546     -519     -474 
    -415     -354     -307     -280     -278     -294     -324     -359 
    -386     -402     -414     -423     -429     -437     -452     -466 
    -474     -477     -471     -448     -412     -373     -334     -293 
    -253     -220     -192     -175     -171     -175     -184     -201 
    -229     -260     -287     -307     -322     -331     -334     -336 
    -341     -348     -353     -350     -344     -333     -320     -318 
    -338     -390     -471     -565     -656     -730     -777     -788 
    -771     -742     -709     -677     -655     -638     -622     -605 
    -580     -547     -510     -464     -415     -380     -361     -352 
    -351     -355     -361     -369     -377     -395     -424     -453 
