Origin Time       2025/03/29 04:45:00
Lat.              31.090
Long.             131.512
Depth. (km)       33
Mag.              4.6
Station Code      MYZH11
Station Lat.      32.0208
Station Long.     131.4700
Station Height(m) 12
Record Time       2025/03/29 04:45:49
Sampling Freq(Hz) 100Hz
Duration Time(s)  120
Dir.              6
Scale Factor      7845(gal)/8223790
Max. Acc. (gal)   0.475
Last Correction   2025/03/29 04:45:49
Memo.             
[...]
  -29633   -29658   -29679   -29694   -29708   -29727   -29749   -29768 
  -29786   -29805   -29816   -29820   -29813   -29786   -29747   -29708 
  -29671   -29640   -29616   -29594   -29579   -29579   -29587   -29594 
  -29594   -29589   -29583   -29585   -29598   -29627   -29659   -29687 
  -29714   -29736   -29754   -29768   -29776   -29771   -29748   -29720 
  -29691   -29670   -29659   -29658   -29659   -29659   -29651   -29632 
  -29610   -29594   -29581   -29573   -29571   -29579   -29593   -29609 
  -29632   -29664   -29700   -29722   -29732   -29739   -29747   -29755 
  -29764   -29778   -29791   -29793   -29781   -29756   -29722   -29675 
  -29619   -29563   -29516   -29488   -29482   -29498   -29529   -29570 
  -29617   -29670   -29713   -29741   -29752   -29745   -29722   -29695 
  -29677   -29662   -29651   -29648   -29654   -29662   -29668   -29675 
  -29686   -29694   -29700   -29705   -29705   -29701   -29700   -29694 
  -29685   -29681   -29682   -29689   -29705   -29710   -29700   -29685 
  -29656   -29629   -29623   -29625   -29621   -29614   -29609   -29602 
  -29598   -29597   -29592   -29581   -29582   -29604   -29632   -29658 
  -29673   -29671   -29659   -29646   -29635   -29631   -29644   -29674 
  -29705   -29739   -29759   -29762   -29760   -29754   -29740   -29724 
  -29702   -29682   -29671   -29674   -29686   -29695   -29698   -29695 
  -29678   -29644   -29612   -29583   -29558   -29548   -29559   -29585 
  -29620   -29662   -29698   -29728   -29751   -29760   -29759   -29745 
  -29722   -29700   -29682   -29667   -29660   -29655   -29652   -29648 
  -29639   -29624   -29612   -29608   -29614   -29623   -29623   -29621 
  -29628   -29646   -29667   -29689   -29708   -29718   -29721   -29714 
  -29698   -29677   -29660   -29663   -29681   -29700   -29706   -29704 
  -29691   -29675   -29658   -29637   -29614   -29602   -29602   -29613 
  -29632   -29646   -29651   -29658   -29671   -29693   -29717   -29731 
  -29727   -29718   -29716   -29716   -29712   -29702   -29691   -29681 
  -29666   -29652   -29646   -29641   -29637   -29633   -29631   -29624 
  -29621   -29628   -29631   -29629   -29636   -29648   -29662   -29677 
  -29694   -29712   -29722   -29731   -29733   -29720   -29694   -29664 
  -29633   -29614   -29605   -29597   -29597   -29604   -29612   -29613 
  -29614   -29623   -29633   -29640   -29639   -29637   -29651   -29671 
  -29691   -29717   -29745   -29764   -29768   -29763   -29760   -29758 
  -29749   -29731   -29702   -29681   -29668   -29652   -29636   -29628 
  -29628   -29636   -29647   -29656   -29664   -29673   -29682   -29690 
  -29697   -29704   -29705   -29704   -29708   -29712   -29712   -29709 
  -29697   -29670   -29628   -29590   -29578   -29586   -29597   -29612 
  -29629   -29644   -29655   -29660   -29651   -29632   -29612   -29583 
  -29555   -29539   -29538   -29550   -29577   -29617   -29666   -29708 
  -29747   -29786   -29820   -29852   -29875   -29882   -29876   -29851 
  -29797   -29727   -29650   -29573   -29512   -29478   -29457   -29444 
  -29458   -29498   -29552   -29616   -29687   -29751   -29806   -29851 
  -29883   -29903   -29903   -29874   -29822   -29760   -29689   -29616 
  -29550   -29494   -29446   -29408   -29386   -29384   -29398   -29434 
  -29482   -29539   -29606   -29685   -29771   -29853   -29914   -29952 
  -29961   -29940   -29899   -29847   -29793   -29741   -29689   -29635 
  -29587   -29539   -29501   -29488   -29497   -29517   -29546   -29575 
  -29597   -29612   -29627   -29643   -29667   -29704   -29744   -29768 
  -29774   -29771   -29764   -29752   -29739   -29714   -29682   -29652 
  -29632   -29621   -29613   -29600   -29587   -29579   -29583   -29605 
  -29627   -29639   -29655   -29677   -29700   -29731   -29766   -29798 
  -29826   -29844   -29848   -29839   -29812   -29770   -29731   -29693 
  -29648   -29601   -29555   -29519   -29500   -29500   -29521   -29556 
  -29592   -29621   -29651   -29679   -29702   -29721   -29740   -29751 
  -29749   -29745   -29732   -29712   -29697   -29686   -29667   -29643 
  -29614   -29586   -29560   -29548   -29550   -29556   -29569   -29583 
  -29596   -29608   -29625   -29643   -29664   -29689   -29705   -29717 
  -29718   -29713   -29710   -29709   -29709   -29708   -29698   -29678 
  -29662   -29650   -29636   -29625   -29628   -29641   -29656   -29671 
  -29693   -29718   -29733   -29728   -29716   -29704   -29685   -29668 
  -29660   -29654   -29647   -29646   -29651   -29667   -29690   -29714 
  -29736   -29754   -29764   -29763   -29754   -29737   -29714   -29687 
  -29658   -29625   -29593   -29565   -29544   -29533   -29529   -29533 
  -29548   -29571   -29600   -29631   -29656   -29675   -29689   -29701 
  -29708   -29705   -29694   -29681   -29670   -29670   -29682   -29701 
  -29721   -29729   -29725   -29721   -29717   -29709   -29701   -29693 
  -29682   -29674   -29674   -29685   -29697   -29705   -29712   -29720 
  -29729   -29737   -29741   -29735   -29720   -29700   -29675   -29655 
  -29633   -29602   -29573   -29548   -29525   -29512   -29509   -29513 
  -29516   -29521   -29532   -29554   -29590   -29637   -29683   -29721 
  -29751   -29770   -29782   -29785   -29778   -29767   -29751   -29727 
  -29704   -29683   -29659   -29635   -29625   -29631   -29635   -29643 
  -29659   -29677   -29691   -29706   -29721   -29735   -29741   -29743 
  -29739   -29733   -29722   -29708   -29689   -29667   -29646   -29632 
  -29628   -29631   -29637   -29644   -29643   -29641   -29648   -29658 
  -29668   -29683   -29697   -29705   -29718   -29735   -29747   -29758 
  -29759   -29748   -29729   -29705   -29677   -29643   -29609   -29585 
  -29566   -29543   -29527   -29521   -29525   -29546   -29577   -29609 
  -29646   -29687   -29728   -29760   -29781   -29789   -29783   -29760 
  -29718   -29671   -29632   -29600   -29581   -29578   -29583   -29593 
  -29610   -29637   -29673   -29709   -29748   -29782   -29805   -29810 
  -29794   -29763   -29720   -29659   -29594   -29540   -29492   -29450 
  -29425   -29421   -29439   -29478   -29533   -29594   -29652   -29710 
  -29755   -29790   -29822   -29843   -29844   -29833   -29810   -29778 
  -29747   -29718   -29694   -29677   -29660   -29641   -29621   -29601 
  -29590   -29593   -29605   -29623   -29648   -29674   -29697   -29718 
  -29732   -29732   -29724   -29714   -29704   -29694   -29689   -29679 
  -29658   -29643   -29646   -29659   -29681   -29702   -29714   -29712 
  -29698   -29683   -29666   -29647   -29633   -29628   -29633   -29643 
  -29651   -29663   -29670   -29668   -29666   -29664   -29655   -29639 
  -29617   -29594   -29577   -29560   -29544   -29540   -29544   -29548 
  -29551   -29563   -29590   -29627   -29667   -29710   -29747   -29775 
  -29791   -29797   -29798   -29793   -29775   -29751   -29718   -29685 
  -29662   -29650   -29646   -29644   -29646   -29647   -29646   -29650 
  -29663   -29683   -29701   -29713   -29724   -29732   -29724   -29702 
  -29677   -29652   -29627   -29604   -29582   -29565   -29559   -29574 
  -29600   -29635   -29674   -29708   -29732   -29748   -29756   -29756 
  -29744   -29718   -29690   -29662   -29635   -29621   -29612   -29604 
  -29605   -29612   -29619   -29629   -29636   -29635   -29633   -29629 
  -29623   -29620   -29620   -29616   -29608   -29602   -29597   -29598 
  -29610   -29633   -29663   -29694   -29728   -29763   -29787   -29794 
  -29795   -29786   -29763   -29736   -29710   -29678   -29647   -29619 
  -29594   -29579   -29575   -29585   -29606   -29632   -29664   -29694 
  -29708   -29710   -29705   -29693   -29686   -29682   -29667   -29650 
  -29632   -29621   -29629   -29650   -29675   -29710   -29748   -29779 
  -29802   -29822   -29836   -29836   -29830   -29822   -29803   -29770 
  -29724   -29673   -29628   -29593   -29565   -29540   -29517   -29505 
  -29517   -29548   -29597   -29658   -29716   -29766   -29810   -29847 
  -29866   -29866   -29849   -29814   -29767   -29712   -29647   -29577 
  -29511   -29459   -29421   -29403   -29404   -29423   -29458   -29501 
  -29542   -29583   -29621   -29651   -29678   -29705   -29728   -29751 
  -29767   -29774   -29781   -29779   -29760   -29731   -29697   -29658 
  -29614   -29574   -29536   -29511   -29496   -29486   -29482   -29492 
  -29509   -29536   -29578   -29633   -29697   -29759   -29810   -29851 
  -29879   -29889   -29878   -29855   -29825   -29790   -29755   -29716 
  -29673   -29624   -29577   -29544   -29528   -29524   -29533   -29556 
  -29586   -29619   -29648   -29673   -29695   -29716   -29733   -29748 
  -29755   -29745   -29720   -29687   -29658   -29633   -29616   -29605 
  -29604   -29606   -29612   -29617   -29625   -29631   -29632   -29637 
  -29646   -29652   -29660   -29671   -29687   -29713   -29741   -29766 
  -29783   -29793   -29785   -29774   -29768   -29766   -29760   -29759 
  -29762   -29767   -29775   -29778   -29768   -29741   -29701   -29656 
  -29608   -29562   -29524   -29494   -29482   -29496   -29532   -29583 
  -29639   -29679   -29695   -29694   -29689   -29682   -29679   -29685 
  -29693   -29694   -29691   -29679   -29652   -29624   -29602   -29593 
  -29596   -29610   -29639   -29681   -29733   -29789   -29840   -29879 
  -29898   -29893   -29863   -29818   -29766   -29718   -29677   -29640 
  -29610   -29586   -29569   -29560   -29566   -29586   -29612   -29631 
  -29641   -29643   -29639   -29632   -29624   -29613   -29596   -29571 
  -29558   -29556   -29563   -29581   -29616   -29664   -29722   -29783 
  -29835   -29867   -29875   -29863   -29835   -29797   -29754   -29704 
  -29652   -29605   -29563   -29528   -29504   -29497   -29515   -29544 
  -29579   -29617   -29660   -29712   -29774   -29837   -29890   -29926 
  -29944   -29929   -29878   -29802   -29718   -29631   -29547   -29471 
  -29416   -29382   -29365   -29359   -29374   -29411   -29463   -29531 
  -29608   -29691   -29774   -29844   -29895   -29921   -29916   -29889 
  -29844   -29797   -29748   -29697   -29648   -29602   -29554   -29508 
  -29469   -29443   -29434   -29438   -29458   -29496   -29548   -29616 
  -29695   -29776   -29859   -29940   -30007   -30051   -30071   -30064 
  -30019   -29944   -29852   -29747   -29637   -29539   -29458   -29394 
  -29361   -29355   -29366   -29396   -29443   -29498   -29555   -29613 
  -29670   -29718   -29755   -29783   -29812   -29836   -29856   -29867 
  -29856   -29821   -29774   -29718   -29662   -29619   -29589   -29571 
  -29563   -29560   -29562   -29574   -29596   -29619   -29637   -29654 
  -29674   -29697   -29714   -29721   -29714   -29691   -29651   -29598 
  -29531   -29461   -29401   -29358   -29339   -29351   -29385   -29434 
  -29502   -29589   -29683   -29782   -29879   -29964   -30029   -30069 
  -30086   -30073   -30032   -29961   -29866   -29752   -29631   -29509 
  -29397   -29305   -29239   -29207   -29203   -29223   -29269   -29342 
  -29435   -29544   -29662   -29764   -29843   -29898   -29926   -29933 
  -29922   -29897   -29856   -29812   -29768   -29725   -29690   -29667 
  -29656   -29647   -29629   -29609   -29587   -29566   -29554   -29552 
  -29551   -29558   -29573   -29590   -29609   -29637   -29674   -29718 
  -29768   -29816   -29849   -29863   -29857   -29836   -29798   -29752 
  -29694   -29629   -29574   -29536   -29523   -29540   -29579   -29633 
  -29695   -29755   -29806   -29841   -29860   -29860   -29847   -29818 
  -29774   -29716   -29639   -29555   -29485   -29425   -29385   -29367 
  -29366   -29381   -29419   -29473   -29539   -29616   -29704   -29801 
  -29895   -29976   -30029   -30048   -30037   -29997   -29930   -29845 
  -29745   -29632   -29520   -29423   -29346   -29300   -29289   -29311 
  -29367   -29448   -29543   -29640   -29737   -29829   -29903   -29951 
  -29965   -29953   -29909   -29847   -29778   -29702   -29632   -29571 
  -29521   -29484   -29462   -29455   -29461   -29475   -29502   -29540 
  -29590   -29647   -29713   -29783   -29851   -29907   -29940   -29944 
  -29925   -29890   -29840   -29778   -29700   -29619   -29547   -29493 
  -29458   -29438   -29436   -29455   -29490   -29538   -29608   -29694 
  -29787   -29878   -29943   -29965   -29952   -29905   -29833   -29751 
  -29664   -29577   -29493   -29417   -29363   -29340   -29349   -29384 
  -29440   -29512   -29589   -29670   -29754   -29839   -29918   -29984 
  -30026   -30034   -30011   -29955   -29878   -29790   -29689   -29590 
  -29505   -29438   -29392   -29363   -29347   -29350   -29381   -29435 
  -29501   -29569   -29639   -29705   -29758   -29790   -29808   -29813 
  -29801   -29774   -29736   -29691   -29641   -29594   -29559   -29540 
  -29540   -29556   -29586   -29632   -29691   -29751   -29803   -29849 
  -29887   -29920   -29945   -29960   -29957   -29941   -29914   -29868 
  -29802   -29728   -29648   -29567   -29500   -29450   -29421   -29420 
  -29447   -29497   -29559   -29628   -29702   -29772   -29825   -29860 
  -29878   -29878   -29855   -29810   -29756   -29695   -29628   -29560 
  -29497   -29443   -29400   -29363   -29336   -29332   -29349   -29385 
  -29439   -29509   -29581   -29651   -29716   -29767   -29808   -29839 
  -29849   -29843   -29822   -29790   -29748   -29693   -29624   -29554 
  -29488   -29432   -29400   -29390   -29401   -29434   -29486   -29560 
  -29643   -29725   -29806   -29871   -29913   -29936   -29933   -29906 
  -29860   -29801   -29732   -29662   -29593   -29523   -29454   -29401 
  -29377   -29380   -29409   -29467   -29546   -29639   -29745   -29855 
  -29953   -30038   -30103   -30142   -30163   -30165   -30144   -30094 
  -30019   -29930   -29830   -29724   -29620   -29532   -29466   -29420 
  -29393   -29389   -29415   -29469   -29538   -29616   -29704   -29783 
  -29847   -29891   -29914   -29920   -29909   -29889   -29862   -29822 
  -29772   -29713   -29646   -29587   -29548   -29521   -29502   -29498 
  -29501   -29505   -29515   -29529   -29542   -29550   -29560   -29574 
  -29586   -29600   -29616   -29636   -29655   -29674   -29694   -29708 
  -29714   -29714   -29701   -29675   -29636   -29593   -29552   -29521 
  -29506   -29509   -29529   -29574   -29640   -29716   -29789   -29855 
  -29909   -29941   -29953   -29943   -29902   -29835   -29747   -29647 
  -29546   -29447   -29365   -29309   -29282   -29286   -29332   -29412 
  -29508   -29608   -29706   -29794   -29864   -29914   -29940   -29933 
  -29901   -29853   -29795   -29729   -29664   -29608   -29569   -29555 
  -29559   -29579   -29621   -29673   -29717   -29752   -29781   -29798 
  -29803   -29798   -29772   -29736   -29691   -29639   -29586   -29539 
  -29493   -29458   -29440   -29438   -29447   -29469   -29496   -29528 
  -29567   -29606   -29648   -29690   -29717   -29733   -29745   -29748 
  -29741   -29731   -29710   -29678   -29644   -29613   -29586   -29570 
  -29566   -29575   -29597   -29631   -29671   -29712   -29749   -29779 
  -29799   -29805   -29791   -29767   -29737   -29701   -29659   -29616 
  -29578   -29550   -29528   -29516   -29516   -29525   -29538   -29546 
  -29558   -29573   -29585   -29597   -29617   -29643   -29670   -29695 
  -29728   -29766   -29801   -29832   -29856   -29871   -29875   -29870 
  -29857   -29841   -29820   -29787   -29748   -29710   -29675   -29647 
  -29627   -29619   -29627   -29640   -29659   -29678   -29689   -29689 
  -29678   -29664   -29644   -29609   -29565   -29524   -29488   -29459 
  -29442   -29431   -29436   -29459   -29498   -29552   -29613   -29668 
  -29722   -29772   -29805   -29822   -29830   -29814   -29783   -29754 
  -29721   -29686   -29654   -29625   -29597   -29574   -29565   -29567 
  -29578   -29604   -29636   -29670   -29713   -29763   -29810   -29847 
  -29868   -29879   -29876   -29860   -29839   -29803   -29751   -29694 
  -29636   -29581   -29533   -29498   -29479   -29482   -29501   -29532 
  -29567   -29606   -29643   -29673   -29693   -29709   -29718   -29721 
  -29721   -29716   -29712   -29713   -29712   -29706   -29701   -29698 
  -29694   -29687   -29682   -29675   -29660   -29646   -29637   -29636 
  -29633   -29637   -29654   -29675   -29702   -29735   -29758   -29772 
  -29785   -29797   -29802   -29795   -29778   -29745   -29705   -29673 
  -29643   -29608   -29571   -29535   -29498   -29470   -29454   -29442 
  -29443   -29462   -29489   -29525   -29573   -29621   -29667   -29705 
  -29739   -29771   -29801   -29818   -29824   -29826   -29826   -29822 
  -29821   -29825   -29828   -29829   -29828   -29825   -29820   -29806 
  -29787   -29768   -29748   -29725   -29700   -29681   -29664   -29650 
  -29639   -29637   -29639   -29640   -29643   -29643   -29648   -29660 
  -29675   -29690   -29701   -29714   -29727   -29732   -29743   -29749 
  -29743   -29731   -29710   -29683   -29658   -29631   -29606   -29593 
  -29587   -29587   -29593   -29608   -29631   -29652   -29677   -29709 
  -29741   -29763   -29778   -29789   -29783   -29764   -29739   -29700 
  -29654   -29610   -29563   -29512   -29469   -29434   -29407   -29394 
  -29403   -29425   -29459   -29509   -29569   -29624   -29675   -29720 
  -29752   -29775   -29785   -29782   -29770   -29749   -29724   -29698 
  -29673   -29646   -29617   -29592   -29574   -29565   -29558   -29550 
  -29543   -29540   -29543   -29550   -29559   -29569   -29575   -29575 
  -29577   -29581   -29582   -29581   -29582   -29582   -29571   -29563 
  -29562   -29558   -29555   -29555   -29559   -29574   -29594   -29613 
  -29636   -29666   -29691   -29713   -29729   -29740   -29749   -29745 
  -29728   -29713   -29702   -29686   -29681   -29687   -29700   -29718 
  -29740   -29762   -29786   -29808   -29825   -29837   -29845   -29844 
  -29830   -29806   -29778   -29745   -29712   -29681   -29655   -29633 
  -29613   -29600   -29597   -29594   -29590   -29586   -29581   -29582 
  -29586   -29594   -29612   -29635   -29656   -29685   -29714   -29740 
  -29767   -29797   -29818   -29835   -29848   -29852   -29844   -29828 
  -29802   -29771   -29733   -29691   -29651   -29617   -29590   -29571 
  -29556   -29552   -29555   -29558   -29567   -29587   -29606   -29625 
  -29652   -29679   -29700   -29721   -29741   -29760   -29781   -29794 
  -29801   -29803   -29802   -29798   -29791   -29786   -29779   -29767 
  -29745   -29720   -29695   -29674   -29652   -29633   -29617   -29608 
  -29604   -29605   -29610   -29616   -29624   -29632   -29641   -29651 
  -29656   -29651   -29639   -29624   -29606   -29596   -29589   -29587 
  -29597   -29608   -29619   -29635   -29648   -29655   -29662   -29670 
  -29674   -29675   -29675   -29666   -29651   -29641   -29637   -29627 
  -29620   -29621   -29620   -29620   -29625   -29624   -29620   -29620 
  -29625   -29631   -29640   -29652   -29664   -29677   -29687   -29695 
  -29698   -29695   -29689   -29678   -29674   -29670   -29666   -29666 
  -29666   -29670   -29678   -29687   -29697   -29709   -29710   -29704 
  -29694   -29678   -29654   -29628   -29609   -29601   -29602   -29608 
  -29623   -29648   -29677   -29700   -29724   -29745   -29762   -29771 
  -29770   -29759   -29741   -29717   -29686   -29654   -29621   -29589 
  -29559   -29531   -29506   -29494   -29496   -29508   -29532   -29560 
  -29596   -29639   -29682   -29722   -29764   -29803   -29837   -29863 
  -29876   -29880   -29880   -29876   -29870   -29859   -29844   -29822 
  -29799   -29775   -29752   -29731   -29712   -29694   -29678   -29663 
