Origin Time       2025/03/29 04:45:00
Lat.              31.090
Long.             131.512
Depth. (km)       33
Mag.              4.6
Station Code      MYZH11
Station Lat.      32.0208
Station Long.     131.4700
Station Height(m) 12
Record Time       2025/03/29 04:45:49
Sampling Freq(Hz) 100Hz
Duration Time(s)  120
Dir.              4
Scale Factor      7845(gal)/8223790
Max. Acc. (gal)   1.456
Last Correction   2025/03/29 04:45:49
Memo.             
[...]
    1819     1848     1865     1880     1894     1900     1891     1861 
    1818     1769     1725     1687     1655     1621     1587     1563 
    1549     1547     1559     1570     1566     1559     1556     1560 
    1590     1638     1687     1726     1748     1756     1761     1767 
    1772     1772     1768     1759     1741     1709     1663     1614 
    1571     1544     1536     1549     1579     1621     1660     1680 
    1682     1683     1694     1715     1741     1760     1763     1748 
    1728     1702     1667     1632     1601     1576     1567     1567 
    1571     1568     1564     1571     1590     1611     1634     1652 
    1665     1682     1705     1729     1741     1740     1725     1713 
    1719     1736     1756     1779     1790     1788     1780     1759 
    1725     1680     1632     1590     1568     1580     1620     1676 
    1738     1788     1811     1815     1791     1742     1690     1629 
    1566     1513     1476     1468     1493     1537     1588     1632 
    1659     1678     1688     1702     1717     1729     1736     1742 
    1748     1750     1752     1749     1741     1728     1706     1682 
    1663     1660     1676     1696     1707     1703     1688     1668 
    1655     1653     1655     1653     1659     1671     1682     1684 
    1680     1671     1660     1652     1647     1640     1636     1634 
    1630     1624     1618     1617     1622     1636     1648     1651 
    1645     1638     1634     1636     1638     1634     1625     1618 
    1611     1606     1609     1622     1648     1682     1732     1786 
    1826     1849     1856     1854     1856     1856     1845     1811 
    1750     1674     1599     1537     1494     1467     1462     1472 
    1501     1549     1601     1642     1690     1732     1756     1764 
    1755     1736     1726     1733     1755     1783     1803     1800 
    1771     1726     1667     1603     1563     1551     1557     1578 
    1598     1606     1606     1602     1597     1603     1621     1636 
    1637     1622     1599     1578     1568     1575     1597     1634 
    1690     1744     1773     1776     1764     1752     1742     1738 
    1736     1730     1728     1741     1767     1792     1806     1806 
    1806     1807     1800     1786     1767     1742     1709     1671 
    1630     1588     1544     1499     1460     1426     1395     1382 
    1401     1447     1505     1552     1580     1587     1579     1564 
    1548     1547     1570     1614     1680     1756     1829     1904 
    1977     2031     2064     2074     2061     2027     1969     1895 
    1818     1749     1691     1640     1586     1537     1502     1479 
    1472     1482     1497     1509     1516     1518     1530     1549 
    1572     1593     1598     1582     1547     1520     1524     1557 
    1614     1686     1756     1814     1861     1903     1931     1945 
    1945     1933     1911     1879     1827     1764     1706     1660 
    1625     1597     1570     1530     1485     1448     1428     1428 
    1444     1474     1507     1534     1563     1601     1638     1669 
    1698     1722     1750     1783     1817     1846     1867     1880 
    1879     1864     1842     1809     1773     1737     1691     1645 
    1602     1563     1536     1525     1525     1533     1541     1552 
    1568     1586     1602     1620     1641     1657     1672     1694 
    1711     1722     1734     1741     1742     1741     1738     1742 
    1752     1759     1764     1760     1745     1726     1711     1702 
    1695     1695     1691     1674     1649     1640     1648     1668 
    1695     1725     1741     1738     1713     1661     1599     1541 
    1493     1458     1435     1420     1414     1413     1418     1436 
    1462     1505     1567     1648     1752     1865     1960     2029 
    2064     2058     2023     1976     1927     1879     1827     1773 
    1722     1678     1641     1607     1567     1530     1506     1493 
    1493     1510     1534     1560     1579     1578     1563     1551 
    1545     1549     1566     1588     1615     1648     1679     1699 
    1711     1719     1732     1750     1776     1807     1830     1842 
    1845     1830     1800     1761     1714     1671     1634     1601 
    1575     1556     1532     1512     1503     1509     1534     1576 
    1622     1674     1726     1773     1814     1848     1875     1887 
    1881     1860     1825     1780     1734     1698     1672     1653 
    1645     1642     1637     1630     1625     1613     1595     1567 
    1534     1510     1494     1493     1505     1521     1536     1547 
    1555     1566     1590     1621     1659     1699     1722     1721 
    1711     1707     1702     1706     1723     1746     1777     1814 
    1844     1864     1879     1880     1861     1833     1800     1768 
    1741     1726     1717     1706     1688     1659     1622     1580 
    1536     1495     1471     1456     1448     1449     1459     1475 
    1503     1548     1602     1659     1717     1772     1815     1846 
    1858     1858     1856     1842     1817     1795     1775     1752 
    1732     1707     1686     1668     1656     1655     1659     1659 
    1649     1628     1598     1567     1541     1518     1498     1495 
    1514     1548     1586     1622     1659     1698     1737     1767 
    1786     1796     1799     1791     1773     1749     1718     1684 
    1657     1638     1626     1628     1638     1649     1659     1664 
    1657     1641     1633     1629     1625     1624     1625     1629 
    1633     1633     1629     1624     1617     1626     1653     1692 
    1737     1776     1800     1806     1794     1773     1756     1742 
    1732     1719     1711     1706     1695     1680     1668     1656 
    1642     1630     1617     1605     1606     1621     1641     1659 
    1667     1657     1634     1606     1582     1568     1571     1583 
    1599     1620     1647     1676     1709     1745     1777     1803 
    1825     1838     1844     1838     1829     1815     1795     1775 
    1760     1745     1729     1713     1691     1660     1621     1574 
    1525     1482     1451     1429     1425     1448     1489     1534 
    1575     1606     1638     1675     1710     1737     1748     1746 
    1741     1740     1752     1775     1802     1834     1867     1895 
    1907     1894     1860     1813     1759     1709     1661     1614 
    1578     1555     1545     1552     1575     1599     1621     1637 
    1633     1609     1578     1540     1506     1486     1474     1460 
    1445     1436     1428     1421     1422     1439     1467     1509 
    1561     1615     1668     1711     1741     1755     1755     1755 
    1753     1749     1749     1755     1761     1769     1780     1794 
    1809     1814     1804     1782     1756     1734     1725     1726 
    1737     1750     1760     1763     1767     1775     1791     1815 
    1837     1853     1858     1842     1806     1760     1714     1680 
    1663     1652     1638     1622     1610     1603     1598     1597 
    1598     1595     1584     1566     1547     1530     1522     1526 
    1537     1540     1526     1498     1453     1402     1359     1332 
    1333     1366     1426     1503     1594     1686     1771     1842 
    1895     1931     1957     1971     1971     1964     1948     1917 
    1883     1856     1846     1864     1895     1927     1946     1937 
    1898     1845     1795     1749     1713     1688     1669     1660 
    1663     1674     1696     1741     1802     1863     1919     1957 
    1964     1949     1917     1865     1800     1722     1634     1543 
    1456     1386     1340     1312     1296     1289     1290     1310 
    1355     1422     1513     1611     1702     1772     1814     1823 
    1806     1767     1706     1633     1555     1478     1416     1389 
    1387     1399     1420     1435     1439     1447     1470     1507 
    1553     1598     1633     1665     1690     1703     1699     1680 
    1645     1606     1570     1536     1516     1510     1516     1525 
    1537     1552     1580     1624     1679     1741     1794     1836 
    1875     1898     1896     1883     1860     1823     1784     1748 
    1718     1699     1687     1678     1679     1679     1676     1678 
    1675     1668     1663     1648     1636     1641     1659     1675 
    1684     1678     1656     1626     1599     1590     1599     1613 
    1638     1668     1682     1683     1672     1649     1632     1624 
    1629     1656     1692     1730     1767     1794     1810     1818 
    1818     1827     1860     1907     1958     2011     2061     2096 
    2108     2097     2062     2008     1945     1884     1833     1792 
    1769     1756     1729     1687     1633     1564     1494     1431 
    1379     1347     1328     1325     1351     1401     1463     1533 
    1610     1682     1732     1753     1757     1760     1768     1782 
    1796     1795     1772     1728     1660     1575     1483     1397 
    1325     1278     1264     1278     1313     1366     1418     1468 
    1517     1570     1636     1722     1821     1911     1977     2008 
    2007     1979     1934     1881     1827     1780     1741     1715 
    1691     1645     1579     1498     1406     1327     1279     1263 
    1275     1316     1381     1471     1582     1698     1814     1921 
    2003     2057     2079     2061     2019     1964     1900     1844 
    1795     1746     1699     1656     1622     1606     1611     1636 
    1678     1723     1757     1776     1782     1779     1779     1786 
    1791     1783     1755     1713     1665     1611     1555     1499 
    1447     1395     1343     1300     1269     1244     1227     1215 
    1205     1198     1209     1247     1313     1405     1514     1632 
    1745     1845     1927     1992     2039     2066     2077     2084 
    2093     2111     2138     2162     2174     2162     2123     2066 
    2010     1964     1926     1887     1833     1750     1642     1525 
    1413     1321     1250     1194     1156     1140     1144     1165 
    1204     1251     1306     1371     1435     1498     1574     1656 
    1748     1850     1958     2057     2134     2170     2158     2108 
    2042     1976     1917     1872     1850     1845     1852     1865 
    1869     1845     1795     1728     1644     1552     1464     1389 
    1337     1317     1327     1360     1410     1466     1522     1575 
    1613     1638     1660     1676     1684     1672     1637     1590 
    1543     1518     1533     1580     1648     1725     1799     1869 
    1938     2000     2049     2076     2077     2052     2007     1954 
    1904     1858     1813     1763     1703     1640     1580     1534 
    1506     1490     1494     1514     1543     1575     1611     1648 
    1679     1694     1688     1669     1652     1638     1629     1624 
    1617     1605     1590     1576     1561     1545     1528     1509 
    1491     1463     1418     1366     1314     1273     1239     1216 
    1209     1216     1244     1300     1370     1448     1526     1593 
    1659     1740     1826     1912     1996     2073     2141     2189 
    2209     2201     2168     2122     2070     2011     1937     1846 
    1749     1655     1567     1485     1410     1343     1289     1244 
    1219     1227     1275     1358     1466     1588     1706     1807 
    1896     1973     2038     2089     2122     2133     2126     2099 
    2056     2008     1962     1930     1912     1904     1902     1903 
    1911     1922     1911     1860     1768     1641     1497     1358 
    1239     1143     1073     1031     1021     1047     1104     1188 
    1296     1410     1516     1610     1676     1703     1698     1676 
    1655     1644     1651     1675     1710     1749     1788     1827 
    1860     1883     1898     1914     1939     1966     1993     2022 
    2049     2066     2069     2056     2023     1983     1948     1919 
    1895     1872     1834     1771     1683     1583     1483     1390 
    1302     1227     1183     1175     1209     1290     1399     1516 
    1630     1736     1826     1914     1991     2047     2085     2103 
    2087     2035     1953     1844     1709     1552     1383     1221 
    1082      978      915      893      907      943      999     1067 
    1147     1239     1339     1440     1539     1629     1706     1767 
    1815     1856     1898     1950     2012     2070     2115     2142 
    2155     2157     2157     2154     2133     2084     2000     1875 
    1711     1532     1355     1202     1093     1031     1009     1028 
    1086     1179     1296     1417     1528     1615     1680     1740 
    1796     1852     1907     1962     2011     2046     2064     2068 
    2060     2046     2029     2003     1966     1919     1860     1798 
    1741     1683     1621     1556     1486     1409     1350     1316 
    1308     1328     1366     1409     1453     1498     1544     1595 
    1653     1715     1782     1842     1885     1919     1957     2003 
    2053     2103     2147     2174     2178     2168     2150     2127 
    2093     2047     1987     1911     1819     1715     1599     1479 
    1366     1262     1177     1111     1055     1007      959      915 
     870      824      793      784      793      828      888      976 
    1107     1285     1505     1759     2029     2293     2529     2731 
    2903     3041     3144     3198     3191     3123     2999     2825 
    2619     2394     2176     1973     1786     1614     1459     1317 
    1193     1096     1027      982      958      954      970     1007 
    1073     1161     1258     1368     1490     1618     1760     1899 
    2025     2118     2170     2193     2180     2128     2045     1922 
    1757     1567     1371     1188     1030      905      812      745 
     703      689      706      758      847      965     1097     1239 
    1397     1571     1753     1934     2110     2266     2389     2482 
    2551     2604     2637     2641     2620     2574     2500     2401 
    2280     2145     2006     1861     1719     1578     1440     1313 
    1192     1071      954      839      735      654      603      577 
     577      615      687      795      949     1135     1332     1540 
    1756     1972     2187     2382     2544     2675     2771     2825 
    2845     2844     2828     2805     2779     2751     2714     2663 
    2592     2509     2419     2320     2214     2100     1969     1811 
    1632     1437     1246     1070      920      805      719      652 
     598      558      537      533      553      599      658      727 
     796      864      934     1009     1102     1215     1337     1483 
    1651     1825     1998     2161     2299     2416     2516     2590 
    2637     2652     2631     2582     2512     2416     2301     2182 
    2068     1966     1880     1799     1719     1644     1576     1522 
    1486     1470     1468     1470     1459     1428     1370     1289 
    1193     1078      955      849      776      746      770      843 
     953     1093     1250     1416     1579     1723     1844     1957 
    2066     2168     2253     2311     2336     2327     2285     2223 
    2157     2100     2054     2012     1960     1884     1788     1678 
    1566     1463     1381     1321     1277     1231     1182     1136 
    1089     1050     1027     1016     1009     1009     1024     1065 
    1143     1266     1428     1613     1818     2042     2272     2489 
    2685     2848     2971     3049     3078     3059     2998     2889 
    2731     2536     2309     2056     1786     1513     1247     1003 
     789      604      453      351      303      305      353      448 
     581      742      922     1116     1314     1506     1691     1857 
    1995     2097     2168     2214     2241     2257     2269     2269 
    2251     2222     2182     2142     2107     2079     2058     2039 
    2008     1962     1906     1834     1746     1659     1579     1505 
    1440     1382     1333     1294     1269     1266     1282     1318 
    1374     1444     1520     1593     1657     1722     1776     1815 
    1842     1860     1869     1875     1872     1865     1860     1853 
    1844     1831     1819     1806     1790     1779     1769     1761 
    1760     1763     1767     1771     1767     1757     1746     1736 
    1719     1699     1679     1661     1655     1665     1675     1679 
    1679     1665     1634     1594     1552     1514     1485     1464 
    1448     1428     1405     1386     1378     1386     1408     1443 
    1493     1553     1617     1686     1755     1831     1925     2019 
    2106     2174     2220     2257     2290     2316     2326     2313 
    2265     2184     2079     1956     1826     1701     1579     1462 
    1354     1256     1178     1125     1105     1109     1131     1167 
    1215     1271     1344     1437     1551     1672     1796     1908 
    1998     2061     2103     2126     2134     2123     2089     2037 
    1973     1902     1826     1750     1678     1601     1528     1460 
    1399     1351     1321     1306     1304     1306     1314     1324 
    1327     1323     1313     1298     1285     1281     1278     1277 
    1286     1309     1345     1398     1466     1547     1637     1728 
    1817     1910     1996     2065     2114     2141     2137     2099 
    2038     1964     1883     1794     1703     1618     1543     1472 
    1409     1355     1310     1281     1270     1273     1287     1313 
    1348     1390     1444     1514     1593     1678     1769     1865 
    1956     2033     2095     2135     2157     2161     2137     2088 
    2018     1922     1807     1683     1557     1433     1318     1223 
    1159     1129     1131     1165     1233     1337     1462     1580 
    1694     1794     1885     1975     2061     2142     2211     2250 
    2266     2262     2239     2203     2162     2122     2074     2018 
    1956     1885     1807     1732     1660     1578     1483     1386 
    1290     1204     1129     1070     1024      992      974      976 
    1004     1053     1124     1228     1355     1493     1630     1759 
    1869     1958     2027     2083     2127     2164     2188     2199 
    2195     2176     2145     2097     2033     1960     1887     1818 
    1759     1705     1652     1607     1578     1557     1559     1583 
    1620     1660     1695     1713     1714     1698     1669     1634 
    1598     1557     1518     1482     1448     1422     1406     1395 
    1401     1425     1463     1514     1578     1641     1701     1752 
    1788     1804     1802     1788     1761     1726     1683     1629 
    1570     1516     1472     1439     1424     1431     1447     1472 
    1521     1584     1652     1725     1796     1864     1923     1973 
    2015     2053     2083     2100     2106     2096     2068     2022 
    1965     1906     1849     1796     1741     1687     1642     1607 
    1576     1553     1534     1516     1495     1470     1437     1406 
    1377     1343     1309     1278     1244     1213     1186     1169 
    1170     1193     1228     1281     1345     1420     1503     1598 
    1696     1792     1880     1948     1992     2023     2046     2056 
