Origin Time       2025/03/29 04:45:00
Lat.              31.090
Long.             131.512
Depth. (km)       33
Mag.              4.6
Station Code      MYZH13
Station Lat.      31.7301
Station Long.     131.0791
Station Height(m) 152
Record Time       2025/03/29 04:45:34
Sampling Freq(Hz) 100Hz
Duration Time(s)  120
Dir.              6
Scale Factor      7845(gal)/8223790
Max. Acc. (gal)   1.409
Last Correction   2025/03/29 04:45:34
Memo.             
   -5019    -5017    -5020    -5019    -5017    -5019    -5017    -5015 
   -5016    -5013    -5008    -5012    -5017    -5019    -5019    -5017 
   -5013    -5012    -5015    -5019    -5020    -5020    -5023    -5023 
   -5020    -5022    -5017    -5015    -5022    -5023    -5023    -5022 
   -5017    -5017    -5019    -5013    -5011    -5013    -5016    -5016 
   -5016    -5019    -5019    -5016    -5015    -5016    -5019    -5023 
   -5020    -5019    -5023    -5023    -5017    -5015    -5016    -5019 
   -5016    -5013    -5016    -5017    -5017    -5017    -5015    -5012 
   -5013    -5016    -5017    -5020    -5020    -5016    -5015    -5017 
   -5016    -5015    -5020    -5023    -5022    -5022    -5017    -5016 
   -5019    -5015    -5015    -5020    -5019    -5016    -5017    -5019 
   -5015    -5013    -5016    -5017    -5016    -5015    -5013    -5015 
   -5015    -5017    -5022    -5020    -5016    -5017    -5019    -5022 
   -5023    -5019    -5016    -5020    -5020    -5019    -5019    -5016 
   -5015    -5015    -5013    -5017    -5022    -5020    -5019    -5017 
   -5015    -5017    -5020    -5020    -5019    -5020    -5019    -5017 
   -5017    -5015    -5019    -5024    -5022    -5017    -5016    -5015 
   -5015    -5015    -5017    -5023    -5023    -5022    -5019    -5016 
   -5015    -5016    -5017    -5020    -5020    -5019    -5019    -5013 
   -5012    -5017    -5017    -5017    -5016    -5015    -5013    -5017 
   -5022    -5023    -5022    -5020    -5017    -5016    -5019    -5020 
   -5019    -5017    -5019    -5017    -5016    -5017    -5019    -5016 
   -5013    -5015    -5016    -5020    -5020    -5013    -5013    -5016 
   -5015    -5015    -5017    -5022    -5023    -5019    -5016    -5015 
   -5015    -5015    -5016    -5022    -5024    -5023    -5020    -5019 
   -5019    -5019    -5017    -5015    -5015    -5017    -5020    -5020 
   -5013    -5011    -5012    -5016    -5016    -5017    -5020    -5019 
   -5017    -5017    -5016    -5017    -5022    -5020    -5019    -5017 
   -5015    -5015    -5019    -5017    -5017    -5020    -5022    -5020 
   -5020    -5019    -5017    -5016    -5015    -5016    -5016    -5015 
   -5019    -5023    -5020    -5020    -5020    -5017    -5019    -5020 
   -5022    -5026    -5023    -5017    -5019    -5019    -5019    -5017 
   -5015    -5016    -5017    -5020    -5020    -5020    -5019    -5016 
   -5016    -5017    -5019    -5020    -5022    -5019    -5017    -5019 
   -5015    -5012    -5016    -5020    -5020    -5023    -5026    -5022 
   -5019    -5016    -5015    -5017    -5020    -5017    -5020    -5019 
   -5015    -5015    -5016    -5017    -5019    -5016    -5016    -5019 
   -5019    -5017    -5017    -5017    -5019    -5017    -5016    -5020 
   -5023    -5020    -5022    -5022    -5017    -5019    -5019    -5019 
   -5020    -5017    -5019    -5019    -5017    -5017    -5017    -5013 
   -5013    -5015    -5012    -5013    -5017    -5017    -5017    -5019 
   -5019    -5016    -5020    -5023    -5022    -5020    -5020    -5017 
   -5019    -5022    -5019    -5015    -5016    -5019    -5019    -5016 
   -5012    -5012    -5017    -5019    -5017    -5017    -5017    -5019 
   -5017    -5016    -5019    -5022    -5020    -5019    -5019    -5016 
   -5015    -5016    -5019    -5019    -5019    -5020    -5020    -5019 
   -5016    -5017    -5020    -5020    -5017    -5016    -5017    -5016 
   -5015    -5016    -5017    -5019    -5020    -5020    -5017    -5016 
   -5019    -5017    -5016    -5017    -5019    -5016    -5013    -5015 
   -5019    -5020    -5016    -5013    -5016    -5017    -5019    -5020 
   -5017    -5017    -5020    -5017    -5015    -5017    -5020    -5020 
   -5019    -5015    -5013    -5016    -5019    -5019    -5020    -5020 
   -5016    -5015    -5015    -5013    -5019    -5020    -5020    -5019 
   -5016    -5015    -5016    -5017    -5022    -5020    -5017    -5017 
   -5017    -5017    -5020    -5020    -5019    -5019    -5017    -5016 
   -5020    -5020    -5017    -5019    -5017    -5017    -5022    -5020 
   -5017    -5017    -5017    -5017    -5015    -5015    -5019    -5022 
   -5019    -5017    -5017    -5016    -5015    -5019    -5023    -5020 
   -5019    -5019    -5015    -5013    -5017    -5017    -5019    -5022 
   -5022    -5017    -5013    -5017    -5022    -5022    -5019    -5017 
   -5017    -5017    -5015    -5013    -5019    -5019    -5015    -5017 
   -5020    -5020    -5020    -5019    -5015    -5016    -5020    -5023 
   -5026    -5022    -5015    -5015    -5017    -5017    -5019    -5019 
   -5019    -5020    -5019    -5016    -5013    -5015    -5016    -5016 
   -5017    -5020    -5022    -5023    -5020    -5016    -5016    -5016 
   -5017    -5020    -5019    -5020    -5020    -5019    -5019    -5017 
   -5016    -5017    -5019    -5017    -5017    -5019    -5019    -5017 
   -5015    -5015    -5019    -5019    -5017    -5019    -5019    -5019 
   -5020    -5020    -5019    -5017    -5016    -5017    -5023    -5026 
   -5024    -5020    -5015    -5015    -5015    -5015    -5017    -5019 
   -5020    -5019    -5017    -5016    -5015    -5015    -5017    -5020 
   -5022    -5022    -5023    -5019    -5016    -5017    -5020    -5022 
   -5023    -5022    -5020    -5017    -5015    -5017    -5019    -5019 
   -5017    -5015    -5015    -5017    -5016    -5016    -5016    -5017 
   -5017    -5015    -5016    -5019    -5022    -5023    -5020    -5019 
   -5019    -5017    -5017    -5020    -5022    -5020    -5020    -5022 
   -5019    -5016    -5017    -5019    -5019    -5017    -5016    -5016 
   -5016    -5016    -5017    -5017    -5017    -5017    -5017    -5019 
   -5020    -5022    -5020    -5019    -5017    -5013    -5013    -5013 
   -5016    -5020    -5022    -5019    -5016    -5019    -5020    -5019 
   -5019    -5017    -5016    -5015    -5015    -5017    -5019    -5020 
   -5016    -5015    -5017    -5017    -5017    -5019    -5019    -5020 
   -5017    -5016    -5017    -5019    -5017    -5017    -5017    -5019 
   -5017    -5020    -5023    -5017    -5016    -5019    -5019    -5020 
   -5019    -5013    -5016    -5019    -5016    -5016    -5016    -5016 
   -5016    -5020    -5020    -5016    -5017    -5017    -5016    -5019 
   -5020    -5022    -5022    -5017    -5017    -5019    -5019    -5019 
   -5017    -5017    -5019    -5016    -5012    -5013    -5016    -5013 
   -5013    -5020    -5022    -5019    -5019    -5020    -5020    -5019 
   -5019    -5017    -5016    -5016    -5017    -5022    -5023    -5017 
   -5016    -5020    -5019    -5020    -5022    -5019    -5017    -5019 
   -5019    -5017    -5016    -5016    -5015    -5013    -5015    -5017 
   -5019    -5017    -5016    -5016    -5017    -5016    -5016    -5016 
   -5017    -5015    -5019    -5022    -5020    -5020    -5020    -5017 
   -5019    -5020    -5020    -5020    -5019    -5019    -5016    -5015 
   -5017    -5020    -5020    -5022    -5016    -5013    -5017    -5016 
   -5013    -5016    -5019    -5022    -5022    -5017    -5015    -5016 
   -5015    -5017    -5022    -5022    -5022    -5020    -5019    -5017 
   -5017    -5017    -5020    -5020    -5019    -5020    -5020    -5017 
   -5017    -5016    -5015    -5016    -5016    -5017    -5017    -5015 
   -5017    -5020    -5016    -5016    -5017    -5016    -5019    -5020 
   -5016    -5019    -5023    -5022    -5019    -5019    -5017    -5016 
   -5016    -5016    -5019    -5017    -5019    -5019    -5015    -5015 
   -5013    -5012    -5016    -5020    -5017    -5019    -5019    -5016 
   -5017    -5015    -5013    -5019    -5020    -5017    -5016    -5015 
   -5012    -5013    -5017    -5019    -5019    -5020    -5020    -5019 
   -5017    -5017    -5019    -5020    -5019    -5017    -5019    -5017 
   -5019    -5023    -5024    -5020    -5016    -5011    -5009    -5012 
   -5017    -5017    -5019    -5020    -5015    -5015    -5017    -5016 
   -5016    -5022    -5022    -5020    -5019    -5019    -5019    -5015 
   -5016    -5019    -5019    -5020    -5019    -5016    -5019    -5017 
   -5015    -5015    -5016    -5020    -5020    -5017    -5016    -5017 
   -5016    -5013    -5016    -5019    -5020    -5019    -5019    -5016 
   -5016    -5017    -5016    -5017    -5019    -5019    -5020    -5019 
   -5020    -5020    -5016    -5015    -5016    -5017    -5017    -5017 
   -5019    -5017    -5016    -5016    -5019    -5019    -5019    -5020 
   -5020    -5016    -5016    -5020    -5024    -5020    -5015    -5015 
   -5016    -5016    -5017    -5020    -5022    -5020    -5019    -5017 
   -5020    -5019    -5015    -5016    -5019    -5019    -5019    -5017 
   -5013    -5013    -5013    -5013    -5017    -5020    -5020    -5022 
   -5020    -5017    -5019    -5019    -5019    -5022    -5023    -5022 
   -5020    -5017    -5017    -5019    -5016    -5015    -5020    -5022 
   -5017    -5019    -5017    -5016    -5019    -5019    -5019    -5019 
   -5017    -5019    -5022    -5019    -5016    -5016    -5017    -5020 
   -5019    -5020    -5020    -5016    -5015    -5016    -5017    -5019 
   -5017    -5015    -5015    -5016    -5015    -5013    -5017    -5020 
   -5015    -5013    -5017    -5020    -5016    -5013    -5017    -5020 
   -5020    -5022    -5020    -5019    -5022    -5019    -5015    -5016 
   -5017    -5020    -5022    -5019    -5017    -5016    -5016    -5015 
   -5017    -5023    -5020    -5016    -5019    -5017    -5015    -5017 
   -5019    -5020    -5031    -5036    -5030    -5023    -5017    -5013 
   -5016    -5022    -5027    -5035    -5034    -5026    -5017    -5008 
   -5004    -5004    -5000    -4990    -4974    -4955    -4936    -4926 
   -4928    -4942    -4963    -4989    -5022    -5057    -5084    -5096 
   -5085    -5054    -5016    -4988    -4982    -4997    -5022    -5047 
   -5070    -5098    -5130    -5142    -5119    -5059    -5003    -4997 
   -5057    -5146    -5208    -5201    -5124    -5009    -4909    -4849 
   -4828    -4860    -4945    -5043    -5098    -5081    -5009    -4939 
   -4949    -5067    -5239    -5347    -5290    -5065    -4760    -4494 
   -4376    -4459    -4704    -5035    -5360    -5591    -5655    -5556 
   -5352    -5109    -4897    -4770    -4741    -4788    -4851    -4885 
   -4908    -4965    -5073    -5206    -5275    -5198    -4984    -4742 
   -4608    -4646    -4845    -5142    -5422    -5556    -5472    -5188 
   -4816    -4499    -4351    -4411    -4634    -4947    -5283    -5582 
   -5772    -5771    -5521    -5088    -4664    -4438    -4483    -4700 
   -4885    -4915    -4873    -4946    -5228    -5586    -5751    -5547 
   -5057    -4564    -4336    -4440    -4749    -5055    -5194    -5147 
   -5016    -4927    -4954    -5101    -5263    -5309    -5217    -5078 
   -4949    -4816    -4683    -4581    -4585    -4765    -5107    -5464 
   -5641    -5576    -5344    -5038    -4770    -4644    -4681    -4837 
   -5053    -5274    -5420    -5401    -5193    -4887    -4618    -4506 
   -4619    -4930    -5294    -5513    -5451    -5139    -4752    -4483 
   -4457    -4652    -4936    -5208    -5395    -5431    -5304    -5062 
   -4800    -4641    -4675    -4878    -5146    -5339    -5356    -5205 
   -4997    -4882    -4957    -5134    -5250    -5223    -5063    -4843 
   -4684    -4675    -4814    -5019    -5189    -5275    -5298    -5279 
   -5213    -5071    -4874    -4720    -4703    -4801    -4947    -5084 
   -5165    -5166    -5105    -5023    -4943    -4905    -4955    -5084 
   -5231    -5310    -5220    -4959    -4683    -4571    -4685    -4947 
   -5193    -5289    -5235    -5147    -5124    -5157    -5170    -5115 
   -4997    -4866    -4796    -4831    -4945    -5071    -5158    -5179 
   -5144    -5071    -4961    -4806    -4644    -4569    -4698    -5031 
   -5395    -5570    -5452    -5104    -4715    -4503    -4569    -4847 
   -5161    -5347    -5344    -5181    -4926    -4685    -4625    -4869 
   -5383    -5944    -6228    -6008    -5292    -4364    -3665    -3541 
   -4050    -4930    -5752    -6157    -6003    -5391    -4631    -4089 
   -3994    -4347    -4934    -5491    -5810    -5773    -5412    -4904 
   -4479    -4315    -4487    -4919    -5400    -5679    -5618    -5267 
   -4819    -4522    -4540    -4839    -5225    -5463    -5420    -5135 
   -4791    -4602    -4664    -4884    -5081    -5138    -5054    -4928 
   -4889    -4989    -5157    -5270    -5258    -5155    -5053    -4993 
   -4955    -4891    -4770    -4662    -4660    -4772    -4953    -5147 
   -5300    -5386    -5406    -5385    -5352    -5279    -5109    -4849 
   -4587    -4445    -4526    -4835    -5236    -5545    -5651    -5557 
   -5331    -5047    -4781    -4600    -4568    -4708    -4965    -5212 
   -5312    -5189    -4881    -4538    -4345    -4421    -4745    -5152 
   -5464    -5584    -5512    -5297    -5026    -4784    -4644    -4654 
   -4807    -5042    -5274    -5417    -5409    -5244    -4985    -4773 
   -4743    -4895    -5081    -5167    -5084    -4858    -4671    -4669 
   -4843    -5104    -5317    -5386    -5312    -5163    -5044    -5028 
   -5131    -5286    -5370    -5294    -5074    -4814    -4638    -4615 
   -4735    -4915    -5035    -5050    -4954    -4799    -4737    -4862 
   -5125    -5398    -5529    -5451    -5216    -4934    -4737    -4700 
   -4795    -4928    -5016    -5026    -4981    -4934    -4931    -4993 
   -5088    -5159    -5173    -5089    -4907    -4707    -4602    -4676 
   -4926    -5256    -5526    -5614    -5490    -5211    -4880    -4630 
   -4567    -4696    -4939    -5178    -5298    -5246    -5065    -4854 
   -4720    -4747    -4946    -5225    -5449    -5505    -5364    -5105 
   -4869    -4774    -4841    -5000    -5144    -5188    -5124    -4999 
   -4862    -4776    -4795    -4922    -5097    -5239    -5282    -5186 
   -4949    -4629    -4360    -4275    -4428    -4768    -5179    -5510 
   -5638    -5543    -5287    -4990    -4780    -4739    -4851    -5008 
   -5090    -5053    -4928    -4815    -4819    -4984    -5267    -5548 
   -5688    -5633    -5417    -5120    -4835    -4633    -4534    -4531 
   -4584    -4646    -4703    -4769    -4858    -4996    -5179    -5360 
   -5494    -5539    -5466    -5292    -5074    -4909    -4853    -4893 
   -4981    -5035    -5001    -4900    -4784    -4727    -4788    -4949 
   -5128    -5256    -5285    -5216    -5098    -4984    -4904    -4888 
   -4932    -5012    -5101    -5151    -5105    -4953    -4749    -4581 
   -4556    -4729    -5043    -5387    -5640    -5709    -5586    -5333 
   -5023    -4731    -4527    -4441    -4479    -4617    -4804    -4966 
   -5039    -5024    -4969    -4947    -5035    -5244    -5512    -5729 
   -5783    -5638    -5341    -4995    -4733    -4642    -4712    -4865 
   -5001    -5040    -4961    -4815    -4702    -4707    -4833    -5013 
   -5175    -5265    -5260    -5177    -5049    -4920    -4818    -4768 
   -4787    -4854    -4955    -5063    -5135    -5151    -5119    -5050 
   -4980    -4946    -4966    -5043    -5158    -5262    -5301    -5236 
   -5058    -4808    -4584    -4490    -4594    -4885    -5260    -5570 
   -5694    -5597    -5331    -5004    -4743    -4623    -4644    -4757 
   -4881    -4941    -4926    -4874    -4849    -4899    -5001    -5098 
   -5142    -5107    -5011    -4924    -4922    -5042    -5247    -5429 
   -5455    -5278    -4963    -4658    -4525    -4641    -4942    -5269 
   -5455    -5424    -5212    -4935    -4723    -4657    -4743    -4919 
   -5084    -5158    -5104    -4965    -4828    -4777    -4842    -4984 
   -5123    -5189    -5158    -5082    -5034    -5054    -5140    -5252 
   -5324    -5310    -5209    -5047    -4876    -4742    -4687    -4723 
   -4839    -5000    -5158    -5250    -5236    -5140    -5016    -4928 
   -4930    -5009    -5119    -5205    -5236    -5208    -5124    -5008 
   -4878    -4772    -4743    -4819    -4977    -5144    -5219    -5143 
   -4959    -4780    -4706    -4777    -4965    -5170    -5290    -5279 
   -5171    -5047    -4974    -4980    -5043    -5113    -5135    -5109 
   -5071    -5044    -5028    -5022    -5005    -4963    -4891    -4789 
   -4683    -4607    -4603    -4698    -4887    -5112    -5289    -5329 
   -5225    -5059    -4939    -4931    -5046    -5224    -5354    -5351 
   -5209    -4985    -4770    -4645    -4650    -4785    -4990    -5186 
   -5297    -5289    -5175    -5015    -4889    -4864    -4938    -5057 
   -5146    -5159    -5100    -5008    -4943    -4945    -4989    -5044 
   -5081    -5084    -5065    -5040    -5009    -4973    -4946    -4936 
   -4962    -5031    -5119    -5190    -5201    -5125    -4981    -4819 
   -4702    -4665    -4712    -4801    -4881    -4922    -4922    -4903 
   -4904    -4943    -5019    -5111    -5201    -5282    -5335    -5343 
   -5309    -5239    -5165    -5119    -5108    -5130    -5162    -5170 
   -5147    -5098    -5046    -5009    -4992    -4980    -4955    -4908 
   -4860    -4837    -4851    -4905    -4982    -5044    -5065    -5027 
   -4954    -4903    -4911    -4978    -5078    -5150    -5150    -5084 
   -4984    -4904    -4904    -4999    -5154    -5306    -5391    -5368 
   -5235    -5031    -4827    -4681    -4630    -4657    -4722    -4797 
   -4858    -4882    -4874    -4838    -4787    -4753    -4766    -4837 
   -4949    -5057    -5112    -5098    -5044    -5000    -5017    -5105 
   -5229    -5327    -5340    -5269    -5158    -5053    -4976    -4945 
   -4961    -5015    -5080    -5139    -5174    -5173    -5143    -5111 
   -5092    -5076    -5035    -4961    -4878    -4835    -4873    -5004 
   -5192    -5344    -5386    -5305    -5131    -4922    -4760    -4696 
   -4743    -4880    -5053    -5181    -5212    -5131    -4968    -4803 
   -4725    -4764    -4889    -5035    -5123    -5127    -5074    -5017 
   -5007    -5055    -5123    -5167    -5167    -5142    -5134    -5171 
   -5254    -5340    -5373    -5301    -5113    -4853    -4598    -4428 
   -4387    -4479    -4648    -4819    -4935    -4969    -4938    -4895 
   -4889    -4936    -5036    -5144    -5219    -5248    -5252    -5266 
   -5316    -5383    -5440    -5445    -5373    -5247    -5131    -5069 
   -5073    -5115    -5140    -5107    -5009    -4877    -4757    -4685 
   -4689    -4761    -4853    -4920    -4930    -4868    -4757    -4654 
   -4625    -4696    -4835    -4963    -5023    -4997    -4920    -4858 
   -4849    -4897    -4977    -5038    -5055    -5046    -5035    -5053 
   -5111    -5175    -5216    -5220    -5175    -5093    -5013    -4972 
   -4993    -5096    -5233    -5336    -5359    -5293    -5169    -5055 
   -5007    -5027    -5077    -5109    -5092    -5034    -4981    -4978 
   -5042    -5142    -5211    -5208    -5119    -4955    -4768    -4623 
   -4581    -4662    -4837    -5031    -5158    -5178    -5108    -5012 
   -4974    -5034    -5162    -5285    -5316    -5224    -5055    -4900 
   -4831    -4866    -4976    -5088    -5147    -5138    -5069    -4974 
   -4900    -4868    -4877    -4909    -4941    -4945    -4909    -4838 
   -4756    -4695    -4693    -4764    -4885    -5011    -5085    -5096 
   -5069    -5036    -5016    -5015    -5036    -5069    -5107    -5159 
   -5223    -5277    -5313    -5321    -5293    -5243    -5192    -5144 
   -5104    -5062    -5012    -4963    -4932    -4926    -4949    -4986 
   -5008    -4995    -4961    -4936    -4934    -4943    -4958    -4978 
