Origin Time       2025/03/29 04:45:00
Lat.              31.090
Long.             131.512
Depth. (km)       33
Mag.              4.6
Station Code      MYZH14
Station Lat.      31.5649
Station Long.     131.3510
Station Height(m) 5
Record Time       2025/03/29 04:45:25
Sampling Freq(Hz) 100Hz
Duration Time(s)  120
Dir.              6
Scale Factor      7845(gal)/8223790
Max. Acc. (gal)   1.905
Last Correction   2025/03/29 04:45:26
Memo.             
[...]
  -10062   -10065   -10065   -10062   -10061   -10062   -10065   -10061 
  -10061   -10066   -10064   -10060   -10062   -10065   -10064   -10061 
  -10062   -10062   -10062   -10064   -10064   -10065   -10065   -10061 
  -10060   -10061   -10066   -10064   -10057   -10064   -10068   -10061 
  -10061   -10068   -10066   -10064   -10065   -10065   -10062   -10062 
  -10064   -10064   -10064   -10064   -10062   -10062   -10062   -10062 
  -10064   -10066   -10066   -10064   -10065   -10065   -10062   -10064 
  -10068   -10065   -10060   -10062   -10066   -10065   -10061   -10064 
  -10066   -10065   -10061   -10061   -10065   -10065   -10062   -10062 
  -10066   -10064   -10061   -10064   -10066   -10066   -10064   -10058 
  -10057   -10061   -10065   -10064   -10064   -10062   -10062   -10064 
  -10065   -10066   -10064   -10061   -10065   -10066   -10064   -10061 
  -10062   -10065   -10064   -10061   -10064   -10065   -10062   -10066 
  -10065   -10061   -10064   -10065   -10061   -10061   -10066   -10066 
  -10062   -10060   -10060   -10062   -10064   -10064   -10065   -10065 
  -10064   -10062   -10062   -10064   -10064   -10062   -10062   -10061 
  -10062   -10064   -10062   -10064   -10065   -10062   -10065   -10062 
  -10057   -10061   -10065   -10060   -10061   -10064   -10062   -10064 
  -10065   -10062   -10061   -10064   -10064   -10062   -10064   -10064 
  -10062   -10061   -10062   -10065   -10062   -10060   -10061   -10064 
  -10064   -10064   -10064   -10064   -10062   -10060   -10061   -10062 
  -10060   -10061   -10062   -10061   -10060   -10062   -10064   -10066 
  -10065   -10061   -10060   -10061   -10064   -10064   -10060   -10061 
  -10061   -10060   -10062   -10064   -10062   -10061   -10061   -10061 
  -10062   -10064   -10062   -10061   -10061   -10064   -10064   -10062 
  -10062   -10064   -10062   -10062   -10062   -10064   -10065   -10064 
  -10064   -10064   -10064   -10062   -10062   -10065   -10062   -10062 
  -10065   -10061   -10061   -10065   -10064   -10061   -10062   -10062 
  -10061   -10064   -10066   -10064   -10058   -10058   -10062   -10064 
  -10061   -10061   -10062   -10064   -10062   -10061   -10064   -10066 
  -10061   -10060   -10064   -10065   -10061   -10060   -10061   -10065 
  -10065   -10061   -10060   -10061   -10064   -10065   -10064   -10062 
  -10062   -10062   -10062   -10065   -10065   -10061   -10062   -10065 
  -10064   -10065   -10064   -10060   -10062   -10064   -10061   -10061 
  -10065   -10065   -10061   -10061   -10061   -10061   -10062   -10062 
  -10062   -10062   -10061   -10061   -10062   -10061   -10062   -10064 
  -10064   -10061   -10061   -10064   -10066   -10065   -10064   -10064 
  -10064   -10062   -10062   -10062   -10062   -10062   -10064   -10061 
  -10060   -10061   -10062   -10062   -10062   -10061   -10062   -10064 
  -10061   -10060   -10062   -10064   -10062   -10062   -10064   -10062 
  -10060   -10061   -10065   -10065   -10061   -10060   -10061   -10064 
  -10065   -10061   -10061   -10062   -10061   -10061   -10065   -10062 
  -10058   -10061   -10064   -10061   -10062   -10064   -10062   -10062 
  -10062   -10060   -10061   -10064   -10061   -10060   -10064   -10062 
  -10061   -10062   -10062   -10062   -10062   -10060   -10060   -10062 
  -10061   -10061   -10066   -10066   -10061   -10061   -10065   -10065 
  -10061   -10061   -10066   -10066   -10065   -10065   -10060   -10057 
  -10066   -10076   -10087   -10116   -10162   -10215   -10258   -10265 
  -10223   -10142   -10041    -9957    -9922    -9931    -9972   -10034 
  -10099   -10149   -10172   -10185   -10233   -10307   -10347   -10277 
  -10089    -9882    -9760    -9725    -9698    -9632    -9574    -9602 
   -9729    -9902   -10056   -10138   -10139   -10107   -10115   -10193 
  -10266   -10245   -10146   -10049    -9996    -9980    -9980    -9992 
  -10033   -10106   -10215   -10377   -10586   -10755   -10737   -10498 
  -10210   -10081   -10115   -10085    -9845    -9541    -9429    -9574 
   -9855   -10142   -10349   -10389   -10185    -9768    -9331    -9115 
   -9274    -9740   -10214   -10420   -10378   -10270   -10191   -10134 
  -10122   -10210   -10353   -10413   -10339   -10224   -10160   -10134 
  -10056    -9840    -9562    -9479    -9738   -10100   -10165    -9906 
   -9832   -10328   -11005   -11133   -10633   -10133   -10069   -10141 
   -9823    -9151    -8708    -8953    -9736   -10415   -10435    -9903 
   -9520    -9842   -10675   -11256   -11126   -10609   -10255   -10162 
  -10106    -9987    -9849    -9599    -9120    -8735    -9072   -10177 
  -11206   -11325   -10655   -10023    -9995   -10442   -10916   -11124 
  -10940   -10309    -9429    -8807    -8833    -9373    -9972   -10308 
  -10308   -10062    -9796    -9759    -9975   -10199   -10214   -10098 
  -10102   -10270   -10370   -10226    -9936    -9663    -9490    -9485 
   -9667    -9942   -10166   -10241   -10174   -10138   -10318   -10671 
  -10929   -10789   -10214    -9553    -9254    -9481   -10026   -10459 
  -10435    -9999    -9564    -9477    -9675    -9919   -10095   -10153 
  -10093   -10042   -10192   -10565   -10836   -10650   -10114    -9720 
   -9703    -9811    -9787    -9776   -10057   -10508   -10673   -10336 
   -9799    -9504    -9574    -9784    -9903    -9926    -9984   -10100 
  -10177   -10208   -10332   -10596   -10801   -10721   -10380    -9964 
   -9621    -9441    -9432    -9482    -9528    -9667    -9979   -10392 
  -10781   -11053   -11144   -10978   -10563   -10068    -9671    -9414 
   -9275    -9250    -9294    -9360    -9486    -9733   -10116   -10575 
  -10987   -11218   -11146   -10759   -10222    -9748    -9401    -9143 
   -9026    -9150    -9468    -9822   -10131   -10457   -10783   -10936 
  -10801   -10490   -10231   -10137   -10112   -10039    -9918    -9760 
   -9541    -9387    -9498    -9830   -10081   -10054    -9876    -9822 
  -10034   -10426   -10735   -10714   -10424   -10174   -10102   -10008 
   -9730    -9499    -9656   -10147   -10582   -10724   -10646   -10465 
  -10157    -9772    -9566    -9664    -9834    -9796    -9614    -9580 
   -9814   -10185   -10546   -10821   -10937   -10804   -10440   -10023 
   -9713    -9510    -9335    -9212    -9279    -9605   -10062   -10471 
  -10751   -10843   -10644   -10185    -9783    -9776   -10088   -10273 
  -10030    -9528    -9170    -9171    -9477    -9927   -10372   -10689 
  -10809   -10750   -10565   -10335   -10193   -10255   -10467   -10555 
  -10305    -9899    -9729    -9867    -9980    -9832    -9622    -9648 
   -9849    -9987   -10042   -10154   -10292   -10251    -9998    -9796 
   -9871   -10080   -10095    -9811    -9464    -9367    -9590    -9931 
  -10165   -10293   -10476   -10719   -10801   -10555   -10116    -9790 
   -9732    -9818    -9836    -9771    -9784    -9926   -10049   -10012 
   -9869    -9810    -9983   -10373   -10821   -11151   -11241   -11044 
  -10594   -10056    -9682    -9614    -9690    -9613    -9332    -9111 
   -9202    -9590   -10093   -10573   -10918   -10994   -10768   -10432 
  -10218   -10160   -10103    -9902    -9585    -9327    -9301    -9548 
   -9914   -10104    -9934    -9578    -9420    -9710   -10385   -11114 
  -11522   -11419   -10872   -10154    -9587    -9337    -9332    -9386 
   -9405    -9445    -9599    -9873   -10177   -10422   -10615   -10805 
  -10928   -10810   -10384    -9809    -9347    -9184    -9315    -9585 
   -9853   -10085   -10304   -10513   -10679   -10747   -10682   -10488 
  -10212    -9934    -9721    -9594    -9539    -9544    -9593    -9639 
   -9680    -9795   -10049   -10416   -10779   -10972   -10870   -10490 
  -10038    -9742    -9651    -9629    -9574    -9545    -9645    -9869 
  -10112   -10280   -10351   -10372   -10401   -10449   -10432   -10254 
   -9938    -9679    -9690    -9991   -10397   -10675   -10696   -10490 
  -10197    -9952    -9809    -9748    -9705    -9625    -9495    -9387 
   -9412    -9601    -9856   -10071   -10257   -10466   -10646   -10678 
  -10534   -10301   -10099   -10004   -10012   -10022    -9921    -9736 
   -9636    -9728    -9950   -10191   -10382   -10501   -10535   -10513 
  -10490   -10427   -10204    -9822    -9467    -9306    -9325    -9417 
   -9556    -9794   -10120   -10447   -10704   -10874   -10922   -10793 
  -10504   -10193    -9977    -9842    -9706    -9535    -9410    -9436 
   -9617    -9845   -10002   -10072   -10130   -10222   -10293   -10304 
  -10304   -10338   -10323   -10177    -9994    -9931   -10006   -10107 
  -10168   -10183   -10164   -10134   -10092   -10023    -9938    -9903 
   -9954   -10026   -10004    -9884    -9807    -9849    -9929    -9956 
   -9954   -10008   -10152   -10320   -10415   -10404   -10339   -10289 
  -10272   -10242   -10138    -9942    -9722    -9607    -9676    -9882 
  -10112   -10281   -10374   -10415   -10389   -10261   -10068    -9919 
   -9903   -10002   -10110   -10143   -10091    -9992    -9915    -9903 
   -9937    -9968    -9946    -9867    -9782    -9756    -9809    -9922 
  -10031   -10093   -10152   -10257   -10376   -10411   -10305   -10131 
  -10012    -9987   -10007   -10035   -10069   -10108   -10156   -10206 
  -10237   -10212   -10099    -9911    -9721    -9640    -9740    -9973 
  -10180   -10234   -10157   -10083   -10095   -10138   -10137   -10108 
  -10080   -10039   -10010   -10031   -10087   -10085    -9985    -9879 
   -9904   -10048   -10166   -10203   -10214   -10258   -10322   -10355 
  -10343   -10299   -10210   -10056    -9867    -9730    -9711    -9799 
   -9930   -10021   -10027    -9965    -9882    -9805    -9747    -9729 
   -9769    -9861    -9965   -10056   -10147   -10261   -10382   -10477 
  -10521   -10508   -10444   -10353   -10238   -10104    -9975    -9887 
   -9855    -9850    -9848    -9875    -9979   -10125   -10216   -10211 
  -10138   -10066   -10068   -10172   -10345   -10485   -10474   -10282 
  -10015    -9811    -9751    -9823    -9954   -10065   -10139   -10206 
  -10287   -10355   -10336   -10165    -9857    -9547    -9394    -9456 
   -9661    -9886   -10029   -10058   -10010    -9954    -9957   -10022 
  -10083   -10093   -10085   -10112   -10191   -10300   -10411   -10467 
  -10440   -10335   -10169    -9965    -9782    -9672    -9663    -9763 
   -9945   -10129   -10246   -10277   -10262   -10260   -10262   -10216 
  -10088    -9914    -9778    -9729    -9767    -9887   -10061   -10219 
  -10305   -10338   -10386   -10461   -10457   -10300   -10066    -9896 
   -9846    -9869    -9917   -10000   -10127   -10250   -10311   -10305 
  -10255   -10185   -10106   -10026    -9956    -9915    -9917    -9952 
  -10002   -10038   -10045   -10042   -10061   -10115   -10200   -10295 
  -10374   -10412   -10378   -10278   -10150   -10034    -9946    -9871 
   -9780    -9676    -9624    -9705    -9941   -10235   -10447   -10490 
  -10362   -10127    -9892    -9741    -9693    -9702    -9717    -9717 
   -9741    -9837    -9992   -10142   -10246   -10308   -10341   -10339 
  -10296   -10208   -10106   -10030    -9971    -9887    -9790    -9718 
   -9686    -9679    -9697    -9745    -9857   -10045   -10268   -10455 
  -10579   -10638   -10635   -10571   -10427   -10169    -9833    -9526 
   -9362    -9377    -9499    -9622    -9695    -9749    -9840    -9983 
  -10146   -10281   -10326   -10242   -10073    -9914    -9850    -9907 
  -10045   -10212   -10377   -10511   -10616   -10704   -10747   -10710 
  -10589   -10388   -10119    -9823    -9566    -9405    -9358    -9401 
   -9494    -9624    -9799   -10015   -10224   -10346   -10349   -10262 
  -10126    -9973    -9840    -9765    -9784    -9884   -10027   -10191 
  -10346   -10467   -10552   -10613   -10643   -10609   -10490   -10315 
  -10115    -9894    -9653    -9437    -9298    -9259    -9325    -9479 
   -9695    -9942   -10181   -10370   -10496   -10570   -10602   -10554 
  -10390   -10162    -9981    -9911    -9950   -10050   -10166   -10254 
  -10272   -10233   -10188   -10169   -10164   -10135   -10077   -10023 
   -9992    -9964    -9913    -9868    -9877    -9923    -9949    -9949 
   -9971   -10017   -10049   -10037   -10003   -10004   -10062   -10141 
  -10227   -10323   -10381   -10336   -10183    -9958    -9715    -9486 
   -9267    -9065    -8935    -8942    -9127    -9494   -10015   -10623 
  -11223   -11709   -11985   -11993   -11747   -11307   -10737   -10095 
   -9467    -8973    -8706    -8688    -8897    -9286    -9787   -10314 
  -10768   -11060   -11128   -10999   -10752   -10431   -10056    -9659 
   -9293    -9022    -8884    -8877    -8980    -9177    -9452    -9765 
  -10081   -10361   -10565   -10681   -10704   -10633   -10527   -10477 
  -10520   -10621   -10746   -10829   -10773   -10552   -10255    -9975 
   -9749    -9607    -9562    -9574    -9593    -9618    -9691    -9818 
   -9937    -9980    -9937    -9836    -9711    -9610    -9555    -9533 
   -9525    -9526    -9563    -9670    -9849   -10076   -10311   -10508 
  -10638   -10700   -10716   -10702   -10669   -10635   -10612   -10596 
  -10589   -10594   -10563   -10449   -10251   -10017    -9801    -9629 
   -9513    -9502    -9639    -9892   -10195   -10507   -10785   -10957 
  -10948   -10752   -10438   -10073    -9688    -9319    -9022    -8845 
   -8804    -8888    -9058    -9262    -9479    -9688    -9867   -10026 
  -10191   -10372   -10578   -10805   -11041   -11263   -11418   -11469 
  -11422   -11295   -11086   -10793   -10442   -10096    -9828    -9637 
   -9460    -9247    -8984    -8691    -8425    -8264    -8268    -8460 
   -8846    -9416   -10123   -10875   -11529   -11942   -12060   -11919 
  -11568   -11038   -10403    -9771    -9258    -8934    -8808    -8864 
   -9073    -9385    -9713   -10000   -10224   -10363   -10407   -10368 
  -10296   -10257   -10274   -10328   -10369   -10350   -10270   -10168 
  -10061    -9940    -9803    -9690    -9661    -9753    -9921   -10081 
  -10181   -10201   -10133    -9968    -9740    -9517    -9362    -9309 
   -9359    -9513    -9764   -10093   -10458   -10806   -11071   -11187 
  -11140   -10962   -10697   -10411   -10156    -9952    -9799    -9694 
   -9625    -9607    -9668    -9826   -10065   -10300   -10436   -10462 
  -10432   -10381   -10305   -10200   -10083    -9968    -9859    -9778 
   -9752    -9790    -9845    -9849    -9776    -9657    -9552    -9516 
   -9559    -9661    -9803    -9965   -10127   -10257   -10335   -10389 
  -10438   -10438   -10345   -10174   -10011    -9925    -9956   -10123 
  -10396   -10677   -10864   -10906   -10820   -10674   -10525   -10388 
  -10266   -10185   -10142   -10099   -10035    -9967    -9914    -9865 
   -9783    -9645    -9483    -9362    -9320    -9356    -9458    -9620 
   -9833   -10079   -10316   -10492   -10565   -10532   -10422   -10250 
  -10065    -9933    -9850    -9748    -9603    -9477    -9439    -9486 
   -9563    -9651    -9787    -9995   -10253   -10521   -10759   -10906 
  -10918   -10804   -10601   -10372   -10168   -10008    -9887    -9801 
   -9749    -9722    -9705    -9688    -9659    -9598    -9512    -9432 
   -9412    -9490    -9661    -9898   -10173   -10467   -10729   -10895 
  -10928   -10828   -10639   -10436   -10278   -10174   -10133   -10168 
  -10257   -10357   -10428   -10426   -10307   -10089    -9830    -9587 
   -9408    -9310    -9296    -9367    -9518    -9730    -9968   -10165 
  -10282   -10335   -10349   -10328   -10281   -10215   -10152   -10123 
  -10145   -10199   -10247   -10250   -10195   -10089    -9963    -9856 
   -9794    -9755    -9705    -9651    -9634    -9680    -9791    -9965 
  -10200   -10470   -10729   -10959   -11149   -11273   -11317   -11272 
  -11103   -10773   -10293    -9741    -9208    -8768    -8482    -8390 
   -8473    -8694    -9012    -9396    -9794   -10162   -10443   -10577 
  -10554   -10438   -10293   -10172   -10110   -10123   -10191   -10291 
  -10417   -10548   -10615   -10567   -10420   -10211    -9975    -9776 
   -9663    -9652    -9738    -9887   -10068   -10268   -10462   -10611 
  -10693   -10681   -10558   -10355   -10129    -9913    -9720    -9543 
   -9391    -9304    -9304    -9385    -9509    -9640    -9775    -9906 
  -10003   -10054   -10080   -10120   -10191   -10282   -10357   -10372 
  -10324   -10258   -10223   -10246   -10327   -10438   -10539   -10593 
  -10584   -10530   -10438   -10296   -10126    -9957    -9813    -9707 
   -9640    -9597    -9568    -9551    -9553    -9610    -9748    -9960 
  -10207   -10446   -10632   -10736   -10764   -10750   -10677   -10513 
  -10262    -9953    -9641    -9394    -9266    -9269    -9381    -9564 
   -9802   -10089   -10401   -10679   -10871   -10945   -10886   -10712 
  -10477   -10215    -9944    -9720    -9585    -9524    -9508    -9532 
   -9621    -9780    -9968   -10126   -10207   -10191   -10083    -9909 
   -9720    -9564    -9481    -9477    -9553    -9710    -9927   -10162 
  -10369   -10523   -10619   -10642   -10589   -10490   -10378   -10274 
  -10200   -10150   -10099   -10039    -9990    -9963    -9967    -9995 
  -10027   -10052   -10072   -10112   -10150   -10142   -10100   -10052 
   -9985    -9898    -9813    -9759    -9761    -9811    -9872    -9925 
   -9958    -9969    -9977   -10012   -10084   -10193   -10319   -10447 
  -10579   -10713   -10844   -10945   -10980   -10908   -10706   -10397 
  -10041    -9709    -9441    -9235    -9093    -9058    -9147    -9337 
   -9591    -9850   -10062   -10196   -10230   -10193   -10139   -10084 
  -10046   -10046   -10081   -10137   -10193   -10227   -10228   -10201 
  -10142   -10044    -9917    -9788    -9695    -9671    -9726    -9848 
  -10014   -10199   -10363   -10470   -10508   -10496   -10440   -10354 
  -10257   -10165   -10104   -10088   -10120   -10183   -10233   -10230 
  -10183   -10130   -10106   -10112   -10127   -10122   -10085   -10026 
   -9953    -9883    -9829    -9780    -9703    -9579    -9441    -9358 
   -9374    -9475    -9602    -9711    -9809    -9906    -9998   -10081 
  -10161   -10233   -10296   -10347   -10382   -10415   -10440   -10458 
  -10477   -10465   -10385   -10264   -10152   -10093   -10102   -10169 
  -10270   -10365   -10401   -10355   -10249   -10112    -9971    -9837 
   -9714    -9612    -9572    -9618    -9736    -9907   -10098   -10257 
  -10365   -10412   -10404   -10350   -10257   -10127    -9981    -9864 
   -9803    -9791    -9836    -9953   -10115   -10239   -10293   -10312 
  -10315   -10280   -10200   -10096   -10003    -9940    -9903    -9899 
   -9938   -10025   -10145   -10270   -10373   -10439   -10459   -10431 
  -10366   -10289   -10203   -10102    -9994    -9888    -9783    -9693 
   -9637    -9622    -9637    -9679    -9751    -9840    -9915    -9961 
   -9996   -10038   -10095   -10160   -10218   -10257   -10266   -10242 
  -10204   -10173   -10153   -10131   -10095   -10048   -10010    -9999 
  -10018   -10058   -10102   -10127   -10133   -10130   -10125   -10104 
  -10045    -9934    -9795    -9667    -9575    -9540    -9576    -9667 
   -9776    -9891   -10010   -10122   -10210   -10272   -10316   -10345 
  -10355   -10335   -10274   -10191   -10125   -10095   -10085   -10088 
  -10093   -10085   -10068   -10072   -10104   -10154   -10219   -10291 
  -10363   -10426   -10461   -10454   -10393   -10277   -10123    -9953 
   -9788    -9656    -9578    -9558    -9591    -9668    -9792    -9968 
  -10176   -10382   -10539   -10611   -10601   -10535   -10434   -10308 
