Origin Time       2025/03/29 04:45:00
Lat.              31.090
Long.             131.512
Depth. (km)       33
Mag.              4.6
Station Code      MYZH14
Station Lat.      31.5649
Station Long.     131.3510
Station Height(m) -196
Record Time       2025/03/29 04:45:25
Sampling Freq(Hz) 100Hz
Duration Time(s)  120
Dir.              1
Scale Factor      2942(gal)/8224139
Max. Acc. (gal)   0.428
Last Correction   2025/03/29 04:45:26
Memo.             
[...]
   38554    38554    38556    38554    38553    38553    38553    38553 
   38554    38557    38557    38554    38553    38553    38553    38554 
   38554    38553    38556    38557    38553    38554    38556    38553 
   38551    38553    38554    38554    38553    38550    38549    38553 
   38556    38553    38553    38553    38551    38553    38553    38553 
   38553    38554    38556    38556    38556    38556    38556    38557 
   38557    38556    38554    38551    38554    38554    38553    38553 
   38551    38553    38557    38556    38554    38554    38553    38551 
   38554    38556    38557    38556    38554    38554    38554    38553 
   38554    38557    38554    38553    38554    38553    38551    38554 
   38556    38557    38554    38553    38554    38556    38556    38556 
   38556    38556    38554    38553    38553    38556    38557    38553 
   38551    38553    38554    38553    38551    38553    38554    38554 
   38553    38553    38553    38551    38550    38553    38556    38554 
   38554    38556    38554    38554    38557    38556    38553    38554 
   38554    38556    38557    38556    38553    38551    38553    38554 
   38554    38554    38554    38556    38554    38554    38556    38554 
   38553    38551    38553    38557    38557    38553    38553    38553 
   38553    38553    38556    38557    38554    38554    38554    38554 
   38554    38553    38553    38551    38551    38553    38551    38550 
   38553    38554    38551    38550    38553    38554    38551    38550 
   38553    38554    38553    38553    38556    38554    38550    38553 
   38554    38550    38551    38551    38551    38550    38549    38550 
   38556    38556    38554    38556    38554    38550    38551    38554 
   38553    38553    38553    38551    38551    38551    38551    38550 
   38550    38551    38554    38553    38553    38553    38553    38551 
   38553    38554    38554    38553    38553    38553    38551    38554 
   38554    38551    38553    38554    38553    38553    38550    38550 
   38554    38556    38554    38556    38556    38553    38554    38557 
   38554    38553    38556    38557    38556    38553    38553    38551 
   38551    38554    38556    38554    38556    38554    38551    38550 
   38551    38554    38551    38551    38553    38556    38556    38551 
   38550    38553    38556    38556    38554    38550    38551    38556 
   38553    38550    38556    38554    38551    38557    38558    38551 
   38551    38553    38553    38553    38551    38553    38556    38556 
   38554    38556    38557    38551    38550    38556    38557    38554 
   38551    38550    38553    38554    38551    38551    38553    38550 
   38551    38556    38554    38551    38554    38557    38556    38551 
   38553    38554    38553    38554    38554    38553    38553    38551 
   38553    38551    38551    38554    38556    38553    38556    38553 
   38547    38551    38557    38554    38553    38554    38554    38554 
   38553    38550    38547    38538    38519    38492    38462    38439 
   38433    38442    38469    38512    38554    38588    38607    38607 
   38592    38570    38551    38538    38514    38464    38403    38358 
   38357    38402    38470    38547    38631    38722    38796    38839 
   38853    38838    38804    38757    38695    38612    38515    38416 
   38334    38283    38265    38269    38295    38354    38449    38565 
   38666    38724    38738    38707    38631    38533    38438    38373 
   38346    38334    38326    38362    38466    38608    38730    38805 
   38838    38828    38773    38696    38646    38658    38739    38832 
   38838    38705    38502    38302    38157    38134    38240    38381 
   38462    38465    38399    38290    38198    38186    38260    38396 
   38568    38759    38938    39059    39123    39160    39175    39124 
   38963    38696    38408    38198    38099    38097    38164    38288 
   38497    38766    38970    38996    38839    38641    38588    38727 
   38894    38893    38682    38373    38082    37862    37744    37754 
   37889    38129    38416    38695    38944    39131    39187    39114 
   38966    38785    38615    38493    38410    38354    38341    38330 
   38276    38233    38288    38460    38689    38880    38907    38747 
   38512    38344    38327    38437    38556    38600    38574    38497 
   38384    38307    38334    38464    38646    38808    38890    38892 
   38857    38796    38688    38545    38412    38331    38311    38325 
   38350    38385    38457    38610    38819    38975    39001    38924 
   38800    38655    38543    38526    38580    38589    38491    38318 
   38142    38047    38070    38173    38315    38466    38593    38696 
   38804    38905    38942    38878    38722    38522    38356    38311 
   38410    38574    38688    38697    38650    38607    38583    38596 
   38646    38691    38685    38626    38519    38362    38191    38084 
   38105    38248    38479    38735    38931    39024    39039    38990 
   38855    38653    38438    38261    38156    38148    38240    38392 
   38550    38680    38770    38847    38923    38970    38942    38812 
   38593    38365    38217    38137    38067    38028    38087    38256 
   38479    38700    38888    39016    39064    39035    38944    38828 
   38696    38537    38362    38203    38068    37968    37948    38057 
   38291    38592    38874    39060    39113    39051    38948    38863 
   38790    38699    38576    38435    38299    38191    38145    38192 
   38319    38449    38500    38469    38410    38383    38419    38523 
   38669    38794    38858    38863    38839    38797    38740    38670 
   38597    38541    38492    38427    38346    38280    38263    38321 
   38441    38569    38655    38684    38646    38569    38518    38550 
   38664    38811    38934    38992    38943    38778    38546    38329 
   38195    38182    38269    38399    38495    38526    38529    38520 
   38499    38484    38519    38620    38745    38792    38689    38492 
   38341    38313    38398    38537    38654    38701    38669    38580 
   38480    38412    38404    38435    38476    38512    38549    38578 
   38599    38597    38576    38553    38558    38599    38645    38661 
   38642    38583    38465    38315    38211    38215    38333    38507 
   38665    38761    38808    38838    38858    38869    38867    38862 
   38867    38880    38866    38789    38650    38470    38292    38172 
   38141    38184    38256    38307    38323    38333    38371    38465 
   38618    38797    38943    38988    38908    38723    38488    38276 
   38156    38157    38265    38430    38577    38662    38674    38624 
   38549    38496    38473    38480    38508    38523    38489    38408 
   38322    38292    38356    38506    38703    38878    38955    38892 
   38711    38492    38322    38261    38329    38468    38588    38626 
   38588    38543    38558    38627    38686    38682    38604    38503 
   38434    38430    38496    38614    38745    38855    38911    38898 
   38836    38755    38680    38623    38570    38495    38404    38342 
   38342    38410    38506    38568    38556    38481    38394    38344 
   38357    38431    38522    38569    38543    38450    38335    38269 
   38300    38425    38595    38758    38867    38888    38831    38749 
   38674    38604    38518    38411    38315    38279    38323    38435 
   38570    38680    38747    38777    38776    38753    38731    38719 
   38708    38691    38654    38585    38475    38346    38245    38196 
   38203    38264    38353    38427    38476    38515    38570    38651 
   38747    38831    38877    38867    38800    38693    38584    38507 
   38479    38504    38577    38658    38720    38751    38743    38689 
   38605    38500    38387    38277    38183    38130    38140    38213 
   38337    38484    38607    38672    38669    38623    38574    38554 
   38566    38596    38626    38639    38619    38570    38526    38504 
   38500    38500    38502    38508    38526    38554    38591    38618 
   38620    38600    38572    38550    38568    38639    38731    38808 
   38836    38805    38720    38596    38465    38369    38337    38376 
   38469    38576    38653    38676    38639    38556    38452    38358 
   38302    38290    38329    38425    38554    38685    38777    38811 
   38792    38740    38665    38573    38487    38415    38369    38348 
   38345    38361    38402    38472    38569    38678    38772    38819 
   38811    38751    38653    38542    38450    38396    38380    38385 
   38391    38384    38369    38352    38340    38368    38445    38529 
   38587    38608    38595    38569    38569    38604    38650    38692 
   38734    38782    38838    38871    38867    38820    38722    38599 
   38492    38425    38410    38435    38468    38489    38497    38483 
   38460    38446    38452    38488    38551    38620    38666    38665 
   38615    38543    38476    38434    38431    38458    38504    38558 
   38612    38657    38685    38696    38686    38654    38593    38514 
   38442    38411    38434    38496    38572    38643    38693    38708 
   38688    38635    38562    38491    38449    38431    38415    38396 
   38385    38385    38406    38443    38479    38507    38537    38581 
   38646    38726    38796    38831    38824    38786    38718    38627 
   38526    38416    38313    38234    38186    38168    38194    38276 
   38416    38595    38767    38885    38925    38902    38842    38773 
   38713    38668    38634    38604    38564    38503    38426    38346 
   38284    38248    38237    38256    38307    38385    38477    38569 
   38645    38689    38716    38739    38755    38759    38750    38712 
   38658    38626    38637    38699    38805    38928    39024    39073 
   39058    38989    38882    38761    38653    38570    38520    38503 
   38497    38502    38523    38566    38630    38699    38762    38816 
   38867    38917    38958    38975    38966    38921    38842    38743 
   38655    38595    38569    38561    38551    38545    38564    38610 
   38677    38746    38794    38813    38799    38772    38735    38696 
   38672    38662    38642    38595    38500    38357    38194    38041 
   37935    37897    37922    37997    38109    38241    38377    38500 
   38597    38664    38686    38651    38556    38411    38240    38075 
   37953    37886    37885    37939    38016    38083    38118    38119 
   38110    38111    38126    38144    38141    38105    38051    38014 
   38041    38140    38271    38379    38434    38435    38396    38337 
   38279    38232    38199    38199    38227    38269    38308    38335 
   38358    38394    38434    38481    38535    38578    38595    38589 
   38558    38516    38495    38503    38534    38580    38628    38665 
   38688    38703    38724    38770    38839    38911    38966    38992 
   38993    38978    38962    38962    38986    39025    39070    39106 
   39128    39136    39123    39077    38988    38869    38753    38655 
   38596    38592    38632    38691    38755    38811    38831    38823 
   38803    38788    38784    38769    38726    38647    38543    38441 
   38365    38335    38354    38394    38425    38438    38430    38414 
   38421    38462    38550    38674    38805    38911    38971    38982 
   38939    38851    38736    38607    38473    38331    38183    38038 
   37920    37841    37808    37824    37895    38016    38184    38391 
   38608    38800    38932    38996    38990    38925    38826    38712 
   38601    38502    38419    38368    38368    38410    38483    38576 
   38658    38713    38747    38762    38762    38740    38692    38628 
   38573    38549    38573    38630    38684    38704    38666    38584 
   38504    38469    38502    38593    38709    38813    38869    38869 
   38826    38754    38672    38591    38510    38423    38331    38245 
   38179    38156    38191    38273    38384    38507    38637    38772 
   38901    39015    39089    39101    39051    38951    38820    38682 
   38539    38396    38260    38141    38056    38018    38016    38041 
   38082    38113    38126    38124    38115    38122    38157    38217 
   38288    38367    38452    38535    38596    38618    38601    38561 
   38511    38460    38421    38399    38399    38426    38462    38493 
   38500    38473    38435    38421    38439    38502    38620    38788 
   38988    39195    39391    39556    39663    39700    39671    39575 
   39421    39224    39004    38769    38531    38318    38145    38025 
   37952    37920    37933    37984    38075    38210    38379    38564 
   38734    38873    38982    39066    39135    39194    39241    39271 
   39272    39239    39159    39017    38826    38616    38422    38283 
   38230    38264    38365    38519    38689    38830    38919    38955 
   38938    38873    38789    38707    38626    38557    38511    38480 
   38450    38414    38364    38300    38221    38128    38024    37912 
   37797    37689    37598    37530    37494    37501    37550    37632 
   37725    37808    37860    37879    37874    37863    37867    37898 
   37966    38087    38263    38466    38672    38838    38929    38934 
   38851    38693    38497    38317    38191    38148    38206    38348 
   38527    38705    38859    38956    38988    38965    38886    38757 
   38592    38406    38223    38076    37982    37952    37976    38047 
   38156    38284    38425    38568    38692    38790    38867    38939 
   39032    39162    39329    39513    39667    39750    39744    39645 
   39488    39313    39151    39017    38912    38827    38755    38693 
   38646    38612    38584    38557    38531    38512    38516    38551 
   38610    38684    38766    38836    38875    38871    38815    38708 
   38570    38429    38318    38263    38272    38330    38415    38507 
   38584    38623    38626    38595    38543    38488    38449    38442 
   38469    38516    38580    38654    38728    38792    38821    38803 
   38730    38603    38445    38280    38134    38032    37975    37948 
   37943    37964    38018    38103    38223    38368    38512    38645 
   38761    38866    38970    39071    39155    39198    39191    39136 
   39033    38893    38726    38542    38375    38244    38159    38121 
   38117    38133    38163    38206    38265    38341    38446    38577 
   38704    38815    38892    38919    38894    38839    38777    38739 
   38746    38799    38884    38981    39063    39104    39090    39015 
   38888    38732    38570    38429    38327    38267    38242    38248 
   38269    38296    38318    38322    38302    38256    38194    38117 
   38037    37968    37920    37903    37929    37990    38083    38196 
   38304    38402    38488    38558    38616    38668    38720    38773 
   38821    38869    38907    38923    38911    38870    38801    38712 
   38612    38514    38427    38368    38335    38323    38323    38327 
   38331    38331    38326    38319    38311    38306    38306    38307 
   38311    38319    38319    38307    38290    38268    38245    38227 
   38225    38242    38268    38303    38348    38389    38421    38443 
   38457    38483    38535    38608    38696    38799    38900    38982 
   39044    39083    39104    39110    39104    39102    39117    39129 
   39131    39123    39082    39005    38911    38815    38738    38703 
   38709    38742    38790    38836    38866    38882    38881    38854 
   38811    38755    38684    38607    38534    38464    38403    38358 
   38329    38319    38340    38395    38480    38583    38692    38808 
   38923    39037    39143    39218    39245    39205    39082    38882 
   38631    38356    38091    37875    37721    37636    37631    37697 
   37809    37936    38045    38111    38128    38105    38065    38029 
   38009    38016    38047    38086    38122    38157    38196    38245 
   38311    38394    38484    38573    38639    38677    38686    38672 
   38649    38639    38650    38682    38736    38797    38847    38881 
   38886    38854    38790    38704    38603    38507    38435    38400 
   38406    38449    38512    38585    38655    38718    38774    38821 
   38857    38877    38884    38880    38866    38854    38863    38890 
   38923    38948    38950    38921    38873    38805    38724    38643 
   38564    38495    38446    38423    38425    38450    38491    38542 
   38589    38615    38619    38605    38581    38561    38546    38543 
   38566    38604    38653    38712    38762    38788    38788    38757 
   38688    38589    38476    38361    38264    38196    38171    38178 
   38207    38260    38322    38377    38411    38411    38372    38308 
   38236    38160    38094    38048    38030    38052    38110    38198 
   38304    38408    38495    38558    38596    38610    38605    38585 
   38546    38500    38460    38423    38395    38387    38402    38434 
   38479    38531    38577    38610    38635    38657    38680    38705 
   38735    38762    38785    38803    38817    38838    38862    38875 
   38874    38866    38854    38844    38853    38873    38900    38936 
   38965    38962    38932    38871    38784    38681    38569    38456 
   38348    38254    38182    38129    38101    38101    38125    38178 
   38252    38338    38427    38510    38569    38600    38607    38593 
   38568    38541    38516    38495    38476    38462    38448    38441 
   38443    38460    38503    38574    38665    38772    38888    38985 
   39044    39059    39015    38919    38804    38689    38581    38487 
   38402    38333    38280    38234    38203    38184    38169    38160 
   38167    38180    38196    38222    38257    38298    38356    38435 
   38537    38649    38759    38859    38931    38970    38979    38959 
   38919    38875    38834    38801    38789    38796    38805    38803 
   38785    38757    38709    38650    38591    38535    38477    38419 
   38352    38272    38198    38141    38107    38101    38124    38169 
   38227    38292    38352    38391    38414    38423    38418    38408 
   38407    38423    38457    38511    38587    38670    38749    38819 
   38880    38929    38969    38993    39005    39001    38978    38938 
   38888    38831    38780    38735    38695    38658    38618    38566 
   38514    38465    38419    38384    38356    38329    38307    38302 
   38311    38337    38367    38395    38425    38443    38453    38461 
   38464    38466    38476    38488    38510    38554    38616    38684 
   38757    38830    38885    38927    38955    38969    38971    38970 
   38959    38938    38901    38846    38767    38666    38542    38414 
   38306    38223    38161    38129    38132    38153    38192    38256 
   38329    38404    38470    38518    38545    38537    38495    38434 
   38360    38279    38218    38187    38178    38186    38199    38209 
   38219    38240    38267    38302    38342    38381    38427    38479 
   38535    38603    38673    38739    38807    38866    38913    38950 
   38970    38965    38938    38893    38835    38774    38719    38674 
   38642    38619    38599    38583    38572    38566    38566    38577 
   38601    38630    38653    38668    38670    38654    38628    38591 
   38541    38491    38443    38404    38375    38346    38325    38311 
   38310    38322    38344    38369    38407    38456    38502    38538 
