Origin Time       2025/03/29 04:45:00
Lat.              31.090
Long.             131.512
Depth. (km)       33
Mag.              4.6
Station Code      MYZH13
Station Lat.      31.7301
Station Long.     131.0791
Station Height(m) 152
Record Time       2025/03/29 04:45:34
Sampling Freq(Hz) 100Hz
Duration Time(s)  120
Dir.              4
Scale Factor      7845(gal)/8223790
Max. Acc. (gal)   1.856
Last Correction   2025/03/29 04:45:34
Memo.             
[...]
   -7094    -7092    -7094    -7094    -7092    -7091    -7091    -7094 
   -7095    -7094    -7098    -7101    -7099    -7095    -7092    -7092 
   -7091    -7090    -7092    -7094    -7092    -7094    -7099    -7102 
   -7099    -7098    -7094    -7091    -7092    -7092    -7092    -7095 
   -7095    -7095    -7099    -7101    -7096    -7096    -7095    -7091 
   -7091    -7091    -7094    -7099    -7098    -7096    -7101    -7101 
   -7096    -7095    -7096    -7095    -7094    -7094    -7096    -7098 
   -7101    -7106    -7102    -7094    -7092    -7092    -7088    -7088 
   -7092    -7094    -7092    -7090    -7091    -7096    -7099    -7101 
   -7102    -7095    -7091    -7087    -7078    -7072    -7076    -7084 
   -7094    -7106    -7118    -7132    -7140    -7142    -7130    -7105 
   -7083    -7075    -7080    -7088    -7095    -7105    -7119    -7134 
   -7137    -7121    -7088    -7057    -7049    -7069    -7101    -7109 
   -7091    -7076    -7071    -7072    -7082    -7083    -7074    -7069 
   -7068    -7064    -7057    -7051    -7052    -7082    -7142    -7200 
   -7221    -7194    -7141    -7082    -7028    -6988    -6972    -6987 
   -7032    -7098    -7169    -7250    -7325    -7349    -7299    -7192 
   -7064    -6961    -6903    -6894    -6932    -7007    -7117    -7242 
   -7334    -7341    -7269    -7168    -7065    -6970    -6898    -6879 
   -6932    -7029    -7130    -7203    -7227    -7203    -7144    -7076 
   -7037    -7029    -7037    -7076    -7152    -7236    -7276    -7237 
   -7125    -6995    -6914    -6921    -6975    -7009    -7011    -7032 
   -7126    -7287    -7414    -7404    -7254    -7057    -6917    -6871 
   -6914    -7001    -7063    -7048    -6976    -6922    -6961    -7099 
   -7269    -7373    -7375    -7327    -7269    -7188    -7057    -6864 
   -6666    -6567    -6619    -6804    -7090    -7426    -7709    -7824 
   -7709    -7415    -7041    -6686    -6461    -6457    -6648    -6926 
   -7187    -7385    -7504    -7514    -7406    -7229    -7044    -6875 
   -6721    -6628    -6671    -6867    -7136    -7352    -7441    -7403 
   -7292    -7172    -7084    -7042    -7030    -7014    -6998    -7007 
   -7049    -7114    -7163    -7161    -7121    -7083    -7069    -7075 
   -7086    -7095    -7103    -7110    -7140    -7203    -7273    -7281 
   -7156    -6932    -6743    -6683    -6729    -6818    -6940    -7125 
   -7356    -7564    -7686    -7695    -7549    -7227    -6814    -6481 
   -6357    -6442    -6669    -6972    -7300    -7585    -7739    -7711 
   -7542    -7310    -7060    -6826    -6662    -6594    -6613    -6741 
   -6997    -7321    -7595    -7686    -7543    -7242    -6916    -6679 
   -6608    -6710    -6922    -7155    -7330    -7433    -7473    -7420 
   -7240    -6970    -6713    -6579    -6632    -6835    -7111    -7385 
   -7572    -7635    -7596    -7480    -7296    -7071    -6867    -6735 
   -6677    -6675    -6740    -6898    -7144    -7414    -7605    -7654 
   -7535    -7271    -6974    -6775    -6713    -6740    -6809    -6905 
   -7014    -7118    -7206    -7281    -7321    -7284    -7157    -6991 
   -6879    -6872    -6930    -6999    -7074    -7145    -7202    -7252 
   -7304    -7339    -7330    -7261    -7142    -6997    -6859    -6762 
   -6744    -6822    -6951    -7057    -7132    -7204    -7290    -7358 
   -7362    -7284    -7132    -6933    -6756    -6698    -6802    -7009 
   -7226    -7403    -7522    -7568    -7506    -7314    -7037    -6779 
   -6606    -6540    -6606    -6794    -7048    -7280    -7423    -7479 
   -7484    -7442    -7341    -7190    -7015    -6852    -6759    -6782 
   -6922    -7113    -7256    -7294    -7229    -7094    -6929    -6798 
   -6759    -6822    -6953    -7091    -7195    -7252    -7238    -7137 
   -6995    -6895    -6889    -6983    -7163    -7395    -7616    -7730 
   -7663    -7435    -7123    -6821    -6621    -6563    -6651    -6852 
   -7075    -7246    -7353    -7404    -7412    -7383    -7325    -7246 
   -7168    -7105    -7061    -7038    -7005    -6903    -6739    -6582 
   -6508    -6570    -6787    -7114    -7473    -7790    -7967    -7923 
   -7676    -7298    -6858    -6470    -6245    -6227    -6436    -6798 
   -7194    -7545    -7780    -7858    -7777    -7541    -7211    -6889 
   -6654    -6569    -6631    -6794    -6997    -7160    -7249    -7273 
   -7240    -7171    -7099    -7059    -7063    -7092    -7134    -7169 
   -7176    -7150    -7084    -6988    -6912    -6885    -6934    -7063 
   -7236    -7393    -7453    -7368    -7179    -6970    -6821    -6782 
   -6849    -6998    -7173    -7310    -7361    -7318    -7225    -7128 
   -7045    -7006    -7022    -7072    -7133    -7184    -7198    -7152 
   -7034    -6875    -6735    -6666    -6705    -6852    -7082    -7342 
   -7546    -7611    -7530    -7346    -7098    -6835    -6632    -6544 
   -6574    -6698    -6880    -7082    -7263    -7383    -7430    -7427 
   -7407    -7380    -7314    -7203    -7064    -6910    -6779    -6720 
   -6766    -6930    -7175    -7431    -7630    -7730    -7715    -7580 
   -7335    -7024    -6687    -6385    -6178    -6126    -6268    -6596 
   -7045    -7524    -7927    -8162    -8185    -7977    -7566    -7047 
   -6535    -6138    -5958    -6053    -6397    -6897    -7425    -7835 
   -8012    -7932    -7634    -7207    -6777    -6444    -6284    -6327 
   -6550    -6879    -7217    -7469    -7581    -7551    -7429    -7272 
   -7117    -6979    -6872    -6814    -6825    -6902    -7028    -7161 
   -7268    -7329    -7344    -7321    -7285    -7265    -7263    -7261 
   -7241    -7192    -7129    -7078    -7044    -7014    -6976    -6928 
   -6898    -6920    -6991    -7103    -7248    -7383    -7465    -7473 
   -7412    -7308    -7172    -7013    -6863    -6760    -6731    -6775 
   -6897    -7065    -7221    -7302    -7281    -7169    -7018    -6898 
   -6856    -6902    -7003    -7114    -7190    -7219    -7221    -7200 
   -7172    -7140    -7101    -7059    -7024    -7006    -7028    -7086 
   -7141    -7152    -7115    -7047    -6967    -6899    -6867    -6882 
   -6943    -7030    -7126    -7217    -7287    -7325    -7321    -7280 
   -7226    -7175    -7140    -7126    -7129    -7148    -7179    -7211 
   -7236    -7234    -7179    -7072    -6940    -6813    -6732    -6713 
   -6743    -6817    -6921    -7024    -7115    -7195    -7244    -7281 
   -7331    -7387    -7425    -7415    -7344    -7236    -7130    -7044 
   -6976    -6925    -6893    -6893    -6921    -6964    -7014    -7065 
   -7106    -7123    -7125    -7128    -7130    -7133    -7134    -7118 
   -7083    -7042    -7007    -6987    -6990    -7028    -7096    -7169 
   -7234    -7268    -7252    -7191    -7110    -7042    -7005    -6993 
   -6991    -6986    -6966    -6943    -6949    -7005    -7086    -7160 
   -7196    -7182    -7126    -7051    -6980    -6941    -6945    -7002 
   -7125    -7276    -7392    -7437    -7391    -7261    -7083    -6899 
   -6758    -6702    -6740    -6860    -7042    -7256    -7454    -7584 
   -7595    -7472    -7263    -7038    -6876    -6829    -6895    -7022 
   -7150    -7237    -7256    -7214    -7136    -7044    -6968    -6940 
   -6967    -7049    -7157    -7244    -7261    -7194    -7061    -6913 
   -6812    -6810    -6926    -7126    -7356    -7541    -7622    -7576 
   -7406    -7142    -6866    -6662    -6573    -6608    -6736    -6909 
   -7082    -7217    -7281    -7279    -7219    -7119    -7030    -6988 
   -6998    -7059    -7138    -7196    -7214    -7188    -7126    -7041 
   -6957    -6909    -6914    -6972    -7083    -7222    -7346    -7414 
   -7393    -7280    -7107    -6930    -6790    -6720    -6725    -6787 
   -6882    -6986    -7091    -7198    -7304    -7395    -7453    -7454 
   -7391    -7277    -7130    -6970    -6844    -6785    -6793    -6867 
   -7005    -7179    -7345    -7462    -7487    -7402    -7227    -7011 
   -6805    -6663    -6628    -6706    -6874    -7099    -7322    -7479 
   -7534    -7477    -7323    -7106    -6868    -6670    -6573    -6609 
   -6754    -6951    -7149    -7302    -7376    -7375    -7322    -7240 
   -7144    -7063    -7010    -6990    -7005    -7042    -7092    -7157 
   -7231    -7307    -7372    -7412    -7422    -7384    -7291    -7167 
   -7048    -6948    -6879    -6871    -6918    -7003    -7099    -7173 
   -7204    -7203    -7188    -7173    -7173    -7176    -7155    -7103 
   -7040    -6979    -6925    -6880    -6851    -6833    -6836    -6866 
   -6922    -7002    -7098    -7186    -7249    -7276    -7253    -7176 
   -7049    -6901    -6781    -6727    -6755    -6856    -7005    -7169 
   -7321    -7427    -7468    -7435    -7337    -7188    -7034    -6921 
   -6872    -6890    -6971    -7095    -7229    -7344    -7404    -7381 
   -7283    -7142    -7002    -6893    -6853    -6903    -7025    -7173 
   -7315    -7422    -7479    -7472    -7392    -7248    -7072    -6898 
   -6775    -6741    -6793    -6906    -7049    -7176    -7253    -7260 
   -7191    -7074    -6941    -6817    -6729    -6710    -6762    -6872 
   -7015    -7144    -7222    -7236    -7195    -7126    -7063    -7033 
   -7071    -7180    -7329    -7470    -7568    -7576    -7474    -7281 
   -7040    -6816    -6678    -6663    -6760    -6944    -7168    -7372 
   -7512    -7554    -7485    -7322    -7115    -6928    -6812    -6791 
   -6864    -7002    -7156    -7283    -7352    -7338    -7244    -7094 
   -6936    -6828    -6814    -6897    -7033    -7173    -7273    -7304 
   -7263    -7163    -7029    -6897    -6799    -6763    -6809    -6929 
   -7088    -7242    -7349    -7384    -7348    -7252    -7117    -6980 
   -6878    -6821    -6814    -6862    -6944    -7033    -7096    -7126 
   -7132    -7125    -7129    -7165    -7210    -7242    -7248    -7209 
   -7142    -7075    -7025    -7013    -7047    -7119    -7218    -7303 
   -7339    -7310    -7206    -7055    -6917    -6831    -6824    -6913 
   -7071    -7257    -7433    -7546    -7551    -7437    -7219    -6947 
   -6697    -6539    -6511    -6608    -6786    -6994    -7191    -7354 
   -7462    -7510    -7488    -7406    -7291    -7164    -7042    -6959 
   -6926    -6934    -6970    -7020    -7067    -7101    -7117    -7111 
   -7084    -7051    -7015    -6976    -6939    -6906    -6879    -6860 
   -6849    -6833    -6809    -6781    -6737    -6694    -6677    -6694 
   -6748    -6831    -6920    -6987    -7022    -7024    -7009    -6999 
   -7011    -7042    -7082    -7123    -7161    -7180    -7164    -7107 
   -7020    -6929    -6851    -6798    -6782    -6799    -6849    -6937 
   -7056    -7192    -7333    -7452    -7528    -7562    -7557    -7510 
   -7430    -7345    -7275    -7240    -7254    -7326    -7437    -7560 
   -7676    -7763    -7803    -7800    -7759    -7696    -7631    -7585 
   -7570    -7592    -7628    -7647    -7631    -7578    -7506    -7442 
   -7408    -7395    -7380    -7354    -7318    -7246    -7130    -6970 
   -6751    -6488    -6228    -6026    -5931    -5979    -6170    -6473 
   -6831    -7161    -7392    -7484    -7423    -7215    -6912    -6578 
   -6288    -6112    -6079    -6174    -6380    -6648    -6916    -7136 
   -7280    -7356    -7385    -7391    -7389    -7406    -7442    -7480 
   -7504    -7507    -7474    -7400    -7287    -7163    -7067    -7028 
   -7047    -7119    -7225    -7322    -7384    -7403    -7376    -7329 
   -7288    -7249    -7207    -7175    -7148    -7117    -7094    -7088 
   -7109    -7159    -7234    -7325    -7422    -7497    -7520    -7473 
   -7360    -7198    -7017    -6847    -6708    -6609    -6550    -6512 
   -6473    -6431    -6386    -6322    -6239    -6170    -6135    -6138 
   -6188    -6289    -6439    -6628    -6821    -6987    -7113    -7182 
   -7183    -7129    -7040    -6945    -6870    -6835    -6872    -7015 
   -7248    -7516    -7776    -7981    -8095    -8094    -7970    -7751 
   -7472    -7165    -6874    -6642    -6498    -6467    -6552    -6729 
   -6967    -7231    -7469    -7642    -7744    -7766    -7700    -7564 
   -7396    -7230    -7092    -7018    -7024    -7106    -7244    -7393 
   -7516    -7587    -7585    -7516    -7403    -7279    -7184    -7145 
   -7177    -7284    -7437    -7591    -7689    -7684    -7570    -7377 
   -7128    -6858    -6623    -6442    -6331    -6307    -6349    -6427 
   -6527    -6624    -6690    -6716    -6714    -6705    -6683    -6639 
   -6563    -6455    -6320    -6170    -6034    -5958    -5992    -6149 
   -6431    -6829    -7306    -7794    -8213    -8499    -8618    -8560 
   -8337    -7992    -7584    -7171    -6809    -6548    -6431    -6482 
   -6682    -6986    -7357    -7738    -8043    -8205    -8194    -8010 
   -7693    -7310    -6930    -6639    -6517    -6597    -6841    -7155 
   -7412    -7524    -7443    -7175    -6789    -6397    -6110    -6019 
   -6183    -6600    -7183    -7790    -8297    -8600    -8629    -8390 
   -7955    -7433    -6957    -6646    -6562    -6727    -7103    -7596 
   -8083    -8463    -8658    -8631    -8395    -7990    -7472    -6918 
   -6417    -6030    -5796    -5733    -5840    -6083    -6420    -6786 
   -7086    -7248    -7252    -7096    -6822    -6488    -6157    -5900 
   -5791    -5867    -6114    -6481    -6895    -7271    -7541    -7668 
   -7624    -7443    -7206    -6982    -6832    -6804    -6910    -7138 
   -7446    -7762    -7996    -8070    -7946    -7632    -7188    -6708 
   -6289    -6029    -5995    -6204    -6616    -7144    -7673    -8082 
   -8264    -8164    -7777    -7164    -6451    -5783    -5313    -5150 
   -5316    -5773    -6442    -7183    -7844    -8302    -8482    -8370 
   -8006    -7470    -6894    -6417    -6137    -6107    -6326    -6744 
   -7269    -7776    -8163    -8370    -8360    -8144    -7771    -7341 
   -6980    -6764    -6720    -6849    -7118    -7461    -7773    -7962 
   -7989    -7847    -7564    -7219    -6890    -6635    -6502    -6515 
   -6659    -6914    -7233    -7538    -7766    -7875    -7828    -7604 
   -7218    -6714    -6168    -5680    -5340    -5211    -5321    -5649 
   -6114    -6602    -6994    -7184    -7122    -6818    -6346    -5845 
   -5464    -5323    -5486    -5942    -6609    -7361    -8050    -8544 
   -8787    -8781    -8577    -8266    -7954    -7715    -7614    -7688 
   -7915    -8229    -8568    -8853    -9011    -8993    -8806    -8475 
   -8047    -7588    -7176    -6866    -6678    -6612    -6647    -6735 
   -6810    -6831    -6767    -6617    -6408    -6172    -5957    -5810 
   -5746    -5778    -5896    -6070    -6262    -6453    -6625    -6777 
   -6914    -7044    -7168    -7284    -7383    -7457    -7500    -7506 
   -7469    -7400    -7315    -7244    -7198    -7188    -7222    -7288 
   -7377    -7479    -7577    -7670    -7762    -7847    -7925    -8009 
   -8089    -8151    -8193    -8199    -8167    -8105    -8029    -7947 
   -7869    -7803    -7728    -7620    -7461    -7245    -6968    -6650 
   -6313    -5988    -5722    -5549    -5463    -5470    -5568    -5714 
   -5860    -5969    -6007    -5969    -5867    -5729    -5606    -5533 
   -5540    -5648    -5838    -6073    -6319    -6535    -6696    -6806 
   -6886    -6970    -7094    -7276    -7515    -7798    -8100    -8379 
   -8606    -8737    -8760    -8683    -8519    -8303    -8074    -7857 
   -7678    -7553    -7468    -7427    -7419    -7411    -7380    -7325 
   -7238    -7121    -6984    -6836    -6694    -6579    -6494    -6438 
   -6416    -6421    -6434    -6447    -6473    -6523    -6605    -6716 
   -6837    -6956    -7056    -7125    -7150    -7122    -7049    -6967 
   -6910    -6893    -6925    -7018    -7167    -7356    -7564    -7749 
   -7875    -7938    -7936    -7873    -7757    -7614    -7470    -7354 
   -7264    -7176    -7074    -6975    -6909    -6874    -6872    -6928 
   -7030    -7148    -7267    -7358    -7396    -7385    -7331    -7248 
   -7167    -7114    -7095    -7122    -7198    -7311    -7454    -7612 
   -7792    -7983    -8164    -8328    -8461    -8527    -8507    -8399 
   -8203    -7921    -7587    -7242    -6922    -6662    -6480    -6359 
   -6286    -6255    -6264    -6299    -6359    -6426    -6471    -6480 
   -6428    -6319    -6165    -5964    -5736    -5528    -5379    -5346 
   -5468    -5724    -6069    -6463    -6843    -7146    -7346    -7427 
   -7406    -7335    -7277    -7271    -7325    -7425    -7554    -7682 
   -7753    -7726    -7597    -7387    -7128    -6864    -6652    -6525 
   -6497    -6571    -6724    -6917    -7103    -7236    -7296    -7295 
   -7244    -7156    -7055    -6966    -6901    -6875    -6893    -6943 
   -7010    -7096    -7202    -7300    -7376    -7418    -7416    -7376 
   -7311    -7240    -7198    -7214    -7291    -7419    -7576    -7726 
   -7843    -7901    -7875    -7767    -7599    -7408    -7237    -7107 
   -7034    -7024    -7055    -7086    -7079    -7006    -6868    -6678 
   -6443    -6203    -6018    -5929    -5953    -6088    -6316    -6602 
   -6902    -7160    -7344    -7450    -7491    -7489    -7484    -7503 
   -7573    -7701    -7875    -8056    -8198    -8264    -8216    -8036 
   -7751    -7392    -7007    -6670    -6444    -6376    -6490    -6771 
   -7163    -7595    -7978    -8235    -8313    -8209    -7955    -7603 
   -7226    -6913    -6721    -6660    -6720    -6859    -7014    -7128 
   -7167    -7125    -7010    -6863    -6743    -6698    -6754    -6914 
   -7150    -7403    -7618    -7751    -7766    -7651    -7425    -7117 
   -6767    -6434    -6168    -6003    -5948    -5985    -6087    -6224 
   -6361    -6465    -6513    -6507    -6448    -6358    -6276    -6235 
   -6261    -6373    -6562    -6797    -7052    -7298    -7491    -7601 
   -7619    -7543    -7399    -7230    -7086    -7009    -7017    -7118 
   -7311    -7564    -7819    -8009    -8095    -8064    -7929    -7738 
   -7549    -7415    -7385    -7477    -7670    -7931    -8206    -8425 
   -8522    -8467    -8252    -7906    -7497    -7091    -6735    -6467 
   -6315    -6280    -6328    -6417    -6498    -6520    -6458    -6318 
   -6116    -5880    -5648    -5466    -5364    -5351    -5428    -5594 
   -5833    -6120    -6419    -6689    -6917    -7106    -7257    -7381 
   -7487    -7566    -7628    -7690    -7757    -7819    -7863    -7875 
   -7846    -7774    -7666    -7545    -7441    -7371    -7349    -7383 
   -7464    -7573    -7685    -7771    -7808    -7770    -7649    -7456 
   -7221    -6970    -6728    -6524    -6393    -6354    -6400    -6504 
   -6631    -6752    -6851    -6897    -6886    -6835    -6752    -6658 
   -6585    -6551    -6573    -6666    -6826    -7040    -7273    -7506 
   -7712    -7866    -7958    -7993    -7982    -7942    -7896    -7863 
   -7844    -7836    -7840    -7843    -7832    -7794    -7717    -7593 
   -7433    -7250    -7071    -6924    -6816    -6744    -6718    -6727 
   -6750    -6794    -6848    -6894    -6937    -6979    -7015    -7047 
   -7071    -7074    -7044    -6979    -6889    -6783    -6677    -6578 
   -6501    -6454    -6440    -6453    -6493    -6544    -6578    -6589 
   -6588    -6578    -6571    -6590    -6647    -6751    -6909    -7119 
   -7377    -7661    -7944    -8210    -8434    -8592    -8665    -8660 
   -8590    -8448    -8241    -7997    -7726    -7445    -7173    -6925 
   -6736    -6624    -6571    -6555    -6566    -6577    -6556    -6497 
