Origin Time       2025/03/29 04:45:00
Lat.              31.090
Long.             131.512
Depth. (km)       33
Mag.              4.6
Station Code      MYZH14
Station Lat.      31.5649
Station Long.     131.3510
Station Height(m) 5
Record Time       2025/03/29 04:45:25
Sampling Freq(Hz) 100Hz
Duration Time(s)  120
Dir.              4
Scale Factor      7845(gal)/8223790
Max. Acc. (gal)   3.696
Last Correction   2025/03/29 04:45:26
Memo.             
[...]
    2813     2816     2814     2812     2812     2812     2812     2813 
    2814     2817     2816     2813     2812     2812     2810     2809 
    2812     2814     2814     2814     2812     2810     2813     2816 
    2814     2813     2810     2810     2813     2816     2814     2813 
    2813     2816     2813     2813     2817     2814     2812     2814 
    2814     2813     2813     2813     2812     2813     2814     2812 
    2810     2812     2810     2812     2814     2812     2813     2814 
    2813     2813     2812     2813     2814     2812     2810     2814 
    2814     2810     2810     2813     2813     2813     2814     2812 
    2810     2814     2814     2812     2813     2813     2809     2810 
    2816     2814     2814     2816     2813     2810     2812     2812 
    2814     2817     2814     2810     2810     2813     2814     2814 
    2813     2813     2814     2814     2813     2813     2816     2814 
    2810     2812     2812     2812     2812     2812     2814     2813 
    2813     2814     2813     2812     2814     2816     2816     2814 
    2812     2812     2814     2813     2812     2814     2816     2814 
    2813     2812     2813     2814     2813     2812     2813     2814 
    2814     2810     2813     2816     2814     2813     2814     2816 
    2814     2814     2814     2816     2816     2813     2814     2816 
    2813     2813     2813     2813     2813     2813     2812     2813 
    2816     2816     2813     2812     2812     2813     2814     2813 
    2812     2812     2812     2810     2812     2812     2812     2813 
    2813     2812     2812     2812     2812     2813     2814     2813 
    2812     2810     2813     2817     2814     2810     2812     2816 
    2816     2814     2814     2813     2813     2814     2816     2814 
    2813     2813     2813     2813     2812     2813     2816     2814 
    2812     2814     2817     2814     2812     2812     2813     2816 
    2814     2812     2813     2816     2814     2812     2813     2812 
    2809     2812     2813     2814     2816     2814     2814     2813 
    2812     2812     2812     2812     2814     2814     2813     2814 
    2812     2809     2810     2812     2813     2814     2814     2813 
    2810     2810     2814     2814     2813     2813     2813     2816 
    2816     2812     2812     2813     2814     2813     2810     2812 
    2813     2812     2813     2813     2813     2813     2812     2813 
    2816     2813     2809     2810     2814     2816     2813     2812 
    2812     2812     2813     2813     2813     2813     2813     2812 
    2810     2814     2814     2812     2810     2810     2810     2812 
    2813     2812     2812     2813     2813     2812     2810     2812 
    2814     2813     2810     2812     2813     2813     2812     2810 
    2813     2816     2814     2814     2813     2813     2814     2814 
    2813     2814     2814     2814     2814     2814     2814     2812 
    2812     2813     2813     2814     2813     2810     2810     2814 
    2816     2813     2814     2814     2813     2813     2814     2814 
    2813     2813     2812     2810     2813     2813     2812     2812 
    2813     2810     2809     2813     2814     2813     2812     2809 
    2809     2812     2813     2813     2813     2812     2814     2814 
    2812     2812     2813     2814     2813     2813     2816     2816 
    2812     2810     2813     2814     2812     2812     2814     2812 
    2812     2812     2812     2813     2813     2812     2813     2813 
    2812     2816     2814     2812     2814     2816     2812     2810 
    2813     2813     2812     2810     2812     2814     2813     2810 
    2812     2814     2813     2813     2813     2812     2814     2818 
    2814     2810     2813     2814     2812     2810     2813     2813 
    2813     2813     2812     2813     2813     2810     2809     2812 
    2813     2813     2812     2812     2809     2805     2801     2795 
    2790     2790     2794     2797     2799     2802     2797     2782 
    2764     2743     2718     2706     2704     2701     2704     2718 
    2748     2790     2835     2868     2887     2901     2903     2882 
    2836     2785     2744     2722     2724     2751     2809     2886 
    2968     3051     3125     3179     3203     3190     3152     3103 
    3042     2964     2871     2778     2691     2609     2540     2501 
    2486     2481     2484     2508     2574     2666     2741     2774 
    2778     2774     2747     2667     2551     2444     2390     2408 
    2475     2563     2655     2758     2884     3024     3156     3280 
    3381     3431     3416     3343     3248     3169     3125     3098 
    3073     3037     2964     2830     2652     2481     2381     2381 
    2484     2670     2897     3136     3352     3457     3346     3038 
    2671     2377     2191     2095     2077     2155     2343     2575 
    2731     2747     2652     2502     2370     2335     2454     2721 
    3082     3473     3809     4009     4032     3846     3430     2859 
    2286     1881     1750     1867     2120     2452     2860     3254 
    3480     3468     3311     3164     3099     3069     3001     2847 
    2577     2226     1942     1858     1960     2141     2299     2397 
    2482     2627     2841     3092     3348     3591     3820     4024 
    4131     4051     3790     3445     3092     2759     2455     2203 
    2022     1914     1877     1948     2178     2538     2895     3132 
    3219     3186     3072     2918     2763     2637     2548     2500 
    2524     2639     2775     2824     2764     2644     2501     2381 
    2365     2532     2901     3375     3777     3975     3958     3769 
    3460     3083     2666     2227     1829     1566     1507     1675 
    2033     2509     3007     3442     3766     3944     3936     3732 
    3389     3003     2643     2335     2084     1902     1827     1926 
    2219     2641     3088     3468     3716     3808     3761     3604 
    3361     3048     2679     2286     1948     1771     1798     2003 
    2331     2710     3067     3335     3449     3393     3242     3086 
    2957     2849     2758     2706     2717     2775     2836     2833 
    2727     2559     2413     2353     2427     2655     2948     3144 
    3148     3001     2817     2706     2727     2876     3105     3323 
    3433     3350     3073     2712     2385     2142     2026     2089 
    2338     2695     3036     3265     3373     3402     3368     3248 
    3048     2832     2682     2608     2563     2517     2475     2413 
    2292     2135     2035     2095     2358     2760     3175     3512 
    3744     3858     3863     3778     3608     3341     2988     2620 
    2293     2018     1792     1651     1645     1796     2068     2416 
    2832     3302     3765     4141     4372     4415     4247     3856 
    3268     2565     1881     1364     1128     1210     1548     2030 
    2566     3098     3572     3919     4085     4058     3848     3481 
    3003     2512     2116     1858     1723     1682     1707     1799 
    1946     2114     2315     2617     3029     3476     3869     4125 
    4186     4036     3699     3223     2721     2323     2091     2007 
    2053     2242     2589     3034     3458     3748     3840     3738 
    3483     3129     2756     2478     2374     2444     2643     2914 
    3192     3384     3388     3164     2760     2315     1973     1788 
    1756     1863     2056     2255     2416     2543     2671     2816 
    2945     3001     2952     2837     2722     2658     2677     2779 
    2925     3061     3132     3114     3026     2922     2864     2857 
    2882     2949     3068     3231     3410     3537     3549     3439 
    3231     2960     2712     2589     2617     2725     2816     2814 
    2683     2455     2209     2004     1895     1946     2188     2560 
    2951     3245     3388     3402     3352     3294     3245     3199 
    3134     3005     2808     2585     2366     2170     2022     1931 
    1929     2072     2378     2786     3217     3605     3873     3970 
    3882     3586     3107     2552     2064     1788     1829     2180 
    2732     3315     3762     3937     3786     3358     2775     2205 
    1818     1710     1880     2245     2697     3146     3518     3754 
    3809     3659     3331     2893     2428     2029     1767     1694 
    1829     2123     2485     2821     3049     3137     3103     3006 
    2916     2891     2957     3103     3294     3478     3599     3601 
    3454     3167     2822     2540     2392     2369     2439     2535 
    2582     2570     2509     2403     2293     2250     2295     2436 
    2685     3010     3360     3672     3901     4037     4055     3912 
    3588     3098     2508     1919     1440     1188     1228     1521 
    1944     2354     2650     2806     2862     2872     2903     3007 
    3179     3360     3499     3582     3608     3574     3478     3302 
    3032     2677     2300     2027     1972     2174     2586     3071 
    3470     3684     3678     3469     3121     2721     2361     2123 
    2057     2169     2423     2752     3069     3302     3379     3281 
    3060     2789     2523     2299     2158     2139     2261     2498 
    2795     3082     3292     3385     3349     3186     2925     2623 
    2355     2182     2154     2289     2560     2894     3207     3420 
    3493     3422     3229     2960     2668     2407     2234     2192 
    2288     2482     2712     2913     3036     3086     3122     3192 
    3308     3445     3553     3569     3451     3192     2821     2398 
    2016     1767     1694     1787     2008     2309     2623     2887 
    3067     3156     3172     3148     3123     3119     3142     3177 
    3196     3181     3134     3075     3021     2970     2906     2830 
    2744     2658     2586     2546     2546     2578     2628     2682 
    2745     2803     2833     2812     2732     2620     2519     2466 
    2485     2581     2735     2909     3060     3153     3161     3082 
    2928     2741     2597     2555     2643     2843     3076     3258 
    3327     3244     3026     2737     2455     2263     2215     2303 
    2485     2705     2906     3046     3106     3078     2982     2867 
    2774     2733     2763     2844     2944     3030     3067     3049 
    2987     2895     2790     2687     2613     2596     2639     2728 
    2832     2918     2948     2897     2774     2616     2462     2365 
    2354     2431     2589     2801     3018     3195     3298     3306 
    3238     3123     2994     2890     2826     2798     2783     2754 
    2691     2605     2527     2509     2590     2768     2997     3207 
    3342     3379     3323     3207     3071     2951     2859     2785 
    2716     2633     2533     2452     2440     2536     2745     3017 
    3261     3395     3373     3198     2913     2608     2373     2247 
    2239     2331     2501     2727     2971     3207     3427     3642 
    3843     3996     4060     4023     3889     3678     3418     3126 
    2806     2454     2081     1725     1443     1298     1331     1547 
    1907     2344     2776     3111     3289     3307     3190     2983 
    2739     2497     2288     2127     2015     1949     1930     1956 
    2026     2145     2300     2478     2678     2893     3118     3342 
    3546     3711     3819     3834     3713     3435     3015     2509 
    2014     1622     1404     1399     1610     1995     2484     2990 
    3427     3730     3854     3796     3589     3276     2910     2550 
    2239     2027     1952     2010     2173     2386     2582     2716 
    2767     2747     2691     2635     2617     2677     2808     2986 
    3179     3335     3415     3420     3379     3331     3312     3319 
    3337     3337     3292     3200     3099     3017     2967     2952 
    2956     2945     2909     2860     2830     2847     2921     3030 
    3145     3235     3280     3272     3237     3206     3199     3222 
    3262     3295     3296     3262     3180     3051     2880     2667 
    2408     2119     1836     1599     1452     1436     1574     1857 
    2246     2674     3049     3310     3438     3434     3311     3094 
    2817     2517     2234     2014     1896     1888     1977     2126 
    2289     2443     2570     2662     2735     2805     2889     2994 
    3122     3269     3426     3572     3674     3701     3640     3484 
    3241     2952     2666     2427     2276     2234     2315     2532 
    2868     3277     3708     4095     4364     4449     4305     3940 
    3422     2840     2290     1858     1607     1556     1682     1938 
    2265     2593     2860     3022     3068     3037     2994     2990 
    3046     3146     3250     3306     3272     3127     2860     2479 
    2029     1571     1179      934      896     1094     1529     2154 
    2855     3505     4018     4332     4396     4229     3882     3410 
    2875     2363     1950     1694     1647     1806     2124     2547 
    3009     3445     3816     4122     4375     4577     4720     4777 
    4712     4483     4086     3557     2932     2268     1644     1125 
     762      581      583      768     1131     1638     2212     2756 
    3186     3426     3435     3213     2805     2293     1768     1298 
     931      714      696      899     1302     1856     2486     3095 
    3615     4044     4402     4710     5012     5348     5717     6091 
    6416     6636     6687     6521     6114     5479     4662     3738 
    2785     1876     1089      484       71     -162     -244     -216 
    -109       74      330      642      985     1325     1630     1896 
    2164     2481     2855     3256     3650     3985     4216     4336 
    4363     4326     4259     4170     4040     3852     3585     3229 
    2814     2405     2068     1864     1837     1981     2247     2566 
    2883     3165     3395     3558     3638     3623     3505     3295 
    3032     2756     2493     2268     2079     1906     1741     1586 
    1437     1304     1224     1233     1348     1571     1881     2231 
    2563     2824     2976     3011     2949     2830     2698     2596 
    2548     2555     2605     2689     2791     2891     2982     3075 
    3163     3206     3177     3080     2952     2853     2845     2983 
    3294     3744     4266     4777     5220     5540     5699     5676 
    5458     5065     4550     3946     3260     2523     1782     1100 
     540      144      -60      -83       55      338      733     1189 
    1688     2231     2813     3416     4017     4565     5000     5267 
    5304     5062     4541     3782     2870     1946     1167      643 
     440      567      990     1629     2350     3010     3520     3847 
    4000     4027     3998     3960     3932     3906     3840     3672 
    3354     2880     2308     1736     1254      934      823      928 
    1220     1659     2184     2741     3299     3816     4244     4545 
    4703     4730     4644     4446     4153     3797     3395     2959 
    2504     2033     1567     1155      842      672      670      843 
    1186     1672     2250     2862     3430     3894     4220     4403 
    4464     4421     4287     4079     3792     3415     2978     2520 
    2088     1715     1435     1289     1305     1468     1740     2081 
    2446     2813     3191     3580     3943     4217     4341     4299 
    4116     3843     3559     3314     3114     2945     2791     2640 
    2492     2365     2288     2258     2263     2304     2366     2457 
    2583     2737     2905     3052     3140     3133     2997     2743 
    2423     2087     1806     1628     1561     1597     1701     1830 
    1941     2010     2047     2080     2112     2150     2224     2357 
    2546     2798     3114     3454     3755     3971     4075     4058 
    3927     3721     3493     3277     3099     2974     2906     2905 
    2967     3080     3227     3377     3510     3620     3701     3744 
    3753     3732     3694     3661     3651     3658     3649     3591 
    3453     3181     2776     2292     1767     1255      831      525 
     334      257      284      392      554      750      969     1215 
    1480     1763     2066     2384     2713     3059     3410     3746 
    4079     4426     4787     5142     5472     5771     6007     6153 
    6207     6168     6027     5768     5364     4807     4113     3329 
    2523     1759     1108      650      398      319      380      530 
     731      949     1146     1329     1510     1668     1803     1923 
    2018     2085     2149     2208     2239     2247     2253     2270 
    2336     2505     2816     3268     3813     4372     4858     5179 
    5283     5162     4820     4280     3588     2829     2088     1439 
     947      652      544      594      766     1021     1312     1594 
    1852     2106     2380     2694     3055     3456     3863     4229 
    4510     4679     4722     4642     4475     4257     4005     3735 
    3466     3215     3006     2826     2648     2479     2338     2235 
    2176     2146     2133     2137     2169     2224     2308     2440 
    2624     2844     3084     3308     3483     3596     3653     3672 
    3684     3690     3682     3653     3588     3480     3319     3099 
    2839     2585     2355     2162     2018     1911     1825     1748 
    1674     1598     1543     1533     1591     1737     1958     2231 
    2528     2813     3055     3237     3338     3338     3248     3087 
    2880     2682     2548     2501     2562     2737     2994     3289 
    3581     3812     3935     3916     3753     3480     3144     2794 
    2496     2280     2157     2135     2204     2335     2500     2674 
    2821     2921     2970     2956     2872     2755     2641     2565 
    2546     2594     2705     2866     3041     3190     3289     3325 
    3291     3194     3049     2855     2620     2380     2174     2029 
    1957     1989     2131     2358     2650     2975     3279     3511 
    3657     3713     3685     3588     3454     3319     3215     3159 
    3156     3202     3275     3333     3343     3300     3213     3098 
    2975     2872     2817     2812     2836     2849     2798     2644 
    2385     2039     1647     1266      947      714      589      587 
     704      930     1247     1633     2057     2494     2928     3333 
    3686     3978     4201     4357     4452     4492     4471     4382 
    4220     3996     3751     3539     3396     3352     3418     3570 
    3771     3986     4170     4274     4268     4143     3894     3522 
    3049     2511     1952     1420      959      604      359      209 
     147      164      261      445      730     1127     1629     2215 
    2835     3427     3925     4275     4460     4471     4324     4068 
    3751     3414     3095     2833     2658     2571     2578     2678 
    2836     3014     3207     3396     3559     3697     3816     3898 
    3936     3920     3823     3632     3366     3046     2704     2380 
    2104     1883     1725     1630     1575     1547     1552     1602 
    1714     1902     2149     2432     2732     3030     3314     3570 
    3790     3973     4085     4105     4033     3867     3603     3283 
    2960     2667     2419     2232     2116     2061     2061     2120 
