Origin Time       2025/03/29 04:45:00
Lat.              31.090
Long.             131.512
Depth. (km)       33
Mag.              4.6
Station Code      MYZH03
Station Lat.      32.4754
Station Long.     131.1043
Station Height(m) 519
Record Time       2025/03/29 04:46:03
Sampling Freq(Hz) 100Hz
Duration Time(s)  120
Dir.              5
Scale Factor      7845(gal)/8223790
Max. Acc. (gal)   0.309
Last Correction   2025/03/29 04:46:04
Memo.             
[...]
    8719     8718     8725     8702     8703     8715     8712     8726 
    8706     8680     8712     8734     8743     8762     8757     8770 
    8785     8762     8743     8718     8694     8698     8673     8649 
    8665     8675     8676     8677     8681     8714     8760     8789 
    8791     8756     8726     8715     8696     8679     8668     8662 
    8692     8731     8733     8721     8725     8734     8743     8742 
    8733     8743     8756     8743     8733     8712     8687     8695 
    8692     8665     8665     8687     8714     8727     8721     8730 
    8748     8760     8769     8753     8735     8737     8723     8716 
    8703     8685     8714     8730     8722     8716     8692     8700 
    8731     8712     8700     8694     8680     8710     8716     8699 
    8719     8734     8753     8766     8742     8753     8769     8764 
    8781     8766     8745     8756     8719     8677     8656     8623 
    8657     8699     8687     8699     8711     8727     8764     8731 
    8703     8722     8698     8692     8703     8672     8699     8741 
    8742     8762     8761     8761     8789     8758     8729     8726 
    8695     8700     8698     8648     8645     8653     8660     8700 
    8707     8723     8776     8787     8789     8781     8750     8775 
    8781     8735     8718     8689     8667     8684     8669     8658 
    8677     8680     8695     8698     8675     8689     8721     8746 
    8769     8764     8762     8775     8761     8735     8719     8719 
    8729     8733     8723     8696     8679     8681     8675     8667 
    8667     8694     8735     8750     8761     8770     8760     8773 
    8766     8723     8711     8700     8692     8703     8673     8658 
    8677     8680     8703     8712     8704     8733     8737     8726 
    8734     8718     8729     8743     8719     8725     8730     8734 
    8765     8748     8729     8735     8721     8731     8721     8669 
    8673     8687     8700     8723     8702     8704     8742     8741 
    8741     8734     8725     8745     8734     8721     8721     8699 
    8711     8722     8685     8677     8687     8698     8729     8739 
    8743     8754     8757     8766     8749     8706     8700     8704 
    8683     8668     8665     8677     8702     8714     8718     8723 
    8735     8752     8752     8735     8737     8757     8760     8746 
    8725     8707     8716     8727     8716     8694     8671     8677 
    8694     8675     8661     8665     8668     8687     8700     8710 
    8746     8775     8772     8761     8742     8733     8750     8762 
    8746     8725     8712     8712     8719     8710     8699     8716 
    8746     8758     8748     8729     8714     8706     8702     8692 
    8679     8696     8723     8721     8718     8719     8721     8741 
    8735     8706     8702     8699     8700     8710     8695     8700 
    8727     8739     8746     8727     8718     8746     8754     8749 
    8739     8702     8689     8692     8681     8684     8688     8707 
    8746     8742     8731     8746     8746     8741     8733     8708 
    8708     8727     8730     8708     8683     8679     8695     8708 
    8712     8719     8733     8752     8764     8753     8742     8741 
    8729     8712     8684     8658     8675     8688     8677     8667 
    8649     8662     8699     8711     8727     8742     8745     8768 
    8765     8734     8730     8730     8734     8733     8710     8708 
    8721     8723     8726     8714     8719     8749     8760     8764 
    8752     8746     8765     8753     8733     8727     8702     8696 
    8696     8660     8652     8667     8681     8706     8704     8695 
    8702     8706     8723     8739     8749     8765     8772     8772 
    8762     8731     8722     8730     8723     8710     8689     8683 
    8696     8691     8671     8667     8675     8708     8745     8749 
    8760     8780     8769     8757     8730     8704     8729     8737 
    8721     8710     8677     8680     8706     8688     8696     8715 
    8712     8741     8735     8716     8738     8731     8734     8737 
    8680     8668     8684     8669     8696     8696     8691     8752 
    8762     8750     8776     8761     8779     8795     8723     8698 
    8691     8658     8685     8672     8642     8688     8695     8702 
    8729     8702     8730     8766     8742     8757     8741     8708 
    8741     8702     8665     8711     8711     8734     8762     8707 
    8714     8742     8730     8773     8761     8731     8787     8777 
    8757     8775     8725     8729     8748     8689     8689     8685 
    8657     8692     8672     8650     8696     8689     8699     8712 
    8669     8700     8733     8722     8754     8731     8704     8745 
    8731     8729     8758     8734     8749     8748     8676     8658 
    8650     8635     8665     8656     8656     8712     8726     8741 
    8764     8737     8753     8784     8765     8781     8791     8777 
    8806     8783     8738     8743     8719     8706     8704     8656 
    8671     8710     8700     8721     8707     8679     8714     8708 
    8698     8711     8685     8707     8723     8675     8684     8688 
    8676     8714     8704     8696     8745     8754     8773     8788 
    8761     8789     8808     8785     8788     8746     8719     8746 
    8716     8695     8692     8669     8695     8700     8672     8689 
    8689     8698     8719     8685     8685     8712     8704     8711 
    8691     8668     8702     8711     8715     8726     8703     8719 
    8739     8715     8719     8726     8745     8784     8772     8764 
    8770     8741     8731     8714     8683     8702     8708     8700 
    8702     8675     8687     8719     8706     8698     8680     8660 
    8687     8700     8699     8706     8700     8715     8722     8699 
    8711     8723     8723     8737     8731     8729     8749     8758 
    8766     8760     8741     8765     8787     8775     8757     8718 
    8695     8700     8685     8680     8696     8707     8729     8727 
    8708     8723     8743     8760     8760     8723     8718     8739 
    8742     8725     8688     8667     8667     8656     8660     8673 
    8688     8725     8733     8719     8712     8699     8723     8758 
    8750     8748     8754     8748     8742     8726     8714     8719 
    8721     8712     8694     8684     8703     8726     8735     8727 
    8719     8742     8770     8780     8779     8760     8741     8737 
    8716     8681     8662     8669     8680     8677     8676     8681 
    8706     8738     8733     8719     8738     8749     8757     8749 
    8710     8703     8715     8704     8698     8675     8660     8683 
    8685     8675     8668     8669     8698     8710     8710     8723 
    8719     8734     8750     8723     8718     8727     8729     8753 
    8746     8734     8768     8787     8785     8773     8753     8768 
    8777     8765     8761     8729     8707     8711     8680     8657 
    8668     8691     8731     8733     8706     8716     8718     8725 
    8738     8699     8683     8700     8685     8677     8656     8630 
    8656     8665     8671     8707     8714     8749     8795     8775 
    8783     8799     8792     8810     8772     8714     8719     8703 
    8688     8679     8635     8646     8667     8658     8691     8696 
    8700     8754     8750     8729     8731     8716     8738     8749 
    8715     8719     8712     8700     8719     8695     8691     8735 
    8739     8752     8757     8730     8753     8777     8772     8765 
    8730     8712     8718     8694     8684     8685     8685     8702 
    8683     8653     8668     8692     8712     8718     8702     8711 
    8739     8754     8768     8765     8761     8784     8785     8758 
    8750     8746     8750     8758     8733     8707     8707     8706 
    8700     8681     8654     8648     8660     8673     8668     8650 
    8658     8676     8676     8683     8696     8721     8757     8764 
    8761     8769     8766     8772     8756     8706     8685     8695 
    8712     8737     8735     8741     8760     8766     8768     8752 
    8735     8753     8756     8735     8707     8672     8671     8677 
    8662     8664     8672     8692     8727     8723     8712     8722 
    8723     8731     8738     8735     8743     8753     8748     8719 
    8695     8711     8715     8699     8691     8672     8676     8695 
    8685     8683     8671     8677     8731     8731     8715     8729 
    8710     8725     8741     8702     8710     8715     8696     8716 
    8695     8680     8722     8714     8714     8727     8716     8753 
    8768     8745     8749     8725     8730     8768     8741     8733 
    8734     8704     8726     8716     8677     8704     8712     8722 
    8743     8699     8696     8733     8715     8725     8730     8715 
    8748     8742     8714     8725     8721     8745     8780     8756 
    8753     8764     8750     8752     8716     8680     8689     8675 
    8667     8680     8672     8702     8737     8722     8726     8737 
    8742     8775     8779     8754     8748     8738     8730     8721 
    8700     8703     8727     8749     8769     8770     8765     8781 
    8781     8756     8737     8719     8719     8735     8723     8714 
    8723     8725     8730     8715     8669     8657     8662     8646 
    8648     8645     8646     8676     8683     8675     8692     8714 
    8757     8793     8787     8785     8776     8742     8716     8669 
    8634     8654     8676     8703     8734     8735     8761     8792 
    8776     8757     8741     8727     8737     8725     8700     8699 
    8696     8708     8715     8676     8661     8681     8683     8692 
    8699     8702     8727     8737     8737     8746     8730     8737 
    8765     8734     8702     8698     8688     8695     8681     8657 
    8683     8712     8730     8756     8745     8746     8781     8777 
    8760     8745     8729     8738     8729     8692     8667     8638 
    8626     8642     8641     8644     8660     8669     8681     8683 
    8691     8735     8784     8815     8820     8807     8803     8799 
    8780     8750     8716     8711     8722     8725     8730     8729 
    8739     8761     8754     8758     8762     8752     8757     8726 
    8668     8656     8642     8634     8642     8621     8631     8671 
    8691     8733     8741     8731     8776     8777     8766     8780 
    8743     8741     8742     8685     8691     8704     8719     8789 
    8772     8743     8780     8749     8735     8733     8664     8669 
    8677     8641     8671     8658     8660     8739     8733     8731 
    8766     8741     8762     8768     8714     8726     8722     8714 
    8741     8694     8673     8703     8683     8696     8700     8679 
    8714     8710     8681     8689     8667     8689     8730     8704 
    8704     8702     8684     8712     8695     8667     8700     8716 
    8733     8737     8706     8725     8760     8769     8793     8789 
    8775     8783     8762     8735     8712     8689     8707     8715 
    8691     8700     8711     8704     8710     8691     8662     8672 
    8681     8684     8689     8685     8699     8726     8726     8727 
    8733     8735     8756     8754     8737     8739     8746     8765 
    8777     8757     8758     8775     8779     8795     8780     8764 
    8784     8776     8752     8738     8708     8711     8739     8734 
    8734     8743     8750     8776     8766     8735     8748     8753 
    8735     8723     8692     8667     8672     8672     8669     8667 
    8669     8698     8710     8694     8704     8734     8758     8775 
    8766     8742     8725     8707     8694     8676     8650     8652 
    8671     8660     8646     8649     8653     8669     8671     8638 
    8619     8617     8625     8649     8654     8660     8689     8708 
    8711     8710     8703     8718     8748     8743     8723     8711 
    8711     8727     8729     8714     8723     8730     8730     8742 
    8729     8715     8738     8743     8748     8773     8791     8824 
    8839     8797     8766     8739     8719     8726     8692     8658 
    8687     8708     8733     8762     8756     8780     8810     8804 
    8822     8818     8806     8831     8800     8739     8706     8652 
    8630     8631     8600     8619     8662     8681     8716     8710 
    8695     8722     8718     8719     8731     8718     8734     8741 
    8715     8711     8696     8704     8748     8752     8749     8760 
    8752     8746     8714     8656     8614     8586     8561     8532 
    8502     8503     8537     8584     8625     8665     8731     8802 
    8858     8888     8876     8865     8860     8830     8787     8741 
    8714     8722     8722     8725     8742     8773     8837     8874 
    8878     8900     8903     8896     8910     8876     8841     8835 
    8808     8787     8756     8718     8735     8750     8749     8768 
    8765     8772     8799     8783     8745     8704     8667     8653 
    8629     8594     8586     8598     8615     8621     8606     8600 
    8611     8613     8600     8572     8546     8541     8533     8506 
    8490     8499     8529     8576     8607     8623     8667     8694 
    8706     8722     8702     8691     8712     8694     8667     8646 
    8622     8650     8680     8685     8731     8777     8829     8901 
    8928     8957     9012     9030     9043     9018     8947     8931 
    8905     8842     8818     8779     8752     8770     8741     8711 
    8721     8708     8745     8797     8788     8810     8835     8814 
    8803     8750     8698     8700     8661     8617     8602     8563 
    8576     8608     8596     8617     8621     8621     8676     8662 
    8645     8680     8652     8642     8644     8575     8581     8596 
    8556     8577     8569     8549     8622     8641     8646     8710 
    8731     8777     8827     8806     8819     8833     8816     8842 
    8814     8777     8808     8795     8785     8796     8753     8764 
    8788     8756     8766     8750     8723     8775     8769     8749 
    8777     8745     8749     8775     8719     8723     8743     8695 
    8700     8685     8662     8733     8757     8754     8781     8752 
    8761     8784     8735     8718     8687     8642     8673     8668 
    8648     8671     8652     8653     8661     8615     8641     8673 
    8654     8679     8664     8631     8661     8648     8631     8638 
    8623     8656     8675     8634     8633     8633     8641     8680 
    8669     8668     8691     8680     8684     8675     8657     8683 
    8687     8703     8735     8729     8752     8781     8769     8769 
    8766     8779     8818     8822     8827     8838     8849     8884 
    8876     8853     8865     8857     8873     8869     8802     8776 
    8746     8694     8685     8640     8617     8664     8654     8652 
    8660     8629     8662     8687     8654     8669     8677     8695 
    8753     8752     8749     8762     8729     8725     8711     8673 
    8715     8754     8768     8799     8781     8783     8819     8799 
    8795     8793     8766     8793     8788     8734     8729     8715 
    8712     8738     8711     8719     8760     8765     8800     8806 
    8775     8800     8797     8766     8764     8737     8739     8769 
    8741     8714     8694     8654     8635     8598     8554     8545 
    8534     8544     8556     8540     8553     8596     8629     8657 
    8672     8689     8733     8772     8783     8779     8773     8775 
    8781     8773     8754     8765     8787     8785     8780     8757 
    8729     8719     8689     8660     8657     8646     8661     8688 
    8675     8676     8699     8714     8731     8702     8673     8683 
    8664     8660     8672     8658     8681     8703     8704     8729 
    8712     8718     8760     8726     8710     8718     8673     8671 
    8657     8604     8619     8621     8621     8660     8641     8648 
    8696     8699     8739     8758     8730     8766     8772     8761 
    8799     8787     8807     8847     8800     8792     8803     8780 
    8808     8792     8756     8791     8781     8781     8804     8756 
    8753     8768     8742     8757     8730     8714     8764     8729 
    8708     8735     8707     8733     8754     8716     8725     8706 
    8702     8733     8680     8668     8691     8661     8691     8689 
    8661     8719     8719     8708     8749     8721     8739     8789 
    8753     8749     8726     8683     8715     8694     8662     8695 
    8681     8708     8742     8711     8739     8754     8749     8793 
    8770     8772     8834     8816     8816     8812     8764     8788 
    8788     8748     8752     8727     8737     8783     8760     8753 
    8761     8746     8757     8725     8687     8703     8689     8676 
    8669     8618     8603     8604     8579     8577     8557     8548 
    8591     8600     8599     8629     8650     8691     8727     8723 
    8733     8737     8738     8754     8734     8707     8722     8726 
    8722     8715     8695     8707     8722     8707     8704     8688 
    8688     8731     8738     8731     8748     8752     8769     8781 
    8756     8748     8750     8750     8757     8741     8745     8779 
    8783     8776     8768     8752     8760     8760     8731     8708 
    8687     8675     8667     8626     8594     8594     8610     8635 
    8640     8629     8638     8654     8676     8699     8702     8710 
    8733     8734     8706     8685     8696     8704     8702     8698 
    8685     8695     8716     8719     8714     8699     8694     8716 
    8715     8699     8711     8725     8750     8784     8781     8787 
    8812     8819     8820     8800     8780     8800     8810     8808 
    8818     8811     8818     8839     8835     8837     8841     8838 
    8856     8846     8800     8776     8752     8718     8680     8629 
    8608     8627     8633     8638     8638     8635     8669     8699 
    8695     8699     8694     8696     8708     8679     8669     8689 
    8687     8700     8699     8669     8694     8722     8725     8733 
    8721     8727     8753     8742     8735     8733     8731     8764 
    8777     8762     8765     8777     8789     8788     8765     8750 
    8742     8739     8733     8715     8707     8716     8731     8731 
    8715     8725     8745     8753     8752     8727     8708     8712 
    8699     8681     8661     8644     8664     8677     8665     8664 
    8658     8662     8667     8637     8614     8600     8588     8598 
    8588     8579     8614     8638     8662     8695     8704     8730 
    8762     8758     8754     8741     8733     8753     8745     8719 
    8716     8716     8731     8748     8723     8703     8715     8722 
    8726     8708     8684     8691     8676     8638     8630     8622 
    8631     8679     8700     8703     8718     8738     8779     8800 
    8795     8815     8827     8824     8833     8814     8788     8799 
    8791     8764     8753     8746     8752     8761     8745     8727 
    8723     8718     8727     8725     8696     8710     8739     8731 
    8738     8739     8731     8760     8756     8729     8731     8718 
