Origin Time       2025/03/29 04:45:00
Lat.              31.090
Long.             131.512
Depth. (km)       33
Mag.              4.6
Station Code      MYZH03
Station Lat.      32.4754
Station Long.     131.1043
Station Height(m) 319
Record Time       2025/03/29 04:46:03
Sampling Freq(Hz) 100Hz
Duration Time(s)  120
Dir.              3
Scale Factor      2942(gal)/8224139
Max. Acc. (gal)   0.099
Last Correction   2025/03/29 04:46:04
Memo.             
[...]
   65907    65904    65898    65901    65902    65897    65892    65894 
   65898    65900    65901    65902    65902    65902    65904    65904 
   65908    65912    65917    65929    65938    65935    65931    65925 
   65917    65909    65904    65901    65908    65920    65927    65932 
   65939    65942    65939    65938    65931    65920    65905    65897 
   65901    65904    65904    65912    65917    65919    65919    65916 
   65917    65924    65929    65929    65927    65932    65942    65940 
   65942    65948    65944    65939    65942    65940    65929    65924 
   65928    65934    65931    65924    65917    65915    65909    65904 
   65905    65907    65911    65919    65921    65923    65921    65916 
   65907    65900    65894    65896    65900    65908    65923    65935 
   65939    65942    65940    65932    65923    65911    65900    65897 
   65896    65893    65898    65901    65896    65897    65904    65909 
   65911    65917    65928    65935    65939    65946    65950    65952 
   65950    65947    65947    65940    65924    65913    65908    65908 
   65911    65908    65908    65909    65904    65898    65904    65916 
   65925    65934    65938    65940    65946    65946    65943    65947 
   65947    65942    65934    65924    65915    65907    65900    65896 
   65890    65892    65890    65888    65896    65902    65904    65909 
   65911    65919    65927    65924    65921    65921    65917    65919 
   65916    65913    65912    65911    65916    65920    65913    65915 
   65920    65920    65917    65916    65916    65911    65909    65911 
   65909    65909    65915    65924    65932    65934    65928    65924 
   65925    65928    65927    65929    65934    65935    65938    65944 
   65947    65947    65946    65942    65943    65942    65934    65938 
   65942    65936    65936    65938    65931    65924    65924    65931 
   65931    65925    65923    65917    65915    65913    65908    65902 
   65902    65907    65908    65904    65908    65911    65912    65917 
   65917    65912    65920    65928    65924    65921    65920    65913 
   65913    65920    65919    65919    65925    65921    65916    65920 
   65920    65916    65916    65913    65909    65915    65921    65921 
   65923    65925    65928    65925    65924    65927    65927    65924 
   65928    65931    65927    65920    65919    65920    65916    65911 
   65909    65908    65908    65908    65909    65911    65911    65912 
   65913    65915    65911    65909    65911    65909    65907    65905 
   65905    65902    65900    65897    65896    65898    65900    65896 
   65894    65900    65900    65894    65894    65898    65902    65911 
   65913    65908    65911    65913    65912    65916    65920    65920 
   65923    65928    65935    65942    65948    65952    65954    65952 
   65950    65952    65954    65950    65946    65940    65936    65932 
   65929    65927    65920    65913    65909    65905    65896    65892 
   65892    65889    65886    65890    65900    65905    65902    65901 
   65901    65901    65912    65917    65913    65919    65929    65928 
   65928    65935    65935    65939    65951    65955    65959    65963 
   65963    65965    65966    65965    65965    65965    65965    65958 
   65952    65951    65943    65924    65912    65905    65900    65890 
   65877    65871    65870    65874    65878    65881    65890    65898 
   65902    65915    65929    65934    65936    65943    65942    65939 
   65940    65943    65946    65950    65955    65962    65963    65959 
   65958    65956    65950    65947    65942    65938    65940    65944 
   65943    65938    65924    65909    65900    65888    65877    65870 
   65855    65839    65832    65824    65819    65824    65831    65838 
   65850    65863    65878    65894    65905    65921    65938    65942 
   65942    65946    65943    65944    65950    65951    65950    65950 
   65950    65947    65943    65940    65939    65936    65935    65936 
   65936    65936    65938    65940    65942    65942    65932    65924 
   65917    65915    65913    65912    65905    65902    65900    65896 
   65893    65889    65886    65890    65894    65896    65900    65904 
   65901    65902    65908    65909    65915    65921    65920    65916 
   65913    65909    65904    65902    65901    65897    65897    65900 
   65901    65901    65907    65916    65924    65921    65916    65923 
   65928    65925    65924    65928    65928    65924    65921    65921 
   65924    65925    65928    65934    65938    65935    65929    65928 
   65927    65923    65925    65931    65932    65938    65943    65944 
   65944    65943    65942    65938    65932    65935    65931    65921 
   65924    65932    65934    65932    65932    65928    65925    65927 
   65928    65929    65938    65939    65929    65924    65927    65927 
   65921    65924    65931    65927    65916    65909    65904    65902 
   65901    65900    65898    65890    65890    65898    65897    65896 
   65898    65908    65920    65921    65917    65919    65924    65928 
   65934    65935    65934    65931    65931    65932    65934    65936 
   65938    65942    65946    65946    65944    65940    65935    65925 
   65916    65909    65904    65897    65893    65888    65877    65867 
   65863    65859    65862    65867    65870    65877    65888    65893 
   65902    65912    65921    65934    65943    65948    65952    65954 
   65956    65954    65950    65951    65948    65942    65940    65940 
   65940    65943    65943    65940    65936    65929    65924    65921 
   65923    65920    65909    65909    65916    65915    65919    65924 
   65921    65924    65928    65924    65920    65916    65909    65905 
   65904    65901    65905    65911    65911    65911    65915    65916 
   65919    65927    65928    65928    65936    65935    65928    65929 
   65928    65925    65921    65917    65917    65919    65915    65916 
   65919    65916    65912    65908    65905    65901    65900    65902 
   65900    65898    65901    65897    65897    65901    65902    65907 
   65913    65911    65908    65917    65924    65925    65928    65929 
   65929    65931    65934    65935    65934    65931    65929    65928 
   65925    65920    65920    65920    65919    65919    65921    65927 
   65934    65934    65931    65929    65923    65916    65915    65915 
   65915    65908    65900    65897    65896    65894    65894    65890 
   65892    65900    65907    65908    65912    65921    65924    65927 
   65931    65935    65939    65940    65940    65944    65946    65940 
   65939    65943    65943    65943    65942    65936    65931    65934 
   65935    65935    65936    65929    65920    65921    65920    65915 
   65917    65923    65925    65927    65929    65931    65929    65928 
   65925    65927    65932    65935    65931    65931    65929    65923 
   65913    65908    65907    65909    65909    65902    65904    65912 
   65908    65902    65902    65892    65884    65881    65873    65866 
   65865    65866    65865    65862    65874    65885    65896    65907 
   65916    65927    65938    65943    65952    65961    65965    65973 
   65977    65974    65975    65982    65981    65975    65977    65977 
   65967    65956    65946    65936    65931    65929    65928    65929 
   65925    65921    65924    65925    65919    65908    65901    65896 
   65888    65886    65885    65882    65888    65892    65890    65894 
   65898    65901    65905    65909    65912    65913    65917    65924 
   65929    65934    65931    65928    65929    65931    65932    65929 
   65920    65912    65908    65905    65898    65893    65894    65894 
   65892    65892    65898    65900    65898    65905    65909    65904 
   65907    65912    65911    65909    65911    65913    65915    65916 
   65921    65928    65928    65931    65935    65931    65928    65929 
   65935    65942    65947    65950    65951    65952    65951    65947 
   65942    65938    65932    65928    65929    65924    65916    65915 
   65912    65908    65909    65911    65909    65907    65904    65904 
   65901    65904    65908    65907    65905    65905    65904    65907 
   65904    65897    65898    65898    65896    65902    65907    65894 
   65881    65875    65869    65858    65850    65846    65850    65854 
   65861    65869    65884    65901    65915    65929    65947    65962 
   65971    65970    65971    65978    65978    65974    65973    65971 
   65969    65969    65967    65965    65963    65962    65961    65958 
   65961    65966    65956    65942    65936    65927    65913    65913 
   65913    65907    65908    65913    65909    65904    65901    65898 
   65893    65886    65885    65892    65894    65896    65908    65920 
   65924    65935    65947    65947    65946    65946    65947    65950 
   65948    65947    65947    65948    65952    65955    65955    65951 
   65944    65939    65934    65934    65943    65952    65961    65967 
   65969    65967    65967    65959    65946    65938    65935    65927 
   65917    65916    65911    65901    65896    65889    65873    65857 
   65846    65840    65836    65838    65848    65857    65866    65884 
   65894    65898    65904    65912    65913    65909    65907    65904 
   65902    65905    65909    65909    65916    65932    65940    65944 
   65943    65935    65928    65917    65904    65892    65886    65888 
   65894    65894    65892    65893    65893    65885    65874    65871 
   65869    65861    65858    65867    65878    65890    65907    65912 
   65917    65931    65928    65919    65925    65928    65921    65924 
   65934    65934    65929    65932    65936    65935    65932    65928 
   65921    65916    65915    65909    65911    65921    65931    65936 
   65948    65959    65970    65985    65990    65992    66001    66008 
   66004    66001    66002    66000    65994    65985    65975    65970 
   65958    65946    65936    65925    65919    65913    65911    65912 
   65901    65888    65889    65890    65885    65877    65866    65857 
   65847    65832    65820    65820    65827    65836    65848    65870 
   65893    65911    65929    65943    65946    65948    65954    65951 
   65943    65939    65938    65934    65931    65932    65935    65935 
   65934    65932    65932    65932    65924    65917    65913    65909 
   65911    65921    65935    65950    65969    65983    65994    66009 
   66015    66006    65996    65979    65952    65924    65900    65884 
   65866    65853    65854    65857    65857    65861    65865    65870 
   65874    65875    65881    65882    65882    65884    65886    65892 
   65897    65893    65888    65897    65904    65897    65898    65912 
   65915    65908    65907    65904    65901    65902    65905    65911 
   65921    65935    65948    65958    65958    65959    65958    65955 
   65961    65969    65967    65963    65961    65962    65965    65956 
   65950    65952    65954    65955    65963    65973    65979    65985 
   65989    65989    65981    65967    65956    65947    65939    65934 
   65927    65923    65919    65913    65905    65890    65874    65862 
   65848    65835    65821    65808    65799    65790    65781    65778 
   65789    65801    65812    65834    65858    65875    65888    65897 
   65908    65920    65925    65929    65931    65935    65940    65942 
   65947    65959    65970    65982    65997    66008    66016    66028 
   66043    66055    66063    66070    66071    66071    66063    66046 
   66037    66032    66016    65994    65974    65943    65908    65882 
   65862    65836    65816    65805    65793    65790    65796    65796 
   65801    65816    65823    65832    65846    65855    65865    65874 
   65874    65875    65884    65890    65892    65894    65900    65904 
   65909    65912    65911    65909    65907    65902    65902    65898 
   65890    65880    65875    65881    65882    65885    65900    65916 
   65924    65931    65942    65951    65956    65956    65955    65954 
   65952    65954    65961    65967    65978    65986    65990    65994 
   65997    65989    65981    65981    65981    65974    65970    65967 
   65967    65970    65977    65979    65978    65978    65975    65971 
   65966    65952    65936    65917    65897    65888    65881    65869 
   65861    65853    65846    65836    65827    65819    65807    65800 
   65793    65785    65788    65799    65805    65817    65832    65846 
   65859    65867    65875    65889    65901    65905    65908    65912 
   65915    65919    65929    65936    65936    65938    65946    65947 
   65942    65940    65938    65929    65925    65923    65915    65911 
   65915    65919    65924    65927    65928    65934    65936    65939 
   65946    65952    65961    65967    65971    65979    65989    65988 
   65982    65978    65973    65969    65967    65969    65973    65978 
   65985    65994    66005    66017    66025    66029    66033    66035 
   66033    66032    66031    66023    66012    66000    65989    65974 
   65952    65929    65901    65873    65844    65816    65792    65770 
   65749    65736    65734    65735    65732    65730    65732    65735 
   65732    65726    65722    65716    65712    65716    65722    65726 
   65742    65762    65778    65794    65811    65824    65839    65848 
   65858    65869    65886    65904    65923    65940    65962    65989 
   66010    66029    66051    66070    66090    66108    66121    66132 
   66141    66159    66174    66182    66190    66194    66195    66189 
   66179    66164    66141    66120    66106    66086    66063    66047 
   66035    66023    66009    66002    66001    65996    65985    65971 
   65958    65946    65928    65907    65888    65870    65853    65831 
   65809    65792    65774    65761    65753    65745    65734    65726 
   65719    65712    65705    65697    65692    65691    65689    65688 
   65695    65703    65707    65718    65734    65745    65754    65763 
   65774    65786    65801    65824    65847    65866    65892    65920 
   65943    65966    65982    65993    66005    66020    66033    66042 
   66043    66046    66054    66060    66060    66066    66074    66078 
   66077    66081    66083    66082    66083    66079    66066    66052 
   66037    66020    66002    65982    65959    65935    65913    65892 
   65870    65850    65832    65820    65809    65796    65790    65789 
   65786    65788    65796    65808    65815    65819    65830    65838 
   65846    65869    65885    65896    65908    65916    65921    65928 
   65932    65932    65943    65948    65943    65944    65950    65944 
   65936    65931    65923    65908    65892    65881    65874    65871 
   65878    65878    65880    65890    65901    65909    65920    65935 
   65952    65966    65977    65990    65998    66001    66006    66009 
   66006    66004    66001    66000    66001    66001    66002    66006 
   66009    66010    66013    66009    66002    66000    65994    65985 
   65979    65967    65955    65951    65943    65932    65928    65923 
   65911    65898    65888    65875    65865    65853    65842    65836 
   65834    65838    65836    65827    65827    65828    65820    65819 
   65816    65809    65811    65817    65827    65839    65848    65857 
   65870    65885    65898    65913    65929    65943    65959    65978 
   65992    66002    66012    66019    66024    66025    66023    66023 
   66021    66020    66019    66016    66017    66010    65998    65992 
   65986    65975    65973    65971    65965    65961    65954    65942 
   65928    65915    65901    65893    65885    65874    65871    65867 
   65851    65843    65836    65823    65819    65815    65803    65792 
   65790    65792    65793    65796    65803    65808    65815    65827 
   65838    65846    65861    65873    65885    65900    65911    65917 
   65931    65948    65958    65966    65982    65997    66005    66013 
   66023    66032    66033    66032    66031    66028    66024    66019 
   66006    66000    65997    65985    65969    65956    65948    65942 
   65928    65917    65913    65908    65902    65893    65875    65862 
   65853    65838    65826    65815    65800    65792    65789    65785 
   65781    65776    65773    65773    65776    65776    65781    65793 
   65807    65813    65823    65835    65851    65873    65894    65916 
   65943    65967    65982    66001    66021    66032    66039    66047 
   66051    66054    66058    66058    66056    66054    66043    66029 
   66019    66001    65985    65973    65952    65929    65913    65896 
   65880    65874    65869    65863    65866    65866    65866    65869 
   65867    65867    65867    65865    65867    65873    65877    65878 
   65880    65888    65897    65902    65909    65921    65938    65950 
   65958    65967    65974    65982    65992    65996    66001    66009 
   66008    66006    66012    66013    66016    66020    66020    66016 
   66010    66002    65997    65988    65978    65971    65969    65965 
   65958    65951    65942    65936    65935    65928    65921    65923 
   65917    65915    65917    65913    65909    65907    65902    65905 
   65905    65904    65908    65907    65901    65900    65897    65894 
   65898    65902    65894    65892    65896    65898    65897    65898 
   65907    65913    65916    65915    65911    65908    65905    65904 
   65894    65882    65875    65867    65861    65854    65844    65836 
   65834    65828    65820    65817    65817    65815    65823    65832 
   65835    65838    65840    65846    65850    65851    65857    65862 
   65866    65867    65871    65878    65882    65886    65896    65904 
   65911    65917    65924    65940    65959    65971    65986    66000 
   66015    66031    66052    66073    66086    66100    66116    66121 
   66121    66123    66113    66101    66089    66062    66036    66019 
   65994    65973    65958    65936    65915    65901    65888    65874 
   65861    65844    65831    65819    65801    65790    65789    65784 
   65772    65767    65770    65763    65758    65758    65754    65746 
   65743    65746    65747    65755    65765    65774    65789    65808 
   65826    65851    65875    65888    65904    65929    65948    65963 
   65982    66000    66012    66028    66047    66059    66071    66086 
   66089    66090    66097    66096    66096    66098    66096    66093 
   66090    66089    66089    66083    66074    66069    66062    66052 
   66042    66027    66004    65986    65975    65956    65932    65915 
   65896    65878    65863    65851    65840    65828    65817    65811 
   65804    65803    65803    65805    65811    65815    65821    65828 
   65835    65848    65862    65869    65874    65885    65898    65904 
   65913    65927    65932    65938    65943    65944    65947    65947 
   65942    65940    65936    65928    65924    65923    65916    65909 
   65907    65904    65904    65900    65893    65888    65886    65889 
   65888    65881    65884    65882    65871    65871    65874    65867 
   65863    65866    65866    65870    65878    65884    65889    65892 
   65894    65900    65902    65908    65916    65923    65929    65934 
   65939    65946    65947    65950    65959    65966    65966    65966 
   65971    65971    65962    65962    65962    65951    65946    65942 
