Origin Time       2025/03/29 04:45:00
Lat.              31.090
Long.             131.512
Depth. (km)       33
Mag.              4.6
Station Code      MYZH13
Station Lat.      31.7301
Station Long.     131.0791
Station Height(m) 35
Record Time       2025/03/29 04:45:34
Sampling Freq(Hz) 100Hz
Duration Time(s)  120
Dir.              3
Scale Factor      2942(gal)/8224139
Max. Acc. (gal)   0.323
Last Correction   2025/03/29 04:45:34
Memo.             
[...]
  326548   326656   326795   326941   327055   327107   327080   326979 
  326830   326671   326535   326439   326382   326362   326385   326435 
  326497   326563   326636   326704   326741   326756   326764   326764 
  326752   326732   326690   326608   326484   326350   326255   326232 
  326274   326357   326459   326571   326691   326814   326932   327017 
  327046   327009   326910   326778   326647   326539   326466   326444 
  326479   326556   326632   326675   326683   326655   326616   326600 
  326621   326675   326743   326798   326821   326808   326762   326686 
  326578   326457   326350   326289   326290   326365   326505   326670 
  326822   326929   326964   326930   326845   326751   326678   326639 
  326644   326695   326758   326803   326813   326775   326705   326633 
  326592   326587   326606   326629   326641   326636   326627   326628 
  326623   326594   326560   326529   326525   326566   326629   326690 
  326733   326747   326725   326685   326636   326597   326585   326609 
  326666   326735   326775   326763   326704   326614   326523   326459 
  326431   326443   326494   326578   326682   326787   326870   326906 
  326883   326805   326702   326601   326516   326448   326400   326373 
  326367   326384   326424   326479   326535   326581   326627   326687 
  326752   326801   326820   326795   326735   326663   326605   326563 
  326527   326493   326485   326513   326567   326637   326709   326759 
  326772   326751   326717   326689   326675   326683   326698   326689 
  326648   326590   326538   326516   326529   326570   326629   326700 
  326775   326845   326895   326916   326895   326839   326762   326682 
  326617   326578   326574   326597   326636   326682   326718   326735 
  326733   326718   326694   326675   326668   326655   326623   326583 
  326551   326529   326524   326532   326550   326575   326601   326633 
  326674   326701   326705   326687   326646   326601   326575   326573 
  326585   326604   326620   326629   326635   326643   326656   326674 
  326689   326694   326685   326671   326667   326677   326686   326695 
  326704   326702   326701   326713   326736   326766   326794   326801 
  326786   326766   326752   326745   326732   326708   326674   326641 
  326608   326574   326538   326498   326458   326425   326409   326415 
  326432   326454   326473   326481   326479   326479   326479   326481 
  326485   326489   326488   326484   326482   326492   326523   326578 
  326655   326728   326768   326783   326781   326767   326755   326748 
  326744   326737   326712   326668   326620   326571   326533   326521 
  326542   326593   326673   326771   326871   326961   327024   327024 
  326967   326872   326763   326673   326629   326640   326693   326762 
  326835   326905   326959   326978   326951   326875   326770   326663 
  326585   326548   326546   326566   326605   326656   326706   326743 
  326754   326724   326666   326597   326524   326454   326394   326350 
  326331   326359   326434   326533   326629   326690   326691   326637 
  326554   326465   326390   326346   326339   326376   326446   326532 
  326612   326675   326714   326733   326740   326736   326722   326701 
  326677   326658   326654   326659   326659   326641   326614   326583 
  326562   326565   326601   326660   326717   326739   326712   326647 
  326563   326488   326440   326443   326497   326592   326708   326821 
  326905   326948   326934   326868   326776   326678   326593   326552 
  326563   326612   326681   326759   326829   326867   326859   326806 
  326725   326637   326567   326512   326469   326431   326386   326338 
  326300   326277   326277   326300   326330   326361   326396   326436 
  326479   326529   326585   326641   326706   326776   326847   326911 
  326955   326976   326987   326991   326988   326974   326949   326932 
  326938   326970   327024   327095   327152   327163   327129   327065 
  326984   326897   326810   326735   326678   326636   326604   326567 
  326516   326455   326390   326332   326288   326258   326231   326211 
  326205   326223   326268   326326   326374   326398   326398   326385 
  326376   326385   326416   326465   326531   326613   326702   326787 
  326841   326855   326830   326771   326689   326608   326533   326474 
  326442   326451   326511   326621   326756   326872   326937   326952 
  326922   326867   326809   326755   326697   326641   326596   326556 
  326532   326529   326535   326550   326579   326610   326644   326695 
  326748   326783   326797   326793   326770   326743   326728   326725 
  326729   326748   326785   326829   326875   326917   326932   326899 
  326840   326764   326671   326582   326521   326485   326478   326498 
  326523   326539   326547   326535   326501   326455   326403   326365 
  326354   326354   326351   326361   326390   326439   326505   326577 
  326636   326679   326706   326716   326716   326712   326704   326682 
  326652   326628   326604   326578   326550   326520   326497   326493 
  326502   326520   326551   326590   326614   326624   326628   326625 
  326620   326619   326620   326631   326650   326670   326695   326741 
  326814   326909   327005   327083   327130   327137   327111   327067 
  327013   326951   326872   326787   326722   326702   326729   326798 
  326880   326937   326948   326916   326853   326774   326675   326569 
  326466   326384   326339   326336   326367   326411   326442   326432 
  326374   326277   326150   326011   325885   325799   325759   325763 
  325813   325908   326045   326200   326354   326489   326590   326655 
  326690   326710   326722   326733   326739   326729   326709   326700 
  326712   326749   326820   326909   326991   327065   327129   327177 
  327200   327196   327165   327111   327052   326997   326944   326907 
  326887   326876   326878   326884   326882   326866   326840   326803 
  326759   326716   326674   326616   326546   326484   326435   326405 
  326398   326412   326457   326517   326575   326628   326681   326716 
  326720   326695   326666   326656   326667   326693   326731   326779 
  326835   326887   326933   326963   326971   326951   326911   326872 
  326849   326840   326837   326832   326822   326795   326752   326704 
  326656   326614   326581   326560   326569   326600   326633   326660 
  326660   326633   326594   326550   326517   326513   326540   326577 
  326606   326621   326619   326600   326566   326529   326509   326519 
  326554   326608   326674   326739   326779   326793   326783   326762 
  326732   326708   326714   326754   326808   326862   326907   326932 
  326922   326876   326798   326689   326581   326500   326446   326424 
  326439   326461   326463   326446   326398   326322   326242   326170 
  326116   326107   326145   326211   326295   326389   326475   326538 
  326570   326569   326547   326521   326496   326467   326448   326455 
  326492   326548   326612   326673   326721   326743   326736   326710 
  326667   326610   326554   326517   326515   326550   326612   326693 
  326785   326871   326938   326979   326987   326964   326913   326835 
  326732   326629   326547   326500   326494   326523   326563   326600 
  326632   326648   326647   326641   326640   326639   326640   326648 
  326666   326685   326687   326675   326652   326613   326569   326533 
  326504   326485   326484   326501   326535   326585   326644   326701 
  326751   326793   326820   326828   326809   326760   326682   326579 
  326471   326378   326316   326307   326362   326482   326656   326860 
  327057   327213   327298   327300   327233   327111   326953   326791 
  326656   326569   326529   326527   326539   326551   326554   326538 
  326511   326484   326463   326461   326479   326512   326550   326597 
  326650   326691   326714   326729   326747   326770   326803   326837 
  326864   326878   326871   326849   326821   326787   326764   326767 
  326789   326818   326847   326860   326851   326820   326776   326727 
  326663   326578   326474   326370   326300   326282   326303   326344 
  326405   326471   326520   326556   326589   326619   326643   326652 
  326632   326583   326500   326393   326284   326191   326119   326080 
  326085   326135   326222   326342   326488   326646   326808   326952 
  327063   327137   327169   327159   327117   327056   326983   326903 
  326818   326736   326660   326593   326535   326492   326465   326458 
  326466   326494   326544   326610   326683   326752   326810   326847 
  326860   326859   326849   326833   326806   326766   326713   326659 
  326614   326582   326567   326569   326590   326631   326685   326748 
  326813   326874   326926   326963   326983   326995   327002   326998 
  326979   326941   326880   326797   326701   326605   326516   326444 
  326403   326386   326393   326427   326484   326547   326614   326685 
  326754   326816   326859   326872   326860   326812   326733   326637 
  326528   326412   326307   326220   326160   326138   326151   326187 
  326239   326297   326347   326403   326470   326529   326563   326571 
  326551   326502   326438   326371   326311   326261   326231   326230 
  326261   326324   326408   326485   326540   326578   326600   326610 
  326617   326620   326620   326621   326623   326631   326651   326683 
  326714   326733   326741   326735   326725   326727   326741   326770 
  326810   326849   326878   326897   326901   326882   326841   326785 
  326725   326683   326674   326694   326733   326793   326859   326917 
  326964   326997   327001   326967   326906   326833   326764   326714 
  326693   326693   326713   326745   326783   326829   326893   326960 
  327018   327057   327072   327052   326999   326924   326832   326725 
  326616   326521   326454   326420   326416   326440   326485   326533 
  326583   326625   326652   326662   326650   326631   326619   326605 
  326597   326597   326587   326570   326546   326513   326471   326421 
  326366   326305   326246   326193   326143   326101   326080   326073 
  326085   326127   326201   326303   326432   326579   326720   326839 
  326933   327003   327045   327056   327040   327001   326952   326899 
  326849   326814   326795   326785   326774   326762   326751   326735 
  326716   326701   326683   326659   326637   326625   326617   326606 
  326594   326585   326582   326583   326597   326628   326666   326701 
  326725   326732   326720   326697   326666   326629   326597   326578 
  326571   326586   326631   326705   326794   326883   326965   327028 
  327063   327072   327060   327024   326967   326901   326837   326786 
  326745   326705   326668   326641   326608   326574   326559   326550 
  326542   326542   326544   326539   326535   326536   326540   326551 
  326573   326593   326610   326621   326628   326632   326639   326658 
  326689   326725   326764   326798   326818   326824   326813   326785 
  326740   326686   326624   326556   326482   326401   326327   326265 
  326214   326172   326139   326120   326111   326116   326135   326164 
  326200   326250   326308   326377   326447   326516   326587   326655 
  326706   326739   326745   326721   326670   326605   326532   326470 
  326431   326427   326469   326546   326648   326781   326930   327078 
  327210   327321   327404   327454   327472   327453   327396   327312 
  327199   327059   326911   326766   326631   326517   326432   326380 
  326365   326385   326430   326496   326571   326635   326678   326705 
  326717   326714   326705   326689   326664   326641   326619   326593 
  326573   326558   326546   326536   326527   326513   326493   326463 
  326425   326388   326354   326324   326303   326297   326305   326330 
  326370   326416   326463   326512   326555   326582   326594   326597 
  326587   326569   326555   326546   326542   326538   326531   326525 
  326529   326542   326559   326585   326620   326656   326683   326700 
  326712   326724   326741   326771   326806   326839   326872   326903 
  326929   326953   326965   326960   326945   326924   326889   326839 
  326783   326728   326675   326628   326590   326569   326559   326552 
  326559   326586   326624   326660   326689   326709   326720   326722 
  326718   326708   326689   326663   326635   326608   326597   326605 
  326623   326639   326650   326651   326648   326647   326647   326647 
  326652   326670   326697   326732   326782   326839   326883   326914 
  326945   326968   326987   327003   327007   326995   326974   326947 
  326913   326872   326821   326760   326700   326639   326581   326529 
  326475   326412   326350   326292   326242   326209   326197   326197 
  326195   326181   326158   326124   326089   326060   326030   326002 
  325987   325992   326022   326076   326145   326228   326324   326427 
  326524   326609   326682   326743   326795   326847   326899   326953 
  327013   327071   327119   327164   327202   327235   327261   327271 
  327258   327229   327190   327149   327113   327083   327061   327044 
  327026   327002   326978   326961   326952   326949   326947   326944 
  326944   326945   326948   326944   326921   326882   326824   326744 
  326650   326563   326488   326415   326353   326296   326236   326182 
  326138   326088   326037   325989   325950   325923   325911   325921 
  325950   325988   326025   326053   326069   326079   326087   326099 
  326122   326164   326220   326288   326371   326461   326544   326624 
  326708   326789   326867   326948   327038   327130   327219   327307 
  327388   327458   327512   327543   327550   327534   327491   327427 
  327343   327244   327136   327024   326910   326803   326706   326621 
  326552   326504   326465   326435   326421   326420   326421   326431 
  326451   326475   326504   326527   326540   326546   326551   326558 
  326569   326585   326601   326620   326639   326652   326659   326660 
  326647   326617   326577   326535   326501   326477   326463   326461 
  326459   326459   326465   326478   326494   326512   326525   326536 
  326546   326559   326581   326613   326655   326701   326745   326786 
  326816   326829   326828   326814   326790   326749   326698   326636 
  326563   326482   326398   326316   326250   326204   326176   326169 
  326185   326227   326289   326365   326461   326563   326651   326724 
  326781   326830   326871   326897   326910   326907   326884   326848 
  326809   326764   326709   326644   326566   326478   326398   326336 
  326293   326273   326274   326297   326342   326400   326467   326550 
  326633   326705   326766   326820   326864   326903   326932   326940 
  326925   326893   326852   326809   326770   326731   326695   326678 
  326689   326722   326774   326843   326916   326983   327044   327095 
  327132   327153   327154   327142   327121   327098   327082   327072 
  327064   327049   327022   326979   326922   326859   326795   326729 
  326674   326636   326609   326585   326562   326542   326517   326489 
  326457   326425   326407   326407   326423   326447   326477   326511 
  326539   326547   326536   326511   326466   326404   326344   326296 
  326255   326222   326201   326189   326184   326189   326207   326227 
  326251   326280   326301   326315   326326   326331   326331   326336 
  326351   326371   326393   326425   326461   326489   326516   326539 
  326552   326560   326571   326583   326604   326636   326681   326740 
  326805   326870   326932   326988   327026   327042   327040   327024 
  326999   326975   326957   326945   326936   326936   326934   326932 
  326934   326938   326938   326934   326929   326918   326901   326880 
  326855   326824   326790   326747   326701   326656   326617   326581 
  326551   326528   326509   326493   326484   326477   326467   326455 
  326444   326442   326447   326455   326467   326484   326498   326511 
  326525   326544   326562   326574   326582   326585   326583   326586 
  326586   326577   326563   326556   326552   326550   326558   326579 
  326612   326658   326713   326770   326821   326864   326894   326905 
  326909   326910   326899   326886   326872   326851   326820   326781 
  326731   326674   326614   326554   326496   326447   326416   326408 
  326417   326443   326481   326532   326587   326640   326686   326732 
  326775   326809   326836   326855   326862   326864   326863   326860 
  326853   326836   326814   326803   326793   326776   326763   326752 
  326748   326748   326741   326732   326727   326714   326694   326670 
  326636   326596   326555   326513   326470   326430   326394   326362 
  326331   326305   326284   326263   326247   326241   326236   326226 
  326214   326208   326199   326191   326196   326212   326243   326289 
  326346   326416   326496   326575   326652   326729   326803   326871 
  326929   326979   327021   327059   327096   327137   327186   327244 
  327299   327341   327373   327397   327406   327396   327373   327339 
  327296   327249   327194   327133   327071   327003   326925   326839 
  326748   326654   326554   326458   326370   326288   326219   326170 
  326134   326111   326103   326103   326114   326135   326166   326197 
  326224   326243   326257   326269   326278   326285   326288   326289 
  326299   326313   326320   326322   326323   326319   326304   326286 
  326274   326269   326273   326288   326313   326351   326408   326475 
  326547   326623   326695   326759   326816   326859   326884   326895 
  326894   326889   326882   326872   326866   326863   326859   326851 
  326843   326840   326839   326828   326814   326798   326779   326767 
  326756   326740   326724   326710   326697   326689   326687   326694 
  326713   326745   326790   326845   326914   326990   327061   327125 
  327173   327207   327229   327238   327229   327204   327168   327121 
  327069   327015   326956   326887   326808   326724   326644   326567 
  326492   326413   326338   326263   326193   326128   326074   326038 
  326022   326022   326039   326074   326114   326154   326203   326249 
  326285   326322   326346   326361   326382   326405   326424   326447 
  326473   326490   326504   326516   326533   326552   326563   326571 
  326585   326598   326613   326640   326671   326691   326706   326725 
  326743   326756   326763   326766   326763   326760   326763   326766 
  326764   326766   326763   326755   326748   326745   326743   326745 
  326748   326751   326760   326781   326810   326845   326886   326930 
  326975   327015   327053   327086   327106   327118   327123   327115 
  327098   327073   327036   326986   326928   326864   326805   326748 
  326694   326648   326612   326582   326558   326539   326517   326493 
  326469   326436   326400   326363   326331   326300   326270   326247 
  326235   326230   326227   326228   326238   326251   326270   326300 
  326336   326374   326420   326462   326498   326540   326579   326609 
  326636   326660   326687   326716   326740   326766   326791   326812 
  326833   326856   326875   326893   326907   326913   326911   326909 
  326899   326889   326879   326875   326874   326871   326871   326882 
  326893   326901   326917   326930   326938   326941   326938   326928 
  326909   326878   326832   326776   326713   326639   326563   326490 
  326415   326347   326290   326243   326211   326192   326176   326164 
  326161   326168   326173   326181   326195   326205   326212   326222 
