Origin Time       2025/03/29 04:45:00
Lat.              31.090
Long.             131.512
Depth. (km)       33
Mag.              4.6
Station Code      MYZH10
Station Lat.      32.0215
Station Long.     131.2900
Station Height(m) 80
Record Time       2025/03/29 04:45:49
Sampling Freq(Hz) 100Hz
Duration Time(s)  120
Dir.              5
Scale Factor      3920(gal)/6170801
Max. Acc. (gal)   0.509
Last Correction   2025/03/29 04:45:34
Memo.             
[...]
    9340     9287     9291     9365     9479     9578     9608     9545 
    9409     9261     9165     9162     9258     9422     9588     9687 
    9688     9601     9470     9358     9313     9337     9406     9471 
    9484     9430     9331     9226     9166     9181     9254     9350 
    9429     9460     9459     9461     9483     9514     9540     9543 
    9507     9438     9361     9302     9287     9326     9404     9491 
    9555     9568     9529     9467     9410     9378     9373     9381 
    9388     9379     9354     9326     9311     9324     9370     9438 
    9507     9554     9570     9556     9524     9484     9440     9400 
    9368     9343     9316     9289     9274     9280     9307     9355 
    9412     9467     9511     9532     9515     9467     9408     9355 
    9327     9325     9332     9338     9342     9354     9384     9437 
    9510     9586     9633     9630     9573     9471     9363     9282 
    9252     9277     9338     9404     9440     9424     9369     9314 
    9304     9362     9477     9605     9686     9683     9586     9429 
    9275     9179     9163     9220     9315     9401     9450     9458 
    9429     9386     9364     9378     9417     9458     9482     9475 
    9441     9403     9379     9386     9419     9456     9477     9472 
    9448     9421     9413     9436     9485     9541     9575     9553 
    9466     9338     9213     9135     9131     9197     9309     9431 
    9520     9548     9514     9438     9360     9317     9321     9362 
    9416     9461     9486     9493     9490     9489     9493     9498 
    9499     9495     9482     9453     9409     9367     9356     9386 
    9431     9467     9484     9471     9439     9404     9370     9345 
    9335     9348     9385     9429     9455     9447     9403     9345 
    9299     9276     9276     9291     9302     9305     9304     9301 
    9312     9359     9443     9548     9645     9700     9698     9644 
    9560     9476     9412     9372     9346     9326     9310     9297 
    9289     9298     9329     9376     9432     9480     9514     9533 
    9525     9484     9422     9359     9318     9313     9343     9398 
    9458     9505     9527     9518     9481     9439     9415     9413 
    9425     9426     9397     9338     9264     9206     9192     9234 
    9327     9440     9533     9579     9569     9516     9451     9409 
    9401     9419     9443     9450     9430     9399     9378     9375 
    9397     9441     9484     9498     9472     9416     9355     9323 
    9341     9413     9514     9599     9627     9593     9509     9404 
    9311     9264     9267     9296     9324     9337     9327     9308 
    9305     9334     9400     9489     9571     9612     9595     9528 
    9441     9363     9315     9302     9318     9337     9345     9342 
    9331     9319     9317     9335     9382     9454     9523     9561 
    9545     9478     9387     9319     9300     9344     9445     9563 
    9647     9666     9611     9494     9356     9244     9190     9200 
    9259     9349     9437     9495     9518     9503     9457     9415 
    9396     9391     9388     9376     9352     9327     9311     9313 
    9336     9374     9422     9470     9505     9516     9509     9492 
    9484     9503     9548     9604     9642     9638     9584     9490 
    9375     9272     9196     9147     9134     9156     9199     9255 
    9321     9399     9481     9552     9599     9612     9587     9529 
    9455     9393     9364     9373     9410     9448     9468     9467 
    9451     9425     9392     9358     9329     9321     9336     9364 
    9403     9444     9475     9490     9485     9452     9399     9345 
    9302     9275     9271     9292     9327     9361     9384     9394 
    9392     9389     9394     9410     9436     9461     9470     9455 
    9421     9384     9363     9366     9396     9440     9473     9489 
    9497     9512     9536     9566     9587     9577     9523     9435 
    9336     9252     9218     9248     9322     9399     9441     9435 
    9399     9368     9371     9416     9484     9546     9571     9539 
    9460     9369     9300     9272     9290     9335     9384     9425 
    9451     9468     9494     9537     9587     9630     9648     9618 
    9538     9427     9308     9206     9144     9125     9135     9158 
    9189     9228     9281     9354     9445     9544     9626     9664 
    9638     9556     9456     9371     9330     9347     9400     9451 
    9466     9429     9350     9269     9227     9241     9304     9393 
    9475     9523     9522     9481     9431     9410     9435     9497 
    9570     9615     9601     9521     9399     9284     9225     9239 
    9308     9388     9438     9440     9406     9364     9350     9384 
    9453     9530     9586     9587     9526     9423     9312     9229 
    9207     9255     9351     9452     9512     9511     9463     9406 
    9372     9375     9413     9468     9515     9534     9512     9455 
    9388     9345     9347     9387     9438     9473     9479     9455 
    9424     9407     9409     9421     9433     9436     9421     9381 
    9324     9274     9245     9251     9294     9357     9421     9473 
    9504     9518     9523     9524     9518     9500     9472     9441 
    9421     9420     9438     9463     9482     9483     9455     9400 
    9335     9273     9221     9186     9175     9200     9263     9347 
    9431     9497     9534     9541     9515     9471     9435     9428 
    9446     9471     9487     9485     9465     9441     9428     9428 
    9435     9443     9444     9432     9409     9382     9360     9351 
    9375     9423     9463     9482     9472     9438     9406     9398 
    9402     9404     9400     9382     9343     9304     9280     9281 
    9320     9388     9464     9524     9547     9523     9466     9408 
    9376     9384     9429     9485     9525     9533     9503     9444 
    9379     9332     9317     9335     9371     9398     9407     9404 
    9394     9393     9412     9436     9447     9432     9379     9298 
    9220     9173     9183     9257     9365     9466     9531     9544 
    9510     9466     9449     9468     9513     9561     9583     9568 
    9524     9468     9419     9394     9389     9396     9406     9407 
    9392     9367     9343     9338     9362     9399     9422     9427 
    9413     9384     9360     9354     9369     9403     9439     9457 
    9453     9433     9410     9399     9409     9435     9462     9462 
    9422     9359     9293     9244     9227     9240     9279     9349 
    9432     9502     9542     9552     9544     9536     9534     9530 
    9513     9477     9423     9368     9330     9321     9344     9395 
    9461     9522     9557     9553     9515     9457     9404     9372 
    9363     9368     9378     9380     9371     9353     9332     9317 
    9317     9328     9351     9382     9410     9433     9458     9484 
    9508     9521     9512     9484     9445     9409     9383     9365 
    9356     9364     9390     9420     9439     9446     9438     9416 
    9393     9382     9386     9398     9412     9421     9411     9384 
    9354     9336     9338     9360     9396     9439     9483     9521 
    9535     9515     9462     9386     9309     9249     9213     9211 
    9245     9299     9358     9411     9445     9460     9466     9467 
    9476     9496     9518     9539     9562     9581     9590     9586 
    9565     9526     9473     9413     9342     9270     9208     9164 
    9147     9171     9233     9313     9401     9483     9539     9564 
    9567     9554     9532     9509     9489     9470     9442     9398 
    9347     9309     9296     9315     9360     9410     9454     9487 
    9503     9499     9490     9488     9488     9486     9477     9450 
    9401     9350     9321     9325     9355     9397     9430     9434 
    9408     9367     9324     9300     9310     9357     9425     9488 
    9529     9541     9522     9484     9444     9406     9375     9355 
    9339     9322     9308     9306     9324     9366     9417     9462 
    9495     9506     9494     9469     9440     9420     9413     9410 
    9406     9400     9386     9371     9361     9352     9353     9369 
    9392     9410     9413     9404     9389     9374     9362     9353 
    9350     9354     9370     9396     9429     9462     9489     9512 
    9526     9526     9522     9514     9498     9477     9461     9445 
    9423     9396     9372     9349     9335     9338     9347     9356 
    9372     9396     9424     9452     9479     9502     9516     9520 
    9510     9482     9441     9393     9352     9331     9331     9354 
    9391     9426     9454     9464     9448     9418     9389     9362 
    9350     9354     9374     9406     9445     9480     9504     9514 
    9510     9489     9452     9396     9329     9270     9226     9198 
    9194     9215     9247     9284     9330     9377     9421     9466 
    9506     9530     9534     9519     9498     9484     9481     9490 
    9499     9497     9483     9465     9444     9428     9422     9427 
    9445     9460     9457     9444     9438     9435     9431     9429 
    9424     9406     9375     9336     9293     9262     9259     9285 
    9335     9388     9426     9450     9466     9474     9479     9486 
    9485     9468     9439     9406     9370     9341     9329     9337 
    9366     9410     9452     9482     9502     9506     9491     9455 
    9405     9353     9316     9305     9323     9359     9400     9431 
    9441     9433     9415     9402     9398     9403     9415     9426 
    9420     9395     9357     9315     9277     9251     9244     9258 
    9291     9341     9403     9472     9536     9588     9617     9612 
    9578     9530     9474     9422     9387     9373     9376     9388 
    9398     9402     9399     9394     9399     9419     9441     9453 
    9450     9423     9379     9334     9303     9285     9278     9276 
    9274     9269     9262     9267     9299     9354     9424     9491 
    9536     9553     9541     9507     9470     9448     9450     9472 
    9503     9525     9522     9493     9448     9410     9402     9422 
    9449     9462     9458     9440     9424     9424     9450     9492 
    9532     9556     9548     9507     9453     9409     9391     9401 
    9427     9449     9450     9417     9352     9274     9211     9186 
    9211     9277     9354     9412     9436     9431     9420     9427 
    9457     9499     9532     9531     9486     9414     9338     9285 
    9275     9305     9360     9422     9475     9514     9545     9575 
    9613     9658     9702     9728     9724     9686     9620     9545 
    9487     9452     9430     9409     9378     9349     9340     9357 
    9404     9465     9517     9544     9538     9498     9435     9372 
    9316     9266     9224     9192     9169     9167     9196     9261 
    9356     9460     9551     9604     9601     9543     9443     9323 
    9216     9147     9122     9132     9159     9183     9196     9202 
    9204     9210     9232     9278     9339     9391     9421     9428 
    9414     9382     9341     9300     9265     9251     9257     9274 
    9291     9306     9327     9359     9402     9459     9525     9588 
    9641     9680     9695     9688     9667     9639     9615     9601 
    9593     9596     9616     9651     9699     9748     9783     9782 
    9729     9619     9461     9285     9130     9026     8985     9000 
    9058     9143     9238     9330     9411     9478     9534     9574 
    9588     9574     9536     9489     9451     9436     9448     9484 
    9530     9572     9605     9624     9631     9636     9641     9641 
    9635     9620     9594     9565     9542     9531     9527     9519 
    9500     9471     9436     9402     9369     9341     9317     9288 
    9248     9197     9134     9053     8966     8901     8875     8895 
    8957     9047     9142     9230     9298     9330     9320     9286 
    9240     9198     9181     9201     9255     9327     9400     9464 
    9518     9555     9575     9582     9581     9573     9547     9487 
    9389     9270     9157     9085     9077     9146     9279     9440 
    9585     9678     9702     9662     9589     9518     9472     9457 
    9473     9510     9549     9575     9588     9591     9587     9583 
    9582     9584     9586     9588     9591     9601     9617     9636 
    9656     9669     9660     9621     9548     9457     9360     9263 
    9172     9092     9028     8986     8978     9014     9084     9181 
    9295     9409     9503     9580     9653     9728     9798     9853 
    9875     9844     9755     9619     9453     9281     9130     9021 
    8956     8928     8930     8951     8980     9025     9099     9198 
    9315     9453     9597     9710     9781     9814     9812     9782 
    9736     9684     9636     9604     9586     9569     9546     9509 
    9455     9388     9317     9246     9190     9158     9146     9146 
    9162     9191     9230     9272     9301     9310     9305     9287 
    9255     9218     9184     9153     9129     9124     9138     9164 
    9204     9258     9312     9358     9395     9416     9417     9391 
    9341     9282     9226     9170     9115     9068     9031     8995 
    8961     8933     8923     8939     8991     9087     9221     9384 
    9568     9750     9904    10025    10116    10170    10198    10214 
   10215    10190    10138    10058     9951     9843     9750     9691 
    9682     9718     9780     9848     9895     9901     9863     9792 
    9699     9602     9520     9458     9413     9376     9346     9322 
    9304     9303     9316     9326     9327     9313     9270     9202 
    9135     9087     9074     9103     9160     9216     9260     9285 
    9292     9301     9330     9392     9487     9598     9691     9725 
    9681     9564     9401     9230     9089     9004     8974     8984 
    9023     9083     9159     9256     9374     9501     9619     9695 
    9706     9650     9541     9404     9275     9170     9094     9049 
    9023     9001     8980     8960     8949     8962     9010     9091 
    9186     9273     9337     9377     9410     9447     9493     9546 
    9597     9628     9633     9614     9587     9566     9560     9575 
    9608     9654     9691     9701     9675     9608     9514     9416 
    9334     9284     9271     9303     9375     9464     9558     9651 
    9729     9788     9828     9844     9836     9808     9762     9703 
    9640     9581     9521     9460     9402     9345     9284     9231 
    9199     9196     9228     9286     9348     9393     9404     9381 
    9336     9291     9264     9249     9234     9217     9197     9177 
    9172     9196     9251     9340     9455     9579     9697     9787 
    9831     9835     9815     9783     9754     9723     9677     9614 
    9526     9408     9267     9122     8996     8912     8881     8908 
    8988     9100     9225     9341     9437     9517     9587     9653 
    9702     9717     9697     9654     9604     9559     9523     9497 
    9478     9458     9426     9371     9293     9206     9129     9075 
    9051     9056     9071     9076     9063     9029     8994     8979 
    8999     9060     9152     9250     9336     9400     9434     9436 
    9417     9387     9355     9332     9320     9314     9314     9323 
    9342     9374     9414     9451     9483     9510     9527     9538 
    9560     9597     9652     9730     9821     9904     9966     9992 
    9975     9929     9868     9808     9757     9708     9655     9598 
    9523     9432     9347     9278     9237     9234     9261     9298 
    9333     9354     9363     9376     9397     9422     9445     9450 
    9423     9367     9290     9202     9124     9068     9041     9053 
    9095     9137     9163     9185     9218     9263     9319     9380 
    9436     9484     9516     9518     9500     9478     9469     9484 
    9522     9568     9613     9655     9685     9696     9689     9664 
    9627     9583     9534     9484     9428     9368     9319     9287 
    9276     9292     9334     9390     9447     9493     9523     9529 
    9512     9478     9444     9422     9416     9417     9410     9385 
    9338     9271     9195     9126     9081     9070     9092     9143 
    9212     9291     9373     9450     9509     9541     9544     9518 
    9461     9381     9290     9198     9115     9043     8990     8966 
    8969     8994     9044     9117     9214     9332     9465     9595 
    9707     9794     9854     9878     9865     9821     9758     9685 
    9614     9557     9527     9523     9536     9553     9557     9547 
    9530     9508     9484     9467     9464     9472     9489     9519 
    9560     9606     9655     9689     9700     9690     9663     9617 
    9559     9495     9425     9359     9306     9265     9227     9185 
    9138     9090     9045     9012     8997     9001     9027     9074 
    9136     9213     9299     9391     9484     9568     9634     9684 
    9723     9749     9758     9746     9712     9658     9591     9524 
    9460     9393     9322     9249     9175     9105     9045     9003 
    8987     8998     9030     9076     9129     9171     9195     9207 
    9218     9242     9292     9364     9445     9521     9578     9615 
    9639     9653     9655     9650     9639     9620     9589     9547 
    9499     9460     9444     9459     9494     9534     9564     9580 
    9584     9573     9555     9543     9540     9539     9535     9519 
    9489     9460     9451     9474     9530     9606     9679     9732 
    9748     9721     9658     9578     9499     9435     9391     9353 
    9302     9228     9142     9056     8992     8967     8981     9026 
    9090     9151     9197     9230     9255     9280     9308     9335 
    9355     9352     9325     9289     9252     9231     9250     9307 
    9382     9459     9526     9573     9604     9638     9691     9763 
    9844     9910     9936     9906     9821     9703     9576     9461 
    9364     9276     9191     9104     9016     8941     8899     8907 
    8974     9083     9211     9339     9443     9507     9528     9521 
    9506     9488     9459     9423     9380     9328     9278     9241 
    9225     9241     9285     9344     9410     9469     9512     9535 
    9543     9537     9524     9507     9483     9458     9441     9441 
    9464     9512     9585     9675     9760     9821     9844     9821 
    9755     9656     9540     9426     9322     9233     9161     9095 
    9030     8974     8935     8926     8955     9017     9101     9193 
    9275     9343     9401     9456     9508     9554     9591     9612 
    9614     9601     9576     9545     9522     9521     9540     9567 
    9594     9608     9607     9596     9585     9582     9590     9602 
    9609     9604     9583     9546     9506     9473     9451     9439 
    9435     9429     9419     9405     9390     9377     9372     9378 
    9392     9409     9423     9428     9420     9401     9380     9364 
    9358     9357     9351     9333     9302     9258     9206     9163 
    9139     9131     9133     9132     9124     9111     9092     9081 
    9092     9126     9183     9255     9334     9408     9465     9505 
