Origin Time       2025/03/29 04:45:00
Lat.              31.090
Long.             131.512
Depth. (km)       33
Mag.              4.6
Station Code      MYZH03
Station Lat.      32.4754
Station Long.     131.1043
Station Height(m) 319
Record Time       2025/03/29 04:46:03
Sampling Freq(Hz) 100Hz
Duration Time(s)  120
Dir.              2
Scale Factor      2942(gal)/8224139
Max. Acc. (gal)   0.106
Last Correction   2025/03/29 04:46:04
Memo.             
[...]
   81041    81045    81048    81045    81041    81039    81037    81036 
   81032    81031    81029    81025    81024    81022    81017    81014 
   81013    81013    81012    81008    81009    81009    81002    80998 
   80998    81000    81000    80997    80995    80997    81001    81008 
   81012    81018    81033    81047    81055    81062    81067    81067 
   81066    81058    81047    81041    81036    81033    81031    81029 
   81031    81032    81029    81022    81012    81005    81008    81005 
   81000    81002    81006    81012    81018    81024    81022    81021 
   81017    81014    81013    81010    81010    81018    81028    81035 
   81041    81044    81045    81039    81027    81022    81017    81009 
   81006    81010    81010    81012    81014    81020    81021    81025 
   81036    81044    81040    81036    81035    81031    81025    81024 
   81027    81025    81024    81028    81029    81027    81020    81014 
   81017    81022    81022    81025    81031    81035    81036    81036 
   81036    81032    81028    81031    81033    81033    81031    81032 
   81033    81033    81032    81031    81032    81035    81039    81043 
   81041    81037    81040    81043    81039    81035    81033    81025 
   81017    81012    81013    81010    81008    81016    81024    81020 
   81014    81016    81013    81009    81010    81010    81008    81008 
   81013    81022    81027    81028    81033    81036    81036    81036 
   81033    81029    81031    81033    81035    81040    81041    81039 
   81039    81037    81037    81032    81017    81008    81008    81006 
   81008    81013    81017    81022    81028    81031    81033    81033 
   81025    81021    81024    81022    81017    81017    81021    81021 
   81021    81022    81020    81016    81016    81012    81012    81018 
   81022    81024    81031    81040    81044    81048    81052    81049 
   81044    81045    81044    81036    81027    81021    81020    81017 
   81014    81014    81012    81009    81009    81010    81008    81002 
   81001    81001    81000    81002    81009    81009    81006    81013 
   81018    81018    81022    81029    81032    81037    81045    81049 
   81049    81043    81036    81036    81039    81037    81037    81035 
   81032    81035    81037    81036    81029    81027    81027    81025 
   81029    81032    81027    81025    81025    81024    81020    81014 
   81014    81018    81018    81017    81017    81016    81016    81014 
   81016    81022    81028    81031    81035    81035    81031    81032 
   81036    81035    81036    81039    81036    81037    81040    81032 
   81027    81020    81008    81006    81004    80991    80987    80994 
   80995    80994    81006    81017    81020    81028    81032    81025 
   81020    81017    81014    81016    81018    81024    81031    81035 
   81037    81045    81051    81048    81047    81049    81048    81047 
   81051    81058    81055    81054    81055    81048    81036    81031 
   81025    81022    81021    81020    81021    81024    81024    81021 
   81020    81016    81012    81010    81013    81016    81017    81012 
   81008    81009    81006    81005    81004    81001    81001    81004 
   81010    81018    81025    81032    81037    81040    81041    81041 
   81039    81043    81048    81047    81045    81047    81040    81031 
   81028    81022    81017    81018    81018    81018    81020    81024 
   81029    81032    81037    81043    81041    81036    81032    81022 
   81014    81016    81014    81010    81010    81009    81009    81010 
   81009    81009    81013    81016    81018    81021    81021    81020 
   81016    81014    81018    81017    81020    81025    81021    81021 
   81027    81025    81027    81029    81028    81021    81020    81021 
   81024    81027    81028    81036    81045    81048    81045    81045 
   81044    81044    81044    81047    81049    81049    81048    81048 
   81047    81045    81040    81032    81024    81018    81010    81006 
   81006    81002    80998    81002    81005    81002    80995    80994 
   80991    80989    80997    81012    81021    81031    81040    81043 
   81040    81040    81041    81037    81033    81035    81035    81035 
   81037    81041    81041    81041    81044    81043    81041    81040 
   81039    81039    81036    81033    81028    81018    81013    81013 
   81012    81010    81010    81009    81010    81014    81020    81021 
   81017    81018    81014    81010    81008    81005    81004    81004 
   80998    80997    81005    81010    81013    81017    81020    81018 
   81017    81020    81021    81020    81022    81029    81035    81040 
   81047    81052    81052    81052    81049    81043    81043    81047 
   81044    81043    81045    81044    81041    81043    81044    81044 
   81043    81035    81025    81020    81014    81013    81017    81017 
   81017    81021    81025    81028    81031    81032    81033    81031 
   81029    81029    81027    81022    81024    81027    81022    81017 
   81010    81001    80997    80993    80986    80985    80983    80981 
   80989    81000    81001    81006    81010    81010    81013    81016 
   81018    81025    81037    81047    81051    81051    81048    81043 
   81041    81039    81036    81040    81043    81044    81048    81056 
   81060    81058    81056    81055    81049    81041    81029    81020 
   81013    81008    81005    81005    81005    81005    81006    81006 
   81006    81012    81017    81018    81021    81025    81025    81027 
   81031    81032    81032    81040    81049    81051    81054    81060 
   81059    81052    81052    81052    81045    81041    81045    81045 
   81037    81036    81033    81022    81016    81008    80998    80997 
   80997    80998    81002    81004    81006    81004    81002    81008 
   81009    81010    81018    81025    81028    81031    81029    81029 
   81031    81028    81025    81025    81021    81022    81025    81022 
   81024    81024    81016    81010    81013    81016    81014    81013 
   81014    81014    81014    81013    81012    81010    81002    80994 
   80991    80990    80994    81000    81002    81006    81014    81021 
   81028    81035    81039    81040    81041    81041    81043    81044 
   81049    81056    81055    81054    81055    81056    81051    81045 
   81041    81037    81036    81033    81027    81024    81017    81009 
   81005    81002    81005    81006    81008    81014    81017    81020 
   81029    81033    81033    81035    81036    81039    81037    81037 
   81039    81032    81027    81025    81022    81022    81024    81027 
   81029    81028    81028    81031    81032    81036    81041    81044 
   81041    81041    81040    81036    81037    81037    81036    81037 
   81036    81029    81028    81028    81028    81032    81035    81033 
   81035    81035    81029    81022    81022    81024    81016    81012 
   81010    81005    81004    81004    81000    80994    80993    80994 
   80994    80995    80993    80987    80985    80985    80986    80989 
   80993    80998    81006    81012    81020    81029    81033    81037 
   81041    81043    81044    81049    81056    81063    81066    81064 
   81068    81068    81064    81060    81058    81058    81055    81052 
   81054    81058    81058    81058    81060    81056    81045    81037 
   81033    81024    81009    81001    80998    80993    80985    80982 
   80983    80987    80993    80995    80997    81002    81013    81018 
   81014    81012    81012    81005    81000    81000    81001    81002 
   81006    81012    81018    81024    81027    81032    81035    81036 
   81043    81049    81048    81047    81043    81033    81021    81016 
   81018    81018    81018    81022    81025    81028    81032    81035 
   81036    81033    81027    81025    81027    81029    81031    81028 
   81024    81022    81021    81014    81009    81009    81014    81014 
   81012    81016    81021    81025    81032    81037    81043    81051 
   81052    81049    81049    81054    81055    81051    81047    81047 
   81044    81044    81044    81037    81031    81025    81021    81016 
   81009    81004    80998    80994    80994    80997    81000    81002 
   81005    81006    81012    81016    81012    81009    81006    81001 
   80997    81000    80998    80995    81004    81014    81020    81028 
   81035    81039    81040    81043    81044    81044    81043    81039 
   81036    81035    81036    81040    81043    81045    81048    81048 
   81041    81035    81029    81022    81016    81012    81014    81018 
   81017    81014    81017    81017    81017    81017    81016    81016 
   81017    81013    81010    81012    81010    81006    80997    80987 
   80981    80975    80975    80975    80975    80981    80985    80987 
   80990    80994    80997    80998    80998    81001    81001    81002 
   81004    81006    81014    81021    81024    81027    81031    81037 
   81045    81048    81049    81052    81051    81045    81043    81041 
   81036    81031    81031    81035    81039    81041    81045    81054 
   81056    81051    81044    81037    81028    81024    81024    81027 
   81033    81043    81052    81059    81066    81072    81071    81063 
   81056    81048    81037    81027    81021    81025    81029    81033 
   81044    81055    81058    81058    81063    81063    81054    81041 
   81029    81020    81009    81004    81008    81013    81020    81035 
   81049    81060    81068    81074    81075    81072    81070    81064 
   81056    81052    81056    81060    81068    81076    81076    81074 
   81068    81055    81039    81024    81012    81004    80997    80990 
   80993    81000    81001    81005    81013    81016    81010    81006 
   81000    80982    80967    80963    80963    80968    80981    80998 
   81013    81018    81022    81028    81029    81029    81028    81025 
   81025    81031    81033    81035    81043    81047    81043    81039 
   81033    81024    81021    81018    81014    81016    81020    81022 
   81025    81027    81022    81020    81020    81018    81013    81009 
   81008    81004    81004    81006    81006    81009    81012    81012 
   81013    81016    81018    81025    81031    81035    81037    81033 
   81032    81029    81017    81001    80990    80983    80977    80975 
   80973    80964    80962    80970    80978    80987    81002    81017 
   81029    81036    81039    81041    81045    81051    81051    81049 
   81052    81056    81062    81075    81085    81090    81099    81103 
   81097    81090    81083    81072    81062    81052    81047    81043 
   81033    81029    81031    81025    81016    81012    81013    81013 
   81012    81014    81020    81020    81012    81002    80995    80990 
   80985    80986    80993    80997    81000    81008    81018    81022 
   81028    81033    81032    81029    81029    81033    81035    81037 
   81043    81045    81051    81055    81051    81047    81043    81035 
   81029    81031    81028    81021    81014    81006    80998    80990 
   80987    80982    80977    80983    80990    80991    80994    81001 
   81008    81014    81020    81020    81013    81009    81005    80993 
   80983    80986    80983    80979    80981    80985    80989    80998 
   81010    81020    81027    81029    81033    81033    81025    81018 
   81016    81008    81009    81020    81029    81040    81049    81052 
   81056    81056    81049    81037    81021    81013    81006    80997 
   80991    80993    81000    81012    81020    81025    81033    81040 
   81045    81052    81051    81047    81043    81035    81031    81031 
   81031    81036    81040    81044    81052    81060    81066    81074 
   81083    81094    81108    81120    81122    81122    81121    81116 
   81109    81103    81101    81098    81097    81093    81090    81095 
   81099    81098    81093    81083    81074    81064    81054    81048 
   81043    81036    81031    81022    81017    81014    81010    81005 
   81000    80990    80981    80970    80960    80950    80937    80931 
   80925    80921    80919    80913    80908    80908    80912    80910 
   80913    80921    80927    80933    80937    80937    80937    80937 
   80933    80929    80929    80929    80933    80943    80951    80956 
   80966    80974    80978    80985    80994    81001    81008    81016 
   81021    81021    81025    81035    81041    81044    81049    81052 
   81052    81054    81059    81060    81062    81071    81082    81094 
   81106    81117    81132    81147    81153    81156    81157    81153 
   81149    81141    81130    81118    81101    81082    81068    81056 
   81047    81039    81027    81012    81001    80993    80986    80990 
   80998    80998    81001    81009    81010    81006    81008    81008 
   81004    81001    80995    80993    80985    80975    80968    80964 
   80964    80968    80966    80955    80943    80931    80921    80917 
   80916    80921    80937    80958    80975    80986    81001    81010 
   81006    81001    80998    80993    80990    80995    81000    81009 
   81025    81043    81059    81075    81095    81118    81136    81160 
   81193    81222    81248    81271    81282    81287    81291    81286 
   81276    81275    81272    81263    81253    81248    81233    81216 
   81202    81178    81149    81129    81108    81081    81062    81048 
   81035    81022    81018    81008    80986    80964    80939    80906 
   80875    80844    80815    80793    80774    80761    80757    80755 
   80748    80744    80744    80735    80727    80728    80728    80727 
   80732    80738    80740    80746    80754    80767    80788    80809 
   80836    80878    80925    80971    81020    81062    81095    81128 
   81153    81176    81199    81220    81238    81259    81274    81282 
   81286    81290    81290    81291    81294    81295    81301    81311 
   81311    81310    81310    81299    81283    81264    81238    81214 
   81191    81164    81133    81108    81085    81055    81031    81013 
   80990    80964    80948    80936    80920    80908    80906    80906 
   80896    80892    80893    80885    80871    80858    80835    80808 
   80792    80785    80788    80800    80816    80835    80854    80873 
   80889    80904    80917    80932    80946    80960    80985    81008 
   81021    81039    81059    81075    81090    81099    81110    81126 
   81140    81147    81152    81156    81159    81163    81167    81170 
   81168    81168    81167    81160    81148    81137    81125    81112 
   81097    81085    81075    81063    81047    81033    81027    81017 
   81008    81000    80994    80989    80977    80963    80955    80941 
   80929    80923    80916    80908    80906    80909    80902    80893 
   80892    80892    80886    80883    80890    80892    80889    80890 
   80894    80894    80894    80896    80900    80906    80916    80927 
   80936    80940    80941    80941    80940    80944    80948    80956 
   80974    80994    81009    81028    81045    81058    81066    81075 
   81086    81095    81109    81128    81141    81153    81171    81189 
   81201    81203    81197    81187    81175    81160    81147    81136 
   81128    81121    81116    81109    81103    81094    81083    81070 
   81055    81043    81031    81024    81022    81021    81014    81012 
   81010    81002    80994    80989    80987    80986    80985    80987 
   80989    80989    80994    81004    81010    81018    81028    81033 
   81045    81064    81079    81090    81106    81121    81133    81152 
   81172    81184    81194    81201    81207    81213    81210    81205 
   81199    81191    81182    81164    81145    81128    81105    81076 
   81048    81021    80997    80977    80959    80944    80932    80923 
   80913    80902    80896    80892    80886    80878    80874    80877 
   80877    80875    80877    80879    80882    80893    80909    80923 
   80936    80951    80963    80970    80977    80986    81000    81013 
   81021    81024    81031    81039    81035    81028    81021    81010 
   81004    81000    80991    80989    80989    80986    80983    80983 
   80983    80983    80985    80983    80983    80982    80977    80966 
   80956    80955    80951    80943    80935    80929    80924    80920 
   80921    80919    80914    80916    80921    80929    80941    80951 
   80963    80979    80994    81009    81028    81045    81058    81067 
   81075    81078    81078    81079    81078    81078    81079    81082 
   81083    81086    81089    81091    81097    81108    81117    81121 
   81125    81132    81137    81137    81140    81140    81136    81135 
   81136    81130    81121    81112    81105    81097    81089    81082 
   81075    81066    81059    81055    81048    81041    81041    81043 
   81045    81048    81048    81048    81052    81051    81048    81044 
   81043    81045    81047    81047    81051    81052    81052    81054 
   81054    81049    81048    81052    81054    81054    81052    81044 
   81040    81037    81033    81033    81037    81039    81041    81052 
   81064    81074    81083    81095    81102    81103    81101    81094 
   81086    81079    81068    81055    81040    81021    81008    80993 
   80973    80952    80936    80925    80916    80909    80908    80904 
   80905    80917    80921    80916    80920    80931    80935    80939 
   80950    80960    80964    80968    80979    80987    80991    81000 
   81004    81002    81005    81006    81004    81002    81006    81010 
   81014    81020    81028    81035    81037    81037    81039    81039 
   81041    81044    81047    81049    81048    81045    81045    81049 
   81051    81049    81047    81037    81027    81016    81005    80994 
   80981    80971    80967    80960    80951    80939    80931    80929 
   80928    80921    80920    80925    80929    80931    80932    80933 
   80937    80940    80941    80946    80952    80958    80960    80966 
   80975    80982    80989    80997    81001    81010    81021    81027 
   81036    81045    81048    81059    81068    81068    81075    81083 
   81091    81101    81109    81114    81117    81121    81129    81135 
   81137    81147    81156    81167    81180    81190    81191    81195 
   81198    81197    81193    81184    81180    81180    81174    81162 
   81153    81147    81137    81125    81113    81097    81079    81062 
   81047    81032    81021    81013    81009    80995    80985    80979 
   80967    80954    80948    80941    80933    80931    80936    80943 
   80946    80954    80970    80982    80987    80991    80995    81000 
   81002    81004    81006    81010    81014    81020    81029    81041 
   81054    81068    81081    81089    81101    81110    81114    81113 
   81108    81109    81110    81103    81101    81097    81091    81090 
   81082    81070    81059    81041    81017    80998    80982    80963 
   80941    80923    80908    80893    80878    80869    80865    80859 
   80862    80869    80873    80877    80879    80886    80892    80894 
   80901    80908    80908    80912    80919    80925    80932    80936 
   80941    80952    80959    80966    80975    80982    80983    80983 
   80982    80977    80975    80978    80982    80986    80991    80994 
   80997    81004    81009    81012    81014    81018    81020    81021 
   81022    81025    81031    81043    81051    81060    81072    81086 
