Origin Time       2025/03/29 04:45:00
Lat.              31.090
Long.             131.512
Depth. (km)       33
Mag.              4.6
Station Code      MYZH03
Station Lat.      32.4754
Station Long.     131.1043
Station Height(m) 519
Record Time       2025/03/29 04:46:03
Sampling Freq(Hz) 100Hz
Duration Time(s)  120
Dir.              6
Scale Factor      7845(gal)/8223790
Max. Acc. (gal)   0.134
Last Correction   2025/03/29 04:46:04
Memo.             
[...]
  -37204   -37227   -37241   -37223   -37212   -37206   -37183   -37180 
  -37200   -37207   -37191   -37179   -37187   -37184   -37177   -37187 
  -37188   -37179   -37192   -37210   -37203   -37204   -37206   -37183 
  -37173   -37183   -37183   -37181   -37187   -37193   -37193   -37185 
  -37193   -37214   -37201   -37177   -37181   -37173   -37164   -37184 
  -37192   -37195   -37206   -37212   -37215   -37201   -37192   -37191 
  -37176   -37184   -37195   -37192   -37212   -37212   -37189   -37187 
  -37168   -37156   -37168   -37160   -37173   -37183   -37172   -37199 
  -37206   -37185   -37192   -37188   -37193   -37211   -37187   -37183 
  -37199   -37203   -37215   -37193   -37176   -37197   -37181   -37168 
  -37184   -37177   -37195   -37215   -37193   -37189   -37193   -37197 
  -37219   -37210   -37192   -37192   -37168   -37170   -37176   -37145 
  -37164   -37197   -37197   -37227   -37235   -37219   -37220   -37211 
  -37212   -37214   -37192   -37193   -37179   -37147   -37158   -37150 
  -37137   -37165   -37172   -37173   -37189   -37185   -37200   -37208 
  -37203   -37234   -37238   -37224   -37237   -37208   -37184   -37201 
  -37179   -37149   -37156   -37162   -37172   -37161   -37150   -37169 
  -37169   -37170   -37189   -37195   -37215   -37233   -37227   -37226 
  -37216   -37218   -37227   -37215   -37193   -37168   -37169   -37180 
  -37173   -37179   -37184   -37184   -37196   -37204   -37204   -37193 
  -37177   -37192   -37193   -37173   -37189   -37197   -37203   -37228 
  -37215   -37195   -37199   -37189   -37192   -37183   -37162   -37174 
  -37170   -37176   -37203   -37187   -37191   -37207   -37191   -37203 
  -37193   -37169   -37185   -37180   -37187   -37199   -37173   -37180 
  -37176   -37154   -37176   -37169   -37168   -37199   -37188   -37191 
  -37208   -37199   -37207   -37196   -37169   -37179   -37184   -37181 
  -37179   -37172   -37193   -37199   -37180   -37191   -37189   -37183 
  -37199   -37206   -37210   -37210   -37214   -37215   -37191   -37181 
  -37187   -37170   -37169   -37191   -37191   -37180   -37192   -37203 
  -37191   -37185   -37193   -37191   -37184   -37191   -37197   -37197 
  -37196   -37195   -37179   -37162   -37191   -37211   -37192   -37185 
  -37177   -37177   -37196   -37189   -37184   -37181   -37170   -37183 
  -37189   -37187   -37201   -37200   -37189   -37184   -37179   -37185 
  -37208   -37219   -37201   -37189   -37201   -37204   -37206   -37211 
  -37203   -37203   -37201   -37195   -37187   -37165   -37154   -37172 
  -37189   -37200   -37207   -37215   -37222   -37215   -37214   -37208 
  -37197   -37207   -37207   -37185   -37181   -37179   -37180   -37191 
  -37181   -37181   -37192   -37180   -37181   -37179   -37176   -37200 
  -37207   -37207   -37201   -37177   -37188   -37191   -37170   -37180 
  -37183   -37174   -37180   -37177   -37177   -37173   -37169   -37184 
  -37191   -37185   -37192   -37204   -37208   -37212   -37212   -37201 
  -37201   -37220   -37227   -37215   -37204   -37201   -37199   -37185 
  -37180   -37173   -37150   -37152   -37168   -37176   -37199   -37215 
  -37210   -37196   -37176   -37170   -37177   -37169   -37172   -37170 
  -37157   -37176   -37176   -37156   -37173   -37179   -37179   -37195 
  -37183   -37174   -37179   -37184   -37192   -37184   -37197   -37219 
  -37219   -37227   -37214   -37196   -37218   -37216   -37207   -37214 
  -37196   -37193   -37204   -37188   -37177   -37169   -37162   -37168 
  -37156   -37153   -37161   -37164   -37180   -37193   -37200   -37204 
  -37196   -37184   -37176   -37173   -37180   -37169   -37160   -37165 
  -37161   -37160   -37174   -37180   -37180   -37193   -37212   -37237 
  -37258   -37251   -37245   -37249   -37242   -37242   -37234   -37216 
  -37230   -37228   -37203   -37197   -37177   -37170   -37184   -37174 
  -37184   -37185   -37156   -37162   -37160   -37154   -37183   -37180 
  -37181   -37192   -37173   -37187   -37191   -37166   -37185   -37184 
  -37172   -37199   -37185   -37173   -37196   -37168   -37164   -37192 
  -37169   -37169   -37179   -37174   -37220   -37223   -37199   -37227 
  -37214   -37200   -37219   -37196   -37211   -37234   -37210   -37219 
  -37204   -37162   -37179   -37166   -37158   -37203   -37193   -37195 
  -37215   -37170   -37172   -37193   -37191   -37228   -37216   -37192 
  -37227   -37204   -37192   -37216   -37177   -37177   -37195   -37154 
  -37164   -37170   -37156   -37192   -37179   -37164   -37197   -37185 
  -37195   -37208   -37177   -37207   -37223   -37195   -37210   -37188 
  -37164   -37185   -37165   -37168   -37197   -37180   -37188   -37200 
  -37176   -37187   -37192   -37181   -37203   -37197   -37184   -37197 
  -37181   -37174   -37180   -37152   -37165   -37195   -37173   -37184 
  -37196   -37180   -37201   -37196   -37173   -37193   -37185   -37176 
  -37195   -37181   -37195   -37212   -37195   -37212   -37207   -37177 
  -37199   -37189   -37179   -37206   -37193   -37195   -37200   -37176 
  -37201   -37206   -37188   -37216   -37196   -37177   -37203   -37177 
  -37168   -37181   -37166   -37193   -37208   -37192   -37199   -37183 
  -37177   -37197   -37177   -37184   -37199   -37172   -37181   -37187 
  -37170   -37188   -37192   -37206   -37228   -37210   -37220   -37239 
  -37220   -37222   -37208   -37189   -37210   -37203   -37193   -37200 
  -37180   -37184   -37180   -37157   -37173   -37172   -37172   -37203 
  -37196   -37188   -37184   -37160   -37173   -37180   -37172   -37197 
  -37201   -37192   -37192   -37179   -37187   -37197   -37185   -37188 
  -37176   -37162   -37193   -37206   -37197   -37208   -37197   -37188 
  -37193   -37196   -37210   -37204   -37192   -37196   -37183   -37183 
  -37203   -37199   -37195   -37192   -37183   -37193   -37195   -37184 
  -37181   -37168   -37168   -37193   -37196   -37197   -37196   -37176 
  -37177   -37179   -37176   -37196   -37196   -37195   -37195   -37176 
  -37191   -37211   -37206   -37206   -37192   -37183   -37191   -37188 
  -37197   -37199   -37195   -37216   -37215   -37201   -37211   -37203 
  -37203   -37215   -37197   -37184   -37173   -37161   -37173   -37181 
  -37179   -37180   -37183   -37191   -37189   -37189   -37200   -37201 
  -37204   -37203   -37188   -37187   -37191   -37187   -37187   -37180 
  -37180   -37180   -37166   -37168   -37173   -37170   -37174   -37189 
  -37208   -37214   -37220   -37235   -37215   -37195   -37204   -37196 
  -37193   -37207   -37187   -37184   -37208   -37210   -37210   -37188 
  -37168   -37177   -37173   -37177   -37188   -37173   -37177   -37183 
  -37176   -37180   -37170   -37177   -37189   -37174   -37185   -37195 
  -37191   -37206   -37189   -37174   -37193   -37187   -37179   -37181 
  -37179   -37192   -37199   -37197   -37196   -37180   -37188   -37201 
  -37170   -37166   -37196   -37191   -37193   -37206   -37192   -37193 
  -37187   -37187   -37195   -37173   -37183   -37207   -37195   -37210 
  -37210   -37181   -37199   -37204   -37196   -37207   -37191   -37197 
  -37212   -37180   -37195   -37227   -37219   -37227   -37214   -37192 
  -37211   -37199   -37184   -37185   -37156   -37156   -37166   -37153 
  -37161   -37152   -37153   -37177   -37156   -37158   -37187   -37170 
  -37181   -37200   -37184   -37188   -37180   -37173   -37192   -37180 
  -37189   -37216   -37200   -37200   -37195   -37170   -37193   -37212 
  -37204   -37206   -37195   -37197   -37211   -37201   -37203   -37210 
  -37212   -37220   -37204   -37189   -37195   -37189   -37189   -37189 
  -37170   -37164   -37169   -37170   -37177   -37168   -37158   -37181 
  -37185   -37180   -37203   -37207   -37204   -37224   -37220   -37212 
  -37226   -37226   -37219   -37214   -37197   -37189   -37188   -37174 
  -37165   -37168   -37174   -37181   -37185   -37192   -37193   -37191 
  -37206   -37211   -37199   -37196   -37197   -37201   -37185   -37161 
  -37166   -37166   -37170   -37188   -37181   -37173   -37179   -37183 
  -37183   -37168   -37170   -37193   -37192   -37199   -37211   -37195 
  -37193   -37199   -37184   -37189   -37197   -37201   -37214   -37196 
  -37187   -37196   -37188   -37197   -37206   -37195   -37196   -37199 
  -37191   -37176   -37173   -37191   -37191   -37195   -37208   -37195 
  -37211   -37245   -37230   -37223   -37218   -37208   -37234   -37227 
  -37214   -37219   -37189   -37203   -37227   -37176   -37162   -37164 
  -37149   -37172   -37157   -37138   -37165   -37156   -37161   -37180 
  -37165   -37184   -37192   -37170   -37179   -37170   -37174   -37200 
  -37181   -37181   -37184   -37160   -37174   -37170   -37154   -37185 
  -37189   -37192   -37214   -37200   -37204   -37219   -37207   -37216 
  -37206   -37177   -37199   -37212   -37201   -37197   -37180   -37187 
  -37197   -37177   -37189   -37200   -37185   -37199   -37187   -37164 
  -37176   -37166   -37154   -37153   -37146   -37173   -37191   -37173 
  -37180   -37179   -37172   -37200   -37201   -37177   -37179   -37180 
  -37185   -37196   -37183   -37164   -37161   -37166   -37164   -37149 
  -37145   -37164   -37181   -37197   -37223   -37234   -37245   -37264 
  -37255   -37242   -37235   -37215   -37207   -37200   -37187   -37197 
  -37208   -37199   -37200   -37193   -37170   -37177   -37177   -37169 
  -37184   -37185   -37191   -37207   -37193   -37180   -37176   -37174 
  -37192   -37197   -37197   -37210   -37203   -37193   -37197   -37185 
  -37187   -37201   -37201   -37208   -37211   -37200   -37208   -37216 
  -37208   -37203   -37207   -37224   -37237   -37222   -37218   -37230 
  -37215   -37207   -37199   -37170   -37161   -37154   -37139   -37137 
  -37139   -37162   -37188   -37180   -37195   -37218   -37211   -37227 
  -37233   -37201   -37189   -37189   -37192   -37196   -37179   -37172 
  -37181   -37174   -37169   -37162   -37149   -37160   -37165   -37153 
  -37153   -37161   -37166   -37165   -37161   -37170   -37176   -37172 
  -37173   -37165   -37166   -37181   -37177   -37173   -37166   -37154 
  -37177   -37207   -37222   -37228   -37223   -37233   -37246   -37246 
  -37249   -37231   -37218   -37222   -37206   -37201   -37211   -37208 
  -37215   -37211   -37201   -37216   -37204   -37188   -37195   -37158 
  -37143   -37168   -37160   -37153   -37141   -37127   -37157   -37160 
  -37168   -37201   -37189   -37208   -37238   -37218   -37237   -37230 
  -37195   -37211   -37176   -37147   -37165   -37133   -37154   -37193 
  -37150   -37169   -37195   -37174   -37201   -37184   -37165   -37204 
  -37179   -37179   -37208   -37177   -37206   -37233   -37210   -37242 
  -37246   -37233   -37254   -37224   -37212   -37211   -37170   -37181 
  -37173   -37134   -37158   -37162   -37161   -37191   -37199   -37231 
  -37251   -37220   -37227   -37233   -37210   -37216   -37201   -37180 
  -37185   -37170   -37165   -37153   -37118   -37134   -37158   -37157 
  -37168   -37166   -37162   -37177   -37180   -37177   -37183   -37188 
  -37196   -37199   -37195   -37201   -37195   -37185   -37196   -37181 
  -37158   -37170   -37179   -37172   -37174   -37165   -37150   -37156 
  -37156   -37157   -37164   -37161   -37177   -37185   -37188   -37212 
  -37231   -37247   -37262   -37262   -37270   -37264   -37243   -37241 
  -37224   -37220   -37242   -37230   -37218   -37222   -37207   -37215 
  -37231   -37216   -37201   -37189   -37176   -37179   -37180   -37165 
  -37153   -37143   -37143   -37154   -37152   -37165   -37195   -37188 
  -37169   -37169   -37165   -37149   -37133   -37123   -37119   -37116 
  -37119   -37134   -37131   -37118   -37137   -37160   -37168   -37185 
  -37203   -37223   -37243   -37251   -37257   -37258   -37251   -37254 
  -37250   -37224   -37208   -37212   -37218   -37222   -37219   -37211 
  -37199   -37191   -37184   -37183   -37187   -37196   -37210   -37218 
  -37212   -37212   -37216   -37222   -37224   -37208   -37193   -37184 
  -37183   -37184   -37166   -37157   -37169   -37157   -37156   -37181 
  -37184   -37184   -37193   -37187   -37189   -37204   -37210   -37216 
  -37193   -37168   -37169   -37158   -37165   -37180   -37152   -37154 
  -37180   -37176   -37181   -37176   -37170   -37193   -37189   -37188 
  -37207   -37187   -37189   -37206   -37179   -37177   -37173   -37152 
  -37164   -37152   -37143   -37172   -37168   -37172   -37185   -37179 
  -37204   -37220   -37218   -37237   -37237   -37239   -37247   -37231 
  -37230   -37222   -37201   -37215   -37226   -37216   -37218   -37220 
  -37226   -37227   -37222   -37219   -37215   -37211   -37197   -37181 
  -37174   -37164   -37156   -37150   -37133   -37137   -37154   -37160 
  -37179   -37192   -37203   -37224   -37227   -37235   -37241   -37223 
  -37230   -37224   -37192   -37184   -37174   -37179   -37204   -37184 
  -37165   -37177   -37170   -37177   -37185   -37172   -37183   -37192 
  -37187   -37185   -37160   -37154   -37172   -37156   -37141   -37143 
  -37142   -37150   -37172   -37188   -37188   -37184   -37184   -37165 
  -37141   -37129   -37120   -37126   -37134   -37130   -37129   -37137 
  -37146   -37143   -37142   -37156   -37173   -37206   -37228   -37223 
  -37241   -37262   -37276   -37291   -37278   -37289   -37316   -37303 
  -37301   -37304   -37281   -37287   -37287   -37254   -37241   -37224 
  -37215   -37228   -37208   -37204   -37228   -37226   -37243   -37246 
  -37215   -37220   -37224   -37223   -37243   -37219   -37192   -37204 
  -37177   -37146   -37153   -37131   -37120   -37120   -37085   -37081 
  -37083   -37050   -37060   -37065   -37057   -37093   -37108   -37114 
  -37130   -37110   -37122   -37145   -37123   -37129   -37131   -37119 
  -37147   -37137   -37125   -37156   -37137   -37153   -37195   -37162 
  -37181   -37212   -37189   -37216   -37216   -37200   -37238   -37222 
  -37201   -37231   -37216   -37212   -37234   -37214   -37227   -37261 
  -37273   -37287   -37260   -37239   -37265   -37255   -37258   -37273 
  -37241   -37253   -37285   -37276   -37300   -37297   -37270   -37289 
  -37266   -37245   -37261   -37215   -37200   -37215   -37169   -37177 
  -37199   -37160   -37180   -37192   -37160   -37191   -37191   -37161 
  -37170   -37146   -37146   -37172   -37147   -37154   -37154   -37126 
  -37149   -37143   -37131   -37156   -37127   -37110   -37119   -37102 
  -37125   -37135   -37115   -37141   -37129   -37125   -37181   -37187 
  -37185   -37210   -37204   -37218   -37226   -37220   -37241   -37230 
  -37239   -37278   -37254   -37247   -37262   -37231   -37228   -37227 
  -37208   -37226   -37226   -37220   -37212   -37185   -37206   -37212 
  -37185   -37199   -37200   -37193   -37208   -37192   -37176   -37164 
  -37156   -37185   -37188   -37180   -37188   -37172   -37184   -37192 
  -37162   -37184   -37196   -37191   -37227   -37214   -37199   -37214 
  -37177   -37166   -37166   -37134   -37152   -37157   -37123   -37125 
  -37108   -37107   -37145   -37134   -37133   -37156   -37142   -37161 
  -37183   -37177   -37207   -37204   -37185   -37200   -37177   -37164 
  -37187   -37177   -37176   -37176   -37164   -37191   -37203   -37189 
  -37214   -37216   -37218   -37245   -37218   -37211   -37228   -37214 
  -37233   -37228   -37203   -37230   -37220   -37208   -37227   -37206 
  -37210   -37239   -37220   -37222   -37226   -37207   -37226   -37237 
  -37220   -37216   -37214   -37210   -37192   -37161   -37161   -37160 
  -37145   -37147   -37139   -37116   -37115   -37134   -37143   -37134 
  -37134   -37141   -37142   -37149   -37153   -37162   -37174   -37176 
  -37179   -37160   -37147   -37179   -37192   -37184   -37200   -37199 
  -37199   -37211   -37192   -37200   -37214   -37203   -37219   -37220 
  -37210   -37223   -37223   -37235   -37241   -37208   -37220   -37237 
  -37211   -37207   -37210   -37224   -37245   -37226   -37239   -37242 
  -37201   -37228   -37233   -37185   -37206   -37204   -37183   -37203 
  -37176   -37158   -37169   -37143   -37154   -37160   -37139   -37177 
  -37184   -37169   -37208   -37199   -37187   -37207   -37179   -37174 
  -37180   -37156   -37180   -37172   -37135   -37164   -37164   -37166 
  -37192   -37166   -37191   -37222   -37196   -37215   -37212   -37199 
  -37224   -37199   -37201   -37224   -37191   -37216   -37233   -37191 
  -37214   -37219   -37215   -37239   -37222   -37231   -37243   -37218 
  -37251   -37247   -37210   -37239   -37224   -37200   -37215   -37179 
  -37191   -37222   -37188   -37196   -37185   -37150   -37174   -37152 
  -37133   -37154   -37119   -37133   -37158   -37119   -37133   -37137 
  -37120   -37157   -37152   -37157   -37191   -37172   -37196   -37204 
  -37168   -37199   -37203   -37181   -37203   -37188   -37199   -37228 
  -37204   -37210   -37211   -37191   -37216   -37215   -37199   -37218 
  -37212   -37219   -37227   -37189   -37193   -37210   -37195   -37197 
  -37187   -37172   -37176   -37160   -37153   -37153   -37130   -37134 
  -37149   -37133   -37138   -37161   -37166   -37180   -37181   -37180 
  -37195   -37187   -37180   -37193   -37180   -37168   -37169   -37162 
  -37172   -37173   -37176   -37204   -37197   -37185   -37197   -37193 
  -37203   -37215   -37197   -37191   -37193   -37191   -37188   -37181 
  -37181   -37181   -37177   -37187   -37187   -37179   -37199   -37207 
  -37193   -37193   -37197   -37211   -37220   -37212   -37208   -37199 
  -37187   -37193   -37181   -37162   -37162   -37160   -37164   -37174 
  -37165   -37165   -37181   -37189   -37193   -37208   -37223   -37230 
  -37246   -37251   -37231   -37239   -37264   -37255   -37243   -37245 
  -37242   -37239   -37224   -37211   -37211   -37197   -37200   -37215 
  -37197   -37197   -37211   -37200   -37201   -37201   -37188   -37196 
  -37203   -37195   -37191   -37180   -37181   -37179   -37156   -37153 
  -37157   -37147   -37145   -37137   -37118   -37122   -37129   -37123 
  -37129   -37125   -37119   -37133   -37139   -37138   -37134   -37125 
  -37138   -37149   -37150   -37176   -37188   -37196   -37227   -37228 
  -37234   -37254   -37246   -37255   -37253   -37226   -37249   -37257 
  -37242   -37251   -37237   -37231   -37249   -37245   -37242   -37231 
  -37230   -37254   -37246   -37233   -37239   -37231   -37230   -37238 
  -37233   -37219   -37214   -37223   -37207   -37179   -37179   -37173 
  -37157   -37142   -37126   -37120   -37115   -37118   -37131   -37119 
  -37115   -37141   -37149   -37150   -37154   -37149   -37156   -37157 
  -37150   -37149   -37135   -37131   -37142   -37133   -37133   -37135 
  -37133   -37145   -37152   -37157   -37177   -37181   -37183   -37183 
  -37177   -37192   -37207   -37200   -37200   -37201   -37212   -37231 
  -37231   -37234   -37238   -37237   -37249   -37255   -37234   -37224 
  -37231   -37226   -37224   -37219   -37195   -37184   -37179   -37180 
  -37185   -37169   -37173   -37197   -37177   -37166   -37184   -37177 
  -37174   -37183   -37181   -37189   -37193   -37199   -37212   -37204 
  -37203   -37224   -37215   -37201   -37215   -37216   -37216   -37228 
  -37220   -37204   -37208   -37218   -37215   -37201   -37188   -37193 
  -37192   -37177   -37196   -37195   -37170   -37200   -37206   -37183 
  -37203   -37207   -37212   -37224   -37196   -37195   -37195   -37169 
  -37187   -37180   -37153   -37180   -37179   -37162   -37179   -37169 
  -37176   -37192   -37173   -37189   -37188   -37170   -37201   -37185 
