Origin Time       2025/03/29 04:45:00
Lat.              31.090
Long.             131.512
Depth. (km)       33
Mag.              4.6
Station Code      MYZH11
Station Lat.      32.0208
Station Long.     131.4700
Station Height(m) -200.3
Record Time       2025/03/29 04:45:49
Sampling Freq(Hz) 100Hz
Duration Time(s)  120
Dir.              2
Scale Factor      3923(gal)/8224838
Max. Acc. (gal)   0.183
Last Correction   2025/03/29 04:45:49
Memo.             
[...]
   17794    17797    17810    17828    17847    17863    17874    17869 
   17852    17825    17787    17747    17716    17707    17718    17729 
   17745    17767    17787    17807    17820    17822    17829    17836 
   17836    17836    17834    17828    17824    17832    17847    17863 
   17887    17910    17918    17921    17917    17899    17874    17845 
   17809    17770    17744    17729    17717    17717    17725    17739 
   17755    17771    17787    17803    17817    17830    17840    17838 
   17834    17833    17829    17824    17829    17836    17842    17853 
   17861    17860    17859    17859    17849    17834    17821    17809 
   17794    17772    17752    17741    17741    17748    17761    17778 
   17794    17807    17817    17821    17829    17832    17828    17818 
   17815    17815    17813    17810    17811    17818    17822    17820 
   17820    17826    17832    17833    17830    17825    17820    17818 
   17820    17830    17844    17852    17864    17875    17876    17874 
   17864    17848    17829    17810    17788    17767    17747    17736 
   17734    17743    17753    17770    17788    17802    17806    17802 
   17793    17783    17779    17783    17802    17830    17847    17852 
   17859    17867    17872    17878    17878    17874    17869    17859 
   17838    17817    17798    17778    17766    17761    17761    17767 
   17778    17787    17799    17820    17838    17848    17847    17838 
   17826    17805    17776    17761    17763    17771    17790    17815 
   17837    17851    17859    17861    17853    17841    17828    17811 
   17799    17795    17801    17809    17821    17836    17845    17851 
   17855    17853    17849    17845    17842    17838    17832    17822 
   17805    17786    17775    17770    17766    17761    17761    17770 
   17778    17783    17791    17795    17788    17780    17775    17766 
   17760    17767    17778    17797    17821    17837    17842    17844 
   17836    17817    17793    17767    17756    17764    17779    17795 
   17815    17837    17856    17861    17855    17855    17856    17851 
   17848    17855    17853    17845    17844    17842    17837    17837 
   17838    17829    17817    17809    17798    17775    17757    17752 
   17747    17734    17728    17728    17726    17725    17737    17757 
   17780    17798    17815    17836    17856    17869    17878    17886 
   17888    17880    17868    17849    17834    17830    17824    17815 
   17811    17806    17802    17801    17798    17801    17813    17822 
   17822    17815    17806    17798    17791    17784    17782    17790 
   17801    17807    17814    17820    17829    17834    17833    17833 
   17838    17833    17822    17817    17817    17813    17806    17799 
   17797    17795    17795    17797    17794    17790    17787    17787 
   17795    17814    17833    17842    17842    17834    17824    17814 
   17807    17805    17809    17817    17828    17840    17853    17863 
   17864    17856    17842    17825    17803    17783    17768    17763 
   17766    17778    17793    17807    17825    17844    17855    17860 
   17861    17855    17848    17837    17815    17806    17806    17801 
   17802    17811    17817    17828    17829    17821    17817    17811 
   17799    17791    17788    17790    17795    17807    17821    17834 
   17845    17851    17853    17853    17845    17838    17830    17815 
   17798    17780    17759    17736    17722    17721    17722    17730 
   17757    17790    17813    17830    17848    17857    17860    17861 
   17861    17857    17863    17869    17869    17874    17879    17875 
   17864    17849    17832    17802    17766    17733    17709    17691 
   17683    17693    17714    17734    17760    17791    17815    17837 
   17860    17869    17868    17867    17859    17841    17829    17829 
   17826    17826    17840    17849    17855    17863    17865    17859 
   17853    17848    17833    17811    17791    17778    17764    17749 
   17741    17749    17764    17782    17805    17829    17848    17865 
   17879    17879    17872    17860    17841    17821    17801    17783 
   17768    17759    17761    17770    17779    17794    17806    17807 
   17805    17802    17797    17791    17784    17782    17786    17788 
   17791    17795    17798    17797    17793    17786    17784    17790 
   17791    17790    17798    17806    17810    17807    17801    17798 
   17801    17811    17825    17840    17855    17867    17879    17894 
   17901    17902    17907    17911    17909    17907    17909    17902 
   17887    17869    17844    17809    17778    17757    17744    17739 
   17739    17743    17751    17755    17753    17751    17749    17747 
   17744    17743    17744    17748    17745    17741    17744    17753 
   17772    17788    17806    17834    17860    17869    17875    17882 
   17874    17859    17844    17830    17822    17814    17806    17809 
   17806    17799    17809    17825    17838    17851    17860    17861 
   17864    17871    17872    17863    17851    17842    17833    17824 
   17817    17810    17801    17795    17790    17783    17780    17778 
   17771    17763    17760    17756    17752    17756    17763    17775 
   17788    17801    17814    17832    17844    17849    17852    17852 
   17855    17852    17844    17837    17830    17825    17824    17821 
   17821    17824    17813    17798    17791    17791    17791    17791 
   17795    17798    17799    17805    17815    17825    17828    17825 
   17820    17814    17809    17805    17801    17795    17791    17788 
   17786    17791    17803    17817    17828    17841    17855    17857 
   17849    17844    17836    17830    17830    17833    17830    17828 
   17836    17842    17844    17849    17853    17856    17853    17840 
   17828    17818    17810    17809    17807    17801    17793    17787 
   17791    17798    17805    17813    17822    17820    17805    17793 
   17782    17767    17753    17748    17753    17763    17779    17802 
   17826    17852    17878    17901    17917    17923    17925    17913 
   17894    17871    17842    17811    17790    17771    17753    17744 
   17743    17747    17761    17780    17795    17810    17821    17820 
   17810    17803    17799    17801    17805    17811    17821    17824 
   17818    17817    17818    17811    17802    17801    17803    17805 
   17807    17813    17810    17801    17801    17799    17794    17797 
   17799    17793    17783    17772    17763    17763    17766    17770 
   17775    17783    17788    17791    17786    17780    17775    17770 
   17764    17763    17766    17768    17774    17783    17790    17797 
   17802    17810    17826    17838    17845    17853    17861    17867 
   17867    17857    17845    17830    17806    17776    17752    17734 
   17713    17703    17712    17722    17737    17763    17786    17795 
   17797    17787    17767    17753    17748    17744    17743    17752 
   17760    17759    17760    17768    17771    17766    17768    17771 
   17764    17770    17788    17803    17818    17834    17848    17871 
   17894    17903    17917    17929    17929    17926    17923    17911 
   17899    17888    17878    17861    17837    17807    17782    17757 
   17737    17728    17725    17729    17741    17751    17753    17759 
   17772    17788    17799    17807    17815    17825    17837    17847 
   17860    17876    17892    17902    17905    17901    17894    17887 
   17880    17878    17883    17887    17886    17887    17891    17886 
   17875    17861    17849    17844    17844    17852    17869    17894 
   17918    17942    17959    17963    17960    17952    17938    17923 
   17902    17879    17865    17863    17864    17869    17872    17864 
   17847    17832    17817    17799    17784    17775    17766    17763 
   17763    17757    17752    17747    17733    17721    17722    17726 
   17726    17733    17737    17736    17736    17737    17740    17747 
   17757    17775    17794    17809    17821    17824    17817    17799 
   17772    17747    17729    17720    17722    17736    17751    17764 
   17784    17810    17829    17844    17860    17874    17882    17875 
   17852    17824    17790    17749    17707    17676    17655    17640 
   17631    17631    17636    17645    17656    17668    17686    17707 
   17737    17768    17793    17813    17828    17836    17834    17821 
   17814    17806    17793    17786    17786    17793    17809    17828 
   17851    17874    17892    17907    17929    17950    17959    17959 
   17967    17969    17961    17955    17944    17921    17890    17852 
   17806    17761    17728    17705    17695    17694    17705    17725 
   17747    17775    17802    17828    17859    17887    17906    17922 
   17929    17928    17922    17906    17890    17882    17872    17861 
   17857    17856    17848    17838    17832    17822    17811    17806 
   17803    17810    17828    17849    17872    17894    17910    17921 
   17926    17932    17936    17938    17941    17950    17967    17977 
   17983    17982    17975    17963    17942    17919    17899    17882 
   17864    17855    17848    17841    17833    17829    17822    17814 
   17801    17779    17761    17751    17745    17743    17741    17734 
   17724    17720    17721    17733    17752    17776    17806    17833 
   17855    17875    17894    17902    17903    17898    17878    17853 
   17844    17849    17859    17869    17886    17901    17906    17909 
   17909    17906    17901    17891    17879    17859    17832    17798 
   17761    17728    17693    17660    17643    17644    17659    17685 
   17714    17739    17747    17733    17703    17668    17636    17613 
   17605    17612    17632    17658    17689    17717    17743    17760 
   17764    17755    17736    17713    17695    17687    17686    17694 
   17710    17725    17740    17748    17744    17737    17728    17712 
   17706    17714    17737    17775    17826    17883    17938    17983 
   18017    18041    18044    18023    17992    17952    17906    17864 
   17826    17786    17756    17739    17726    17725    17736    17756 
   17787    17824    17861    17887    17894    17888    17876    17853 
   17825    17797    17764    17726    17693    17662    17637    17631 
   17639    17647    17656    17666    17675    17698    17722    17748 
   17784    17826    17860    17876    17879    17871    17847    17806 
   17766    17732    17695    17663    17651    17655    17674    17712 
   17763    17814    17864    17906    17933    17949    17955    17944 
   17922    17898    17878    17867    17863    17868    17883    17903 
   17934    17969    17996    18018    18029    18018    17992    17957 
   17923    17894    17863    17829    17805    17791    17782    17776 
   17778    17784    17788    17791    17795    17793    17793    17805 
   17820    17834    17859    17888    17913    17928    17929    17909 
   17874    17826    17770    17714    17666    17628    17602    17595 
   17610    17641    17680    17726    17772    17813    17852    17880 
   17894    17895    17886    17863    17830    17793    17756    17725 
   17698    17668    17644    17629    17620    17618    17622    17625 
   17629    17639    17652    17668    17680    17693    17710    17730 
   17748    17766    17787    17821    17867    17921    17969    18000 
   18018    18030    18030    18010    17977    17942    17906    17871 
   17847    17832    17825    17825    17829    17841    17859    17875 
   17895    17915    17925    17925    17914    17894    17875    17852 
   17828    17810    17794    17772    17756    17747    17734    17721 
   17713    17714    17730    17756    17794    17837    17871    17894 
   17907    17907    17888    17855    17805    17744    17683    17628 
   17581    17548    17539    17540    17555    17582    17606    17628 
   17653    17670    17680    17707    17744    17779    17818    17861 
   17901    17940    17973    17998    18018    18030    18037    18042 
   18050    18061    18067    18067    18061    18056    18045    18022 
   17992    17965    17938    17910    17880    17856    17847    17845 
   17856    17888    17932    17972    18003    18017    18015    17999 
   17972    17940    17910    17880    17845    17806    17768    17733 
   17703    17682    17668    17666    17678    17701    17721    17739 
   17751    17759    17761    17761    17770    17775    17775    17774 
   17774    17772    17771    17764    17751    17741    17734    17722 
   17707    17699    17693    17686    17687    17699    17717    17741 
   17764    17787    17811    17836    17864    17896    17926    17964 
   18002    18025    18040    18044    18029    17999    17969    17942 
   17911    17883    17861    17838    17814    17798    17778    17759 
   17749    17741    17726    17705    17686    17675    17662    17649 
   17649    17656    17666    17672    17672    17664    17651    17635 
   17614    17599    17597    17602    17617    17636    17667    17710 
   17764    17825    17887    17948    18003    18041    18068    18085 
   18088    18079    18058    18037    18015    17990    17964    17940 
   17913    17883    17855    17825    17799    17780    17767    17757 
   17756    17760    17759    17753    17744    17721    17698    17678 
   17652    17625    17602    17583    17570    17562    17563    17574 
   17582    17597    17622    17653    17690    17732    17783    17847 
   17917    17994    18067    18127    18168    18189    18196    18188 
   18166    18138    18111    18092    18069    18044    18027    18013 
   17992    17977    17965    17944    17915    17875    17832    17794 
   17763    17736    17718    17709    17699    17683    17666    17645 
   17621    17594    17572    17558    17548    17539    17527    17518 
   17520    17527    17547    17582    17620    17656    17691    17717 
   17740    17757    17763    17770    17778    17782    17790    17798 
   17799    17803    17813    17828    17844    17861    17880    17892 
   17903    17919    17936    17953    17969    17980    17990    17996 
   17992    17984    17976    17972    17965    17942    17917    17888 
   17855    17818    17780    17745    17717    17693    17667    17655 
   17651    17645    17648    17659    17666    17671    17676    17686 
   17701    17721    17743    17764    17787    17811    17826    17834 
   17834    17826    17813    17794    17778    17763    17756    17761 
   17771    17790    17822    17853    17884    17918    17949    17973 
   17986    17979    17953    17921    17880    17832    17787    17759 
   17741    17734    17739    17745    17753    17767    17787    17809 
   17826    17844    17864    17869    17863    17855    17842    17826 
   17821    17824    17829    17836    17849    17859    17856    17848 
   17836    17820    17805    17790    17774    17766    17772    17780 
   17788    17802    17813    17824    17837    17851    17872    17905 
   17940    17968    17995    18018    18031    18040    18041    18037 
   18026    18010    17987    17957    17930    17910    17886    17857 
   17836    17824    17814    17806    17801    17793    17786    17782 
   17771    17748    17717    17687    17653    17622    17605    17597 
   17599    17621    17649    17680    17720    17753    17776    17797 
   17810    17814    17814    17809    17797    17786    17772    17756 
   17748    17749    17753    17760    17774    17790    17803    17810 
   17814    17814    17814    17817    17824    17832    17847    17871 
   17895    17913    17933    17959    17983    18006    18021    18022 
   18018    18011    17991    17961    17932    17899    17863    17825 
   17793    17767    17745    17725    17709    17699    17697    17697 
   17693    17687    17680    17674    17668    17667    17667    17667 
   17670    17674    17679    17693    17710    17729    17751    17768 
   17779    17784    17782    17770    17747    17722    17699    17683 
   17675    17670    17670    17691    17718    17739    17761    17790 
   17807    17814    17820    17828    17837    17852    17879    17911 
   17952    17998    18037    18064    18088    18100    18095    18079 
   18058    18030    18000    17973    17957    17940    17922    17910 
   17894    17874    17860    17845    17830    17821    17813    17801 
   17786    17771    17764    17761    17751    17740    17732    17721 
   17707    17695    17687    17689    17693    17694    17705    17716 
   17724    17734    17745    17749    17753    17755    17749    17748 
   17749    17755    17763    17775    17788    17795    17795    17791 
   17782    17775    17766    17753    17745    17733    17718    17710 
   17709    17717    17733    17755    17778    17798    17820    17840 
   17853    17865    17880    17891    17892    17888    17882    17871 
   17860    17849    17845    17844    17842    17847    17856    17853 
   17849    17851    17847    17841    17837    17822    17807    17793 
   17771    17755    17744    17728    17717    17716    17722    17732 
   17740    17753    17766    17772    17772    17768    17767    17764 
   17757    17753    17761    17774    17779    17783    17790    17799 
   17809    17818    17833    17855    17871    17878    17888    17905 
   17914    17923    17936    17942    17950    17956    17959    17967 
   17971    17971    17979    17987    17994    18003    18002    17992 
   17986    17968    17940    17913    17879    17837    17798    17763 
   17733    17707    17691    17683    17682    17682    17682    17683 
   17680    17678    17676    17678    17680    17683    17694    17706 
   17718    17733    17749    17768    17791    17815    17838    17861 
   17883    17898    17901    17902    17906    17911    17913    17917 
   17926    17933    17936    17937    17929    17909    17880    17848 
   17814    17779    17747    17713    17682    17663    17658    17655 
   17656    17670    17686    17703    17730    17757    17782    17810 
   17833    17848    17863    17879    17888    17888    17878    17859 
   17840    17814    17782    17755    17739    17724    17710    17702 
   17697    17690    17686    17687    17695    17707    17726    17749 
   17768    17787    17805    17817    17828    17838    17841    17840 
   17845    17852    17856    17855    17853    17851    17844    17840 
   17841    17845    17855    17865    17878    17894    17910    17921 
   17929    17938    17944    17945    17945    17941    17926    17910 
   17890    17864    17836    17811    17795    17779    17768    17771 
   17778    17780    17779    17779    17776    17771    17770    17766 
   17756    17747    17737    17721    17707    17702    17699    17697 
   17697    17695    17694    17695    17697    17706    17721    17733 
   17748    17767    17782    17798    17814    17829    17852    17883 
   17911    17940    17973    18007    18037    18065    18095    18123 
   18144    18157    18164    18154    18139    18126    18106    18079 
   18056    18040    18015    17983    17949    17911    17871    17826 
   17783    17744    17709    17680    17658    17641    17632    17626 
   17621    17621    17628    17635    17644    17652    17659    17678 
   17699    17718    17745    17779    17810    17829    17844    17857 
