Origin Time       2025/03/29 04:45:00
Lat.              31.090
Long.             131.512
Depth. (km)       33
Mag.              4.6
Station Code      MYZH10
Station Lat.      32.0215
Station Long.     131.2900
Station Height(m) -20
Record Time       2025/03/29 04:45:49
Sampling Freq(Hz) 100Hz
Duration Time(s)  120
Dir.              3
Scale Factor      2940(gal)/6170270
Max. Acc. (gal)   0.127
Last Correction   2025/03/29 04:45:34
Memo.             
[...]
   42735    42735    42737    42738    42742    42753    42762    42773 
   42794    42814    42824    42832    42840    42841    42838    42835 
   42831    42831    42835    42838    42842    42843    42842    42838 
   42828    42813    42800    42792    42790    42786    42780    42777 
   42776    42772    42763    42749    42735    42719    42701    42684 
   42672    42668    42663    42661    42666    42674    42680    42691 
   42709    42728    42748    42768    42784    42797    42810    42820 
   42825    42824    42822    42821    42820    42825    42834    42839 
   42839    42840    42834    42816    42797    42778    42759    42751 
   42755    42763    42775    42791    42801    42803    42804    42804 
   42803    42805    42810    42813    42814    42816    42813    42800 
   42787    42773    42761    42753    42747    42749    42754    42754 
   42758    42763    42765    42763    42760    42755    42749    42750 
   42758    42766    42774    42783    42785    42783    42781    42770 
   42752    42743    42746    42752    42764    42781    42791    42789 
   42777    42751    42718    42694    42684    42687    42705    42730 
   42758    42784    42805    42821    42832    42837    42836    42832 
   42828    42825    42819    42816    42815    42810    42802    42793 
   42776    42758    42743    42730    42719    42713    42713    42717 
   42721    42727    42733    42736    42741    42751    42759    42765 
   42773    42779    42782    42784    42784    42783    42784    42784 
   42786    42794    42800    42805    42813    42817    42815    42806 
   42787    42761    42736    42720    42712    42708    42710    42718 
   42724    42726    42726    42717    42708    42704    42706    42712 
   42724    42741    42760    42776    42790    42799    42806    42811 
   42812    42815    42821    42819    42811    42804    42798    42793 
   42793    42792    42789    42791    42792    42790    42794    42803 
   42811    42821    42830    42827    42819    42809    42790    42764 
   42744    42734    42734    42744    42758    42769    42779    42783 
   42775    42769    42766    42759    42757    42760    42760    42758 
   42761    42767    42772    42776    42777    42772    42769    42767 
   42767    42769    42772    42779    42788    42797    42802    42799 
   42793    42787    42781    42778    42779    42780    42786    42796 
   42804    42809    42805    42793    42783    42774    42771    42778 
   42779    42781    42794    42798    42793    42793    42792    42790 
   42790    42789    42789    42791    42793    42796    42799    42796 
   42793    42792    42784    42773    42761    42741    42714    42689 
   42667    42653    42649    42657    42674    42695    42713    42726 
   42736    42743    42745    42752    42761    42764    42768    42776 
   42782    42785    42788    42791    42794    42799    42803    42805 
   42809    42816    42824    42830    42831    42827    42819    42813 
   42807    42801    42801    42807    42811    42814    42817    42814 
   42808    42803    42795    42782    42773    42766    42761    42760 
   42756    42749    42745    42736    42727    42724    42718    42714 
   42715    42720    42732    42748    42765    42784    42801    42816 
   42833    42843    42844    42844    42843    42839    42833    42828 
   42829    42833    42835    42833    42829    42828    42822    42810 
   42802    42794    42785    42786    42799    42818    42837    42856 
   42869    42872    42873    42873    42856    42835    42817    42796 
   42780    42774    42770    42770    42777    42783    42784    42784 
   42782    42775    42765    42754    42743    42734    42728    42722 
   42714    42716    42720    42718    42717    42714    42707    42704 
   42705    42711    42729    42751    42768    42780    42789    42795 
   42792    42788    42789    42789    42794    42806    42810    42805 
   42799    42785    42766    42750    42730    42706    42689    42679 
   42676    42676    42684    42701    42717    42730    42737    42735 
   42729    42722    42717    42718    42725    42731    42738    42747 
   42756    42765    42772    42778    42787    42797    42805    42813 
   42823    42830    42831    42835    42842    42845    42840    42827 
   42819    42814    42804    42797    42787    42768    42747    42721 
   42690    42668    42656    42649    42644    42644    42652    42665 
   42677    42697    42722    42742    42761    42780    42783    42774 
   42765    42759    42756    42757    42767    42788    42816    42847 
   42879    42905    42924    42936    42938    42933    42927    42917 
   42897    42874    42853    42837    42821    42804    42790    42778 
   42767    42761    42753    42749    42758    42768    42772    42778 
   42785    42788    42788    42787    42787    42789    42792    42794 
   42792    42792    42800    42808    42813    42820    42829    42833 
   42836    42847    42857    42865    42873    42878    42878    42875 
   42863    42845    42822    42793    42765    42737    42714    42700 
   42695    42699    42705    42712    42720    42719    42714    42710 
   42700    42693    42695    42694    42697    42705    42711    42720 
   42732    42741    42749    42757    42760    42758    42749    42739 
   42727    42718    42717    42719    42722    42733    42745    42757 
   42773    42782    42787    42797    42807    42818    42835    42852 
   42870    42896    42914    42924    42927    42920    42907    42890 
   42872    42853    42836    42825    42818    42807    42793    42777 
   42766    42756    42742    42730    42724    42721    42720    42722 
   42725    42728    42731    42732    42729    42724    42720    42706 
   42690    42683    42673    42661    42654    42649    42647    42650 
   42657    42670    42684    42696    42711    42725    42734    42739 
   42742    42747    42753    42763    42781    42799    42812    42822 
   42826    42822    42812    42800    42787    42778    42773    42766 
   42754    42738    42724    42705    42684    42669    42659    42651 
   42653    42661    42672    42682    42688    42695    42700    42704 
   42719    42746    42777    42813    42846    42869    42889    42905 
   42912    42905    42892    42875    42851    42822    42797    42776 
   42754    42732    42711    42686    42667    42652    42636    42629 
   42635    42645    42664    42691    42722    42752    42779    42806 
   42832    42848    42853    42849    42843    42834    42821    42812 
   42808    42810    42821    42834    42847    42857    42862    42860 
   42850    42832    42808    42783    42758    42733    42711    42693 
   42683    42683    42688    42702    42728    42760    42795    42829 
   42861    42887    42905    42911    42912    42913    42909    42896 
   42884    42871    42855    42845    42842    42847    42858    42873 
   42889    42904    42915    42920    42911    42900    42895    42877 
   42853    42837    42817    42795    42781    42770    42767    42768 
   42762    42757    42750    42729    42707    42692    42682    42675 
   42674    42679    42683    42684    42683    42686    42689    42690 
   42687    42685    42683    42679    42675    42679    42689    42703 
   42726    42757    42785    42808    42827    42845    42861    42874 
   42888    42907    42923    42933    42943    42952    42952    42945 
   42929    42900    42869    42839    42804    42768    42745    42730 
   42717    42710    42709    42702    42692    42694    42697    42702 
   42714    42727    42736    42747    42757    42766    42773    42784 
   42797    42809    42820    42838    42858    42873    42888    42901 
   42903    42899    42898    42891    42879    42870    42865    42854 
   42838    42820    42800    42777    42750    42721    42691    42665 
   42649    42637    42631    42636    42643    42648    42655    42662 
   42666    42672    42685    42700    42721    42757    42795    42830 
   42868    42902    42925    42938    42940    42929    42909    42882 
   42849    42820    42794    42766    42744    42727    42711    42698 
   42690    42683    42678    42676    42676    42678    42684    42684 
   42679    42676    42668    42654    42645    42633    42616    42608 
   42602    42598    42602    42607    42611    42619    42624    42628 
   42636    42646    42656    42667    42680    42694    42707    42722 
   42738    42754    42778    42802    42816    42835    42854    42861 
   42867    42879    42886    42893    42898    42894    42883    42876 
   42871    42865    42860    42860    42862    42862    42862    42864 
   42869    42869    42868    42871    42872    42869    42860    42837 
   42804    42772    42741    42710    42685    42667    42656    42653 
   42654    42654    42658    42664    42666    42669    42670    42669 
   42672    42672    42671    42678    42686    42695    42704    42712 
   42722    42731    42740    42755    42770    42782    42799    42818 
   42830    42836    42841    42849    42858    42868    42877    42887 
   42895    42897    42898    42899    42898    42900    42905    42905 
   42900    42888    42868    42847    42824    42798    42776    42756 
   42743    42742    42741    42737    42739    42744    42738    42728 
   42722    42717    42713    42708    42706    42711    42717    42722 
   42731    42744    42764    42781    42795    42813    42831    42849 
   42869    42886    42901    42917    42931    42947    42964    42982 
   43002    43016    43023    43028    43026    43015    42998    42972 
   42938    42901    42861    42820    42786    42755    42722    42692 
   42671    42653    42641    42639    42645    42657    42670    42683 
   42699    42715    42727    42738    42751    42763    42773    42782 
   42786    42785    42779    42763    42747    42730    42712    42706 
   42712    42720    42730    42740    42749    42760    42766    42768 
   42780    42796    42810    42829    42846    42853    42858    42856 
   42845    42830    42815    42798    42780    42761    42743    42725 
   42712    42706    42708    42719    42733    42746    42762    42777 
   42782    42785    42784    42779    42777    42775    42770    42763 
   42749    42729    42712    42692    42666    42642    42624    42605 
   42588    42574    42563    42558    42558    42559    42559    42562 
   42567    42573    42578    42582    42592    42605    42615    42628 
   42645    42660    42685    42715    42740    42758    42771    42777 
   42777    42772    42759    42742    42730    42725    42724    42728 
   42738    42750    42764    42777    42791    42806    42820    42835 
   42855    42873    42882    42893    42913    42927    42937    42955 
   42968    42970    42968    42956    42936    42919    42901    42876 
   42855    42838    42822    42813    42814    42817    42823    42830 
   42834    42832    42829    42829    42823    42811    42805    42802 
   42798    42795    42795    42799    42807    42814    42820    42831 
   42846    42864    42886    42909    42934    42953    42960    42963 
   42965    42960    42956    42948    42934    42919    42895    42860 
   42823    42786    42745    42703    42665    42629    42595    42569 
   42550    42535    42530    42532    42537    42548    42565    42593 
   42628    42666    42708    42748    42786    42822    42853    42872 
   42889    42904    42907    42906    42905    42895    42884    42873 
   42857    42844    42835    42824    42815    42806    42794    42786 
   42776    42756    42735    42716    42693    42673    42659    42653 
   42653    42655    42658    42660    42665    42675    42682    42687 
   42695    42701    42703    42703    42703    42705    42705    42703 
   42704    42707    42707    42707    42714    42720    42723    42732 
   42741    42748    42758    42769    42773    42778    42790    42800 
   42807    42817    42826    42832    42838    42840    42839    42834 
   42823    42817    42814    42804    42798    42800    42802    42805 
   42809    42810    42809    42805    42800    42792    42784    42780 
   42773    42762    42755    42752    42750    42749    42753    42760 
   42765    42770    42778    42789    42799    42808    42816    42825 
   42830    42831    42831    42831    42830    42824    42817    42816 
   42817    42820    42822    42821    42824    42831    42837    42849 
   42865    42876    42887    42898    42902    42902    42900    42900 
   42898    42890    42881    42870    42857    42841    42824    42808 
   42791    42772    42751    42730    42709    42689    42673    42656 
   42632    42613    42597    42575    42557    42547    42540    42537 
   42541    42546    42545    42539    42535    42538    42548    42559 
   42576    42600    42622    42639    42654    42676    42697    42711 
   42727    42745    42760    42770    42771    42771    42772    42773 
   42780    42791    42802    42812    42826    42843    42856    42867 
   42884    42904    42920    42936    42949    42954    42959    42964 
   42964    42956    42947    42940    42932    42922    42917    42911 
   42901    42897    42894    42886    42883    42887    42890    42894 
   42902    42905    42902    42899    42896    42887    42879    42874 
   42867    42853    42838    42827    42814    42800    42783    42763 
   42746    42734    42721    42708    42700    42695    42689    42684 
   42675    42662    42645    42620    42590    42566    42546    42526 
   42512    42509    42511    42513    42521    42535    42545    42560 
   42581    42602    42630    42667    42703    42740    42777    42809 
   42838    42859    42871    42882    42891    42898    42905    42906 
   42908    42913    42912    42904    42898    42896    42889    42878 
   42871    42864    42847    42829    42817    42802    42784    42767 
   42753    42742    42730    42720    42711    42704    42698    42694 
   42692    42691    42693    42702    42712    42723    42738    42756 
   42776    42795    42813    42830    42850    42869    42880    42886 
   42890    42885    42877    42873    42869    42859    42845    42834 
   42820    42800    42782    42767    42749    42735    42733    42736 
   42735    42736    42745    42755    42767    42787    42805    42819 
   42829    42835    42842    42844    42840    42832    42824    42820 
   42816    42811    42811    42811    42812    42815    42812    42804 
   42801    42798    42793    42786    42777    42769    42759    42743 
   42727    42713    42697    42685    42674    42667    42667    42668 
   42664    42668    42680    42686    42696    42715    42730    42744 
   42764    42780    42795    42811    42821    42830    42840    42847 
   42855    42858    42855    42851    42847    42840    42828    42809 
   42791    42779    42767    42751    42736    42726    42717    42702 
   42686    42675    42667    42657    42654    42659    42666    42673 
   42682    42686    42691    42698    42703    42710    42721    42730 
   42738    42745    42752    42762    42767    42767    42771    42775 
   42775    42782    42786    42787    42794    42798    42798    42804 
   42807    42807    42807    42808    42813    42820    42825    42828 
   42828    42823    42816    42810    42803    42796    42792    42786 
   42776    42773    42776    42776    42772    42772    42775    42772 
   42769    42767    42763    42758    42751    42746    42746    42745 
   42746    42752    42756    42762    42772    42778    42778    42775 
   42772    42772    42772    42770    42770    42776    42784    42790 
   42794    42799    42808    42813    42816    42821    42828    42835 
   42839    42838    42834    42826    42815    42801    42784    42769 
   42755    42744    42730    42712    42699    42692    42684    42677 
   42673    42670    42669    42668    42668    42674    42682    42693 
   42707    42718    42736    42758    42777    42797    42816    42833 
   42845    42855    42864    42866    42869    42872    42867    42861 
   42858    42852    42850    42851    42851    42849    42850    42852 
   42848    42845    42846    42846    42837    42827    42820    42809 
   42794    42785    42776    42768    42767    42767    42763    42761 
   42767    42778    42784    42791    42799    42800    42800    42800 
   42797    42795    42788    42781    42777    42768    42759    42751 
   42743    42734    42727    42726    42724    42720    42719    42721 
   42725    42729    42730    42736    42745    42751    42754    42755 
   42755    42760    42759    42756    42762    42768    42770    42775 
   42778    42782    42789    42794    42794    42796    42804    42810 
   42810    42811    42811    42813    42816    42816    42814    42814 
   42811    42810    42810    42806    42800    42794    42786    42778 
   42772    42766    42758    42747    42731    42716    42698    42678 
   42661    42648    42637    42632    42626    42624    42628    42638 
   42648    42664    42686    42708    42728    42749    42771    42791 
   42809    42826    42841    42853    42865    42871    42874    42879 
   42880    42873    42866    42860    42849    42837    42828    42818 
   42804    42793    42786    42775    42764    42754    42742    42730 
   42723    42717    42713    42712    42716    42721    42726    42733 
   42744    42760    42783    42799    42810    42827    42842    42852 
   42862    42871    42879    42881    42882    42882    42879    42876 
   42872    42865    42856    42846    42838    42834    42833    42830 
   42828    42831    42833    42829    42823    42816    42807    42797 
   42785    42772    42763    42756    42749    42744    42740    42734 
   42732    42732    42728    42722    42719    42715    42712    42708 
   42703    42700    42702    42704    42705    42708    42710    42713 
   42715    42713    42714    42718    42720    42722    42729    42737 
   42745    42754    42761    42767    42776    42784    42788    42792 
   42796    42799    42802    42805    42800    42793    42788    42784 
   42777    42766    42755    42746    42738    42731    42724    42717 
   42716    42716    42719    42732    42746    42757    42768    42774 
   42779    42785    42785    42780    42779    42778    42775    42771 
   42766    42763    42761    42755    42746    42738    42734    42728 
   42722    42719    42714    42709    42707    42706    42708    42711 
   42718    42729    42740    42753    42764    42772    42787    42806 
   42824    42841    42858    42875    42887    42897    42911    42918 
   42920    42928    42933    42935    42935    42932    42932    42934 
   42931    42923    42917    42908    42896    42888    42875    42854 
   42846    42840    42821    42804    42792    42770    42747    42730 
   42710    42690    42681    42671    42659    42657    42659    42658 
   42664    42672    42674    42676    42681    42686    42694    42699 
   42703    42711    42716    42716    42716    42716    42714    42708 
   42700    42694    42686    42678    42674    42671    42667    42666 
   42670    42679    42691    42705    42721    42734    42750    42768 
   42777    42789    42804    42816    42828    42839    42851    42865 
   42875    42881    42884    42888    42889    42884    42879    42877 
   42874    42866    42855    42842    42832    42824    42815    42809 
