Origin Time       2025/03/29 04:45:00
Lat.              31.090
Long.             131.512
Depth. (km)       33
Mag.              4.6
Station Code      MYZH08
Station Lat.      32.2132
Station Long.     131.5309
Station Height(m) 68
Record Time       2025/03/29 04:46:03
Sampling Freq(Hz) 100Hz
Duration Time(s)  120
Dir.              5
Scale Factor      3920(gal)/6170801
Max. Acc. (gal)   0.421
Last Correction   2025/03/29 04:45:48
Memo.             
    8432     8385     8360     8362     8400     8469     8549     8621 
    8673     8690     8662     8599     8517     8442     8393     8384 
    8418     8480     8544     8589     8599     8563     8503     8450 
    8416     8404     8413     8431     8443     8445     8438     8419 
    8397     8389     8395     8415     8445     8478     8509     8531 
    8542     8541     8529     8505     8478     8459     8444     8424 
    8408     8411     8435     8478     8533     8591     8641     8661 
    8645     8598     8530     8460     8403     8364     8353     8370 
    8400     8430     8458     8474     8471     8455     8432     8412 
    8407     8420     8439     8458     8479     8505     8533     8554 
    8566     8567     8554     8523     8478     8431     8394     8373 
    8370     8379     8390     8400     8412     8430     8452     8476 
    8505     8537     8566     8582     8585     8572     8537     8487 
    8443     8417     8409     8429     8474     8527     8572     8604 
    8608     8579     8525     8467     8417     8383     8382     8418 
    8474     8531     8576     8593     8579     8543     8499     8453 
    8415     8394     8389     8394     8406     8424     8441     8451 
    8457     8462     8464     8463     8466     8476     8490     8506 
    8521     8523     8509     8482     8455     8436     8426     8436 
    8466     8506     8545     8571     8571     8541     8499     8464 
    8447     8448     8458     8476     8489     8480     8453     8424 
    8397     8382     8386     8412     8454     8505     8558     8607 
    8631     8621     8583     8532     8474     8418     8386     8380 
    8387     8404     8426     8442     8447     8449     8455     8461 
    8466     8483     8504     8516     8525     8530     8520     8495 
    8464     8436     8422     8423     8440     8469     8504     8540 
    8563     8570     8561     8534     8496     8468     8454     8456 
    8477     8506     8526     8526     8499     8453     8406     8375 
    8367     8390     8440     8496     8541     8563     8554     8515 
    8456     8394     8353     8342     8357     8398     8455     8506 
    8536     8538     8507     8450     8390     8354     8355     8397 
    8478     8568     8631     8650     8626     8568     8490     8424 
    8401     8421     8467     8532     8599     8637     8631     8590 
    8530     8461     8397     8353     8336     8343     8366     8398 
    8431     8446     8436     8409     8375     8347     8340     8363 
    8416     8487     8559     8614     8637     8617     8562     8488 
    8416     8373     8371     8404     8463     8527     8567     8565 
    8526     8462     8388     8326     8301     8315     8350     8397 
    8450     8500     8533     8547     8542     8529     8509     8483 
    8459     8436     8413     8404     8417     8442     8474     8517 
    8557     8568     8551     8519     8480     8447     8435     8448 
    8479     8519     8548     8555     8542     8519     8493     8478 
    8488     8528     8587     8641     8660     8628     8550     8440 
    8315     8210     8160     8165     8220     8318     8434     8536 
    8609     8650     8659     8639     8612     8597     8600     8614 
    8632     8639     8615     8553     8461     8355     8265     8220 
    8234     8304     8403     8495     8562     8592     8584     8556 
    8524     8495     8491     8522     8574     8636     8696     8732 
    8728     8678     8590     8479     8379     8314     8287     8300 
    8353     8421     8477     8509     8514     8499     8471     8434 
    8396     8364     8345     8348     8370     8402     8444     8496 
    8544     8571     8574     8560     8528     8491     8465     8454 
    8451     8447     8440     8434     8428     8429     8448     8488 
    8539     8596     8651     8678     8650     8574     8472     8372 
    8303     8292     8348     8454     8570     8650     8663     8602 
    8485     8347     8227     8160     8164     8235     8352     8478 
    8582     8635     8622     8560     8480     8423     8423     8483 
    8591     8716     8813     8850     8817     8715     8558     8381 
    8237     8171     8193     8284     8409     8523     8570     8526 
    8411     8266     8141     8087     8126     8252     8425     8600 
    8743     8835     8863     8834     8767     8681     8603     8567 
    8581     8616     8635     8609     8516     8365     8193     8058 
    8011     8082     8261     8494     8698     8798     8763     8608 
    8386     8189     8107     8177     8382     8662     8936     9114 
    9140     9013     8774     8489     8228     8052     7998     8062 
    8203     8361     8481     8533     8518     8453     8376     8329 
    8335     8397     8486     8560     8584     8541     8436     8304 
    8201     8165     8204     8315     8470     8620     8721     8744 
    8682     8553     8400     8272     8212     8237     8340     8492 
    8639     8725     8714     8612     8459     8303     8200     8194 
    8285     8428     8563     8643     8641     8551     8409     8265 
    8171     8164     8251     8404     8585     8754     8862     8879 
    8806     8667     8497     8338     8233     8202     8239     8317 
    8400     8462     8487     8471     8428     8380     8343     8341 
    8393     8495     8617     8717     8765     8753     8676     8563 
    8468     8424     8438     8495     8557     8585     8558     8475 
    8355     8231     8144     8122     8171     8287     8451     8633 
    8794     8901     8934     8898     8809     8694     8579     8486 
    8428     8413     8426     8442     8455     8473     8487     8491 
    8488     8480     8464     8427     8378     8343     8344     8391 
    8495     8650     8817     8945     8995     8942     8791     8587 
    8396     8274     8256     8340     8490     8660     8801     8865 
    8830     8710     8540     8369     8244     8195     8225     8326 
    8466     8602     8698     8725     8665     8537     8383     8244 
    8155     8135     8181     8276     8391     8479     8515     8500 
    8452     8394     8351     8340     8367     8420     8479     8525 
    8549     8547     8510     8439     8348     8260     8195     8170 
    8200     8286     8405     8527     8622     8663     8648     8584 
    8472     8334     8208     8121     8090     8125     8223     8367 
    8527     8676     8789     8824     8759     8617     8432     8236 
    8084     8028     8075     8199     8367     8538     8667     8717 
    8682     8587     8471     8377     8336     8364     8449     8555 
    8650     8708     8708     8656     8590     8528     8474     8441 
    8428     8423     8415     8400     8389     8405     8452     8523 
    8613     8704     8766     8769     8701     8578     8432     8297 
    8205     8169     8184     8237     8302     8351     8380     8394 
    8393     8377     8354     8336     8338     8367     8418     8484 
    8563     8642     8696     8720     8722     8704     8661     8595 
    8518     8442     8369     8308     8283     8300     8364     8463 
    8569     8658     8719     8743     8737     8715     8683     8650 
    8626     8613     8602     8587     8564     8529     8486     8443 
    8408     8386     8379     8384     8396     8420     8453     8481 
    8493     8482     8447     8400     8361     8341     8349     8384 
    8437     8496     8543     8564     8562     8552     8536     8516 
    8499     8486     8472     8454     8437     8433     8451     8497 
    8566     8646     8730     8798     8820     8785     8715     8629 
    8539     8472     8446     8447     8454     8451     8423     8370 
    8307     8251     8214     8211     8249     8327     8433     8542 
    8633     8685     8681     8630     8551     8457     8371     8312 
    8292     8316     8375     8453     8525     8567     8568     8534 
    8482     8432     8401     8405     8442     8492     8533     8555 
    8559     8533     8488     8456     8449     8455     8475     8506 
    8523     8495     8420     8316     8202     8100     8046     8069 
    8162     8298     8455     8609     8721     8772     8762     8697 
    8603     8519     8469     8462     8494     8541     8570     8549 
    8463     8337     8213     8127     8104     8152     8265     8409 
    8534     8618     8649     8617     8543     8472     8428     8419 
    8448     8513     8590     8646     8676     8682     8661     8620 
    8576     8543     8513     8479     8442     8401     8358     8326 
    8315     8327     8363     8417     8486     8557     8605     8616 
    8584     8512     8408     8292     8195     8153     8185     8278 
    8405     8533     8625     8654     8618     8530     8422     8327 
    8266     8252     8290     8366     8448     8502     8515     8497 
    8465     8434     8415     8415     8429     8453     8490     8536 
    8587     8647     8696     8712     8696     8659     8610     8570 
    8568     8607     8675     8759     8836     8877     8877     8836 
    8755     8651     8543     8453     8393     8371     8383     8415 
    8451     8481     8493     8495     8499     8504     8510     8521 
    8533     8537     8530     8516     8495     8468     8434     8395 
    8364     8352     8354     8371     8416     8482     8554     8615 
    8636     8604     8526     8422     8324     8261     8247     8283 
    8351     8422     8465     8468     8436     8376     8296     8215 
    8163     8150     8171     8220     8280     8331     8360     8356 
    8326     8285     8253     8247     8273     8327     8396     8452 
    8470     8438     8358     8251     8143     8060     8035     8080 
    8186     8339     8516     8681     8803     8866     8871     8833 
    8774     8717     8683     8680     8702     8734     8763     8770 
    8744     8690     8614     8535     8483     8477     8524     8617 
    8738     8858     8941     8959     8903     8788     8641     8491 
    8371     8301     8281     8305     8362     8434     8495     8528 
    8526     8492     8440     8396     8381     8398     8442     8499 
    8547     8561     8532     8472     8401     8330     8283     8282 
    8331     8418     8526     8639     8738     8794     8799     8760 
    8683     8580     8481     8412     8380     8387     8431     8486 
    8515     8492     8416     8306     8189     8099     8075     8135 
    8264     8428     8592     8718     8773     8751     8664     8535 
    8392     8280     8239     8277     8382     8531     8679     8764 
    8755     8653     8489     8313     8175     8114     8146     8254 
    8395     8525     8615     8643     8612     8546     8474     8419 
    8404     8437     8502     8574     8626     8641     8605     8523 
    8430     8363     8334     8356     8425     8506     8562     8573 
    8535     8456     8358     8266     8207     8200     8242     8317 
    8404     8475     8510     8496     8432     8334     8237     8169 
    8150     8186     8268     8370     8471     8552     8601     8623 
    8640     8668     8709     8760     8807     8831     8821     8786 
    8739     8686     8641     8617     8616     8628     8644     8658 
    8661     8639     8595     8544     8499     8468     8459     8462 
    8463     8446     8401     8331     8243     8154     8090     8071 
    8100     8172     8272     8370     8448     8506     8544     8564 
    8562     8544     8524     8500     8469     8439     8422     8419 
    8427     8454     8498     8543     8578     8594     8587     8558 
    8517     8472     8432     8406     8402     8412     8415     8400 
    8369     8320     8255     8191     8142     8119     8124     8153 
    8207     8290     8380     8458     8526     8587     8633     8657 
    8677     8701     8713     8701     8667     8605     8516     8418 
    8330     8262     8220     8213     8240     8293     8367     8458 
    8547     8618     8667     8690     8690     8675     8646     8603 
    8549     8476     8390     8318     8280     8277     8311     8370 
    8431     8474     8489     8474     8432     8375     8318     8276 
    8259     8276     8330     8405     8488     8569     8642     8695 
    8721     8724     8708     8680     8647     8617     8601     8603 
    8616     8635     8663     8698     8733     8767     8795     8809 
    8807     8789     8755     8713     8660     8600     8538     8474 
    8414     8379     8382     8417     8472     8524     8547     8530 
    8471     8380     8278     8185     8122     8100     8119     8173 
    8259     8366     8473     8561     8614     8618     8575     8501 
    8412     8339     8308     8322     8365     8424     8480     8514 
    8521     8511     8497     8483     8475     8480     8494     8508 
    8520     8527     8520     8490     8446     8398     8358     8343 
    8362     8416     8491     8568     8631     8665     8667     8651 
    8628     8609     8604     8619     8649     8681     8702     8702 
    8680     8647     8608     8569     8535     8504     8466     8416 
    8369     8336     8321     8326     8354     8395     8439     8475 
    8497     8498     8476     8428     8361     8297     8251     8236 
    8266     8332     8414     8486     8537     8555     8537     8501 
    8467     8444     8436     8435     8435     8431     8426     8418 
    8403     8387     8375     8367     8363     8370     8385     8398 
    8401     8395     8383     8368     8361     8373     8408     8461 
    8527     8597     8652     8678     8678     8650     8599     8545 
    8509     8497     8507     8536     8568     8580     8570     8541 
    8492     8431     8370     8312     8266     8237     8231     8253 
    8297     8356     8420     8478     8519     8543     8551     8534 
    8498     8450     8396     8343     8299     8266     8253     8266 
    8295     8327     8363     8397     8416     8429     8447     8465 
    8483     8520     8580     8649     8722     8794     8842     8856 
    8842     8808     8765     8728     8697     8677     8670     8672 
    8679     8692     8698     8687     8671     8655     8636     8621 
    8615     8618     8624     8622     8604     8560     8486     8393 
    8304     8233     8186     8165     8161     8164     8170     8171 
    8169     8171     8176     8187     8209     8243     8281     8327 
    8367     8384     8386     8380     8368     8357     8357     8374 
    8409     8460     8517     8571     8614     8638     8643     8633 
    8609     8581     8552     8524     8512     8519     8530     8535 
    8534     8528     8505     8465     8426     8399     8382     8382 
    8405     8447     8497     8544     8581     8612     8631     8633 
    8622     8602     8581     8566     8562     8575     8602     8623 
    8633     8633     8610     8558     8490     8428     8390     8383 
    8408     8463     8527     8574     8589     8566     8514     8455 
    8404     8376     8381     8415     8459     8499     8516     8498 
    8449     8376     8292     8222     8186     8184     8208     8243 
    8272     8277     8251     8211     8176     8168     8212     8312 
    8449     8589     8700     8759     8752     8691     8608     8537 
    8500     8501     8531     8575     8604     8603     8581     8549 
    8514     8489     8483     8491     8507     8530     8556     8586 
    8615     8634     8641     8641     8629     8598     8560     8529 
    8502     8483     8477     8476     8478     8485     8495     8507 
    8516     8519     8520     8518     8511     8506     8512     8530 
    8556     8583     8606     8620     8610     8578     8534     8479 
    8419     8378     8371     8395     8437     8483     8515     8509 
    8461     8389     8309     8235     8188     8182     8209     8253 
    8295     8313     8293     8240     8178     8119     8078     8078 
    8127     8208     8305     8406     8487     8524     8511     8466 
    8411     8363     8343     8368     8436     8531     8636     8727 
    8790     8824     8834     8830     8831     8840     8847     8843 
    8829     8809     8780     8744     8709     8674     8642     8625 
    8621     8622     8630     8638     8625     8585     8532     8470 
    8408     8358     8328     8319     8324     8335     8348     8355 
    8353     8353     8362     8376     8390     8399     8402     8395 
    8384     8374     8364     8347     8326     8307     8287     8269 
    8262     8273     8305     8355     8420     8484     8534     8564 
    8578     8577     8566     8553     8544     8546     8560     8574 
    8579     8571     8551     8520     8489     8466     8449     8439 
    8438     8439     8438     8436     8437     8441     8456     8474 
    8487     8500     8521     8540     8550     8548     8537     8513 
    8479     8445     8422     8408     8403     8403     8404     8397 
    8378     8355     8334     8318     8315     8330     8364     8412 
    8465     8514     8546     8560     8557     8541     8521     8508 
    8503     8506     8513     8519     8520     8505     8473     8436 
    8405     8382     8371     8370     8379     8394     8407     8422 
    8446     8477     8510     8541     8569     8587     8593     8586 
    8563     8525     8478     8433     8399     8387     8407     8454 
    8516     8585     8649     8696     8727     8750     8767     8774 
    8773     8760     8735     8702     8659     8606     8558     8521 
    8490     8470     8463     8459     8456     8457     8457     8452 
    8441     8424     8399     8362     8324     8299     8290     8297 
    8324     8366     8405     8433     8446     8445     8430     8403 
    8372     8348     8338     8341     8360     8397     8443     8486 
    8525     8556     8575     8588     8598     8603     8610     8616 
    8608     8589     8566     8528     8478     8427     8379     8340 
    8316     8317     8342     8385     8431     8465     8478     8469 
    8442     8407     8380     8369     8374     8389     8406     8412 
    8400     8376     8348     8325     8317     8330     8363     8410 
    8461     8507     8545     8579     8605     8623     8641     8664 
    8690     8712     8726     8730     8713     8669     8611     8552 
    8499     8465     8465     8494     8528     8555     8565     8554 
    8517     8458     8392     8339     8306     8298     8320     8368 
    8427     8479     8512     8523     8509     8476     8442     8421 
    8412     8411     8415     8422     8419     8400     8376     8351 
    8326     8305     8293     8293     8295     8293     8288     8278 
    8263     8253     8253     8270     8305     8355     8412     8472 
    8533     8589     8640     8680     8704     8710     8696     8663 
    8625     8588     8562     8552     8563     8594     8627     8651 
    8663     8662     8644     8616     8592     8582     8592     8614 
    8637     8658     8674     8670     8646     8613     8578     8546 
    8524     8523     8536     8546     8542     8516     8463     8386 
    8300     8226     8177     8162     8178     8212     8252     8285 
    8299     8294     8283     8283     8305     8352     8416     8481 
