Origin Time       2025/03/29 04:45:00
Lat.              31.090
Long.             131.512
Depth. (km)       33
Mag.              4.6
Station Code      MYZH13
Station Lat.      31.7301
Station Long.     131.0791
Station Height(m) 152
Record Time       2025/03/29 04:45:34
Sampling Freq(Hz) 100Hz
Duration Time(s)  120
Dir.              5
Scale Factor      7845(gal)/8223790
Max. Acc. (gal)   2.565
Last Correction   2025/03/29 04:45:34
Memo.             
[...]
    -222     -222     -221     -221     -222     -222     -221     -221 
    -222     -222     -222     -221     -218     -218     -220     -220 
    -222     -224     -224     -225     -224     -222     -224     -220 
    -216     -217     -220     -218     -220     -222     -224     -225 
    -222     -222     -224     -221     -220     -221     -220     -221 
    -225     -224     -221     -222     -221     -221     -222     -221 
    -220     -220     -218     -220     -217     -217     -222     -226 
    -226     -229     -226     -222     -222     -218     -216     -218 
    -217     -218     -225     -225     -220     -221     -222     -220 
    -218     -218     -222     -221     -218     -218     -220     -220 
    -220     -220     -222     -224     -222     -224     -221     -218 
    -220     -222     -221     -221     -221     -218     -220     -222 
    -222     -221     -224     -224     -224     -224     -221     -221 
    -222     -218     -218     -220     -220     -218     -221     -220 
    -214     -217     -224     -224     -220     -221     -221     -220 
    -218     -220     -221     -222     -222     -221     -221     -221 
    -221     -224     -222     -222     -222     -220     -220     -221 
    -221     -220     -220     -220     -221     -221     -221     -224 
    -222     -222     -221     -220     -218     -217     -218     -222 
    -224     -224     -225     -224     -225     -228     -222     -217 
    -217     -218     -217     -220     -220     -224     -229     -229 
    -230     -232     -226     -217     -209     -207     -213     -218 
    -222     -228     -234     -237     -238     -240     -237     -228 
    -218     -209     -203     -203     -207     -213     -213     -214 
    -217     -222     -226     -226     -224     -222     -225     -232 
    -233     -221     -201     -189     -197     -222     -249     -259 
    -247     -222     -195     -175     -178     -207     -252     -298 
    -325     -319     -280     -214     -145     -105     -113     -155 
    -209     -247     -253     -245     -243     -249     -268     -290 
    -287     -245     -180     -116      -74      -59      -71     -117 
    -201     -315     -418     -446     -380     -267     -176     -133 
    -113      -98      -99     -133     -194     -263     -324     -363 
    -376     -341     -249     -130      -39      -10      -59     -157 
    -271     -371     -422     -403     -322     -202      -72       35 
      89       52      -93     -309     -513     -621     -595     -472 
    -315     -157      -17       86      140      124       17     -170 
    -406     -639     -787     -751     -523     -214       27      144 
     170      139       52      -91     -292     -491     -569     -491 
    -355     -241     -149      -81      -63      -95     -130     -140 
    -148     -197     -280     -345     -352     -307     -248     -214 
    -209     -205     -183     -145     -105     -116     -213     -368 
    -486     -477     -357     -205      -91      -63     -110     -194 
    -283     -341     -318     -224     -129      -91     -103     -135 
    -172     -205     -210     -187     -199     -276     -367     -414 
    -387     -284     -166      -89      -72     -112     -179     -229 
    -221     -180     -195     -292     -379     -365     -265     -160 
    -122     -160     -230     -303     -359     -342     -211      -27 
      94       99        8     -152     -346     -521     -626     -625 
    -511     -329     -140       28      167      241      206       54 
    -194     -494     -764     -905     -843     -588     -233       98 
     313      383      325      163      -86     -400     -708     -891 
    -865     -643     -314       14      263      396      421      355 
     202      -49     -400     -789    -1092    -1175     -985     -565 
     -17      523      918     1031      792      245     -452    -1098 
   -1510    -1566    -1259     -723     -143      333      611      670 
     575      379       86     -303     -734    -1081    -1232    -1135 
    -803     -318      198      622      823      720      345     -174 
    -657     -954     -997     -799     -441      -51      252      386 
     321       97     -205     -502     -719     -778     -633     -319 
      59      380      519      417      105     -317     -724     -997 
   -1051     -884     -564     -193      152      414      526      444 
     198     -128     -453     -695     -777     -679     -436     -160 
      17       32      -71     -195     -272     -306     -328     -345 
    -336     -275     -159      -27       58       31     -121     -359 
    -604     -758     -749     -592     -359      -94      162      356 
     421      298      -13     -423     -795     -993     -943     -645 
    -166      353      723      812      641      290     -172     -631 
    -954    -1067     -954     -666     -315        6      237      334 
     272       64     -209     -445     -579     -592     -517     -402 
    -282     -182     -132     -147     -199     -265     -338     -392 
    -407     -376     -280     -136        5      102      124       93 
      51      -13     -148     -365     -600     -770     -812     -695 
    -413      -21      367      623      664      498      197     -157 
    -494     -765     -926     -942     -822     -584     -268       62 
     332      453      369       97     -290     -675     -942    -1020 
    -885     -571     -176      203      487      599      519      278 
     -99     -546     -943    -1161    -1121     -828     -367      126 
     515      697      622      321     -105     -553     -918    -1097 
   -1028     -738     -317      120      461      614      527      220 
    -221     -665     -972    -1034     -830     -419       54      415 
     553      445      163     -186     -502     -696     -731     -615 
    -394     -144       67      198      213       99     -105     -324 
    -496     -602     -635     -589     -471     -311     -145       16 
     162      247      230      101     -109     -336     -511     -621 
    -681     -693     -650     -546     -383     -179       29      202 
     290      261      122      -85     -309     -495     -607     -622 
    -553     -437     -307     -186      -90      -35      -21      -45 
     -95     -153     -197     -207     -178     -118      -58      -36 
     -71     -143     -230     -326     -425     -518     -585     -595 
    -526     -387     -214      -59       25       12     -101     -284 
    -471     -596     -619     -529     -333      -64      217      433 
     499      383      122     -203     -502     -680     -688     -537 
    -297      -62       86      116       39     -101     -238     -318 
    -338     -315     -271     -230     -205     -202     -228     -272 
    -318     -357     -390     -414     -423     -410     -380     -336 
    -275     -203     -130      -56        4       28       10      -49 
    -160     -318     -486     -610     -626     -499     -251       45 
     297      429      413      261       37     -195     -411     -583 
    -692     -733     -695     -569     -357      -81      189      365 
     394      274       37     -261     -548     -749     -822     -765 
    -606     -386     -162       20      128      147       87      -37 
    -201     -363     -472     -488     -391     -203       16      198 
     283      234       64     -176     -434     -635     -730     -712 
    -600     -436     -259     -103        4       47       35      -17 
    -110     -245     -405     -546     -626     -626     -553     -433 
    -298     -170      -66       -2       18        0      -59     -140 
    -203     -225     -199     -141      -86      -70     -101     -174 
    -267     -340     -364     -328     -241     -141      -67      -47 
    -109     -233     -365     -456     -487     -472     -430     -378 
    -321     -255     -184     -118      -74      -54      -70     -126 
    -191     -228     -243     -252     -257     -251     -209     -124 
      -2      129      232      263      197       39     -189     -449 
    -685     -834     -857     -731     -476     -167      102      249 
     226       40     -253     -564     -805     -924     -897     -737 
    -486     -193       78      249      284      201       28     -178 
    -346     -442     -449     -361     -202       -1      205      359 
     403      324      136     -117     -376     -584     -696     -695 
    -585     -405     -206      -45       27       -5     -120     -272 
    -413     -498     -500     -422     -286     -132       -6       52 
      31      -59     -187     -322     -432     -487     -475     -405 
    -294     -168      -58       17       45        6      -97     -248 
    -413     -546     -610     -585     -473     -297     -116       18 
      72       35      -78     -226     -375     -490     -541     -503 
    -375     -186       16      172      238      187       18     -228 
    -480     -670     -743     -680     -510     -287      -58      125 
     232      261      229      166      101       44       -2      -56 
    -149     -288     -448     -604     -720     -746     -658     -481 
    -265      -67       60       87        4     -166     -369     -550 
    -656     -664     -581     -444     -290     -152      -63      -40 
     -75     -141     -207     -259     -286     -283     -263     -236 
    -201     -157      -99      -29       25       45       35        9 
     -13      -18      -24      -52     -105     -159     -198     -194 
    -140      -67       -9        2      -56     -175     -324     -465 
    -572     -623     -616     -573     -519     -472     -432     -390 
    -332     -263     -191     -137     -122     -153     -216     -272 
    -291     -270     -216     -144      -71       -2       49       71 
      48      -18     -125     -252     -376     -472     -514     -498 
    -432     -334     -238     -175     -168     -229     -336     -446 
    -518     -513     -422     -279     -124       12      102      132 
      99       12     -113     -249     -363     -432     -437     -376 
    -263     -125        5       83       91       44      -32     -109 
    -157     -157     -120      -86      -87     -145     -264     -407 
    -530     -610     -631     -591     -511     -411     -305     -198 
     -97      -16       20       -5      -85     -190     -302     -392 
    -437     -432     -383     -305     -217     -133      -70      -39 
     -29      -36      -54      -79     -122     -183     -238     -264 
    -253     -211     -156     -114     -101     -114     -141     -166 
    -182     -193     -213     -268     -369     -488     -591     -641 
    -612     -502     -329     -132       28      106       82      -25 
    -176     -317     -407     -434     -400     -325     -234     -156 
    -109      -99     -128     -187     -251     -290     -282     -229 
    -155      -94      -75     -105     -176     -286     -422     -553 
    -639     -654     -591     -468     -322     -179      -60       16 
      51       60       48       21      -12      -48      -74      -82 
     -75      -64      -52      -44      -31       -9       22       64 
     106      125       94       16      -78     -153     -195     -194 
    -143      -47       71      186      264      282      240      137 
     -18     -189     -338     -441     -475     -427     -310     -162 
     -25       52       44      -43     -176     -330     -467     -568 
    -631     -661     -681     -712     -743     -772     -801     -823 
    -834     -839     -854     -882     -915     -949     -976     -974 
    -935     -870     -784     -679     -553     -407     -238      -74 
      48      102       79      -13     -160     -334     -494     -608 
    -665     -649     -552     -391     -195       13      211      368 
     461      484      425      295      124      -63     -237     -364 
    -427     -423     -353     -236      -91       68      224      341 
     398      382      309      210      101      -10     -108     -172 
    -205     -216     -216     -207     -191     -170     -159     -174 
    -221     -303     -419     -558     -704     -828     -899     -907 
    -862     -787     -714     -675     -683     -730     -801     -874 
    -913     -877     -762     -592     -375     -126      132      378 
     576      699      747      739      692      641      618      637 
     692      753      791      800      770      681      541      355 
     135     -102     -342     -564     -733     -834     -865     -834 
    -760     -679     -621     -591     -598     -641     -699     -745 
    -761     -733     -646     -503     -318     -117       62      176 
     225      214      156       81       13      -29      -24       36 
     129      233      322      344      271      114     -110     -372 
    -604     -758     -810     -745     -583     -368     -136       67 
     201      252      228      143       37      -55     -130     -182 
    -209     -224     -232     -218     -167      -68       85      275 
     475      649      756      766      668      463      168     -168 
    -502     -781     -963    -1036    -1026     -977     -945     -967 
   -1081    -1285    -1544    -1807    -2018    -2131    -2128    -2016 
   -1829    -1618    -1436    -1320    -1286    -1313    -1368    -1412 
   -1399    -1289    -1061     -715     -256      298      896     1470 
    1958     2301     2467     2457     2277     1961     1568     1159 
     787      492      307      238      280      414      592      758 
     862      864      734      488      179     -147     -454     -697 
    -835     -855     -780     -666     -562     -503     -515     -634 
    -876    -1192    -1499    -1711    -1764    -1633    -1332     -913 
    -456      -36      298      499      548      454      243      -48 
    -356     -629     -841     -972    -1009     -946     -792     -567 
    -298      -36      170      291      303      195       -8     -260 
    -499     -654     -669     -529     -257       81      405      631 
     688      564      291      -54     -373     -573     -589     -396 
     -32      419      846     1129     1193     1008      580      -36 
    -733    -1375    -1846    -2065    -2018    -1753    -1354     -923 
    -569     -376     -373     -544     -847    -1206    -1528    -1730 
   -1755    -1583    -1252     -815     -342       70      357      486 
     468      365      252      193      238      405      683     1035 
    1386     1667     1837     1865     1749     1501     1146      733 
     315      -64     -383     -615     -742     -753     -666     -531 
    -410     -337     -330     -400     -538     -711     -869     -963 
    -958     -847     -637     -364      -81      157      288      265 
     106     -149     -441     -687     -827     -854     -768     -591 
    -367     -141       44      164      222      222      170       87 
      -2     -102     -199     -276     -329     -359     -357     -334 
    -299     -252     -205     -168     -151     -170     -225     -301 
    -395     -503     -604     -689     -754     -784     -774     -731 
    -650     -546     -452     -403     -419     -504     -645     -808 
    -945    -1019    -1015     -922     -742     -515     -290      -91 
      55      133      152      135      121      143      207      305 
     405      484      527      518      460      361      253      186 
     172      203      261      313      330      297      213       87 
     -58     -193     -301     -387     -472     -576     -710     -873 
   -1057    -1239    -1381    -1428    -1356    -1178     -918     -615 
    -325      -83       82      155      155      106       40      -16 
     -51      -51       -6       63      147      233      310      371 
     430      490      544      587      602      564      468      319 
     144      -25     -163     -229     -197      -71      117      317 
     465      498      388      153     -168     -522     -830    -1050 
   -1169    -1175    -1084     -928     -745     -577     -453     -375 
    -351     -361     -372     -371     -344     -274     -164      -40 
      81      171      203      170       59     -135     -382     -657 
    -942    -1219    -1456    -1624    -1707    -1706    -1624    -1478 
   -1297    -1115     -955     -826     -726     -662     -623     -573 
    -476     -311      -76      207      506      774      982     1105 
    1132     1085     1008      939      897      889      909      943 
     962      928      822      648      422      163     -109     -365 
    -575     -722     -808     -831     -811     -800     -843     -962 
   -1167    -1422    -1671    -1861    -1956    -1929    -1775    -1510 
   -1193     -893     -658     -529     -519     -608     -750     -881 
    -935     -869     -675     -372      -18      322      603      799 
     919      994     1059     1140     1243     1363     1466     1503 
    1445     1259      951      571      187     -121     -298     -302 
    -133      152      468      735      882      859      669      345 
     -54     -426     -691     -811     -770     -604     -378     -137 
      51      116       43     -137     -395     -676     -918    -1082 
   -1156    -1152    -1101    -1032     -982     -970     -985    -1026 
   -1086    -1150    -1202    -1227    -1208    -1159    -1102    -1050 
   -1019    -1008    -1008    -1013     -999     -930     -785     -558 
    -247      128      521      882     1175     1374     1467     1464 
    1394     1289     1181     1090     1031     1001      986      962 
     897      773      584      332       21     -330     -692    -1031 
   -1325    -1555    -1706    -1768    -1742    -1640    -1482    -1287 
   -1081     -888     -738     -658     -650     -692     -747     -780 
    -754     -637     -418     -116      218      529      758      866 
     828      645      364       48     -237     -434     -504     -461 
    -336     -178      -41       29       17      -66     -191     -321 
    -413     -430     -363     -233      -89       29       83       45 
     -79     -259     -440     -575     -623     -560     -384     -122 
     174      445      638      720      688      554      349      130 
     -48     -163     -205     -190     -145      -98      -78      -91 
    -139     -218     -313     -409     -498     -577     -648     -716 
    -781     -832     -846     -814     -741     -630     -491     -336 
    -170      -13      118      225      298      321      305      274 
     237      203      179      155      121       75        5      -95 
    -226     -379     -538     -688     -823     -915     -942     -912 
    -841     -739     -627     -533     -483     -476     -511     -584 
    -670     -738     -764     -723     -610     -446     -259      -68 
      82      153      136       36     -121     -302     -467     -585 
    -638     -608     -502     -351     -186      -27       97      168 
     180      148      103       82       95      139      205      301 
     407      502      577      606      561      461      317      140 
     -39     -199     -326     -402     -422     -400     -357     -314 
    -299     -330     -405     -517     -650     -788     -915    -1019 
