Origin Time       2025/03/29 04:45:00
Lat.              31.090
Long.             131.512
Depth. (km)       33
Mag.              4.6
Station Code      MYZH11
Station Lat.      32.0208
Station Long.     131.4700
Station Height(m) -200.3
Record Time       2025/03/29 04:45:49
Sampling Freq(Hz) 100Hz
Duration Time(s)  120
Dir.              3
Scale Factor      3923(gal)/8224838
Max. Acc. (gal)   0.084
Last Correction   2025/03/29 04:45:49
Memo.             
  -53723   -53721   -53724   -53724   -53727   -53735   -53742   -53744 
  -53748   -53751   -53757   -53761   -53763   -53767   -53762   -53754 
  -53755   -53755   -53752   -53751   -53751   -53746   -53739   -53736 
  -53738   -53742   -53747   -53755   -53765   -53773   -53777   -53777 
  -53773   -53773   -53770   -53757   -53739   -53724   -53713   -53713 
  -53728   -53748   -53761   -53769   -53778   -53782   -53782   -53786 
  -53790   -53790   -53779   -53755   -53727   -53707   -53696   -53696 
  -53707   -53723   -53742   -53762   -53777   -53777   -53769   -53766 
  -53762   -53752   -53742   -53728   -53719   -53716   -53715   -53720 
  -53731   -53736   -53739   -53748   -53757   -53759   -53757   -53744 
  -53724   -53697   -53666   -53636   -53622   -53624   -53640   -53659 
  -53674   -53688   -53697   -53704   -53720   -53740   -53757   -53770 
  -53782   -53792   -53798   -53793   -53769   -53730   -53684   -53635 
  -53600   -53585   -53586   -53601   -53623   -53644   -53670   -53700 
  -53732   -53769   -53801   -53817   -53815   -53802   -53792   -53785 
  -53784   -53777   -53754   -53724   -53693   -53659   -53638   -53640 
  -53663   -53692   -53720   -53744   -53765   -53778   -53779   -53769 
  -53746   -53720   -53703   -53696   -53707   -53735   -53774   -53813 
  -53838   -53840   -53825   -53801   -53781   -53767   -53761   -53757 
  -53744   -53734   -53725   -53705   -53680   -53651   -53616   -53593 
  -53599   -53623   -53659   -53713   -53782   -53839   -53865   -53869 
  -53852   -53819   -53786   -53766   -53747   -53724   -53704   -53684 
  -53662   -53651   -53651   -53644   -53639   -53638   -53649   -53682 
  -53724   -53758   -53788   -53806   -53813   -53816   -53811   -53805 
  -53798   -53777   -53746   -53707   -53665   -53638   -53631   -53636 
  -53657   -53688   -53717   -53748   -53784   -53802   -53805   -53812 
  -53817   -53819   -53824   -53833   -53839   -53829   -53798   -53752 
  -53705   -53666   -53631   -53605   -53600   -53611   -53634   -53670 
  -53713   -53754   -53786   -53805   -53819   -53825   -53823   -53816 
  -53801   -53782   -53761   -53740   -53725   -53713   -53704   -53705 
  -53719   -53728   -53734   -53738   -53731   -53717   -53712   -53720 
  -53739   -53765   -53785   -53785   -53767   -53736   -53703   -53681 
  -53682   -53709   -53754   -53801   -53836   -53855   -53862   -53856 
  -53839   -53817   -53802   -53785   -53770   -53763   -53758   -53742 
  -53719   -53688   -53649   -53620   -53616   -53626   -53650   -53688 
  -53724   -53751   -53770   -53781   -53778   -53765   -53752   -53743 
  -53732   -53736   -53751   -53752   -53743   -53728   -53709   -53703 
  -53711   -53730   -53746   -53750   -53755   -53765   -53767   -53763 
  -53758   -53748   -53728   -53703   -53676   -53644   -53624   -53619 
  -53624   -53632   -53651   -53680   -53716   -53765   -53819   -53860 
  -53893   -53912   -53906   -53882   -53843   -53793   -53746   -53698 
  -53653   -53613   -53589   -53588   -53604   -53630   -53658   -53689 
  -53715   -53727   -53728   -53732   -53743   -53769   -53797   -53815 
  -53819   -53815   -53798   -53771   -53732   -53694   -53662   -53642 
  -53638   -53649   -53662   -53682   -53704   -53712   -53709   -53712 
  -53713   -53721   -53748   -53779   -53805   -53823   -53820   -53800 
  -53775   -53744   -53712   -53682   -53670   -53674   -53677   -53680 
  -53690   -53708   -53727   -53755   -53786   -53809   -53829   -53846 
  -53844   -53832   -53815   -53788   -53759   -53727   -53692   -53663 
  -53650   -53644   -53655   -53681   -53709   -53734   -53751   -53758 
  -53762   -53766   -53766   -53773   -53793   -53812   -53824   -53819 
  -53794   -53759   -53727   -53701   -53688   -53690   -53703   -53720 
  -53731   -53732   -53730   -53724   -53713   -53708   -53704   -53703 
  -53723   -53752   -53781   -53819   -53851   -53863   -53858   -53839 
  -53806   -53774   -53747   -53723   -53703   -53684   -53666   -53655 
  -53647   -53647   -53669   -53703   -53744   -53784   -53812   -53828 
  -53829   -53816   -53794   -53761   -53725   -53697   -53677   -53669 
  -53661   -53653   -53653   -53655   -53666   -53692   -53720   -53739 
  -53758   -53778   -53790   -53798   -53812   -53824   -53829   -53827 
  -53809   -53778   -53732   -53680   -53634   -53601   -53584   -53582 
  -53600   -53632   -53666   -53704   -53743   -53777   -53800   -53816 
  -53829   -53832   -53820   -53805   -53785   -53752   -53723   -53703 
  -53686   -53684   -53692   -53705   -53721   -53734   -53743   -53750 
  -53748   -53743   -53738   -53724   -53705   -53693   -53686   -53680 
  -53681   -53693   -53712   -53734   -53758   -53784   -53798   -53802 
  -53798   -53777   -53742   -53703   -53662   -53634   -53627   -53640 
  -53671   -53712   -53748   -53775   -53800   -53819   -53821   -53817 
  -53809   -53790   -53765   -53739   -53716   -53701   -53696   -53697 
  -53709   -53725   -53736   -53736   -53731   -53731   -53731   -53725 
  -53713   -53707   -53705   -53705   -53711   -53723   -53739   -53754 
  -53766   -53777   -53784   -53792   -53801   -53805   -53804   -53802 
  -53796   -53790   -53789   -53785   -53773   -53748   -53720   -53698 
  -53674   -53650   -53647   -53655   -53665   -53684   -53708   -53728 
  -53746   -53763   -53775   -53778   -53777   -53773   -53773   -53779 
  -53790   -53805   -53820   -53821   -53806   -53777   -53742   -53712 
  -53685   -53662   -53651   -53651   -53654   -53659   -53674   -53694 
  -53724   -53761   -53794   -53819   -53828   -53823   -53804   -53775 
  -53751   -53732   -53716   -53705   -53701   -53697   -53689   -53680 
  -53667   -53657   -53655   -53659   -53666   -53680   -53698   -53724 
  -53748   -53765   -53770   -53770   -53769   -53770   -53774   -53779 
  -53785   -53789   -53779   -53762   -53751   -53736   -53712   -53686 
  -53666   -53651   -53644   -53651   -53670   -53692   -53709   -53719 
  -53728   -53746   -53765   -53781   -53798   -53816   -53828   -53827 
  -53815   -53806   -53798   -53785   -53771   -53750   -53723   -53708 
  -53696   -53686   -53686   -53686   -53693   -53704   -53707   -53707 
  -53703   -53697   -53705   -53715   -53717   -53721   -53725   -53731 
  -53740   -53750   -53752   -53750   -53744   -53742   -53743   -53742 
  -53744   -53742   -53734   -53727   -53721   -53708   -53685   -53661 
  -53644   -53642   -53647   -53653   -53661   -53673   -53688   -53707 
  -53725   -53748   -53774   -53801   -53827   -53852   -53870   -53871 
  -53858   -53836   -53808   -53779   -53752   -53721   -53688   -53663 
  -53650   -53643   -53646   -53657   -53667   -53678   -53693   -53709 
  -53721   -53743   -53773   -53792   -53806   -53813   -53809   -53800 
  -53792   -53789   -53792   -53793   -53793   -53796   -53794   -53792 
  -53790   -53781   -53761   -53736   -53715   -53694   -53681   -53680 
  -53674   -53667   -53670   -53677   -53693   -53716   -53734   -53750 
  -53761   -53763   -53765   -53767   -53767   -53767   -53769   -53770 
  -53769   -53766   -53759   -53747   -53739   -53728   -53711   -53693 
  -53682   -53673   -53667   -53669   -53677   -53694   -53717   -53732 
  -53738   -53739   -53740   -53746   -53758   -53775   -53792   -53805 
  -53809   -53805   -53801   -53793   -53779   -53762   -53740   -53717 
  -53701   -53690   -53681   -53671   -53666   -53663   -53667   -53684 
  -53707   -53728   -53747   -53765   -53781   -53796   -53813   -53820 
  -53812   -53797   -53775   -53746   -53720   -53696   -53670   -53651 
  -53644   -53639   -53647   -53667   -53682   -53693   -53707   -53713 
  -53715   -53721   -53732   -53742   -53750   -53750   -53750   -53752 
  -53748   -53742   -53735   -53724   -53715   -53713   -53719   -53730 
  -53750   -53766   -53781   -53792   -53790   -53779   -53766   -53744 
  -53719   -53698   -53686   -53682   -53686   -53700   -53719   -53744 
  -53771   -53790   -53801   -53806   -53804   -53794   -53778   -53759 
  -53752   -53755   -53754   -53751   -53747   -53738   -53731   -53721 
  -53711   -53704   -53693   -53682   -53677   -53673   -53676   -53678 
  -53684   -53703   -53725   -53744   -53763   -53778   -53792   -53802 
  -53809   -53813   -53815   -53815   -53809   -53792   -53770   -53744 
  -53713   -53682   -53659   -53642   -53631   -53630   -53635   -53649 
  -53673   -53698   -53731   -53762   -53782   -53796   -53808   -53813 
  -53817   -53824   -53823   -53812   -53802   -53782   -53759   -53739 
  -53712   -53686   -53673   -53661   -53657   -53669   -53678   -53689 
  -53712   -53735   -53754   -53767   -53769   -53769   -53773   -53770 
  -53761   -53750   -53732   -53708   -53688   -53669   -53655   -53654 
  -53659   -53669   -53678   -53693   -53709   -53723   -53736   -53750 
  -53761   -53774   -53784   -53789   -53792   -53790   -53786   -53778 
  -53765   -53750   -53740   -53730   -53720   -53720   -53719   -53716 
  -53720   -53727   -53728   -53730   -53732   -53735   -53736   -53736 
  -53742   -53747   -53747   -53746   -53744   -53740   -53743   -53750 
  -53765   -53789   -53812   -53823   -53821   -53813   -53798   -53774 
  -53754   -53752   -53754   -53743   -53731   -53720   -53703   -53685 
  -53674   -53663   -53651   -53643   -53640   -53642   -53651   -53669 
  -53689   -53711   -53734   -53755   -53775   -53794   -53808   -53812 
  -53809   -53797   -53777   -53752   -53731   -53719   -53715   -53716 
  -53724   -53735   -53744   -53750   -53748   -53747   -53743   -53735 
  -53730   -53732   -53736   -53743   -53746   -53740   -53732   -53723 
  -53712   -53701   -53692   -53689   -53684   -53677   -53676   -53676 
  -53678   -53690   -53705   -53716   -53732   -53755   -53778   -53796 
  -53813   -53828   -53829   -53820   -53809   -53789   -53757   -53721 
  -53692   -53670   -53658   -53644   -53634   -53632   -53640   -53654 
  -53677   -53711   -53746   -53774   -53801   -53821   -53831   -53832 
  -53827   -53812   -53792   -53773   -53752   -53731   -53713   -53697 
  -53681   -53663   -53651   -53646   -53653   -53671   -53694   -53720 
  -53747   -53777   -53797   -53805   -53813   -53812   -53796   -53777 
  -53755   -53732   -53715   -53711   -53711   -53712   -53723   -53739 
  -53757   -53781   -53809   -53833   -53852   -53858   -53851   -53835 
  -53806   -53777   -53752   -53731   -53712   -53700   -53694   -53693 
  -53694   -53697   -53700   -53705   -53711   -53715   -53716   -53716 
  -53717   -53721   -53728   -53734   -53734   -53738   -53740   -53739 
  -53738   -53734   -53730   -53721   -53705   -53693   -53685   -53676 
  -53669   -53669   -53662   -53657   -53662   -53669   -53684   -53704 
  -53720   -53735   -53751   -53766   -53775   -53774   -53773   -53767 
  -53751   -53735   -53725   -53719   -53711   -53704   -53697   -53688 
  -53681   -53680   -53680   -53684   -53704   -53730   -53758   -53786 
  -53811   -53825   -53836   -53848   -53854   -53850   -53835   -53820 
  -53800   -53774   -53750   -53728   -53708   -53694   -53684   -53676 
  -53676   -53684   -53697   -53715   -53738   -53763   -53777   -53781 
  -53788   -53790   -53781   -53774   -53769   -53754   -53736   -53720 
  -53703   -53690   -53685   -53685   -53692   -53698   -53713   -53728 
  -53731   -53739   -53755   -53757   -53758   -53759   -53751   -53751 
  -53752   -53746   -53747   -53751   -53747   -53746   -53747   -53747 
  -53746   -53740   -53735   -53731   -53727   -53731   -53734   -53725 
  -53712   -53705   -53704   -53700   -53696   -53693   -53692   -53696 
  -53712   -53735   -53755   -53769   -53777   -53779   -53784   -53789 
  -53788   -53778   -53770   -53766   -53758   -53744   -53727   -53701 
  -53667   -53640   -53628   -53624   -53624   -53635   -53646   -53655 
  -53674   -53703   -53734   -53765   -53789   -53812   -53828   -53836 
  -53836   -53825   -53806   -53796   -53786   -53778   -53774   -53769 
  -53759   -53752   -53750   -53746   -53740   -53735   -53728   -53725 
  -53724   -53727   -53739   -53754   -53765   -53773   -53774   -53769 
  -53759   -53755   -53757   -53761   -53765   -53769   -53773   -53771 
  -53765   -53755   -53743   -53731   -53727   -53727   -53728   -53740 
  -53750   -53752   -53755   -53748   -53732   -53720   -53704   -53688 
  -53678   -53673   -53670   -53671   -53667   -53665   -53670   -53680 
  -53696   -53712   -53727   -53739   -53747   -53750   -53755   -53762 
  -53759   -53754   -53748   -53740   -53724   -53709   -53701   -53690 
  -53681   -53681   -53677   -53669   -53674   -53690   -53707   -53724 
  -53746   -53765   -53782   -53801   -53812   -53813   -53815   -53812 
  -53797   -53778   -53758   -53738   -53720   -53709   -53701   -53696 
  -53697   -53707   -53720   -53738   -53758   -53775   -53788   -53796 
  -53802   -53802   -53792   -53779   -53766   -53752   -53739   -53731 
  -53732   -53736   -53735   -53728   -53720   -53711   -53703   -53696 
  -53694   -53703   -53715   -53734   -53757   -53777   -53797   -53811 
  -53813   -53809   -53800   -53784   -53763   -53746   -53727   -53707 
  -53688   -53666   -53647   -53636   -53627   -53620   -53619   -53623 
  -53631   -53640   -53642   -53646   -53655   -53665   -53677   -53694 
  -53709   -53717   -53719   -53716   -53711   -53707   -53707   -53711 
  -53715   -53724   -53738   -53746   -53747   -53750   -53752   -53746 
  -53739   -53736   -53732   -53723   -53719   -53717   -53712   -53707 
  -53715   -53724   -53725   -53727   -53731   -53731   -53730   -53725 
  -53721   -53720   -53720   -53720   -53721   -53723   -53725   -53735 
  -53747   -53758   -53766   -53775   -53777   -53775   -53774   -53763 
  -53746   -53723   -53698   -53677   -53661   -53654   -53658   -53669 
  -53684   -53703   -53723   -53740   -53759   -53777   -53782   -53784 
  -53786   -53779   -53770   -53762   -53751   -53735   -53723   -53716 
  -53716   -53719   -53721   -53727   -53734   -53738   -53742   -53752 
  -53765   -53786   -53815   -53835   -53852   -53869   -53878   -53883 
  -53883   -53874   -53854   -53827   -53797   -53767   -53740   -53723 
  -53716   -53712   -53704   -53693   -53688   -53685   -53689   -53709 
  -53738   -53766   -53793   -53815   -53825   -53831   -53829   -53824 
  -53815   -53802   -53792   -53779   -53771   -53773   -53770   -53765 
  -53765   -53761   -53752   -53746   -53742   -53739   -53732   -53724 
  -53720   -53717   -53716   -53721   -53728   -53727   -53728   -53730 
  -53724   -53716   -53701   -53685   -53673   -53663   -53653   -53644 
  -53639   -53635   -53626   -53617   -53612   -53611   -53609   -53611 
  -53622   -53638   -53650   -53665   -53678   -53680   -53674   -53670 
  -53662   -53653   -53649   -53654   -53662   -53670   -53681   -53696 
  -53703   -53697   -53696   -53700   -53705   -53716   -53728   -53738 
  -53748   -53762   -53774   -53782   -53784   -53782   -53779   -53770 
  -53758   -53755   -53752   -53743   -53739   -53732   -53717   -53704 
  -53697   -53692   -53694   -53707   -53728   -53755   -53775   -53786 
  -53786   -53779   -53767   -53755   -53743   -53739   -53742   -53751 
  -53758   -53761   -53758   -53752   -53739   -53721   -53701   -53684 
  -53678   -53692   -53715   -53739   -53769   -53800   -53817   -53821 
  -53817   -53808   -53792   -53774   -53757   -53739   -53724   -53713 
  -53711   -53713   -53717   -53727   -53743   -53758   -53770   -53778 
  -53785   -53794   -53805   -53816   -53827   -53833   -53831   -53823 
  -53816   -53815   -53813   -53813   -53816   -53819   -53820   -53819 
  -53813   -53804   -53788   -53770   -53751   -53736   -53732   -53732 
  -53732   -53734   -53732   -53730   -53735   -53738   -53732   -53725 
  -53723   -53723   -53719   -53713   -53709   -53703   -53698   -53700 
  -53707   -53717   -53731   -53748   -53762   -53774   -53786   -53801 
  -53811   -53815   -53820   -53827   -53829   -53828   -53819   -53801 
  -53785   -53765   -53738   -53707   -53674   -53651   -53640   -53638 
  -53640   -53650   -53665   -53688   -53711   -53720   -53728   -53736 
  -53740   -53747   -53761   -53769   -53770   -53771   -53771   -53769 
  -53766   -53762   -53750   -53736   -53723   -53707   -53689   -53681 
  -53680   -53677   -53678   -53692   -53707   -53716   -53725   -53725 
  -53713   -53690   -53666   -53647   -53634   -53635   -53651   -53676 
  -53705   -53734   -53759   -53779   -53792   -53798   -53806   -53806 
  -53796   -53781   -53766   -53746   -53723   -53705   -53693   -53689 
  -53698   -53712   -53727   -53747   -53766   -53778   -53788   -53790 
  -53789   -53788   -53784   -53775   -53766   -53754   -53744   -53739 
  -53735   -53732   -53734   -53732   -53732   -53739   -53742   -53744 
  -53754   -53762   -53766   -53766   -53761   -53755   -53750   -53740 
  -53739   -53746   -53748   -53752   -53757   -53755   -53754   -53759 
  -53762   -53759   -53755   -53751   -53740   -53723   -53712   -53707 
  -53698   -53693   -53698   -53712   -53727   -53744   -53765   -53777 
  -53781   -53784   -53775   -53751   -53721   -53692   -53663   -53640 
  -53627   -53627   -53632   -53638   -53647   -53663   -53682   -53694 
  -53701   -53705   -53708   -53708   -53715   -53727   -53740   -53758 
  -53769   -53771   -53765   -53742   -53712   -53682   -53654   -53630 
  -53616   -53609   -53609   -53612   -53615   -53622   -53636   -53654 
  -53673   -53688   -53700   -53713   -53720   -53721   -53721   -53719 
  -53713   -53709   -53708   -53708   -53708   -53705   -53707   -53711 
  -53712   -53715   -53720   -53727   -53731   -53736   -53740   -53734 
  -53721   -53708   -53697   -53688   -53684   -53688   -53696   -53711 
  -53730   -53752   -53782   -53805   -53817   -53828   -53828   -53825 
  -53825   -53812   -53793   -53777   -53754   -53732   -53719   -53707 
  -53697   -53698   -53701   -53703   -53701   -53698   -53698   -53697 
  -53696   -53700   -53707   -53711   -53715   -53723   -53730   -53730 
  -53727   -53721   -53716   -53712   -53709   -53708   -53712   -53717 
  -53730   -53747   -53761   -53775   -53792   -53801   -53805   -53808 
  -53811   -53808   -53800   -53789   -53775   -53758   -53747   -53740 
  -53730   -53724   -53721   -53720   -53719   -53719   -53724   -53730 
  -53734   -53739   -53742   -53743   -53748   -53755   -53762   -53773 
  -53779   -53782   -53779   -53767   -53751   -53740   -53735   -53736 
  -53746   -53762   -53773   -53784   -53798   -53815   -53827   -53836 
  -53833   -53824   -53815   -53796   -53775   -53765   -53755   -53750 
  -53750   -53748   -53747   -53748   -53747   -53747   -53740   -53724 
  -53712   -53703   -53693   -53692   -53696   -53698   -53704   -53715 
  -53723   -53724   -53723   -53724   -53721   -53717   -53715   -53704 
  -53694   -53692   -53686   -53684   -53682   -53680   -53680   -53686 
  -53689   -53692   -53704   -53715   -53720   -53725   -53724   -53720 
  -53717   -53712   -53712   -53719   -53725   -53732   -53746   -53763 
  -53781   -53797   -53809   -53816   -53821   -53823   -53821   -53819 
  -53817   -53820   -53821   -53819   -53820   -53816   -53804   -53793 
  -53785   -53771   -53754   -53738   -53721   -53704   -53688   -53676 
  -53666   -53658   -53651   -53654   -53667   -53685   -53698   -53708 
  -53716   -53721   -53723   -53725   -53732   -53739   -53743   -53750 
  -53754   -53752   -53744   -53736   -53727   -53712   -53698   -53688 
