Origin Time       2025/03/29 04:45:00
Lat.              31.090
Long.             131.512
Depth. (km)       33
Mag.              4.6
Station Code      MYZH08
Station Lat.      32.2132
Station Long.     131.5309
Station Height(m) -145.9
Record Time       2025/03/29 04:46:03
Sampling Freq(Hz) 100Hz
Duration Time(s)  120
Dir.              2
Scale Factor      2940(gal)/6170270
Max. Acc. (gal)   0.119
Last Correction   2025/03/29 04:45:48
Memo.             
  238973   238984   238991   238997   239005   239008   239009   239009 
  239005   238997   238992   238982   238966   238951   238940   238941 
  238955   238971   238987   239002   239007   239003   238997   238990 
  238981   238971   238966   238963   238962   238963   238963   238965 
  238971   238981   238993   239005   239013   239017   239017   239014 
  239011   239008   239007   239010   239012   239016   239017   239010 
  239003   238996   238987   238977   238969   238961   238951   238939 
  238926   238918   238917   238926   238941   238955   238968   238983 
  238997   239005   239007   239006   239002   238997   238996   239001 
  239005   239004   238998   238988   238980   238975   238967   238957 
  238958   238965   238969   238975   238984   238993   239001   239004 
  239006   239010   239014   239014   239013   239009   238999   238991 
  238986   238982   238980   238977   238975   238980   238986   238994 
  239003   239006   239006   239008   239011   239010   238999   238978 
  238962   238948   238939   238939   238942   238945   238955   238968 
  238977   238981   238984   238982   238978   238977   238981   238986 
  238991   238996   239003   239008   239008   239005   239001   238995 
  238990   238987   238987   238992   239001   239010   239016   239017 
  239010   238998   238986   238977   238969   238965   238966   238969 
  238974   238983   238992   239001   239005   239001   238993   238983 
  238969   238959   238958   238963   238972   238983   238994   239009 
  239024   239033   239035   239032   239025   239016   239006   238996 
  238985   238975   238970   238969   238969   238970   238972   238978 
  238985   238986   238984   238979   238966   238951   238941   238935 
  238938   238949   238962   238970   238975   238976   238970   238965 
  238966   238968   238968   238974   238982   238986   238987   238991 
  238994   238997   239003   239008   239010   239004   238999   238993 
  238984   238975   238969   238966   238965   238966   238974   238987 
  239000   239012   239025   239032   239036   239036   239030   239015 
  238997   238977   238957   238940   238930   238934   238947   238957 
  238965   238969   238967   238959   238952   238942   238936   238941 
  238949   238958   238967   238978   238990   239000   239004   239004 
  239000   238996   238997   238999   239001   239004   239007   239004 
  238992   238976   238964   238951   238942   238941   238946   238955 
  238965   238978   238991   238996   238991   238982   238967   238951 
  238941   238935   238935   238940   238951   238961   238971   238982 
  238990   238990   238987   238984   238981   238984   238991   238993 
  238992   238992   238994   238998   238997   238991   238987   238983 
  238976   238972   238966   238957   238949   238945   238946   238950 
  238956   238963   238970   238970   238966   238966   238967   238973 
  238988   239005   239025   239039   239042   239040   239036   239024 
  239014   239008   238998   238983   238968   238955   238944   238941 
  238945   238952   238960   238968   238974   238982   238990   238997 
  239002   239012   239026   239039   239045   239046   239046   239040 
  239028   239016   239002   238991   238990   238993   238993   238996 
  239002   238999   238992   238989   238984   238976   238969   238970 
  238978   238992   239006   239015   239018   239011   239001   238993 
  238986   238977   238970   238967   238970   238976   238976   238978 
  238986   238992   238997   239008   239018   239024   239033   239043 
  239048   239045   239031   239007   238986   238976   238976   238987 
  238998   239005   239005   238998   238987   238975   238961   238949 
  238941   238938   238946   238965   238989   239010   239024   239025 
  239016   239004   238994   238986   238986   238996   239012   239029 
  239036   239033   239025   239017   239009   238995   238974   238954 
  238939   238927   238924   238926   238925   238925   238923   238917 
  238915   238922   238935   238948   238964   238981   239001   239026 
  239046   239055   239059   239065   239066   239065   239058   239042 
  239026   239019   239009   238998   238990   238978   238962   238952 
  238947   238951   238959   238964   238972   238981   238986   238995 
  239005   239012   239016   239019   239018   239014   239010   239007 
  239005   238997   238984   238976   238968   238956   238948   238941 
  238943   238963   238991   239010   239014   239003   238982   238963 
  238950   238940   238931   238926   238922   238921   238928   238941 
  238954   238965   238970   238968   238962   238962   238967   238978 
  238999   239021   239037   239044   239042   239036   239025   239011 
  238998   238988   238979   238972   238969   238962   238952   238940 
  238922   238902   238886   238874   238865   238870   238892   238923 
  238965   239015   239058   239090   239112   239120   239111   239088 
  239057   239023   238992   238966   238939   238906   238872   238847 
  238836   238839   238855   238879   238903   238931   238954   238966 
  238975   238985   238996   239005   239015   239025   239028   239024 
  239018   239008   239001   238998   238992   238981   238970   238950 
  238927   238915   238913   238922   238942   238965   238993   239018 
  239032   239036   239029   239008   238983   238964   238957   238967 
  238986   239007   239024   239032   239029   239015   238991   238964 
  238944   238933   238937   238953   238983   239023   239063   239096 
  239114   239117   239105   239078   239047   239020   238997   238982 
  238974   238973   238986   239013   239043   239067   239085   239091 
  239087   239078   239069   239060   239055   239060   239075   239093 
  239105   239098   239069   239028   238983   238944   238919   238904 
  238897   238900   238912   238929   238950   238973   239000   239028 
  239048   239059   239065   239064   239060   239056   239050   239043 
  239035   239019   238996   238978   238967   238960   238958   238958 
  238954   238943   238931   238924   238920   238918   238917   238917 
  238921   238935   238959   238984   239007   239030   239051   239060 
  239060   239047   239021   238994   238971   238956   238956   238967 
  238977   238974   238956   238928   238894   238868   238855   238848 
  238847   238859   238883   238913   238944   238973   238995   239013 
  239024   239024   239016   239005   238992   238974   238958   238949 
  238948   238951   238957   238962   238968   238978   238986   238995 
  239007   239014   239010   238993   238967   238936   238905   238875 
  238850   238831   238818   238820   238837   238861   238885   238907 
  238923   238934   238941   238941   238934   238929   238923   238920 
  238925   238936   238945   238949   238953   238954   238957   238968 
  238978   238980   238978   238973   238965   238965   238977   238995 
  239017   239041   239069   239100   239124   239136   239137   239129 
  239116   239104   239096   239087   239072   239058   239043   239028 
  239017   239008   239003   239002   239001   239004   239008   239007 
  239000   238987   238973   238963   238957   238953   238949   238946 
  238949   238961   238978   238996   239013   239023   239019   239004 
  238979   238945   238920   238910   238915   238934   238959   238982 
  239006   239035   239058   239076   239089   239092   239085   239077 
  239064   239050   239043   239038   239028   239017   239006   238997 
  238992   238988   238990   238999   239010   239022   239031   239032 
  239025   239013   238999   238989   238985   238987   238994   239008 
  239023   239032   239040   239046   239044   239040   239032   239017 
  239001   238988   238979   238964   238942   238928   238920   238912 
  238911   238919   238929   238935   238937   238934   238927   238920 
  238910   238898   238893   238897   238910   238935   238967   238996 
  239022   239042   239058   239070   239076   239079   239077   239067 
  239048   239024   239001   238977   238958   238945   238936   238928 
  238923   238921   238916   238905   238899   238903   238913   238930 
  238953   238974   238991   239002   239007   239007   239004   239001 
  239007   239019   239032   239045   239054   239056   239050   239039 
  239023   239005   238988   238968   238951   238944   238947   238956 
  238967   238976   238981   238979   238974   238971   238965   238952 
  238939   238925   238907   238887   238870   238854   238839   238823 
  238810   238808   238818   238837   238865   238900   238941   238979 
  239005   239025   239039   239036   239019   238995   238964   238935 
  238914   238898   238890   238886   238883   238887   238902   238917 
  238932   238949   238967   238989   239010   239031   239052   239075 
  239102   239134   239160   239179   239192   239197   239199   239198 
  239185   239159   239125   239088   239054   239025   238995   238966 
  238949   238947   238953   238960   238968   238979   238991   239006 
  239024   239042   239061   239079   239083   239074   239061   239043 
  239019   238996   238979   238962   238945   238934   238928   238919 
  238913   238911   238903   238898   238904   238911   238919   238933 
  238952   238964   238973   238983   238992   238998   239007   239018 
  239027   239026   239022   239020   239013   239005   238997   238985 
  238977   238974   238972   238976   238981   238982   238982   238978 
  238964   238940   238909   238871   238836   238818   238816   238827 
  238849   238878   238909   238939   238963   238985   239005   239017 
  239020   239018   239016   239019   239024   239031   239039   239042 
  239042   239042   239041   239040   239043   239054   239064   239071 
  239080   239080   239071   239062   239044   239020   238994   238964 
  238936   238919   238911   238902   238895   238897   238902   238907 
  238911   238909   238905   238900   238892   238880   238864   238853 
  238850   238847   238846   238856   238875   238903   238943   238991 
  239039   239082   239117   239143   239158   239162   239158   239147 
  239134   239120   239107   239094   239082   239077   239073   239064 
  239053   239039   239022   239004   238990   238984   238983   238983 
  238991   239006   239014   239019   239021   239013   239006   239003 
  239001   239008   239026   239044   239056   239063   239065   239052 
  239031   239013   238999   238986   238979   238975   238972   238977 
  238988   238996   239004   239015   239026   239034   239037   239039 
  239036   239033   239037   239045   239051   239056   239061   239067 
  239074   239080   239084   239083   239070   239048   239027   239008 
  238986   238964   238943   238921   238893   238863   238833   238801 
  238772   238752   238740   238734   238736   238742   238751   238768 
  238792   238820   238851   238886   238918   238949   238984   239016 
  239041   239062   239076   239076   239063   239045   239030   239016 
  238998   238980   238967   238970   238992   239024   239063   239107 
  239144   239167   239181   239185   239176   239154   239126   239092 
  239055   239018   238986   238958   238935   238924   238922   238926 
  238937   238952   238968   238983   238995   238999   238991   238974 
  238951   238919   238886   238863   238847   238835   238831   238836 
  238845   238853   238861   238862   238858   238858   238863   238868 
  238873   238880   238890   238899   238906   238912   238921   238935 
  238954   238973   238989   239003   239014   239022   239031   239047 
  239065   239081   239095   239103   239104   239102   239103   239106 
  239107   239105   239104   239103   239097   239088   239076   239062 
  239047   239030   239009   238986   238969   238959   238952   238951 
  238954   238957   238964   238974   238984   238993   238999   239002 
  238993   238974   238954   238937   238917   238901   238888   238870 
  238858   238859   238862   238862   238870   238879   238886   238895 
  238899   238900   238905   238908   238905   238897   238880   238856 
  238830   238807   238787   238773   238768   238770   238776   238792 
  238819   238856   238898   238943   238987   239025   239057   239084 
  239101   239110   239115   239115   239114   239110   239097   239080 
  239060   239043   239038   239040   239045   239053   239060   239068 
  239082   239100   239122   239143   239158   239168   239175   239175 
  239169   239161   239149   239132   239113   239093   239076   239060 
  239043   239032   239023   239017   239014   239011   239007   239008 
  239016   239024   239032   239038   239042   239045   239048   239046 
  239041   239032   239017   239005   238998   238989   238984   238988 
  238990   238992   238994   238995   238998   239004   239006   239003 
  238993   238980   238966   238947   238923   238903   238893   238889 
  238892   238900   238906   238911   238912   238910   238906   238899 
  238892   238888   238889   238893   238901   238918   238935   238952 
  238972   238994   239011   239025   239035   239040   239043   239046 
  239047   239048   239046   239044   239038   239026   239014   239004 
  238997   238995   238993   238990   238987   238984   238982   238979 
  238974   238971   238969   238965   238963   238967   238974   238982 
  238989   238996   239004   239015   239029   239043   239054   239065 
  239073   239076   239078   239076   239070   239057   239039   239020 
  239000   238976   238956   238941   238929   238923   238921   238913 
  238903   238895   238887   238885   238890   238897   238908   238922 
  238936   238946   238953   238961   238972   238977   238983   238990 
  238994   238997   238999   238992   238982   238972   238956   238938 
  238926   238915   238902   238895   238892   238893   238896   238900 
  238903   238905   238907   238909   238906   238903   238905   238907 
  238910   238918   238927   238936   238949   238965   238977   238982 
  238987   238997   239007   239020   239032   239044   239056   239066 
  239074   239079   239081   239084   239089   239096   239109   239119 
  239122   239119   239110   239093   239075   239057   239039   239017 
  238991   238964   238939   238919   238904   238894   238893   238899 
  238908   238919   238926   238928   238928   238927   238925   238928 
  238939   238951   238965   238983   239000   239015   239030   239044 
  239049   239051   239053   239054   239049   239040   239033   239027 
  239018   239011   239008   239003   238996   238993   238998   239004 
  239010   239018   239026   239031   239032   239030   239030   239030 
  239027   239024   239023   239020   239013   239005   239001   238993 
  238982   238972   238960   238948   238941   238936   238936   238944 
  238956   238969   238978   238981   238981   238981   238982   238982 
  238984   238987   238988   238984   238977   238964   238946   238929 
  238917   238909   238903   238896   238889   238888   238886   238886 
  238895   238910   238929   238952   238974   238988   238998   239001 
  238996   238989   238983   238976   238975   238980   238987   238988 
  238985   238977   238969   238964   238964   238966   238967   238971 
  238977   238982   238990   239002   239017   239033   239049   239061 
  239072   239082   239087   239081   239067   239048   239027   239007 
  238985   238966   238952   238938   238924   238914   238907   238905 
  238909   238917   238929   238942   238957   238972   238986   238997 
  239003   239006   239009   239017   239028   239038   239043   239047 
  239049   239048   239051   239056   239057   239058   239060   239062 
  239066   239066   239060   239055   239052   239054   239061   239063 
  239059   239051   239042   239036   239033   239031   239034   239039 
  239045   239051   239057   239065   239066   239057   239044   239027 
  239003   238974   238945   238915   238884   238858   238837   238821 
  238810   238803   238795   238787   238779   238775   238775   238778 
  238787   238798   238804   238809   238816   238823   238834   238850 
  238864   238877   238898   238921   238940   238957   238971   238982 
  238989   238994   238999   239009   239021   239033   239045   239058 
  239070   239076   239075   239075   239079   239087   239098   239111 
  239124   239137   239148   239158   239166   239172   239178   239180 
  239175   239164   239150   239132   239114   239097   239079   239059 
  239041   239025   239011   239003   238998   238991   238986   238983 
  238978   238974   238973   238968   238962   238958   238952   238944 
  238942   238941   238938   238935   238932   238926   238920   238914 
  238912   238915   238918   238923   238932   238944   238957   238974 
  238990   239000   239003   238998   238987   238974   238961   238950 
  238941   238933   238927   238918   238905   238894   238885   238875 
  238870   238866   238862   238861   238861   238864   238871   238882 
  238897   238917   238936   238955   238972   238983   238985   238985 
  238983   238978   238974   238967   238958   238953   238957   238963 
  238966   238972   238978   238978   238978   238978   238975   238970 
  238968   238964   238961   238962   238965   238967   238973   238986 
  239006   239032   239061   239088   239112   239133   239146   239152 
  239158   239162   239158   239150   239139   239127   239115   239098 
  239076   239055   239035   239018   239004   238993   238980   238967 
  238957   238950   238944   238943   238947   238957   238969   238980 
  238990   239004   239017   239023   239023   239021   239013   239005 
  239000   238993   238983   238974   238969   238964   238954   238949 
  238950   238952   238960   238974   238984   238996   239010   239015 
  239015   239017   239015   239012   239011   239009   239006   239002 
  238997   238994   238992   238993   238995   238992   238986   238979 
  238970   238956   238936   238917   238900   238884   238868   238854 
  238842   238837   238835   238837   238845   238858   238874   238891 
  238907   238924   238941   238957   238974   238984   238990   238996 
  238997   238999   239007   239013   239016   239024   239035   239049 
  239063   239074   239079   239081   239080   239079   239079   239078 
  239073   239064   239053   239041   239032   239026   239023   239016 
  239006   238998   238993   238988   238985   238987   238988   238990 
  238994   238994   238990   238986   238984   238982   238982   238980 
  238973   238967   238959   238948   238938   238925   238908   238895 
  238886   238881   238885   238899   238915   238935   238959   238986 
  239006   239018   239026   239030   239029   239023   239017   239013 
  239007   238994   238978   238965   238950   238933   238919   238907 
  238896   238885   238876   238876   238886   238900   238913   238927 
  238944   238964   238979   238992   239009   239024   239039   239055 
  239062   239062   239058   239048   239034   239023   239009   238994 
  238979   238964   238949   238932   238918   238910   238906   238902 
  238901   238905   238909   238913   238923   238938   238951   238967 
  238986   239002   239014   239025   239035   239043   239049   239057 
  239062   239064   239071   239079   239085   239092   239096   239095 
  239093   239087   239079   239075   239072   239067   239063   239062 
  239063   239061   239058   239053   239041   239025   239012   239003 
