Origin Time       2025/03/29 04:45:00
Lat.              31.090
Long.             131.512
Depth. (km)       33
Mag.              4.6
Station Code      MYZH10
Station Lat.      32.0215
Station Long.     131.2900
Station Height(m) -20
Record Time       2025/03/29 04:45:49
Sampling Freq(Hz) 100Hz
Duration Time(s)  120
Dir.              1
Scale Factor      2940(gal)/6170270
Max. Acc. (gal)   0.227
Last Correction   2025/03/29 04:45:34
Memo.             
[...]
  127667   127666   127657   127642   127627   127613   127601   127593 
  127590   127590   127598   127616   127643   127671   127689   127695 
  127695   127692   127685   127680   127682   127689   127695   127701 
  127704   127698   127682   127661   127637   127612   127594   127586 
  127587   127596   127611   127626   127637   127640   127634   127622 
  127606   127591   127583   127584   127593   127603   127613   127624 
  127628   127629   127629   127625   127624   127631   127642   127657 
  127672   127681   127686   127693   127702   127706   127708   127715 
  127714   127706   127699   127685   127662   127640   127620   127599 
  127578   127566   127565   127571   127588   127616   127643   127662 
  127672   127676   127673   127667   127665   127666   127667   127667 
  127663   127653   127639   127628   127624   127626   127631   127642 
  127659   127677   127688   127689   127682   127667   127644   127620 
  127605   127596   127597   127602   127606   127623   127643   127657 
  127673   127689   127692   127686   127683   127682   127676   127670 
  127671   127671   127668   127669   127674   127673   127669   127663 
  127651   127638   127622   127600   127583   127573   127570   127585 
  127611   127632   127647   127652   127647   127639   127633   127629 
  127625   127620   127618   127621   127623   127628   127636   127640 
  127643   127648   127649   127646   127643   127638   127633   127634 
  127635   127638   127648   127659   127671   127687   127704   127710 
  127704   127690   127667   127641   127617   127594   127583   127584 
  127590   127606   127632   127655   127672   127681   127684   127680 
  127666   127651   127643   127642   127645   127645   127644   127647 
  127649   127652   127662   127671   127673   127672   127673   127666 
  127656   127655   127654   127650   127646   127638   127626   127617 
  127606   127594   127586   127587   127596   127609   127634   127663 
  127682   127692   127697   127688   127672   127658   127649   127638 
  127628   127621   127617   127613   127613   127618   127622   127624 
  127624   127619   127613   127604   127595   127593   127593   127591 
  127594   127603   127614   127625   127638   127652   127664   127677 
  127697   127716   127727   127730   127724   127711   127694   127676 
  127659   127645   127632   127620   127610   127604   127601   127599 
  127603   127610   127616   127624   127633   127639   127643   127646 
  127644   127643   127646   127647   127652   127668   127686   127700 
  127711   127719   127721   127718   127711   127698   127679   127656 
  127633   127609   127591   127584   127578   127576   127586   127594 
  127604   127626   127646   127657   127666   127671   127669   127669 
  127672   127668   127658   127650   127643   127637   127633   127632 
  127637   127649   127665   127679   127692   127699   127688   127663 
  127634   127604   127578   127563   127564   127577   127595   127613 
  127629   127647   127659   127667   127672   127668   127668   127672 
  127674   127682   127695   127701   127705   127707   127704   127694 
  127681   127667   127649   127626   127611   127604   127602   127606 
  127618   127637   127655   127668   127676   127679   127676   127664 
  127648   127632   127613   127599   127595   127593   127592   127600 
  127610   127617   127625   127638   127651   127663   127676   127689 
  127698   127709   127717   127719   127721   127718   127707   127688 
  127659   127624   127597   127579   127571   127574   127584   127604 
  127628   127645   127656   127663   127665   127663   127658   127648 
  127641   127639   127631   127616   127605   127593   127577   127570 
  127570   127572   127580   127594   127610   127627   127644   127657 
  127665   127667   127663   127656   127645   127632   127623   127616 
  127610   127608   127614   127628   127645   127660   127671   127677 
  127681   127679   127676   127674   127674   127676   127682   127689 
  127694   127696   127692   127684   127670   127652   127632   127616 
  127607   127600   127601   127612   127623   127634   127649   127658 
  127661   127669   127676   127678   127680   127686   127692   127696 
  127702   127703   127695   127687   127677   127659   127638   127617 
  127597   127586   127581   127580   127589   127601   127611   127624 
  127636   127642   127647   127651   127648   127645   127648   127648 
  127645   127642   127642   127638   127632   127626   127620   127612 
  127602   127599   127599   127600   127606   127617   127633   127652 
  127669   127687   127701   127701   127692   127687   127683   127674 
  127667   127663   127656   127649   127650   127652   127652   127649 
  127647   127641   127634   127632   127630   127631   127642   127657 
  127674   127690   127703   127710   127704   127688   127667   127639 
  127611   127589   127568   127549   127538   127533   127528   127529 
  127541   127554   127565   127581   127597   127612   127626   127639 
  127655   127668   127677   127686   127695   127701   127706   127707 
  127705   127701   127693   127683   127675   127663   127648   127636 
  127623   127614   127609   127605   127608   127619   127636   127652 
  127668   127685   127693   127691   127683   127673   127666   127660 
  127659   127671   127688   127701   127717   127726   127725   127719 
  127702   127676   127652   127629   127608   127595   127591   127594 
  127600   127606   127618   127636   127653   127666   127678   127688 
  127696   127706   127715   127719   127719   127712   127695   127669 
  127644   127619   127594   127574   127559   127548   127548   127556 
  127567   127583   127601   127615   127632   127650   127659   127661 
  127663   127661   127655   127652   127654   127653   127649   127648 
  127647   127641   127630   127617   127602   127588   127576   127567 
  127563   127567   127580   127598   127617   127640   127665   127682 
  127689   127689   127680   127669   127662   127657   127660   127671 
  127680   127690   127698   127698   127692   127683   127668   127648 
  127630   127615   127608   127608   127617   127631   127646   127660 
  127673   127677   127678   127682   127685   127683   127680   127681 
  127683   127682   127682   127680   127670   127658   127646   127631 
  127615   127603   127596   127589   127586   127587   127592   127600 
  127610   127620   127629   127636   127641   127648   127653   127655 
  127654   127650   127641   127631   127629   127632   127628   127624 
  127626   127624   127619   127616   127612   127608   127604   127601 
  127606   127619   127630   127638   127648   127656   127659   127657 
  127657   127655   127650   127647   127644   127642   127644   127647 
  127649   127654   127656   127657   127661   127662   127658   127657 
  127661   127669   127675   127678   127684   127690   127691   127687 
  127684   127681   127678   127677   127677   127676   127675   127674 
  127674   127675   127672   127661   127655   127652   127649   127653 
  127658   127662   127669   127676   127684   127693   127696   127692 
  127684   127675   127665   127656   127648   127643   127637   127631 
  127625   127619   127616   127614   127608   127605   127608   127610 
  127613   127621   127629   127636   127639   127637   127635   127631 
  127621   127615   127611   127602   127595   127595   127593   127589 
  127587   127583   127578   127578   127582   127584   127585   127590 
  127595   127599   127605   127610   127611   127610   127616   127621 
  127621   127623   127624   127620   127614   127608   127596   127588 
  127587   127591   127600   127615   127633   127647   127656   127667 
  127677   127680   127681   127683   127680   127668   127657   127648 
  127635   127628   127631   127644   127666   127689   127709   127721 
  127720   127710   127692   127670   127651   127634   127622   127616 
  127613   127610   127610   127615   127622   127627   127635   127645 
  127650   127650   127650   127648   127640   127630   127624   127623 
  127627   127633   127645   127658   127664   127667   127672   127674 
  127678   127689   127699   127705   127710   127710   127707   127706 
  127707   127714   127727   127742   127757   127768   127775   127778 
  127772   127762   127754   127745   127735   127725   127717   127715 
  127716   127716   127717   127716   127707   127688   127658   127624 
  127591   127559   127533   127520   127514   127520   127546   127578 
  127609   127641   127671   127692   127704   127707   127703   127697 
  127687   127678   127674   127670   127668   127670   127668   127663 
  127654   127640   127619   127588   127554   127521   127489   127467 
  127459   127462   127478   127504   127538   127577   127618   127658 
  127692   127717   127729   127728   127713   127687   127661   127638 
  127617   127602   127598   127603   127605   127606   127611   127616 
  127622   127634   127645   127655   127662   127659   127648   127634 
  127615   127595   127578   127567   127563   127562   127565   127577 
  127590   127604   127621   127635   127642   127644   127641   127631 
  127620   127608   127597   127596   127600   127604   127610   127612 
  127612   127612   127603   127591   127579   127566   127561   127566 
  127577   127597   127624   127651   127674   127692   127703   127711 
  127712   127705   127694   127679   127663   127650   127635   127620 
  127609   127604   127608   127619   127635   127656   127681   127711 
  127745   127778   127805   127825   127836   127832   127812   127779 
  127738   127690   127649   127621   127603   127598   127604   127609 
  127619   127633   127640   127643   127653   127664   127674   127686 
  127699   127707   127713   127717   127718   127719   127722   127726 
  127728   127723   127709   127693   127674   127649   127624   127598 
  127577   127567   127564   127567   127579   127597   127618   127640 
  127660   127680   127694   127704   127714   127719   127715   127709 
  127703   127692   127686   127690   127693   127695   127695   127685 
  127672   127661   127647   127633   127627   127624   127624   127629 
  127635   127635   127624   127601   127572   127539   127502   127462 
  127421   127384   127357   127342   127345   127365   127401   127452 
  127517   127590   127665   127739   127798   127831   127845   127836 
  127802   127760   127714   127669   127632   127601   127579   127564 
  127553   127549   127552   127560   127575   127599   127632   127674 
  127720   127766   127811   127853   127891   127917   127924   127917 
  127902   127874   127835   127793   127750   127710   127679   127657 
  127645   127642   127651   127665   127677   127691   127703   127709 
  127715   127718   127716   127712   127704   127679   127645   127611 
  127577   127544   127522   127509   127499   127495   127500   127506 
  127511   127517   127528   127537   127544   127551   127554   127554 
  127556   127554   127551   127552   127552   127546   127536   127524 
  127510   127495   127489   127493   127502   127515   127538   127570 
  127607   127646   127682   127716   127742   127753   127756   127748 
  127726   127701   127682   127665   127650   127643   127637   127625 
  127615   127612   127609   127616   127639   127668   127700   127738 
  127774   127799   127819   127829   127824   127806   127777   127741 
  127700   127661   127625   127600   127582   127570   127570   127569 
  127560   127553   127541   127530   127525   127523   127535   127561 
  127589   127621   127655   127681   127699   127711   127716   127713 
  127702   127686   127664   127640   127622   127612   127605   127604 
  127601   127583   127559   127537   127508   127477   127452   127433 
  127434   127453   127486   127531   127584   127640   127697   127750 
  127799   127835   127853   127853   127836   127810   127775   127732 
  127694   127663   127634   127616   127603   127593   127590   127591 
  127595   127607   127626   127657   127693   127728   127767   127807 
  127846   127889   127929   127960   127988   128011   128019   128009 
  127997   127975   127937   127897   127859   127820   127781   127741 
  127697   127655   127616   127583   127558   127540   127529   127531 
  127542   127555   127575   127595   127615   127633   127638   127628 
  127609   127579   127539   127495   127449   127403   127350   127299 
  127259   127223   127195   127187   127195   127215   127247   127285 
  127325   127376   127433   127481   127531   127588   127636   127675 
  127715   127750   127780   127809   127828   127841   127851   127856 
  127855   127849   127837   127824   127808   127788   127771   127757 
  127745   127740   127740   127746   127759   127774   127785   127793 
  127796   127792   127780   127760   127724   127677   127627   127570 
  127513   127465   127422   127391   127372   127359   127359   127373 
  127394   127418   127453   127499   127553   127610   127667   127726 
  127783   127825   127851   127871   127886   127887   127884   127886 
  127888   127891   127900   127911   127919   127929   127944   127956 
  127962   127971   127977   127978   127982   127986   127987   127988 
  127983   127966   127942   127909   127864   127809   127751   127695 
  127646   127603   127569   127549   127533   127520   127514   127506 
  127492   127478   127462   127448   127440   127436   127436   127444 
  127457   127469   127476   127476   127463   127438   127403   127360 
  127315   127273   127231   127198   127179   127170   127173   127186 
  127210   127248   127292   127340   127392   127445   127495   127538 
  127575   127608   127637   127661   127677   127685   127686   127680 
  127665   127646   127623   127594   127562   127534   127511   127496 
  127489   127490   127505   127527   127553   127586   127621   127653 
  127683   127710   127735   127758   127775   127792   127806   127807 
  127805   127801   127795   127790   127791   127796   127802   127810 
  127823   127841   127858   127874   127891   127902   127905   127903 
  127896   127885   127869   127857   127853   127856   127863   127874 
  127884   127893   127898   127895   127883   127861   127826   127784 
  127742   127703   127666   127638   127621   127612   127613   127619 
  127621   127620   127617   127608   127597   127590   127583   127569 
  127557   127547   127532   127516   127508   127499   127488   127478 
  127470   127468   127466   127463   127465   127477   127501   127534 
  127574   127620   127668   127713   127750   127777   127801   127817 
  127815   127807   127791   127761   127729   127694   127648   127601 
  127567   127542   127525   127521   127527   127541   127561   127589 
  127614   127631   127643   127651   127652   127649   127641   127628 
  127614   127604   127600   127599   127598   127599   127602   127603 
  127602   127598   127590   127580   127567   127557   127551   127551 
  127562   127583   127609   127642   127679   127712   127740   127758 
  127763   127760   127756   127747   127734   127721   127711   127704 
  127701   127699   127695   127690   127686   127678   127660   127642 
  127629   127616   127604   127602   127608   127617   127632   127643 
  127648   127656   127655   127640   127621   127599   127569   127538 
  127511   127490   127478   127473   127473   127479   127489   127505 
  127523   127538   127554   127568   127581   127595   127607   127620 
  127637   127649   127659   127672   127684   127689   127691   127692 
  127694   127692   127687   127684   127683   127684   127691   127702 
  127718   127743   127767   127788   127817   127846   127864   127880 
  127898   127910   127913   127913   127907   127891   127870   127848 
  127823   127795   127767   127738   127707   127676   127648   127625 
  127605   127593   127591   127593   127602   127611   127618   127629 
  127639   127640   127637   127632   127621   127604   127578   127547 
  127511   127472   127431   127390   127349   127311   127288   127275 
  127265   127267   127284   127303   127324   127355   127389   127420 
  127454   127487   127514   127536   127553   127560   127557   127553 
  127544   127535   127534   127533   127533   127544   127562   127587 
  127618   127651   127689   127728   127758   127784   127807   127824 
  127836   127845   127848   127846   127840   127837   127832   127823 
  127816   127809   127797   127787   127775   127765   127760   127756 
  127752   127753   127755   127756   127757   127762   127770   127782 
  127797   127811   127829   127849   127863   127870   127871   127865 
  127848   127822   127793   127764   127733   127707   127694   127679 
  127673   127683   127693   127699   127709   127717   127718   127716 
  127712   127705   127695   127683   127668   127653   127636   127613 
  127589   127566   127541   127519   127499   127484   127480   127484 
  127496   127517   127547   127580   127613   127644   127672   127692 
  127705   127715   127711   127698   127682   127659   127636   127617 
  127599   127586   127583   127582   127587   127600   127614   127629 
  127645   127657   127662   127664   127663   127658   127652   127645 
  127633   127621   127611   127598   127579   127561   127541   127522 
  127508   127494   127481   127475   127472   127471   127470   127467 
  127468   127467   127454   127441   127434   127422   127409   127402 
  127397   127397   127406   127419   127436   127452   127469   127489 
  127510   127533   127560   127587   127617   127647   127668   127687 
  127706   127722   127737   127749   127757   127767   127778   127781 
  127777   127771   127765   127754   127743   127733   127718   127707 
  127701   127689   127684   127691   127700   127708   127718   127730 
  127735   127732   127732   127727   127711   127698   127689   127680 
  127674   127670   127670   127674   127680   127693   127711   127731 
  127749   127767   127785   127799   127818   127835   127847   127860 
  127873   127879   127876   127869   127856   127840   127822   127803 
  127780   127758   127741   127723   127703   127686   127671   127662 
  127657   127653   127655   127664   127674   127686   127697   127703 
  127710   127713   127708   127700   127690   127675   127659   127644 
  127631   127620   127611   127601   127593   127589   127587   127579 
  127574   127572   127567   127558   127551   127544   127534   127524 
  127515   127504   127493   127485   127474   127465   127463   127464 
  127467   127472   127473   127473   127478   127487   127498   127512 
  127527   127541   127555   127571   127588   127603   127621   127631 
  127637   127647   127653   127652   127650   127645   127635   127627 
  127628   127632   127640   127656   127678   127699   127718   127738 
  127758   127771   127776   127779   127779   127774   127768   127758 
  127748   127737   127725   127715   127703   127694   127691   127688 
  127689   127694   127695   127698   127699   127695   127694   127690 
  127680   127672   127665   127656   127647   127633   127622   127617 
  127607   127592   127580   127570   127557   127541   127529   127518 
  127510   127510   127515   127522   127533   127545   127564   127587 
  127601   127619   127641   127655   127666   127682   127696   127701 
  127702   127706   127705   127700   127696   127691   127682   127669 
