Origin Time       2025/03/29 04:45:00
Lat.              31.090
Long.             131.512
Depth. (km)       33
Mag.              4.6
Station Code      MYZH08
Station Lat.      32.2132
Station Long.     131.5309
Station Height(m) -145.9
Record Time       2025/03/29 04:46:03
Sampling Freq(Hz) 100Hz
Duration Time(s)  120
Dir.              1
Scale Factor      2940(gal)/6170270
Max. Acc. (gal)   0.138
Last Correction   2025/03/29 04:45:48
Memo.             
[...]
  208511   208518   208524   208530   208535   208537   208539   208532 
  208518   208501   208483   208470   208460   208450   208445   208445 
  208452   208464   208477   208491   208506   208512   208513   208511 
  208502   208494   208491   208487   208481   208482   208492   208507 
  208523   208539   208546   208542   208531   208519   208508   208498 
  208486   208475   208464   208455   208452   208454   208464   208477 
  208485   208488   208490   208490   208492   208493   208492   208494 
  208499   208506   208513   208519   208523   208526   208532   208539 
  208543   208542   208539   208529   208516   208508   208505   208504 
  208500   208492   208483   208473   208464   208461   208459   208455 
  208456   208464   208469   208469   208471   208473   208473   208473 
  208477   208485   208494   208499   208501   208502   208504   208509 
  208513   208518   208525   208530   208529   208523   208522   208526 
  208529   208531   208527   208516   208504   208495   208494   208496 
  208493   208484   208477   208472   208472   208471   208471   208479 
  208494   208507   208521   208536   208547   208549   208543   208536 
  208526   208507   208491   208481   208468   208454   208443   208436 
  208435   208437   208442   208449   208454   208457   208463   208475 
  208486   208493   208497   208499   208499   208498   208498   208497 
  208499   208506   208514   208519   208521   208523   208526   208529 
  208531   208532   208526   208517   208508   208499   208494   208501 
  208512   208520   208528   208536   208540   208533   208522   208516 
  208510   208500   208491   208481   208468   208458   208453   208449 
  208450   208454   208457   208464   208476   208489   208507   208527 
  208537   208537   208532   208523   208517   208509   208494   208477 
  208463   208451   208444   208441   208443   208451   208462   208470 
  208483   208503   208519   208525   208523   208518   208514   208512 
  208507   208501   208494   208485   208477   208477   208479   208483 
  208488   208486   208481   208476   208469   208463   208461   208461 
  208465   208473   208482   208496   208517   208538   208555   208570 
  208578   208570   208550   208522   208495   208478   208471   208472 
  208480   208494   208507   208514   208515   208513   208511   208509 
  208507   208509   208512   208514   208513   208507   208497   208484 
  208472   208463   208462   208468   208475   208485   208499   208508 
  208508   208495   208477   208461   208445   208427   208413   208404 
  208401   208406   208416   208428   208444   208468   208495   208523 
  208551   208576   208596   208610   208620   208626   208628   208623 
  208613   208600   208583   208561   208539   208517   208499   208486 
  208474   208465   208458   208456   208460   208469   208484   208505 
  208525   208538   208544   208544   208536   208530   208531   208536 
  208539   208539   208534   208521   208503   208485   208470   208457 
  208443   208435   208440   208452   208460   208460   208457   208451 
  208446   208448   208456   208462   208465   208465   208461   208455 
  208452   208447   208445   208454   208468   208486   208511   208536 
  208560   208589   208611   208617   208611   208592   208567   208541 
  208518   208505   208499   208494   208485   208477   208471   208464 
  208455   208448   208438   208424   208417   208422   208444   208483 
  208530   208576   208613   208632   208634   208619   208593   208565 
  208540   208515   208492   208469   208443   208419   208405   208400 
  208405   208416   208417   208405   208385   208363   208343   208336 
  208344   208365   208400   208439   208466   208480   208482   208476 
  208472   208471   208465   208457   208450   208443   208443   208459 
  208492   208534   208572   208602   208623   208634   208633   208621 
  208599   208574   208551   208532   208518   208510   208508   208511 
  208512   208508   208498   208482   208470   208469   208473   208479 
  208489   208505   208526   208551   208580   208614   208643   208655 
  208643   208609   208559   208499   208437   208386   208350   208332 
  208332   208343   208359   208379   208403   208422   208431   208435 
  208435   208432   208429   208432   208442   208458   208482   208518 
  208553   208578   208594   208592   208573   208548   208524   208504 
  208496   208500   208514   208537   208565   208591   208613   208624 
  208617   208599   208577   208552   208529   208507   208487   208477 
  208474   208474   208471   208462   208454   208445   208440   208445 
  208458   208471   208484   208494   208502   208508   208509   208504 
  208500   208496   208492   208495   208500   208505   208511   208511 
  208500   208479   208449   208420   208403   208403   208422   208460 
  208505   208545   208573   208586   208585   208577   208563   208544 
  208526   208513   208506   208503   208496   208487   208476   208463 
  208453   208451   208450   208448   208450   208456   208471   208496 
  208525   208547   208558   208555   208537   208512   208491   208473 
  208460   208462   208472   208482   208492   208496   208495   208490 
  208483   208479   208478   208482   208494   208511   208532   208559 
  208586   208604   208609   208605   208593   208568   208532   208491 
  208451   208416   208398   208397   208409   208430   208464   208503 
  208535   208562   208580   208587   208585   208578   208567   208559 
  208551   208543   208541   208539   208530   208513   208489   208463 
  208443   208430   208419   208415   208419   208425   208435   208451 
  208461   208458   208449   208439   208429   208420   208415   208418 
  208434   208459   208482   208499   208508   208511   208508   208502 
  208496   208487   208479   208474   208469   208463   208460   208467 
  208485   208511   208539   208569   208601   208629   208650   208659 
  208651   208625   208585   208542   208505   208480   208470   208473 
  208483   208496   208510   208520   208525   208527   208522   208506 
  208476   208434   208387   208348   208327   208325   208339   208363 
  208388   208408   208424   208435   208439   208436   208431   208431 
  208437   208447   208461   208481   208504   208524   208540   208550 
  208548   208536   208514   208483   208455   208442   208436   208439 
  208452   208470   208488   208506   208517   208523   208532   208541 
  208550   208556   208563   208574   208583   208589   208599   208615 
  208629   208636   208631   208611   208586   208553   208516   208484 
  208457   208442   208440   208441   208449   208460   208467   208470 
  208463   208444   208417   208388   208363   208351   208355   208369 
  208390   208415   208445   208477   208506   208528   208545   208554 
  208561   208571   208577   208574   208566   208553   208533   208517 
  208508   208499   208488   208481   208480   208482   208491   208509 
  208531   208555   208579   208598   208607   208611   208613   208614 
  208614   208612   208605   208591   208576   208564   208557   208554 
  208555   208557   208559   208563   208565   208559   208545   208521 
  208492   208466   208444   208427   208408   208384   208362   208348 
  208346   208353   208367   208386   208405   208419   208425   208424 
  208424   208427   208426   208421   208416   208412   208415   208426 
  208443   208458   208468   208478   208490   208500   208512   208529 
  208546   208565   208584   208599   208606   208603   208597   208587 
  208571   208558   208551   208543   208540   208544   208549   208553 
  208554   208549   208539   208527   208513   208499   208487   208475 
  208464   208463   208467   208475   208488   208495   208489   208477 
  208464   208451   208441   208432   208426   208424   208422   208420 
  208415   208409   208407   208407   208411   208416   208426   208438 
  208446   208446   208441   208436   208430   208417   208398   208382 
  208366   208356   208357   208368   208386   208414   208444   208472 
  208504   208531   208549   208561   208570   208572   208569   208565 
  208562   208558   208559   208564   208570   208579   208591   208603 
  208616   208630   208638   208639   208642   208652   208664   208674 
  208679   208676   208670   208662   208646   208624   208601   208573 
  208545   208522   208497   208473   208452   208435   208425   208419 
  208406   208393   208385   208377   208372   208375   208379   208387 
  208400   208416   208434   208452   208470   208485   208498   208507 
  208514   208517   208514   208506   208494   208471   208437   208404 
  208374   208350   208337   208333   208339   208355   208371   208382 
  208394   208413   208437   208468   208502   208536   208575   208616 
  208651   208677   208701   208719   208720   208714   208702   208676 
  208642   208606   208569   208535   208512   208505   208508   208513 
  208518   208515   208500   208479   208451   208423   208406   208398 
  208392   208386   208377   208366   208360   208363   208372   208386 
  208404   208431   208460   208488   208515   208539   208557   208563 
  208560   208553   208547   208546   208546   208538   208525   208514 
  208501   208488   208478   208471   208470   208473   208480   208493 
  208507   208517   208521   208521   208518   208512   208513   208514 
  208506   208499   208503   208513   208524   208535   208543   208547 
  208543   208527   208505   208484   208465   208452   208449   208451 
  208458   208473   208494   208519   208547   208577   208600   208605 
  208598   208586   208573   208566   208563   208560   208556   208552 
  208549   208544   208538   208531   208522   208508   208487   208461 
  208433   208410   208400   208402   208410   208422   208434   208449 
  208468   208487   208506   208525   208543   208553   208553   208548 
  208540   208531   208523   208516   208511   208510   208513   208513 
  208505   208492   208481   208468   208453   208438   208422   208402 
  208385   208375   208371   208375   208384   208393   208406   208424 
  208446   208470   208498   208531   208561   208588   208618   208645 
  208665   208685   208695   208687   208668   208648   208623   208593 
  208559   208527   208505   208492   208482   208475   208472   208467 
  208458   208446   208435   208424   208416   208411   208412   208421 
  208429   208440   208456   208471   208479   208482   208479   208473 
  208467   208459   208450   208442   208433   208424   208412   208403 
  208401   208403   208409   208421   208436   208449   208454   208453 
  208450   208442   208430   208420   208415   208412   208414   208421 
  208427   208433   208442   208448   208449   208445   208440   208437 
  208442   208458   208480   208504   208532   208561   208586   208608 
  208623   208631   208634   208627   208615   208601   208581   208558 
  208538   208523   208512   208508   208510   208516   208527   208545 
  208566   208586   208602   208614   208618   208615   208601   208581 
  208561   208543   208532   208524   208521   208521   208519   208517 
  208518   208518   208520   208526   208526   208516   208497   208471 
  208447   208428   208408   208394   208391   208393   208398   208409 
  208420   208426   208429   208431   208425   208415   208405   208391 
  208375   208361   208353   208347   208343   208345   208349   208356 
  208366   208383   208404   208430   208458   208485   208510   208530 
  208544   208554   208564   208578   208596   208614   208635   208653 
  208665   208674   208681   208680   208671   208658   208641   208623 
  208609   208597   208584   208569   208557   208543   208530   208519 
  208511   208510   208515   208520   208529   208541   208546   208546 
  208539   208525   208510   208492   208473   208457   208444   208436 
  208435   208436   208439   208443   208446   208450   208454   208454 
  208449   208439   208428   208416   208403   208392   208387   208388 
  208392   208401   208412   208429   208452   208481   208507   208525 
  208546   208569   208587   208596   208596   208590   208580   208568 
  208559   208557   208555   208548   208538   208524   208514   208513 
  208512   208506   208502   208499   208498   208498   208502   208510 
  208520   208531   208537   208537   208532   208526   208521   208520 
  208518   208518   208522   208523   208519   208511   208497   208482 
  208470   208459   208445   208433   208425   208420   208424   208434 
  208445   208467   208494   208522   208556   208585   208606   208623 
  208630   208628   208626   208621   208606   208586   208568   208551 
  208535   208520   208502   208485   208466   208448   208436   208425 
  208416   208409   208398   208384   208375   208372   208376   208387 
  208399   208412   208427   208439   208449   208455   208456   208455 
  208454   208447   208438   208430   208423   208419   208417   208416 
  208419   208424   208426   208428   208436   208449   208465   208489 
  208513   208529   208543   208555   208564   208571   208568   208558 
  208551   208543   208530   208518   208512   208507   208507   208514 
  208524   208534   208537   208533   208524   208514   208500   208482 
  208459   208433   208405   208375   208346   208321   208301   208289 
  208291   208303   208322   208346   208369   208390   208409   208428 
  208449   208473   208499   208526   208550   208570   208588   208599 
  208605   208611   208610   208600   208589   208582   208576   208577 
  208585   208594   208608   208632   208662   208687   208711   208733 
  208750   208764   208778   208785   208785   208778   208762   208735 
  208700   208658   208617   208582   208550   208519   208489   208457 
  208429   208405   208377   208342   208307   208274   208248   208227 
  208216   208214   208216   208221   208233   208249   208274   208306 
  208342   208379   208413   208447   208484   208518   208548   208574 
  208593   208605   208616   208625   208632   208637   208640   208640 
  208640   208642   208643   208638   208631   208625   208617   208608 
  208600   208589   208574   208555   208532   208502   208471   208441 
  208412   208390   208370   208349   208337   208334   208336   208347 
  208360   208370   208380   208395   208412   208435   208462   208488 
  208510   208530   208545   208552   208559   208568   208570   208562 
  208548   208532   208516   208503   208491   208480   208472   208466 
  208465   208469   208472   208476   208483   208482   208479   208476 
  208467   208452   208435   208415   208395   208385   208385   208386 
  208387   208395   208403   208402   208402   208405   208412   208429 
  208449   208468   208490   208509   208527   208544   208554   208563 
  208571   208575   208575   208575   208573   208568   208561   208556 
  208552   208546   208540   208532   208522   208515   208513   208516 
  208524   208534   208548   208561   208571   208581   208590   208595 
  208598   208601   208600   208598   208593   208583   208567   208552 
  208540   208528   208520   208512   208496   208475   208458   208438 
  208420   208409   208403   208405   208412   208420   208434   208455 
  208480   208506   208531   208557   208584   208604   208617   208626 
  208634   208641   208645   208646   208644   208639   208630   208617 
  208599   208584   208573   208560   208545   208525   208497   208463 
  208429   208393   208356   208322   208295   208274   208257   208240 
  208225   208215   208210   208211   208218   208232   208251   208276 
  208304   208338   208372   208396   208417   208432   208436   208441 
  208447   208453   208460   208470   208484   208504   208525   208543 
  208559   208572   208581   208585   208586   208591   208595   208596 
  208599   208602   208603   208606   208605   208602   208601   208597 
  208595   208598   208596   208594   208593   208585   208570   208549 
  208526   208507   208498   208492   208489   208488   208485   208478 
  208475   208475   208477   208485   208498   208512   208526   208533 
  208534   208532   208527   208520   208510   208498   208489   208481 
  208472   208466   208461   208459   208461   208465   208468   208470 
  208473   208478   208484   208491   208497   208504   208513   208522 
  208524   208526   208528   208526   208526   208530   208536   208541 
  208545   208550   208553   208555   208561   208568   208574   208582 
  208589   208594   208588   208571   208545   208515   208484   208455 
  208426   208402   208385   208375   208372   208373   208381   208390 
  208396   208401   208409   208423   208439   208456   208478   208504 
  208531   208554   208573   208590   208603   208610   208613   208607 
  208597   208585   208570   208554   208540   208525   208506   208483 
  208459   208439   208423   208413   208408   208409   208411   208415 
  208419   208419   208416   208410   208405   208407   208413   208418 
  208423   208426   208426   208425   208426   208432   208443   208455 
  208468   208486   208506   208523   208537   208544   208541   208532 
  208520   208508   208494   208479   208468   208464   208461   208460 
  208462   208464   208469   208481   208495   208510   208534   208561 
  208587   208610   208631   208643   208645   208643   208637   208625 
  208613   208598   208579   208558   208541   208527   208513   208498 
  208484   208476   208474   208474   208476   208478   208478   208479 
  208481   208483   208488   208496   208503   208507   208509   208508 
  208512   208516   208517   208521   208528   208534   208538   208538 
  208535   208529   208521   208510   208500   208492   208487   208485 
  208479   208473   208473   208471   208465   208459   208455   208455 
  208455   208456   208459   208460   208461   208466   208468   208466 
  208468   208473   208473   208468   208457   208440   208422   208403 
  208386   208374   208366   208361   208363   208368   208377   208389 
  208403   208415   208429   208443   208457   208470   208481   208486 
  208485   208480   208471   208465   208458   208450   208443   208440 
  208436   208431   208429   208428   208424   208423   208426   208431 
  208441   208456   208473   208491   208508   208527   208548   208564 
  208578   208592   208600   208607   208611   208610   208612   208616 
  208619   208625   208632   208641   208650   208654   208655   208656 
  208652   208646   208641   208634   208627   208618   208605   208589 
  208571   208552   208538   208529   208520   208512   208500   208482 
  208466   208452   208443   208440   208441   208445   208451   208457 
  208464   208474   208481   208485   208487   208487   208484   208477 
  208470   208465   208459   208449   208440   208434   208432   208432 
  208431   208432   208440   208450   208463   208481   208500   208518 
  208535   208546   208557   208570   208580   208586   208589   208585 
  208576   208565   208552   208538   208519   208498   208478   208461 
  208445   208433   208425   208420   208418   208420   208424   208428 
  208434   208441   208447   208453   208465   208481   208497   208511 
  208520   208526   208531   208535   208535   208535   208536   208536 
  208533   208527   208519   208510   208501   208493   208481   208467 
  208456   208448   208443   208443   208446   208451   208458   208467 
  208480   208499   208521   208540   208553   208567   208582   208593 
  208604   208612   208615   208619   208622   208618   208611   208599 
