Origin Time       2025/03/29 04:45:00
Lat.              31.090
Long.             131.512
Depth. (km)       33
Mag.              4.6
Station Code      MYZH03
Station Lat.      32.4754
Station Long.     131.1043
Station Height(m) 319
Record Time       2025/03/29 04:46:03
Sampling Freq(Hz) 100Hz
Duration Time(s)  120
Dir.              1
Scale Factor      2942(gal)/8224139
Max. Acc. (gal)   0.101
Last Correction   2025/03/29 04:46:04
Memo.             
[...]
  140636   140630   140629   140629   140629   140637   140644   140652 
  140663   140667   140667   140664   140655   140644   140638   140636 
  140636   140643   140651   140655   140655   140656   140656   140656 
  140659   140661   140659   140653   140651   140645   140636   140630 
  140629   140625   140614   140605   140602   140598   140598   140603 
  140611   140620   140628   140636   140641   140644   140647   140652 
  140657   140661   140663   140661   140659   140652   140641   140629 
  140617   140606   140601   140599   140597   140603   140617   140628 
  140637   140648   140653   140655   140655   140653   140647   140641 
  140636   140630   140628   140628   140630   140634   140640   140638 
  140632   140629   140625   140618   140618   140620   140621   140628 
  140637   140645   140656   140659   140648   140638   140632   140625 
  140618   140613   140607   140610   140614   140618   140621   140625 
  140628   140633   140644   140655   140661   140667   140674   140679 
  140679   140678   140675   140671   140667   140664   140657   140652 
  140649   140648   140645   140647   140649   140649   140649   140649 
  140647   140647   140645   140643   140638   140638   140638   140641 
  140643   140641   140643   140644   140643   140643   140640   140634 
  140634   140633   140625   140617   140616   140614   140610   140610 
  140614   140618   140621   140625   140628   140633   140632   140628 
  140632   140640   140644   140647   140652   140659   140661   140664 
  140665   140667   140664   140661   140660   140657   140659   140664 
  140663   140656   140655   140651   140644   140645   140651   140655 
  140653   140649   140643   140637   140630   140628   140629   140629 
  140633   140636   140632   140625   140617   140606   140594   140586 
  140582   140579   140576   140580   140589   140594   140599   140605 
  140609   140611   140611   140611   140611   140613   140618   140626 
  140629   140633   140637   140637   140636   140638   140644   140655 
  140664   140668   140672   140679   140686   140692   140697   140694 
  140692   140692   140684   140676   140676   140675   140663   140651 
  140641   140633   140628   140621   140618   140617   140617   140617 
  140614   140609   140605   140606   140611   140617   140621   140622 
  140624   140626   140626   140624   140622   140624   140628   140634 
  140640   140643   140647   140645   140640   140640   140643   140640 
  140638   140643   140644   140645   140653   140661   140668   140671 
  140668   140664   140663   140657   140652   140648   140644   140640 
  140634   140629   140626   140628   140629   140628   140625   140621 
  140617   140617   140617   140618   140622   140628   140629   140625 
  140624   140622   140622   140626   140634   140640   140645   140648 
  140649   140649   140652   140653   140655   140657   140663   140661 
  140657   140655   140649   140641   140641   140649   140655   140656 
  140660   140663   140661   140661   140665   140665   140661   140657 
  140649   140640   140629   140622   140616   140610   140607   140609 
  140606   140599   140601   140607   140616   140620   140622   140625 
  140625   140618   140614   140611   140605   140598   140595   140595 
  140602   140609   140618   140632   140641   140644   140644   140643 
  140643   140644   140647   140652   140653   140653   140656   140656 
  140656   140661   140663   140663   140664   140664   140660   140651 
  140644   140640   140636   140633   140634   140636   140634   140629 
  140621   140617   140614   140607   140605   140609   140610   140610 
  140614   140617   140617   140620   140625   140625   140622   140621 
  140620   140618   140620   140622   140620   140616   140618   140628 
  140633   140634   140640   140647   140651   140653   140655   140657 
  140660   140663   140665   140667   140671   140672   140670   140670 
  140672   140670   140667   140671   140674   140675   140671   140659 
  140651   140641   140626   140617   140617   140614   140609   140611 
  140617   140617   140618   140622   140625   140622   140618   140616 
  140611   140607   140605   140606   140607   140609   140614   140618 
  140625   140636   140644   140651   140656   140659   140664   140668 
  140668   140671   140675   140671   140661   140655   140651   140644 
  140640   140641   140643   140647   140651   140653   140659   140664 
  140661   140655   140653   140649   140644   140637   140629   140625 
  140620   140610   140606   140606   140606   140607   140609   140605 
  140603   140606   140610   140620   140632   140638   140644   140645 
  140644   140641   140640   140644   140645   140647   140653   140661 
  140668   140674   140678   140679   140680   140678   140671   140663 
  140661   140661   140656   140655   140655   140651   140651   140653 
  140653   140655   140657   140657   140656   140656   140655   140649 
  140645   140638   140628   140617   140607   140601   140595   140590 
  140591   140594   140597   140605   140611   140610   140606   140603 
  140602   140602   140601   140601   140602   140602   140599   140601 
  140605   140611   140620   140626   140633   140640   140644   140649 
  140652   140655   140659   140660   140656   140653   140651   140647 
  140645   140644   140645   140644   140644   140648   140653   140659 
  140665   140671   140674   140674   140674   140671   140668   140661 
  140653   140647   140640   140633   140628   140625   140622   140621 
  140617   140617   140620   140622   140622   140621   140621   140624 
  140629   140636   140638   140634   140633   140636   140633   140629 
  140626   140621   140618   140618   140618   140620   140622   140625 
  140624   140626   140629   140626   140629   140632   140628   140629 
  140633   140632   140634   140638   140641   140644   140651   140656 
  140656   140648   140641   140641   140641   140637   140634   140638 
  140643   140649   140653   140653   140657   140661   140661   140664 
  140671   140672   140670   140667   140663   140656   140647   140644 
  140643   140638   140638   140640   140637   140640   140643   140640 
  140644   140649   140651   140652   140652   140643   140629   140617 
  140606   140599   140594   140590   140587   140583   140578   140575 
  140579   140583   140587   140597   140609   140624   140638   140653 
  140661   140663   140660   140659   140659   140657   140657   140659 
  140657   140655   140653   140660   140670   140676   140682   140688 
  140694   140691   140686   140686   140688   140684   140680   140680 
  140675   140670   140661   140652   140645   140638   140629   140624 
  140622   140620   140617   140613   140610   140607   140609   140609 
  140606   140606   140609   140610   140611   140613   140614   140616 
  140617   140618   140620   140620   140617   140613   140610   140616 
  140622   140624   140622   140622   140626   140632   140634   140640 
  140643   140645   140653   140660   140665   140667   140664   140659 
  140656   140652   140651   140653   140652   140649   140651   140649 
  140651   140655   140655   140652   140652   140649   140645   140643 
  140640   140638   140640   140640   140634   140630   140630   140628 
  140629   140634   140633   140626   140625   140625   140622   140621 
  140618   140617   140616   140614   140616   140617   140620   140622 
  140625   140626   140630   140638   140647   140655   140663   140674 
  140682   140687   140688   140690   140686   140678   140663   140648 
  140636   140625   140617   140616   140617   140617   140620   140622 
  140625   140626   140624   140621   140621   140621   140614   140607 
  140601   140595   140593   140591   140590   140589   140586   140587 
  140595   140598   140601   140607   140614   140622   140628   140628 
  140632   140638   140638   140637   140637   140637   140637   140640 
  140641   140638   140640   140644   140641   140634   140634   140637 
  140641   140649   140659   140664   140663   140660   140652   140638 
  140624   140609   140599   140598   140598   140605   140618   140628 
  140637   140651   140656   140653   140651   140652   140652   140653 
  140661   140674   140683   140686   140683   140682   140680   140676 
  140672   140668   140668   140670   140668   140663   140655   140649 
  140649   140648   140647   140651   140653   140655   140657   140657 
  140655   140652   140647   140643   140645   140648   140649   140651 
  140651   140652   140652   140647   140641   140648   140659   140667 
  140668   140667   140663   140653   140637   140621   140613   140607 
  140603   140606   140610   140617   140628   140637   140644   140648 
  140649   140649   140645   140637   140629   140624   140618   140614 
  140614   140620   140621   140617   140614   140613   140607   140605 
  140605   140605   140606   140610   140613   140614   140611   140607 
  140607   140611   140609   140611   140618   140622   140629   140640 
  140645   140644   140638   140636   140637   140641   140648   140655 
  140659   140660   140665   140674   140676   140675   140674   140672 
  140670   140664   140659   140655   140653   140648   140644   140647 
  140651   140652   140652   140657   140660   140660   140667   140672 
  140672   140670   140667   140664   140661   140660   140656   140648 
  140640   140640   140644   140651   140659   140660   140655   140645 
  140633   140618   140601   140586   140578   140576   140578   140586 
  140603   140625   140643   140655   140665   140675   140675   140667 
  140659   140653   140645   140637   140634   140636   140636   140636 
  140637   140640   140638   140633   140625   140614   140601   140587 
  140572   140566   140568   140575   140584   140593   140607   140622 
  140633   140643   140649   140655   140655   140647   140636   140625 
  140614   140605   140598   140599   140602   140609   140616   140620 
  140621   140620   140620   140621   140622   140618   140607   140591 
  140580   140574   140567   140567   140572   140578   140583   140590 
  140598   140609   140618   140632   140648   140660   140674   140686 
  140698   140710   140719   140726   140734   140745   140753   140757 
  140757   140748   140729   140705   140683   140663   140643   140625 
  140616   140609   140607   140614   140626   140638   140655   140671 
  140683   140690   140691   140691   140690   140688   140686   140686 
  140686   140687   140687   140690   140694   140695   140692   140686 
  140675   140663   140648   140630   140614   140599   140589   140580 
  140572   140562   140557   140560   140566   140574   140583   140591 
  140599   140606   140613   140621   140628   140630   140628   140625 
  140617   140597   140574   140552   140532   140524   140526   140530 
  140539   140553   140571   140587   140602   140618   140633   140640 
  140644   140651   140657   140661   140663   140665   140665   140660 
  140655   140647   140638   140632   140625   140625   140630   140634 
  140637   140640   140638   140634   140626   140616   140610   140602 
  140593   140591   140595   140599   140606   140611   140618   140632 
  140645   140655   140667   140683   140697   140705   140710   140714 
  140713   140709   140705   140705   140707   140711   140718   140725 
  140726   140722   140722   140724   140717   140717   140722   140719 
  140717   140719   140714   140706   140699   140690   140684   140680 
  140676   140675   140674   140667   140659   140649   140638   140624 
  140611   140602   140593   140584   140580   140574   140566   140566 
  140562   140555   140553   140556   140563   140571   140578   140586 
  140602   140620   140632   140644   140655   140660   140661   140657 
  140647   140636   140628   140621   140616   140621   140630   140636 
  140644   140655   140663   140672   140680   140682   140683   140684 
  140684   140684   140684   140679   140671   140664   140659   140651 
  140638   140626   140617   140606   140601   140601   140605   140607 
  140611   140616   140617   140617   140610   140602   140595   140590 
  140590   140597   140603   140610   140616   140613   140609   140605 
  140587   140567   140547   140524   140506   140494   140486   140478 
  140475   140474   140474   140476   140483   140495   140512   140530 
  140548   140568   140591   140617   140641   140660   140674   140684 
  140688   140686   140680   140672   140664   140661   140656   140647 
  140645   140652   140660   140667   140672   140682   140694   140705 
  140714   140719   140717   140715   140714   140711   140710   140710 
  140710   140711   140711   140711   140710   140702   140688   140675 
  140667   140667   140668   140670   140679   140688   140686   140680 
  140680   140676   140667   140659   140649   140641   140638   140634 
  140629   140625   140618   140613   140613   140616   140620   140626 
  140630   140632   140632   140630   140622   140609   140597   140589 
  140583   140590   140603   140611   140618   140621   140625   140628 
  140624   140625   140629   140632   140636   140645   140656   140670 
  140688   140710   140734   140760   140783   140803   140823   140838 
  140845   140849   140850   140844   140837   140829   140818   140807 
  140795   140783   140772   140757   140741   140730   140715   140697 
  140679   140663   140648   140638   140628   140613   140602   140589 
  140570   140549   140530   140510   140490   140467   140448   140432 
  140413   140395   140381   140367   140359   140356   140356   140356 
  140362   140371   140386   140405   140429   140462   140493   140522 
  140552   140578   140595   140614   140634   140657   140674   140686 
  140695   140702   140710   140718   140725   140732   140737   140738 
  140736   140729   140717   140705   140691   140674   140659   140647 
  140629   140613   140601   140590   140579   140574   140568   140563 
  140566   140578   140593   140607   140620   140626   140636   140643 
  140648   140659   140664   140665   140667   140665   140660   140655 
  140645   140636   140630   140633   140637   140644   140660   140680 
  140695   140711   140733   140755   140769   140786   140803   140818 
  140827   140838   140845   140838   140829   140823   140811   140792 
  140778   140764   140752   140740   140722   140705   140688   140671 
  140652   140636   140622   140607   140597   140583   140568   140548 
  140528   140510   140495   140485   140481   140479   140481   140491 
  140501   140505   140512   140520   140521   140517   140512   140509 
  140506   140505   140508   140513   140517   140521   140530   140541 
  140549   140562   140580   140595   140602   140614   140630   140645 
  140661   140680   140701   140724   140744   140761   140780   140794 
  140806   140818   140821   140817   140809   140796   140784   140776 
  140765   140752   140741   140729   140713   140692   140671   140647 
  140622   140602   140589   140575   140566   140564   140562   140557 
  140555   140552   140547   140544   140540   140539   140541   140544 
  140545   140552   140560   140568   140583   140603   140624   140643 
  140663   140682   140699   140710   140717   140722   140726   140729 
  140728   140725   140725   140725   140721   140719   140719   140718 
  140714   140714   140714   140713   140706   140699   140695   140686 
  140668   140649   140628   140607   140589   140572   140557   140544 
  140537   140535   140535   140541   140548   140555   140566   140574 
  140576   140583   140591   140599   140610   140622   140630   140640 
  140645   140648   140655   140657   140655   140655   140655   140643 
  140632   140625   140616   140607   140599   140591   140586   140586 
  140589   140590   140593   140598   140605   140611   140617   140624 
  140632   140638   140652   140665   140679   140695   140709   140711 
  140710   140711   140707   140699   140695   140694   140692   140691 
  140691   140695   140699   140705   140709   140707   140706   140707 
  140705   140695   140688   140683   140676   140670   140668   140667 
  140661   140659   140659   140652   140641   140632   140624   140613 
  140605   140595   140582   140572   140568   140564   140557   140551 
  140543   140530   140520   140513   140506   140501   140498   140497 
  140498   140502   140506   140513   140521   140526   140533   140544 
  140553   140556   140564   140578   140586   140598   140616   140630 
  140645   140661   140674   140682   140690   140692   140694   140690 
  140682   140672   140667   140663   140655   140652   140656   140661 
  140665   140676   140690   140699   140710   140724   140729   140730 
  140741   140752   140756   140763   140771   140771   140768   140764 
  140759   140752   140742   140732   140721   140709   140694   140680 
  140667   140652   140638   140624   140613   140606   140599   140594 
  140591   140591   140593   140595   140598   140603   140606   140605 
  140605   140607   140610   140611   140613   140611   140610   140611 
  140616   140617   140618   140621   140621   140622   140624   140628 
  140632   140636   140641   140648   140653   140663   140671   140679 
  140686   140688   140686   140684   140680   140671   140660   140651 
  140638   140624   140609   140597   140584   140574   140568   140562 
  140549   140539   140533   140529   140524   140522   140526   140536 
  140547   140557   140574   140593   140609   140622   140633   140638 
  140644   140649   140651   140653   140653   140653   140659   140667 
  140672   140680   140688   140697   140705   140710   140710   140707 
  140705   140703   140703   140703   140705   140707   140713   140714 
  140711   140709   140702   140695   140690   140682   140668   140657 
  140649   140644   140641   140643   140643   140644   140643   140636 
  140630   140628   140618   140609   140603   140598   140587   140579 
  140571   140556   140543   140536   140530   140522   140521   140525 
  140528   140535   140545   140559   140572   140584   140597   140611 
  140622   140630   140636   140643   140648   140649   140653   140660 
  140664   140668   140672   140678   140683   140686   140692   140699 
  140702   140705   140707   140706   140702   140698   140695   140691 
  140686   140680   140675   140674   140675   140675   140676   140676 
  140676   140678   140678   140672   140667   140663   140656   140647 
  140640   140633   140625   140616   140610   140603   140595   140593 
  140591   140587   140586   140591   140595   140601   140609   140618 
  140625   140633   140641   140644   140643   140643   140640   140637 
  140634   140630   140626   140622   140614   140607   140601   140593 
  140582   140574   140568   140563   140562   140560   140560   140566 
  140574   140579   140586   140595   140601   140606   140611   140617 
  140621   140624   140626   140628   140630   140634   140640   140644 
  140643   140641   140643   140644   140644   140645   140651   140655 
  140656   140660   140665   140664   140667   140674   140679   140680 
  140682   140682   140684   140686   140684   140686   140687   140682 
  140678   140675   140671   140671   140668   140663   140659   140655 
  140648   140643   140638   140636   140634   140633   140632   140630 
  140624   140621   140622   140620   140613   140614   140616   140614 
