Origin Time       2025/03/29 04:45:00
Lat.              31.090
Long.             131.512
Depth. (km)       33
Mag.              4.6
Station Code      MYZH10
Station Lat.      32.0215
Station Long.     131.2900
Station Height(m) 80
Record Time       2025/03/29 04:45:49
Sampling Freq(Hz) 100Hz
Duration Time(s)  120
Dir.              4
Scale Factor      3920(gal)/6170801
Max. Acc. (gal)   0.470
Last Correction   2025/03/29 04:45:34
Memo.             
[...]
  -10734   -10732   -10674   -10598   -10535   -10509   -10516   -10529 
  -10523   -10487   -10437   -10402   -10403   -10445   -10502   -10534 
  -10518   -10454   -10380   -10356   -10408   -10516   -10634   -10706 
  -10697   -10617   -10507   -10422   -10396   -10429   -10492   -10544 
  -10551   -10507   -10449   -10433   -10491   -10603   -10717   -10773 
  -10733   -10615   -10488   -10416   -10436   -10538   -10651   -10701 
  -10657   -10541   -10411   -10336   -10344   -10420   -10512   -10558 
  -10524   -10427   -10324   -10274   -10297   -10368   -10436   -10462 
  -10436   -10384   -10353   -10381   -10483   -10623   -10750   -10818 
  -10811   -10756   -10690   -10648   -10648   -10676   -10693   -10669 
  -10598   -10508   -10435   -10403   -10409   -10427   -10435   -10425 
  -10399   -10385   -10411   -10475   -10561   -10633   -10651   -10597 
  -10489   -10368   -10285   -10284   -10371   -10506   -10633   -10700 
  -10684   -10598   -10495   -10435   -10447   -10524   -10629   -10714 
  -10746   -10711   -10628   -10536   -10466   -10429   -10418   -10411 
  -10404   -10399   -10402   -10426   -10472   -10525   -10566   -10575 
  -10540   -10468   -10393   -10355   -10371   -10436   -10531   -10629 
  -10696   -10714   -10688   -10634   -10582   -10555   -10552   -10561 
  -10569   -10564   -10539   -10499   -10456   -10419   -10402   -10415 
  -10455   -10491   -10498   -10469   -10417   -10370   -10367   -10419 
  -10506   -10599   -10665   -10689   -10674   -10631   -10578   -10531 
  -10503   -10494   -10491   -10478   -10447   -10403   -10368   -10366 
  -10408   -10474   -10532   -10555   -10546   -10531   -10536   -10570 
  -10618   -10645   -10634   -10598   -10557   -10533   -10544   -10584 
  -10631   -10664   -10657   -10609   -10538   -10460   -10392   -10359 
  -10365   -10394   -10430   -10459   -10483   -10510   -10537   -10557 
  -10570   -10572   -10566   -10557   -10545   -10535   -10528   -10519 
  -10509   -10502   -10498   -10496   -10503   -10514   -10522   -10530 
  -10539   -10542   -10532   -10504   -10465   -10434   -10429   -10460 
  -10522   -10588   -10627   -10614   -10558   -10494   -10458   -10473 
  -10534   -10608   -10647   -10626   -10552   -10457   -10387   -10372 
  -10403   -10449   -10466   -10436   -10375   -10329   -10347   -10442 
  -10589   -10729   -10800   -10773   -10667   -10542   -10460   -10449 
  -10492   -10550   -10582   -10573   -10534   -10501   -10506   -10560 
  -10635   -10687   -10680   -10611   -10506   -10409   -10359   -10373 
  -10433   -10494   -10511   -10465   -10375   -10292   -10261   -10306 
  -10418   -10558   -10683   -10757   -10763   -10718   -10664   -10627 
  -10611   -10604   -10592   -10576   -10557   -10529   -10514   -10534 
  -10579   -10627   -10658   -10649   -10595   -10510   -10414   -10331 
  -10279   -10262   -10273   -10301   -10337   -10373   -10404   -10430 
  -10455   -10485   -10518   -10540   -10548   -10558   -10588   -10643 
  -10716   -10777   -10796   -10757   -10668   -10544   -10418   -10329 
  -10294   -10304   -10343   -10390   -10429   -10462   -10501   -10550 
  -10604   -10651   -10671   -10651   -10598   -10529   -10473   -10456 
  -10480   -10532   -10593   -10634   -10637   -10601   -10539   -10472 
  -10424   -10409   -10422   -10447   -10476   -10506   -10538   -10573 
  -10601   -10612   -10591   -10538   -10470   -10405   -10368   -10372 
  -10406   -10445   -10477   -10498   -10510   -10526   -10553   -10587 
  -10614   -10622   -10602   -10563   -10530   -10520   -10531   -10549 
  -10552   -10523   -10463   -10398   -10362   -10377   -10434   -10499 
  -10542   -10549   -10527   -10502   -10501   -10538   -10606   -10678 
  -10716   -10710   -10659   -10577   -10492   -10427   -10387   -10364 
  -10349   -10343   -10355   -10394   -10461   -10549   -10629   -10675 
  -10680   -10644   -10583   -10531   -10507   -10515   -10547   -10578 
  -10579   -10547   -10493   -10430   -10381   -10361   -10373   -10402 
  -10431   -10456   -10471   -10478   -10487   -10508   -10550   -10611 
  -10674   -10719   -10725   -10688   -10625   -10556   -10502   -10473 
  -10466   -10475   -10495   -10510   -10513   -10511   -10522   -10550 
  -10587   -10626   -10657   -10671   -10665   -10648   -10622   -10585 
  -10538   -10482   -10415   -10348   -10298   -10285   -10322   -10395 
  -10477   -10539   -10560   -10543   -10515   -10503   -10515   -10545 
  -10574   -10578   -10559   -10537   -10525   -10531   -10557   -10593 
  -10614   -10597   -10541   -10463   -10390   -10356   -10367   -10405 
  -10447   -10473   -10482   -10487   -10501   -10545   -10615   -10681 
  -10714   -10693   -10611   -10491   -10377   -10304   -10300   -10356 
  -10428   -10473   -10476   -10451   -10429   -10444   -10505   -10599 
  -10687   -10728   -10714   -10661   -10588   -10526   -10503   -10520 
  -10562   -10601   -10604   -10564   -10517   -10486   -10482   -10512 
  -10558   -10590   -10602   -10596   -10576   -10554   -10540   -10530 
  -10514   -10494   -10474   -10460   -10457   -10470   -10498   -10532 
  -10546   -10532   -10494   -10437   -10366   -10299   -10252   -10232 
  -10248   -10303   -10385   -10473   -10549   -10606   -10637   -10647 
  -10653   -10668   -10683   -10689   -10683   -10672   -10663   -10657 
  -10654   -10659   -10669   -10669   -10645   -10584   -10496   -10412 
  -10348   -10316   -10325   -10367   -10422   -10476   -10518   -10550 
  -10565   -10565   -10567   -10578   -10593   -10604   -10601   -10579 
  -10541   -10499   -10464   -10445   -10440   -10442   -10451   -10470 
  -10502   -10539   -10567   -10579   -10570   -10535   -10489   -10452 
  -10429   -10428   -10454   -10497   -10538   -10562   -10564   -10553 
  -10542   -10541   -10545   -10532   -10500   -10454   -10408   -10384 
  -10394   -10437   -10497   -10545   -10559   -10529   -10463   -10390 
  -10343   -10342   -10379   -10435   -10488   -10534   -10579   -10622 
  -10655   -10681   -10692   -10676   -10639   -10589   -10540   -10509 
  -10504   -10516   -10527   -10520   -10493   -10459   -10430   -10415 
  -10420   -10439   -10457   -10467   -10475   -10496   -10536   -10588 
  -10636   -10667   -10672   -10656   -10628   -10601   -10591   -10594 
  -10592   -10570   -10527   -10468   -10415   -10392   -10412   -10471 
  -10541   -10592   -10599   -10562   -10501   -10441   -10408   -10413 
  -10450   -10498   -10545   -10588   -10621   -10648   -10665   -10662 
  -10641   -10605   -10554   -10499   -10453   -10429   -10425   -10430 
  -10435   -10434   -10419   -10392   -10365   -10356   -10367   -10397 
  -10446   -10505   -10565   -10616   -10649   -10664   -10659   -10631 
  -10584   -10532   -10489   -10459   -10445   -10441   -10449   -10471 
  -10502   -10535   -10565   -10585   -10599   -10608   -10601   -10576 
  -10545   -10515   -10493   -10478   -10462   -10450   -10449   -10459 
  -10481   -10511   -10540   -10564   -10579   -10583   -10576   -10562 
  -10537   -10506   -10480   -10465   -10465   -10477   -10498   -10530 
  -10567   -10593   -10600   -10592   -10577   -10563   -10558   -10564 
  -10571   -10577   -10582   -10581   -10567   -10550   -10528   -10492 
  -10453   -10433   -10442   -10478   -10528   -10568   -10585   -10577 
  -10540   -10482   -10427   -10389   -10376   -10388   -10411   -10440 
  -10467   -10484   -10491   -10498   -10503   -10501   -10491   -10472 
  -10452   -10441   -10445   -10465   -10499   -10545   -10584   -10593 
  -10565   -10524   -10491   -10476   -10485   -10517   -10559   -10589 
  -10595   -10579   -10548   -10516   -10490   -10464   -10441   -10425 
  -10415   -10416   -10429   -10448   -10471   -10496   -10524   -10551 
  -10570   -10582   -10589   -10594   -10599   -10600   -10595   -10587 
  -10582   -10589   -10608   -10625   -10627   -10613   -10581   -10541 
  -10510   -10495   -10492   -10500   -10512   -10520   -10517   -10519 
  -10536   -10559   -10578   -10590   -10576   -10544   -10510   -10486 
  -10485   -10505   -10535   -10564   -10590   -10608   -10615   -10607 
  -10598   -10595   -10592   -10583   -10571   -10562   -10560   -10567 
  -10577   -10579   -10569   -10551   -10522   -10483   -10443   -10410 
  -10390   -10388   -10401   -10426   -10453   -10470   -10470   -10455 
  -10428   -10403   -10388   -10384   -10397   -10421   -10448   -10477 
  -10497   -10505   -10509   -10513   -10527   -10560   -10610   -10669 
  -10732   -10785   -10812   -10804   -10759   -10691   -10622   -10565 
  -10530   -10522   -10530   -10528   -10508   -10465   -10404   -10349 
  -10321   -10327   -10364   -10413   -10451   -10460   -10436   -10388 
  -10325   -10265   -10228   -10220   -10237   -10273   -10312   -10346 
  -10379   -10421   -10482   -10569   -10675   -10769   -10816   -10800 
  -10732   -10641   -10554   -10493   -10476   -10494   -10527   -10550 
  -10542   -10504   -10453   -10414   -10403   -10422   -10451   -10460 
  -10433   -10385   -10345   -10351   -10418   -10525   -10635   -10709 
  -10728   -10703   -10659   -10620   -10589   -10553   -10504   -10437 
  -10363   -10298   -10270   -10303   -10387   -10494   -10596   -10661 
  -10679   -10665   -10644   -10633   -10632   -10626   -10600   -10555 
  -10515   -10512   -10567   -10673   -10796   -10895   -10936   -10902 
  -10806   -10684   -10566   -10467   -10383   -10300   -10209   -10122 
  -10068   -10065   -10128   -10260   -10426   -10574   -10670   -10708 
  -10705   -10688   -10678   -10681   -10684   -10670   -10617   -10533 
  -10449   -10398   -10403   -10469   -10570   -10667   -10740   -10787 
  -10809   -10817   -10820   -10808   -10768   -10686   -10558   -10400 
  -10249   -10147   -10124   -10176   -10278   -10398   -10500   -10562 
  -10592   -10602   -10607   -10607   -10587   -10545   -10492   -10448 
  -10438   -10470   -10531   -10592   -10624   -10608   -10547   -10469 
  -10399   -10358   -10369   -10419   -10474   -10509   -10518   -10503 
  -10495   -10519   -10575   -10647   -10707   -10727   -10700   -10638 
  -10568   -10508   -10455   -10404   -10352   -10286   -10211   -10138 
  -10075   -10033   -10024   -10052   -10116   -10207   -10317   -10441 
  -10571   -10694   -10796   -10871   -10911   -10910   -10882   -10843 
  -10800   -10757   -10711   -10661   -10614   -10576   -10554   -10557 
  -10577   -10597   -10602   -10568   -10482   -10361   -10233   -10124 
  -10070   -10092   -10182   -10308   -10441   -10551   -10622   -10654 
  -10659   -10650   -10628   -10594   -10552   -10503   -10460   -10451 
  -10475   -10519   -10566   -10592   -10582   -10546   -10500   -10463 
  -10454   -10482   -10535   -10588   -10625   -10642   -10643   -10647 
  -10658   -10670   -10674   -10656   -10606   -10540   -10480   -10449 
  -10464   -10523   -10620   -10736   -10842   -10915   -10948   -10936 
  -10888   -10813   -10715   -10601   -10487   -10376   -10270   -10182 
  -10123   -10093   -10094   -10129   -10192   -10273   -10365   -10451 
  -10516   -10561   -10572   -10548   -10500   -10435   -10368   -10320 
  -10301   -10309   -10330   -10350   -10362   -10365   -10368   -10385 
  -10424   -10484   -10553   -10612   -10637   -10615   -10551   -10466 
  -10386   -10336   -10325   -10352   -10405   -10476   -10554   -10629 
  -10693   -10744   -10776   -10790   -10792   -10774   -10732   -10666 
  -10578   -10486   -10415   -10378   -10374   -10395   -10442   -10511 
  -10599   -10697   -10793   -10874   -10925   -10933   -10892   -10808 
  -10705   -10601   -10522   -10488   -10499   -10535   -10571   -10588 
  -10576   -10554   -10549   -10576   -10640   -10726   -10788   -10786 
  -10713   -10576   -10405   -10246   -10139   -10086   -10079   -10104 
  -10139   -10184   -10248   -10340   -10468   -10622   -10766   -10865 
  -10906   -10885   -10820   -10748   -10696   -10671   -10664   -10648 
  -10599   -10508   -10387   -10254   -10130   -10028    -9949    -9893 
   -9861    -9861    -9904    -9986   -10108   -10265   -10433   -10581 
  -10694   -10771   -10828   -10889   -10969   -11058   -11138   -11192 
  -11207   -11177   -11101   -10992   -10862   -10716   -10572   -10449 
  -10356   -10293   -10254   -10226   -10200   -10176   -10160   -10162 
  -10185   -10224   -10267   -10304   -10334   -10354   -10368   -10398 
  -10461   -10561   -10690   -10825   -10946   -11036   -11085   -11091 
  -11054   -10971   -10852   -10702   -10527   -10348   -10191   -10082 
  -10041   -10073   -10169   -10302   -10436   -10549   -10627   -10670 
  -10684   -10667   -10624   -10567   -10505   -10443   -10386   -10335 
  -10287   -10243   -10199   -10151   -10098   -10042    -9992    -9953 
   -9922    -9908    -9916    -9941    -9990   -10078   -10211   -10386 
  -10585   -10771   -10917   -11008   -11048   -11052   -11034   -11015 
  -11002   -10995   -10993   -10988   -10973   -10953   -10929   -10905 
  -10879   -10836   -10772   -10701   -10640   -10608   -10616   -10655 
  -10701   -10730   -10730   -10703   -10666   -10647   -10662   -10699 
  -10731   -10728   -10678   -10585   -10463   -10341   -10240   -10161 
  -10094   -10026    -9954    -9886    -9839    -9839    -9895    -9987 
  -10080   -10142   -10165   -10170   -10188   -10245   -10345   -10474 
  -10608   -10722   -10797   -10852   -10915   -10995   -11083   -11158 
  -11197   -11182   -11109   -10995   -10855   -10720   -10618   -10548 
  -10503   -10475   -10460   -10461   -10483   -10521   -10562   -10591 
  -10599   -10580   -10540   -10491   -10445   -10410   -10383   -10352 
  -10301   -10222   -10117    -9998    -9888    -9809    -9778    -9799 
   -9870    -9980   -10112   -10248   -10371   -10464   -10517   -10531 
  -10516   -10482   -10440   -10407   -10392   -10386   -10382   -10381 
  -10380   -10382   -10389   -10399   -10408   -10422   -10438   -10460 
  -10501   -10566   -10662   -10784   -10906   -11005   -11069   -11089 
  -11070   -11028   -10980   -10942   -10914   -10881   -10840   -10797 
  -10760   -10740   -10735   -10731   -10719   -10693   -10646   -10585 
  -10524   -10483   -10479   -10509   -10570   -10650   -10724   -10777 
  -10797   -10788   -10769   -10747   -10718   -10680   -10634   -10580 
  -10521   -10466   -10425   -10403   -10407   -10430   -10458   -10486 
  -10502   -10503   -10505   -10512   -10523   -10534   -10548   -10563 
  -10567   -10553   -10536   -10529   -10537   -10553   -10569   -10576 
  -10571   -10555   -10534   -10512   -10492   -10477   -10457   -10422 
  -10365   -10290   -10214   -10158   -10132   -10138   -10172   -10224 
  -10267   -10279   -10253   -10199   -10132   -10070   -10026   -10007 
  -10012   -10032   -10060   -10110   -10197   -10321   -10474   -10635 
  -10774   -10871   -10921   -10924   -10894   -10855   -10824   -10803 
  -10783   -10757   -10716   -10665   -10629   -10626   -10656   -10708 
  -10764   -10792   -10768   -10691   -10580   -10463   -10366   -10304 
  -10276   -10272   -10282   -10293   -10305   -10330   -10377   -10446 
  -10525   -10594   -10643   -10668   -10665   -10643   -10619   -10596 
  -10569   -10534   -10499   -10478   -10481   -10511   -10558   -10614 
  -10663   -10691   -10693   -10672   -10629   -10568   -10493   -10420 
  -10358   -10315   -10300   -10314   -10359   -10430   -10509   -10580 
  -10630   -10653   -10654   -10641   -10623   -10608   -10595   -10577 
  -10560   -10546   -10534   -10532   -10547   -10575   -10608   -10630 
  -10633   -10615   -10574   -10528   -10495   -10479   -10483   -10506 
  -10536   -10563   -10583   -10600   -10611   -10610   -10593   -10556 
  -10500   -10426   -10334   -10232   -10135   -10066   -10036   -10043 
  -10083   -10147   -10227   -10315   -10405   -10489   -10562   -10626 
  -10686   -10753   -10830   -10912   -10996   -11072   -11129   -11157 
  -11146   -11094   -11002   -10874   -10719   -10552   -10397   -10277 
  -10202   -10171   -10183   -10235   -10308   -10383   -10460   -10530 
  -10580   -10608   -10614   -10593   -10546   -10485   -10424   -10372 
  -10336   -10320   -10326   -10349   -10381   -10415   -10442   -10462 
  -10484   -10494   -10487   -10478   -10465   -10445   -10427   -10414 
  -10403   -10401   -10416   -10437   -10457   -10474   -10479   -10476 
  -10477   -10482   -10484   -10484   -10481   -10464   -10427   -10371 
  -10306   -10246   -10203   -10185   -10200   -10239   -10293   -10354 
  -10423   -10511   -10617   -10729   -10836   -10922   -10974   -10988 
  -10963   -10907   -10842   -10790   -10745   -10699   -10647   -10587 
  -10530   -10491   -10479   -10489   -10520   -10564   -10613   -10659 
  -10702   -10753   -10827   -10912   -10992   -11052   -11076   -11060 
  -11021   -10976   -10939   -10910   -10871   -10805   -10707   -10580 
  -10436   -10305   -10213   -10164   -10152   -10154   -10146   -10129 
  -10116   -10119   -10149   -10208   -10278   -10333   -10356   -10345 
  -10320   -10308   -10325   -10368   -10416   -10446   -10449   -10423 
  -10379   -10345   -10334   -10350   -10382   -10404   -10398   -10368 
  -10331   -10311   -10322   -10362   -10419   -10476   -10523   -10556 
  -10577   -10595   -10608   -10610   -10599   -10569   -10516   -10456 
  -10402   -10366   -10364   -10394   -10438   -10483   -10527   -10573 
  -10620   -10657   -10674   -10658   -10602   -10510   -10399   -10292 
  -10207   -10155   -10142   -10165   -10210   -10266   -10326   -10396 
  -10477   -10565   -10656   -10744   -10816   -10857   -10864   -10845 
  -10808   -10768   -10736   -10709   -10685   -10653   -10609   -10558 
  -10501   -10443   -10397   -10367   -10360   -10382   -10421   -10461 
  -10498   -10530   -10559   -10591   -10613   -10617   -10598   -10554 
  -10498   -10445   -10410   -10408   -10438   -10487   -10542   -10588 
  -10621   -10646   -10670   -10696   -10725   -10753   -10771   -10782 
  -10785   -10780   -10779   -10793   -10821   -10850   -10865   -10860 
  -10834   -10789   -10735   -10684   -10636   -10599   -10576   -10551 
  -10523   -10497   -10477   -10466   -10461   -10463   -10465   -10456 
  -10432   -10395   -10360   -10341   -10342   -10367   -10407   -10442 
  -10454   -10441   -10409   -10373   -10350   -10352   -10374   -10408 
  -10433   -10440   -10437   -10439   -10455   -10490   -10538   -10586 
  -10623   -10640   -10633   -10612   -10596   -10586   -10581   -10575 
  -10558   -10521   -10466   -10416   -10390   -10397   -10437   -10497 
  -10556   -10595   -10598   -10565   -10502   -10424   -10352   -10292 
  -10236   -10175   -10107   -10039    -9989    -9966    -9978   -10033 
  -10121   -10221   -10320   -10409   -10486   -10560   -10630   -10689 
  -10746   -10798   -10835   -10854   -10851   -10827   -10793   -10756 
  -10713   -10660   -10606   -10558   -10518   -10488   -10469   -10456 
  -10439   -10414   -10378   -10334   -10292   -10263   -10251   -10249 
  -10251   -10253   -10262   -10284   -10320   -10374   -10451   -10542 
  -10635   -10724   -10805   -10876   -10938   -10992   -11033   -11051 
  -11033   -10977   -10891   -10793   -10707   -10648   -10616   -10606 
  -10612   -10624   -10632   -10633   -10632   -10633   -10627   -10613 
  -10587   -10547   -10504   -10458   -10413   -10383   -10366   -10350 
  -10333   -10311   -10293   -10292   -10311   -10346   -10385   -10415 
  -10433   -10441   -10451   -10473   -10506   -10552   -10599   -10619 
  -10602   -10555   -10497   -10449   -10416   -10396   -10385   -10377 
