Origin Time       2025/03/29 04:45:00
Lat.              31.090
Long.             131.512
Depth. (km)       33
Mag.              4.6
Station Code      MYZH03
Station Lat.      32.4754
Station Long.     131.1043
Station Height(m) 519
Record Time       2025/03/29 04:46:03
Sampling Freq(Hz) 100Hz
Duration Time(s)  120
Dir.              4
Scale Factor      7845(gal)/8223790
Max. Acc. (gal)   0.191
Last Correction   2025/03/29 04:46:04
Memo.             
[...]
  -11183   -11168   -11173   -11213   -11250   -11249   -11223   -11210 
  -11219   -11226   -11210   -11173   -11151   -11156   -11167   -11156 
  -11140   -11156   -11198   -11222   -11213   -11196   -11210   -11254 
  -11284   -11269   -11232   -11218   -11233   -11236   -11205   -11176 
  -11179   -11194   -11191   -11159   -11118   -11114   -11144   -11169 
  -11172   -11175   -11209   -11249   -11257   -11240   -11223   -11232 
  -11257   -11252   -11210   -11180   -11186   -11203   -11194   -11155 
  -11129   -11141   -11165   -11176   -11182   -11199   -11241   -11277 
  -11273   -11236   -11209   -11209   -11209   -11187   -11163   -11163 
  -11195   -11219   -11202   -11172   -11172   -11196   -11211   -11195 
  -11171   -11178   -11207   -11221   -11195   -11153   -11141   -11169 
  -11194   -11192   -11187   -11207   -11241   -11253   -11232   -11206 
  -11217   -11244   -11237   -11190   -11142   -11138   -11165   -11179 
  -11165   -11153   -11171   -11200   -11207   -11192   -11184   -11209 
  -11244   -11241   -11207   -11192   -11206   -11221   -11210   -11182 
  -11172   -11202   -11230   -11223   -11199   -11199   -11233   -11259 
  -11250   -11218   -11203   -11222   -11232   -11205   -11168   -11148 
  -11159   -11173   -11153   -11134   -11156   -11194   -11222   -11211 
  -11176   -11176   -11198   -11205   -11194   -11171   -11175   -11215 
  -11234   -11219   -11206   -11214   -11244   -11252   -11211   -11172 
  -11161   -11169   -11168   -11136   -11111   -11129   -11168   -11203 
  -11219   -11232   -11268   -11298   -11284   -11249   -11223   -11225 
  -11240   -11221   -11176   -11155   -11160   -11176   -11178   -11160 
  -11156   -11173   -11192   -11190   -11164   -11157   -11196   -11237 
  -11245   -11242   -11249   -11271   -11280   -11253   -11213   -11192 
  -11192   -11187   -11156   -11121   -11117   -11140   -11155   -11152 
  -11152   -11186   -11241   -11268   -11253   -11226   -11223   -11246 
  -11253   -11225   -11200   -11200   -11207   -11195   -11156   -11128 
  -11144   -11180   -11194   -11176   -11159   -11175   -11214   -11229 
  -11215   -11207   -11225   -11253   -11248   -11217   -11196   -11210 
  -11233   -11227   -11187   -11156   -11157   -11161   -11138   -11102 
  -11099   -11142   -11192   -11207   -11200   -11211   -11246   -11268 
  -11245   -11207   -11196   -11217   -11232   -11213   -11182   -11171 
  -11180   -11183   -11155   -11129   -11151   -11203   -11234   -11227 
  -11211   -11222   -11257   -11268   -11234   -11194   -11188   -11213 
  -11214   -11183   -11160   -11169   -11202   -11209   -11179   -11160 
  -11183   -11221   -11238   -11222   -11200   -11209   -11226   -11221 
  -11196   -11176   -11182   -11191   -11173   -11142   -11134   -11161 
  -11188   -11179   -11156   -11156   -11188   -11226   -11232   -11209 
  -11199   -11214   -11226   -11211   -11192   -11192   -11210   -11218 
  -11195   -11167   -11172   -11200   -11221   -11211   -11194   -11202 
  -11233   -11242   -11215   -11191   -11205   -11236   -11249   -11227 
  -11199   -11210   -11237   -11236   -11217   -11203   -11209   -11227 
  -11229   -11199   -11179   -11191   -11209   -11200   -11165   -11141 
  -11157   -11186   -11191   -11175   -11175   -11202   -11225   -11214 
  -11175   -11149   -11160   -11176   -11157   -11124   -11121   -11155 
  -11195   -11200   -11179   -11179   -11210   -11236   -11232   -11211 
  -11215   -11252   -11275   -11254   -11218   -11209   -11227   -11237 
  -11215   -11192   -11205   -11237   -11245   -11213   -11171   -11165 
  -11188   -11200   -11180   -11155   -11163   -11184   -11179   -11151 
  -11129   -11142   -11176   -11184   -11168   -11164   -11188   -11215 
  -11217   -11195   -11190   -11215   -11244   -11236   -11205   -11187 
  -11203   -11229   -11222   -11200   -11203   -11232   -11256   -11246 
  -11207   -11190   -11210   -11223   -11205   -11168   -11146   -11152 
  -11169   -11172   -11164   -11179   -11214   -11226   -11203   -11176 
  -11183   -11225   -11252   -11232   -11194   -11183   -11206   -11215 
  -11192   -11167   -11169   -11196   -11210   -11186   -11161   -11172 
  -11199   -11206   -11182   -11164   -11190   -11230   -11244   -11217 
  -11186   -11190   -11209   -11206   -11184   -11167   -11176   -11195 
  -11190   -11165   -11157   -11188   -11233   -11237   -11213   -11203 
  -11222   -11249   -11249   -11219   -11213   -11233   -11237   -11205 
  -11157   -11145   -11175   -11200   -11194   -11172   -11173   -11223 
  -11269   -11261   -11240   -11236   -11241   -11237   -11199   -11163 
  -11171   -11188   -11182   -11148   -11109   -11110   -11148   -11169 
  -11169   -11169   -11196   -11240   -11246   -11213   -11184   -11186 
  -11213   -11219   -11191   -11173   -11187   -11206   -11214   -11196 
  -11187   -11215   -11237   -11233   -11219   -11215   -11245   -11265 
  -11240   -11203   -11187   -11209   -11242   -11227   -11190   -11183 
  -11195   -11206   -11192   -11155   -11141   -11157   -11168   -11161 
  -11146   -11153   -11192   -11213   -11195   -11167   -11163   -11202 
  -11233   -11222   -11210   -11214   -11225   -11227   -11196   -11163 
  -11172   -11194   -11200   -11186   -11164   -11175   -11202   -11200 
  -11179   -11168   -11190   -11229   -11236   -11213   -11206   -11226 
  -11259   -11264   -11225   -11194   -11196   -11213   -11210   -11182 
  -11167   -11188   -11211   -11206   -11179   -11169   -11200   -11226 
  -11219   -11196   -11179   -11187   -11195   -11164   -11132   -11134 
  -11160   -11184   -11179   -11157   -11172   -11210   -11232   -11230 
  -11213   -11217   -11244   -11248   -11225   -11199   -11195   -11219 
  -11222   -11190   -11169   -11175   -11202   -11213   -11182   -11164 
  -11186   -11221   -11244   -11238   -11221   -11236   -11253   -11234 
  -11195   -11171   -11184   -11209   -11196   -11157   -11130   -11140 
  -11164   -11160   -11145   -11160   -11195   -11223   -11213   -11176 
  -11169   -11198   -11219   -11210   -11173   -11157   -11180   -11205 
  -11205   -11194   -11195   -11213   -11218   -11198   -11179   -11184 
  -11205   -11209   -11176   -11146   -11160   -11196   -11221   -11209 
  -11184   -11198   -11236   -11248   -11233   -11219   -11237   -11269 
  -11267   -11230   -11205   -11214   -11233   -11221   -11184   -11157 
  -11163   -11188   -11190   -11160   -11148   -11178   -11217   -11225 
  -11211   -11217   -11242   -11265   -11254   -11218   -11200   -11219 
  -11230   -11202   -11153   -11134   -11155   -11179   -11176   -11161 
  -11168   -11198   -11207   -11182   -11156   -11159   -11187   -11200 
  -11167   -11130   -11144   -11187   -11215   -11211   -11187   -11183 
  -11207   -11214   -11200   -11194   -11213   -11242   -11249   -11225 
  -11205   -11218   -11252   -11260   -11229   -11202   -11205   -11219 
  -11209   -11171   -11152   -11178   -11203   -11202   -11182   -11167 
  -11186   -11218   -11214   -11179   -11168   -11195   -11222   -11218 
  -11195   -11186   -11202   -11211   -11194   -11169   -11172   -11206 
  -11230   -11217   -11187   -11187   -11218   -11234   -11217   -11186 
  -11178   -11196   -11207   -11186   -11160   -11163   -11186   -11202 
  -11190   -11164   -11169   -11200   -11214   -11199   -11179   -11182 
  -11202   -11203   -11182   -11159   -11161   -11187   -11196   -11182 
  -11182   -11206   -11236   -11245   -11223   -11206   -11214   -11226 
  -11221   -11195   -11182   -11199   -11209   -11191   -11168   -11168 
  -11206   -11252   -11257   -11244   -11245   -11267   -11288   -11280 
  -11248   -11227   -11226   -11219   -11183   -11134   -11118   -11128 
  -11125   -11106   -11086   -11099   -11153   -11194   -11198   -11190 
  -11194   -11213   -11219   -11194   -11173   -11187   -11211   -11211 
  -11168   -11130   -11141   -11175   -11195   -11191   -11179   -11195 
  -11221   -11223   -11215   -11217   -11244   -11276   -11261   -11215 
  -11190   -11202   -11234   -11240   -11210   -11191   -11200   -11213 
  -11203   -11176   -11167   -11191   -11211   -11205   -11188   -11194 
  -11227   -11249   -11232   -11203   -11196   -11219   -11238   -11221 
  -11194   -11188   -11202   -11207   -11188   -11169   -11183   -11207 
  -11209   -11179   -11149   -11151   -11182   -11191   -11161   -11136 
  -11149   -11183   -11196   -11182   -11165   -11184   -11222   -11236 
  -11221   -11205   -11210   -11226   -11218   -11182   -11160   -11178 
  -11210   -11223   -11211   -11205   -11222   -11246   -11250   -11236 
  -11229   -11248   -11259   -11229   -11178   -11144   -11148   -11164 
  -11156   -11136   -11144   -11183   -11214   -11206   -11176   -11175 
  -11205   -11223   -11211   -11186   -11180   -11209   -11226   -11203 
  -11168   -11159   -11176   -11194   -11190   -11180   -11192   -11221 
  -11232   -11222   -11219   -11242   -11276   -11273   -11238   -11214 
  -11207   -11209   -11198   -11163   -11136   -11149   -11168   -11165 
  -11155   -11155   -11195   -11242   -11253   -11242   -11237   -11246 
  -11259   -11244   -11210   -11194   -11200   -11209   -11192   -11165 
  -11169   -11198   -11215   -11203   -11169   -11169   -11207   -11227 
  -11211   -11179   -11173   -11210   -11236   -11226   -11211   -11209 
  -11221   -11225   -11191   -11153   -11141   -11153   -11164   -11151 
  -11144   -11178   -11219   -11241   -11233   -11211   -11222   -11245 
  -11238   -11202   -11163   -11152   -11169   -11169   -11152   -11151 
  -11173   -11205   -11209   -11172   -11145   -11151   -11167   -11172 
  -11167   -11169   -11202   -11238   -11248   -11241   -11240   -11250 
  -11261   -11240   -11202   -11178   -11179   -11188   -11172   -11151 
  -11167   -11207   -11238   -11237   -11210   -11202   -11218   -11214 
  -11180   -11136   -11115   -11140   -11164   -11157   -11152   -11173 
  -11206   -11223   -11213   -11194   -11199   -11222   -11225   -11196 
  -11172   -11187   -11227   -11254   -11249   -11238   -11256   -11281 
  -11271   -11230   -11190   -11180   -11191   -11182   -11155   -11144 
  -11164   -11195   -11206   -11186   -11176   -11203   -11230   -11226 
  -11199   -11182   -11200   -11225   -11209   -11172   -11156   -11175 
  -11206   -11210   -11194   -11196   -11223   -11242   -11230   -11202 
  -11194   -11211   -11229   -11215   -11183   -11172   -11186   -11190 
  -11172   -11159   -11164   -11187   -11199   -11178   -11141   -11137 
  -11163   -11178   -11163   -11148   -11164   -11202   -11225   -11210 
  -11188   -11199   -11225   -11232   -11214   -11194   -11202   -11223 
  -11215   -11179   -11161   -11192   -11240   -11254   -11234   -11211 
  -11211   -11229   -11226   -11196   -11171   -11168   -11175   -11161 
  -11128   -11114   -11137   -11171   -11186   -11182   -11194   -11240 
  -11279   -11275   -11242   -11218   -11226   -11230   -11199   -11159 
  -11144   -11163   -11187   -11178   -11163   -11183   -11223   -11257 
  -11253   -11229   -11234   -11249   -11240   -11213   -11179   -11178 
  -11214   -11227   -11211   -11203   -11219   -11260   -11276   -11240 
  -11202   -11194   -11199   -11194   -11155   -11122   -11140   -11175 
  -11188   -11176   -11169   -11207   -11254   -11253   -11225   -11209 
  -11218   -11240   -11234   -11198   -11169   -11178   -11198   -11191 
  -11165   -11164   -11199   -11241   -11248   -11218   -11195   -11200 
  -11209   -11200   -11178   -11172   -11199   -11215   -11200   -11178 
  -11165   -11171   -11169   -11130   -11084   -11082   -11115   -11141 
  -11133   -11121   -11133   -11168   -11209   -11225   -11229   -11261 
  -11298   -11299   -11275   -11246   -11245   -11265   -11256   -11210 
  -11161   -11138   -11141   -11137   -11113   -11107   -11132   -11165 
  -11175   -11159   -11160   -11198   -11240   -11252   -11222   -11190 
  -11194   -11206   -11190   -11157   -11134   -11146   -11183   -11200 
  -11203   -11233   -11280   -11314   -11308   -11265   -11238   -11240 
  -11230   -11191   -11145   -11126   -11155   -11186   -11182   -11165 
  -11175   -11217   -11254   -11259   -11257   -11279   -11317   -11337 
  -11317   -11275   -11252   -11253   -11248   -11215   -11178   -11172 
  -11191   -11191   -11161   -11136   -11138   -11159   -11165   -11148 
  -11140   -11169   -11217   -11237   -11221   -11199   -11206   -11223 
  -11214   -11175   -11146   -11157   -11179   -11175   -11152   -11155 
  -11190   -11227   -11234   -11213   -11205   -11232   -11254   -11244 
  -11200   -11172   -11187   -11205   -11187   -11146   -11115   -11118 
  -11134   -11129   -11110   -11110   -11128   -11137   -11124   -11105 
  -11117   -11151   -11175   -11180   -11175   -11184   -11211   -11223 
  -11206   -11190   -11206   -11242   -11252   -11221   -11190   -11182 
  -11196   -11207   -11191   -11182   -11205   -11237   -11250   -11237 
  -11223   -11241   -11268   -11267   -11242   -11222   -11230   -11256 
  -11257   -11230   -11215   -11232   -11257   -11252   -11218   -11195 
  -11203   -11214   -11195   -11148   -11114   -11115   -11125   -11113 
  -11088   -11088   -11129   -11180   -11203   -11207   -11227   -11268 
  -11298   -11288   -11252   -11223   -11210   -11188   -11136   -11080 
  -11065   -11094   -11128   -11138   -11148   -11195   -11263   -11299 
  -11291   -11272   -11271   -11287   -11287   -11252   -11207   -11196 
  -11210   -11209   -11178   -11148   -11155   -11190   -11213   -11213 
  -11207   -11215   -11232   -11230   -11196   -11168   -11175   -11199 
  -11206   -11192   -11190   -11217   -11254   -11272   -11279   -11307 
  -11358   -11398   -11395   -11357   -11325   -11318   -11298   -11242 
  -11182   -11148   -11145   -11153   -11140   -11107   -11099   -11117 
  -11126   -11124   -11114   -11125   -11168   -11199   -11195   -11184 
  -11196   -11230   -11246   -11218   -11179   -11171   -11190   -11202 
  -11184   -11161   -11167   -11188   -11186   -11152   -11118   -11121 
  -11145   -11149   -11129   -11109   -11107   -11130   -11141   -11122 
  -11119   -11155   -11202   -11226   -11205   -11182   -11198   -11219 
  -11222   -11214   -11205   -11217   -11238   -11227   -11198   -11190 
  -11214   -11250   -11253   -11230   -11225   -11246   -11271   -11263 
  -11221   -11198   -11195   -11194   -11180   -11149   -11141   -11178 
  -11207   -11210   -11200   -11192   -11207   -11215   -11186   -11160 
  -11168   -11203   -11241   -11238   -11207   -11194   -11199   -11200 
  -11180   -11142   -11126   -11125   -11113   -11088   -11061   -11067 
  -11099   -11103   -11082   -11068   -11082   -11126   -11153   -11140 
  -11140   -11164   -11195   -11213   -11194   -11175   -11198   -11226 
  -11237   -11232   -11219   -11237   -11268   -11272   -11263   -11263 
  -11284   -11306   -11295   -11267   -11267   -11304   -11346   -11349 
  -11326   -11325   -11352   -11384   -11383   -11340   -11319   -11335 
  -11340   -11322   -11290   -11260   -11264   -11264   -11221   -11159 
  -11111   -11101   -11101   -11070   -11041   -11053   -11084   -11107 
  -11101   -11087   -11110   -11159   -11192   -11192   -11169   -11171 
  -11198   -11202   -11176   -11149   -11156   -11194   -11215   -11210 
  -11206   -11222   -11249   -11256   -11240   -11237   -11261   -11287 
  -11283   -11252   -11233   -11240   -11253   -11241   -11194   -11159 
  -11159   -11155   -11126   -11080   -11045   -11057   -11092   -11107 
  -11114   -11137   -11173   -11210   -11214   -11192   -11194   -11211 
  -11219   -11200   -11157   -11136   -11148   -11151   -11125   -11091 
  -11090   -11125   -11145   -11137   -11133   -11155   -11199   -11229 
  -11218   -11202   -11210   -11230   -11236   -11210   -11191   -11205 
  -11227   -11232   -11214   -11203   -11233   -11281   -11300   -11281 
  -11256   -11267   -11306   -11323   -11311   -11303   -11318   -11346 
  -11344   -11310   -11283   -11273   -11263   -11225   -11159   -11106 
  -11099   -11115   -11114   -11097   -11098   -11128   -11155   -11160 
  -11151   -11152   -11179   -11195   -11172   -11144   -11142   -11171 
  -11200   -11192   -11165   -11165   -11190   -11205   -11188   -11159 
  -11148   -11159   -11165   -11146   -11122   -11129   -11168   -11207 
  -11221   -11215   -11226   -11250   -11249   -11226   -11205   -11209 
  -11238   -11254   -11245   -11234   -11256   -11299   -11318   -11296 
  -11265   -11267   -11291   -11292   -11261   -11229   -11210   -11207 
  -11199   -11161   -11132   -11134   -11145   -11134   -11095   -11063 
  -11068   -11086   -11084   -11059   -11036   -11061   -11109   -11132 
  -11137   -11153   -11195   -11245   -11260   -11249   -11250   -11264 
  -11273   -11259   -11222   -11211   -11221   -11223   -11210   -11175 
  -11160   -11187   -11210   -11209   -11195   -11202   -11246   -11284 
  -11286   -11281   -11283   -11298   -11310   -11283   -11244   -11234 
  -11236   -11227   -11191   -11153   -11156   -11180   -11190   -11173 
  -11144   -11141   -11163   -11161   -11144   -11138   -11155   -11190 
  -11199   -11167   -11142   -11142   -11160   -11168   -11148   -11144 
  -11175   -11210   -11229   -11209   -11187   -11206   -11229   -11233 
  -11219   -11210   -11233   -11253   -11229   -11192   -11167   -11161 
  -11172   -11160   -11133   -11138   -11165   -11191   -11194   -11168 
  -11168   -11199   -11215   -11207   -11180   -11173   -11200   -11215 
  -11199   -11176   -11179   -11211   -11230   -11214   -11192   -11192 
  -11219   -11237   -11210   -11180   -11187   -11221   -11249   -11241 
  -11219   -11223   -11248   -11259   -11242   -11221   -11225   -11244 
  -11244   -11222   -11205   -11223   -11264   -11276   -11260   -11244 
  -11249   -11276   -11281   -11256   -11238   -11242   -11253   -11244 
  -11209   -11183   -11188   -11199   -11187   -11156   -11141   -11160 
  -11182   -11167   -11125   -11103   -11122   -11151   -11157   -11149 
  -11156   -11186   -11210   -11203   -11184   -11191   -11222   -11240 
  -11222   -11187   -11180   -11198   -11200   -11173   -11140   -11129 
  -11153   -11172   -11159   -11144   -11156   -11184   -11200   -11190 
  -11175   -11188   -11215   -11222   -11203   -11172   -11163   -11180 
  -11182   -11149   -11130   -11149   -11187   -11213   -11210   -11200 
  -11217   -11241   -11241   -11217   -11196   -11210   -11234   -11226 
  -11190   -11161   -11163   -11183   -11178   -11146   -11133   -11156 
  -11191   -11202   -11176   -11157   -11167   -11182   -11178   -11155 
  -11148   -11182   -11215   -11215   -11203   -11211   -11246   -11281 
  -11277   -11244   -11226   -11242   -11253   -11234   -11211   -11213 
  -11237   -11264   -11265   -11252   -11265   -11302   -11311   -11284 
  -11249   -11236   -11245   -11246   -11221   -11192   -11200   -11227 
  -11233   -11214   -11194   -11196   -11209   -11202   -11168   -11133 
  -11125   -11140   -11141   -11119   -11102   -11113   -11140   -11151 
  -11137   -11128   -11144   -11163   -11157   -11130   -11111   -11124 
  -11145   -11149   -11137   -11138   -11175   -11215   -11225   -11213 
  -11211   -11226   -11236   -11218   -11188   -11187   -11215   -11232 
  -11219   -11199   -11200   -11234   -11263   -11260   -11237   -11234 
  -11257   -11265   -11242   -11211   -11200   -11217   -11229   -11211 
  -11192   -11206   -11244   -11268   -11263   -11254   -11277   -11307 
  -11306   -11275   -11242   -11236   -11238   -11210   -11161   -11129 
  -11128   -11142   -11144   -11119   -11106   -11133   -11168   -11176 
