Origin Time       2025/03/29 04:45:00
Lat.              31.090
Long.             131.512
Depth. (km)       33
Mag.              4.6
Station Code      MYZH08
Station Lat.      32.2132
Station Long.     131.5309
Station Height(m) 68
Record Time       2025/03/29 04:46:03
Sampling Freq(Hz) 100Hz
Duration Time(s)  120
Dir.              6
Scale Factor      3920(gal)/6170801
Max. Acc. (gal)   0.162
Last Correction   2025/03/29 04:45:48
Memo.             
[...]
  -23484   -23472   -23467   -23462   -23468   -23494   -23530   -23566 
  -23605   -23642   -23666   -23679   -23676   -23645   -23597   -23558 
  -23548   -23567   -23592   -23588   -23554   -23522   -23518   -23542 
  -23583   -23607   -23584   -23531   -23502   -23521   -23569   -23613 
  -23631   -23616   -23582   -23550   -23547   -23576   -23594   -23572 
  -23529   -23490   -23469   -23477   -23498   -23503   -23479   -23451 
  -23454   -23503   -23570   -23600   -23568   -23500   -23453   -23454 
  -23483   -23506   -23506   -23488   -23472   -23488   -23541   -23599 
  -23625   -23593   -23510   -23432   -23416   -23466   -23543   -23595 
  -23597   -23558   -23520   -23520   -23558   -23596   -23595   -23546 
  -23491   -23483   -23525   -23583   -23606   -23572   -23522   -23496 
  -23506   -23535   -23552   -23540   -23510   -23487   -23489   -23522 
  -23571   -23597   -23581   -23548   -23535   -23561   -23618   -23664 
  -23664   -23616   -23552   -23520   -23540   -23586   -23620   -23614 
  -23559   -23486   -23448   -23471   -23534   -23595   -23620   -23603 
  -23566   -23540   -23539   -23548   -23541   -23511   -23474   -23445 
  -23437   -23469   -23539   -23618   -23668   -23665   -23622   -23564 
  -23522   -23520   -23553   -23585   -23577   -23529   -23475   -23436 
  -23422   -23435   -23462   -23494   -23530   -23551   -23542   -23503 
  -23461   -23447   -23471   -23516   -23562   -23583   -23569   -23532 
  -23493   -23473   -23494   -23562   -23644   -23704   -23725   -23699 
  -23636   -23578   -23552   -23551   -23555   -23542   -23504   -23461 
  -23442   -23460   -23500   -23541   -23571   -23583   -23575   -23544 
  -23502   -23465   -23435   -23417   -23428   -23477   -23544   -23598 
  -23611   -23576   -23525   -23489   -23477   -23486   -23498   -23503 
  -23507   -23520   -23544   -23579   -23612   -23625   -23613   -23585 
  -23561   -23557   -23570   -23583   -23588   -23580   -23563   -23554 
  -23554   -23549   -23533   -23506   -23471   -23447   -23450   -23481 
  -23536   -23596   -23633   -23641   -23628   -23606   -23588   -23567 
  -23544   -23529   -23530   -23544   -23553   -23540   -23507   -23474 
  -23462   -23481   -23528   -23590   -23632   -23625   -23586   -23551 
  -23536   -23538   -23548   -23550   -23534   -23511   -23512   -23539 
  -23569   -23594   -23603   -23578   -23516   -23444   -23400   -23398 
  -23426   -23461   -23480   -23477   -23475   -23494   -23528   -23563 
  -23587   -23589   -23571   -23549   -23539   -23550   -23567   -23573 
  -23578   -23595   -23626   -23643   -23627   -23593   -23558   -23535 
  -23529   -23536   -23537   -23522   -23495   -23460   -23427   -23416 
  -23445   -23508   -23569   -23597   -23587   -23548   -23501   -23472 
  -23472   -23493   -23518   -23537   -23555   -23577   -23602   -23619 
  -23614   -23592   -23571   -23563   -23567   -23567   -23543   -23511 
  -23511   -23546   -23583   -23597   -23575   -23526   -23485   -23479 
  -23495   -23513   -23524   -23537   -23566   -23599   -23604   -23575 
  -23531   -23500   -23510   -23560   -23619   -23659   -23660   -23625 
  -23588   -23583   -23599   -23601   -23571   -23517   -23458   -23425 
  -23442   -23489   -23523   -23514   -23466   -23414   -23401   -23438 
  -23501   -23557   -23599   -23637   -23671   -23687   -23684   -23673 
  -23655   -23620   -23575   -23535   -23521   -23539   -23568   -23586 
  -23581   -23553   -23517   -23495   -23499   -23511   -23503   -23463 
  -23401   -23347   -23332   -23360   -23405   -23438   -23460   -23487 
  -23521   -23557   -23588   -23607   -23608   -23600   -23583   -23562 
  -23547   -23536   -23531   -23536   -23547   -23564   -23585   -23588 
  -23569   -23543   -23525   -23512   -23499   -23503   -23526   -23550 
  -23562   -23553   -23522   -23490   -23484   -23502   -23530   -23558 
  -23574   -23582   -23601   -23634   -23654   -23634   -23581   -23527 
  -23509   -23537   -23570   -23572   -23549   -23524   -23502   -23479 
  -23453   -23429   -23405   -23389   -23404   -23456   -23518   -23558 
  -23552   -23514   -23491   -23512   -23559   -23596   -23593   -23555 
  -23528   -23548   -23600   -23648   -23660   -23622   -23564   -23527 
  -23521   -23521   -23502   -23465   -23440   -23451   -23502   -23568 
  -23612   -23619   -23598   -23578   -23584   -23608   -23625   -23624 
  -23624   -23637   -23663   -23685   -23689   -23673   -23640   -23597 
  -23567   -23559   -23569   -23600   -23637   -23656   -23647   -23625 
  -23606   -23592   -23579   -23563   -23535   -23496   -23465   -23463 
  -23488   -23510   -23504   -23470   -23435   -23429   -23456   -23496 
  -23517   -23505   -23480   -23461   -23462   -23476   -23481   -23455 
  -23407   -23366   -23358   -23389   -23443   -23490   -23508   -23508 
  -23511   -23532   -23572   -23607   -23608   -23584   -23564   -23563 
  -23589   -23633   -23665   -23661   -23625   -23584   -23564   -23565 
  -23572   -23570   -23556   -23534   -23523   -23531   -23547   -23551 
  -23540   -23520   -23495   -23485   -23498   -23511   -23499   -23463 
  -23425   -23416   -23444   -23493   -23542   -23575   -23588   -23596 
  -23606   -23618   -23621   -23607   -23579   -23554   -23543   -23548 
  -23551   -23546   -23549   -23574   -23616   -23657   -23677   -23678 
  -23669   -23659   -23656   -23667   -23676   -23658   -23614   -23567 
  -23536   -23522   -23518   -23515   -23510   -23500   -23494   -23497 
  -23503   -23501   -23482   -23452   -23428   -23424   -23443   -23479 
  -23508   -23503   -23470   -23444   -23446   -23471   -23499   -23510 
  -23504   -23496   -23498   -23507   -23515   -23524   -23528   -23511 
  -23475   -23451   -23464   -23508   -23554   -23565   -23529   -23478 
  -23461   -23496   -23565   -23626   -23641   -23599   -23540   -23511 
  -23529   -23583   -23622   -23610   -23562   -23511   -23478   -23475 
  -23493   -23518   -23537   -23529   -23497   -23465   -23458   -23500 
  -23581   -23648   -23668   -23638   -23572   -23514   -23496   -23502 
  -23506   -23492   -23454   -23417   -23411   -23431   -23458   -23482 
  -23505   -23531   -23560   -23591   -23618   -23629   -23628   -23632 
  -23647   -23662   -23667   -23656   -23632   -23605   -23587   -23586 
  -23594   -23588   -23553   -23510   -23485   -23500   -23542   -23577 
  -23587   -23575   -23568   -23598   -23651   -23679   -23655   -23591 
  -23520   -23477   -23471   -23478   -23471   -23448   -23422   -23412 
  -23433   -23482   -23538   -23573   -23577   -23560   -23529   -23497 
  -23483   -23490   -23509   -23521   -23515   -23501   -23501   -23524 
  -23561   -23589   -23597   -23592   -23590   -23595   -23606   -23613 
  -23610   -23607   -23612   -23620   -23626   -23626   -23612   -23582 
  -23552   -23539   -23534   -23530   -23528   -23518   -23492   -23465 
  -23456   -23467   -23491   -23521   -23542   -23539   -23515   -23482 
  -23460   -23468   -23495   -23511   -23498   -23470   -23456   -23474 
  -23513   -23549   -23573   -23584   -23602   -23636   -23670   -23692 
  -23703   -23694   -23668   -23643   -23624   -23599   -23574   -23560 
  -23553   -23544   -23533   -23518   -23498   -23477   -23453   -23427 
  -23409   -23406   -23411   -23419   -23429   -23441   -23439   -23424 
  -23415   -23414   -23411   -23405   -23397   -23392   -23409   -23448 
  -23491   -23519   -23525   -23511   -23493   -23488   -23502   -23527 
  -23546   -23550   -23536   -23510   -23497   -23518   -23562   -23599 
  -23619   -23631   -23647   -23664   -23678   -23688   -23698   -23708 
  -23715   -23711   -23696   -23678   -23652   -23614   -23585   -23579 
  -23578   -23576   -23580   -23583   -23580   -23587   -23606   -23616 
  -23606   -23584   -23560   -23537   -23527   -23532   -23540   -23533 
  -23511   -23490   -23482   -23486   -23498   -23506   -23510   -23520 
  -23533   -23542   -23547   -23540   -23524   -23514   -23518   -23527 
  -23530   -23533   -23535   -23533   -23527   -23512   -23487   -23469 
  -23475   -23497   -23514   -23519   -23513   -23512   -23522   -23539 
  -23563   -23587   -23597   -23583   -23551   -23530   -23542   -23575 
  -23599   -23593   -23553   -23508   -23487   -23497   -23513   -23517 
  -23516   -23517   -23521   -23533   -23547   -23560   -23566   -23568 
  -23580   -23594   -23591   -23566   -23531   -23504   -23501   -23525 
  -23563   -23583   -23570   -23539   -23511   -23508   -23535   -23565 
  -23565   -23535   -23495   -23468   -23468   -23488   -23505   -23504 
  -23491   -23470   -23453   -23460   -23496   -23533   -23544   -23532 
  -23512   -23506   -23532   -23581   -23628   -23650   -23635   -23596 
  -23558   -23544   -23547   -23540   -23511   -23476   -23449   -23441 
  -23462   -23514   -23575   -23618   -23620   -23591   -23570   -23581 
  -23615   -23644   -23648   -23617   -23554   -23490   -23467   -23491 
  -23529   -23555   -23560   -23553   -23570   -23632   -23713   -23773 
  -23792   -23770   -23733   -23715   -23725   -23740   -23724   -23656 
  -23564   -23502   -23485   -23492   -23489   -23462   -23424   -23393 
  -23389   -23423   -23467   -23490   -23484   -23461   -23446   -23456 
  -23480   -23511   -23542   -23550   -23530   -23498   -23473   -23469 
  -23479   -23488   -23484   -23467   -23451   -23454   -23476   -23499 
  -23506   -23484   -23441   -23412   -23416   -23435   -23442   -23425 
  -23393   -23372   -23385   -23422   -23458   -23478   -23485   -23501 
  -23532   -23571   -23604   -23611   -23591   -23563   -23544   -23543 
  -23551   -23548   -23539   -23537   -23548   -23567   -23592   -23618 
  -23635   -23643   -23651   -23657   -23658   -23651   -23627   -23594 
  -23566   -23545   -23534   -23536   -23540   -23546   -23556   -23564 
  -23575   -23592   -23609   -23621   -23619   -23600   -23582   -23576 
  -23579   -23590   -23602   -23602   -23596   -23591   -23587   -23591 
  -23595   -23585   -23564   -23533   -23502   -23490   -23502   -23524 
  -23542   -23544   -23543   -23555   -23586   -23632   -23665   -23657 
  -23607   -23540   -23496   -23497   -23528   -23558   -23549   -23500 
  -23452   -23436   -23458   -23505   -23541   -23528   -23475   -23417 
  -23381   -23379   -23397   -23407   -23393   -23354   -23317   -23310 
  -23337   -23386   -23438   -23478   -23509   -23539   -23568   -23603 
  -23637   -23657   -23655   -23634   -23614   -23608   -23605   -23600 
  -23588   -23556   -23518   -23497   -23496   -23503   -23506   -23502 
  -23494   -23492   -23506   -23542   -23579   -23594   -23581   -23554 
  -23536   -23542   -23566   -23586   -23588   -23581   -23580   -23589 
  -23605   -23625   -23637   -23629   -23615   -23612   -23615   -23618 
  -23619   -23612   -23600   -23594   -23595   -23606   -23620   -23627 
  -23630   -23636   -23638   -23639   -23640   -23643   -23659   -23685 
  -23703   -23699   -23677   -23651   -23628   -23609   -23590   -23565 
  -23531   -23499   -23485   -23493   -23510   -23515   -23492   -23451 
  -23412   -23398   -23420   -23459   -23484   -23472   -23431   -23392 
  -23370   -23370   -23388   -23397   -23376   -23334   -23296   -23287 
  -23316   -23364   -23403   -23416   -23407   -23399   -23414   -23449 
  -23483   -23504   -23503   -23488   -23472   -23472   -23492   -23521 
  -23544   -23559   -23571   -23585   -23609   -23638   -23659   -23664 
  -23657   -23661   -23679   -23699   -23709   -23689   -23645   -23609 
  -23599   -23606   -23604   -23587   -23562   -23532   -23501   -23487 
  -23493   -23506   -23521   -23541   -23554   -23564   -23576   -23586 
  -23590   -23590   -23579   -23561   -23552   -23557   -23569   -23571 
  -23553   -23525   -23501   -23491   -23501   -23512   -23502   -23478 
  -23457   -23449   -23466   -23498   -23523   -23534   -23542   -23557 
  -23585   -23623   -23656   -23664   -23649   -23617   -23578   -23553 
  -23557   -23581   -23597   -23590   -23568   -23554   -23562   -23599 
  -23647   -23678   -23686   -23684   -23680   -23681   -23693   -23710 
  -23710   -23677   -23619   -23555   -23508   -23489   -23481   -23465 
  -23433   -23391   -23354   -23331   -23330   -23349   -23372   -23380 
  -23385   -23399   -23415   -23435   -23463   -23484   -23498   -23517 
  -23538   -23555   -23562   -23556   -23542   -23536   -23552   -23577 
  -23598   -23615   -23623   -23618   -23596   -23572   -23556   -23557 
  -23580   -23598   -23583   -23543   -23494   -23459   -23457   -23479 
  -23491   -23475   -23443   -23423   -23425   -23447   -23469   -23475 
  -23464   -23447   -23440   -23448   -23464   -23484   -23503   -23515 
  -23522   -23530   -23544   -23563   -23584   -23595   -23597   -23612 
  -23638   -23664   -23693   -23717   -23727   -23728   -23720   -23710 
  -23710   -23715   -23717   -23710   -23688   -23651   -23615   -23595 
  -23588   -23591   -23594   -23580   -23554   -23533   -23524   -23525 
  -23522   -23497   -23461   -23439   -23439   -23448   -23457   -23462 
  -23461   -23457   -23451   -23444   -23448   -23470   -23497   -23512 
  -23518   -23529   -23544   -23566   -23598   -23631   -23652   -23655 
  -23636   -23616   -23619   -23638   -23649   -23631   -23585   -23529 
  -23483   -23457   -23445   -23437   -23426   -23408   -23390   -23381 
  -23381   -23382   -23378   -23364   -23342   -23326   -23338   -23379 
  -23425   -23455   -23465   -23453   -23437   -23439   -23455   -23463 
  -23459   -23452   -23447   -23452   -23469   -23490   -23506   -23513 
  -23525   -23550   -23586   -23631   -23678   -23713   -23739   -23757 
  -23765   -23775   -23787   -23792   -23794   -23795   -23794   -23779 
  -23746   -23704   -23665   -23644   -23642   -23642   -23622   -23582 
  -23541   -23522   -23529   -23554   -23581   -23591   -23580   -23570 
  -23575   -23599   -23636   -23666   -23672   -23656   -23630   -23607 
  -23592   -23592   -23607   -23608   -23580   -23542   -23515   -23503 
  -23499   -23490   -23462   -23420   -23381   -23357   -23343   -23337 
  -23335   -23329   -23321   -23330   -23357   -23387   -23415   -23441 
  -23453   -23453   -23460   -23476   -23494   -23510   -23516   -23516 
  -23523   -23537   -23541   -23530   -23507   -23484   -23468   -23462 
  -23463   -23464   -23449   -23425   -23410   -23414   -23433   -23459 
  -23480   -23485   -23481   -23483   -23498   -23525   -23551   -23561 
  -23547   -23522   -23510   -23528   -23571   -23612   -23625   -23604 
  -23567   -23542   -23548   -23578   -23612   -23630   -23624   -23602 
  -23580   -23571   -23581   -23606   -23633   -23642   -23634   -23630 
  -23642   -23664   -23686   -23696   -23698   -23701   -23714   -23729 
  -23742   -23744   -23727   -23692   -23662   -23651   -23652   -23645 
  -23617   -23569   -23519   -23495   -23506   -23533   -23552   -23560 
  -23551   -23534   -23532   -23539   -23537   -23525   -23511   -23503 
  -23501   -23500   -23492   -23477   -23462   -23449   -23434   -23423 
  -23419   -23417   -23404   -23376   -23345   -23327   -23334   -23366 
  -23405   -23430   -23437   -23436   -23442   -23465   -23496   -23519 
  -23530   -23535   -23535   -23533   -23529   -23523   -23519   -23509 
  -23495   -23483   -23475   -23470   -23472   -23482   -23496   -23514 
  -23532   -23546   -23557   -23570   -23586   -23601   -23609   -23614 
  -23618   -23612   -23599   -23590   -23578   -23560   -23547   -23537 
  -23530   -23525   -23522   -23520   -23516   -23512   -23514   -23523 
  -23540   -23564   -23591   -23613   -23626   -23633   -23632   -23626 
  -23625   -23630   -23628   -23623   -23617   -23614   -23621   -23626 
  -23616   -23604   -23596   -23590   -23595   -23608   -23624   -23637 
  -23649   -23669   -23686   -23690   -23687   -23673   -23652   -23637 
  -23630   -23629   -23629   -23624   -23608   -23580   -23556   -23554 
  -23561   -23573   -23583   -23577   -23549   -23517   -23501   -23497 
  -23490   -23471   -23439   -23403   -23381   -23371   -23361   -23347 
  -23332   -23316   -23309   -23318   -23330   -23345   -23371   -23399 
  -23426   -23452   -23471   -23490   -23509   -23518   -23522   -23526 
  -23524   -23522   -23520   -23512   -23507   -23511   -23518   -23530 
  -23543   -23546   -23548   -23553   -23564   -23583   -23595   -23586 
  -23570   -23565   -23571   -23586   -23593   -23581   -23560   -23543 
  -23534   -23530   -23524   -23513   -23509   -23515   -23524   -23534 
  -23536   -23525   -23512   -23500   -23491   -23503   -23536   -23560 
  -23560   -23540   -23517   -23516   -23553   -23605   -23634   -23631 
  -23614   -23607   -23622   -23654   -23683   -23688   -23669   -23636 
  -23603   -23592   -23606   -23635   -23654   -23650   -23632   -23612 
  -23603   -23607   -23610   -23599   -23576   -23555   -23541   -23528 
  -23520   -23515   -23508   -23501   -23500   -23501   -23506   -23510 
  -23505   -23492   -23484   -23483   -23484   -23484   -23478   -23461 
  -23434   -23409   -23391   -23378   -23372   -23377   -23380   -23378 
  -23390   -23427   -23472   -23509   -23538   -23559   -23570   -23577 
  -23588   -23601   -23598   -23581   -23560   -23539   -23531   -23540 
  -23547   -23544   -23542   -23548   -23562   -23580   -23593   -23594 
  -23593   -23593   -23587   -23575   -23567   -23566   -23572   -23588 
  -23603   -23605   -23594   -23577   -23567   -23566   -23565   -23565 
  -23566   -23562   -23560   -23562   -23560   -23561   -23565   -23560 
  -23556   -23565   -23579   -23582   -23570   -23552   -23537   -23530 
  -23538   -23556   -23567   -23562   -23544   -23522   -23511   -23517 
  -23531   -23538   -23530   -23517   -23512   -23520   -23537   -23556 
  -23569   -23568   -23556   -23551   -23563   -23584   -23597   -23590 
  -23562   -23527   -23504   -23499   -23508   -23523   -23528   -23527 
  -23532   -23542   -23557   -23574   -23584   -23580   -23565   -23546 
  -23527   -23513   -23511   -23518   -23521   -23518   -23509   -23498 
  -23496   -23509   -23528   -23534   -23531   -23527   -23525   -23523 
  -23528   -23532   -23531   -23532   -23532   -23527   -23520   -23512 
  -23505   -23500   -23488   -23475   -23466   -23456   -23451   -23457 
  -23463   -23458   -23447   -23440   -23444   -23464   -23490   -23517 
  -23547   -23580   -23607   -23628   -23640   -23654   -23672   -23689 
  -23698   -23696   -23683   -23671   -23665   -23660   -23644   -23617 
  -23595   -23579   -23565   -23561   -23559   -23554   -23549   -23543 
  -23528   -23505   -23491   -23492   -23503   -23514   -23514   -23507 
  -23510   -23522   -23527   -23518   -23498   -23474   -23458   -23459 
  -23472   -23484   -23487   -23484   -23483   -23486   -23495   -23506 
  -23515   -23522   -23531   -23537   -23536   -23538   -23543   -23547 
  -23548   -23539   -23521   -23506   -23505   -23525   -23550   -23559 
  -23556   -23552   -23551   -23557   -23571   -23582   -23589   -23591 
  -23585   -23582   -23586   -23596   -23604   -23604   -23602   -23599 
  -23592   -23587   -23587   -23585   -23578   -23575   -23585   -23596 
  -23602   -23598   -23588   -23578   -23572   -23569   -23566   -23557 
  -23535   -23508   -23486   -23473   -23472   -23483   -23496   -23495 
  -23482   -23474   -23480   -23497   -23525   -23548   -23549   -23534 
  -23517   -23516   -23535   -23558   -23573   -23573   -23551   -23527 
  -23508   -23490   -23476   -23470   -23463   -23450   -23436   -23424 
  -23424   -23437   -23447   -23452   -23457   -23458   -23466   -23487 
