Origin Time       2025/03/29 04:45:00
Lat.              31.090
Long.             131.512
Depth. (km)       33
Mag.              4.6
Station Code      MYZH11
Station Lat.      32.0208
Station Long.     131.4700
Station Height(m) -200.3
Record Time       2025/03/29 04:45:49
Sampling Freq(Hz) 100Hz
Duration Time(s)  120
Dir.              1
Scale Factor      3923(gal)/8224838
Max. Acc. (gal)   0.215
Last Correction   2025/03/29 04:45:49
Memo.             
[...]
   -4726    -4723    -4738    -4760    -4788    -4819    -4842    -4857 
   -4868    -4868    -4850    -4822    -4793    -4772    -4758    -4756 
   -4754    -4757    -4765    -4770    -4772    -4774    -4772    -4762 
   -4752    -4747    -4745    -4743    -4743    -4747    -4760    -4777 
   -4792    -4810    -4827    -4841    -4849    -4854    -4854    -4854 
   -4855    -4853    -4846    -4843    -4843    -4839    -4830    -4823 
   -4820    -4811    -4795    -4780    -4764    -4745    -4725    -4708 
   -4703    -4708    -4716    -4719    -4720    -4723    -4723    -4720 
   -4729    -4742    -4747    -4756    -4768    -4779    -4789    -4801 
   -4801    -4789    -4777    -4766    -4752    -4743    -4752    -4764 
   -4773    -4791    -4818    -4847    -4873    -4889    -4899    -4903 
   -4900    -4893    -4881    -4866    -4851    -4828    -4796    -4768 
   -4745    -4730    -4720    -4715    -4712    -4716    -4729    -4741 
   -4749    -4761    -4774    -4785    -4793    -4796    -4793    -4787 
   -4773    -4756    -4742    -4733    -4725    -4719    -4722    -4735 
   -4760    -4787    -4811    -4827    -4830    -4824    -4818    -4812 
   -4808    -4795    -4783    -4777    -4769    -4762    -4764    -4774 
   -4791    -4807    -4824    -4834    -4834    -4827    -4816    -4803 
   -4789    -4779    -4772    -4764    -4756    -4756    -4761    -4772 
   -4783    -4788    -4797    -4804    -4803    -4797    -4787    -4773 
   -4760    -4746    -4737    -4734    -4733    -4727    -4719    -4710 
   -4706    -4710    -4720    -4730    -4739    -4749    -4761    -4769 
   -4772    -4781    -4796    -4812    -4831    -4850    -4872    -4887 
   -4880    -4864    -4841    -4806    -4765    -4730    -4710    -4706 
   -4714    -4735    -4762    -4781    -4789    -4788    -4781    -4766 
   -4749    -4734    -4720    -4716    -4725    -4738    -4752    -4768 
   -4787    -4799    -4801    -4796    -4785    -4770    -4756    -4742 
   -4745    -4768    -4799    -4835    -4873    -4901    -4918    -4920 
   -4904    -4881    -4861    -4839    -4815    -4801    -4793    -4774 
   -4756    -4745    -4729    -4702    -4683    -4675    -4669    -4675 
   -4692    -4708    -4723    -4753    -4784    -4799    -4807    -4816 
   -4824    -4820    -4816    -4818    -4818    -4816    -4816    -4810 
   -4792    -4776    -4762    -4745    -4727    -4714    -4702    -4693 
   -4698    -4711    -4734    -4769    -4807    -4839    -4868    -4888 
   -4892    -4884    -4868    -4850    -4834    -4820    -4815    -4820 
   -4826    -4828    -4826    -4812    -4796    -4783    -4769    -4757 
   -4750    -4746    -4743    -4742    -4743    -4747    -4747    -4747 
   -4749    -4745    -4735    -4723    -4712    -4700    -4692    -4692 
   -4693    -4695    -4703    -4719    -4737    -4757    -4779    -4797 
   -4814    -4835    -4854    -4861    -4869    -4882    -4893    -4899 
   -4903    -4907    -4907    -4903    -4892    -4877    -4857    -4834 
   -4811    -4788    -4760    -4729    -4700    -4677    -4665    -4668 
   -4681    -4703    -4729    -4753    -4773    -4785    -4789    -4784 
   -4774    -4769    -4769    -4766    -4766    -4765    -4758    -4752 
   -4747    -4735    -4725    -4716    -4708    -4707    -4723    -4747 
   -4769    -4785    -4804    -4819    -4826    -4831    -4834    -4833 
   -4830    -4834    -4839    -4843    -4847    -4845    -4838    -4830 
   -4816    -4796    -4774    -4757    -4750    -4750    -4753    -4757 
   -4762    -4768    -4768    -4766    -4766    -4765    -4760    -4762 
   -4764    -4757    -4752    -4749    -4747    -4752    -4761    -4770 
   -4781    -4791    -4797    -4796    -4796    -4793    -4789    -4787 
   -4785    -4784    -4781    -4780    -4783    -4788    -4793    -4797 
   -4797    -4793    -4787    -4780    -4776    -4772    -4768    -4768 
   -4772    -4776    -4784    -4788    -4787    -4787    -4791    -4795 
   -4796    -4799    -4800    -4800    -4796    -4787    -4784    -4791 
   -4800    -4808    -4814    -4811    -4803    -4793    -4780    -4766 
   -4758    -4765    -4780    -4791    -4801    -4815    -4823    -4828 
   -4827    -4814    -4793    -4769    -4741    -4711    -4693    -4692 
   -4696    -4706    -4720    -4737    -4745    -4756    -4769    -4774 
   -4774    -4780    -4785    -4787    -4784    -4777    -4768    -4756 
   -4743    -4735    -4729    -4726    -4730    -4734    -4745    -4761 
   -4776    -4789    -4807    -4827    -4846    -4862    -4874    -4873 
   -4862    -4850    -4835    -4819    -4808    -4795    -4777    -4760 
   -4747    -4737    -4722    -4708    -4700    -4699    -4703    -4712 
   -4722    -4723    -4722    -4726    -4730    -4735    -4742    -4743 
   -4749    -4760    -4772    -4788    -4807    -4823    -4838    -4846 
   -4845    -4846    -4842    -4828    -4811    -4791    -4770    -4764 
   -4769    -4779    -4795    -4823    -4851    -4872    -4881    -4881 
   -4868    -4849    -4835    -4826    -4816    -4812    -4819    -4828 
   -4837    -4845    -4851    -4851    -4846    -4846    -4843    -4834 
   -4819    -4804    -4787    -4766    -4743    -4729    -4726    -4725 
   -4727    -4735    -4742    -4743    -4741    -4735    -4729    -4719 
   -4714    -4710    -4706    -4707    -4712    -4716    -4715    -4711 
   -4708    -4714    -4722    -4729    -4737    -4742    -4742    -4749 
   -4761    -4773    -4791    -4814    -4835    -4857    -4884    -4914 
   -4941    -4957    -4969    -4980    -4978    -4970    -4953    -4924 
   -4897    -4874    -4860    -4854    -4857    -4861    -4861    -4857 
   -4846    -4823    -4800    -4788    -4783    -4784    -4793    -4808 
   -4816    -4814    -4807    -4787    -4752    -4711    -4668    -4626 
   -4587    -4546    -4517    -4503    -4506    -4525    -4556    -4592 
   -4627    -4653    -4658    -4650    -4631    -4604    -4585    -4573 
   -4568    -4571    -4587    -4610    -4633    -4662    -4698    -4730 
   -4760    -4793    -4824    -4843    -4853    -4853    -4845    -4843 
   -4855    -4873    -4895    -4912    -4918    -4914    -4892    -4854 
   -4818    -4792    -4774    -4772    -4785    -4803    -4827    -4851 
   -4861    -4861    -4855    -4841    -4820    -4806    -4793    -4785 
   -4780    -4784    -4793    -4800    -4800    -4800    -4799    -4796 
   -4791    -4785    -4784    -4787    -4791    -4796    -4808    -4823 
   -4837    -4845    -4850    -4849    -4838    -4820    -4800    -4777 
   -4753    -4726    -4698    -4673    -4660    -4657    -4665    -4685 
   -4708    -4737    -4776    -4808    -4830    -4847    -4857    -4864 
   -4880    -4899    -4912    -4920    -4930    -4934    -4922    -4900 
   -4872    -4846    -4822    -4806    -4806    -4816    -4831    -4847 
   -4864    -4880    -4895    -4907    -4923    -4938    -4947    -4962 
   -4974    -4986    -5000    -5009    -5008    -4996    -4972    -4943 
   -4914    -4878    -4842    -4811    -4777    -4741    -4715    -4696 
   -4671    -4648    -4629    -4611    -4596    -4591    -4590    -4591 
   -4598    -4614    -4638    -4657    -4660    -4652    -4638    -4610 
   -4572    -4542    -4527    -4525    -4538    -4569    -4611    -4656 
   -4700    -4743    -4776    -4789    -4789    -4779    -4761    -4752 
   -4764    -4792    -4828    -4874    -4919    -4946    -4950    -4932 
   -4904    -4873    -4843    -4816    -4803    -4804    -4810    -4812 
   -4808    -4797    -4777    -4752    -4726    -4706    -4689    -4684 
   -4680    -4672    -4666    -4673    -4683    -4692    -4710    -4720 
   -4720    -4711    -4685    -4650    -4625    -4604    -4595    -4608 
   -4645    -4692    -4738    -4783    -4822    -4847    -4858    -4860 
   -4849    -4823    -4796    -4773    -4760    -4756    -4754    -4764 
   -4789    -4824    -4860    -4881    -4884    -4868    -4837    -4806 
   -4783    -4766    -4758    -4762    -4770    -4781    -4788    -4792 
   -4801    -4804    -4797    -4796    -4801    -4811    -4826    -4842 
   -4853    -4865    -4878    -4884    -4885    -4885    -4876    -4861 
   -4846    -4834    -4827    -4826    -4828    -4838    -4850    -4861 
   -4866    -4869    -4869    -4862    -4857    -4857    -4851    -4841 
   -4827    -4808    -4784    -4762    -4743    -4726    -4707    -4692 
   -4685    -4681    -4684    -4699    -4715    -4722    -4727    -4731 
   -4730    -4731    -4739    -4745    -4750    -4761    -4784    -4822 
   -4868    -4911    -4945    -4959    -4946    -4909    -4854    -4789 
   -4731    -4688    -4657    -4637    -4633    -4644    -4660    -4680 
   -4702    -4725    -4752    -4779    -4806    -4828    -4850    -4870 
   -4882    -4889    -4889    -4877    -4857    -4833    -4812    -4799 
   -4788    -4780    -4776    -4766    -4754    -4742    -4731    -4725 
   -4715    -4703    -4689    -4680    -4684    -4698    -4707    -4716 
   -4731    -4746    -4757    -4760    -4752    -4739    -4729    -4722 
   -4722    -4729    -4739    -4746    -4747    -4747    -4747    -4750 
   -4761    -4774    -4789    -4806    -4811    -4807    -4799    -4781 
   -4758    -4735    -4711    -4687    -4666    -4646    -4625    -4604 
   -4581    -4557    -4538    -4530    -4536    -4553    -4583    -4625 
   -4672    -4716    -4764    -4814    -4865    -4914    -4957    -4990 
   -5003    -4990    -4969    -4942    -4915    -4900    -4903    -4914 
   -4932    -4957    -4981    -5003    -5017    -5023    -5013    -4988 
   -4966    -4950    -4923    -4895    -4874    -4855    -4842    -4837 
   -4830    -4819    -4803    -4779    -4745    -4708    -4676    -4648 
   -4630    -4634    -4656    -4685    -4722    -4757    -4781    -4793 
   -4800    -4803    -4803    -4796    -4779    -4752    -4719    -4684 
   -4644    -4608    -4590    -4584    -4583    -4587    -4598    -4614 
   -4633    -4661    -4698    -4733    -4774    -4820    -4866    -4911 
   -4950    -4981    -5001    -5009    -5005    -4986    -4959    -4932 
   -4905    -4882    -4870    -4868    -4874    -4888    -4903    -4914 
   -4916    -4922    -4923    -4907    -4889    -4878    -4862    -4845 
   -4837    -4831    -4828    -4828    -4828    -4822    -4800    -4769 
   -4739    -4708    -4669    -4637    -4612    -4587    -4571    -4575 
   -4584    -4594    -4617    -4648    -4673    -4693    -4704    -4707 
   -4703    -4695    -4684    -4668    -4653    -4638    -4629    -4626 
   -4625    -4627    -4638    -4652    -4676    -4708    -4731    -4745 
   -4761    -4772    -4768    -4756    -4742    -4723    -4702    -4675 
   -4648    -4630    -4623    -4623    -4638    -4665    -4699    -4743 
   -4799    -4853    -4908    -4966    -5019    -5058    -5085    -5097 
   -5096    -5081    -5053    -5020    -4985    -4945    -4908    -4874 
   -4835    -4799    -4768    -4742    -4719    -4696    -4677    -4660 
   -4639    -4619    -4606    -4599    -4603    -4614    -4635    -4671 
   -4707    -4738    -4773    -4815    -4850    -4878    -4901    -4919 
   -4930    -4934    -4935    -4932    -4924    -4914    -4900    -4881 
   -4865    -4851    -4842    -4838    -4845    -4847    -4842    -4838 
   -4831    -4822    -4819    -4818    -4816    -4819    -4827    -4834 
   -4839    -4847    -4858    -4865    -4868    -4873    -4877    -4882 
   -4897    -4920    -4943    -4965    -4981    -4976    -4958    -4938 
   -4909    -4872    -4823    -4768    -4711    -4657    -4617    -4599 
   -4600    -4618    -4648    -4687    -4719    -4742    -4761    -4773 
   -4773    -4766    -4758    -4752    -4743    -4730    -4720    -4715 
   -4711    -4712    -4720    -4726    -4735    -4754    -4769    -4781 
   -4795    -4807    -4815    -4822    -4828    -4826    -4819    -4814 
   -4804    -4789    -4779    -4769    -4762    -4754    -4745    -4727 
   -4700    -4672    -4650    -4634    -4625    -4627    -4641    -4657 
   -4673    -4692    -4715    -4739    -4760    -4772    -4781    -4781 
   -4773    -4758    -4731    -4698    -4664    -4629    -4599    -4579 
   -4567    -4561    -4560    -4563    -4572    -4581    -4592    -4603 
   -4606    -4602    -4598    -4591    -4584    -4592    -4615    -4646 
   -4688    -4742    -4801    -4858    -4914    -4963    -5012    -5051 
   -5078    -5094    -5105    -5105    -5094    -5081    -5059    -5026 
   -4986    -4945    -4899    -4855    -4816    -4780    -4742    -4700 
   -4661    -4626    -4592    -4571    -4561    -4552    -4546    -4548 
   -4553    -4576    -4611    -4649    -4689    -4727    -4753    -4768 
   -4776    -4773    -4758    -4737    -4726    -4723    -4731    -4752 
   -4785    -4835    -4896    -4961    -5030    -5092    -5142    -5175 
   -5188    -5177    -5151    -5113    -5067    -5024    -4989    -4959 
   -4931    -4907    -4882    -4853    -4815    -4776    -4731    -4681 
   -4629    -4575    -4527    -4487    -4456    -4446    -4452    -4461 
   -4479    -4502    -4529    -4561    -4595    -4623    -4648    -4668 
   -4677    -4680    -4685    -4693    -4699    -4706    -4725    -4746 
   -4761    -4776    -4792    -4811    -4830    -4850    -4877    -4907 
   -4932    -4953    -4974    -4995    -5009    -5020    -5024    -5017 
   -5004    -4985    -4959    -4928    -4901    -4877    -4857    -4845 
   -4835    -4822    -4804    -4787    -4762    -4723    -4671    -4615 
   -4560    -4503    -4450    -4405    -4367    -4342    -4333    -4340 
   -4356    -4384    -4428    -4480    -4540    -4602    -4669    -4734 
   -4792    -4849    -4907    -4959    -5003    -5043    -5080    -5116 
   -5150    -5178    -5202    -5224    -5231    -5225    -5208    -5179 
   -5142    -5100    -5059    -5022    -4988    -4959    -4931    -4904 
   -4882    -4866    -4855    -4853    -4855    -4860    -4858    -4850 
   -4831    -4799    -4758    -4712    -4669    -4634    -4603    -4584 
   -4583    -4598    -4615    -4638    -4673    -4703    -4723    -4742 
   -4749    -4739    -4722    -4698    -4669    -4649    -4637    -4635 
   -4650    -4680    -4720    -4769    -4822    -4872    -4914    -4945 
   -4970    -4989    -5000    -5008    -5012    -5015    -5022    -5024 
   -5026    -5028    -5030    -5024    -5016    -5011    -5004    -4992 
   -4977    -4962    -4942    -4924    -4912    -4900    -4889    -4885 
   -4881    -4870    -4851    -4824    -4796    -4764    -4730    -4698 
   -4665    -4635    -4606    -4579    -4553    -4531    -4518    -4513 
   -4518    -4534    -4557    -4588    -4622    -4650    -4679    -4707 
   -4729    -4739    -4746    -4742    -4726    -4707    -4687    -4668 
   -4657    -4650    -4645    -4653    -4669    -4681    -4703    -4725 
   -4742    -4769    -4797    -4815    -4828    -4831    -4822    -4810 
   -4797    -4789    -4783    -4780    -4785    -4791    -4787    -4777 
   -4766    -4750    -4727    -4707    -4691    -4677    -4669    -4666 
   -4669    -4675    -4685    -4699    -4711    -4730    -4753    -4772 
   -4789    -4808    -4819    -4822    -4827    -4830    -4830    -4833 
   -4839    -4843    -4837    -4823    -4806    -4780    -4753    -4727 
   -4708    -4693    -4677    -4661    -4644    -4626    -4619    -4612 
   -4606    -4602    -4599    -4598    -4600    -4612    -4629    -4649 
   -4672    -4698    -4726    -4757    -4785    -4811    -4833    -4843 
   -4846    -4847    -4841    -4824    -4801    -4776    -4753    -4729 
   -4700    -4680    -4661    -4644    -4627    -4615    -4608    -4608 
   -4611    -4615    -4626    -4645    -4661    -4673    -4693    -4718 
   -4745    -4768    -4785    -4801    -4812    -4814    -4810    -4801 
   -4789    -4779    -4766    -4749    -4734    -4727    -4725    -4727 
   -4742    -4765    -4788    -4815    -4842    -4865    -4887    -4912 
   -4934    -4947    -4955    -4955    -4945    -4926    -4908    -4892 
   -4877    -4868    -4864    -4868    -4882    -4901    -4920    -4935 
   -4943    -4942    -4930    -4905    -4877    -4845    -4812    -4788 
   -4772    -4758    -4749    -4747    -4747    -4746    -4747    -4754 
   -4758    -4768    -4780    -4791    -4803    -4816    -4826    -4837 
   -4854    -4880    -4905    -4930    -4954    -4982    -5000    -5007 
   -5016    -5023    -5023    -5019    -5013    -5005    -4990    -4973 
   -4949    -4918    -4887    -4851    -4810    -4770    -4739    -4710 
   -4683    -4660    -4641    -4631    -4625    -4619    -4625    -4633 
   -4637    -4645    -4654    -4661    -4673    -4688    -4703    -4725 
   -4745    -4766    -4788    -4804    -4816    -4826    -4833    -4841 
   -4846    -4843    -4841    -4843    -4846    -4849    -4851    -4854 
   -4858    -4864    -4870    -4877    -4884    -4895    -4900    -4903 
   -4905    -4897    -4882    -4876    -4864    -4847    -4845    -4846 
   -4842    -4837    -4828    -4815    -4801    -4781    -4753    -4725 
   -4700    -4676    -4656    -4642    -4635    -4633    -4630    -4631 
   -4639    -4642    -4641    -4638    -4630    -4617    -4600    -4588 
   -4579    -4572    -4567    -4567    -4575    -4591    -4608    -4630 
   -4658    -4685    -4711    -4743    -4777    -4806    -4835    -4866 
   -4892    -4914    -4936    -4959    -4977    -4990    -5001    -5011 
   -5009    -5003    -4993    -4978    -4957    -4932    -4905    -4877 
   -4847    -4820    -4797    -4781    -4766    -4753    -4734    -4711 
   -4688    -4666    -4641    -4612    -4590    -4575    -4567    -4561 
   -4563    -4569    -4584    -4602    -4617    -4631    -4648    -4662 
   -4675    -4691    -4715    -4741    -4766    -4789    -4815    -4843 
   -4869    -4888    -4901    -4911    -4914    -4911    -4903    -4893 
   -4877    -4854    -4831    -4815    -4799    -4784    -4770    -4761 
   -4760    -4762    -4766    -4777    -4795    -4819    -4847    -4873 
   -4895    -4911    -4920    -4920    -4915    -4899    -4874    -4845 
   -4812    -4779    -4747    -4719    -4693    -4680    -4679    -4681 
   -4687    -4689    -4689    -4695    -4703    -4708    -4714    -4726 
   -4741    -4753    -4762    -4774    -4791    -4801    -4810    -4824 
   -4845    -4861    -4874    -4889    -4903    -4914    -4922    -4922 
   -4922    -4920    -4916    -4912    -4905    -4891    -4874    -4851 
   -4822    -4791    -4760    -4726    -4693    -4662    -4631    -4603 
   -4581    -4564    -4553    -4557    -4573    -4598    -4630    -4669 
   -4708    -4745    -4781    -4811    -4830    -4841    -4849    -4850 
   -4845    -4835    -4826    -4814    -4800    -4791    -4779    -4766 
   -4761    -4762    -4761    -4760    -4761    -4766    -4777    -4788 
   -4799    -4807    -4815    -4824    -4824    -4815    -4810    -4806 
   -4796    -4787    -4776    -4762    -4742    -4718    -4699    -4680 
   -4661    -4648    -4631    -4618    -4614    -4615    -4619    -4626 
   -4642    -4664    -4683    -4702    -4719    -4735    -4753    -4765 
   -4774    -4787    -4797    -4808    -4812    -4818    -4824    -4823 
   -4819    -4820    -4822    -4822    -4826    -4837    -4853    -4872 
   -4888    -4903    -4914    -4919    -4920    -4919    -4914    -4909 
   -4907    -4901    -4903    -4907    -4908    -4907    -4903    -4891 
   -4872    -4853    -4834    -4812    -4787    -4765    -4752    -4734 
   -4719    -4714    -4714    -4719    -4725    -4731    -4743    -4758 
   -4765    -4770    -4776    -4773    -4762    -4752    -4742    -4729 
   -4716    -4702    -4691    -4684    -4671    -4653    -4641    -4626 
