Origin Time       2025/03/29 04:45:00
Lat.              31.090
Long.             131.512
Depth. (km)       33
Mag.              4.6
Station Code      MYZH13
Station Lat.      31.7301
Station Long.     131.0791
Station Height(m) 35
Record Time       2025/03/29 04:45:34
Sampling Freq(Hz) 100Hz
Duration Time(s)  120
Dir.              2
Scale Factor      2942(gal)/8224139
Max. Acc. (gal)   0.740
Last Correction   2025/03/29 04:45:34
Memo.             
[...]
    4935     4934     4936     4932     4926     4930     4936     4935 
    4936     4936     4935     4935     4935     4932     4931     4934 
    4935     4932     4932     4935     4934     4928     4930     4932 
    4927     4930     4935     4930     4928     4934     4934     4931 
    4930     4930     4931     4932     4934     4934     4930     4931 
    4934     4931     4930     4935     4930     4924     4928     4928 
    4924     4927     4931     4926     4924     4932     4932     4928 
    4930     4931     4931     4928     4930     4938     4936     4934 
    4934     4930     4931     4936     4935     4934     4935     4930 
    4924     4930     4935     4928     4926     4935     4935     4930 
    4932     4934     4932     4932     4931     4928     4926     4930 
    4932     4927     4926     4931     4928     4926     4931     4931 
    4926     4926     4931     4928     4924     4924     4920     4919 
    4920     4915     4915     4919     4919     4920     4927     4934 
    4939     4939     4941     4943     4943     4941     4942     4942 
    4936     4938     4942     4936     4926     4922     4922     4924 
    4934     4938     4942     4946     4942     4939     4942     4931 
    4919     4920     4919     4912     4908     4900     4897     4908 
    4928     4945     4945     4942     4947     4950     4943     4926 
    4909     4911     4926     4936     4941     4947     4949     4955 
    4974     4982     4977     4965     4953     4955     4951     4941 
    4935     4932     4935     4942     4935     4922     4909     4896 
    4887     4882     4893     4923     4957     4984     4989     4973 
    4950     4931     4916     4900     4885     4891     4915     4943 
    4969     4974     4963     4951     4938     4930     4934     4927 
    4901     4893     4914     4939     4961     4977     4982     4977 
    4955     4922     4887     4862     4866     4907     4942     4935 
    4896     4868     4872     4914     4969     4996     4999     5001 
    5000     4980     4932     4882     4851     4845     4864     4893 
    4914     4936     4977     5027     5050     5016     4947     4893 
    4874     4896     4945     4978     4965     4908     4842     4810 
    4838     4901     4943     4914     4830     4774     4819     4938 
    5054     5108     5085     5008     4926     4858     4823     4835 
    4872     4915     4962     4974     4957     4953     4969     4978 
    4969     4950     4934     4922     4909     4897     4900     4934 
    4981     4996     4965     4905     4854     4835     4845     4865 
    4887     4907     4936     4973     4993     4986     4966     4961 
    4966     4958     4939     4916     4903     4900     4887     4858 
    4847     4870     4891     4896     4914     4943     4959     4970 
    4973     4968     4970     4966     4936     4920     4941     4965 
    4974     4962     4918     4869     4869     4920     4981     5012 
    5000     4958     4918     4899     4880     4838     4793     4780 
    4816     4893     4989     5077     5123     5115     5076     5020 
    4962     4909     4870     4845     4830     4824     4835     4862 
    4911     4981     5062     5123     5124     5049     4936     4854 
    4834     4847     4857     4831     4761     4680     4644     4671 
    4747     4833     4896     4957     5034     5108     5166     5197 
    5182     5112     5001     4882     4797     4769     4792     4847 
    4946     5067     5155     5196     5194     5147     5073     4990 
    4899     4799     4712     4687     4738     4820     4880     4903 
    4907     4909     4918     4926     4930     4930     4918     4907 
    4909     4923     4920     4889     4854     4818     4768     4745 
    4774     4823     4861     4891     4939     5022     5108     5162 
    5181     5162     5108     5026     4927     4850     4820     4823 
    4839     4853     4857     4862     4895     4946     4978     4977 
    4946     4901     4874     4873     4877     4881     4887     4897 
    4927     4986     5059     5124     5159     5136     5054     4955 
    4896     4889     4912     4935     4939     4900     4818     4742 
    4716     4741     4800     4850     4868     4870     4878     4903 
    4943     5000     5047     5057     5022     4954     4905     4911 
    4953     4990     4981     4930     4873     4842     4851     4868 
    4855     4823     4796     4777     4788     4860     4982     5121 
    5217     5228     5169     5088     5035     5036     5065     5097 
    5115     5100     5053     4989     4931     4895     4872     4845 
    4804     4752     4706     4696     4743     4822     4880     4904 
    4903     4876     4834     4796     4766     4761     4779     4796 
    4838     4916     5000     5066     5109     5109     5059     4985 
    4903     4830     4814     4862     4943     5022     5070     5084 
    5071     5038     4996     4968     4962     4976     4989     4985 
    4972     4959     4957     4955     4955     4954     4930     4884 
    4837     4789     4762     4776     4818     4869     4909     4919 
    4908     4905     4931     4977     5023     5044     5030     4986 
    4915     4831     4774     4749     4756     4804     4881     4965 
    5036     5084     5103     5085     5011     4901     4800     4722 
    4676     4679     4727     4807     4892     4959     5004     5031 
    5055     5073     5069     5039     4992     4932     4881     4862 
    4882     4926     4973     5008     5028     5036     5036     5038 
    5034     5007     4943     4857     4787     4746     4727     4734 
    4765     4804     4843     4874     4905     4945     4968     4958 
    4932     4897     4860     4826     4792     4758     4737     4738 
    4774     4838     4907     4974     5024     5061     5094     5105 
    5077     5024     4950     4869     4806     4764     4738     4746 
    4788     4850     4932     5013     5070     5124     5173     5190 
    5177     5125     5043     4954     4861     4787     4765     4785 
    4819     4843     4850     4857     4880     4928     5003     5067 
    5092     5057     4962     4851     4764     4714     4691     4689 
    4707     4742     4791     4843     4911     5001     5084     5146 
    5189     5197     5161     5098     5027     4954     4895     4866 
    4872     4904     4947     4982     5001     5001     4976     4934 
    4888     4838     4806     4807     4822     4833     4830     4818 
    4822     4846     4881     4928     4999     5069     5109     5115 
    5082     5015     4951     4915     4901     4916     4943     4965 
    4976     4969     4943     4907     4864     4828     4811     4800 
    4784     4768     4762     4779     4816     4858     4889     4919 
    4949     4973     5001     5040     5077     5097     5098     5085 
    5062     5023     4981     4947     4920     4908     4899     4882 
    4858     4818     4765     4723     4696     4683     4700     4757 
    4835     4920     4999     5053     5078     5085     5069     5035 
    5009     4995     4972     4951     4934     4905     4891     4893 
    4885     4873     4872     4866     4860     4855     4847     4846 
    4862     4895     4939     4992     5030     5038     5026     4992 
    4938     4884     4849     4835     4838     4847     4855     4864 
    4873     4882     4895     4914     4927     4928     4924     4922 
    4920     4908     4885     4876     4878     4881     4885     4897 
    4912     4915     4908     4901     4908     4930     4963     5005 
    5038     5053     5050     5027     4984     4939     4892     4835 
    4776     4729     4720     4746     4806     4908     5007     5063 
    5089     5082     5057     5028     4999     4973     4947     4935 
    4950     4982     5022     5067     5108     5125     5112     5058 
    4986     4911     4820     4735     4681     4652     4649     4665 
    4689     4726     4773     4822     4862     4893     4911     4919 
    4932     4955     4981     5003     5030     5054     5066     5062 
    5040     5012     4988     4958     4930     4919     4915     4912 
    4918     4924     4934     4946     4942     4923     4896     4864 
    4857     4870     4885     4914     4951     4985     5012     5016 
    4999     4977     4953     4930     4914     4893     4866     4843 
    4828     4834     4858     4881     4892     4873     4827     4791 
    4779     4784     4810     4847     4868     4866     4855     4853 
    4865     4896     4955     5034     5104     5154     5173     5155 
    5108     5049     4981     4908     4838     4773     4723     4707 
    4725     4756     4795     4853     4923     4993     5063     5128 
    5174     5200     5201     5178     5148     5116     5086     5062 
    5032     4989     4936     4876     4808     4749     4714     4700 
    4700     4718     4737     4742     4754     4781     4808     4820 
    4823     4831     4847     4866     4882     4907     4947     4995 
    5043     5077     5089     5078     5051     5022     5004     4999 
    5001     5013     5024     5028     5028     5027     5019     5009 
    4997     4984     4966     4945     4936     4942     4950     4963 
    4973     4969     4969     4974     4976     4977     4970     4953 
    4922     4870     4806     4738     4681     4642     4617     4607 
    4610     4607     4617     4653     4712     4784     4860     4934 
    4997     5054     5097     5119     5124     5111     5077     5034 
    4984     4934     4903     4893     4900     4924     4955     4980 
    4989     4993     4982     4955     4930     4899     4887     4901 
    4922     4941     4957     4953     4942     4941     4934     4926 
    4919     4909     4909     4930     4961     4997     5027     5043 
    5046     5038     5020     5003     4982     4949     4908     4877 
    4846     4815     4791     4772     4764     4768     4785     4810 
    4838     4873     4904     4924     4928     4928     4928     4922 
    4926     4950     4976     4996     5013     5013     4989     4949 
    4900     4855     4818     4783     4761     4758     4779     4822 
    4874     4935     4996     5039     5063     5081     5092     5086 
    5065     5042     5009     4962     4924     4897     4870     4849 
    4834     4828     4827     4827     4845     4873     4897     4923 
    4942     4946     4958     4985     5022     5066     5108     5147 
    5185     5205     5215     5229     5238     5243     5256     5266 
    5267     5278     5293     5309     5332     5347     5333     5297 
    5238     5159     5080     5007     4941     4897     4868     4847 
    4847     4853     4862     4870     4861     4851     4841     4792 
    4710     4622     4534     4452     4396     4378     4392     4419 
    4440     4457     4476     4494     4521     4571     4642     4734 
    4838     4951     5059     5147     5221     5266     5263     5228 
    5163     5069     4965     4869     4776     4698     4644     4611 
    4608     4629     4662     4715     4776     4831     4873     4895 
    4897     4889     4874     4858     4839     4823     4814     4807 
    4803     4800     4785     4750     4699     4635     4565     4496 
    4441     4403     4376     4360     4349     4338     4337     4352 
    4384     4436     4488     4530     4572     4611     4644     4679 
    4708     4731     4745     4742     4718     4684     4646     4602 
    4565     4545     4541     4560     4608     4691     4811     4970 
    5157     5344     5520     5671     5780     5844     5860     5852 
    5844     5830     5813     5805     5796     5775     5742     5695 
    5624     5512     5354     5169     4958     4738     4548     4406 
    4332     4344     4432     4563     4720     4878     5007     5112 
    5200     5256     5290     5304     5296     5271     5248     5233 
    5219     5204     5170     5093     4963     4803     4626     4452 
    4297     4166     4064     4016     4031     4116     4272     4483 
    4714     4955     5197     5412     5594     5757     5906     6038 
    6143     6223     6286     6326     6331     6313     6276     6196 
    6069     5903     5697     5452     5196     4954     4746     4588 
    4487     4437     4421     4429     4465     4523     4598     4683 
    4756     4804     4830     4819     4783     4756     4746     4753 
    4784     4822     4834     4807     4745     4662     4584     4515 
    4441     4338     4212     4071     3931     3809     3727     3690 
    3697     3732     3781     3848     3940     4059     4222     4445 
    4720     5024     5339     5643     5906     6111     6255     6332 
    6332     6269     6147     5967     5759     5553     5350     5169 
    5024     4907     4818     4754     4703     4653     4603     4560 
    4540     4558     4615     4708     4845     5007     5157     5275 
    5341     5332     5255     5112     4911     4675     4419     4145 
    3869     3613     3418     3307     3289     3349     3462     3612 
    3785     3959     4145     4359     4598     4873     5169     5474 
    5788     6079     6323     6515     6617     6615     6513     6326 
    6091     5864     5676     5544     5482     5486     5537     5629 
    5737     5829     5898     5925     5900     5832     5721     5583 
    5429     5252     5057     4851     4642     4422     4185     3940 
    3707     3481     3264     3079     2937     2853     2859     2961 
    3148     3406     3704     4014     4314     4590     4841     5049 
    5212     5337     5413     5455     5487     5505     5522     5548 
    5566     5552     5499     5416     5292     5125     4946     4780 
    4641     4544     4506     4541     4641     4793     4980     5173 
    5346     5482     5572     5618     5620     5589     5547     5493 
    5435     5385     5325     5244     5142     5003     4819     4607 
    4383     4171     3983     3844     3778     3784     3855     3990 
    4159     4342     4522     4680     4818     4926     5007     5085 
    5161     5236     5328     5417     5493     5562     5603     5618 
    5625     5625     5616     5616     5630     5667     5734     5822 
    5917     6012     6092     6137     6149     6116     6039     5944 
    5832     5683     5502     5302     5088     4868     4657     4455 
    4267     4106     3974     3863     3770     3705     3662     3630 
    3605     3586     3578     3591     3619     3677     3782     3933 
    4124     4342     4577     4819     5046     5238     5404     5544 
    5656     5752     5823     5857     5867     5856     5818     5744 
    5634     5494     5317     5111     4907     4708     4533     4396 
    4297     4230     4197     4195     4229     4297     4386     4492 
    4598     4684     4750     4799     4815     4799     4758     4699 
    4615     4511     4403     4315     4266     4267     4326     4430 
    4553     4676     4780     4855     4900     4927     4950     4977 
    5003     5038     5104     5200     5319     5467     5629     5776 
    5903     5995     6052     6102     6157     6207     6253     6303 
    6355     6385     6386     6358     6277     6151     5994     5787 
    5541     5281     5003     4714     4445     4190     3951     3763 
    3639     3584     3615     3726     3894     4101     4329     4567 
    4797     5012     5201     5355     5475     5549     5571     5548 
    5481     5355     5184     4986     4770     4558     4363     4176 
    4009     3881     3789     3739     3743     3805     3924     4094 
    4306     4537     4764     4974     5167     5337     5478     5583 
    5659     5702     5706     5668     5593     5490     5381     5269 
    5161     5058     4946     4827     4710     4602     4506     4441 
    4426     4449     4498     4580     4680     4776     4870     4958 
    5000     4990     4945     4861     4743     4610     4479     4372 
    4290     4221     4172     4124     4078     4062     4067     4072 
    4085     4105     4126     4148     4191     4271     4384     4523 
    4684     4849     5008     5173     5339     5493     5637     5763 
    5863     5942     6007     6058     6102     6139     6162     6169 
    6158     6124     6069     6003     5927     5845     5757     5661 
    5549     5418     5265     5084     4889     4699     4507     4324 
    4168     4047     3960     3896     3846     3816     3801     3786 
    3773     3767     3777     3801     3842     3906     4000     4122 
    4268     4438     4626     4820     5012     5201     5394     5584 
    5763     5918     6037     6102     6110     6070     6000     5906 
    5809     5736     5694     5687     5730     5821     5940     6077 
    6207     6296     6336     6327     6258     6127     5949     5749 
    5536     5301     5055     4812     4557     4290     4032     3798 
    3596     3439     3343     3311     3348     3447     3584     3747 
    3933     4120     4287     4425     4519     4571     4584     4561 
    4526     4499     4472     4455     4457     4463     4465     4473 
    4484     4498     4509     4518     4526     4541     4583     4654 
    4764     4923     5111     5305     5505     5688     5850     5989 
    6089     6150     6187     6193     6164     6108     6031     5934 
    5818     5682     5526     5344     5142     4935     4723     4517 
    4337     4180     4054     3962     3896     3859     3856     3879 
    3919     3970     4039     4131     4232     4352     4498     4650 
    4804     4969     5123     5255     5381     5479     5532     5549 
    5539     5509     5471     5428     5394     5371     5351     5347 
    5344     5339     5337     5335     5331     5321     5302     5287 
    5286     5302     5341     5386     5420     5448     5452     5404 
    5325     5219     5071     4918     4769     4622     4515     4467 
    4448     4457     4496     4537     4567     4588     4607     4622 
    4638     4656     4684     4730     4785     4831     4864     4877 
    4860     4818     4764     4691     4602     4509     4419     4341 
    4279     4247     4248     4275     4338     4440     4569     4719 
    4880     5049     5212     5350     5456     5529     5570     5576 
    5552     5518     5467     5391     5306     5215     5108     4999 
    4891     4784     4675     4563     4472     4411     4369     4360 
    4396     4469     4552     4641     4745     4843     4922     4986 
    5035     5071     5094     5096     5082     5054     5015     4972 
    4928     4892     4864     4838     4815     4788     4773     4768 
    4749     4726     4720     4735     4769     4819     4880     4942 
    4988     5015     5034     5044     5051     5057     5065     5078 
    5096     5116     5136     5155     5182     5221     5247     5258 
    5259     5232     5181     5120     5046     4968     4891     4818 
    4758     4706     4650     4602     4561     4525     4496     4482 
    4469     4465     4482     4513     4564     4627     4692     4756 
    4799     4816     4815     4796     4753     4693     4638     4598 
    4569     4568     4596     4657     4757     4885     5030     5188 
    5350     5518     5682     5825     5929     5977     5977     5941 
