Origin Time       2025/03/29 04:45:00
Lat.              31.090
Long.             131.512
Depth. (km)       33
Mag.              4.6
Station Code      MYZH08
Station Lat.      32.2132
Station Long.     131.5309
Station Height(m) -145.9
Record Time       2025/03/29 04:46:03
Sampling Freq(Hz) 100Hz
Duration Time(s)  120
Dir.              3
Scale Factor      2940(gal)/6170270
Max. Acc. (gal)   0.080
Last Correction   2025/03/29 04:45:48
Memo.             
[...]
   94726    94715    94702    94702    94704    94708    94712    94710 
   94700    94693    94693    94690    94681    94666    94647    94635 
   94633    94636    94644    94662    94677    94683    94688    94684 
   94672    94667    94663    94663    94671    94684    94700    94719 
   94727    94719    94704    94684    94657    94632    94615    94607 
   94607    94611    94624    94638    94649    94660    94669    94671 
   94667    94655    94643    94637    94633    94632    94631    94629 
   94631    94631    94628    94636    94652    94660    94665    94667 
   94663    94667    94678    94681    94675    94659    94644    94633 
   94616    94600    94600    94614    94638    94669    94692    94710 
   94727    94727    94716    94713    94714    94708    94704    94705 
   94702    94699    94696    94691    94687    94686    94688    94679 
   94659    94648    94640    94629    94627    94628    94628    94638 
   94659    94679    94696    94706    94712    94717    94716    94706 
   94696    94688    94679    94669    94655    94649    94657    94667 
   94674    94685    94691    94689    94687    94682    94677    94673 
   94664    94657    94657    94662    94666    94665    94662    94657 
   94649    94646    94659    94678    94692    94707    94722    94728 
   94730    94723    94703    94684    94669    94658    94654    94648 
   94647    94653    94656    94655    94655    94649    94638    94631 
   94630    94632    94635    94631    94632    94641    94638    94633 
   94639    94645    94650    94662    94674    94681    94685    94683 
   94678    94675    94664    94644    94632    94629    94630    94642 
   94659    94672    94681    94688    94693    94693    94685    94678 
   94680    94677    94673    94670    94656    94643    94647    94649 
   94649    94663    94677    94678    94681    94690    94693    94688 
   94683    94682    94681    94676    94672    94666    94659    94661 
   94671    94678    94679    94678    94673    94665    94658    94649 
   94639    94646    94664    94675    94687    94698    94695    94694 
   94698    94693    94679    94669    94660    94645    94629    94617 
   94606    94595    94588    94588    94597    94615    94634    94653 
   94679    94705    94723    94732    94727    94720    94719    94722 
   94728    94731    94723    94709    94701    94688    94670    94661 
   94656    94651    94654    94656    94652    94648    94654    94663 
   94665    94665    94668    94664    94661    94666    94666    94662 
   94671    94681    94680    94679    94676    94663    94652    94654 
   94661    94667    94674    94682    94680    94663    94638    94615 
   94604    94598    94590    94595    94611    94633    94661    94682 
   94692    94698    94702    94700    94698    94708    94720    94731 
   94744    94753    94752    94740    94721    94702    94685    94668 
   94651    94640    94633    94621    94613    94616    94623    94633 
   94643    94646    94646    94648    94645    94640    94640    94648 
   94664    94679    94690    94708    94727    94732    94727    94719 
   94705    94685    94668    94657    94650    94653    94665    94676 
   94690    94711    94724    94725    94727    94726    94708    94683 
   94669    94659    94649    94646    94646    94646    94646    94648 
   94649    94649    94654    94662    94667    94665    94663    94660 
   94651    94639    94634    94640    94656    94674    94689    94698 
   94696    94690    94688    94683    94675    94675    94676    94677 
   94688    94699    94704    94710    94716    94719    94723    94723 
   94719    94715    94705    94689    94672    94651    94626    94599 
   94579    94567    94562    94560    94558    94563    94579    94596 
   94608    94622    94634    94636    94633    94631    94623    94613 
   94605    94598    94594    94592    94592    94595    94600    94611 
   94627    94642    94647    94648    94655    94667    94678    94683 
   94686    94692    94694    94686    94675    94669    94670    94675 
   94678    94681    94680    94679    94679    94679    94685    94689 
   94694    94707    94715    94725    94739    94742    94739    94737 
   94730    94723    94718    94716    94715    94712    94708    94709 
   94714    94723    94731    94733    94731    94730    94726    94713 
   94702    94698    94691    94679    94668    94658    94647    94634 
   94619    94608    94604    94605    94614    94626    94630    94633 
   94637    94631    94622    94619    94619    94616    94613    94612 
   94614    94619    94624    94635    94649    94658    94661    94664 
   94669    94677    94688    94699    94707    94711    94706    94694 
   94683    94673    94661    94649    94637    94622    94608    94604 
   94605    94609    94614    94616    94620    94626    94629    94634 
   94643    94649    94655    94660    94665    94676    94685    94685 
   94689    94696    94697    94701    94707    94710    94717    94723 
   94721    94718    94718    94725    94739    94748    94752    94755 
   94759    94764    94777    94785    94783    94780    94773    94758 
   94750    94737    94712    94692    94678    94663    94654    94658 
   94663    94665    94667    94663    94652    94640    94632    94630 
   94630    94630    94631    94630    94624    94615    94608    94606 
   94609    94613    94613    94618    94628    94635    94643    94658 
   94674    94689    94696    94693    94692    94694    94692    94691 
   94689    94677    94665    94659    94650    94640    94635    94633 
   94633    94632    94630    94626    94623    94623    94628    94634 
   94636    94638    94639    94642    94655    94672    94684    94687 
   94688    94693    94698    94694    94690    94689    94682    94671 
   94658    94647    94645    94650    94659    94675    94686    94691 
   94694    94692    94690    94687    94673    94659    94653    94652 
   94660    94679    94697    94712    94725    94730    94728    94726 
   94723    94715    94705    94699    94700    94702    94706    94706 
   94704    94706    94701    94689    94674    94654    94638    94627 
   94614    94600    94591    94585    94578    94570    94567    94568 
   94565    94562    94566    94577    94593    94611    94623    94640 
   94665    94679    94683    94686    94689    94692    94694    94697 
   94698    94692    94690    94686    94671    94662    94653    94642 
   94640    94641    94637    94632    94626    94618    94616    94617 
   94617    94624    94635    94645    94654    94664    94677    94687 
   94691    94698    94705    94713    94729    94747    94763    94787 
   94802    94801    94806    94816    94822    94825    94829    94831 
   94827    94818    94806    94788    94763    94741    94728    94716 
   94699    94679    94663    94648    94634    94623    94610    94597 
   94592    94593    94598    94603    94606    94614    94623    94626 
   94629    94625    94614    94607    94605    94603    94606    94611 
   94611    94610    94610    94608    94602    94603    94605    94600 
   94600    94604    94604    94604    94606    94609    94616    94626 
   94633    94637    94646    94657    94665    94675    94682    94684 
   94682    94680    94677    94673    94677    94686    94696    94708 
   94721    94732    94742    94747    94749    94745    94733    94722 
   94708    94678    94653    94640    94618    94596    94587    94580 
   94582    94592    94597    94605    94619    94635    94646    94655 
   94670    94682    94687    94693    94694    94694    94698    94702 
   94702    94700    94700    94706    94716    94726    94742    94756 
   94766    94774    94772    94765    94756    94738    94720    94708 
   94695    94680    94668    94651    94636    94634    94628    94616 
   94615    94617    94611    94605    94606    94615    94621    94616 
   94608    94597    94585    94582    94589    94600    94617    94637 
   94653    94670    94687    94696    94698    94701    94704    94700 
   94697    94698    94701    94705    94707    94699    94685    94679 
   94682    94685    94689    94693    94690    94681    94670    94667 
   94666    94664    94665    94666    94664    94662    94657    94651 
   94643    94634    94623    94611    94603    94598    94596    94593 
   94593    94598    94603    94609    94621    94634    94646    94658 
   94668    94673    94677    94682    94685    94684    94683    94684 
   94682    94679    94682    94683    94680    94677    94668    94658 
   94657    94655    94654    94658    94661    94666    94670    94670 
   94674    94676    94673    94671    94665    94658    94658    94657 
   94652    94658    94670    94676    94679    94686    94694    94700 
   94707    94715    94716    94715    94717    94718    94721    94731 
   94738    94743    94758    94768    94767    94768    94766    94753 
   94737    94722    94707    94693    94675    94661    94655    94649 
   94638    94627    94621    94613    94612    94621    94629    94633 
   94641    94650    94660    94668    94671    94669    94664    94662 
   94661    94657    94656    94654    94648    94644    94642    94641 
   94643    94648    94655    94660    94664    94671    94673    94673 
   94675    94673    94669    94663    94655    94650    94647    94643 
   94640    94632    94624    94623    94621    94623    94631    94637 
   94637    94643    94652    94657    94661    94661    94653    94647 
   94644    94643    94651    94660    94663    94673    94683    94684 
   94692    94709    94724    94740    94756    94765    94775    94784 
   94790    94796    94792    94781    94772    94761    94747    94733 
   94719    94707    94696    94683    94673    94666    94660    94654 
   94649    94649    94648    94646    94648    94652    94650    94649 
   94650    94646    94644    94645    94641    94635    94634    94634 
   94629    94625    94627    94626    94623    94620    94621    94624 
   94628    94632    94635    94636    94640    94644    94644    94641 
   94638    94630    94622    94612    94596    94582    94577    94577 
   94582    94590    94593    94595    94598    94607    94623    94638 
   94654    94674    94694    94706    94716    94724    94728    94725 
   94715    94705    94702    94700    94695    94693    94693    94685 
   94673    94660    94644    94635    94632    94627    94628    94630 
   94625    94626    94632    94634    94639    94649    94657    94668 
   94682    94687    94695    94711    94718    94721    94729    94736 
   94746    94758    94765    94770    94780    94787    94790    94794 
   94797    94790    94777    94762    94744    94724    94704    94684 
   94670    94666    94670    94674    94677    94687    94699    94709 
   94719    94726    94732    94733    94724    94710    94694    94674 
   94654    94635    94618    94600    94584    94578    94580    94586 
   94590    94590    94590    94594    94603    94610    94620    94634 
   94640    94641    94645    94646    94639    94628    94618    94608 
   94594    94586    94587    94589    94594    94602    94608    94619 
   94634    94650    94670    94686    94697    94705    94706    94703 
   94701    94691    94675    94661    94652    94643    94634    94626 
   94623    94626    94624    94618    94621    94630    94638    94651 
   94669    94678    94679    94684    94688    94691    94696    94697 
   94693    94692    94691    94687    94685    94684    94683    94685 
   94688    94692    94692    94687    94688    94689    94689    94699 
   94710    94714    94721    94724    94723    94725    94720    94714 
   94719    94719    94713    94712    94705    94691    94684    94675 
   94663    94653    94646    94644    94645    94650    94659    94669 
   94679    94686    94687    94680    94671    94672    94674    94673 
   94670    94661    94650    94644    94642    94642    94647    94652 
   94652    94651    94652    94653    94655    94654    94651    94650 
   94646    94643    94644    94643    94645    94652    94649    94645 
   94641    94631    94621    94616    94617    94620    94620    94623 
   94627    94626    94621    94615    94610    94604    94599    94594 
   94586    94580    94579    94581    94581    94587    94599    94608 
   94621    94639    94654    94671    94687    94701    94721    94739 
   94749    94759    94772    94787    94802    94815    94824    94829 
   94833    94832    94824    94816    94800    94777    94757    94739 
   94716    94691    94669    94649    94628    94611    94600    94595 
   94594    94599    94601    94602    94604    94605    94611    94620 
   94627    94639    94649    94656    94667    94678    94686    94694 
   94703    94713    94722    94730    94742    94755    94763    94768 
   94773    94781    94785    94784    94777    94763    94752    94740 
   94722    94704    94687    94665    94642    94622    94606    94589 
   94574    94564    94555    94548    94545    94540    94534    94531 
   94523    94518    94518    94519    94520    94525    94535    94546 
   94556    94568    94577    94587    94599    94602    94598    94601 
   94605    94607    94610    94616    94623    94626    94629    94634 
   94640    94647    94649    94656    94668    94673    94677    94689 
   94700    94709    94719    94728    94737    94749    94751    94747 
   94756    94766    94769    94774    94778    94782    94794    94804 
   94812    94825    94833    94836    94837    94832    94825    94819 
   94807    94789    94774    94762    94751    94741    94727    94714 
   94701    94681    94667    94662    94653    94642    94640    94639 
   94632    94623    94615    94609    94603    94601    94600    94599 
   94597    94599    94610    94621    94630    94640    94645    94645 
   94644    94642    94636    94629    94621    94613    94611    94612 
   94612    94616    94621    94621    94620    94621    94619    94618 
   94618    94614    94610    94607    94602    94594    94588    94587 
   94585    94583    94582    94584    94594    94606    94619    94638 
   94661    94678    94690    94701    94712    94719    94724    94729 
   94734    94740    94747    94753    94756    94758    94760    94765 
   94768    94766    94765    94760    94750    94747    94740    94724 
   94712    94705    94701    94701    94699    94696    94699    94701 
   94700    94698    94693    94685    94675    94668    94666    94660 
   94650    94642    94633    94623    94617    94619    94622    94623 
   94629    94639    94647    94652    94660    94667    94677    94684 
   94686    94692    94693    94688    94693    94697    94690    94687 
   94686    94676    94669    94666    94655    94645    94644    94644 
   94640    94640    94647    94655    94660    94662    94665    94671 
   94679    94683    94683    94681    94683    94680    94667    94655 
   94644    94626    94613    94605    94592    94580    94574    94570 
   94575    94586    94593    94597    94601    94609    94617    94621 
   94626    94632    94636    94638    94638    94637    94635    94632 
   94637    94640    94628    94619    94617    94613    94618    94628 
   94632    94639    94652    94661    94664    94665    94666    94670 
   94675    94676    94677    94684    94692    94701    94711    94718 
   94725    94731    94734    94741    94750    94749    94746    94751 
   94755    94758    94762    94759    94758    94762    94761    94758 
   94756    94746    94736    94726    94713    94700    94686    94668 
   94655    94645    94632    94622    94619    94616    94615    94620 
   94629    94637    94647    94656    94662    94671    94688    94703 
   94711    94716    94717    94715    94714    94710    94706    94704 
   94700    94695    94691    94687    94688    94688    94681    94673 
   94663    94653    94646    94646    94651    94649    94643    94645 
   94644    94637    94635    94633    94627    94619    94615    94609 
   94599    94595    94593    94587    94583    94586    94585    94583 
   94585    94588    94590    94599    94610    94619    94629    94637 
   94648    94665    94680    94694    94710    94724    94739    94750 
   94760    94773    94781    94784    94784    94779    94773    94770 
   94763    94753    94744    94735    94724    94712    94704    94698 
   94690    94682    94674    94669    94671    94668    94664    94666 
   94666    94663    94662    94663    94663    94662    94662    94668 
   94673    94672    94674    94678    94680    94672    94663    94661 
   94659    94658    94661    94661    94656    94648    94642    94635 
   94623    94612    94605    94599    94593    94585    94583    94585 
   94585    94583    94585    94591    94600    94610    94616    94627 
   94642    94652    94659    94668    94674    94677    94680    94679 
   94681    94681    94669    94661    94660    94656    94651    94652 
   94656    94660    94664    94671    94685    94703    94713    94719 
   94727    94729    94724    94715    94703    94694    94687    94677 
   94665    94658    94654    94648    94643    94639    94638    94639 
   94641    94650    94663    94672    94678    94685    94687    94684 
   94685    94690    94687    94684    94684    94678    94671    94666 
   94659    94655    94656    94651    94646    94649    94660    94668 
   94676    94689    94699    94705    94711    94713    94712    94712 
   94719    94726    94726    94721    94718    94713    94705    94694 
   94683    94677    94674    94673    94671    94666    94662    94659 
   94653    94647    94644    94643    94644    94644    94640    94641 
   94637    94628    94621    94615    94610    94607    94603    94601 
   94600    94600    94607    94614    94618    94624    94633    94644 
   94657    94664    94667    94673    94675    94678    94683    94684 
   94688    94694    94693    94699    94709    94711    94716    94726 
   94729    94731    94732    94728    94730    94737    94739    94737 
   94733    94725    94718    94718    94711    94700    94698    94698 
   94687    94672    94661    94651    94639    94628    94620    94612 
   94604    94603    94606    94609    94612    94616    94618    94620 
   94624    94627    94624    94626    94628    94623    94623    94624 
   94624    94629    94631    94629    94630    94634    94637    94637 
   94639    94642    94639    94639    94648    94655    94657    94662 
   94669    94669    94667    94672    94681    94684    94683    94686 
   94691    94690    94692    94699    94705    94711    94716    94718 
   94723    94729    94735    94740    94743    94746    94746    94741 
   94741    94745    94742    94737    94734    94730    94727    94726 
   94717    94707    94701    94695    94687    94677    94673    94673 
   94670    94668    94668    94668    94667    94663    94660    94655 
   94651    94654    94652    94647    94649    94647    94639    94633 
   94629    94622    94615    94608    94601    94597    94595    94595 
   94600    94606    94604    94601    94607    94612    94614    94617 
   94617    94611    94608    94609    94614    94616    94620    94630 
   94637    94642    94650    94658    94665    94672    94676    94681 
   94689    94696    94699    94708    94716    94718    94719    94720 
