Origin Time       2025/03/29 04:45:00
Lat.              31.090
Long.             131.512
Depth. (km)       33
Mag.              4.6
Station Code      MYZH10
Station Lat.      32.0215
Station Long.     131.2900
Station Height(m) 80
Record Time       2025/03/29 04:45:49
Sampling Freq(Hz) 100Hz
Duration Time(s)  120
Dir.              6
Scale Factor      3920(gal)/6170801
Max. Acc. (gal)   0.185
Last Correction   2025/03/29 04:45:34
Memo.             
[...]
  -22905   -22924   -22917   -22896   -22873   -22849   -22818   -22786 
  -22770   -22770   -22761   -22733   -22708   -22711   -22729   -22740 
  -22750   -22764   -22764   -22743   -22727   -22733   -22751   -22752 
  -22742   -22755   -22797   -22835   -22834   -22806   -22794   -22814 
  -22841   -22852   -22849   -22846   -22841   -22827   -22803   -22789 
  -22797   -22816   -22831   -22848   -22881   -22922   -22953   -22967 
  -22969   -22957   -22926   -22882   -22844   -22812   -22770   -22710 
  -22658   -22634   -22634   -22641   -22644   -22656   -22695   -22749 
  -22796   -22832   -22867   -22899   -22917   -22913   -22895   -22876 
  -22862   -22856   -22846   -22829   -22804   -22764   -22717   -22678 
  -22657   -22653   -22662   -22685   -22720   -22756   -22781   -22793 
  -22801   -22819   -22840   -22849   -22850   -22852   -22850   -22837 
  -22822   -22819   -22828   -22845   -22854   -22840   -22818   -22806 
  -22802   -22797   -22789   -22784   -22797   -22818   -22821   -22802 
  -22787   -22794   -22803   -22797   -22795   -22819   -22857   -22874 
  -22859   -22833   -22821   -22825   -22832   -22837   -22846   -22862 
  -22872   -22867   -22845   -22813   -22779   -22749   -22733   -22732 
  -22728   -22714   -22700   -22698   -22717   -22756   -22802   -22844 
  -22869   -22868   -22854   -22839   -22825   -22807   -22789   -22789 
  -22809   -22832   -22846   -22851   -22856   -22865   -22867   -22862 
  -22862   -22863   -22850   -22814   -22773   -22752   -22752   -22754 
  -22750   -22750   -22764   -22781   -22783   -22776   -22782   -22794 
  -22792   -22773   -22756   -22762   -22790   -22825   -22863   -22913 
  -22968   -22994   -22967   -22912   -22868   -22840   -22808   -22762 
  -22731   -22742   -22776   -22793   -22787   -22787   -22806   -22816 
  -22802   -22777   -22769   -22779   -22788   -22788   -22785   -22782 
  -22783   -22793   -22804   -22815   -22817   -22805   -22792   -22793 
  -22807   -22816   -22810   -22802   -22800   -22787   -22750   -22714 
  -22710   -22738   -22772   -22797   -22824   -22864   -22899   -22897 
  -22862   -22835   -22836   -22838   -22808   -22758   -22725   -22717 
  -22717   -22718   -22726   -22752   -22797   -22843   -22875   -22899 
  -22907   -22888   -22864   -22859   -22855   -22823   -22776   -22751 
  -22756   -22760   -22737   -22706   -22707   -22743   -22774   -22781 
  -22787   -22810   -22838   -22846   -22826   -22798   -22785   -22797 
  -22818   -22830   -22826   -22812   -22798   -22796   -22799   -22804 
  -22811   -22819   -22812   -22785   -22750   -22732   -22746   -22777 
  -22804   -22821   -22835   -22855   -22870   -22871   -22861   -22841 
  -22817   -22801   -22804   -22827   -22858   -22878   -22879   -22874 
  -22866   -22855   -22840   -22821   -22805   -22798   -22796   -22795 
  -22794   -22790   -22787   -22793   -22800   -22800   -22794   -22797 
  -22809   -22820   -22818   -22806   -22794   -22786   -22775   -22753 
  -22729   -22722   -22732   -22742   -22746   -22757   -22785   -22810 
  -22811   -22807   -22820   -22842   -22855   -22850   -22838   -22830 
  -22821   -22804   -22782   -22759   -22737   -22724   -22729   -22753 
  -22786   -22819   -22853   -22886   -22908   -22916   -22909   -22897 
  -22881   -22847   -22789   -22729   -22684   -22653   -22632   -22630 
  -22662   -22717   -22769   -22802   -22828   -22858   -22878   -22871 
  -22849   -22824   -22800   -22769   -22728   -22698   -22694   -22712 
  -22739   -22762   -22767   -22754   -22733   -22724   -22740   -22759 
  -22754   -22743   -22753   -22786   -22814   -22820   -22822   -22830 
  -22837   -22835   -22825   -22812   -22801   -22785   -22764   -22766 
  -22807   -22857   -22881   -22877   -22868   -22869   -22875   -22883 
  -22891   -22893   -22891   -22889   -22884   -22875   -22856   -22817 
  -22771   -22741   -22736   -22748   -22764   -22769   -22758   -22746 
  -22754   -22782   -22808   -22811   -22796   -22793   -22814   -22834 
  -22842   -22855   -22886   -22928   -22960   -22967   -22951   -22919 
  -22873   -22819   -22776   -22763   -22775   -22793   -22805   -22811 
  -22823   -22838   -22848   -22861   -22875   -22876   -22863   -22847 
  -22827   -22802   -22774   -22743   -22718   -22705   -22706   -22715 
  -22720   -22719   -22727   -22754   -22793   -22817   -22810   -22786 
  -22775   -22781   -22795   -22813   -22844   -22888   -22924   -22934 
  -22921   -22915   -22933   -22964   -22982   -22977   -22963   -22940 
  -22893   -22822   -22743   -22683   -22658   -22656   -22654   -22648 
  -22647   -22659   -22685   -22723   -22761   -22784   -22790   -22782 
  -22763   -22737   -22710   -22687   -22678   -22687   -22713   -22742 
  -22765   -22782   -22808   -22849   -22899   -22946   -22979   -22990 
  -22970   -22919   -22849   -22778   -22714   -22657   -22607   -22576 
  -22582   -22620   -22663   -22697   -22723   -22751   -22790   -22827 
  -22836   -22813   -22777   -22746   -22728   -22723   -22737   -22769 
  -22803   -22833   -22869   -22898   -22903   -22886   -22869   -22869 
  -22881   -22892   -22909   -22931   -22938   -22914   -22875   -22851 
  -22842   -22825   -22793   -22771   -22772   -22778   -22770   -22754 
  -22739   -22728   -22714   -22692   -22677   -22683   -22710   -22741 
  -22766   -22805   -22870   -22943   -23000   -23039   -23060   -23049 
  -22996   -22930   -22880   -22839   -22789   -22738   -22710   -22709 
  -22709   -22694   -22675   -22669   -22680   -22687   -22675   -22650 
  -22635   -22641   -22665   -22689   -22704   -22724   -22760   -22810 
  -22864   -22900   -22917   -22928   -22940   -22945   -22938   -22930 
  -22936   -22957   -22964   -22937   -22881   -22812   -22753   -22719 
  -22708   -22719   -22751   -22785   -22799   -22803   -22816   -22843 
  -22878   -22907   -22933   -22958   -22970   -22959   -22936   -22901 
  -22848   -22790   -22738   -22698   -22673   -22669   -22692   -22745 
  -22811   -22862   -22886   -22898   -22905   -22906   -22892   -22860 
  -22827   -22803   -22787   -22772   -22754   -22748   -22775   -22834 
  -22903   -22967   -23017   -23049   -23053   -23016   -22946   -22865 
  -22793   -22741   -22694   -22654   -22640   -22648   -22662   -22663 
  -22655   -22663   -22694   -22720   -22729   -22729   -22746   -22794 
  -22843   -22869   -22879   -22891   -22906   -22913   -22912   -22923 
  -22945   -22958   -22953   -22946   -22945   -22947   -22935   -22901 
  -22854   -22802   -22743   -22686   -22641   -22613   -22597   -22595 
  -22614   -22653   -22701   -22744   -22772   -22789   -22796   -22792 
  -22782   -22766   -22746   -22740   -22760   -22800   -22840   -22869 
  -22883   -22885   -22887   -22892   -22892   -22894   -22901   -22901 
  -22885   -22851   -22805   -22753   -22701   -22654   -22617   -22596 
  -22597   -22616   -22631   -22637   -22649   -22679   -22723   -22765 
  -22796   -22818   -22838   -22859   -22876   -22886   -22890   -22884 
  -22865   -22826   -22766   -22705   -22657   -22615   -22577   -22557 
  -22567   -22595   -22629   -22670   -22728   -22799   -22865   -22910 
  -22928   -22936   -22952   -22976   -22996   -22993   -22969   -22955 
  -22962   -22965   -22941   -22895   -22860   -22855   -22858   -22851 
  -22844   -22843   -22840   -22828   -22802   -22771   -22744   -22721 
  -22703   -22696   -22697   -22695   -22685   -22680   -22694   -22720 
  -22734   -22723   -22700   -22682   -22675   -22679   -22690   -22707 
  -22732   -22755   -22766   -22760   -22746   -22745   -22762   -22791 
  -22828   -22870   -22912   -22937   -22940   -22929   -22926   -22939 
  -22954   -22950   -22925   -22895   -22868   -22834   -22784   -22731 
  -22695   -22682   -22679   -22666   -22653   -22655   -22676   -22708 
  -22743   -22776   -22811   -22850   -22891   -22928   -22957   -22965 
  -22953   -22938   -22930   -22917   -22892   -22866   -22841   -22812 
  -22780   -22748   -22720   -22696   -22671   -22646   -22640   -22659 
  -22692   -22729   -22758   -22773   -22775   -22768   -22754   -22732 
  -22706   -22685   -22682   -22708   -22761   -22813   -22851   -22888 
  -22933   -22974   -22993   -22999   -23012   -23028   -23032   -23027 
  -23013   -22994   -22968   -22930   -22886   -22852   -22841   -22850 
  -22867   -22881   -22891   -22913   -22940   -22943   -22923   -22904 
  -22894   -22886   -22863   -22816   -22764   -22729   -22711   -22703 
  -22706   -22721   -22740   -22751   -22748   -22736   -22730   -22731 
  -22736   -22747   -22760   -22770   -22771   -22759   -22743   -22736 
  -22730   -22716   -22704   -22714   -22740   -22748   -22743   -22752 
  -22777   -22797   -22801   -22810   -22843   -22884   -22901   -22888 
  -22868   -22861   -22867   -22871   -22867   -22873   -22892   -22905 
  -22906   -22906   -22915   -22936   -22955   -22953   -22930   -22907 
  -22900   -22896   -22880   -22860   -22845   -22846   -22853   -22842 
  -22809   -22768   -22734   -22711   -22704   -22720   -22742   -22748 
  -22745   -22743   -22743   -22737   -22726   -22723   -22730   -22742 
  -22751   -22748   -22731   -22713   -22711   -22732   -22766   -22790 
  -22792   -22778   -22762   -22744   -22715   -22686   -22687   -22713 
  -22733   -22737   -22739   -22758   -22796   -22826   -22826   -22817 
  -22830   -22858   -22866   -22842   -22804   -22783   -22780   -22773 
  -22764   -22769   -22787   -22803   -22811   -22815   -22826   -22838 
  -22835   -22821   -22804   -22779   -22738   -22691   -22651   -22627 
  -22615   -22604   -22594   -22596   -22612   -22627   -22637   -22644 
  -22655   -22675   -22705   -22737   -22771   -22817   -22882   -22954 
  -23005   -23013   -22998   -22986   -22977   -22953   -22912   -22869 
  -22840   -22808   -22764   -22731   -22731   -22761   -22794   -22822 
  -22855   -22904   -22954   -22974   -22952   -22916   -22886   -22846 
  -22784   -22723   -22687   -22669   -22647   -22625   -22624   -22649 
  -22679   -22701   -22720   -22745   -22773   -22794   -22812   -22834 
  -22856   -22867   -22864   -22852   -22835   -22812   -22791   -22775 
  -22762   -22757   -22765   -22789   -22827   -22869   -22909   -22941 
  -22952   -22942   -22924   -22906   -22892   -22879   -22863   -22849 
  -22841   -22838   -22836   -22834   -22833   -22838   -22852   -22867 
  -22877   -22891   -22917   -22943   -22958   -22967   -22978   -22991 
  -22997   -22984   -22960   -22944   -22936   -22920   -22885   -22844 
  -22814   -22790   -22762   -22742   -22740   -22755   -22780   -22794 
  -22791   -22793   -22812   -22839   -22872   -22908   -22939   -22964 
  -22991   -23018   -23030   -23023   -23001   -22963   -22899   -22814 
  -22732   -22671   -22631   -22605   -22584   -22571   -22573   -22586 
  -22598   -22604   -22607   -22614   -22624   -22633   -22640   -22649 
  -22661   -22671   -22683   -22700   -22721   -22747   -22772   -22787 
  -22795   -22799   -22797   -22799   -22810   -22824   -22837   -22843 
  -22843   -22837   -22831   -22831   -22830   -22813   -22786   -22758 
  -22727   -22692   -22661   -22642   -22627   -22611   -22597   -22592 
  -22603   -22621   -22630   -22642   -22676   -22732   -22787   -22829 
  -22872   -22919   -22956   -22975   -22978   -22975   -22973   -22968 
  -22955   -22937   -22922   -22901   -22867   -22830   -22809   -22804 
  -22804   -22801   -22799   -22796   -22787   -22768   -22750   -22749 
  -22763   -22780   -22787   -22785   -22781   -22776   -22770   -22767 
  -22770   -22785   -22808   -22829   -22838   -22840   -22840   -22840 
  -22843   -22847   -22852   -22858   -22859   -22855   -22849   -22843 
  -22837   -22827   -22820   -22823   -22828   -22820   -22805   -22799 
  -22811   -22827   -22834   -22842   -22859   -22881   -22905   -22923 
  -22928   -22932   -22939   -22937   -22921   -22899   -22873   -22846 
  -22821   -22794   -22776   -22775   -22783   -22792   -22797   -22792 
  -22783   -22769   -22756   -22751   -22758   -22772   -22783   -22784 
  -22771   -22750   -22728   -22708   -22702   -22711   -22727   -22744 
  -22754   -22756   -22762   -22774   -22787   -22793   -22796   -22796 
  -22787   -22771   -22761   -22765   -22773   -22781   -22795   -22817 
  -22835   -22840   -22836   -22837   -22844   -22844   -22830   -22814 
  -22805   -22801   -22797   -22797   -22802   -22803   -22800   -22808 
  -22831   -22854   -22854   -22828   -22789   -22751   -22712   -22669 
  -22635   -22618   -22609   -22592   -22581   -22590   -22610   -22630 
  -22653   -22689   -22739   -22782   -22813   -22842   -22869   -22890 
  -22902   -22907   -22915   -22924   -22920   -22910   -22913   -22929 
  -22948   -22961   -22978   -23003   -23025   -23028   -23016   -22998 
  -22979   -22960   -22931   -22895   -22866   -22855   -22854   -22854 
  -22852   -22860   -22871   -22871   -22861   -22849   -22843   -22842 
  -22834   -22823   -22818   -22817   -22811   -22802   -22792   -22786 
  -22790   -22800   -22805   -22796   -22776   -22756   -22748   -22740 
  -22720   -22692   -22667   -22659   -22667   -22680   -22694   -22711 
  -22730   -22747   -22755   -22750   -22738   -22726   -22718   -22719 
  -22728   -22736   -22735   -22727   -22713   -22700   -22694   -22695 
  -22701   -22705   -22707   -22708   -22705   -22705   -22718   -22741 
  -22761   -22770   -22769   -22766   -22755   -22743   -22745   -22760 
  -22773   -22780   -22787   -22803   -22828   -22852   -22862   -22864 
  -22874   -22891   -22900   -22905   -22918   -22943   -22973   -23000 
  -23024   -23052   -23081   -23095   -23086   -23055   -23019   -22983 
  -22938   -22885   -22840   -22805   -22776   -22749   -22720   -22695 
  -22674   -22656   -22640   -22626   -22626   -22649   -22683   -22717 
  -22747   -22776   -22803   -22824   -22840   -22854   -22866   -22878 
  -22886   -22880   -22866   -22846   -22825   -22806   -22789   -22774 
  -22759   -22748   -22743   -22741   -22744   -22752   -22762   -22782 
  -22813   -22839   -22850   -22855   -22866   -22874   -22870   -22857 
  -22843   -22825   -22800   -22772   -22747   -22726   -22709   -22697 
  -22689   -22688   -22696   -22710   -22733   -22758   -22774   -22779 
  -22786   -22797   -22805   -22808   -22813   -22826   -22835   -22830 
  -22811   -22794   -22795   -22811   -22814   -22793   -22775   -22785 
  -22803   -22799   -22774   -22756   -22763   -22786   -22794   -22778 
  -22764   -22767   -22771   -22768   -22767   -22768   -22768   -22764 
  -22758   -22761   -22773   -22788   -22807   -22836   -22869   -22893 
  -22894   -22890   -22900   -22916   -22925   -22920   -22911   -22911 
  -22909   -22893   -22867   -22840   -22820   -22804   -22785   -22770 
  -22760   -22750   -22739   -22726   -22716   -22713   -22711   -22709 
  -22710   -22713   -22726   -22752   -22780   -22802   -22821   -22835 
  -22844   -22847   -22848   -22853   -22860   -22869   -22866   -22844 
  -22824   -22823   -22829   -22830   -22829   -22838   -22861   -22886 
  -22899   -22903   -22901   -22895   -22882   -22863   -22850   -22844 
  -22837   -22831   -22831   -22835   -22835   -22839   -22845   -22846 
  -22844   -22831   -22809   -22793   -22781   -22770   -22759   -22745 
  -22731   -22717   -22707   -22704   -22707   -22722   -22739   -22750 
  -22760   -22769   -22783   -22801   -22813   -22813   -22811   -22810 
  -22806   -22797   -22792   -22796   -22803   -22810   -22815   -22818 
  -22826   -22841   -22847   -22840   -22827   -22813   -22808   -22808 
  -22803   -22801   -22811   -22831   -22849   -22856   -22859   -22867 
  -22876   -22873   -22857   -22843   -22840   -22834   -22816   -22796 
  -22786   -22780   -22767   -22740   -22717   -22713   -22715   -22710 
  -22700   -22693   -22696   -22705   -22712   -22712   -22716   -22736 
  -22766   -22792   -22818   -22847   -22875   -22893   -22902   -22917 
  -22938   -22953   -22959   -22953   -22936   -22923   -22919   -22908 
  -22894   -22889   -22890   -22887   -22872   -22846   -22816   -22787 
  -22760   -22737   -22715   -22694   -22673   -22655   -22649   -22657 
  -22674   -22687   -22693   -22696   -22709   -22734   -22753   -22752 
  -22743   -22749   -22770   -22790   -22799   -22808   -22830   -22851 
  -22856   -22852   -22855   -22859   -22851   -22827   -22805   -22801 
  -22801   -22782   -22754   -22737   -22736   -22730   -22710   -22694 
  -22701   -22722   -22738   -22748   -22767   -22794   -22814   -22826 
  -22836   -22852   -22865   -22867   -22865   -22866   -22869   -22863 
  -22849   -22838   -22829   -22822   -22824   -22826   -22825   -22823 
  -22818   -22812   -22813   -22820   -22828   -22828   -22823   -22817 
  -22811   -22811   -22818   -22820   -22812   -22811   -22824   -22838 
  -22839   -22826   -22816   -22813   -22814   -22815   -22812   -22808 
  -22805   -22798   -22794   -22791   -22780   -22760   -22743   -22737 
  -22737   -22742   -22754   -22772   -22792   -22808   -22819   -22830 
  -22853   -22882   -22906   -22920   -22935   -22954   -22961   -22956 
  -22945   -22928   -22910   -22889   -22853   -22815   -22789   -22770 
  -22747   -22720   -22700   -22692   -22689   -22690   -22703   -22722 
  -22740   -22755   -22762   -22766   -22775   -22784   -22788   -22788 
  -22793   -22804   -22814   -22818   -22811   -22795   -22792   -22805 
  -22812   -22803   -22802   -22815   -22823   -22823   -22825   -22831 
  -22845   -22857   -22857   -22853   -22850   -22840   -22824   -22812 
  -22800   -22784   -22770   -22756   -22740   -22716   -22684   -22653 
  -22637   -22640   -22653   -22658   -22653   -22653   -22671   -22705 
  -22739   -22762   -22787   -22822   -22852   -22864   -22863   -22861 
  -22864   -22871   -22869   -22859   -22853   -22858   -22863   -22857 
  -22848   -22845   -22850   -22857   -22859   -22852   -22842   -22838 
  -22833   -22826   -22817   -22808   -22805   -22815   -22824   -22821 
  -22814   -22809   -22810   -22816   -22818   -22810   -22801   -22798 
  -22801   -22801   -22800   -22799   -22799   -22804   -22819   -22834 
  -22843   -22845   -22845   -22844   -22838   -22838   -22847   -22847 
  -22832   -22821   -22821   -22821   -22816   -22807   -22797   -22793 
  -22796   -22803   -22806   -22811   -22821   -22831   -22838   -22839 
  -22830   -22810   -22787   -22768   -22754   -22745   -22739   -22732 
  -22727   -22736   -22760   -22785   -22800   -22811   -22832   -22860 
  -22884   -22899   -22912   -22929   -22940   -22936   -22922   -22908 
  -22899   -22894   -22888   -22877   -22856   -22822   -22786   -22763 
  -22746   -22723   -22703   -22698   -22693   -22679   -22662   -22650 
  -22648   -22658   -22670   -22681   -22693   -22710   -22721   -22722 
  -22722   -22727   -22732   -22729   -22719   -22709   -22707   -22711 
  -22718   -22728   -22735   -22745   -22763   -22781   -22793   -22803 
  -22813   -22830   -22856   -22883   -22897   -22901   -22903   -22909 
  -22913   -22909   -22900   -22890   -22883   -22872   -22858   -22851 
  -22850   -22850   -22843   -22832   -22829   -22839   -22854   -22862 
  -22864   -22870   -22886   -22904   -22912   -22907   -22901   -22901 
  -22897   -22883   -22866   -22860   -22858   -22848   -22828   -22809 
  -22797   -22793   -22793   -22784   -22766   -22752   -22746   -22742 
  -22736   -22730   -22730   -22737   -22741   -22735   -22727   -22730 
  -22744   -22756   -22754   -22741   -22727   -22721   -22722   -22729 
