Origin Time       2025/03/29 04:45:00
Lat.              31.090
Long.             131.512
Depth. (km)       33
Mag.              4.6
Station Code      MYZH14
Station Lat.      31.5649
Station Long.     131.3510
Station Height(m) -196
Record Time       2025/03/29 04:45:25
Sampling Freq(Hz) 100Hz
Duration Time(s)  120
Dir.              3
Scale Factor      2942(gal)/8224139
Max. Acc. (gal)   0.325
Last Correction   2025/03/29 04:45:26
Memo.             
[...]
   51927    51926    51926    51929    51927    51926    51927    51927 
   51926    51927    51927    51927    51930    51930    51926    51923 
   51927    51925    51922    51929    51929    51923    51925    51927 
   51929    51926    51923    51927    51926    51919    51922    51927 
   51925    51927    51930    51923    51923    51927    51927    51925 
   51927    51929    51926    51926    51927    51929    51929    51925 
   51921    51925    51926    51926    51929    51927    51926    51923 
   51926    51933    51930    51921    51923    51929    51926    51925 
   51923    51925    51929    51927    51927    51929    51926    51926 
   51922    51919    51926    51929    51925    51921    51923    51927 
   51926    51923    51923    51925    51923    51925    51927    51925 
   51922    51927    51927    51923    51925    51927    51927    51926 
   51923    51922    51925    51926    51926    51926    51929    51931 
   51927    51925    51929    51931    51927    51926    51926    51925 
   51929    51929    51926    51929    51927    51919    51921    51930 
   51927    51925    51931    51930    51925    51929    51926    51922 
   51927    51929    51929    51931    51926    51921    51925    51927 
   51926    51929    51929    51927    51926    51925    51926    51926 
   51923    51925    51930    51929    51927    51929    51929    51929 
   51925    51923    51927    51929    51930    51933    51931    51927 
   51925    51927    51930    51929    51926    51925    51930    51933 
   51929    51927    51929    51927    51927    51927    51925    51926 
   51927    51927    51930    51930    51927    51929    51929    51922 
   51925    51931    51929    51925    51929    51926    51925    51929 
   51927    51927    51930    51929    51926    51929    51930    51925 
   51923    51929    51930    51929    51929    51927    51926    51929 
   51930    51926    51923    51926    51929    51929    51927    51925 
   51925    51930    51930    51926    51927    51927    51923    51926 
   51929    51930    51927    51925    51929    51931    51925    51921 
   51923    51926    51927    51927    51926    51925    51929    51930 
   51926    51922    51923    51929    51929    51927    51929    51927 
   51925    51927    51931    51929    51923    51925    51930    51927 
   51925    51931    51930    51921    51926    51934    51926    51922 
   51926    51926    51925    51925    51923    51925    51929    51927 
   51922    51926    51929    51925    51925    51930    51927    51926 
   51927    51927    51927    51926    51925    51929    51927    51922 
   51926    51929    51926    51925    51926    51927    51926    51927 
   51931    51929    51923    51925    51930    51927    51925    51927 
   51929    51925    51926    51929    51925    51925    51926    51927 
   51929    51927    51926    51929    51931    51927    51923    51925 
   51925    51925    51925    51926    51926    51925    51926    51927 
   51926    51927    51929    51930    51929    51926    51929    51926 
   51925    51930    51929    51926    51926    51926    51923    51926 
   51930    51934    51930    51925    51929    51931    51929    51930 
   51927    51923    51926    51930    51927    51926    51930    51930 
   51926    51926    51929    51927    51929    51931    51931    51929 
   51927    51925    51925    51930    51933    51926    51922    51926 
   51929    51929    51926    51927    51927    51923    51926    51933 
   51929    51922    51922    51929    51931    51927    51926    51927 
   51925    51927    51930    51929    51927    51926    51929    51931 
   51929    51926    51930    51930    51926    51927    51926    51926 
   51933    51931    51925    51930    51931    51925    51926    51929 
   51927    51929    51929    51926    51925    51923    51925    51929 
   51927    51925    51927    51929    51929    51929    51926    51925 
   51927    51925    51925    51926    51925    51926    51930    51927 
   51923    51925    51926    51925    51925    51925    51925    51926 
   51927    51925    51925    51926    51926    51923    51923    51926 
   51926    51923    51925    51927    51927    51923    51923    51927 
   51929    51926    51925    51923    51922    51927    51930    51925 
   51921    51923    51926    51922    51922    51925    51927    51927 
   51927    51927    51929    51926    51925    51926    51925    51919 
   51922    51926    51927    51927    51926    51923    51927    51930 
   51925    51919    51923    51926    51925    51925    51926    51925 
   51925    51927    51927    51927    51929    51926    51925    51927 
   51929    51929    51926    51925    51926    51925    51923    51926 
   51929    51929    51929    51927    51926    51927    51930    51930 
   51926    51927    51929    51925    51923    51927    51929    51929 
   51931    51929    51926    51929    51923    51922    51926    51926 
   51927    51930    51926    51926    51929    51929    51930    51931 
   51930    51929    51927    51927    51930    51934    51933    51926 
   51926    51931    51931    51929    51927    51929    51930    51929 
   51930    51931    51929    51927    51926    51926    51930    51930 
   51927    51926    51927    51927    51927    51929    51929    51929 
   51929    51929    51929    51930    51930    51927    51927    51929 
   51929    51925    51922    51927    51929    51925    51926    51931 
   51929    51923    51927    51930    51927    51929    51929    51927 
   51926    51930    51931    51931    51933    51931    51925    51922 
   51926    51930    51926    51927    51930    51925    51925    51930 
   51930    51929    51931    51930    51927    51927    51927    51927 
   51926    51927    51929    51925    51925    51927    51927    51931 
   51930    51926    51929    51926    51925    51930    51929    51926 
   51925    51923    51927    51927    51925    51925    51921    51923 
   51927    51926    51927    51930    51925    51923    51929    51927 
   51925    51925    51923    51923    51927    51930    51926    51926 
   51927    51925    51923    51927    51929    51927    51927    51926 
   51925    51923    51926    51926    51925    51926    51927    51925 
   51925    51926    51925    51926    51927    51926    51927    51926 
   51925    51931    51931    51923    51923    51927    51925    51922 
   51926    51930    51926    51925    51927    51927    51929    51933 
   51929    51925    51927    51927    51927    51929    51926    51925 
   51927    51929    51926    51925    51925    51926    51926    51925 
   51927    51927    51922    51925    51926    51922    51922    51925 
   51925    51925    51929    51929    51927    51927    51926    51927 
   51929    51929    51927    51923    51922    51927    51929    51923 
   51926    51933    51933    51927    51927    51927    51926    51926 
   51926    51925    51925    51929    51933    51930    51926    51926 
   51929    51930    51927    51926    51926    51929    51930    51930 
   51927    51927    51929    51927    51929    51929    51926    51926 
   51925    51923    51929    51931    51925    51921    51929    51930 
   51925    51927    51930    51929    51933    51931    51926    51926 
   51925    51926    51929    51926    51926    51929    51930    51927 
   51925    51929    51926    51926    51930    51926    51923    51927 
   51926    51926    51929    51929    51929    51927    51925    51929 
   51930    51926    51927    51929    51926    51926    51926    51925 
   51929    51929    51926    51926    51930    51927    51925    51925 
   51926    51927    51926    51926    51930    51929    51927    51930 
   51926    51925    51929    51926    51923    51929    51930    51923 
   51923    51929    51930    51925    51925    51929    51926    51922 
   51926    51929    51926    51926    51929    51927    51923    51925 
   51930    51930    51927    51929    51929    51927    51927    51925 
   51921    51927    51931    51930    51929    51927    51926    51927 
   51930    51929    51927    51929    51927    51930    51931    51927 
   51930    51930    51925    51927    51927    51923    51925    51929 
   51931    51931    51929    51927    51926    51926    51930    51926 
   51925    51929    51929    51929    51929    51930    51931    51929 
   51929    51933    51935    51931    51926    51927    51931    51929 
   51929    51929    51926    51927    51931    51930    51929    51929 
   51930    51929    51927    51930    51929    51927    51927    51926 
   51926    51926    51929    51930    51930    51927    51929    51931 
   51931    51927    51927    51930    51927    51923    51925    51927 
   51929    51929    51927    51927    51926    51926    51927    51923 
   51922    51927    51927    51923    51926    51927    51923    51925 
   51930    51927    51923    51927    51929    51923    51923    51927 
   51925    51925    51927    51926    51923    51925    51925    51922 
   51923    51927    51927    51926    51926    51927    51926    51926 
   51926    51926    51927    51927    51929    51926    51923    51927 
   51926    51923    51927    51929    51929    51931    51927    51925 
   51925    51923    51926    51927    51925    51923    51925    51926 
   51929    51927    51925    51926    51925    51922    51926    51929 
   51923    51923    51929    51927    51926    51927    51927    51925 
   51925    51925    51925    51925    51926    51926    51927    51930 
   51927    51923    51923    51926    51926    51922    51922    51927 
   51929    51926    51925    51926    51930    51930    51927    51926 
   51927    51929    51930    51926    51923    51927    51929    51926 
   51927    51933    51930    51925    51922    51926    51930    51930 
   51926    51926    51930    51931    51927    51925    51929    51926 
   51923    51927    51929    51926    51926    51927    51929    51930 
   51929    51926    51925    51929    51931    51929    51930    51929 
   51925    51926    51929    51930    51933    51929    51925    51929 
   51933    51931    51926    51926    51931    51931    51925    51926 
   51933    51930    51923    51923    51929    51931    51929    51926 
   51927    51930    51926    51927    51930    51925    51926    51934 
   51931    51925    51926    51926    51926    51933    51933    51926 
   51927    51929    51927    51931    51931    51925    51925    51927 
   51926    51926    51929    51929    51930    51930    51929    51926 
   51927    51927    51927    51929    51929    51927    51929    51926 
   51923    51926    51926    51922    51925    51927    51927    51927 
   51927    51927    51929    51929    51926    51926    51925    51925 
   51926    51927    51925    51925    51929    51927    51923    51927 
   51927    51925    51926    51929    51927    51929    51927    51926 
   51927    51926    51926    51930    51929    51926    51925    51926 
   51930    51931    51929    51927    51929    51926    51923    51927 
   51927    51923    51923    51925    51926    51927    51930    51930 
   51927    51926    51927    51930    51930    51927    51929    51926 
   51922    51923    51926    51927    51927    51925    51926    51927 
   51926    51926    51929    51929    51926    51925    51927    51927 
   51927    51927    51927    51929    51929    51927    51929    51929 
   51927    51929    51927    51926    51926    51926    51927    51929 
   51929    51927    51925    51926    51929    51927    51927    51929 
   51929    51930    51929    51929    51930    51927    51926    51930 
   51927    51925    51929    51929    51922    51927    51933    51925 
   51925    51931    51926    51925    51929    51927    51926    51929 
   51929    51926    51930    51933    51929    51926    51927    51927 
   51926    51926    51931    51930    51923    51926    51929    51927 
   51929    51930    51926    51925    51927    51930    51930    51926 
   51922    51922    51916    51904    51880    51844    51804    51773 
   51765    51784    51826    51879    51925    51954    51965    51938 
   51876    51804    51746    51707    51680    51660    51661    51707 
   51807    51930    52035    52103    52137    52159    52177    52168 
   52110    52029    51976    51973    52014    52070    52107    52126 
   52164    52220    52249    52223    52154    52070    52011    51988 
   51979    51960    51919    51845    51750    51661    51597    51576 
   51591    51605    51609    51656    51783    51946    52060    52060 
   51948    51780    51617    51520    51547    51733    52051    52402 
   52625    52629    52485    52300    52087    51871    51729    51653 
   51602    51615    51732    51925    52124    52246    52247    52138 
   51969    51831    51773    51777    51830    51953    52143    52294 
   52243    51969    51665    51520    51552    51671    51792    51922 
   52146    52477    52768    52816    52552    52139    51822    51715 
   51710    51599    51356    51194    51270    51522    51787    51949 
   52002    52010    52037    52123    52288    52438    52385    52089 
   51699    51381    51254    51341    51545    51734    51865    51958 
   52058    52207    52366    52374    52151    51819    51522    51337 
   51308    51421    51610    51817    51972    52037    52046    52024 
   51927    51775    51665    51665    51802    52050    52282    52416 
   52502    52563    52532    52385    52161    51902    51633    51428 
   51405    51632    52042    52486    52793    52836    52609    52273 
   51973    51688    51402    51224    51231    51394    51672    52003 
   52263    52359    52296    52130    51952    51845    51806    51776 
   51752    51786    51889    52002    52065    52053    51976    51903 
   51889    51904    51907    51884    51831    51781    51761    51787 
   51864    51957    52003    51995    51970    51952    51948    51952 
   51918    51833    51763    51769    51840    51919    51993    52027 
   51979    51865    51769    51738    51752    51776    51825    51907 
   51988    52045    52092    52137    52164    52135    52030    51845 
   51606    51414    51382    51516    51738    51985    52215    52405 
   52543    52589    52515    52342    52101    51808    51514    51333 
   51367    51584    51880    52166    52362    52415    52343    52228 
   52111    51961    51769    51607    51549    51614    51777    51970 
   52112    52174    52172    52116    52002    51835    51687    51645 
   51709    51798    51861    51900    51929    51958    51989    52033 
   52089    52104    51999    51800    51648    51652    51798    51981 
   52104    52135    52077    51930    51741    51592    51536    51578 
   51710    51915    52138    52288    52324    52261    52120    51915 
   51686    51534    51563    51759    51981    52104    52114    52091 
   52097    52137    52184    52219    52216    52153    52039    51898 
   51753    51651    51626    51656    51698    51718    51725    51791 
   51968    52159    52209    52084    51877    51699    51605    51601 
   51669    51752    51780    51759    51765    51880    52083    52257 
   52312    52263    52196    52164    52151    52123    52068    52014 
   51999    52010    51987    51923    51864    51846    51880    51958 
   52053    52122    52151    52128    52039    51898    51763    51713 
   51787    51957    52122    52192    52162    52076    51968    51867 
   51779    51707    51649    51595    51568    51606    51703    51819 
   51896    51902    51827    51694    51563    51514    51570    51696 
   51830    51912    51950    51973    51987    51996    51991    51954 
   51902    51877    51912    52018    52169    52308    52366    52321 
   52211    52096    52022    51980    51931    51879    51864    51899 
   51956    51996    51985    51923    51841    51771    51726    51722 
   51773    51869    51989    52104    52154    52092    51941    51781 
   51692    51703    51802    51942    52061    52127    52139    52108 
   52054    51980    51896    51815    51725    51626    51579    51634 
   51799    52035    52259    52377    52344    52212    52057    51918 
   51808    51729    51684    51690    51769    51925    52104    52230 
   52251    52182    52054    51894    51733    51607    51563    51621 
   51761    51938    52073    52119    52083    52000    51906    51830 
   51783    51761    51749    51748    51768    51821    51922    52057 
   52170    52223    52208    52126    52000    51883    51837    51871 
   51949    52038    52104    52112    52053    51969    51908    51872 
   51841    51811    51777    51746    51748    51813    51916    52007 
   52039    52007    51945    51877    51810    51763    51771    51833 
   51922    52004    52061    52080    52054    52007    51960    51919 
   51895    51903    51943    51977    51995    52016    52012    51945 
   51819    51678    51584    51578    51661    51818    52003    52155 
   52238    52245    52208    52157    52088    52003    51906    51821 
   51760    51726    51711    51707    51718    51769    51844    51906 
   51960    52008    52051    52064    52019    51946    51888    51872 
   51902    51942    51966    51972    51957    51929    51903    51885 
   51877    51895    51954    52050    52158    52236    52245    52174 
   52051    51908    51750    51592    51480    51447    51489    51588 
   51718    51840    51933    51987    51996    51981    51969    51961 
   51957    51970    52008    52074    52149    52192    52191    52151 
   52092    52030    51977    51935    51907    51896    51899    51891 
   51848    51780    51718    51688    51711    51783    51865    51938 
   52008    52073    52128    52173    52182    52142    52054    51942 
   51849    51806    51807    51833    51880    51954    52018    52042 
   52049    52053    52041    52014    51979    51933    51881    51821 
   51749    51688    51663    51682    51733    51799    51869    51926 
   51954    51953    51949    51965    52000    52024    52014    51980 
   51946    51929    51942    51975    52003    52033    52062    52074 
   52080    52092    52089    52076    52057    52024    51980    51943 
   51923    51931    51960    51984    51992    51976    51939    51889 
   51831    51784    51757    51738    51730    51727    51722    51710 
   51703    51709    51713    51698    51661    51629    51637    51706 
   51806    51894    51946    51961    51953    51943    51943    51941 
   51918    51867    51810    51781    51813    51910    52027    52112 
   52145    52126    52087    52051    52037    52046    52069    52092 
   52115    52141    52157    52155    52120    52042    51941    51841 
   51760    51707    51692    51727    51811    51923    52031    52100 
   52116    52080    52007    51927    51864    51825    51808    51821 
   51871    51938    52002    52057    52073    52027    51922    51791 
   51680    51605    51556    51537    51559    51630    51745    51864 
   51962    52023    52029    51984    51908    51814    51715    51638 
   51598    51615    51699    51827    51965    52072    52116    52107 
   52064    52000    51950    51930    51918    51902    51881    51846 
   51806    51781    51783    51810    51842    51861    51868    51877 
   51899    51942    51993    52026    52034    52034    52031    52042 
