Origin Time       2025/03/29 04:45:00
Lat.              31.090
Long.             131.512
Depth. (km)       33
Mag.              4.6
Station Code      MYZH10
Station Lat.      32.0215
Station Long.     131.2900
Station Height(m) -20
Record Time       2025/03/29 04:45:49
Sampling Freq(Hz) 100Hz
Duration Time(s)  120
Dir.              2
Scale Factor      2940(gal)/6170270
Max. Acc. (gal)   0.227
Last Correction   2025/03/29 04:45:34
Memo.             
[...]
   55680    55673    55662    55656    55657    55665    55675    55678 
   55674    55664    55648    55635    55624    55619    55621    55626 
   55634    55646    55656    55662    55666    55669    55670    55671 
   55672    55674    55675    55673    55669    55665    55658    55650 
   55638    55625    55616    55616    55624    55638    55659    55678 
   55692    55700    55693    55674    55657    55649    55645    55648 
   55652    55654    55650    55640    55632    55630    55634    55648 
   55667    55684    55698    55709    55712    55712    55710    55701 
   55685    55668    55654    55645    55639    55630    55620    55613 
   55611    55612    55619    55630    55634    55630    55627    55630 
   55636    55650    55663    55673    55680    55682    55679    55673 
   55663    55651    55640    55637    55642    55654    55669    55681 
   55686    55686    55685    55681    55675    55668    55661    55658 
   55656    55651    55643    55636    55631    55629    55633    55639 
   55646    55653    55657    55658    55661    55662    55658    55651 
   55647    55644    55645    55652    55660    55668    55672    55669 
   55661    55652    55647    55648    55649    55647    55642    55638 
   55635    55636    55642    55650    55655    55659    55665    55673 
   55679    55679    55676    55667    55660    55658    55659    55667 
   55682    55692    55695    55691    55678    55661    55647    55638 
   55635    55638    55647    55662    55673    55676    55672    55663 
   55648    55633    55624    55623    55629    55639    55650    55662 
   55670    55677    55686    55690    55688    55682    55669    55651 
   55635    55621    55610    55610    55617    55630    55647    55663 
   55675    55681    55681    55674    55660    55643    55625    55614 
   55608    55607    55610    55622    55638    55654    55667    55674 
   55678    55679    55677    55674    55669    55660    55655    55657 
   55664    55675    55686    55692    55690    55683    55673    55664 
   55655    55648    55641    55634    55627    55624    55621    55617 
   55616    55621    55632    55648    55667    55684    55700    55711 
   55710    55703    55691    55674    55655    55638    55625    55619 
   55617    55629    55650    55669    55682    55688    55683    55673 
   55663    55655    55653    55655    55657    55657    55656    55653 
   55650    55650    55652    55656    55669    55681    55683    55682 
   55681    55674    55667    55667    55672    55675    55675    55672 
   55667    55659    55650    55646    55649    55656    55663    55668 
   55669    55663    55650    55630    55609    55592    55576    55567 
   55566    55571    55586    55609    55629    55647    55659    55663 
   55665    55667    55665    55666    55670    55676    55681    55683 
   55682    55680    55678    55677    55685    55699    55711    55720 
   55720    55707    55688    55667    55641    55614    55594    55583 
   55584    55597    55620    55644    55661    55672    55677    55674 
   55665    55656    55654    55658    55663    55670    55677    55686 
   55695    55703    55709    55711    55704    55694    55681    55660 
   55634    55611    55594    55588    55595    55611    55629    55645 
   55660    55671    55676    55680    55681    55683    55686    55689 
   55692    55694    55698    55705    55710    55711    55702    55687 
   55667    55644    55626    55616    55612    55609    55607    55602 
   55599    55599    55606    55619    55634    55650    55666    55677 
   55682    55681    55675    55666    55652    55634    55617    55606 
   55599    55592    55589    55593    55602    55615    55634    55654 
   55668    55675    55676    55674    55675    55670    55663    55657 
   55651    55646    55648    55655    55663    55672    55676    55676 
   55675    55676    55680    55687    55693    55698    55702    55702 
   55700    55695    55685    55675    55667    55659    55651    55646 
   55642    55637    55634    55635    55640    55652    55666    55679 
   55692    55699    55699    55698    55690    55677    55667    55656 
   55640    55623    55607    55592    55584    55586    55600    55622 
   55643    55657    55662    55656    55652    55652    55657    55672 
   55692    55707    55717    55718    55704    55680    55656    55631 
   55606    55585    55566    55550    55542    55547    55567    55599 
   55635    55670    55697    55709    55710    55703    55690    55676 
   55668    55670    55676    55679    55678    55677    55675    55672 
   55668    55666    55667    55664    55656    55648    55640    55633 
   55628    55627    55633    55644    55659    55673    55682    55688 
   55692    55690    55685    55677    55663    55648    55634    55627 
   55629    55641    55659    55681    55701    55711    55713    55704 
   55682    55656    55632    55614    55607    55611    55623    55640 
   55659    55679    55696    55708    55715    55714    55707    55699 
   55689    55675    55658    55640    55623    55608    55600    55596 
   55597    55603    55613    55628    55644    55660    55672    55675 
   55673    55670    55664    55655    55649    55648    55654    55663 
   55675    55689    55701    55711    55716    55716    55714    55706 
   55689    55673    55654    55629    55605    55589    55578    55577 
   55588    55604    55620    55636    55648    55653    55656    55657 
   55653    55652    55652    55653    55658    55666    55676    55687 
   55698    55708    55714    55713    55707    55696    55684    55674 
   55665    55658    55656    55658    55659    55658    55655    55648 
   55641    55638    55632    55627    55626    55626    55627    55630 
   55634    55643    55653    55659    55664    55667    55660    55650 
   55643    55635    55632    55637    55645    55654    55658    55658 
   55657    55653    55649    55647    55650    55655    55658    55659 
   55652    55637    55626    55619    55614    55617    55625    55632 
   55642    55653    55662    55670    55678    55683    55683    55679 
   55672    55665    55662    55660    55659    55666    55674    55673 
   55670    55669    55664    55659    55658    55660    55663    55671 
   55683    55690    55694    55696    55693    55687    55677    55664 
   55649    55633    55617    55606    55601    55600    55605    55612 
   55614    55618    55624    55628    55629    55632    55638    55647 
   55658    55669    55678    55680    55677    55673    55666    55661 
   55661    55662    55665    55669    55672    55671    55669    55669 
   55672    55674    55681    55688    55692    55698    55702    55699 
   55694    55682    55661    55642    55621    55605    55599    55604 
   55618    55641    55665    55688    55707    55714    55715    55711 
   55702    55691    55677    55661    55648    55639    55631    55624 
   55616    55612    55610    55613    55618    55620    55624    55631 
   55637    55641    55642    55642    55644    55647    55650    55657 
   55666    55673    55676    55673    55669    55663    55654    55646 
   55641    55638    55635    55634    55633    55631    55626    55621 
   55618    55620    55623    55630    55639    55649    55658    55669 
   55677    55686    55693    55694    55695    55695    55691    55682 
   55672    55660    55650    55646    55643    55645    55654    55661 
   55666    55674    55679    55678    55679    55683    55684    55687 
   55688    55683    55675    55669    55663    55656    55649    55645 
   55642    55640    55641    55645    55657    55667    55673    55683 
   55692    55694    55692    55688    55682    55670    55655    55644 
   55635    55626    55622    55624    55630    55645    55664    55682 
   55702    55718    55723    55723    55718    55711    55701    55689 
   55673    55652    55630    55607    55585    55567    55556    55551 
   55552    55558    55565    55575    55589    55606    55626    55648 
   55675    55702    55721    55735    55742    55741    55739    55737 
   55730    55718    55702    55683    55664    55645    55627    55611 
   55599    55592    55589    55591    55595    55602    55610    55617 
   55624    55634    55642    55648    55651    55650    55650    55651 
   55653    55655    55659    55666    55672    55681    55689    55695 
   55698    55694    55684    55673    55664    55659    55655    55653 
   55656    55661    55667    55673    55677    55680    55681    55677 
   55675    55672    55667    55665    55666    55667    55669    55671 
   55672    55670    55670    55672    55673    55671    55669    55668 
   55669    55669    55667    55662    55656    55648    55637    55628 
   55622    55620    55620    55625    55633    55638    55641    55638 
   55630    55620    55607    55591    55580    55577    55583    55597 
   55616    55635    55653    55666    55673    55673    55671    55667 
   55661    55656    55655    55658    55668    55682    55697    55715 
   55730    55736    55737    55729    55716    55705    55694    55684 
   55674    55667    55664    55664    55668    55675    55682    55689 
   55692    55685    55674    55659    55639    55616    55597    55582 
   55572    55571    55579    55592    55613    55636    55656    55669 
   55673    55669    55656    55639    55624    55615    55617    55629 
   55645    55660    55673    55686    55696    55698    55694    55683 
   55666    55644    55624    55606    55589    55575    55565    55562 
   55566    55579    55598    55621    55643    55661    55677    55686 
   55687    55679    55665    55651    55639    55631    55630    55635 
   55642    55651    55655    55657    55659    55655    55649    55646 
   55643    55639    55638    55637    55639    55648    55656    55664 
   55672    55675    55669    55655    55636    55620    55604    55588 
   55579    55579    55585    55598    55613    55629    55648    55669 
   55687    55702    55711    55709    55696    55676    55656    55642 
   55637    55641    55648    55655    55658    55664    55674    55686 
   55695    55703    55707    55710    55709    55704    55698    55698 
   55704    55716    55732    55750    55763    55766    55758    55742 
   55720    55696    55674    55657    55643    55634    55628    55627 
   55633    55644    55653    55664    55672    55669    55660    55653 
   55645    55636    55629    55624    55624    55628    55633    55643 
   55653    55659    55667    55682    55697    55712    55728    55744 
   55758    55766    55768    55765    55758    55748    55735    55727 
   55724    55728    55742    55762    55786    55806    55816    55819 
   55818    55808    55787    55756    55718    55678    55642    55615 
   55601    55601    55610    55624    55635    55641    55641    55632 
   55616    55594    55572    55553    55536    55523    55513    55504 
   55502    55508    55520    55538    55558    55572    55580    55581 
   55573    55566    55563    55555    55547    55542    55538    55531 
   55524    55518    55513    55508    55505    55506    55510    55519 
   55532    55547    55563    55584    55608    55636    55663    55686 
   55704    55715    55721    55723    55724    55726    55728    55730 
   55728    55724    55721    55716    55708    55702    55699    55698 
   55702    55706    55712    55724    55740    55757    55773    55787 
   55799    55809    55813    55815    55819    55825    55831    55837 
   55838    55831    55812    55778    55736    55692    55644    55603 
   55573    55557    55558    55579    55619    55673    55728    55780 
   55823    55852    55865    55867    55861    55849    55833    55814 
   55794    55773    55746    55717    55691    55665    55641    55623 
   55610    55600    55588    55578    55572    55567    55558    55547 
   55533    55519    55503    55484    55470    55460    55444    55426 
   55412    55398    55385    55377    55373    55375    55379    55384 
   55391    55401    55412    55429    55452    55481    55517    55563 
   55617    55674    55731    55777    55811    55830    55829    55811 
   55782    55744    55702    55660    55628    55607    55597    55600 
   55614    55630    55652    55677    55697    55713    55726    55736 
   55746    55762    55783    55807    55833    55859    55876    55881 
   55872    55846    55806    55757    55701    55644    55597    55562 
   55547    55549    55567    55598    55637    55681    55725    55764 
   55792    55807    55809    55801    55789    55775    55757    55742 
   55732    55724    55716    55703    55684    55660    55630    55600 
   55572    55548    55533    55525    55527    55540    55561    55587 
   55617    55649    55677    55698    55715    55729    55738    55739 
   55732    55721    55706    55687    55668    55651    55630    55609 
   55591    55572    55554    55539    55532    55537    55550    55566 
   55589    55617    55639    55653    55654    55641    55619    55593 
   55563    55534    55514    55502    55491    55487    55484    55476 
   55467    55455    55440    55424    55410    55396    55379    55360 
   55340    55321    55301    55287    55276    55273    55279    55297 
   55329    55375    55435    55506    55585    55667    55748    55822 
   55889    55940    55975    55992    55989    55968    55934    55894 
   55850    55808    55776    55755    55743    55744    55761    55791 
   55826    55871    55925    55980    56029    56072    56105    56123 
   56131    56132    56124    56111    56096    56077    56054    56026 
   55988    55946    55905    55862    55823    55790    55762    55740 
   55723    55704    55689    55678    55669    55665    55663    55658 
   55653    55639    55614    55585    55550    55507    55468    55433 
   55402    55379    55367    55368    55384    55411    55452    55503 
   55556    55609    55657    55689    55706    55711    55699    55674 
   55642    55603    55561    55519    55475    55432    55394    55360 
   55330    55309    55299    55301    55312    55335    55367    55407 
   55452    55497    55535    55567    55589    55602    55610    55612 
   55614    55621    55628    55639    55657    55681    55699    55710 
   55720    55726    55726    55727    55731    55736    55746    55760 
   55774    55792    55811    55825    55834    55841    55846    55849 
   55848    55849    55849    55845    55839    55831    55816    55796 
   55772    55745    55718    55692    55671    55661    55660    55668 
   55686    55712    55737    55759    55773    55774    55765    55747 
   55723    55696    55671    55653    55641    55631    55629    55633 
   55637    55639    55635    55625    55614    55603    55592    55587 
   55587    55589    55594    55604    55617    55632    55648    55665 
   55681    55692    55702    55713    55723    55738    55756    55767 
   55778    55789    55790    55782    55774    55760    55742    55723 
   55704    55684    55664    55644    55619    55588    55554    55519 
   55486    55458    55434    55417    55407    55408    55417    55431 
   55451    55478    55509    55542    55575    55605    55630    55651 
   55666    55672    55670    55662    55644    55621    55594    55565 
   55539    55517    55497    55482    55474    55471    55473    55477 
   55486    55501    55526    55556    55592    55634    55678    55720 
   55757    55783    55801    55810    55810    55802    55792    55782 
   55768    55753    55745    55740    55736    55736    55739    55743 
   55747    55748    55749    55750    55757    55773    55795    55817 
   55839    55856    55865    55863    55852    55827    55791    55752 
   55710    55667    55628    55593    55560    55532    55510    55491 
   55474    55462    55453    55448    55449    55452    55461    55473 
   55488    55510    55539    55571    55606    55647    55684    55715 
   55740    55756    55764    55767    55760    55748    55736    55723 
   55708    55694    55683    55680    55684    55691    55700    55713 
   55720    55722    55724    55719    55711    55709    55712    55720 
   55733    55743    55749    55755    55755    55747    55733    55718 
   55704    55683    55660    55640    55622    55609    55610    55618 
   55630    55647    55662    55670    55676    55672    55659    55642 
   55611    55572    55531    55484    55432    55380    55332    55294 
   55265    55248    55249    55266    55297    55340    55391    55445 
   55501    55559    55617    55667    55710    55749    55781    55805 
   55823    55835    55842    55847    55847    55843    55838    55832 
   55829    55833    55842    55855    55871    55886    55894    55898 
   55894    55884    55871    55851    55829    55811    55790    55768 
   55747    55727    55703    55681    55663    55649    55641    55639 
   55642    55649    55659    55673    55687    55698    55707    55707 
   55693    55671    55644    55612    55576    55541    55512    55487 
   55468    55457    55457    55465    55479    55495    55514    55537 
   55557    55574    55591    55607    55620    55635    55648    55657 
   55662    55665    55669    55672    55678    55681    55677    55675 
   55671    55663    55655    55642    55624    55607    55586    55562 
   55542    55522    55505    55494    55491    55497    55509    55525 
   55546    55571    55598    55623    55651    55676    55696    55714 
   55730    55741    55746    55748    55749    55751    55757    55768 
   55780    55792    55804    55814    55823    55834    55849    55863 
   55875    55888    55898    55898    55895    55884    55865    55842 
   55808    55765    55719    55669    55616    55568    55526    55494 
   55475    55467    55469    55481    55496    55514    55538    55564 
   55585    55604    55619    55631    55639    55642    55645    55651 
   55662    55678    55697    55717    55731    55737    55736    55725 
   55707    55686    55662    55637    55611    55587    55564    55549 
   55540    55535    55533    55536    55541    55546    55549    55553 
   55558    55560    55559    55558    55561    55564    55565    55567 
   55570    55573    55573    55573    55576    55581    55590    55601 
   55611    55622    55636    55646    55653    55660    55666    55671 
   55675    55680    55686    55691    55695    55702    55707    55713 
   55725    55739    55751    55763    55773    55781    55787    55792 
   55797    55800    55797    55789    55776    55760    55742    55721 
   55696    55669    55646    55626    55609    55597    55589    55587 
   55588    55591    55595    55596    55595    55596    55595    55595 
   55597    55602    55606    55608    55612    55616    55620    55627 
   55639    55653    55667    55679    55691    55704    55718    55736 
   55757    55777    55792    55805    55815    55819    55818    55814 
   55811    55807    55802    55799    55796    55792    55788    55780 
   55773    55769    55762    55754    55746    55736    55722    55708 
   55693    55675    55655    55633    55610    55588    55560    55533 
   55511    55491    55477    55472    55473    55478    55489    55507 
   55528    55547    55566    55583    55597    55605    55609    55609 
   55612    55614    55611    55611    55615    55618    55621    55625 
   55629    55634    55639    55642    55646    55654    55664    55671 
