Origin Time       2025/03/29 04:45:00
Lat.              31.090
Long.             131.512
Depth. (km)       33
Mag.              4.6
Station Code      MYZH14
Station Lat.      31.5649
Station Long.     131.3510
Station Height(m) 5
Record Time       2025/03/29 04:45:25
Sampling Freq(Hz) 100Hz
Duration Time(s)  120
Dir.              5
Scale Factor      7845(gal)/8223790
Max. Acc. (gal)   5.488
Last Correction   2025/03/29 04:45:26
Memo.             
[...]
   -1414    -1417    -1414    -1414    -1418    -1418    -1414    -1414 
   -1413    -1413    -1417    -1418    -1417    -1420    -1417    -1413 
   -1416    -1418    -1418    -1418    -1418    -1416    -1413    -1413 
   -1414    -1416    -1417    -1417    -1416    -1414    -1413    -1416 
   -1417    -1414    -1416    -1417    -1416    -1414    -1413    -1414 
   -1417    -1417    -1413    -1412    -1414    -1414    -1412    -1412 
   -1413    -1417    -1418    -1412    -1410    -1416    -1417    -1413 
   -1413    -1414    -1414    -1412    -1410    -1414    -1420    -1416 
   -1413    -1416    -1414    -1416    -1418    -1416    -1413    -1414 
   -1416    -1416    -1417    -1416    -1414    -1417    -1417    -1416 
   -1418    -1414    -1410    -1416    -1418    -1416    -1414    -1416 
   -1416    -1416    -1414    -1414    -1413    -1413    -1416    -1416 
   -1416    -1417    -1412    -1410    -1417    -1418    -1413    -1412 
   -1417    -1418    -1416    -1416    -1413    -1412    -1414    -1417 
   -1414    -1413    -1413    -1413    -1412    -1413    -1414    -1414 
   -1416    -1416    -1416    -1417    -1417    -1416    -1416    -1414 
   -1417    -1420    -1416    -1414    -1417    -1416    -1414    -1417 
   -1418    -1414    -1413    -1417    -1416    -1414    -1414    -1416 
   -1416    -1413    -1412    -1413    -1413    -1414    -1416    -1416 
   -1414    -1414    -1414    -1412    -1412    -1416    -1420    -1417 
   -1414    -1417    -1418    -1414    -1412    -1417    -1416    -1412 
   -1413    -1414    -1414    -1416    -1414    -1416    -1418    -1413 
   -1410    -1413    -1416    -1416    -1414    -1413    -1413    -1416 
   -1417    -1414    -1413    -1416    -1418    -1417    -1414    -1414 
   -1417    -1416    -1414    -1416    -1416    -1413    -1416    -1418 
   -1418    -1416    -1413    -1413    -1417    -1417    -1416    -1417 
   -1417    -1414    -1413    -1413    -1414    -1416    -1416    -1413 
   -1413    -1417    -1417    -1414    -1417    -1417    -1416    -1418 
   -1416    -1414    -1418    -1416    -1413    -1417    -1417    -1413 
   -1413    -1416    -1417    -1416    -1414    -1413    -1416    -1418 
   -1413    -1413    -1418    -1418    -1416    -1416    -1416    -1417 
   -1417    -1416    -1417    -1418    -1413    -1414    -1418    -1417 
   -1414    -1416    -1417    -1417    -1417    -1418    -1420    -1418 
   -1417    -1417    -1414    -1414    -1416    -1414    -1414    -1416 
   -1416    -1414    -1413    -1416    -1417    -1416    -1418    -1418 
   -1414    -1414    -1414    -1414    -1417    -1417    -1414    -1413 
   -1414    -1416    -1416    -1417    -1418    -1418    -1414    -1413 
   -1418    -1418    -1414    -1414    -1416    -1416    -1417    -1418 
   -1413    -1412    -1417    -1418    -1417    -1417    -1417    -1417 
   -1417    -1418    -1417    -1416    -1416    -1418    -1416    -1416 
   -1417    -1416    -1414    -1417    -1417    -1417    -1417    -1417 
   -1416    -1414    -1416    -1418    -1418    -1418    -1416    -1414 
   -1416    -1416    -1416    -1417    -1414    -1413    -1416    -1417 
   -1413    -1413    -1417    -1416    -1413    -1413    -1416    -1417 
   -1414    -1410    -1414    -1417    -1414    -1414    -1416    -1416 
   -1416    -1416    -1416    -1417    -1417    -1417    -1416    -1416 
   -1417    -1416    -1414    -1412    -1410    -1413    -1414    -1412 
   -1410    -1413    -1421    -1429    -1426    -1416    -1395    -1371 
   -1355    -1352    -1366    -1397    -1433    -1462    -1476    -1472 
   -1448    -1420    -1410    -1422    -1441    -1440    -1405    -1354 
   -1323    -1331    -1372    -1431    -1479    -1509    -1537    -1566 
   -1576    -1556    -1497    -1414    -1360    -1358    -1368    -1360 
   -1337    -1312    -1293    -1286    -1298    -1333    -1393    -1449 
   -1478    -1487    -1495    -1506    -1480    -1390    -1287    -1250 
   -1291    -1366    -1413    -1406    -1378    -1378    -1429    -1507 
   -1560    -1559    -1506    -1428    -1356    -1343    -1435    -1609 
   -1760    -1776    -1629    -1386    -1166    -1062    -1097    -1233 
   -1410    -1557    -1610    -1537    -1377    -1225    -1173    -1236 
   -1356    -1480    -1607    -1713    -1690    -1487    -1233    -1109 
   -1146    -1217    -1217    -1163    -1169    -1314    -1524    -1660 
   -1701    -1744    -1837    -1888    -1759    -1429    -1094    -1028 
   -1317    -1733    -1960    -1902    -1682    -1433    -1198     -978 
    -803     -727     -757     -886    -1161    -1598    -2056    -2277 
   -2091    -1582    -1051     -774     -803    -1004    -1190    -1244 
   -1204    -1205    -1347    -1630    -1973    -2234    -2276    -2069 
   -1732    -1448    -1345    -1395    -1472    -1506    -1514    -1505 
   -1421    -1237     -993     -773     -707     -861    -1152    -1448 
   -1653    -1699    -1595    -1470    -1444    -1545    -1696    -1736 
   -1556    -1248    -1008     -965    -1115    -1313    -1390    -1318 
   -1225    -1236    -1414    -1740    -2066    -2208    -2116    -1861 
   -1544    -1269    -1065     -893     -787     -822     -996    -1232 
   -1444    -1584    -1667    -1723    -1740    -1667    -1510    -1362 
   -1323    -1428    -1611    -1761    -1809    -1721    -1472    -1109 
    -777     -633     -762    -1123    -1526    -1765    -1796    -1721 
   -1617    -1506    -1406    -1348    -1355    -1426    -1518    -1555 
   -1518    -1462    -1428    -1416    -1401    -1383    -1398    -1422 
   -1386    -1289    -1189    -1132    -1155    -1259    -1405    -1560 
   -1680    -1715    -1671    -1611    -1576    -1552    -1509    -1453 
   -1424    -1432    -1448    -1443    -1420    -1364    -1243    -1053 
    -849     -712     -684     -774     -955    -1170    -1405    -1699 
   -2046    -2346    -2477    -2380    -2070    -1664    -1339    -1193 
   -1186    -1217    -1215    -1171    -1128    -1113    -1121    -1165 
   -1275    -1460    -1674    -1831    -1860    -1736    -1512    -1304 
   -1227    -1306    -1460    -1579    -1610    -1556    -1441    -1283 
   -1112     -954     -831     -773     -819    -1003    -1325    -1691 
   -1976    -2133    -2174    -2099    -1887    -1568    -1258    -1053 
    -945     -912     -996    -1224    -1499    -1628    -1493    -1170 
    -855     -697     -788    -1152    -1692    -2212    -2523    -2559 
   -2380    -2077    -1723    -1402    -1206    -1144    -1108    -1023 
    -946     -945    -1009    -1102    -1197    -1320    -1510    -1728 
   -1861    -1840    -1669    -1402    -1111     -900     -858     -985 
   -1202    -1398    -1501    -1518    -1505    -1489    -1462    -1410 
   -1333    -1258    -1198    -1148    -1120    -1171    -1370    -1711 
   -2091    -2344    -2398    -2289    -2074    -1763    -1390    -1069 
    -926     -980    -1116    -1178    -1098     -927     -754     -660 
    -719     -966    -1323    -1626    -1745    -1676    -1540    -1497 
   -1621    -1857    -2088    -2223    -2209    -2046    -1791    -1534 
   -1347    -1263    -1246    -1223    -1188    -1185    -1215    -1225 
   -1209    -1192    -1210    -1317    -1499    -1634    -1613    -1394 
    -993     -535     -251     -306     -703    -1304    -1904    -2304 
   -2430    -2332    -2065    -1695    -1348    -1139    -1100    -1192 
   -1325    -1424    -1480    -1548    -1647    -1729    -1744    -1667 
   -1512    -1325    -1171    -1078    -1059    -1127    -1239    -1325 
   -1364    -1383    -1390    -1381    -1350    -1291    -1228    -1225 
   -1320    -1497    -1714    -1898    -1966    -1910    -1787    -1657 
   -1543    -1441    -1335    -1186    -1030     -918     -870     -900 
   -1023    -1227    -1491    -1790    -2061    -2219    -2205    -2034 
   -1799    -1615    -1541    -1539    -1510    -1405    -1240    -1070 
    -939     -873     -862     -881     -903     -919     -943     -996 
   -1096    -1247    -1428    -1607    -1741    -1786    -1733    -1609 
   -1449    -1317    -1271    -1293    -1318    -1332    -1368    -1470 
   -1652    -1881    -2084    -2192    -2164    -1991    -1713    -1408 
   -1166    -1038    -1035    -1132    -1271    -1398    -1482    -1516 
   -1507    -1468    -1389    -1262    -1098     -919     -770     -724 
    -819    -1026    -1264    -1444    -1514    -1503    -1471    -1471 
   -1537    -1671    -1837    -1973    -2037    -2034    -1987    -1908 
   -1786    -1607    -1399    -1201    -1030     -912     -878     -918 
    -996    -1117    -1291    -1489    -1653    -1740    -1723    -1630 
   -1487    -1325    -1196    -1155    -1216    -1332    -1440    -1502 
   -1513    -1476    -1402    -1285    -1136    -1007     -959    -1032 
   -1208    -1435    -1682    -1925    -2114    -2196    -2141    -1968 
   -1734    -1516    -1360    -1290    -1294    -1347    -1393    -1368 
   -1247    -1036     -774     -548     -446     -523     -789    -1183 
   -1587    -1892    -2056    -2079    -2004    -1890    -1769    -1652 
   -1545    -1453    -1378    -1320    -1285    -1282    -1317    -1394 
   -1506    -1614    -1674    -1671    -1626    -1578    -1553    -1557 
   -1583    -1614    -1629    -1599    -1501    -1320    -1066     -766 
    -490     -329     -346     -558     -919    -1329    -1676    -1880 
   -1931    -1885    -1813    -1761    -1761    -1822    -1921    -2002 
   -1993    -1860    -1634    -1386    -1179    -1044     -981     -972 
    -989    -1012    -1067    -1198    -1406    -1647    -1838    -1899 
   -1796    -1560    -1260     -999     -870     -927    -1150    -1475 
   -1823    -2110    -2261    -2232    -2038    -1748    -1433    -1135 
    -881     -711     -649     -691     -799     -942    -1094    -1219 
   -1287    -1309    -1323    -1366    -1452    -1553    -1629    -1649 
   -1626    -1597    -1590    -1622    -1686    -1742    -1767    -1759 
   -1723    -1661    -1576    -1479    -1385    -1309    -1285    -1320 
   -1381    -1412    -1372    -1282    -1190    -1134    -1112    -1094 
   -1063    -1038    -1046    -1116    -1267    -1497    -1756    -1976 
   -2119    -2172    -2154    -2089    -1976    -1823    -1659    -1494 
   -1332    -1189    -1078    -1023    -1030    -1082    -1142    -1167 
   -1138    -1059     -970     -938    -1001    -1156    -1371    -1595 
   -1782    -1907    -1961    -1938    -1865    -1753    -1617    -1499 
   -1432    -1404    -1385    -1344    -1282    -1220    -1174    -1142 
   -1100    -1032     -951     -872     -818     -818     -885    -1016 
   -1192    -1381    -1547    -1651    -1671    -1609    -1499    -1393 
   -1327    -1331    -1422    -1599    -1814    -1992    -2077    -2064 
   -1973    -1848    -1733    -1644    -1580    -1516    -1375    -1112 
    -774     -454     -228     -155     -257     -506     -841    -1193 
   -1494    -1714    -1846    -1887    -1827    -1679    -1480    -1278 
   -1119    -1054    -1112    -1291    -1578    -1921    -2245    -2478 
   -2575    -2525    -2357    -2106    -1822    -1549    -1310    -1124 
   -1009     -976    -1023    -1139    -1302    -1478    -1615    -1669 
   -1636    -1529    -1372    -1190    -1016     -888     -843     -904 
   -1047    -1215    -1367    -1503    -1644    -1803    -1987    -2176 
   -2327    -2412    -2438    -2427    -2412    -2412    -2393    -2299 
   -2096    -1799    -1449    -1093     -785     -569     -450     -411 
    -427     -469     -515     -569     -645     -745     -870    -1016 
   -1173    -1321    -1436    -1486    -1456    -1367    -1273    -1235 
   -1283    -1425    -1644    -1890    -2099    -2228    -2251    -2160 
   -1969    -1713    -1431    -1150     -876     -612     -364     -137 
      45      159      183      106      -60     -297     -589     -927 
   -1305    -1728    -2193    -2682    -3148    -3520    -3715    -3674 
   -3402    -2936    -2371    -1827    -1397    -1116     -982     -972 
   -1053    -1182    -1313    -1416    -1485    -1539    -1599    -1671 
   -1749    -1823    -1871    -1871    -1819    -1711    -1539    -1304 
   -1013     -683     -355      -83       81      108       -8     -248 
    -575     -940    -1308    -1644    -1912    -2096    -2207    -2258 
   -2262    -2238    -2197    -2149    -2103    -2050    -1991    -1935 
   -1887    -1833    -1765    -1656    -1470    -1221     -949     -681 
    -459     -348     -383     -554     -816    -1092    -1279    -1313 
   -1174     -888     -558     -337     -337     -607    -1135    -1840 
   -2594    -3265    -3750    -3993    -4004    -3827    -3528    -3169 
   -2783    -2380    -1942    -1462     -962     -480      -55      276 
     518      712      900     1086     1259     1379     1371     1171 
     760      153     -562    -1285    -1927    -2413    -2685    -2736 
   -2600    -2330    -2016    -1763    -1651    -1719    -1958    -2304 
   -2659    -2913    -2990    -2863    -2566    -2164    -1729    -1355 
   -1124    -1066    -1152    -1327    -1522    -1684    -1784    -1823 
   -1813    -1760    -1682    -1609    -1583    -1642    -1799    -2038 
   -2312    -2532    -2601    -2450    -2041    -1402     -627      155 
     810     1232     1378     1255      923      461      -70     -637 
   -1219    -1813    -2425    -3030    -3565    -3967    -4183    -4179 
   -3951    -3528    -2964    -2322    -1636     -930     -234      436 
    1082     1680     2192     2563     2724     2623     2243     1575 
     643     -495    -1780    -3119    -4402    -5526    -6401    -6955 
   -7169    -7065    -6677    -6049    -5232    -4284    -3253    -2155 
   -1016      106     1138     2012     2650     2952     2871     2424 
    1657      675     -372    -1337    -2073    -2448    -2434    -2081 
   -1480     -769      -86      467      812      901      742      390 
     -60     -495     -810     -947     -900     -715     -483     -326 
    -373     -699    -1306    -2139    -3087    -4016    -4800    -5332 
   -5541    -5435    -5078    -4541    -3890    -3213    -2590    -2080 
   -1726    -1541    -1487    -1494    -1493    -1432    -1290    -1077 
    -827     -595     -425     -297     -167        0      234      535 
     865     1169     1378     1412     1200      699      -83    -1062 
   -2114    -3103    -3893    -4392    -4576    -4442    -4028    -3393 
   -2597    -1711     -839      -99      387      522      272     -291 
   -1031    -1775    -2355    -2671    -2702    -2484    -2091    -1622 
   -1163     -792     -569     -522     -633     -864    -1177    -1525 
   -1838    -2066    -2207    -2274    -2313    -2380    -2484    -2608 
   -2722    -2770    -2704    -2494    -2118    -1602    -1005     -387 
     160      553      746      726      498       94     -433    -1030 
   -1624    -2135    -2531    -2816    -3005    -3109    -3149    -3119 
   -2979    -2698    -2280    -1729    -1093     -440      199      797 
    1291     1651     1869     1933     1829     1575     1210      753 
     220     -344     -908    -1471    -2012    -2523    -3014    -3473 
   -3850    -4105    -4213    -4156    -3950    -3620    -3198    -2736 
   -2300    -1939    -1701    -1609    -1655    -1792    -1966    -2128 
   -2251    -2327    -2350    -2334    -2311    -2308    -2349    -2419 
   -2466    -2425    -2236    -1868    -1332     -660      102      893 
    1655     2332     2882     3275     3495     3505     3277     2810 
    2143     1323      402     -560    -1539    -2525    -3495    -4406 
   -5211    -5852    -6289    -6516    -6512    -6277    -5852    -5244 
   -4448    -3505    -2475    -1406     -382      487     1144     1552 
    1656     1439      951      260     -558    -1409    -2182    -2795 
   -3188    -3327    -3226    -2949    -2559    -2108    -1659    -1259 
    -918     -648     -459     -325     -225     -170     -157     -190 
    -275     -394     -502     -606     -739     -905    -1100    -1309 
   -1472    -1548    -1533    -1410    -1186     -940     -757     -668 
    -670     -747     -893    -1085    -1267    -1383    -1432    -1453 
   -1501    -1628    -1852    -2145    -2467    -2759    -2955    -3026 
   -2975    -2808    -2560    -2286    -2016    -1741    -1456    -1194 
    -980     -823     -739     -742     -815     -942    -1109    -1287 
   -1455    -1610    -1742    -1846    -1939    -2025    -2087    -2119 
   -2111    -2041    -1884    -1642    -1328     -946     -519      -75 
     375      792     1121     1325     1381     1266      970      515 
     -66     -749    -1489    -2220    -2895    -3462    -3877    -4129 
   -4218    -4158    -3960    -3636    -3214    -2740    -2261    -1826 
   -1494    -1275    -1146    -1080    -1048    -1001     -909     -788 
    -662     -567     -542     -623     -803    -1050    -1335    -1621 
   -1842    -1954    -1966    -1892    -1759    -1613    -1489    -1410 
   -1395    -1440    -1524    -1617    -1694    -1730    -1715    -1648 
   -1510    -1302    -1048     -743     -411      -99      174      388 
     503      502      384      144     -193     -581    -1001    -1428 
   -1829    -2184    -2482    -2724    -2914    -3041    -3096    -3100 
   -3061    -2986    -2889    -2767    -2601    -2380    -2099    -1756 
   -1366     -967     -599     -299     -116      -89     -232     -535 
    -965    -1432    -1838    -2122    -2234    -2151    -1903    -1555 
   -1170     -810     -535     -373     -324     -388     -553     -776 
   -1027    -1287    -1528    -1730    -1900    -2046    -2177    -2300 
   -2403    -2451    -2412    -2263    -1995    -1622    -1202     -801 
    -475     -263     -184     -232     -372     -554     -733     -881 
    -993    -1090    -1212    -1381    -1603    -1868    -2143    -2415 
   -2666    -2870    -2992    -3009    -2894    -2648    -2293    -1865 
   -1413     -993     -641     -375     -210     -164     -241     -418 
    -661     -935    -1204    -1443    -1645    -1814    -1941    -2014 
   -2025    -1962    -1826    -1629    -1399    -1183    -1030     -958 
    -961    -1020    -1108    -1194    -1269    -1314    -1310    -1244 
   -1132    -1000     -864     -770     -764     -854    -1034    -1290 
   -1583    -1873    -2139    -2349    -2479    -2528    -2493    -2382 
   -2220    -2022    -1803    -1587    -1386    -1212    -1081    -1003 
    -976    -1007    -1088    -1190    -1296    -1404    -1499    -1568 
   -1593    -1564    -1472    -1318    -1132     -938     -758     -631 
    -572     -575     -639     -761     -912    -1078    -1264    -1479 
   -1713    -1958    -2199    -2401    -2540    -2610    -2610    -2536 
   -2403    -2235    -2035    -1806    -1563    -1312    -1036     -751 
    -490     -252      -62       52       95       81        0     -151 
    -365     -633     -936    -1256    -1584    -1910    -2218    -2485 
   -2681    -2782    -2779    -2670    -2461    -2178    -1857    -1528 
   -1232    -1013     -893     -873     -936    -1065    -1227    -1391 
   -1529    -1632    -1710    -1777    -1848    -1930    -2027    -2122 
   -2189    -2219    -2211    -2164    -2083    -1969    -1815    -1613 
   -1374    -1123     -881     -675     -535     -480     -496     -562 
    -666     -792     -927    -1070    -1225    -1385    -1544    -1698 
   -1831    -1927    -1972    -1945    -1840    -1679    -1478    -1255 
   -1024     -793     -583     -423     -337     -319     -364     -467 
