Origin Time       2025/03/29 04:45:00
Lat.              31.090
Long.             131.512
Depth. (km)       33
Mag.              4.6
Station Code      MYZH11
Station Lat.      32.0208
Station Long.     131.4700
Station Height(m) 12
Record Time       2025/03/29 04:45:49
Sampling Freq(Hz) 100Hz
Duration Time(s)  120
Dir.              5
Scale Factor      7845(gal)/8223790
Max. Acc. (gal)   1.155
Last Correction   2025/03/29 04:45:49
Memo.             
[...]
    5152     5163     5175     5194     5219     5251     5285     5314 
    5333     5346     5355     5366     5375     5385     5385     5374 
    5356     5328     5285     5243     5211     5167     5117     5071 
    5026     4988     4974     4978     4995     5020     5040     5057 
    5070     5081     5093     5108     5119     5135     5161     5189 
    5217     5246     5273     5301     5335     5360     5374     5377 
    5352     5312     5278     5252     5239     5250     5282     5323 
    5363     5394     5398     5375     5329     5266     5193     5120 
    5054     4999     4954     4924     4914     4928     4963     5004 
    5049     5098     5139     5166     5178     5185     5201     5235 
    5275     5320     5360     5390     5400     5393     5375     5347 
    5317     5290     5267     5262     5271     5278     5285     5278 
    5246     5204     5162     5125     5104     5092     5089     5103 
    5121     5131     5125     5103     5070     5046     5042     5061 
    5096     5135     5167     5190     5211     5235     5263     5294 
    5320     5339     5350     5351     5351     5348     5336     5319 
    5292     5250     5209     5178     5151     5130     5107     5078 
    5051     5038     5039     5050     5076     5111     5143     5179 
    5220     5260     5298     5327     5347     5362     5368     5363 
    5336     5282     5217     5161     5115     5088     5093     5128 
    5178     5223     5254     5271     5266     5240     5202     5152 
    5093     5036     4995     4973     4976     5000     5036     5081 
    5132     5178     5220     5271     5333     5397     5455     5495 
    5510     5491     5433     5346     5254     5175     5119     5092 
    5088     5097     5112     5128     5134     5124     5104     5071 
    5035     5009     5001     5015     5051     5103     5163     5221 
    5265     5290     5301     5294     5277     5263     5255     5254 
    5267     5297     5335     5371     5397     5402     5385     5341 
    5279     5219     5173     5140     5119     5107     5098     5085 
    5078     5085     5097     5109     5120     5136     5158     5184 
    5211     5236     5252     5256     5246     5225     5206     5193 
    5179     5163     5151     5143     5144     5162     5190     5225 
    5265     5300     5324     5336     5336     5328     5310     5289 
    5267     5246     5212     5170     5128     5097     5093     5119 
    5155     5190     5217     5227     5221     5213     5205     5186 
    5152     5105     5059     5034     5038     5067     5111     5147 
    5170     5181     5182     5182     5190     5205     5225     5255 
    5298     5346     5391     5424     5439     5441     5424     5390 
    5356     5314     5265     5223     5174     5119     5070     5027 
    4992     4973     4978     5011     5055     5100     5142     5171 
    5179     5170     5148     5121     5097     5089     5108     5152 
    5216     5277     5316     5339     5346     5336     5331     5329 
    5331     5336     5341     5341     5337     5329     5309     5282 
    5252     5216     5175     5131     5092     5065     5053     5058 
    5067     5074     5085     5098     5107     5112     5115     5113 
    5109     5101     5103     5120     5151     5194     5247     5301 
    5354     5404     5444     5466     5463     5436     5383     5308 
    5229     5155     5090     5046     5015     4996     4997     5016 
    5044     5080     5112     5144     5173     5198     5221     5233 
    5233     5232     5227     5225     5238     5265     5296     5317 
    5328     5327     5316     5305     5301     5300     5296     5283 
    5270     5254     5235     5223     5213     5197     5181     5158 
    5125     5096     5071     5057     5055     5065     5086     5119 
    5155     5193     5224     5236     5229     5211     5188     5161 
    5139     5134     5134     5140     5154     5161     5163     5165 
    5161     5146     5121     5103     5103     5121     5151     5177 
    5205     5233     5262     5302     5351     5395     5433     5447 
    5437     5421     5395     5362     5336     5314     5281     5243 
    5208     5171     5136     5111     5096     5082     5082     5096 
    5112     5121     5134     5147     5158     5163     5155     5128 
    5093     5065     5059     5081     5124     5170     5208     5232 
    5240     5242     5239     5235     5231     5223     5209     5194 
    5179     5181     5200     5229     5265     5298     5323     5331 
    5327     5319     5306     5293     5275     5252     5231     5212 
    5202     5202     5208     5205     5185     5146     5093     5042 
    5000     4965     4951     4968     5004     5053     5112     5174 
    5229     5270     5297     5306     5301     5282     5254     5223 
    5201     5193     5200     5220     5247     5274     5302     5328 
    5340     5356     5373     5377     5370     5352     5323     5287 
    5251     5216     5190     5177     5174     5171     5163     5148 
    5121     5086     5050     5017     4986     4968     4961     4961 
    4972     4997     5036     5097     5178     5262     5340     5405 
    5447     5471     5474     5455     5422     5379     5332     5287 
    5250     5215     5181     5148     5128     5117     5113     5117 
    5120     5113     5104     5090     5073     5062     5059     5058 
    5062     5082     5119     5166     5221     5283     5341     5389 
    5416     5421     5410     5383     5344     5304     5269     5239 
    5215     5193     5166     5139     5127     5131     5144     5163 
    5174     5175     5179     5186     5189     5190     5193     5200 
    5215     5236     5259     5275     5286     5289     5275     5256 
    5232     5202     5171     5143     5117     5094     5069     5038 
    5017     5009     5013     5035     5070     5109     5158     5211 
    5263     5317     5368     5406     5432     5448     5456     5451 
    5431     5397     5354     5298     5236     5177     5125     5078 
    5042     5020     5012     5008     5001     4995     4980     4953 
    4923     4901     4892     4904     4935     4976     5020     5069 
    5127     5194     5265     5344     5418     5471     5503     5517 
    5512     5497     5474     5443     5410     5379     5344     5305 
    5270     5233     5194     5147     5092     5038     4996     4968 
    4953     4958     4977     5000     5027     5061     5089     5107 
    5120     5135     5142     5135     5123     5112     5104     5112 
    5135     5155     5171     5186     5194     5205     5233     5277 
    5323     5364     5393     5395     5366     5310     5246     5188 
    5150     5132     5131     5150     5189     5232     5271     5301 
    5324     5339     5347     5352     5364     5383     5404     5416 
    5414     5406     5398     5390     5375     5352     5319     5269 
    5205     5143     5086     5047     5032     5034     5042     5053 
    5062     5071     5077     5074     5073     5074     5074     5081 
    5098     5125     5161     5200     5238     5274     5313     5359 
    5409     5456     5498     5530     5547     5544     5530     5508 
    5476     5437     5390     5336     5277     5219     5163     5115 
    5084     5063     5050     5043     5034     5016     4995     4972 
    4953     4946     4953     4972     5005     5047     5096     5150 
    5200     5250     5289     5314     5337     5358     5377     5393 
    5393     5373     5336     5287     5231     5171     5108     5047 
    4995     4962     4957     4976     5009     5047     5076     5093 
    5098     5092     5081     5073     5067     5062     5063     5070 
    5076     5078     5067     5030     4988     4959     4942     4957 
    5007     5081     5173     5265     5340     5397     5433     5448 
    5458     5466     5475     5479     5464     5422     5366     5301 
    5238     5179     5121     5069     5020     4965     4918     4884 
    4860     4851     4855     4872     4907     4953     5005     5069 
    5130     5194     5271     5344     5412     5475     5524     5551 
    5570     5584     5587     5579     5562     5528     5493     5470 
    5459     5464     5482     5495     5490     5472     5445     5413 
    5382     5351     5317     5286     5251     5213     5174     5132 
    5093     5047     4989     4931     4880     4847     4838     4851 
    4891     4951     5023     5104     5190     5271     5337     5389 
    5422     5451     5486     5520     5543     5549     5536     5499 
    5454     5414     5386     5367     5346     5316     5282     5246 
    5202     5152     5104     5069     5051     5046     5043     5038 
    5028     5011     4997     4995     5004     5024     5039     5046 
    5049     5054     5063     5082     5119     5171     5225     5275 
    5316     5341     5354     5352     5331     5292     5251     5217 
    5190     5171     5158     5148     5140     5140     5150     5166 
    5185     5196     5188     5162     5127     5096     5073     5058 
    5051     5043     5031     5022     5013     5009     5016     5030 
    5055     5094     5143     5201     5273     5354     5440     5517 
    5566     5578     5557     5508     5433     5350     5262     5166 
    5074     5004     4958     4939     4953     4982     5007     5012 
    4996     4961     4919     4884     4866     4862     4870     4897 
    4934     4977     5024     5070     5109     5146     5171     5196 
    5225     5248     5260     5269     5281     5301     5332     5375 
    5422     5466     5489     5497     5497     5497     5505     5529 
    5557     5579     5599     5607     5595     5567     5525     5467 
    5393     5301     5197     5092     4986     4895     4828     4780 
    4750     4738     4739     4760     4804     4878     4974     5076 
    5167     5236     5290     5347     5404     5449     5476     5470 
    5433     5381     5328     5294     5285     5293     5312     5324 
    5327     5320     5297     5263     5231     5209     5196     5181 
    5159     5120     5059     4982     4889     4788     4695     4621 
    4575     4560     4590     4668     4781     4920     5069     5215 
    5348     5464     5560     5636     5678     5698     5703     5697 
    5684     5675     5663     5649     5638     5621     5597     5563 
    5518     5462     5390     5313     5239     5170     5101     5035 
    4970     4915     4884     4884     4912     4959     5016     5078 
    5132     5171     5197     5211     5215     5212     5208     5206 
    5193     5166     5130     5085     5032     4986     4953     4928 
    4908     4903     4909     4924     4950     4995     5058     5134 
    5215     5298     5377     5441     5494     5532     5552     5562 
    5556     5532     5490     5431     5358     5274     5192     5120 
    5058     5007     4965     4927     4892     4861     4830     4799 
    4768     4737     4711     4693     4689     4708     4752     4819 
    4912     5028     5155     5285     5410     5524     5618     5687 
    5728     5742     5732     5697     5645     5584     5526     5481 
    5458     5455     5463     5472     5476     5470     5451     5420 
    5382     5337     5283     5215     5139     5059     4985     4926 
    4885     4860     4845     4842     4854     4880     4935     5035 
    5162     5302     5444     5557     5626     5653     5649     5621 
    5568     5495     5406     5306     5205     5123     5069     5040 
    5027     5024     5026     5024     5028     5030     5024     5022 
    5016     5009     5012     5023     5049     5090     5139     5192 
    5250     5301     5339     5370     5387     5385     5379     5373 
    5363     5346     5314     5271     5216     5146     5063     4982 
    4912     4864     4851     4882     4957     5070     5209     5360 
    5506     5626     5709     5755     5761     5728     5663     5580 
    5498     5416     5341     5282     5235     5190     5144     5092 
    5035     4977     4918     4855     4788     4716     4648     4602 
    4584     4594     4634     4700     4774     4847     4915     4972 
    5022     5069     5116     5166     5224     5294     5378     5482 
    5609     5744     5869     5973     6043     6065     6037     5965 
    5859     5726     5574     5405     5225     5042     4870     4730 
    4627     4567     4548     4558     4594     4653     4730     4820 
    4919     5015     5103     5177     5239     5297     5346     5381 
    5400     5398     5377     5343     5300     5251     5205     5161 
    5120     5086     5051     5022     4996     4976     4963     4962 
    4968     4980     5003     5042     5115     5219     5343     5472 
    5587     5670     5713     5724     5706     5667     5609     5541 
    5474     5412     5359     5313     5277     5243     5204     5163 
    5127     5093     5062     5039     5027     5020     5015     5005 
    4995     4982     4968     4953     4947     4954     4965     4977 
    4997     5015     5023     5023     5017     5016     5028     5058 
    5111     5194     5304     5432     5564     5687     5791     5867 
    5917     5946     5953     5941     5918     5883     5842     5805 
    5763     5714     5659     5593     5512     5418     5313     5196 
    5078     4963     4849     4730     4600     4468     4342     4222 
    4118     4037     3991     3990     4032     4110     4218     4342 
    4475     4607     4727     4842     4951     5053     5158     5281 
    5425     5580     5737     5884     5999     6069     6100     6092 
    6053     6006     5948     5883     5813     5730     5638     5530 
    5410     5293     5179     5067     4961     4868     4783     4703 
    4637     4587     4557     4554     4581     4639     4734     4855 
    4988     5123     5254     5370     5458     5517     5548     5552 
    5532     5497     5451     5400     5350     5297     5246     5197 
    5144     5090     5042     5003     4982     4976     4978     4993 
    5028     5084     5148     5224     5310     5393     5467     5533 
    5589     5634     5672     5699     5707     5694     5661     5602 
    5512     5406     5289     5162     5027     4881     4733     4592 
    4473     4392     4371     4415     4517     4654     4814     4986 
    5162     5332     5491     5634     5756     5846     5906     5940 
    5960     5975     5980     5969     5937     5880     5800     5703 
    5587     5459     5324     5177     5022     4862     4712     4585 
    4491     4434     4417     4441     4503     4598     4712     4838 
    4965     5090     5211     5316     5402     5471     5518     5541 
    5545     5540     5524     5498     5464     5431     5397     5363 
    5332     5306     5279     5251     5220     5188     5155     5115 
    5066     4999     4914     4820     4729     4641     4575     4544 
    4545     4581     4653     4754     4880     5020     5167     5313 
    5445     5556     5633     5676     5694     5695     5686     5676 
    5668     5655     5632     5597     5548     5479     5387     5282 
    5167     5034     4885     4735     4585     4457     4368     4324 
    4328     4386     4496     4652     4843     5063     5294     5520 
    5729     5910     6058     6178     6272     6335     6366     6365 
    6327     6238     6095     5906     5676     5421     5166     4927 
    4712     4534     4396     4301     4245     4241     4288     4364 
    4453     4550     4638     4715     4791     4865     4938     5013 
    5085     5151     5216     5286     5358     5427     5489     5529 
    5540     5522     5490     5447     5395     5343     5297     5258 
    5228     5209     5196     5193     5208     5225     5233     5246 
    5258     5267     5277     5287     5294     5286     5260     5219 
    5165     5112     5074     5051     5042     5050     5070     5097 
    5136     5184     5233     5282     5324     5360     5389     5413 
    5432     5447     5459     5462     5451     5433     5414     5390 
    5358     5316     5269     5223     5184     5154     5138     5127 
    5117     5112     5112     5109     5109     5116     5123     5130 
    5134     5125     5104     5076     5042     5007     4969     4926 
    4888     4855     4828     4818     4831     4862     4908     4962 
    5020     5080     5140     5208     5279     5354     5435     5517 
    5590     5648     5690     5711     5718     5703     5665     5611 
    5547     5460     5362     5262     5165     5074     5007     4950 
    4899     4862     4833     4801     4781     4777     4787     4811 
    4841     4878     4922     4961     5005     5062     5121     5184 
    5247     5301     5350     5391     5421     5452     5498     5544 
    5571     5579     5566     5529     5475     5413     5350     5282 
    5204     5120     5043     4978     4930     4903     4893     4895 
    4903     4922     4954     4999     5051     5109     5179     5255 
    5325     5397     5466     5526     5587     5638     5668     5680 
    5678     5653     5610     5552     5479     5406     5335     5263 
    5205     5162     5130     5111     5104     5112     5132     5157 
    5178     5201     5223     5235     5235     5229     5216     5202 
    5188     5167     5146     5121     5086     5047     5012     4982 
    4959     4947     4949     4961     4978     5008     5040     5069 
    5109     5152     5185     5219     5256     5293     5325     5351 
    5360     5352     5323     5275     5219     5150     5071     4989 
    4908     4835     4774     4726     4689     4666     4657     4669 
    4708     4772     4854     4955     5063     5173     5286     5397 
    5495     5578     5645     5694     5719     5736     5742     5742 
    5730     5709     5678     5628     5568     5499     5418     5344 
    5275     5205     5143     5093     5053     5026     5011     5005 
    5007     5013     5024     5042     5066     5096     5124     5150 
    5175     5198     5221     5243     5263     5279     5290     5296 
    5294     5292     5289     5273     5246     5211     5163     5116 
    5085     5065     5059     5073     5100     5128     5161     5197 
    5232     5262     5286     5306     5314     5314     5302     5278 
    5247     5211     5165     5120     5082     5043     5007     4977 
    4954     4941     4938     4951     4978     5016     5063     5115 
    5166     5221     5281     5336     5389     5436     5472     5503 
    5540     5571     5591     5599     5595     5576     5552     5518 
    5475     5433     5381     5321     5269     5221     5175     5139 
    5111     5081     5055     5034     5015     4995     4982     4978 
    4970     4962     4955     4949     4945     4939     4928     4919 
    4912     4907     4911     4927     4958     5004     5061     5128 
    5206     5289     5378     5468     5548     5621     5687     5738 
    5769     5773     5757     5726     5683     5628     5562     5487 
    5401     5312     5225     5146     5077     5017     4974     4945 
    4931     4926     4919     4907     4884     4850     4814     4784 
    4756     4729     4710     4702     4704     4720     4758     4814 
