Origin Time       2025/03/29 04:45:00
Lat.              31.090
Long.             131.512
Depth. (km)       33
Mag.              4.6
Station Code      MYZH13
Station Lat.      31.7301
Station Long.     131.0791
Station Height(m) 35
Record Time       2025/03/29 04:45:34
Sampling Freq(Hz) 100Hz
Duration Time(s)  120
Dir.              1
Scale Factor      2942(gal)/8224139
Max. Acc. (gal)   0.486
Last Correction   2025/03/29 04:45:34
Memo.             
[...]
 -229564  -229606  -229652  -229682  -229686  -229668  -229630  -229575 
 -229518  -229466  -229423  -229397  -229385  -229386  -229409  -229456 
 -229505  -229540  -229578  -229621  -229660  -229671  -229626  -229549 
 -229483  -229451  -229450  -229455  -229454  -229464  -229493  -229528 
 -229554  -229551  -229535  -229533  -229547  -229554  -229544  -229533 
 -229533  -229531  -229517  -229500  -229475  -229443  -229423  -229446 
 -229522  -229617  -229666  -229651  -229612  -229589  -229582  -229551 
 -229481  -229404  -229374  -229410  -229473  -229512  -229535  -229560 
 -229581  -229571  -229543  -229518  -229501  -229478  -229452  -229427 
 -229429  -229491  -229578  -229614  -229593  -229564  -229570  -229594 
 -229598  -229566  -229495  -229409  -229347  -229331  -229352  -229404 
 -229466  -229521  -229558  -229578  -229594  -229603  -229593  -229555 
 -229497  -229451  -229441  -229456  -229466  -229466  -229466  -229467 
 -229477  -229510  -229554  -229570  -229552  -229541  -229563  -229587 
 -229576  -229537  -229493  -229451  -229424  -229425  -229444  -229450 
 -229443  -229444  -229456  -229478  -229524  -229594  -229652  -229657 
 -229603  -229527  -229473  -229447  -229436  -229447  -229491  -229551 
 -229593  -229602  -229591  -229555  -229487  -229421  -229386  -229371 
 -229366  -229383  -229431  -229505  -229590  -229653  -229667  -229637 
 -229587  -229539  -229498  -229460  -229437  -229435  -229451  -229500 
 -229575  -229636  -229647  -229605  -229537  -229474  -229429  -229396 
 -229373  -229389  -229455  -229545  -229632  -229694  -229718  -229689 
 -229614  -229536  -229493  -229491  -229509  -229513  -229504  -229504 
 -229520  -229535  -229533  -229494  -229431  -229398  -229439  -229539 
 -229645  -229710  -229716  -229680  -229616  -229522  -229435  -229375 
 -229338  -229323  -229336  -229373  -229414  -229439  -229448  -229478 
 -229540  -229609  -229663  -229687  -229668  -229620  -229571  -229535 
 -229512  -229501  -229506  -229533  -229564  -229587  -229598  -229583 
 -229527  -229435  -229356  -229340  -229366  -229404  -229455  -229513 
 -229572  -229629  -229647  -229618  -229595  -229608  -229632  -229635 
 -229602  -229549  -229497  -229456  -229432  -229423  -229428  -229440 
 -229440  -229423  -229416  -229429  -229439  -229433  -229435  -229474 
 -229545  -229610  -229635  -229625  -229603  -229590  -229590  -229582 
 -229554  -229504  -229433  -229359  -229296  -229252  -229236  -229254 
 -229301  -229365  -229450  -229552  -229644  -229694  -229697  -229679 
 -229680  -229709  -229725  -229701  -229648  -229587  -229525  -229468 
 -229427  -229408  -229421  -229454  -229483  -229508  -229531  -229555 
 -229572  -229562  -229527  -229497  -229475  -229451  -229427  -229413 
 -229421  -229452  -229500  -229549  -229599  -229647  -229680  -229680 
 -229641  -229581  -229528  -229495  -229474  -229459  -229460  -229482 
 -229501  -229502  -229490  -229478  -229481  -229491  -229493  -229489 
 -229486  -229479  -229451  -229401  -229354  -229335  -229362  -229433 
 -229522  -229598  -229670  -229752  -229822  -229853  -229838  -229767 
 -229656  -229528  -229401  -229313  -229297  -229358  -229478  -229622 
 -229748  -229810  -229801  -229736  -229629  -229508  -229409  -229352 
 -229336  -229340  -229346  -229354  -229378  -229431  -229498  -229566 
 -229613  -229625  -229593  -229522  -229451  -229414  -229419  -229451 
 -229497  -229544  -229583  -229609  -229626  -229637  -229641  -229633 
 -229602  -229537  -229455  -229387  -229359  -229360  -229371  -229379 
 -229387  -229400  -229421  -229441  -229454  -229466  -229494  -229549 
 -229616  -229662  -229675  -229653  -229598  -229535  -229483  -229455 
 -229454  -229478  -229525  -229601  -229690  -229770  -229819  -229819 
 -229755  -229630  -229477  -229327  -229198  -229112  -229090  -229138 
 -229239  -229369  -229502  -229613  -229683  -229714  -229717  -229701 
 -229664  -229606  -229532  -229450  -229385  -229352  -229358  -229397 
 -229462  -229545  -229628  -229672  -229670  -229633  -229571  -229482 
 -229381  -229294  -229231  -229189  -229171  -229189  -229242  -229327 
 -229429  -229532  -229618  -229679  -229714  -229745  -229784  -229815 
 -229828  -229824  -229803  -229759  -229686  -229597  -229500  -229401 
 -229320  -229274  -229269  -229292  -229331  -229379  -229433  -229494 
 -229551  -229590  -229608  -229614  -229609  -229582  -229536  -229471 
 -229390  -229308  -229247  -229231  -229281  -229398  -229558  -229721 
 -229863  -229960  -229984  -229937  -229842  -229726  -229612  -229516 
 -229433  -229356  -229292  -229247  -229239  -229275  -229343  -229425 
 -229508  -229578  -229624  -229648  -229656  -229648  -229635  -229622 
 -229597  -229551  -229491  -229427  -229373  -229348  -229363  -229409 
 -229479  -229566  -229653  -229714  -229738  -229728  -229682  -229621 
 -229559  -229500  -229464  -229462  -229485  -229525  -229566  -229585 
 -229578  -229551  -229510  -229482  -229477  -229489  -229513  -229544 
 -229563  -229554  -229514  -229458  -229398  -229351  -229319  -229304 
 -229311  -229346  -229409  -229490  -229574  -229653  -229722  -229772 
 -229794  -229792  -229774  -229732  -229671  -229605  -229544  -229493 
 -229448  -229416  -229393  -229369  -229344  -229331  -229327  -229328 
 -229335  -229342  -229351  -229373  -229413  -229466  -229524  -229570 
 -229590  -229594  -229597  -229599  -229602  -229606  -229614  -229624 
 -229620  -229602  -229572  -229533  -229491  -229448  -229404  -229356 
 -229317  -229293  -229286  -229297  -229325  -229370  -229423  -229479 
 -229539  -229609  -229679  -229741  -229801  -229845  -229857  -229834 
 -229786  -229717  -229643  -229572  -229498  -229417  -229332  -229259 
 -229212  -229200  -229217  -229262  -229327  -229404  -229486  -229571 
 -229645  -229701  -229734  -229745  -229730  -229687  -229621  -229547 
 -229483  -229444  -229436  -229451  -229468  -229475  -229470  -229459 
 -229454  -229463  -229478  -229498  -229518  -229529  -229532  -229524 
 -229509  -229501  -229510  -229535  -229570  -229601  -229614  -229609 
 -229589  -229558  -229521  -229494  -229477  -229467  -229467  -229475 
 -229481  -229479  -229468  -229451  -229432  -229421  -229437  -229485 
 -229554  -229616  -229653  -229660  -229637  -229594  -229548  -229516 
 -229501  -229500  -229501  -229505  -229516  -229532  -229558  -229590 
 -229617  -229625  -229614  -229583  -229535  -229482  -229429  -229383 
 -229358  -229351  -229360  -229386  -229420  -229447  -229468  -229491 
 -229518  -229543  -229563  -229582  -229594  -229586  -229564  -229540 
 -229521  -229513  -229517  -229522  -229528  -229536  -229541  -229544 
 -229544  -229543  -229541  -229536  -229518  -229495  -229470  -229436 
 -229398  -229375  -229366  -229373  -229400  -229443  -229505  -229574 
 -229628  -229649  -229628  -229564  -229482  -229408  -229363  -229365 
 -229412  -229489  -229574  -229648  -229697  -229716  -229713  -229689 
 -229657  -229639  -229633  -229620  -229597  -229572  -229549  -229536 
 -229540  -229558  -229576  -229590  -229583  -229552  -229506  -229454 
 -229394  -229342  -229313  -229308  -229313  -229332  -229355  -229382 
 -229417  -229459  -229494  -229520  -229535  -229535  -229527  -229517 
 -229505  -229490  -229477  -229463  -229458  -229467  -229497  -229541 
 -229590  -229633  -229660  -229668  -229659  -229629  -229579  -229525 
 -229486  -229471  -229475  -229491  -229516  -229539  -229552  -229556 
 -229562  -229571  -229576  -229570  -229549  -229524  -229506  -229502 
 -229516  -229543  -229567  -229589  -229612  -229625  -229616  -229594 
 -229562  -229529  -229506  -229491  -229485  -229494  -229506  -229504 
 -229490  -229466  -229423  -229363  -229309  -229275  -229266  -229281 
 -229309  -229333  -229347  -229356  -229373  -229410  -229473  -229554 
 -229636  -229699  -229744  -229765  -229759  -229726  -229687  -229648 
 -229614  -229594  -229589  -229595  -229614  -229640  -229664  -229679 
 -229674  -229651  -229616  -229572  -229527  -229485  -229440  -229396 
 -229360  -229339  -229333  -229344  -229369  -229412  -229473  -229541 
 -229601  -229636  -229635  -229603  -229562  -229524  -229505  -229502 
 -229506  -229520  -229539  -229554  -229559  -229556  -229552  -229551 
 -229559  -229575  -229594  -229608  -229614  -229622  -229629  -229630 
 -229632  -229630  -229618  -229590  -229541  -229477  -229408  -229338 
 -229275  -229234  -229216  -229224  -229258  -229309  -229369  -229435 
 -229500  -229548  -229582  -229614  -229647  -229678  -229706  -229722 
 -229722  -229705  -229663  -229605  -229540  -229475  -229428  -229412 
 -229417  -229439  -229471  -229505  -229541  -229587  -229632  -229662 
 -229667  -229656  -229633  -229594  -229544  -229500  -229466  -229455 
 -229468  -229500  -229536  -229574  -229603  -229617  -229608  -229571 
 -229513  -229437  -229359  -229300  -229273  -229274  -229300  -229343 
 -229389  -229431  -229474  -229520  -229562  -229583  -229568  -229518 
 -229441  -229360  -229290  -229239  -229220  -229231  -229266  -229312 
 -229354  -229389  -229412  -229420  -229416  -229406  -229394  -229381 
 -229370  -229369  -229385  -229425  -229477  -229521  -229547  -229543 
 -229510  -229448  -229366  -229284  -229211  -229154  -229127  -229130 
 -229153  -229196  -229257  -229328  -229406  -229483  -229540  -229575 
 -229594  -229593  -229583  -229576  -229578  -229593  -229624  -229668 
 -229716  -229760  -229803  -229851  -229906  -229960  -229995  -230008 
 -229996  -229946  -229868  -229784  -229709  -229652  -229625  -229629 
 -229659  -229697  -229729  -229755  -229763  -229749  -229732  -229713 
 -229678  -229621  -229547  -229460  -229378  -229319  -229293  -229306 
 -229356  -229431  -229513  -229587  -229639  -229660  -229653  -229628 
 -229593  -229552  -229513  -229479  -229448  -229424  -229417  -229433 
 -229470  -229521  -229575  -229620  -229645  -229644  -229621  -229586 
 -229552  -229517  -229486  -229475  -229490  -229527  -229583  -229657 
 -229737  -229813  -229888  -229959  -230011  -230040  -230052  -230052 
 -230049  -230050  -230056  -230067  -230075  -230061  -230029  -229984 
 -229934  -229890  -229853  -229826  -229809  -229792  -229774  -229748 
 -229699  -229621  -229514  -229375  -229215  -229050  -228881  -228718 
 -228576  -228457  -228364  -228306  -228287  -228301  -228336  -228394 
 -228476  -228587  -228738  -228919  -229115  -229311  -229487  -229624 
 -229717  -229772  -229787  -229775  -229755  -229733  -229711  -229693 
 -229680  -229674  -229670  -229657  -229633  -229598  -229547  -229477 
 -229386  -229278  -229173  -229088  -229023  -228984  -228980  -229016 
 -229104  -229243  -229416  -229612  -229819  -230022  -230195  -230324 
 -230405  -230440  -230436  -230401  -230345  -230269  -230176  -230068 
 -229948  -229811  -229659  -229497  -229327  -229150  -228977  -228819 
 -228681  -228580  -228522  -228501  -228502  -228525  -228553  -228586 
 -228645  -228738  -228868  -229028  -229208  -229382  -229535  -229655 
 -229745  -229818  -229890  -229960  -230021  -230062  -230072  -230034 
 -229950  -229824  -229667  -229502  -229344  -229207  -229103  -229041 
 -229024  -229059  -229146  -229286  -229475  -229684  -229894  -230081 
 -230220  -230299  -230315  -230274  -230185  -230060  -229913  -229757 
 -229613  -229494  -229408  -229358  -229350  -229374  -229413  -229447 
 -229460  -229448  -229416  -229379  -229356  -229362  -229400  -229466 
 -229549  -229626  -229672  -229679  -229643  -229567  -229468  -229373 
 -229296  -229243  -229221  -229227  -229244  -229262  -229274  -229284 
 -229301  -229324  -229344  -229371  -229396  -229424  -229474  -229563 
 -229701  -229886  -230099  -230318  -230509  -230642  -230696  -230656 
 -230527  -230327  -230083  -229833  -229608  -229432  -229325  -229294 
 -229336  -229436  -229572  -229724  -229869  -229984  -230053  -230069 
 -230031  -229938  -229809  -229675  -229562  -229481  -229443  -229446 
 -229464  -229479  -229474  -229439  -229371  -229293  -229227  -229181 
 -229167  -229180  -229205  -229236  -229261  -229274  -229277  -229269 
 -229255  -229246  -229234  -229228  -229232  -229247  -229290  -229371 
 -229478  -229593  -229697  -229768  -229795  -229778  -229726  -229666 
 -229610  -229571  -229551  -229536  -229517  -229491  -229448  -229390 
 -229328  -229265  -229212  -229177  -229165  -229174  -229209  -229262 
 -229325  -229386  -229439  -229475  -229490  -229477  -229436  -229373 
 -229293  -229205  -229115  -229041  -228995  -228987  -229023  -229108 
 -229235  -229383  -229529  -229648  -229729  -229761  -229751  -229707 
 -229641  -229563  -229486  -229424  -229386  -229375  -229393  -229423 
 -229436  -229412  -229348  -229248  -229134  -229036  -228977  -228962 
 -228995  -229061  -229142  -229223  -229294  -229360  -229420  -229471 
 -229524  -229583  -229657  -229753  -229876  -230027  -230199  -230365 
 -230503  -230589  -230601  -230531  -230399  -230227  -230053  -229913 
 -229819  -229776  -229783  -229822  -229871  -229911  -229930  -229906 
 -229832  -229713  -229551  -229358  -229157  -228957  -228784  -228657 
 -228586  -228571  -228607  -228690  -228799  -228906  -228997  -229070 
 -229111  -229123  -229116  -229096  -229084  -229092  -229122  -229188 
 -229292  -229424  -229572  -229714  -229826  -229896  -229915  -229888 
 -229821  -229722  -229621  -229540  -229490  -229489  -229533  -229609 
 -229710  -229828  -229946  -230058  -230165  -230265  -230351  -230432 
 -230519  -230612  -230705  -230789  -230850  -230874  -230852  -230770 
 -230628  -230440  -230219  -229976  -229733  -229509  -229311  -229136 
 -228985  -228853  -228739  -228649  -228576  -228522  -228495  -228499 
 -228537  -228623  -228756  -228926  -229120  -229324  -229524  -229706 
 -229861  -229983  -230069  -230115  -230114  -230079  -230021  -229949 
 -229867  -229779  -229680  -229566  -229441  -229315  -229192  -229089 
 -229022  -229000  -229023  -229092  -229201  -229335  -229470  -229578 
 -229645  -229671  -229649  -229582  -229485  -229371  -229252  -229144 
 -229049  -228965  -228899  -228847  -228800  -228756  -228719  -228687 
 -228657  -228640  -228636  -228653  -228696  -228761  -228847  -228957 
 -229082  -229212  -229335  -229443  -229525  -229567  -229558  -229505 
 -229427  -229333  -229239  -229153  -229085  -229045  -229034  -229053 
 -229101  -229166  -229244  -229335  -229424  -229498  -229552  -229586 
 -229608  -229636  -229678  -229732  -229803  -229888  -229983  -230083 
 -230189  -230296  -230396  -230482  -230543  -230574  -230577  -230547 
 -230493  -230426  -230345  -230261  -230189  -230133  -230092  -230075 
 -230080  -230106  -230150  -230208  -230265  -230314  -230346  -230364 
 -230366  -230350  -230310  -230234  -230118  -229967  -229787  -229593 
 -229409  -229254  -229136  -229070  -229069  -229120  -229208  -229321 
 -229437  -229537  -229612  -229651  -229653  -229630  -229590  -229535 
 -229477  -229428  -229387  -229360  -229343  -229328  -229312  -229288 
 -229251  -229208  -229157  -229101  -229047  -228987  -228911  -228827 
 -228748  -228672  -228607  -228565  -228556  -228580  -228636  -228719 
 -228825  -228942  -229058  -229170  -229289  -229406  -229513  -229609 
 -229682  -229722  -229734  -229725  -229706  -229689  -229680  -229695 
 -229729  -229772  -229815  -229849  -229869  -229873  -229857  -229821 
 -229767  -229694  -229609  -229510  -229405  -229301  -229196  -229092 
 -229000  -228928  -228874  -228837  -228819  -228819  -228829  -228849 
 -228876  -228908  -228951  -229011  -229081  -229169  -229274  -229386 
 -229497  -229605  -229699  -229774  -229825  -229856  -229864  -229853 
 -229830  -229791  -229743  -229690  -229633  -229572  -229510  -229444 
 -229377  -229315  -229273  -229254  -229258  -229289  -229336  -229387 
 -229439  -229494  -229545  -229595  -229651  -229717  -229791  -229873 
 -229961  -230060  -230162  -230260  -230349  -230426  -230478  -230511 
 -230521  -230516  -230497  -230462  -230409  -230343  -230261  -230154 
 -230017  -229857  -229687  -229514  -229350  -229205  -229086  -229000 
 -228954  -228943  -228958  -228991  -229042  -229101  -229163  -229232 
 -229308  -229394  -229495  -229601  -229711  -229834  -229954  -230068 
 -230168  -230253  -230318  -230353  -230355  -230328  -230274  -230199 
 -230106  -229988  -229855  -229707  -229549  -229386  -229224  -229073 
 -228937  -228822  -228725  -228648  -228594  -228571  -228582  -228622 
 -228688  -228785  -228908  -229054  -229212  -229375  -229544  -229711 
 -229869  -230017  -230145  -230243  -230312  -230349  -230345  -230307 
 -230235  -230127  -229988  -229824  -229640  -229455  -229274  -229103 
 -228953  -228837  -228756  -228706  -228685  -228688  -228699  -228712 
 -228727  -228745  -228769  -228796  -228822  -228846  -228866  -228879 
 -228891  -228911  -228945  -228996  -229066  -229157  -229263  -229374 
 -229487  -229605  -229728  -229842  -229942  -230019  -230065  -230076 
 -230064  -230042  -230019  -229999  -229986  -229976  -229963  -229945 
 -229922  -229891  -229855  -229813  -229768  -229711  -229643  -229567 
 -229489  -229408  -229329  -229254  -229186  -229134  -229100  -229086 
 -229093  -229117  -229155  -229203  -229258  -229309  -229348  -229373 
 -229383  -229392  -229398  -229408  -229421  -229440  -229466  -229493 
 -229510  -229516  -229510  -229491  -229468  -229444  -229413  -229383 
 -229366  -229362  -229370  -229396  -229446  -229517  -229605  -229701 
 -229798  -229884  -229953  -229996  -230010  -229996  -229959  -229899 
 -229834  -229774  -229718  -229668  -229635  -229613  -229597  -229587 
 -229578  -229563  -229541  -229516  -229481  -229441  -229404  -229374 
 -229359  -229362  -229379  -229416  -229467  -229531  -229602  -229671 
 -229729  -229779  -229813  -229832  -229841  -229837  -229828  -229830 
 -229846  -229872  -229913  -229975  -230056  -230156  -230270  -230386 
 -230500  -230600  -230670  -230706  -230697  -230640  -230535  -230384 
 -230193  -229979  -229745  -229500  -229258  -229023  -228799  -228602 
 -228441  -228314  -228225  -228179  -228171  -228201  -228262  -228351 
 -228460  -228586  -228726  -228872  -229012  -229151  -229284  -229393 
 -229481  -229554  -229606  -229636  -229653  -229653  -229635  -229598 
 -229543  -229474  -229401  -229327  -229261  -229207  -229178  -229188 
 -229231  -229305  -229406  -229518  -229625  -229718  -229792  -229836 
 -229842  -229822  -229780  -229713  -229628  -229539  -229451  -229367 
 -229292  -229231  -229185  -229151  -229128  -229116  -229117  -229128 
 -229142  -229157  -229178  -229207  -229242  -229284  -229333  -229393 
 -229459  -229532  -229613  -229691  -229763  -229822  -229861  -229887 
 -229899  -229891  -229864  -229829  -229792  -229760  -229737  -229732 
 -229743  -229765  -229798  -229836  -229872  -229913  -229946  -229965 
 -229968  -229953  -229913  -229855  -229791  -229725  -229656  -229599 
 -229556  -229524  -229501  -229479  -229456  -229437  -229423  -229408 
 -229396  -229389  -229383  -229378  -229371  -229365  -229355  -229348 
 -229350  -229359  -229375  -229392  -229408  -229433  -229462  -229494 
 -229535  -229576  -229617  -229649  -229670  -229676  -229667  -229647 
 -229613  -229572  -229535  -229504  -229489  -229494  -229516  -229554 
 -229608  -229674  -229744  -229811  -229869  -229906  -229913  -229895 
