Origin Time       2025/03/29 04:45:00
Lat.              31.090
Long.             131.512
Depth. (km)       33
Mag.              4.6
Station Code      MYZH14
Station Lat.      31.5649
Station Long.     131.3510
Station Height(m) -196
Record Time       2025/03/29 04:45:25
Sampling Freq(Hz) 100Hz
Duration Time(s)  120
Dir.              2
Scale Factor      2942(gal)/8224139
Max. Acc. (gal)   0.505
Last Correction   2025/03/29 04:45:26
Memo.             
[...]
   17109    17111    17112    17111    17107    17108    17112    17112 
   17108    17107    17111    17109    17107    17112    17112    17105 
   17109    17109    17107    17109    17111    17109    17108    17107 
   17107    17109    17109    17111    17111    17108    17108    17111 
   17109    17108    17109    17107    17108    17108    17108    17109 
   17107    17105    17109    17112    17111    17108    17109    17108 
   17107    17108    17111    17111    17107    17105    17107    17107 
   17107    17108    17109    17109    17109    17111    17108    17108 
   17108    17105    17107    17108    17108    17109    17109    17108 
   17107    17108    17108    17105    17105    17107    17109    17111 
   17108    17105    17108    17109    17108    17105    17108    17111 
   17109    17108    17107    17108    17108    17107    17107    17108 
   17109    17107    17104    17107    17111    17108    17107    17105 
   17107    17108    17107    17104    17107    17107    17105    17111 
   17108    17105    17109    17109    17107    17111    17111    17105 
   17105    17108    17108    17109    17111    17109    17107    17109 
   17113    17108    17105    17111    17111    17107    17107    17109 
   17109    17108    17108    17108    17109    17111    17108    17107 
   17108    17108    17107    17108    17111    17108    17107    17108 
   17108    17108    17111    17109    17107    17107    17108    17109 
   17109    17109    17109    17109    17107    17107    17109    17108 
   17108    17111    17112    17109    17108    17108    17108    17111 
   17111    17109    17109    17109    17109    17109    17108    17111 
   17111    17109    17107    17105    17107    17108    17109    17112 
   17111    17108    17107    17108    17111    17111    17108    17108 
   17109    17108    17112    17116    17118    17122    17127    17130 
   17130    17128    17127    17124    17119    17111    17107    17105 
   17096    17085    17085    17086    17089    17097    17109    17119 
   17132    17146    17147    17134    17113    17092    17085    17091 
   17089    17076    17062    17061    17076    17097    17109    17113 
   17118    17132    17169    17200    17196    17165    17130    17107 
   17097    17081    17054    17030    17026    17039    17061    17070 
   17068    17072    17097    17128    17150    17154    17132    17096 
   17059    17031    17037    17078    17126    17165    17193    17215 
   17239    17261    17250    17205    17159    17131    17115    17107 
   17101    17086    17076    17091    17124    17140    17109    17038 
   16960    16922    16956    17049    17155    17223    17213    17138 
   17020    16877    16749    16707    16791    16980    17220    17435 
   17548    17550    17482    17370    17217    17050    16919    16864 
   16869    16896    16930    16983    17073    17208    17342    17401 
   17362    17278    17217    17193    17186    17184    17165    17113 
   17039    16945    16845    16776    16776    16858    17011    17201 
   17373    17440    17361    17189    17047    16996    16981    16950 
   16935    16965    17026    17089    17136    17173    17208    17231 
   17209    17132    17054    17051    17140    17270    17370    17400 
   17375    17325    17243    17096    16891    16702    16615    16663 
   16784    16910    17045    17200    17354    17487    17566    17536 
   17397    17184    16956    16787    16708    16718    16810    16956 
   17096    17203    17292    17381    17451    17463    17405    17286 
   17142    17020    16961    16962    16972    16957    16945    16972 
   17041    17119    17157    17126    17051    16989    16993    17069 
   17186    17307    17386    17390    17324    17215    17081    16938 
   16804    16706    16681    16762    16915    17086    17250    17404 
   17509    17516    17416    17235    17020    16842    16765    16798 
   16896    17012    17112    17173    17182    17166    17158    17172 
   17188    17193    17193    17193    17182    17161    17139    17118 
   17096    17091    17115    17158    17185    17185    17158    17105 
   17043    16993    16976    16999    17065    17157    17232    17251 
   17207    17126    17037    16956    16910    16910    16935    16981 
   17055    17127    17150    17130    17120    17154    17207    17253 
   17280    17278    17239    17162    17068    17000    16999    17049 
   17115    17166    17190    17208    17226    17211    17149    17061 
   16973    16910    16880    16876    16895    16945    17043    17193 
   17366    17493    17517    17442    17325    17199    17074    16984 
   16947    16954    16978    16997    17004    17020    17051    17095 
   17127    17130    17115    17099    17081    17051    17001    16958 
   16946    16961    17008    17080    17145    17185    17204    17216 
   17247    17297    17329    17298    17204    17089    16988    16918 
   16887    16893    16924    16983    17080    17212    17354    17485 
   17566    17554    17455    17332    17239    17166    17065    16933 
   16814    16746    16735    16752    16773    16811    16887    17004 
   17153    17288    17374    17416    17433    17429    17397    17327 
   17224    17108    16989    16888    16837    16854    16939    17046 
   17116    17134    17118    17101    17099    17105    17104    17091 
   17082    17093    17115    17135    17138    17124    17108    17105 
   17112    17105    17084    17069    17058    17054    17078    17118 
   17126    17105    17091    17100    17131    17170    17196    17189 
   17153    17104    17051    17005    16981    16983    17007    17049 
   17099    17140    17151    17127    17100    17111    17158    17226 
   17284    17307    17292    17239    17150    17035    16926    16866 
   16897    17015    17173    17313    17381    17359    17270    17165 
   17086    17065    17086    17109    17111    17100    17100    17136 
   17207    17265    17278    17243    17162    17054    16953    16885 
   16861    16880    16931    16997    17051    17093    17115    17107 
   17076    17034    17001    16981    16966    16956    16958    16988 
   17041    17099    17165    17247    17334    17396    17406    17370 
   17298    17201    17099    17004    16919    16856    16823    16829 
   16880    16974    17095    17216    17309    17358    17370    17355 
   17319    17278    17239    17186    17118    17047    16980    16923 
   16899    16915    16957    17011    17054    17055    17026    17007 
   17031    17104    17208    17311    17386    17420    17421    17398 
   17354    17288    17205    17118    17051    17028    17049    17082 
   17096    17070    17012    16945    16887    16854    16862    16904 
   16966    17031    17074    17091    17096    17109    17143    17207 
   17293    17373    17397    17338    17220    17097    17007    16966 
   16966    16995    17028    17054    17080    17108    17128    17139 
   17140    17130    17119    17128    17153    17172    17180    17166 
   17134    17107    17096    17093    17093    17095    17095    17099 
   17107    17116    17123    17126    17126    17126    17139    17157 
   17150    17112    17068    17032    17012    17008    17019    17046 
   17089    17140    17189    17227    17248    17255    17251    17228 
   17190    17147    17104    17065    17045    17041    17046    17069 
   17113    17161    17190    17186    17143    17069    16993    16931 
   16891    16883    16902    16939    16991    17055    17123    17169 
   17185    17186    17180    17167    17147    17124    17108    17099 
   17097    17113    17136    17151    17162    17166    17159    17150 
   17150    17153    17155    17150    17138    17136    17157    17185 
   17199    17193    17154    17084    17005    16939    16895    16876 
   16873    16889    16924    16964    16999    17032    17058    17080 
   17111    17157    17212    17265    17298    17308    17305    17296 
   17281    17257    17220    17172    17111    17049    17003    16988 
   17004    17030    17047    17054    17058    17076    17108    17139 
   17154    17153    17139    17115    17095    17096    17115    17132 
   17143    17147    17142    17126    17113    17122    17155    17204 
   17243    17265    17271    17255    17216    17167    17116    17074 
   17051    17046    17057    17069    17069    17053    17020    16991 
   16984    16996    17026    17068    17100    17122    17128    17113 
   17091    17070    17041    17014    16999    16995    16992    16985 
   16974    16969    16968    16983    17023    17070    17111    17140 
   17145    17126    17097    17068    17051    17066    17108    17159 
   17199    17204    17178    17135    17097    17080    17082    17101 
   17132    17178    17234    17288    17324    17332    17298    17239 
   17180    17131    17108    17122    17159    17207    17248    17271 
   17270    17238    17177    17118    17078    17065    17073    17084 
   17082    17059    17016    16974    16968    17037    17186    17379 
   17577    17730    17807    17807    17732    17601    17442    17274 
   17143    17081    17081    17124    17174    17204    17213    17209 
   17207    17205    17190    17162    17134    17101    17057    17014 
   16983    16968    16962    16946    16914    16883    16883    16934 
   17023    17109    17162    17172    17146    17101    17051    17019 
   17015    17046    17107    17182    17244    17261    17216    17124 
   17019    16923    16845    16789    16754    16738    16753    16798 
   16848    16884    16896    16880    16860    16864    16883    16892 
   16868    16802    16710    16626    16590    16614    16694    16806 
   16924    17023    17085    17100    17068    16997    16916    16854 
   16822    16816    16830    16852    16880    16920    16984    17076 
   17180    17269    17329    17356    17359    17362    17377    17405 
   17435    17440    17424    17398    17358    17311    17270    17239 
   17228    17267    17358    17467    17558    17610    17604    17533 
   17419    17267    17108    16980    16916    16930    17010    17138 
   17278    17383    17429    17417    17359    17285    17216    17161 
   17139    17147    17165    17178    17170    17127    17046    16937 
   16822    16729    16675    16677    16737    16843    16983    17128 
   17251    17336    17370    17354    17305    17231    17142    17054 
   16970    16899    16839    16791    16767    16777    16819    16879 
   16935    16976    16988    16965    16906    16808    16688    16573 
   16490    16459    16483    16556    16671    16811    16965    17119 
   17250    17351    17423    17470    17497    17513    17539    17582 
   17641    17701    17720    17674    17556    17374    17159    16960 
   16802    16695    16634    16607    16598    16611    16659    16737 
   16839    16949    17047    17115    17138    17124    17103    17097 
   17135    17223    17344    17474    17581    17644    17652    17605 
   17513    17394    17273    17172    17101    17072    17088    17139 
   17207    17277    17327    17343    17335    17319    17308    17321 
   17370    17458    17556    17645    17709    17724    17680    17581 
   17440    17284    17139    17023    16934    16873    16842    16826 
   16804    16768    16722    16676    16649    16652    16681    16735 
   16806    16903    17045    17224    17410    17572    17671    17689 
   17633    17532    17413    17298    17192    17068    16903    16700 
   16470    16241    16056    15952    15955    16065    16255    16492 
   16746    16996    17227    17429    17594    17712    17774    17790 
   17778    17753    17722    17680    17614    17523    17413    17290 
   17167    17066    16997    16962    16950    16930    16877    16789 
   16677    16560    16471    16424    16428    16498    16623    16773 
   16931    17081    17199    17282    17340    17350    17294    17194 
   17068    16927    16802    16719    16692    16731    16837    16995 
   17190    17401    17593    17743    17838    17883    17880    17849 
   17795    17745    17730    17752    17807    17888    17960    17992 
   17973    17884    17728    17528    17307    17104    16951    16861 
   16841    16862    16887    16887    16842    16764    16691    16653 
   16671    16754    16897    17069    17230    17354    17420    17429 
   17393    17323    17248    17200    17196    17255    17371    17509 
   17637    17736    17770    17707    17539    17273    16941    16586 
   16262    15997    15816    15735    15762    15893    16102    16347 
   16584    16780    16906    16954    16934    16869    16787    16718 
   16681    16688    16744    16849    16991    17142    17280    17379 
   17423    17404    17329    17216    17089    16981    16929    16949 
   17031    17151    17277    17389    17469    17494    17464    17397 
   17313    17258    17261    17323    17428    17548    17651    17713 
   17706    17610    17432    17193    16912    16618    16340    16105 
   15930    15823    15788    15803    15849    15925    16038    16179 
   16343    16517    16681    16811    16889    16916    16912    16904 
   16915    16954    17035    17157    17308    17481    17678    17882 
   18076    18242    18362    18422    18423    18377    18299    18200 
   18102    18019    17957    17921    17913    17915    17901    17849 
   17767    17656    17527    17396    17262    17128    16988    16835 
   16673    16503    16326    16150    15985    15840    15738    15697 
   15741    15867    16069    16330    16637    16956    17255    17516 
   17721    17857    17938    17967    17940    17876    17793    17691 
   17572    17435    17271    17091    16915    16767    16669    16633 
   16656    16725    16822    16937    17066    17194    17321    17448 
   17555    17637    17691    17695    17648    17560    17439    17293 
   17142    16999    16868    16757    16681    16633    16609    16615 
   16649    16692    16740    16780    16794    16783    16761    16730 
   16710    16708    16721    16750    16794    16845    16907    16973 
   17032    17084    17112    17103    17059    16997    16929    16875 
   16852    16857    16876    16896    16902    16895    16879    16860 
   16858    16884    16942    17030    17135    17244    17352    17459 
   17567    17672    17772    17867    17949    18009    18045    18061 
   18052    18017    17971    17917    17849    17775    17694    17598 
   17483    17351    17203    17041    16881    16737    16614    16522 
   16461    16425    16413    16422    16459    16525    16615    16729 
   16857    16988    17113    17227    17315    17370    17396    17400 
   17390    17367    17336    17301    17262    17213    17166    17132 
   17107    17085    17066    17039    17008    16984    16972    16977 
   17015    17076    17145    17221    17302    17382    17458    17512 
   17529    17521    17489    17442    17396    17344    17281    17208 
   17116    17008    16896    16794    16718    16681    16683    16715 
   16764    16819    16873    16919    16956    16969    16957    16926 
   16873    16804    16737    16675    16625    16603    16614    16650 
   16695    16733    16764    16789    16814    16848    16902    16977 
   17085    17219    17363    17509    17640    17737    17797    17821 
   17811    17768    17690    17583    17459    17321    17190    17089 
   17034    17026    17054    17103    17162    17223    17275    17320 
   17356    17369    17346    17296    17224    17140    17057    16988 
   16934    16907    16912    16942    16997    17070    17140    17190 
   17209    17194    17145    17062    16972    16885    16812    16767 
   16752    16769    16818    16881    16950    17015    17069    17115 
   17158    17197    17238    17274    17288    17271    17235    17178 
   17113    17061    17018    16991    16993    17015    17051    17108 
   17173    17235    17288    17327    17342    17325    17282    17223 
   17159    17093    17039    16999    16961    16929    16904    16883 
   16858    16839    16831    16839    16884    16965    17068    17182 
   17288    17362    17393    17379    17331    17265    17192    17123 
   17065    17023    17000    16996    17003    17010    17023    17047 
   17068    17078    17084    17080    17062    17047    17037    17026 
   17030    17054    17089    17130    17167    17197    17213    17215 
   17205    17197    17196    17207    17227    17250    17267    17273 
   17269    17257    17244    17238    17228    17211    17185    17146 
   17097    17049    17004    16976    16972    16981    16995    17003 
   16993    16969    16933    16892    16865    16862    16881    16919 
   16977    17039    17089    17128    17151    17151    17145    17146 
   17155    17165    17173    17182    17188    17189    17189    17185 
   17182    17186    17194    17213    17239    17259    17270    17271 
   17259    17231    17193    17150    17107    17068    17039    17015 
   16993    16980    16973    16972    16984    17008    17035    17069 
   17103    17134    17169    17208    17246    17274    17290    17300 
   17290    17269    17236    17197    17161    17135    17124    17135 
   17154    17163    17166    17155    17131    17099    17059    17019 
   16995    16991    16997    17016    17050    17093    17136    17177 
   17207    17223    17221    17205    17178    17142    17099    17049 
   16984    16908    16819    16713    16603    16505    16410    16332 
   16287    16279    16309    16372    16470    16590    16715    16842 
   16966    17084    17197    17311    17404    17470    17521    17563 
   17587    17605    17621    17633    17641    17637    17621    17597 
   17566    17532    17491    17443    17396    17350    17302    17263 
   17234    17212    17193    17178    17166    17154    17142    17131 
   17118    17099    17080    17066    17058    17057    17061    17072 
   17091    17109    17122    17135    17145    17134    17115    17103 
   17091    17077    17069    17076    17095    17116    17140    17166 
   17185    17192    17193    17192    17193    17199    17207    17219 
   17221    17205    17166    17105    17024    16943    16868    16808 
   16777    16775    16795    16833    16879    16937    17000    17059 
   17113    17161    17193    17212    17219    17217    17216    17213 
   17205    17200    17194    17176    17153    17123    17081    17030 
   16976    16916    16861    16822    16803    16798    16803    16827 
   16865    16902    16941    16985    17032    17078    17123    17161 
   17186    17201    17217    17239    17261    17286    17313    17339 
   17356    17356    17343    17317    17278    17235    17196    17163 
   17139    17124    17118    17113    17104    17089    17077    17061 
   17034    17000    16968    16942    16926    16920    16930    16947 
   16969    16991    17005    17015    17015    17004    16993    16991 
   16996    17016    17049    17088    17126    17150    17161    17161 
   17147    17127    17118    17115    17120    17149    17200    17259 
   17323    17388    17446    17496    17533    17550    17540    17506 
   17452    17386    17317    17250    17182    17116    17058    17011 
   16969    16937    16910    16892    16888    16892    16902    16918 
