Origin Time       2024/04/21 06:19:00
Lat.              34.232
Long.             135.137
Depth. (km)       7
Mag.              2.9
Station Code      WKYH03
Station Lat.      34.1314
Station Long.     135.3244
Station Height(m) 19.9
Record Time       2024/04/21 06:19:28
Sampling Freq(Hz) 100Hz
Duration Time(s)  120
Dir.              3
Scale Factor      3923(gal)/8224838
Max. Acc. (gal)   0.331
Last Correction   2024/04/21 06:19:28
Memo.             
[...]
  -29909   -29911   -29911   -29910   -29910   -29910   -29909   -29913 
  -29913   -29909   -29910   -29909   -29906   -29909   -29911   -29910 
  -29910   -29911   -29909   -29910   -29913   -29909   -29909   -29910 
  -29910   -29911   -29914   -29909   -29909   -29913   -29910   -29910 
  -29910   -29906   -29905   -29911   -29911   -29907   -29909   -29911 
  -29910   -29910   -29909   -29906   -29911   -29913   -29910   -29911 
  -29911   -29910   -29911   -29911   -29910   -29910   -29909   -29911 
  -29911   -29907   -29907   -29910   -29911   -29910   -29910   -29913 
  -29913   -29909   -29910   -29911   -29909   -29910   -29910   -29910 
  -29914   -29910   -29907   -29911   -29910   -29909   -29910   -29910 
  -29910   -29911   -29909   -29910   -29914   -29911   -29910   -29911 
  -29907   -29907   -29911   -29911   -29910   -29913   -29913   -29910 
  -29910   -29911   -29910   -29910   -29910   -29910   -29910   -29910 
  -29910   -29910   -29911   -29911   -29910   -29909   -29910   -29914 
  -29909   -29906   -29911   -29910   -29909   -29910   -29910   -29909 
  -29910   -29907   -29907   -29911   -29909   -29909   -29913   -29913 
  -29907   -29909   -29910   -29907   -29909   -29913   -29910   -29907 
  -29910   -29910   -29911   -29913   -29910   -29910   -29911   -29909 
  -29910   -29913   -29909   -29910   -29911   -29907   -29909   -29913 
  -29909   -29906   -29909   -29909   -29907   -29909   -29909   -29909 
  -29911   -29910   -29910   -29911   -29910   -29911   -29911   -29910 
  -29910   -29911   -29910   -29909   -29911   -29909   -29909   -29911 
  -29909   -29906   -29909   -29910   -29909   -29911   -29911   -29909 
  -29911   -29910   -29906   -29909   -29911   -29907   -29907   -29907 
  -29906   -29910   -29910   -29909   -29911   -29910   -29907   -29910 
  -29910   -29909   -29913   -29911   -29907   -29907   -29909   -29909 
  -29909   -29909   -29909   -29907   -29909   -29910   -29911   -29911 
  -29909   -29907   -29909   -29909   -29909   -29909   -29909   -29911 
  -29913   -29909   -29909   -29910   -29910   -29909   -29910   -29910 
  -29909   -29910   -29910   -29909   -29910   -29910   -29910   -29914 
  -29913   -29911   -29914   -29914   -29911   -29911   -29913   -29910 
  -29910   -29911   -29907   -29907   -29913   -29910   -29907   -29911 
  -29911   -29909   -29906   -29906   -29910   -29911   -29909   -29911 
  -29913   -29911   -29910   -29911   -29909   -29909   -29911   -29907 
  -29905   -29913   -29911   -29907   -29910   -29910   -29907   -29910 
  -29909   -29907   -29911   -29911   -29909   -29910   -29910   -29910 
  -29913   -29909   -29907   -29911   -29910   -29910   -29911   -29910 
  -29909   -29913   -29911   -29909   -29910   -29913   -29909   -29909 
  -29909   -29907   -29909   -29910   -29909   -29910   -29911   -29910 
  -29910   -29911   -29910   -29911   -29910   -29909   -29910   -29907 
  -29907   -29911   -29911   -29910   -29914   -29911   -29909   -29911 
  -29911   -29907   -29909   -29911   -29910   -29909   -29910   -29910 
  -29910   -29911   -29910   -29910   -29911   -29913   -29913   -29910 
  -29910   -29911   -29910   -29909   -29911   -29913   -29910   -29909 
  -29910   -29909   -29909   -29910   -29909   -29909   -29911   -29910 
  -29910   -29914   -29914   -29911   -29910   -29909   -29910   -29911 
  -29910   -29909   -29911   -29910   -29909   -29910   -29910   -29909 
  -29910   -29909   -29907   -29909   -29910   -29911   -29913   -29911 
  -29911   -29911   -29910   -29907   -29910   -29913   -29911   -29909 
  -29911   -29913   -29911   -29911   -29907   -29909   -29914   -29911 
  -29909   -29911   -29909   -29910   -29914   -29911   -29911   -29909 
  -29906   -29911   -29914   -29907   -29907   -29910   -29907   -29910 
  -29911   -29910   -29911   -29911   -29910   -29911   -29909   -29910 
  -29913   -29910   -29910   -29913   -29910   -29909   -29911   -29911 
  -29909   -29907   -29910   -29910   -29909   -29909   -29910   -29909 
  -29907   -29907   -29909   -29910   -29909   -29907   -29910   -29910 
  -29909   -29909   -29907   -29907   -29913   -29910   -29906   -29909 
  -29909   -29906   -29910   -29911   -29907   -29906   -29906   -29909 
  -29913   -29910   -29907   -29907   -29909   -29909   -29910   -29909 
  -29907   -29909   -29909   -29909   -29910   -29911   -29909   -29910 
  -29911   -29910   -29909   -29910   -29911   -29910   -29910   -29910 
  -29909   -29907   -29907   -29909   -29910   -29910   -29911   -29910 
  -29907   -29910   -29913   -29910   -29910   -29911   -29906   -29906 
  -29911   -29910   -29907   -29909   -29909   -29910   -29911   -29911 
  -29913   -29911   -29907   -29910   -29913   -29909   -29907   -29911 
  -29910   -29907   -29911   -29911   -29910   -29910   -29909   -29911 
  -29911   -29909   -29910   -29911   -29909   -29909   -29910   -29910 
  -29910   -29911   -29911   -29909   -29909   -29910   -29910   -29909 
  -29909   -29910   -29909   -29909   -29910   -29909   -29906   -29909 
  -29910   -29909   -29907   -29910   -29909   -29909   -29910   -29907 
  -29907   -29910   -29909   -29909   -29910   -29909   -29910   -29909 
  -29907   -29909   -29910   -29909   -29911   -29911   -29907   -29907 
  -29911   -29909   -29909   -29911   -29907   -29906   -29909   -29907 
  -29907   -29910   -29909   -29910   -29913   -29907   -29906   -29913 
  -29910   -29907   -29910   -29910   -29909   -29910   -29907   -29906 
  -29909   -29907   -29909   -29911   -29909   -29906   -29907   -29907 
  -29906   -29907   -29909   -29907   -29909   -29910   -29907   -29909 
  -29911   -29911   -29910   -29907   -29907   -29909   -29909   -29909 
  -29910   -29909   -29907   -29910   -29910   -29905   -29906   -29911 
  -29907   -29907   -29910   -29909   -29910   -29910   -29907   -29907 
  -29910   -29907   -29909   -29911   -29909   -29907   -29910   -29910 
  -29907   -29909   -29907   -29909   -29910   -29906   -29907   -29909 
  -29907   -29909   -29907   -29906   -29907   -29909   -29909   -29909 
  -29911   -29910   -29910   -29910   -29907   -29907   -29911   -29909 
  -29909   -29911   -29909   -29907   -29910   -29909   -29907   -29910 
  -29909   -29907   -29911   -29913   -29907   -29906   -29907   -29907 
  -29906   -29907   -29910   -29909   -29907   -29909   -29906   -29906 
  -29911   -29910   -29907   -29909   -29910   -29910   -29907   -29906 
  -29906   -29905   -29906   -29909   -29907   -29907   -29909   -29910 
  -29911   -29909   -29909   -29913   -29913   -29907   -29907   -29909 
  -29907   -29909   -29910   -29909   -29909   -29909   -29909   -29913 
  -29913   -29909   -29910   -29911   -29909   -29910   -29913   -29910 
  -29907   -29911   -29913   -29910   -29911   -29911   -29906   -29907 
  -29911   -29909   -29910   -29911   -29909   -29909   -29911   -29909 
  -29909   -29909   -29906   -29907   -29911   -29909   -29907   -29909 
  -29909   -29910   -29910   -29910   -29910   -29909   -29906   -29907 
  -29911   -29910   -29907   -29910   -29911   -29907   -29906   -29907 
  -29910   -29910   -29907   -29909   -29910   -29910   -29910   -29910 
  -29910   -29911   -29911   -29910   -29910   -29910   -29909   -29910 
  -29910   -29909   -29909   -29910   -29909   -29909   -29913   -29911 
  -29907   -29910   -29910   -29910   -29910   -29909   -29907   -29910 
  -29910   -29907   -29909   -29910   -29909   -29910   -29914   -29911 
  -29911   -29914   -29909   -29907   -29910   -29907   -29909   -29914 
  -29911   -29907   -29911   -29911   -29907   -29909   -29910   -29910 
  -29909   -29907   -29907   -29907   -29907   -29909   -29910   -29910 
  -29910   -29909   -29907   -29909   -29909   -29909   -29911   -29913 
  -29909   -29909   -29913   -29911   -29907   -29910   -29910   -29909 
  -29911   -29910   -29906   -29907   -29911   -29907   -29909   -29911 
  -29909   -29907   -29910   -29909   -29907   -29911   -29910   -29909 
  -29909   -29909   -29909   -29913   -29910   -29907   -29909   -29910 
  -29910   -29910   -29909   -29909   -29910   -29910   -29911   -29913 
  -29910   -29911   -29910   -29906   -29909   -29909   -29906   -29907 
  -29911   -29910   -29905   -29907   -29909   -29906   -29909   -29910 
  -29906   -29906   -29910   -29910   -29910   -29907   -29905   -29907 
  -29910   -29907   -29907   -29910   -29910   -29910   -29909   -29907 
  -29907   -29911   -29909   -29907   -29910   -29911   -29910   -29911 
  -29913   -29911   -29910   -29906   -29907   -29910   -29907   -29907 
  -29913   -29910   -29909   -29913   -29910   -29905   -29909   -29907 
  -29906   -29911   -29911   -29906   -29909   -29911   -29907   -29907 
  -29909   -29906   -29909   -29911   -29907   -29907   -29911   -29909 
  -29909   -29914   -29911   -29911   -29913   -29907   -29907   -29910 
  -29910   -29907   -29907   -29909   -29909   -29909   -29906   -29905 
  -29909   -29909   -29909   -29907   -29907   -29909   -29911   -29909 
  -29907   -29911   -29909   -29905   -29909   -29910   -29906   -29909 
  -29910   -29909   -29910   -29910   -29907   -29907   -29910   -29910 
  -29909   -29909   -29909   -29909   -29910   -29909   -29907   -29911 
  -29911   -29909   -29909   -29910   -29911   -29909   -29907   -29909 
  -29910   -29909   -29910   -29913   -29911   -29906   -29909   -29909 
  -29905   -29909   -29910   -29906   -29909   -29910   -29909   -29907 
  -29910   -29910   -29909   -29909   -29909   -29907   -29909   -29909 
  -29906   -29907   -29909   -29909   -29909   -29909   -29906   -29906 
  -29909   -29910   -29907   -29907   -29907   -29907   -29909   -29910 
  -29911   -29909   -29907   -29910   -29910   -29907   -29909   -29910 
  -29907   -29909   -29913   -29910   -29907   -29909   -29907   -29906 
  -29910   -29909   -29909   -29911   -29909   -29906   -29910   -29910 
  -29909   -29913   -29910   -29907   -29911   -29911   -29907   -29907 
  -29910   -29909   -29909   -29909   -29906   -29910   -29913   -29907 
  -29907   -29911   -29909   -29907   -29907   -29907   -29909   -29911 
  -29909   -29910   -29910   -29906   -29907   -29910   -29909   -29907 
  -29910   -29909   -29907   -29909   -29911   -29910   -29909   -29910 
  -29910   -29907   -29911   -29913   -29910   -29907   -29909   -29909 
  -29907   -29907   -29909   -29910   -29907   -29907   -29909   -29909 
  -29910   -29910   -29907   -29911   -29913   -29909   -29907   -29910 
  -29909   -29909   -29911   -29909   -29909   -29910   -29907   -29906 
  -29910   -29910   -29907   -29910   -29910   -29907   -29910   -29910 
  -29909   -29913   -29911   -29909   -29917   -29925   -29934   -29943 
  -29933   -29918   -29910   -29902   -29880   -29867   -29882   -29893 
  -29862   -29859   -29926   -29948   -29876   -29848   -29922   -29991 
  -29979   -29920   -29878   -29894   -29933   -29916   -29882   -29911 
  -29929   -29894   -29913   -29963   -29928   -29862   -29857   -29905 
  -29926   -29874   -29884   -29979   -29937   -29835   -29886   -29960 
  -29920   -29847   -29855   -29953   -29990   -29895   -29851   -29925 
  -29951   -29887   -29866   -29891   -29913   -29972   -30051   -30026 
  -29898   -29833   -29863   -29884   -29899   -29871   -29754   -29770 
  -29982   -30037   -29852   -29722   -29860   -30159   -30218   -29944 
  -29760   -29818   -29914   -29976   -29987   -29937   -29844   -29762 
  -29828   -29970   -29952   -29852   -29897   -30015   -30014   -29899 
  -29791   -29767   -29872   -30007   -29994   -29907   -29917   -29936 
  -29917   -29938   -29924   -29853   -29857   -29943   -29987   -29922 
  -29833   -29848   -29926   -29921   -29830   -29864   -30007   -29980 
  -29851   -29875   -29949   -29918   -29902   -29917   -29895   -29910 
  -29959   -29928   -29837   -29833   -29929   -30030   -30021   -29875 
  -29798   -29875   -29916   -29893   -29947   -30005   -29941   -29856 
  -29837   -29849   -29910   -29963   -29925   -29913   -29979   -29974 
  -29878   -29845   -29882   -29874   -29866   -29952   -29983   -29887 
  -29903   -29982   -29883   -29778   -29853   -29949   -29940   -29945 
  -29994   -29945   -29855   -29832   -29822   -29882   -29967   -29922 
  -29876   -29903   -29882   -29899   -29975   -29963   -29934   -29957 
  -29936   -29889   -29886   -29910   -29921   -29911   -29890   -29909 
  -29926   -29875   -29837   -29870   -29924   -29953   -29899   -29809 
  -29808   -29921   -30032   -30001   -29882   -29868   -29934   -29965 
  -29928   -29848   -29879   -30005   -29963   -29841   -29903   -29979 
  -29884   -29821   -29916   -29963   -29833   -29745   -29874   -30029 
  -30033   -29929   -29868   -29914   -29929   -29874   -29875   -29922 
  -29955   -29964   -29911   -29835   -29833   -29924   -30028   -29994 
  -29860   -29916   -30064   -29933   -29729   -29809   -29971   -29968 
  -29882   -29820   -29824   -29910   -29936   -29820   -29762   -29884 
  -30010   -30001   -29909   -29863   -29988   -30132   -29987   -29764 
  -29887   -30059   -29883   -29716   -29820   -29951   -29959   -29832 
  -29718   -29875   -30133   -30118   -29890   -29764   -29909   -30092 
  -29902   -29593   -29733   -30123   -30233   -30080   -29929   -29785 
  -29720   -29891   -30103   -30084   -29812   -29513   -29485   -29771 
  -30250   -30550   -30192   -29548   -29597   -30186   -30215   -29641 
  -29408   -29772   -30060   -29899   -29720   -29922   -30322   -30358 
  -29949   -29729   -29793   -29763   -29808   -29976   -29920   -29762 
  -29787   -29852   -29878   -29994   -30136   -30161   -30075   -30011 
  -29943   -29598   -29215   -29401   -29968   -30190   -30009   -29978 
  -30195   -30215   -29913   -29643   -29705   -29988   -30192   -30233 
  -30173   -29992   -29662   -29479   -29764   -30125   -30044   -29884 
  -30046   -30061   -29737   -29550   -29562   -29681   -29952   -30165 
  -30179   -30046   -29917   -29866   -29748   -29793   -30164   -30284 
  -29899   -29566   -29647   -29929   -30090   -29979   -29736   -29698 
  -29874   -29974   -30018   -30071   -29955   -29887   -30072   -30048 
  -29722   -29659   -29883   -29897   -29768   -29880   -29976   -29895 
  -30005   -30094   -29914   -29835   -29916   -30014   -30057   -29909 
  -29809   -29951   -30024   -29868   -29683   -29621   -29641   -29762 
  -30123   -30410   -30188   -29812   -29733   -29808   -29843   -29833 
  -29878   -30045   -30130   -30032   -29893   -29791   -29816   -29906 
  -29859   -29778   -29879   -29978   -29862   -29759   -29814   -29911 
  -29975   -30002   -29994   -29925   -29925   -30086   -30106   -29876 
  -29768   -29905   -30001   -29953   -29938   -29997   -29975   -29848 
  -29747   -29790   -29913   -29914   -29852   -29872   -29879   -29802 
  -29743   -29809   -29922   -29934   -29886   -29868   -29926   -30049 
  -30103   -30059   -30034   -30003   -29884   -29805   -29835   -29855 
  -29825   -29810   -29867   -29921   -29922   -29959   -29999   -29972 
  -29922   -29924   -29997   -30034   -29984   -29918   -29894   -29901 
  -29836   -29756   -29856   -29982   -29907   -29822   -29913   -29953 
  -29832   -29775   -29825   -29870   -29944   -30010   -29990   -29929 
  -29894   -29929   -29978   -29929   -29795   -29732   -29868   -30029 
  -30014   -29953   -29944   -29921   -29872   -29851   -29914   -29998 
  -29988   -29926   -29897   -29891   -29839   -29766   -29806   -29917 
  -29938   -29920   -29956   -29983   -29955   -29945   -30014   -30042 
  -29917   -29808   -29867   -29945   -29903   -29805   -29786   -29874 
  -29960   -29957   -29891   -29864   -29893   -29906   -29925   -29955 
  -29917   -29872   -29906   -29978   -30013   -29959   -29860   -29809 
  -29826   -29866   -29866   -29883   -29959   -29974   -29913   -29898 
  -29924   -29913   -29903   -29951   -29990   -30001   -30006   -29947 
  -29862   -29855   -29883   -29889   -29883   -29870   -29878   -29899 
  -29914   -29920   -29879   -29839   -29855   -29878   -29905   -29944 
  -29949   -29944   -29955   -29945   -29887   -29830   -29844   -29930 
  -30002   -30001   -29960   -29934   -29933   -29903   -29824   -29798 
  -29857   -29913   -29936   -29933   -29893   -29857   -29880   -29918 
  -29893   -29828   -29810   -29852   -29909   -29952   -29967   -29959 
  -29953   -29961   -29949   -29907   -29890   -29926   -29944   -29926 
  -29934   -29937   -29872   -29808   -29825   -29878   -29928   -29968 
  -29961   -29914   -29876   -29859   -29868   -29914   -29937   -29918 
  -29940   -30002   -30028   -29999   -29921   -29848   -29871   -29945 
  -29947   -29871   -29818   -29848   -29907   -29938   -29934   -29886 
  -29828   -29833   -29889   -29916   -29920   -29934   -29938   -29920 
  -29905   -29893   -29874   -29878   -29929   -29974   -29955   -29901 
  -29893   -29943   -29936   -29833   -29795   -29913   -30006   -29949 
  -29860   -29848   -29880   -29928   -29968   -29948   -29913   -29940 
  -29938   -29868   -29863   -29924   -29955   -29956   -29925   -29864 
  -29844   -29884   -29914   -29903   -29880   -29866   -29872   -29917 
  -29979   -29984   -29914   -29880   -29909   -29914   -29902   -29895 
  -29875   -29860   -29876   -29899   -29907   -29906   -29898   -29880 
  -29891   -29945   -29970   -29925   -29902   -29949   -29987   -29956 
  -29895   -29860   -29878   -29938   -29964   -29924   -29886   -29875 
  -29872   -29893   -29930   -29928   -29870   -29853   -29913   -29951 
  -29941   -29934   -29913   -29874   -29871   -29909   -29928   -29913 
  -29895   -29905   -29936   -29926   -29882   -29866   -29882   -29898 
  -29917   -29933   -29930   -29926   -29937   -29934   -29905   -29876 
  -29866   -29894   -29937   -29943   -29924   -29914   -29925   -29936 
  -29925   -29918   -29917   -29890   -29870   -29899   -29941   -29938 
  -29914   -29895   -29879   -29887   -29920   -29929   -29890   -29857 
  -29872   -29895   -29906   -29926   -29929   -29911   -29895   -29878 
  -29876   -29907   -29928   -29920   -29911   -29899   -29883   -29895 
  -29925   -29932   -29918   -29906   -29898   -29909   -29936   -29933 
  -29903   -29899   -29921   -29929   -29918   -29905   -29899   -29894 
  -29895   -29910   -29909   -29889   -29889   -29910   -29924   -29921 
  -29921   -29924   -29909   -29906   -29918   -29922   -29929   -29921 
  -29886   -29866   -29886   -29918   -29929   -29911   -29876   -29862 
  -29891   -29928   -29921   -29891   -29895   -29929   -29924   -29889 
  -29879   -29906   -29941   -29956   -29941   -29930   -29932   -29926 
  -29914   -29911   -29910   -29903   -29907   -29920   -29925   -29913 
  -29891   -29878   -29884   -29901   -29917   -29921   -29906   -29898 
  -29910   -29920   -29913   -29898   -29909   -29948   -29961   -29941 
  -29910   -29887   -29899   -29920   -29909   -29887   -29887   -29893 
  -29886   -29874   -29870   -29890   -29924   -29941   -29930   -29917 
  -29909   -29894   -29879   -29874   -29884   -29916   -29930   -29926 
  -29921   -29903   -29899   -29928   -29934   -29906   -29891   -29899 
  -29916   -29933   -29937   -29921   -29909   -29895   -29878   -29882 
  -29893   -29897   -29913   -29932   -29930   -29917   -29907   -29901 
  -29890   -29891   -29905   -29920   -29918   -29910   -29914   -29926 
  -29938   -29926   -29875   -29829   -29849   -29918   -29976   -29987 
  -29953   -29917   -29898   -29889   -29882   -29884   -29909   -29941 
  -29953   -29941   -29924   -29895   -29866   -29867   -29898   -29920 
