Origin Time       2024/04/21 06:19:00
Lat.              34.232
Long.             135.137
Depth. (km)       7
Mag.              2.9
Station Code      WKYH03
Station Lat.      34.1314
Station Long.     135.3244
Station Height(m) 120
Record Time       2024/04/21 06:19:28
Sampling Freq(Hz) 100Hz
Duration Time(s)  120
Dir.              6
Scale Factor      7845(gal)/8223790
Max. Acc. (gal)   0.507
Last Correction   2024/04/21 06:19:28
Memo.             
[...]
   13394    13394    13394    13390    13390    13394    13393    13393 
   13393    13392    13394    13396    13392    13392    13396    13394 
   13393    13394    13394    13394    13396    13393    13393    13394 
   13394    13393    13393    13394    13396    13396    13397    13396 
   13390    13393    13397    13396    13394    13393    13393    13394 
   13394    13392    13394    13396    13394    13394    13396    13394 
   13393    13394    13393    13390    13393    13396    13393    13392 
   13393    13394    13396    13394    13392    13393    13394    13394 
   13393    13392    13393    13396    13394    13392    13392    13393 
   13394    13396    13396    13394    13394    13397    13394    13393 
   13396    13394    13390    13393    13394    13394    13397    13396 
   13393    13393    13393    13393    13394    13394    13394    13394 
   13394    13394    13393    13392    13394    13393    13393    13398 
   13394    13390    13396    13397    13393    13393    13394    13393 
   13393    13394    13396    13394    13394    13397    13393    13392 
   13394    13393    13394    13397    13393    13393    13397    13394 
   13394    13397    13396    13393    13393    13393    13397    13396 
   13393    13394    13394    13394    13396    13394    13393    13394 
   13392    13393    13396    13396    13394    13394    13396    13396 
   13393    13394    13396    13393    13394    13394    13392    13396 
   13396    13394    13394    13393    13392    13393    13394    13397 
   13396    13390    13392    13394    13392    13390    13394    13394 
   13396    13396    13394    13394    13394    13394    13393    13392 
   13393    13394    13394    13396    13394    13396    13397    13393 
   13394    13396    13393    13393    13394    13393    13394    13396 
   13396    13394    13393    13392    13393    13394    13394    13394 
   13396    13393    13390    13393    13394    13393    13392    13393 
   13394    13394    13394    13394    13394    13394    13390    13392 
   13396    13393    13392    13394    13394    13392    13393    13396 
   13397    13396    13393    13393    13393    13394    13396    13393 
   13392    13396    13396    13392    13392    13393    13393    13393 
   13394    13394    13394    13393    13393    13396    13396    13394 
   13393    13392    13393    13394    13394    13393    13392    13392 
   13394    13396    13394    13393    13394    13394    13392    13394 
   13396    13393    13393    13394    13396    13394    13393    13394 
   13398    13396    13393    13392    13390    13393    13393    13392 
   13392    13392    13393    13393    13392    13393    13394    13393 
   13394    13394    13394    13394    13396    13396    13392    13390 
   13393    13394    13393    13393    13393    13392    13394    13398 
   13394    13393    13396    13394    13394    13396    13394    13394 
   13396    13394    13392    13392    13393    13396    13397    13397 
   13396    13393    13394    13394    13393    13394    13397    13397 
   13394    13393    13394    13393    13394    13394    13393    13393 
   13394    13392    13390    13393    13394    13393    13396    13396 
   13394    13394    13396    13393    13392    13392    13393    13396 
   13393    13393    13393    13393    13394    13393    13390    13394 
   13396    13393    13393    13392    13390    13390    13394    13394 
   13392    13392    13393    13394    13394    13393    13394    13396 
   13393    13393    13396    13394    13393    13394    13393    13394 
   13396    13393    13394    13396    13394    13392    13392    13392 
   13393    13393    13393    13394    13394    13394    13394    13393 
   13393    13392    13393    13396    13394    13392    13390    13393 
   13396    13394    13394    13394    13393    13396    13396    13393 
   13394    13396    13393    13392    13394    13393    13393    13396 
   13393    13393    13396    13394    13392    13394    13394    13396 
   13394    13393    13393    13394    13393    13394    13394    13392 
   13390    13393    13392    13390    13393    13393    13392    13393 
   13392    13393    13397    13394    13392    13394    13394    13393 
   13393    13394    13396    13393    13392    13396    13397    13394 
   13394    13394    13396    13394    13393    13396    13394    13392 
   13394    13394    13390    13394    13397    13394    13393    13392 
   13390    13393    13393    13396    13397    13394    13393    13394 
   13394    13394    13396    13394    13393    13393    13394    13393 
   13392    13393    13394    13393    13393    13393    13394    13396 
   13393    13392    13396    13397    13394    13393    13394    13393 
   13392    13390    13389    13393    13394    13393    13394    13394 
   13393    13394    13396    13393    13393    13394    13393    13393 
   13393    13393    13393    13394    13393    13392    13394    13394 
   13392    13390    13394    13396    13394    13394    13396    13394 
   13392    13393    13393    13393    13397    13397    13393    13394 
   13396    13394    13394    13393    13393    13394    13394    13394 
   13394    13392    13393    13396    13394    13394    13396    13394 
   13394    13394    13394    13393    13392    13394    13396    13393 
   13394    13396    13393    13392    13393    13393    13393    13393 
   13393    13393    13393    13394    13393    13393    13393    13393 
   13394    13397    13394    13394    13398    13396    13393    13394 
   13394    13393    13394    13394    13393    13393    13396    13396 
   13392    13392    13393    13393    13396    13394    13392    13392 
   13392    13396    13398    13394    13392    13394    13396    13394 
   13393    13394    13396    13396    13396    13394    13392    13392 
   13394    13394    13393    13393    13393    13394    13393    13393 
   13397    13396    13392    13394    13394    13392    13393    13394 
   13392    13393    13396    13394    13396    13394    13394    13393 
   13394    13396    13396    13396    13397    13394    13393    13393 
   13396    13396    13394    13396    13396    13396    13396    13397 
   13396    13393    13393    13394    13393    13393    13396    13398 
   13396    13393    13394    13394    13392    13392    13394    13394 
   13393    13392    13394    13396    13393    13393    13393    13392 
   13394    13396    13393    13396    13396    13394    13397    13396 
   13392    13393    13393    13393    13396    13396    13394    13393 
   13393    13396    13394    13392    13393    13392    13392    13393 
   13393    13394    13396    13396    13394    13394    13396    13396 
   13396    13396    13396    13396    13394    13393    13393    13394 
   13397    13394    13392    13393    13394    13396    13394    13392 
   13392    13393    13393    13393    13393    13394    13392    13393 
   13394    13393    13396    13397    13392    13393    13394    13392 
   13390    13394    13394    13394    13394    13393    13393    13393 
   13394    13394    13392    13392    13394    13393    13392    13393 
   13394    13393    13393    13394    13393    13393    13394    13394 
   13396    13394    13394    13393    13392    13393    13394    13393 
   13393    13393    13396    13396    13394    13394    13394    13393 
   13394    13394    13393    13394    13396    13394    13394    13396 
   13394    13393    13396    13396    13394    13396    13394    13393 
   13397    13394    13393    13396    13393    13393    13396    13394 
   13394    13394    13393    13396    13394    13392    13393    13393 
   13393    13396    13394    13393    13393    13392    13393    13396 
   13396    13397    13396    13393    13393    13396    13394    13392 
   13393    13392    13393    13394    13396    13394    13394    13396 
   13396    13393    13393    13396    13396    13393    13393    13393 
   13393    13394    13396    13394    13393    13394    13397    13398 
   13392    13390    13396    13397    13394    13393    13393    13394 
   13396    13393    13392    13393    13393    13394    13396    13393 
   13396    13397    13394    13394    13394    13394    13396    13396 
   13392    13393    13396    13393    13393    13394    13394    13394 
   13397    13394    13392    13392    13393    13394    13396    13393 
   13392    13394    13394    13393    13394    13394    13392    13394 
   13397    13394    13393    13392    13392    13393    13393    13394 
   13394    13394    13394    13393    13393    13396    13394    13393 
   13394    13393    13393    13393    13389    13390    13394    13394 
   13393    13396    13394    13393    13394    13393    13393    13393 
   13393    13393    13393    13394    13393    13392    13396    13396 
   13393    13396    13397    13396    13393    13393    13393    13394 
   13396    13396    13393    13393    13394    13397    13397    13396 
   13394    13394    13394    13394    13396    13394    13393    13397 
   13397    13392    13393    13396    13393    13394    13397    13394 
   13396    13396    13393    13393    13394    13393    13394    13394 
   13394    13393    13393    13394    13393    13393    13394    13394 
   13392    13394    13394    13392    13392    13393    13393    13394 
   13394    13392    13394    13394    13393    13394    13394    13394 
   13393    13394    13394    13394    13394    13394    13394    13396 
   13394    13394    13397    13396    13394    13394    13393    13393 
   13394    13396    13396    13394    13393    13396    13394    13393 
   13394    13393    13393    13394    13393    13394    13396    13393 
   13394    13396    13394    13393    13393    13394    13396    13393 
   13393    13394    13394    13394    13394    13393    13394    13393 
   13392    13390    13389    13394    13397    13394    13394    13393 
   13390    13396    13396    13393    13394    13394    13392    13392 
   13396    13398    13394    13390    13392    13394    13396    13394 
   13392    13393    13393    13392    13394    13394    13393    13393 
   13393    13394    13396    13393    13393    13394    13393    13390 
   13392    13393    13394    13394    13393    13392    13393    13393 
   13392    13393    13396    13396    13394    13392    13383    13366 
   13351    13351    13373    13410    13446    13467    13485    13471 
   13390    13338    13393    13392    13279    13302    13458    13477 
   13398    13367    13324    13321    13444    13510    13435    13402 
   13414    13336    13306    13413    13404    13288    13370    13516 
   13451    13339    13402    13521    13406    13193    13342    13535 
   13347    13332    13522    13421    13366    13420    13281    13335 
   13531    13402    13311    13489    13474    13313    13348    13267 
   13032    13181    13605    13790    13771    13662    13313    13093 
   13377    13474    13112    13131    13443    13452    13485    13495 
   13247    13282    13522    13522    13528    13498    13294    13232 
   13355    13467    13393    13263    13383    13493    13429    13387 
   13300    13275    13539    13691    13425    13174    13230    13335 
   13367    13486    13513    13306    13346    13594    13513    13282 
   13215    13313    13494    13486    13363    13398    13427    13325 
   13298    13450    13539    13385    13304    13443    13416    13308 
   13406    13421    13316    13346    13439    13468    13446    13392 
   13312    13344    13437    13397    13429    13509    13328    13207 
   13344    13402    13489    13599    13412    13270    13382    13387 
   13312    13346    13401    13394    13416    13516    13471    13294 
   13352    13471    13342    13315    13468    13460    13394    13412 
   13392    13342    13325    13358    13390    13436    13591    13563 
   13257    13201    13329    13325    13439    13535    13362    13339 
   13481    13311    13180    13478    13591    13413    13450    13468 
   13333    13315    13321    13304    13344    13435    13512    13486 
   13451    13439    13360    13332    13350    13286    13301    13448 
   13468    13383    13404    13414    13421    13481    13373    13286 
   13375    13374    13373    13451    13439    13344    13371    13513 
   13413    13252    13401    13482    13385    13400    13355    13254 
   13350    13429    13359    13427    13559    13490    13419    13425 
   13269    13119    13263    13409    13397    13575    13703    13410 
   13227    13373    13400    13348    13409    13428    13435    13514 
   13456    13284    13301    13433    13454    13431    13351    13186 
   13243    13420    13317    13236    13460    13628    13560    13497 
   13497    13446    13414    13383    13250    13238    13414    13521 
   13435    13184    13095    13362    13544    13458    13446    13521 
   13382    13231    13439    13541    13302    13301    13531    13493 
   13217    13131    13359    13539    13510    13440    13387    13404 
   13594    13701    13379    12988    13063    13444    13531    13281 
   13297    13682    13798    13366    13088    13320    13452    13366 
   13321    13305    13436    13520    13234    13080    13451    13790 
   13740    13423    13005    12960    13377    13628    13529    13533 
   13630    13508    13354    13429    13504    13313    13127    13205 
   13355    13439    13396    13212    13161    13285    13301    13282 
   13420    13589    13674    13724    13782    13701    13359    13144 
   13293    13348    13054    12862    13166    13591    13617    13490 
   13531    13524    13467    13429    13278    13231    13385    13440 
   13486    13656    13576    13224    13089    13182    13250    13454 
   13711    13566    13277    13270    13321    13431    13616    13490 
   13230    13344    13524    13389    13298    13329    13373    13520 
   13406    13113    13186    13439    13524    13412    13275    13373 
   13659    13830    13608    13190    13205    13586    13578    13215 
   13066    13047    13030    13282    13621    13647    13641    13738 
   13483    13250    13483    13443    13055    13035    13278    13489 
   13609    13614    13608    13483    13259    13215    13335    13375 
   13259    13232    13393    13487    13489    13524    13494    13331 
   13228    13281    13350    13424    13439    13371    13440    13494 
   13439    13571    13679    13478    13319    13370    13347    13231 
   13184    13136    13188    13417    13512    13489    13571    13536 
   13336    13306    13394    13443    13518    13459    13269    13234 
   13308    13374    13447    13473    13478    13454    13331    13261 
   13305    13358    13443    13486    13371    13319    13478    13564 
   13464    13439    13468    13354    13251    13247    13248    13387 
   13516    13437    13419    13447    13336    13297    13404    13466 
   13467    13455    13408    13348    13331    13383    13437    13440 
   13408    13350    13371    13401    13302    13284    13440    13528 
   13417    13320    13377    13444    13482    13478    13405    13370 
   13342    13274    13320    13408    13304    13234    13419    13563 
   13516    13466    13458    13427    13362    13288    13279    13387 
   13455    13369    13343    13425    13429    13444    13485    13413 
   13352    13343    13313    13342    13448    13490    13410    13396 
   13504    13485    13317    13262    13309    13257    13255    13470 
   13590    13447    13365    13433    13401    13352    13425    13412 
   13317    13309    13338    13371    13468    13539    13455    13355 
   13400    13440    13385    13374    13377    13317    13290    13331 
   13429    13494    13417    13365    13423    13431    13421    13439 
   13365    13275    13366    13487    13414    13312    13346    13416 
   13452    13463    13460    13435    13375    13377    13435    13397 
   13325    13359    13398    13379    13360    13374    13379    13335 
   13338    13423    13427    13393    13467    13505    13433    13387 
   13354    13315    13347    13401    13437    13466    13419    13333 
   13321    13356    13373    13347    13306    13352    13468    13504 
   13420    13346    13358    13394    13400    13424    13493    13504 
   13428    13358    13319    13323    13343    13348    13413    13478 
   13435    13419    13431    13339    13302    13390    13401    13379 
   13435    13427    13355    13344    13359    13392    13455    13475 
   13428    13390    13410    13408    13348    13356    13410    13381 
   13354    13377    13348    13339    13382    13392    13437    13493 
   13425    13379    13451    13440    13344    13342    13371    13382 
   13452    13470    13362    13316    13409    13439    13348    13319 
   13373    13409    13444    13459    13419    13402    13419    13382 
   13340    13437    13510    13367    13282    13390    13417    13363 
   13370    13358    13338    13400    13431    13346    13315    13404 
   13436    13419    13462    13456    13394    13397    13398    13360 
   13374    13408    13396    13389    13381    13342    13370    13440 
   13443    13427    13405    13358    13365    13419    13394    13332 
   13365    13443    13439    13366    13359    13420    13408    13382 
   13408    13371    13340    13413    13435    13390    13387    13393 
   13397    13401    13373    13362    13387    13408    13427    13420 
   13367    13342    13381    13413    13408    13421    13431    13396 
   13394    13413    13358    13347    13420    13428    13405    13416 
   13371    13328    13386    13446    13435    13398    13367    13382 
   13425    13419    13390    13385    13383    13382    13389    13367 
   13333    13350    13412    13451    13455    13437    13394    13354 
   13356    13383    13402    13397    13396    13424    13408    13354 
   13367    13414    13402    13374    13386    13397    13394    13417 
   13419    13375    13381    13419    13398    13375    13392    13397 
   13400    13439    13446    13369    13338    13397    13405    13379 
   13400    13387    13354    13385    13414    13385    13366    13389 
   13389    13365    13385    13424    13432    13424    13427    13414 
   13363    13350    13390    13393    13373    13385    13397    13397 
   13410    13420    13408    13409    13401    13352    13332    13367 
   13409    13428    13405    13379    13375    13381    13419    13468 
   13441    13381    13369    13371    13381    13409    13414    13390 
   13374    13378    13378    13387    13431    13443    13397    13373 
   13390    13405    13410    13425    13404    13342    13323    13359 
   13390    13398    13408    13428    13420    13386    13383    13412 
   13419    13389    13367    13383    13398    13400    13401    13397 
   13393    13400    13409    13413    13396    13375    13382    13379 
   13370    13393    13405    13373    13355    13392    13439    13444 
   13420    13394    13369    13352    13362    13386    13412    13419 
   13397    13385    13373    13350    13362    13394    13412    13424 
   13425    13408    13405    13416    13405    13378    13371    13386 
   13393    13392    13394    13405    13410    13396    13373    13366 
   13385    13413    13427    13416    13394    13379    13379    13393 
   13398    13382    13370    13378    13401    13423    13417    13387 
