Origin Time       2024/04/21 06:19:00
Lat.              34.232
Long.             135.137
Depth. (km)       7
Mag.              2.9
Station Code      WKYH03
Station Lat.      34.1314
Station Long.     135.3244
Station Height(m) 19.9
Record Time       2024/04/21 06:19:28
Sampling Freq(Hz) 100Hz
Duration Time(s)  120
Dir.              1
Scale Factor      3923(gal)/8224838
Max. Acc. (gal)   0.523
Last Correction   2024/04/21 06:19:28
Memo.             
[...]
  -64687   -64689   -64689   -64689   -64690   -64690   -64687   -64692 
  -64693   -64690   -64690   -64693   -64690   -64690   -64693   -64694 
  -64693   -64690   -64689   -64692   -64692   -64689   -64689   -64693 
  -64690   -64689   -64690   -64687   -64690   -64693   -64690   -64690 
  -64692   -64689   -64689   -64689   -64689   -64692   -64690   -64687 
  -64689   -64690   -64689   -64687   -64692   -64692   -64685   -64686 
  -64692   -64690   -64690   -64692   -64690   -64690   -64689   -64689 
  -64692   -64689   -64683   -64689   -64693   -64689   -64689   -64690 
  -64690   -64689   -64690   -64692   -64690   -64690   -64690   -64689 
  -64689   -64689   -64690   -64690   -64689   -64689   -64692   -64690 
  -64686   -64687   -64690   -64690   -64689   -64687   -64690   -64692 
  -64689   -64689   -64692   -64687   -64687   -64692   -64693   -64693 
  -64690   -64689   -64690   -64690   -64689   -64689   -64689   -64690 
  -64689   -64687   -64690   -64690   -64690   -64687   -64686   -64692 
  -64693   -64687   -64687   -64692   -64690   -64692   -64692   -64690 
  -64690   -64692   -64692   -64692   -64690   -64690   -64690   -64690 
  -64689   -64692   -64692   -64690   -64690   -64690   -64692   -64690 
  -64689   -64690   -64687   -64686   -64692   -64690   -64689   -64692 
  -64690   -64689   -64690   -64690   -64689   -64689   -64687   -64687 
  -64689   -64690   -64692   -64689   -64689   -64689   -64687   -64689 
  -64689   -64689   -64690   -64690   -64690   -64689   -64687   -64687 
  -64690   -64690   -64689   -64693   -64692   -64689   -64690   -64690 
  -64687   -64689   -64689   -64689   -64690   -64692   -64692   -64690 
  -64689   -64689   -64690   -64690   -64689   -64689   -64692   -64690 
  -64690   -64692   -64689   -64692   -64694   -64692   -64689   -64689 
  -64689   -64687   -64689   -64690   -64689   -64689   -64689   -64689 
  -64687   -64689   -64689   -64687   -64689   -64693   -64692   -64690 
  -64692   -64690   -64689   -64687   -64692   -64693   -64689   -64689 
  -64693   -64690   -64689   -64692   -64693   -64692   -64689   -64687 
  -64690   -64690   -64690   -64692   -64690   -64690   -64692   -64690 
  -64692   -64693   -64692   -64687   -64687   -64692   -64692   -64692 
  -64692   -64689   -64690   -64693   -64689   -64686   -64689   -64690 
  -64692   -64690   -64689   -64689   -64690   -64689   -64690   -64692 
  -64692   -64692   -64690   -64689   -64689   -64692   -64693   -64693 
  -64693   -64689   -64687   -64687   -64689   -64692   -64693   -64690 
  -64689   -64689   -64687   -64687   -64689   -64689   -64689   -64692 
  -64690   -64687   -64689   -64692   -64690   -64690   -64690   -64689 
  -64692   -64692   -64690   -64690   -64690   -64689   -64689   -64693 
  -64692   -64687   -64689   -64693   -64689   -64686   -64690   -64690 
  -64686   -64689   -64690   -64689   -64687   -64692   -64693   -64692 
  -64689   -64689   -64689   -64689   -64689   -64687   -64689   -64692 
  -64690   -64690   -64693   -64690   -64687   -64692   -64693   -64692 
  -64692   -64690   -64689   -64690   -64690   -64687   -64692   -64694 
  -64690   -64686   -64689   -64689   -64689   -64692   -64690   -64690 
  -64693   -64690   -64687   -64689   -64690   -64692   -64692   -64693 
  -64690   -64687   -64687   -64690   -64690   -64686   -64689   -64693 
  -64692   -64689   -64690   -64690   -64689   -64689   -64690   -64690 
  -64689   -64690   -64690   -64690   -64690   -64690   -64689   -64690 
  -64690   -64687   -64686   -64689   -64690   -64690   -64690   -64690 
  -64689   -64689   -64690   -64690   -64689   -64690   -64690   -64689 
  -64690   -64690   -64692   -64692   -64689   -64690   -64692   -64690 
  -64690   -64692   -64689   -64689   -64689   -64689   -64689   -64689 
  -64689   -64690   -64690   -64690   -64690   -64690   -64693   -64693 
  -64690   -64689   -64689   -64692   -64694   -64692   -64689   -64690 
  -64692   -64692   -64692   -64690   -64690   -64690   -64690   -64689 
  -64689   -64690   -64693   -64692   -64690   -64692   -64690   -64689 
  -64689   -64690   -64693   -64690   -64687   -64689   -64690   -64692 
  -64693   -64690   -64689   -64689   -64687   -64687   -64687   -64686 
  -64689   -64690   -64687   -64690   -64693   -64692   -64690   -64690 
  -64689   -64690   -64693   -64692   -64689   -64689   -64689   -64689 
  -64687   -64687   -64690   -64692   -64689   -64689   -64692   -64692 
  -64690   -64690   -64689   -64692   -64692   -64689   -64689   -64692 
  -64690   -64687   -64687   -64689   -64689   -64692   -64692   -64687 
  -64686   -64692   -64692   -64687   -64689   -64690   -64689   -64690 
  -64690   -64687   -64687   -64692   -64690   -64687   -64689   -64693 
  -64693   -64689   -64690   -64692   -64687   -64687   -64692   -64692 
  -64689   -64689   -64690   -64690   -64687   -64687   -64687   -64686 
  -64689   -64692   -64689   -64689   -64693   -64692   -64689   -64690 
  -64693   -64692   -64690   -64689   -64690   -64693   -64690   -64689 
  -64690   -64689   -64690   -64692   -64689   -64689   -64692   -64689 
  -64687   -64692   -64692   -64687   -64689   -64690   -64689   -64690 
  -64692   -64692   -64692   -64692   -64692   -64689   -64689   -64689 
  -64689   -64689   -64689   -64690   -64689   -64686   -64687   -64692 
  -64690   -64687   -64690   -64693   -64690   -64689   -64692   -64692 
  -64687   -64687   -64689   -64689   -64689   -64689   -64690   -64690 
  -64692   -64692   -64687   -64690   -64694   -64692   -64690   -64693 
  -64692   -64689   -64689   -64690   -64687   -64687   -64687   -64689 
  -64692   -64689   -64687   -64689   -64690   -64692   -64692   -64689 
  -64689   -64690   -64689   -64690   -64692   -64692   -64692   -64692 
  -64687   -64687   -64690   -64689   -64689   -64692   -64690   -64687 
  -64687   -64689   -64693   -64693   -64689   -64689   -64693   -64692 
  -64689   -64692   -64692   -64690   -64690   -64690   -64692   -64694 
  -64689   -64689   -64692   -64690   -64689   -64692   -64692   -64689 
  -64687   -64687   -64689   -64692   -64692   -64690   -64692   -64692 
  -64689   -64690   -64690   -64687   -64690   -64692   -64692   -64690 
  -64689   -64692   -64690   -64687   -64690   -64692   -64690   -64690 
  -64690   -64692   -64692   -64690   -64690   -64690   -64689   -64689 
  -64690   -64690   -64690   -64690   -64690   -64690   -64692   -64692 
  -64687   -64686   -64690   -64690   -64692   -64694   -64690   -64690 
  -64690   -64689   -64689   -64690   -64690   -64689   -64692   -64693 
  -64689   -64689   -64692   -64689   -64687   -64693   -64693   -64692 
  -64692   -64690   -64690   -64690   -64689   -64690   -64692   -64689 
  -64689   -64692   -64692   -64693   -64693   -64689   -64690   -64693 
  -64689   -64686   -64692   -64693   -64692   -64692   -64690   -64692 
  -64692   -64689   -64689   -64692   -64690   -64690   -64689   -64689 
  -64690   -64690   -64689   -64689   -64690   -64690   -64689   -64690 
  -64689   -64689   -64690   -64690   -64687   -64689   -64689   -64690 
  -64692   -64692   -64692   -64690   -64689   -64692   -64692   -64689 
  -64687   -64685   -64687   -64692   -64692   -64689   -64689   -64690 
  -64690   -64689   -64689   -64690   -64692   -64692   -64687   -64687 
  -64689   -64689   -64693   -64694   -64690   -64689   -64693   -64694 
  -64690   -64686   -64689   -64690   -64689   -64692   -64692   -64689 
  -64689   -64689   -64687   -64686   -64687   -64689   -64689   -64690 
  -64689   -64690   -64692   -64692   -64689   -64687   -64687   -64692 
  -64693   -64689   -64687   -64689   -64690   -64690   -64692   -64692 
  -64692   -64689   -64687   -64690   -64692   -64689   -64687   -64692 
  -64693   -64690   -64689   -64689   -64687   -64689   -64690   -64689 
  -64689   -64690   -64692   -64692   -64690   -64690   -64689   -64690 
  -64692   -64690   -64687   -64689   -64690   -64690   -64689   -64690 
  -64692   -64690   -64692   -64690   -64689   -64689   -64690   -64689 
  -64690   -64690   -64689   -64692   -64693   -64689   -64687   -64687 
  -64689   -64690   -64690   -64692   -64690   -64689   -64689   -64690 
  -64693   -64692   -64690   -64690   -64690   -64689   -64686   -64687 
  -64692   -64693   -64689   -64690   -64693   -64690   -64689   -64693 
  -64693   -64690   -64689   -64689   -64689   -64692   -64692   -64690 
  -64689   -64687   -64689   -64690   -64692   -64690   -64690   -64690 
  -64689   -64690   -64690   -64689   -64689   -64693   -64693   -64689 
  -64686   -64690   -64689   -64689   -64690   -64689   -64690   -64693 
  -64693   -64692   -64690   -64690   -64690   -64687   -64686   -64690 
  -64692   -64690   -64690   -64692   -64690   -64687   -64687   -64689 
  -64689   -64689   -64690   -64689   -64687   -64689   -64690   -64689 
  -64685   -64686   -64690   -64693   -64693   -64689   -64690   -64692 
  -64690   -64689   -64689   -64692   -64694   -64690   -64687   -64690 
  -64690   -64689   -64692   -64693   -64689   -64689   -64692   -64689 
  -64690   -64693   -64690   -64689   -64693   -64693   -64690   -64690 
  -64692   -64690   -64687   -64687   -64692   -64689   -64687   -64690 
  -64690   -64689   -64690   -64689   -64689   -64690   -64692   -64692 
  -64690   -64690   -64690   -64687   -64690   -64692   -64690   -64692 
  -64692   -64689   -64689   -64692   -64690   -64689   -64685   -64687 
  -64692   -64690   -64690   -64690   -64692   -64690   -64690   -64693 
  -64693   -64690   -64692   -64690   -64687   -64687   -64692   -64693 
  -64687   -64686   -64687   -64689   -64692   -64693   -64690   -64689 
  -64690   -64690   -64692   -64692   -64692   -64692   -64690   -64689 
  -64690   -64690   -64689   -64689   -64689   -64690   -64690   -64689 
  -64692   -64693   -64690   -64689   -64687   -64690   -64693   -64689 
  -64687   -64692   -64690   -64687   -64690   -64693   -64690   -64689 
  -64689   -64690   -64692   -64690   -64690   -64692   -64690   -64687 
  -64690   -64692   -64689   -64689   -64689   -64689   -64692   -64690 
  -64690   -64692   -64690   -64686   -64689   -64692   -64687   -64687 
  -64692   -64690   -64686   -64690   -64692   -64689   -64689   -64689 
  -64690   -64689   -64689   -64693   -64692   -64689   -64692   -64693 
  -64690   -64690   -64690   -64690   -64690   -64690   -64689   -64689 
  -64689   -64689   -64690   -64690   -64690   -64690   -64690   -64690 
  -64690   -64690   -64690   -64690   -64692   -64690   -64690   -64690 
  -64690   -64690   -64689   -64689   -64690   -64692   -64690   -64690 
  -64690   -64692   -64692   -64687   -64689   -64690   -64690   -64692 
  -64690   -64689   -64690   -64689   -64686   -64689   -64690   -64689 
  -64689   -64690   -64690   -64689   -64689   -64689   -64687   -64689 
  -64690   -64689   -64690   -64692   -64687   -64678   -64667   -64663 
  -64673   -64693   -64713   -64723   -64720   -64709   -64693   -64674 
  -64683   -64714   -64706   -64662   -64654   -64694   -64720   -64694 
  -64646   -64628   -64671   -64746   -64762   -64701   -64646   -64652 
  -64698   -64732   -64714   -64674   -64673   -64698   -64708   -64704 
  -64697   -64686   -64651   -64617   -64658   -64731   -64731   -64692 
  -64716   -64751   -64701   -64648   -64679   -64700   -64648   -64648 
  -64751   -64795   -64705   -64631   -64660   -64658   -64561   -64550 
  -64702   -64840   -64856   -64805   -64690   -64559   -64611   -64837 
  -64875   -64582   -64361   -64557   -64912   -64956   -64702   -64508 
  -64498   -64601   -64759   -64848   -64751   -64585   -64609   -64810 
  -64894   -64759   -64589   -64525   -64571   -64689   -64786   -64743 
  -64617   -64646   -64818   -64840   -64646   -64509   -64578   -64686 
  -64717   -64754   -64786   -64729   -64667   -64709   -64744   -64650 
  -64558   -64643   -64789   -64764   -64623   -64584   -64666   -64747 
  -64790   -64775   -64677   -64577   -64586   -64698   -64794   -64774 
  -64642   -64562   -64692   -64868   -64824   -64615   -64528   -64651 
  -64752   -64681   -64616   -64679   -64741   -64732   -64697   -64675 
  -64686   -64713   -64710   -64670   -64647   -64690   -64729   -64667 
  -64592   -64651   -64804   -64878   -64783   -64617   -64552   -64584 
  -64585   -64601   -64731   -64847   -64778   -64633   -64656   -64785 
  -64760   -64627   -64646   -64763   -64723   -64584   -64608   -64754 
  -64777   -64689   -64670   -64696   -64629   -64581   -64706   -64808 
  -64673   -64547   -64681   -64854   -64806   -64700   -64725   -64709 
  -64552   -64525   -64744   -64895   -64748   -64546   -64575   -64713 
  -64762   -64755   -64717   -64628   -64567   -64633   -64754   -64794 
  -64758   -64673   -64615   -64679   -64774   -64764   -64655   -64573 
  -64627   -64741   -64785   -64740   -64665   -64639   -64660   -64660 
  -64654   -64709   -64779   -64750   -64636   -64586   -64654   -64744 
  -64778   -64750   -64669   -64571   -64558   -64694   -64849   -64805 
  -64609   -64566   -64751   -64828   -64620   -64489   -64670   -64818 
  -64706   -64627   -64756   -64820   -64667   -64617   -64805   -64875 
  -64725   -64694   -64835   -64791   -64513   -64381   -64532   -64690 
  -64728   -64733   -64682   -64531   -64443   -64594   -64809   -64785 
  -64617   -64617   -64808   -64984   -64975   -64756   -64489   -64428 
  -64604   -64696   -64561   -64543   -64783   -64891   -64723   -64659 
  -64836   -64970   -64959   -64827   -64423   -63913   -63914   -64612 
  -65346   -65456   -64987   -64474   -64436   -64957   -65400   -64982 
  -63971   -63594   -64359   -65225   -65061   -64265   -64114   -64848 
  -65414   -65215   -64833   -64750   -64741   -64558   -64401   -64440 
  -64451   -64392   -64470   -64719   -64952   -64952   -64889   -65055 
  -65142   -64720   -63984   -63667   -64250   -65053   -65102   -64656 
  -64544   -64956   -65354   -65173   -64675   -64447   -64612   -64871 
  -64747   -64238   -63948   -64220   -64844   -65302   -65118   -64584 
  -64501   -64812   -64791   -64420   -64291   -64643   -64944   -64800 
  -64783   -65084   -65049   -64613   -64362   -64536   -64741   -64732 
  -64762   -64747   -64451   -64380   -64913   -65261   -64671   -63933 
  -64201   -64998   -65128   -64679   -64459   -64612   -64791   -64866 
  -64933   -64843   -64515   -64315   -64335   -64403   -64681   -65163 
  -65341   -64941   -64498   -64613   -64952   -64891   -64565   -64412 
  -64477   -64625   -64747   -64692   -64536   -64565   -64759   -64832 
  -64740   -64794   -64974   -64816   -64399   -64332   -64667   -64831 
  -64570   -64370   -64620   -64878   -64735   -64579   -64748   -64903 
  -64721   -64485   -64644   -64978   -64863   -64442   -64428   -64795 
  -64906   -64741   -64750   -64849   -64743   -64600   -64693   -64812 
  -64667   -64559   -64725   -64764   -64542   -64493   -64685   -64729 
  -64539   -64485   -64773   -65011   -64843   -64538   -64481   -64642 
  -64809   -64824   -64654   -64515   -64620   -64817   -64871   -64805 
  -64768   -64786   -64724   -64585   -64548   -64598   -64590   -64573 
  -64674   -64832   -64821   -64598   -64457   -64589   -64791   -64828 
  -64740   -64696   -64741   -64766   -64665   -64523   -64525   -64700 
  -64851   -64816   -64652   -64590   -64702   -64808   -64779   -64662 
  -64550   -64546   -64633   -64696   -64740   -64791   -64750   -64594 
  -64490   -64588   -64805   -64926   -64881   -64755   -64638   -64611 
  -64671   -64677   -64597   -64605   -64729   -64797   -64768   -64737 
  -64720   -64671   -64639   -64679   -64696   -64597   -64525   -64633 
  -64755   -64693   -64608   -64713   -64854   -64797   -64702   -64805 
  -64881   -64690   -64548   -64689   -64773   -64593   -64471   -64617 
  -64770   -64732   -64732   -64866   -64812   -64525   -64428   -64623 
  -64737   -64647   -64623   -64766   -64863   -64804   -64725   -64696 
  -64635   -64570   -64596   -64670   -64704   -64678   -64625   -64605 
  -64646   -64713   -64746   -64721   -64693   -64702   -64705   -64689 
  -64717   -64795   -64809   -64704   -64631   -64679   -64693   -64584 
  -64539   -64701   -64862   -64797   -64643   -64638   -64721   -64708 
  -64617   -64582   -64598   -64621   -64698   -64820   -64828   -64706 
  -64667   -64777   -64821   -64723   -64651   -64690   -64710   -64631 
  -64574   -64655   -64764   -64737   -64635   -64621   -64687   -64701 
  -64671   -64698   -64759   -64724   -64621   -64646   -64783   -64787 
  -64636   -64559   -64662   -64791   -64779   -64677   -64615   -64604 
  -64628   -64677   -64700   -64686   -64679   -64733   -64805   -64777 
  -64681   -64632   -64650   -64693   -64682   -64624   -64631   -64700 
  -64731   -64696   -64662   -64693   -64728   -64721   -64727   -64733 
  -64673   -64617   -64662   -64712   -64651   -64578   -64651   -64783 
  -64773   -64670   -64659   -64719   -64692   -64579   -64565   -64693 
  -64764   -64719   -64716   -64806   -64843   -64754   -64643   -64623 
  -64652   -64654   -64683   -64774   -64789   -64652   -64547   -64612 
  -64719   -64719   -64673   -64689   -64697   -64643   -64682   -64836 
  -64847   -64636   -64476   -64552   -64727   -64785   -64727   -64683 
  -64682   -64673   -64650   -64636   -64647   -64690   -64735   -64733 
  -64693   -64677   -64721   -64768   -64744   -64700   -64723   -64737 
  -64648   -64563   -64617   -64733   -64759   -64675   -64600   -64633 
  -64712   -64721   -64693   -64700   -64710   -64689   -64683   -64728 
  -64750   -64696   -64647   -64686   -64728   -64687   -64648   -64686 
  -64706   -64636   -64579   -64648   -64777   -64813   -64737   -64666 
  -64665   -64685   -64675   -64652   -64663   -64694   -64709   -64709 
  -64717   -64716   -64696   -64675   -64654   -64638   -64669   -64727 
  -64729   -64686   -64675   -64702   -64708   -64696   -64712   -64732 
  -64693   -64635   -64652   -64708   -64697   -64651   -64679   -64748 
  -64739   -64670   -64660   -64706   -64700   -64644   -64636   -64690 
  -64746   -64770   -64758   -64682   -64611   -64658   -64767   -64778 
  -64673   -64585   -64593   -64651   -64710   -64759   -64752   -64698 
  -64679   -64705   -64710   -64696   -64712   -64725   -64679   -64623 
  -64625   -64662   -64670   -64656   -64674   -64716   -64743   -64735 
  -64689   -64629   -64601   -64631   -64692   -64732   -64736   -64721 
  -64709   -64708   -64710   -64696   -64660   -64658   -64700   -64729 
  -64714   -64689   -64686   -64696   -64698   -64696   -64693   -64689 
  -64681   -64673   -64670   -64666   -64675   -64689   -64670   -64660 
  -64708   -64751   -64727   -64674   -64669   -64694   -64689   -64665 
  -64667   -64679   -64687   -64724   -64754   -64705   -64628   -64640 
  -64714   -64729   -64674   -64667   -64739   -64766   -64712   -64677 
  -64689   -64670   -64624   -64638   -64686   -64686   -64655   -64667 
  -64716   -64750   -64777   -64800   -64754   -64636   -64551   -64565 
  -64635   -64689   -64701   -64705   -64724   -64739   -64735   -64723 
  -64719   -64710   -64675   -64628   -64612   -64656   -64724   -64750 
  -64740   -64744   -64763   -64752   -64696   -64624   -64582   -64600 
  -64667   -64729   -64727   -64694   -64712   -64768   -64756   -64671 
  -64625   -64659   -64687   -64651   -64612   -64638   -64700   -64750 
  -64771   -64754   -64702   -64667   -64671   -64681   -64660   -64646 
  -64667   -64686   -64673   -64669   -64696   -64713   -64689   -64650 
