Origin Time       2024/04/21 06:19:00
Lat.              34.232
Long.             135.137
Depth. (km)       7
Mag.              2.9
Station Code      WKYH03
Station Lat.      34.1314
Station Long.     135.3244
Station Height(m) 19.9
Record Time       2024/04/21 06:19:28
Sampling Freq(Hz) 100Hz
Duration Time(s)  120
Dir.              2
Scale Factor      3923(gal)/8224838
Max. Acc. (gal)   0.435
Last Correction   2024/04/21 06:19:28
Memo.             
[...]
  -10216   -10216   -10215   -10215   -10218   -10219   -10219   -10220 
  -10218   -10215   -10216   -10218   -10216   -10218   -10218   -10216 
  -10216   -10218   -10218   -10215   -10214   -10215   -10215   -10216 
  -10218   -10218   -10218   -10216   -10216   -10216   -10216   -10216 
  -10215   -10215   -10215   -10214   -10215   -10216   -10216   -10218 
  -10215   -10215   -10219   -10216   -10212   -10215   -10218   -10218 
  -10216   -10218   -10218   -10218   -10218   -10216   -10214   -10215 
  -10218   -10216   -10215   -10215   -10216   -10218   -10219   -10218 
  -10215   -10216   -10216   -10216   -10218   -10218   -10215   -10215 
  -10219   -10219   -10219   -10219   -10218   -10216   -10216   -10218 
  -10218   -10216   -10216   -10216   -10216   -10216   -10219   -10218 
  -10215   -10216   -10216   -10216   -10216   -10216   -10216   -10218 
  -10216   -10215   -10216   -10220   -10219   -10218   -10219   -10219 
  -10216   -10215   -10216   -10216   -10215   -10216   -10218   -10218 
  -10218   -10216   -10216   -10216   -10215   -10216   -10216   -10216 
  -10218   -10215   -10218   -10218   -10214   -10216   -10220   -10215 
  -10212   -10215   -10215   -10215   -10215   -10214   -10218   -10216 
  -10215   -10216   -10215   -10214   -10216   -10218   -10218   -10216 
  -10216   -10216   -10218   -10220   -10219   -10215   -10214   -10218 
  -10219   -10218   -10216   -10216   -10215   -10215   -10216   -10218 
  -10216   -10216   -10216   -10215   -10215   -10215   -10215   -10216 
  -10215   -10215   -10218   -10219   -10216   -10215   -10216   -10218 
  -10218   -10218   -10218   -10216   -10216   -10215   -10215   -10215 
  -10214   -10215   -10216   -10215   -10216   -10218   -10215   -10215 
  -10218   -10218   -10216   -10216   -10216   -10218   -10219   -10216 
  -10215   -10215   -10215   -10214   -10215   -10218   -10218   -10218 
  -10218   -10216   -10216   -10218   -10218   -10216   -10215   -10216 
  -10218   -10215   -10215   -10216   -10215   -10216   -10219   -10218 
  -10215   -10216   -10219   -10218   -10218   -10218   -10215   -10216 
  -10216   -10215   -10216   -10215   -10212   -10214   -10215   -10215 
  -10216   -10216   -10216   -10216   -10216   -10216   -10216   -10216 
  -10218   -10215   -10214   -10216   -10216   -10214   -10215   -10216 
  -10215   -10216   -10218   -10218   -10218   -10219   -10218   -10216 
  -10216   -10216   -10215   -10215   -10216   -10218   -10216   -10215 
  -10218   -10216   -10215   -10216   -10216   -10215   -10216   -10219 
  -10216   -10215   -10218   -10216   -10212   -10214   -10215   -10218 
  -10219   -10218   -10219   -10219   -10216   -10215   -10215   -10216 
  -10215   -10215   -10216   -10218   -10216   -10215   -10215   -10218 
  -10218   -10215   -10218   -10216   -10215   -10218   -10218   -10215 
  -10214   -10215   -10216   -10215   -10214   -10215   -10216   -10216 
  -10215   -10215   -10219   -10219   -10215   -10215   -10216   -10214 
  -10215   -10218   -10215   -10215   -10216   -10218   -10218   -10218 
  -10219   -10220   -10219   -10218   -10218   -10215   -10214   -10215 
  -10216   -10216   -10214   -10215   -10218   -10216   -10215   -10216 
  -10216   -10216   -10218   -10218   -10216   -10218   -10216   -10215 
  -10218   -10218   -10216   -10215   -10215   -10216   -10218   -10216 
  -10216   -10218   -10218   -10215   -10215   -10218   -10218   -10214 
  -10214   -10216   -10216   -10215   -10215   -10216   -10216   -10215 
  -10216   -10215   -10214   -10214   -10215   -10215   -10216   -10216 
  -10215   -10215   -10218   -10218   -10218   -10218   -10215   -10214 
  -10216   -10216   -10216   -10218   -10216   -10214   -10215   -10219 
  -10216   -10214   -10216   -10219   -10216   -10216   -10216   -10215 
  -10216   -10216   -10216   -10216   -10215   -10215   -10216   -10215 
  -10215   -10215   -10216   -10216   -10216   -10216   -10214   -10214 
  -10218   -10216   -10216   -10215   -10214   -10218   -10219   -10215 
  -10214   -10216   -10219   -10216   -10215   -10215   -10214   -10216 
  -10216   -10215   -10218   -10220   -10218   -10215   -10215   -10216 
  -10218   -10216   -10215   -10216   -10215   -10214   -10214   -10216 
  -10216   -10216   -10218   -10216   -10218   -10218   -10216   -10218 
  -10219   -10215   -10215   -10218   -10218   -10218   -10218   -10218 
  -10218   -10216   -10216   -10216   -10218   -10218   -10218   -10214 
  -10212   -10215   -10218   -10216   -10215   -10215   -10216   -10215 
  -10215   -10216   -10216   -10215   -10216   -10219   -10216   -10215 
  -10215   -10215   -10215   -10215   -10216   -10218   -10219   -10219 
  -10218   -10219   -10220   -10218   -10216   -10216   -10218   -10216 
  -10214   -10214   -10216   -10218   -10216   -10215   -10216   -10216 
  -10216   -10215   -10216   -10218   -10218   -10216   -10216   -10215 
  -10214   -10215   -10218   -10218   -10215   -10215   -10216   -10216 
  -10216   -10216   -10216   -10216   -10218   -10220   -10219   -10214 
  -10215   -10215   -10215   -10216   -10216   -10216   -10215   -10215 
  -10215   -10215   -10216   -10216   -10216   -10216   -10215   -10215 
  -10216   -10215   -10215   -10218   -10219   -10216   -10216   -10219 
  -10216   -10215   -10216   -10216   -10216   -10216   -10215   -10218 
  -10218   -10214   -10215   -10218   -10216   -10216   -10216   -10214 
  -10215   -10216   -10216   -10215   -10216   -10218   -10218   -10215 
  -10215   -10218   -10218   -10218   -10218   -10215   -10214   -10215 
  -10216   -10216   -10214   -10214   -10219   -10219   -10216   -10215 
  -10215   -10216   -10214   -10214   -10218   -10218   -10216   -10218 
  -10218   -10218   -10218   -10219   -10218   -10216   -10215   -10214 
  -10214   -10215   -10216   -10216   -10216   -10216   -10216   -10218 
  -10216   -10214   -10215   -10216   -10216   -10219   -10218   -10218 
  -10218   -10216   -10216   -10216   -10216   -10218   -10215   -10215 
  -10219   -10218   -10214   -10215   -10215   -10216   -10216   -10215 
  -10216   -10218   -10218   -10218   -10214   -10214   -10216   -10216 
  -10218   -10216   -10214   -10215   -10216   -10215   -10216   -10216 
  -10216   -10219   -10218   -10214   -10216   -10218   -10214   -10214 
  -10218   -10216   -10216   -10219   -10216   -10216   -10218   -10216 
  -10216   -10215   -10214   -10215   -10215   -10215   -10216   -10216 
  -10216   -10218   -10218   -10218   -10215   -10215   -10218   -10218 
  -10216   -10218   -10216   -10215   -10218   -10216   -10215   -10219 
  -10219   -10215   -10216   -10218   -10216   -10216   -10215   -10214 
  -10216   -10219   -10216   -10216   -10218   -10214   -10214   -10218 
  -10219   -10218   -10216   -10216   -10218   -10219   -10218   -10216 
  -10216   -10216   -10218   -10215   -10215   -10218   -10218   -10218 
  -10218   -10218   -10216   -10216   -10216   -10216   -10215   -10215 
  -10215   -10216   -10218   -10218   -10216   -10214   -10214   -10215 
  -10216   -10218   -10218   -10216   -10215   -10216   -10218   -10215 
  -10214   -10216   -10218   -10216   -10215   -10215   -10215   -10215 
  -10216   -10216   -10214   -10212   -10215   -10215   -10215   -10216 
  -10218   -10218   -10216   -10215   -10215   -10215   -10215   -10218 
  -10219   -10218   -10215   -10216   -10216   -10215   -10214   -10216 
  -10216   -10214   -10215   -10218   -10215   -10215   -10216   -10215 
  -10216   -10216   -10215   -10218   -10218   -10215   -10215   -10216 
  -10218   -10216   -10216   -10216   -10216   -10215   -10215   -10215 
  -10215   -10216   -10216   -10216   -10218   -10216   -10216   -10218 
  -10216   -10216   -10216   -10216   -10215   -10216   -10215   -10214 
  -10214   -10214   -10214   -10216   -10215   -10214   -10215   -10216 
  -10215   -10216   -10218   -10216   -10216   -10216   -10218   -10216 
  -10215   -10216   -10218   -10215   -10215   -10216   -10218   -10218 
  -10215   -10214   -10215   -10216   -10216   -10216   -10215   -10215 
  -10215   -10214   -10214   -10218   -10216   -10214   -10218   -10219 
  -10215   -10214   -10216   -10215   -10214   -10218   -10218   -10214 
  -10215   -10218   -10218   -10218   -10218   -10218   -10216   -10215 
  -10214   -10215   -10216   -10215   -10215   -10218   -10218   -10216 
  -10215   -10215   -10216   -10218   -10216   -10216   -10216   -10218 
  -10218   -10216   -10218   -10216   -10216   -10216   -10215   -10216 
  -10219   -10218   -10216   -10219   -10216   -10215   -10218   -10218 
  -10218   -10218   -10215   -10215   -10218   -10218   -10216   -10215 
  -10214   -10216   -10219   -10219   -10219   -10218   -10215   -10215 
  -10216   -10216   -10216   -10215   -10215   -10218   -10218   -10218 
  -10219   -10218   -10216   -10218   -10216   -10216   -10218   -10218 
  -10218   -10214   -10212   -10216   -10218   -10216   -10215   -10216 
  -10216   -10215   -10215   -10218   -10218   -10215   -10215   -10216 
  -10218   -10216   -10214   -10214   -10218   -10219   -10216   -10215 
  -10218   -10216   -10212   -10215   -10218   -10216   -10215   -10216 
  -10215   -10215   -10218   -10218   -10215   -10216   -10218   -10215 
  -10214   -10215   -10216   -10216   -10215   -10216   -10219   -10216 
  -10214   -10218   -10219   -10215   -10214   -10215   -10218   -10216 
  -10216   -10216   -10216   -10216   -10216   -10216   -10216   -10218 
  -10216   -10215   -10216   -10218   -10216   -10215   -10218   -10216 
  -10214   -10216   -10216   -10212   -10215   -10218   -10218   -10216 
  -10218   -10216   -10216   -10218   -10219   -10216   -10215   -10216 
  -10218   -10220   -10220   -10215   -10212   -10215   -10215   -10216 
  -10216   -10215   -10215   -10216   -10219   -10218   -10214   -10216 
  -10216   -10216   -10216   -10215   -10215   -10218   -10218   -10216 
  -10216   -10215   -10216   -10218   -10216   -10216   -10216   -10216 
  -10216   -10218   -10218   -10216   -10216   -10216   -10216   -10216 
  -10216   -10219   -10219   -10216   -10218   -10218   -10216   -10218 
  -10216   -10215   -10215   -10218   -10218   -10216   -10216   -10218 
  -10216   -10215   -10216   -10218   -10218   -10215   -10216   -10219 
  -10218   -10218   -10218   -10215   -10215   -10216   -10218   -10215 
  -10215   -10218   -10216   -10215   -10215   -10215   -10218   -10218 
  -10218   -10218   -10218   -10216   -10216   -10218   -10216   -10215 
  -10216   -10216   -10216   -10220   -10227   -10237   -10251   -10260 
  -10249   -10216   -10181   -10162   -10158   -10169   -10214   -10270 
  -10269   -10204   -10172   -10208   -10226   -10165   -10122   -10208 
  -10355   -10376   -10222   -10076   -10088   -10200   -10299   -10324 
  -10254   -10158   -10134   -10191   -10247   -10222   -10180   -10231 
  -10284   -10226   -10157   -10224   -10342   -10295   -10127   -10081 
  -10185   -10251   -10207   -10187   -10280   -10353   -10255   -10081 
  -10065   -10210   -10270   -10185   -10174   -10363   -10563   -10517 
  -10204    -9826    -9651    -9873   -10393   -10759   -10590   -10093 
   -9846   -10027   -10265   -10270   -10210   -10268   -10331   -10324 
  -10309   -10241   -10107   -10065   -10210   -10381   -10274    -9991 
  -10006   -10289   -10397   -10292   -10215   -10199   -10149   -10118 
  -10184   -10241   -10223   -10281   -10428   -10380   -10107    -9976 
  -10131   -10297   -10212   -10083   -10185   -10353   -10377   -10285 
  -10164   -10108   -10141   -10219   -10265   -10239   -10245   -10293 
  -10231   -10084   -10083   -10250   -10314   -10200   -10137   -10199 
  -10245   -10207   -10193   -10291   -10315   -10180   -10149   -10255 
  -10258   -10141   -10088   -10199   -10351   -10392   -10316   -10177 
  -10026   -10017   -10230   -10427   -10363   -10181   -10119   -10192 
  -10254   -10222   -10170   -10149   -10201   -10372   -10436   -10231 
  -10025   -10042   -10150   -10177   -10216   -10400   -10519   -10288 
   -9921    -9888   -10172   -10336   -10238   -10120   -10216   -10423 
  -10407   -10146   -10003   -10158   -10362   -10324   -10156   -10143 
  -10266   -10280   -10125   -10052   -10216   -10332   -10235   -10219 
  -10359   -10346   -10127   -10004   -10115   -10249   -10241   -10243 
  -10350   -10373   -10207   -10083   -10158   -10188   -10065   -10079 
  -10312   -10478   -10349   -10085   -10056   -10219   -10246   -10134 
  -10157   -10326   -10327   -10141   -10088   -10218   -10330   -10318 
  -10234   -10185   -10131   -10069   -10156   -10314   -10339   -10303 
  -10312   -10245   -10068   -10064   -10273   -10328   -10201   -10224 
  -10427   -10420   -10057    -9830   -10077   -10395   -10393   -10247 
  -10196   -10203   -10153   -10114   -10235   -10366   -10304   -10226 
  -10258   -10289   -10257   -10157   -10088   -10120   -10131   -10160 
  -10268   -10257   -10130   -10147   -10251   -10181   -10072   -10218 
  -10517   -10631   -10413   -10076    -9888    -9898   -10089   -10365 
  -10493   -10359   -10066    -9917   -10119   -10386   -10304    -9996 
   -9906   -10131   -10430   -10554   -10354   -10069   -10195   -10546 
  -10422    -9913    -9872   -10504   -10770    -9991    -9350   -10071 
  -11099   -10755    -9653    -9605   -10493   -10670    -9837    -9440 
  -10211   -10959   -10574    -9822    -9826   -10297   -10493   -10417 
  -10320   -10177   -10015   -10098   -10392   -10330    -9936    -9914 
  -10250   -10463   -10490   -10442   -10377   -10307   -10316   -10309 
   -9918    -9490    -9922   -10867   -10876    -9875    -9512   -10326 
  -10750    -9925    -9304   -10069   -10978   -10602    -9792    -9887 
  -10436   -10470   -10146   -10168   -10525   -10446    -9863    -9686 
  -10207   -10740   -10686   -10268   -10166   -10343   -10268   -10068 
  -10129   -10219    -9979    -9701    -9915   -10516   -10814   -10461 
   -9960    -9921   -10156   -10154    -9979   -10052   -10323   -10447 
  -10469   -10449   -10295   -10166   -10203   -10334   -10412   -10285 
  -10015    -9948   -10181   -10319   -10183   -10025    -9999   -10133 
  -10343   -10373   -10120    -9945   -10184   -10555   -10616   -10395 
  -10176   -10181   -10270   -10152    -9977    -9940    -9952   -10099 
  -10341   -10335   -10127   -10125   -10397   -10575   -10412   -10187 
  -10262   -10462   -10361    -9976    -9775    -9990   -10312   -10372 
  -10193   -10130   -10292   -10373   -10201    -9998   -10017   -10185 
  -10266   -10215   -10249   -10459   -10498   -10195    -9968   -10120 
  -10419   -10443   -10183   -10116   -10326   -10339   -10096   -10026 
  -10218   -10297   -10125   -10029   -10162   -10254   -10168   -10143 
  -10301   -10385   -10269   -10189   -10249   -10257   -10156   -10071 
  -10123   -10336   -10459   -10291   -10103   -10093   -10115   -10169 
  -10345   -10465   -10277    -9944    -9958   -10318   -10432   -10181 
  -10106   -10358   -10428   -10143   -10056   -10401   -10557   -10164 
   -9778    -9888   -10187   -10193    -9973    -9969   -10341   -10660 
  -10523   -10156   -10018   -10174   -10345   -10297   -10134   -10075 
  -10142   -10216   -10250   -10322   -10419   -10401   -10233   -10030 
  -10008   -10212   -10374   -10347   -10304   -10376   -10395   -10193 
   -9967   -10010   -10210   -10249   -10149   -10165   -10291   -10270 
  -10107   -10088   -10241   -10265   -10129   -10172   -10381   -10354 
  -10123   -10085   -10253   -10323   -10179   -10026   -10126   -10353 
  -10396   -10247   -10108   -10110   -10215   -10285   -10280   -10237 
  -10210   -10233   -10238   -10181   -10142   -10193   -10295   -10341 
  -10268   -10179   -10160   -10152   -10174   -10242   -10251   -10203 
  -10162   -10156   -10188   -10204   -10197   -10231   -10264   -10251 
  -10250   -10237   -10180   -10176   -10266   -10355   -10311   -10125 
  -10025   -10170   -10338   -10265   -10088   -10115   -10305   -10341 
  -10212   -10196   -10324   -10336   -10137   -10017   -10177   -10326 
  -10230   -10131   -10235   -10350   -10258   -10104   -10129   -10253 
  -10280   -10224   -10200   -10197   -10173   -10191   -10295   -10331 
  -10189   -10089   -10183   -10269   -10195   -10131   -10233   -10336 
  -10260   -10125   -10108   -10177   -10235   -10296   -10326   -10243 
  -10134   -10137   -10200   -10242   -10269   -10272   -10235   -10206 
  -10228   -10295   -10331   -10266   -10168   -10152   -10204   -10218 
  -10154   -10126   -10212   -10295   -10258   -10168   -10131   -10145 
  -10145   -10157   -10251   -10336   -10305   -10239   -10247   -10288 
  -10245   -10126   -10083   -10184   -10292   -10268   -10177   -10180 
  -10250   -10241   -10160   -10139   -10226   -10300   -10264   -10207 
  -10223   -10237   -10180   -10141   -10196   -10257   -10230   -10188 
  -10223   -10282   -10277   -10228   -10207   -10191   -10164   -10197 
  -10255   -10212   -10139   -10210   -10339   -10316   -10177   -10142 
  -10251   -10303   -10200   -10099   -10123   -10208   -10255   -10254 
  -10230   -10218   -10246   -10270   -10228   -10166   -10174   -10242 
  -10260   -10204   -10193   -10253   -10249   -10154   -10119   -10189 
  -10235   -10206   -10203   -10273   -10304   -10216   -10134   -10188 
  -10277   -10253   -10177   -10204   -10304   -10312   -10212   -10135 
  -10126   -10145   -10199   -10281   -10319   -10269   -10207   -10207 
  -10234   -10233   -10218   -10201   -10170   -10142   -10149   -10188 
  -10243   -10301   -10324   -10282   -10215   -10165   -10149   -10154 
  -10157   -10179   -10246   -10330   -10350   -10257   -10123   -10080 
  -10152   -10242   -10260   -10226   -10222   -10231   -10216   -10199 
  -10187   -10180   -10206   -10260   -10273   -10227   -10211   -10270 
  -10307   -10254   -10188   -10173   -10158   -10123   -10158   -10260 
  -10281   -10201   -10174   -10245   -10268   -10180   -10126   -10197 
  -10268   -10249   -10216   -10222   -10211   -10158   -10146   -10230 
  -10309   -10282   -10227   -10238   -10255   -10212   -10156   -10172 
  -10242   -10257   -10210   -10206   -10249   -10261   -10241   -10239 
  -10234   -10185   -10146   -10176   -10206   -10176   -10150   -10200 
  -10269   -10268   -10238   -10249   -10250   -10200   -10162   -10180 
  -10193   -10174   -10187   -10246   -10260   -10215   -10220   -10293 
  -10312   -10227   -10149   -10162   -10212   -10234   -10243   -10243 
  -10208   -10152   -10138   -10201   -10284   -10288   -10204   -10145 
  -10183   -10251   -10254   -10201   -10184   -10224   -10246   -10210 
  -10180   -10197   -10223   -10208   -10189   -10222   -10272   -10261 
  -10200   -10195   -10255   -10282   -10231   -10158   -10141   -10185 
  -10227   -10237   -10234   -10216   -10203   -10230   -10280   -10296 
  -10262   -10222   -10206   -10199   -10165   -10120   -10129   -10207 
  -10284   -10297   -10261   -10219   -10201   -10210   -10212   -10181 
  -10142   -10154   -10230   -10289   -10264   -10192   -10170   -10241 
  -10315   -10295   -10208   -10150   -10156   -10179   -10180   -10188 
  -10234   -10276   -10273   -10253   -10258   -10266   -10212   -10111 
  -10071   -10142   -10243   -10301   -10316   -10289   -10226   -10180 
  -10179   -10199   -10212   -10215   -10226   -10234   -10208   -10172 
  -10170   -10204   -10218   -10203   -10208   -10254   -10303   -10308 
  -10255   -10191   -10172   -10187   -10185   -10165   -10174   -10231 
  -10280   -10266   -10226   -10211   -10211   -10192   -10174   -10193 
