Origin Time       2024/04/21 06:19:00
Lat.              34.232
Long.             135.137
Depth. (km)       7
Mag.              2.9
Station Code      WKYH03
Station Lat.      34.1314
Station Long.     135.3244
Station Height(m) 120
Record Time       2024/04/21 06:19:28
Sampling Freq(Hz) 100Hz
Duration Time(s)  120
Dir.              4
Scale Factor      7845(gal)/8223790
Max. Acc. (gal)   3.537
Last Correction   2024/04/21 06:19:28
Memo.             
[...]
   -5560    -5557    -5559    -5560    -5557    -5559    -5559    -5557 
   -5560    -5563    -5559    -5556    -5562    -5564    -5560    -5559 
   -5562    -5559    -5559    -5563    -5557    -5556    -5563    -5560 
   -5556    -5560    -5564    -5560    -5557    -5560    -5563    -5557 
   -5556    -5562    -5563    -5560    -5559    -5562    -5564    -5559 
   -5557    -5563    -5560    -5557    -5560    -5559    -5557    -5559 
   -5559    -5562    -5563    -5559    -5560    -5560    -5557    -5559 
   -5559    -5557    -5564    -5560    -5556    -5563    -5562    -5556 
   -5560    -5560    -5560    -5562    -5559    -5559    -5562    -5557 
   -5556    -5562    -5560    -5562    -5564    -5559    -5560    -5562 
   -5556    -5560    -5564    -5559    -5557    -5560    -5559    -5559 
   -5559    -5559    -5557    -5559    -5563    -5559    -5556    -5560 
   -5560    -5559    -5557    -5559    -5562    -5563    -5557    -5557 
   -5564    -5563    -5560    -5562    -5560    -5557    -5559    -5562 
   -5562    -5560    -5560    -5564    -5562    -5557    -5560    -5562 
   -5562    -5560    -5559    -5560    -5560    -5557    -5556    -5559 
   -5562    -5557    -5556    -5560    -5563    -5560    -5559    -5560 
   -5562    -5560    -5559    -5560    -5557    -5557    -5563    -5560 
   -5556    -5560    -5559    -5557    -5562    -5563    -5557    -5556 
   -5563    -5562    -5557    -5559    -5562    -5559    -5559    -5563 
   -5562    -5559    -5562    -5560    -5560    -5563    -5560    -5560 
   -5562    -5560    -5559    -5560    -5560    -5560    -5557    -5559 
   -5564    -5560    -5556    -5560    -5562    -5560    -5559    -5557 
   -5560    -5562    -5556    -5560    -5564    -5562    -5563    -5563 
   -5557    -5560    -5563    -5559    -5560    -5563    -5560    -5556 
   -5559    -5563    -5560    -5556    -5560    -5560    -5557    -5559 
   -5562    -5562    -5562    -5562    -5562    -5560    -5562    -5562 
   -5560    -5563    -5563    -5559    -5560    -5564    -5560    -5557 
   -5563    -5563    -5559    -5559    -5560    -5560    -5560    -5559 
   -5559    -5559    -5557    -5559    -5559    -5559    -5560    -5559 
   -5559    -5557    -5557    -5563    -5563    -5556    -5559    -5559 
   -5557    -5562    -5562    -5553    -5559    -5560    -5556    -5559 
   -5562    -5557    -5557    -5559    -5557    -5559    -5560    -5557 
   -5559    -5560    -5559    -5559    -5563    -5562    -5557    -5559 
   -5559    -5557    -5559    -5560    -5560    -5562    -5560    -5559 
   -5562    -5560    -5553    -5557    -5562    -5559    -5557    -5560 
   -5562    -5560    -5559    -5562    -5560    -5559    -5560    -5560 
   -5560    -5560    -5559    -5560    -5560    -5556    -5557    -5563 
   -5563    -5560    -5560    -5559    -5557    -5560    -5562    -5560 
   -5560    -5560    -5559    -5559    -5559    -5559    -5559    -5559 
   -5559    -5562    -5557    -5555    -5559    -5560    -5559    -5559 
   -5560    -5560    -5560    -5559    -5560    -5564    -5562    -5556 
   -5560    -5563    -5559    -5560    -5563    -5557    -5556    -5562 
   -5562    -5557    -5559    -5560    -5560    -5560    -5560    -5563 
   -5563    -5562    -5562    -5559    -5556    -5557    -5560    -5559 
   -5557    -5559    -5559    -5559    -5560    -5559    -5556    -5557 
   -5560    -5560    -5560    -5559    -5562    -5564    -5560    -5559 
   -5560    -5557    -5557    -5557    -5559    -5560    -5559    -5557 
   -5559    -5557    -5559    -5560    -5562    -5560    -5559    -5559 
   -5560    -5557    -5556    -5560    -5562    -5560    -5559    -5559 
   -5562    -5562    -5559    -5559    -5560    -5560    -5559    -5557 
   -5559    -5560    -5559    -5560    -5562    -5560    -5559    -5560 
   -5559    -5559    -5560    -5560    -5562    -5560    -5556    -5560 
   -5560    -5556    -5560    -5557    -5555    -5563    -5562    -5555 
   -5559    -5562    -5559    -5559    -5559    -5557    -5560    -5560 
   -5559    -5560    -5560    -5560    -5563    -5560    -5556    -5559 
   -5562    -5557    -5559    -5560    -5560    -5559    -5557    -5556 
   -5563    -5564    -5556    -5557    -5562    -5560    -5556    -5557 
   -5560    -5563    -5562    -5559    -5560    -5560    -5557    -5560 
   -5563    -5560    -5562    -5564    -5560    -5557    -5560    -5562 
   -5559    -5559    -5560    -5562    -5562    -5562    -5562    -5557 
   -5556    -5562    -5563    -5559    -5557    -5560    -5563    -5563 
   -5560    -5560    -5559    -5559    -5560    -5560    -5559    -5559 
   -5562    -5563    -5560    -5560    -5559    -5555    -5559    -5562 
   -5555    -5557    -5564    -5560    -5560    -5563    -5557    -5557 
   -5562    -5559    -5560    -5560    -5557    -5559    -5562    -5560 
   -5557    -5557    -5562    -5560    -5557    -5559    -5557    -5555 
   -5557    -5562    -5560    -5559    -5557    -5559    -5563    -5560 
   -5557    -5562    -5560    -5556    -5557    -5559    -5559    -5559 
   -5556    -5557    -5562    -5560    -5557    -5563    -5562    -5556 
   -5559    -5564    -5562    -5560    -5560    -5557    -5559    -5562 
   -5560    -5560    -5560    -5557    -5557    -5560    -5559    -5556 
   -5560    -5562    -5556    -5559    -5562    -5557    -5559    -5562 
   -5559    -5559    -5562    -5557    -5559    -5564    -5559    -5556 
   -5560    -5560    -5557    -5557    -5563    -5563    -5560    -5559 
   -5560    -5562    -5560    -5560    -5560    -5557    -5559    -5560 
   -5556    -5560    -5564    -5560    -5559    -5560    -5559    -5563 
   -5562    -5557    -5560    -5562    -5559    -5562    -5560    -5556 
   -5559    -5563    -5560    -5559    -5559    -5560    -5562    -5557 
   -5557    -5562    -5557    -5556    -5563    -5563    -5560    -5562 
   -5562    -5560    -5556    -5556    -5560    -5560    -5562    -5563 
   -5560    -5556    -5560    -5562    -5557    -5559    -5562    -5560 
   -5560    -5560    -5560    -5562    -5562    -5559    -5559    -5562 
   -5557    -5557    -5563    -5560    -5557    -5560    -5559    -5557 
   -5560    -5559    -5559    -5562    -5562    -5559    -5556    -5557 
   -5559    -5557    -5557    -5560    -5560    -5560    -5560    -5559 
   -5562    -5560    -5556    -5562    -5564    -5557    -5557    -5562 
   -5559    -5557    -5560    -5562    -5562    -5562    -5559    -5559 
   -5563    -5562    -5559    -5562    -5560    -5555    -5559    -5562 
   -5559    -5559    -5560    -5559    -5563    -5562    -5557    -5560 
   -5560    -5562    -5563    -5560    -5557    -5562    -5563    -5559 
   -5562    -5560    -5557    -5560    -5560    -5559    -5560    -5560 
   -5563    -5559    -5556    -5559    -5562    -5559    -5559    -5562 
   -5562    -5560    -5557    -5556    -5560    -5560    -5559    -5562 
   -5560    -5559    -5562    -5559    -5557    -5562    -5557    -5559 
   -5564    -5559    -5559    -5564    -5560    -5556    -5560    -5559 
   -5556    -5559    -5557    -5560    -5564    -5562    -5559    -5560 
   -5559    -5559    -5560    -5560    -5560    -5562    -5559    -5557 
   -5559    -5559    -5559    -5559    -5559    -5559    -5563    -5559 
   -5555    -5563    -5564    -5557    -5559    -5564    -5562    -5557 
   -5557    -5559    -5560    -5559    -5559    -5562    -5560    -5559 
   -5560    -5562    -5559    -5557    -5560    -5563    -5559    -5557 
   -5559    -5559    -5559    -5560    -5559    -5557    -5560    -5560 
   -5557    -5562    -5560    -5556    -5562    -5563    -5559    -5560 
   -5562    -5556    -5560    -5563    -5556    -5556    -5563    -5560 
   -5559    -5560    -5557    -5560    -5563    -5560    -5560    -5562 
   -5559    -5560    -5563    -5560    -5557    -5562    -5562    -5557 
   -5559    -5560    -5559    -5562    -5563    -5557    -5559    -5563 
   -5560    -5559    -5559    -5560    -5560    -5560    -5560    -5559 
   -5559    -5560    -5560    -5562    -5563    -5562    -5560    -5560 
   -5563    -5562    -5559    -5560    -5563    -5563    -5560    -5557 
   -5559    -5562    -5559    -5560    -5562    -5560    -5559    -5559 
   -5560    -5559    -5557    -5560    -5560    -5559    -5559    -5559 
   -5557    -5559    -5560    -5560    -5557    -5559    -5563    -5562 
   -5560    -5559    -5556    -5559    -5563    -5557    -5559    -5563 
   -5556    -5556    -5562    -5560    -5560    -5562    -5559    -5559 
   -5562    -5560    -5559    -5560    -5560    -5559    -5559    -5560 
   -5560    -5557    -5557    -5559    -5560    -5560    -5557    -5557 
   -5562    -5559    -5557    -5560    -5562    -5560    -5559    -5559 
   -5560    -5560    -5562    -5560    -5557    -5557    -5560    -5557 
   -5557    -5564    -5562    -5556    -5562    -5559    -5556    -5564 
   -5563    -5556    -5560    -5563    -5557    -5559    -5562    -5559 
   -5559    -5563    -5559    -5556    -5563    -5563    -5559    -5559 
   -5560    -5560    -5560    -5559    -5557    -5564    -5563    -5556 
   -5557    -5562    -5559    -5556    -5557    -5559    -5559    -5559 
   -5555    -5555    -5563    -5564    -5555    -5557    -5563    -5557 
   -5557    -5560    -5562    -5560    -5556    -5555    -5562    -5562 
   -5555    -5556    -5559    -5557    -5556    -5557    -5560    -5563 
   -5560    -5557    -5559    -5560    -5559    -5559    -5559    -5560 
   -5560    -5556    -5557    -5562    -5560    -5557    -5560    -5560 
   -5559    -5556    -5556    -5559    -5559    -5555    -5557    -5560 
   -5560    -5559    -5557    -5559    -5562    -5562    -5560    -5560 
   -5562    -5563    -5557    -5559    -5560    -5556    -5560    -5560 
   -5556    -5559    -5560    -5555    -5560    -5564    -5557    -5555 
   -5562    -5560    -5556    -5557    -5557    -5559    -5562    -5563 
   -5559    -5557    -5560    -5563    -5562    -5560    -5557    -5559 
   -5560    -5559    -5555    -5557    -5563    -5560    -5557    -5560 
   -5560    -5556    -5560    -5563    -5562    -5559    -5557    -5560 
   -5559    -5556    -5557    -5559    -5557    -5559    -5559    -5560 
   -5560    -5562    -5563    -5559    -5556    -5560    -5562    -5559 
   -5560    -5560    -5557    -5560    -5562    -5557    -5557    -5559 
   -5560    -5557    -5557    -5562    -5560    -5556    -5559    -5563 
   -5560    -5559    -5560    -5559    -5557    -5560    -5562    -5560 
   -5557    -5557    -5559    -5556    -5559    -5560    -5557    -5557 
   -5562    -5560    -5556    -5557    -5560    -5560    -5559    -5557 
   -5557    -5560    -5560    -5557    -5559    -5560    -5559    -5559 
   -5563    -5562    -5559    -5562    -5562    -5557    -5557    -5557 
   -5559    -5562    -5559    -5557    -5560    -5560    -5560    -5560 
   -5560    -5559    -5557    -5559    -5562    -5560    -5556    -5551 
   -5547    -5545    -5545    -5551    -5567    -5575    -5579    -5584 
   -5574    -5560    -5572    -5567    -5537    -5544    -5551    -5525 
   -5563    -5629    -5568    -5479    -5529    -5609    -5616    -5574 
   -5502    -5487    -5593    -5664    -5580    -5494    -5530    -5563 
   -5567    -5620    -5602    -5516    -5497    -5513    -5594    -5637 
   -5489    -5475    -5621    -5567    -5567    -5695    -5579    -5472 
   -5535    -5522    -5605    -5663    -5414    -5387    -5744    -5769 
   -5400    -5269    -5479    -5692    -5800    -5738    -5440    -5332 
   -5679    -5846    -5571    -5386    -5320    -5312    -5721    -6022 
   -5595    -5193    -5339    -5653    -5933    -5806    -5238    -5081 
   -5532    -5914    -5830    -5512    -5435    -5540    -5630    -5711 
   -5490    -5197    -5425    -5744    -5714    -5640    -5514    -5368 
   -5570    -5848    -5657    -5266    -5313    -5692    -5838    -5670 
   -5416    -5319    -5556    -5787    -5686    -5470    -5283    -5320 
   -5722    -5930    -5622    -5375    -5497    -5629    -5594    -5589 
   -5586    -5422    -5391    -5644    -5790    -5660    -5416    -5292 
   -5483    -5795    -5779    -5455    -5393    -5657    -5686    -5510 
   -5452    -5356    -5458    -5883    -5845    -5352    -5298    -5655 
   -5841    -5676    -5346    -5247    -5490    -5761    -5745    -5468 
   -5391    -5629    -5746    -5656    -5464    -5316    -5475    -5625 
   -5549    -5624    -5697    -5549    -5524    -5638    -5652    -5557 
   -5420    -5482    -5751    -5714    -5346    -5193    -5485    -5898 
   -5856    -5368    -5246    -5655    -5840    -5611    -5424    -5390 
   -5464    -5697    -5784    -5552    -5458    -5611    -5618    -5459 
   -5413    -5607    -5776    -5636    -5328    -5220    -5547    -5892 
   -5740    -5494    -5499    -5454    -5517    -5829    -5788    -5352 
   -5185    -5449    -5792    -5845    -5572    -5393    -5510    -5636 
   -5553    -5456    -5541    -5551    -5448    -5584    -5768    -5722 
   -5582    -5379    -5381    -5701    -5664    -5354    -5540    -5848 
   -5610    -5247    -5306    -5564    -5752    -5857    -5629    -5290 
   -5533    -5950    -5680    -5088    -5046    -5609    -6100    -5921 
   -5302    -5150    -5679    -6010    -5691    -5364    -5513    -5787 
   -5822    -5575    -5108    -4957    -5375    -5684    -5682    -5717 
   -5603    -5316    -5256    -5503    -5915    -6043    -5543    -5121 
   -5530    -6222    -6255    -5591    -4880    -4811    -5440    -5729 
   -5185    -5054    -5863    -6297    -5918    -5691    -5800    -5825 
   -5840    -5667    -5188    -4914    -4770    -4568    -5134    -6739 
   -7572    -5784    -3391    -4410    -7857    -8356    -4656    -1852 
   -3928    -8060    -8495    -4557    -1983    -4598    -8537    -8405 
   -4873    -2906    -4774    -7242    -6793    -4774    -4118    -5080 
   -6504    -6951    -5630    -4230    -4679    -6134    -6748    -6134 
   -4823    -3915    -4671    -6439    -6879    -5340    -4306    -5672 
   -7449    -6840    -4577    -3761    -5282    -6872    -6600    -5177 
   -4537    -4966    -5405    -5888    -6431    -5778    -4494    -5050 
   -6779    -6678    -4866    -3828    -4838    -6714    -7003    -5760 
   -5147    -5482    -5572    -5023    -4858    -5768    -6304    -5466 
   -4865    -5506    -6246    -6443    -5825    -4306    -3960    -5898 
   -7334    -6200    -4348    -4153    -5574    -6976    -6799    -5252 
   -4565    -5583    -6064    -4939    -4425    -5599    -6767    -6806 
   -6007    -5004    -4739    -5487    -5972    -5166    -4391    -5278 
   -6671    -6647    -5444    -4579    -4973    -5925    -6076    -5713 
   -5765    -5714    -5274    -5154    -5269    -5286    -5445    -5462 
   -5354    -5896    -6312    -5622    -5239    -5832    -6027    -5607 
   -5273    -5293    -5765    -5908    -5252    -4969    -5580    -6035 
   -5744    -5221    -5081    -5458    -5935    -5910    -5410    -5223 
   -5678    -5964    -5718    -5566    -5466    -5231    -5310    -5525 
   -5603    -5911    -5975    -5219    -4837    -5630    -6284    -5854 
   -5104    -4995    -5618    -6112    -5859    -5421    -5410    -5657 
   -5715    -5472    -5275    -5331    -5470    -5557    -5590    -5590 
   -5521    -5377    -5400    -5738    -6041    -5906    -5633    -5616 
   -5512    -5325    -5352    -5221    -5136    -5659    -6134    -5940 
   -5437    -5130    -5375    -5914    -5903    -5387    -5317    -5806 
   -5848    -5189    -4882    -5497    -6188    -6039    -5355    -5111 
   -5564    -5961    -5779    -5455    -5367    -5459    -5617    -5532 
   -5251    -5356    -5868    -6022    -5618    -5386    -5502    -5489 
   -5417    -5513    -5557    -5540    -5630    -5628    -5518    -5556 
   -5607    -5536    -5547    -5664    -5737    -5792    -5729    -5355 
   -5055    -5343    -5888    -5913    -5389    -5092    -5332    -5670 
   -5860    -5922    -5761    -5460    -5352    -5487    -5530    -5389 
   -5363    -5580    -5859    -5937    -5610    -5121    -5104    -5603 
   -5868    -5574    -5354    -5616    -5802    -5528    -5371    -5617 
   -5697    -5471    -5420    -5622    -5751    -5702    -5553    -5439 
   -5618    -5869    -5617    -5181    -5263    -5576    -5589    -5572 
   -5771    -5809    -5575    -5393    -5363    -5474    -5663    -5664 
   -5479    -5409    -5510    -5594    -5551    -5526    -5647    -5755 
   -5711    -5624    -5641    -5659    -5495    -5304    -5310    -5498 
   -5748    -5850    -5634    -5321    -5271    -5458    -5595    -5632 
   -5702    -5695    -5451    -5310    -5594    -5840    -5647    -5455 
   -5590    -5714    -5626    -5524    -5449    -5337    -5387    -5616 
   -5675    -5590    -5549    -5476    -5513    -5670    -5609    -5489 
   -5638    -5834    -5759    -5447    -5282    -5443    -5552    -5464 
   -5471    -5578    -5630    -5671    -5652    -5517    -5489    -5606 
   -5599    -5425    -5366    -5598    -5819    -5742    -5563    -5447 
   -5435    -5586    -5668    -5494    -5378    -5530    -5684    -5663 
   -5587    -5564    -5616    -5633    -5509    -5412    -5494    -5614 
   -5629    -5601    -5622    -5570    -5386    -5391    -5603    -5599 
   -5462    -5572    -5744    -5672    -5526    -5553    -5660    -5535 
   -5235    -5250    -5641    -5861    -5679    -5441    -5478    -5701 
   -5749    -5505    -5306    -5429    -5722    -5846    -5678    -5454 
   -5440    -5578    -5637    -5530    -5431    -5532    -5640    -5510 
   -5366    -5494    -5695    -5675    -5536    -5489    -5549    -5661 
   -5687    -5530    -5441    -5594    -5714    -5613    -5451    -5410 
   -5506    -5613    -5628    -5559    -5506    -5560    -5603    -5502 
   -5431    -5540    -5711    -5795    -5680    -5428    -5350    -5502 
   -5605    -5589    -5564    -5553    -5590    -5657    -5602    -5458 
   -5432    -5560    -5657    -5591    -5508    -5566    -5640    -5601 
   -5485    -5398    -5475    -5656    -5701    -5611    -5539    -5510 
   -5529    -5568    -5545    -5494    -5506    -5624    -5761    -5695 
   -5468    -5429    -5559    -5541    -5439    -5470    -5616    -5755 
   -5767    -5580    -5346    -5366    -5607    -5729    -5663    -5562 
   -5487    -5483    -5533    -5533    -5491    -5512    -5601    -5652 
   -5618    -5579    -5568    -5532    -5514    -5571    -5591    -5506 
   -5458    -5502    -5555    -5593    -5618    -5591    -5505    -5462 
   -5553    -5637    -5598    -5579    -5653    -5676    -5578    -5472 
   -5460    -5472    -5474    -5540    -5636    -5660    -5633    -5601 
   -5563    -5540    -5556    -5575    -5547    -5495    -5449    -5452 
   -5551    -5649    -5641    -5580    -5551    -5555    -5579    -5605 
   -5583    -5516    -5529    -5647    -5651    -5497    -5404    -5463 
   -5580    -5671    -5660    -5556    -5485    -5516    -5587    -5576 
   -5478    -5474    -5614    -5710    -5680    -5603    -5540    -5517 
   -5478    -5424    -5487    -5643    -5667    -5533    -5476    -5576 
   -5686    -5694    -5584    -5460    -5463    -5510    -5499    -5521 
   -5559    -5574    -5643    -5691    -5607    -5510    -5498    -5545 
   -5607    -5607    -5512    -5447    -5517    -5613    -5603    -5562 
   -5590    -5632    -5618    -5572    -5505    -5431    -5451    -5572 
   -5626    -5548    -5522    -5645    -5717    -5606    -5479    -5491 
   -5586    -5610    -5489    -5368    -5448    -5649    -5701    -5556 
   -5479    -5591    -5679    -5595    -5466    -5464    -5593    -5657 
