Origin Time       2024/04/02 04:24:00
Lat.              40.133
Long.             141.712
Depth. (km)       71
Mag.              6.0
Station Code      ABSH07
Station Lat.      43.8494
Station Long.     143.0861
Station Height(m) 699
Record Time       2024/04/02 04:26:25
Sampling Freq(Hz) 100Hz
Duration Time(s)  120
Dir.              6
Scale Factor      7845(gal)/8223790
Max. Acc. (gal)   0.684
Last Correction   2024/04/02 04:26:25
Memo.             
[...]
   -2515    -2455    -2392    -2374    -2412    -2477    -2531    -2548 
   -2523    -2459    -2386    -2351    -2376    -2435    -2497    -2547 
   -2577    -2585    -2570    -2536    -2502    -2477    -2448    -2419 
   -2405    -2405    -2404    -2386    -2371    -2389    -2455    -2531 
   -2567    -2542    -2459    -2358    -2301    -2316    -2385    -2475 
   -2552    -2586    -2578    -2546    -2524    -2536    -2574    -2612 
   -2628    -2620    -2604    -2596    -2598    -2605    -2598    -2579 
   -2551    -2516    -2497    -2511    -2556    -2609    -2619    -2556 
   -2462    -2385    -2340    -2340    -2384    -2450    -2512    -2543 
   -2544    -2543    -2552    -2558    -2560    -2566    -2570    -2582 
   -2593    -2554    -2458    -2378    -2354    -2386    -2466    -2571 
   -2667    -2721    -2717    -2681    -2637    -2574    -2485    -2400 
   -2355    -2359    -2400    -2459    -2517    -2565    -2596    -2593 
   -2559    -2532    -2538    -2558    -2573    -2579    -2570    -2544 
   -2519    -2505    -2516    -2555    -2601    -2624    -2604    -2566 
   -2551    -2547    -2533    -2501    -2455    -2420    -2423    -2469 
   -2540    -2613    -2664    -2668    -2614    -2529    -2450    -2394 
   -2371    -2386    -2443    -2511    -2559    -2567    -2533    -2478 
   -2432    -2417    -2423    -2431    -2447    -2481    -2519    -2543 
   -2527    -2471    -2428    -2428    -2435    -2425    -2420    -2446 
   -2505    -2558    -2559    -2508    -2436    -2369    -2312    -2272 
   -2273    -2334    -2432    -2519    -2565    -2573    -2552    -2520 
   -2497    -2505    -2567    -2659    -2705    -2664    -2578    -2512 
   -2496    -2511    -2520    -2508    -2494    -2489    -2486    -2479 
   -2479    -2515    -2573    -2604    -2587    -2547    -2513    -2512 
   -2540    -2562    -2556    -2532    -2505    -2481    -2462    -2469 
   -2492    -2502    -2502    -2524    -2575    -2623    -2628    -2587 
   -2531    -2481    -2431    -2374    -2326    -2311    -2336    -2386 
   -2442    -2504    -2548    -2544    -2505    -2477    -2479    -2504 
   -2527    -2540    -2550    -2550    -2524    -2473    -2428    -2405 
   -2400    -2408    -2438    -2479    -2513    -2505    -2450    -2394 
   -2397    -2458    -2529    -2574    -2592    -2574    -2524    -2482 
   -2477    -2488    -2508    -2540    -2571    -2600    -2637    -2678 
   -2690    -2654    -2570    -2467    -2396    -2370    -2365    -2365 
   -2396    -2457    -2517    -2560    -2579    -2587    -2594    -2596 
   -2601    -2616    -2623    -2598    -2544    -2489    -2475    -2523 
   -2590    -2621    -2608    -2582    -2558    -2520    -2482    -2489 
   -2552    -2621    -2636    -2592    -2523    -2461    -2420    -2403 
   -2404    -2430    -2478    -2532    -2582    -2628    -2650    -2620 
   -2567    -2533    -2516    -2508    -2515    -2538    -2560    -2563 
   -2562    -2566    -2563    -2547    -2509    -2454    -2419    -2417 
   -2424    -2446    -2496    -2563    -2598    -2566    -2488    -2432 
   -2451    -2529    -2617    -2671    -2671    -2601    -2477    -2365 
   -2332    -2385    -2462    -2502    -2500    -2481    -2470    -2477 
   -2482    -2469    -2431    -2369    -2308    -2293    -2334    -2417 
   -2508    -2540    -2506    -2463    -2454    -2482    -2524    -2527 
   -2470    -2412    -2400    -2425    -2470    -2523    -2575    -2606 
   -2609    -2606    -2633    -2694    -2745    -2727    -2621    -2482 
   -2389    -2361    -2371    -2413    -2479    -2539    -2563    -2566 
   -2565    -2560    -2556    -2535    -2506    -2501    -2520    -2548 
   -2563    -2556    -2547    -2544    -2529    -2511    -2519    -2551 
   -2563    -2535    -2500    -2504    -2539    -2556    -2539    -2519 
   -2512    -2492    -2439    -2384    -2374    -2421    -2490    -2529 
   -2540    -2552    -2551    -2494    -2396    -2316    -2288    -2307 
   -2367    -2447    -2508    -2524    -2493    -2438    -2390    -2362 
   -2357    -2373    -2394    -2411    -2423    -2440    -2484    -2548 
   -2586    -2573    -2531    -2490    -2473    -2496    -2542    -2582 
   -2600    -2579    -2517    -2450    -2432    -2486    -2579    -2658 
   -2694    -2674    -2590    -2467    -2369    -2349    -2400    -2473 
   -2529    -2569    -2592    -2597    -2573    -2523    -2477    -2465 
   -2490    -2520    -2524    -2515    -2512    -2523    -2536    -2552 
   -2571    -2593    -2601    -2593    -2593    -2614    -2646    -2656 
   -2636    -2592    -2540    -2497    -2466    -2455    -2477    -2516 
   -2542    -2542    -2529    -2523    -2501    -2466    -2450    -2462 
   -2486    -2500    -2492    -2473    -2459    -2466    -2506    -2571 
   -2631    -2659    -2632    -2555    -2473    -2434    -2458    -2538 
   -2623    -2666    -2671    -2671    -2683    -2695    -2675    -2627 
   -2569    -2504    -2436    -2380    -2336    -2312    -2312    -2330 
   -2366    -2423    -2500    -2574    -2612    -2619    -2602    -2543 
   -2462    -2401    -2382    -2417    -2469    -2474    -2448    -2452 
   -2504    -2577    -2625    -2620    -2569    -2501    -2450    -2434 
   -2459    -2505    -2527    -2508    -2479    -2486    -2542    -2594 
   -2574    -2477    -2351    -2274    -2296    -2385    -2470    -2511 
   -2496    -2461    -2447    -2467    -2525    -2600    -2632    -2613 
   -2586    -2586    -2619    -2654    -2652    -2627    -2596    -2569 
   -2559    -2573    -2586    -2570    -2513    -2431    -2354    -2307 
   -2297    -2324    -2374    -2417    -2424    -2390    -2343    -2311 
   -2308    -2350    -2434    -2523    -2567    -2538    -2479    -2458 
   -2481    -2527    -2552    -2539    -2521    -2548    -2616    -2667 
   -2667    -2628    -2574    -2516    -2479    -2498    -2566    -2635 
   -2670    -2664    -2640    -2612    -2573    -2525    -2501    -2515 
   -2547    -2569    -2554    -2496    -2419    -2363    -2347    -2362 
   -2392    -2420    -2444    -2478    -2531    -2579    -2596    -2583 
   -2570    -2562    -2547    -2515    -2470    -2424    -2386    -2359 
   -2354    -2384    -2446    -2504    -2524    -2511    -2485    -2457 
   -2435    -2438    -2463    -2511    -2571    -2602    -2579    -2529 
   -2475    -2430    -2407    -2416    -2451    -2493    -2535    -2575 
   -2604    -2592    -2533    -2454    -2392    -2392    -2471    -2593 
   -2695    -2741    -2728    -2687    -2659    -2655    -2648    -2614 
   -2554    -2493    -2463    -2471    -2505    -2550    -2575    -2560 
   -2531    -2527    -2546    -2560    -2565    -2567    -2579    -2598 
   -2612    -2602    -2579    -2578    -2586    -2563    -2506    -2447 
   -2415    -2427    -2466    -2505    -2519    -2494    -2440    -2386 
   -2349    -2335    -2334    -2332    -2344    -2366    -2380    -2398 
   -2439    -2494    -2556    -2602    -2606    -2578    -2554    -2555 
   -2563    -2547    -2511    -2471    -2431    -2398    -2389    -2408 
   -2431    -2448    -2485    -2554    -2624    -2640    -2589    -2493 
   -2411    -2386    -2409    -2454    -2513    -2577    -2617    -2612 
   -2566    -2515    -2492    -2497    -2516    -2520    -2501    -2485 
   -2500    -2546    -2598    -2616    -2574    -2505    -2481    -2529 
   -2624    -2705    -2724    -2664    -2543    -2413    -2343    -2363 
   -2459    -2575    -2660    -2674    -2610    -2523    -2459    -2425 
   -2417    -2431    -2452    -2482    -2519    -2531    -2505    -2466 
   -2450    -2473    -2525    -2589    -2647    -2662    -2613    -2523 
   -2450    -2438    -2466    -2488    -2482    -2454    -2417    -2398 
   -2412    -2454    -2509    -2555    -2569    -2546    -2504    -2482 
   -2517    -2597    -2666    -2659    -2559    -2436    -2380    -2407 
   -2465    -2506    -2513    -2486    -2448    -2439    -2473    -2517 
   -2536    -2525    -2498    -2465    -2421    -2366    -2315    -2282 
   -2295    -2351    -2421    -2496    -2573    -2628    -2625    -2566 
   -2497    -2466    -2486    -2544    -2613    -2654    -2640    -2578 
   -2509    -2478    -2489    -2509    -2493    -2439    -2396    -2409 
   -2455    -2482    -2474    -2436    -2416    -2452    -2525    -2587 
   -2610    -2594    -2556    -2509    -2467    -2446    -2452    -2477 
   -2504    -2524    -2543    -2565    -2587    -2601    -2596    -2582 
   -2565    -2516    -2442    -2390    -2408    -2478    -2535    -2536 
   -2502    -2469    -2452    -2447    -2457    -2500    -2563    -2598 
   -2585    -2550    -2523    -2513    -2515    -2515    -2508    -2496 
   -2486    -2482    -2496    -2535    -2585    -2616    -2616    -2604 
   -2624    -2685    -2743    -2754    -2714    -2650    -2593    -2551 
   -2502    -2446    -2412    -2421    -2450    -2461    -2450    -2439 
   -2430    -2412    -2408    -2432    -2474    -2519    -2566    -2621 
   -2678    -2709    -2679    -2600    -2527    -2494    -2477    -2444 
   -2401    -2371    -2363    -2388    -2446    -2509    -2552    -2574 
   -2562    -2505    -2416    -2336    -2293    -2286    -2315    -2378 
   -2459    -2525    -2560    -2567    -2563    -2558    -2546    -2513 
   -2459    -2420    -2436    -2488    -2502    -2446    -2355    -2300 
   -2320    -2384    -2446    -2494    -2536    -2577    -2608    -2621 
   -2637    -2650    -2617    -2547    -2494    -2486    -2497    -2496 
   -2458    -2408    -2389    -2405    -2425    -2438    -2459    -2498 
   -2527    -2508    -2444    -2397    -2411    -2466    -2532    -2587 
   -2629    -2663    -2681    -2668    -2631    -2583    -2543    -2515 
   -2500    -2492    -2478    -2458    -2442    -2431    -2427    -2430 
   -2446    -2473    -2512    -2573    -2646    -2694    -2698    -2673 
   -2636    -2605    -2596    -2602    -2620    -2643    -2667    -2694 
   -2713    -2709    -2695    -2689    -2668    -2598    -2490    -2404 
   -2388    -2428    -2478    -2494    -2469    -2432    -2428    -2482 
   -2575    -2650    -2652    -2575    -2452    -2353    -2307    -2288 
   -2274    -2299    -2393    -2551    -2705    -2775    -2732    -2610 
   -2490    -2421    -2394    -2404    -2452    -2531    -2606    -2623 
   -2535    -2394    -2300    -2300    -2382    -2502    -2612    -2674 
   -2682    -2639    -2540    -2393    -2239    -2133    -2122    -2201 
   -2324    -2432    -2506    -2594    -2724    -2826    -2835    -2748 
   -2586    -2388    -2211    -2118    -2137    -2230    -2326    -2396 
   -2451    -2504    -2529    -2508    -2452    -2424    -2461    -2550 
   -2641    -2674    -2605    -2450    -2289    -2216    -2285    -2470 
   -2671    -2797    -2825    -2803    -2778    -2748    -2689    -2597 
   -2508    -2452    -2409    -2369    -2369    -2438    -2540    -2617 
   -2639    -2609    -2565    -2542    -2542    -2546    -2542    -2548 
   -2573    -2593    -2574    -2523    -2492    -2502    -2521    -2506 
   -2473    -2450    -2423    -2363    -2290    -2250    -2273    -2357 
   -2481    -2604    -2671    -2654    -2552    -2420    -2334    -2344 
   -2457    -2612    -2709    -2689    -2574    -2444    -2381    -2409 
   -2493    -2582    -2620    -2597    -2559    -2548    -2604    -2714 
   -2793    -2760    -2628    -2471    -2370    -2338    -2366    -2450 
   -2554    -2631    -2675    -2687    -2650    -2574    -2488    -2411 
   -2351    -2332    -2377    -2469    -2555    -2574    -2520    -2452 
   -2436    -2485    -2543    -2552    -2501    -2421    -2339    -2286 
   -2300    -2381    -2496    -2589    -2621    -2610    -2593    -2577 
   -2556    -2535    -2525    -2531    -2556    -2583    -2571    -2494 
   -2385    -2315    -2330    -2403    -2486    -2562    -2614    -2613 
   -2548    -2466    -2436    -2489    -2593    -2682    -2709    -2686 
   -2644    -2605    -2555    -2479    -2412    -2405    -2463    -2547 
   -2628    -2693    -2713    -2664    -2563    -2463    -2420    -2457 
   -2535    -2590    -2594    -2548    -2484    -2459    -2508    -2573 
   -2566    -2488    -2428    -2459    -2574    -2687    -2693    -2569 
   -2401    -2288    -2280    -2355    -2440    -2485    -2490    -2481 
   -2497    -2536    -2552    -2539    -2517    -2469    -2384    -2308 
   -2297    -2367    -2454    -2485    -2462    -2431    -2435    -2485 
   -2532    -2528    -2469    -2396    -2355    -2367    -2424    -2525 
   -2677    -2843    -2940    -2895    -2710    -2477    -2307    -2261 
   -2335    -2463    -2567    -2610    -2578    -2469    -2343    -2274 
   -2277    -2335    -2431    -2544    -2650    -2725    -2748    -2709 
   -2640    -2570    -2474    -2351    -2259    -2246    -2296    -2340 
   -2358    -2394    -2485    -2600    -2694    -2745    -2756    -2745 
   -2727    -2702    -2675    -2660    -2662    -2637    -2528    -2374 
   -2300    -2377    -2551    -2695    -2712    -2597    -2448    -2370 
   -2386    -2462    -2538    -2569    -2586    -2640    -2737    -2847 
   -2891    -2802    -2613    -2423    -2324    -2354    -2463    -2538 
   -2484    -2301    -2097    -1993    -2042    -2205    -2397    -2571 
   -2732    -2848    -2871    -2787    -2621    -2415    -2227    -2120 
   -2128    -2242    -2393    -2496    -2511    -2443    -2353    -2319 
   -2380    -2497    -2600    -2633    -2613    -2575    -2528    -2469 
   -2408    -2370    -2378    -2421    -2471    -2513    -2506    -2435 
   -2358    -2338    -2385    -2467    -2555    -2624    -2662    -2660 
   -2592    -2450    -2297    -2222    -2246    -2334    -2474    -2698 
   -2972    -3177    -3226    -3118    -2909    -2671    -2484    -2396 
   -2380    -2378    -2381    -2411    -2463    -2515    -2543    -2533 
   -2501    -2492    -2550    -2667    -2799    -2895    -2926    -2901 
   -2828    -2710    -2547    -2340    -2131    -2011    -2049    -2218 
   -2428    -2606    -2709    -2721    -2663    -2567    -2448    -2346 
   -2311    -2344    -2400    -2443    -2484    -2529    -2565    -2577 
   -2560    -2506    -2428    -2350    -2289    -2251    -2236    -2247 
   -2293    -2385    -2504    -2604    -2651    -2613    -2496    -2371 
   -2319    -2370    -2504    -2660    -2779    -2808    -2735    -2608 
   -2481    -2384    -2326    -2323    -2365    -2420    -2482    -2550 
   -2593    -2593    -2570    -2550    -2533    -2509    -2469    -2415 
   -2388    -2421    -2490    -2547    -2570    -2556    -2502    -2411 
   -2315    -2257    -2238    -2246    -2276    -2330    -2452    -2660 
   -2886    -3017    -2961    -2736    -2461    -2253    -2154    -2142 
   -2157    -2180    -2250    -2388    -2554    -2694    -2783    -2809 
   -2754    -2631    -2524    -2506    -2547    -2551    -2482    -2386 
   -2334    -2359    -2428    -2475    -2458    -2411    -2407    -2481 
   -2596    -2705    -2786    -2839    -2839    -2763    -2623    -2463 
   -2336    -2290    -2349    -2473    -2575    -2612    -2612    -2596 
   -2558    -2515    -2506    -2563    -2679    -2786    -2785    -2652 
   -2473    -2346    -2320    -2377    -2455    -2493    -2486    -2458 
   -2416    -2394    -2421    -2490    -2581    -2660    -2667    -2569 
   -2448    -2409    -2462    -2556    -2636    -2667    -2652    -2596 
   -2496    -2382    -2300    -2307    -2438    -2633    -2786    -2847 
   -2826    -2752    -2664    -2592    -2539    -2500    -2475    -2467 
   -2482    -2498    -2494    -2481    -2502    -2554    -2596    -2621 
   -2625    -2569    -2457    -2331    -2222    -2162    -2181    -2258 
   -2336    -2374    -2396    -2447    -2517    -2587    -2673    -2767 
   -2826    -2799    -2655    -2425    -2223    -2153    -2235    -2412 
   -2586    -2700    -2764    -2783    -2729    -2593    -2438    -2335 
   -2312    -2358    -2466    -2612    -2743    -2816    -2822    -2791 
   -2766    -2737    -2662    -2523    -2355    -2215    -2161    -2216 
   -2332    -2430    -2461    -2442    -2443    -2488    -2543    -2566 
   -2559    -2550    -2552    -2567    -2578    -2558    -2489    -2413 
   -2384    -2413    -2477    -2519    -2489    -2388    -2268    -2197 
   -2219    -2312    -2432    -2536    -2585    -2559    -2493    -2451 
   -2467    -2525    -2575    -2583    -2574    -2551    -2497    -2413 
   -2330    -2280    -2284    -2331    -2388    -2434    -2488    -2573 
   -2674    -2749    -2771    -2729    -2631    -2520    -2455    -2465 
   -2544    -2639    -2659    -2566    -2403    -2249    -2164    -2168 
   -2242    -2347    -2428    -2461    -2466    -2474    -2500    -2546 
   -2606    -2673    -2739    -2794    -2826    -2826    -2787    -2717 
   -2616    -2489    -2367    -2289    -2273    -2320    -2408    -2502 
   -2578    -2609    -2579    -2486    -2355    -2262    -2276    -2388 
   -2515    -2581    -2578    -2531    -2467    -2436    -2474    -2578 
   -2716    -2833    -2886    -2859    -2778    -2683    -2604    -2554 
   -2538    -2527    -2469    -2376    -2305    -2308    -2403    -2543 
   -2679    -2791    -2857    -2867    -2847    -2798    -2718    -2629 
   -2569    -2560    -2600    -2652    -2697    -2717    -2685    -2583 
   -2440    -2309    -2253    -2319    -2471    -2610    -2664    -2609 
   -2471    -2330    -2247    -2251    -2340    -2474    -2608    -2706 
   -2741    -2694    -2589    -2477    -2393    -2344    -2315    -2285 
   -2266    -2262    -2259    -2266    -2323    -2451    -2593    -2658 
   -2620    -2502    -2359    -2253    -2214    -2235    -2285    -2330 
   -2363    -2390    -2421    -2485    -2571    -2636    -2670    -2679 
   -2658    -2593    -2497    -2411    -2347    -2308    -2312    -2362 
   -2421    -2458    -2471    -2467    -2463    -2470    -2493    -2547 
   -2659    -2801    -2876    -2824    -2673    -2490    -2351    -2307 
   -2346    -2428    -2527    -2610    -2641    -2616    -2567    -2529 
   -2500    -2478    -2490    -2556    -2644    -2697    -2685    -2619 
   -2519    -2412    -2317    -2261    -2268    -2323    -2382    -2435 
   -2493    -2554    -2619    -2691    -2749    -2767    -2740    -2663 
   -2540    -2413    -2342    -2336    -2350    -2343    -2307    -2245 
   -2187    -2162    -2180    -2239    -2335    -2455    -2579    -2686 
   -2772    -2866    -2956    -2992    -2934    -2799    -2641    -2511 
   -2416    -2359    -2331    -2301    -2265    -2245    -2258    -2307 
   -2386    -2481    -2560    -2604    -2604    -2573    -2533    -2504 
   -2481    -2467    -2466    -2459    -2431    -2393    -2378    -2407 
   -2466    -2521    -2550    -2536    -2498    -2470    -2463    -2479 
   -2532    -2616    -2691    -2706    -2662    -2606    -2558    -2496 
   -2425    -2381    -2374    -2377    -2351    -2292    -2247    -2286 
   -2412    -2570    -2701    -2770    -2764    -2698    -2614    -2563 
   -2559    -2555    -2508    -2420    -2350    -2354    -2423    -2505 
   -2560    -2583    -2598    -2639    -2697    -2728    -2701    -2619 
   -2529    -2498    -2538    -2594    -2613    -2586    -2527    -2474 
   -2477    -2559    -2686    -2785    -2789    -2698    -2596    -2551 
   -2562    -2586    -2582    -2536    -2450    -2344    -2274    -2278 
   -2339    -2423    -2501    -2571    -2644    -2709    -2735    -2701 
   -2627    -2559    -2529    -2533    -2540    -2516    -2443    -2355 
   -2296    -2272    -2269    -2286    -2323    -2373    -2443    -2550 
   -2674    -2783    -2847    -2830    -2743    -2639    -2547    -2461 
