Origin Time       2024/04/02 04:24:00
Lat.              40.133
Long.             141.712
Depth. (km)       71
Mag.              6.0
Station Code      ABSH14
Station Lat.      43.7228
Station Long.     144.1835
Station Height(m) 87
Record Time       2024/04/02 04:26:23
Sampling Freq(Hz) 100Hz
Duration Time(s)  120
Dir.              4
Scale Factor      7845(gal)/8223790
Max. Acc. (gal)   0.961
Last Correction   2024/04/02 04:26:24
Memo.             
[...]
   11665    11653    11709    11799    11871    11917    11932    11897 
   11838    11790    11758    11745    11759    11789    11780    11692 
   11583    11516    11510    11565    11666    11747    11759    11726 
   11700    11705    11732    11762    11788    11808    11808    11788 
   11781    11800    11793    11726    11643    11607    11632    11697 
   11751    11758    11736    11727    11747    11786    11816    11799 
   11735    11682    11681    11719    11755    11777    11785    11759 
   11711    11703    11754    11799    11777    11701    11630    11583 
   11584    11641    11697    11693    11642    11597    11596    11647 
   11746    11863    11943    11936    11863    11788    11749    11726 
   11707    11715    11757    11796    11793    11766    11740    11715 
   11697    11705    11751    11813    11863    11878    11861    11819 
   11762    11705    11664    11642    11645    11676    11728    11778 
   11796    11772    11724    11692    11685    11699    11724    11755 
   11784    11805    11826    11836    11835    11824    11784    11720 
   11693    11715    11746    11758    11753    11716    11637    11539 
   11497    11538    11614    11672    11704    11711    11696    11668 
   11665    11722    11815    11881    11886    11840    11770    11728 
   11747    11794    11821    11803    11740    11673    11641    11654 
   11707    11763    11777    11755    11736    11742    11765    11776 
   11750    11697    11645    11638    11719    11839    11901    11889 
   11835    11770    11742    11786    11878    11939    11916    11836 
   11759    11703    11678    11692    11712    11701    11677    11673 
   11699    11736    11755    11747    11728    11709    11699    11712 
   11743    11754    11727    11685    11668    11699    11757    11820 
   11884    11915    11888    11850    11844    11848    11832    11790 
   11732    11682    11657    11665    11716    11788    11808    11732 
   11641    11624    11674    11742    11812    11853    11823    11745 
   11699    11751    11871    11966    11988    11961    11896    11807 
   11750    11770    11824    11819    11739    11651    11601    11591 
   11612    11637    11624    11572    11514    11502    11576    11713 
   11832    11861    11816    11758    11715    11700    11751    11854 
   11913    11847    11699    11597    11591    11623    11666    11727 
   11773    11747    11678    11669    11740    11784    11747    11704 
   11712    11738    11763    11827    11897    11884    11808    11772 
   11794    11828    11853    11865    11846    11785    11716    11688 
   11695    11692    11676    11668    11662    11659    11686    11730 
   11738    11693    11631    11591    11570    11558    11556    11573 
   11614    11670    11734    11789    11828    11851    11851    11834 
   11834    11854    11832    11758    11696    11681    11689    11715 
   11776    11830    11808    11749    11735    11780    11848    11908 
   11931    11904    11850    11808    11785    11766    11738    11692 
   11620    11556    11557    11619    11678    11693    11688    11692 
   11715    11778    11877    11939    11896    11777    11680    11651 
   11692    11788    11890    11927    11875    11778    11700    11668 
   11673    11699    11723    11730    11715    11696    11689    11711 
   11763    11826    11846    11804    11746    11727    11739    11755 
   11769    11772    11754    11718    11681    11677    11708    11740 
   11734    11689    11655    11666    11703    11727    11705    11650 
   11619    11661    11784    11942    12043    12025    11921    11803 
   11709    11677    11718    11763    11728    11610    11507    11511 
   11619    11753    11842    11858    11796    11701    11661    11715 
   11808    11865    11865    11828    11777    11736    11735    11763 
   11758    11689    11615    11581    11576    11593    11645    11718 
   11769    11774    11754    11745    11754    11751    11736    11727 
   11720    11712    11728    11776    11807    11789    11759    11758 
   11763    11750    11738    11759    11790    11782    11745    11734 
   11763    11786    11780    11765    11751    11743    11730    11691 
   11615    11524    11472    11488    11546    11597    11630    11664 
   11689    11681    11669    11718    11808    11839    11789    11742 
   11736    11724    11691    11684    11695    11677    11654    11681 
   11755    11816    11816    11769    11703    11646    11637    11680 
   11709    11678    11651    11695    11773    11842    11901    11931 
   11897    11830    11811    11858    11907    11897    11817    11685 
   11564    11535    11620    11742    11809    11800    11747    11711 
   11749    11869    11997    12035    11962    11850    11766    11739 
   11750    11765    11765    11726    11639    11573    11585    11649 
   11705    11751    11788    11778    11711    11654    11662    11705 
   11758    11842    11938    11985    11967    11923    11880    11819 
   11740    11672    11607    11551    11564    11661    11766    11801 
   11782    11769    11766    11755    11766    11821    11854    11813 
   11772    11808    11880    11909    11900    11853    11757    11672 
   11682    11778    11848    11820    11739    11634    11499    11418 
   11465    11587    11691    11746    11761    11742    11695    11647 
   11643    11688    11738    11763    11766    11763    11763    11785 
   11834    11861    11821    11750    11691    11651    11651    11718 
   11826    11886    11848    11761    11693    11669    11672    11691 
   11696    11654    11587    11564    11605    11653    11654    11645 
   11672    11709    11738    11803    11908    11963    11925    11859 
   11824    11819    11819    11815    11793    11758    11730    11723 
   11740    11767    11766    11724    11662    11618    11624    11709 
   11853    11988    12048    12027    11963    11881    11799    11739 
   11704    11688    11664    11604    11520    11465    11469    11530 
   11616    11682    11716    11747    11773    11754    11691    11635 
   11605    11593    11607    11645    11685    11720    11751    11762 
   11751    11746    11781    11835    11863    11869    11873    11859 
   11826    11800    11803    11830    11859    11861    11809    11722 
   11646    11628    11678    11746    11774    11759    11730    11700 
   11692    11732    11805    11850    11834    11794    11778    11788 
   11811    11820    11781    11708    11661    11659    11666    11674 
   11699    11700    11653    11623    11669    11766    11858    11908 
   11900    11846    11789    11765    11780    11817    11834    11813 
   11796    11790    11753    11676    11610    11570    11549    11569 
   11653    11758    11816    11784    11691    11601    11561    11603 
   11738    11901    11978    11947    11870    11790    11709    11659 
   11665    11689    11689    11668    11654    11666    11684    11680 
   11672    11685    11719    11750    11769    11762    11712    11670 
   11684    11711    11722    11735    11753    11739    11691    11670 
   11708    11754    11742    11678    11632    11650    11716    11805 
   11878    11884    11827    11754    11711    11720    11780    11853 
   11904    11917    11885    11840    11855    11920    11959    11955 
   11948    11947    11912    11830    11743    11688    11657    11626 
   11608    11635    11681    11680    11642    11619    11624    11639 
   11666    11701    11720    11688    11603    11508    11466    11512 
   11619    11726    11777    11757    11703    11676    11705    11789 
   11898    11973    11956    11878    11826    11813    11794    11761 
   11735    11722    11724    11745    11759    11736    11669    11573 
   11488    11477    11587    11773    11917    11948    11894    11790 
   11668    11616    11689    11821    11913    11942    11931    11888 
   11821    11786    11793    11781    11749    11755    11796    11839 
   11885    11944    11997    12019    12009    11977    11902    11793 
   11709    11669    11650    11670    11727    11735    11661    11597 
   11592    11599    11623    11689    11757    11753    11685    11618 
   11560    11475    11395    11399    11499    11653    11819    11944 
   11971    11911    11839    11792    11770    11789    11836    11866 
   11853    11815    11769    11718    11695    11726    11765    11766 
   11759    11788    11823    11813    11767    11719    11674    11646 
   11662    11718    11778    11819    11831    11809    11743    11650 
   11584    11578    11615    11657    11681    11693    11692    11672 
   11662    11701    11778    11848    11861    11812    11745    11719 
   11761    11839    11905    11915    11843    11726    11616    11551 
   11556    11614    11662    11666    11651    11634    11600    11569 
   11592    11662    11728    11777    11826    11858    11858    11850 
   11850    11854    11843    11811    11776    11769    11796    11831 
   11839    11809    11736    11631    11541    11506    11527    11581 
   11641    11674    11676    11677    11703    11727    11731    11724 
   11722    11723    11735    11776    11839    11882    11869    11816 
   11785    11782    11773    11766    11772    11740    11665    11599 
   11573    11578    11618    11692    11767    11808    11817    11813 
   11804    11781    11731    11676    11651    11654    11655    11654 
   11657    11649    11634    11620    11603    11592    11603    11619 
   11628    11650    11688    11724    11750    11763    11755    11732 
   11726    11739    11758    11786    11821    11828    11803    11778 
   11766    11754    11747    11749    11746    11754    11788    11821 
   11847    11874    11888    11859    11799    11761    11781    11853 
   11936    11971    11929    11844    11780    11762    11792    11861 
   11929    11954    11942    11943    11985    12031    12020    11942 
   11832    11724    11624    11557    11561    11615    11642    11626 
   11615    11635    11666    11686    11676    11631    11581    11570 
   11618    11704    11778    11789    11720    11601    11488    11443 
   11492    11593    11676    11719    11746    11749    11727    11718 
   11724    11745    11780    11796    11772    11762    11801    11871 
   11942    12002    12055    12101    12125    12120    12089    12035 
   11965    11901    11857    11823    11796    11778    11767    11762 
   11761    11778    11832    11890    11907    11866    11799    11736 
   11695    11682    11711    11766    11788    11742    11674    11651 
   11665    11672    11669    11688    11711    11674    11584    11520 
   11512    11515    11508    11497    11476    11419    11346    11310 
   11350    11434    11506    11549    11572    11566    11561    11608 
   11720    11867    11988    12037    12029    11989    11916    11839 
   11809    11819    11809    11758    11688    11612    11553    11546 
   11603    11682    11746    11784    11801    11819    11843    11846 
   11811    11778    11792    11843    11900    11921    11874    11749 
   11599    11524    11566    11670    11777    11857    11882    11848 
   11807    11820    11875    11901    11847    11739    11647    11623 
   11669    11754    11823    11838    11794    11726    11670    11619 
   11531    11418    11326    11267    11252    11334    11518    11699 
   11799    11834    11847    11855    11853    11840    11836    11831 
   11794    11750    11738    11749    11762    11782    11831    11919 
   12023    12089    12087    12043    11989    11965    11993    12043 
   12035    11917    11697    11446    11279    11265    11364    11483 
   11566    11615    11641    11647    11655    11689    11734    11746 
   11726    11723    11769    11828    11853    11826    11762    11692 
   11655    11682    11755    11840    11898    11904    11875    11874 
   11908    11946    11969    11952    11881    11796    11758    11784 
   11870    12015    12187    12329    12395    12380    12299    12164 
   11994    11808    11632    11508    11454    11450    11450    11411 
   11333    11248    11196    11213    11304    11429    11542    11638 
   11700    11697    11645    11588    11538    11470    11381    11310 
   11283    11296    11373    11539    11774    12015    12210    12326 
   12361    12352    12329    12290    12213    12086    11934    11796 
   11707    11669    11691    11758    11820    11844    11859    11902 
   11962    12004    12031    12035    11997    11917    11820    11703 
   11553    11392    11249    11152    11119    11134    11172    11245 
   11358    11506    11678    11862    12004    12054    12031    12016 
   12060    12150    12229    12225    12089    11858    11608    11406 
   11298    11298    11365    11438    11491    11546    11611    11673 
   11722    11742    11718    11673    11658    11682    11722    11755 
   11776    11793    11824    11839    11773    11616    11431    11315 
   11325    11460    11670    11886    12040    12106    12102    12062 
   12013    11965    11911    11853    11808    11796    11812    11835 
   11859    11898    11958    12043    12155    12267    12316    12244 
   12090    11932    11803    11711    11662    11619    11527    11396 
   11287    11233    11234    11275    11325    11346    11327    11299 
   11292    11286    11246    11215    11260    11388    11553    11703 
   11789    11758    11628    11526    11561    11761    12089    12448 
   12695    12750    12650    12492    12356    12260    12186    12106 
   11981    11803    11638    11566    11591    11657    11705    11681 
   11564    11404    11284    11252    11313    11430    11529    11546 
   11485    11404    11357    11394    11523    11680    11777    11803 
   11801    11800    11823    11905    12001    12015    11934    11827 
   11732    11650    11614    11649    11722    11800    11896    12001 
   12058    12042    11979    11904    11830    11788    11809    11885 
   11955    11959    11874    11718    11522    11340    11225    11192 
   11199    11209    11245    11346    11503    11685    11878    12048 
   12166    12236    12285    12322    12353    12378    12370    12297 
   12144    11916    11651    11414    11260    11210    11277    11458 
   11692    11875    11954    11932    11828    11665    11479    11333 
   11283    11329    11426    11527    11588    11607    11662    11819 
   12029    12208    12307    12287    12114    11846    11614    11508 
   11518    11573    11622    11624    11572    11530    11592    11762 
   11940    12032    12010    11897    11745    11624    11587    11603 
   11604    11545    11438    11338    11302    11342    11442    11551 
   11635    11680    11665    11604    11587    11695    11908    12145 
   12333    12413    12345    12137    11867    11664    11589    11578 
   11550    11484    11402    11361    11441    11645    11881    12051 
   12125    12137    12131    12141    12167    12152    12032    11830 
   11638    11534    11530    11560    11549    11476    11400    11421 
   11592    11867    12135    12282    12266    12141    12008    11932 
   11931    11970    11977    11911    11792    11682    11634    11639 
   11637    11574    11469    11375    11334    11358    11411    11437 
   11427    11416    11441    11535    11715    11927    12089    12158 
   12162    12143    12098    11998    11863    11735    11619    11547 
   11587    11708    11772    11682    11489    11298    11207    11291 
   11530    11808    11990    12006    11875    11688    11553    11538 
   11647    11821    11977    12060    12062    11961    11758    11541 
   11399    11340    11337    11381    11457    11542    11623    11712 
   11816    11934    12050    12141    12208    12276    12347    12393 
   12403    12380    12318    12225    12121    12020    11923    11830 
   11732    11630    11535    11469    11448    11457    11475    11497 
   11518    11511    11469    11419    11398    11419    11491    11615 
   11755    11836    11804    11688    11558    11464    11402    11369 
   11369    11379    11383    11415    11524    11689    11847    11966 
   12033    12048    12025    11990    11959    11913    11826    11713 
   11623    11580    11556    11529    11510    11504    11483    11441 
   11412    11398    11346    11269    11257    11362    11554    11770 
   11939    11985    11913    11830    11812    11861    11947    12031 
   12054    12016    12000    12063    12175    12252    12240    12148 
   12039    12004    12108    12293    12415    12386    12208    11973 
   11803    11743    11742    11712    11612    11458    11311    11236 
   11253    11330    11408    11439    11443    11499    11631    11769 
   11835    11805    11689    11523    11381    11338    11396    11504 
   11603    11662    11720    11842    12031    12221    12334    12339 
   12231    12055    11884    11762    11682    11626    11578    11531 
   11508    11556    11692    11873    12009    12039    11967    11835 
   11682    11560    11502    11497    11495    11461    11406    11375 
   11408    11512    11674    11848    11958    11961    11898    11853 
   11862    11892    11912    11909    11857    11738    11611    11562 
   11604    11662    11662    11601    11542    11557    11685    11892 
   12091    12189    12145    12025    11924    11890    11907    11924 
   11886    11769    11599    11448    11387    11414    11473    11524 
   11549    11558    11551    11506    11433    11383    11388    11469 
   11646    11898    12141    12295    12344    12324    12286    12274 
   12306    12355    12371    12326    12232    12114    12005    11919 
   11850    11782    11709    11628    11542    11454    11373    11317 
   11310    11365    11472    11599    11691    11708    11661    11603 
   11558    11520    11489    11466    11434    11400    11422    11556 
   11753    11902    11951    11909    11808    11701    11653    11693 
   11800    11921    12015    12070    12083    12050    11969    11839 
   11684    11542    11454    11452    11534    11651    11753    11820 
   11850    11830    11765    11686    11634    11628    11665    11704 
   11707    11657    11577    11519    11518    11565    11643    11738 
   11827    11873    11870    11865    11874    11862    11815    11758 
   11699    11623    11535    11477    11484    11553    11661    11781 
   11880    11935    11955    11971    12002    12040    12069    12069 
   12021    11935    11866    11862    11897    11908    11867    11794 
   11711    11628    11566    11533    11507    11462    11400    11361 
   11364    11399    11452    11497    11529    11562    11615    11684 
   11745    11766    11730    11647    11565    11545    11618    11755 
   11889    11958    11965    11965    12021    12141    12274    12345 
   12310    12155    11928    11726    11608    11577    11603    11637 
   11624    11576    11547    11562    11596    11627    11650    11669 
   11695    11719    11716    11668    11572    11426    11245    11090 
   11036    11102    11252    11421    11550    11624    11678    11750 
   11844    11946    12019    12029    11996    11979    12019    12096 
   12152    12133    12021    11844    11659    11527    11469    11472 
   11508    11551    11593    11637    11676    11688    11666    11611 
