Origin Time       2024/04/02 04:24:00
Lat.              40.133
Long.             141.712
Depth. (km)       71
Mag.              6.0
Station Code      ABSH11
Station Lat.      43.9144
Station Long.     144.1913
Station Height(m) 40
Record Time       2024/04/02 04:26:29
Sampling Freq(Hz) 100Hz
Duration Time(s)  120
Dir.              5
Scale Factor      7845(gal)/8223790
Max. Acc. (gal)   0.619
Last Correction   2024/04/02 04:26:30
Memo.             
[...]
    -800     -834     -880     -932     -985    -1021    -1031    -1011 
    -966     -915     -869     -842     -835     -843     -851     -861 
    -859     -842     -810     -770     -733     -706     -691     -689 
    -708     -749     -810     -873     -923     -954     -966     -959 
    -945     -920     -885     -845     -803     -762     -738     -735 
    -757     -791     -822     -838     -837     -827     -820     -824 
    -850     -896     -955    -1013    -1043    -1040    -1013     -980 
    -954     -942     -934     -922     -907     -889     -865     -839 
    -818     -792     -764     -747     -762     -805     -869     -936 
    -992    -1028    -1048    -1044    -1017     -977     -931     -886 
    -847     -805     -772     -760     -766     -784     -807     -823 
    -828     -831     -842     -862     -892     -930     -963     -989 
   -1000     -996     -989     -988     -994    -1004    -1004     -988 
    -954     -903     -849     -800     -760     -735     -737     -753 
    -776     -801     -828     -849     -859     -851     -826     -793 
    -766     -747     -735     -735     -757     -797     -839     -862 
    -861     -842     -820     -804     -797     -796     -789     -776 
    -770     -768     -766     -773     -791     -815     -838     -851 
    -857     -855     -851     -857     -870     -891     -905     -900 
    -886     -880     -882     -893     -913     -927     -934     -936 
    -935     -924     -899     -858     -805     -750     -704     -687 
    -696     -729     -776     -827     -874     -904     -911     -901 
    -885     -876     -874     -884     -896     -896     -882     -858 
    -832     -815     -805     -797     -797     -807     -823     -841 
    -857     -869     -880     -888     -889     -873     -837     -784 
    -723     -676     -664     -695     -753     -815     -857     -877 
    -881     -873     -858     -845     -835     -832     -835     -838 
    -842     -859     -886     -912     -932     -938     -916     -870 
    -827     -797     -778     -776     -788     -812     -855     -911 
    -962     -994     -988     -945     -888     -839     -815     -818 
    -839     -862     -880     -889     -889     -880     -865     -850 
    -834     -819     -812     -815     -831     -854     -880     -893 
    -891     -873     -843     -810     -778     -756     -738     -726 
    -723     -724     -723     -727     -739     -758     -791     -835 
    -888     -942     -978     -988     -972     -934     -896     -864 
    -842     -843     -858     -872     -882     -888     -886     -888 
    -896     -904     -908     -903     -892     -885     -888     -901 
    -924     -951     -980    -1001    -1007     -999     -980     -951 
    -918     -886     -868     -859     -854     -855     -859     -869 
    -882     -900     -923     -946     -958     -963     -958     -945 
    -938     -947     -966     -981     -980     -949     -888     -810 
    -737     -685     -665     -684     -724     -761     -789     -808 
    -819     -834     -861     -895     -920     -932     -934     -924 
    -911     -904     -900     -893     -880     -851     -805     -753 
    -712     -700     -716     -758     -814     -866     -904     -927 
    -932     -928     -926     -927     -931     -936     -940     -936 
    -923     -897     -862     -827     -793     -765     -750     -749 
    -760     -781     -804     -810     -803     -799     -807     -834 
    -876     -926     -972    -1003    -1016    -1013     -997     -976 
    -949     -911     -862     -814     -778     -765     -774     -805 
    -846     -880     -899     -897     -878     -845     -797     -741 
    -689     -652     -633     -634     -656     -702     -780     -876 
    -958    -1013    -1038    -1030     -997     -955     -916     -885 
    -865     -859     -862     -869     -873     -862     -834     -791 
    -747     -720     -714     -724     -745     -765     -788     -815 
    -854     -905     -963    -1024    -1075    -1098    -1085    -1043 
    -973     -888     -808     -747     -708     -689     -685     -691 
    -704     -729     -761     -799     -847     -899     -935     -961 
    -978     -981     -965     -934     -892     -853     -828     -816 
    -816     -820     -820     -815     -800     -781     -762     -756 
    -769     -796     -826     -849     -853     -828     -776     -706 
    -639     -600     -603     -643     -712     -787     -842     -868 
    -862     -838     -815     -803     -804     -815     -823     -831 
    -847     -872     -900     -930     -965    -1007    -1055    -1101 
   -1136    -1144    -1113    -1046     -961     -881     -830     -815 
    -820     -837     -859     -895     -935     -970     -997    -1012 
   -1007     -990     -963     -922     -868     -807     -747     -700 
    -673     -670     -702     -765     -846     -934    -1020    -1097 
   -1161    -1206    -1225    -1206    -1155    -1084    -1000     -916 
    -838     -773     -723     -685     -658     -638     -630     -642 
    -676     -726     -791     -850     -882     -893     -886     -866 
    -839     -814     -797     -788     -785     -788     -797     -810 
    -816     -812     -799     -777     -756     -743     -743     -747 
    -750     -751     -750     -750     -760     -780     -801     -818 
    -826     -837     -857     -891     -936     -974     -989     -981 
    -950     -895     -828     -765     -712     -683     -680     -703 
    -741     -793     -850     -905     -954     -985     -993     -978 
    -946     -899     -842     -783     -726     -679     -648     -642 
    -662     -697     -739     -776     -795     -795     -781     -764 
    -757     -778     -820     -872     -920     -958     -977     -973 
    -943     -903     -862     -830     -808     -797     -800     -816 
    -847     -891     -935     -974    -1001    -1017    -1030    -1039 
   -1039    -1031    -1016     -992     -961     -938     -923     -908 
    -888     -859     -820     -768     -715     -673     -649     -652 
    -681     -730     -789     -864     -947    -1031    -1102    -1150 
   -1166    -1147    -1096    -1013     -918     -837     -785     -762 
    -768     -788     -814     -837     -849     -853     -853     -855 
    -859     -869     -884     -903     -922     -946     -962     -958 
    -932     -886     -824     -761     -716     -707     -735     -795 
    -866     -924     -953     -945     -900     -831     -765     -724 
    -723     -764     -831     -911     -988    -1053    -1108    -1162 
   -1216    -1270    -1309    -1321    -1300    -1240    -1139    -1008 
    -864     -727     -622     -558     -534     -542     -568     -602 
    -649     -716     -792     -862     -919     -958     -980     -981 
    -965     -942     -909     -868     -823     -781     -747     -729 
    -719     -703     -675     -641     -611     -592     -587     -594 
    -611     -626     -634     -638     -648     -664     -687     -720 
    -768     -823     -886     -947     -981     -976     -930     -849 
    -754     -670     -615     -594     -602     -634     -696     -777 
    -864     -940     -994    -1009     -988     -942     -891     -855 
    -846     -861     -891     -932     -976    -1015    -1039    -1042 
   -1028    -1005     -976     -946     -931     -932     -938     -945 
    -962     -990    -1019    -1042    -1071    -1107    -1135    -1152 
   -1161    -1144    -1096    -1020     -922     -812     -706     -623 
    -581     -580     -598     -618     -622     -604     -580     -568 
    -581     -623     -685     -756     -828     -897     -963    -1030 
   -1084    -1104    -1089    -1042     -967     -885     -805     -730 
    -660     -598     -544     -504     -500     -545     -633     -747 
    -872     -985    -1063    -1093    -1086    -1059    -1019     -977 
    -940     -908     -873     -839     -804     -776     -768     -787 
    -841     -926    -1027    -1127    -1202    -1237    -1231    -1188 
   -1119    -1046     -984     -940     -920     -911     -897     -877 
    -846     -805     -773     -756     -754     -764     -773     -774 
    -773     -770     -762     -753     -749     -757     -773     -787 
    -793     -791     -776     -749     -715     -679     -653     -650 
    -668     -704     -756     -818     -892     -978    -1067    -1143 
   -1193    -1208    -1189    -1138    -1059     -958     -835     -706 
    -589     -506     -468     -484     -533     -602     -683     -757 
    -819     -872     -911     -942     -974    -1007    -1042    -1071 
   -1081    -1066    -1035     -999     -966     -940     -928     -932 
    -940     -936     -911     -862     -804     -758     -742     -750 
    -766     -770     -749     -707     -668     -652     -669     -724 
    -793     -857     -908     -945     -961     -955     -923     -868 
    -799     -733     -688     -677     -706     -776     -870     -966 
   -1040    -1081    -1080    -1035     -959     -865     -770     -696 
    -652     -637     -646     -670     -703     -749     -815     -900 
    -999    -1097    -1178    -1223    -1213    -1159    -1078     -990 
    -908     -841     -784     -724     -652     -573     -511     -483 
    -498     -552     -638     -737     -820     -877     -895     -878 
    -845     -808     -788     -792     -830     -901     -997    -1100 
   -1190    -1252    -1278    -1258    -1200    -1101     -965     -810 
    -658     -526     -433     -395     -413     -480     -584     -712 
    -858    -1007    -1146    -1259    -1324    -1327    -1264    -1148 
    -999     -837     -691     -577     -496     -449     -440     -460 
    -495     -545     -608     -680     -751     -816     -865     -893 
    -911     -923     -936     -947     -947     -935     -918     -908 
    -920     -950     -990    -1032    -1066    -1082    -1071    -1028 
    -957     -872     -792     -727     -680     -646     -626     -627 
    -664     -743     -861     -990    -1111    -1198    -1240    -1229 
   -1182    -1113    -1048    -1009     -997    -1007    -1021    -1026 
   -1013     -992     -970     -958     -946     -927     -895     -843 
    -773     -700     -643     -623     -643     -696     -773     -866 
    -972    -1080    -1169    -1223    -1231    -1192    -1109    -1007 
    -908     -827     -766     -724     -691     -653     -600     -530 
    -449     -368     -310     -295     -333     -423     -552     -695 
    -834     -958    -1069    -1167    -1251    -1317    -1356    -1366 
   -1341    -1277    -1178    -1071     -988     -939     -927     -940 
    -951     -932     -881     -803     -708     -614     -533     -479 
    -454     -461     -492     -531     -569     -602     -631     -661 
    -696     -737     -788     -838     -869     -882     -885     -882 
    -895     -931     -986    -1035    -1062    -1059    -1027     -980 
    -928     -874     -822     -778     -754     -762     -800     -849 
    -885     -893     -862     -801     -727     -662     -623     -619 
    -638     -681     -749     -827     -900     -961     -999    -1007 
   -1001     -990     -981     -966     -940     -908     -870     -827 
    -781     -726     -664     -606     -564     -545     -549     -576 
    -625     -692     -783     -891    -1016    -1142    -1243    -1309 
   -1325    -1281    -1183    -1055     -920     -796     -703     -656 
    -656     -692     -760     -845     -927     -984    -1003     -982 
    -930     -858     -789     -734     -692     -670     -669     -691 
    -735     -795     -861     -918     -946     -943     -920     -881 
    -842     -812     -788     -780     -792     -820     -861     -904 
    -935     -943     -918     -861     -787     -707     -633     -580 
    -546     -530     -530     -531     -538     -557     -581     -614 
    -653     -695     -734     -773     -815     -866     -923     -967 
   -1003    -1039    -1081    -1134    -1192    -1239    -1258    -1240 
   -1181    -1089     -990     -908     -869     -881     -926     -988 
   -1061    -1125    -1162    -1155    -1105    -1012     -886     -753 
    -637     -556     -517     -525     -573     -643     -715     -774 
    -823     -864     -901     -943     -985    -1017    -1040    -1054 
   -1051    -1030     -990     -934     -864     -777     -677     -572 
    -473     -391     -346     -356     -411     -500     -606     -708 
    -797     -873     -940    -1004    -1063    -1109    -1135    -1135 
   -1104    -1048     -985     -927     -886     -869     -866     -869 
    -858     -826     -776     -718     -675     -673     -718     -796 
    -892     -982    -1053    -1101    -1132    -1140    -1125    -1098 
   -1067    -1051    -1054    -1069    -1092    -1120    -1144    -1150 
   -1123    -1055     -957     -850     -756     -687     -660     -675 
    -724     -800     -880     -939     -976     -986     -969     -936 
    -901     -870     -853     -853     -865     -880     -896     -909 
    -913     -903     -880     -858     -838     -808     -770     -731 
    -688     -649     -630     -635     -672     -738     -815     -882 
    -930     -949     -942     -922     -891     -857     -824     -807 
    -812     -837     -876     -923     -977    -1027    -1059    -1065 
   -1039     -984     -912     -847     -804     -795     -816     -854 
    -891     -912     -919     -927     -943     -977    -1031    -1100 
   -1177    -1263    -1351    -1429    -1486    -1505    -1476    -1409 
   -1312    -1196    -1080     -974     -878     -783     -696     -634 
    -607     -612     -642     -687     -727     -758     -785     -804 
    -807     -805     -807     -805     -800     -799     -801     -808 
    -819     -822     -803     -757     -691     -618     -548     -490 
    -459     -459     -481     -526     -583     -642     -693     -734 
    -766     -792     -811     -822     -818     -795     -750     -693 
    -645     -615     -604     -616     -650     -697     -745     -785 
    -810     -820     -818     -807     -803     -818     -851     -893 
    -931     -950     -932     -882     -811     -734     -673     -643 
    -646     -672     -712     -749     -770     -765     -734     -681 
    -619     -568     -545     -558     -611     -695     -783     -851 
    -886     -891     -872     -846     -823     -804     -797     -793 
    -783     -762     -742     -722     -708     -710     -723     -745 
    -768     -792     -819     -853     -893     -931     -962     -980 
    -977     -959     -939     -916     -886     -851     -812     -778 
    -760     -761     -773     -793     -814     -824     -823     -812 
    -791     -776     -777     -785     -796     -812     -830     -843 
    -851     -851     -850     -862     -900     -961    -1032    -1102 
   -1161    -1182    -1161    -1094    -1000     -907     -841     -820 
    -842     -882     -918     -936     -930     -901     -868     -847 
    -843     -854     -889     -953    -1038    -1121    -1177    -1189 
   -1155    -1084     -993     -916     -874     -862     -876     -907 
    -931     -934     -918     -876     -819     -762     -712     -668 
    -639     -625     -615     -610     -604     -598     -603     -623 
    -666     -743     -846     -953    -1048    -1119    -1147    -1136 
   -1098    -1051    -1008     -981     -973     -973     -973     -970 
    -969     -967     -972     -981     -994    -1003    -1004     -993 
    -969     -932     -893     -858     -835     -820     -803     -773 
    -730     -676     -619     -573     -549     -549     -576     -622 
    -672     -719     -762     -793     -823     -861     -905     -958 
   -1009    -1048    -1078    -1097    -1097    -1088    -1075    -1066 
   -1061    -1057    -1055    -1057    -1053    -1047    -1046    -1043 
   -1032    -1013     -990     -967     -953     -950     -962     -990 
   -1028    -1069    -1101    -1119    -1113    -1082    -1035     -992 
    -969     -966     -969     -982    -1005    -1031    -1051    -1051 
   -1024     -980     -932     -886     -843     -811     -776     -729 
    -679     -638     -618     -627     -669     -746     -847     -939 
    -989     -985     -935     -855     -773     -714     -689     -700 
    -738     -788     -839     -878     -892     -874     -831     -776 
    -716     -662     -629     -625     -650     -703     -766     -819 
    -851     -859     -849     -827     -805     -797     -803     -815 
    -828     -838     -842     -843     -843     -837     -824     -811 
    -796     -776     -738     -685     -622     -571     -550     -567 
    -611     -676     -738     -781     -801     -801     -783     -757 
    -738     -727     -730     -768     -842     -931    -1012    -1066 
   -1077    -1043     -969     -874     -785     -716     -676     -675 
    -702     -743     -784     -815     -837     -849     -859     -877 
    -893     -908     -913     -905     -882     -853     -828     -815 
    -807     -804     -805     -804     -795     -785     -784     -796 
    -815     -838     -857     -862     -851     -830     -803     -773 
    -747     -724     -703     -683     -668     -661     -668     -693 
    -739     -799     -857     -904     -924     -918     -892     -859 
    -835     -831     -855     -895     -932     -957     -957     -934 
    -899     -861     -832     -824     -835     -851     -864     -870 
    -878     -880     -874     -872     -877     -891     -905     -922 
    -934     -945     -949     -942     -927     -912     -900     -891 
    -881     -870     -853     -831     -807     -784     -757     -723 
    -695     -685     -703     -742     -791     -841     -891     -934 
    -977    -1031    -1093    -1148    -1185    -1193    -1175    -1138 
   -1090    -1042     -996     -954     -913     -878     -853     -834 
    -824     -835     -866     -904     -943     -982    -1007    -1012 
   -1007    -1000    -1003    -1009    -1013    -1011    -1000     -982 
    -963     -940     -912     -882     -849     -824     -816     -826 
    -850     -874     -880     -862     -824     -772     -719     -691 
    -683     -683     -691     -703     -719     -742     -787     -851 
    -923     -997    -1059    -1093    -1092    -1059     -999     -922 
    -834     -745     -668     -611     -583     -584     -596     -612 
    -641     -669     -700     -747     -803     -854     -903     -943 
    -966     -977     -984     -989     -992     -999    -1001     -989 
    -962     -924     -878     -830     -789     -757     -738     -730 
    -733     -739     -747     -754     -764     -781     -811     -846 
    -874     -893     -900     -891     -864     -828     -789     -750 
    -726     -730     -762     -808     -850     -877     -889     -893 
    -900     -918     -949     -984    -1011    -1024    -1019     -993 
    -950     -896     -841     -793     -768     -770     -796     -834 
    -877     -927     -972     -999    -1019    -1026    -1012     -989 
    -963     -932     -904     -885     -872     -868     -877     -897 
    -912     -916     -905     -870     -815     -758     -710     -675 
    -658     -657     -669     -697     -738     -787     -845     -905 
    -954     -980     -984     -967     -939     -907     -880     -862 
