Origin Time       2024/04/02 04:24:00
Lat.              40.133
Long.             141.712
Depth. (km)       71
Mag.              6.0
Station Code      AKTH19
Station Lat.      39.1913
Station Long.     140.4710
Station Height(m) -106
Record Time       2024/04/02 04:25:01
Sampling Freq(Hz) 100Hz
Duration Time(s)  186
Dir.              3
Scale Factor      3923(gal)/8224838
Max. Acc. (gal)   2.577
Last Correction   2024/04/02 04:25:01
Memo.             
[...]
   35802    36001    35802    35356    35193    35140    34823    34460 
   34453    34812    35033    34789    34570    34804    35087    35021 
   34774    34655    34753    34812    34522    34006    33681    33610 
   33606    33774    34155    34373    34244    34010    33895    33970 
   34245    34497    34580    34719    34761    34198    33324    33057 
   33613    34333    34654    34564    34283    33960    33787    34033 
   34615    35114    35255    35102    35020    35108    35008    34798 
   34865    35085    35198    35043    34596    34272    34330    34715 
   35353    35853    35893    35654    35391    35289    35336    35325 
   35320    35559    35993    36321    36294    35995    35776    35839 
   36069    36290    36377    36207    35905    35814    35919    36050 
   36105    35846    35496    35587    35830    35731    35572    35618 
   35638    35510    35140    34549    34427    35147    35892    35984 
   35668    35367    35154    34940    34807    34975    35428    35770 
   35644    35166    34735    34531    34592    34873    34978    34653 
   34160    33859    33997    34485    34855    34932    35082    35432 
   35629    35511    35212    34866    34769    34940    34842    34317 
   33814    33625    33724    33961    34206    34400    34530    34713 
   35050    35434    35699    35615    35286    35282    35684    35866 
   35526    35102    35031    35110    35046    34921    34761    34604 
   34686    34893    34878    34607    34294    34226    34630    35291 
   35580    35272    34958    35000    34962    34601    34279    34315 
   34581    34781    34969    35239    35370    35364    35463    35591 
   35506    35228    34977    34879    34867    34875    34905    34911 
   34979    35263    35544    35610    35586    35425    35032    34661 
   34655    34982    35149    34951    34781    34838    34975    35131 
   35228    35193    35078    34986    34943    34824    34688    34765 
   35041    35418    35712    35657    35372    35163    35189    35550 
   36005    36047    35644    35316    35388    35669    35815    35695 
   35422    35152    34908    34701    34624    34659    34740    34996 
   35399    35514    35248    35005    34928    34981    35139    35221 
   35112    34981    34996    34893    34497    34213    34284    34681 
   35317    35617    35278    34954    35059    35340    35675    35962 
   35823    35252    34789    34835    35221    35437    35303    35145 
   35206    35399    35398    34971    34496    34373    34454    34580 
   34728    34696    34418    34348    34820    35436    35760    35753 
   35563    35545    35779    35868    35615    35251    35041    34909 
   34751    34676    34526    34180    34078    34454    34981    35347 
   35468    35549    35799    35877    35569    35240    34948    34585 
   34419    34446    34322    33997    33821    34078    34501    34682 
   34650    34574    34558    34786    35203    35411    35344    35374 
   35534    35523    35237    34739    34227    34009    34083    34182 
   34210    34308    34565    34781    34831    34904    35066    35222 
   35433    35641    35646    35488    35195    34785    34518    34447 
   34387    34361    34479    34749    35193    35715    36089    36217 
   36031    35550    35160    35205    35509    35661    35604    35469 
   35235    35087    35178    35257    35275    35398    35640    35945 
   36059    35746    35220    34823    34754    34981    35251    35467 
   35572    35379    35071    34985    34990    34893    34823    34902 
   35158    35536    35793    35802    35773    35785    35550    35063 
   34821    34886    34786    34497    34423    34695    35021    35054 
   34912    35046    35467    35754    35792    35845    36001    36058 
   35918    35762    35610    35118    34375    34042    34207    34314 
   34342    34577    34882    35056    35087    35055    35091    35189 
   35311    35391    35205    34936    35054    35397    35491    35275 
   34912    34609    34487    34427    34454    34688    34858    34738 
   34519    34350    34395    34801    35249    35484    35708    35897 
   35758    35310    34782    34392    34307    34496    34792    34923 
   34592    34013    33835    34275    34827    34952    34820    34924 
   35198    35237    35052    34886    34820    35024    35506    35768 
   35633    35506    35487    35442    35317    34921    34420    34376 
   34720    34886    34912    35081    35189    35100    35041    35077 
   35190    35415    35598    35729    35789    35445    34773    34225 
   34064    34425    35033    35487    35803    35912    35743    35584 
   35538    35556    35669    35677    35444    35105    34780    34655 
   34821    35054    35185    35167    34952    34755    34817    34960 
   35082    35343    35598    35611    35337    34827    34453    34469 
   34584    34631    34674    34576    34252    33879    33747    34022 
   34537    35050    35411    35538    35473    35291    35187    35347 
   35625    35785    35646    35247    34970    34942    34893    34790 
   34798    34869    34847    34695    34523    34531    34682    34803 
   34973    35274    35554    35631    35437    35187    35170    35279 
   35244    35032    34703    34393    34352    34661    35077    35314 
   35372    35394    35445    35610    35889    36146    36259    36224 
   36074    35764    35328    34933    34668    34624    34746    34688 
   34562    34809    35193    35360    35584    35935    36026    35746 
   35376    35203    35189    35070    34952    35090    35185    34852 
   34441    34456    34746    34790    34434    34168    34376    34716 
   34808    34794    34973    35209    35073    34727    34681    34871 
   34955    34908    34985    35266    35355    35021    34769    35046 
   35471    35563    35527    35617    35542    35203    34947    34843 
   34651    34457    34539    34828    35078    35244    35309    35282 
   35388    35660    35779    35718    35762    35838    35613    35113 
   34692    34551    34560    34639    34816    34834    34672    34731 
   34962    35100    35287    35580    35829    36009    35996    35640 
   35147    34761    34400    34030    33883    34083    34400    34634 
   34857    34917    34628    34442    34759    35226    35421    35418 
   35405    35353    35144    34770    34398    34209    34254    34481 
   34696    34699    34549    34469    34585    34828    34950    34875 
   34834    34865    34867    34951    35145    35168    34852    34545 
   34520    34484    34233    33967    33878    34055    34393    34570 
   34574    34750    35236    35870    36297    36198    35768    35542 
   35735    36024    36061    35876    35600    35388    35392    35405 
   35185    35067    35403    35916    36128    35985    35807    35795 
   35997    36340    36425    36069    35568    35163    35027    35152 
   35199    35079    35078    35298    35545    35642    35587    35468 
   35411    35537    35737    35698    35437    35321    35326    35158 
   34867    34584    34358    34418    34717    34861    34830    34960 
   35299    35548    35468    35121    34755    34582    34607    34658 
   34549    34218    33868    33812    34036    34269    34414    34616 
   34983    35397    35703    35791    35565    35243    35117    35043 
   34805    34518    34371    34418    34476    34283    33855    33528 
   33579    33907    34364    35001    35526    35500    35106    34763 
   34484    34183    34042    34261    34680    34967    35054    35074 
   35040    34932    34862    34886    35004    35198    35317    35325 
   35334    35311    35293    35452    35707    35829    35811    35843 
   35937    35818    35363    34820    34468    34377    34476    34596 
   34634    34732    35079    35517    35742    35861    36032    36054 
   35995    36138    36231    36096    36035    36030    35835    35550 
   35378    35264    35094    34985    35040    35102    35079    35154 
   35495    36001    36410    36591    36670    36747    36634    36121 
   35473    35158    35002    34609    34281    34346    34597    34889 
   35214    35483    35598    35498    35244    34954    34730    34716 
   34870    35047    35321    35572    35441    35073    34905    34923 
   34819    34503    34249    34280    34240    33897    33720    33885 
   34136    34483    34912    35286    35536    35583    35514    35496 
   35441    35325    35268    35056    34526    34024    33858    34018 
   34337    34560    34665    34713    34720    34924    35195    35185 
   35171    35302    35291    35137    34890    34681    34711    34890 
   35170    35446    35418    35155    34866    34601    34484    34520 
   34593    34639    34728    34898    34894    34654    34570    34898 
   35487    35927    35969    35837    35841    35980    36007    35752 
   35356    34925    34427    34256    34611    34928    35028    35249 
   35518    35689    35679    35216    34580    34404    34654    34965 
   35179    35203    35170    35260    35438    35564    35491    35371 
   35514    35853    36089    35926    35278    34611    34430    34607 
   34794    34884    34878    34804    34855    35208    35608    35766 
   35912    36231    36433    36373    36296    36290    36217    36186 
   36285    36223    35919    35660    35506    35428    35499    35685 
   35878    35939    35761    35495    35287    35089    34979    35051 
   35046    34728    34283    33910    33679    33778    34056    34109 
   34072    34211    34349    34253    34101    34368    35031    35492 
   35456    35021    34441    34123    34234    34576    34935    35100 
   34940    34677    34618    34569    34172    33741    33709    33913 
   34202    34479    34497    34434    34566    34708    34627    34304 
   33858    33489    33235    33119    33299    33554    33507    33365 
   33416    33538    33659    33826    34005    34256    34658    34989 
   34943    34672    34634    34944    35332    35681    36040    36161 
   35829    35401    35301    35548    35953    36255    36379    36513 
   36563    36231    35854    36004    36374    36377    36235    36300 
   36309    36073    35945    36135    36271    36050    35644    35266 
   34966    34854    35122    35637    35843    35668    35576    35468 
   34967    34443    34408    34643    34757    34763    34680    34423 
   34095    33768    33467    33284    33106    32887    32879    33039 
   33046    32954    33068    33415    33712    33816    33970    34331 
   34623    34507    34110    33832    33721    33547    33286    33191 
   33412    33782    34246    35024    35996    36663    36796    36683 
   36783    37152    37289    37122    37192    37330    36968    36455 
   36383    36710    37130    37480    37716    37736    37561    37444 
   37404    37282    37102    36918    36756    36630    36459    36084 
   35641    35623    35880    35662    34998    34447    34217    34319 
   34636    34970    35132    34963    34632    34427    34344    34310 
   34265    34102    33864    33566    33124    32738    32664    32788 
   32975    33307    33619    33567    33189    32807    32728    33092 
   33562    33654    33412    33246    33305    33336    33193    33015 
   32942    33083    33340    33431    33370    33342    33408    33662 
   34068    34349    34298    34098    34172    34549    34869    34979 
   34921    34842    34874    34840    34773    35017    35440    35741 
   36080    36460    36599    36610    36802    37160    37588    38043 
   38394    38572    38776    39183    39614    39820    39845    39764 
   39680    39766    39945    40136    40359    40350    39955    39417 
   39082    39127    39297    39236    39029    38826    38412    37625 
   36715    35919    35280    34948    34843    34599    34180    33786 
   33467    33238    33124    33169    33296    33249    33060    32875 
   32443    31650    30915    30634    30759    30954    31082    31325 
   31730    32040    31966    31523    31055    30705    30346    30082 
   30111    30352    30719    31405    32485    33575    34321    34771 
   35163    35725    36312    36478    36135    35592    35201    35178 
   35579    36197    36659    36991    37477    37975    38245    38254 
   38047    37916    38032    38047    37741    37327    36987    36764 
   36617    36293    35575    34680    34024    33732    33654    33538 
   33234    33027    33255    33685    34047    34416    34690    34699 
   34682    34844    34882    34611    34387    34406    34447    34407 
   34477    34908    35591    36046    36059    35864    35718    35729 
   35799    35764    35538    35051    34439    33990    33705    33543 
   33590    33758    34005    34350    34550    34483    34342    34317 
   34547    34979    35264    35260    35222    35399    35683    35757 
   35455    34855    34128    33409    32915    32879    33288    33891 
   34369    34609    34827    35078    35266    35537    35949    36344 
   36624    36724    36688    36651    36618    36512    36387    36443 
   36713    37003    37053    36895    36873    36981    36995    37065 
   37289    37540    37666    37462    36965    36443    36092    36008 
   36042    36030    35937    35692    35556    35910    36566    37099 
   37434    37762    37974    37598    36714    35969    35568    35260 
   34908    34456    33921    33440    33050    32736    32590    32455 
   31976    31305    30859    30626    30376    30083    29883    29839 
   29818    29722    29663    29729    29883    30167    30555    30889 
   31210    31756    32579    33420    34036    34348    34429    34649 
   35352    36301    36925    37027    36925    36940    37042    36944 
   36477    35950    35743    35808    35939    36101    36398    36898 
   37552    38236    38666    38589    38142    37762    37779    37959 
   37713    37172    37045    37358    37609    37609    37447    37343 
   37550    37848    37779    37535    37450    37260    36811    36393 
   36111    35802    35392    35021    34781    34514    34042    33511 
   33334    33710    34269    34609    34816    35064    35266    35244 
   34940    34435    33864    33386    33208    33399    33718    34011 
   34422    34928    35340    35671    35931    36094    36242    36364 
   36406    36344    36042    35498    35010    34728    34584    34514 
   34487    34439    34146    33538    33002    32733    32544    32501 
   32718    32984    33147    33284    33343    33208    33080    33131 
   33241    33446    33754    33885    33836    33882    34078    34379 
   34755    34985    34871    34620    34477    34352    34171    34040 
   34060    34302    34730    35203    35492    35383    35079    34905 
   34792    34636    34587    34730    35060    35584    36107    36327 
   36325    36408    36576    36703    36765    36644    36286    35984 
   35964    36117    36315    36485    36552    36558    36447    36123 
   35887    36003    36277    36445    36477    36553    36620    36458 
   36356    36537    36688    36649    36347    35748    35291    35264 
   35402    35498    35595    35714    35731    35561    35394    35325 
   35122    34812    34739    34992    35338    35550    35606    35629 
   35677    35702    35530    35114    34751    34645    34678    34730 
   34730    34692    34699    34831    35135    35425    35451    35355 
   35352    35345    35255    35171    35097    34965    34889    34948 
   34998    35100    35436    35868    36227    36455    36367    35846 
   35214    34975    35110    35232    35297    35321    35125    34812 
   34503    34037    33454    33048    32980    33139    33201    33023 
   32790    32552    32193    31781    31452    31240    31198    31322 
   31540    31864    32323    32803    33161    33444    33744    33974 
   34164    34472    34750    34771    34543    34156    33820    33759 
   33866    33921    34002    34250    34535    34728    34901    34958 
   34803    34653    34574    34446    34300    34095    33840    33802 
   34056    34381    34607    34696    34765    34978    35251    35388 
   35519    35943    36609    37103    37239    37403    37859    38159 
   38065    37928    37795    37655    37752    37939    37998    38082 
   38024    37513    36846    36381    35914    35436    35417    35873 
   36263    36215    35846    35656    35803    35989    36099    36148 
   36157    36189    36211    36205    36242    36416    36717    36922 
   36936    36859    36730    36578    36470    36477    36513    36315 
   35829    35259    34663    34110    33849    33871    33966    34111 
   34206    34172    34252    34587    35048    35472    35726    35784 
   35638    35310    34981    34812    34804    34784    34550    34234 
   34092    34091    34140    34204    34240    34304    34338    34155 
   33789    33463    33251    33030    32838    32853    32961    32937 
   32852    32923    33214    33555    33758    33814    33856    34001 
   34191    34280    34333    34538    34823    34933    34969    35213 
   35526    35668    35761    35947    36128    36109    35880    35733 
   35781    35743    35503    35310    35266    35247    35226    35241 
   35380    35738    36234    36626    36639    36296    36059    36077 
   36008    35856    35924    36123    36146    35895    35395    34873 
   34631    34623    34685    34803    34844    34701    34551    34631 
   34858    34955    34905    34811    34690    34653    34649    34470 
   34204    34076    34022    33878    33724    33702    33710    33646 
   33586    33617    33778    33957    33948    33880    34115    34639 
   34985    34915    34707    34565    34491    34541    34622    34578 
   34543    34647    34736    34663    34515    34376    34211    34164 
   34338    34420    34249    34146    34263    34362    34369    34430 
   34530    34596    34641    34699    35021    35671    36119    36132 
   36194    36532    36791    36745    36541    36413    36526    36761 
   36792    36694    36767    36941    37146    37463    37674    37597 
   37427    37346    37309    37162    36863    36591    36518    36566 
   36489    36211    35973    35996    36116    36036    35791    35653 
   35638    35460    35164    35032    34983    34896    34888    35028 
   35259    35519    35823    36157    36375    36375    36217    36042 
   35927    35835    35719    35556    35329    35048    34749    34493 
   34357    34381    34581    34835    34902    34759    34609    34426 
   34074    33791    33693    33498    33208    32948    32645    32427 
   32433    32574    32768    33016    33336    33615    33732    33828 
   34022    34191    34176    34010    33886    33906    34029    34175 
   34256    34296    34329    34357    34551    34858    34940    34796 
   34554    34323    34371    34576    34564    34547    34858    35158 
   35044    34742    34662    34854    35106    35334    35538    35633 
   35640    35684    35779    35811    35785    35846    35877    35649 
   35259    34892    34616    34572    34839    35160    35221    35104 
   35013    34969    35046    35276    35499    35652    35702    35587 
   35437    35371    35279    35055    34797    34709    34827    34982 
   35056    35071    35143    35305    35434    35545    35677    35631 
   35480    35648    36085    36359    36424    36497    36533    36436 
