Origin Time       2024/04/02 04:24:00
Lat.              40.133
Long.             141.712
Depth. (km)       71
Mag.              6.0
Station Code      AKTH17
Station Lat.      39.5575
Station Long.     140.6116
Station Height(m) -82
Record Time       2024/04/02 04:24:57
Sampling Freq(Hz) 100Hz
Duration Time(s)  182
Dir.              2
Scale Factor      3923(gal)/8224838
Max. Acc. (gal)   5.045
Last Correction   2024/04/02 04:24:57
Memo.             
[...]
  -21024   -21254   -21377   -21321   -21151   -21006   -21026   -21197 
  -21357   -21490   -21786   -22257   -22758   -23288   -23727   -23841 
  -23795   -23789   -23669   -23446   -23222   -22824   -22239   -21814 
  -21701   -21689   -21671   -21671   -21648   -21698   -21834   -21825 
  -21748   -21875   -22081   -22192   -22284   -22343   -22250   -22033 
  -21876   -21938   -22223   -22603   -22927   -23151   -23265   -23172 
  -22891   -22615   -22330   -21944   -21759   -22075   -22654   -23126 
  -23425   -23607   -23630   -23448   -23147   -22904   -22689   -22279 
  -21795   -21655   -21874   -22181   -22526   -22856   -22966   -22859 
  -22702   -22562   -22509   -22423   -21990   -21421   -21342   -21829 
  -22387   -22715   -22877   -22995   -23193   -23511   -23707   -23564 
  -23321   -23167   -22840   -22272   -22005   -22395   -22936   -23043 
  -22835   -22627   -22414   -22187   -22022   -21898   -21826   -21833 
  -21861   -21917   -22033   -22111   -22091   -22046   -21992   -21963 
  -22131   -22464   -22721   -22886   -22966   -22806   -22418   -22011 
  -21740   -21690   -21872   -22113   -22329   -22634   -22945   -22970 
  -22716   -22520   -22391   -22154   -22038   -22156   -22200   -22129 
  -22189   -22364   -22454   -22473   -22561   -22670   -22594   -22311 
  -22037   -21929   -21965   -22049   -22009   -21740   -21474   -21625 
  -22243   -22960   -23394   -23373   -23017   -22646   -22530   -22758 
  -23070   -23074   -22790   -22545   -22454   -22423   -22322   -22100 
  -21870   -21801   -21978   -22253   -22334   -22204   -22111   -22133 
  -22245   -22489   -22790   -22885   -22562   -21934   -21354   -21080 
  -21119   -21367   -21659   -21709   -21479   -21377   -21740   -22383 
  -22889   -23186   -23517   -23913   -24166   -24165   -23899   -23444 
  -22986   -22634   -22360   -22169   -22072   -22068   -22134   -22099 
  -21938   -21847   -21748   -21467   -21281   -21500   -21882   -21991 
  -21717   -21273   -21001   -21104   -21497   -21986   -22381   -22569 
  -22700   -22940   -23176   -23265   -23226   -22999   -22546   -22223 
  -22449   -23014   -23367   -23309   -23025   -22717   -22461   -22310 
  -22350   -22615   -22989   -23133   -22762   -21986   -21162   -20629 
  -20599   -20993   -21379   -21450   -21411   -21467   -21560   -21764 
  -22125   -22395   -22464   -22628   -23117   -23665   -23946   -24027 
  -23970   -23608   -23083   -22867   -23074   -23333   -23415   -23433 
  -23348   -22913   -22175   -21501   -21173   -21201   -21393   -21493 
  -21494   -21690   -22018   -21999   -21627   -21267   -20973   -20804 
  -20974   -21375   -21797   -22184   -22523   -22920   -23402   -23734 
  -23789   -23620   -23291   -22974   -22809   -22759   -22891   -23302 
  -23710   -23807   -23711   -23584   -23296   -22825   -22458   -22254 
  -21996   -21795   -21832   -21844   -21710   -21706   -21880   -21990 
  -22113   -22462   -22766   -22759   -22694   -22756   -22809   -22802 
  -22783   -22659   -22354   -22077   -22063   -22231   -22403   -22561 
  -22657   -22612   -22644   -22955   -23294   -23318   -22985   -22559 
  -22276   -22079   -21955   -22010   -22133   -22144   -22114   -22141 
  -22092   -21857   -21640   -21686   -21911   -22106   -22227   -22280 
  -22233   -22146   -22131   -22181   -22222   -22353   -22655   -22918 
  -23089   -23360   -23647   -23804   -23927   -24085   -24166   -23926 
  -23240   -22426   -21894   -21541   -21132   -20842   -20767   -20714 
  -20802   -21251   -21795   -22053   -22056   -21964   -21868   -21868 
  -21860   -21608   -21255   -21253   -21751   -22478   -23001   -22921 
  -22322   -21760   -21656   -22009   -22491   -22617   -22229   -21776 
  -21748   -22072   -22424   -22636   -22615   -22358   -22013   -21710 
  -21501   -21385   -21346   -21378   -21473   -21656   -21915   -22131 
  -22281   -22415   -22469   -22430   -22360   -22258   -22183   -22256 
  -22512   -22840   -23072   -23198   -23341   -23573   -23890   -24121 
  -24050   -23765   -23407   -22970   -22631   -22482   -22229   -21795 
  -21452   -21313   -21446   -21865   -22248   -22366   -22320   -22145 
  -21932   -21925   -22145   -22424   -22611   -22646   -22728   -23009 
  -23313   -23444   -23352   -23018   -22530   -22059   -21706   -21512 
  -21505   -21683   -22088   -22767   -23571   -24143   -24221   -23877 
  -23423   -23215   -23379   -23616   -23526   -23068   -22558   -22280 
  -22196   -22118   -22015   -22005   -22172   -22454   -22647   -22593 
  -22370   -22137   -21894   -21733   -21924   -22443   -22943   -23205 
  -23170   -22848   -22486   -22297   -22233   -22227   -22215   -22229 
  -22546   -23174   -23643   -23619   -23283   -23008   -22796   -22442 
  -22096   -21995   -22069   -22296   -22752   -23230   -23361   -23091 
  -22675   -22307   -22013   -21879   -22029   -22337   -22496   -22414 
  -22179   -21867   -21520   -21151   -20819   -20663   -20825   -21350 
  -21973   -22304   -22312   -22331   -22581   -22805   -22611   -22131 
  -21763   -21551   -21416   -21493   -21880   -22420   -22869   -23055 
  -22909   -22543   -22206   -22029   -21937   -21887   -21953   -22045 
  -21874   -21393   -20997   -21016   -21361   -21817   -22242   -22500 
  -22581   -22573   -22437   -22135   -21852   -21790   -21982   -22345 
  -22650   -22616   -22302   -22100   -22211   -22458   -22631   -22720 
  -22783   -22720   -22373   -21851   -21442   -21266   -21250   -21366 
  -21594   -21736   -21676   -21617   -21756   -22002   -22145   -22118 
  -21951   -21733   -21674   -21849   -21992   -21915   -21838   -21992 
  -22241   -22380   -22360   -22125   -21797   -21783   -22212   -22657 
  -22802   -22832   -22897   -22913   -22929   -23035   -23058   -22900 
  -22777   -22775   -22729   -22496   -22095   -21855   -22063   -22500 
  -22823   -22947   -22839   -22432   -21951   -21797   -21988   -22256 
  -22449   -22481   -22401   -22415   -22593   -22891   -23240   -23511 
  -23643   -23615   -23407   -23206   -23184   -23255   -23344   -23430 
  -23419   -23369   -23469   -23707   -23870   -23858   -23764   -23600 
  -23302   -22894   -22435   -22083   -22030   -22111   -22054   -21991 
  -22073   -22187   -22306   -22520   -22782   -22991   -23064   -22929 
  -22654   -22418   -22374   -22496   -22608   -22704   -22877   -23017 
  -23018   -22920   -22666   -22330   -22203   -22289   -22360   -22441 
  -22631   -22805   -22778   -22508   -22210   -22212   -22530   -22850 
  -22921   -22777   -22558   -22270   -21949   -21830   -21998   -22234 
  -22449   -22716   -22896   -22816   -22601   -22435   -22315   -22157 
  -22027   -22104   -22361   -22523   -22349   -21863   -21320   -20899 
  -20661   -20783   -21285   -21776   -21953   -21988   -22110   -22214 
  -22145   -22014   -21996   -22145   -22408   -22577   -22488   -22300 
  -22219   -22177   -22087   -22103   -22338   -22626   -22702   -22532 
  -22331   -22246   -22262   -22346   -22445   -22586   -22810   -22924 
  -22806   -22643   -22458   -22057   -21586   -21508   -21875   -22214 
  -22210   -22027   -21925   -21973   -22176   -22470   -22729   -22978 
  -23249   -23352   -23109   -22608   -22111   -21825   -21775   -21840 
  -21878   -21956   -22276   -22702   -22900   -22901   -22859   -22696 
  -22449   -22269   -22138   -21980   -21830   -21737   -21724   -21768 
  -21717   -21438   -21170   -21289   -21771   -22304   -22728   -23068 
  -23249   -23114   -22720   -22264   -21790   -21343   -21135   -21278 
  -21645   -22022   -22181   -22041   -21798   -21789   -22165   -22685 
  -23013   -23175   -23336   -23404   -23267   -23017   -22820   -22782 
  -22829   -22812   -22762   -22747   -22758   -22734   -22701   -22917 
  -23461   -23927   -24008   -23768   -23311   -22842   -22669   -22808 
  -22985   -22933   -22573   -22046   -21574   -21401   -21681   -22100 
  -22171   -21933   -21832   -22081   -22492   -22759   -22720   -22306 
  -21644   -21169   -21205   -21554   -21814   -21899   -21995   -22196 
  -22465   -22800   -23143   -23332   -23294   -23059   -22608   -21944 
  -21177   -20418   -19777   -19445   -19514   -19845   -20214   -20430 
  -20441   -20439   -20596   -20850   -21130   -21473   -21917   -22419 
  -22782   -22883   -22923   -23097   -23352   -23561   -23630   -23550 
  -23541   -23760   -23976   -24036   -24082   -24089   -23962   -23772 
  -23426   -22775   -22026   -21502   -21300   -21374   -21685   -22180 
  -22648   -22837   -22717   -22523   -22578   -22985   -23519   -23959 
  -24278   -24476   -24594   -24711   -24760   -24594   -24348   -24403 
  -24835   -25240   -25249   -24864   -24235   -23367   -22303   -21292 
  -20484   -19766   -19126   -18654   -18230   -17757   -17366   -17139 
  -17107   -17358   -17830   -18360   -19033   -19944   -20819   -21543 
  -22362   -23315   -24237   -25191   -26257   -27199   -27800   -28231 
  -28649   -28841   -28570   -27951   -27295   -26725   -26158   -25531 
  -24780   -23819   -22731   -21633   -20456   -19287   -18343   -17558 
  -16924   -16733   -17062   -17672   -18420   -19375   -20503   -21517 
  -22234   -22925   -23974   -25257   -26343   -27257   -28364   -29598 
  -30569   -31237   -31677   -31666   -31066   -29982   -28525   -26894 
  -25334   -23881   -22480   -21145   -19915   -18937   -18308   -17795 
  -17103   -16162   -15070   -14069   -13502   -13517   -13963   -14562 
  -15206   -16016   -16996   -18004   -19013   -20062   -21136   -22173 
  -23129   -23976   -24607   -25124   -25899   -26931   -27648   -27514 
  -26531   -25168   -23862   -22765   -21953   -21575   -21540   -21325 
  -20476   -19052   -17415   -15855   -14527   -13617   -13305   -13514 
  -14146   -15353   -17086   -18839   -20259   -21504   -22810   -24098 
  -25066   -25716   -26443   -27567   -29234   -31210   -32611   -32657 
  -31417   -29529   -27454   -25205   -22800   -20595   -19067   -18361 
  -18118   -17983   -17928   -17824   -17402   -16826   -16507   -16532 
  -16771   -17199   -17686   -17932   -17876   -17625   -17348   -17585 
  -18831   -21004   -23580   -25798   -27018   -27228   -26916   -26555 
  -26366   -26362   -26269   -25667   -24549   -23376   -22439   -21728 
  -21312   -21262   -21431   -21590   -21509   -20973   -19886   -18326 
  -16615   -15375   -15164   -15871   -16864   -17788   -18769   -19969 
  -21527   -23622   -26190   -28675   -30450   -31407   -31749   -31594 
  -31168   -30883   -30882   -30770   -29980   -28273   -25928   -23512 
  -21482   -20155   -19762   -20116   -20582   -20610   -20220   -19990 
  -20455   -21397   -22108   -22119   -21470   -20509   -19726   -19753 
  -20927   -22585   -23575   -23548   -23058   -22701   -22854   -23842 
  -25656   -27699   -29182   -29685   -29332   -28588   -27807   -27167 
  -26819   -26690   -26500   -26118   -25610   -25010   -24358   -23818 
  -23425   -23062   -22562   -21664   -20290   -18752   -17324   -16205 
  -15935   -16941   -18801   -20765   -22528   -23963   -24795   -25026 
  -25208   -25951   -27253   -28494   -29004   -28561   -27463   -26202 
  -25047   -23923   -22678   -21440   -20487   -19912   -19707   -19789 
  -19889   -19765   -19379   -18967   -19016   -19832   -21250   -22805 
  -24090   -24910   -25154   -24868   -24329   -23668   -22935   -22545 
  -22870   -23583   -23917   -23421   -22337   -21269   -20476   -19830 
  -19307   -19009   -18755   -18153   -17217   -16591   -16729   -17246 
  -17466   -17176   -16526   -15678   -14978   -14922   -15572   -16669 
  -18129   -19498   -19998   -19768   -19664   -20043   -20736   -21531 
  -22299   -22966   -23398   -23634   -24101   -25076   -26325   -27430 
  -27982   -27724   -26910   -26118   -25631   -25288   -24987   -24868 
  -24769   -24197   -23074   -21779   -20683   -20025   -19727   -19414 
  -18943   -18542   -18330   -18172   -18048   -18148   -18620   -19307 
  -19872   -20358   -21141   -22304   -23620   -24783   -25447   -25539 
  -25435   -25440   -25442   -25342   -25320   -25386   -25243   -24719 
  -23855   -22783   -21840   -21475   -21784   -22277   -22400   -22203 
  -22076   -22014   -21782   -21471   -21220   -20996   -21046   -21793 
  -23157   -24601   -25830   -26916   -27816   -28371   -28537   -28240 
  -27388   -26349   -25856   -26111   -26522   -26539   -26208   -25667 
  -24873   -24181   -24163   -24586   -24595   -23878   -22925   -22400 
  -22549   -23049   -23411   -23533   -23668   -23917   -24139   -24231 
  -24119   -23782   -23669   -24321   -25366   -25874   -25473   -24366 
  -22948   -21776   -21138   -20741   -20359   -20421   -21386   -22917 
  -24267   -25015   -25034   -24293   -23053   -21870   -21037   -20410 
  -19853   -19233   -18322   -17366   -17001   -17265   -17710   -18133 
  -18446   -18558   -18558   -18561   -18570   -18615   -18806   -19188 
  -19635   -20015   -20282   -20345   -20059   -19345   -18369   -17471 
  -16860   -16495   -16245   -16078   -16012   -15881   -15587   -15390 
  -15499   -15811   -16181   -16573   -16884   -16858   -16636   -16835 
  -17470   -17887   -17967   -17996   -17876   -17544   -17425   -17901 
  -18885   -20233   -22010   -23980   -25579   -26543   -26950   -26913 
  -26576   -26165   -25911   -25883   -26022   -26258   -26431   -26248 
  -25425   -23993   -22370   -21051   -20409   -20563   -21123   -21436 
  -21328   -21109   -20956   -20941   -21276   -21937   -22530   -22638 
  -22172   -21577   -21546   -22330   -23522   -24572   -25230   -25551 
  -25789   -26165   -26736   -27450   -28277   -29184   -29976   -30411 
  -30526   -30734   -31472   -32478   -32956   -32701   -32022   -30959 
  -29640   -28497   -27626   -26786   -25934   -25172   -24582   -24277 
  -24295   -24574   -25115   -25967   -26916   -27467   -27324   -26680 
  -25905   -25220   -24826   -24829   -24872   -24532   -23982   -23622 
  -23565   -23900   -24698   -25485   -25510   -24572   -23068   -21636 
  -20791   -20663   -21219   -22199   -22945   -23101   -22924   -22690 
  -22389   -21910   -21203   -20289   -19291   -18527   -18285   -18470 
  -18856   -19483   -20189   -20395   -19992   -19592   -19754   -20700 
  -22354   -24179   -25478   -25994   -25979   -25774   -25560   -25417 
  -25346   -25254   -24981   -24359   -23449   -22586   -21859   -21039 
  -20213   -19673   -19460   -19491   -19691   -19800   -19670   -19593 
  -19795   -20096   -20474   -20999   -21429   -21554   -21327   -20783 
  -20299   -20285   -20638   -20983   -21076   -20925   -20746   -20815 
  -21312   -22103   -22717   -22820   -22461   -21876   -21327   -20934 
  -20525   -19797   -18550   -16791   -14874   -13419   -12764   -12754 
  -13054   -13335   -13548   -14023   -14963   -16249   -17705   -19143 
  -20389   -21359   -22100   -22763   -23436   -24102   -24624   -24779 
  -24560   -24121   -23546   -22933   -22388   -21834   -21200   -20707 
  -20466   -20154   -19541   -18760   -18077   -17701   -17680   -17923 
  -18226   -18347   -18264   -18135   -18112   -18246   -18450   -18603 
  -18831   -19408   -20336   -21243   -21799   -21982   -21998   -22203 
  -22673   -22950   -22823   -22620   -22555   -22638   -22931   -23359 
  -23565   -23377   -23090   -22842   -22374   -21689   -21062   -20534 
  -20104   -19935   -19962   -19867   -19642   -19622   -20000   -20645 
  -21309   -21828   -22153   -22362   -22611   -22898   -23052   -23107 
  -23337   -23819   -24372   -25004   -25816   -26522   -26789   -26747 
  -26450   -25633   -24572   -24044   -24277   -24943   -25726   -26248 
  -26356   -26511   -26982   -27311   -27068   -26374   -25668   -25312 
  -25384   -25790   -26365   -26862   -27120   -27059   -26662   -26231 
  -26196   -26557   -26982   -27454   -28248   -29181   -29621   -29300 
  -28417   -27197   -25907   -24883   -24309   -24152   -24259   -24537 
  -24966   -25351   -25466   -25408   -25346   -25250   -25162   -25195 
  -25243   -25219   -25231   -25344   -25479   -25505   -25381   -25278 
  -25373   -25544   -25475   -25029   -24443   -24042   -23899   -23982 
  -24340   -24906   -25381   -25521   -25327   -24817   -23874   -22495 
  -20929   -19680   -19242   -19643   -20641   -21969   -23121   -23734 
  -23917   -23814   -23390   -22639   -21766   -21136   -20976   -21219 
  -21672   -22126   -22330   -22129   -21523   -20731   -20235   -20264 
  -20501   -20619   -20594   -20478   -20367   -20378   -20510   -20644 
  -20591   -20308   -19981   -19745   -19541   -19373   -19388   -19603 
  -19758   -19734   -19769   -19951   -20078   -20083   -19982   -19780 
  -19668   -19719   -19684   -19546   -19620   -19984   -20422   -20709 
  -20646   -20233   -19764   -19406   -19066   -18862   -19032   -19480 
  -19973   -20390   -20588   -20451   -20088   -19701   -19290   -18655 
  -17763   -16987   -16787   -17235   -17964   -18486   -18607   -18532 
  -18519   -18546   -18597   -18863   -19272   -19476   -19526   -19739 
  -20160   -20802   -21720   -22643   -23214   -23359   -23129   -22746 
  -22657   -22902   -22887   -22279   -21478   -20918   -20559   -20351 
  -20457   -20704   -20713   -20563   -20514   -20610   -20891   -21278 
  -21537   -21743   -22188   -22721   -22889   -22650   -22360   -22293 
  -22531   -23140   -24094   -25132   -25974   -26550   -26871   -26847 
  -26439   -25807   -25072   -24306   -23652   -23166   -22801   -22499 
  -22270   -22245   -22457   -22765   -23055   -23303   -23441   -23368 
  -23078   -22542   -21813   -21320   -21392   -21768   -22065   -22144 
  -21979   -21694   -21587   -21844   -22188   -22145   -21725   -21285 
  -21016   -21155   -22060   -23564   -24914   -25635   -25674   -25010 
  -23882   -22867   -22408   -22607   -23191   -23612   -23638   -23552 
  -23458   -23170   -22828   -22860   -23396   -24102   -24463   -24295 
  -23990   -23998   -24283   -24555   -24652   -24564   -24503   -24675 
  -24861   -24823   -24810   -25068   -25519   -26161   -26859   -27099 
  -26717   -26037   -25184   -24250   -23654   -23608   -23908   -24405 
  -25054   -25662   -25944   -25818   -25486   -25192   -24964   -24665 
  -24190   -23537   -22748   -21844   -20899   -20241   -20155   -20507 
  -21146   -21914   -22351   -22343   -22316   -22424   -22485   -22485 
  -22547   -22639   -22551   -22203   -21743   -21367   -21276   -21544 
  -21967   -22275   -22320   -22059   -21641   -21325   -21200   -21305 
  -21712   -22277   -22643   -22585   -22350   -22275   -22307   -22249 
  -22021   -21744   -21751   -22219   -23031   -23861   -24162   -23747 
  -23137   -22751   -22577   -22566   -22601   -22639   -22891   -23220 
  -23133   -22674   -22361   -22415   -22738   -23153   -23411   -23278 
  -22711   -21903   -21223   -20934   -20983   -21080   -21028   -20946 
  -20953   -20943   -20869   -20853   -20949   -20996   -20898   -20821 
  -20883   -20985   -21045   -21073   -21185   -21393   -21501   -21482 
  -21527   -21714   -22011   -22361   -22646   -22788   -22873   -23055 
  -23454   -24034   -24389   -24111   -23396   -22696   -22087   -21609 
  -21535   -21838   -22060   -21994   -22044   -22580   -23303   -23754 
  -23967   -24063   -23923   -23596   -23237   -22731   -21925   -20956 
  -20124   -19664   -19549   -19661   -20109   -20866   -21505   -21764 
  -21729   -21489   -21155   -20838   -20592   -20601   -20964   -21487 
  -22048   -22580   -22782   -22515   -22135   -21965   -21868   -21582 
  -21062   -20368   -19579   -18935   -18603   -18397   -18130   -17919 
