Origin Time       2024/04/02 04:24:00
Lat.              40.133
Long.             141.712
Depth. (km)       71
Mag.              6.0
Station Code      AKTH12
Station Lat.      39.9155
Station Long.     140.2221
Station Height(m) -10
Record Time       2024/04/02 04:24:59
Sampling Freq(Hz) 100Hz
Duration Time(s)  120
Dir.              2
Scale Factor      2942(gal)/8224139
Max. Acc. (gal)   3.226
Last Correction   2024/04/02 04:24:59
Memo.             
[...]
  -52675   -52647   -52886   -53177   -53433   -53677   -53870   -53916 
  -53836   -53788   -53924   -54244   -54606   -54955   -55286   -55490 
  -55412   -55013   -54557   -54410   -54641   -54986   -55086   -54857 
  -54571   -54488   -54549   -54522   -54333   -54144   -54162   -54368 
  -54499   -54394   -54167   -53954   -53792   -53719   -53788   -54098 
  -54665   -55260   -55636   -55746   -55732   -55837   -56137   -56440 
  -56519   -56242   -55655   -54967   -54421   -54182   -54199   -54297 
  -54483   -54892   -55530   -56212   -56674   -56824   -56818   -56799 
  -56664   -56177   -55297   -54355   -53777   -53624   -53532   -53265 
  -53106   -53360   -53906   -54376   -54452   -54201   -54075   -54301 
  -54564   -54496   -54139   -53797   -53658   -53616   -53465   -53199 
  -53041   -53196   -53626   -54128   -54656   -55262   -55849   -56173 
  -56053   -55578   -55001   -54415   -53713   -52883   -52207   -52089 
  -52579   -53214   -53508   -53488   -53522   -53835   -54344   -54729 
  -54820   -54882   -55113   -55313   -55225   -54838   -54399   -54264 
  -54507   -54781   -54760   -54530   -54438   -54619   -54823   -54772 
  -54510   -54297   -54280   -54352   -54341   -54275   -54314   -54531 
  -54812   -54920   -54773   -54540   -54360   -54103   -53570   -52882 
  -52421   -52442   -52868   -53410   -53811   -54147   -54726   -55553 
  -56276   -56592   -56484   -56282   -56343   -56604   -56775   -56713 
  -56504   -56389   -56516   -56709   -56704   -56527   -56411   -56471 
  -56641   -56737   -56608   -56277   -55854   -55347   -54795   -54326 
  -53943   -53595   -53280   -52940   -52624   -52573   -52849   -53239 
  -53595   -53928   -54275   -54606   -54837   -54869   -54626   -54164 
  -53711   -53454   -53426   -53482   -53391   -53117   -52856   -52735 
  -52745   -52867   -53025   -53131   -53203   -53245   -53203   -53158 
  -53318   -53746   -54214   -54454   -54430   -54324   -54355   -54572 
  -54846   -55077   -55286   -55541   -55744   -55719   -55567   -55498 
  -55545   -55687   -55875   -55976   -56007   -56041   -55881   -55394 
  -54884   -54665   -54670   -54687   -54604   -54514   -54591   -54835 
  -55051   -55080   -54989   -54993   -55117   -55062   -54552   -53801 
  -53300   -53204   -53320   -53365   -53187   -52941   -52879   -53065 
  -53423   -53933   -54533   -55012   -55254   -55341   -55422   -55578 
  -55749   -55806   -55682   -55470   -55390   -55489   -55521   -55328 
  -55005   -54677   -54463   -54476   -54638   -54799   -55008   -55274 
  -55398   -55320   -55147   -54951   -54735   -54475   -54218   -54066 
  -53990   -53927   -53870   -53832   -53894   -54056   -54160   -54095 
  -53917   -53838   -53966   -54089   -54045   -53948   -53886   -53835 
  -53696   -53387   -53099   -53217   -53759   -54305   -54526   -54438 
  -54292   -54303   -54421   -54472   -54448   -54500   -54749   -55109 
  -55391   -55583   -55800   -56033   -56138   -56022   -55776   -55692 
  -55922   -56169   -56085   -55709   -55309   -55050   -54853   -54517 
  -54052   -53770   -53893   -54228   -54379   -54198   -53947   -53928 
  -54135   -54378   -54477   -54380   -54263   -54264   -54241   -54028 
  -53640   -53293   -53194   -53237   -53208   -53167   -53185   -53234 
  -53343   -53442   -53369   -53200   -53117   -53164   -53397   -53851 
  -54345   -54669   -54747   -54629   -54504   -54598   -54877   -55125 
  -55235   -55255   -55291   -55421   -55537   -55452   -55213   -55058 
  -55043   -55007   -54878   -54738   -54681   -54799   -55071   -55356 
  -55605   -55873   -56085   -56108   -55941   -55669   -55482   -55521 
  -55645   -55622   -55432   -55213   -55065   -54928   -54702   -54421 
  -54226   -54224   -54338   -54360   -54217   -54059   -54062   -54220 
  -54368   -54448   -54492   -54494   -54515   -54607   -54691   -54733 
  -54774   -54742   -54519   -54251   -54232   -54510   -54865   -55042 
  -54928   -54712   -54658   -54735   -54803   -54905   -55082   -55259 
  -55298   -55043   -54554   -54206   -54286   -54653   -54940   -54930 
  -54750   -54657   -54646   -54549   -54274   -53929   -53750   -53775 
  -53831   -53812   -53794   -53927   -54121   -54086   -53815   -53569 
  -53530   -53677   -53815   -53777   -53642   -53643   -53870   -54168 
  -54396   -54531   -54577   -54541   -54392   -54195   -54114   -54162 
  -54226   -54175   -53865   -53399   -53195   -53403   -53728   -53956 
  -54113   -54309   -54645   -55071   -55355   -55350   -55219   -55143 
  -55096   -55028   -54940   -54877   -54939   -55115   -55348   -55641 
  -55950   -56292   -56644   -56809   -56722   -56509   -56184   -55733 
  -55301   -54980   -54745   -54581   -54437   -54238   -54020   -53875 
  -53802   -53731   -53653   -53577   -53515   -53457   -53343   -53194 
  -53152   -53283   -53512   -53692   -53740   -53735   -53839   -54153 
  -54607   -54967   -55054   -54965   -54888   -54823   -54719   -54589 
  -54469   -54441   -54533   -54650   -54680   -54611   -54573   -54649 
  -54716   -54622   -54379   -54144   -54048   -53994   -53808   -53520 
  -53308   -53347   -53678   -54097   -54369   -54475   -54537   -54660 
  -54772   -54729   -54607   -54606   -54719   -54766   -54670   -54579 
  -54697   -55059   -55416   -55414   -55011   -54585   -54515   -54826 
  -55254   -55475   -55426   -55333   -55325   -55386   -55483   -55497 
  -55368   -55150   -54830   -54480   -54276   -54244   -54306   -54434 
  -54541   -54595   -54706   -54908   -55113   -55259   -55327   -55277 
  -55073   -54762   -54432   -54162   -53968   -53789   -53650   -53616 
  -53649   -53762   -53970   -54236   -54569   -54892   -55035   -54999 
  -54877   -54708   -54571   -54483   -54352   -54268   -54364   -54575 
  -54812   -55032   -55206   -55364   -55445   -55294   -54947   -54627 
  -54548   -54757   -55046   -55096   -54847   -54580   -54525   -54639 
  -54765   -54754   -54612   -54490   -54429   -54324   -54094   -53763 
  -53442   -53261   -53245   -53303   -53352   -53412   -53572   -53846 
  -54128   -54297   -54371   -54465   -54594   -54676   -54716   -54781 
  -54931   -55124   -55170   -54950   -54571   -54248   -54166   -54321 
  -54529   -54697   -54876   -55066   -55193   -55205   -55142   -55128 
  -55247   -55378   -55308   -54996   -54684   -54643   -54834   -55009 
  -55048   -55011   -55047   -55192   -55219   -54958   -54562   -54326 
  -54436   -54749   -54909   -54770   -54522   -54448   -54573   -54627 
  -54434   -54070   -53703   -53461   -53339   -53217   -53076   -53045 
  -53210   -53499   -53761   -53944   -54143   -54423   -54707   -54870 
  -54861   -54718   -54588   -54602   -54681   -54685   -54565   -54379 
  -54259   -54230   -54213   -54234   -54353   -54529   -54692   -54785 
  -54761   -54685   -54685   -54747   -54746   -54615   -54442   -54402 
  -54510   -54596   -54533   -54361   -54252   -54332   -54504   -54518 
  -54268   -53935   -53781   -53882   -54079   -54140   -54016   -53916 
  -54012   -54189   -54252   -54187   -54120   -54198   -54427   -54588 
  -54506   -54318   -54287   -54419   -54486   -54372   -54244   -54294 
  -54502   -54689   -54696   -54567   -54494   -54561   -54685   -54778 
  -54864   -55046   -55368   -55687   -55834   -55865   -55918   -55968 
  -55903   -55660   -55254   -54837   -54598   -54503   -54436   -54396 
  -54395   -54480   -54693   -54881   -54854   -54668   -54560   -54670 
  -54934   -55179   -55287   -55252   -55202   -55278   -55409   -55399 
  -55281   -55237   -55362   -55633   -55899   -56019   -56026   -56042 
  -56106   -56116   -55989   -55786   -55607   -55489   -55418   -55336 
  -55239   -55146   -55001   -54814   -54650   -54596   -54685   -54731 
  -54548   -54184   -53833   -53678   -53686   -53669   -53620   -53662 
  -53840   -54121   -54334   -54330   -54221   -54198   -54230   -54148 
  -53886   -53601   -53503   -53604   -53663   -53482   -53183   -53053 
  -53185   -53437   -53592   -53545   -53462   -53558   -53755   -53855 
  -53811   -53685   -53588   -53607   -53725   -53866   -53979   -54160 
  -54472   -54751   -54884   -54945   -55030   -55189   -55363   -55448 
  -55458   -55435   -55408   -55426   -55471   -55422   -55258   -55092 
  -54967   -54835   -54653   -54357   -53936   -53568   -53396   -53322 
  -53238   -53160   -53129   -53215   -53437   -53739   -54112   -54541 
  -54961   -55278   -55444   -55462   -55337   -55111   -54766   -54232 
  -53609   -53119   -52861   -52817   -52901   -52994   -53123   -53376 
  -53711   -54052   -54295   -54349   -54324   -54372   -54477   -54584 
  -54708   -54885   -55082   -55237   -55320   -55291   -55167   -55032 
  -54884   -54669   -54483   -54425   -54438   -54465   -54546   -54764 
  -55198   -55738   -56107   -56170   -56019   -55799   -55605   -55424 
  -55173   -54839   -54604   -54550   -54473   -54302   -54218   -54261 
  -54367   -54486   -54476   -54321   -54272   -54449   -54711   -54935 
  -55046   -55100   -55200   -55294   -55313   -55266   -55198   -55165 
  -55169   -55127   -55004   -54885   -54808   -54722   -54600   -54426 
  -54229   -54095   -54048   -54090   -54209   -54271   -54237   -54199 
  -54112   -53971   -53937   -54021   -54147   -54264   -54318   -54367 
  -54449   -54513   -54579   -54712   -54876   -54946   -54859   -54638 
  -54334   -54106   -54108   -54280   -54477   -54618   -54658   -54650 
  -54665   -54668   -54635   -54595   -54579   -54627   -54730   -54815 
  -54815   -54703   -54527   -54352   -54197   -54082   -54093   -54286 
  -54549   -54743   -54814   -54723   -54584   -54561   -54611   -54603 
  -54560   -54635   -54882   -55131   -55183   -55061   -54939   -54990 
  -55174   -55217   -54967   -54643   -54560   -54757   -54999   -55046 
  -54913   -54811   -54841   -54912   -54882   -54749   -54679   -54760 
  -54851   -54818   -54742   -54778   -54927   -55066   -55088   -55003 
  -54959   -55046   -55161   -55166   -55058   -54984   -55008   -55007 
  -54853   -54525   -54136   -53900   -53916   -54089   -54265   -54372 
  -54446   -54561   -54670   -54648   -54437   -54118   -53910   -53943 
  -54044   -54004   -53817   -53622   -53581   -53720   -53867   -53920 
  -53955   -54035   -54139   -54189   -54128   -54075   -54210   -54471 
  -54634   -54615   -54480   -54329   -54209   -54098   -54029   -54090 
  -54288   -54495   -54513   -54280   -53985   -53847   -53902   -54033 
  -54118   -54174   -54302   -54533   -54769   -54855   -54724   -54500 
  -54364   -54379   -54467   -54464   -54299   -54085   -53939   -53865 
  -53847   -53856   -53941   -54248   -54751   -55205   -55379   -55266 
  -55061   -54919   -54855   -54810   -54714   -54608   -54558   -54545 
  -54531   -54498   -54448   -54394   -54268   -54025   -53774   -53670 
  -53773   -53970   -54075   -54102   -54139   -54166   -54167   -54140 
  -54091   -54144   -54363   -54565   -54548   -54292   -53954   -53769 
  -53823   -54014   -54221   -54379   -54502   -54646   -54789   -54895 
  -54981   -55023   -54965   -54832   -54684   -54562   -54496   -54457 
  -54399   -54332   -54332   -54454   -54689   -54977   -55213   -55345 
  -55424   -55495   -55553   -55559   -55491   -55410   -55390   -55458 
  -55611   -55806   -55985   -56160   -56338   -56439   -56388   -56216 
  -56034   -55904   -55742   -55412   -54953   -54527   -54294   -54313 
  -54460   -54568   -54599   -54619   -54652   -54621   -54517   -54457 
  -54511   -54648   -54793   -54857   -54851   -54882   -54977   -55067 
  -55085   -55016   -54855   -54646   -54464   -54299   -54174   -54112 
  -54009   -53825   -53604   -53366   -53195   -53123   -53109   -53185 
  -53356   -53511   -53595   -53613   -53596   -53568   -53530   -53473 
  -53387   -53271   -53172   -53127   -53134   -53223   -53412   -53631 
  -53815   -53939   -53989   -54016   -54048   -54017   -53897   -53697 
  -53427   -53146   -52878   -52606   -52331   -52069   -51868   -51765 
  -51761   -51831   -51933   -52062   -52243   -52412   -52574   -52803 
  -53042   -53229   -53406   -53582   -53778   -54012   -54194   -54247 
  -54175   -54059   -54031   -54091   -54064   -53887   -53665   -53503 
  -53449   -53388   -53191   -52928   -52690   -52485   -52340   -52265 
  -52236   -52255   -52330   -52450   -52601   -52791   -53003   -53140 
  -53163   -53217   -53437   -53755   -53994   -54031   -53950   -53987 
  -54216   -54463   -54600   -54669   -54804   -55075   -55317   -55267 
  -54947   -54637   -54526   -54606   -54715   -54710   -54629   -54557 
  -54494   -54477   -54589   -54845   -55215   -55606   -55950   -56340 
  -56882   -57535   -58167   -58677   -59088   -59518   -60034   -60563 
  -61045   -61429   -61670   -61890   -62209   -62541   -62777   -62885 
  -62800   -62518   -62218   -62004   -61777   -61461   -61102   -60813 
  -60674   -60664   -60716   -60799   -60903   -60987   -60997   -60913 
  -60755   -60575   -60447   -60389   -60354   -60332   -60359   -60362 
  -60276   -60200   -60151   -59994   -59638   -59117   -58646   -58422 
  -58302   -58072   -57761   -57465   -57235   -57080   -56890   -56619 
  -56424   -56358   -56239   -55895   -55341   -54807   -54477   -54220 
  -53785   -53137   -52465   -51950   -51610   -51339   -51040   -50711 
  -50429   -50249   -50137   -50017   -49900   -49943   -50225   -50598 
  -50884   -51052   -51105   -51063   -51031   -51001   -50866   -50650 
  -50418   -50155   -49837   -49447   -49023   -48637   -48343   -48118 
  -47856   -47526   -47179   -46873   -46665   -46496   -46264   -45986 
  -45706   -45522   -45558   -45781   -46109   -46511   -46884   -47175 
  -47447   -47684   -47852   -47961   -48039   -48177   -48475   -48883 
  -49254   -49484   -49553   -49563   -49670   -49875   -50048   -50129 
  -50191   -50329   -50477   -50453   -50244   -50064   -50068   -50240 
  -50481   -50719   -50955   -51241   -51592   -51948   -52250   -52531 
  -52834   -53144   -53474   -53897   -54438   -55057   -55622   -55950 
  -56045   -56108   -56350   -56857   -57449   -57846   -58008   -58054 
  -58095   -58197   -58306   -58315   -58212   -58066   -57936   -57870 
  -57908   -57996   -58043   -58036   -57989   -57973   -58122   -58341 
  -58391   -58274   -58125   -58008   -57959   -57906   -57738   -57550 
  -57545   -57790   -58214   -58676   -59047   -59285   -59405   -59370 
  -59143   -58878   -58760   -58772   -58772   -58652   -58429   -58210 
  -58090   -58070   -58070   -58056   -58105   -58257   -58383   -58320 
  -58147   -58077   -58166   -58293   -58357   -58388   -58463   -58595 
  -58703   -58627   -58325   -57993   -57823   -57743   -57545   -57165 
  -56729   -56416   -56312   -56305   -56289   -56282   -56263   -56157 
  -55954   -55736   -55586   -55552   -55642   -55711   -55587   -55339 
  -55078   -54823   -54589   -54348   -54166   -54156   -54170   -53937 
  -53408   -52797   -52458   -52548   -52821   -52917   -52733   -52419 
  -52188   -52137   -52130   -52002   -51837   -51811   -51915   -52014 
  -51953   -51688   -51422   -51382   -51507   -51544   -51398   -51290 
  -51413   -51754   -52178   -52470   -52610   -52786   -52957   -52971 
  -52910   -52868   -52821   -52793   -52731   -52529   -52272   -52124 
  -52112   -52192   -52309   -52419   -52585   -52870   -53157   -53306 
  -53329   -53314   -53345   -53431   -53545   -53705   -53933   -54159 
  -54275   -54255   -54166   -54110   -54130   -54159   -54130   -54103 
  -54112   -54133   -54197   -54257   -54255   -54274   -54372   -54511 
  -54650   -54747   -54751   -54649   -54527   -54465   -54440   -54488 
  -54627   -54746   -54774   -54696   -54514   -54280   -54072   -53910 
  -53774   -53711   -53704   -53611   -53376   -53086   -52839   -52695 
  -52629   -52574   -52535   -52597   -52828   -53127   -53322   -53427 
  -53563   -53801   -54135   -54463   -54673   -54804   -54973   -55200 
  -55398   -55486   -55509   -55617   -55833   -56014   -56018   -55842 
  -55656   -55601   -55645   -55742   -55888   -56068   -56245   -56359 
  -56363   -56250   -56054   -55788   -55381   -54803   -54145   -53599 
  -53331   -53260   -53218   -53175   -53133   -53127   -53198   -53241 
  -53195   -53187   -53329   -53631   -54016   -54310   -54384   -54314 
  -54255   -54263   -54353   -54533   -54710   -54818   -54870   -54857 
  -54801   -54781   -54804   -54847   -54904   -54958   -55057   -55263 
  -55502   -55665   -55721   -55660   -55534   -55432   -55395   -55537 
  -55949   -56477   -56930   -57315   -57639   -57871   -57973   -57905 
  -57689   -57354   -56953   -56597   -56354   -56203   -56095   -55989 
  -55858   -55687   -55490   -55313   -55183   -55115   -55140   -55287 
  -55479   -55587   -55615   -55620   -55582   -55514   -55422   -55283 
  -55117   -54923   -54604   -54140   -53696   -53442   -53396   -53477 
  -53539   -53450   -53249   -53119   -53137   -53253   -53434   -53696 
  -54066   -54533   -55017   -55409   -55614   -55611   -55509   -55429 
  -55404   -55409   -55374   -55246   -55081   -54962   -54927   -54940 
  -54862   -54631   -54407   -54301   -54288   -54361   -54463   -54549 
  -54661   -54827   -54993   -55082   -55039   -54874   -54689   -54568 
  -54488   -54417   -54365   -54341   -54334   -54342   -54328   -54174 
  -53850   -53441   -52999   -52643   -52539   -52627   -52705   -52670 
  -52516   -52335   -52255   -52258   -52207   -52061   -51892   -51803 
  -51846   -52019   -52320   -52702   -53046   -53308   -53530   -53709 
  -53855   -54045   -54260   -54361   -54253   -53973   -53634   -53330 
  -53091   -52933   -52887   -52953   -53090   -53265   -53369   -53338 
  -53256   -53141   -52918   -52581   -52257   -52143   -52236   -52389 
  -52567   -52756   -52918   -53107   -53339   -53461   -53374   -53291 
  -53470   -53840   -54163   -54330   -54395   -54486   -54716   -55067 
  -55412   -55696   -55953   -56204   -56446   -56635   -56775   -56963 
  -57277   -57608   -57748   -57642   -57402   -57168   -56998   -56801 
  -56473   -56038   -55674   -55563   -55617   -55634   -55588   -55539 
  -55590   -55830   -56099   -56197   -56169   -56145   -56166   -56192 
  -56201   -56238   -56343   -56533   -56724   -56812   -56853   -56943 
  -57099   -57269   -57316   -57148   -56826   -56455   -56112   -55821 
  -55541   -55309   -55150   -54993   -54846   -54757   -54684   -54562 
  -54417   -54346   -54418   -54606   -54816   -54947   -55004   -55105 
  -55302   -55506   -55587   -55471   -55232   -54955   -54623   -54283 
  -54010   -53796   -53609   -53374   -53007   -52589   -52301   -52246 
  -52370   -52512   -52600   -52729   -53003   -53366   -53657   -53806 
  -53925   -54091   -54207   -54187   -54060   -53928   -53944   -54141 
  -54332   -54364   -54276   -54211   -54251   -54298   -54267   -54222 
  -54272   -54427   -54599   -54702   -54788   -54999   -55368   -55776 
  -56066   -56223   -56384   -56583   -56654   -56435   -55984   -55545 
  -55344   -55391   -55459   -55312   -54916   -54338   -53690   -53115 
  -52695   -52451   -52412   -52552   -52759   -52991   -53296   -53658 
  -53978   -54129   -54036   -53797   -53630   -53665   -53815   -53892 
  -53829   -53704   -53609   -53534   -53370   -53053   -52671   -52419 
  -52388   -52477   -52519   -52462   -52382   -52369   -52404   -52374 
  -52294   -52390   -52691   -52948   -53006   -52855   -52660   -52726 
  -53042   -53354   -53566   -53693   -53824   -54048   -54244   -54271 
