Origin Time       2024/04/02 04:24:00
Lat.              40.133
Long.             141.712
Depth. (km)       71
Mag.              6.0
Station Code      AKTH04
Station Lat.      39.1740
Station Long.     140.7129
Station Height(m) 180
Record Time       2024/04/02 04:24:59
Sampling Freq(Hz) 100Hz
Duration Time(s)  139
Dir.              2
Scale Factor      2940(gal)/6170270
Max. Acc. (gal)   4.511
Last Correction   2024/04/02 04:24:44
Memo.             
[...]
  122079   121983   121877   122054   122335   122266   122003   122024 
  122158   121993   121729   121627   121559   121445   121326   121371 
  121678   121927   121841   121397   120856   120860   121462   122031 
  122289   122089   121493   121127   121236   121489   121690   121901 
  122029   121838   121434   121008   120813   121131   121580   121737 
  121718   121535   121220   121045   120898   120533   120276   120325 
  120451   120811   121441   121786   121658   121393   121145   120994 
  120987   120851   120786   121392   122270   122584   122401   122259 
  122062   121558   121441   122012   122367   122190   121975   121980 
  122041   122029   122022   121872   121505   121050   120562   120287 
  120499   121099   121547   121576   121412   121177   121081   121154 
  121063   120898   120990   121251   121358   121314   121463   121807 
  121925   121799   121947   122319   122289   122050   122181   122304 
  122078   121962   122077   122067   121792   121465   121505   121829 
  121921   121757   121544   121272   121053   121097   121279   121325 
  121356   121504   121464   121136   121027   121414   121781   121590 
  121039   120835   121087   121127   120911   121037   121492   121743 
  121691   121719   121875   121858   121681   121664   121844   121860 
  121646   121570   121750   122014   122214   122200   121848   121281 
  120936   120924   120867   120771   120950   121320   121521   121529 
  121760   122102   121928   121434   121247   121283   121158   120932 
  120986   121247   121343   121322   121398   121498   121287   120935 
  121048   121453   121704   121914   122178   122350   122329   122166 
  122106   122198   122108   121895   121944   122030   121951   121974 
  122036   122028   121946   121621   121213   121062   121164   121244 
  121184   121264   121495   121547   121595   121841   121859   121578 
  121461   121383   121037   120734   120658   120647   120733   120842 
  120868   121053   121491   121945   122188   122139   121890   121579 
  121274   121146   121280   121324   121187   121234   121378   121325 
  121263   121400   121390   121004   120694   120598   120575   120864 
  121300   121593   121693   121423   121230   121429   121390   121108 
  121189   121554   121833   122038   122239   122351   122356   122098 
  121671   121491   121462   121431   121562   121709   121685   121742 
  121962   122045   122164   122536   122699   122506   122270   122102 
  122067   122160   122159   121974   121845   121837   121796   121756 
  121608   121230   120977   121179   121616   121921   122107   122234 
  122168   121976   121799   121728   121694   121306   120877   121000 
  121193   121165   121243   121387   121697   122109   122012   121483 
  121117   120895   120762   120865   120992   121131   121283   121141 
  120927   120888   120894   121009   121130   121008   120821   120833 
  121049   121366   121498   121243   121082   121395   121687   121652 
  121584   121549   121439   121411   121576   121654   121526   121407 
  121437   121617   121727   121731   121735   121523   121304   121488 
  121722   121674   121608   121593   121443   121314   121406   121539 
  121535   121518   121533   121558   121685   121697   121589   121710 
  121928   121985   121838   121622   121606   121712   121759   121802 
  121827   121840   121924   121909   121669   121454   121587   121938 
  121967   121727   121591   121414   121304   121365   121227   121013 
  121158   121529   121770   121842   121785   121537   121326   121429 
  121501   121243   120978   120906   120977   121189   121379   121449 
  121519   121557   121395   121084   120918   121086   121385   121622 
  121917   122187   122216   122003   121668   121510   121556   121540 
  121583   121798   121968   121986   121904   121752   121620   121584 
  121521   121454   121415   121257   121210   121501   121804   121804 
  121598   121432   121362   121374   121343   121102   120960   121177 
  121448   121661   121905   121917   121640   121427   121397   121454 
  121459   121301   121234   121403   121496   121543   121757   121840 
  121672   121598   121634   121554   121479   121656   121963   122105 
  121989   121705   121514   121514   121473   121464   121736   121977 
  121905   121797   121805   121808   121753   121612   121439   121443 
  121589   121561   121523   121729   121745   121526   121449   121437 
  121463   121536   121471   121287   121129   121092   121230   121335 
  121278   121384   121655   121651   121415   121375   121489   121399 
  121337   121537   121641   121633   121638   121492   121383   121545 
  121752   121674   121357   121234   121313   121282   121302   121418 
  121337   121128   121019   121060   121282   121611   121755   121665 
  121584   121500   121298   121072   120985   121106   121261   121297 
  121266   121185   121189   121396   121492   121308   121192   121379 
  121685   121775   121653   121771   122200   122367   122063   121651 
  121293   120975   120870   121024   121250   121475   121655   121741 
  121891   122173   122244   121853   121331   121182   121349   121363 
  121323   121673   122030   121891   121646   121564   121470   121517 
  121796   121935   121710   121364   121151   121091   121219   121461 
  121594   121596   121567   121579   121603   121507   121445   121590 
  121746   121901   122171   122266   121975   121732   121936   122275 
  122293   121874   121226   120875   121108   121601   121907   121979 
  121972   121828   121658   121628   121445   121166   121134   121084 
  120956   121143   121551   121911   122241   122333   121919   121360 
  121163   121262   121408   121578   121724   121661   121420   121213 
  121116   121161   121283   121373   121440   121563   121753   121855 
  121891   121884   121770   121595   121226   120779   120584   120669 
  120997   121335   121391   121192   121016   121081   121090   120847 
  120874   121350   121706   121692   121565   121529   121591   121687 
  121860   121980   121710   121235   121106   121378   121652   121681 
  121656   121720   121564   121276   121391   121761   122017   122111 
  122084   122133   122123   121942   121900   121916   121864   121876 
  121778   121416   121099   121138   121283   121301   121437   121591 
  121470   121407   121538   121564   121668   121923   121894   121583 
  121462   121609   121700   121657   121572   121564   121708   121701 
  121492   121356   121184   120997   121048   121246   121380   121343 
  121264   121432   121693   121638   121344   121247   121395   121479 
  121566   121838   121998   121751   121378   121314   121399   121295 
  121229   121376   121395   121325   121639   122084   122118   121924 
  121714   121401   121157   121219   121441   121472   121440   121661 
  121886   121974   122038   121851   121446   121216   121231   121273 
  121294   121421   121625   121750   121748   121832   121991   121816 
  121444   121306   121405   121566   121664   121770   121820   121600 
  121381   121532   121907   122080   121849   121523   121516   121640 
  121477   121198   121105   121102   121110   121162   121191   121259 
  121534   121768   121691   121544   121405   121182   121188   121412 
  121394   121147   120944   120844   121013   121495   121888   122021 
  122110   122103   121861   121620   121661   121775   121624   121256 
  120873   120816   121258   121698   121768   121623   121420   121309 
  121357   121435   121354   121198   121308   121550   121577   121656 
  121930   121993   121796   121579   121507   121636   121620   121483 
  121654   121972   122316   122533   122088   121325   121000   120942 
  120760   120759   121218   121644   121745   121837   121918   121826 
  121751   121790   121726   121388   120960   120938   121311   121454 
  121446   121695   121879   121821   121742   121611   121449   121515 
  121697   121715   121703   121634   121321   121022   121074   121506 
  121986   121991   121533   121344   121688   121830   121623   121637 
  121536   120944   120665   120972   121071   120956   121168   121435 
  121381   121194   121083   121067   121194   121560   121979   122041 
  121941   122174   122354   121982   121386   120955   120851   121222 
  121791   122071   122074   122013   121919   121755   121604   121676 
  121778   121526   121288   121583   121929   121786   121506   121394 
  121387   121426   121413   121404   121298   120883   120698   121121 
  121384   121179   121147   121385   121523   121527   121529   121570 
  121606   121669   121744   121604   121307   121182   121186   121112 
  121069   121195   121274   121324   121598   121820   121837   121921 
  122067   122153   122215   122243   122122   121786   121249   120833 
  120944   121314   121651   122004   122095   121816   121666   121863 
  121991   121882   121820   121880   121918   121860   121765   121821 
  121992   121946   121687   121528   121425   121290   121229   121172 
  121109   121254   121543   121670   121696   121830   121968   121826 
  121392   121169   121367   121424   121109   120850   120705   120471 
  120511   121019   121504   121754   121830   121655   121375   121226 
  121303   121477   121576   121700   121740   121528   121220   121014 
  121154   121481   121536   121280   120909   120700   120812   121090 
  121356   121564   121774   121990   122033   121925   121913   121804 
  121410   121229   121575   122071   122301   122355   122467   122424 
  122069   121680   121366   121224   121462   121737   121803   121949 
  122163   122235   122235   122271   122207   121799   121093   120763 
  121319   121958   121954   121753   121677   121617   121618   121741 
  121780   121711   121783   121833   121792   121899   121987   121913 
  121742   121447   121313   121482   121434   121031   120793   120880 
  120940   120842   120867   121154   121458   121553   121527   121584 
  121672   121634   121508   121430   121458   121476   121344   121124 
  121032   121177   121378   121503   121674   121815   121681   121382 
  121276   121498   121680   121353   120888   120875   120996   121039 
  121269   121593   121849   121822   121584   121640   121873   121996 
  122129   122086   121724   121365   121216   121277   121422   121377 
  121149   121068   121285   121476   121444   121528   121880   122199 
  122246   122083   121879   121816   121938   121905   121666   121762 
  122169   122266   122046   121783   121482   121343   121289   121003 
  120791   120987   121245   121143   120919   120961   121266   121623 
  121627   121440   121577   121667   121508   121523   121571   121608 
  121901   122131   122002   121631   121258   121142   121185   121201 
  121283   121376   121295   121299   121630   121950   122075   122210 
  122361   122288   121937   121550   121299   121312   121662   122001 
  122080   122065   121870   121503   121371   121494   121478   121116 
  120705   120487   120431   120662   121099   121561   121857   121791 
  121700   121634   121242   120882   120979   121242   121426   121575 
  121537   121311   121216   121381   121575   121342   120772   120586 
  120968   121526   122015   122279   122213   121871   121462   121231 
  121209   121315   121419   121326   121166   121271   121615   121778 
  121589   121378   121253   120988   120657   120681   121199   121601 
  121520   121480   121647   121611   121460   121423   121328   121209 
  121101   120964   121126   121487   121634   121661   121665   121608 
  121596   121546   121278   121014   120914   120794   120785   121009 
  121090   120935   120935   121067   121034   120962   121079   121430 
  121610   121109   120456   120511   121059   121451   121444   121047 
  120622   120619   120988   121519   121944   122048   121971   121681 
  121211   120877   120602   120382   120554   120897   120929   120882 
  121017   121177   121550   122081   122155   121633   120829   119969 
  119313   119203   119457   119593   119735   120084   120453   120538 
  120287   120097   119997   119891   120082   120353   120365   120411 
  120544   120400   120088   119980   120019   119885   119485   119292 
  119669   120182   120588   121250   121938   121940   121476   121274 
  121288   121113   120800   120732   120959   121269   121659   121873 
  121686   121593   121958   122440   122705   122830   123006   123356 
  123784   123999   124047   124130   124125   124010   124026   124208 
  124483   124859   125037   124945   125113   125487   125600   125584 
  125542   125412   125309   125122   124801   124628   124705   124872 
  124963   124909   124645   124288   124214   124390   124431   124309 
  124215   124154   124111   124436   125286   126071   126385   126430 
  126424   126369   126118   125533   124622   123610   122627   121524 
  120490   120070   120202   120305   120141   119478   118203   117015 
  116360   115943   116008   116991   118297   119032   119028   118581 
  118033   117618   117287   116849   116319   115768   115350   115516 
  116279   117185   117918   118098   117610   116945   116839   117698 
  119026   119922   120128   120126   120439   121227   122468   124031 
  125508   126137   125473   124197   123315   122952   122826   122816 
  122458   121159   119358   118354   118655   119620   120764   121909 
  122786   123743   125304   127094   128337   128778   128942   129211 
  129143   128550   127682   126637   125826   125469   124955   123778 
  121814   118965   115672   113070   112061   112565   114007   116151 
  118600   120529   121743   122510   122979   123464   123958   124011 
  123788   124120   124908   125190   124873   124293   123308   121885 
  120267   118776   117907   118161   119665   121903   123867   124955 
  125263   124887   123916   122791   122047   121631   121132   120627 
  120093   119172   117899   116359   114647   113344   112994   113270 
  113457   113902   115455   117846   120064   121367   121625   121067 
  120141   119723   120131   120774   121398   122192   122924   122885 
  121940   120975   120694   120778   120879   121752   123910   126418 
  128096   128272   126795   124235   121722   120162   119443   119267 
  119908   121213   122321   122766   122952   123276   123329   122768 
  122400   123057   124253   125258   125876   125834   125058   124151 
  123759   123688   123343   122830   122511   122248   121827   121431 
  121310   121254   120860   120041   119394   119727   120891   121952 
  122197   121771   121188   120458   119868   119985   120533   120773 
  120482   120427   121062   121668   121896   122041   122299   122453 
  122005   121203   120713   120811   121592   122758   123645   123992 
  124021   123530   122016   119912   118110   116803   115934   115806 
  116739   118232   119347   120043   120475   120371   119910   119386 
  118989   118814   118409   117891   118189   119520   121174   122397 
  122725   122018   120982   120695   121147   121610   121827   122107 
  122867   124021   125037   125400   124928   124085   123194   121888 
  120126   118645   118234   118999   120256   121243   121789   122259 
  122699   122539   122082   122413   123173   123352   123379   123896 
  124673   125455   125927   125597   124323   122573   121152   120402 
  120368   121099   121797   121729   121606   122006   122312   122039 
  121413   120916   120832   121063   121516   122037   122261   121918 
  120844   119342   118218   118028   118700   119501   119847   119906 
  119960   120290   120977   121599   121784   121379   120743   120570 
  120918   121389   121718   121935   122166   122238   122118   122178 
  122646   123199   123255   122815   122569   122931   123297   122924 
  122189   121832   121714   121240   120444   119824   119537   119567 
  119749   119646   119315   119500   120406   121230   121574   121860 
  122325   122725   122721   122511   122460   122460   122178   121465 
  120836   120612   120302   120079   120475   121001   121067   120914 
  121045   121552   122167   122869   123772   124502   124751   124726 
  124582   124440   124474   124586   124759   125173   125473   125049 
  123995   122715   121654   121436   121952   122548   123135   123613 
  123575   123152   122810   122754   122847   122601   121707   120433 
  119300   118617   118370   118332   118154   118081   118804   120004 
  120769   121055   121318   121607   121608   121175   120667   120354 
  119841   119121   119001   119660   120538   121445   122293   122458 
  121976   121878   122343   122833   123174   123214   122992   122766 
  122517   121947   121221   121081   121350   121176   120615   120320 
  120653   121329   121726   121712   121510   121040   120444   120137 
  119939   119634   119426   119436   119404   119022   118715   118952 
  119493   120116   120767   121351   121858   122297   122495   122139 
  121282   120508   120281   120445   120705   121162   121952   122676 
  122573   121512   120285   119510   118965   118250   117822   118461 
  119737   120788   121546   121982   121952   121425   120507   119985 
  120303   120857   121259   121478   121420   121004   120553   120674 
  121023   121207   121592   121839   121974   123018   124278   124232 
  123457   123043   122931   122899   123049   123637   124546   125279 
  125312   124505   123560   122854   122095   121406   121123   121463 
  122435   123699   124915   125746   125718   124845   123845   123181 
  122744   122384   122045   121831   121874   122118   122477   122672 
  122368   121570   120559   119821   119654   119967   120441   120620 
  120301   119748   119607   120077   120474   120414   120035   119697 
  119945   120673   121417   122014   122250   122094   121772   121416 
  121240   121424   121612   121439   121300   121536   121858   121930 
  121663   121341   121203   121180   121252   121156   120862   120770 
  120571   120018   119646   119584   119590   119762   120260   121029 
  121953   122699   122758   122204   121538   121007   120722   120836 
  121296   121520   121236   121140   121474   121739   122043   122683 
  123078   122660   121995   121805   121664   120974   120361   120385 
  120380   119916   119573   119967   120837   121341   121239   120974 
  120867   120754   120352   119964   120210   121237   122535   123344 
  123494   123550   123717   123450   122734   122400   122551   122424 
  122058   122123   122610   123182   123745   124033   123649   122660 
  121525   120548   119950   120028   120610   121146   121511   121667 
  121217   120320   119884   120203   120620   120672   120477   120346 
  120443   120638   120916   121342   121741   121962   121849   121342 
  120947   121236   122045   122819   123355   123576   123388   122971 
  122588   122515   122700   122651   122252   121685   121139   121104 
  121709   122384   122622   122484   122592   123316   124007   123912 
  123270   122609   122149   122046   121997   121803   121824   121847 
  121540   121117   120628   120101   119816   119951   120439   120968 
  121180   121199   121267   121056   120655   120846   121478   121832 
  121895   121493   120564   120072   120384   120715   120611   120188 
  119687   119410   119552   120006   120490   120929   121351   121605 
  121630   121524   121216   120724   120420   120356   120164   119898 
