Origin Time       2024/04/02 04:24:00
Lat.              40.133
Long.             141.712
Depth. (km)       71
Mag.              6.0
Station Code      AKTH07
Station Lat.      40.4563
Station Long.     140.8395
Station Height(m) 405
Record Time       2024/04/02 04:24:53
Sampling Freq(Hz) 100Hz
Duration Time(s)  146
Dir.              6
Scale Factor      3920(gal)/6170801
Max. Acc. (gal)   16.684
Last Correction   2024/04/02 04:24:38
Memo.             
[...]
   -2781    -2783    -2781    -2780    -2781    -2781    -2782    -2781 
   -2781    -2781    -2781    -2782    -2782    -2779    -2779    -2781 
   -2783    -2782    -2780    -2777    -2780    -2781    -2780    -2780 
   -2779    -2780    -2785    -2783    -2780    -2780    -2780    -2783 
   -2786    -2784    -2779    -2780    -2783    -2781    -2778    -2778 
   -2780    -2782    -2783    -2781    -2778    -2779    -2783    -2785 
   -2780    -2774    -2778    -2785    -2784    -2780    -2777    -2778 
   -2782    -2784    -2782    -2778    -2778    -2783    -2785    -2782 
   -2779    -2778    -2781    -2784    -2782    -2778    -2778    -2780 
   -2782    -2783    -2780    -2779    -2782    -2783    -2782    -2780 
   -2780    -2781    -2783    -2784    -2783    -2780    -2779    -2781 
   -2782    -2782    -2781    -2782    -2783    -2782    -2780    -2780 
   -2781    -2783    -2782    -2780    -2779    -2779    -2780    -2783 
   -2782    -2780    -2779    -2779    -2781    -2783    -2781    -2778 
   -2780    -2782    -2782    -2784    -2782    -2780    -2781    -2780 
   -2779    -2779    -2780    -2782    -2781    -2779    -2781    -2780 
   -2779    -2782    -2781    -2779    -2781    -2781    -2781    -2781 
   -2779    -2779    -2783    -2785    -2783    -2780    -2780    -2782 
   -2780    -2779    -2782    -2782    -2780    -2781    -2781    -2779 
   -2781    -2781    -2780    -2782    -2783    -2781    -2782    -2785 
   -2782    -2778    -2779    -2782    -2782    -2780    -2780    -2780 
   -2779    -2781    -2782    -2779    -2778    -2781    -2783    -2783 
   -2781    -2780    -2783    -2783    -2781    -2783    -2783    -2779 
   -2779    -2782    -2783    -2783    -2780    -2779    -2781    -2783 
   -2781    -2779    -2782    -2783    -2779    -2780    -2782    -2781 
   -2781    -2780    -2779    -2780    -2780    -2782    -2782    -2779 
   -2778    -2780    -2782    -2782    -2780    -2781    -2781    -2781 
   -2781    -2781    -2780    -2781    -2784    -2783    -2782    -2782 
   -2780    -2781    -2784    -2782    -2780    -2782    -2781    -2780 
   -2784    -2783    -2779    -2780    -2781    -2780    -2781    -2782 
   -2780    -2780    -2782    -2780    -2780    -2783    -2782    -2779 
   -2780    -2783    -2782    -2780    -2780    -2780    -2782    -2783 
   -2781    -2780    -2781    -2781    -2780    -2782    -2782    -2781 
   -2782    -2783    -2782    -2781    -2780    -2781    -2782    -2782 
   -2783    -2784    -2782    -2779    -2780    -2780    -2780    -2780 
   -2782    -2780    -2778    -2782    -2784    -2781    -2780    -2781 
   -2781    -2782    -2782    -2780    -2780    -2783    -2782    -2780 
   -2780    -2782    -2782    -2781    -2781    -2781    -2782    -2780 
   -2778    -2779    -2781    -2781    -2780    -2779    -2779    -2780 
   -2781    -2781    -2779    -2778    -2781    -2780    -2778    -2779 
   -2781    -2780    -2779    -2781    -2782    -2781    -2780    -2781 
   -2781    -2779    -2779    -2781    -2782    -2781    -2780    -2780 
   -2781    -2781    -2781    -2781    -2779    -2779    -2779    -2779 
   -2781    -2780    -2779    -2783    -2782    -2779    -2784    -2785 
   -2780    -2779    -2780    -2780    -2782    -2781    -2778    -2780 
   -2783    -2782    -2781    -2780    -2779    -2781    -2781    -2780 
   -2781    -2781    -2779    -2780    -2783    -2780    -2779    -2778 
   -2779    -2780    -2780    -2780    -2781    -2781    -2780    -2779 
   -2779    -2780    -2781    -2781    -2778    -2779    -2782    -2782 
   -2781    -2780    -2778    -2780    -2782    -2780    -2781    -2782 
   -2780    -2779    -2781    -2782    -2780    -2780    -2780    -2780 
   -2780    -2781    -2781    -2779    -2779    -2782    -2781    -2780 
   -2781    -2781    -2780    -2780    -2779    -2779    -2780    -2781 
   -2781    -2781    -2780    -2780    -2781    -2780    -2779    -2779 
   -2779    -2779    -2779    -2780    -2779    -2778    -2781    -2783 
   -2780    -2778    -2780    -2782    -2783    -2782    -2780    -2778 
   -2776    -2780    -2782    -2779    -2778    -2781    -2782    -2779 
   -2779    -2781    -2781    -2782    -2781    -2778    -2780    -2780 
   -2778    -2780    -2780    -2779    -2780    -2781    -2781    -2777 
   -2776    -2779    -2779    -2781    -2784    -2780    -2777    -2781 
   -2782    -2781    -2780    -2780    -2781    -2781    -2779    -2780 
   -2780    -2779    -2780    -2781    -2780    -2780    -2779    -2780 
   -2781    -2780    -2779    -2780    -2780    -2781    -2781    -2780 
   -2780    -2781    -2781    -2780    -2780    -2780    -2781    -2781 
   -2781    -2781    -2781    -2780    -2780    -2781    -2780    -2780 
   -2781    -2782    -2781    -2780    -2781    -2781    -2781    -2781 
   -2781    -2779    -2779    -2782    -2783    -2782    -2779    -2779 
   -2781    -2781    -2780    -2780    -2779    -2780    -2781    -2779 
   -2779    -2782    -2782    -2782    -2781    -2781    -2782    -2782 
   -2783    -2782    -2780    -2782    -2784    -2783    -2783    -2781 
   -2779    -2781    -2783    -2783    -2781    -2778    -2780    -2782 
   -2781    -2784    -2782    -2779    -2782    -2783    -2781    -2782 
   -2780    -2778    -2777    -2779    -2782    -2784    -2782    -2782 
   -2781    -2779    -2780    -2782    -2781    -2781    -2781    -2782 
   -2781    -2781    -2783    -2779    -2778    -2782    -2781    -2778 
   -2781    -2783    -2778    -2778    -2783    -2786    -2783    -2779 
   -2779    -2781    -2782    -2783    -2780    -2780    -2783    -2782 
   -2779    -2781    -2780    -2778    -2779    -2782    -2781    -2778 
   -2780    -2782    -2781    -2781    -2784    -2782    -2781    -2782 
   -2782    -2782    -2782    -2780    -2779    -2780    -2781    -2781 
   -2783    -2783    -2781    -2780    -2782    -2782    -2781    -2780 
   -2778    -2779    -2782    -2782    -2781    -2779    -2779    -2781 
   -2782    -2781    -2778    -2776    -2780    -2785    -2784    -2776 
   -2774    -2781    -2787    -2785    -2780    -2778    -2778    -2782 
   -2787    -2782    -2776    -2780    -2782    -2779    -2782    -2785 
   -2779    -2780    -2786    -2782    -2779    -2780    -2780    -2782 
   -2781    -2776    -2779    -2783    -2785    -2785    -2779    -2776 
   -2780    -2783    -2783    -2782    -2779    -2778    -2783    -2784 
   -2779    -2777    -2780    -2785    -2787    -2780    -2777    -2781 
   -2782    -2781    -2782    -2778    -2777    -2783    -2784    -2780 
   -2781    -2781    -2781    -2786    -2785    -2778    -2776    -2782 
   -2786    -2785    -2781    -2778    -2779    -2785    -2788    -2780 
   -2777    -2782    -2782    -2782    -2783    -2778    -2777    -2783 
   -2783    -2781    -2780    -2779    -2781    -2783    -2782    -2776 
   -2775    -2784    -2786    -2781    -2779    -2778    -2779    -2785 
   -2784    -2776    -2775    -2780    -2784    -2785    -2780    -2776 
   -2779    -2785    -2785    -2779    -2778    -2782    -2782    -2782 
   -2781    -2778    -2781    -2783    -2781    -2781    -2780    -2781 
   -2784    -2784    -2781    -2778    -2779    -2781    -2783    -2783 
   -2780    -2781    -2782    -2781    -2780    -2782    -2785    -2784 
   -2782    -2780    -2777    -2780    -2786    -2785    -2780    -2778 
   -2779    -2781    -2783    -2787    -2784    -2775    -2776    -2783 
   -2782    -2783    -2787    -2783    -2777    -2779    -2784    -2783 
   -2780    -2781    -2780    -2777    -2781    -2786    -2777    -2774 
   -2786    -2787    -2779    -2784    -2784    -2775    -2779    -2785 
   -2779    -2778    -2784    -2785    -2781    -2783    -2780    -2776 
   -2782    -2782    -2775    -2779    -2783    -2784    -2783    -2778 
   -2775    -2779    -2785    -2788    -2781    -2775    -2777    -2783 
   -2786    -2780    -2775    -2779    -2782    -2785    -2784    -2775 
   -2773    -2780    -2782    -2778    -2780    -2785    -2782    -2778 
   -2780    -2781    -2778    -2780    -2784    -2782    -2777    -2777 
   -2777    -2780    -2787    -2781    -2775    -2780    -2783    -2778 
   -2776    -2780    -2784    -2785    -2782    -2778    -2777    -2780 
   -2786    -2785    -2775    -2772    -2781    -2783    -2780    -2783 
   -2781    -2775    -2781    -2786    -2775    -2776    -2786    -2779 
   -2772    -2783    -2781    -2776    -2786    -2789    -2777    -2771 
   -2780    -2786    -2781    -2780    -2782    -2780    -2779    -2784 
   -2782    -2776    -2781    -2785    -2779    -2779    -2785    -2781 
   -2776    -2783    -2789    -2783    -2774    -2779    -2791    -2790 
   -2781    -2776    -2773    -2779    -2797    -2799    -2779    -2763 
   -2766    -2786    -2804    -2799    -2774    -2758    -2777    -2802 
   -2793    -2779    -2774    -2768    -2786    -2804    -2783    -2758 
   -2769    -2793    -2796    -2785    -2771    -2765    -2779    -2798 
   -2786    -2763    -2772    -2793    -2795    -2780    -2762    -2766 
   -2791    -2806    -2787    -2760    -2762    -2784    -2802    -2796 
   -2765    -2756    -2781    -2798    -2792    -2779    -2767    -2771 
   -2788    -2792    -2775    -2765    -2781    -2796    -2789    -2778 
   -2769    -2772    -2789    -2794    -2780    -2771    -2775    -2785 
   -2792    -2788    -2774    -2767    -2782    -2796    -2785    -2773 
   -2772    -2780    -2794    -2791    -2774    -2767    -2780    -2793 
   -2790    -2779    -2771    -2772    -2786    -2795    -2782    -2768 
   -2775    -2787    -2789    -2785    -2775    -2771    -2783    -2797 
   -2791    -2772    -2771    -2784    -2789    -2789    -2783    -2776 
   -2778    -2784    -2785    -2781    -2778    -2782    -2785    -2782 
   -2778    -2778    -2779    -2782    -2784    -2783    -2777    -2777 
   -2787    -2785    -2778    -2778    -2775    -2781    -2793    -2786 
   -2770    -2773    -2785    -2787    -2786    -2783    -2774    -2775 
   -2786    -2785    -2776    -2777    -2780    -2781    -2784    -2784 
   -2778    -2774    -2782    -2791    -2785    -2773    -2775    -2785 
   -2786    -2779    -2775    -2778    -2780    -2783    -2786    -2779 
   -2774    -2780    -2784    -2784    -2781    -2776    -2774    -2780 
   -2786    -2783    -2776    -2777    -2779    -2783    -2785    -2778 
   -2773    -2780    -2785    -2781    -2777    -2782    -2782    -2777 
   -2780    -2781    -2775    -2778    -2784    -2781    -2776    -2777 
   -2784    -2787    -2778    -2773    -2778    -2783    -2784    -2780 
   -2775    -2777    -2784    -2784    -2776    -2776    -2782    -2781 
   -2780    -2781    -2778    -2779    -2784    -2783    -2779    -2774 
   -2776    -2787    -2788    -2779    -2774    -2777    -2784    -2788 
   -2786    -2778    -2778    -2786    -2784    -2779    -2780    -2782 
   -2782    -2783    -2785    -2782    -2773    -2778    -2787    -2782 
   -2777    -2782    -2785    -2782    -2780    -2782    -2782    -2779 
   -2783    -2785    -2778    -2777    -2785    -2786    -2780    -2780 
   -2780    -2779    -2785    -2785    -2777    -2779    -2785    -2781 
   -2779    -2783    -2781    -2780    -2782    -2782    -2781    -2782 
   -2783    -2780    -2779    -2783    -2782    -2777    -2778    -2779 
   -2782    -2784    -2781    -2779    -2781    -2781    -2781    -2782 
   -2779    -2776    -2782    -2785    -2777    -2777    -2784    -2783 
   -2780    -2782    -2782    -2778    -2780    -2785    -2782    -2777 
   -2780    -2780    -2780    -2785    -2784    -2780    -2779    -2781 
   -2783    -2780    -2778    -2781    -2782    -2782    -2783    -2782 
   -2781    -2780    -2782    -2781    -2778    -2780    -2782    -2782 
   -2781    -2780    -2781    -2783    -2783    -2783    -2780    -2777 
   -2781    -2787    -2784    -2780    -2779    -2778    -2781    -2782 
   -2775    -2771    -2774    -2773    -2764    -2759    -2755    -2747 
   -2740    -2730    -2712    -2692    -2667    -2632    -2585    -2515 
   -2416    -2285    -2114    -1892    -1632    -1375    -1199    -1197 
   -1474    -2101    -3036    -4086    -4977    -5529    -5702    -5462 
   -4722    -3426    -1676      214     1845     2869     2991     2073 
     404    -1394    -2808    -3656    -4028    -4078    -3951    -4020 
   -4642    -5651    -6526    -6691    -5688    -3438     -363     2390 
    3521     2666      266    -2566    -4384    -4947    -4944    -4310 
   -2913    -1821    -2208    -3953    -6019    -7109    -6233    -3810 
   -1402     -322    -1232    -3974    -7240    -9164    -8358    -5154 
   -1777      241     1410     1662      373     -693     -371     -806 
   -2311    -2600    -1750    -1478    -2315    -3534    -4167    -3638 
   -1001     3455     6645     5957     2330     -626    -1738    -4184 
   -8255    -9899    -9098    -9215    -8947    -5444    -1760    -1905 
   -4231    -5622    -6273    -6348    -2977     2730     3893      319 
   -1789    -2740    -6319   -10616   -11579    -9868    -9814   -11882 
   -9919    -1483     5202     3517    -3215   -10165   -14194   -13957 
  -12471   -11121    -8150    -3728     1257     5914     8403     7248 
    3796     1072    -1047    -3485    -5202    -5878    -5727    -5907 
   -6800    -5107     -480     1927      171    -2443    -3577    -2987 
     702     8400    15780    16917    11643     1538   -11122   -18466 
  -18575   -18256   -17096   -11348    -2567     6276    10118     7643 
    4598     2849     2037     4500     7051     2871    -7637   -18006 
  -24846   -29044   -28248   -19569    -8164     -346     2713     1744 
       3      253     1649     3992     7354     9933    10727     8944 
    2843    -5694   -11315   -11092    -5458     2595     9047    11367 
    7943     1658     -621     1443     3401     3902     3108     1440 
   -1607    -6765   -11641   -13926   -12638    -6520     1329     5511 
    6293     4526    -1887    -9212   -11856   -10863    -7437    -1376 
    4392     6326     2807    -5057   -12070   -13194   -10524    -6528 
    1374     8589     8393     5255     2094    -2707    -5464    -5538 
   -6622    -8386   -10197   -13530   -18405   -20509   -15292    -6935 
   -1534     3085     8598    10230     5809      142    -2374    -2847 
   -3798    -5074    -4784    -2648    -1746    -4314    -7169    -6175 
   -2428     1101     4093     6538     6236      794    -7823   -14435 
  -17556   -17990   -15259   -12558   -12547   -10049    -3318     1947 
    4369     5593     4049    -1281    -7937   -11766   -10825    -7710 
   -4645     -992     1292     -261    -3481    -5692    -5787    -3943 
   -2278     -252     3619     5461     4021     4385     6421     7064 
    7079     4722     -969    -5875    -7963    -6842    -2448     1130 
      38    -4082    -8115   -11822   -14490   -12841    -6710       97 
    5454     9032    10147     7747     1941    -3648    -6646    -8661 
   -8605    -5176    -1914     -349      885     -377    -5570    -9465 
   -7109    -1703     1179     2431     4220     3807      905     -921 
   -2235    -5061    -8193   -10503   -11299   -10494    -9446    -6860 
   -2019      666     -228    -1026     -823    -1162    -1512     -159 
    1912     1333    -1076    -1681    -1681    -2501    -2279    -2262 
   -3949    -3901     -453     2616     2751     1857     1976     2316 
    1019    -1935    -4023    -4095    -4727    -6873    -7869    -6752 
   -5485    -5196    -4845    -4393    -5215    -6176    -5959    -5658 
   -4672    -2935    -2757    -3551    -4458    -5875    -5200    -1669 
     811      557     -699    -2915    -6396    -8525    -7962    -6595 
   -6038    -6598    -7302    -7533    -8311    -8449    -4827      377 
    1675      799     2696     4877     4187     3302     3274     1658 
   -2743    -7639    -9162    -8063    -6712    -3936    -1370    -1447 
   -2157    -2725    -3406    -2726      -75     3099     4306     4107 
    4289     2543    -1442    -4093    -5336    -6859    -8083    -7738 
   -6444    -6492    -6127    -2326     1104      750    -1142    -2996 
   -3738    -3434    -4376    -4091      516     5484     7091     5091 
     292    -4519    -7733    -8647    -6648    -4477    -3619    -3378 
   -4410    -5098    -4780    -5401    -4571    -1168     1051     1659 
    1269    -1182    -4147    -6856   -10214   -12311   -10978    -7436 
   -4347    -1738      787      779     -755     -551     -177     -712 
    -825      -98     1550     2247     1382      779    -1360    -6506 
  -11056   -11800    -9498    -6336    -3499    -2833    -5171    -7274 
   -6971    -5322    -3500    -2087      216     3710     4974     2252 
   -2311    -5807    -6875    -6262    -4809    -2663     -507      280 
    -995    -2957    -3958    -3977    -2581      912     3844     3504 
    1727      120    -1412    -1471     -597    -1177    -2531    -4120 
   -7379   -10318   -10122    -7707    -4385    -1677     -836     -810 
   -2010    -4371    -4343    -1644      643     1873     1878       21 
   -2216    -3275    -3782    -3977    -2626     -497     -247    -1531 
   -1454      -74      125     -827    -1471    -1891    -2378    -2624 
   -2065    -1370    -2495    -4450    -5529    -7097    -8373    -7460 
   -6433    -6483    -5996    -4988    -4335    -3780    -3072    -2366 
   -2055    -2713    -3606    -3299    -2421    -1983    -1147      -32 
     -41     -598     -691     -976    -1462    -1554    -1317    -1125 
   -1981    -3588    -4176    -3942    -4317    -5560    -6424    -5679 
   -5137    -6127    -5900    -4189    -3959    -4822    -4821    -4168 
   -3795    -3945    -4663    -5825    -6284    -5183    -3087     -806 
    1134     2270     1820      530      304     -391    -2791    -3329 
   -1075      200      -41      226      177     -805    -1473    -2246 
   -3452    -4032    -4772    -6817    -9037    -9911    -9212    -7579 
   -6541    -7618    -8787    -7517    -5834    -4529    -1995       49 
      82     -345     -204      -72     -400     -465     -116       82 
     811     1907     1685      334     -545     -694    -1104    -2454 
   -3562    -3078    -2346    -2295    -1925    -2115    -3089    -2605 
   -1796    -2618    -2598     -557     1757     3111     2219       -8 
   -1203    -1105      339     2235     2843     2749     2314      917 
    -975    -3060    -5187    -6375    -6068    -5420    -5561    -6187 
   -7190    -8029    -8109    -8989   -10404   -10078    -9273    -8998 
   -7298    -5105    -4679    -4803    -3979    -2848    -2046    -1574 
   -1180     -752     -789    -1461    -2441    -3255    -3810    -4784 
   -5378    -4554    -3523    -2444     -859      182      763     1180 
     948      758      479    -1307    -3511    -3851    -3083    -2457 
   -1275      -80     -250    -1806    -3717    -4316    -4055    -4481 
   -3920    -1711     -496     -581    -1130    -2695    -4183    -3802 
   -2149    -1591    -2407    -2555    -2552    -3860    -5611    -7002 
   -7493    -7000    -6588    -6066    -4549    -2533    -1429    -2468 
   -4369    -4542    -3545    -3207    -2991    -1399      993     1516 
    -150    -2052    -3979    -5292    -5051    -4948    -5033    -3484 
   -1351       39     1028     1177      294     -243      -88     -765 
   -1839    -1379       47      829      176    -1470    -2256    -1890 
   -1897    -2601    -2712    -1830    -1774    -3171    -4365    -4352 
