Origin Time       2024/04/02 04:24:00
Lat.              40.133
Long.             141.712
Depth. (km)       71
Mag.              6.0
Station Code      AKTH07
Station Lat.      40.4563
Station Long.     140.8395
Station Height(m) 405
Record Time       2024/04/02 04:24:53
Sampling Freq(Hz) 100Hz
Duration Time(s)  146
Dir.              5
Scale Factor      3920(gal)/6170801
Max. Acc. (gal)   18.016
Last Correction   2024/04/02 04:24:38
Memo.             
[...]
    3889     3900     3882     3877     3893     3889     3876     3891 
    3895     3873     3878     3901     3889     3869     3885     3893 
    3879     3886     3895     3881     3881     3899     3892     3873 
    3880     3897     3889     3881     3889     3887     3876     3887 
    3895     3881     3876     3889     3891     3881     3882     3893 
    3890     3880     3884     3891     3884     3881     3888     3887 
    3881     3886     3889     3884     3885     3890     3886     3883 
    3889     3887     3880     3887     3893     3885     3884     3892 
    3889     3883     3889     3895     3893     3890     3892     3897 
    3902     3907     3915     3922     3927     3939     3948     3939 
    3919     3892     3853     3813     3786     3763     3736     3719 
    3717     3724     3740     3751     3720     3644     3537     3417 
    3314     3267     3325     3497     3747     4071     4446     4772 
    4965     4982     4776     4348     3765     3085     2361     1676 
    1191     1031     1184     1657     2420     3284     4108     4842 
    5442     5863     5998     5764     5228     4520     3711     2822 
    1956     1304     1033     1261     1939     2829     3721     4426 
    4691     4518     4277     4207     4315     4671     5110     5221 
    4988     4649     4290     3950     3720     3822     4292     4923 
    5619     6019     5610     4518     3473     3048     2823     2224 
    1822     2109     2645     3252     4153     5099     5658     5937 
    6108     5801     4630     2961     1593      411    -1097    -1953 
    -903     1478     3695     5225     6699     8199     8849     8668 
    8323     7346     5283     3303     2201     1166      165       65 
     700     1421     2205     3659     5516     6249     5647     4889 
    4524     4118     3214     2588     2714     2990     3764     5404 
    7128     8209     8370     7928     7519     7083     6127     4962 
    4567     4848     4345     2529      930      884     2056     3597 
    5084     6939     9316    11119    12044    11934     9598     5845 
    2332    -1300    -4939    -7219    -7471    -6038    -3231     1319 
    6466     9836    11935    13823    13710    11025     7474     4185 
    1906      431    -1123    -2461    -3488    -4302    -3279      354 
    4462     7537    10334    13148    14681    13559    10028     5471 
     816    -3112    -5747    -7308    -7514    -5962    -2854     1398 
    5407     7958     9051     8966     8893     9230     7923     4377 
     799    -1194    -1429     -357     1378     3880     6809     8474 
    8556     8289     7792     6463     4521     2549      669     -906 
   -1942    -2522    -2192    -1160     -502      277     1845     3479 
    4683     5135     5053     5198     5245     5472     6141     5396 
    3074     1357     1578     3370     4544     4207     3895     4032 
    4497     6031     8207     9418     9790    11022    12551    12542 
   11894    11920    11511    10077     8497     6916     5238     3806 
    2784     2374     2738     3570     4319     4706     4910     5231 
    5599     5950     6074     4133     -803    -5599    -7284    -6502 
   -4299    -1062     1734     3197     3985     4281     3447     1181 
   -1589    -3403    -4114    -3971    -2598     -655      572     1282 
    2102     2834     3602     4745     6504     8760     9557     7130 
    2752    -1498    -4928    -6877    -6238    -3079      994     4684 
    7954    10661    12061    11887    11101    11301    12595    13658 
   14005    13616    12294    10456     8617     6921     5278     3840 
    3362     3490     2663      832     -741    -1720    -2478    -2899 
   -2496    -1286      268     2223     4595     6169     6358     6272 
    5860     4511     3634     3737     2996      825     -958     -597 
    1354     3217     4893     6633     7459     7423     7644     8200 
    8656     8666     8094     7077     5373     3089      933     -849 
   -1878    -1297      867     3377     5401     7102     7900     6969 
    5238     4209     4114     3971     2888      986    -1331    -3307 
   -3819    -2933    -1370      405     1744     3018     5103     7443 
    9388    11011    11960    11869    11261    10768    10140     9046 
    7907     7438     8008     9019     9177     7915     5738     3313 
    1360      623      986     1579     1595      819      -46     -452 
    -701     -659      -44      537     1183     2539     3631     3326 
    2029      807       83     -891    -2107    -2582    -2342    -1395 
     599     3093     5476     7405     8699     9309     8728     7128 
    5364     3232      784     -951    -1795    -2052    -1415      277 
    2173     3282     4173     5810     7604     8940     9871     9835 
    8669     7208     6224     6056     6039     5342     4327     3458 
    3075     3605     4491     5121     5589     6045     7175     9065 
   10161     9793     8632     6989     5476     4701     4262     3934 
    4024     4484     4534     3499     1812     -296    -2939    -5104 
   -6129    -6322    -5601    -3740     -514     3716     7536    10124 
   11680    12349    11672     9238     5966     3001      555    -1257 
   -2528    -3651    -4757    -5471    -4912    -2843     -170     2246 
    4293     6115     7373     8024     8396     7829     6063     4197 
    2709     1318      144     -235      471     1510     2117     2839 
    4336     6217     8114     9919    11278    12419    13778    14480 
   13369    10837     8032     5693     3995     2559     1412      867 
     728     1014     1497     1508     1402     1969     3174     4475 
    5534     6419     6893     6600     6038     5666     5081     3978 
    2517     1056        4     -704    -1340    -1530    -1076     -608 
    -285      125      585     1582     3468     5705     7658     8774 
    8896     8147     6365     4088     2264      819     -357     -633 
     122     1282     2564     4170     5866     7157     7912     7969 
    7596     7943     9144     9810     9202     7786     6319     5237 
    4358     3525     2887     2364     1818     1427     1230      557 
    -832    -1519     -511     1135     2468     3589     4485     4972 
    4898     4336     3649     2968     2471     2639     3540     4462 
    4811     4835     4668     4263     4382     5676     7568     8840 
    8975     8497     8070     8227     9066     9849    10082     9991 
    9611     8834     7792     6576     5252     4105     3483     3380 
    3310     2819     2226     2114     2246     1985     1181      310 
    -397    -1515    -3026    -4277    -5145    -5220    -4207    -3104 
   -2688    -2365    -1607     -992     -865     -360     1014     2506 
    3688     4659     4983     4637     4421     4528     4650     4820 
    5204     5885     6654     7157     7148     6255     4919     4527 
    5131     5745     6179     6542     6960     7475     7973     8677 
    9352     9427     9198     9180     9274     9004     8041     6431 
    4543     3174     2826     3003     3117     3038     2780     2444 
    1973     1355      879      689      765      866      638      164 
    -413    -1140    -1636    -1295     -171     1156     2420     3719 
    4716     4620     3840     3705     4094     4229     4221     4063 
    3614     3380     3818     4501     4824     5157     6026     7019 
    7592     7778     7835     7735     7288     6435     5177     4035 
    3630     3450     3023     2963     3599     4706     5978     6941 
    7352     7170     6519     5587     4412     3518     3303     3521 
    4042     4347     3872     3002     2289     1968     1900     1629 
    1345     1631     2389     3087     3409     3549     3613     3409 
    3353     3717     4044     4215     4062     3357     2580     2121 
    2040     2143     1807     1019      414      171      -45     -411 
    -378      596     2239     3966     5215     5922     6470     6637 
    6147     5391     4689     4058     3579     3288     2922     2417 
    2049     1775     1587     1717     2099     2819     4177     5801 
    6975     7466     7269     6677     6458     6678     6789     6984 
    7314     7124     6471     5888     5294     4499     3859     3673 
    3525     3367     3872     4865     5676     6209     6368     6114 
    5538     4391     3031     2459     2484     2140     1622     1624 
    1916     2003     2009     2205     2443     2711     3435     4478 
    5185     5414     5422     5258     4774     4166     3758     3205 
    2280     1655     1658     1639     1418     1679     2505     3185 
    3487     3786     4324     4921     5343     5701     5896     5587 
    5018     4505     3951     3358     2896     2735     2884     3264 
    3765     4118     4362     4764     5165     5343     5340     5253 
    5212     5369     5702     5880     5761     5739     5978     6129 
    6057     5760     5096     4311     3653     2938     2342     2134 
    2151     2661     3937     5145     5607     5691     5736     5915 
    6136     5978     5782     5760     5286     4498     3767     2901 
    2119     1741     1755     1864     1496      638     -198     -649 
    -525        6      774     1977     3493     4836     5657     5717 
    5177     4575     4049     3374     2521     1721     1362     1462 
    1712     2279     3183     3879     4508     5520     6495     6756 
    6254     5623     5224     4617     3689     2986     2823     2951 
    3221     3963     4761     4392     3101     2220     1825     1565 
    1602     1581     1460     1915     2666     3130     3627     4248 
    4396     3864     3297     3116     2930     2839     3246     3625 
    3745     4125     4595     4668     4343     3883     3847     4274 
    4378     3939     3255     2529     2089     1841     1394      845 
     431      389      875     1599     2346     3192     3950     4287 
    4344     4789     5886     6899     7123     6682     5915     5250 
    5201     5573     5917     6414     7035     7267     6869     5895 
    4853     4361     4249     4265     4397     4416     4337     4187 
    3965     3921     3885     3714     3862     4582     5475     5966 
    5932     5608     5200     4736     4106     3453     3000     2802 
    3262     4594     6024     6678     6434     5904     5775     5798 
    5405     4844     4383     3875     3590     3631     3445     3145 
    3185     3103     2725     2728     3430     4439     5060     5163 
    5352     5689     5656     5401     5410     5572     5590     5363 
    4686     3571     2574     1992     1573     1319     1472     2094 
    2991     3423     2959     2195     1637     1620     2292     2673 
    2303     1983     1977     2243     2545     2362     2295     3092 
    4328     5192     5171     4722     4653     4680     4491     4590 
    4953     5137     5224     5405     5545     5328     4988     4985 
    4868     4175     3215     2323     1792     1786     2002     2150 
    2405     3160     4142     4519     4334     3983     3240     2400 
    2067     1939     1549     1227     1522     2322     3197     3971 
    4571     4893     4811     4480     4076     3235     1945      833 
      74     -448     -458      442     2130     3945     5442     6480 
    6910     6859     6521     6040     5746     5408     4543     3745 
    3594     3562     3394     3535     3978     4309     4674     5308 
    5822     5918     5650     5201     4839     4314     3547     3461 
    4398     5583     6643     7655     8245     8094     7558     6893 
    5997     4995     4076     3077     1561     -265    -1368    -1529 
   -1307     -675      688     2938     5869     8705    10886    12340 
   12964    12770    11950    10798     9505     7759     5527     3168 
     466    -2511    -5064    -6915    -7908    -8006    -7565    -6442 
   -4522    -2452      -87     3269     6933     9963    12515    14762 
   16229    16356    15148    13049    10282     6880     3003     -898 
   -4123    -6410    -8090    -9241    -9450    -8339    -5924    -2773 
     152     2328     3814     4742     5610     7033     8950    11034 
   13296    15707    17673    18498    17900    15711    12157     8026 
    3988      664    -1296    -1937    -1871    -1540    -1153     -896 
    -737     -318      260      350      312     1122     2640     4401 
    6362     7930     8213     7590     7591     8813    10514    12053 
   13146    13280    12194    10641     9384     8147     6623     5184 
    4060     2985     1877     1118      934      775     -368    -2615 
   -4932    -6609    -7471    -7112    -5369    -2650      415     3028 
    4232     3040     -688    -5242    -8304    -9201    -8765    -7558 
   -5464    -2675      296     3499     7033    10395    13509    16877 
   19900    21224    20915    19978    18960    18220    17580    15983 
   12334     6496     -206    -6184   -10923   -14314   -15916   -15119 
  -11781    -7056    -2624      302     1093      788     1289     2902 
    5007     7348     9379    10323     9997     8926     7893     7084 
    6144     5179     4504     4320     4924     5854     5953     4622 
    2484     1267     2166     4678     7637    10190    12134    13559 
   14042    13029    10447     6393     1516    -2147    -2787     -892 
    1819     3631     3056      297    -3100    -6653   -10725   -15332 
  -19772   -22088   -20629   -15676    -8577    -1025     5819    12209 
   18661    24819    29731    32246    31495    27936    23319    18722 
   13888     8884     4395      692    -2231    -4212    -5094    -4833 
   -3407    -1496     -525     -472      281     2252     4820     7671 
   10413    12460    13607    14112    14207    13633    12238    10135 
    7055     2991    -1114    -4425    -7027    -8535    -7499    -3590 
    1962     7826    13019    16945    18980    19047    18232    17018 
   14792    10707     4507    -1852    -5727    -6938    -7019    -7198 
   -8101    -9632   -10899   -11401   -11811   -12435   -12360   -10694 
   -6995    -1358     4453     7717     8062     7944     8652     9229 
    9764    11339    13519    14954    14483    11516     7461     4934 
    5046     7113     9375     9732     7617     4501     2479     2296 
    2242      788     -660     -227     1397     2362     1995      520 
   -1755    -4203    -5785    -6040    -5745    -5680    -5965    -6756 
   -7636    -7338    -4838       48     6412    12538    17009    19328 
   19587    17708    13546     8482     5430     5593     7055     7765 
    7578     6891     5714     4260     3123     2748     2446      966 
   -1071    -1858    -1246     -262      380      252     -505    -1295 
   -1705    -1553    -1116     -866     -461      988     3966     7986 
   11172    12123    11673    10539     8165     4902     2342     1778 
    3250     6070     9424    11698    11336     8595     4913     1508 
   -1230    -3256    -3850    -2682    -1070     -426     -905    -1762 
   -2112    -1765     -713     1529     4542     7098     9210    11393 
   12885    12536    10152     6615     3202     1046     1091     3223 
    6151     8529     9370     8542     6710     4778     3640     3432 
    3882     5215     7642    10940    14379    16980    18245    18034 
   16378    13868    11348     9054     6859     5080     3850     2656 
    1275       12     -935    -1341     -687     1065     3477     6414 
    9614    12399    13986    14284    14546    15518    16185    15207 
   11847     6974     3359     2396     2555     2346     1431     -550 
   -3389    -5924    -7552    -8764    -9984   -10953   -10918    -9197 
   -6143    -3028    -1174    -1121    -2040    -2996    -3845    -4322 
   -4258    -3709    -2224      282     2872     4616     5229     4945 
    4456     4500     5054     5279     4853     4431     4223     3835 
    3357     3016     2899     3560     5184     6757     7500     7772 
    8062     8253     7824     6393     4087     1735      457      629 
    1878     3532     4635     5119     5997     7062     7045     6010 
    5078     4710     4616     4656     4593     3809     2698     2377 
    2492     1568     -770    -3105    -3699    -2216      417     3188 
    5383     6545     6916     6885     5924     3868     1878      790 
     623     1110     1441     1182     1109     1915     3075     3478 
    2851     2190     2550     3930     5358     5944     5864     5452 
    4566     3784     3634     3246     2068     1128     1286     1983 
    2759     4072     5752     7011     7857     8933    10377    11227 
   10632     9312     8331     7604     6998     6623     5714     3899 
    2107      869      172      295     1197     2053     2185     2292 
    3300     4822     6265     7314     7444     6744     6032     5718 
    5277     4186     2734     1248      -67     -523      165     1272 
    2336     3730     5741     7802     8713     8132     7023     6167 
    5454     4414     2887     1333      626     1446     3235     4532 
    4593     3944     3677     4167     4830     5184     5231     5238 
    5327     5177     4516     3587     2936     2758     2621     2118 
    1391      898      677       66    -1041    -1501     -565     1146 
    2900     4529     6045     7884    10289    12074    11978    10384 
    8393     6792     5817     4946     3584     1842      529      521 
    1914     4058     6041     6969     6659     5928     5441     5179 
    5421     6372     7045     6658     6015     5784     5248     3863 
    2358     1557     1313     1267     1353     1204      537     -210 
    -375      205     1063     1819     2479     2863     2841     2571 
    2324     2527     3154     3562     3533     3514     4014     5163 
    6260     6279     5015     2977     1023       90      205      828 
    1872     2991     3402     2909     1844      566     -567    -1218 
   -1092     -239      827     1889     3200     4709     5811     5950 
    5512     5388     5657     6041     6622     7074     6901     6379 
    6101     6280     6718     6968     6898     6914     7276     7819 
    8290     8424     8200     8048     7973     7276     6076     5369 
    5311     5535     6060     6644     6966     7435     8424     9455 
    9790     9081     7487     5648     3999     2592     1666     1218 
     877      431     -120     -305      185      842     1456     2208 
    2978     3795     4760     5919     7156     7492     6277     4574 
    3445     2506     1227     -196    -1410    -1871    -1162      139 
    1173     1848     2399     2668     2537     2355     2101     1477 
     779      358      254      520     1322     2649     3875     4330 
    3978     3125     2168     1493     1140     1026     1570     2888 
    4044     4428     4516     4869     5377     5678     5838     5947 
    6039     6314     6438     5937     5299     5214     5327     4876 
    4009     3215     2459     2086     2696     3805     4556     4852 
    5071     5721     6736     7122     6375     5211     4236     3270 
    2229     1603     1503     1235      620      218       94      -23 
      65      708     1884     3293     4486     4914     4556     4109 
    4126     4622     5364     5928     5980     5898     6423     7614 
    8919     9863     9999     8989     7278     5686     4275     2864 
