Origin Time       2024/04/02 04:24:00
Lat.              40.133
Long.             141.712
Depth. (km)       71
Mag.              6.0
Station Code      AKTH05
Station Lat.      39.0718
Station Long.     140.3185
Station Height(m) 75
Record Time       2024/04/02 04:25:04
Sampling Freq(Hz) 100Hz
Duration Time(s)  120
Dir.              3
Scale Factor      2942(gal)/8224139
Max. Acc. (gal)   0.764
Last Correction   2024/04/02 04:25:04
Memo.             
[...]
   79732    79855    80041    80168    80165    80095    80052    80118 
   80276    80374    80420    80554    80643    80549    80385    80208 
   80122    80235    80318    80231    80211    80292    80303    80345 
   80434    80372    80219    80069    79864    79716    79749    79922 
   80038    79971    79957    80114    80126    79937    79802    79759 
   79856    80153    80420    80534    80584    80597    80578    80523 
   80427    80342    80252    80171    80212    80388    80536    80535 
   80337    79979    79664    79582    79770    80032    80140    80208 
   80273    80141    79990    79949    79872    79844    79928    80019 
   80072    79998    79797    79655    79729    79964    80131    80179 
   80287    80397    80316    80219    80337    80450    80295    80095 
   80146    80314    80333    80196    80098    80102    80133    80154 
   80129    80107    80204    80315    80206    79875    79652    79749 
   79879    79797    79694    79724    79822    79949    80044    80049 
   80075    80125    80052    79893    79807    79902    80156    80353 
   80376    80370    80443    80507    80464    80391    80445    80586 
   80589    80415    80349    80485    80504    80295    80133    80104 
   80052    79972    79955    79955    79979    80068    80067    79924 
   79828    79886    80010    80134    80318    80443    80388    80415 
   80595    80727    80740    80555    80272    80172    80226    80238 
   80152    80065    80034    80038    80152    80334    80342    80160 
   80014    79953    79952    80056    80106    79990    79921    80002 
   80134    80200    80104    79979    80041    80211    80329    80350 
   80207    80026    80049    80118    80013    79899    79902    79911 
   79906    79968    79995    79924    79975    80148    80152    79994 
   79887    79880    80057    80435    80674    80573    80372    80293 
   80307    80381    80487    80461    80350    80461    80671    80595 
   80327    80173    80103    80069    80215    80404    80407    80388 
   80384    80208    80003    79903    79805    79741    79876    80165 
   80341    80323    80202    80002    79834    79798    79768    79677 
   79668    79848    80048    80092    80037    79974    79975    79998 
   79887    79767    79883    80104    80191    80148    80029    79852 
   79759    79888    80117    80249    80360    80500    80411    80100 
   79920    79914    80017    80330    80680    80711    80531    80457 
   80418    80239    80053    80059    80250    80473    80546    80482 
   80412    80319    80229    80215    80217    80218    80273    80384 
   80416    80227    80023    79988    79930    79824    79872    80011 
   80072    80068    80082    80096    80005    79845    79809    79882 
   79936    80011    80104    80161    80250    80338    80296    80087 
   79884    79971    80226    80299    80252    80273    80291    80244 
   80233    80295    80287    80183    80122    80075    79928    79753 
   79747    79928    80072    80063    79978    79930    79982    79992 
   79845    79709    79701    79771    79922    80122    80323    80562 
   80767    80747    80553    80462    80469    80352    80264    80383 
   80482    80547    80681    80643    80377    80190    80200    80257 
   80260    80284    80298    80144    79959    79926    79859    79712 
   79775    80005    80040    79942    79969    79995    79928    79926 
   80017    80053    79979    79891    79879    79934    80056    80239 
   80347    80253    80157    80264    80439    80497    80389    80256 
   80254    80244    80161    80225    80441    80545    80418    80335 
   80478    80503    80284    80153    80190    80273    80310    80149 
   79947    80018    80185    80150    80007    79937    80028    80248 
   80401    80358    80183    80050    79968    79783    79586    79598 
   79822    80077    80222    80356    80504    80464    80271    80115 
   79960    79797    79749    79814    79926    80053    80148    80227 
   80298    80333    80428    80514    80419    80331    80424    80516 
   80501    80389    80202    80098    80046    79979    80110    80346 
   80381    80310    80330    80430    80465    80392    80357    80291 
   80083    79845    79625    79494    79475    79459    79583    79886 
   80102    80249    80383    80303    80080    79955    79893    79756 
   79697    79883    80006    79906    79960    80206    80300    80239 
   80246    80296    80225    80106    80130    80244    80302    80237 
   80018    79802    79793    79884    79899    79918    80056    80223 
   80262    80153    80072    80154    80279    80229    79988    79888 
   80169    80426    80326    80249    80360    80325    80225    80326 
   80449    80393    80329    80410    80530    80631    80800    80952 
   80821    80451    80160    79968    79857    79974    80156    80200 
   80296    80505    80549    80380    80199    80053    79951    79883 
   79764    79616    79525    79598    79836    79990    80001    80041 
   80034    79929    79895    79925    79861    79768    79834    80060 
   80218    80134    79975    79978    80091    80134    80038    79940 
   80006    80168    80289    80392    80532    80644    80677    80682 
   80634    80530    80431    80279    80169    80226    80241    80148 
   80165    80392    80700    80863    80759    80534    80333    80154 
   80011    79934    79888    79886    79990    80188    80312    80277 
   80245    80253    80214    80157    80048    79901    79938    80126 
   80211    80161    80053    80014    80141    80239    80095    79829 
   79697    79760    79902    79949    79866    79826    79891    79936 
   79967    80030    80021    79945    79982    80119    80192    80192 
   80183    80185    80246    80354    80424    80457    80465    80430 
   80455    80574    80588    80434    80287    80237    80229    80217 
   80241    80299    80293    80218    80154    80091    80030    79972 
   79913    79909    79834    79573    79388    79452    79498    79405 
   79407    79554    79675    79760    79872    79957    80026    80150 
   80256    80272    80295    80408    80509    80501    80478    80461 
   80345    80176    80107    80154    80227    80293    80316    80295 
   80392    80465    80260    80079    80121    80111    80025    80006 
   79987    79945    79949    80011    80113    80164    80149    80167 
   80187    80172    80187    80173    80075    80034    80068    80059 
   80092    80237    80357    80430    80492    80435    80200    79920 
   79782    79861    80045    80169    80237    80315    80414    80511 
   80505    80347    80253    80368    80427    80373    80462    80553 
   80454    80364    80315    80273    80372    80503    80396    80131 
   79991    79964    79933    79972    80011    79879    79736    79749 
   79834    79911    79982    80084    80187    80230    80272    80289 
   80235    80268    80389    80446    80516    80680    80788    80725 
   80593    80547    80547    80473    80279    80015    79901    79984 
   80029    79953    79915    79999    80100    80082    79938    79782 
   79755    79868    79992    80056    80021    79899    79836    79851 
   79816    79720    79728    79917    80144    80283    80387    80480 
   80458    80323    80173    79956    79702    79672    79879    80095 
   80245    80293    80239    80215    80210    80088    79990    80107 
   80266    80296    80284    80280    80303    80377    80374    80238 
   80064    79918    79876    79990    80133    80175    80158    80198 
   80227    80144    80127    80223    80122    79884    79830    79902 
   79901    79829    79795    79888    80091    80265    80227    80013 
   79928    80030    80065    79938    79834    79953    80180    80242 
   80065    79856    79812    79840    79821    79828    79909    80055 
   80275    80470    80451    80322    80308    80229    79930    79776 
   79959    80204    80358    80523    80698    80777    80827    80912 
   80860    80644    80496    80393    80184    80026    80042    80100 
   80222    80473    80626    80524    80325    80087    79775    79598 
   79671    79752    79772    79848    79926    79890    79758    79709 
   79733    79658    79579    79578    79635    79824    80050    80181 
   80202    80099    79996    79963    79917    79975    80145    80230 
   80329    80543    80663    80646    80674    80752    80794    80778 
   80622    80427    80474    80588    80466    80334    80377    80480 
   80595    80667    80576    80360    80238    80299    80341    80315 
   80404    80496    80449    80447    80508    80426    80271    80231 
   80261    80284    80354    80438    80392    80260    80244    80280 
   80179    80076    80100    80119    80038    79867    79783    79968 
   80199    80175    80045    80040    80113    80185    80146    79933 
   79803    79967    80242    80397    80460    80497    80433    80298 
   80250    80325    80454    80531    80491    80420    80461    80597 
   80616    80468    80364    80377    80388    80362    80360    80354 
   80315    80208    79976    79767    79678    79578    79417    79169 
   78887    78857    79081    79242    79247    79238    79382    79631 
   79694    79629    79717    79906    80073    80117    79936    79806 
   79941    80103    80202    80345    80387    80300    80347    80499 
   80477    80257    80005    79820    79745    79744    79744    79729 
   79702    79741    79932    80144    80160    80029    79982    79998 
   79948    79998    80238    80453    80541    80514    80327    80187 
   80304    80484    80604    80792    81021    81122    81051    80952 
   80889    80751    80636    80696    80759    80663    80535    80492 
   80461    80387    80235    80037    80002    80111    80109    80022 
   79947    79844    79813    79822    79740    79731    79847    79816 
   79624    79562    79686    79828    79974    80140    80284    80515 
   80819    80937    80835    80743    80676    80545    80497    80585 
   80613    80531    80488    80496    80410    80272    80187    80090 
   80002    79914    79785    79721    79732    79797    79969    80157 
   80235    80185    80059    79944    79926    80052    80253    80401 
   80468    80572    80739    80757    80589    80485    80523    80542 
   80446    80269    80113    80045    80038    80096    80187    80185 
   80121    79999    79797    79708    79772    79829    79888    79992 
   80146    80293    80341    80364    80435    80518    80522    80354 
   80230    80415    80708    80836    80840    80833    80794    80727 
   80752    80777    80669    80640    80689    80484    80079    79776 
   79641    79586    79578    79641    79772    79860    79733    79440 
   79263    79261    79243    79169    79162    79245    79284    79301 
   79378    79386    79255    79208    79454    79870    80133    80126 
   80057    80199    80524    80808    80885    80708    80511    80608 
   80827    80767    80503    80389    80434    80464    80528    80651 
   80707    80712    80704    80545    80250    80113    80229    80311 
   80222    80181    80269    80342    80435    80541    80480    80322 
   80194    80030    79840    79705    79623    79560    79544    79589 
   79671    79751    79728    79639    79637    79627    79515    79440 
   79458    79536    79698    79801    79628    79366    79385    79614 
   79768    79822    79805    79722    79691    79779    79871    79837 
   79755    79720    79690    79720    79887    80095    80204    80180 
   80086    79996    80019    80177    80361    80543    80697    80712 
   80680    80678    80549    80342    80269    80239    80119    79996 
   79918    79861    79876    79937    80014    80099    80050    79930 
   79924    79934    79907    79913    79911    79786    79546    79361 
   79277    79261    79367    79600    79895    80249    80599    80771 
   80730    80638    80601    80493    80334    80433    80773    80982 
   80933    80838    80902    81033    81064    81035    80925    80731 
   80601    80563    80508    80383    80214    80084    80117    80293 
   80415    80424    80431    80450    80476    80593    80743    80792 
   80797    80850    80867    80758    80562    80376    80141    79803 
   79579    79623    79774    79871    79903    79876    79787    79637 
   79488    79428    79432    79504    79732    80005    80111    79961 
   79652    79479    79562    79687    79732    79782    79844    79839 
   79756    79531    79164    78862    78719    78717    78873    79046 
   79046    78895    78764    78771    78784    78664    78574    78687 
   78968    79320    79624    79798    79887    79964    80094    80291 
   80489    80627    80735    80829    80827    80773    80773    80746 
   80690    80774    80927    80951    80898    80878    80832    80763 
   80752    80694    80526    80396    80368    80383    80528    80792 
   80935    81004    81151    81147    80974    80898    80850    80738 
   80673    80657    80701    80874    81135    81272    81139    80958 
   80883    80703    80415    80233    80107    79984    80018    80144 
   80158    80203    80430    80640    80761    80886    80940    80896 
   80874    80905    80908    80905    81012    81166    81318    81631 
   81942    81918    81652    81357    81136    81043    80937    80774 
   80666    80566    80464    80376    80202    79955    79677    79366 
   79104    78926    78807    78706    78605    78571    78594    78557 
   78514    78579    78640    78597    78530    78414    78189    78015 
   78119    78403    78665    79011    79407    79628    79872    80308 
   80658    80712    80562    80373    80195    80019    79897    79790 
   79720    79887    80284    80588    80611    80565    80732    81014 
   81168    81209    81160    80968    80821    80910    81018    80902 
   80643    80316    79890    79479    79255    79272    79444    79585 
   79632    79720    79832    79834    79763    79691    79590    79474 
   79402    79353    79323    79455    79748    79992    80203    80549 
   80978    81328    81449    81349    81275    81402    81623    81687 
   81558    81556    81815    82067    82163    82171    82088    81974 
   81908    81750    81495    81288    81051    80786    80698    80688 
   80523    80284    80126    80071    80126    80239    80303    80330 
   80343    80238    79999    79772    79608    79496    79438    79456 
   79613    79731    79573    79397    79497    79632    79550    79384 
   79290    79199    79023    78808    78624    78586    78734    78846 
   78848    78922    79081    79212    79320    79313    79020    78626 
   78460    78549    78834    79191    79412    79566    79786    80042 
   80330    80549    80666    80874    81140    81251    81213    81170 
   81228    81405    81569    81592    81436    81098    80704    80377 
   80113    79929    79843    79836    79922    79947    79763    79550 
   79458    79380    79276    79207    79145    79042    78937    78880 
   78908    79031    79200    79398    79660    79994    80357    80671 
   80917    81179    81429    81538    81561    81621    81638    81513 
   81319    81234    81379    81600    81575    81274    80990    80801 
   80509    80144    79825    79358    78726    78308    78209    78247 
   78376    78571    78768    78975    79161    79240    79203    79155 
   79249    79508    79807    80052    80233    80400    80596    80767 
   80856    80933    81055    81099    80985    80778    80505    80254 
   80167    80206    80289    80438    80670    80914    81037    81068 
   81145    81191    81141    81153    81186    81036    80820    80701 
   80616    80588    80590    80468    80335    80299    80163    79882 
   79639    79523    79492    79452    79423    79478    79485    79384 
   79371    79458    79446    79316    79227    79218    79243    79394 
   79668    79872    80067    80374    80611    80734    80894    80993 
   80901    80732    80586    80424    80262    80122    79855    79544 
   79606    79972    80191    80187    80075    79909    79785    79695 
   79593    79500    79451    79506    79589    79543    79501    79627 
   79813    79917    79924    79952    80137    80434    80658    80693 
   80651    80728    80894    80981    80981    81039    81244    81556 
   81870    82063    82038    81850    81649    81465    81229    80974 
   80752    80563    80477    80470    80342    80055    79740    79531 
   79463    79385    79240    79159    79080    78929    78813    78744 
   78661    78605    78591    78594    78657    78814    78931    78981 
   79139    79365    79574    79818    79990    80033    80098    80244 
   80393    80368    80142    79991    80063    80250    80478    80657 
   80689    80678    80751    80782    80632    80481    80563    80715 
   80639    80491    80536    80662    80724    80820    80936    80867 
   80622    80428    80379    80468    80622    80751    80968    81225 
   81340    81419    81521    81545    81538    81537    81486    81357 
   81164    80979    80831    80655    80473    80310    80153    80073 
   80049    80014    80061    80192    80223    80134    80065    79957 
   79677    79359    79149    78954    78745    78659    78695    78695 
   78686    78741    78815    78941    79137    79317    79461    79529 
   79564    79758    80044    80169    80152    80146    80110    80022 
   80021    80052    80017    80060    80217    80285    80215    80160 
   80188    80126    79915    79752    79682    79662    79764    79990 
   80172    80223    80249    80196    79922    79644    79596    79685 
   79806    79909    80019    80256    80545    80613    80384    80148 
   80176    80293    80225    80052    80014    80142    80334    80553 
   80739    80773    80734    80816    81039    81317    81577    81751 
   81795    81710    81596    81517    81402    81234    81105    81066 
   81097    81220    81417    81521    81456    81318    81148    80937 
   80655    80318    80142    80223    80331    80354    80318    80146 
   79878    79712    79666    79532    79261    79105    79064    78873 
   78673    78741    78912    78976    79053    79165    79104    78934 
   78887    78889    78786    78625    78560    78710    79022    79276 
   79417    79570    79733    79805    79741    79643    79671    79779 
   79770    79639    79560    79555    79497    79405    79327    79230 
   79226    79432    79724    79934    80064    80136    80109    79979 
   79791    79582    79456    79529    79748    80007    80250    80361 
   80330    80383    80584    80719    80747    80796    80767    80647 
   80684    80860    80950    80951    80951    80931    80863    80796 
   80806    80904    80970    80901    80762    80650    80573    80528 
   80514    80496    80445    80392    80441    80607    80792    80967 
   81136    81189    81075    80925    80831    80761    80719    80828 
   81097    81220    81044    80873    80951    81118    81162    81066 
   80813    80478    80334    80315    80102    79774    79633    79662 
   79663    79602    79498    79344    79201    79101    79038    79014 
   78980    78954    78960    78925    78952    79155    79362    79486 
   79602    79631    79532    79431    79407    79515    79697    79728 
   79556    79408    79471    79602    79566    79582    79898    80173 
