Origin Time       2024/04/02 04:24:00
Lat.              40.133
Long.             141.712
Depth. (km)       71
Mag.              6.0
Station Code      AKTH07
Station Lat.      40.4563
Station Long.     140.8395
Station Height(m) 300
Record Time       2024/04/02 04:24:53
Sampling Freq(Hz) 100Hz
Duration Time(s)  146
Dir.              3
Scale Factor      3920(gal)/6170801
Max. Acc. (gal)   4.644
Last Correction   2024/04/02 04:24:38
Memo.             
[...]
  -11114   -11116   -11116   -11114   -11113   -11116   -11115   -11114 
  -11117   -11116   -11115   -11116   -11115   -11116   -11116   -11115 
  -11112   -11113   -11116   -11115   -11114   -11116   -11116   -11113 
  -11113   -11115   -11116   -11115   -11116   -11117   -11114   -11114 
  -11116   -11114   -11111   -11113   -11115   -11115   -11113   -11115 
  -11117   -11117   -11116   -11114   -11115   -11116   -11115   -11115 
  -11117   -11116   -11114   -11114   -11116   -11116   -11114   -11113 
  -11115   -11116   -11115   -11115   -11116   -11115   -11114   -11114 
  -11115   -11117   -11116   -11116   -11117   -11115   -11114   -11116 
  -11114   -11113   -11115   -11115   -11115   -11117   -11116   -11116 
  -11117   -11116   -11114   -11115   -11116   -11116   -11115   -11114 
  -11115   -11114   -11113   -11114   -11117   -11117   -11116   -11114 
  -11114   -11115   -11116   -11115   -11115   -11115   -11113   -11115 
  -11115   -11114   -11115   -11115   -11115   -11116   -11115   -11114 
  -11115   -11115   -11115   -11115   -11113   -11112   -11115   -11116 
  -11115   -11116   -11115   -11112   -11113   -11115   -11116   -11114 
  -11113   -11115   -11115   -11114   -11115   -11117   -11116   -11115 
  -11116   -11116   -11115   -11115   -11116   -11116   -11116   -11115 
  -11114   -11116   -11115   -11115   -11117   -11115   -11114   -11116 
  -11116   -11115   -11116   -11116   -11115   -11114   -11115   -11114 
  -11113   -11114   -11114   -11114   -11114   -11114   -11115   -11116 
  -11114   -11115   -11116   -11116   -11116   -11117   -11116   -11114 
  -11115   -11115   -11115   -11115   -11115   -11114   -11113   -11114 
  -11115   -11115   -11115   -11115   -11116   -11117   -11116   -11115 
  -11114   -11113   -11115   -11116   -11115   -11114   -11115   -11114 
  -11112   -11113   -11114   -11114   -11115   -11116   -11115   -11114 
  -11113   -11115   -11116   -11116   -11116   -11115   -11114   -11115 
  -11114   -11113   -11115   -11115   -11114   -11114   -11115   -11115 
  -11114   -11113   -11115   -11116   -11115   -11115   -11114   -11114 
  -11114   -11115   -11115   -11113   -11113   -11114   -11115   -11116 
  -11116   -11114   -11114   -11116   -11115   -11117   -11116   -11113 
  -11114   -11117   -11115   -11115   -11117   -11115   -11113   -11115 
  -11115   -11114   -11114   -11115   -11115   -11115   -11115   -11114 
  -11114   -11116   -11116   -11115   -11115   -11115   -11115   -11116 
  -11115   -11114   -11113   -11116   -11117   -11115   -11113   -11115 
  -11113   -11113   -11115   -11116   -11116   -11115   -11115   -11114 
  -11113   -11114   -11117   -11117   -11115   -11115   -11116   -11116 
  -11114   -11113   -11115   -11117   -11116   -11116   -11116   -11114 
  -11114   -11116   -11115   -11114   -11116   -11116   -11118   -11116 
  -11113   -11114   -11114   -11112   -11115   -11117   -11116   -11114 
  -11112   -11114   -11116   -11116   -11115   -11117   -11117   -11115 
  -11115   -11114   -11115   -11115   -11116   -11117   -11115   -11114 
  -11116   -11116   -11115   -11115   -11114   -11115   -11117   -11115 
  -11113   -11113   -11116   -11116   -11113   -11113   -11116   -11116 
  -11116   -11113   -11112   -11115   -11117   -11116   -11115   -11115 
  -11114   -11115   -11116   -11116   -11115   -11115   -11116   -11115 
  -11115   -11114   -11112   -11114   -11116   -11114   -11114   -11116 
  -11116   -11114   -11113   -11115   -11117   -11115   -11113   -11115 
  -11116   -11115   -11115   -11115   -11115   -11114   -11113   -11116 
  -11117   -11116   -11116   -11114   -11113   -11116   -11117   -11114 
  -11114   -11116   -11116   -11115   -11114   -11115   -11116   -11116 
  -11117   -11117   -11116   -11115   -11115   -11115   -11116   -11116 
  -11117   -11116   -11114   -11115   -11116   -11115   -11114   -11115 
  -11116   -11115   -11115   -11116   -11116   -11115   -11114   -11114 
  -11112   -11112   -11113   -11115   -11116   -11115   -11115   -11114 
  -11114   -11115   -11115   -11114   -11116   -11116   -11115   -11114 
  -11114   -11114   -11113   -11113   -11114   -11115   -11114   -11113 
  -11114   -11115   -11115   -11115   -11115   -11115   -11116   -11116 
  -11114   -11115   -11116   -11115   -11116   -11117   -11115   -11115 
  -11115   -11115   -11114   -11114   -11116   -11116   -11113   -11113 
  -11115   -11114   -11114   -11114   -11114   -11115   -11115   -11113 
  -11113   -11115   -11115   -11115   -11116   -11115   -11115   -11117 
  -11115   -11115   -11116   -11113   -11113   -11115   -11114   -11115 
  -11116   -11115   -11114   -11114   -11114   -11113   -11113   -11113 
  -11114   -11115   -11114   -11115   -11116   -11115   -11116   -11116 
  -11113   -11114   -11115   -11113   -11115   -11115   -11114   -11114 
  -11113   -11114   -11115   -11114   -11115   -11116   -11114   -11114 
  -11114   -11114   -11115   -11115   -11114   -11113   -11114   -11114 
  -11114   -11113   -11113   -11115   -11116   -11116   -11116   -11115 
  -11114   -11114   -11115   -11115   -11115   -11114   -11113   -11113 
  -11113   -11114   -11116   -11115   -11114   -11116   -11114   -11113 
  -11115   -11114   -11112   -11114   -11114   -11113   -11113   -11114 
  -11115   -11115   -11114   -11114   -11116   -11116   -11115   -11113 
  -11113   -11114   -11112   -11113   -11115   -11114   -11112   -11114 
  -11115   -11114   -11114   -11114   -11113   -11113   -11114   -11114 
  -11113   -11114   -11115   -11114   -11114   -11115   -11114   -11113 
  -11114   -11116   -11115   -11114   -11114   -11114   -11114   -11114 
  -11114   -11113   -11114   -11115   -11116   -11114   -11113   -11114 
  -11113   -11113   -11114   -11115   -11115   -11114   -11115   -11114 
  -11113   -11115   -11117   -11115   -11115   -11115   -11114   -11114 
  -11115   -11114   -11113   -11112   -11114   -11115   -11115   -11114 
  -11114   -11114   -11114   -11114   -11116   -11116   -11114   -11114 
  -11114   -11113   -11114   -11117   -11117   -11115   -11114   -11113 
  -11113   -11114   -11116   -11115   -11113   -11114   -11116   -11116 
  -11115   -11116   -11115   -11113   -11114   -11116   -11115   -11115 
  -11114   -11114   -11115   -11113   -11112   -11114   -11115   -11116 
  -11116   -11115   -11113   -11114   -11116   -11114   -11113   -11115 
  -11116   -11115   -11114   -11114   -11113   -11113   -11114   -11114 
  -11113   -11114   -11116   -11114   -11114   -11116   -11114   -11112 
  -11113   -11115   -11114   -11113   -11113   -11113   -11114   -11114 
  -11114   -11114   -11114   -11114   -11114   -11114   -11115   -11114 
  -11113   -11114   -11115   -11115   -11114   -11114   -11114   -11115 
  -11116   -11114   -11114   -11115   -11114   -11115   -11115   -11114 
  -11114   -11113   -11113   -11113   -11113   -11113   -11115   -11114 
  -11112   -11113   -11114   -11114   -11115   -11113   -11112   -11115 
  -11115   -11113   -11115   -11114   -11112   -11113   -11115   -11114 
  -11113   -11114   -11113   -11113   -11115   -11116   -11116   -11115 
  -11113   -11114   -11115   -11114   -11114   -11114   -11114   -11116 
  -11115   -11113   -11114   -11115   -11113   -11112   -11113   -11113 
  -11114   -11115   -11113   -11112   -11114   -11114   -11113   -11114 
  -11115   -11113   -11113   -11113   -11112   -11113   -11115   -11113 
  -11113   -11115   -11113   -11113   -11116   -11116   -11114   -11113 
  -11114   -11114   -11113   -11114   -11116   -11117   -11113   -11111 
  -11114   -11114   -11113   -11116   -11115   -11113   -11114   -11114 
  -11114   -11114   -11112   -11113   -11114   -11112   -11113   -11115 
  -11113   -11114   -11116   -11114   -11113   -11115   -11116   -11116 
  -11115   -11115   -11116   -11116   -11115   -11115   -11114   -11114 
  -11114   -11114   -11113   -11114   -11114   -11114   -11116   -11117 
  -11117   -11115   -11113   -11114   -11115   -11114   -11113   -11114 
  -11115   -11116   -11115   -11113   -11113   -11114   -11113   -11114 
  -11115   -11114   -11114   -11114   -11114   -11116   -11116   -11112 
  -11113   -11116   -11114   -11113   -11115   -11115   -11113   -11113 
  -11115   -11113   -11113   -11115   -11114   -11113   -11113   -11112 
  -11114   -11116   -11113   -11112   -11116   -11115   -11113   -11115 
  -11115   -11114   -11115   -11114   -11113   -11114   -11115   -11114 
  -11114   -11114   -11113   -11115   -11117   -11115   -11113   -11115 
  -11116   -11113   -11113   -11115   -11114   -11112   -11113   -11115 
  -11115   -11113   -11113   -11114   -11115   -11115   -11113   -11114 
  -11115   -11115   -11115   -11115   -11114   -11114   -11115   -11115 
  -11113   -11112   -11115   -11115   -11114   -11115   -11115   -11115 
  -11114   -11115   -11116   -11115   -11115   -11117   -11116   -11114 
  -11115   -11113   -11112   -11114   -11113   -11112   -11114   -11117 
  -11116   -11112   -11111   -11115   -11115   -11115   -11115   -11114 
  -11114   -11115   -11114   -11115   -11114   -11112   -11114   -11115 
  -11115   -11116   -11116   -11116   -11116   -11113   -11113   -11115 
  -11114   -11112   -11113   -11116   -11114   -11114   -11116   -11115 
  -11113   -11114   -11114   -11113   -11113   -11115   -11115   -11112 
  -11112   -11113   -11113   -11114   -11116   -11115   -11113   -11115 
  -11116   -11116   -11116   -11116   -11116   -11116   -11115   -11114 
  -11114   -11114   -11115   -11116   -11116   -11114   -11114   -11115 
  -11115   -11116   -11117   -11115   -11114   -11114   -11114   -11113 
  -11114   -11114   -11113   -11116   -11115   -11114   -11116   -11115 
  -11113   -11116   -11115   -11112   -11113   -11117   -11115   -11112 
  -11114   -11115   -11114   -11115   -11115   -11116   -11117   -11116 
  -11115   -11115   -11115   -11116   -11116   -11115   -11115   -11114 
  -11114   -11114   -11114   -11114   -11114   -11113   -11114   -11114 
  -11115   -11115   -11115   -11113   -11113   -11114   -11115   -11115 
  -11115   -11115   -11116   -11115   -11114   -11115   -11117   -11115 
  -11113   -11115   -11115   -11115   -11114   -11113   -11114   -11115 
  -11115   -11114   -11113   -11114   -11115   -11114   -11115   -11116 
  -11114   -11114   -11116   -11113   -11113   -11115   -11114   -11112 
  -11114   -11115   -11114   -11113   -11115   -11117   -11115   -11115 
  -11115   -11114   -11113   -11114   -11114   -11114   -11115   -11114 
  -11114   -11114   -11113   -11115   -11117   -11115   -11112   -11114 
  -11117   -11115   -11113   -11114   -11113   -11112   -11113   -11114 
  -11114   -11114   -11114   -11114   -11114   -11114   -11113   -11112 
  -11112   -11113   -11114   -11115   -11114   -11114   -11114   -11114 
  -11115   -11114   -11114   -11114   -11115   -11116   -11116   -11114 
  -11114   -11116   -11113   -11111   -11115   -11116   -11113   -11114 
  -11115   -11114   -11114   -11116   -11114   -11112   -11115   -11118 
  -11114   -11114   -11115   -11114   -11115   -11115   -11114   -11114 
  -11115   -11115   -11115   -11116   -11115   -11114   -11115   -11116 
  -11114   -11114   -11116   -11115   -11114   -11116   -11114   -11112 
  -11116   -11118   -11115   -11114   -11116   -11115   -11115   -11115 
  -11114   -11115   -11114   -11114   -11116   -11116   -11114   -11114 
  -11115   -11115   -11114   -11116   -11116   -11112   -11113   -11117 
  -11117   -11115   -11116   -11115   -11113   -11114   -11115   -11114 
  -11114   -11115   -11114   -11113   -11114   -11116   -11114   -11113 
  -11115   -11113   -11111   -11114   -11115   -11114   -11115   -11115 
  -11115   -11115   -11113   -11114   -11114   -11113   -11116   -11116 
  -11113   -11114   -11115   -11113   -11113   -11114   -11113   -11112 
  -11113   -11116   -11115   -11113   -11115   -11115   -11115   -11115 
  -11114   -11115   -11114   -11113   -11114   -11114   -11115   -11115 
  -11114   -11113   -11112   -11110   -11109   -11108   -11107   -11104 
  -11100   -11096   -11090   -11081   -11075   -11064   -11046   -11024 
  -10992   -10947   -10889   -10814   -10715   -10603   -10490   -10405 
  -10383   -10458   -10647   -10932   -11246   -11516   -11708   -11806 
  -11761   -11515   -11063   -10474    -9871    -9380    -9099    -9112 
   -9449    -9997   -10570   -11032   -11322   -11421   -11316   -11046 
  -10795   -10734   -10842   -10975   -10981   -10766   -10320    -9778 
   -9451    -9551   -10050   -10821   -11548   -11929   -12110   -12230 
  -11937   -11168   -10595   -10653   -11104   -11600   -11782   -11450 
  -10960   -10790   -10976   -11414   -12167   -13076   -13574   -13319 
  -12678   -12173   -11663   -10903   -10447   -10601   -10705   -10727 
  -11233   -11681   -11434   -11117   -11256   -11468   -11405   -11051 
  -10156    -8624    -7260    -6921    -7539    -8281    -8521    -9043 
  -10794   -12747   -13359   -13037   -12840   -12252   -10906   -10032 
  -10125   -10390   -10613   -11155   -11580   -11115   -10713   -11556 
  -12357   -12152   -12467   -13951   -14981   -14569   -13673   -13536 
  -13775   -12533    -9888    -8933   -10959   -13812   -15568   -15954 
  -16026   -17046   -18110   -17078   -14064   -11466   -10436   -10151 
  -10164   -10419   -10734   -11366   -12442   -13626   -14406   -14424 
  -13924   -13194   -11879   -10114    -9194    -9236    -8878    -8376 
   -8635    -8406    -6758    -5478    -5951    -7673   -10622   -13920 
  -15034   -14283   -14004   -13372   -10623    -7066    -4858    -4510 
   -5431    -6722    -7899    -8748    -8930    -9340   -11559   -14688 
  -16560   -17497   -18426   -17837   -14858   -11504    -9391    -8467 
   -8458    -8766    -9142   -10276   -11866   -12731   -13048   -13080 
  -12596   -12681   -13474   -13133   -11295    -9185    -7172    -5216 
   -4648    -6289    -7982    -8237    -8526    -9363    -9766    -9599 
   -9167    -9098    -9855   -10825   -11089    -9776    -7378    -6190 
   -6491    -6647    -7433    -9777   -12051   -13472   -14229   -13863 
  -12487   -10808    -9482    -8998    -9849   -11315   -11791   -11981 
  -12324   -11583   -10843   -10903   -10570   -10324   -10866   -11344 
  -11681   -12465   -12886   -12420   -12848   -14600   -14951   -13196 
  -11805   -11329   -10397    -9536   -10141   -12049   -13997   -14815 
  -14483   -14087   -14171   -14016   -13328   -13108   -13438   -13068 
  -11694    -9979    -8825    -8848    -9323    -9539   -10183   -11866 
  -13869   -14930   -14791   -14354   -14339   -13755   -11434    -9418 
   -9776   -10489   -10097   -10538   -12769   -15326   -16789   -16798 
  -15766   -13893   -11289    -9352    -9193    -9912   -10306   -10003 
   -9542    -9696    -9486    -8410    -8660   -10310   -10769    -9918 
   -8981    -8373    -8503    -8990    -9254    -9626    -9937    -9389 
   -8582    -8998   -10441   -11782   -13041   -14157   -13938   -12374 
  -11037   -10206    -9181    -8724    -9987   -12184   -13592   -14096 
  -14352   -13734   -12108   -11081   -10820    -9888    -9127    -9636 
   -9554    -8159    -7613    -8529    -9266    -9529   -10370   -11516 
  -12281   -13124   -13899   -13850   -13434   -12978   -12089   -11138 
  -10389    -9711    -9386    -9118    -8614    -8906   -10299   -11241 
  -11162   -11320   -11882   -11603   -10612    -9875    -8987    -7928 
   -7811    -8225    -7927    -7494    -8094    -9142    -9392    -9142 
   -9467   -10521   -11656   -11840   -10883   -10351   -10990   -11527 
  -11469   -11541   -11580   -11417   -11857   -12566   -12529   -12340 
  -12389   -12012   -11859   -12562   -13065   -13098   -13328   -13243 
  -12495   -12370   -13111   -13243   -12974   -13275   -13293   -12709 
  -12507   -12737   -12769   -12502   -12291   -12492   -12756   -12297 
  -11789   -12388   -12864   -12024   -11149   -10883   -10512   -10189 
  -10445   -11173   -11726   -11588   -10882    -9691    -8455    -8113 
   -8414    -8540    -8840    -9856   -10594    -9943    -9133    -9354 
   -9468    -9098    -9545   -10786   -11497   -11457   -11392   -11406 
  -11210   -11188   -11649   -11605   -10529    -9727   -10041   -10853 
  -11644   -12443   -13398   -14228   -13843   -11998   -10304    -9795 
  -10085   -10753   -11399   -11736   -11857   -12003   -12143   -11867 
  -11454   -11429   -11427   -11456   -11819   -11602   -10212    -8751 
   -8290    -8856    -9865   -10840   -12017   -13320   -13757   -12873 
  -11553   -10597    -9689    -8848    -8515    -8604    -9205   -10090 
  -10754   -11214   -11212   -10869   -10790   -10663   -10161    -9934 
  -10676   -11658   -11673   -11250   -11116   -11114   -11578   -12365 
  -12811   -13210   -13935   -14645   -14726   -13799   -12394   -11671 
  -12031   -12748   -13160   -13283   -13259   -13124   -12815   -12134 
  -11258   -10801   -10708   -10490   -10596   -11046   -10859   -10414 
  -10465   -10552   -10645   -10825   -10475    -9825    -9577    -9406 
   -9360   -10076   -10756   -10503    -9949    -9602    -9241    -8761 
   -8394    -8525    -9139    -9749   -10190   -10472   -10199    -9756 
  -10063   -10517   -10347   -10233   -10447   -10498   -10465   -10607 
  -10725   -10578   -10451   -10721   -11151   -11262   -10952   -10684 
  -10750   -10807   -10800   -10715   -10282   -10127   -10831   -11576 
  -11683   -11725   -12063   -12194   -12103   -12247   -12469   -12344 
  -11928   -11763   -12155   -12637   -12718   -12563   -12343   -11852 
  -11372   -11418   -11540   -11323   -11299   -11624   -11728   -11352 
  -11046   -11344   -11678   -11486   -11213   -11289   -11745   -12187 
  -12150   -12091   -12266   -11989   -11581   -11948   -12445   -12153 
  -11585   -11263   -11214   -11740   -12345   -12143   -11572   -11385 
  -11528   -11604   -11542   -11698   -11863   -11670   -11604   -11710 
  -11298   -10567   -10297   -10292   -10097    -9999    -9980    -9807 
   -9795    -9916    -9757    -9676   -10458   -11676   -12003   -11335 
  -10685   -10826   -11563   -11779   -11416   -11505   -11829   -11690 
  -11441   -11436   -11360   -11311   -11747   -12133   -11852   -11434 
  -11175   -10657   -10082   -10044   -10202    -9887    -9390    -9373 
   -9816   -10112   -10017    -9940    -9961   -10022   -10474   -10863 
  -10451    -9993   -10236   -10491   -10246    -9906    -9978   -10402 
  -10689   -10717   -10506   -10038    -9694    -9619    -9525    -9284 
   -9112    -9307    -9833   -10416   -10753   -10712   -10581   -10584 
  -10779   -11202   -11586   -11911   -12586   -13246   -13260   -13172 
  -13376   -13379   -13330   -13456   -13220   -12731   -12630   -12743 
  -12758   -12793   -12614   -12136   -11898   -12060   -12199   -12195 
  -12246   -12122   -11793   -11721   -11680   -11327   -11017   -10842 
  -10613   -10414   -10467   -10985   -11878   -12483   -12259   -11558 
  -10927   -10461   -10162   -10072   -10224   -10480   -10614   -10738 
  -10864   -10510    -9725    -9260    -9320    -9712   -10301   -10584 
  -10202    -9802   -10161   -10548   -10142    -9798   -10135   -10702 
  -11129   -11212   -11172   -11324   -11320   -11050   -10919   -11107 
  -11631   -12085   -11951   -11698   -11988   -12342   -11916   -11077 
  -10941   -11540   -12034   -12043   -11774   -11660   -11788   -11684 
  -11147   -10619   -10389   -10304   -10297   -10385   -10471   -10791 
  -11493   -11908   -11495   -10734   -10545   -11044   -11313   -10956 
  -10541   -10548   -10807   -10620   -10063   -10044   -10625   -11165 
