Origin Time       2024/04/02 04:24:00
Lat.              40.133
Long.             141.712
Depth. (km)       71
Mag.              6.0
Station Code      AKTH05
Station Lat.      39.0718
Station Long.     140.3185
Station Height(m) 275
Record Time       2024/04/02 04:25:04
Sampling Freq(Hz) 100Hz
Duration Time(s)  120
Dir.              4
Scale Factor      7845(gal)/8223790
Max. Acc. (gal)   4.864
Last Correction   2024/04/02 04:25:04
Memo.             
[...]
   -2975    -2979    -3434    -4471    -5640    -6342    -6435    -6029 
   -5251    -4342    -3557    -3046    -2984    -3303    -3692    -4212 
   -4926    -5440    -5582    -5518    -5190    -4583    -4059    -3905 
   -4039    -4324    -4714    -5051    -5217    -5248    -5061    -4650 
   -4278    -4016    -3815    -3897    -4376    -4853    -4920    -4725 
   -4446    -3947    -3566    -3767    -4267    -4784    -5316    -5629 
   -5568    -5100    -4320    -3639    -3260    -3118    -3334    -3990 
   -4900    -5659    -5910    -5778    -5474    -4943    -4442    -4224 
   -4012    -3694    -3534    -3577    -3780    -4279    -5058    -5764 
   -6034    -5787    -5213    -4491    -3766    -3330    -3318    -3667 
   -4310    -4935    -5238    -5151    -4614    -3902    -3528    -3636 
   -4210    -5096    -5861    -6220    -6016    -5233    -4278    -3539 
   -3119    -3057    -3237    -3572    -4224    -5005    -5431    -5510 
   -5432    -5088    -4606    -4309    -4209    -4191    -4171    -4153 
   -4272    -4422    -4453    -4598    -4876    -4926    -4784    -4711 
   -4679    -4602    -4479    -4401    -4441    -4440    -4270    -4120 
   -4151    -4240    -4249    -4261    -4311    -4329    -4402    -4594 
   -4783    -4931    -5011    -4961    -4803    -4602    -4480    -4498 
   -4515    -4442    -4357    -4275    -4110    -3871    -3855    -4360 
   -5043    -5371    -5462    -5476    -5131    -4403    -3666    -3188 
   -3141    -3535    -4222    -5113    -5896    -6026    -5512    -4981 
   -4635    -4276    -4078    -4104    -4035    -3867    -3921    -4348 
   -4977    -5462    -5548    -5213    -4666    -4268    -4152    -4126 
   -4182    -4333    -4353    -4388    -4693    -4984    -5100    -5197 
   -5124    -4642    -3901    -3414    -3519    -3970    -4514    -5078 
   -5177    -4610    -4048    -3819    -3667    -3724    -4197    -4773 
   -5094    -5166    -5142    -5107    -4995    -4610    -4045    -3720 
   -3670    -3645    -3923    -4735    -5404    -5404    -5151    -4885 
   -4411    -3983    -4016    -4357    -4648    -4793    -4807    -4685 
   -4560    -4537    -4463    -4291    -4239    -4252    -4193    -4342 
   -4769    -5084    -5225    -5170    -4629    -3829    -3406    -3523 
   -3975    -4569    -5046    -5140    -4891    -4550    -4268    -4183 
   -4432    -4745    -4731    -4615    -4685    -4656    -4452    -4324 
   -4136    -3875    -3931    -4275    -4630    -5074    -5489    -5390 
   -4861    -4349    -3834    -3312    -3207    -3649    -4320    -5015 
   -5655    -5961    -5782    -5340    -4725    -4021    -3717    -3925 
   -4129    -4155    -4162    -4149    -4230    -4495    -4792    -5098 
   -5387    -5362    -4932    -4469    -4203    -4018    -3935    -4147 
   -4433    -4311    -3874    -3658    -3807    -4167    -4792    -5636 
   -6253    -6238    -5586    -4623    -3666    -2799    -2320    -2714 
   -3734    -4661    -5294    -5724    -5856    -5563    -5011    -4638 
   -4517    -4264    -3943    -3927    -4094    -4253    -4545    -4943 
   -5221    -5343    -5414    -5362    -4957    -4264    -3659    -3288 
   -3202    -3632    -4372    -4884    -5135    -5254    -5130    -4811 
   -4477    -4321    -4456    -4585    -4521    -4530    -4558    -4407 
   -4396    -4718    -5120    -5393    -5414    -5147    -4685    -4094 
   -3508    -3277    -3508    -3882    -4229    -4599    -4833    -4845 
   -4918    -5171    -5341    -5265    -4969    -4455    -3732    -3071 
   -2889    -3245    -3915    -4838    -5761    -6143    -5942    -5482 
   -4758    -3933    -3468    -3335    -3362    -3767    -4591    -5402 
   -5850    -5960    -5760    -5211    -4550    -3985    -3438    -3082 
   -3134    -3483    -3996    -4537    -5009    -5408    -5552    -5431 
   -5324    -5142    -4658    -4099    -3746    -3622    -3744    -4050 
   -4442    -4870    -4949    -4510    -4121    -4048    -4104    -4434 
   -4996    -5324    -5211    -4723    -4045    -3433    -3144    -3356 
   -3862    -4340    -4838    -5436    -5942    -6123    -5941    -5472 
   -4700    -3659    -2659    -2166    -2376    -3024    -3848    -4831 
   -5794    -6405    -6623    -6617    -6312    -5568    -4611    -3724 
   -3026    -2693    -2837    -3438    -4294    -4969    -5340    -5598 
   -5699    -5540    -5204    -4845    -4449    -3917    -3576    -3677 
   -3836    -3977    -4329    -4606    -4598    -4484    -4345    -4268 
   -4299    -4457    -4885    -5336    -5398    -5151    -4723    -4085 
   -3460    -3183    -3368    -3858    -4448    -5012    -5404    -5506 
   -5323    -5013    -4739    -4387    -3947    -3777    -3881    -3931 
   -4051    -4494    -4939    -4957    -4746    -4689    -4716    -4662 
   -4548    -4432    -4360    -4222    -4043    -4120    -4418    -4680 
   -4922    -5185    -5364    -5417    -5321    -5012    -4560    -4194 
   -3969    -3805    -3846    -4148    -4414    -4467    -4430    -4448 
   -4599    -4900    -5197    -5278    -5152    -4928    -4490    -3890 
   -3578    -3650    -3763    -3948    -4337    -4710    -5035    -5389 
   -5525    -5414    -5255    -4833    -4027    -3327    -3064    -3084 
   -3316    -3878    -4692    -5462    -5923    -5964    -5575    -4880 
   -4097    -3468    -3219    -3392    -3786    -4257    -4765    -5227 
   -5571    -5679    -5382    -4780    -4147    -3616    -3420    -3852 
   -4629    -5159    -5266    -4990    -4507    -4183    -4039    -4027 
   -4371    -4845    -5047    -5157    -5256    -5151    -5042    -5066 
   -4893    -4398    -3900    -3628    -3576    -3824    -4367    -4774 
   -4812    -4837    -5004    -5108    -5084    -4880    -4471    -4013 
   -3608    -3450    -3774    -4372    -4814    -5008    -5035    -4833 
   -4445    -4172    -4137    -4158    -4122    -4168    -4363    -4534 
   -4689    -4999    -5220    -5059    -4787    -4626    -4369    -4043 
   -3866    -3850    -4099    -4658    -5113    -5254    -5256    -5058 
   -4648    -4398    -4383    -4280    -4041    -3896    -3890    -3986 
   -4341    -4935    -5309    -5200    -4841    -4403    -3956    -3746 
   -3838    -4078    -4390    -4699    -4900    -4847    -4506    -4160 
   -3996    -3858    -3782    -3970    -4355    -4810    -5266    -5516 
   -5373    -4905    -4340    -3855    -3615    -3767    -4158    -4438 
   -4623    -4899    -5074    -5003    -5080    -5485    -5644    -5247 
   -4770    -4419    -3947    -3573    -3643    -3983    -4465    -5049 
   -5391    -5362    -5080    -4488    -3820    -3622    -3920    -4359 
   -4820    -5136    -4957    -4351    -3842    -3717    -3855    -4175 
   -4653    -4939    -4735    -4301    -4018    -4068    -4546    -5215 
   -5556    -5355    -4774    -4059    -3495    -3373    -3813    -4517 
   -4907    -4935    -5038    -5197    -5147    -5059    -5078    -4878 
   -4341    -3829    -3532    -3397    -3510    -3912    -4472    -5112 
   -5714    -6019    -5988    -5641    -4735    -3487    -2737    -2879 
   -3619    -4702    -5818    -6440    -6378    -5757    -4750    -3827 
   -3426    -3450    -3685    -4124    -4700    -5242    -5578    -5649 
   -5475    -4984    -4264    -3654    -3296    -3173    -3408    -4002 
   -4677    -5151    -5282    -5120    -4835    -4426    -3844    -3333 
   -3173    -3322    -3669    -4290    -5027    -5440    -5374    -5051 
   -4653    -4213    -3906    -3905    -4018    -4048    -4141    -4436 
   -4791    -5088    -5332    -5395    -5170    -4853    -4546    -4126 
   -3771    -3828    -4229    -4673    -4941    -4912    -4714    -4568 
   -4531    -4680    -5030    -5223    -4951    -4388    -3858    -3492 
   -3372    -3674    -4294    -4837    -5123    -5215    -5227    -5274 
   -5206    -4766    -4224    -4000    -3888    -3678    -3773    -4279 
   -4656    -4691    -4693    -4785    -4810    -4619    -4202    -3804 
   -3734    -3915    -4224    -4831    -5508    -5634    -5225    -4719 
   -4194    -3804    -3875    -4229    -4490    -4611    -4579    -4396 
   -4267    -4306    -4402    -4517    -4783    -5112    -5188    -5034 
   -4920    -4820    -4610    -4367    -4199    -4143    -4167    -4237 
   -4394    -4587    -4645    -4550    -4540    -4723    -4861    -4791 
   -4642    -4487    -4309    -4216    -4282    -4336    -4158    -3820 
   -3535    -3400    -3601    -4301    -5157    -5688    -5875    -5764 
   -5232    -4475    -3967    -3800    -3728    -3790    -4105    -4476 
   -4815    -5205    -5481    -5420    -5034    -4418    -3793    -3449 
   -3523    -3989    -4665    -5289    -5607    -5422    -4919    -4554 
   -4348    -4206    -4437    -4865    -4795    -4307    -3989    -3987 
   -4203    -4529    -4822    -5088    -5262    -5131    -4764    -4405 
   -4090    -3856    -3975    -4572    -5233    -5460    -5260    -4799 
   -4170    -3769    -3935    -4406    -4827    -5148    -5283    -5139 
   -4823    -4483    -4213    -4004    -3781    -3611    -3630    -3951 
   -4533    -5074    -5394    -5661    -5958    -5965    -5356    -4347 
   -3431    -2820    -2690    -3261    -4267    -5197    -5710    -5697 
   -5449    -5219    -4847    -4444    -4369    -4456    -4429    -4429 
   -4506    -4552    -4471    -4170    -3892    -3916    -4114    -4395 
   -4823    -5177    -5146    -4816    -4452    -4095    -3785    -3661 
   -3730    -3924    -4217    -4510    -4716    -4935    -5144    -5027 
   -4517    -3997    -3713    -3682    -4077    -4828    -5316    -5150 
   -4487    -3568    -2817    -2837    -3608    -4498    -5242    -5791 
   -5764    -5193    -4675    -4330    -3975    -3775    -3781    -3879 
   -4261    -4861    -5286    -5547    -5706    -5476    -4950    -4552 
   -4229    -3789    -3461    -3384    -3434    -3681    -4213    -4814 
   -5196    -5215    -5011    -4941    -5063    -5167    -5197    -5161 
   -4920    -4459    -4113    -4248    -4704    -5000    -4959    -4638 
   -4086    -3549    -3318    -3477    -3979    -4518    -4704    -4734 
   -4922    -4953    -4660    -4476    -4472    -4349    -4276    -4527 
   -4860    -5000    -5066    -5157    -5049    -4594    -4089    -3943 
   -4055    -4013    -3839    -3753    -3619    -3512    -3917    -4762 
   -5406    -5606    -5449    -4938    -4256    -3865    -4005    -4488 
   -5066    -5510    -5541    -5224    -4833    -4395    -4029    -3971 
   -4101    -4255    -4472    -4639    -4685    -4738    -4722    -4511 
   -4284    -4283    -4473    -4617    -4618    -4556    -4413    -4272 
   -4391    -4700    -4876    -4734    -4284    -3767    -3450    -3377 
   -3568    -4066    -4637    -4949    -4882    -4476    -3854    -3213 
   -2809    -2880    -3453    -4283    -5036    -5533    -5738    -5678 
   -5485    -5304    -5057    -4612    -4152    -3956    -4025    -4302 
   -4799    -5332    -5574    -5386    -4822    -3991    -3195    -2793 
   -2801    -3111    -3707    -4378    -4885    -5260    -5498    -5474 
   -5239    -4912    -4525    -4131    -3858    -3913    -4372    -4993 
   -5483    -5625    -5305    -4687    -4032    -3559    -3505    -3898 
   -4567    -5408    -6138    -6411    -6299    -5849    -4923    -3856 
   -3199    -3014    -3219    -3908    -4951    -5945    -6570    -6789 
   -6727    -6378    -5644    -4642    -3680    -2998    -2776    -3110 
   -3923    -4963    -5841    -6328    -6393    -5898    -4974    -4228 
   -3798    -3307    -2849    -2775    -3080    -3802    -4970    -6112 
   -6721    -6750    -6254    -5324    -4309    -3565    -3245    -3210 
   -3192    -3370    -4033    -4855    -5381    -5591    -5476    -4855 
   -3902    -3222    -3188    -3690    -4411    -5026    -5252    -5013 
   -4534    -4191    -4124    -4156    -4156    -4097    -4008    -4109 
   -4494    -4904    -5170    -5229    -4918    -4359    -3962    -3906 
   -4120    -4426    -4630    -4760    -4932    -5058    -4997    -4761 
   -4411    -4017    -3743    -3674    -3751    -3892    -3959    -4010 
   -4360    -4982    -5460    -5609    -5412    -4711    -3620    -2820 
   -2747    -3117    -3646    -4361    -5132    -5656    -5836    -5803 
   -5609    -5181    -4492    -3645    -2901    -2613    -2921    -3662 
   -4630    -5528    -5950    -5764    -5173    -4446    -3852    -3572 
   -3649    -4072    -4691    -5148    -5215    -4959    -4472    -3792 
   -3173    -3042    -3503    -4187    -4750    -5055    -4957    -4463 
   -3871    -3439    -3246    -3335    -3680    -4183    -4681    -5017 
   -5250    -5289    -4833    -4004    -3133    -2354    -2014    -2357 
   -3068    -3901    -4753    -5252    -5263    -5000    -4479    -3686 
   -2991    -2852    -3285    -3928    -4658    -5498    -6103    -6259 
   -6264    -6220    -6041    -5969    -6057    -6046    -6003    -6049 
   -5968    -5732    -5598    -5601    -5626    -5722    -5879    -5931 
   -5871    -5876    -5898    -5680    -5300    -5055    -4945    -4911 
   -5092    -5360    -5509    -5665    -5759    -5512    -5035    -4498 
   -3959    -3688    -3831    -4194    -4545    -4698    -4521    -4051 
   -3442    -2897    -2698    -2992    -3470    -3726    -3852    -3983 
   -3805    -3445    -3573    -4131    -4644    -5093    -5278    -5023 
   -4712    -4432    -4051    -3904    -4040    -3998    -3682    -3388 
   -3269    -3314    -3573    -4153    -4872    -5451    -5910    -6041 
   -5486    -4557    -3672    -2812    -2216    -2097    -2056    -1896 
   -1942    -2340    -2928    -3607    -4333    -4826    -4733    -4102 
   -3242    -2519    -2444    -3240    -4666    -6498    -8317    -9420 
   -9612    -9289    -8753    -8054    -7160    -5979    -4422    -2670 
   -1347    -1175    -2459    -4850    -7366    -8927    -8993    -7578 
   -5169    -2748    -1196     -797    -1598    -3268    -4837    -5579 
   -5586    -5117    -4484    -4452    -5259    -5917    -5628    -4695 
   -3726    -3229    -3703    -5055    -6362    -6816    -6243    -4854 
   -3384    -2722    -3084    -4063    -5142    -5960    -6247    -5914 
   -5212    -4282    -3086    -2002    -1548    -1718    -2208    -2859 
   -3497    -3838    -3908    -4020    -4110    -3950    -3657    -3222 
   -2589    -2262    -2640    -3510    -4588    -5629    -6330    -6538 
   -6367    -6143    -6118    -6326    -6585    -6515    -5861    -4698 
   -3257    -1961    -1304    -1587    -2828    -4590    -6114    -6898 
   -6910    -6316    -5424    -4738    -4465    -4299    -4199    -4477 
   -4854    -4777    -4612    -4877    -5151    -5229    -5702    -6521 
   -6880    -6555    -5949    -5022    -3603    -2463    -2612    -3889 
   -5262    -5958    -5715    -4492    -2581     -904     -515    -1597 
   -3437    -5233    -6424    -6691    -6118    -5007    -3720    -2704 
   -2242    -2293    -2609    -2889    -3067    -3460    -4239    -5184 
   -6193    -7217    -7690    -7113    -5856    -4517    -3215    -2207 
   -2002    -2623    -3704    -4962    -5915    -6089    -5701    -5259 
   -4926    -4804    -5015    -5202    -4789    -3692    -2393    -1547 
   -1557    -2420    -3808    -5090    -5629    -5363    -4729    -4033 
   -3292    -2671    -2463    -2482    -2381    -2455    -3091    -4004 
   -4837    -5645    -6436    -6929    -6897    -6453    -5969    -5776 
   -6084    -6755    -6984    -6088    -4411    -2778    -1806    -2095 
   -3804    -5880    -6997    -6940    -6004    -4334    -2700    -2164 
   -2704    -3592    -4518    -5352    -5860    -6137    -6385    -6396 
   -6003    -5494    -5007    -4318    -3639    -3431    -3426    -3360 
   -3734    -4715    -5840    -6662    -6563    -5173    -3111    -1383 
    -749    -1618    -3719    -6060    -7442    -7356    -6428    -5460 
   -4676    -4218    -4122    -4008    -3705    -3500    -3568    -3862 
   -4240    -4475    -4480    -4396    -4453    -4847    -5530    -6114 
   -6185    -5609    -4572    -3534    -3013    -3299    -4302    -5482 
   -6095    -5764    -4669    -3307    -2245    -1883    -2296    -3172 
   -4032    -4598    -4862    -5055    -5422    -5935    -6389    -6459 
   -5900    -4915    -3919    -3229    -3073    -3422    -3987    -4536 
   -5027    -5512    -5956    -6272    -6377    -6180    -5613    -4652 
   -3550    -2758    -2323    -2123    -2428    -3204    -3812    -4166 
   -4785    -5459    -5800    -6270    -6687    -6068    -4756    -3728 
   -2802    -1777    -1422    -2058    -2970    -3771    -4708    -5706 
   -6470    -6879    -6759    -6015    -4976    -4072    -3356    -2862 
   -2899    -3504    -4374    -5336    -6353    -7346    -8085    -8295 
   -7753    -6332    -4527    -3106    -2204    -1710    -1615    -1817 
   -2272    -2964    -3974    -5417    -6880    -7636    -7318    -6106 
   -4480    -2836    -1726    -1710    -2500    -3499    -4618    -5706 
   -6590    -7510    -8407    -8818    -8500    -7252    -4982    -2407 
    -656     -155     -756    -2354    -4503    -6377    -7545    -7990 
   -7650    -6301    -4055    -1776     -288      290     -182    -1864 
   -4001    -5526    -6100    -5775    -4816    -3748    -2921    -2411 
   -2128    -2151    -2679    -3500    -4357    -5250    -5929    -6108 
   -5806    -5154    -4382    -3842    -3858    -4488    -5481    -6376 
   -6679    -6370    -5827    -5197    -4685    -4692    -5027    -5112 
   -4835    -4356    -3711    -3052    -2682    -2527    -2367    -2636 
   -3767    -5317    -6754    -7757    -7719    -6453    -4625    -2984 
   -2012    -1925    -2431    -2913    -3187    -3792    -5134    -6947 
   -8660    -9537    -8895    -6744    -4013    -2046    -1641    -2555 
   -3963    -5146    -5655    -5385    -4839    -4627    -4761    -5067 
   -5336    -5194    -4730    -4444    -4429    -4386    -4198    -3874 
   -3258    -2475    -2153    -2668    -3804    -5080    -5940    -6097 
   -5707    -5051    -4368    -3839    -3613    -3727    -3991    -4317 
   -4714    -4957    -4931    -4812    -4645    -4407    -4175    -3906 
   -3418    -2674    -1899    -1426    -1568    -2505    -3883    -5089 
   -5949    -6334    -5984    -5232    -4661    -4455    -4606    -5008 
   -5409    -5505    -5179    -4653    -4206    -4120    -4533    -5051 
   -5324    -5499    -5571    -5281    -4774    -4461    -4328    -4178 
   -4159    -4353    -4689    -5274    -5898    -6052    -5664    -4935 
   -4193    -3913    -4055    -4193    -4137    -3883    -3627    -3532 
   -3546    -3828    -4398    -4781    -4860    -4901    -4780    -4261 
   -3630    -3326    -3383    -3638    -4070    -4635    -5157    -5576 
   -5923    -6006    -5513    -4669    -4207    -4492    -5275    -6029 
   -6064    -5058    -3385    -1883    -1435    -2199    -3524    -4827 
   -5752    -6004    -5787    -5711    -5969    -6110    -5609    -4321 
   -2636    -1401    -1308    -2292    -3846    -5520    -6755    -7009 
   -6315    -5215    -4155    -3260    -2686    -2712    -3338    -4415 
   -5833    -7144    -7701    -7315    -6315    -5236    -4519    -4390 
   -4807    -5286    -5202    -4477    -3518    -2901    -3202    -4406 
   -5771    -6598    -6546    -5556    -4120    -3042    -2687    -2960 
   -3793    -4846    -5278    -4723    -3699    -2747    -2165    -2377 
   -3528    -4893    -5418    -4804    -3704    -2901    -2749    -3414 
   -4800    -6153    -6563    -5834    -4419    -2929    -1844    -1433 
   -1888    -3269    -5131    -6748    -7658    -7574    -6430    -4741 
   -3253    -2401    -2344    -2926    -3824    -4841    -5613    -5769 
