Origin Time       2024/04/02 04:24:00
Lat.              40.133
Long.             141.712
Depth. (km)       71
Mag.              6.0
Station Code      AKTH03
Station Lat.      39.2223
Station Long.     140.1283
Station Height(m) 42
Record Time       2024/04/02 04:25:23
Sampling Freq(Hz) 100Hz
Duration Time(s)  120
Dir.              1
Scale Factor      2942(gal)/8224139
Max. Acc. (gal)   2.229
Last Correction   2024/04/02 04:25:23
Memo.             
[...]
  181931   181981   182104   182127   181973   181754   181637   181678 
  181743   181710   181660   181710   181830   181919   181920   181838 
  181687   181514   181399   181367   181375   181399   181446   181502 
  181539   181543   181508   181429   181340   181309   181363   181446 
  181484   181461   181431   181413   181365   181317   181327   181377 
  181403   181353   181261   181226   181290   181407   181530   181611 
  181635   181660   181741   181834   181850   181804   181765   181715 
  181604   181454   181330   181299   181379   181518   181627   181661 
  181677   181727   181764   181766   181766   181746   181676   181611 
  181588   181568   181535   181500   181421   181290   181203   181253 
  181387   181476   181508   181576   181735   181969   182174   182248 
  182210   182150   182094   182039   182012   182036   182124   182268 
  182371   182329   182190   182029   181847   181651   181496   181414 
  181413   181468   181537   181624   181742   181826   181818   181723 
  181570   181430   181390   181453   181593   181786   181953   182021 
  182042   182125   182305   182487   182557   182471   182278   182088 
  181974   181947   181965   181926   181764   181554   181407   181361 
  181425   181589   181784   181921   181958   181907   181836   181776 
  181711   181662   181642   181627   181633   181651   181620   181535 
  181473   181468   181473   181430   181329   181236   181259   181430 
  181670   181889   182048   182083   181984   181861   181809   181812 
  181830   181867   181944   182032   182077   182085   182117   182129 
  182007   181801   181656   181568   181457   181295   181111   181001 
  181063   181259   181472   181639   181735   181762   181799   181938 
  182146   182274   182217   182044   181876   181751   181669   181622 
  181607   181658   181770   181865   181894   181850   181719   181556 
  181434   181349   181288   181264   181271   181326   181473   181700 
  181919   182044   182073   182062   182012   181878   181680   181498 
  181381   181332   181327   181368   181472   181614   181727   181800 
  181866   181942   181997   181985   181954   181992   182047   182048 
  182016   181954   181845   181707   181560   181449   181423   181458 
  181481   181480   181510   181576   181615   181603   181553   181445 
  181322   181284   181333   181391   181456   181539   181595   181604 
  181635   181727   181843   181932   181961   181905   181811   181741 
  181680   181589   181518   181543   181637   181714   181742   181720 
  181689   181712   181784   181831   181805   181739   181668   181593 
  181549   181560   181550   181477   181394   181309   181202   181153 
  181225   181371   181554   181753   181916   182054   182204   182317 
  182328   182231   182061   181890   181808   181819   181847   181836 
  181791   181758   181770   181795   181803   181796   181746   181650 
  181581   181576   181607   181635   181618   181565   181543   181583 
  181653   181707   181712   181681   181665   181688   181722   181743 
  181789   181877   181965   182019   182052   182078   182110   182146 
  182121   182005   181859   181754   181710   181732   181811   181903 
  181934   181894   181873   181889   181853   181759   181712   181738 
  181782   181836   181912   181951   181915   181847   181776   181692 
  181611   181549   181525   181575   181701   181835   181885   181820 
  181707   181603   181498   181421   181425   181485   181581   181703 
  181804   181876   181935   181981   182056   182208   182393   182518 
  182555   182521   182409   182201   181936   181687   181487   181353 
  181307   181334   181383   181411   181375   181260   181134   181082 
  181124   181225   181317   181350   181364   181414   181495   181561 
  181565   181511   181487   181581   181759   181916   181989   181985 
  181969   181963   181951   181961   182011   182061   182065   181984 
  181835   181728   181715   181701   181577   181359   181136   180960 
  180868   180898   181024   181210   181437   181665   181835   181917 
  181912   181851   181822   181881   181959   181962   181890   181792 
  181714   181701   181759   181850   181938   181990   181998   181982 
  181948   181886   181801   181693   181565   181472   181444   181442 
  181454   181465   181430   181371   181354   181357   181317   181256 
  181226   181229   181226   181209   181259   181448   181695   181843 
  181839   181793   181809   181847   181855   181830   181747   181651 
  181627   181672   181718   181710   181665   181619   181566   181515 
  181510   181572   181651   181711   181777   181839   181820   181727 
  181620   181496   181368   181265   181186   181138   181126   181113 
  181101   181170   181367   181597   181761   181853   181888   181866 
  181819   181820   181917   182067   182190   182236   182205   182167 
  182179   182194   182133   182009   181905   181882   181932   182012 
  182079   182108   182089   182007   181892   181789   181708   181650 
  181627   181627   181653   181707   181777   181855   181942   182046 
  182151   182198   182156   182088   182032   181940   181797   181683 
  181638   181629   181629   181650   181719   181838   181930   181934 
  181915   181912   181899   181894   181904   181913   181961   182036 
  182063   182019   181913   181755   181623   181606   181661   181665 
  181572   181462   181445   181543   181699   181803   181776   181684 
  181661   181749   181872   181911   181831   181732   181739   181786 
  181732   181604   181511   181487   181561   181722   181854   181878 
  181830   181768   181693   181631   181647   181720   181757   181746 
  181727   181677   181584   181533   181548   181560   181542   181495 
  181398   181325   181380   181503   181581   181634   181735   181903 
  182073   182167   182164   182117   182059   181974   181865   181751 
  181618   181468   181360   181344   181414   181515   181615   181687 
  181693   181660   181629   181596   181565   181553   181550   181568 
  181635   181728   181820   181913   181978   181921   181730   181537 
  181440   181408   181425   181469   181479   181472   181498   181518 
  181495   181484   181554   181662   181723   181754   181792   181800 
  181800   181835   181838   181735   181607   181562   181603   181647 
  181670   181746   181892   182000   181990   181911   181843   181804 
  181764   181726   181724   181750   181758   181719   181623   181523 
  181481   181504   181548   181539   181452   181369   181388   181488 
  181580   181631   181688   181743   181757   181718   181629   181503 
  181376   181282   181279   181402   181593   181773   181930   182093 
  182228   182274   182272   182270   182220   182105   181994   181924 
  181863   181781   181688   181653   181723   181809   181804   181743 
  181730   181809   181961   182093   182124   182069   182004   181973 
  181961   181915   181826   181728   181637   181564   181533   181522 
  181525   181568   181626   181634   181548   181381   181251   181264 
  181399   181583   181777   181939   182025   182015   181917   181797 
  181720   181707   181745   181770   181714   181592   181453   181326 
  181264   181306   181396   181468   181543   181661   181793   181896 
  181936   181893   181768   181612   181516   181506   181535   181584 
  181657   181688   181631   181575   181615   181715   181801   181880 
  181950   181969   181997   182097   182182   182213   182240   182198 
  182054   181923   181831   181691   181508   181392   181387   181476 
  181657   181866   181998   182020   181959   181855   181774   181754 
  181770   181780   181757   181674   181545   181435   181425   181516 
  181610   181647   181691   181755   181800   181839   181894   181978 
  182074   182124   182112   182075   182036   181986   181912   181813 
  181700   181552   181403   181332   181317   181286   181264   181298 
  181305   181182   180985   180867   180924   181130   181406   181653 
  181803   181830   181735   181616   181623   181754   181878   181953 
  181997   181969   181866   181742   181633   181597   181656   181742 
  181804   181831   181838   181890   182039   182229   182329   182235 
  181939   181548   181224   181084   181152   181357   181557   181653 
  181685   181730   181797   181890   181994   182032   181963   181849 
  181758   181714   181711   181715   181677   181600   181548   181576 
  181701   181869   181989   182031   182036   182007   181881   181651 
  181417   181276   181261   181357   181504   181623   181672   181664 
  181653   181634   181539   181403   181337   181345   181357   181384 
  181433   181453   181469   181552   181692   181820   181846   181776 
  181788   181953   182086   182089   182048   181998   181919   181846 
  181786   181696   181635   181681   181724   181646   181503   181390 
  181313   181271   181284   181338   181380   181390   181383   181377 
  181394   181462   181556   181599   181611   181665   181746   181820 
  181876   181892   181872   181845   181815   181772   181701   181641 
  181670   181766   181835   181869   181897   181886   181820   181737 
  181693   181732   181811   181859   181876   181857   181831   181835 
  181831   181813   181828   181843   181836   181822   181726   181542 
  181417   181452   181627   181858   181998   181942   181769   181643 
  181607   181619   181641   181615   181527   181415   181291   181194 
  181210   181349   181545   181745   181923   182056   182097   182034 
  181984   182093   182345   182568   182645   182591   182466   182299 
  182123   181967   181863   181820   181809   181789   181789   181870 
  182016   182167   182314   182439   182491   182464   182409   182353 
  182295   182225   182115   181962   181845   181832   181905   181996 
  182032   181944   181773   181672   181743   181909   182019   182013 
  181928   181808   181732   181764   181812   181759   181660   181607 
  181558   181456   181353   181313   181322   181333   181323   181360 
  181522   181765   181985   182112   182094   181917   181651   181446 
  181364   181315   181271   181260   181237   181210   181249   181280 
  181197   181067   180994   181009   181113   181228   181249   181209 
  181219   181334   181542   181789   181969   181966   181815   181665 
  181624   181707   181842   181926   181951   181946   181836   181629 
  181464   181395   181383   181437   181562   181742   181954   182140 
  182255   182283   182231   182131   182009   181904   181880   181935 
  182027   182137   182228   182283   182374   182498   182594   182683 
  182796   182930   183119   183317   183398   183367   183300   183168 
  182972   182796   182648   182463   182240   182007   181820   181781 
  181862   181944   181997   182013   181990   182029   182187   182362 
  182494   182598   182607   182495   182367   182267   182167   182059 
  181915   181722   181548   181403   181199   180954   180829   180900 
  181070   181209   181213   181066   180862   180725   180696   180700 
  180701   180738   180779   180783   180787   180836   180905   180922 
  180850   180756   180732   180782   180840   180836   180774   180690 
  180581   180472   180408   180405   180450   180503   180536   180562 
  180571   180557   180528   180497   180482   180480   180451   180411 
  180431   180535   180647   180708   180744   180786   180805   180820 
  180882   180982   181063   181125   181213   181336   181499   181670 
  181753   181693   181548   181376   181164   180891   180593   180326 
  180108   179980   180014   180207   180447   180640   180820   181035 
  181256   181456   181637   181776   181836   181836   181816   181822 
  181886   181992   182066   182024   181862   181704   181635   181647 
  181737   181873   181985   182051   182090   182135   182156   182047 
  181823   181639   181526   181379   181186   181016   180893   180814 
  180831   180993   181248   181489   181645   181705   181726   181735 
  181699   181649   181664   181714   181726   181730   181815   182007 
  182235   182382   182421   182434   182445   182395   182304   182256 
  182285   182360   182401   182332   182229   182248   182413   182607 
  182781   182958   183082   183100   183034   182923   182804   182677 
  182509   182321   182167   182089   182086   182100   182093   182129 
  182255   182380   182394   182312   182231   182202   182240   182380 
  182609   182808   182896   182912   182946   183012   183039   182995 
  182942   182930   182920   182889   182892   182937   182957   182912 
  182826   182717   182569   182401   182279   182247   182286   182368 
  182488   182665   182868   182991   182972   182862   182752   182664 
  182544   182375   182196   182001   181795   181660   181666   181773 
  181899   182051   182279   182551   182771   182900   182984   183087 
  183195   183220   183128   182976   182827   182690   182567   182507 
  182555   182706   182884   182984   182980   182920   182841   182769 
  182750   182794   182850   182868   182825   182709   182529   182371 
  182310   182302   182275   182256   182281   182293   182271   182277 
  182270   182150   181959   181838   181816   181792   181666   181469 
  181291   181130   180985   180918   180932   180981   181039   181086 
  181128   181137   181037   180805   180534   180354   180314   180403 
  180592   180816   181020   181164   181184   181071   180901   180701 
  180439   180126   179782   179412   179057   178737   178368   177865 
  177260   176663   176157   175772   175541   175473   175529   175666 
  175863   176127   176451   176812   177226   177726   178267   178768 
  179147   179352   179402   179358   179257   179061   178723   178305 
  177867   177407   176952   176577   176308   176165   176189   176422 
  176878   177504   178235   179074   180030   181016   181936   182787 
  183582   184288   184856   185257   185508   185696   185866   185959 
  185955   185912   185869   185831   185761   185614   185387   185083 
  184677   184200   183757   183428   183200   183011   182868   182844 
  182938   183105   183369   183759   184233   184723   185156   185521 
  185866   186205   186513   186796   187043   187212   187285   187240 
  187070   186867   186740   186675   186633   186607   186551   186433 
  186308   186187   185969   185552   184960   184275   183566   182895 
  182317   181828   181323   180759   180311   180130   180112   180114 
  180134   180173   180153   180046   179964   180017   180169   180311 
  180389   180409   180378   180292   180177   180091   180065   180111 
  180211   180347   180497   180617   180674   180700   180739   180802 
  180920   181060   181132   181106   181072   181138   181307   181535 
  181835   182201   182555   182860   183096   183212   183204   183147 
  183064   182915   182709   182503   182325   182152   181998   181892 
  181770   181589   181418   181279   181116   180932   180792   180759 
  180862   181001   181030   180898   180675   180447   180210   179938 
  179675   179447   179235   179041   178911   178858   178837   178864 
  179034   179369   179793   180211   180531   180708   180789   180789 
  180669   180449   180223   180099   180125   180262   180422   180558 
  180709   180912   181180   181504   181820   182079   182237   182251 
  182171   182077   181912   181607   181203   180786   180458   180334 
  180435   180638   180789   180782   180600   180342   180137   180013 
  179913   179790   179663   179625   179753   180004   180312   180706 
  181174   181600   181924   182158   182304   182367   182399   182520 
  182875   183436   183968   184268   184284   184087   183805   183564 
  183471   183600   183883   184108   184142   184018   183837   183767 
  183922   184226   184528   184723   184702   184401   183852   183147 
  182371   181642   181072   180736   180679   180824   180975   181051 
  181151   181361   181672   182005   182247   182382   182518   182750 
  183078   183420   183675   183814   183861   183878   184017   184391 
  184862   185197   185367   185458   185484   185440   185349   185194 
  184917   184495   183911   183157   182322   181556   180924   180468 
  180233   180196   180230   180193   180092   180058   180168   180415 
  180720   180917   180867   180616   180378   180349   180562   180939 
  181403   181915   182386   182686   182780   182742   182626   182461 
  182270   182079   181962   181912   181812   181634   181464   181309 
  181051   180607   180068   179647   179490   179582   179771   179952 
  180107   180176   180106   179977   179922   179964   180050   180152 
  180287   180490   180740   180944   181057   181164   181367   181692 
  182104   182503   182787   182934   182952   182853   182699   182549 
  182363   181998   181411   180782   180354   180239   180409   180812 
  181357   181831   182009   181894   181664   181440   181248   181079 
  180912   180762   180661   180574   180485   180473   180640   180945 
  181242   181504   181811   182187   182632   183100   183416   183450 
  183300   183111   182880   182540   182164   181885   181677   181448 
  181214   181047   180962   180943   180951   180982   181091   181257 
  181340   181252   181018   180712   180400   180160   180069   180133 
  180287   180493   180727   180951   181152   181332   181468   181557 
  181672   181853   182015   182015   181843   181646   181504   181387 
  181287   181284   181475   181862   182298   182555   182472   182113 
  181742   181616   181751   181923   181942   181827   181647   181377 
  181030   180719   180553   180569   180754   181018   181191   181192 
  181160   181280   181602   181973   182205   182220   182007   181580 
  181035   180493   180019   179625   179356   179293   179397   179541 
  179675   179818   180003   180257   180566   180863   181099   181288 
  181472   181661   181846   182058   182279   182459   182660   183019 
  183571   184165   184549   184621   184488   184229   183867   183485 
  183161   182903   182638   182218   181550   180743   180048   179676 
  179739   180199   180823   181291   181461   181453   181516   181840 
  182362   182822   183057   183136   183193   183307   183490   183666 
  183768   183822   183840   183802   183745   183682   183566   183390 
  183163   182830   182356   181803   181279   180875   180589   180349 
  180154   180060   180065   180144   180265   180365   180434   180534 
  180612   180493   180112   179616   179167   178804   178515   178335 
  178303   178382   178438   178444   178524   178680   178765   178787 
  178926   179236   179593   179891   180144   180376   180551   180600 
  180495   180306   180139   180026   179933   179869   179899   180040 
  180245   180411   180408   180245   180134   180210   180353   180415 
  180397   180366   180436   180701   181048   181287   181444   181685 
  182067   182495   182826   182943   182833   182644   182538   182538 
  182633   182826   183039   183136   183066   182879   182692   182656 
  182822   183104   183432   183794   184152   184501   184885   185326 
  185789   186205   186522   186694   186660   186483   186312   186227 
  186285   186474   186632   186653   186648   186725   186825   186865 
  186906   187019   187141   187184   187151   187057   186872   186642 
  186510   186572   186764   186888   186838   186644   186385   186123 
