Origin Time       2024/04/02 04:24:00
Lat.              40.133
Long.             141.712
Depth. (km)       71
Mag.              6.0
Station Code      AKTH03
Station Lat.      39.2223
Station Long.     140.1283
Station Height(m) 42
Record Time       2024/04/02 04:25:23
Sampling Freq(Hz) 100Hz
Duration Time(s)  120
Dir.              3
Scale Factor      2942(gal)/8224139
Max. Acc. (gal)   1.772
Last Correction   2024/04/02 04:25:23
Memo.             
[...]
   13190    13198    13201    13201    13271    13414    13555    13647 
   13657    13626    13602    13548    13431    13296    13201    13167 
   13189    13279    13431    13541    13552    13527    13522    13547 
   13571    13566    13513    13419    13362    13346    13257    13096 
   12937    12776    12673    12718    12829    12904    12992    13117 
   13279    13460    13551    13531    13490    13427    13362    13360 
   13394    13436    13500    13589    13713    13819    13809    13709 
   13664    13689    13701    13698    13667    13551    13386    13281 
   13302    13444    13595    13649    13620    13576    13529    13435 
   13271    13097    12991    12996    13081    13151    13140    13088 
   13042    12999    13016    13117    13204    13230    13177    13022 
   12838    12698    12591    12507    12405    12267    12174    12179 
   12245    12348    12471    12550    12594    12704    12923    13204 
   13436    13508    13406    13205    13065    13092    13166    13174 
   13205    13301    13429    13609    13787    13863    13840    13751 
   13614    13520    13531    13595    13649    13689    13726    13753 
   13791    13883    13977    13986    13892    13711    13489    13313 
   13262    13292    13284    13219    13165    13157    13189    13189 
   13139    13124    13127    13089    13105    13219    13297    13270 
   13193    13100    13039    13109    13333    13585    13741    13809 
   13868    13968    14094    14181    14185    14115    14017    13930 
   13922    14035    14188    14272    14226    14058    13902    13863 
   13863    13791    13643    13468    13350    13319    13325    13355 
   13455    13603    13694    13705    13756    13898    14025    14053 
   13942    13663    13329    13135    13107    13140    13196    13320 
   13494    13620    13689    13794    13944    14008    13865    13539 
   13157    12834    12591    12370    12185    12118    12202    12418 
   12718    12946    12993    12947    12885    12806    12725    12627 
   12506    12422    12433    12536    12702    12884    13015    13103 
   13209    13327    13448    13564    13616    13617    13622    13637 
   13690    13776    13857    13937    14018    14100    14189    14214 
   14127    14004    13896    13753    13520    13251    13085    13097 
   13220    13329    13370    13325    13231    13194    13200    13122 
   12987    12926    12966    13034    13027    12950    12927    13028 
   13197    13366    13475    13486    13466    13498    13528    13450 
   13251    13061    13004    13065    13196    13410    13617    13657 
   13536    13406    13369    13366    13301    13178    13062    13041 
   13165    13352    13528    13690    13759    13693    13589    13500 
   13423    13405    13450    13485    13454    13425    13497    13616 
   13670    13651    13601    13548    13512    13483    13468    13474 
   13481    13464    13408    13306    13182    13032    12864    12727 
   12621    12573    12667    12792    12843    12911    13041    13194 
   13338    13387    13321    13212    13111    13045    13020    13018 
   13046    13128    13252    13358    13377    13342    13344    13379 
   13374    13328    13311    13348    13398    13447    13512    13590 
   13682    13774    13867    13963    13979    13907    13860    13841 
   13743    13578    13485    13528    13616    13639    13593    13537 
   13485    13389    13248    13085    12927    12806    12733    12780 
   12993    13221    13302    13247    13142    13053    12976    12900 
   12857    12885    13020    13235    13429    13521    13513    13440 
   13340    13196    12945    12669    12567    12718    13016    13305 
   13497    13554    13533    13539    13558    13532    13504    13477 
   13406    13317    13251    13220    13242    13371    13575    13713 
   13748    13757    13751    13724    13695    13613    13477    13350 
   13231    13138    13109    13097    13045    12939    12800    12730 
   12804    12893    12892    12915    13036    13170    13274    13352 
   13360    13288    13201    13200    13301    13402    13443    13498 
   13613    13687    13671    13613    13544    13494    13516    13601 
   13706    13809    13894    13909    13859    13848    13917    13937 
   13828    13726    13775    13969    14226    14388    14405    14419 
   14450    14396    14249    14022    13706    13396    13236    13221 
   13261    13319    13397    13468    13479    13478    13566    13666 
   13618    13429    13192    12968    12841    12893    13084    13294 
   13483    13647    13745    13778    13779    13726    13567    13302 
   12999    12729    12536    12465    12521    12614    12710    12895 
   13159    13402    13562    13590    13497    13342    13205    13153 
   13154    13128    13124    13212    13320    13338    13232    13092 
   13050    13100    13143    13167    13178    13155    13167    13255 
   13366    13421    13354    13178    13012    12927    12885    12833 
   12752    12730    12858    13043    13178    13300    13436    13547 
   13528    13369    13221    13154    13101    13068    13086    13107 
   13072    13014    13012    13090    13184    13190    13139    13107 
   13095    13134    13231    13289    13286    13293    13324    13382 
   13459    13502    13497    13470    13416    13301    13130    13000 
   12987    13053    13180    13354    13475    13513    13558    13606 
   13587    13517    13485    13508    13494    13460    13506    13572 
   13579    13585    13563    13436    13339    13414    13554    13589 
   13539    13527    13583    13635    13668    13684    13593    13435 
   13425    13616    13838    13953    13977    13977    13942    13895 
   13917    13972    13975    13945    13909    13810    13666    13628 
   13736    13837    13829    13728    13558    13389    13309    13350 
   13454    13529    13540    13462    13265    13038    12881    12779 
   12735    12788    12892    12993    13070    13117    13119    13077 
   12984    12814    12636    12582    12669    12833    13027    13205 
   13305    13316    13261    13163    13109    13130    13134    13112 
   13146    13257    13429    13668    13900    14026    14092    14166 
   14162    14049    13940    13895    13851    13765    13724    13832 
   14030    14222    14326    14233    13995    13774    13636    13601 
   13629    13630    13590    13568    13590    13554    13347    13095 
   12982    12972    13009    13107    13166    13126    13050    12968 
   12876    12746    12573    12471    12509    12636    12784    12901 
   12974    13007    12982    13003    13162    13311    13313    13278 
   13300    13279    13131    12933    12803    12764    12815    12934 
   13034    13092    13169    13266    13302    13230    13077    12916 
   12804    12750    12719    12673    12602    12541    12542    12586 
   12621    12677    12810    12964    13086    13265    13576    13895 
   14061    14102    14107    14089    14072    14073    14091    14150 
   14226    14270    14326    14370    14373    14389    14369    14260 
   14156    14062    13975    14013    14199    14427    14598    14681 
   14700    14647    14463    14188    13913    13666    13505    13500 
   13612    13720    13760    13732    13663    13620    13609    13560 
   13455    13332    13225    13181    13194    13193    13135    13018 
   12885    12833    12879    12914    12849    12694    12474    12193 
   11950    11882    11942    11998    12060    12167    12275    12355 
   12409    12451    12499    12550    12595    12634    12714    12862 
   13070    13370    13756    14119    14373    14527    14647    14756 
   14729    14494    14242    14126    14077    13990    13836    13630 
   13414    13257    13162    13036    12842    12649    12553    12634 
   12862    13085    13219    13305    13412    13586    13767    13797 
   13633    13348    13008    12746    12691    12833    13085    13355 
   13618    13863    14041    14119    14035    13768    13470    13219 
   12939    12742    12787    12960    13131    13332    13468    13401 
   13243    13130    13050    12965    12850    12762    12785    12906 
   13127    13429    13686    13875    14050    14211    14369    14494 
   14519    14555    14702    14781    14692    14617    14635    14612 
   14477    14305    14211    14223    14289    14301    14195    14035 
   13868    13672    13483    13304    13045    12714    12486    12461 
   12530    12582    12646    12757    12892    13001    13022    12955 
   12899    12920    12997    13065    13099    13124    13123    13058 
   12943    12798    12630    12538    12610    12758    12825    12804 
   12806    12870    12984    13138    13271    13263    13150    13170 
   13440    13805    14025    13968    13722    13447    13216    13054 
   12955    12891    12885    12996    13227    13498    13716    13797 
   13684    13452    13274    13167    13049    12982    13018    13023 
   12947    12911    12954    12978    12946    12876    12800    12798 
   12962    13309    13718    14023    14196    14327    14439    14459 
   14361    14238    14172    14099    13934    13720    13560    13468 
   13383    13320    13290    13173    12887    12542    12245    11996 
   11813    11674    11464    11182    10936    10795    10809    10976 
   11183    11323    11421    11578    11817    12069    12318    12546 
   12696    12792    12896    12993    13046    13082    13170    13279 
   13338    13416    13595    13801    13968    14116    14230    14264 
   14180    13971    13716    13558    13597    13787    13960    13999 
   13925    13837    13853    13999    14172    14212    14057    13849 
   13744    13706    13683    13689    13649    13470    13238    13099 
   13053    13053    13092    13097    13039    13007    13063    13163 
   13207    13170    13155    13232    13333    13358    13329    13340 
   13343    13239    13092    12999    12915    12831    12818    12854 
   12880    12879    12837    12831    12950    13124    13250    13328 
   13421    13532    13632    13752    13856    13815    13608    13290 
   12946    12711    12626    12613    12667    12823    13011    13134 
   13180    13177    13140    13066    12999    13028    13162    13296 
   13374    13410    13414    13338    13166    12974    12799    12598 
   12379    12232    12187    12168    12114    12059    12058    12098 
   12132    12121    12050    11985    11981    12021    12133    12339 
   12559    12738    12919    13196    13524    13699    13679    13639 
   13637    13620    13624    13720    13880    14038    14185    14355 
   14584    14887    15226    15499    15596    15502    15290    15061 
   14878    14755    14682    14605    14519    14519    14617    14709 
   14779    14877    14993    15070    15049    14943    14808    14652 
   14494    14374    14246    14053    13880    13826    13849    13865 
   13838    13732    13594    13583    13707    13829    13949    14122 
   14270    14364    14466    14578    14656    14692    14693    14702 
   14744    14783    14806    14850    14891    14852    14794    14879 
   15056    15134    15107    15048    14959    14883    14871    14843 
   14752    14658    14567    14408    14121    13752    13414    13130 
   12892    12757    12733    12825    13054    13293    13410    13400 
   13251    12999    12761    12576    12434    12372    12430    12584 
   12726    12788    12815    12861    12960    13140    13396    13662 
   13876    14084    14350    14600    14729    14812    14914    14964 
   14959    14963    14926    14769    14531    14285    13980    13533 
   13014    12561    12245    12037    11878    11774    11736    11731 
   11758    11817    11873    11890    11877    11866    11851    11809 
   11757    11684    11573    11416    11163    10814    10473    10141 
    9768     9410     9124     8912     8753     8591     8456     8452 
    8569     8745     8985     9281     9566     9834    10183    10737 
   11473    12225    12911    13536    14102    14662    15203    15615 
   15893    16104    16231    16275    16302    16314    16295    16237 
   16160    16167    16328    16571    16833    17055    17174    17246 
   17362    17510    17668    17817    17879    17851    17815    17757 
   17571    17220    16769    16297    15866    15543    15322    15126 
   14920    14701    14459    14234    14052    13788    13344    12803 
   12245    11677    11152    10754    10524    10459    10508    10594 
   10704    10875    11086    11276    11466    11703    11943    12121 
   12240    12307    12314    12298    12328    12382    12398    12399 
   12395    12324    12136    11807    11340    10841    10426    10037 
    9632     9312     9072     8834     8622     8486     8465     8564 
    8722     8878     9011     9132     9263     9436     9670     9914 
   10161    10480    10863    11215    11427    11462    11443    11497 
   11588    11695    11880    12132    12407    12685    12912    13050 
   13157    13324    13528    13664    13751    13876    14038    14237 
   14454    14611    14705    14818    14929    14968    14947    14916 
   14924    15041    15345    15792    16178    16355    16395    16397 
   16298    16060    15763    15493    15286    15155    15111    15128 
   15155    15214    15319    15426    15549    15732    15927    16073 
   16183    16308    16433    16537    16644    16750    16842    16978 
   17207    17506    17848    18157    18293    18169    17860    17520 
   17211    16947    16773    16671    16569    16417    16181    15889 
   15623    15433    15282    15106    14886    14656    14504    14455 
   14403    14233    13949    13618    13273    12903    12540    12279 
   12228    12343    12461    12555    12685    12807    12779    12573 
   12336    12174    12020    11839    11728    11726    11755    11794 
   11870    11948    11990    12015    12063    12147    12210    12224 
   12220    12209    12240    12329    12325    12129    11842    11560 
   11307    11124    11020    10894    10674    10417    10195    10000 
    9817     9663     9591     9616     9613     9501     9400     9468 
    9811    10430    11160    11838    12384    12730    12884    12908 
   12803    12599    12364    12141    11963    11855    11799    11746 
   11680    11612    11527    11353    11065    10720    10416    10245 
   10219    10292    10426    10588    10741    10883    11078    11427 
   11902    12297    12513    12660    12835    13032    13188    13242 
   13181    13018    12838    12756    12757    12781    12856    13004 
   13211    13474    13783    14098    14351    14461    14439    14420 
   14465    14555    14698    14874    15067    15292    15518    15684 
   15761    15738    15562    15241    14936    14796    14840    15082 
   15480    15900    16279    16595    16814    16993    17153    17219 
   17228    17251    17216    17053    16839    16707    16711    16831 
   17030    17232    17350    17338    17154    16799    16389    16046 
   15813    15703    15723    15865    16040    16147    16154    16051 
   15859    15597    15209    14679    14110    13594    13205    13005 
   12993    13065    13063    12911    12654    12366    12083    11801 
   11512    11269    11095    10957    10908    11044    11335    11607 
   11709    11665    11569    11472    11476    11696    12060    12395 
   12669    12911    13051    13103    13192    13285    13267    13113 
   12845    12588    12510    12607    12781    12934    12993    12987 
   12981    12985    12973    12970    13036    13136    13186    13211 
   13248    13244    13198    13159    13073    12856    12525    12140 
   11715    11308    11025    10868    10791    10782    10804    10798 
   10767    10795    10955    11188    11367    11439    11449    11429 
   11421    11452    11479    11503    11646    11942    12221    12343 
   12320    12280    12359    12523    12685    12802    12856    12937 
   13150    13436    13686    13872    13992    14061    14099    14083 
   13999    13907    13900    14019    14222    14430    14617    14796 
   14939    15071    15265    15462    15606    15719    15736    15614 
   15450    15309    15157    14952    14685    14477    14447    14486 
   14466    14381    14218    14025    13865    13714    13551    13317 
   12970    12637    12444    12366    12317    12236    12094    11882 
   11670    11608    11718    11912    12222    12650    13008    13184 
   13317    13518    13745    14034    14443    14837    15082    15246 
   15479    15813    16170    16453    16618    16653    16561    16395 
   16267    16245    16262    16220    16163    16152    16131    16040 
   15870    15591    15192    14728    14284    13918    13637    13425 
   13300    13219    13049    12715    12275    11874    11612    11434 
   11240    10983    10625    10261    10069    10026     9998     9933 
    9841     9761     9711     9629     9451     9184     8889     8630 
    8455     8438     8622     8900     9146     9346     9585     9944 
   10341    10631    10847    11029    11132    11195    11313    11581 
   12042    12567    13076    13656    14293    14862    15341    15761 
   16094    16336    16544    16800    17103    17362    17535    17621 
   17567    17354    17032    16660    16359    16222    16162    16047 
   15851    15618    15388    15187    15051    15012    15025    14997 
   14893    14759    14616    14423    14185    13949    13714    13490 
   13328    13246    13240    13347    13567    13869    14206    14459 
   14543    14505    14445    14407    14357    14260    14185    14172 
   14152    14081    13957    13775    13504    13107    12630    12143 
   11696    11364    11186    11142    11268    11642    12186    12660 
   12943    13088    13132    13104    13074    13045    12912    12660 
   12398    12170    11975    11890    11928    11978    11938    11813 
   11691    11649    11654    11630    11589    11600    11674    11797 
   11940    12069    12221    12402    12557    12695    12823    12914 
   13019    13209    13486    13761    13963    14130    14335    14611 
   14962    15303    15546    15728    15886    15940    15861    15763 
   15708    15601    15387    15141    14949    14823    14723    14620 
   14508    14399    14299    14199    14053    13819    13497    13119 
   12734    12411    12206    12105    12063    12024    11935    11796 
   11682    11659    11724    11828    11915    11904    11776    11635 
   11573    11564    11566    11537    11430    11261    11141    11183 
   11313    11384    11410    11446    11495    11542    11568    11573 
   11589    11646    11759    11913    12079    12249    12483    12808 
   13147    13420    13632    13805    13964    14179    14509    14918 
   15314    15673    16028    16364    16640    16857    17050    17205 
   17265    17240    17193    17134    17050    16935    16804    16675 
   16532    16384    16270    16170    16012    15742    15402    15086 
   14864    14706    14550    14391    14193    13883    13494    13127 
   12800    12465    12128    11816    11508    11206    11020    11034 
   11187    11307    11294    11187    11095    11092    11183    11341 
   11539    11719    11817    11862    11890    11854    11747    11630 
