Origin Time       2024/04/02 04:24:00
Lat.              40.133
Long.             141.712
Depth. (km)       71
Mag.              6.0
Station Code      AKTH09
Station Lat.      40.2755
Station Long.     140.4596
Station Height(m) -56
Record Time       2024/04/02 04:24:55
Sampling Freq(Hz) 100Hz
Duration Time(s)  172
Dir.              1
Scale Factor      2942(gal)/8224139
Max. Acc. (gal)   2.940
Last Correction   2024/04/02 04:24:55
Memo.             
[...]
  -87731   -85872   -85122   -85703   -86996   -88171   -89160   -90211 
  -91034   -91301   -91004   -90180   -89205   -88689   -88658   -88685 
  -88462   -87970   -87600   -87643   -87808   -87809   -87941   -88670 
  -89927   -91060   -91515   -91216   -90539   -90185   -90466   -90971 
  -91415   -91795   -91890   -91639   -91315   -90946   -90285   -89290 
  -88153   -87038   -86238   -86169   -86844   -87629   -87828   -87489 
  -87312   -87891   -89425   -91566   -93286   -93637   -92846   -91983 
  -91535   -91254   -91058   -91000   -90958   -90915   -91061   -91435 
  -91750   -91597   -90906   -90204   -89843   -89712   -90094   -90952 
  -91123   -90175   -89059   -88161   -87122   -86219   -86009   -86520 
  -87824   -90076   -92485   -93806   -93771   -92873   -91563   -90504 
  -90409   -90898   -90639   -89209   -87413   -85795   -84530   -84002 
  -84171   -84638   -85615   -87542   -90107   -92452   -93868   -94066 
  -93372   -92638   -92331   -91814   -90258   -88132   -86625   -86042 
  -86111   -86610   -87019   -87096   -87288   -87763   -88090   -88065 
  -88072   -88554   -89568   -90786   -91687   -92087   -92443   -93102 
  -93754   -93930   -93409   -92419   -91617   -91469   -91874   -92159 
  -91565   -90324   -89344   -88790   -88263   -87617   -86921   -86552 
  -87002   -88060   -89043   -89586   -89654   -89421   -89297   -89625 
  -90352   -91160   -91635   -91543   -91145   -90795   -90657   -90822 
  -91039   -90972   -90684   -90328   -90009   -89938   -90234   -90694 
  -90679   -89673   -88190   -87392   -87875   -89152   -90093   -90166 
  -89903   -89784   -89669   -89388   -89002   -88717   -88749   -89155 
  -89791   -90282   -90331   -89954   -89325   -88739   -88488   -88496 
  -88334   -87862   -87686   -88388   -89599   -90404   -90312   -89529 
  -88693   -88423   -88757   -89329   -89965   -90477   -90529   -90066 
  -89301   -88399   -87600   -87189   -87070   -87033   -87363   -88256 
  -89148   -89553   -89797   -90323   -91058   -91674   -91785   -91227 
  -90508   -90408   -90933   -91528   -91979   -92113   -91694   -91046 
  -90660   -90599   -90741   -90968   -91193   -91444   -91728   -91991 
  -92298   -92739   -93067   -92803   -91963   -91092   -90406   -89765 
  -89198   -88738   -88333   -88078   -88029   -88040   -88075   -88144 
  -88052   -87975   -88376   -89137   -89839   -90277   -90289   -89965 
  -89831   -90202   -90679   -90714   -90229   -89630   -89486   -89903 
  -90427   -90525   -89919   -88898   -88207   -88245   -88680   -88852 
  -88480   -87907   -87480   -87077   -86746   -86975   -87847   -88811 
  -89421   -89634   -89565   -89513   -89785   -90188   -90431   -90799 
  -91393   -91766   -91912   -92176   -92402   -92211   -91586   -90626 
  -89421   -88499   -88416   -88894   -89337   -89580   -89658   -89473 
  -88935   -88303   -88051   -88298   -88851   -89506   -89931   -89839 
  -89428   -89257   -89671   -90425   -90976   -91189   -91427   -91785 
  -91995   -92017   -91957   -91863   -91727   -91328   -90633   -90004 
  -89444   -88808   -88639   -89193   -89710   -89785   -89675   -89326 
  -88844   -88801   -89299   -89888   -90189   -90207   -90259   -90340 
  -90231   -90139   -90342   -90818   -91430   -91844   -91750   -91339 
  -90882   -90269   -89586   -89198   -89113   -89043   -88898   -88866 
  -89029   -89262   -89615   -89982   -89927   -89560   -89306   -89176 
  -89255   -89640   -89861   -89548   -89019   -88632   -88385   -88337 
  -88608   -88866   -88749   -88546   -88568   -88580   -88403   -88200 
  -88114   -88322   -89021   -89818   -90146   -90209   -90328   -90309 
  -90058   -89731   -89445   -89313   -89476   -89931   -90416   -90655 
  -90683   -90609   -90356   -90028   -89835   -89644   -89294   -88981 
  -88863   -88835   -88686   -88258   -87612   -87016   -86738   -86871 
  -87222   -87652   -88366   -89382   -90255   -90628   -90576   -90385 
  -90404   -91014   -92088   -92812   -92723   -92244   -91802   -91466 
  -91264   -91072   -90710   -90356   -90240   -90289   -90348   -90290 
  -90115   -90058   -90270   -90593   -90798   -90956   -91247   -91409 
  -91104   -90420   -89465   -88476   -88042   -88267   -88700   -89222 
  -89846   -90360   -90695   -90792   -90494   -89962   -89438   -88966 
  -88750   -88889   -89114   -89411   -90004   -90644   -90884   -90740 
  -90477   -90157   -89796   -89546   -89465   -89478   -89533   -89523 
  -89449   -89514   -89595   -89320   -88686   -87937   -87293   -87023 
  -87123   -87214   -87162   -87164   -87420   -88144   -89181   -90039 
  -90541   -90815   -91061   -91297   -91303   -91054   -90714   -90371 
  -90131   -90080   -90144   -90126   -89895   -89586   -89380   -89248 
  -89175   -89276   -89537   -89797   -89920   -89857   -89604   -89232 
  -88970   -89116   -89727   -90458   -90929   -91147   -91265   -91332 
  -91309   -90995   -90317   -89540   -88900   -88501   -88435   -88605 
  -88866   -89290   -89876   -90321   -90339   -89937   -89397   -89082 
  -89082   -89104   -88982   -88855   -88749   -88645   -88713   -89012 
  -89282   -89307   -89286   -89502   -89856   -90053   -90019   -89966 
  -90109   -90377   -90556   -90508   -90225   -89924   -89904   -90201 
  -90535   -90622   -90324   -89667   -89037   -88916   -89313   -89996 
  -90621   -90675   -90209   -89788   -89638   -89769   -90175   -90625 
  -90865   -90883   -90911   -91183   -91574   -91822   -91879   -91820 
  -91795   -91909   -91945   -91800   -91687   -91647   -91519   -91146 
  -90540   -90051   -89834   -89718   -89712   -89716   -89510   -89266 
  -89125   -88867   -88453   -88141   -88056   -88148   -88371   -88642 
  -88959   -89424   -89916   -90254   -90531   -90832   -91019   -90976 
  -90713   -90335   -89904   -89291   -88577   -88177   -88132   -88155 
  -88380   -88959   -89490   -89719   -89824   -89797   -89518   -89140 
  -88897   -88855   -88970   -89213   -89499   -89587   -89345   -88892 
  -88391   -88002   -87872   -88075   -88599   -89359   -90144   -90582 
  -90437   -90115   -90240   -90745   -91149   -91384   -91489   -91365 
  -91156   -90952   -90598   -90161   -89725   -89243   -88823   -88508 
  -88314   -88496   -89101   -89718   -90105   -90360   -90386   -90111 
  -89937   -90047   -90103   -90032   -90057   -90128   -90175   -90239 
  -90204   -89991   -89733   -89541   -89452   -89538   -89788   -90107 
  -90390   -90474   -90325   -90123   -90001   -89937   -89738   -89302 
  -88911   -88670   -88315   -87895   -87662   -87617   -87772   -88134 
  -88528   -88948   -89527   -90096   -90377   -90398   -90266   -89985 
  -89599   -89220   -89028   -89154   -89492   -89883   -90258   -90516 
  -90606   -90661   -90734   -90686   -90539   -90406   -90194   -89841 
  -89467   -89051   -88542   -88146   -88048   -88258   -88688   -89141 
  -89503   -89868   -90246   -90386   -90140   -89745   -89434   -89236 
  -89256   -89584   -90045   -90495   -91018   -91521   -91611   -91127 
  -90402   -89887   -89664   -89441   -88990   -88381   -87820   -87504 
  -87547   -87859   -88217   -88582   -89017   -89324   -89343   -89314 
  -89492   -89820   -90059   -90078   -90070   -90220   -90329   -90120 
  -89654   -89260   -89179   -89338   -89486   -89550   -89662   -89777 
  -89738   -89629   -89614   -89658   -89741   -89966   -90259   -90410 
  -90458   -90622   -90965   -91265   -91314   -91278   -91363   -91569 
  -91935   -92362   -92499   -92218   -91685   -91098   -90655   -90421 
  -90274   -90101   -89947   -89991   -90360   -90948   -91393   -91407 
  -91071   -90639   -90290   -90121   -90053   -89930   -89769   -89680 
  -89664   -89621   -89527   -89386   -89071   -88697   -88605   -88738 
  -88831   -88973   -89303   -89642   -89662   -89268   -88761   -88476 
  -88480   -88692   -88939   -89059   -89070   -89040   -88921   -88669 
  -88425   -88469   -88925   -89483   -89785   -90008   -90382   -90678 
  -90659   -90375   -89968   -89579   -89257   -88919   -88630   -88607 
  -88792   -89044   -89483   -90039   -90386   -90587   -90887   -91084 
  -90960   -90767   -90694   -90601   -90423   -90247   -90231   -90448 
  -90633   -90502   -90198   -89941   -89707   -89542   -89505   -89468 
  -89417   -89380   -89141   -88707   -88462   -88531   -88684   -88801 
  -88927   -89020   -89023   -89071   -89272   -89498   -89667   -89804 
  -89850   -89772   -89645   -89592   -89764   -90146   -90583   -90950 
  -91123   -91092   -91102   -91278   -91320   -90985   -90594   -90489 
  -90532   -90622   -90775   -90846   -90879   -91011   -91042   -90756 
  -90321   -90130   -90367   -90742   -90875   -90748   -90524   -90281 
  -89907   -89314   -88782   -88665   -88970   -89507   -89996   -90213 
  -90289   -90324   -90035   -89387   -88735   -88227   -87875   -87820 
  -88092   -88511   -88886   -89156   -89363   -89557   -89661   -89460 
  -88954   -88429   -87984   -87552   -87346   -87481   -87705   -87889 
  -87994   -88020   -88204   -88550   -88794   -89052   -89437   -89633 
  -89530   -89411   -89444   -89600   -89791   -89873   -89784   -89603 
  -89417   -89232   -89063   -89002   -89073   -89186   -89298   -89341 
  -89244   -89093   -88965   -88892   -88963   -89109   -89187   -89297 
  -89500   -89629   -89671   -89756   -89858   -89982   -90076   -89949 
  -89635   -89347   -89220   -89295   -89479   -89677   -89862   -89968 
  -90057   -90363   -90840   -91112   -91042   -90817   -90586   -90499 
  -90683   -90949   -91072   -91000   -90603   -89995   -89662   -89792 
  -90135   -90414   -90495   -90405   -90219   -89981   -89745   -89694 
  -89920   -90182   -90375   -90639   -90791   -90594   -90228   -89932 
  -89750   -89723   -89849   -90042   -90315   -90720   -91173   -91457 
  -91482   -91377   -91143   -90756   -90509   -90618   -90823   -90857 
  -90801   -90687   -90429   -90211   -90204   -90243   -90255   -90319 
  -90369   -90450   -90655   -90803   -90811   -90757   -90587   -90317 
  -90009   -89652   -89301   -89037   -88979   -89249   -89745   -90208 
  -90359   -90089   -89692   -89549   -89625   -89608   -89526   -89760 
  -90324   -90867   -91197   -91278   -91191   -91048   -90772   -90371 
  -90092   -90015   -90043   -90136   -90140   -89878   -89430   -89006 
  -88823   -88913   -88915   -88609   -88275   -88074   -87924   -87944 
  -88191   -88329   -88122   -87754   -87507   -87521   -87839   -88348 
  -88834   -89363   -90074   -90686   -90948   -91025   -91073   -91164 
  -91288   -91222   -90931   -90787   -90907   -90967   -90819   -90599 
  -90296   -89951   -89914   -90240   -90562   -90674   -90583   -90271 
  -89781   -89255   -88831   -88542   -88268   -87961   -87812   -87894 
  -88051   -88195   -88245   -88169   -88092   -87949   -87687   -87561 
  -87655   -87720   -87710   -87844   -88123   -88311   -88302   -88258 
  -88287   -88144   -87686   -87303   -87490   -88249   -89048   -89418 
  -89367   -89090   -88777   -88647   -88701   -88780   -88904   -89124 
  -89368   -89629   -89843   -89804   -89527   -89368   -89525   -89784 
  -89978   -90180   -90333   -90440   -90718   -91023   -91044   -91022 
  -91223   -91471   -91709   -92088   -92472   -92628   -92574   -92225 
  -91501   -90730   -90150   -89579   -88971   -88582   -88489   -88512 
  -88555   -88565   -88577   -88780   -89216   -89703   -90026   -90173 
  -90339   -90520   -90586   -90633   -90830   -91257   -91822   -92219 
  -92254   -92061   -91858   -91760   -91716   -91559   -91485   -91943 
  -92742   -93225   -93222   -92871   -92286   -91774   -91395   -90871 
  -90370   -90147   -89878   -89465   -89278   -89202   -88832   -88389 
  -88294   -88381   -88442   -88749   -89355   -89808   -89768   -89252 
  -88497   -87867   -87691   -88010   -88562   -89073   -89388   -89417 
  -89220   -88962   -88777   -88819   -89094   -89336   -89321   -89097 
  -88913   -88986   -89198   -89363   -89538   -89694   -89617   -89267 
  -88894   -88851   -89222   -89635   -89706   -89530   -89379   -89209 
  -88938   -88681   -88568   -88670   -88947   -89313   -89734   -90066 
  -90227   -90391   -90599   -90684   -90633   -90551   -90464   -90327 
  -90146   -89986   -89777   -89498   -89340   -89360   -89347   -89282 
  -89433   -89868   -90367   -90705   -90653   -90055   -89048   -87964 
  -87096   -86745   -87027   -87629   -88265   -88927   -89483   -89758 
  -89870   -89992   -90101   -90161   -90111   -89781   -89229   -88824 
  -88820   -89172   -89675   -90184   -90761   -91544   -92514   -93339 
  -93610   -93337   -92788   -92009   -91087   -90387   -90178   -90445 
  -91054   -91805   -92520   -93151   -93679   -93883   -93486   -92506 
  -91226   -89961   -88927   -88209   -87845   -87855   -88171   -88701 
  -89402   -90211   -90896   -91200   -91192   -91057   -90684   -89997 
  -89176   -88429   -88056   -88372   -89164   -89997   -90909   -92028 
  -93131   -93953   -94159   -93401   -91841   -90047   -88357   -86876 
  -85834   -85502   -85909   -86819   -87828   -88549   -88939   -89371 
  -90139   -91002   -91390   -91000   -89951   -88496   -87142   -86682 
  -87345   -88500   -89541   -90255   -90632   -90852   -91017   -90930 
  -90485   -89888   -89548   -89837   -90591   -91237   -91436   -91014 
  -89904   -88551   -87504   -86850   -86518   -86449   -86548   -86875 
  -87489   -88200   -88807   -89260   -89621   -90024   -90444   -90560 
  -90089   -88932   -87200   -85476   -84541   -84618   -85422   -86621 
  -87839   -88897   -89989   -91110   -91804   -91606   -90231   -87740 
  -84838   -82537   -81548   -81976   -83270   -84681   -85969   -87293 
  -88538   -89359   -89866   -90666   -92114   -93933   -95446   -96003 
  -95418   -94122   -92700   -91467   -90570   -89977   -89363   -88641 
  -88271   -88580   -89287   -90117   -91118   -92109   -92726   -92958 
  -93020   -92969   -92723   -92380   -92249   -92487   -92920   -93214 
  -93116   -92650   -91993   -91330   -90937   -90907   -90894   -90682 
  -90558   -90610   -90364   -89425   -87953   -86660   -86323   -86931 
  -87874   -88908   -89995   -90818   -91242   -91327   -90994   -90412 
  -90065   -90040   -89919   -89478   -88878   -88398   -88524   -89671 
  -91600   -93687   -95373   -96376   -96763   -96549   -95615   -94089 
  -92283   -90485   -89002   -88180   -88202   -88809   -89434   -89714 
  -89707   -89568   -89411   -89587   -90424   -91698   -92819   -93259 
  -92919   -92280   -91876   -91837   -92115   -92512   -92534   -91710 
  -90139   -88379   -86857   -85704   -84966   -84712   -84928   -85409 
  -85838   -85959   -85804   -85774   -86250   -87133   -88037   -88897 
  -89935   -91017   -91520   -91034   -89777   -88084   -86202   -84735 
  -84218   -84465   -85066   -85904   -86950   -88168   -89506   -90670 
  -91322   -91476   -91435   -91469   -91600   -91600   -91142   -90057 
  -88635   -87381   -86482   -85846   -85302   -84757   -84460   -84670 
  -85240   -85885   -86362   -86491   -86485   -86705   -87080   -87320 
  -87288   -86949   -86603   -86823   -87743   -89016   -90363   -91662 
  -92736   -93378   -93460   -92897   -91816   -90733   -90053   -89592 
  -88993   -88462   -88673   -89721   -90853   -91451   -91477   -91133 
  -90768   -90680   -90823   -91031   -91103   -90787   -90184   -89626 
  -89144   -88712   -88516   -88523   -88462   -88321   -88225   -88175 
  -88338   -89037   -90161   -91196   -91891   -92321   -92491   -92479 
  -92530   -92634   -92438   -91837   -91293   -91291   -91797   -92649 
  -93784   -94917   -95779   -96342   -96383   -95617   -94254   -92861 
  -91743   -90782   -89831   -89098   -89019   -89731   -90810   -91781 
  -92550   -93090   -93298   -93309   -93448   -93829   -94173   -94153 
  -93879   -93631   -93252   -92464   -91376   -90223   -89140   -88233 
  -87623   -87454   -87605   -87760   -87941   -88327   -88851   -89482 
  -90174   -90539   -90296   -89702   -89082   -88593   -88416   -88584 
  -88766   -88654   -88399   -88292   -88321   -88339   -88306   -88199 
  -88018   -87794   -87500   -87141   -86805   -86547   -86521   -86958 
  -87741   -88380   -88605   -88612   -88570   -88435   -88290   -88263 
  -88314   -88423   -88537   -88580   -88847   -89525   -90180   -90690 
  -91382   -91849   -91436   -90385   -89279   -88339   -87615   -87176 
  -86926   -86624   -86366   -86455   -86877   -87463   -87997   -88137 
  -87835   -87370   -86961   -86752   -86841   -87054   -87246   -87651 
  -88496   -89602   -90522   -90921   -90767   -90350   -90171   -90493 
  -90995   -91251   -91181   -90961   -90803   -90734   -90630   -90437 
  -90138   -89850   -89807   -89970   -90170   -90428   -90609   -90402 
  -89765   -88970   -88354   -88168   -88481   -89159   -89804   -90078 
  -90169   -90424   -90753   -90880   -90740   -90342   -89773   -89368 
  -89276   -89330   -89484   -89737   -89932   -90030   -90065   -89951 
  -89505   -88688   -87843   -87358   -87334   -87767   -88573   -89430 
  -90093   -90768   -91782   -93006   -93934   -94320   -94358   -94198 
  -93707   -92880   -91898   -90828   -89910   -89521   -89500   -89505 
  -89640   -90003   -90324   -90335   -90113   -90020   -90213   -90427 
  -90352   -90019   -89714   -89533   -89214   -88693   -88348   -88389 
  -88711   -89201   -89653   -89887   -90094   -90467   -90895   -91314 
  -91870   -92705   -93729   -94752   -95674   -96277   -96331   -95804 
  -94782   -93519   -92308   -91319   -90768   -90788   -91062   -91134 
  -90950   -90841   -91023   -91312   -91413   -91261   -90931   -90603 
  -90478   -90479   -90359   -90161   -90162   -90348   -90367   -90130 
  -89958   -90031   -90161   -90073   -89633   -88875   -87987   -87322 
  -87037   -86906   -86952   -87470   -88250   -88808   -89017   -89027 
  -88963   -88854   -88618   -88191   -87671   -87338   -87457   -87912 
  -88257   -88248   -88002   -87729   -87525   -87362   -87192   -87008 
  -86805   -86629   -86491   -86329   -86260   -86487   -86894   -87241 
  -87502   -87724   -87940   -88145   -88203   -88037   -87824   -87751 
  -87767   -87829   -88045   -88263   -88264   -88219   -88148   -87716 
  -87058   -86692   -86701   -86827   -86973   -87137   -87334   -87654 
  -88257   -89125   -89800   -89889   -89638   -89498   -89657   -90016 
  -90220   -90022   -89592   -89244   -89141   -89278   -89603   -90096 
  -90676   -91139   -91461   -91843   -92246   -92476   -92541   -92442 
  -92234   -92153   -92233   -92221   -91930   -91493   -91260   -91412 
  -91835   -92211   -92210   -91728   -91023   -90398   -89857   -89239 
  -88538   -87984   -87876   -88233   -88659   -88731   -88457   -88245 
  -88219   -88037   -87632   -87291   -87107   -87170   -87713   -88596 
  -89263   -89418   -89375   -89542   -90050   -90846   -91681   -92175 
  -92172   -91762   -91085   -90387   -89908   -89716   -89831   -90215 
  -90605   -90775   -90877   -91184   -91640   -92101   -92620   -93140 
  -93491   -93750   -94055   -94355   -94558   -94582   -94340   -93931 
  -93692   -93745   -93673   -93155   -92480   -92017   -91870   -92067 
  -92411   -92427   -91901   -91076   -90221   -89459   -88896   -88515 
  -88200   -88001   -88007   -88121   -88215   -88202   -88003   -87619 
  -87211   -87137   -87627   -88425   -89058   -89355   -89317   -88960 
  -88645   -88734   -88979   -89047   -89059   -89140   -89262   -89456 
  -89638   -89615   -89440   -89340   -89325   -89297   -89299   -89325 
