Origin Time       2024/04/02 04:24:00
Lat.              40.133
Long.             141.712
Depth. (km)       71
Mag.              6.0
Station Code      AOMH18
Station Lat.      40.2962
Station Long.     141.0145
Station Height(m) 135
Record Time       2024/04/02 04:24:51
Sampling Freq(Hz) 100Hz
Duration Time(s)  133
Dir.              1
Scale Factor      2940(gal)/6170270
Max. Acc. (gal)   6.720
Last Correction   2024/04/02 04:24:36
Memo.             
[...]
  -74896   -74896   -74895   -74897   -74896   -74894   -74896   -74896 
  -74896   -74896   -74895   -74896   -74896   -74896   -74895   -74895 
  -74895   -74894   -74895   -74896   -74896   -74896   -74897   -74896 
  -74897   -74898   -74895   -74897   -74897   -74894   -74894   -74897 
  -74899   -74897   -74894   -74894   -74896   -74895   -74894   -74896 
  -74896   -74896   -74897   -74897   -74897   -74897   -74897   -74896 
  -74896   -74897   -74896   -74896   -74897   -74896   -74894   -74897 
  -74897   -74895   -74895   -74894   -74896   -74898   -74896   -74895 
  -74897   -74897   -74897   -74897   -74897   -74897   -74897   -74896 
  -74897   -74897   -74894   -74894   -74895   -74895   -74895   -74894 
  -74895   -74897   -74896   -74894   -74894   -74896   -74896   -74896 
  -74895   -74896   -74897   -74898   -74897   -74896   -74897   -74897 
  -74896   -74896   -74895   -74895   -74896   -74896   -74896   -74896 
  -74894   -74894   -74897   -74898   -74897   -74896   -74896   -74897 
  -74898   -74896   -74895   -74896   -74895   -74895   -74895   -74895 
  -74896   -74897   -74896   -74896   -74897   -74897   -74895   -74896 
  -74897   -74897   -74896   -74896   -74896   -74895   -74897   -74897 
  -74896   -74898   -74897   -74895   -74896   -74897   -74897   -74897 
  -74896   -74895   -74898   -74897   -74894   -74897   -74899   -74897 
  -74897   -74898   -74896   -74895   -74897   -74897   -74897   -74897 
  -74897   -74896   -74896   -74897   -74898   -74897   -74894   -74896 
  -74898   -74897   -74897   -74897   -74897   -74897   -74896   -74895 
  -74897   -74896   -74896   -74897   -74898   -74895   -74894   -74895 
  -74897   -74898   -74899   -74897   -74895   -74896   -74896   -74896 
  -74897   -74896   -74896   -74897   -74897   -74896   -74896   -74896 
  -74895   -74896   -74896   -74897   -74898   -74897   -74897   -74896 
  -74895   -74897   -74897   -74896   -74896   -74897   -74897   -74894 
  -74895   -74898   -74898   -74896   -74897   -74897   -74897   -74896 
  -74895   -74895   -74896   -74898   -74897   -74896   -74897   -74896 
  -74896   -74897   -74896   -74897   -74898   -74896   -74897   -74899 
  -74897   -74896   -74897   -74898   -74897   -74897   -74896   -74896 
  -74897   -74896   -74895   -74896   -74898   -74896   -74894   -74896 
  -74898   -74898   -74897   -74897   -74896   -74895   -74897   -74897 
  -74897   -74897   -74896   -74895   -74895   -74897   -74898   -74897 
  -74894   -74895   -74896   -74896   -74897   -74898   -74897   -74897 
  -74898   -74896   -74895   -74896   -74897   -74896   -74895   -74896 
  -74897   -74898   -74898   -74897   -74896   -74896   -74897   -74897 
  -74897   -74897   -74896   -74896   -74897   -74899   -74897   -74897 
  -74898   -74897   -74895   -74896   -74897   -74897   -74897   -74896 
  -74895   -74897   -74897   -74896   -74896   -74897   -74898   -74897 
  -74897   -74897   -74897   -74896   -74895   -74892   -74890   -74890 
  -74887   -74883   -74879   -74871   -74858   -74842   -74818   -74788 
  -74751   -74712   -74675   -74646   -74634   -74651   -74702   -74792 
  -74924   -75095   -75265   -75368   -75368   -75263   -75067   -74841 
  -74647   -74463   -74243   -74049   -73995   -74136   -74476   -74915 
  -75218   -75280   -75195   -75071   -74991   -74851   -74379   -73648 
  -73203   -73470   -74405   -75610   -76386   -76232   -75579   -75290 
  -75682   -76316   -76368   -75531   -74515   -74053   -74027   -74055 
  -74021   -73998   -74329   -75058   -75588   -75596   -75211   -74573 
  -73782   -73092   -73041   -73600   -74386   -75831   -77547   -77677 
  -76084   -74896   -75124   -75613   -75839   -76596   -77348   -76881 
  -75475   -73842   -72646   -72460   -72064   -70584   -70803   -74394 
  -77790   -78042   -76543   -74896   -73195   -72188   -73048   -75093 
  -75534   -73340   -71672   -72480   -73461   -74193   -76568   -78751 
  -78835   -78993   -79231   -77342   -74862   -73364   -71192   -69085 
  -70775   -75448   -77869   -77353   -77266   -77986   -78408   -78128 
  -76029   -72392   -70285   -72510   -77265   -79399   -78577   -78568 
  -78484   -75824   -72867   -72510   -73967   -75333   -76627   -76984 
  -74763   -72650   -73351   -74411   -73622   -72236   -71403   -71405 
  -73516   -77340   -79003   -77133   -75106   -74430   -74872   -77069 
  -77666   -74397   -71948   -71829   -71720   -71928   -71485   -70597 
  -72651   -75857   -75533   -73376   -73648   -75336   -74890   -72877 
  -73474   -77674   -81179   -80610   -78030   -76826   -76594   -77442 
  -79587   -77775   -71996   -70132   -73106   -76175   -77052   -76276 
  -76337   -76865   -75401   -73767   -74223   -73815   -71252   -70931 
  -72956   -73826   -75012   -76632   -75270   -71346   -69523   -72035 
  -74250   -73631   -74247   -76986   -78545   -77651   -76271   -75967 
  -75659   -74930   -74950   -75658   -73774   -69648   -70196   -73418 
  -73280   -74180   -76444   -75749   -74457   -73747   -74060   -76989 
  -79183   -78539   -77316   -75989   -74739   -75129   -76680   -77852 
  -77629   -75055   -72469   -73525   -76303   -77295   -76800   -75730 
  -74587   -74099   -74544   -75739   -76868   -77320   -76742   -74869 
  -72864   -72815   -74388   -75266   -75604   -76063   -75521   -74167 
  -72299   -69729   -69205   -72680   -76040   -75820   -74278   -73300 
  -73460   -75452   -76667   -75424   -75261   -76916   -76095   -72694 
  -70874   -72054   -73922   -73884   -73558   -75279   -76797   -77261 
  -77697   -76778   -75079   -73626   -72012   -72170   -73847   -74310 
  -74335   -74162   -73044   -73405   -75324   -75959   -75780   -75781 
  -75113   -74869   -75498   -74713   -73212   -73937   -75970   -77253 
  -77925   -77186   -75352   -75268   -75950   -74711   -73468   -73580 
  -73202   -72697   -73598   -75014   -75426   -74585   -73344   -73639 
  -76236   -78163   -76629   -73718   -73411   -75431   -76343   -76169 
  -76413   -75810   -74823   -74863   -74793   -75340   -77469   -78505 
  -76898   -74555   -73245   -73285   -74761   -75806   -74691   -74436 
  -75978   -75221   -73352   -74497   -76098   -75663   -75331   -75216 
  -74087   -72738   -72506   -73683   -74762   -74210   -73138   -73930 
  -76106   -76753   -75981   -76201   -75930   -74117   -74889   -77573 
  -76989   -74959   -75147   -75857   -75438   -74666   -73900   -73668 
  -74889   -76156   -75198   -73063   -72496   -72743   -72142   -72693 
  -74253   -74546   -74826   -74791   -73400   -73004   -73727   -74005 
  -73851   -73948   -75598   -77416   -77104   -76604   -77292   -77930 
  -78150   -77637   -76870   -76670   -76035   -75032   -74523   -73974 
  -74048   -75473   -76721   -76975   -76511   -75521   -74806   -74483 
  -74237   -74351   -74358   -73697   -72848   -72297   -72084   -72923 
  -75252   -76915   -76583   -76250   -76559   -76573   -76647   -76038 
  -74065   -73068   -73157   -72216   -72451   -74522   -74146   -71596 
  -70883   -72609   -74484   -74506   -74196   -75238   -75580   -74702 
  -74513   -75449   -76323   -75923   -74861   -73474   -72172   -73536 
  -76182   -76649   -76633   -76627   -74626   -73113   -74476   -75980 
  -75570   -75281   -75994   -75900   -75492   -75739   -75430   -75304 
  -75848   -75349   -75049   -76192   -76341   -74855   -73897   -74395 
  -74922   -74033   -73261   -74074   -74721   -74666   -75885   -77375 
  -76445   -74732   -74271   -74100   -74764   -76122   -76028   -75750 
  -76581   -75871   -73895   -74184   -75347   -74438   -73357   -73447 
  -73566   -74005   -74929   -75375   -74179   -71506   -70917   -73422 
  -74499   -73443   -73940   -75369   -75142   -74173   -73836   -74528 
  -76551   -77721   -76209   -74524   -74947   -76724   -78247   -78069 
  -76115   -73897   -72669   -72841   -73962   -74398   -73729   -73673 
  -74155   -73994   -73954   -73623   -72617   -73590   -75807   -75375 
  -73840   -74596   -76115   -76315   -75584   -75424   -77012   -77950 
  -76667   -76093   -76183   -75328   -75321   -75694   -75155   -75248 
  -75612   -75725   -76354   -76508   -76218   -76240   -75898   -75001 
  -74291   -74552   -75292   -75723   -76244   -76514   -75713   -74404 
  -73870   -74788   -75968   -75617   -74485   -74370   -74910   -74683 
  -73963   -74362   -74980   -73612   -72104   -72528   -73317   -73749 
  -74348   -74922   -74802   -73531   -72054   -71296   -71595   -72946 
  -74146   -74946   -75926   -76309   -75769   -74904   -74398   -75131 
  -76217   -75686   -74411   -74581   -75272   -74927   -74981   -75912 
  -75294   -73712   -74106   -74812   -74183   -75158   -77305   -77159 
  -76198   -76718   -76660   -75249   -74994   -76057   -76144   -75043 
  -74256   -74173   -74595   -75071   -74870   -74753   -74983   -74576 
  -74153   -73966   -73501   -73255   -72967   -72875   -73734   -74555 
  -75078   -75363   -74452   -73298   -73792   -75217   -75033   -73563 
  -73534   -74430   -74875   -75393   -75338   -74851   -75245   -75731 
  -75468   -75073   -74915   -74947   -75328   -75260   -74033   -73857 
  -75556   -76507   -76510   -76602   -75761   -74382   -74226   -75435 
  -77218   -77851   -76149   -74793   -75469   -75743   -75603   -76278 
  -75993   -74914   -74945   -74904   -73815   -73524   -74891   -76541 
  -76594   -74844   -73708   -73958   -74346   -74848   -75378   -76200 
  -76695   -75634   -75077   -75143   -73830   -73095   -73868   -74842 
  -75847   -75658   -74166   -73383   -73188   -72749   -73283   -74588 
  -74863   -75328   -76531   -76194   -75799   -76977   -77066   -75749 
  -74357   -73457   -74657   -76094   -75095   -74196   -74934   -75562 
  -75362   -74870   -75182   -75664   -74321   -72496   -72577   -73726 
  -75031   -76453   -76586   -75265   -74524   -74703   -73924   -72300 
  -72548   -74519   -75124   -74104   -73358   -73583   -74354   -74722 
  -74501   -74532   -75427   -77075   -78183   -77398   -75465   -74069 
  -73773   -74135   -74013   -73285   -73661   -74848   -74306   -72573 
  -72248   -73340   -74617   -74832   -73470   -72897   -74530   -76034 
  -75679   -74827   -74924   -74774   -73824   -73953   -75012   -75160 
  -74730   -74749   -75084   -76113   -77594   -77591   -76586   -76164 
  -75739   -75497   -75567   -75350   -75385   -75344   -75027   -75005 
  -74856   -74887   -75296   -75390   -75496   -75624   -75520   -75568 
  -75597   -75775   -76323   -76244   -75124   -73993   -73436   -73466 
  -74496   -75527   -75570   -75700   -75495   -74343   -74183   -75443 
  -75989   -74495   -72524   -72900   -74911   -75327   -74316   -74316 
  -75127   -75489   -75683   -75384   -74400   -73833   -73408   -73026 
  -73674   -74664   -75101   -75320   -75490   -75464   -75758   -76470 
  -75747   -73927   -74422   -76295   -75872   -74697   -75100   -74884 
  -73475   -73360   -74674   -75913   -76221   -75749   -76305   -77953 
  -77775   -75668   -74616   -74974   -74724   -73803   -73980   -74718 
  -74093   -73600   -74704   -75701   -76319   -76517   -75199   -74039 
  -74453   -74874   -74200   -73453   -73979   -74741   -74159   -73232 
  -73468   -74319   -74573   -74678   -74487   -73213   -73030   -74509 
  -74787   -74117   -74285   -74318   -73877   -74300   -74863   -74344 
  -74427   -75690   -75835   -75218   -75689   -76192   -76207   -76602 
  -76611   -76106   -75905   -75289   -73967   -73164   -73623   -74593 
  -75361   -76247   -76472   -75569   -75179   -75242   -74648   -74447 
  -74982   -74947   -74241   -73502   -73223   -74071   -74814   -73805 
  -73125   -74277   -74920   -74383   -74184   -74356   -74646   -75289 
  -75203   -74042   -74223   -76100   -76934   -76187   -75378   -75479 
  -76032   -75626   -74744   -75113   -76318   -76778   -76531   -76113 
  -75135   -73943   -73525   -73862   -74181   -74083   -74415   -75656 
  -76170   -75489   -75510   -75775   -74851   -74421   -75288   -76014 
  -76009   -75314   -74871   -74874   -74055   -73666   -74846   -75660 
  -75692   -75893   -75858   -75512   -75163   -74873   -74936   -75263 
  -75582   -75136   -73873   -73804   -74731   -74733   -74502   -74418 
  -73889   -73474   -73244   -73094   -73089   -73132   -73822   -74702 
  -74462   -73765   -73607   -73592   -73838   -74518   -74768   -74477 
  -74230   -74247   -74740   -74916   -73846   -72985   -73992   -74999 
  -73475   -71623   -72578   -74306   -74018   -73122   -73349   -73975 
  -74564   -75642   -76626   -76502   -75985   -76111   -76126   -75710 
  -75838   -75874   -75245   -75483   -76200   -75825   -75169   -74763 
  -74617   -75612   -77011   -77581   -77881   -78134   -77411   -76345 
  -76776   -77430   -76200   -74963   -75751   -77615   -78735   -78403 
  -77847   -77818   -77698   -77171   -75976   -74001   -71444   -70100 
  -72144   -74661   -73946   -72391   -72850   -74247   -74917   -74587 
  -74040   -73823   -73724   -73539   -72998   -72527   -73191   -74651 
  -76056   -76690   -75350   -72356   -69398   -67478   -67591   -70179 
  -73477   -76006   -77941   -79072   -79692   -80371   -80565   -79816 
  -78034   -76528   -76283   -75407   -74062   -75362   -79341   -83209 
  -85545   -85865   -83046   -78340   -76190   -77079   -76437   -73763 
  -72182   -70968   -67887   -64126   -62912   -64872   -67289   -69181 
  -71302   -72516   -72646   -73959   -75936   -75205   -72755   -73184 
  -76166   -77281   -75987   -75076   -75078   -75400   -76419   -76558 
  -73871   -70259   -68855   -71110   -75576   -78496   -78881   -77928 
  -76762   -77302   -77692   -73863   -67294   -62175   -60793   -63561 
  -67865   -70713   -71994   -72105   -72036   -73701   -75741   -76174 
  -76415   -76275   -75167   -76343   -79384   -80136   -80542   -83313 
  -85203   -84999   -84600   -83226   -80295   -77469   -76640   -79151 
  -83530   -86097   -85510   -83748   -82895   -82239   -78895   -71861 
  -65275   -63256   -63723   -64002   -64063   -63803   -65468   -69794 
  -73101   -74285   -73526   -71406   -72036   -75777   -78494   -78991 
  -77456   -74796   -73873   -74610   -75074   -76284   -79418   -83385 
  -85720   -84351   -80241   -76993   -76309   -75208   -71760   -68776 
  -68512   -70404   -71974   -71199   -70498   -72667   -75238   -74669 
  -71860   -70139   -71094   -74423   -77316   -76738   -76334   -79386 
  -80337   -77152   -74487   -72534   -70767   -70746   -70867   -71342 
  -74719   -78985   -81791   -84009   -85091   -83703   -79764   -73408 
  -68232   -70222   -76796   -78673   -75290   -72556   -71220   -70301 
  -70064   -69628   -69527   -71438   -74595   -76607   -78399   -82092 
  -83535   -79178   -72988   -69130   -69708   -73908   -76527   -76732 
  -78609   -82089   -84030   -82573   -77949   -73335   -71607   -71600 
  -71401   -71088   -70731   -71219   -73108   -72889   -68911   -65397 
  -65041   -66714   -69526   -72818   -75305   -76213   -75100   -73013 
  -74023   -78162   -78833   -74927   -72387   -73198   -74137   -72427 
  -69996   -70428   -72234   -73724   -75955   -77547   -79303   -83524 
  -86293   -84836   -81959   -78805   -74844   -71169   -69363   -70066 
  -72322   -73306   -71150   -69540   -72803   -77723   -80349   -81730 
  -80761   -76258   -72818   -73133   -74403   -74742   -74492   -74807 
  -76697   -78703   -79032   -78460   -78165   -77691   -75937   -74201 
  -75037   -77300   -78173   -76513   -73079   -71255   -72196   -72863 
  -72296   -72048   -72589   -72688   -71565   -71737   -74604   -77021 
  -76961   -75371   -73713   -72054   -69551   -68611   -70948   -73581 
  -75047   -75882   -75073   -72390   -70402   -72336   -76447   -76845 
  -73919   -73452   -75675   -76506   -75087   -74348   -77172   -81838 
  -82417   -77802   -73799   -73419   -75530   -78355   -79805   -80180 
  -79515   -77811   -78589   -80791   -79437   -76347   -75493   -75604 
  -75174   -75024   -74198   -72104   -71424   -72886   -74224   -75356 
  -77211   -78175   -77014   -75114   -73357   -71616   -70729   -71335 
  -72629   -73282   -73450   -74312   -75523   -76484   -76798   -75208 
  -73063   -74157   -78062   -79402   -76346   -73174   -71444   -69438 
  -68900   -71172   -73873   -75277   -75992   -76884   -76633   -74506 
  -73368   -74316   -75046   -74477   -72693   -70635   -70018   -70221 
  -70136   -71694   -75735   -79135   -80174   -80993   -82420   -81385 
  -77535   -76027   -76904   -74877   -72342   -74124   -76326   -74774 
  -72164   -71579   -72579   -73540   -74282   -75812   -77283   -76957 
  -75203   -73281   -72115   -71456   -70194   -69365   -71027   -74245 
  -75961   -75225   -74048   -74158   -75113   -75137   -73471   -72525 
  -74065   -75725   -76432   -78013   -79388   -78476   -77241   -77273 
  -77097   -76621   -76416   -75905   -74914   -73709   -74107   -76528 
  -77197   -74362   -70427   -68330   -69097   -70460   -70937   -71552 
  -72082   -72737   -74593   -75953   -74810   -72623   -72068   -73087 
  -74168   -74959   -75426   -76098   -77205   -77792   -77677   -76830 
  -75629   -75620   -76754   -77483   -76932   -75406   -74221   -73717 
  -73558   -74935   -76859   -76537   -75957   -77173   -77597   -76745 
  -76615   -76630   -75719   -75744   -77261   -77008   -75546   -76140 
  -76767   -75653   -74509   -73399   -72098   -71404   -72006   -73913 
  -75117   -75496   -77118   -77654   -75367   -74050   -74343   -73527 
  -72759   -74056   -75738   -75173   -73557   -73868   -74973   -74797 
  -74373   -74009   -74124   -76499   -78874   -78579   -77991   -77987 
  -77278   -77136   -77164   -75188   -72443   -71093   -71896   -74754 
  -76866   -75938   -74855   -75821   -75973   -75074   -76050   -77025 
  -76023   -75313   -74775   -73527   -73164   -73054   -72459   -73671 
  -76224   -76838   -75830   -74993   -74652   -75019   -74783   -74056 
  -74792   -75576   -75092   -73989   -72777   -73198   -74502   -74168 
  -74275   -76386   -77517   -76005   -73469   -72591   -73708   -74405 
  -74345   -74763   -75551   -75848   -74767   -74027   -76005   -77913 
  -75905   -72125   -71445   -74157   -76913   -78077   -77204   -74751 
  -73029   -72618   -72699   -73322   -73590   -73011   -72925   -73837 
  -74769   -74998   -75113   -75308   -74222   -72695   -72858   -73414 
  -73732   -75212   -76356   -76155   -75795   -74734   -73038   -72498 
  -73208   -73367   -72205   -71627   -72985   -74898   -76070   -76289 
  -75966   -76051   -76765   -77518   -77446   -77259   -78968   -80262 
  -77460   -73860   -73796   -75208   -75437   -74635   -73450   -72986 
  -72965   -72258   -72338   -73537   -74046   -74906   -76712   -77467 
  -76917   -75877   -74905   -74813   -75228   -74895   -74097   -74396 
  -75477   -75712   -75700   -77013   -78776   -78842   -77607   -76885 
  -76043   -74462   -73665   -73794   -73886   -74142   -75144   -77033 
  -77294   -74331   -73058   -75221   -75775   -74806   -74841   -74253 
  -72906   -72245   -72728   -74398   -75436   -75142   -75106   -74558 
  -73456   -74201   -75638   -75872   -76416   -77785   -78159   -76755 
  -74992   -73677   -72425   -72910   -75451   -75798   -73262   -72028 
  -71996   -71088   -71008   -72136   -72548   -72714   -72797   -71451 
  -70807   -73465   -76154   -75423   -73505   -72823   -73183   -73713 
  -73375   -73204   -74532   -75653   -75568   -75646   -76466   -77476 
  -77883   -77319   -76523   -75738   -74611   -74267   -75004   -75347 
