Origin Time       2024/04/02 04:24:00
Lat.              40.133
Long.             141.712
Depth. (km)       71
Mag.              6.0
Station Code      AOMH12
Station Lat.      40.5846
Station Long.     141.1547
Station Height(m) -15
Record Time       2024/04/02 04:24:52
Sampling Freq(Hz) 100Hz
Duration Time(s)  280
Dir.              1
Scale Factor      2942(gal)/8224139
Max. Acc. (gal)   22.166
Last Correction   2024/04/02 04:24:52
Memo.             
[...]
  132883   132880   132883   132884   132881   132884   132888   132887 
  132884   132884   132884   132884   132885   132884   132881   132883 
  132884   132883   132883   132884   132884   132883   132883   132884 
  132885   132884   132884   132885   132885   132881   132883   132887 
  132887   132883   132883   132885   132885   132881   132880   132883 
  132883   132883   132883   132881   132883   132885   132883   132880 
  132884   132884   132883   132883   132884   132885   132884   132884 
  132885   132885   132885   132887   132885   132883   132884   132884 
  132884   132881   132881   132887   132887   132883   132883   132884 
  132884   132883   132884   132887   132887   132885   132885   132887 
  132885   132883   132883   132884   132884   132883   132883   132884 
  132885   132885   132887   132885   132887   132888   132887   132885 
  132885   132885   132884   132887   132888   132887   132887   132888 
  132887   132885   132885   132885   132888   132888   132884   132884 
  132887   132888   132887   132887   132888   132889   132891   132887 
  132884   132885   132888   132888   132887   132887   132885   132885 
  132887   132888   132887   132884   132887   132889   132887   132884 
  132885   132885   132884   132884   132885   132885   132883   132881 
  132883   132885   132885   132885   132885   132884   132883   132885 
  132887   132887   132884   132883   132885   132885   132883   132881 
  132883   132885   132884   132884   132884   132883   132884   132883 
  132881   132884   132887   132884   132883   132883   132883   132883 
  132883   132883   132884   132883   132881   132881   132881   132883 
  132883   132885   132885   132885   132885   132884   132884   132887 
  132889   132894   132900   132915   132937   132969   133012   133076 
  133155   133246   133338   133419   133448   133347   133141   133011 
  132919   132709   132543   132406   132120   131849   131712   131792 
  132173   132629   132965   133168   133272   133362   133466   133633 
  133978   134433   134734   134704   134379   134077   134032   133878 
  133524   133366   133120   132555   132017   131554   131086   130662 
  130538   130835   131083   131228   131905   132961   133446   133357 
  133481   133863   133984   133702   133455   133635   133963   134248 
  134638   134901   135122   135329   134748   133866   133718   133678 
  133346   133058   132848   132796   132243   131249   131349   132009 
  131854   131715   132177   132131   131085   130532   131390   132003 
  131600   132111   134199   135614   135608   136177   136741   135295 
  133749   133820   133766   132830   132317   132984   133905   134064 
  133587   132660   131714   131376   131722   132525   133228   133404 
  133089   132279   131944   133427   134908   134320   132952   131661 
  131137   132202   133147   133304   132889   131687   132062   134194 
  135473   135985   135175   132416   130156   129918   131066   132664 
  134173   134476   132448   129942   129833   131535   131776   130404 
  130239   130707   131079   133381   136047   135857   133743   132240 
  132031   132831   134563   135808   134927   133868   133876   132634 
  132081   134337   134431   131079   129471   130574   131097   130466 
  130165   130734   132432   134175   135129   136312   135984   132713 
  130468   131044   131535   131161   131047   131832   133508   134703 
  134167   132167   130515   130617   131409   132911   135957   136885 
  133593   130326   129579   130092   131012   131413   130442   129641 
  131178   132857   131789   132607   137652   137660   130885   128821 
  133000   135515   136520   138009   135827   131031   130447   133222 
  134252   134310   135818   136478   135174   135835   137246   135160 
  132094   128860   124605   124393   128367   131345   133246   133178 
  129745   128139   130874   133023   132953   134900   137608   134130 
  127732   127649   130234   129006   129775   135776   139579   138167 
  136321   136279   136553   136895   136975   135444   134099   136505 
  139243   135766   130842   130258   128803   126603   129645   134985 
  137334   137681   137778   136279   134283   134940   134812   130914 
  129034   131101   131757   130661   130422   129664   128376   128796 
  131625   134686   134082   131782   131072   129670   127923   127238 
  127323   130065   134248   136698   137178   136215   136617   139590 
  139596   135648   134697   136468   133681   127458   126314   130562 
  133088   134616   137708   138246   136074   133552   130766   129024 
  128848   130041   131940   133640   133662   129710   125712   125670 
  125778   126658   131089   133373   131916   132313   134144   134322 
  132737   129606   128129   130905   133972   134173   133478   133240 
  131747   129216   129267   131484   133180   134886   135730   134797 
  133440   133440   136016   137199   133717   130175   130079   131523 
  133064   134798   135257   133807   133710   135700   135749   133438 
  131851   130912   129712   128873   127932   127427   129591   133258 
  135402   136318   136252   133984   131291   130493   131276   132386 
  132359   131804   133092   135176   135109   134156   135913   139001 
  138591   136193   136898   137810   134346   130111   127785   125203 
  124754   128796   131523   130851   132474   136097   136718   134269 
  131714   131623   133512   132956   130304   131978   137338   140606 
  142584   143856   141610   139460   140432   139783   136868   135737 
  134893   130874   126187   124220   122177   119647   121585   126590 
  130526   134185   135980   134380   133809   134253   132105   131063 
  132764   132456   132364   136817   140567   138990   135513   133369 
  132798   133732   134902   134046   131569   130117   129579   128893 
  129334   130678   131457   132773   135201   136773   137889   140101 
  140481   137619   135568   134619   132190   131009   132763   133389 
  131206   128232   126219   126991   129654   130716   129813   128629 
  127576   127172   128588   132115   135035   134557   133024   132305 
  130990   131313   135421   139822   141797   142246   142172   142119 
  141635   139688   136723   133200   129077   125459   124094   124425 
  124127   124480   127762   132163   135071   136024   136368   137646 
  140443   143402   143600   140861   137716   135697   135499   135716 
  133953   131823   131209   131005   130457   129313   128083   127757 
  128286   127893   124785   121977   122662   124761   128390   134100 
  137222   137857   140047   142051   142030   140884   138969   136111 
  132040   129964   131321   131504   131095   133328   135535   136498 
  137312   137593   137207   135537   132852   130751   128965   126022 
  122445   121589   125350   131413   137114   140332   139581   137407 
  135980   134113   133281   134794   135413   134472   134994   135843 
  133606   131068   132044   133112   131909   131356   131787   131568 
  130593   129509   129508   130288   130968   132142   133870   135322 
  135125   133335   132155   131315   129224   127499   128613   131093 
  131298   130368   130558   129047   126887   129107   132798   134222 
  135839   137234   136075   133617   132227   133305   135429   135977 
  135619   136127   136568   135715   133722   130754   127797   126706 
  128966   133498   135994   135222   134326   134424   134559   135373 
  137122   137295   134747   131527   127992   123749   122303   124233 
  124459   123464   125513   129528   133274   136148   137157   136880 
  136699   136121   134993   133902   132656   131936   131423   129393 
  127539   128544   131317   134146   136917   138927   139221   137840 
  135365   132516   129583   127126   126007   125521   125544   127286 
  129343   130847   133787   137173   138661   138550   137405   136431 
  136212   135418   134365   132709   129753   128988   131473   133654 
  134859   135738   135791   136011   136948   137448   136647   134804 
  132108   127912   124155   123425   123985   124640   126468   128028 
  128301   129940   133934   137292   138343   138352   137810   136073 
  133590   131382   129388   127380   126315   128293   133631   138117 
  139491   140333   140741   140008   139841   140366   140435   139018 
  135614   131706   129713   129949   130167   129751   130269   131332 
  132135   133447   135056   135807   135179   134115   133821   133282 
  131295   128649   126855   126262   126243   127905   131234   133253 
  134697   138534   142881   144302   142537   139428   137065   135777 
  134303   131957   128316   125055   125982   129787   131755   132131 
  133037   134222   134894   134437   134369   136024   136382   133558 
  129902   127400   126358   127692   130939   131961   130540   130958 
  132100   131963   133091   134908   135078   135787   138096   138496 
  136159   134586   134600   134211   134223   136015   136602   134167 
  132335   132567   132906   133371   133357   131531   128817   126486 
  126470   129039   130027   128224   127948   130792   133555   134844 
  136563   138488   139012   139063   139432   139051   137720   136647 
  135271   131896   128907   128876   128347   126384   127560   130774 
  132548   134644   136254   134806   132659   131468   130848   131021 
  131174   130916   130180   128914   128405   128309   127766   127881 
  129076   131560   134704   136318   136705   137026   136665   136323 
  136939   136895   134779   131996   130684   131446   133839   136378 
  137366   136729   134900   132669   131853   132622   133824   134994 
  134346   130837   127921   128432   130659   132359   132590   132025 
  133141   135757   136690   135480   134655   134561   132605   128243 
  124702   124484   126501   129099   132775   136749   138333   138229 
  138559   138434   136912   135202   134230   133012   131342   130613 
  130172   129051   129116   130686   131668   132516   134924   138456 
  141324   142057   140848   138099   134403   132398   131965   130018 
  128198   129276   130686   130675   131395   132943   133663   134507 
  135687   135772   135973   136675   135891   134096   132336   129759 
  127637   128371   129687   128849   129207   132297   133513   133132 
  136062   140321   140667   138072   135814   133326   130632   130364 
  131525   130748   128795   128695   130060   130702   131508   133425 
  133847   131649   129811   129840   130549   131893   133037   131249 
  127268   124852   125184   128221   133884   138808   139725   137316 
  133667   131205   130731   129523   126900   126274   127548   126999 
  125817   128110   132428   134453   134698   135900   137299   137115 
  136169   135504   134185   132829   132875   132360   131529   133200 
  135052   134360   133228   132696   131190   129745   130582   132637 
  134334   135911   137340   137913   137037   134457   131591   130800 
  131568   132192   133143   133987   133095   131238   130249   130169 
  130088   129544   128393   128170   130414   132189   131118   130191 
  131649   134536   137737   140456   141644   139874   135915   133836 
  135191   135832   133397   131483   131572   131199   130376   130333 
  130391   129732   128696   128328   128722   128517   127696   127494 
  127334   126424   125722   126669   129547   132646   135272   138451 
  140584   139287   136598   136324   138083   138782   137832   136474 
  134492   131469   129539   130628   132605   132394   131508   132709 
  133612   131815   129737   129654   130798   131159   131018   131884 
  132575   133261   135598   136961   135662   134674   135162   136451 
  139364   142848   143090   140205   138462   137762   135541   132221 
  129176   128449   129089   127429   125959   127955   129374   128393 
  129215   132349   134573   135218   135139   134160   131541   128463 
  127481   128004   128356   129567   132622   136657   139585   141168 
  142817   143409   142981   142496   140653   139669   141011   140134 
  135099   128532   123365   120819   118897   116127   114193   115183 
  119032   122196   122211   121759   122524   123156   124883   129735 
  134767   136260   137462   142191   146885   149269   151683   152965 
  150828   147120   144687   143753   143136   142198   140223   135615 
  126307   113490   100973    91868    90008    94662   101517   112768 
  127982   139087   145461   152281   158492   160463   158556   154225 
  146843   137605   129998   125369   123731   124594   125004   122494 
  118908   117771   120563   125982   130048   128422   120147   108719 
   99550    95554    96264   100522   107563   119155   136881   153817 
  161574   162113   160856   160235   163402   170757   176744   178093 
  176681   171830   160173   143313   126247   111481    99944    92136 
   89025    91555    96340    98703   100415   106654   117227   128387 
  140246   154095   164770   167296   166800   168096   168625   168867 
  170496   168704   161778   153746   144580   133933   125111   118949 
  113755   111029   114450   121733   127302   127920   120378   110004 
  108908   115874   121428   123893   123958   123255   130183   147268 
  162066   166702   169461   175139   176732   170725   161329   150711 
  135519   116317   102131    98751   102504   108584   116043   123871 
  130561   139128   153550   170546   183922   190333   187139   175591 
  160990   145828   131500   120177   111600   106227   108325   119819 
  135078   147737   157977   166938   171270   166606   151393   129342 
  108924    94332    81849    71898    70920    81839   102760   125147 
  140343   149616   153295   147430   135583   125562   122339   126355 
  132027   134516   134912   135947   137154   133628   122814   108922 
   97366    96573   113636   138283   153955   156528   149207   137762 
  128773   124873   125643   129690   133585   135330   138134   141953 
  143787   146218   148394   145011   138333   133195   128888   123603 
  118901   116530   113904   107829   101366   102402   113629   127408 
  136452   142119   144481   139638   132383   132394   140298   148298 
  148655   143600   141922   144921   150056   156163   158753   154668 
  147059   140008   134773   133601   136732   135804   126218   116912 
  114704   115731   116170   114885   111696   110250   113132   117992 
  122970   128821   134833   139554   144991   150785   151443   147607 
  146294   147879   147553   145467   142442   135799   126777   119574 
  115501   116424   124440   134981   139900   138202   135245   132086 
  126646   119349   109490    99131    97060   106921   123087   139552 
  152483   158639   156558   149613   144298   142635   141593   137798 
  130125   121680   116059   112702   110355   109019   107923   108985 
  116213   125560   129080   130572   139185   153428   165960   173137 
  172223   161323   145230   130076   117105   108297   104739   104525 
  110493   123853   137461   148039   157979   166459   171620   173676 
  172777   168362   161644   154676   145002   131822   123059   122152 
  122453   120992   119411   116951   114320   113165   111396   107580 
  102637    97127    93359    93167    94657    97854   104350   112175 
  121068   132464   142007   145092   144008   143644   145615   148085 
  149488   148810   146011   144875   146925   145543   136352   125622 
  121119   124518   133400   143272   149499   150111   147413   145114 
  143695   140502   134550   129147   127089   127183   125259   118408 
  111736   111626   115096   118301   124285   133326   138245   136638 
  135557   137955   139234   138688   140377   145257   150556   153571 
  152606   147675   141754   139132   141060   142636   139403   135172 
  133166   129729   125024   123209   124074   126742   130913   134040 
  135553   137124   138015   136459   133668   130983   125929   119187 
  116264   115268   110602   106365   107271   110056   113944   121813 
  132032   140890   147336   151923   154971   156718   156790   153295 
  147282   142560   139085   136853   137579   138165   135770   132364 
  130192   130603   132452   133087   132370   130432   126558   122156 
  121362   126049   132043   135873   138527   141409   145179   148475 
  148518   144317   136975   129120   123572   120924   120052   119719 
  118069   115099   113479   113778   116472   123722   131484   132430 
  128374   126076   126770   128362   130536   134420   139098   142277 
  145083   149505   154005   158274   164562   168798   163440   150614 
  136938   124399   114988   109437   106959   109291   113575   115604 
  118762   124605   130258   135225   138543   138252   134994   131931 
  131928   134280   136918   140433   144275   145270   144378   144252 
  144583   146410   148568   147004   142869   138933   136107   136192 
  139523   143179   142757   138046   134254   133065   131880   130157 
  127399   122771   118932   118110   119284   121587   123643   124270 
  125007   126733   128989   131693   134558   138094   141335   142138 
  141659   140594   138593   136113   131652   127508   129213   134902 
  139569   142958   145193   144489   140711   136402   134311   133509 
  131382   128711   127226   126381   125231   123859   122593   122187 
  125140   132062   138537   141366   140796   135931   128104   122446 
  120299   120179   122701   127380   132264   135810   137331   138636 
  140201   139056   134958   131653   131548   133724   135117   134034 
  133775   137004   140418   140841   138902   137201   138518   141593 
  143032   142325   139112   133683   129676   128849   128610   127271 
  125757   123930   122262   122860   123889   123483   123948   124603 
  123939   124429   125498   123784   120598   119658   121198   123375 
  126153   129205   130449   130415   132054   135486   137871   139176 
  141804   143117   140614   138778   137845   133471   128696   126613 
  124124   121446   121945   124630   126022   125192   123979   124353 
  126320   128729   132367   138912   146149   150030   150531   149141 
  145611   142334   142811   145407   147463   148419   147164   144308 
  140786   135857   132101   132348   133775   133463   132490   131822 
  129859   125334   120819   119022   118524   117954   118207   120159 
  123566   126809   128929   130852   133203   134809   135437   137469 
  141137   143517   143785   142396   138724   133965   129621   124983 
  121780   122995   126522   129038   131130   134406   137506   137457 
  135275   133817   132297   130395   129421   128038   125622   124677 
  126422   130216   135081   139789   143338   144663   143878   142437 
  141070   139355   136513   133537   132713   134145   136170   137164 
  136806   137789   141955   146890   150558   152751   152289   148760 
  144466   142238   141832   140888   140004   140784   140297   135467 
  129629   126975   126690   128046   130821   131438   128421   124811 
  122237   119693   117147   116095   116640   117973   121381   127202 
  131980   132946   131334   129942   129359   128628   128652   130364 
  132759   136182   141812   147442   149667   148757   146094   141120 
  136061   134609   134613   133161   131928   130239   125552   120280 
  116789   114320   114593   118046   120931   122586   124233   124379 
  122098   118692   116795   118277   122060   125467   125782   123132 
  120803   120375   121555   124027   127167   131028   135669   140051 
