Origin Time       2024/04/02 04:24:00
Lat.              40.133
Long.             141.712
Depth. (km)       71
Mag.              6.0
Station Code      AOMH18
Station Lat.      40.2962
Station Long.     141.0145
Station Height(m) 235
Record Time       2024/04/02 04:24:51
Sampling Freq(Hz) 100Hz
Duration Time(s)  133
Dir.              6
Scale Factor      3920(gal)/6170801
Max. Acc. (gal)   36.348
Last Correction   2024/04/02 04:24:36
Memo.             
[...]
  -39968   -39954   -39945   -39956   -39965   -39959   -39955   -39953 
  -39950   -39956   -39960   -39956   -39956   -39956   -39954   -39956 
  -39958   -39958   -39958   -39956   -39953   -39957   -39960   -39954 
  -39951   -39953   -39957   -39961   -39961   -39955   -39952   -39959 
  -39963   -39958   -39958   -39961   -39958   -39953   -39953   -39957 
  -39959   -39961   -39961   -39957   -39954   -39956   -39959   -39955 
  -39953   -39958   -39963   -39963   -39958   -39952   -39950   -39956 
  -39963   -39967   -39960   -39950   -39952   -39956   -39958   -39961 
  -39960   -39952   -39950   -39957   -39963   -39962   -39959   -39955 
  -39952   -39954   -39957   -39956   -39954   -39957   -39959   -39955 
  -39950   -39953   -39959   -39960   -39956   -39951   -39957   -39962 
  -39955   -39950   -39957   -39960   -39955   -39956   -39960   -39957 
  -39955   -39958   -39957   -39950   -39954   -39961   -39959   -39956 
  -39956   -39954   -39950   -39951   -39960   -39963   -39954   -39949 
  -39952   -39957   -39962   -39961   -39954   -39952   -39953   -39955 
  -39958   -39957   -39956   -39956   -39956   -39954   -39953   -39956 
  -39958   -39953   -39952   -39957   -39957   -39955   -39957   -39958 
  -39952   -39954   -39962   -39960   -39952   -39951   -39954   -39955 
  -39957   -39959   -39960   -39957   -39954   -39954   -39957   -39960 
  -39957   -39955   -39960   -39961   -39952   -39948   -39954   -39960 
  -39959   -39955   -39951   -39951   -39955   -39959   -39958   -39953 
  -39954   -39955   -39955   -39957   -39957   -39952   -39953   -39958 
  -39956   -39955   -39959   -39959   -39956   -39954   -39956   -39960 
  -39959   -39952   -39951   -39958   -39960   -39958   -39959   -39954 
  -39948   -39955   -39966   -39960   -39951   -39954   -39955   -39953 
  -39955   -39959   -39959   -39959   -39959   -39953   -39951   -39957 
  -39961   -39960   -39957   -39952   -39953   -39959   -39959   -39956 
  -39956   -39956   -39958   -39959   -39954   -39949   -39953   -39963 
  -39963   -39958   -39957   -39956   -39952   -39955   -39960   -39959 
  -39956   -39955   -39953   -39952   -39955   -39960   -39961   -39953 
  -39950   -39961   -39961   -39951   -39952   -39957   -39955   -39954 
  -39954   -39949   -39951   -39957   -39957   -39953   -39954   -39956 
  -39955   -39953   -39953   -39954   -39957   -39956   -39948   -39945 
  -39952   -39961   -39963   -39955   -39948   -39951   -39957   -39958 
  -39957   -39958   -39957   -39957   -39956   -39954   -39955   -39957 
  -39954   -39954   -39958   -39959   -39957   -39959   -39960   -39956 
  -39957   -39962   -39960   -39952   -39948   -39951   -39961   -39966 
  -39955   -39947   -39955   -39962   -39958   -39952   -39952   -39957 
  -39964   -39963   -39954   -39946   -39951   -39963   -39964   -39958 
  -39954   -39952   -39955   -39960   -39960   -39955   -39954   -39958 
  -39958   -39955   -39956   -39957   -39957   -39953   -39949   -39956 
  -39963   -39958   -39953   -39953   -39954   -39957   -39959   -39955 
  -39953   -39953   -39955   -39960   -39960   -39953   -39950   -39955 
  -39959   -39961   -39958   -39951   -39950   -39956   -39957   -39957 
  -39959   -39955   -39949   -39953   -39961   -39962   -39954   -39947 
  -39949   -39958   -39964   -39961   -39953   -39949   -39950   -39955 
  -39958   -39957   -39956   -39956   -39956   -39954   -39951   -39953 
  -39958   -39964   -39962   -39956   -39953   -39948   -39947   -39956 
  -39963   -39961   -39957   -39953   -39949   -39950   -39957   -39963 
  -39959   -39952   -39950   -39953   -39955   -39958   -39958   -39958 
  -39954   -39948   -39951   -39957   -39959   -39958   -39955   -39954 
  -39951   -39949   -39954   -39958   -39955   -39956   -39961   -39958 
  -39950   -39948   -39955   -39958   -39956   -39957   -39957   -39954 
  -39954   -39955   -39953   -39954   -39954   -39955   -39958   -39959 
  -39956   -39953   -39953   -39954   -39954   -39958   -39961   -39955 
  -39952   -39957   -39956   -39954   -39957   -39959   -39955   -39953 
  -39953   -39953   -39956   -39959   -39958   -39950   -39949   -39959 
  -39964   -39955   -39949   -39953   -39954   -39954   -39958   -39954 
  -39951   -39956   -39957   -39954   -39954   -39956   -39954   -39954 
  -39957   -39954   -39952   -39955   -39956   -39956   -39955   -39954 
  -39957   -39957   -39951   -39949   -39954   -39958   -39959   -39961 
  -39953   -39947   -39953   -39958   -39960   -39961   -39957   -39949 
  -39950   -39958   -39954   -39949   -39955   -39955   -39950   -39952 
  -39956   -39958   -39958   -39952   -39948   -39955   -39962   -39959 
  -39955   -39954   -39953   -39955   -39956   -39953   -39953   -39957 
  -39959   -39958   -39957   -39955   -39954   -39957   -39959   -39955 
  -39952   -39953   -39957   -39959   -39957   -39953   -39954   -39956 
  -39955   -39953   -39955   -39956   -39956   -39957   -39954   -39952 
  -39959   -39959   -39950   -39950   -39957   -39958   -39959   -39957 
  -39951   -39949   -39954   -39961   -39962   -39956   -39950   -39950 
  -39955   -39959   -39957   -39952   -39952   -39955   -39956   -39953 
  -39953   -39959   -39959   -39954   -39951   -39953   -39958   -39957 
  -39953   -39956   -39959   -39958   -39952   -39950   -39954   -39956 
  -39956   -39959   -39959   -39954   -39952   -39954   -39952   -39956 
  -39962   -39957   -39952   -39954   -39958   -39961   -39960   -39953 
  -39948   -39952   -39962   -39964   -39957   -39950   -39947   -39951 
  -39958   -39959   -39962   -39959   -39947   -39948   -39958   -39962 
  -39963   -39955   -39946   -39951   -39957   -39956   -39959   -39960 
  -39951   -39946   -39950   -39955   -39960   -39962   -39954   -39947 
  -39952   -39959   -39958   -39954   -39954   -39955   -39957   -39957 
  -39952   -39948   -39951   -39957   -39960   -39960   -39956   -39946 
  -39944   -39956   -39963   -39957   -39956   -39958   -39954   -39950 
  -39953   -39959   -39960   -39956   -39950   -39950   -39956   -39958 
  -39956   -39957   -39957   -39953   -39951   -39954   -39956   -39961 
  -39965   -39955   -39946   -39953   -39960   -39955   -39949   -39955 
  -39959   -39953   -39950   -39956   -39958   -39955   -39956   -39958 
  -39953   -39950   -39951   -39954   -39957   -39956   -39954   -39953 
  -39956   -39957   -39957   -39959   -39958   -39956   -39958   -39959 
  -39956   -39954   -39954   -39958   -39958   -39952   -39950   -39955 
  -39957   -39954   -39955   -39954   -39954   -39955   -39951   -39948 
  -39955   -39961   -39958   -39956   -39954   -39950   -39950   -39957 
  -39964   -39962   -39952   -39948   -39955   -39959   -39955   -39953 
  -39953   -39954   -39955   -39952   -39953   -39959   -39957   -39955 
  -39958   -39955   -39952   -39960   -39963   -39951   -39947   -39956 
  -39959   -39953   -39956   -39959   -39952   -39951   -39959   -39957 
  -39951   -39958   -39965   -39957   -39950   -39953   -39956   -39956 
  -39954   -39953   -39957   -39960   -39955   -39952   -39956   -39955 
  -39952   -39957   -39958   -39953   -39954   -39961   -39960   -39951 
  -39950   -39959   -39961   -39954   -39953   -39956   -39958   -39958 
  -39954   -39952   -39956   -39961   -39962   -39954   -39947   -39951 
  -39958   -39957   -39954   -39957   -39957   -39950   -39953   -39959 
  -39957   -39958   -39958   -39949   -39951   -39958   -39958   -39961 
  -39962   -39952   -39946   -39953   -39959   -39955   -39953   -39955 
  -39952   -39951   -39956   -39958   -39957   -39956   -39953   -39955 
  -39959   -39958   -39956   -39955   -39951   -39951   -39961   -39962 
  -39953   -39950   -39950   -39952   -39962   -39965   -39952   -39946 
  -39953   -39961   -39962   -39956   -39949   -39950   -39954   -39957 
  -39963   -39961   -39948   -39946   -39958   -39959   -39953   -39954 
  -39955   -39955   -39957   -39954   -39948   -39947   -39955   -39957 
  -39955   -39956   -39951   -39947   -39955   -39962   -39962   -39955 
  -39944   -39948   -39963   -39963   -39952   -39947   -39952   -39961 
  -39960   -39950   -39946   -39953   -39960   -39957   -39952   -39953 
  -39952   -39953   -39955   -39952   -39952   -39958   -39955   -39951 
  -39960   -39959   -39949   -39950   -39954   -39957   -39960   -39952 
  -39944   -39950   -39960   -39959   -39953   -39953   -39954   -39951 
  -39950   -39956   -39964   -39964   -39954   -39938   -39937   -39958 
  -39975   -39970   -39951   -39938   -39947   -39967   -39969   -39958 
  -39952   -39949   -39949   -39953   -39956   -39960   -39959   -39951 
  -39947   -39948   -39951   -39954   -39959   -39960   -39954   -39952 
  -39956   -39957   -39956   -39953   -39949   -39955   -39961   -39954 
  -39947   -39952   -39958   -39957   -39953   -39952   -39955   -39954 
  -39952   -39953   -39955   -39954   -39949   -39949   -39953   -39954 
  -39951   -39949   -39950   -39953   -39953   -39953   -39952   -39952 
  -39954   -39954   -39952   -39953   -39955   -39958   -39960   -39955 
  -39948   -39949   -39957   -39964   -39959   -39946   -39944   -39955 
  -39961   -39954   -39951   -39955   -39956   -39958   -39954   -39946 
  -39951   -39960   -39957   -39954   -39953   -39947   -39950   -39960 
  -39960   -39957   -39953   -39948   -39953   -39961   -39958   -39952 
  -39953   -39957   -39956   -39956   -39959   -39956   -39952   -39952 
  -39955   -39957   -39960   -39958   -39954   -39954   -39953   -39954 
  -39959   -39958   -39951   -39951   -39958   -39960   -39958   -39955 
  -39952   -39953   -39954   -39951   -39952   -39960   -39964   -39954 
  -39944   -39949   -39958   -39962   -39960   -39951   -39949   -39956 
  -39956   -39953   -39953   -39954   -39957   -39957   -39950   -39950 
  -39954   -39952   -39955   -39960   -39956   -39950   -39949   -39952 
  -39956   -39959   -39957   -39950   -39948   -39951   -39956   -39958 
  -39954   -39951   -39956   -39960   -39956   -39953   -39952   -39953 
  -39959   -39957   -39948   -39949   -39958   -39957   -39952   -39952 
  -39950   -39951   -39958   -39962   -39955   -39949   -39951   -39957 
  -39961   -39960   -39953   -39948   -39955   -39961   -39956   -39953 
  -39953   -39953   -39954   -39955   -39954   -39953   -39952   -39948 
  -39953   -39959   -39956   -39954   -39955   -39950   -39948   -39958 
  -39964   -39960   -39952   -39946   -39948   -39957   -39962   -39962 
  -39957   -39951   -39951   -39954   -39955   -39956   -39955   -39955 
  -39956   -39955   -39952   -39953   -39954   -39952   -39953   -39953 
  -39951   -39952   -39955   -39956   -39955   -39952   -39953   -39954 
  -39951   -39953   -39959   -39958   -39953   -39952   -39951   -39952 
  -39955   -39955   -39952   -39954   -39958   -39958   -39954   -39950 
  -39950   -39954   -39959   -39958   -39953   -39947   -39949   -39953 
  -39955   -39956   -39957   -39954   -39949   -39951   -39958   -39959 
  -39956   -39956   -39957   -39953   -39949   -39952   -39955   -39954 
  -39956   -39956   -39951   -39955   -39959   -39955   -39950   -39949 
  -39951   -39957   -39960   -39955   -39948   -39950   -39958   -39957 
  -39954   -39951   -39950   -39958   -39965   -39959   -39951   -39950 
  -39953   -39954   -39956   -39959   -39958   -39953   -39947   -39948 
  -39955   -39956   -39955   -39956   -39953   -39952   -39955   -39956 
  -39958   -39960   -39956   -39953   -39954   -39956   -39954   -39952 
  -39956   -39958   -39955   -39953   -39954   -39955   -39956   -39955 
  -39953   -39955   -39956   -39958   -39961   -39958   -39951   -39952 
  -39957   -39958   -39954   -39951   -39952   -39959   -39961   -39952 
  -39945   -39952   -39961   -39962   -39958   -39951   -39949   -39955 
  -39957   -39957   -39962   -39958   -39951   -39954   -39956   -39955 
  -39958   -39959   -39956   -39955   -39954   -39952   -39957   -39961 
  -39957   -39952   -39955   -39962   -39963   -39956   -39950   -39953 
  -39957   -39959   -39961   -39959   -39952   -39952   -39956   -39955 
  -39954   -39956   -39958   -39957   -39958   -39954   -39952   -39956 
  -39960   -39960   -39956   -39952   -39953   -39957   -39958   -39957 
  -39954   -39951   -39953   -39956   -39955   -39956   -39956   -39955 
  -39956   -39957   -39957   -39959   -39959   -39955   -39957   -39959 
  -39955   -39952   -39951   -39955   -39959   -39957   -39951   -39947 
  -39946   -39935   -39918   -39909   -39893   -39854   -39798   -39719 
  -39600   -39418   -39153   -38798   -38365   -37876   -37391   -37009 
  -36836   -36945   -37363   -38083   -39122   -40531   -42198   -43609 
  -44081   -43293   -41578   -39945   -39631   -40867   -42132   -41427 
  -38409   -34885   -33801   -37305   -44008   -48951   -47261   -37737 
  -25333   -19229   -24314   -35622   -43432   -42398   -35216   -29942 
  -32806   -41477   -48575   -50197   -48121   -47185   -49801   -52837 
  -52918   -50978   -48332   -43737   -37853   -35564   -41500   -53606 
  -60963   -52888   -31552   -11863    -7109   -17179   -33732   -47697 
  -49137   -35965   -21036   -17396   -24701   -36011   -45247   -47634 
  -47040   -54803   -69347   -75077   -63134   -36084    -6989      519 
  -24754   -61780   -77671   -61067   -30432   -11689   -10985   -21658 
  -39153   -50572   -44160   -31706   -28602   -27526   -19579   -15602 
  -20916   -31773   -57414   -88351   -89638   -64201   -47645   -45906 
  -46085   -50050   -52346   -38569   -24814   -39095   -70401   -85721 
  -70422   -32167     2486     6937   -16356   -43931   -58542   -63421 
  -69512   -69039   -45528    -5832    17263     -995   -45976   -80435 
  -79736   -47598   -20202   -31730   -62954   -66927   -34840     3304 
   12379   -21590   -65673   -68058   -27983      115   -17221   -47857 
  -49524   -29488   -25047   -53964   -91238   -96805   -62487   -19469 
   -8733   -33563   -52140   -44265   -37257   -46785   -47781   -18756 
   16732    13504   -36224   -82306   -74487   -29644    -3377   -17498 
  -51500   -74859   -65277   -32118   -20131   -40451   -48477   -33789 
  -34864   -55421   -65478   -59854   -49521   -37554   -30726   -29719 
  -22288   -10757   -10202   -30021   -62998   -76310   -47558    -6568 
   -2272   -31155   -51406   -58616   -63125   -50182   -27973   -21357 
  -26253   -38318   -62260   -78959   -66984   -36846   -15081   -19115 
  -45157   -65910   -63606   -53357   -42110   -20318    -6824   -23815 
  -52227   -66181   -62425   -41699   -13909    -7713   -31455   -57685 
  -67226   -62657   -43813   -18083    -9502   -22586   -39070   -53333 
  -62584   -54006   -32187   -17691   -18586   -29865   -45216   -57895 
  -58623   -43012   -21676    -7258    -3218   -17673   -54678   -88466 
  -83344   -42467    -7390    -6651   -30694   -52835   -58234   -53110 
  -47225   -40820   -33301   -27686   -29415   -43533   -60106   -57640 
  -34177   -15761   -24247   -50647   -70287   -70517   -54562   -31951 
  -15853   -18887   -37730   -55210   -59801   -48197   -26315   -15062 
  -28722   -50710   -56318   -47252   -41675   -42947   -38343   -27226 
  -25446   -38688   -55886   -59508   -38152   -11504   -17509   -54261 
  -77255   -60451   -23290    -2567   -14431   -40509   -51841   -44784 
  -39461   -43072   -43376   -37504   -34916   -39453   -45822   -46611 
  -41245   -36718   -36818   -37031   -33721   -34208   -45586   -54972 
  -48470   -37861   -37890   -45383   -50005   -44022   -32145   -28338 
  -36786   -47464   -45732   -28717   -14503   -21788   -44400   -61476 
  -63341   -51641   -34982   -29460   -39452   -49563   -45740   -33399 
  -29337   -37671   -47279   -47334   -37536   -29774   -33419   -45669 
  -58464   -59349   -42080   -22867   -20499   -32012   -45761   -56047 
  -55055   -36208   -15876   -18773   -39626   -54855   -54718   -40706 
  -22069   -19019   -35894   -48551   -44876   -41990   -49783   -54450 
  -42404   -19589    -8595   -26336   -57548   -71488   -63078   -44683 
  -26924   -25657   -44406   -63061   -64489   -47611   -22834    -8799 
  -17446   -37773   -48996   -48759   -48029   -44009   -29230   -15159 
  -14081   -24201   -44420   -65079   -65704   -46244   -25583   -18481 
  -27547   -40217   -47302   -51663   -50580   -44243   -41556   -43765 
  -47852   -52224   -52146   -42856   -27337   -18352   -27645   -49452 
  -62129   -55673   -41116   -27930   -20160   -25225   -42804   -59422 
  -62020   -49677   -34252   -25069   -17740   -14788   -28054   -45583 
  -48584   -49166   -58008   -60032   -50836   -41502   -31651   -23608 
  -33905   -54543   -53737   -37113   -33352   -35523   -32250   -33529 
  -36808   -38054   -44156   -46511   -37315   -34064   -43757   -43281 
  -26274   -17331   -26343   -42096   -57331   -62655   -50123   -34667 
  -33987   -40992   -42902   -42390   -45390   -47191   -42790   -36524 
  -33759   -36009   -41612   -45866   -43138   -34091   -28715   -31458 
  -38097   -47763   -55110   -50272   -40439   -39131   -39689   -32081 
  -24854   -29718   -41834   -48271   -47368   -42549   -36162   -36744 
  -42974   -40296   -29968   -28903   -40121   -51631   -56569   -51933 
  -37602   -25529   -25211   -31036   -36931   -43443   -48473   -47352 
  -40426   -32628   -30481   -37678   -47162   -46840   -36575   -29443 
  -33330   -40812   -44335   -45264   -42587   -36755   -36671   -43022 
  -46690   -47499   -48994   -46157   -36527   -29505   -33662   -42977 
  -47212   -45508   -41940   -41497   -45433   -47490   -42272   -32775 
  -29166   -36470   -47428   -52067   -45512   -33508   -27613   -28978 
  -31541   -35416   -43041   -49408   -48740   -43964   -37359   -28734 
  -27380   -40274   -54708   -55352   -43830   -29061   -18385   -19546 
  -33682   -51184   -61231   -57840   -41476   -24744   -22681   -33423 
  -46584   -55665   -52597   -38321   -28736   -32047   -39766   -42152 
  -39918   -38545   -38532   -38842   -40473   -41609   -39337   -38023 
  -43437   -48814   -44423   -33960   -28614   -34379   -46199   -53969 
  -53374   -44689   -33064   -29797   -35727   -37915   -34435   -35723 
  -43155   -51278   -53254   -40140   -19747   -16523   -36553   -58010 
  -60324   -45515   -30440   -28907   -40333   -50412   -48680   -41226 
  -38157   -40486   -42803   -40472   -34171   -29120   -31855   -42394 
  -50050   -47425   -38608   -30384   -29307   -39122   -50581   -46913 
  -29262   -20998   -33024   -48208   -51207   -44525   -37766   -40057 
  -49826   -52666   -41113   -28331   -30761   -43156   -49386   -46636 
  -40437   -33824   -30234   -33280   -40490   -46429   -49722   -48247 
  -41466   -37683   -41256   -44423   -41213   -35919   -34298   -37928 
  -45332   -48166   -41334   -35672   -38852   -43385   -42847   -37879 
  -31589   -28321   -31947   -41030   -46581   -43604   -37576   -32992 
  -29935   -30193   -34900   -40687   -44522   -47202   -49088   -47264 
  -39667   -32720   -34708   -41312   -43955   -42715   -40912   -39553 
  -39079   -39704   -39716   -38666   -40453   -45319   -46277   -41802 
  -37961   -36765   -37278   -38466   -36356   -31831   -32296   -39485 
  -48186   -51875   -46962   -38759   -34677   -35993   -41745   -46987 
  -45263   -39284   -35858   -36373   -38483   -40485   -42738   -44826 
  -46174   -46331   -41468   -32794   -28550   -30595   -35789   -41093 
  -42018   -38858   -35905   -34974   -37449   -43444   -49082   -49973 
  -45163   -37022   -29280   -28804   -40938   -57104   -62023   -50851 
