Origin Time       2024/04/02 04:24:00
Lat.              40.133
Long.             141.712
Depth. (km)       71
Mag.              6.0
Station Code      AOMH07
Station Lat.      40.7451
Station Long.     140.0233
Station Height(m) -74
Record Time       2024/04/02 04:25:02
Sampling Freq(Hz) 100Hz
Duration Time(s)  130
Dir.              3
Scale Factor      3923(gal)/8224838
Max. Acc. (gal)   0.660
Last Correction   2024/04/02 04:25:02
Memo.             
[...]
   21115    21114    21112    21112    21112    21115    21116    21114 
   21114    21116    21116    21116    21119    21116    21114    21112 
   21114    21114    21115    21114    21111    21111    21112    21115 
   21114    21111    21114    21116    21114    21112    21115    21116 
   21115    21111    21109    21112    21114    21114    21114    21114 
   21116    21115    21111    21114    21116    21115    21114    21114 
   21115    21115    21114    21114    21114    21115    21115    21116 
   21115    21114    21116    21118    21114    21112    21115    21115 
   21114    21115    21115    21114    21111    21111    21115    21115 
   21111    21114    21116    21114    21114    21116    21115    21115 
   21115    21112    21112    21115    21112    21114    21118    21116 
   21115    21115    21112    21114    21115    21115    21116    21115 
   21112    21112    21114    21112    21112    21116    21114    21111 
   21112    21112    21114    21115    21116    21114    21114    21116 
   21115    21111    21115    21116    21114    21115    21116    21112 
   21114    21116    21116    21116    21115    21115    21114    21109 
   21112    21114    21112    21112    21114    21114    21114    21115 
   21118    21116    21114    21116    21116    21114    21114    21115 
   21115    21115    21114    21114    21115    21115    21114    21115 
   21116    21115    21115    21114    21112    21114    21114    21115 
   21116    21114    21115    21115    21111    21114    21116    21115 
   21112    21112    21115    21116    21114    21112    21112    21114 
   21115    21115    21111    21109    21112    21112    21114    21115 
   21114    21112    21112    21109    21111    21114    21112    21112 
   21114    21114    21112    21111    21111    21112    21112    21115 
   21115    21114    21114    21115    21115    21115    21116    21115 
   21114    21116    21116    21112    21112    21114    21115    21116 
   21116    21115    21114    21115    21115    21115    21116    21118 
   21119    21115    21114    21115    21115    21114    21115    21116 
   21118    21116    21114    21115    21116    21115    21116    21118 
   21114    21116    21119    21116    21118    21118    21114    21115 
   21119    21116    21115    21114    21111    21114    21115    21114 
   21114    21116    21116    21112    21112    21115    21114    21114 
   21116    21115    21114    21112    21112    21114    21111    21114 
   21115    21112    21114    21116    21116    21114    21112    21111 
   21112    21115    21115    21114    21115    21115    21111    21109 
   21114    21116    21115    21116    21118    21116    21115    21115 
   21118    21119    21116    21115    21118    21119    21115    21114 
   21116    21115    21116    21116    21114    21114    21115    21114 
   21115    21116    21114    21112    21115    21116    21114    21115 
   21115    21112    21112    21114    21112    21111    21112    21115 
   21118    21116    21115    21116    21114    21108    21111    21116 
   21115    21114    21116    21118    21115    21112    21114    21115 
   21115    21116    21118    21114    21111    21114    21114    21114 
   21115    21114    21115    21118    21115    21114    21114    21112 
   21112    21114    21115    21115    21112    21115    21116    21114 
   21115    21115    21111    21112    21115    21114    21115    21118 
   21118    21114    21112    21114    21112    21112    21112    21112 
   21116    21116    21114    21115    21114    21114    21114    21115 
   21114    21111    21114    21116    21112    21111    21115    21116 
   21115    21114    21114    21111    21111    21112    21111    21112 
   21115    21115    21118    21118    21114    21115    21116    21116 
   21116    21114    21111    21114    21118    21115    21111    21112 
   21114    21111    21114    21118    21114    21111    21115    21115 
   21114    21112    21115    21116    21112    21114    21118    21116 
   21114    21112    21116    21116    21114    21116    21116    21112 
   21114    21118    21116    21116    21116    21112    21112    21115 
   21115    21115    21115    21116    21116    21115    21115    21115 
   21116    21118    21118    21115    21116    21116    21114    21115 
   21116    21116    21115    21114    21118    21118    21115    21116 
   21116    21116    21115    21114    21115    21115    21118    21116 
   21114    21116    21116    21114    21114    21116    21118    21112 
   21112    21119    21118    21114    21114    21112    21114    21115 
   21116    21116    21115    21116    21116    21114    21115    21114 
   21114    21118    21116    21114    21114    21115    21115    21112 
   21112    21114    21112    21114    21116    21115    21111    21112 
   21115    21116    21116    21114    21111    21112    21114    21112 
   21112    21114    21114    21114    21114    21114    21114    21115 
   21116    21116    21115    21111    21109    21114    21115    21115 
   21116    21112    21108    21114    21116    21112    21114    21116 
   21116    21114    21112    21115    21115    21115    21115    21114 
   21112    21114    21116    21119    21115    21115    21116    21116 
   21115    21114    21114    21116    21115    21111    21114    21116 
   21115    21112    21114    21115    21115    21114    21115    21115 
   21115    21116    21115    21114    21115    21114    21115    21118 
   21118    21116    21118    21115    21115    21120    21118    21112 
   21116    21120    21116    21114    21116    21118    21112    21114 
   21120    21120    21115    21115    21119    21119    21118    21116 
   21115    21116    21116    21115    21112    21114    21115    21112 
   21112    21115    21115    21115    21115    21115    21112    21111 
   21112    21116    21118    21116    21114    21112    21115    21118 
   21115    21115    21115    21115    21119    21116    21111    21114 
   21116    21116    21118    21116    21114    21114    21115    21115 
   21114    21115    21118    21118    21115    21115    21116    21118 
   21119    21119    21115    21115    21118    21112    21109    21119 
   21122    21116    21116    21118    21115    21112    21115    21118 
   21116    21116    21114    21112    21114    21115    21116    21116 
   21114    21114    21118    21119    21114    21114    21119    21115 
   21111    21115    21114    21112    21114    21111    21111    21115 
   21115    21115    21115    21116    21118    21115    21114    21115 
   21114    21112    21119    21120    21112    21112    21118    21116 
   21115    21115    21112    21112    21115    21114    21114    21115 
   21114    21114    21115    21112    21112    21115    21114    21115 
   21114    21114    21115    21114    21114    21116    21115    21115 
   21118    21115    21109    21112    21115    21111    21114    21118 
   21115    21114    21114    21114    21116    21115    21114    21116 
   21115    21112    21114    21114    21112    21115    21112    21111 
   21115    21115    21111    21111    21115    21115    21114    21111 
   21109    21114    21114    21112    21112    21115    21116    21115 
   21115    21116    21115    21115    21116    21115    21112    21112 
   21112    21112    21114    21116    21115    21115    21115    21115 
   21116    21112    21112    21118    21118    21116    21118    21114 
   21112    21116    21116    21115    21116    21112    21112    21118 
   21118    21115    21116    21114    21114    21119    21116    21114 
   21115    21116    21116    21116    21112    21112    21118    21119 
   21115    21114    21115    21114    21112    21114    21114    21115 
   21115    21114    21115    21116    21114    21115    21116    21115 
   21115    21116    21115    21115    21114    21111    21112    21118 
   21116    21115    21116    21116    21116    21116    21116    21116 
   21114    21115    21116    21115    21115    21115    21114    21115 
   21115    21118    21116    21114    21115    21116    21114    21114 
   21115    21114    21114    21112    21109    21111    21114    21116 
   21116    21114    21112    21112    21115    21116    21112    21111 
   21112    21114    21114    21114    21115    21114    21112    21115 
   21115    21112    21114    21116    21115    21112    21111    21112 
   21115    21116    21114    21112    21114    21115    21112    21112 
   21112    21111    21114    21118    21115    21112    21115    21115 
   21111    21114    21119    21116    21112    21115    21116    21115 
   21115    21114    21115    21115    21115    21118    21115    21109 
   21114    21116    21114    21115    21116    21114    21115    21116 
   21114    21112    21116    21116    21111    21114    21118    21114 
   21111    21114    21116    21114    21115    21116    21112    21111 
   21115    21118    21115    21115    21116    21115    21112    21112 
   21116    21116    21115    21118    21118    21115    21116    21115 
   21112    21118    21115    21111    21116    21118    21114    21112 
   21115    21115    21114    21112    21112    21112    21114    21114 
   21116    21116    21114    21112    21116    21116    21116    21115 
   21114    21114    21112    21115    21116    21112    21115    21118 
   21115    21114    21115    21114    21114    21115    21114    21115 
   21114    21114    21115    21115    21116    21118    21115    21115 
   21115    21114    21114    21118    21114    21111    21115    21116 
   21114    21112    21111    21111    21114    21115    21116    21114 
   21111    21112    21114    21114    21111    21111    21111    21112 
   21114    21112    21109    21112    21115    21114    21112    21114 
   21118    21116    21112    21114    21115    21114    21114    21112 
   21112    21116    21118    21115    21115    21115    21115    21115 
   21118    21118    21116    21116    21114    21114    21116    21115 
   21115    21115    21116    21118    21116    21112    21116    21118 
   21114    21114    21114    21114    21115    21118    21115    21114 
   21114    21114    21116    21116    21114    21114    21115    21116 
   21115    21115    21116    21114    21111    21115    21114    21114 
   21116    21115    21112    21112    21114    21114    21115    21115 
   21114    21112    21112    21115    21115    21115    21116    21115 
   21112    21114    21115    21114    21115    21115    21116    21115 
   21114    21116    21115    21111    21115    21115    21112    21112 
   21114    21115    21116    21112    21109    21114    21116    21115 
   21115    21115    21112    21111    21114    21115    21114    21115 
   21115    21114    21116    21119    21115    21112    21112    21112 
   21114    21114    21112    21114    21115    21115    21115    21114 
   21114    21116    21115    21114    21118    21118    21114    21112 
   21115    21119    21118    21114    21114    21115    21112    21114 
   21116    21114    21112    21112    21112    21116    21116    21115 
   21116    21116    21118    21115    21111    21114    21115    21111 
   21114    21116    21114    21114    21115    21114    21112    21116 
   21115    21111    21114    21116    21115    21115    21112    21109 
   21114    21116    21115    21112    21112    21115    21116    21116 
   21115    21114    21112    21112    21116    21118    21114    21114 
   21116    21115    21114    21116    21115    21112    21115    21116 
   21115    21114    21114    21112    21115    21114    21114    21116 
   21115    21112    21114    21114    21112    21112    21114    21115 
   21115    21112    21111    21111    21112    21112    21114    21115 
   21115    21114    21115    21114    21112    21112    21112    21111 
   21111    21109    21111    21114    21112    21109    21111    21112 
   21114    21114    21114    21115    21115    21114    21116    21115 
   21115    21118    21116    21114    21115    21112    21115    21116 
   21114    21115    21118    21118    21115    21116    21119    21122 
   21123    21124    21126    21126    21128    21128    21128    21132 
   21135    21132    21128    21124    21119    21112    21109    21112 
   21118    21128    21146    21162    21168    21169    21166    21155 
   21145    21146    21151    21165    21188    21212    21231    21246 
   21244    21235    21226    21217    21211    21213    21220    21234 
   21246    21249    21250    21247    21239    21238    21244    21265 
   21298    21328    21343    21340    21319    21280    21232    21195 
   21178    21185    21220    21273    21323    21367    21394    21394 
   21369    21328    21266    21189    21109    21045    21004    20983 
   20977    20997    21037    21081    21114    21119    21097    21047 
   20964    20852    20731    20646    20633    20692    20807    20938 
   21057    21138    21150    21103    21031    20969    20938    20946 
   20976    21011    21030    21019    20976    20900    20804    20731 
   20729    20812    20965    21138    21282    21378    21428    21423 
   21347    21215    21073    20974    20935    20956    21020    21120 
   21244    21362    21431    21428    21340    21185    21022    20904 
   20856    20854    20854    20841    20815    20785    20761    20756 
   20785    20868    20995    21116    21182    21184    21143    21091 
   21051    21024    20983    20895    20777    20686    20646    20646 
   20676    20723    20802    20915    21022    21026    20864    20551 
   20185    19881    19730    19776    20011    20371    20761    21088 
   21288    21355    21317    21224    21141    21132    21215    21346 
   21465    21531    21547    21519    21450    21352    21250    21174 
   21161    21223    21332    21448    21555    21614    21601    21547 
   21498    21454    21408    21374    21382    21447    21554    21685 
   21805    21855    21809    21685    21524    21388    21325    21346 
   21394    21433    21444    21392    21255    21054    20831    20669 
   20656    20823    21124    21421    21583    21583    21482    21366 
   21278    21208    21147    21100    21074    21058    21026    21007 
   21062    21195    21352    21477    21531    21512    21452    21390 
   21330    21239    21096    20920    20736    20575    20484    20470 
   20515    20595    20668    20700    20725    20835    21073    21361 
   21574    21658    21631    21513    21325    21105    20918    20811 
   20790    20841    20943    21037    21069    21034    20950    20848 
   20760    20731    20792    20933    21103    21244    21308    21281 
   21208    21170    21213    21336    21512    21663    21690    21564 
   21342    21095    20891    20799    20850    21012    21223    21425 
   21568    21613    21548    21397    21208    21054    20996    21045 
   21161    21273    21321    21282    21153    20950    20723    20544 
   20474    20544    20752    21034    21269    21335    21173    20835 
   20478    20256    20227    20382    20686    21033    21281    21350 
   21230    20995    20792    20725    20794    20968    21213    21478 
   21682    21763    21709    21535    21290    21085    21003    21039 
   21157    21323    21471    21523    21467    21328    21135    20954 
   20850    20822    20834    20857    20884    20933    21011    21127 
   21240    21282    21251    21185    21081    20937    20807    20768 
   20826    20942    21092    21236    21296    21231    21095    20980 
   20943    20995    21122    21301    21490    21637    21701    21629 
   21385    20996    20588    20306    20240    20380    20638    20900 
   21085    21178    21227    21266    21297    21315    21317    21317 
   21350    21427    21492    21482    21405    21332    21336    21431 
   21570    21689    21741    21712    21628    21563    21546    21527 
   21444    21303    21151    21039    21001    21042    21132    21226 
   21270    21219    21072    20876    20691    20559    20479    20443 
   20439    20464    20521    20580    20618    20645    20686    20772 
   20923    21080    21157    21141    21085    21068    21118    21211 
   21307    21369    21400    21440    21494    21508    21431    21259 
   21054    20903    20873    20961    21099    21205    21244    21219 
   21145    21043    20949    20888    20854    20826    20779    20717 
   20668    20663    20721    20852    21043    21259    21451    21564 
   21579    21529    21462    21411    21404    21438    21470    21482 
   21498    21559    21670    21772    21799    21732    21577    21384 
   21238    21188    21203    21223    21196    21101    20966    20848 
   20794    20806    20860    20949    21068    21188    21269    21292 
   21259    21181    21092    21042    21069    21161    21263    21324 
   21328    21292    21231    21159    21111    21126    21180    21212 
   21197    21142    21043    20922    20818    20784    20831    20923 
   21015    21061    21030    20919    20779    20679    20653    20682 
   20730    20790    20848    20861    20792    20687    20623    20622 
   20669    20753    20857    20961    21047    21124    21190    21207 
   21170    21142    21153    21168    21147    21105    21076    21049 
   20976    20850    20742    20713    20769    20856    20920    20972 
   21027    21066    21077    21057    21014    20965    20910    20856 
   20841    20876    20950    21066    21224    21379    21492    21563 
   21595    21559    21462    21373    21336    21323    21301    21273 
   21261    21304    21406    21498    21521    21487    21438    21404 
   21388    21366    21312    21223    21100    20957    20835    20788 
   20856    21018    21189    21293    21320    21290    21200    21035 
   20846    20757    20833    20995    21127    21177    21150    21095 
   21091    21169    21284    21378    21440    21470    21458    21393 
   21308    21235    21149    21053    21012    21034    21081    21115 
   21099    21054    21047    21074    21068    21010    20960    20968 
   21035    21112    21109    20991    20830    20725    20731    20838 
   20968    21055    21120    21203    21290    21323    21274    21163 
   21001    20830    20750    20844    21082    21350    21541    21618 
   21548    21340    21081    20864    20749    20769    20911    21114 
   21303    21424    21439    21339    21182    21064    21007    20984 
   21004    21077    21165    21235    21296    21346    21379    21404 
   21439    21502    21578    21620    21589    21481    21335    21180 
   21020    20912    20934    21064    21196    21222    21126    21004 
   20933    20892    20850    20810    20785    20779    20796    20852 
   20922    20969    20995    21010    21012    21016    21051    21103 
   21159    21254    21361    21388    21342    21304    21301    21298 
   21255    21166    21058    20976    20930    20898    20869    20861 
   20902    20973    21015    21014    21008    21007    20984    20929 
   20862    20808    20788    20833    20973    21161    21285    21320 
   21327    21346    21338    21265    21158    21095    21116    21174 
   21173    21081    20980    20965    21018    21055    21091    21170 
   21270    21350    21409    21465    21512    21535    21524    21456 
   21340    21261    21253    21224    21116    21011    20979    20966 
   20888    20777    20733    20790    20925    21104    21244    21239 
