Origin Time       2024/04/02 04:24:00
Lat.              40.133
Long.             141.712
Depth. (km)       71
Mag.              6.0
Station Code      AOMH01
Station Lat.      41.5273
Station Long.     140.9127
Station Height(m) -90
Record Time       2024/04/02 04:25:05
Sampling Freq(Hz) 100Hz
Duration Time(s)  120
Dir.              2
Scale Factor      2940(gal)/6170270
Max. Acc. (gal)   2.416
Last Correction   2024/04/02 04:24:50
Memo.             
[...]
  205190   205249   205290   205295   205339   205359   205332   205362 
  205523   205738   205955   206243   206497   206484   206237   205946 
  205726   205676   205801   205994   206156   206212   206112   205917 
  205826   205926   206047   206100   206160   206258   206375   206379 
  206173   205968   205928   205832   205565   205344   205249   205180 
  205243   205564   205945   206190   206356   206438   206405   206366 
  206311   206173   206018   205912   205823   205692   205624   205800 
  206128   206358   206412   206376   206280   206041   205761   205715 
  205922   206170   206328   206325   206145   205962   205934   205961 
  205910   205808   205630   205372   205227   205264   205343   205449 
  205636   205789   205805   205767   205717   205622   205528   205512 
  205597   205691   205716   205810   206043   206187   206094   205968 
  206001   206063   205996   205896   205884   205928   206020   206185 
  206286   206156   205856   205581   205398   205319   205387   205476 
  205441   205360   205294   205302   205520   205830   206015   206134 
  206297   206452   206553   206644   206747   206812   206845   206885 
  206868   206763   206641   206561   206499   206386   206245   206120 
  205966   205798   205725   205727   205723   205753   205797   205781 
  205818   206009   206255   206394   206289   206003   205811   205806 
  205905   206029   206059   205972   205871   205833   205875   205864 
  205655   205374   205264   205372   205579   205765   205803   205605 
  205319   205207   205378   205764   206076   206042   205770   205540 
  205458   205442   205426   205470   205594   205690   205660   205579 
  205583   205619   205567   205486   205498   205648   205881   206019 
  205952   205799   205661   205566   205641   205931   206294   206570 
  206625   206465   206289   206191   206126   206088   206060   206088 
  206183   206176   206109   206187   206327   206342   206207   206014 
  205917   205987   206115   206206   206278   206323   206301   206233 
  206185   206187   206174   206100   206026   206042   206185   206371 
  206451   206377   206254   206173   206106   206075   206098   206048 
  205903   205716   205427   205195   205253   205454   205555   205506 
  205372   205303   205360   205468   205586   205688   205717   205674 
  205604   205546   205477   205425   205482   205629   205761   205795 
  205744   205750   205818   205861   205926   205999   206001   205974 
  205927   205845   205830   205938   206077   206150   206121   205985 
  205805   205649   205521   205460   205479   205512   205561   205674 
  205879   206154   206415   206560   206513   206347   206221   206174 
  206158   206090   205893   205603   205370   205340   205480   205600 
  205602   205565   205598   205683   205716   205678   205651   205646 
  205633   205728   205896   205851   205650   205658   205858   205983 
  206013   206027   206007   205986   205995   205988   206022   206228 
  206475   206495   206311   206149   206061   205938   205794   205736 
  205780   205930   206199   206496   206652   206575   206362   206172 
  206050   206030   206157   206341   206426   206444   206513   206574 
  206498   206246   205870   205588   205559   205604   205578   205638 
  205870   206092   206183   206223   206262   206250   206204   206231 
  206315   206314   206225   206177   206208   206261   206306   206308 
  206298   206365   206479   206535   206512   206424   206281   206109 
  205938   205803   205714   205671   205685   205721   205701   205643 
  205674   205829   206001   206122   206188   206158   206015   205816 
  205667   205664   205758   205876   206098   206393   206544   206483 
  206285   205949   205528   205252   205252   205432   205605   205634 
  205543   205426   205334   205319   205461   205724   205878   205802 
  205625   205424   205195   205060   205118   205272   205439   205631 
  205730   205663   205548   205461   205429   205524   205689   205777 
  205777   205769   205765   205726   205660   205642   205718   205792 
  205764   205713   205704   205687   205721   205929   206195   206281 
  206184   206050   205883   205611   205331   205263   205412   205573 
  205671   205729   205735   205729   205721   205675   205675   205786 
  205926   206059   206178   206196   206166   206238   206370   206468 
  206542   206572   206486   206206   205822   205620   205671   205763 
  205806   205874   205952   205979   205952   205914   205887   205869 
  205915   206064   206180   206125   206002   205989   206080   206161 
  206179   206112   205952   205787   205755   205898   206130   206320 
  206419   206424   206297   206111   206047   206110   206170   206210 
  206315   206436   206407   206223   205987   205809   205781   205871 
  205965   205977   205893   205794   205768   205817   205889   205953 
  205923   205745   205591   205596   205717   205924   206153   206276 
  206254   206181   206162   206201   206166   205923   205589   205419 
  205481   205708   205996   206179   206123   205888   205741   205843 
  206016   206080   206053   205998   206023   206202   206374   206321 
  206094   205922   205899   205946   205968   205893   205693   205433 
  205287   205379   205595   205752   205811   205829   205898   206088 
  206359   206564   206575   206449   206325   206189   205976   205812 
  205817   205804   205663   205589   205622   205657   205745   205909 
  206069   206154   206116   205954   205723   205561   205579   205669 
  205782   205974   206082   205998   205900   205870   205860   205938 
  206111   206220   206214   206134   205966   205794   205712   205654 
  205587   205558   205591   205668   205784   205984   206214   206291 
  206158   205903   205652   205563   205649   205694   205591   205484 
  205498   205615   205809   206041   206220   206296   206279   206147 
  205972   205877   205783   205617   205534   205547   205502   205398 
  205346   205410   205493   205470   205436   205516   205651   205784 
  205914   205961   205851   205724   205778   205985   206158   206215 
  206247   206307   206331   206317   206344   206388   206381   206373 
  206423   206456   206355   206109   205871   205729   205563   205420 
  205470   205601   205693   205792   205824   205690   205494   205403 
  205446   205537   205549   205432   205288   205232   205303   205513 
  205765   205919   206013   206106   206127   206121   206207   206322 
  206315   206195   206075   206008   206032   206153   206263   206274 
  206218   206159   206136   206179   206232   206196   206101   206045 
  206079   206167   206226   206228   206171   206080   206059   206172 
  206336   206375   206251   206124   206131   206246   206334   206355 
  206412   206548   206666   206618   206473   206423   206381   206217 
  206101   206143   206197   206141   205975   205783   205626   205460 
  205339   205374   205488   205587   205669   205731   205795   205848 
  205908   206085   206323   206434   206368   206205   206041   205939 
  205942   205992   205926   205782   205689   205646   205703   205844 
  205911   205908   205875   205773   205659   205626   205658   205641 
  205487   205291   205227   205326   205540   205743   205780   205763 
  205908   206171   206389   206485   206430   206261   206122   206058 
  205938   205760   205675   205669   205628   205591   205614   205599 
  205476   205398   205557   205884   206146   206263   206297   206247 
  206064   205833   205749   205795   205778   205704   205715   205798 
  205801   205648   205429   205260   205182   205227   205399   205625 
  205742   205616   205294   204990   204914   205094   205408   205735 
  205927   205896   205760   205678   205740   205948   206156   206209 
  206101   205930   205811   205830   205926   205911   205795   205753 
  205767   205757   205833   206045   206254   206411   206543   206510 
  206242   205920   205687   205542   205493   205558   205692   205823 
  205956   206139   206297   206311   206246   206225   206221   206191 
  206160   206169   206261   206363   206347   206310   206359   206356 
  206278   206265   206272   206226   206182   206178   206188   206117 
  205956   205870   205887   205868   205839   205851   205821   205796 
  205867   205963   205999   205996   206059   206206   206332   206386 
  206367   206285   206184   206103   206042   205996   205998   206019 
  205945   205772   205641   205631   205712   205821   205904   205918 
  205838   205723   205697   205769   205812   205762   205705   205729 
  205805   205877   205939   205999   206050   206069   206114   206251 
  206350   206259   206049   205841   205677   205597   205582   205554 
  205507   205559   205721   205756   205586   205452   205494   205640 
  205824   205976   206048   206135   206300   206445   206453   206341 
  206256   206270   206330   206433   206505   206349   205992   205696 
  205592   205568   205487   205356   205277   205273   205274   205317 
  205506   205699   205693   205597   205558   205508   205409   205387 
  205601   206001   206292   206335   206277   206208   206124   206086 
  206163   206316   206360   206210   206019   205924   205904   205936 
  206055   206211   206305   206297   206218   206162   206139   206030 
  205912   205981   206073   205914   205671   205618   205682   205728 
  205793   205906   206002   205996   205875   205736   205682   205741 
  205836   205847   205767   205705   205772   205951   206064   206070 
  206163   206360   206443   206301   206025   205786   205683   205705 
  205789   205888   205971   206000   205970   205943   205969   205987 
  205888   205730   205616   205492   205391   205478   205754   206046 
  206221   206336   206459   206498   206440   206347   206181   205981 
  205873   205892   205998   206097   206118   206075   206052   206108 
  206166   206094   205921   205817   205882   206023   206060   206001 
  205919   205824   205808   205825   205696   205535   205506   205517 
  205549   205657   205716   205645   205570   205605   205742   205912 
  206014   205993   205898   205821   205836   205886   205780   205494 
  205249   205233   205357   205449   205512   205579   205594   205560 
  205559   205630   205753   205884   205963   205973   205953   205988 
  206153   206410   206603   206589   206356   206018   205769   205740 
  205837   205895   205884   205829   205704   205526   205344   205145 
  204982   205065   205445   205856   206089   206156   206090   205956 
  205889   205980   206179   206303   206243   206109   206068   206119 
  206146   206117   206065   205977   205886   205878   205899   205797 
  205611   205543   205621   205714   205793   205931   206092   206153 
  206065   205872   205683   205564   205448   205310   205272   205411 
  205654   205872   205977   206025   206142   206321   206447   206500 
  206490   206364   206203   206164   206169   206073   205960   205975 
  206048   206024   205887   205718   205526   205342   205339   205559 
  205801   205917   205874   205772   205849   206121   206366   206481 
  206482   206408   206330   206253   206124   205975   205881   205830 
  205771   205729   205757   205806   205823   205862   205925   205906 
  205828   205794   205800   205841   205957   206116   206237   206257 
  206234   206224   206130   205947   205823   205775   205780   205905 
  206121   206308   206378   206278   206079   205933   205918   206103 
  206455   206724   206678   206378   206037   205772   205610   205545 
  205566   205673   205765   205726   205647   205686   205873   206085 
  206132   206109   206271   206480   206501   206409   206252   206025 
  205878   205916   206046   206107   206045   205987   205997   205981 
  205944   205922   205790   205544   205366   205282   205184   205062 
  204908   204697   204546   204597   204831   205086   205188   205120 
  205041   205074   205204   205333   205386   205371   205349   205400 
  205545   205645   205607   205484   205336   205250   205285   205377 
  205464   205490   205420   205369   205449   205632   205849   206049 
  206228   206422   206581   206637   206679   206764   206797   206720 
  206552   206297   206015   205849   205832   205809   205666   205496 
  205482   205616   205700   205628   205429   205184   204971   204810 
  204777   204888   204926   204807   204783   205042   205424   205722 
  205983   206341   206777   207148   207420   207672   207838   207832 
  207772   207784   207833   207857   207812   207672   207501   207352 
  207127   206732   206256   205868   205679   205688   205820   206028 
  206271   206498   206749   207072   207358   207515   207626   207746 
  207845   207858   207786   207784   207911   208021   207996   207857 
  207798   207897   207961   207910   207861   207889   207919   207792 
  207609   207550   207498   207390   207305   207193   207041   206940 
  206961   207108   207304   207519   207747   207908   207991   208070 
  208145   208131   207973   207733   207495   207233   206866   206432 
  206112   206014   206103   206275   206330   206114   205724   205361 
  205137   205005   204783   204437   204177   204116   204136   204145 
  204166   204226   204257   204123   203885   203761   203760   203811 
  203958   204192   204445   204667   204815   204889   204903   204761 
  204374   203898   203561   203341   203080   202711   202284   201892 
  201574   201413   201485   201607   201566   201351   201067   200887 
  200844   200894   201169   201617   202015   202449   203058   203718 
  204304   204736   204950   205017   205024   205034   205173   205499 
  205895   206128   205999   205543   205010   204653   204510   204416 
  204312   204315   204411   204403   204270   204260   204497   204892 
  205308   205527   205355   204862   204244   203652   203232   203088 
  203232   203677   204434   205410   206476   207499   208285   208702 
  208765   208603   208476   208504   208517   208431   208366   208428 
  208640   208889   208982   208827   208492   208057   207501   206831 
  206114   205464   205062   205032   205398   205995   206555   207069 
  207650   208184   208504   208661   208878   209271   209667   209916 
  210126   210338   210478   210602   210739   210774   210623   210251 
  209686   209101   208736   208660   208704   208684   208525   208158 
  207599   207052   206619   206148   205586   205107   204869   204911 
  205209   205688   206236   206725   206963   206764   206217   205617 
  205198   205023   204991   205021   205160   205414   205748   206136 
  206469   206597   206415   205951   205459   205216   205246   205376 
  205395   205198   204913   204685   204377   203846   203347   203226 
  203528   204099   204583   204661   204506   204435   204581   204970 
  205390   205611   205682   205739   205814   205881   205999   206315 
  206784   207090   207032   206717   206324   205900   205405   204900 
  204511   204219   204034   204090   204367   204720   205129   205588 
  205907   205938   205814   205813   206103   206576   207006   207284 
  207303   206988   206522   206131   205851   205670   205551   205455 
  205434   205491   205541   205494   205296   205090   205095   205245 
  205360   205486   205706   205936   206128   206414   206930   207571 
  207974   207856   207382   206931   206611   206260   205708   205014 
  204458   204226   204179   203968   203530   203246   203280   203412 
  203667   204234   204951   205568   205977   205999   205633   205210 
  204969   204914   204915   204773   204439   204127   204065   204233 
  204426   204500   204505   204602   204911   205378   205724   205689 
  205382   205177   205286   205611   205852   205730   205302   204850 
  204508   204366   204596   205137   205689   206120   206454   206722 
  207005   207258   207421   207623   207877   208086   208349   208761 
  209146   209293   209232   209129   209080   209021   208849   208553 
  208101   207545   207179   207169   207345   207518   207599   207533 
  207391   207342   207334   207077   206558   206164   206154   206410 
  206672   206776   206694   206446   206126   205930   205939   206052 
  206232   206483   206648   206589   206403   206277   206256   206279 
  206425   206767   207109   207275   207297   207078   206400   205430 
  204716   204467   204393   204340   204425   204565   204493   204223 
  203988   203846   203702   203456   203101   202832   202886   203359 
  204122   204810   205225   205631   206143   206496   206625   206620 
  206462   206320   206367   206517   206637   206609   206452   206275 
  206051   205839   205768   205743   205619   205428   205341   205441 
  205630   205789   205880   205842   205496   204794   203977   203300 
  202997   203254   203926   204688   205344   205802   206084   206284 
  206458   206623   206830   207161   207497   207533   207216   206811 
  206583   206589   206662   206684   206725   206727   206506   206178 
  206041   206022   205862   205637   205563   205643   205767   205818 
  205723   205551   205437   205398   205359   205222   204960   204694 
  204508   204502   204730   204873   204767   204790   205175   205787 
  206397   206725   206625   206240   205846   205695   205928   206446 
  206862   206842   206534   206318   206263   206196   206104   206117 
  206220   206303   206412   206585   206632   206418   206052   205565 
  204927   204356   204077   204130   204498   204972   205260   205372 
  205412   205412   205444   205471   205474   205672   206094   206371 
  206335   206191   206087   206074   206203   206510   207030   207560 
  207705   207361   206791   206341   206119   205909   205649   205519 
  205452   205340   205382   205674   206027   206321   206533   206660 
  206690   206471   206015   205729   205850   206158   206385   206475 
  206544   206739   206970   206977   206816   206758   206701   206408 
  206080   206124   206534   206850   206795   206582   206515   206715 
  207147   207701   208187   208229   207685   206916   206163   205426 
  204936   204924   205279   205766   206188   206503   206773   206840 
  206458   205720   204979   204430   204025   203800   203878   204158 
  204445   204756   205223   205828   206319   206478   206388   206280 
  206259   206253   206229   206294   206463   206586   206564   206421 
  206177   205819   205420   205114   204930   204783   204624   204509 
  204495   204477   204357   204275   204382   204633   204833   204784 
  204562   204327   204060   203877   204012   204424   204840   205071 
  205198   205447   205848   206190   206309   206229   206047   205885 
  205807   205729   205650   205691   205860   206051   206156   206103 
  206027   206254   206804   207289   207487   207513   207483   207472 
  207571   207709   207654   207287   206812   206630   206846   207094 
  207064   206829   206588   206419   206286   206203   206272   206494 
  206691   206664   206321   205880   205763   205999   206273   206513 
  206714   206668   206290   205772   205329   205051   204950   204967 
  204995   204996   204981   204981   205132   205539   206036   206300 
  206186   205850   205531   205322   205128   204858   204551   204313 
  204331   204663   205023   205208   205254   205139   204968   205016 
  205260   205439   205441   205268   204953   204608   204411   204506 
