Origin Time       2024/04/02 04:24:00
Lat.              40.133
Long.             141.712
Depth. (km)       71
Mag.              6.0
Station Code      AOMH10
Station Lat.      40.6091
Station Long.     140.6646
Station Height(m) -3.5
Record Time       2024/04/02 04:24:55
Sampling Freq(Hz) 100Hz
Duration Time(s)  174
Dir.              2
Scale Factor      3923(gal)/8224838
Max. Acc. (gal)   3.589
Last Correction   2024/04/02 04:24:55
Memo.             
[...]
  -14569   -14806   -15094   -15529   -16156   -16798   -17123   -16985 
  -16529   -16054   -15830   -15943   -16289   -16660   -16875   -16911 
  -16811   -16586   -16293   -16012   -15839   -15804   -15626   -15013 
  -14130   -13273   -12548   -12077   -12006   -12360   -12984   -13621 
  -14129   -14508   -14872   -15284   -15538   -15645   -15932   -16324 
  -16592   -16738   -16626   -16224   -15677   -14937   -13983   -12910 
  -11894   -11219   -10901   -10771   -10845   -11007   -11223   -11789 
  -12471   -13204   -14690   -16298   -17050   -17315   -16876   -15962 
  -15634   -15496   -15477   -16028   -16448   -16519   -16322   -15674 
  -15022   -14467   -13894   -13597   -13288   -12711   -12320   -12463 
  -13408   -15190   -17180   -18746   -19649   -19749   -19188   -18441 
  -17828   -17435   -17363   -17544   -17500   -16745   -15441   -14327 
  -13937   -14245   -14913   -15518   -15785   -15712   -15434   -15236 
  -15411   -15726   -15611   -15039   -14521   -14442   -14694   -14891 
  -15180   -15970   -16645   -16618   -16429   -16411   -16623   -17030 
  -17116   -17128   -17516   -17577   -16954   -16070   -14986   -13724 
  -12522   -11630   -11520   -12259   -12997   -13135   -13203   -13942 
  -15268   -16507   -17236   -17590   -17653   -17149   -16256   -15758 
  -15900   -16232   -16349   -16038   -15434   -15079   -15109   -15151 
  -15205   -15396   -15404   -15130   -14752   -14272   -14092   -14640 
  -15502   -16382   -17359   -18052   -18144   -17629   -16530   -15419 
  -14816   -14384   -13990   -14041   -14771   -16028   -17184   -17833 
  -18243   -18430   -18234   -17722   -16822   -15851   -15377   -15133 
  -14733   -14341   -14241   -14998   -16579   -17574   -17093   -15716 
  -14222   -13076   -12460   -12501   -13447   -14851   -15736   -15930 
  -15930   -15920   -15778   -15566   -15468   -15468   -15261   -14574 
  -13666   -13082   -12997   -13189   -13387   -13564   -13833   -14150 
  -14480   -14912   -15499   -16112   -16243   -15475   -14191   -13003 
  -12120   -11859   -12572   -13798   -14582   -14716   -14624   -14264 
  -13506   -12843   -12648   -12978   -13792   -14575   -14958   -15268 
  -15628   -15763   -15719   -15585   -15188   -14705   -14616   -14940 
  -15419   -15861   -16097   -16241   -16389   -16241   -15889   -15743 
  -15615   -15226   -14635   -13863   -13127   -12702   -12630   -13144 
  -14318   -15526   -16166   -16262   -16106   -15973   -16078   -16393 
  -16779   -17311   -17922   -18245   -18168   -17795   -17163   -16538 
  -16227   -16093   -15828   -15414   -15198   -15481   -16040   -16360 
  -16274   -16046   -15739   -15352   -15286   -15422   -15272   -15060 
  -14773   -14199   -13994   -14372   -14789   -15375   -16324   -17089 
  -17335   -17307   -17321   -17460   -17547   -17319   -16567   -15469 
  -14737   -14661   -14723   -14697   -14752   -14658   -14264   -13988 
  -14035   -14281   -14721   -15155   -15458   -15889   -16243   -16166 
  -16008   -16078   -16316   -16640   -16633   -16150   -15766   -15624 
  -15394   -15202   -15248   -15369   -15372   -15236   -15110   -14939 
  -14547   -14270   -14405   -14531   -14355   -14234   -14435   -14881 
  -15427   -15811   -15800   -15500   -15109   -14818   -14960   -15508 
  -16050   -16321   -16208   -15966   -16087   -16239   -15923   -15681 
  -15804   -15498   -14407   -13320   -12970   -13234   -13691   -14185 
  -14785   -15453   -15876   -15932   -15847   -15809   -15969   -16368 
  -16776   -16950   -16815   -16471   -16189   -16135   -16062   -15661 
  -15141   -14894   -14829   -14747   -14720   -14648   -14326   -13909 
  -13701   -13805   -14114   -14315   -14332   -14511   -14814   -14832 
  -14643   -14627   -14839   -15022   -14978   -14959   -15275   -15615 
  -15576   -15396   -15462   -15619   -15533   -15415   -15780   -16470 
  -16804   -16706   -16478   -16089   -15577   -15126   -14758   -14461 
  -14162   -14018   -14401   -15071   -15422   -15346   -15088   -14891 
  -14808   -14762   -14886   -15338   -15950   -16310   -16333   -16587 
  -17228   -17493   -17147   -16722   -16386   -16075   -15803   -15466 
  -15072   -14638   -14222   -14041   -13949   -13836   -13994   -14262 
  -14391   -14558   -14706   -14797   -14929   -14889   -14605   -14175 
  -13755   -13676   -13846   -14096   -14513   -14778   -14821   -15072 
  -15400   -15539   -15592   -15562   -15599   -15813   -15819   -15516 
  -15202   -14835   -14472   -14415   -14507   -14493   -14486   -14570 
  -14659   -14658   -14565   -14442   -14320   -14287   -14393   -14677 
  -15228   -15836   -16205   -16368   -16340   -16137   -15886   -15527 
  -15255   -15425   -15730   -15826   -15832   -15726   -15620   -15666 
  -15469   -14983   -14716   -14709   -14820   -15074   -15391   -15804 
  -16275   -16588   -16910   -17415   -17721   -17583   -17346   -17271 
  -17286   -17309   -17238   -17073   -16999   -16976   -16883   -16822 
  -16690   -16347   -16012   -15685   -15264   -15047   -15091   -15176 
  -15260   -15215   -15145   -15314   -15520   -15688   -15900   -15832 
  -15514   -15407   -15539   -15681   -15727   -15689   -15653   -15618 
  -15585   -15639   -15738   -15719   -15508   -15120   -14523   -13801 
  -13293   -13159   -13193   -13262   -13389   -13590   -13863   -14126 
  -14376   -14656   -14860   -14956   -14971   -14800   -14524   -14288 
  -14111   -14164   -14512   -14862   -14951   -14764   -14480   -14222 
  -13999   -13900   -13906   -13948   -14180   -14539   -14804   -14955 
  -14871   -14627   -14512   -14517   -14632   -14802   -14924   -15203 
  -15519   -15560   -15604   -15804   -15865   -15626   -15175   -14818 
  -14655   -14420   -14218   -14323   -14636   -15105   -15731   -16271 
  -16552   -16567   -16397   -16198   -15993   -15782   -15727   -15824 
  -15858   -15746   -15637   -15678   -15916   -16281   -16517   -16479 
  -16371   -16204   -15912   -15863   -16062   -16054   -15881   -15695 
  -15390   -15106   -14932   -14793   -14859   -15086   -15101   -14990 
  -15055   -15082   -14902   -14748   -14635   -14473   -14472   -14686 
  -14947   -15233   -15515   -15695   -15718   -15581   -15383   -15268 
  -15255   -15248   -15215   -15223   -15182   -14920   -14600   -14548 
  -14836   -15265   -15666   -16028   -16221   -16147   -16078   -16173 
  -16325   -16592   -16904   -16969   -16825   -16632   -16343   -16029 
  -15811   -15654   -15628   -15827   -16135   -16339   -16312   -16139 
  -15885   -15620   -15570   -15628   -15438   -15118   -14926   -14737 
  -14413   -14104   -14038   -14149   -14207   -14386   -14764   -14817 
  -14476   -14296   -14276   -14050   -13647   -13378   -13529   -14000 
  -14435   -14755   -14971   -14912   -14667   -14547   -14511   -14324 
  -14034   -13887   -14058   -14457   -14732   -14735   -14654   -14546 
  -14351   -14235   -14285   -14364   -14516   -14841   -15226   -15608 
  -15942   -16069   -16042   -16047   -16164   -16507   -17045   -17498 
  -17685   -17593   -17355   -17172   -17096   -17031   -16899   -16761 
  -16707   -16653   -16598   -16602   -16420   -15962   -15627   -15619 
  -15871   -16340   -16729   -16741   -16521   -16193   -15750   -15449 
  -15438   -15446   -15288   -15132   -15137   -15191   -15183   -15233 
  -15322   -15286   -15277   -15444   -15627   -15770   -15888   -15901 
  -15808   -15556   -15155   -14891   -14833   -14754   -14686   -14796 
  -14963   -14999   -14906   -14716   -14422   -14212   -14281   -14476 
  -14661   -14866   -14940   -14839   -14789   -14879   -15056   -15291 
  -15583   -15888   -16042   -15978   -15843   -15799   -15840   -15781 
  -15580   -15493   -15619   -15745   -15715   -15592   -15460   -15230 
  -14825   -14461   -14377   -14384   -14207   -13949   -13899   -14131 
  -14496   -14854   -15157   -15418   -15672   -15832   -15819   -15778 
  -15805   -15782   -15641   -15545   -15719   -16056   -16241   -16131 
  -15661   -14974   -14521   -14376   -14316   -14439   -14740   -14968 
  -15090   -15080   -14886   -14736   -14862   -15168   -15321   -15121 
  -14766   -14531   -14505   -14661   -14828   -14871   -14889   -14910 
  -14779   -14567   -14539   -14740   -15017   -15248   -15419   -15619 
  -15807   -15780   -15457   -14843   -14108   -13698   -13826   -14241 
  -14539   -14474   -14192   -13992   -13965   -14130   -14463   -14904 
  -15337   -15564   -15612   -15573   -15313   -14962   -14793   -14760 
  -14759   -14723   -14553   -14258   -13971   -13861   -13934   -14160 
  -14693   -15426   -15890   -15886   -15574   -15255   -15232   -15364 
  -15302   -15280   -15614   -16016   -16225   -16303   -16343   -16441 
  -16464   -16152   -15714   -15484   -15426   -15456   -15585   -15753 
  -15857   -15824   -15669   -15473   -15290   -15145   -15037   -15029 
  -15218   -15503   -15734   -15896   -15959   -16047   -16344   -16652 
  -16636   -16270   -15793   -15537   -15580   -15678   -15763   -15920 
  -16024   -16013   -16071   -16306   -16679   -17010   -16991   -16657 
  -16318   -16055   -15853   -15573   -15066   -14725   -14790   -14824 
  -14694   -14639   -14750   -15176   -15755   -15971   -15847   -15790 
  -15877   -16052   -16225   -16116   -15777   -15724   -15966   -16008 
  -15857   -15724   -15538   -15399   -15361   -15284   -15318   -15414 
  -15342   -15434   -15858   -16271   -16600   -16853   -16906   -16803 
  -16546   -16121   -15812   -15808   -15835   -15589   -15198   -14976 
  -14975   -15033   -15066   -15017   -14956   -15142   -15427   -15371 
  -15163   -15172   -15198   -15117   -15106   -15167   -15183   -15052 
  -14747   -14465   -14351   -14337   -14338   -14368   -14546   -14898 
  -15253   -15476   -15507   -15421   -15353   -15205   -14971   -14801 
  -14607   -14326   -14035   -13775   -13740   -13981   -14214   -14345 
  -14497   -14685   -14848   -14932   -14966   -15025   -15141   -15309 
  -15456   -15479   -15403   -15346   -15273   -15020   -14639   -14362 
  -14223   -14135   -14085   -14110   -14264   -14426   -14424   -14351 
  -14272   -14196   -14264   -14469   -14715   -14894   -14785   -14484 
  -14420   -14720   -15171   -15487   -15415   -15010   -14702   -14683 
  -14615   -14459   -14636   -15021   -15180   -15222   -15352   -15512 
  -15599   -15527   -15464   -15530   -15530   -15529   -15661   -15757 
  -15936   -16343   -16668   -16702   -16503   -16198   -15911   -15662 
  -15533   -15518   -15406   -15269   -15307   -15394   -15402   -15337 
  -15303   -15488   -15812   -15992   -15974   -15898   -15834   -15597 
  -15140   -14986   -15410   -15885   -16027   -15940   -15795   -15692 
  -15581   -15549   -15797   -15997   -15770   -15361   -14968   -14565 
  -14331   -14338   -14420   -14458   -14413   -14366   -14445   -14648 
  -14952   -15288   -15446   -15458   -15599   -15809   -15849   -15735 
  -15681   -15823   -15985   -15907   -15692   -15603   -15716   -15915 
  -15954   -15800   -15708   -15711   -15696   -15784   -15989   -16206 
  -16347   -16150   -15672   -15385   -15357   -15450   -15685   -15855 
  -15858   -15850   -15772   -15635   -15604   -15562   -15488   -15566 
  -15684   -15780   -15916   -15785   -15379   -15165   -15064   -14867 
  -14823   -14978   -15222   -15445   -15364   -15184   -15333   -15569 
  -15623   -15573   -15364   -15147   -15151   -15155   -15084   -15005 
  -14747   -14435   -14234   -14125   -14351   -14789   -14949   -14936 
  -14926   -14851   -14891   -15082   -15225   -15338   -15400   -15372 
  -15331   -15194   -15003   -14856   -14632   -14601   -14951   -15237 
  -15472   -15855   -16038   -15971   -15772   -15387   -15129   -15095 
  -15107   -15265   -15412   -15360   -15303   -15222   -15072   -14982 
  -14924   -14958   -15128   -15248   -15298   -15323   -15265   -15141 
  -14890   -14512   -14241   -14185   -14335   -14639   -14893   -15025 
  -15105   -15163   -15353   -15556   -15465   -15425   -15681   -15838 
  -15907   -16052   -16073   -15985   -15859   -15761   -15880   -15962 
  -15776   -15531   -15302   -15221   -15457   -15746   -15994   -16313 
  -16482   -16468   -16534   -16540   -16193   -15689   -15391   -15346 
  -15457   -15589   -15506   -15206   -15012   -15056   -15234   -15439 
  -15499   -15394   -15334   -15256   -15010   -14790   -14671   -14642 
  -14854   -15113   -15099   -14925   -14766   -14717   -14764   -14631 
  -14264   -13954   -13725   -13378   -13028   -12980   -13192   -13371 
  -13497   -13732   -13968   -14079   -14274   -14624   -14953   -15256 
  -15465   -15475   -15527   -15633   -15271   -14536   -14179   -14203 
  -14139   -14088   -14110   -13886   -13456   -13154   -12968   -12725 
  -12598   -12842   -13238   -13516   -13953   -14681   -15313   -15793 
  -16371   -16957   -17316   -17340   -17050   -16618   -16183   -15797 
  -15371   -14712   -13980   -13474   -13065   -12546   -11885   -11288 
  -11165   -11438   -11769   -12237   -12823   -13452   -14184   -14656 
  -14758   -15075   -15803   -16564   -17332   -18092   -18247   -17675 
  -16997   -16260   -15419   -15211   -15577   -15642   -15480   -15246 
  -14701   -14230   -13936   -13597   -13593   -13780   -13720   -13907 
  -14428   -14764   -15138   -15626   -16044   -16688   -17305   -17682 
  -18567   -19766   -20262   -20210   -19963   -19338   -18760   -18463 
  -17818   -16848   -16152   -15709   -15437   -15434   -15425   -15338 
  -15442   -15614   -15766   -16017   -16065   -15843   -15780   -15874 
  -15959   -16129   -16453   -16926   -17458   -17952   -18451   -19171 
  -20237   -21261   -21959   -22531   -22827   -22482   -21654   -20760 
  -20069   -19558   -19236   -19315   -19633   -19796   -19778   -19507 
  -18744   -17566   -16447   -15865   -15604   -15242   -14920   -14634 
  -14308   -14224   -14289   -14334   -14720   -15623   -16798   -18037 
  -19068   -19596   -19575   -19198   -18852   -18643   -18243   -17869 
  -17996   -18247   -18179   -17798   -16970   -15823   -14706   -13575 
  -12572   -12135   -12100   -12047   -12048   -12141   -12042   -11728 
  -11537   -11788   -12370   -12698   -12703   -12982   -13408   -13409 
  -13139   -12897   -12758   -12729   -12413   -11723   -11227   -11049 
  -11026   -11199   -11215   -10831   -10407    -9994    -9540    -9459 
   -9819   -10323   -10914   -11418   -11691   -11913   -12066   -12087 
  -12127   -12131   -12279   -12827   -13290   -13470   -13811   -14037 
  -13942   -14092   -14293   -14160   -14258   -14786   -15372   -16029 
  -16578   -16625   -16410   -16174   -15784   -15554   -15839   -16306 
  -16752   -17440   -18195   -18430   -18173   -17798   -17151   -16245 
  -15581   -15213   -14972   -14935   -14936   -14852   -15120   -15750 
  -16097   -16552   -17813   -18906   -19102   -18997   -18476   -17425 
  -16694   -16274   -15600   -14937   -14454   -14011   -13861   -14121 
  -14477   -14515   -13960   -13150   -12663   -12494   -12399   -12260 
  -11884   -11325   -10866   -10681   -10991   -11704   -12366   -13099 
  -14220   -15230   -15762   -16155   -16329   -16011   -15666   -15587 
  -15450   -15261   -15295   -15464   -15288   -14472   -13617   -13458 
  -13834   -14354   -14806   -14975   -14952   -14979   -15229   -15749 
  -16345   -16904   -17124   -16606   -15919   -15803   -16006   -16297 
  -16598   -16592   -16525   -16794   -17155   -17394   -17610   -18014 
  -18731   -19460   -19886   -20065   -19984   -19425   -18369   -17408 
  -17045   -16771   -16093   -15435   -15138   -15207   -15728   -16414 
  -16938   -17327   -17396   -17069   -16663   -16222   -15734   -15344 
  -15021   -14775   -14527   -14084   -13779   -14048   -14577   -14924 
  -15364   -16249   -17261   -17998   -18179   -17532   -16352   -15199 
  -14524   -14609   -14994   -15350   -16063   -16807   -16835   -16249 
  -15373   -14503   -14211   -14646   -15310   -15811   -16120   -16339 
  -16440   -16197   -15593   -15110   -15115   -15373   -15583   -15823 
  -16201   -16482   -16291   -15757   -15188   -14339   -13325   -12874 
  -12872   -12766   -12698   -12784   -12841   -12858   -12938   -13351 
  -14305   -15408   -16036   -16097   -15952   -15726   -15145   -14126 
  -13072   -12532   -12641   -13036   -13365   -13522   -13365   -12773 
  -12043   -11769   -12256   -13165   -13849   -14049   -14050   -14270 
  -14800   -15248   -15330   -15423   -15857   -16384   -16807   -16977 
  -16610   -15986   -15560   -15072   -14521   -14493   -14818   -15013 
  -15263   -15627   -15957   -16224   -16187   -16015   -16278   -16729 
  -16730   -16474   -16410   -16328   -15931   -15403   -15087   -15226 
  -15503   -15152   -14285   -13767   -13814   -14149   -14528   -14704 
  -14814   -15072   -15201   -15109   -15098   -15187   -15368   -15815 
  -16278   -16359   -16287   -16386   -16278   -15569   -14652   -14141 
  -13996   -13907   -14034   -14453   -14700   -14569   -14281   -13984 
  -13879   -14134   -14609   -15109   -15354   -15167   -14891   -14881 
  -15068   -15292   -15476   -15750   -16241   -16752   -17174   -17510 
  -17524   -17131   -16592   -16208   -16008   -15759   -15526   -15492 
  -15419   -15340   -15525   -15664   -15597   -15646   -15751   -15723 
  -15812   -16256   -16858   -17132   -16756   -16012   -15572   -15628 
  -15684   -15481   -15423   -15826   -16410   -16772   -16906   -17011 
  -17024   -16815   -16595   -16590   -16718   -16961   -17238   -17165 
  -16657   -15946   -15090   -14299   -13852   -13501   -13123   -13146 
  -13508   -13771   -14044   -14443   -14800   -15130   -15275   -14910 
  -14320   -14080   -14211   -14385   -14553   -14767   -14756   -14536 
  -14690   -15352   -16038   -16386   -16121   -15342   -14839   -14828 
  -14605   -14126   -13906   -13764   -13456   -13278   -13293   -13243 
  -13038   -12880   -13024   -13188   -13124   -13479   -14467   -15337 
  -15805   -16116   -16444   -16908   -17321   -17533   -17802   -18081 
  -17959   -17332   -16564   -16131   -15990   -15803   -15658   -15537 
  -15169   -14864   -14932   -15043   -15056   -15178   -15319   -15222 
  -14835   -14418   -14377   -14791   -15353   -15746   -15880   -15931 
  -15989   -15935   -15882   -16069   -16425   -16823   -17147   -17104 
  -16568   -15797   -15090   -14554   -14245   -14237   -14440   -14596 
  -14524   -14300   -14122   -14049   -14075   -14312   -14721   -15039 
  -15074   -14823   -14504   -14461   -14744   -15082   -15268   -15325 
  -15352   -15483   -15817   -16326   -16934   -17544   -18079   -18563 
  -18825   -18615   -18292   -18184   -17856   -17147   -16514   -16213 
  -16231   -16298   -16135   -16055   -16262   -16383   -16348   -16316 
  -16268   -16351   -16534   -16402   -15967   -15716   -15789   -15959 
  -16043   -15886   -15411   -14902   -14763   -15066   -15619   -16206 
  -16664   -16848   -16803   -16877   -16980   -16498   -15595   -14871 
  -14187   -13435   -12970   -12723   -12455   -12309   -12376   -12591 
  -12991   -13435   -13636   -13716   -13957   -14262   -14513   -14774 
  -14948   -14970   -14989   -14997   -14955   -15122   -15680   -16374 
  -16787   -16722   -16337   -15851   -15322   -14928   -14848   -14824 
  -14546   -14033   -13401   -13030   -13309   -13996   -14667   -15132 
  -15196   -14929   -14752   -14926   -15364   -15886   -16289   -16255 
  -15699   -15052   -14624   -14338   -14289   -14485   -14563   -14476 
  -14403   -14341   -14436   -14760   -14987   -14902   -14670   -14503 
