Origin Time       2024/04/02 04:24:00
Lat.              40.133
Long.             141.712
Depth. (km)       71
Mag.              6.0
Station Code      AOMH17
Station Lat.      40.4492
Station Long.     141.3374
Station Height(m) -49.1
Record Time       2024/04/02 04:24:50
Sampling Freq(Hz) 100Hz
Duration Time(s)  209
Dir.              1
Scale Factor      3923(gal)/8224838
Max. Acc. (gal)   38.562
Last Correction   2024/04/02 04:24:50
Memo.             
[...]
   20285    20282    20285    20286    20285    20283    20285    20282 
   20279    20285    20286    20282    20285    20285    20283    20286 
   20283    20281    20283    20287    20286    20283    20283    20283 
   20285    20286    20283    20282    20285    20285    20283    20283 
   20285    20286    20283    20286    20286    20281    20283    20287 
   20285    20285    20283    20283    20283    20282    20282    20285 
   20285    20285    20285    20285    20283    20282    20285    20285 
   20283    20285    20285    20287    20289    20283    20282    20286 
   20285    20282    20282    20282    20283    20285    20286    20285 
   20285    20285    20287    20286    20282    20282    20286    20289 
   20286    20286    20285    20282    20282    20286    20285    20282 
   20285    20286    20283    20283    20286    20289    20286    20283 
   20286    20285    20285    20289    20287    20283    20286    20286 
   20283    20285    20285    20285    20285    20286    20286    20286 
   20289    20286    20282    20283    20287    20286    20286    20287 
   20285    20285    20286    20286    20286    20286    20286    20283 
   20286    20289    20285    20282    20282    20283    20285    20285 
   20283    20285    20285    20283    20285    20287    20286    20285 
   20285    20286    20287    20287    20286    20287    20287    20285 
   20282    20283    20285    20283    20282    20282    20283    20285 
   20285    20286    20285    20281    20285    20286    20283    20285 
   20286    20283    20285    20287    20289    20286    20289    20289 
   20286    20283    20282    20283    20286    20283    20282    20287 
   20286    20282    20286    20286    20281    20282    20283    20283 
   20285    20287    20286    20286    20286    20286    20282    20282 
   20285    20283    20281    20283    20283    20281    20283    20285 
   20286    20287    20285    20282    20282    20283    20286    20287 
   20289    20286    20285    20283    20285    20287    20286    20282 
   20281    20282    20283    20285    20285    20282    20282    20283 
   20283    20285    20286    20283    20282    20287    20287    20283 
   20286    20287    20282    20282    20283    20285    20283    20282 
   20283    20285    20285    20285    20285    20285    20283    20285 
   20286    20283    20283    20286    20286    20286    20286    20283 
   20281    20285    20287    20286    20283    20282    20283    20285 
   20285    20285    20286    20285    20283    20282    20283    20286 
   20285    20283    20285    20286    20283    20282    20286    20286 
   20283    20285    20285    20283    20283    20282    20283    20286 
   20286    20285    20286    20282    20281    20285    20285    20286 
   20287    20283    20285    20289    20286    20285    20285    20283 
   20282    20285    20283    20282    20285    20285    20281    20281 
   20286    20289    20285    20283    20286    20287    20287    20287 
   20287    20285    20285    20283    20285    20286    20285    20285 
   20286    20283    20285    20287    20287    20285    20283    20283 
   20285    20283    20283    20283    20283    20283    20285    20286 
   20285    20286    20287    20283    20283    20287    20289    20289 
   20289    20287    20286    20286    20286    20285    20286    20286 
   20282    20285    20286    20282    20283    20285    20285    20286 
   20286    20285    20285    20285    20283    20283    20286    20287 
   20286    20285    20285    20286    20286    20283    20285    20285 
   20285    20285    20286    20285    20285    20285    20283    20282 
   20286    20287    20286    20285    20286    20286    20283    20283 
   20286    20286    20286    20285    20285    20285    20286    20286 
   20287    20286    20285    20287    20287    20286    20286    20283 
   20282    20285    20287    20285    20283    20287    20287    20282 
   20285    20286    20283    20283    20285    20285    20286    20286 
   20283    20285    20286    20286    20285    20282    20283    20285 
   20285    20285    20285    20285    20285    20285    20287    20287 
   20285    20285    20283    20285    20285    20283    20285    20286 
   20285    20282    20282    20285    20286    20290    20305    20337 
   20405    20509    20618    20713    20790    20838    20807    20700 
   20703    20895    20960    20668    20335    20177    19958    19542 
   18976    18578    18970    19500    18785    17991    19082    20754 
   21165    21249    22249    23619    24551    25105    24995    24256 
   24067    23346    20574    18230    17969    17959    17779    18368 
   18958    19583    21123    20650    18031    18646    20061    18319 
   18501    19901    17838    17849    22717    24579    22152    23001 
   25691    24138    22952    23769    21188    20420    22486    19822 
   20024    23584    17180    12332    21108    26044    21189    21789 
   26403    21926    15898    19172    16854     6015     8645    16094 
    9678     8992    21335    25922    25664    30676    31166    24609 
   19701    17845    18091    21762    22100    14320    11797    19830 
   23468    22015    24139    24768    26265    32435    29774    21629 
   23008    21705    11988    10586    13011    10789    17107    27772 
   24931    15909    16483    25076    32452    33682    26476    16195 
   15996    21073    16343    15005    26671    25087     9251    12218 
   29918    35024    29808    25567    20317    16114    17404    15720 
    5771      463     5386     6628     2666     9000    22894    26275 
   18202    12966    16622    19106    13468    12837    21830    17991 
   -2073    -6647    10157    19359    22032    33756    31746    17193 
   29960    46187    29328    18505    26377    22064    16486    14864 
    6041    12301    35721    46534    40759    29442    21325    24960 
   31298    30055    27789    24403    20106    23222    23155    12248 
    8475    15561    19400    20687    23718    24316    24572    29889 
   32548    20768     5733     9024    23414    28046    24501    21523 
   18241    15417    14787    15363    15371    12348     9882    10941 
    8499     5115    12834    22011    19037    18994    25878    18719 
    8554    18735    29965    23697    16970    19799    24624    30308 
   30140    16698    11539    27417    34874    25315    27711    32301 
   12918     2756    22620    31788    25675    30746    28759    15519 
   19687    26315    18299    23016    36062    30237    23429    23780 
    9868      353    15838    25589    16775    14485    17820    12267 
   12048    23337    24291    17837    21003    18581    11037    15831 
   14058     5838    13788    19427    15499    19438    22238    21868 
   27334    25320    15691    19052    30392    31850    27618    24969 
   22707    20340    18897    25020    33091    28291    21180    20341 
   14960    13666    24460    31699    31889    28663    19537    16700 
   26175    29801    22464    19190    19417    15884    17392    21489 
   18535    19859    24436    18507    15840    24453    26010    19082 
   16544    15790     9691     4847    13263    29205    31861    18767 
   11736    17211    17451    14886    22608    25226    16112    11495 
   10937     9055     9990    14011    18902    20430    18018    19600 
   25739    25790    19138    18311    22692    22157    22064    25560 
   20803    10002     6609     7485     7877    14478    24216    28071 
   29257    29859    24011    17236    20352    26092    24931    23398 
   23244    17930    13263    17901    25015    25207    22990    23764 
   23133    21060    21672    21487    18385    17967    19238    15475 
   12924    17822    20555    19322    22708    28069    28351    25070 
   24468    25987    22281    14435    12270    18036    23901    26179 
   26403    22968    18056    18936    27344    35094    31360    20649 
   15310    14274    14936    17913    19310    21999    26464    21736 
   11566    11227    17118    17948    16717    17215    16795    18316 
   21458    19809    17342    18565    20085    24538    31089    28894 
   22069    23546    25573    21375    23070    26438    19804    17965 
   24634    22221    17539    19364    17693    17768    22123    19982 
   19865    24075    18291    12960    20482    26478    23857    17779 
   10365    10197    16723    16421    15260    19873    20757    23404 
   27298    19629    16510    25701    25763    20792    21907    15437 
    5648     9763    18459    20322    19070    14679     9508    10739 
   15125    16217    16087    18333    20124    19543    20954    22370 
   20409    22669    28216    27780    25309    25713    27406    29420 
   27297    24073    27085    28518    24661    23064    21373    17964 
   18519    21575    23098    21583    18256    18365    20073    19143 
   19565    17506     9562    10126    18968    21261    21524    21216 
   17369    22443    29327    24358    22846    29050    30744    28094 
   21996    17676    19371    15931    10462    14322    18393    18080 
   19288    18747    14436    10578     9938    12114    14372    16804 
   17967    15286    14675    17277    18504    24025    30952    26775 
   20822    23895    24602    23345    29278    29273    20093    19080 
   23357    22599    22937    25088    22941    20216    20274    19079 
   16780    16074    16505    19920    23797    20340    14706    15711 
   17374    16254    17813    19897    18945    17999    20169    25466 
   27487    24052    24979    30578    31341    27841    24939    22627 
   19179    17834    20518    18173    11966    11855    10199     4737 
    7125    13248    16301    20007    20814    17379    18237    20596 
   19049    22743    29276    26191    24483    31280    30892    25278 
   24256    21652    22110    29385    28896    21579    19417    19187 
   17620    18790    22500    24294    24324    26527    27151    22014 
   17718    17744    17973    18809    20113    16803    12044    12267 
   13250    15947    26092    31730    28516    30260    29304    17383 
   13263    17298    14551    12918    14640    10242     7055     9321 
   12714    21091    27284    21933    18160    19187    14044    13527 
   22511    22414    14805    13520    13232    11182    15253    23364 
   28656    30457    28826    26065    25130    20964    14850    16942 
   20688    17609    18580    25147    25986    24050    24412    20490 
   14391    16000    21687    24000    24823    25543    23828    19834 
   17269    17720    17521    15493    15738    18858    20995    21046 
   18819    15363    19570    30937    32671    25643    23842    23635 
   22253    22635    17713    11404    14041    19056    22593    26223 
   24483    22025    25786    27911    25309    23040    20175    16348 
   14366    13587    13159    14223    16591    18989    19445    17396 
   17790    22832    26226    26512    27518    26038    20549    17130 
   15785    13670    15669    21282    22495    20736    20251    20730 
   25492    30415    26187    19769    18096    15161    13332    17487 
   19307    15437    13076    13317    15538    22108    27504    27735 
   28696    28471    21301    14910    16528    21186    22704    19639 
   15615    15781    18138    18292    17918    17934    17077    18154 
   21088    21725    22482    24270    20892    15924    17432    20129 
   19122    19072    19888    19271    20652    23701    23803    21886 
   21666    21440    17921    14562    14810    15925    18324    22994 
   23345    18836    19187    24113    25726    26302    27217    24752 
   23188    22991    17749    13722    19804    27284    26190    22238 
   20513    18755    18149    17740    15982    17803    21169    20595 
   20781    21875    17363    14971    21492    22578    16545    19052 
   22422    17470    15506    15726    14605    18524    22694    24262 
   25856    23456    21335    22901    21725    20407    21710    20363 
   17088    16418    17782    17193    15703    16902    17591    16933 
   17818    18100    18106    18472    16696    17103    21227    20515 
   15151    15246    19773    21439    23004    25180    24131    24050 
   26030    24628    20623    19511    22883    25582    23133    16852 
   12783    17795    26003    25339    19822    19612    20981    17675 
   17113    22767    24748    23004    22315    20360    20655    21956 
   18333    18489    25265    27812    25964    24430    20772    16402 
   18782    25930    27014    23538    22400    18295    12459    14966 
   20236    19836    17768    15704    15223    19008    21681    23400 
   26268    23175    16329    11543     7207     8451    14114    16887 
   22844    26329    19215    21348    33012    32649    30708    35834 
   33484    27465    25976    24528    25914    29227    26962    23764 
   23743    21532    17523    15257    12098     6640     1019    -5417 
  -11163    -9574    -1055     9213    23492    39888    47835    44824 
   33478    13996    -3680    -5387     1714     -283    -5779      -16 
   11299    23125    41400    60862    73245    78792    76508    64503 
   43949    19727    -2866   -22111   -32320   -28769   -22484   -21452 
  -12847     6096    19101    28618    42199    44274    32782    23681 
   17813    12974    11435    11145    14389    25344    40682    49581 
   39590    16221      491    -7030   -17365   -17945     4653    38815 
   66957    79620    73957    53886    33219    24505    17466    -3203 
  -31078   -53177   -60563   -46527   -18323     4653    18395    42484 
   75984    88249    79783    74661    67289    51568    37755    18886 
   -3592    -8228    -5969   -20719   -35239   -27160    -3819    24547 
   48910    61632    69882    72736    63482    52906    46552    41615 
   40836    41715    41400    36070    19519     3487     3628    11588 
    8839    -6529   -23168   -35459   -33205    -3734    31719    46653 
   56187    67493    52686    15068    -1296    13126    21421     9769 
    -112    -1335     1210     8271     8059     6035    34889    82474 
   99118    77315    53393    51224    53739    35910     2249   -27909 
  -39746   -26345    -1270     8567      608    -3348     7389    32607 
   61071    66795    48193    29820    21555    15624     9356    20255 
   53605    72063    49225    12748     5568    32081    55714    53253 
   40284    29749    14295    -3478   -10590    -8583    -3881     3245 
    7955     7834     4198    -4168   -10106   -11977   -17651   -16147 
    1008    19570    33201    38526    25111     5298     2247    11038 
   12977     5482     -658     7146    26334    31317    10542   -14963 
  -26056   -13501    20077    41467    29284     8451      496     2458 
   15446    40205    63360    66046    44504    19175     5416    -1301 
   -2909     2887    10999    14287    13518    14885    18778    23402 
   28657    29269    27635    37123    52039    54067    50728    57519 
   63234    55206    40038    22557     8467    14013    30987    25778 
    3672     2496    20683    31968    33624    26287    15626    24063 
   39910    34114    20665    16244    10523     -761    -8299    -2901 
    5038     -923    -7153     3670    21498    32175    30493    21698 
   18443    18129    15583    21514    32238    33149    29889    27639 
   19699    12232    13597    15581    16811    24624    29668    28408 
   34574    40802    31928    16429     6999    10611    21397    19955 
    8662     5449    10037    17517    27712    31556    26163    24368 
   28005    28286    29066    33396    34612    34091    31862    20449 
    9687    13629    19927    14462     8009    13408    23938    25216 
   16228    10729    14461    18733    22748    30237    30834    16972 
     546    -4874    -2767    -3870    -3613     8255    23877    35140 
   46811    53122    44957    33667    31806    31792    25767    20771 
   15442    -2357   -19599   -11543    10014    19543    23718    34425 
   40595    36062    29459    25564    23168    22361    25056    26685 
   20081     9861     2528      194     9441    24514    28907    25668 
   24324    22175    19549    19687    19965    19294    19835    18945 
   15256    15948    20553    20784    20339    24421    27363    26474 
   26103    29092    32575    32157    29917    26647    18565    12835 
   14536    10978     3589    10430    24397    24980    14432     5918 
    5790    13819    20995    18802    10493     2334    -1163     3906 
   13840    21924    26835    28833    28903    28980    28702    27433 
   26503    26404    26264    27916    32660    34441    30090    26292 
   25442    25957    28378    26605    19170    16131    20440    28665 
   35155    31661    21699    13657     7821     7346    13570    17991 
   19283    22252    22469    15191     6064     2261     1813     2806 
    9477    17779    22261    25929    26292    23287    25037    28391 
   28925    33909    39087    31909    18611    11638    13595    20668 
   21685    14747    12529    15422    15034    14196    15303    13575 
   11599    15723    21216    20283    16814    19519    26005    28092 
   25952    21509    13991     7021     3975     5301    11838    20110 
   24437    25714    28964    34932    39695    39827    34133    25917 
   20399    16588    16143    25019    31696    22963    14233    17474 
   18331    12930    12746    16906    19017    19599    20304    21096 
   20810    19475    20672    27152    35428    37516    30720    23021 
   20795    19395    15596    13937    16189    19516    20048    15117 
   10376    13871    21898    25849    24470    20110    15273    14053 
   17851    22090    20653    14443    12491    17864    21843    19180 
   13927     9217     5860     5755    10968    22048    30947    28568 
   22682    21047    19091    21384    31521    36036    31689    29764 
   30051    26766    23224    22087    19708    14285     9929    11068 
   15739    19873    21987    20410    19001    23985    27278    21317 
   17385    21419    24202    21635    16364    13212    14845    14465 
   11142    12891    16166    16962    20682    25070    26508    25976 
   22360    21149    24069    23242    23363    28314    27284    19932 
   16112    19302    26455    28343    22698    21024    27342    32653 
   31060    24817    18982    16572    17703    19279    17223    12738 
    9745     9693    12148    13624    11673    10455    13386    17244 
   19940    23757    27660    28929    28530    26784    24598    24260 
   23637    22489    22882    19207    12186    13927    20513    19953 
   19222    22451    21311    21941    30096    30323    19434    15430 
   19597    19367    16279    16669    18492    19255    19076    17045 
   12685     9497    11443    15465    16452    16829    18762    18401 
   16807    18130    19700    20023    21617    21801    19472    19894 
   22076    21026    19427    21783    25439    24270    19035    17456 
   21220    24071    23203    20763    17297    13139    11469    12155 
   10619     7375     6405     8445    14040    19726    19109    16866 
   19708    22561    22929    24903    25685    22891    22499    24270 
   22800    22904    28278    32217    33308    34614    33378    29624 
   28518    30183    29312    23618    18216    18231    20236    19861 
   19557    20723    21305    21757    22917    24210    24984    24015 
