Origin Time       2024/04/02 04:24:00
Lat.              40.133
Long.             141.712
Depth. (km)       71
Mag.              6.0
Station Code      AOMH11
Station Lat.      40.5800
Station Long.     140.9950
Station Height(m) 140
Record Time       2024/04/02 04:24:52
Sampling Freq(Hz) 100Hz
Duration Time(s)  142
Dir.              3
Scale Factor      2940(gal)/6170270
Max. Acc. (gal)   8.552
Last Correction   2024/04/02 04:24:37
Memo.             
[...]
   74903    74905    74906    74905    74902    74902    74902    74900 
   74901    74902    74903    74906    74906    74903    74902    74903 
   74903    74903    74903    74902    74901    74902    74904    74903 
   74901    74900    74901    74905    74904    74902    74904    74904 
   74903    74904    74905    74905    74905    74905    74903    74903 
   74903    74902    74902    74903    74903    74903    74903    74903 
   74904    74903    74902    74901    74901    74904    74905    74906 
   74905    74901    74900    74902    74902    74903    74904    74903 
   74902    74902    74902    74901    74901    74902    74903    74904 
   74904    74902    74901    74903    74903    74902    74901    74900 
   74903    74902    74903    74906    74904    74901    74903    74904 
   74902    74900    74902    74903    74902    74901    74902    74902 
   74902    74903    74904    74904    74904    74903    74901    74902 
   74903    74902    74903    74905    74902    74902    74903    74902 
   74902    74903    74904    74904    74903    74903    74903    74901 
   74901    74901    74902    74904    74902    74902    74903    74902 
   74904    74904    74903    74904    74906    74904    74902    74903 
   74904    74903    74902    74902    74902    74902    74902    74902 
   74901    74903    74903    74902    74902    74902    74902    74904 
   74903    74903    74904    74904    74901    74899    74900    74901 
   74900    74902    74904    74903    74903    74902    74900    74902 
   74903    74902    74906    74911    74915    74921    74930    74945 
   74966    74996    75035    75083    75139    75208    75287    75375 
   75471    75574    75674    75764    75834    75875    75903    75940 
   75979    75999    75983    75924    75810    75642    75439    75238 
   75103    75095    75201    75305    75299    75231    75277    75529 
   75914    76286    76510    76458    76039    75378    74877    74868 
   75278    75774    76066    76052    75917    75983    76265    76540 
   76863    77363    77533    76677    75091    73672    72681    72099 
   72283    72955    72807    71433    70145    69832    69924    70275 
   71509    72860    72814    71719    70692    69894    69765    71254 
   74390    77646    79183    79093    78616    78140    78080    78846 
   79329    78429    76734    75295    74750    75533    77502    79380 
   79672    78415    76715    75882    77094    79015    78837    76667 
   74698    74334    75741    77772    78826    78176    76278    74239 
   73475    75171    77915    78464    76724    75139    74450    74182 
   73668    72207    69913    67072    65216    66231    67650    66671 
   65735    66830    68329    68949    68347    66828    66062    66923 
   68468    69530    68939    67270    67823    71186    73739    74229 
   75149    76969    77244    75953    75097    74974    76181    79273 
   82085    82290    79946    77157    76004    76878    79333    81661 
   81854    80140    77221    74482    74590    77101    78952    79108 
   78362    75768    71311    69910    72347    73939    75429    77325 
   76287    75421    78191    79448    77252    76169    74419    69605 
   67764    70773    73991    76311    79043    82021    82030    77170 
   72422    71248    71130    71599    73602    74925    73871    72694 
   74116    76670    77195    76394    77368    79567    79917    78474 
   76843    75347    74829    76674    79676    79915    77480    77240 
   79086    78759    76750    75819    76640    78532    78799    75595 
   71843    71014    72600    75191    76906    75040    72930    74290 
   74184    70915    68852    68902    71501    75839    77170    73958 
   69301    67462    70352    73492    73419    74125    76740    77221 
   75779    74285    71913    69986    71334    74445    76211    76762 
   76501    75104    73520    72685    73139    75064    77320    77695 
   75419    73367    74078    76443    78865    79763    77174    73388 
   72151    71457    70454    72613    76802    79280    79123    77957 
   78181    78765    77954    76457    74735    74180    74822    73819 
   72014    71565    71722    73133    76094    78122    78645    79096 
   79405    78659    76699    74331    73077    73855    75463    75196 
   73317    73725    76503    78268    78691    77820    75428    74047 
   74532    74826    74193    72542    70162    69604    72192    75990 
   78400    77538    74372    72179    72489    73834    74392    74993 
   76128    75817    74362    73994    73994    72739    71080    70457 
   70740    71202    73242    77391    79130    75682    71090    70029 
   71788    72737    73398    75500    76270    75240    75432    76295 
   76647    77871    80203    81693    79887    74644    69832    69391 
   72512    75344    76802    78219    79072    77971    74674    70979 
   69963    71711    74056    76785    78986    77872    74771    73835 
   75626    78250    79369    78011    76333    74579    71645    70395 
   71006    69973    69475    71598    73109    73502    73156    70785 
   69599    72613    75883    75536    73534    72810    73271    74505 
   77177    80131    81260    80498    79014    77563    75700    73796 
   74476    77750    79546    78543    77021    75679    74926    74985 
   74456    73931    73647    72126    70711    70555    70875    72173 
   74351    76067    77191    77629    76681    75377    74993    74468 
   73216    72614    74119    77124    78412    77331    76174    75051 
   74473    75830    77285    77577    77923    77665    76376    75334 
   74471    74056    74243    73843    73490    73930    74308    74914 
   76004    75746    73801    73233    74986    75953    74879    73920 
   74192    75042    76170    76917    76670    76627    78112    80274 
   80969    79740    77751    74932    71926    71460    73021    73707 
   74084    75004    74692    73370    73305    74200    74479    74128 
   73220    71627    70310    70826    72984    74887    75750    75639 
   75287    75815    76812    77812    78273    77465    76385    75221 
   74333    75625    76794    75070    73569    74103    74063    73070 
   73178    73557    72496    71993    73102    73626    73628    74493 
   75322    74906    73407    71593    70598    71324    72674    73491 
   74044    73483    72216    72598    73999    75137    76767    77779 
   76873    75812    75547    75606    76057    75950    75361    76084 
   77581    78078    77470    76330    74912    73725    73810    74273 
   72701    70486    70604    72345    74013    74995    75225    75270 
   74786    73606    73534    75130    76341    76211    75520    74544 
   73660    73480    74040    75670    77378    76967    76117    76894 
   76659    75748    77262    78527    77064    75186    73762    72253 
   71267    70847    70523    70977    72937    74912    75307    75321 
   76112    76942    78091    80258    81748    81005    79029    76841 
   75161    75411    76985    77676    77127    75701    74277    75188 
   77303    77294    76563    76589    75922    75311    75286    74926 
   74931    74806    73072    71108    71144    72768    74158    74742 
   74473    74006    75034    76777    76514    73847    71385    71627 
   73538    74745    75247    75378    74714    74021    73910    74033 
   74489    74894    74723    74523    74451    74180    73924    74229 
   75367    76086    75020    73719    73751    74055    74231    74710 
   74854    74348    73458    72226    71213    71407    72280    72437 
   72377    72667    72199    71164    71003    71690    72350    72961 
   73883    75010    76463    78263    79436    79354    78458    77358 
   77170    78535    79296    78139    77465    77795    77360    76877 
   77149    77157    76705    76092    74997    74037    74372    75372 
   75911    75705    74040    71900    71708    73266    75825    78121 
   77563    75884    75514    74848    74475    75928    76777    75553 
   74092    73113    72351    72419    72701    72806    73761    73872 
   71925    71328    73138    74279    73628    72525    72189    72434 
   72866    73540    73845    74025    74503    74307    73788    74380 
   75604    76352    76981    77578    77301    76944    77881    78808 
   78229    76594    74607    73917    74815    74786    73817    73815 
   75024    76787    77658    77178    76840    76535    75696    76351 
   78244    78234    76718    76098    76189    75496    74482    74764 
   75312    74994    75600    76628    75734    74744    75337    75739 
   75105    73464    71554    70995    71461    72566    74311    74366 
   72705    72654    73802    73742    73301    73229    72897    72848 
   73002    72218    71178    71262    72437    74247    75538    75034 
   74130    74699    75766    76196    76245    76207    76604    76870 
   75978    75051    74975    75332    76308    77841    78968    78789 
   77299    75944    75966    76246    76173    76568    76459    75660 
   75620    75998    75968    75174    73841    73578    74595    75187 
   75140    75365    75600    75450    75202    74507    72983    71676 
   71294    71676    73547    76002    76318    75225    75193    75674 
   75360    74319    73460    73680    74134    74170    74507    74091 
   72730    73210    74791    74773    74879    75968    76138    75601 
   74607    73303    73831    76028    77265    77196    76774    76070 
   75148    74717    75276    75598    75463    76796    78295    77230 
   74909    73625    73332    73182    73150    73218    72951    72942 
   73970    75134    74912    73443    72241    72126    73098    74241 
   74490    74438    74233    73758    74162    74686    74068    73368 
   73358    73869    74570    75345    76544    76886    75373    74374 
   74914    75379    76256    78087    78711    77666    76755    75494 
   73763    73972    75486    75517    74661    74696    75409    76231 
   76900    77140    77131    77186    76968    75901    75168    75763 
   75456    73422    72746    74261    75324    75370    75795    76508 
   76818    76814    76478    75965    75441    73744    71624    72036 
   73811    73939    73812    74923    75160    73786    72739    72846 
   73151    72788    72612    73433    74291    74919    75496    75407 
   75185    75405    75471    75438    75824    76804    77952    78134 
   76944    75053    73214    72231    72417    73032    73708    74981 
   76431    76817    76168    75190    73815    72644    73096    74787 
   76277    76853    76256    74856    73053    71686    72525    75429 
   77659    77437    75790    74153    72678    72141    73596    75729 
   76451    75677    74480    73708    73593    73383    73129    74168 
   75399    75068    74539    74224    73715    74636    76023    75611 
   74798    74794    74870    75110    75576    76008    76562    76935 
   76757    76248    75874    76082    76853    77628    77489    76286 
   75150    74528    74335    74559    74324    73774    73923    74237 
   74315    74884    75528    74860    72920    71561    72219    73944 
   75245    75844    75679    74897    73930    73836    75072    75922 
   75875    75732    74993    74087    74178    74661    74475    74075 
   74061    73817    73626    73892    73578    73222    73592    73798 
   74219    74972    74553    73343    73554    75508    76953    76519 
   75309    74541    74594    75326    76147    76784    76888    76450 
   76569    76813    76025    75877    76474    75701    75433    76313 
   75405    73822    73627    74247    75433    75976    74973    73800 
   73565    74347    75028    75034    75540    75783    74890    74393 
   73901    73016    73990    76130    76664    76076    75313    74563 
   75476    77372    77047    74902    73916    74833    76337    76915 
   76076    74702    73386    72157    71949    72511    72226    72330 
   74374    76396    76985    76915    76133    74518    73484    73397 
   73384    74587    77670    80231    80715    79539    77704    76682 
   76724    77135    77297    76389    74888    74507    75379    75810 
   75395    74749    73437    72182    71828    71380    71640    73727 
   75486    75566    74884    73185    71390    72093    74238    75445 
   75777    75501    75621    77346    79138    79217    78454    77869 
   76990    75515    73703    72486    72369    72476    73132    74063 
   73343    72963    75117    76167    74396    73387    73852    73603 
   73406    74805    76799    77356    76077    75354    76048    75793 
   74314    73239    72938    73438    74962    76779    77012    75850 
   75344    74603    72655    71786    72573    72664    71809    72859 
   75841    76823    75263    73602    71877    70638    70944    70932 
   70281    71182    74281    78662    81725    82213    81833    80184 
   76854    74635    74414    73799    71115    68176    68089    70258 
   71777    72274    72584    72103    70993    70863    72977    77161 
   80225    79698    77734    75576    72252    69412    68732    69607 
   71257    72301    72177    71888    72180    74308    77678    79334 
   79636    80054    79162    76843    75146    75292    76769    78246 
   79065    78786    78152    78640    79366    78477    74662    69011 
   66239    68067    70867    71789    71075    70299    71206    73983 
   76288    76985    77165    77278    78160    79109    77657    75573 
   75439    75120    72233    67962    65731    68000    74654    83557 
   90517    92850    92039    89123    84792    80816    76178    70994 
   67907    66477    66590    67655    66319    65275    69388    76979 
   85004    88766    84614    79350    78507    76549    70310    64770 
   64644    67485    66226    61402    60891    65596    71995    80920 
   89665    91633    86756    79383    73175    69845    67555    65281 
   63512    61105    60160    63323    68592    76023    84706    87740 
   83318    77618    74658    74113    75565    78482    80836    80301 
   76384    71884    70159    72062    77121    82938    85762    85244 
   83854    82408    79755    77197    78573    81150    78446    73469 
   72408    73585    73765    73399    73135    73179    74852    77550 
   76475    70440    66362    67968    71625    75401    78817    79230 
   75836    71705    69747    69413    70202    73702    79363    83247 
   82342    79379    79177    80442    78733    74215    70954    71154 
   72456    71888    69253    65638    63497    64992    68423    71121 
   72759    73407    72166    70324    71324    74077    74563    73292 
   73697    76605    78671    77236    75004    74784    75032    74693 
   75087    76934    80226    82722    80668    76136    74351    75321 
   77728    80410    80128    77628    76389    76596    77243    77192 
   75524    73548    72693    72154    71267    71079    71157    71054 
   73292    76968    77306    74938    75019    77938    78765    76010 
   72454    69896    70763    76179    82237    84507    82554    80392 
   80554    80196    78933    78015    74814    71833    73560    75603 
   74443    72038    69148    66797    66434    67486    69185    71373 
   72782    72842    73410    74658    74706    73418    73332    75656 
   75942    72386    70363    71584    73205    74587    75369    74024 
   72118    73779    77888    79515    78822    78449    78659    79058 
   78940    77997    76950    76106    75078    73357    71350    70309 
   70820    73441    77347    78379    76569    77362    79652    78784 
   77075    77372    77655    76685    75405    74362    73048    71217 
   70820    72391    72860    72119    72673    73690    74453    75959 
   77026    77253    78525    79687    78418    76059    74190    73095 
   73660    76005    78385    78877    79107    80870    80379    76557 
   74074    73309    73069    75176    77783    77974    76998    75567 
   73206    70725    69204    68480    67287    66465    67126    67330 
   67749    71213    75895    78325    77132    73905    72277    72290 
   72562    73904    75152    75530    76701    77657    77030    76450 
   76711    76698    76415    76860    76238    73128    71205    71739 
   71897    72129    73529    75274    76431    75739    74417    74782 
   76125    77396    78496    79405    80019    79362    77560    75546 
   74040    74132    74291    73228    73349    74832    75939    76696 
   76899    76608    76270    75859    75461    74909    74791    75661 
   76193    75352    74313    74738    75667    74793    72454    70868 
   71161    72246    72903    73448    73408    72776    73552    75380 
   74971    71985    70449    71272    71075    70482    71954    74045 
   76256    78982    79261    76088    73067    72151    71648    70560 
   70405    71551    72338    73043    74151    74418    74412    74868 
   75060    75398    76249    77175    77763    77808    78587    80239 
   80778    80376    80217    80138    80319    81554    83463    84123 
   83830    84158    83554    81347    78455    74714    72174    72305 
   73327    74346    75322    75713    74600    71758    69966    71693 
   74685    75551    73691    71186    71374    73855    75191    75366 
   75312    75304    77068    79578    80240    79158    77494    76345 
   75441    74444    74358    74671    74922    75192    73723    70626 
   69246    70643    71737    70861    70054    70075    70023    70552 
   71547    71959    72854    74192    74013    73612    74485    74512 
   73653    73816    73612    72525    72846    74072    74935    76021 
   75832    73246    71266    71815    72594    72594    73787    75475 
   75504    74871    74104    72744    72047    71612    71040    72228 
   73396    72061    71369    73061    74718    75902    76716    76539 
   76545    77160    77509    77533    77106    75957    75172    75953 
   76764    76487    77208    78692    78756    78350    79027    80605 
   81145    79160    76608    74992    74243    74369    74624    75526 
   76706    76482    77004    79487    80694    79985    78917    77103 
   75430    75349    75739    76024    76641    76204    73729    71549 
   71766    72938    74346    76609    77055    74038    71237    70572 
   69783    69270    70466    71578    71816    71557    71106    72366 
   74669    75338    75138    74329    71565    69003    69249    72030 
   75574    77542    77358    75563    72511    70282    70401    71397 
   71461    70740    71000    72771    74439    75439    76416    77263 
   77195    75986    75160    75341    75616    76074    75823    74859 
   76258    79659    81592    81963    81505    79649    77920    77399 
   76974    77079    77803    77541    76960    77279    77454    77105 
   76039    73706    72411    73199    73284    72324    72219    72839 
   73241    73930    75651    76650    75843    75491    76559    77730 
   77737    76284    75004    74961    74488    72347    70738    72059 
   74578    75641    75430    75010    74995    75244    75055    75125 
   75873    75901    75410    75299    74423    72701    71738    71817 
   72428    73441    74607    75483    75659    75502    75984    76432 
   75569    74536    74704    75443    75778    75791    76393    77815 
   79231    79435    78289    77874    78249    76646    74246    73779 
   73490    72445    72528    73571    74742    75759    75571    74203 
