Origin Time       2024/04/02 04:24:00
Lat.              40.133
Long.             141.712
Depth. (km)       71
Mag.              6.0
Station Code      AOMH13
Station Lat.      40.5794
Station Long.     141.4451
Station Height(m) 10
Record Time       2024/04/02 04:24:50
Sampling Freq(Hz) 100Hz
Duration Time(s)  300
Dir.              6
Scale Factor      7845(gal)/8223790
Max. Acc. (gal)   37.084
Last Correction   2024/04/02 04:24:50
Memo.             
[...]
  -27599   -27600   -27604   -27592   -27589   -27602   -27603   -27604 
  -27606   -27598   -27600   -27602   -27596   -27595   -27596   -27600 
  -27603   -27598   -27599   -27600   -27598   -27598   -27596   -27600 
  -27602   -27595   -27595   -27596   -27594   -27600   -27596   -27592 
  -27599   -27600   -27600   -27599   -27591   -27588   -27588   -27595 
  -27600   -27595   -27598   -27606   -27598   -27589   -27595   -27602 
  -27602   -27596   -27599   -27607   -27596   -27596   -27608   -27602 
  -27591   -27594   -27610   -27618   -27599   -27589   -27600   -27599 
  -27596   -27600   -27599   -27595   -27595   -27602   -27603   -27595 
  -27596   -27602   -27591   -27589   -27602   -27608   -27607   -27598 
  -27594   -27598   -27596   -27600   -27604   -27596   -27592   -27596 
  -27595   -27599   -27604   -27606   -27599   -27591   -27595   -27596 
  -27594   -27600   -27598   -27592   -27602   -27603   -27591   -27589 
  -27600   -27604   -27595   -27592   -27598   -27599   -27598   -27599 
  -27599   -27595   -27588   -27591   -27603   -27600   -27594   -27594 
  -27595   -27599   -27592   -27592   -27607   -27607   -27599   -27598 
  -27594   -27596   -27599   -27595   -27598   -27600   -27595   -27599 
  -27606   -27596   -27594   -27603   -27606   -27599   -27595   -27603 
  -27600   -27591   -27600   -27611   -27606   -27592   -27585   -27600 
  -27612   -27607   -27602   -27596   -27598   -27611   -27608   -27599 
  -27596   -27600   -27604   -27602   -27598   -27604   -27603   -27595 
  -27596   -27600   -27594   -27591   -27603   -27610   -27594   -27592 
  -27606   -27600   -27596   -27599   -27596   -27604   -27600   -27592 
  -27600   -27602   -27595   -27595   -27591   -27594   -27596   -27602 
  -27607   -27600   -27594   -27600   -27603   -27604   -27603   -27594 
  -27598   -27600   -27592   -27596   -27606   -27608   -27600   -27585 
  -27589   -27596   -27589   -27592   -27598   -27595   -27596   -27592 
  -27591   -27596   -27598   -27592   -27591   -27594   -27595   -27599 
  -27603   -27599   -27595   -27600   -27600   -27595   -27600   -27606 
  -27602   -27599   -27595   -27594   -27595   -27598   -27603   -27602 
  -27595   -27599   -27596   -27599   -27607   -27604   -27603   -27600 
  -27592   -27595   -27603   -27608   -27610   -27603   -27602   -27600 
  -27594   -27594   -27599   -27600   -27602   -27602   -27600   -27600 
  -27600   -27606   -27608   -27598   -27594   -27598   -27604   -27610 
  -27603   -27600   -27603   -27602   -27603   -27606   -27604   -27600 
  -27596   -27598   -27600   -27598   -27599   -27599   -27598   -27602 
  -27599   -27599   -27600   -27594   -27592   -27600   -27600   -27592 
  -27589   -27596   -27602   -27596   -27596   -27604   -27598   -27594 
  -27598   -27598   -27599   -27602   -27600   -27599   -27599   -27604 
  -27602   -27592   -27599   -27606   -27604   -27603   -27595   -27594 
  -27607   -27603   -27595   -27602   -27600   -27600   -27602   -27598 
  -27602   -27600   -27591   -27591   -27595   -27600   -27599   -27596 
  -27600   -27598   -27600   -27608   -27596   -27591   -27603   -27608 
  -27607   -27603   -27600   -27602   -27602   -27600   -27595   -27589 
  -27596   -27599   -27595   -27599   -27603   -27596   -27592   -27598 
  -27602   -27599   -27592   -27598   -27602   -27598   -27598   -27596 
  -27600   -27603   -27599   -27598   -27595   -27596   -27607   -27600 
  -27591   -27595   -27598   -27599   -27596   -27594   -27600   -27602 
  -27596   -27600   -27602   -27594   -27592   -27594   -27595   -27600 
  -27606   -27604   -27594   -27591   -27600   -27594   -27592   -27606 
  -27607   -27602   -27599   -27600   -27604   -27599   -27589   -27602 
  -27608   -27595   -27588   -27591   -27598   -27598   -27598   -27598 
  -27598   -27596   -27592   -27588   -27602   -27612   -27604   -27602 
  -27599   -27599   -27606   -27600   -27596   -27604   -27607   -27602 
  -27589   -27589   -27599   -27594   -27594   -27606   -27606   -27600 
  -27595   -27588   -27572   -27535   -27475   -27373   -27226   -27059 
  -26870   -26655   -26426   -26141   -25770   -25369   -25120   -25348 
  -26262   -27677   -28973   -29596   -29733   -29636   -28682   -27252 
  -28252   -32622   -34979   -30036   -21536   -17782   -20891   -25898 
  -28179   -27731   -25613   -22630   -22809   -27661   -31630   -30897 
  -27344   -24918   -25907   -28452   -30142   -29767   -27792   -27799 
  -28853   -26897   -25022   -26655   -30450   -33685   -31295   -24686 
  -22669   -26173   -29779   -30620   -28783   -27159   -28563   -32571 
  -31855   -21845   -16722   -27831   -42462   -45785   -37430   -25564 
  -16904   -12806   -14690   -20825   -26692   -31996   -33185   -28313 
  -23629   -20359   -20884   -30692   -38396   -30331   -17124   -16082 
  -23020   -25226   -24506   -26126   -29434   -32953   -35726   -38927 
  -32887   -13683   -14413   -41227   -45279   -24985   -24059   -34496 
  -27442   -14712   -16449   -26750   -28806   -26046   -31877   -35284 
  -28815   -27405   -26450   -21259   -31332   -46341   -39367   -23321 
  -17952   -20888   -29984   -40980   -45054   -43688   -39826   -32250 
  -26870   -25176   -20663   -20920   -29826   -30531   -25938   -31581 
  -33049   -23755   -23908   -31410   -30589   -23047   -17211   -23791 
  -39849   -42399   -24923    -7808   -10515   -28104   -36809   -28825 
  -19217   -19921   -30422   -39159   -37860   -34776   -32918   -28696 
  -28890   -31378   -25331   -13895    -7893   -14504   -29245   -40111 
  -44055   -38859   -25930   -21523   -26646   -26689   -26542   -32454 
  -33354   -28067   -22565   -13383    -8753   -20641   -34489   -34241 
  -29434   -31587   -34601   -30665   -22866   -16297   -16043   -22829 
  -26848   -28235   -34603   -34983   -23176   -13547   -14222   -28910 
  -49896   -47459   -23996   -14165   -16607   -16524   -22889   -30928 
  -30618   -34314   -39569   -32514   -25419   -26346   -24155   -22272 
  -28559   -32487   -27086   -24039   -28347   -28775   -24628   -27328 
  -32590   -26023   -16677   -23332   -35340   -35294   -30694   -29033 
  -23421   -15593   -18223   -30257   -37435   -35816   -30325   -22831 
  -16823   -19049   -29968   -38203   -37034   -34596   -32516   -26254 
  -20619   -19479   -24258   -34253   -40579   -38595   -27063   -10482 
  -10624   -27889   -33785   -29914   -33825   -33000   -22886   -23272 
  -29582   -25456   -22469   -28047   -29035   -25654   -28289   -35357 
  -36975   -27743   -17204   -16906   -23611   -32822   -39075   -30858 
  -16488   -16279   -26199   -30235   -28965   -33037   -38371   -29435 
  -15209   -18858   -31050   -31241   -27055   -25428   -19094   -18102 
  -30755   -36339   -28814   -27106   -27600   -20422   -17135   -21336 
  -27981   -35704   -37037   -32846   -31144   -28358   -22536   -19413 
  -24972   -37147   -38412   -25915   -22071   -30441   -33797   -28864 
  -25658   -30843   -35864   -27541   -17158   -20302   -26643   -30288 
  -35517   -32449   -22578   -21826   -28467   -35054   -37490   -31592 
  -24200   -18677   -14385   -20294   -29666   -27907   -25155   -31380 
  -38030   -37841   -29978   -20819   -20578   -26871   -30051   -27781 
  -22349   -20085   -26312   -34272   -37685   -38183   -32626   -23503 
  -21847   -24422   -23737   -24378   -28301   -30431   -26662   -19890 
  -21586   -32351   -36119   -30688   -30406   -33093   -27560   -21980 
  -24827   -27445   -26535   -27441   -28740   -29751   -33165   -33068 
  -25995   -22081   -25176   -29343   -34275   -34780   -25101   -19754 
  -26792   -30916   -28093   -28202   -31993   -35996   -35050   -25901 
  -19376   -23333   -28559   -28842   -27939   -27307   -26005   -24291 
  -22239   -21101   -24171   -30165   -32580   -30612   -28255   -27349 
  -26765   -23554   -21936   -26169   -29803   -32795   -34696   -26657 
  -20185   -25213   -25415   -22600   -28996   -31276   -26032   -26183 
  -29374   -31553   -32765   -28682   -23264   -21223   -19325   -21782 
  -31603   -37212   -33947   -29574   -24975   -21614   -24943   -28312 
  -27519   -28815   -29224   -26042   -26574   -29863   -28572   -24695 
  -25354   -31141   -36632   -38610   -35536   -27097   -20623   -21595 
  -24665   -26913   -29033   -27364   -22944   -21625   -23610   -25957 
  -27654   -29938   -33527   -34547   -29694   -23770   -22461   -21463 
  -18015   -20929   -30122   -33933   -31742   -28621   -25571   -25930 
  -30466   -33899   -31768   -26715   -25479   -25855   -23433   -23537 
  -26553   -26284   -26358   -31546   -33999   -27801   -22302   -24950 
  -27803   -25686   -26230   -30551   -29682   -24260   -22021   -23473 
  -27695   -33636   -34790   -30126   -26765   -26738   -26836   -26543 
  -26025   -24598   -25060   -29565   -33328   -31820   -26986   -22238 
  -21433   -26767   -31509   -30731   -30172   -30408   -27255   -25744 
  -28898   -30462   -27272   -22307   -21443   -26653   -30956   -30885 
  -29216   -26148   -23980   -26113   -31450   -35847   -33979   -28949 
  -26994   -23857   -21065   -25519   -29974   -30447   -32474   -32536 
  -27210   -21709   -21492   -26491   -28923   -27043   -27167   -27336 
  -25991   -26211   -26715   -29594   -33578   -31749   -27978   -26330 
  -26123   -29045   -29367   -25471   -24912   -25459   -26005   -29586 
  -29362   -25799   -27251   -30211   -29864   -29335   -33239   -41370 
  -41976   -30036   -21784   -24495   -27618   -27549   -25771   -24453 
  -28101   -31800   -29756   -25397   -20945   -19981   -25394   -30638 
  -30168   -25097   -22586   -27310   -28146   -21521   -22543   -30280 
  -30925   -27974   -29502   -30726   -26981   -23596   -26061   -31083 
  -33767   -33926   -29735   -20563   -16274   -24067   -33120   -31066 
  -23953   -24536   -31002   -31924   -27305   -25459   -25120   -23056 
  -23715   -26752   -27109   -26366   -27106   -27600   -26634   -24003 
  -22694   -26956   -30404   -27167   -28516   -38674   -40954   -30879 
  -25555   -29555   -29735   -24783   -23670   -24629   -23328   -23318 
  -26396   -28620   -29039   -31688   -33805   -28364   -20695   -20050 
  -24043   -26067   -24574   -22010   -22432   -29177   -37611   -36396 
  -26225   -20468   -23820   -29145   -30063   -28223   -27479   -25570 
  -22891   -24463   -28786   -32167   -32066   -27600   -25393   -27314 
  -27062   -25393   -23976   -21100   -20714   -25505   -32194   -35166 
  -30557   -23808   -20938   -21315   -26077   -32579   -36022   -38325 
  -35568   -26923   -25559   -29705   -27573   -23458   -20969   -20885 
  -27554   -32147   -30111   -30846   -30604   -27449   -30836   -34190 
  -31299   -28432   -23557   -20467   -27170   -32059   -29863   -30276 
  -28358   -21830   -25710   -35904   -34372   -27334   -26037   -25793 
  -24833   -24021   -23832   -27683   -29428   -25324   -24444   -26728 
  -27791   -30041   -29859   -27182   -30177   -33885   -29864   -24698 
  -24946   -28433   -30275   -26395   -21901   -25462   -33062   -34406 
  -28046   -21157   -19610   -20617   -20860   -24586   -30535   -30076 
  -24617   -23095   -28995   -36369   -34138   -25327   -24138   -27194 
  -24267   -21000   -22081   -24282   -29193   -34987   -33783   -28872 
  -29208   -32563   -32931   -29714   -26136   -26738   -30715   -32661 
  -30595   -27072   -26878   -30824   -33778   -33628   -32772   -32255 
  -30296   -26233   -26145   -31995   -32591   -25273   -22393   -25910 
  -26388   -21600   -17593   -20380   -27847   -33080   -35198   -33196 
  -25030   -19183   -20618   -20939   -20726   -26538   -31608   -31395 
  -29787   -27132   -27059   -30584   -31326   -32324   -33331   -25732 
  -18670   -20852   -22292   -23441   -28634   -28969   -27810   -32027 
  -31294   -26063   -27349   -30813   -31137   -30684   -28067   -24510 
  -23801   -23553   -24327   -29106   -30416   -25185   -23940   -26493 
  -25184   -24945   -29172   -31935   -29153   -23525   -23004   -25866 
  -23128   -20979   -27714   -35623   -37084   -33084   -28286   -27936 
  -29342   -26387   -21952   -21120   -22717   -22191   -17508   -15847 
  -24453   -34422   -35093   -31545   -28486   -24964   -26927   -32976 
  -31302   -26184   -27218   -28792   -28474   -27738   -23604   -22362 
  -27342   -30335   -33809   -39926   -37118   -27066   -22453   -22017 
  -22127   -24241   -24348   -22916   -25907   -28312   -25303   -24559 
  -28456   -32313   -36765   -36779   -26299   -18981   -26450   -35347 
  -32100   -23376   -22133   -28101   -31344   -30824   -31448   -31380 
  -28576   -24953   -22396   -24876   -31264   -30769   -24545   -27812 
  -38032   -39036   -31800   -25335   -20251   -17485   -18327   -20694 
  -22524   -22296   -23841   -31148   -38284   -41453   -42199   -37292 
  -28934   -24474   -20710   -13691    -8232    -8287   -15236   -27468 
  -38475   -44092   -43968   -40274   -39438   -38638   -24861    -4598 
    1872    -3623   -10727   -25505   -48541   -62452   -58419   -49771 
  -49632   -51502   -46170   -38676   -29470   -10555     7549     7526 
   -1918    -6430   -14253   -32765   -49572   -54240   -51372   -47028 
  -40217   -29236   -17379    -7896     -353     1975    -5368   -18315 
  -31180   -43048   -53284   -58860   -53272   -37450   -26369   -25886 
  -24592   -14824      184     7797    -3669   -24845   -39522   -46589 
  -49049   -49601   -48038   -34156   -12248    -4403   -10558   -13117 
  -14206   -24544   -36479   -35982   -21498    -2381     6556    -4448 
  -27155   -42614   -40637   -27884   -21500   -31753   -47911   -52022 
  -42660   -28713   -15508   -10381   -21864   -46762   -66474   -63984 
  -44178   -22404    -7870    -9117   -23684   -35703   -42726   -48496 
  -47991   -43129   -37336   -32177   -33543   -30873   -13440     -257 
   -5391   -17647   -24208   -22280   -20757   -24143   -25330   -26994 
  -32626   -35044   -34071   -28773   -14523    -3003    -5788   -18959 
  -37991   -51771   -47529   -36671   -32474   -28269   -22974   -22705 
  -26912   -34323   -38300   -32971   -26241   -20308    -8560     1198 
   -4531   -25510   -47718   -51617   -33585   -11252      403    -4066 
  -20956   -31491   -26191   -20386   -22393   -24570   -26574   -27189 
  -17689    -5293    -6534   -21428   -39118   -49994   -49885   -43409 
  -37667   -36902   -39622   -39352   -36522   -32721   -23662   -20225 
  -31193   -34994   -29211   -40263   -55551   -48552   -36705   -34068 
  -25974   -10366     2440     4315    -8772   -24038   -27737   -28821 
  -36802   -39420   -25699    -8811    -7966   -23172   -38508   -41751 
  -34038   -22589   -15012   -18787   -31364   -40084   -40543   -39609 
  -39237   -32599   -19835   -10748    -9451   -14740   -25294   -34491 
  -35892   -31367   -25825   -24381   -32154   -42357   -40049   -26986 
  -15765    -9593    -8564    -9570    -8228   -14503   -31981   -42460 
  -39542   -36512   -38554   -41608   -46692   -52112   -46622   -29223 
  -15928   -16336   -23939   -28633   -29376   -34900   -44608   -43317 
  -28663   -14713    -6905    -6941   -22850   -44614   -46552   -28460 
  -12039    -6084    -9587   -22018   -34526   -37667   -31861   -21165 
  -16650   -26898   -37023   -35985   -35446   -34965   -26071   -20761 
  -27072   -30547   -21077    -8916    -9374   -24100   -40867   -49349 
  -48890   -42095   -31787   -21502   -14943   -15234   -17474   -12721 
   -6093    -7353   -14548   -26991   -43410   -50264   -43289   -33439 
  -23394   -14836   -17632   -26279   -28085   -30628   -38556   -38973 
  -30886   -23356   -17686   -18067   -28409   -40589   -46885   -45191 
  -32971   -17319   -13981   -22110   -25658   -22569   -21944   -21577 
  -17994   -17112   -18658   -18963   -21379   -25371   -28297   -30461 
  -27345   -21101   -21868   -26886   -31920   -42574   -53601   -54071 
  -47628   -40633   -30561   -19429   -16738   -21042   -22145   -21196 
  -25681   -35037   -41899   -40973   -36494   -33324   -28745   -25324 
  -28621   -31797   -27695   -22742   -26287   -37154   -43622   -42036 
  -42768   -43753   -31186    -9005     5294      594   -19080   -34697 
  -35114   -29401   -24452   -19256   -18673   -25057   -31461   -33552 
  -32148   -28046   -21802   -17373   -22103   -33409   -36678   -28119 
  -21452   -25791   -34304   -36340   -29045   -17680   -10107    -9859 
  -13072   -15564   -21197   -33178   -43544   -42873   -33791   -29597 
  -36059   -40954   -35463   -26322   -17143    -7128    -2286    -4550 
   -8735   -16407   -30651   -43794   -46924   -43810   -43380   -43487 
  -37353   -29427   -27437   -30651   -34366   -34460   -32061   -32132 
  -30580   -23315   -21674   -30726   -38993   -42766   -44884   -42102 
  -35033   -27436   -19483   -14193   -16517   -25790   -33697   -31116 
  -22154   -18840   -22559   -28923   -34531   -32314   -21659   -10984 
   -3846     -430    -2899   -10866   -18422   -17729   -12094   -13474 
  -21737   -31213   -42504   -48892   -44741   -40960   -41762   -38172 
  -32664   -31294   -29270   -26006   -23919   -18293   -11506   -13603 
  -22981   -30365   -33916   -35857   -35010   -29563   -22848   -20995 
  -24088   -25439   -20592   -13710   -12214   -16237   -20590   -24659 
  -30973   -37216   -39195   -37867   -35225   -31187   -26339   -20784 
  -17683   -21397   -27733   -34064   -42134   -43961   -36336   -29230 
  -24927   -22230   -26279   -34651   -39850   -41227   -38699   -31480 
  -25130   -23704   -21987   -18733   -20305   -23577   -22782   -24784 
  -31641   -33631   -29493   -25798   -24355   -26852   -34183   -38117 
  -32283   -24081   -22470   -25205   -25273   -22477   -22616   -27081 
  -31880   -35721   -38240   -35896   -29882   -27599   -29932   -30211 
  -26099   -21234   -19911   -22983   -26451   -28792   -30905   -30554 
  -30597   -33281   -28692   -16530   -12706   -20742   -30892   -37832 
  -39372   -35563   -30389   -27909   -29635   -31914   -30929   -30057 
  -32806   -34418   -28792   -20947   -20630   -24930   -26145   -26385 
  -27518   -26391   -24941   -26848   -28811   -26678   -24333   -27423 
  -32410   -32171   -28270   -26185   -25853   -26669   -29374   -31209 
  -31792   -34555   -37693   -36458   -32011   -31305   -35835   -35418 
  -27203   -23426   -25897   -24962   -22173   -23961   -28860   -31392 
  -26747   -18940   -18266   -23600   -26796   -28132   -29905   -31202 
  -32440   -31747   -26389   -19543   -15743   -15774   -17784   -20275 
  -24444   -28283   -27729   -26222   -25717   -22671   -21498   -26860 
  -33432   -37654   -39019   -35916   -33172   -35718   -36412   -28220 
  -18553   -16451   -18252   -19330   -22140   -25598   -27352   -28877 
  -27448   -22265   -20088   -21126   -20794   -20912   -21735   -20788 
  -20841   -22935   -23963   -24725   -27190   -29623   -28956   -24719 
  -21709   -23722   -27410   -28876   -27176   -23113   -22256   -28530 
  -37044   -42425   -43780   -41951   -39922   -38875   -35970   -31340 
  -28458   -27525   -26242   -25245   -27147   -29454   -26628   -20584 
  -18013   -19950   -23503   -27371   -30327   -30318   -27415   -24233 
  -23230   -24742   -25681   -23309   -21373   -23464   -26898   -29967 
  -32140   -32313   -33031   -33863   -31726   -31074   -33872   -33814 
  -30653   -28784   -27695   -25991   -23768   -21924   -22107   -23287 
  -23456   -23647   -25654   -28822   -29577   -26063   -22793   -22546 
  -21747   -21748   -26523   -30578   -29524   -29135   -32447   -35086 
