Origin Time       2024/04/02 04:24:00
Lat.              40.133
Long.             141.712
Depth. (km)       71
Mag.              6.0
Station Code      AOMH10
Station Lat.      40.6091
Station Long.     140.6646
Station Height(m) 102
Record Time       2024/04/02 04:24:55
Sampling Freq(Hz) 100Hz
Duration Time(s)  174
Dir.              5
Scale Factor      7845(gal)/8223790
Max. Acc. (gal)   5.746
Last Correction   2024/04/02 04:24:55
Memo.             
[...]
   -4263    -5027    -5765    -6258    -6334    -5989    -5344    -4577 
   -3900    -3407    -3026    -2646    -2261    -2020    -2123    -2633 
   -3462    -4415    -5215    -5628    -5649    -5471    -5254    -5004 
   -4679    -4240    -3680    -3072    -2556    -2266    -2257    -2458 
   -2743    -3001    -3141    -3146    -3013    -2717    -2346    -1993 
   -1618    -1220     -868     -583     -484     -749    -1310    -1904 
   -2404    -2841    -3246    -3655    -4020    -4202    -4232    -4213 
   -4071    -3711    -3171    -2528    -1966    -1786    -2170    -3057 
   -4137    -5005    -5428    -5391    -4905    -4094    -3275    -2708 
   -2447    -2304    -1993    -1553    -1325    -1532    -2162    -3046 
   -3950    -4658    -5005    -5004    -4835    -4635    -4395    -3987 
   -3281    -2316    -1305     -569     -403     -796    -1460    -2134 
   -2694    -3109    -3348    -3376    -3273    -3231    -3354    -3589 
   -3843    -3996    -3890    -3504    -3022    -2710    -2739    -3068 
   -3558    -3970    -4113    -4063    -3854    -3507    -3261    -3173 
   -3171    -3326    -3572    -3813    -4060    -4122    -3915    -3689 
   -3642    -3797    -4074    -4225    -4068    -3638    -3088    -2664 
   -2598    -2717    -2614    -2259    -1815    -1333    -1027    -1080 
   -1404    -1833    -2079    -1952    -1624    -1251     -908     -776 
    -799     -737     -666     -781     -984    -1215    -1686    -2407 
   -3026    -3357    -3464    -3420    -3300    -3105    -2837    -2637 
   -2497    -2187    -1723    -1418    -1397    -1598    -2060    -2671 
   -3071    -3148    -3149    -3222    -3356    -3678    -4311    -4996 
   -5382    -5454    -5221    -4719    -4249    -4014    -3919    -3821 
   -3688    -3561    -3356    -3022    -2809    -2832    -2878    -2875 
   -2876    -2755    -2458    -2025    -1464    -1051     -955     -874 
    -784    -1024    -1553    -2185    -2833    -3325    -3643    -3816 
   -3790    -3736    -3800    -3943    -4136    -4294    -4459    -4730 
   -5019    -5211    -5159    -4861    -4518    -4145    -3788    -3603 
   -3496    -3343    -3102    -2768    -2581    -2701    -3053    -3511 
   -3859    -3982    -3901    -3709    -3595    -3569    -3485    -3296 
   -3038    -2852    -2855    -2895    -2859    -2785    -2582    -2185 
   -1733    -1335     -985     -703     -631     -927    -1491    -2052 
   -2459    -2744    -2963    -3133    -3343    -3723    -4168    -4421 
   -4351    -3904    -3226    -2786    -2836    -3173    -3534    -3689 
   -3508    -3117    -2825    -2844    -3079    -3392    -3663    -3616 
   -3261    -2980    -2978    -3190    -3406    -3451    -3299    -2971 
   -2687    -2709    -2943    -3242    -3487    -3393    -2961    -2496 
   -2174    -2119    -2359    -2724    -2961    -2826    -2394    -1956 
   -1582    -1394    -1509    -1701    -1840    -1980    -2097    -2305 
   -2729    -3292    -3856    -4313    -4622    -4747    -4592    -4244 
   -3866    -3488    -3195    -3087    -3080    -3036    -2893    -2697 
   -2550    -2473    -2475    -2573    -2666    -2729    -2817    -2893 
   -2918    -2862    -2718    -2600    -2535    -2543    -2721    -2929 
   -3001    -3009    -2944    -2759    -2555    -2515    -2837    -3357 
   -3707    -3820    -3676    -3289    -2897    -2608    -2443    -2425 
   -2438    -2376    -2251    -2261    -2597    -3059    -3346    -3381 
   -3144    -2772    -2544    -2556    -2795    -3218    -3658    -3993 
   -4213    -4301    -4367    -4554    -4747    -4853    -4914    -4924 
   -4928    -4934    -4833    -4587    -4218    -3766    -3315    -2876 
   -2450    -2173    -2092    -1949    -1587    -1190     -845     -430 
     -10      180       52     -351     -939    -1518    -1900    -2038 
   -2070    -2153    -2231    -2224    -2172    -2076    -1945    -1804 
   -1701    -1772    -2066    -2438    -2744    -2947    -3152    -3435 
   -3655    -3744    -3723    -3446    -2974    -2613    -2471    -2562 
   -2875    -3252    -3636    -4004    -4212    -4241    -4162    -3989 
   -3788    -3631    -3554    -3581    -3674    -3763    -3794    -3708 
   -3545    -3388    -3199    -3068    -3188    -3433    -3677    -3959 
   -4101    -4032    -3892    -3676    -3492    -3456    -3488    -3634 
   -3885    -4051    -4191    -4410    -4557    -4564    -4484    -4291 
   -4001    -3685    -3385    -3164    -2964    -2718    -2583    -2531 
   -2359    -2259    -2359    -2386    -2269    -2238    -2371    -2516 
   -2560    -2512    -2413    -2311    -2219    -2139    -2088    -2097 
   -2232    -2504    -2839    -3144    -3427    -3719    -3951    -4052 
   -3917    -3530    -3148    -2857    -2492    -2161    -2020    -2019 
   -2083    -2074    -1995    -2026    -2150    -2357    -2666    -2837 
   -2762    -2583    -2332    -2126    -2095    -2073    -1954    -1834 
   -1699    -1563    -1567    -1769    -2112    -2447    -2598    -2552 
   -2447    -2412    -2497    -2662    -2853    -3040    -3188    -3268 
   -3283    -3269    -3257    -3246    -3253    -3287    -3292    -3226 
   -3165    -3191    -3252    -3306    -3395    -3561    -3711    -3682 
   -3520    -3364    -3226    -3192    -3303    -3388    -3368    -3300 
   -3203    -3119    -3179    -3418    -3650    -3694    -3572    -3414 
   -3341    -3423    -3661    -3852    -3751    -3426    -3106    -2902 
   -2805    -2682    -2469    -2254    -2049    -1829    -1707    -1775 
   -1983    -2222    -2392    -2471    -2571    -2803    -3138    -3553 
   -4013    -4333    -4465    -4479    -4338    -4114    -3909    -3690 
   -3501    -3366    -3181    -2997    -2878    -2754    -2701    -2806 
   -2943    -3051    -3191    -3358    -3510    -3597    -3630    -3651 
   -3601    -3437    -3271    -3188    -3237    -3414    -3572    -3601 
   -3480    -3257    -3034    -2847    -2720    -2675    -2632    -2544 
   -2403    -2124    -1799    -1652    -1653    -1679    -1763    -1871 
   -1946    -2074    -2231    -2284    -2232    -2170    -2107    -2002 
   -1929    -2018    -2242    -2416    -2417    -2303    -2124    -1954 
   -1983    -2262    -2627    -2887    -2937    -2843    -2727    -2639 
   -2674    -2887    -3192    -3470    -3667    -3777    -3777    -3684 
   -3576    -3554    -3665    -3773    -3771    -3757    -3784    -3816 
   -3805    -3653    -3431    -3319    -3304    -3420    -3748    -4144 
   -4415    -4467    -4297    -4032    -3812    -3720    -3793    -3959 
   -4113    -4209    -4212    -4137    -4039    -3898    -3694    -3454 
   -3219    -3005    -2812    -2704    -2652    -2529    -2339    -2176 
   -2080    -2088    -2201    -2397    -2593    -2640    -2497    -2232 
   -1917    -1674    -1561    -1470    -1421    -1588    -1898    -2187 
   -2463    -2768    -3138    -3545    -3865    -4075    -4226    -4305 
   -4315    -4251    -4108    -3996    -3898    -3663    -3381    -3213 
   -3138    -3140    -3150    -3082    -2991    -2916    -2790    -2593 
   -2401    -2334    -2401    -2512    -2597    -2663    -2748    -2801 
   -2797    -2849    -2961    -3048    -3171    -3342    -3443    -3433 
   -3356    -3237    -3076    -2907    -2775    -2722    -2725    -2633 
   -2420    -2193    -2002    -1937    -1983    -1968    -1945    -1935 
   -1865    -1926    -2187    -2486    -2820    -3117    -3288    -3443 
   -3576    -3632    -3632    -3466    -3172    -2921    -2725    -2721 
   -3007    -3283    -3346    -3318    -3276    -3272    -3360    -3504 
   -3628    -3655    -3576    -3451    -3325    -3214    -3113    -3002 
   -2897    -2778    -2664    -2640    -2673    -2667    -2593    -2440 
   -2263    -2181    -2223    -2315    -2340    -2228    -2035    -1864 
   -1818    -2007    -2355    -2592    -2644    -2625    -2482    -2232 
   -2108    -2197    -2411    -2628    -2760    -2845    -2932    -3014 
   -3079    -3090    -3083    -3114    -3133    -3119    -3032    -2822 
   -2610    -2493    -2447    -2482    -2585    -2651    -2636    -2571 
   -2550    -2668    -2833    -2925    -3055    -3318    -3639    -3859 
   -3893    -3832    -3770    -3636    -3478    -3474    -3626    -3816 
   -3931    -3898    -3767    -3558    -3291    -3123    -3079    -2995 
   -2879    -2897    -3002    -2955    -2781    -2705    -2735    -2767 
   -2790    -2809    -2913    -3159    -3453    -3696    -3844    -3881 
   -3820    -3723    -3588    -3364    -3167    -3198    -3402    -3612 
   -3798    -3969    -4068    -4033    -3892    -3751    -3646    -3588 
   -3574    -3453    -3187    -2998    -2922    -2845    -2871    -2997 
   -3021    -2928    -2835    -2837    -2887    -2801    -2731    -2911 
   -3082    -3052    -2988    -2940    -2936    -3011    -3046    -3025 
   -2986    -2928    -2913    -2895    -2829    -2793    -2737    -2664 
   -2732    -2911    -3125    -3362    -3561    -3761    -3927    -3937 
   -3900    -3892    -3823    -3701    -3523    -3304    -3198    -3157 
   -2983    -2762    -2683    -2695    -2718    -2748    -2728    -2631 
   -2543    -2482    -2400    -2342    -2357    -2427    -2550    -2658 
   -2675    -2628    -2538    -2465    -2459    -2466    -2511    -2579 
   -2529    -2425    -2340    -2178    -2018    -1942    -1836    -1707 
   -1599    -1462    -1413    -1606    -1917    -2189    -2420    -2648 
   -2899    -3164    -3404    -3620    -3767    -3781    -3635    -3346 
   -3099    -3071    -3190    -3343    -3445    -3379    -3159    -2884 
   -2650    -2515    -2412    -2315    -2303    -2316    -2261    -2209 
   -2218    -2285    -2443    -2609    -2652    -2577    -2481    -2447 
   -2517    -2612    -2641    -2623    -2575    -2586    -2720    -2903 
   -3075    -3227    -3337    -3321    -3159    -3034    -3061    -3167 
   -3294    -3399    -3472    -3554    -3694    -3908    -4158    -4441 
   -4743    -4974    -5090    -5019    -4712    -4328    -3969    -3649 
   -3457    -3357    -3280    -3283    -3260    -3094    -2902    -2743 
   -2529    -2351    -2311    -2320    -2377    -2494    -2554    -2589 
   -2620    -2529    -2354    -2161    -1992    -1973    -2079    -2168 
   -2218    -2242    -2223    -2192    -2257    -2479    -2705    -2766 
   -2758    -2754    -2681    -2628    -2687    -2794    -2937    -3071 
   -3142    -3252    -3400    -3516    -3669    -3829    -3970    -4113 
   -4176    -4201    -4259    -4233    -4101    -3925    -3748    -3669 
   -3688    -3707    -3700    -3586    -3298    -2971    -2787    -2825 
   -2974    -3041    -3007    -2920    -2776    -2616    -2504    -2555 
   -2758    -2920    -3021    -3146    -3230    -3227    -3207    -3161 
   -3061    -2999    -3010    -2974    -2849    -2731    -2585    -2381 
   -2239    -2158    -2072    -2042    -2083    -2170    -2286    -2359 
   -2431    -2532    -2590    -2681    -2835    -2863    -2775    -2783 
   -2903    -3071    -3318    -3562    -3626    -3570    -3554    -3559 
   -3572    -3630    -3734    -3789    -3678    -3465    -3200    -2845 
   -2629    -2673    -2762    -2903    -3122    -3200    -3159    -3137 
   -3071    -2936    -2849    -2830    -2766    -2635    -2488    -2289 
   -2026    -1811    -1784    -1957    -2231    -2513    -2683    -2633 
   -2411    -2170    -2058    -2108    -2226    -2322    -2366    -2417 
   -2612    -2921    -3164    -3249    -3202    -3103    -3015    -2970 
   -3021    -3132    -3200    -3250    -3343    -3439    -3454    -3431 
   -3528    -3781    -4052    -4240    -4375    -4525    -4664    -4743 
   -4793    -4777    -4615    -4368    -4139    -3969    -3951    -4113 
   -4251    -4186    -3929    -3549    -3141    -2760    -2436    -2249 
   -2165    -2107    -2123    -2211    -2320    -2421    -2376    -2173 
   -2018    -1962    -1942    -1931    -1872    -1783    -1714    -1626 
   -1595    -1782    -2056    -2142    -2138    -2162    -2034    -1792 
   -1618    -1502    -1526    -1614    -1455    -1156    -1011     -970 
    -980    -1077    -1260    -1557    -1836    -1991    -2219    -2523 
   -2724    -2898    -3123    -3396    -3794    -4247    -4548    -4641 
   -4584    -4440    -4239    -4016    -3882    -3780    -3542    -3295 
   -3169    -3100    -3110    -3172    -3217    -3265    -3273    -3310 
   -3505    -3751    -3956    -4059    -3956    -3769    -3528    -3109 
   -2673    -2346    -1960    -1534    -1152     -739     -371     -130 
      29       93       82       64      -67     -414     -838    -1174 
   -1422    -1642    -1856    -2014    -2119    -2331    -2670    -2943 
   -3076    -3045    -2766    -2342    -1946    -1601    -1323    -1182 
   -1170    -1198    -1243    -1371    -1676    -2251    -3040    -3933 
   -4881    -5724    -6426    -7117    -7742    -8249    -8650    -8784 
   -8602    -8293    -7943    -7573    -7267    -6970    -6577    -6107 
   -5589    -4942    -4234    -3681    -3280    -2964    -2853    -2920 
   -3002    -3048    -3005    -2857    -2651    -2394    -2160    -1969 
   -1765    -1710    -1950    -2327    -2741    -3127    -3333    -3528 
   -3937    -4444    -5001    -5633    -6211    -6694    -7144    -7581 
   -7987    -8244    -8253    -8077    -7854    -7743    -7884    -8182 
   -8276    -7882    -7010    -5833    -4513    -3298    -2398    -1759 
   -1379    -1418    -1703    -1868    -1792    -1580    -1387    -1248 
   -1165    -1305    -1782    -2448    -3051    -3426    -3628    -3777 
   -3869    -3937    -4021    -4005    -3882    -3670    -3186    -2424 
   -1544     -521      569     1437     1987     2385     2717     2943 
    3048     3011     2805     2479     2066     1568     1108      838 
     695      526      329      118     -132     -351     -506     -672 
    -972    -1580    -2477    -3438    -4355    -5074    -5351    -5135 
   -4471    -3438    -2258    -1124     -206      252      249      -56 
    -634    -1327    -1875    -2273    -2632    -3001    -3457    -3982 
   -4344    -4511    -4742    -5065    -5366    -5752    -6308    -6971 
   -7628    -8156    -8554    -8814    -8766    -8328    -7560    -6648 
   -5840    -5170    -4549    -3951    -3330    -2633    -1777     -770 
     133      776     1166     1297     1165      723      152     -187 
    -251     -203     -213     -471    -1003    -1665    -2277    -2714 
   -2951    -3006    -2992    -2974    -2840    -2466    -1802     -949 
    -218      132      220      321      473      611      719      720 
     533       36     -896    -2043    -3024    -3736    -4264    -4730 
   -5174    -5476    -5602    -5578    -5452    -5408    -5535    -5813 
   -6218    -6615    -6871    -6920    -6628    -5927    -4962    -3927 
   -2916    -1993    -1278     -903     -869    -1113    -1692    -2547 
   -3397    -4071    -4576    -4861    -4853    -4618    -4338    -4109 
   -3839    -3511    -3277    -3292    -3628    -4098    -4396    -4536 
   -4618    -4665    -4741    -4814    -4915    -5132    -5246    -5067 
   -4703    -4144    -3245    -2065     -893      -40      336      279 
     -79     -720    -1561    -2293    -2748    -3014    -3260    -3735 
   -4379    -4831    -5020    -5055    -4985    -4931    -4874    -4768 
   -4803    -4968    -4993    -4843    -4679    -4604    -4622    -4638 
   -4480    -4098    -3672    -3375    -3250    -3194    -2990    -2740 
   -2856    -3299    -3531    -3303    -2735    -2003    -1363     -861 
    -396      -21      294      604      814      819      459     -216 
    -819    -1200    -1503    -1777    -1989    -2150    -2293    -2439 
   -2438    -2060    -1491    -1151    -1034    -1031    -1325    -1922 
   -2570    -3098    -3406    -3534    -3651    -3828    -3966    -3789 
   -3168    -2367    -1714    -1409    -1576    -2057    -2513    -2724 
   -2664    -2461    -2162    -1850    -1867    -2350    -2999    -3588 
   -4112    -4556    -4876    -4982    -4935    -4984    -5150    -5206 
   -5090    -4949    -4891    -4895    -4869    -4702    -4363    -3908 
   -3492    -3335    -3429    -3554    -3638    -3608    -3375    -3129 
   -3015    -2866    -2664    -2506    -2219    -1756    -1485    -1613 
   -1952    -2323    -2606    -2691    -2578    -2253    -1788    -1416 
   -1194    -1086    -1147    -1316    -1485    -1653    -1784    -1857 
   -1926    -2081    -2405    -2759    -2978    -3090    -3011    -2679 
   -2363    -2255    -2251    -2257    -2311    -2463    -2614    -2648 
   -2625    -2587    -2573    -2727    -3082    -3576    -4117    -4410 
   -4234    -3793    -3423    -3427    -3882    -4375    -4498    -4205 
   -3582    -2920    -2481    -2351    -2554    -2840    -2970    -3106 
   -3461    -3927    -4201    -4228    -4243    -4313    -4446    -4843 
   -5513    -6153    -6501    -6457    -6097    -5667    -5313    -4984 
   -4608    -4148    -3651    -3275    -3088    -3034    -3048    -3138 
   -3323    -3461    -3335    -2938    -2478    -2050    -1628    -1316 
   -1154    -1019     -907     -859     -815     -712     -608     -622 
    -791    -1035    -1198    -1179    -1023     -838     -706     -697 
    -818     -989    -1174    -1406    -1695    -2022    -2362    -2620 
   -2729    -2812    -2975    -3150    -3365    -3716    -4024    -3963 
   -3559    -3183    -3045    -3056    -3102    -3068    -2883    -2650 
   -2558    -2745    -3149    -3528    -3858    -4275    -4762    -5247 
   -5660    -5913    -6119    -6340    -6327    -6053    -5794    -5582 
   -5287    -4911    -4479    -3950    -3268    -2531    -2011    -1823 
   -1810    -1825    -1879    -1993    -2061    -2033    -2042    -2160 
   -2286    -2404    -2602    -2814    -2880    -2760    -2511    -2268 
   -2155    -2133    -2146    -2273    -2459    -2550    -2544    -2428 
   -2124    -1719    -1283     -967    -1055    -1421    -1729    -2033 
   -2439    -2818    -3103    -3331    -3537    -3753    -3977    -4175 
   -4315    -4380    -4445    -4565    -4661    -4712    -4739    -4750 
   -4795    -4746    -4480    -4152    -3924    -3802    -3808    -4079 
   -4577    -4916    -4877    -4533    -3923    -3362    -3269    -3510 
   -3716    -3736    -3547    -3183    -2682    -2211    -1993    -1989 
   -2050    -2214    -2497    -2755    -2938    -3129    -3300    -3379 
   -3395    -3402    -3372    -3238    -2976    -2646    -2367    -2239 
   -2280    -2475    -2712    -2782    -2644    -2444    -2313    -2255 
   -2230    -2195    -1946    -1332     -681     -402     -508     -865 
   -1397    -2023    -2627    -3045    -3223    -3285    -3260    -3090 
   -2870    -2803    -3002    -3400    -3777    -3932    -3854    -3626 
   -3331    -3065    -2826    -2604    -2439    -2250    -2045    -2027 
   -2168    -2263    -2295    -2277    -2236    -2263    -2344    -2505 
   -2806    -3163    -3472    -3663    -3678    -3562    -3391    -3161 
   -2864    -2536    -2277    -2182    -2211    -2274    -2335    -2389 
   -2490    -2596    -2633    -2718    -2813    -2762    -2612    -2428 
   -2351    -2538    -2833    -3038    -3103    -3086    -3152    -3354 
   -3650    -3981    -4118    -3979    -3800    -3711    -3657    -3630 
   -3639    -3537    -3238    -2997    -2948    -2988    -3068    -3041 
   -2836    -2664    -2608    -2597    -2632    -2664    -2689    -2828 
   -3037    -3208    -3380    -3472    -3383    -3245    -3225    -3277 
   -3253    -3164    -3051    -2862    -2679    -2704    -2940    -3180 
   -3258    -3159    -2972    -2870    -2926    -3029    -3090    -3079 
