Origin Time       2024/04/02 04:24:00
Lat.              40.133
Long.             141.712
Depth. (km)       71
Mag.              6.0
Station Code      AOMH15
Station Lat.      40.4841
Station Long.     140.5565
Station Height(m) 30
Record Time       2024/04/02 04:24:55
Sampling Freq(Hz) 100Hz
Duration Time(s)  120
Dir.              3
Scale Factor      2942(gal)/8224139
Max. Acc. (gal)   1.970
Last Correction   2024/04/02 04:24:56
Memo.             
[...]
  361262   361265   361261   361257   361260   361262   361262   361262 
  361265   361265   361260   361260   361264   361264   361262   361264 
  361264   361264   361265   361264   361265   361264   361262   361264 
  361264   361264   361264   361262   361261   361261   361262   361264 
  361265   361262   361261   361262   361262   361262   361266   361264 
  361262   361265   361262   361262   361266   361265   361262   361262 
  361262   361261   361260   361261   361264   361265   361264   361262 
  361264   361265   361262   361262   361264   361265   361264   361262 
  361261   361258   361261   361264   361261   361261   361262   361260 
  361262   361269   361265   361262   361262   361262   361262   361264 
  361264   361264   361265   361262   361261   361264   361264   361264 
  361261   361264   361265   361264   361262   361264   361264   361264 
  361264   361262   361261   361262   361261   361260   361262   361262 
  361260   361257   361257   361261   361262   361262   361264   361264 
  361264   361265   361261   361260   361262   361264   361262   361262 
  361264   361265   361261   361261   361265   361262   361260   361262 
  361262   361260   361261   361262   361260   361262   361264   361262 
  361265   361266   361261   361262   361264   361262   361261   361261 
  361260   361261   361260   361261   361264   361262   361261   361261 
  361262   361264   361262   361262   361262   361262   361261   361264 
  361268   361265   361260   361264   361265   361261   361260   361262 
  361264   361261   361260   361264   361265   361262   361261   361261 
  361262   361262   361261   361262   361264   361264   361266   361264 
  361260   361261   361264   361261   361261   361264   361261   361260 
  361264   361264   361261   361261   361262   361264   361265   361265 
  361262   361264   361264   361262   361261   361261   361261   361260 
  361262   361265   361262   361262   361264   361261   361260   361260 
  361262   361264   361261   361261   361262   361262   361265   361264 
  361261   361264   361265   361261   361260   361262   361260   361260 
  361261   361262   361261   361260   361261   361261   361260   361261 
  361261   361262   361264   361261   361261   361261   361261   361261 
  361262   361264   361262   361262   361261   361260   361261   361262 
  361262   361262   361261   361260   361261   361261   361261   361261 
  361260   361260   361262   361262   361260   361261   361261   361260 
  361260   361260   361261   361261   361258   361262   361264   361261 
  361261   361258   361258   361262   361262   361258   361258   361261 
  361262   361264   361262   361261   361262   361262   361261   361261 
  361262   361266   361265   361261   361261   361261   361262   361264 
  361264   361262   361262   361261   361262   361265   361262   361260 
  361258   361260   361260   361260   361260   361260   361258   361258 
  361261   361261   361261   361262   361262   361260   361261   361264 
  361261   361258   361258   361264   361265   361261   361260   361261 
  361260   361257   361258   361262   361265   361264   361260   361261 
  361260   361258   361264   361264   361257   361260   361260   361257 
  361261   361261   361261   361262   361258   361258   361262   361262 
  361264   361261   361260   361264   361264   361260   361261   361261 
  361260   361260   361260   361261   361264   361262   361262   361261 
  361260   361264   361265   361258   361261   361266   361264   361261 
  361264   361265   361262   361260   361261   361262   361262   361264 
  361261   361261   361262   361264   361262   361261   361261   361262 
  361262   361261   361261   361262   361264   361262   361262   361265 
  361264   361260   361261   361262   361262   361262   361261   361260 
  361264   361265   361261   361261   361265   361262   361261   361264 
  361264   361264   361264   361261   361260   361262   361262   361261 
  361260   361260   361260   361262   361265   361262   361258   361261 
  361264   361260   361260   361262   361262   361264   361266   361262 
  361261   361264   361264   361262   361264   361261   361260   361260 
  361260   361262   361262   361262   361262   361261   361262   361262 
  361261   361260   361260   361260   361260   361260   361261   361262 
  361261   361264   361265   361260   361258   361261   361261   361262 
  361262   361261   361261   361261   361260   361261   361260   361258 
  361261   361262   361262   361262   361264   361262   361265   361266 
  361262   361262   361265   361261   361261   361264   361261   361261 
  361264   361262   361261   361261   361262   361264   361264   361261 
  361260   361261   361262   361262   361260   361261   361264   361261 
  361258   361261   361264   361261   361261   361262   361260   361258 
  361260   361261   361260   361261   361264   361265   361261   361262 
  361265   361262   361264   361264   361261   361262   361265   361265 
  361261   361258   361261   361261   361260   361261   361261   361257 
  361258   361261   361260   361260   361262   361262   361261   361261 
  361262   361262   361262   361261   361261   361261   361262   361262 
  361261   361260   361261   361261   361262   361264   361262   361260 
  361261   361264   361262   361262   361264   361261   361260   361262 
  361262   361261   361260   361261   361262   361261   361261   361261 
  361260   361262   361264   361260   361260   361265   361264   361260 
  361262   361264   361262   361264   361266   361266   361262   361262 
  361264   361265   361266   361264   361264   361264   361262   361262 
  361264   361262   361261   361260   361261   361262   361264   361264 
  361264   361264   361262   361260   361260   361261   361264   361264 
  361262   361264   361262   361261   361261   361264   361264   361260 
  361261   361264   361264   361264   361265   361264   361261   361261 
  361262   361262   361261   361260   361260   361264   361265   361264 
  361262   361260   361260   361262   361262   361262   361266   361265 
  361262   361262   361261   361261   361262   361264   361262   361262 
  361262   361261   361261   361261   361260   361260   361261   361260 
  361260   361261   361261   361262   361261   361261   361262   361262 
  361262   361262   361262   361262   361264   361264   361262   361261 
  361262   361264   361265   361262   361260   361260   361261   361261 
  361258   361257   361262   361265   361261   361262   361264   361264 
  361264   361264   361262   361262   361264   361265   361264   361262 
  361262   361260   361261   361265   361261   361260   361266   361264 
  361257   361261   361264   361264   361262   361260   361260   361260 
  361261   361261   361262   361262   361262   361261   361260   361261 
  361262   361261   361261   361262   361264   361261   361262   361264 
  361265   361265   361262   361261   361265   361268   361264   361260 
  361262   361265   361265   361264   361261   361257   361260   361264 
  361261   361261   361264   361262   361261   361261   361262   361264 
  361262   361261   361262   361264   361260   361258   361261   361262 
  361264   361264   361262   361262   361262   361261   361261   361264 
  361264   361262   361261   361260   361260   361262   361264   361262 
  361264   361261   361261   361264   361264   361262   361262   361261 
  361260   361261   361261   361260   361258   361260   361260   361260 
  361260   361258   361258   361261   361260   361255   361257   361261 
  361264   361265   361264   361262   361261   361261   361264   361265 
  361264   361264   361265   361264   361261   361261   361262   361265 
  361265   361265   361266   361265   361262   361260   361255   361258 
  361262   361261   361261   361262   361261   361262   361265   361262 
  361258   361260   361261   361260   361261   361261   361262   361262 
  361261   361261   361261   361260   361261   361264   361262   361260 
  361262   361262   361260   361261   361261   361261   361262   361262 
  361260   361260   361262   361261   361260   361261   361261   361258 
  361258   361262   361260   361254   361257   361262   361261   361255 
  361258   361261   361260   361258   361260   361262   361261   361257 
  361258   361260   361257   361260   361262   361260   361260   361262 
  361260   361260   361260   361260   361261   361261   361258   361261 
  361265   361264   361262   361264   361262   361261   361262   361264 
  361264   361262   361264   361262   361258   361257   361257   361260 
  361261   361260   361262   361261   361258   361258   361260   361260 
  361260   361260   361261   361260   361260   361262   361260   361258 
  361261   361260   361257   361260   361260   361260   361261   361261 
  361260   361261   361262   361260   361261   361261   361258   361260 
  361260   361257   361260   361258   361255   361260   361262   361260 
  361258   361258   361257   361257   361261   361264   361260   361257 
  361257   361260   361258   361257   361258   361260   361261   361262 
  361260   361258   361260   361260   361260   361258   361258   361264 
  361266   361260   361258   361260   361258   361257   361260   361258 
  361257   361258   361258   361260   361260   361258   361258   361257 
  361258   361261   361258   361260   361261   361260   361261   361261 
  361258   361260   361260   361258   361257   361255   361257   361261 
  361262   361260   361258   361258   361260   361257   361260   361261 
  361258   361258   361260   361260   361262   361264   361261   361261 
  361264   361262   361261   361261   361264   361264   361262   361260 
  361262   361264   361261   361261   361261   361262   361265   361262 
  361261   361261   361261   361262   361262   361261   361261   361261 
  361260   361260   361261   361262   361265   361266   361260   361257 
  361260   361261   361262   361260   361257   361261   361264   361261 
  361262   361262   361261   361261   361260   361262   361261   361258 
  361262   361262   361260   361262   361265   361262   361261   361262 
  361264   361264   361264   361265   361264   361264   361265   361264 
  361262   361262   361262   361261   361261   361261   361260   361261 
  361264   361264   361261   361260   361261   361260   361260   361262 
  361261   361262   361262   361260   361262   361262   361260   361260 
  361261   361261   361261   361261   361261   361261   361261   361261 
  361262   361262   361258   361258   361262   361262   361258   361260 
  361262   361261   361260   361258   361258   361260   361261   361261 
  361260   361260   361261   361262   361257   361253   361258   361264 
  361260   361258   361261   361262   361264   361261   361257   361258 
  361261   361260   361257   361261   361261   361258   361258   361262 
  361264   361262   361262   361262   361260   361260   361261   361258 
  361260   361262   361261   361261   361260   361260   361260   361255 
  361257   361264   361265   361262   361262   361260   361260   361264 
  361265   361264   361264   361264   361264   361262   361260   361260 
  361264   361264   361262   361264   361265   361261   361260   361260 
  361257   361258   361262   361261   361261   361264   361261   361261 
  361262   361261   361261   361262   361264   361265   361262   361260 
  361261   361262   361264   361262   361261   361261   361262   361264 
  361261   361260   361261   361261   361260   361261   361262   361261 
  361261   361262   361264   361261   361260   361264   361266   361262 
  361261   361262   361261   361261   361262   361262   361262   361265 
  361265   361269   361278   361295   361316   361347   361388   361438 
  361496   361558   361627   361697   361771   361854   361948   362047 
  362140   362207   362227   362169   362014   361758   361427   361079 
  360780   360587   360521   360582   360742   360958   361196   361438 
  361665   361859   362009   362111   362211   362403   362777   363337 
  363960   364446   364608   364362   363776   363054   362406   361937 
  361621   361300   360801   360059   359168   358331   357798   357700 
  357998   358578   359284   359919   360293   360296   359976   359563 
  359376   359645   360404   361473   362518   363249   363588   363618 
  363461   363240   363008   362754   362512   362308   362088   361801 
  361403   360869   360402   360329   360741   361439   362124   362519 
  362458   361925   361126   360510   360471   360948   361509   361860 
  362057   362264   362488   362595   362418   361867   361066   360401 
  360139   360077   359847   359382   358870   358537   358446   358503 
  358690   359051   359428   359602   359660   359947   360610   361362 
  361700   361324   360462   359700   359487   359866   360625   361431 
  361763   361125   359619   357945   356823   356684   357575   359122 
  360624   361358   361125   360315   359336   358537   358485   359480 
  361025   362323   363015   363221   363078   362597   361918   361268 
  360811   360653   360819   361339   362119   362662   362595   362246 
  362148   362418   362799   362947   362678   361925   360755   359471 
  358504   358269   358943   360151   361235   361860   362025   361831 
  361604   361763   362300   362865   363438   364180   364776   364795 
  364194   363160   362210   361972   362342   362832   363302   363522 
  363195   362452   361663   361449   362198   363117   362975   361693 
  360364   359830   360003   360882   362692   364805   365963   365544 
  363972   362006   360261   359374   359608   360599   361827   362659 
  362745   362394   361675   360159   357912   356028   355756   356888 
  358055   358462   358230   357822   357555   357367   357453   358180 
  359328   360483   361589   362769   363920   364498   364232   363544 
  362730   361797   360946   360641   361318   362635   363669   364014 
  363590   362618   361974   361939   361974   362075   362281   362191 
  361908   361611   360917   359869   359248   359421   359700   359692 
  360343   361997   363240   363322   363179   363240   362851   361758 
  360558   360132   360701   361855   363522   365139   365513   364624 
  363000   360950   359748   360173   360918   360748   360011   359569 
  359653   359758   359646   359920   360952   361740   361411   360957 
  361347   362326   363307   363000   360877   358875   358383   358546 
  358816   359561   360720   361667   361586   360529   359799   359999 
  360443   360764   360921   360679   360618   361515   362577   362637 
  361945   361417   361633   362419   362880   362699   362469   362404 
  362070   361111   359958   359329   359262   359571   360316   361369 
  362132   362074   361596   361314   361255   361169   360927   361048 
  361600   361785   361955   362566   362862   362831   362794   362506 
  362329   362483   362560   362445   362149   361843   361849   361827 
  361104   359878   359031   358989   359613   360601   361597   362564 
  363523   364124   364154   363482   361995   360354   359588   359911 
  360742   361615   362404   362458   361083   359405   359055   359839 
  360803   361542   361836   361550   360687   359483   358526   358129 
  358129   358464   359063   359883   360825   361230   360765   360045 
  359588   359421   359723   360736   362014   362840   363025   362607 
  361752   360639   359280   358396   358758   359851   361066   362159 
  362747   362961   362905   362237   361169   360131   359413   359611 
  360525   361181   361561   361732   361419   361330   361731   361872 
  361697   361438   361399   362072   363035   363638   363784   363301 
  362514   362028   361775   361955   363012   364219   364112   362441 
  360644   359862   360086   361096   362102   362165   361701   361459 
  361350   361304   361350   361243   360975   361044   361775   362591 
  362678   362043   361396   361104   360753   360205   360018   360339 
  360756   361112   361264   361092   360958   360900   360760   360907 
  361372   361813   362053   361739   361075   360841   361092   361431 
  361494   361273   361508   362064   361771   360765   360008   359714 
  359820   360101   360194   360255   360566   360819   360722   360549 
  360636   360956   361034   360466   359843   359951   360566   361119 
  361343   361254   361168   361149   361041   361066   361397   361658 
  361530   361309   361566   362535   363896   364895   364930   364207 
  363415   362732   361960   361546   361983   362703   362830   362245 
  361540   361351   361500   361176   360463   360246   360441   360444 
  360350   360292   360316   360435   360289   360050   360262   360640 
  360940   361413   361708   361374   360865   360880   361412   361926 
  362276   362650   362770   362327   361702   361386   361408   361500 
  361318   360684   359970   359715   359583   359095   358707   358558 
  358223   357988   358217   358744   359451   360072   360383   360521 
  360261   359761   359810   360290   360819   361385   361731   362057 
  362476   362406   362173   362421   362614   362396   362229   362272 
  362290   362238   362178   362047   361991   362037   361768   361382 
  361548   362029   362149   361926   361785   361930   362180   362128 
  361825   361675   361837   362466   363195   363144   362564   362323 
  362211   361746   361187   360968   361111   361326   361309   360913 
  360377   360034   359754   359568   359854   360391   360612   360567 
  360555   360525   360632   361157   361854   362396   362628   362522 
  362308   362006   361665   361696   361972   361916   361570   361390 
  361374   361273   361164   361130   361172   361454   361817   362032 
  362268   362431   362317   362003   361426   360825   360733   361012 
  361235   361285   361166   361008   360895   360768   360601   360510 
  360742   361219   361435   361133   360632   360428   360582   360784 
  360895   361023   361345   361663   361494   360873   360159   359711 
  359831   360104   360157   360487   360945   360783   360427   360616 
  360988   361102   361282   361631   361686   361474   361401   361332 
  361046   360956   361439   362016   362063   361847   361777   361673 
  361473   361395   361552   361997   362578   362966   362994   362704 
  362286   361943   361747   361732   361825   361847   361793   361633 
  361169   360533   360256   360567   361042   361102   360721   360390 
  360490   360894   361031   360796   360715   360902   361083   361098 
  360921   360891   361192   361393   361214   360890   360755   360923 
  361188   361238   360983   360698   360718   360790   360575   360516 
  360896   361222   361300   361412   361520   361477   361442   361504 
  361516   361459   361498   361779   362241   362573   362429   361798 
  361180   361027   361438   362260   362888   362847   362433   362014 
  361571   361034   360721   361053   361565   361481   361111   360987 
  360963   360979   360877   360352   359892   359973   360188   360178 
  360000   359843   359897   359986   359935   359986   360292   360740 
  361169   361411   361534   361766   362052   362122   361995   361962 
  362178   362435   362259   361612   361253   361476   361720   361959 
  362452   362704   362338   361760   361453   361447   361584   361864 
  362159   362267   362252   362072   361677   361474   361650   361790 
  361678   361508   361349   361212   361146   361044   360819   360548 
  360321   360212   360223   360339   360451   360270   359729   359325 
