Origin Time       2024/04/02 04:24:00
Lat.              40.133
Long.             141.712
Depth. (km)       71
Mag.              6.0
Station Code      AOMH15
Station Lat.      40.4841
Station Long.     140.5565
Station Height(m) 30
Record Time       2024/04/02 04:24:55
Sampling Freq(Hz) 100Hz
Duration Time(s)  120
Dir.              2
Scale Factor      2942(gal)/8224139
Max. Acc. (gal)   1.647
Last Correction   2024/04/02 04:24:56
Memo.             
[...]
 -280728  -281018  -281287  -281608  -281931  -281948  -281325  -280100 
 -278715  -277804  -277811  -278376  -278757  -278928  -279215  -279599 
 -280215  -281155  -281959  -282224  -281983  -281519  -281295  -281573 
 -281983  -281950  -281322  -280351  -279668  -279898  -280740  -281271 
 -281192  -281082  -281438  -281962  -282104  -281871  -281460  -280910 
 -280673  -281006  -281223  -281153  -281506  -282293  -282968  -283262 
 -283225  -283332  -284018  -284789  -284736  -283837  -282569  -281146 
 -280073  -279998  -280642  -280991  -280565  -279922  -279903  -280627 
 -281275  -281173  -280822  -281129  -281917  -282128  -281538  -281105 
 -281369  -281634  -281175  -280606  -280723  -281052  -281283  -281902 
 -282718  -282906  -282097  -280723  -279715  -279431  -279185  -278569 
 -278372  -279128  -279934  -280173  -280439  -281126  -282199  -283285 
 -283277  -281877  -280462  -279991  -280123  -280458  -281091  -282055 
 -282756  -282773  -282407  -281655  -280638  -280207  -280507  -280573 
 -279832  -278895  -278714  -279244  -279495  -278710  -277303  -276709 
 -277719  -279634  -281634  -283263  -283726  -282730  -281380  -280750 
 -280721  -280847  -280849  -280488  -279898  -279327  -278843  -278645 
 -278749  -278850  -278853  -279051  -279599  -280241  -280775  -281067 
 -281252  -281734  -282144  -282029  -281529  -280802  -280624  -281419 
 -282019  -281587  -280705  -280268  -280423  -280308  -279580  -279119 
 -279429  -280521  -282118  -282919  -282113  -280716  -280049  -280543 
 -281631  -282127  -281589  -280696  -279772  -278617  -277774  -277970 
 -278726  -279239  -279541  -279988  -280824  -281813  -282344  -282594 
 -282702  -282070  -281175  -280836  -280555  -280304  -280930  -281948 
 -281940  -280948  -279981  -279286  -279148  -279922  -280862  -281543 
 -282480  -283446  -283745  -283131  -281662  -280314  -280307  -281260 
 -282117  -282717  -283041  -282953  -282683  -282286  -281786  -281623 
 -281975  -282459  -282684  -282456  -281550  -280396  -280188  -281344 
 -283022  -283906  -283389  -282482  -281979  -280935  -279035  -277839 
 -278158  -279046  -279751  -280045  -279659  -279151  -279544  -280983 
 -282721  -283834  -283856  -282930  -281790  -281237  -281130  -280917 
 -280721  -280596  -280095  -279471  -279670  -280650  -281078  -280233 
 -279239  -279288  -280083  -281061  -281954  -282536  -282900  -282823 
 -282059  -281118  -280251  -279553  -279485  -279756  -279850  -279975 
 -280056  -279934  -280053  -280224  -279977  -279880  -280208  -280461 
 -280582  -280609  -280451  -280372  -280597  -280903  -280773  -279879 
 -278716  -278544  -279506  -280065  -279855  -279855  -280007  -279981 
 -279857  -279540  -279618  -280463  -281152  -281448  -281704  -281322 
 -280234  -279321  -279032  -279522  -280432  -280899  -281002  -281319 
 -281539  -281132  -280427  -280227  -280860  -281886  -282687  -283254 
 -283902  -284366  -284166  -283545  -282945  -282206  -281171  -280174 
 -279524  -279150  -278776  -278506  -278866  -279713  -280284  -280405 
 -280231  -279879  -279714  -279931  -280507  -281334  -281832  -281742 
 -281761  -281956  -281556  -280693  -279811  -278935  -278540  -278603 
 -278318  -278063  -278694  -279524  -279698  -279869  -280732  -281588 
 -281438  -280579  -280254  -280729  -281192  -281376  -281562  -281701 
 -281707  -281907  -282324  -282555  -282614  -282468  -282004  -281591 
 -281369  -281442  -281998  -282321  -281745  -280980  -280936  -281210 
 -280979  -280527  -280530  -280751  -280771  -280966  -281662  -282414 
 -282760  -282706  -282407  -281978  -281506  -281105  -280999  -281268 
 -281484  -281303  -281113  -281105  -280976  -280913  -281124  -281288 
 -281280  -281227  -280999  -280311  -279463  -279367  -280111  -280770 
 -280956  -280966  -281026  -281242  -281346  -280952  -280469  -280563 
 -281134  -281553  -281516  -281349  -281256  -280940  -280250  -279454 
 -278961  -278995  -279440  -280088  -280741  -281011  -280762  -280585 
 -280821  -281025  -281026  -281129  -281395  -281642  -281682  -281470 
 -281233  -281169  -281132  -281059  -281086  -280994  -280719  -280631 
 -280623  -280512  -280547  -280686  -280859  -281223  -281520  -281488 
 -281391  -281269  -280864  -280426  -280385  -280497  -280266  -279798 
 -279591  -279752  -279896  -279801  -279720  -279950  -280349  -280450 
 -280230  -280184  -280427  -280547  -280500  -280586  -280612  -280419 
 -280450  -280785  -281021  -281047  -281040  -281202  -281531  -281843 
 -282098  -282357  -282460  -282239  -281916  -281853  -281989  -281934 
 -281699  -281666  -281793  -281830  -281776  -281632  -281331  -280939 
 -280732  -280773  -280685  -280373  -280187  -280226  -280253  -280227 
 -280174  -280076  -280201  -280480  -280432  -280251  -280311  -280393 
 -280334  -280346  -280606  -280813  -280597  -280014  -279256  -278797 
 -278978  -279343  -279590  -279865  -280122  -280255  -280129  -279806 
 -279643  -279613  -279548  -279637  -279798  -279667  -279512  -279829 
 -280324  -280427  -280268  -280336  -280704  -281060  -281279  -281566 
 -281807  -281523  -281049  -281194  -281757  -282140  -282263  -282193 
 -282210  -282455  -282579  -282625  -282876  -283054  -282900  -282550 
 -282151  -281858  -281735  -281496  -281018  -280613  -280439  -280423 
 -280423  -280281  -280233  -280647  -281265  -281538  -281443  -281253 
 -280956  -280737  -280868  -280893  -280605  -280615  -280918  -280886 
 -280557  -280390  -280386  -280396  -280432  -280270  -279918  -279960 
 -280489  -280933  -281070  -280951  -280620  -280319  -280201  -280309 
 -280697  -281075  -281217  -281415  -281828  -282141  -282087  -281785 
 -281534  -281376  -281190  -281110  -281338  -281789  -282179  -282264 
 -282059  -281684  -281171  -280774  -280818  -280975  -280683  -280289 
 -280485  -280925  -280912  -280605  -280407  -280426  -280651  -280855 
 -280828  -280716  -280736  -280844  -280939  -280878  -280508  -280268 
 -280447  -280409  -279983  -279657  -279498  -279444  -279396  -279370 
 -279798  -280354  -280210  -279594  -279288  -279560  -280049  -280284 
 -280426  -280751  -281075  -281250  -281294  -281218  -281094  -281017 
 -281001  -280978  -281022  -281222  -281358  -281304  -281249  -281371 
 -281661  -281963  -282168  -282285  -282151  -281691  -281308  -281206 
 -281118  -280999  -280987  -281126  -281425  -281662  -281529  -281156 
 -280932  -280894  -280771  -280413  -280130  -280272  -280416  -280054 
 -279589  -279508  -279560  -279359  -278974  -278715  -278608  -278391 
 -278145  -278158  -278202  -278047  -278016  -278384  -279063  -279707 
 -279961  -280087  -280589  -281149  -281163  -280810  -280544  -280449 
 -280516  -280678  -280760  -280775  -280902  -281079  -281005  -280812 
 -280959  -281448  -281950  -282295  -282405  -282411  -282683  -283119 
 -283321  -283321  -283031  -282370  -281842  -281538  -281276  -281503 
 -282066  -282051  -281533  -281281  -281265  -281007  -280616  -280548 
 -280751  -280690  -280351  -280272  -280444  -280584  -280748  -280724 
 -280388  -280311  -280743  -281218  -281510  -281705  -281639  -281253 
 -280916  -280767  -280602  -280393  -280285  -280388  -280671  -280889 
 -280844  -280721  -280585  -280176  -279772  -280025  -280833  -281529 
 -281661  -281387  -281250  -281346  -281516  -281716  -281542  -280989 
 -280750  -281092  -281766  -282132  -281757  -281406  -281583  -281531 
 -280972  -280512  -280455  -280620  -280813  -281111  -281469  -281515 
 -281283  -281132  -280926  -280497  -280207  -280230  -280219  -279988 
 -279787  -279748  -279711  -279593  -279347  -279120  -279293  -279875 
 -280451  -280743  -280781  -280719  -280543  -280309  -280374  -280790 
 -281183  -281403  -281561  -281786  -282160  -282425  -282370  -282349 
 -282510  -282490  -282344  -282380  -282437  -282418  -282623  -282960 
 -283042  -282914  -282695  -282448  -282285  -281950  -281387  -281095 
 -281207  -281394  -281414  -281250  -281053  -280883  -280758  -280655 
 -280376  -279987  -279697  -279460  -279333  -279328  -279186  -278995 
 -279109  -279444  -279722  -280087  -280600  -280882  -280876  -280926 
 -281071  -281030  -280764  -280797  -281234  -281210  -280608  -280322 
 -280503  -280669  -280656  -280678  -281022  -281400  -281330  -281196 
 -281454  -281657  -281365  -280924  -280812  -280917  -280952  -280982 
 -280970  -280908  -281157  -281591  -281673  -281537  -281476  -281384 
 -281232  -281055  -280845  -280751  -280844  -280978  -281016  -280862 
 -280486  -280153  -280007  -279802  -279597  -279610  -279649  -279541 
 -279458  -279524  -279537  -279463  -279595  -279782  -279724  -279771 
 -279994  -279886  -279598  -279616  -279756  -279795  -279837  -279961 
 -280327  -280766  -280802  -280608  -280667  -280889  -280945  -280843 
 -280793  -281007  -281404  -281539  -281423  -281522  -281659  -281295 
 -280498  -279971  -280115  -280322  -280296  -280609  -280966  -280867 
 -280806  -280944  -281049  -281194  -281240  -281049  -281009  -281352 
 -281604  -281507  -281439  -281430  -281279  -281190  -281091  -280644 
 -280062  -279664  -279552  -279725  -279830  -279791  -279969  -280250 
 -280214  -279873  -279589  -279489  -279360  -279081  -278937  -279320 
 -279868  -280029  -280141  -280434  -280578  -280678  -280851  -280875 
 -280913  -281133  -281329  -281508  -281793  -282063  -282282  -282394 
 -282183  -281929  -282114  -282449  -282496  -282434  -282405  -282420 
 -282487  -282262  -281735  -281502  -281759  -282167  -282302  -281978 
 -281643  -281770  -281947  -281780  -281600  -281369  -280929  -280891 
 -281272  -281300  -281026  -280951  -280976  -280868  -280741  -280878 
 -281203  -281303  -281271  -281325  -280978  -280312  -280164  -280467 
 -280779  -280998  -280816  -280339  -280183  -280511  -280982  -281121 
 -280740  -280255  -280169  -280254  -280122  -280120  -280408  -280598 
 -280648  -280651  -280644  -280827  -281277  -281803  -281989  -281680 
 -281345  -281479  -281812  -281797  -281511  -281299  -281192  -281024 
 -280755  -280629  -280773  -281067  -281207  -280864  -280492  -280666 
 -280952  -280999  -281028  -281049  -280962  -280729  -280486  -280457 
 -280592  -280748  -280801  -280701  -280632  -280620  -280473  -280305 
 -280359  -280534  -280663  -280867  -281242  -281452  -281178  -280791 
 -280636  -280463  -280207  -280103  -280212  -280430  -280577  -280521 
 -280372  -280350  -280377  -280237  -279987  -279751  -279738  -280058 
 -280274  -280189  -280161  -280195  -280135  -280150  -280295  -280385 
 -280330  -280103  -279725  -279459  -279548  -279798  -279813  -279536 
 -279356  -279462  -279632  -279877  -280247  -280503  -280413  -280003 
 -279790  -280195  -280756  -280932  -280829  -280689  -280646  -280785 
 -281048  -281357  -281584  -281578  -281514  -281763  -282241  -282349 
 -282029  -281896  -282063  -282266  -282506  -282640  -282424  -282035 
 -281853  -281866  -281786  -281707  -281844  -281900  -281615  -281367 
 -281479  -281611  -281481  -281415  -281458  -281400  -281608  -282160 
 -282517  -282441  -281911  -281304  -281222  -281368  -281244  -280994 
 -280750  -280484  -280196  -279929  -279967  -280349  -280670  -280829 
 -280866  -280728  -280608  -280608  -280655  -280662  -280539  -280519 
 -280690  -280704  -280539  -280382  -280119  -279788  -279647  -279591 
 -279486  -279568  -279802  -279807  -279543  -279332  -279383  -279474 
 -279460  -279456  -279302  -279024  -279109  -279502  -279618  -279391 
 -279279  -279501  -279845  -280039  -279909  -279586  -279594  -279957 
 -280079  -279929  -279963  -280100  -280087  -280106  -280242  -280430 
 -280786  -281195  -281489  -281743  -281794  -281696  -281726  -281726 
 -281707  -281834  -281974  -282054  -281983  -281740  -281531  -281310 
 -280918  -280432  -279969  -279659  -279445  -279090  -278800  -278853 
 -278947  -278939  -279076  -279333  -279624  -279911  -280014  -280008 
 -280062  -280056  -279950  -279796  -279555  -279136  -278500  -278203 
 -278604  -278800  -278542  -278677  -278934  -278658  -278313  -278328 
 -278583  -278920  -279173  -279514  -280069  -280351  -280342  -280575 
 -281040  -281348  -281469  -281742  -282051  -281904  -281443  -281078 
 -280906  -280995  -281307  -281700  -281950  -281994  -282158  -282372 
 -282275  -282069  -281936  -281840  -282082  -282521  -282549  -282492 
 -282945  -283382  -283347  -283365  -283630  -283626  -283193  -282761 
 -282637  -282586  -282337  -282156  -282314  -282591  -282835  -283188 
 -283517  -283629  -283802  -284214  -284517  -284625  -284783  -284855 
 -284605  -284141  -283705  -283435  -283257  -283011  -282568  -281943 
 -281434  -281210  -281140  -281146  -281111  -281151  -281479  -281669 
 -281556  -281665  -281853  -281784  -281885  -282166  -282167  -281994 
 -281811  -281546  -281319  -281153  -280902  -280555  -280328  -280366 
 -280486  -280485  -280309  -279987  -279805  -280021  -280530  -281207 
 -281966  -282636  -283243  -283837  -284270  -284450  -284350  -284133 
 -284069  -283988  -283490  -282649  -282005  -281827  -281782  -281645 
 -281480  -281165  -280658  -280292  -280265  -280431  -280582  -280596 
 -280546  -280647  -280970  -281310  -281361  -281038  -280633  -280389 
 -280003  -279317  -278895  -279004  -279196  -279306  -279541  -279902 
 -280381  -280843  -280995  -280999  -281086  -281151  -281172  -281140 
 -281064  -280939  -280523  -279887  -279450  -279212  -278721  -277817 
 -277067  -276976  -277211  -277325  -277285  -276951  -276461  -276403 
 -276694  -276768  -276501  -276234  -276397  -276913  -277422  -277996 
 -278718  -279292  -279587  -279860  -280169  -280439  -280897  -281485 
 -281778  -281653  -281234  -280640  -280111  -279772  -279331  -278797 
 -278718  -278934  -278876  -278746  -278899  -279428  -280508  -281758 
 -282557  -283057  -283309  -282950  -282195  -281464  -280913  -280812 
 -281128  -281165  -280515  -279671  -279123  -278877  -278928  -279194 
 -279444  -279404  -279131  -279271  -279910  -280395  -280768  -281537 
 -282595  -283602  -284376  -284832  -284918  -284485  -283724  -283136 
 -282761  -282275  -281527  -280685  -280056  -279730  -279636  -279645 
 -279468  -279198  -279308  -279895  -280837  -282005  -283123  -283894 
 -284191  -284338  -284655  -284733  -284160  -283154  -281920  -280413 
 -278887  -277877  -277612  -277789  -277927  -277812  -277576  -277338 
 -277207  -277601  -278667  -279823  -280666  -281592  -282846  -283539 
 -283076  -282345  -281958  -281630  -281415  -281391  -281269  -281076 
 -281151  -281578  -282259  -282931  -283211  -283119  -282793  -282214 
 -281753  -281754  -282023  -282145  -281808  -281109  -280440  -279985 
 -279729  -279674  -279775  -279954  -280137  -280129  -280027  -280242 
 -280731  -281232  -281605  -281653  -281431  -281084  -280714  -280420 
 -280071  -279898  -280170  -280504  -280894  -281488  -281850  -281944 
 -282070  -282037  -281601  -280984  -280431  -279784  -279167  -279057 
 -279298  -279412  -279139  -278449  -278048  -278465  -279022  -279424 
 -280041  -280632  -280949  -281144  -281211  -281059  -280786  -280611 
 -280440  -280095  -279990  -280368  -280498  -280049  -279976  -280651 
 -281232  -281647  -282432  -283062  -282912  -282290  -281611  -280982 
 -280538  -280527  -280939  -281268  -281097  -280824  -281237  -282079 
 -282518  -282796  -283192  -283034  -282231  -281421  -280956  -280980 
 -281221  -281111  -280667  -280335  -280466  -281024  -281213  -280705 
 -280594  -281375  -282020  -281782  -281006  -280525  -280640  -280679 
 -280216  -279598  -279184  -279039  -279026  -279131  -279271  -279207 
 -279328  -279838  -280030  -279848  -279803  -279752  -279606  -279555 
 -279633  -280157  -281354  -282645  -283224  -283026  -282599  -282349 
 -282499  -283016  -283358  -283343  -283378  -283373  -283119  -283007 
 -283030  -282572  -281700  -281178  -281122  -281001  -280797  -280868 
 -281141  -281272  -281372  -281704  -281718  -281087  -280516  -280336 
 -280435  -280735  -280864  -280654  -280411  -280463  -280539  -279946 
 -279034  -278900  -279475  -280014  -280480  -280984  -281411  -281815 
 -282020  -281695  -281214  -280899  -280351  -279753  -279641  -279752 
 -279846  -280096  -280187  -279868  -279674  -279918  -280343  -280767 
 -281272  -281967  -282548  -282695  -282609  -282432  -282204  -282104 
 -281986  -281754  -281782  -281948  -281693  -281323  -281481  -281973 
 -282378  -282522  -282248  -281662  -280951  -280226  -279695  -279301 
 -278918  -278696  -278765  -279217  -279756  -279636  -278972  -278772 
 -279224  -279574  -279536  -279468  -279590  -279702  -279676  -279661 
 -279583  -279401  -279444  -279722  -279842  -279664  -279475  -279487 
 -279451  -279193  -279108  -279452  -279613  -279270  -279352  -280018 
 -280191  -279818  -279261  -278615  -278645  -279455  -280476  -281709 
 -282910  -283749  -284326  -284374  -283718  -282946  -282515  -282090 
 -281479  -281148  -281292  -281596  -281882  -282055  -281940  -281708 
 -281695  -281905  -282233  -282572  -282895  -283107  -282901  -282599 
 -282565  -282401  -282145  -281985  -281638  -281146  -280758  -280678 
 -280773  -280521  -280199  -280323  -280539  -280480  -280164  -279876 
 -279934  -280091  -280169  -280111  -279567  -278811  -278526  -278858 
 -279472  -279807  -279733  -279778  -280034  -280112  -280287  -280782 
 -280966  -280713  -280565  -280462  -280261  -280343  -280731  -280979 
 -281124  -281381  -281647  -282137  -282754  -282870  -282637  -282259 
 -281599  -281165  -281365  -281886  -282117  -281611  -280700  -280077 
 -279832  -279648  -279486  -279433  -279552  -279817  -280044  -280238 
 -280301  -279987  -279412  -278892  -278949  -279697  -280339  -280485 
 -280573  -280616  -280319  -280056  -280108  -280077  -279833  -279564 
 -279354  -279387  -279829  -280551  -281178  -281503  -281732  -281863 
 -281620  -281183  -280755  -280334  -280254  -280443  -280496  -280589 
 -280636  -280466  -280369  -280223  -280177  -280685  -281389  -281934 
 -282283  -282352  -282367  -282426  -282432  -282509  -282414  -281982 
 -281738  -281847  -282135  -282706  -283373  -283689  -283676  -283497 
 -282942  -282177  -281839  -281907  -281952  -281942  -281843  -281541 
 -281190  -280974  -280940  -281057  -281030  -280804  -280810  -280983 
 -281092  -281527  -281981  -281591  -280732  -280264  -280160  -280045 
 -279968  -280050  -279942  -279408  -278995  -279308  -280029  -280547 
 -280883  -281044  -280804  -280476  -280659  -281199  -281379  -281136 
 -280752  -280273  -280008  -279998  -279841  -279580  -279572  -279840 
 -280071  -280099  -279857  -279425  -279432  -279900  -279965  -279605 
 -279328  -278930  -278554  -278901  -279728  -280211  -280332  -280396 
 -280199  -279751  -279514  -279401  -279243  -279687  -280805  -281581 
 -281673  -281674  -281947  -282334  -282374  -281986  -281659  -281445 
 -281083  -280883  -281138  -281470  -281465  -281330  -281572  -282056 
 -282181  -282164  -282491  -282726  -282580  -282560  -282946  -283350 
 -283414  -283433  -283473  -283171  -282981  -283111  -282787  -282181 
 -282118  -282386  -282430  -282225  -282002  -281898  -281670  -281146 
 -280524  -280038  -279979  -280107  -279829  -279478  -279355  -279090 
 -278819  -278610  -278185  -277770  -277773  -278147  -278077  -277365 
 -277258  -277862  -278159  -278419  -278982  -279458  -279845  -280033 
