Origin Time       2024/04/02 04:24:00
Lat.              40.133
Long.             141.712
Depth. (km)       71
Mag.              6.0
Station Code      AOMH11
Station Lat.      40.5800
Station Long.     140.9950
Station Height(m) 140
Record Time       2024/04/02 04:24:52
Sampling Freq(Hz) 100Hz
Duration Time(s)  142
Dir.              2
Scale Factor      2940(gal)/6170270
Max. Acc. (gal)   12.218
Last Correction   2024/04/02 04:24:37
Memo.             
[...]
  119786   119786   119786   119785   119788   119789   119788   119789 
  119787   119784   119785   119785   119785   119788   119790   119786 
  119785   119785   119785   119785   119784   119784   119787   119788 
  119787   119785   119784   119787   119789   119786   119786   119785 
  119785   119787   119787   119786   119787   119787   119784   119785 
  119786   119784   119786   119788   119787   119786   119786   119788 
  119787   119783   119784   119786   119785   119785   119788   119789 
  119785   119787   119789   119786   119784   119788   119788   119786 
  119786   119787   119786   119786   119785   119784   119786   119787 
  119783   119783   119786   119787   119784   119784   119787   119787 
  119785   119784   119784   119787   119789   119786   119784   119786 
  119786   119785   119784   119785   119785   119784   119785   119786 
  119784   119786   119786   119785   119785   119786   119786   119787 
  119787   119786   119789   119791   119786   119783   119786   119787 
  119787   119788   119789   119787   119785   119787   119788   119786 
  119784   119783   119786   119788   119784   119779   119777   119773 
  119764   119751   119736   119719   119695   119670   119643   119609 
  119573   119538   119502   119469   119446   119437   119437   119438 
  119440   119448   119461   119480   119507   119552   119627   119717 
  119794   119813   119753   119656   119566   119449   119267   119066 
  118924   118847   118797   118815   119013   119407   119864   120273 
  120595   120717   120480   119931   119316   118787   118390   118201 
  118176   118129   118128   118481   119128   119763   120565   121723 
  122475   122056   121195   120916   120717   120015   119640   120049 
  120324   119924   119491   119608   120075   120846   122116   123024 
  122345   120506   118978   117833   116403   115635   116584   118386 
  119840   120726   121194   121189   120801   120851   121433   120886 
  118476   115737   114165   113673   113643   114539   116956   119961 
  121941   122240   121982   122483   122868   122116   121061   120052 
  118477   116617   115907   117382   119180   118872   118121   119319 
  121386   122668   122882   122927   123378   122427   120722   121244 
  122033   121266   121015   121014   120374   119951   120263   122131 
  124448   124420   122905   122340   122155   121534   121500   122318 
  122750   121623   119580   118633   119297   120726   121811   121474 
  120049   118566   118150   118673   118011   117499   119005   118467 
  115310   114294   115475   116663   117466   118390   120336   121776 
  120653   118712   118965   120857   121927   122354   122558   121065 
  118640   117693   117845   118253   120223   122773   123108   122046 
  122224   124498   125753   122929   119629   117404   114598   114687 
  116365   115728   116761   119958   121417   121089   120195   120568 
  121866   121769   122217   124370   123751   119822   118094   119203 
  119576   118736   118267   119588   121933   123052   122651   120667 
  116971   114104   115027   118730   120286   117958   115747   115766 
  117387   119530   119408   118066   118912   119987   119355   118060 
  116999   117867   119999   121985   124318   124414   121193   117402 
  115046   116834   120914   123083   125842   127386   123052   118861 
  118728   119339   120968   122684   121550   119099   116827   114681 
  114370   116085   117544   118384   119965   122465   123753   122142 
  120320   120385   120427   118998   116205   115079   118308   121065 
  119556   118651   120653   121005   119196   119410   121040   119848 
  116369   115948   119272   121225   121446   122779   123988   123763 
  122592   121668   122117   121868   119982   118948   118130   116332 
  116407   118497   118779   117679   118357   119302   118602   119247 
  122431   124637   124143   122467   121439   121390   120358   118109 
  117772   119313   120812   123661   125410   121659   117244   117165 
  118008   117787   118022   117788   116562   117218   120512   121680 
  117502   112783   113426   116659   117604   118496   120871   121927 
  121624   121248   120721   119839   118921   119470   121031   121218 
  120187   119373   118991   119064   120090   121496   121309   119677 
  118443   118396   120452   122465   120484   117579   117625   117613 
  116706   118249   121188   121102   118244   117764   120772   122925 
  122882   122408   121611   120235   119288   119274   118458   116541 
  116212   117292   117836   118388   118839   118349   117992   119105 
  121143   122599   123467   123512   121437   119465   120263   121274 
  120663   120154   119808   120200   122468   122763   120131   119810 
  121319   120954   119561   119090   120246   120835   119669   120049 
  121294   120762   120642   120981   120615   121504   122751   122272 
  121230   120578   119914   119090   118703   118881   118400   117247 
  117086   118073   118531   117952   118206   120404   122096   121842 
  122296   123437   122095   119561   119522   120000   117403   115070 
  115605   116398   117663   119205   118626   117772   118330   118721 
  118505   118088   117435   116087   114762   116058   119227   121033 
  121859   122827   123466   124628   125551   123688   121303   121576 
  122568   122381   121270   119976   119739   119797   118835   117996 
  117682   117016   117109   118817   120392   120857   121913   124339 
  125557   124454   122717   120850   119555   119318   119686   121367 
  122661   121404   120528   121006   119375   116927   117374   118300 
  116879   116035   116736   115732   114218   115376   117085   118387 
  120820   121667   120193   120101   121100   119968   117218   116437 
  117680   117916   117780   118424   117451   115520   116080   118126 
  119038   119142   119736   120443   119691   118203   118095   118889 
  119119   119250   119938   120552   121282   122671   123474   123017 
  122435   122159   122053   122074   121519   120173   118857   118643 
  119569   120222   119927   119093   118213   118506   120273   121363 
  120988   121187   122597   123261   122540   122602   122819   119916 
  116657   117721   120676   122123   123842   125796   123789   119544 
  118242   118669   118378   117371   116553   116943   116787   115217 
  114365   114916   116533   119059   121281   122448   122406   121022 
  120751   122614   122648   120071   118431   118431   118410   117582 
  116495   115981   116998   119323   120435   121188   123493   123731 
  121537   121335   122470   122466   121572   120039   118959   118932 
  118758   119260   120775   121718   123270   125116   124431   122605 
  121055   119023   118281   119003   118886   119010   120285   120269 
  118860   118389   119154   120191   120938   121030   121119   121802 
  121053   118641   118066   118898   118092   116730   116193   115566 
  115245   115891   116531   117320   119094   120414   119944   119168 
  119337   119123   117979   117033   116033   115115   116559   119971 
  121269   120000   119435   119579   119532   119994   120520   121550 
  123379   124134   123629   122979   121989   120663   120167   120691 
  121123   121106   120413   119344   119008   119290   119927   120925 
  121802   121949   121218   121201   122237   122593   122658   122708 
  121508   120088   120428   121921   121646   119098   117825   118464 
  118226   117716   118659   119731   119083   117497   117612   119197 
  119850   119527   119197   119550   120308   120371   120572   121337 
  121349   120291   118649   117353   117861   120211   121241   120063 
  120394   121480   120501   119432   119356   119461   119743   120211 
  121040   121307   120187   119433   120511   122223   122277   120305 
  118798   118754   118892   119138   119116   118317   117835   118113 
  118937   119807   120403   120856   119900   118755   119630   119757 
  118481   118221   118401   118899   119685   120372   121905   122248 
  120750   121369   122829   121070   118606   118683   120009   120539 
  119319   117195   116520   117646   119065   120066   120131   119660 
  119831   119932   119558   119573   119436   119090   119714   120632 
  119648   117238   116565   118187   120235   121568   120770   117924 
  116977   119011   119866   119036   118790   118739   119036   119368 
  118789   119162   120509   121101   121937   122653   121663   119475 
  117306   117128   119227   121081   120968   118849   117019   117455 
  118569   118908   118651   118917   119932   119758   119347   120478 
  120842   119962   120460   121724   121316   120088   120004   120881 
  121565   121465   121537   121698   120258   119376   120931   121012 
  118798   118035   118135   117437   117301   117132   116269   116688 
  118474   120032   120633   119989   119676   121291   122069   120500 
  120604   122645   122270   119792   118613   119356   119995   118665 
  116654   117620   121178   122603   121528   120555   119595   119933 
  122432   123202   120800   119286   120035   120222   119246   118703 
  119351   120092   119170   118413   119874   120499   117976   115484 
  116157   118304   119750   120875   120841   119201   118953   120717 
  121252   119898   119211   120184   120407   119330   119748   120721 
  120524   120523   120329   120534   121792   121510   120380   120242 
  119690   118880   118882   119079   119713   120634   120058   119944 
  122032   121728   118811   118346   119952   121277   121335   120335 
  120537   120493   118921   119732   122269   122444   120977   119146 
  117478   117504   118821   120005   120345   120165   120301   120095 
  119543   119781   120665   121159   120232   119654   121353   121668 
  119589   120043   122606   123141   121192   119140   120005   121243 
  119213   118563   120056   118560   117837   120531   120692   118813 
  119039   120296   121471   121182   119333   119175   119776   119336 
  119766   120589   121113   121338   120081   119192   119627   119357 
  119044   119968   120282   118006   114980   114280   115470   116709 
  117339   117947   119621   120873   119944   118413   117610   118007 
  119440   119716   119319   119926   120002   119628   120047   120184 
  119203   117612   117482   119061   118968   117726   118176   118759 
  118785   119471   119595   119019   119108   119178   119431   121244 
  122506   121362   119934   119906   121430   122855   121629   119687 
  120208   121173   120226   119271   120094   121534   121778   120799 
  119875   119661   119806   119906   120389   120785   119981   118715 
  118076   118683   119728   119723   120134   121160   120784   119754 
  119454   120484   121731   120475   118581   119229   120317   120309 
  120175   119958   120216   120451   119838   120516   122850   123204 
  120629   118754   118600   117651   116630   117281   117999   118480 
  119864   121186   121906   121859   120684   119687   118925   118133 
  118912   120022   119753   119459   119078   118882   119732   119346 
  118089   118589   120009   121510   122506   122715   123846   124588 
  123050   121208   119805   118748   118745   118365   117117   116403 
  116233   116461   117746   120059   121043   119498   118850   119835 
  119761   120179   121980   121680   119827   120522   121641   119719 
  118698   120563   121317   120003   118910   119522   120928   120761 
  119584   119485   120242   120800   120636   120196   120623   121700 
  122486   122353   121044   119390   117992   117306   117806   119217 
  121723   123303   121633   119499   118288   116482   116156   117870 
  118639   118596   118993   119728   120218   118367   116147   118478 
  122112   122013   121296   121662   120706   120309   121699   122427 
  122428   121759   119569   116790   114155   111460   109379   109775 
  111629   112370   114012   117151   118399   119336   122558   124531 
  123577   123719   127128   131210   132784   131787   129535   126741 
  125163   124696   122859   119908   117480   116440   116327   115245 
  113613   112709   112297   112870   114743   116941   117741   117017 
  117951   121309   123910   125601   127414   127005   124880   124652 
  125543   125480   124330   121996   119913   119293   120029   121108 
  120564   120041   121068   120217   117763   117758   117925   114185 
  110207   111137   115010   117393   118437   120579   122324   121532 
  121502   123712   122965   117672   113257   112948   115759   120132 
  123280   123553   121890   117319   110556   107775   111433   117548 
  122882   125653   125288   125014   128373   132939   133448   131303 
  131794   133717   133163   131216   128622   122701   114069   107991 
  107841   110451   110950   110505   112646   115830   117555   118560 
  118476   118989   124105   130718   133170   130663   126317   124563 
  123327   117072   108732   105282   107135   109397   109266   107766 
  106960   109969   118210   127813   133158   132202   128536   127445 
  130473   133068   128261   116889   105768    98359    95500    96400 
  100797   108686   114943   117628   120993   124678   126857   128255 
  128376   127500   124665   118403   112555   108254   103381   103315 
  110986   118566   121616   125790   134413   137702   128149   118796 
  121487   128110   129573   124970   116110   108027   105814   110107 
  116456   120690   122915   123989   125790   130005   133492   132482 
  127533   121688   116447   109001    99207    95883   101317   105573 
  108400   116190   123497   125288   125957   130470   139490   145430 
  140331   128932   120937   118876   121127   125464   126884   124384 
  123392   121652   113859   106814   106541   109867   115365   122172 
  125714   123941   121866   122947   121996   118536   118057   119321 
  121292   122870   118586   112438   112721   116093   116428   115108 
  116506   121716   125853   124959   122370   120531   118814   119008 
  118676   113997   112230   117629   121559   122064   124233   124188 
  116763   109387   113576   123463   122147   111055   106019   111399 
  116802   114762   113170   118705   122724   121414   123540   130747 
  136275   136495   132511   128113   123316   117445   115664   118366 
  121592   124454   125183   125647   129003   131144   129074   124819 
  120416   117750   117129   115929   113970   115827   120505   120703 
  116907   115629   117171   115629   110870   110631   114781   118569 
  124414   129326   125286   117765   118124   125617   131342   129227 
  123147   121471   120385   115106   114579   119437   118599   111943 
  107477   109791   116103   117602   114389   114233   115832   115768 
  116246   116609   115655   115994   118698   122823   126153   124787 
  119924   118029   119518   118536   115458   117390   123670   125481 
  122251   121466   123934   123916   120617   118863   119842   120965 
  122275   123672   123183   122844   124862   125827   124796   124874 
  125026   122323   118501   117713   118282   115485   111502   111347 
  115697   119315   117171   115253   119628   123892   122225   117871 
  115162   113936   114218   118207   123257   124958   124423   123392 
  121414   119049   117053   115832   117175   121271   123693   121498 
  117468   114585   113599   115802   122033   127337   125282   120194 
  119206   120438   121046   121801   123944   125685   123354   119550 
  118318   117893   116489   115896   118568   122605   124538   124432 
  122177   119048   118952   121610   124918   128408   129045   126293 
  123689   120086   115971   116258   117800   116399   116809   119863 
  121235   121740   121174   118859   120347   125589   127173   124313 
  121474   121189   122705   121844   117249   114392   116311   117976 
  116624   115699   115001   112611   112861   116138   115280   111957 
  112663   115033   116937   120246   123713   123494   118189   113547 
  114705   118073   119553   119427   119449   120767   121262   118646 
  116540   118176   118801   116570   115828   115491   114796   115549 
  115464   118202   126524   130070   125622   122241   123119   125376 
  124580   118688   115092   117895   118873   115540   114461   116303 
  117220   115694   113972   115330   117938   118937   119334   120387 
  121028   120708   122333   124999   124540   123680   124364   122182 
  117006   114016   115261   118091   121104   123835   122260   118051 
  118451   120828   121499   124343   127131   125332   121386   118406 
  117434   117707   117348   115546   114519   117130   120124   119977 
  118850   118608   119806   121664   122650   122183   119406   117275 
  119189   122457   124190   123283   121131   121486   121730   119051 
  117701   118351   119625   121801   121218   118097   118633   122865 
  125475   125122   123910   122988   121856   120748   122072   123905 
  122050   119856   119848   119225   119186   121402   122908   122000 
  120631   119950   118725   117079   116827   117405   117175   116952 
  117682   119384   121250   120937   120023   122129   123885   122884 
  123840   126110   126353   128242   130397   127071   121722   118534 
  116132   114327   114462   115580   115322   115149   115949   115438 
  116364   120313   122085   120571   119025   118811   120656   122533 
  121426   119070   116716   114657   116671   121785   123762   122084 
  119859   118228   118007   118071   116200   113625   113197   114711 
  115390   115239   115703   115901   116205   116706   116813   119077 
  122079   121733   120701   121306   122017   122602   122030   120106 
  118549   117508   116153   114860   116950   122044   123835   121943 
  120309   118958   118238   120053   123381   124071   120682   117578 
  118538   122120   124239   123368   122028   121512   120382   117640 
  114692   115059   118593   121088   121269   120131   118502   118050 
  119628   122237   123053   120560   117941   118209   120915   122966 
  121383   118857   118389   117829   116299   115187   115489   116408 
  115987   115850   116247   115615   117234   120186   120181   118223 
  115263   114811   119145   121422   120662   121918   122609   120603 
  119047   119313   120132   119824   119177   120001   120404   119880 
  121357   123302   123336   123156   122226   119116   116944   118643 
  121789   123328   123684   123227   122252   121555   120984   121165 
  121101   119863   120398   122706   124002   124187   123056   120613 
  119899   122911   126331   125979   122734   120731   122026   124197 
  124760   124460   123753   122366   120627   119362   118874   116639 
  113009   113250   116898   118889   119049   119278   118983   117219 
  115812   117203   119155   119294   119618   120467   120692   120851 
  119848   117310   116865   119610   121440   120669   119808   118903 
  117670   118693   120957   121107   119251   117894   118919   120234 
  119716   119935   120845   119420   117846   118304   117772   115977 
  115833   115864   114844   116331   119821   120214   118110   118169 
  120422   121898   121555   120847   121881   123491   123041   121029 
  119231   119026   120563   121484   120143   117576   115580   115937 
  118109   119218   119115   119621   120900   121381   119949   119751 
  123405   126737   126508   125832   126772   126549   123749   121362 
  120923   120507   119431   117978   117020   119306   123143   123811 
