Origin Time       2024/04/02 04:24:00
Lat.              40.133
Long.             141.712
Depth. (km)       71
Mag.              6.0
Station Code      CHBH13
Station Lat.      35.8307
Station Long.     140.2980
Station Height(m) 12
Record Time       2024/04/02 04:26:31
Sampling Freq(Hz) 100Hz
Duration Time(s)  120
Dir.              6
Scale Factor      7845(gal)/8223790
Max. Acc. (gal)   1.266
Last Correction   2024/04/02 04:26:31
Memo.             
[...]
   -2400    -2374    -2428    -2490    -2465    -2384    -2366    -2442 
   -2596    -2798    -2907    -2803    -2556    -2380    -2404    -2519 
   -2587    -2654    -2718    -2709    -2674    -2656    -2641    -2652 
   -2662    -2631    -2620    -2694    -2785    -2805    -2795    -2755 
   -2640    -2528    -2427    -2245    -2089    -2145    -2322    -2443 
   -2481    -2455    -2404    -2417    -2535    -2709    -2840    -2853 
   -2768    -2613    -2489    -2555    -2694    -2677    -2632    -2700 
   -2700    -2602    -2585    -2612    -2610    -2647    -2681    -2606 
   -2481    -2424    -2490    -2659    -2830    -2925    -2903    -2772 
   -2650    -2597    -2581    -2609    -2639    -2600    -2515    -2425 
   -2388    -2420    -2489    -2617    -2735    -2720    -2628    -2565 
   -2543    -2533    -2520    -2556    -2656    -2725    -2701    -2614 
   -2552    -2528    -2528    -2578    -2646    -2701    -2741    -2709 
   -2641    -2651    -2785    -2943    -2934    -2749    -2565    -2508 
   -2628    -2829    -2910    -2813    -2643    -2479    -2344    -2320 
   -2482    -2691    -2747    -2654    -2560    -2554    -2586    -2644 
   -2776    -2874    -2833    -2710    -2563    -2447    -2424    -2485 
   -2598    -2652    -2581    -2502    -2455    -2416    -2479    -2616 
   -2668    -2635    -2570    -2485    -2440    -2496    -2601    -2671 
   -2679    -2654    -2655    -2679    -2631    -2497    -2408    -2461 
   -2604    -2678    -2627    -2583    -2610    -2623    -2604    -2548 
   -2479    -2477    -2479    -2434    -2451    -2565    -2674    -2683 
   -2574    -2444    -2428    -2565    -2752    -2787    -2633    -2482 
   -2457    -2525    -2629    -2708    -2670    -2509    -2382    -2398 
   -2470    -2529    -2633    -2727    -2701    -2621    -2577    -2556 
   -2567    -2636    -2740    -2775    -2648    -2434    -2299    -2289 
   -2358    -2574    -2871    -2968    -2832    -2635    -2488    -2488 
   -2621    -2770    -2862    -2848    -2782    -2772    -2772    -2739 
   -2717    -2662    -2575    -2554    -2558    -2547    -2575    -2600 
   -2577    -2554    -2513    -2436    -2424    -2512    -2596    -2666 
   -2717    -2629    -2442    -2376    -2500    -2713    -2913    -2991 
   -2901    -2725    -2592    -2554    -2605    -2694    -2748    -2697 
   -2567    -2469    -2411    -2394    -2512    -2667    -2651    -2527 
   -2457    -2440    -2498    -2636    -2695    -2629    -2571    -2484 
   -2361    -2425    -2660    -2826    -2860    -2802    -2667    -2542 
   -2542    -2644    -2760    -2851    -2830    -2656    -2436    -2315 
   -2305    -2335    -2419    -2550    -2610    -2629    -2671    -2651 
   -2592    -2627    -2725    -2767    -2725    -2620    -2506    -2478 
   -2560    -2614    -2517    -2385    -2412    -2554    -2633    -2592 
   -2497    -2457    -2497    -2533    -2547    -2597    -2651    -2640 
   -2543    -2415    -2359    -2425    -2532    -2547    -2444    -2408 
   -2540    -2694    -2760    -2737    -2647    -2605    -2668    -2781 
   -2847    -2766    -2583    -2486    -2516    -2575    -2643    -2729 
   -2758    -2713    -2671    -2643    -2679    -2810    -2855    -2714 
   -2539    -2461    -2485    -2543    -2589    -2610    -2571    -2587 
   -2686    -2690    -2673    -2675    -2539    -2421    -2474    -2577 
   -2598    -2484    -2381    -2438    -2577    -2737    -2795    -2637 
   -2470    -2475    -2547    -2629    -2776    -2833    -2662    -2493 
   -2457    -2430    -2446    -2560    -2718    -2828    -2848    -2812 
   -2700    -2555    -2539    -2656    -2774    -2789    -2686    -2529 
   -2388    -2384    -2554    -2743    -2845    -2866    -2830    -2778 
   -2705    -2598    -2548    -2620    -2695    -2728    -2774    -2729 
   -2575    -2466    -2462    -2550    -2663    -2721    -2748    -2732 
   -2677    -2709    -2812    -2798    -2654    -2563    -2569    -2551 
   -2512    -2527    -2575    -2583    -2543    -2484    -2446    -2479 
   -2529    -2497    -2450    -2431    -2416    -2448    -2511    -2569 
   -2632    -2658    -2647    -2605    -2500    -2430    -2458    -2544 
   -2647    -2650    -2529    -2478    -2543    -2578    -2587    -2681 
   -2822    -2866    -2740    -2552    -2466    -2508    -2587    -2600 
   -2496    -2416    -2463    -2532    -2600    -2700    -2697    -2563 
   -2462    -2436    -2438    -2485    -2578    -2621    -2559    -2520 
   -2551    -2511    -2442    -2485    -2527    -2509    -2563    -2658 
   -2681    -2655    -2583    -2490    -2500    -2633    -2737    -2690 
   -2579    -2551    -2587    -2633    -2673    -2652    -2610    -2606 
   -2563    -2458    -2400    -2419    -2473    -2573    -2648    -2597 
   -2516    -2474    -2435    -2496    -2663    -2756    -2783    -2791 
   -2747    -2748    -2824    -2876    -2880    -2791    -2631    -2506 
   -2444    -2509    -2725    -2947    -3045    -2984    -2803    -2640 
   -2570    -2556    -2567    -2601    -2640    -2621    -2548    -2479 
   -2413    -2380    -2430    -2496    -2527    -2575    -2635    -2666 
   -2697    -2720    -2679    -2635    -2614    -2552    -2529    -2650 
   -2799    -2813    -2698    -2596    -2558    -2546    -2563    -2540 
   -2459    -2451    -2494    -2501    -2502    -2492    -2482    -2508 
   -2508    -2450    -2389    -2411    -2496    -2551    -2555    -2494 
   -2407    -2461    -2594    -2600    -2538    -2539    -2593    -2686 
   -2747    -2706    -2608    -2542    -2543    -2551    -2515    -2465 
   -2451    -2525    -2654    -2686    -2623    -2577    -2560    -2552 
   -2542    -2490    -2457    -2520    -2567    -2525    -2569    -2758 
   -2893    -2872    -2767    -2664    -2659    -2768    -2866    -2853 
   -2744    -2604    -2501    -2486    -2579    -2705    -2751    -2713 
   -2624    -2489    -2388    -2425    -2502    -2496    -2504    -2536 
   -2508    -2540    -2625    -2585    -2532    -2579    -2616    -2610 
   -2605    -2637    -2675    -2671    -2701    -2733    -2693    -2670 
   -2658    -2602    -2583    -2613    -2658    -2717    -2716    -2631 
   -2600    -2636    -2641    -2627    -2589    -2520    -2504    -2578 
   -2716    -2849    -2851    -2686    -2489    -2423    -2533    -2729 
   -2868    -2872    -2801    -2724    -2664    -2683    -2733    -2698 
   -2637    -2585    -2484    -2424    -2515    -2704    -2867    -2906 
   -2806    -2635    -2469    -2408    -2452    -2454    -2428    -2486 
   -2505    -2458    -2504    -2606    -2654    -2697    -2694    -2547 
   -2405    -2431    -2509    -2556    -2606    -2596    -2540    -2497 
   -2403    -2300    -2311    -2452    -2673    -2840    -2855    -2763 
   -2664    -2636    -2662    -2685    -2663    -2546    -2408    -2386 
   -2484    -2597    -2637    -2620    -2566    -2466    -2428    -2493 
   -2600    -2751    -2828    -2754    -2681    -2655    -2619    -2602 
   -2608    -2620    -2620    -2602    -2624    -2658    -2633    -2535 
   -2427    -2438    -2521    -2560    -2569    -2529    -2478    -2463 
   -2454    -2478    -2527    -2563    -2560    -2482    -2486    -2628 
   -2716    -2735    -2731    -2654    -2592    -2586    -2555    -2540 
   -2614    -2687    -2721    -2799    -2864    -2825    -2718    -2577 
   -2442    -2398    -2512    -2733    -2862    -2789    -2620    -2493 
   -2498    -2647    -2813    -2878    -2814    -2641    -2479    -2477 
   -2620    -2741    -2706    -2542    -2384    -2365    -2484    -2616 
   -2690    -2728    -2705    -2606    -2535    -2570    -2621    -2582 
   -2525    -2493    -2444    -2457    -2536    -2587    -2609    -2602 
   -2571    -2565    -2609    -2685    -2701    -2656    -2640    -2636 
   -2662    -2752    -2764    -2674    -2671    -2767    -2809    -2794 
   -2776    -2689    -2523    -2434    -2509    -2666    -2776    -2744 
   -2552    -2351    -2319    -2430    -2524    -2516    -2469    -2457 
   -2488    -2608    -2803    -2860    -2670    -2427    -2311    -2358 
   -2497    -2592    -2624    -2628    -2617    -2670    -2754    -2759 
   -2671    -2505    -2303    -2222    -2365    -2602    -2741    -2772 
   -2774    -2689    -2546    -2533    -2583    -2531    -2535    -2662 
   -2739    -2741    -2706    -2625    -2500    -2349    -2278    -2396 
   -2633    -2808    -2799    -2685    -2628    -2713    -2864    -2889 
   -2705    -2436    -2276    -2340    -2521    -2608    -2554    -2473 
   -2470    -2532    -2593    -2587    -2485    -2362    -2295    -2334 
   -2508    -2704    -2787    -2768    -2716    -2691    -2647    -2508 
   -2389    -2466    -2628    -2646    -2556    -2465    -2384    -2430 
   -2590    -2640    -2587    -2571    -2567    -2565    -2629    -2759 
   -2848    -2832    -2785    -2668    -2450    -2385    -2531    -2628 
   -2677    -2749    -2747    -2728    -2748    -2731    -2690    -2683 
   -2710    -2710    -2650    -2652    -2760    -2852    -2910    -2860 
   -2697    -2648    -2714    -2732    -2668    -2511    -2362    -2334 
   -2376    -2463    -2609    -2721    -2685    -2475    -2219    -2104 
   -2235    -2582    -2947    -3090    -2972    -2724    -2560    -2616 
   -2740    -2799    -2762    -2556    -2316    -2204    -2205    -2388 
   -2668    -2752    -2600    -2407    -2309    -2363    -2556    -2736 
   -2808    -2848    -2825    -2745    -2736    -2644    -2439    -2425 
   -2555    -2639    -2724    -2767    -2736    -2705    -2621    -2484 
   -2404    -2447    -2571    -2624    -2608    -2666    -2689    -2554 
   -2438    -2454    -2517    -2609    -2678    -2609    -2493    -2444 
   -2405    -2400    -2521    -2714    -2820    -2768    -2625    -2454 
   -2350    -2427    -2589    -2674    -2658    -2623    -2658    -2731 
   -2745    -2656    -2544    -2532    -2600    -2720    -2835    -2822 
   -2744    -2662    -2558    -2497    -2484    -2432    -2373    -2416 
   -2579    -2749    -2835    -2808    -2744    -2727    -2704    -2663 
   -2643    -2610    -2577    -2533    -2434    -2367    -2417    -2490 
   -2515    -2528    -2586    -2690    -2741    -2659    -2515    -2417 
   -2421    -2505    -2604    -2721    -2812    -2776    -2671    -2639 
   -2682    -2714    -2783    -2907    -2932    -2829    -2686    -2486 
   -2312    -2309    -2349    -2258    -2234    -2432    -2637    -2735 
   -2762    -2633    -2509    -2628    -2818    -2835    -2724    -2678 
   -2743    -2762    -2721    -2718    -2666    -2542    -2516    -2619 
   -2740    -2816    -2816    -2762    -2674    -2571    -2593    -2728 
   -2729    -2543    -2350    -2276    -2323    -2457    -2604    -2655 
   -2612    -2590    -2548    -2435    -2439    -2579    -2647    -2635 
   -2647    -2666    -2675    -2721    -2745    -2663    -2558    -2434 
   -2215    -2093    -2259    -2582    -2806    -2739    -2454    -2253 
   -2259    -2374    -2554    -2691    -2658    -2567    -2515    -2465 
   -2500    -2632    -2745    -2817    -2783    -2554    -2235    -2073 
   -2172    -2376    -2508    -2650    -2894    -3091    -3107    -2990 
   -2790    -2631    -2693    -2905    -3059    -3045    -2862    -2629 
   -2479    -2447    -2525    -2616    -2546    -2320    -2158    -2195 
   -2447    -2835    -3069    -2948    -2651    -2440    -2377    -2532 
   -2895    -3113    -2967    -2666    -2355    -2072    -1921    -1995 
   -2328    -2720    -2905    -2898    -2739    -2444    -2277    -2398 
   -2686    -2994    -3130    -2963    -2709    -2616    -2589    -2498 
   -2458    -2567    -2617    -2401    -2128    -2112    -2359    -2697 
   -2875    -2756    -2556    -2560    -2751    -2983    -3164    -3227 
   -3079    -2659    -2195    -2083    -2327    -2590    -2731    -2704 
   -2497    -2415    -2583    -2727    -2758    -2690    -2546    -2538 
   -2700    -2875    -2922    -2739    -2501    -2484    -2656    -2731 
   -2621    -2554    -2590    -2610    -2585    -2540    -2555    -2652 
   -2708    -2589    -2393    -2469    -2704    -2713    -2637    -2587 
   -2517    -2641    -2845    -2778    -2502    -2361    -2515    -2673 
   -2606    -2500    -2420    -2428    -2646    -2810    -2793    -2836 
   -2907    -2760    -2381    -1996    -1800    -1831    -2043    -2293 
   -2539    -2941    -3419    -3669    -3528    -3064    -2567    -2268 
   -2097    -2104    -2409    -2670    -2631    -2523    -2311    -1973 
   -1966    -2253    -2398    -2521    -2728    -2733    -2520    -2367 
   -2398    -2508    -2671    -2909    -3014    -2894    -2759    -2643 
   -2427    -2207    -2170    -2296    -2436    -2567    -2677    -2682 
   -2604    -2544    -2581    -2662    -2682    -2754    -2894    -2875 
   -2729    -2592    -2431    -2313    -2270    -2230    -2293    -2546 
   -2890    -3140    -3125    -2928    -2785    -2690    -2565    -2540 
   -2635    -2647    -2484    -2251    -2084    -2058    -2234    -2570 
   -2864    -2987    -2967    -2841    -2674    -2619    -2725    -2806 
   -2794    -2766    -2596    -2370    -2324    -2330    -2380    -2612 
   -2805    -2795    -2617    -2316    -2151    -2280    -2489    -2583 
   -2559    -2581    -2805    -3084    -3168    -3068    -2855    -2536 
   -2316    -2338    -2394    -2374    -2392    -2397    -2296    -2234 
   -2381    -2666    -2925    -3045    -2913    -2582    -2384    -2489 
   -2623    -2554    -2416    -2346    -2354    -2479    -2714    -2957 
   -3061    -2971    -2872    -2947    -3075    -3001    -2632    -2157 
   -1898    -1969    -2192    -2346    -2299    -2157    -2292    -2840 
   -3510    -3928    -3913    -3497    -2856    -2274    -1977    -1968 
   -2141    -2326    -2347    -2338    -2567    -2870    -2828    -2508 
   -2268    -2155    -2126    -2230    -2462    -2737    -2906    -2859 
   -2654    -2525    -2629    -2820    -2988    -3161    -3202    -2976 
   -2582    -2227    -2141    -2359    -2590    -2635    -2566    -2457 
   -2408    -2442    -2500    -2727    -3073    -3223    -3134    -2868 
   -2594    -2613    -2767    -2714    -2428    -2110    -2074    -2355 
   -2799    -3375    -3697    -3460    -3026    -2652    -2265    -2037 
   -2145    -2435    -2713    -2897    -2833    -2500    -2197    -2074 
   -2074    -2263    -2590    -2787    -2712    -2497    -2317    -2255 
   -2434    -2731    -2785    -2770    -3048    -3321    -3300    -3100 
   -2779    -2536    -2448    -2246    -1988    -1939    -2093    -2308 
   -2377    -2300    -2374    -2654    -2932    -3125    -3235    -3254 
   -3164    -2947    -2633    -2255    -1937    -1961    -2273    -2432 
   -2401    -2481    -2606    -2579    -2501    -2563    -2776    -2937 
   -2906    -2878    -3071    -3315    -3254    -2817    -2262    -1917 
   -1977    -2313    -2594    -2628    -2404    -2149    -2127    -2174 
   -2146    -2285    -2605    -2884    -3033    -2955    -2648    -2295 
   -2131    -2316    -2693    -3040    -3258    -3129    -2748    -2608 
   -2770    -2852    -2710    -2596    -2601    -2506    -2326    -2241 
   -2239    -2317    -2494    -2641    -2749    -2955    -3110    -3034 
   -2898    -2745    -2482    -2242    -2100    -2038    -2130    -2297 
   -2419    -2570    -2725    -2776    -2886    -3125    -3190    -2972 
   -2654    -2273    -1945    -1934    -2199    -2474    -2664    -2779 
   -2712    -2498    -2454    -2589    -2608    -2581    -2646    -2698 
   -2695    -2614    -2508    -2512    -2570    -2654    -2763    -2754 
   -2700    -2791    -2918    -2813    -2432    -2019    -1856    -1998 
   -2281    -2520    -2677    -2776    -2759    -2614    -2542    -2619 
   -2660    -2635    -2668    -2705    -2673    -2656    -2674    -2675 
   -2639    -2587    -2593    -2658    -2727    -2751    -2677    -2647 
   -2820    -3001    -2957    -2795    -2762    -2880    -2925    -2805 
   -2573    -2236    -2014    -2058    -2216    -2461    -2721    -2758 
   -2641    -2569    -2581    -2689    -2775    -2705    -2525    -2384 
   -2386    -2438    -2396    -2377    -2467    -2528    -2579    -2710 
   -2924    -3334    -3815    -3856    -3353    -2655    -2093    -1899 
   -1941    -2053    -2317    -2428    -2220    -2092    -2118    -2231 
   -2488    -2709    -2856    -2986    -3007    -2936    -2851    -2841 
   -2859    -2710    -2467    -2323    -2373    -2648    -2917    -2909 
   -2660    -2392    -2328    -2407    -2424    -2482    -2652    -2694 
   -2547    -2397    -2340    -2423    -2654    -2875    -2920    -2851 
   -2835    -2855    -2803    -2720    -2631    -2434    -2211    -2176 
   -2259    -2374    -2608    -2894    -3057    -3068    -3005    -2924 
   -2837    -2768    -2690    -2573    -2485    -2447    -2416    -2432 
   -2515    -2612    -2697    -2760    -2762    -2619    -2371    -2207 
   -2204    -2358    -2616    -2755    -2729    -2797    -2963    -3040 
   -3002    -2868    -2693    -2560    -2436    -2320    -2350    -2505 
   -2582    -2481    -2303    -2246    -2407    -2628    -2795    -2945 
   -2949    -2764    -2609    -2532    -2444    -2335    -2207    -2126 
   -2091    -2031    -2106    -2392    -2647    -2743    -2714    -2536 
   -2273    -2166    -2303    -2439    -2451    -2467    -2523    -2640 
   -2848    -2980    -2880    -2717    -2732    -2825    -2824    -2795 
   -2817    -2835    -2705    -2378    -2057    -1966    -2131    -2389 
   -2569    -2644    -2623    -2559    -2574    -2678    -2786    -2825 
   -2855    -2886    -2790    -2656    -2681    -2790    -2887    -2945 
   -2870    -2679    -2512    -2421    -2389    -2419    -2524    -2608 
   -2581    -2606    -2779    -2933    -3076    -3240    -3218    -3017 
   -2826    -2660    -2535    -2509    -2474    -2336    -2222    -2297 
   -2563    -2789    -2740    -2436    -2092    -1960    -2127    -2421 
   -2644    -2682    -2505    -2273    -2151    -2178    -2388    -2698 
   -2905    -2909    -2775    -2575    -2332    -2115    -2070    -2280 
   -2610    -2866    -2965    -2884    -2639    -2344    -2160    -2137 
   -2245    -2489    -2826    -3118    -3254    -3167    -2863    -2511 
   -2249    -2124    -2262    -2616    -2868    -2934    -2883    -2691 
   -2540    -2589    -2693    -2752    -2716    -2528    -2324    -2231 
   -2168    -2066    -1976    -2019    -2303    -2682    -2922    -3022 
   -3086    -3136    -3102    -2938    -2755    -2687    -2783    -2928 
   -2911    -2712    -2498    -2392    -2424    -2586    -2786    -2928 
   -3045    -3123    -3056    -2876    -2700    -2581    -2538    -2538 
   -2493    -2390    -2382    -2519    -2639    -2712    -2758    -2713 
   -2677    -2712    -2640    -2484    -2466    -2560    -2581    -2465 
   -2278    -2187    -2255    -2361    -2488    -2656    -2739    -2774 
   -2879    -2903    -2762    -2581    -2350    -2022    -1772    -1818 
   -2203    -2706    -2976    -2924    -2756    -2674    -2705    -2698 
   -2590    -2546    -2617    -2658    -2604    -2524    -2542    -2733 
   -2868    -2705    -2489    -2586    -2882    -3007    -2844    -2563 
   -2397    -2439    -2597    -2724    -2822    -3007    -3206    -3163 
   -2829    -2477    -2344    -2369    -2349    -2323    -2484    -2802 
   -3092    -3245    -3130    -2767    -2579    -2791    -3013    -2940 
   -2774    -2628    -2398    -2220    -2236    -2312    -2436    -2668 
   -2790    -2697    -2579    -2528    -2539    -2624    -2754    -2863 
   -2898    -2866    -2787    -2647    -2482    -2330    -2166    -1972 
