Origin Time       2024/04/02 04:24:00
Lat.              40.133
Long.             141.712
Depth. (km)       71
Mag.              6.0
Station Code      CHBH13
Station Lat.      35.8307
Station Long.     140.2980
Station Height(m) 12
Record Time       2024/04/02 04:26:31
Sampling Freq(Hz) 100Hz
Duration Time(s)  120
Dir.              4
Scale Factor      7845(gal)/8223790
Max. Acc. (gal)   1.971
Last Correction   2024/04/02 04:26:31
Memo.             
[...]
    -249     -355     -376     -297     -238     -241     -236     -216 
    -229     -271     -317     -386     -503     -600     -614     -598 
    -596     -572     -480     -376     -319     -279     -236     -224 
    -210     -151      -29      135      251      256      184      106 
      59       18        6       31        4      -93     -172     -190 
    -175     -163     -174     -220     -265     -284     -294     -292 
    -272     -236     -155      -56      -43     -105     -144     -174 
    -238     -240     -136      -40       14       76       94       16 
    -116     -222     -248     -202     -135      -97     -126     -221 
    -336     -421     -502     -634     -772     -785     -650     -490 
    -387     -346     -383     -459     -492     -476     -430     -365 
    -329     -328     -330     -355     -384     -361     -313     -287 
    -290     -314     -341     -361     -391     -392     -357     -361 
    -419     -471     -475     -413     -318     -257     -233     -214 
    -206     -216     -236     -243     -206     -118        1       86 
      63      -17      -25       31       76      118      136       70 
     -52     -160     -205     -180     -174     -249     -307     -315 
    -373     -448     -459     -423     -384     -368     -355     -322 
    -305     -268     -164      -54       51      164      195      124 
      48       14      -10      -54     -105     -143     -178     -224 
    -278     -360     -444     -475     -487     -511     -513     -472 
    -414     -348     -288     -247     -194     -141     -121     -103 
     -95     -156     -247     -319     -379     -392     -337     -255 
    -182     -155     -195     -263     -313     -338     -363     -390 
    -392     -356     -284     -220     -199     -191     -156     -155 
    -224     -294     -299     -256     -232     -251     -263     -291 
    -407     -545     -568     -456     -290     -164      -99      -60 
     -71     -178     -349     -483     -495     -413     -329     -280 
    -249     -210     -159     -143     -179     -214     -238     -302 
    -351     -265     -101        5       25       -4      -36      -45 
     -63     -120     -180     -174     -143     -151     -152     -151 
    -183     -199     -167     -135     -157     -222     -268     -294 
    -317     -330     -368     -438     -492     -499     -450     -365 
    -287     -245     -221     -171     -105      -71      -85     -101 
     -52       55      128       99       -4      -99     -168     -278 
    -395     -427     -396     -351     -321     -349     -390     -394 
    -426     -499     -523     -473     -419     -402     -376     -305 
    -216     -175     -240     -369     -407     -315     -222     -193 
    -191     -174     -156     -182     -213     -195     -152     -114 
     -75       -6       99      191      220      195      159      129 
     129      152      125       16     -135     -280     -392     -484 
    -549     -561     -580     -668     -754     -768     -727     -658 
    -585     -523     -465     -417     -368     -302     -236     -164 
     -56       70      149      152      105       39      -35      -93 
    -129     -170     -197     -195     -232     -317     -348     -299 
    -261     -301     -383     -444     -465     -468     -468     -436 
    -351     -263     -241     -295     -379     -460     -500     -459 
    -368     -287     -201     -118      -75      -44       18      110 
     194      234      243      226      210      205      156       54 
     -36     -121     -224     -292     -313     -315     -309     -299 
    -349     -496     -638     -638     -514     -375     -272     -228 
    -229     -207     -167     -164     -174     -163     -149     -143 
    -167     -211     -209     -187     -209     -240     -283     -380 
    -460     -503     -552     -579     -575     -556     -499     -391 
    -256     -151     -109     -120     -195     -287     -317     -306 
    -279     -193      -93      -49      -18       35       70       75 
      67       75      147      233      205       83       -6      -59 
    -129     -228     -342     -417     -399     -345     -349     -399 
    -403     -365     -383     -457     -502     -490     -442     -395 
    -371     -338     -286     -218     -129      -47        2       17 
      -1      -55     -141     -213     -221     -190     -207     -278 
    -346     -410     -479     -542     -606     -642     -604     -529 
    -472     -410     -329     -280     -271     -249     -214     -209 
    -197     -160     -157     -153      -94      -47      -68     -147 
    -279     -411     -465     -434     -351     -247     -186     -191 
    -197     -172     -168     -207     -244     -241     -243     -275 
    -286     -283     -297     -284     -230     -182     -155     -130 
     -91      -25       41       60       29      -27     -118     -211 
    -259     -284     -301     -302     -313     -329     -292     -216 
    -198     -244     -276     -264     -207     -157     -175     -195 
    -151      -76      -16       21       25       -1      -55     -109 
    -118     -121     -191     -295     -336     -301     -276     -292 
    -278     -207     -160     -186     -252     -286     -282     -303 
    -346     -364     -364     -342     -305     -298     -314     -298 
    -255     -247     -245     -175      -87      -52      -58      -97 
    -176     -261     -302     -317     -301     -201      -86      -51 
     -55      -83     -156     -225     -256     -241     -206     -197 
    -216     -241     -272     -309     -349     -373     -372     -361 
    -345     -325     -330     -369     -400     -390     -355     -345 
    -375     -434     -486     -448     -310     -153      -40       25 
      21      -72     -152     -125      -59      -48     -121     -230 
    -259     -203     -205     -265     -283     -253     -251     -305 
    -337     -315     -292     -264     -255     -306     -359     -365 
    -310     -179      -56      -17      -21      -52     -140     -211 
    -202     -179     -166     -135     -137     -149     -122     -136 
    -195     -252     -328     -368     -356     -336     -299     -287 
    -330     -359     -373     -421     -484     -530     -529     -525 
    -564     -546     -405     -251     -199     -217     -199     -125 
     -70      -68      -91     -106      -76      -10       33       25 
     -21      -68     -109     -168     -226     -248     -259     -268 
    -286     -348     -437     -448     -349     -229     -164     -163 
    -186     -214     -257     -290     -286     -241     -157     -109 
    -137     -149     -112      -99     -170     -274     -333     -357 
    -363     -317     -247     -190     -178     -248     -365     -457 
    -492     -503     -525     -511     -444     -376     -351     -375 
    -409     -407     -392     -383     -314     -186      -76       -1 
      36       17      -29      -82     -140     -187     -206     -174 
     -93      -12       41       71       55      -31     -148     -183 
    -120      -63      -56      -67      -59      -52      -99     -170 
    -222     -279     -329     -332     -271     -221     -264     -329 
    -332     -321     -321     -314     -286     -207     -109      -71 
    -117     -187     -244     -286     -292     -284     -325     -388 
    -415     -436     -480     -499     -453     -395     -369     -328 
    -240     -178     -191     -272     -398     -484     -490     -490 
    -491     -444     -398     -413     -488     -575     -581     -496 
    -406     -379     -368     -309     -216     -114      -48      -63 
    -117     -166     -205     -194     -133     -103     -144     -207 
    -265     -317     -333     -279     -195     -166     -182     -183 
    -184     -202     -209     -170      -71       32       52      -29 
    -148     -241     -271     -225     -160      -93       -9       18 
     -35      -83      -75      -54      -75     -143     -202     -236 
    -259     -252     -247     -256     -217     -141     -101      -74 
     -47      -47      -64      -81      -90     -108     -130     -116 
     -63      -47     -112     -211     -268     -278     -298     -351 
    -395     -388     -340     -302     -302     -334     -371     -406 
    -481     -548     -517     -449     -433     -461     -511     -542 
    -523     -488     -454     -379     -275     -230     -240     -241 
    -247     -259     -245     -206     -144      -89      -60      -43 
     -48      -83     -122     -176     -230     -252     -218     -159 
    -122     -103      -99     -143     -220     -303     -369     -378 
    -294     -139      -24       -4      -29      -89     -164     -207 
    -229     -218     -162     -112      -75      -54     -102     -207 
    -314     -419     -523     -548     -461     -382     -333     -249 
    -164     -133     -133     -121      -74      -62     -108     -109 
     -35       14      -22     -125     -218     -241     -207     -162 
    -126     -116     -135     -171     -218     -283     -346     -376 
    -390     -395     -325     -184     -125     -225     -396     -550 
    -670     -741     -742     -684     -561     -414     -334     -326 
    -287     -179      -76      -25       25       83       94       85 
     118      182      257      321      342      351      346      275 
     151       17     -114     -232     -321     -398     -468     -514 
    -502     -436     -367     -334     -333     -330     -301     -249 
    -211     -207     -234     -256     -225     -159     -122     -149 
    -213     -263     -297     -325     -324     -294     -288     -314 
    -288     -213     -203     -267     -328     -349     -328     -297 
    -283     -274     -260     -240     -236     -284     -378     -463 
    -492     -481     -453     -415     -391     -379     -341     -279 
    -210     -182     -234     -297     -292     -247     -198     -172 
    -201     -241     -233     -213     -252     -332     -403     -461 
    -480     -422     -353     -363     -426     -475     -495     -494 
    -460     -421     -422     -405     -318     -232     -189     -171 
    -198     -261     -309     -330     -322     -259     -153      -47 
      39       60      -14      -81      -44       21       41       28 
      18       62      153      228      247      213      118      -18 
     -99     -108     -155     -249     -282     -220     -130      -81 
     -56      -36      -63     -149     -210     -216     -218     -216 
    -184     -140      -99     -121     -224     -313     -348     -379 
    -411     -425     -450     -480     -461     -403     -333     -303 
    -338     -336     -240     -149     -101      -81     -102     -110 
     -89     -101     -120     -128     -163     -205     -236     -264 
    -306     -361     -387     -363     -309     -251     -234     -297 
    -391     -422     -378     -351     -367     -399     -453     -533 
    -635     -729     -757     -693     -550     -407     -342     -322 
    -287     -216     -132      -90      -89      -58       10       39 
       8      -27      -49      -90     -163     -249     -318     -371 
    -422     -450     -441     -398     -322     -249     -197     -140 
     -94      -55       -5       -6      -79     -159     -228     -290 
    -352     -436     -518     -564     -572     -517     -386     -270 
    -248     -284     -298     -310     -396     -517     -564     -545 
    -490     -409     -344     -345     -394     -407     -388     -415 
    -433     -326     -129       63      209      284      282      222 
     126        6     -118     -247     -406     -565     -658     -711 
    -796     -892     -922     -826     -611     -341     -110      -24 
     -67      -79       25      162      249      353      530      635 
     530      263      -83     -426     -626     -630     -550     -502 
    -467     -348      -98      197      445      581      546      357 
     141       10      -31      -63     -145     -275     -417     -533 
    -625     -715     -788     -791     -720     -642     -562     -441 
    -260      -35      147      182      126      113      132      152 
     183       98     -195     -553     -835    -1057    -1204    -1196 
    -992     -649     -324     -175     -183     -228     -253     -232 
    -116      112      375      477      360      203       70     -121 
    -324     -411     -332     -149       12      103      182      288 
     448      639      735      696      564      313      -35     -355 
    -541     -588     -602     -675     -745     -704     -615     -573 
    -556     -519     -472     -436     -387     -230        1      174 
     317      503      584      399       14     -387     -654     -737 
    -738     -762     -753     -587     -278       17      149       75 
    -148     -332     -263       32      329      438      275      -55 
    -340     -534     -633     -592     -537     -611     -738     -718 
    -511     -301     -226     -278     -346     -305     -198     -136 
     -56      128      330      364      232      122       12     -310 
    -773    -1116    -1314    -1451    -1422    -1100     -604     -287 
    -384     -719     -915     -722     -189      344      596      595 
     480      290      -14     -441     -846    -1069    -1135    -1179 
   -1229    -1179    -1004     -855     -846     -849     -631     -184 
     221      421      562      845     1274     1675     1833     1741 
    1537     1193      584     -159     -757    -1066    -1136    -1138 
   -1166    -1142    -1011     -851     -741     -664     -560     -410 
    -226      -39      108      189      137      -51     -179     -205 
    -303     -380     -252      -97     -152     -334     -398     -318 
    -264     -278     -253     -184     -155     -199     -245     -247 
    -233     -178      -44       64       10     -238     -645    -1124 
   -1494    -1552    -1259     -796     -395      -79      256      469 
     346       40     -157     -157       56      495     1009     1277 
    1066      461     -282     -861    -1028     -897     -761     -730 
    -834    -1000    -1046    -1000     -977     -966     -970     -924 
    -699     -324      162      772     1266     1345     1096      785 
     549      445      427      328        9     -502     -958    -1115 
   -1084    -1044     -990     -984    -1062    -1082     -965     -776 
    -635     -583     -464     -135      313      683      885      951 
     884      677      434      268      211      152     -122     -600 
    -918     -749     -171      442      835      950      714      172 
    -388     -708     -699     -490     -376     -490     -633     -523 
    -135      271      410      210      -91     -186      -94      -33 
      31      186      234       14     -237     -224     -102     -162 
    -361     -514     -523     -419     -356     -346     -190      137 
     311      112     -233     -430     -473     -510     -610     -738 
    -884    -1082    -1239    -1183     -986     -805     -576     -251 
     -29      -14       10      271      626      661      195     -453 
    -892     -996     -783     -422     -201     -167     -179     -299 
    -619     -931     -963     -749     -573     -554     -511     -369 
    -214      -41      124      171      109       -9     -145     -257 
    -394     -540     -486     -197      109      288      330      259 
      86     -166     -405     -546     -619     -718     -857     -982 
   -1063    -1097    -1117    -1196    -1381    -1580    -1540    -1112 
    -495       -2      265      403      477      476      390      287 
     340      569      670      475      249      207      233       87 
    -298     -629     -643     -541     -533     -537     -488     -396 
    -264     -129       -5       37      -91     -305     -421     -432 
    -427     -375     -218      -93     -141     -252     -225     -139 
    -233     -468     -591     -465      -78      448      828      882 
     635      117     -629    -1358    -1692    -1526    -1197    -1034 
    -974     -828     -614     -432     -265      -66      175      361 
     271      -33     -153        5      191      306      383      356 
     195      -27     -247     -349     -259     -171     -249     -346 
    -295      -97      160      305      292      297      305      136 
     -62      -70       -6      -29     -144     -398     -707     -804 
    -688     -576     -517     -406     -170      153      426      467 
     233      -75     -195     -102        4      -55     -322     -693 
    -980    -1039     -859     -540     -162      180      290      155 
      20        1       32       35       12       93      314      469 
     450      405      426      440      410      383      324      183 
      40      -60     -222     -456     -641     -761     -820     -766 
    -665     -552     -357     -225     -326     -457     -365     -101 
     214      498      669      710      634      445      187       54 
     209      359       66     -565    -1108    -1363    -1409    -1368 
   -1297    -1171    -1003     -905     -884     -742     -414      -59 
     156      113     -153     -365     -287      -14      197      256 
     274      325      384      461      500      380       35     -571 
   -1273    -1709    -1651    -1197     -685     -364     -275     -315 
    -291     -183     -112      -90     -133     -182      -79      130 
     286      241     -116     -670    -1051     -963     -503      -93 
     -12     -216     -621    -1116    -1397    -1212     -710     -221 
     136      429      648      653      383       17     -279     -546 
    -810     -954     -865     -591     -360     -379     -630     -953 
   -1277    -1543    -1543    -1174     -594      -44      270      344 
     390      417      245        8       18      256      454      510 
     481      432      361      209      -32     -244     -332     -305 
    -225     -162     -103       20      189      324      426      503 
     473      251     -197     -824    -1422    -1768    -1892    -1945 
   -1846    -1433     -803     -234       37      -36     -267     -361 
    -232      -33       79      176      388      657      824      812 
     638      399      230      172      141       74      -12     -118 
    -247     -425     -696     -896     -796     -546     -495     -642 
    -751     -739     -650     -604     -643     -575     -282      -31 
     -64     -130       94      461      723      820      757      622 
     440      126     -252     -531     -630     -639     -673     -631 
    -414     -120      174      463      642      596      392      140 
    -195     -577     -793     -710     -386        8      355      684 
    1008     1161      938      434       49      -66     -124     -118 
      68      217       71     -309     -708     -923     -882     -700 
    -494     -272      -68        8     -109     -351     -544     -567 
    -437     -221      -20       59       14     -112     -411     -957 
   -1576    -2015    -2135    -1904    -1406     -826     -391     -233 
    -329     -604     -873     -832     -436       67      444      639 
     670      513      145     -326     -706     -818     -616     -260 
