Origin Time       2024/04/02 04:24:00
Lat.              40.133
Long.             141.712
Depth. (km)       71
Mag.              6.0
Station Code      CHBH13
Station Lat.      35.8307
Station Long.     140.2980
Station Height(m) -1288
Record Time       2024/04/02 04:26:31
Sampling Freq(Hz) 100Hz
Duration Time(s)  120
Dir.              3
Scale Factor      2942(gal)/8224139
Max. Acc. (gal)   0.189
Last Correction   2024/04/02 04:26:31
Memo.             
  157863   157873   157828   157815   157804   157786   157800   157812 
  157837   157893   157896   157859   157854   157837   157804   157815 
  157887   157962   157920   157810   157808   157847   157785   157715 
  157752   157792   157763   157743   157724   157716   157765   157755 
  157666   157657   157709   157731   157746   157759   157778   157812 
  157800   157783   157832   157851   157788   157731   157719   157708 
  157704   157755   157796   157773   157781   157831   157862   157842 
  157790   157823   157910   157883   157790   157770   157767   157750 
  157769   157781   157783   157824   157848   157839   157837   157804 
  157785   157844   157847   157763   157755   157836   157882   157844 
  157798   157837   157889   157855   157804   157789   157779   157767 
  157763   157782   157815   157801   157747   157734   157744   157735 
  157765   157819   157819   157792   157800   157836   157823   157779 
  157804   157842   157833   157829   157831   157842   157875   157881 
  157859   157842   157816   157801   157792   157785   157810   157828 
  157804   157798   157813   157781   157747   157790   157837   157831 
  157831   157816   157750   157716   157755   157815   157840   157852 
  157883   157863   157782   157762   157797   157777   157728   157716 
  157744   157796   157812   157794   157812   157840   157828   157797 
  157769   157770   157778   157707   157647   157736   157867   157925 
  157917   157846   157782   157798   157837   157864   157906   157913 
  157864   157837   157843   157824   157789   157790   157781   157734 
  157763   157882   157952   157950   157904   157831   157771   157744 
  157758   157778   157783   157785   157767   157763   157794   157783 
  157770   157850   157890   157813   157759   157783   157817   157793 
  157754   157785   157801   157761   157786   157843   157836   157810 
  157775   157715   157712   157778   157800   157773   157767   157774 
  157767   157751   157759   157820   157917   157962   157898   157833 
  157833   157827   157828   157869   157882   157859   157846   157836 
  157812   157773   157755   157752   157717   157678   157688   157732 
  157797   157847   157829   157800   157836   157862   157809   157747 
  157735   157775   157862   157901   157842   157763   157713   157720 
  157775   157797   157792   157819   157825   157792   157777   157792 
  157790   157769   157763   157809   157870   157860   157843   157885 
  157896   157889   157937   157940   157844   157778   157804   157797 
  157732   157769   157860   157850   157842   157900   157883   157806 
  157781   157793   157810   157815   157786   157773   157835   157900 
  157881   157820   157766   157725   157709   157732   157802   157828 
  157762   157734   157752   157735   157758   157806   157788   157794 
  157844   157848   157836   157809   157743   157705   157727   157770 
  157790   157785   157798   157832   157843   157837   157839   157825 
  157821   157817   157766   157758   157839   157874   157829   157800 
  157785   157770   157771   157740   157734   157816   157871   157847 
  157848   157850   157788   157754   157786   157804   157792   157782 
  157778   157778   157794   157832   157860   157817   157754   157785 
  157825   157800   157825   157859   157802   157779   157806   157789 
  157800   157869   157882   157844   157824   157800   157754   157734 
  157763   157821   157889   157913   157825   157739   157785   157832 
  157790   157762   157740   157693   157689   157743   157771   157761 
  157782   157824   157820   157796   157788   157762   157750   157789 
  157817   157832   157842   157827   157827   157793   157701   157681 
  157712   157720   157761   157797   157801   157824   157832   157801 
  157763   157746   157774   157796   157746   157682   157693   157767 
  157820   157847   157894   157912   157890   157877   157852   157792 
  157742   157740   157763   157782   157783   157777   157806   157852 
  157839   157844   157908   157900   157850   157831   157808   157813 
  157829   157823   157844   157855   157829   157827   157846   157851 
  157860   157851   157788   157747   157759   157765   157789   157810 
  157746   157694   157746   157777   157755   157735   157717   157758 
  157846   157878   157885   157866   157769   157670   157648   157692 
  157758   157816   157877   157913   157869   157827   157873   157893 
  157852   157840   157840   157829   157839   157836   157808   157829 
  157894   157917   157886   157839   157839   157893   157856   157735 
  157724   157794   157790   157782   157828   157848   157862   157875 
  157827   157790   157812   157840   157847   157821   157789   157783 
  157766   157719   157698   157759   157846   157877   157858   157813 
  157777   157794   157810   157775   157775   157833   157837   157808 
  157820   157794   157717   157743   157842   157862   157859   157863 
  157825   157798   157786   157766   157778   157810   157817   157816 
  157829   157802   157723   157709   157756   157765   157769   157805 
  157858   157904   157896   157863   157828   157774   157771   157805 
  157797   157819   157882   157847   157744   157728   157751   157723 
  157697   157715   157742   157740   157719   157705   157716   157773 
  157837   157821   157804   157852   157862   157836   157843   157798 
  157697   157697   157813   157873   157836   157800   157761   157717 
  157754   157829   157860   157874   157886   157873   157835   157783 
  157761   157769   157740   157708   157754   157805   157788   157767 
  157766   157773   157797   157821   157832   157828   157821   157819 
  157810   157812   157812   157789   157773   157762   157770   157833 
  157875   157851   157819   157781   157766   157821   157850   157802 
  157782   157801   157794   157794   157828   157848   157837   157806 
  157773   157774   157775   157723   157692   157755   157800   157751 
  157756   157852   157900   157870   157832   157823   157813   157762 
  157743   157788   157815   157820   157823   157819   157809   157773 
  157763   157801   157817   157856   157905   157844   157755   157759 
  157785   157766   157731   157708   157752   157828   157836   157844 
  157891   157894   157882   157879   157833   157788   157782   157774 
  157713   157631   157623   157693   157742   157756   157777   157751 
  157692   157702   157759   157796   157824   157809   157781   157827 
  157854   157823   157828   157848   157843   157806   157736   157681 
  157715   157827   157896   157866   157805   157769   157777   157778 
  157734   157751   157837   157855   157824   157828   157817   157794 
  157831   157867   157867   157891   157909   157886   157867   157846 
  157813   157798   157804   157812   157797   157777   157797   157824 
  157798   157769   157788   157800   157815   157855   157869   157871 
  157881   157875   157855   157831   157815   157794   157801   157881 
  157931   157874   157836   157878   157890   157859   157852   157840 
  157812   157823   157879   157900   157851   157829   157873   157881 
  157848   157847   157848   157836   157866   157869   157809   157809 
  157877   157894   157855   157848   157873   157875   157866   157864 
  157883   157887   157855   157855   157859   157809   157812   157858 
  157820   157759   157736   157728   157770   157833   157828   157785 
  157761   157744   157747   157793   157828   157809   157765   157735 
  157755   157819   157850   157823   157801   157782   157732   157705 
  157736   157738   157696   157708   157748   157748   157747   157744 
  157727   157747   157794   157796   157771   157750   157713   157702 
  157713   157752   157836   157829   157725   157702   157738   157724 
  157736   157798   157821   157805   157809   157846   157870   157862 
  157856   157847   157790   157734   157761   157823   157833   157793 
  157743   157725   157727   157697   157716   157792   157805   157801 
  157828   157836   157839   157836   157812   157817   157813   157747 
  157719   157770   157793   157766   157775   157846   157914   157910 
  157863   157889   157952   157932   157878   157854   157800   157742 
  157742   157752   157796   157873   157901   157902   157916   157912 
  157874   157839   157842   157836   157806   157781   157767   157808 
  157867   157860   157824   157793   157788   157808   157783   157747 
  157752   157751   157736   157747   157793   157842   157836   157829 
  157878   157856   157754   157694   157678   157698   157747   157743 
  157700   157704   157769   157819   157816   157823   157846   157820 
  157786   157788   157800   157797   157754   157708   157720   157748 
  157748   157758   157813   157837   157789   157812   157893   157864 
  157810   157802   157752   157707   157705   157711   157755   157798 
  157777   157781   157828   157804   157786   157842   157825   157751 
  157754   157798   157817   157806   157789   157810   157875   157869 
  157790   157796   157835   157817   157823   157810   157769   157828 
  157912   157866   157782   157793   157842   157850   157866   157867 
  157804   157778   157804   157800   157831   157881   157835   157806 
  157842   157816   157789   157813   157813   157802   157821   157824 
  157777   157735   157736   157746   157759   157828   157896   157860 
  157809   157798   157747   157724   157781   157786   157728   157700 
  157697   157686   157698   157770   157823   157802   157810   157837 
  157788   157732   157729   157715   157705   157719   157715   157744 
  157831   157864   157823   157767   157729   157752   157804   157809 
  157823   157847   157823   157825   157873   157862   157786   157731 
  157743   157777   157793   157837   157901   157900   157867   157850 
  157805   157790   157824   157809   157793   157840   157864   157842 
  157816   157798   157786   157788   157824   157887   157937   157939 
  157879   157847   157896   157923   157914   157939   157925   157824 
  157736   157742   157794   157779   157750   157821   157874   157828 
  157824   157883   157882   157842   157835   157819   157821   157893 
  157945   157917   157870   157852   157848   157851   157840   157817 
  157854   157891   157852   157794   157752   157738   157777   157828 
  157821   157779   157797   157848   157829   157790   157802   157820 
  157794   157721   157658   157643   157623   157642   157759   157809 
  157742   157747   157802   157723   157648   157743   157798   157759 
  157810   157844   157774   157762   157812   157820   157781   157720 
  157698   157735   157766   157736   157701   157725   157752   157800 
  157902   157924   157863   157848   157846   157816   157797   157816 
  157881   157931   157881   157788   157747   157750   157742   157740 
  157766   157748   157689   157723   157801   157786   157817   157912 
  157864   157797   157881   157917   157843   157823   157798   157754 
  157775   157762   157723   157755   157761   157769   157887   157940 
  157873   157878   157900   157852   157871   157928   157855   157731 
  157717   157758   157739   157715   157715   157692   157696   157736 
  157746   157774   157854   157867   157813   157790   157782   157804 
  157851   157833   157804   157847   157858   157769   157708   157744 
  157769   157725   157673   157631   157632   157690   157755   157825 
  157870   157870   157879   157918   157985   157943   157766   157717 
  157788   157767   157727   157755   157763   157734   157721   157717 
  157724   157736   157711   157724   157863   157985   157941   157889 
  157932   157909   157855   157921   157982   157966   157977   157939 
  157797   157701   157686   157694   157723   157747   157775   157835 
  157901   157924   157863   157758   157754   157821   157783   157693 
  157721   157833   157921   157962   157948   157883   157825   157805 
  157804   157813   157817   157837   157875   157846   157763   157744 
  157789   157821   157779   157696   157675   157681   157657   157697 
  157758   157734   157766   157867   157836   157758   157775   157734 
  157601   157611   157763   157854   157816   157712   157704   157813 
  157821   157773   157819   157831   157815   157871   157878   157790 
  157747   157750   157724   157716   157742   157782   157879   158001 
  158060   158056   157993   157898   157846   157781   157677   157670 
  157779   157885   157927   157858   157770   157786   157782   157709 
  157701   157750   157788   157843   157947   158026   158009   157964 
  157883   157763   157771   157835   157767   157686   157682   157693 
  157694   157588   157362   157275   157437   157628   157747   157885 
  158016   158036   158032   158055   158032   157993   157906   157719 
  157551   157512   157577   157608   157578   157526   157397   157384 
  157601   157777   157867   157951   157905   157820   157851   157896 
  157873   157860   157958   158080   158014   157808   157707   157709 
  157674   157639   157644   157617   157582   157607   157658   157783 
  157997   158101   158062   158039   158022   158014   158062   158013 
  157808   157644   157616   157605   157588   157648   157789   157935 
  158009   157981   157852   157689   157663   157767   157894   158058 
  158072   157812   157630   157713   157785   157758   157797   157873 
  157883   157877   157913   157917   157931   158017   157937   157696 
  157651   157793   157896   157916   157887   157854   157782   157619 
  157468   157488   157735   158068   158230   158156   158014   157928 
  157842   157723   157671   157657   157644   157680   157654   157599 
  157601   157531   157540   157751   157904   157990   158047   157929 
  157806   157794   157724   157663   157731   157848   158013   158093 
  157932   157819   157908   157906   157774   157740   157793   157835 
  157852   157775   157612   157553   157663   157777   157882   158066 
  158175   158101   157979   157873   157797   157793   157848   157972 
  158085   157979   157712   157599   157680   157711   157696   157810 
  157932   157878   157827   157871   157848   157835   157920   158002 
  158055   158043   157928   157789   157727   157767   157786   157712 
  157702   157735   157675   157670   157752   157767   157761   157762 
  157735   157705   157621   157536   157594   157725   157794   157797 
  157821   157900   157932   157950   157995   157970   157912   157920 
  157937   157887   157696   157477   157486   157580   157617   157804 
  157958   157856   157756   157801   157862   157862   157837   157891 
  157964   157900   157809   157850   157900   157908   157912   157859 
  157790   157750   157723   157794   157904   157894   157842   157789 
  157719   157767   157883   157890   157920   158080   158137   158028 
  157990   157979   157821   157716   157793   157839   157842   157925 
  157941   157889   157925   157950   157958   157955   157759   157547 
  157586   157682   157644   157611   157611   157612   157717   157805 
  157767   157782   157855   157920   158055   158103   157948   157852 
  157889   157819   157738   157813   157842   157758   157790   157954 
  158002   157778   157481   157420   157524   157538   157489   157526 
  157670   157850   157935   157914   157921   157955   157966   157990 
  157981   157874   157681   157495   157477   157613   157769   157912 
  157959   157897   157808   157677   157584   157682   157831   157804 
  157725   157779   157823   157843   157923   157881   157766   157680 
  157545   157493   157511   157526   157659   157747   157709   157840 
  158047   157989   157863   158017   158191   158033   157774   157639 
  157542   157519   157565   157605   157752   157905   157793   157632 
  157742   157970   158067   157998   157918   157923   157927   157893 
  157821   157769   157848   157936   157886   157798   157794   157854 
  157855   157742   157617   157599   157671   157694   157648   157707 
  157812   157846   157989   158141   158086   158045   158033   157897 
  157743   157612   157609   157813   157941   157856   157739   157717 
  157732   157643   157520   157605   157837   157902   157796   157767 
  157804   157775   157755   157843   157994   158022   157933   157881 
  157809   157736   157742   157729   157775   157951   158039   158010 
  157909   157659   157492   157613   157752   157778   157913   158062 
  157929   157669   157635   157711   157643   157635   157779   157843 
  157877   157951   157901   157705   157593   157689   157769   157678 
  157538   157482   157609   157789   157869   157928   157927   157812 
  157716   157709   157763   157905   158117   158145   157871   157585 
  157528   157665   157819   157894   157904   157809   157711   157756 
  157756   157696   157812   157937   157859   157742   157735   157785 
  157821   157864   157890   157859   157860   157914   157913   157852 
  157777   157661   157573   157638   157794   157873   157863   157827 
  157735   157635   157666   157810   157896   157832   157689   157609 
  157677   157823   157854   157728   157686   157719   157600   157532 
  157736   157954   157977   157896   157809   157756   157697   157623 
  157628   157719   157796   157858   157950   157986   157945   157839 
  157674   157667   157800   157839   157859   157831   157678   157646 
  157786   157867   157821   157773   157815   157883   157927   157941 
  157870   157794   157856   157917   157837   157779   157828   157827 
  157761   157802   157945   157982   157889   157843   157856   157886 
  157914   157816   157689   157719   157804   157866   157910   157916 
  157924   157856   157701   157662   157751   157828   157885   157937 
  157979   157971   157837   157650   157567   157616   157738   157863 
  157977   158072   158020   157813   157693   157719   157770   157831 
  157901   157890   157770   157674   157732   157831   157812   157769 
  157839   157905   157864   157840   157909   157954   157873   157813 
  157877   157906   157916   157950   157844   157647   157542   157611 
  157825   158016   158117   158113   157971   157869   157801   157632 
  157623   157804   157855   157829   157836   157790   157740   157746 
  157801   157832   157844   157972   158036   157894   157832   157794 
  157597   157508   157590   157682   157796   157837   157797   157810 
  157797   157707   157678   157789   157929   157931   157883   157916 
  157900   157854   157863   157786   157690   157785   157855   157728 
  157740   157914   157837   157601   157526   157600   157783   157916 
  157832   157785   157875   157879   157862   157917   157905   157835 
  157779   157751   157800   157852   157852   157875   157846   157696 
  157640   157693   157647   157635   157797   157932   157928   157932 
  158058   158116   157914   157669   157647   157774   157844   157817 
  157783   157720   157643   157670   157759   157786   157731   157701 
  157773   157775   157662   157653   157725   157666   157531   157547 
  157694   157777   157721   157612   157599   157717   157806   157790 
  157769   157759   157671   157551   157604   157823   157908   157786 
  157728   157848   157951   157887   157761   157694   157640   157566 
  157558   157648   157766   157810   157743   157666   157698   157779 
  157796   157828   157970   158021   157847   157723   157747   157678 
