Origin Time       2024/04/02 04:24:00
Lat.              40.133
Long.             141.712
Depth. (km)       71
Mag.              6.0
Station Code      FKSH08
Station Lat.      37.2822
Station Long.     140.2144
Station Height(m) 343
Record Time       2024/04/02 04:26:03
Sampling Freq(Hz) 100Hz
Duration Time(s)  120
Dir.              5
Scale Factor      7845(gal)/8223790
Max. Acc. (gal)   1.710
Last Correction   2024/04/02 04:26:03
Memo.             
[...]
   -6968    -6952    -6998    -7101    -7199    -7221    -7175    -7103 
   -7015    -6970    -7002    -7036    -7020    -7011    -7056    -7126 
   -7202    -7265    -7221    -7057    -6944    -6961    -7065    -7257 
   -7464    -7516    -7418    -7298    -7160    -7009    -6934    -6944 
   -6940    -6899    -6886    -6913    -6921    -6895    -6893    -6948 
   -7001    -7003    -6990    -7013    -7071    -7125    -7179    -7175 
   -7087    -7063    -7137    -7180    -7187    -7202    -7176    -7091 
   -6974    -6835    -6772    -6863    -7014    -7119    -7194    -7213 
   -7088    -6944    -6972    -7094    -7179    -7263    -7308    -7204 
   -7024    -6930    -6920    -6898    -6897    -6905    -6844    -6777 
   -6795    -6893    -7005    -7030    -6980    -6972    -7007    -7021 
   -7038    -7103    -7191    -7249    -7257    -7241    -7183    -7042 
   -6918    -6902    -6916    -6920    -6945    -6972    -6993    -7048 
   -7126    -7199    -7214    -7102    -6941    -6899    -6974    -7028 
   -7045    -7087    -7121    -7137    -7122    -7022    -6948    -6983 
   -6991    -6974    -7010    -7026    -7021    -7059    -7086    -7055 
   -7015    -6990    -6991    -7013    -7017    -7028    -7033    -6966 
   -6878    -6878    -6929    -6936    -6925    -6963    -7033    -7084 
   -7090    -7076    -7090    -7101    -7086    -7064    -7076    -7090 
   -7018    -6929    -6929    -6943    -6895    -6907    -7018    -7078 
   -7111    -7221    -7276    -7169    -6997    -6879    -6844    -6901 
   -7042    -7146    -7119    -7084    -7160    -7244    -7218    -7115 
   -6968    -6835    -6863    -6984    -7037    -7048    -7084    -7118 
   -7103    -7076    -7056    -6998    -6963    -6987    -6951    -6871 
   -6856    -6901    -6968    -7048    -7115    -7167    -7167    -7103 
   -7032    -6944    -6840    -6809    -6840    -6860    -6890    -6934 
   -6979    -7021    -7029    -7002    -6988    -7003    -6994    -6916 
   -6864    -6929    -6995    -6978    -6980    -7029    -7044    -7038 
   -7060    -7099    -7118    -7095    -7075    -7092    -7087    -7003 
   -6920    -6897    -6893    -6914    -6990    -7057    -7067    -7072 
   -7103    -7059    -6916    -6839    -6868    -6898    -6963    -7075 
   -7119    -7083    -7075    -7134    -7192    -7172    -7101    -7026 
   -6936    -6837    -6727    -6631    -6667    -6828    -6974    -7105 
   -7226    -7242    -7196    -7198    -7136    -6966    -6895    -6982 
   -7034    -7047    -7156    -7242    -7199    -7186    -7215    -7180 
   -7141    -7141    -7109    -7056    -7056    -7057    -7028    -7017 
   -7029    -7029    -6975    -6890    -6840    -6817    -6812    -6802 
   -6750    -6741    -6841    -6947    -6980    -6990    -6982    -6912 
   -6845    -6852    -6880    -6934    -7055    -7163    -7118    -6956 
   -6845    -6851    -6936    -7074    -7229    -7315    -7252    -7105 
   -6964    -6845    -6795    -6809    -6820    -6845    -6882    -6917 
   -6983    -7042    -7030    -6980    -6964    -7022    -7095    -7106 
   -7105    -7115    -7080    -7018    -6986    -6971    -6920    -6867 
   -6864    -6876    -6872    -6876    -6894    -6922    -6990    -7095 
   -7171    -7206    -7263    -7318    -7323    -7325    -7352    -7388 
   -7429    -7434    -7385    -7353    -7375    -7449    -7555    -7607 
   -7533    -7362    -7200    -7160    -7256    -7418    -7595    -7724 
   -7719    -7591    -7474    -7453    -7473    -7468    -7408    -7311 
   -7249    -7260    -7285    -7295    -7272    -7186    -7064    -6986 
   -6945    -6909    -6936    -7055    -7186    -7253    -7227    -7118 
   -6993    -6945    -7022    -7126    -7119    -7028    -6925    -6783 
   -6651    -6627    -6642    -6616    -6624    -6652    -6644    -6687 
   -6789    -6843    -6880    -6957    -6991    -6944    -6937    -6979 
   -6898    -6706    -6612    -6648    -6718    -6822    -6910    -6880 
   -6771    -6677    -6598    -6523    -6548    -6718    -6891    -6974 
   -7030    -7083    -7080    -7057    -7065    -7047    -6978    -6894 
   -6809    -6789    -6836    -6837    -6764    -6646    -6527    -6489 
   -6602    -6886    -7234    -7520    -7672    -7582    -7298    -7032 
   -6809    -6593    -6524    -6619    -6721    -6750    -6689    -6608 
   -6596    -6644    -6731    -6849    -7003    -7190    -7348    -7416 
   -7442    -7469    -7452    -7375    -7334    -7357    -7395    -7419 
   -7419    -7388    -7325    -7206    -6999    -6733    -6524    -6478 
   -6628    -6920    -7240    -7483    -7565    -7441    -7175    -6910 
   -6724    -6612    -6621    -6768    -6905    -6920    -6887    -6872 
   -6872    -6895    -6947    -7003    -7029    -7059    -7182    -7346 
   -7452    -7539    -7607    -7585    -7506    -7366    -7114    -6848 
   -6691    -6609    -6579    -6686    -6874    -7014    -7134    -7260 
   -7299    -7187    -7024    -6936    -6972    -7223    -7680    -8067 
   -8152    -7986    -7699    -7395    -7191    -7114    -7106    -7142 
   -7222    -7288    -7276    -7260    -7339    -7445    -7558    -7693 
   -7699    -7569    -7458    -7312    -7007    -6679    -6486    -6392 
   -6404    -6573    -6782    -6875    -6821    -6652    -6467    -6419 
   -6574    -6858    -7075    -7119    -7103    -7080    -7024    -7028 
   -7148    -7317    -7404    -7342    -7175    -6913    -6551    -6177 
   -5962    -6018    -6246    -6501    -6768    -7051    -7264    -7346 
   -7376    -7400    -7333    -7226    -7268    -7410    -7491    -7542 
   -7604    -7557    -7334    -7038    -6764    -6527    -6343    -6219 
   -6160    -6218    -6373    -6528    -6697    -6929    -7130    -7233 
   -7337    -7429    -7419    -7395    -7354    -7152    -6858    -6617 
   -6435    -6377    -6504    -6717    -6862    -6847    -6701    -6523 
   -6448    -6590    -6944    -7373    -7663    -7715    -7605    -7437 
   -7329    -7322    -7268    -7126    -7007    -6866    -6651    -6504 
   -6465    -6397    -6308    -6307    -6365    -6463    -6631    -6775 
   -6863    -6999    -7173    -7318    -7443    -7512    -7457    -7329 
   -7203    -7076    -7017    -7105    -7296    -7501    -7584    -7430 
   -7160    -6983    -6868    -6737    -6704    -6754    -6787    -6862 
   -6929    -6882    -6794    -6690    -6536    -6489    -6727    -7180 
   -7627    -7952    -8121    -8033    -7681    -7225    -6814    -6562 
   -6509    -6602    -6771    -6890    -6874    -6849    -6870    -6766 
   -6556    -6520    -6701    -6929    -7149    -7296    -7325    -7356 
   -7426    -7477    -7515    -7504    -7364    -7087    -6756    -6496 
   -6366    -6345    -6413    -6528    -6617    -6720    -6926    -7237 
   -7573    -7879    -8095    -8129    -7992    -7805    -7663    -7581 
   -7520    -7443    -7295    -7029    -6717    -6516    -6509    -6660 
   -6945    -7331    -7672    -7844    -7848    -7724    -7496    -7230 
   -7038    -7017    -7186    -7419    -7599    -7642    -7460    -7245 
   -7229    -7248    -7182    -7144    -7080    -6899    -6725    -6646 
   -6633    -6681    -6758    -6802    -6785    -6681    -6515    -6334 
   -6129    -5976    -6081    -6492    -7010    -7407    -7518    -7333 
   -7015    -6777    -6810    -7114    -7442    -7588    -7480    -7136 
   -6713    -6409    -6273    -6235    -6291    -6531    -6948    -7265 
   -7207    -6918    -6712    -6664    -6744    -6885    -7020    -7207 
   -7389    -7464    -7516    -7510    -7346    -7129    -6947    -6754 
   -6513    -6324    -6312    -6407    -6556    -6858    -7198    -7349 
   -7331    -7190    -6849    -6427    -6172    -6160    -6330    -6606 
   -6924    -7210    -7279    -7061    -6799    -6646    -6585    -6698 
   -6994    -7299    -7495    -7516    -7329    -7133    -7129    -7165 
   -7171    -7265    -7344    -7322    -7334    -7379    -7311    -7123 
   -7002    -7069    -7284    -7523    -7604    -7480    -7299    -7149 
   -7065    -7105    -7225    -7360    -7516    -7596    -7493    -7362 
   -7353    -7369    -7323    -7223    -7040    -6793    -6594    -6534 
   -6666    -6984    -7364    -7569    -7443    -7160    -6953    -6848 
   -6898    -7130    -7341    -7399    -7303    -7018    -6621    -6311 
   -6216    -6345    -6612    -6914    -7159    -7314    -7423    -7450 
   -7329    -7129    -6937    -6758    -6655    -6697    -6794    -6887 
   -7007    -7114    -7165    -7163    -7010    -6713    -6504    -6498 
   -6620    -6806    -6921    -6882    -6886    -7080    -7333    -7554 
   -7731    -7703    -7461    -7300    -7281    -7254    -7265    -7265 
   -7132    -7025    -7048    -7136    -7283    -7406    -7344    -7152 
   -7053    -7080    -7141    -7241    -7357    -7443    -7522    -7611 
   -7655    -7516    -7180    -6875    -6754    -6768    -6936    -7242 
   -7539    -7716    -7700    -7504    -7249    -6953    -6669    -6563 
   -6662    -6851    -7032    -7071    -6889    -6647    -6559    -6612 
   -6710    -6867    -7059    -7161    -7101    -6926    -6732    -6615 
   -6690    -6959    -7250    -7419    -7339    -6971    -6550    -6350 
   -6416    -6685    -7014    -7207    -7214    -7072    -6826    -6531 
   -6235    -6081    -6187    -6461    -6826    -7258    -7580    -7650 
   -7557    -7398    -7144    -6859    -6706    -6721    -6822    -6924 
   -6978    -7044    -7118    -6994    -6594    -6174    -5876    -5663 
   -5718    -6150    -6662    -6987    -7177    -7285    -7285    -7237 
   -7190    -7149    -7142    -7086    -6925    -6770    -6637    -6577 
   -6756    -7078    -7334    -7485    -7427    -7148    -6952    -7049 
   -7221    -7225    -7177    -7190    -7211    -7306    -7488    -7566 
   -7468    -7349    -7330    -7425    -7591    -7686    -7582    -7350 
   -7056    -6693    -6423    -6423    -6625    -6944    -7356    -7663 
   -7712    -7528    -7194    -6902    -6799    -6826    -6929    -7065 
   -7175    -7229    -7183    -7005    -6716    -6335    -5996    -5911 
   -6056    -6272    -6525    -6755    -6949    -7219    -7500    -7588 
   -7433    -7141    -6835    -6674    -6767    -6956    -7049    -7052 
   -7051    -7123    -7258    -7362    -7429    -7476    -7522    -7615 
   -7727    -7817    -7938    -7979    -7751    -7447    -7453    -7720 
   -7924    -7958    -7865    -7523    -6963    -6579    -6559    -6744 
   -7099    -7585    -7983    -8122    -7958    -7562    -7102    -6705 
   -6461    -6363    -6305    -6326    -6535    -6813    -6974    -6994 
   -6897    -6727    -6539    -6334    -6126    -5950    -5860    -5948 
   -6162    -6405    -6750    -7180    -7491    -7533    -7334    -7091 
   -6993    -6984    -6968    -7007    -7045    -6972    -6936    -7075 
   -7250    -7298    -7202    -6961    -6656    -6469    -6381    -6334 
   -6454    -6752    -7069    -7352    -7474    -7273    -6982    -6975 
   -7257    -7545    -7561    -7322    -7092    -6961    -6853    -6805 
   -6795    -6696    -6546    -6440    -6419    -6583    -6939    -7308 
   -7526    -7557    -7496    -7404    -7272    -7105    -6960    -6860 
   -6751    -6632    -6656    -6916    -7163    -7128    -6951    -6771 
   -6534    -6404    -6574    -6966    -7385    -7646    -7680    -7504 
   -7214    -7007    -6933    -6901    -6914    -6936    -6897    -6808 
   -6682    -6636    -6840    -7182    -7431    -7642    -7921    -8113 
   -8066    -7869    -7620    -7318    -7065    -7030    -7102    -7022 
   -6825    -6639    -6494    -6502    -6669    -6795    -6852    -6895 
   -6812    -6556    -6415    -6598    -6925    -7250    -7591    -7755 
   -7596    -7241    -6839    -6520    -6380    -6382    -6523    -6799 
   -6980    -6874    -6694    -6706    -6924    -7246    -7470    -7411 
   -7118    -6816    -6809    -7196    -7564    -7570    -7414    -7225 
   -6966    -6856    -7032    -7273    -7414    -7395    -7159    -6844 
   -6712    -6812    -7061    -7339    -7476    -7429    -7303    -7172 
   -7136    -7277    -7497    -7632    -7615    -7479    -7268    -7045 
   -6933    -6862    -6642    -6346    -6165    -6166    -6273    -6409 
   -6598    -6883    -7203    -7445    -7520    -7462    -7402    -7403 
   -7398    -7326    -7195    -6970    -6664    -6516    -6640    -6832 
   -6878    -6745    -6517    -6274    -6088    -6069    -6200    -6319 
   -6372    -6501    -6897    -7499    -7994    -8243    -8270    -8035 
   -7649    -7373    -7246    -7126    -7001    -6932    -6913    -7026 
   -7335    -7647    -7813    -7851    -7789    -7716    -7704    -7654 
   -7461    -7246    -7202    -7203    -7055    -6916    -6885    -6744 
   -6534    -6528    -6628    -6605    -6554    -6538    -6455    -6400 
   -6490    -6617    -6714    -6909    -7171    -7323    -7375    -7346 
   -7175    -6979    -6849    -6637    -6323    -6037    -5871    -5961 
   -6274    -6598    -6848    -6974    -6961    -6907    -6813    -6754 
   -6791    -6737    -6632    -6750    -7057    -7441    -7897    -8209 
   -8191    -8056    -7944    -7740    -7506    -7457    -7635    -7759 
   -7547    -7136    -6805    -6685    -6860    -7308    -7751    -7917 
   -7835    -7607    -7209    -6799    -6613    -6575    -6585    -6759 
   -7109    -7416    -7422    -7155    -6913    -6745    -6534    -6386 
   -6281    -6066    -5903    -5929    -5976    -5988    -6160    -6466 
   -6646    -6689    -6786    -6966    -7105    -7114    -7080    -7128 
   -7222    -7234    -7107    -6937    -6762    -6529    -6440    -6744 
   -7206    -7520    -7678    -7569    -7182    -6909    -6916    -6993 
   -7194    -7663    -8214    -8625    -8823    -8731    -8399    -7956 
   -7488    -7148    -6964    -6835    -6798    -6837    -6829    -6875 
   -7082    -7276    -7322    -7300    -7192    -6937    -6736    -6751 
   -6887    -7053    -7126    -7042    -6955    -6878    -6755    -6709 
   -6687    -6561    -6490    -6558    -6635    -6739    -6902    -6978 
   -6897    -6810    -6844    -6953    -7088    -7254    -7392    -7345 
   -7110    -6926    -6967    -7163    -7325    -7295    -7047    -6704 
   -6434    -6369    -6524    -6755    -6955    -7167    -7399    -7533 
   -7461    -7206    -6940    -6806    -6763    -6847    -7161    -7568 
   -7885    -8067    -7938    -7399    -6740    -6323    -6286    -6623 
   -7084    -7322    -7323    -7190    -6916    -6654    -6536    -6450 
   -6299    -6137    -6112    -6346    -6743    -7060    -7173    -7153 
   -7092    -7056    -7109    -7179    -7133    -7003    -6949    -7020 
   -7053    -6974    -6980    -7152    -7298    -7333    -7341    -7322 
   -7218    -7084    -7047    -7159    -7368    -7618    -7817    -7796 
   -7572    -7365    -7230    -7123    -7051    -6980    -6978    -7145 
   -7337    -7331    -7121    -6874    -6774    -6864    -7075    -7349 
   -7550    -7500    -7171    -6663    -6170    -5907    -5927    -6203 
   -6654    -7067    -7304    -7334    -7102    -6736    -6540    -6600 
   -6698    -6755    -6891    -7069    -7196    -7352    -7588    -7757 
   -7739    -7572    -7319    -7071    -6929    -6871    -6801    -6713 
   -6673    -6732    -6956    -7308    -7573    -7553    -7298    -6998 
   -6737    -6600    -6709    -7026    -7416    -7650    -7538    -7337 
   -7269    -7155    -6986    -6883    -6723    -6493    -6492    -6879 
   -7361    -7619    -7689    -7558    -7155    -6759    -6617    -6598 
   -6579    -6640    -6783    -6885    -6930    -6961    -6922    -6804 
   -6696    -6669    -6690    -6683    -6654    -6697    -6870    -7129 
   -7358    -7508    -7561    -7435    -7140    -6806    -6625    -6750 
   -7024    -7159    -7115    -6970    -6771    -6625    -6582    -6615 
   -6696    -6810    -6925    -7091    -7425    -7790    -7921    -7813 
   -7578    -7314    -7141    -7025    -6828    -6582    -6436    -6489 
   -6760    -7122    -7395    -7487    -7358    -7032    -6660    -6442 
   -6480    -6762    -7106    -7321    -7396    -7288    -6974    -6706 
   -6677    -6783    -6893    -6893    -6720    -6470    -6269    -6239 
   -6426    -6731    -7059    -7280    -7350    -7445    -7506    -7277 
   -6914    -6737    -6725    -6744    -6851    -7122    -7415    -7576 
   -7588    -7364    -6913    -6578    -6615    -6902    -7267    -7526 
   -7504    -7263    -6986    -6871    -6995    -7168    -7273    -7368 
   -7354    -7200    -7177    -7402    -7665    -7843    -7890    -7645 
   -7155    -6729    -6550    -6670    -7005    -7258    -7272    -7076 
   -6727    -6389    -6262    -6359    -6524    -6658    -6728    -6751 
   -6862    -7032    -7042    -6940    -6863    -6724    -6620    -6766 
   -6971    -6974    -6870    -6778    -6650    -6552    -6666    -6943 
   -7173    -7307    -7325    -7165    -6937    -6797    -6782    -6934 
   -7233    -7537    -7744    -7766    -7526    -7200    -7038    -7086 
   -7291    -7480    -7439    -7171    -6791    -6471    -6365    -6467 
   -6723    -7069    -7308    -7241    -6952    -6740    -6771    -6889 
   -6895    -6825    -6710    -6590    -6664    -6967    -7331    -7609 
   -7673    -7569    -7423    -7177    -6901    -6814    -6851    -6821 
   -6717    -6605    -6615    -6874    -7229    -7453    -7554    -7535 
   -7337    -7126    -7132    -7287    -7429    -7569    -7666    -7568 
   -7396    -7407    -7622    -7861    -7911    -7744    -7427    -6951 
   -6486    -6353    -6590    -6993    -7348    -7496    -7423    -7321 
   -7329    -7408    -7506    -7551    -7380    -7001    -6623    -6373 
   -6361    -6650    -7040    -7279    -7296    -7109    -6745    -6336 
   -6066    -5962    -5961    -6077    -6315    -6604    -6895    -7252 
   -7620    -7723    -7483    -7115    -6781    -6579    -6600    -6759 
   -7003    -7387    -7673    -7614    -7368    -7129    -6979    -7037 
   -7196    -7206    -7099    -7009    -6934    -6887    -6852    -6770 
   -6687    -6696    -6868    -7250    -7695    -7965    -7944    -7631 
   -7169    -6778    -6532    -6385    -6291    -6250    -6293    -6359 
   -6399    -6513    -6728    -6907    -7015    -7119    -7217    -7317 
   -7464    -7578    -7599    -7572    -7423    -7148    -6944    -6862 
   -6858    -6964    -7096    -7088    -6934    -6736    -6674    -6893 
   -7207    -7366    -7366    -7240    -7110    -7179    -7348    -7404 
   -7322    -7129    -6875    -6733    -6840    -7079    -7269    -7319 
   -7123    -6709    -6334    -6231    -6467    -6975    -7445    -7547 
   -7442    -7400    -7317    -7171    -7033    -6793    -6524    -6426 
   -6525    -6763    -6964    -6932    -6744    -6659    -6745    -6903 
   -7095    -7261    -7260    -7107    -6994    -7018    -7106    -7109 
   -7001    -6943    -7005    -7121    -7294    -7403    -7222    -6826 
   -6448    -6210    -6243    -6613    -7090    -7360    -7337    -7103 
   -6813    -6679    -6747    -6889    -7098    -7429    -7757    -7920 
   -7936    -7870    -7650    -7264    -6851    -6515    -6345    -6432 
   -6632    -6772    -6872    -6947    -6995    -7053    -7136    -7227 
   -7253    -7190    -7164    -7204    -7207    -7192    -7184    -7091 
   -6959    -6930    -7001    -7118    -7214    -7165    -6979    -6864 
   -6949    -7126    -7272    -7383    -7473    -7474    -7381    -7287 
   -7191    -7102    -7069    -7025    -6974    -6967    -6932    -6843 
   -6721    -6498    -6235    -6146    -6241    -6455    -6768    -6925 
   -6820    -6693    -6596    -6538    -6683    -7003    -7325    -7523 
