Origin Time       2024/04/02 04:24:00
Lat.              40.133
Long.             141.712
Depth. (km)       71
Mag.              6.0
Station Code      FKSH18
Station Lat.      37.4894
Station Long.     140.5380
Station Height(m) 310
Record Time       2024/04/02 04:25:21
Sampling Freq(Hz) 100Hz
Duration Time(s)  120
Dir.              3
Scale Factor      3923(gal)/8224838
Max. Acc. (gal)   0.529
Last Correction   2024/04/02 04:25:21
Memo.             
[...]
   -1004     -800     -664     -831     -947     -877     -818     -824 
    -931     -965     -814     -745     -753     -778     -901     -878 
    -727     -730     -720     -531     -364     -427     -645     -749 
    -684     -687     -884    -1080    -1065     -854     -681     -714 
    -796     -842     -847     -719     -656     -838    -1042    -1057 
    -930     -787     -687     -649     -683     -781     -827     -711 
    -650     -710     -702     -737     -818     -778     -676     -603 
    -641     -807     -970     -947     -714     -562     -626     -734 
    -795     -738     -602     -599     -718     -804     -928    -1000 
    -932     -981    -1046     -915     -882     -997     -993     -872 
    -712     -666     -784     -769     -720     -839     -876     -909 
   -1046     -996     -895     -911     -859     -807     -808     -765 
    -761     -823     -859     -805     -710     -706     -719     -666 
    -702     -781     -812     -880     -928     -884     -842     -815 
    -769     -734     -697     -724     -811     -805     -857     -999 
   -1003     -908     -801     -770     -777     -618     -459     -468 
    -577     -708     -675     -571     -658     -824     -949    -1016 
    -916     -734     -668     -722     -799     -783     -653     -692 
    -862     -819     -810    -1008    -1026     -930     -950     -873 
    -828     -966     -973     -903     -847     -727     -761     -955 
   -1009     -838     -638     -639     -792     -837     -784     -824 
    -846     -812     -795     -750     -773     -858     -861     -768 
    -720     -891    -1082    -1070     -946     -808     -828     -986 
   -1032     -926     -753     -729     -831     -772     -733     -807 
    -753     -741     -762     -626     -626     -751     -696     -604 
    -581     -585     -654     -700     -704     -718     -696     -691 
    -720     -672     -629     -685     -720     -711     -742     -788 
    -756     -745     -832     -830     -734     -656     -599     -579 
    -526     -487     -542     -567     -557     -646     -726     -715 
    -741     -768     -762     -774     -703     -658     -733     -649 
    -450     -437     -503     -502     -504     -540     -619     -687 
    -649     -589     -654     -805     -788     -612     -621     -785 
    -838     -791     -730     -702     -697     -633     -576     -657 
    -741     -695     -677     -747     -753     -770     -872     -889 
    -830     -830     -882     -905     -831     -670     -583     -719 
    -885     -873     -861     -900     -855     -845     -926     -974 
    -958     -893     -810     -815     -893     -912     -895     -862 
    -776     -784     -893     -927     -923     -993    -1066    -1055 
   -1050    -1112    -1135    -1140    -1247    -1335    -1291    -1258 
   -1283    -1350    -1422    -1313    -1108    -1044    -1021     -889 
    -760     -741     -710     -606     -432     -180     -135     -299 
    -302     -230     -283     -376     -472     -525     -557     -696 
    -845     -896     -922     -955    -1013    -1143    -1301    -1355 
   -1309    -1243    -1181    -1178    -1174    -1131    -1119    -1073 
   -1051    -1073    -1023     -943     -797     -653     -666     -653 
    -511     -398     -314     -213     -128     -124     -220     -349 
    -434     -460     -490     -569     -627     -660     -741     -769 
    -727     -734     -793     -874     -924     -915     -978    -1054 
   -1038    -1038     -958     -828     -920     -977     -807     -781 
    -877     -874     -886     -888     -868     -904     -849     -746 
    -795     -868     -878     -886     -808     -727     -747     -760 
    -815     -896     -839     -741     -702     -662     -637     -707 
    -737     -583     -496     -594     -654     -615     -545     -487 
    -464     -511     -592     -618     -619     -675     -757     -818 
    -850     -922    -1075    -1174    -1113    -1008     -973     -970 
    -901     -847     -892     -847     -735     -804     -955    -1034 
   -1008     -882     -858     -936     -927     -913     -930     -915 
    -936     -935     -865     -847     -926     -966     -876     -760 
    -676     -637     -697     -739     -679     -611     -595     -602 
    -554     -531     -629     -707     -696     -614     -504     -468 
    -530     -676     -781     -770     -795     -877     -934     -945 
    -850     -723     -733     -816     -795     -745     -781     -791 
    -804     -824     -739     -711     -723     -692     -760     -799 
    -803     -931     -965     -839     -769     -754     -749     -769 
    -804     -847     -834     -729     -656     -708     -781     -781 
    -716     -652     -661     -734     -812     -838     -776     -699 
    -657     -614     -610     -638     -594     -602     -766     -854 
    -861     -913     -930     -972    -1063    -1065     -989     -915 
    -911     -967    -1019    -1082    -1100    -1030     -943     -878 
    -881     -895     -805     -735     -776     -780     -662     -537 
    -529     -603     -654     -650     -604     -596     -639     -629 
    -608     -645     -672     -683     -702     -749     -803     -762 
    -666     -691     -789     -769     -692     -684     -704     -781 
    -892     -918     -870     -857     -959    -1096    -1100    -1013 
    -993    -1007     -947     -872     -888     -932     -876     -760 
    -679     -676     -787     -819     -675     -594     -639     -679 
    -693     -780     -936     -947     -819     -831     -988    -1086 
   -1043     -870     -749     -830     -928     -936     -958     -951 
    -877     -765     -697     -810     -939     -827     -633     -587 
    -575     -629     -839     -895     -824     -928     -977     -874 
    -815     -788     -830     -873     -746     -611     -569     -510 
    -475     -506     -523     -484     -486     -598     -733     -868 
    -999    -1001     -950     -954     -934     -859     -811     -851 
    -805     -610     -561     -650     -658     -676     -704     -611 
    -544     -635     -703     -696     -757     -780     -715     -704 
    -716     -722     -753     -741     -641     -577     -681     -803 
    -854     -926     -895     -756     -773     -928     -993     -946 
    -947    -1057    -1146    -1105    -1035    -1062    -1044     -961 
    -958     -868     -680     -665     -714     -649     -588     -569 
    -573     -658     -727     -661     -602     -724     -896     -927 
    -903     -888     -865     -889     -904     -911     -930     -754 
    -496     -468     -523     -495     -432     -364     -394     -496 
    -542     -604     -712     -708     -700     -859     -927     -847 
    -834     -796     -834    -1027    -1026     -882     -859     -830 
    -797     -923    -1069     -990     -789     -765     -922    -1019 
    -974     -901     -903     -982    -1028     -922     -776     -742 
    -795     -780     -635     -626     -805     -889     -899     -888 
    -853     -930    -1016     -958     -850     -891    -1007     -922 
    -838     -897     -869     -868     -934     -927     -959     -946 
    -751     -657     -801     -888     -810     -784     -853     -886 
    -862     -847     -900    -1005    -1062     -974     -872     -854 
    -756     -589     -514     -510     -518     -503     -503     -622 
    -792     -893     -947     -951     -861     -807     -870     -830 
    -691     -712     -820     -831     -778     -784     -815     -807 
    -766     -616     -490     -515     -472     -384     -437     -564 
    -679     -734     -692     -538     -433     -504     -569     -581 
    -602     -625     -720     -751     -675     -649     -664     -739 
    -746     -561     -534     -730     -791     -778     -843     -823 
    -733     -707     -666     -646     -756     -858     -900     -943 
    -967     -977     -900     -820     -888     -912     -884     -926 
    -932     -932     -913     -837     -831     -838     -734     -660 
    -743     -838     -811     -810     -868     -899     -959     -974 
    -901     -855     -811     -778     -808     -893     -953     -912 
    -946    -1089    -1088     -990     -976     -980     -967     -973 
    -959     -926     -924     -927     -896     -876     -847     -792 
    -810     -857     -799     -706     -697     -808     -974    -1015 
    -895     -795     -801     -760     -680     -673     -562     -415 
    -461     -510     -533     -623     -656     -754     -920     -892 
    -791     -795     -864     -967     -961     -835     -839     -950 
    -970     -913     -868     -855     -874     -869     -803     -707 
    -603     -561     -594     -608     -608     -592     -587     -666 
    -747     -787     -742     -552     -449     -581     -712     -726 
    -664     -603     -631     -684     -730     -749     -693     -683 
    -754     -823     -820     -727     -703     -780     -793     -785 
    -845     -916     -976    -1009    -1004    -1024    -1026     -928 
    -847     -869     -895     -899     -942     -988    -1016    -1034 
    -970     -895     -905     -926     -942     -949     -859     -735 
    -692     -704     -722     -669     -496     -384     -415     -479 
    -610     -769     -769     -665     -666     -739     -747     -707 
    -596     -460     -475     -535     -561     -658     -724     -734 
    -846     -950     -895     -880    -1020    -1105    -1053     -990 
    -988    -1030    -1048    -1047    -1051    -1009     -966     -981 
    -996     -961     -899     -953    -1089    -1003     -797     -762 
    -738     -685     -704     -657     -668     -739     -598     -491 
    -585     -695     -714     -508     -337     -479     -622     -649 
    -691     -695     -693     -741     -816     -869     -846     -876 
   -1007    -1054    -1009    -1012    -1005     -966     -953     -816 
    -576     -472     -437     -395     -450     -518     -519     -550 
    -641     -683     -670     -697     -783     -873     -805     -681 
    -753     -851     -895    -1070    -1256    -1273    -1194    -1102 
   -1009     -950     -927     -891     -822     -696     -576     -649 
    -793     -758     -711     -719     -648     -608     -633     -676 
    -781     -805     -733     -704     -684     -666     -675     -685 
    -762     -808     -734     -754     -851     -869     -872     -785 
    -622     -549     -534     -533     -538     -548     -588     -641 
    -675     -685     -761     -876     -861     -837     -859     -778 
    -773     -916    -1001     -974     -870     -830     -868     -850 
    -911     -993     -908     -869     -919     -924     -988    -1051 
   -1001     -990    -1039    -1015     -931     -839     -762     -750 
    -810     -811     -692     -642     -687     -707     -785     -858 
    -793     -812     -911     -834     -720     -729     -784     -827 
    -780     -702     -768     -930     -989     -940     -830     -681 
    -669     -743     -747     -812     -892     -873     -959    -1036 
    -854     -685     -718     -820     -884     -789     -683     -724 
    -687     -557     -567     -602     -576     -627     -697     -649 
    -572     -661     -862     -942     -862     -723     -652     -716 
    -843     -923     -865     -807     -861     -881     -958    -1047 
    -854     -581     -515     -577     -642     -716     -803     -781 
    -687     -699     -762     -693     -595     -656     -761     -789 
    -743     -670     -772     -980    -1054     -962     -743     -692 
    -855     -796     -606     -548     -533     -616     -703     -592 
    -562     -761     -842     -685     -550     -622     -796     -874 
    -826     -749     -757     -842     -885     -858     -818     -827 
    -831     -773     -723     -660     -638     -760     -785     -654 
    -648     -733     -770     -818     -800     -739     -745     -679 
    -603     -677     -693     -634     -708     -733     -595     -556 
    -606     -588     -633     -762     -843     -832     -723     -684 
    -758     -696     -572     -585     -641     -764     -965     -988 
    -916     -996    -1084    -1073     -982     -861     -858     -936 
    -947     -958    -1081    -1194    -1173    -1169    -1242    -1277 
   -1296    -1255    -1127    -1069    -1113    -1152    -1186    -1202 
   -1151    -1175    -1256    -1170    -1035     -969     -857     -822 
    -862     -791     -746     -862    -1007    -1007     -913     -853 
    -830     -931    -1044     -943     -907    -1053    -1088    -1007 
    -969    -1007     -986     -966    -1078    -1055     -957     -989 
    -854     -700     -787     -797     -685     -622     -576     -577 
    -637     -723     -773     -635     -503     -675     -922     -985 
    -900     -791     -773     -815     -777     -560     -353     -332 
    -361     -430     -463     -392     -426     -542     -592     -564 
    -550     -683     -788     -757     -766     -772     -660     -504 
    -409     -433     -584     -741     -805     -851     -858     -781 
    -768     -873     -913     -845     -810     -869    -1051    -1223 
   -1236    -1256    -1354    -1428    -1493    -1572    -1532    -1368 
   -1355    -1378    -1316    -1348    -1267    -1017     -901     -958 
   -1057    -1073     -990     -789     -581     -598     -611     -519 
    -510     -492     -430     -378     -367     -367     -307     -294 
    -207       33      151      168      217      243      298      321 
     228      166      191      224      202       85      -39     -122 
    -256     -394     -403     -298     -268     -392     -525     -614 
    -679     -735     -778     -788     -805     -765     -684     -720 
    -735     -621     -589     -672     -769     -961    -1140    -1148 
   -1108    -1067    -1024     -994     -982    -1071    -1100     -895 
    -689     -654     -742     -805     -805     -904    -1000    -1017 
   -1131    -1224    -1248    -1324    -1387    -1412    -1318    -1127 
    -988     -847     -703     -611     -577     -554     -422     -299 
    -209     -106     -248     -484     -542     -575     -564     -645 
   -1019    -1352    -1475    -1507    -1495    -1591    -1798    -1867 
   -1748    -1587    -1440    -1269    -1135    -1058     -997    -1039 
   -1101    -1063    -1039    -1035    -1013    -1012    -1034    -1024 
    -926     -815     -704     -579     -604     -730     -816     -936 
    -993     -922    -1028    -1297    -1259     -980     -845     -716 
    -487     -360     -282     -156      -99     -143     -249     -429 
    -560     -540     -552     -654     -676     -677     -696     -653 
    -768     -973    -1000    -1123    -1327    -1314    -1262    -1217 
   -1134    -1144    -1120     -934     -727     -606     -554     -469 
    -314     -175     -148     -186     -270     -465     -614     -643 
    -577     -388     -346     -491     -561     -595     -656     -739 
    -900    -1050    -1142    -1223    -1224    -1163    -1121    -1026 
    -962    -1001     -966     -909     -841     -743     -843     -908 
    -849     -885     -785     -681     -776     -783     -807     -926 
    -884     -706     -622     -703     -784     -800     -734     -540 
    -479     -639     -785     -882     -969    -1013    -1065    -1237 
   -1435    -1385    -1198    -1069     -842     -691     -864    -1075 
   -1150    -1159    -1053     -877     -718     -604     -592     -546 
    -419     -336     -368     -633     -895     -814     -761     -901 
    -868     -795     -935    -1094    -1254    -1486    -1575    -1463 
   -1367    -1308    -1167    -1016     -866     -737     -816     -874 
    -689     -488     -302     -216     -295     -256     -105      -58 
    -136     -253     -287     -317     -446     -495     -345     -189 
    -112       25      156      137       59      -37     -118     -106 
     -94     -133     -137      -56        2      -79     -220     -325 
    -375     -386     -352     -218      -60       70       58     -222 
    -419     -460     -643     -792     -873    -1032    -1055    -1116 
   -1449    -1636    -1529    -1426    -1391    -1402    -1389    -1304 
   -1304    -1405    -1405    -1301    -1318    -1405    -1366    -1324 
   -1308    -1167    -1008    -1028    -1196    -1337    -1428    -1540 
   -1648    -1757    -1861    -1783    -1497    -1323    -1360    -1366 
   -1300    -1185     -999     -962    -1117    -1159     -996     -841 
    -946    -1248    -1378    -1227    -1020     -946    -1016    -1020 
    -864     -710     -577     -411     -311     -368     -529     -541 
    -326     -203     -319     -573     -758     -741     -841    -1086 
   -1108    -1066    -1144    -1119     -973     -901     -884     -753 
    -612     -625     -704     -824     -907     -789     -652     -643 
    -585     -480     -403     -303     -241     -167     -105     -228 
    -383     -518     -774     -954     -931     -816     -735     -766 
    -758     -666     -614     -602     -602     -499     -368     -353 
    -280     -297     -480     -453     -415     -600     -668     -722 
    -931     -969     -869     -847     -758     -619     -503     -353 
    -340     -492     -625     -730     -768     -697     -648     -683 
    -783     -924     -993     -959     -976     -993     -903     -874 
    -954     -916     -764     -774     -912     -970    -1058    -1154 
   -1125    -1117    -1100    -1039    -1046    -1007     -977    -1092 
   -1174    -1158    -1096    -1001     -980    -1077    -1093     -936 
    -889     -901     -665     -465     -477     -394     -252     -202 
    -205     -267     -272     -194     -217     -292     -319     -395 
    -537     -730    -1024    -1287    -1317    -1174    -1047     -963 
    -893     -855     -801     -711     -708     -783     -747     -567 
    -407     -440     -587     -707     -799     -872     -977    -1034 
    -957     -940     -966     -972    -1108    -1193    -1054     -900 
    -753     -660     -822     -994    -1111    -1328    -1283    -1077 
   -1081     -981     -889    -1026    -1017     -935     -886     -718 
    -654     -676     -700     -892    -1047    -1073    -1152    -1190 
   -1125    -1075     -962     -861    -1032    -1206    -1143    -1043 
    -907     -788     -754     -600     -395     -329     -306     -371 
    -538     -510     -415     -577     -765     -837     -947    -1046 
   -1136    -1220    -1112     -861     -666     -603     -675     -812 
    -877     -811     -684     -615     -540     -330     -203     -272 
    -274     -193     -282     -488     -503     -438     -488     -503 
    -535     -653     -696     -583     -503     -653     -797     -792 
    -791     -837     -981    -1119    -1096    -1011     -954     -976 
   -1044     -959     -714     -629     -757     -749     -612     -608 
    -662     -692     -864    -1128    -1119     -980    -1080    -1074 
    -878     -891     -901     -730     -677     -747     -795     -850 
    -868     -816     -781     -795     -846     -835     -687     -630 
    -783     -849     -797     -908    -1038     -950     -864     -845 
    -745     -734     -778     -679     -754    -1125    -1368    -1294 
   -1019     -789     -816     -901     -766     -588     -619     -823 
