Origin Time       2024/04/02 04:24:00
Lat.              40.133
Long.             141.712
Depth. (km)       71
Mag.              6.0
Station Code      FKSH09
Station Lat.      37.3530
Station Long.     140.4264
Station Height(m) 60
Record Time       2024/04/02 04:25:35
Sampling Freq(Hz) 100Hz
Duration Time(s)  120
Dir.              3
Scale Factor      2942(gal)/8224139
Max. Acc. (gal)   0.565
Last Correction   2024/04/02 04:25:36
Memo.             
[...]
  -70374   -70309   -70337   -70368   -70455   -70495   -70451   -70499 
  -70592   -70596   -70529   -70519   -70555   -70513   -70447   -70426 
  -70461   -70479   -70360   -70301   -70444   -70524   -70444   -70352 
  -70298   -70333   -70402   -70399   -70492   -70663   -70641   -70605 
  -70783   -70893   -70748   -70645   -70748   -70849   -70910   -71053 
  -71150   -70997   -70773   -70796   -70981   -71108   -71184   -71215 
  -71157   -71046   -70950   -70985   -71151   -71147   -70864   -70661 
  -70673   -70637   -70480   -70340   -70378   -70495   -70335   -70163 
  -70297   -70254   -70035   -70124   -70249   -70224   -70306   -70348 
  -70295   -70402   -70549   -70511   -70351   -70212   -70197   -70325 
  -70440   -70455   -70536   -70637   -70582   -70464   -70420   -70418 
  -70372   -70378   -70607   -70787   -70602   -70357   -70393   -70617 
  -70812   -70818   -70792   -70833   -70610   -70422   -70699   -70831 
  -70671   -70700   -70714   -70611   -70645   -70657   -70623   -70686 
  -70617   -70480   -70575   -70642   -70486   -70394   -70413   -70341 
  -70360   -70641   -70784   -70553   -70347   -70524   -70775   -70633 
  -70479   -70632   -70591   -70380   -70487   -70744   -70835   -70812 
  -70804   -70733   -70507   -70457   -70691   -70659   -70330   -70357 
  -70726   -70810   -70615   -70625   -70773   -70737   -70594   -70569 
  -70625   -70579   -70546   -70648   -70641   -70586   -70748   -70756 
  -70434   -70414   -70622   -70483   -70336   -70347   -70189   -70191 
  -70452   -70502   -70460   -70525   -70495   -70406   -70479   -70764 
  -70852   -70546   -70394   -70428   -70364   -70530   -70931   -70988 
  -70548   -70267   -70476   -70711   -70825   -70791   -70514   -70425 
  -70653   -70740   -70613   -70673   -70900   -70811   -70551   -70497 
  -70568   -70811   -71104   -71041   -70784   -70671   -70584   -70465 
  -70471   -70505   -70453   -70463   -70445   -70272   -70217   -70368 
  -70428   -70286   -70132   -70235   -70511   -70599   -70464   -70341 
  -70370   -70424   -70374   -70391   -70530   -70669   -70726   -70652 
  -70594   -70553   -70484   -70618   -70815   -70696   -70548   -70740 
  -70837   -70648   -70749   -71023   -70858   -70648   -70941   -71138 
  -70764   -70456   -70563   -70744   -70839   -70833   -70761   -70737 
  -70812   -70892   -70768   -70569   -70555   -70483   -70278   -70380 
  -70671   -70542   -70190   -70154   -70228   -70067   -69863   -69931 
  -70123   -70058   -69959   -70092   -70040   -69882   -70005   -70102 
  -70162   -70437   -70564   -70436   -70425   -70545   -70538   -70391 
  -70380   -70542   -70586   -70532   -70590   -70741   -70892   -70960 
  -70934   -70852   -70843   -71032   -71076   -70892   -70943   -71131 
  -71173   -71158   -70997   -70791   -70760   -70683   -70688   -70989 
  -71032   -70726   -70672   -70750   -70644   -70671   -70846   -70721 
  -70425   -70378   -70494   -70573   -70584   -70582   -70618   -70538 
  -70389   -70414   -70479   -70336   -70158   -70322   -70696   -70807 
  -70703   -70626   -70542   -70513   -70687   -70888   -70829   -70645 
  -70530   -70432   -70430   -70519   -70521   -70518   -70548   -70410 
  -70274   -70355   -70362   -70344   -70556   -70530   -70267   -70407 
  -70683   -70648   -70591   -70646   -70644   -70681   -70858   -70846 
  -70665   -70769   -70914   -70734   -70537   -70552   -70654   -70623 
  -70474   -70510   -70638   -70605   -70598   -70618   -70497   -70434 
  -70529   -70642   -70719   -70703   -70648   -70653   -70656   -70707 
  -70866   -70861   -70618   -70482   -70569   -70673   -70633   -70507 
  -70449   -70491   -70438   -70227   -70187   -70372   -70548   -70614 
  -70437   -70283   -70451   -70613   -70598   -70549   -70536   -70549 
  -70525   -70557   -70641   -70592   -70445   -70394   -70492   -70638 
  -70749   -70752   -70696   -70727   -70725   -70557   -70402   -70449 
  -70633   -70687   -70592   -70540   -70436   -70263   -70252   -70424 
  -70568   -70595   -70659   -70740   -70648   -70524   -70411   -70291 
  -70391   -70444   -70276   -70332   -70538   -70590   -70561   -70533 
  -70563   -70590   -70544   -70533   -70510   -70432   -70410   -70402 
  -70470   -70738   -70946   -70937   -70888   -70741   -70511   -70488 
  -70605   -70652   -70637   -70615   -70611   -70519   -70470   -70659 
  -70746   -70672   -70713   -70726   -70681   -70641   -70610   -70741 
  -70822   -70758   -70835   -70838   -70537   -70379   -70569   -70668 
  -70578   -70576   -70540   -70387   -70372   -70513   -70557   -70410 
  -70263   -70298   -70416   -70467   -70536   -70636   -70553   -70370 
  -70399   -70537   -70645   -70742   -70671   -70607   -70664   -70524 
  -70410   -70552   -70591   -70487   -70542   -70691   -70599   -70429 
  -70613   -70958   -71010   -70654   -70297   -70407   -70649   -70668 
  -70760   -70923   -70907   -70764   -70642   -70610   -70617   -70660 
  -70795   -70808   -70649   -70626   -70621   -70548   -70717   -70877 
  -70761   -70660   -70636   -70560   -70465   -70448   -70529   -70525 
  -70421   -70389   -70370   -70278   -70175   -70233   -70448   -70445 
  -70245   -70186   -70171   -70078   -70001   -70047   -70222   -70390 
  -70482   -70518   -70561   -70583   -70456   -70351   -70461   -70571 
  -70542   -70449   -70393   -70513   -70591   -70475   -70549   -70758 
  -70781   -70714   -70590   -70467   -70557   -70781   -70929   -70992 
  -70984   -70869   -70717   -70653   -70816   -70973   -70722   -70465 
  -70575   -70596   -70441   -70444   -70587   -70659   -70602   -70598 
  -70648   -70731   -70999   -71088   -70857   -70798   -70843   -70868 
  -71003   -70880   -70598   -70649   -70641   -70410   -70393   -70437 
  -70397   -70357   -70297   -70298   -70233   -70264   -70613   -70650 
  -70324   -70393   -70776   -70869   -70731   -70846   -70942   -70637 
  -70584   -70873   -70806   -70571   -70471   -70406   -70409   -70420 
  -70530   -70714   -70614   -70467   -70605   -70617   -70402   -70441 
  -70644   -70735   -70912   -71012   -70721   -70440   -70569   -70788 
  -70827   -70854   -70887   -70798   -70596   -70434   -70476   -70619 
  -70752   -70827   -70767   -70669   -70503   -70290   -70399   -70749 
  -70892   -70825   -70772   -70632   -70233   -69939   -70090   -70317 
  -70464   -70721   -70600   -70051   -70043   -70491   -70533   -70437 
  -70613   -70690   -70530   -70517   -70690   -70588   -70378   -70433 
  -70349   -70083   -70135   -70475   -70671   -70540   -70398   -70440 
  -70406   -70209   -70124   -70235   -70244   -70301   -70707   -70984 
  -70912   -70883   -70794   -70646   -70698   -70700   -70648   -70710 
  -70634   -70491   -70474   -70416   -70325   -70299   -70345   -70420 
  -70407   -70375   -70389   -70370   -70407   -70514   -70548   -70627 
  -70841   -70911   -70795   -70777   -70843   -70795   -70660   -70545 
  -70564   -70740   -70738   -70424   -70339   -70525   -70416   -70244 
  -70312   -70336   -70480   -70733   -70578   -70270   -70328   -70515 
  -70530   -70587   -70808   -70789   -70459   -70461   -70788   -70799 
  -70568   -70468   -70559   -70679   -70605   -70541   -70630   -70563 
  -70459   -70549   -70640   -70715   -70691   -70449   -70428   -70646 
  -70664   -70703   -70812   -70630   -70483   -70621   -70661   -70537 
  -70495   -70602   -70812   -70827   -70590   -70556   -70540   -70402 
  -70637   -70825   -70619   -70575   -70614   -70506   -70529   -70652 
  -70713   -70764   -70715   -70567   -70542   -70629   -70725   -70856 
  -70942   -70972   -70935   -70730   -70625   -70749   -70771   -70698 
  -70692   -70646   -70449   -70244   -70347   -70569   -70488   -70329 
  -70391   -70443   -70433   -70551   -70598   -70479   -70463   -70502 
  -70480   -70619   -70816   -70621   -70260   -70268   -70438   -70497 
  -70538   -70607   -70606   -70413   -70210   -70193   -70306   -70487 
  -70568   -70518   -70436   -70364   -70499   -70872   -71072   -70881 
  -70596   -70479   -70572   -70799   -70904   -70822   -70780   -70808 
  -70788   -70795   -70799   -70731   -70745   -70827   -70792   -70696 
  -70722   -70779   -70642   -70460   -70482   -70537   -70437   -70422 
  -70579   -70560   -70330   -70310   -70482   -70461   -70362   -70243 
  -70020   -70170   -70619   -70713   -70596   -70606   -70592   -70470 
  -70357   -70297   -70339   -70524   -70563   -70456   -70582   -70714 
  -70595   -70360   -70104   -70083   -70275   -70345   -70345   -70362 
  -70290   -70266   -70394   -70494   -70463   -70349   -70255   -70297 
  -70486   -70611   -70510   -70540   -70699   -70518   -70426   -70696 
  -70792   -70798   -70877   -70799   -70660   -70607   -70665   -70775 
  -70742   -70622   -70679   -70700   -70480   -70468   -70650   -70572 
  -70472   -70630   -70731   -70587   -70537   -70696   -70740   -70715 
  -70783   -70775   -70733   -70841   -70985   -70965   -70880   -70887 
  -70775   -70530   -70525   -70605   -70551   -70567   -70560   -70468 
  -70457   -70491   -70571   -70596   -70452   -70345   -70403   -70545 
  -70676   -70754   -70773   -70656   -70537   -70599   -70640   -70636 
  -70727   -70744   -70607   -70443   -70352   -70398   -70495   -70416 
  -70259   -70374   -70552   -70444   -70368   -70548   -70621   -70582 
  -70764   -70892   -70746   -70698   -70713   -70583   -70568   -70634 
  -70557   -70537   -70548   -70368   -70245   -70317   -70313   -70216 
  -70182   -70163   -70200   -70452   -70710   -70706   -70541   -70398 
  -70375   -70383   -70413   -70629   -70762   -70598   -70468   -70573 
  -70661   -70514   -70475   -70661   -70598   -70364   -70395   -70540 
  -70452   -70383   -70632   -70721   -70546   -70663   -70816   -70654 
  -70671   -70935   -70900   -70627   -70484   -70502   -70657   -70804 
  -70795   -70744   -70760   -70798   -70740   -70729   -70954   -71037 
  -70749   -70613   -70794   -70889   -70899   -70991   -70907   -70691 
  -70746   -70725   -70461   -70576   -70926   -70997   -70915   -70792 
  -70704   -70777   -70875   -70850   -70649   -70465   -70559   -70661 
  -70641   -70723   -70695   -70434   -70320   -70352   -70254   -70258 
  -70578   -70785   -70695   -70688   -70738   -70684   -70681   -70677 
  -70627   -70648   -70765   -70914   -70852   -70677   -70717   -70810 
  -70827   -70896   -70816   -70533   -70468   -70656   -70708   -70605 
  -70598   -70650   -70545   -70490   -70669   -70779   -70691   -70545 
  -70464   -70518   -70564   -70641   -70842   -70807   -70501   -70391 
  -70409   -70335   -70456   -70686   -70679   -70636   -70605   -70503 
  -70579   -70586   -70286   -70177   -70326   -70421   -70509   -70557 
  -70506   -70532   -70691   -70756   -70583   -70515   -70722   -70737 
  -70555   -70586   -70695   -70725   -70768   -70862   -70866   -70750 
  -70881   -70988   -70652   -70551   -70777   -70726   -70735   -71078 
  -71215   -70922   -70648   -70580   -70378   -70148   -70266   -70537 
  -70572   -70403   -70470   -70719   -70665   -70456   -70270   -70146 
  -70285   -70266   -70075   -70281   -70362   -70075   -70205   -70519 
  -70393   -70252   -70279   -70174   -70089   -69904   -69591   -69716 
  -70002   -69890   -69854   -70043   -70038   -69993   -70009   -69927 
  -69917   -69915   -69769   -69797   -69924   -69855   -69905   -70320 
  -70810   -71046   -71092   -71145   -71078   -70907   -70818   -70718 
  -70590   -70578   -70586   -70521   -70545   -70691   -70741   -70642 
  -70579   -70557   -70506   -70560   -70708   -70710   -70526   -70447 
  -70607   -70694   -70596   -70599   -70800   -71041   -71086   -70951 
  -70893   -70803   -70480   -70329   -70618   -70883   -70883   -70854 
  -70769   -70595   -70451   -70221   -70027   -70135   -70424   -70729 
  -70912   -70923   -70900   -70861   -70912   -71050   -70919   -70422 
  -69997   -70096   -70420   -70560   -70654   -70692   -70683   -70725 
  -70675   -70530   -70310   -70160   -70344   -70548   -70602   -70752 
  -70823   -70707   -70513   -70264   -70233   -70451   -70510   -70444 
  -70587   -70837   -70941   -70923   -70838   -70711   -70542   -70266 
  -70204   -70507   -70633   -70480   -70374   -70443   -70756   -71018 
  -71024   -71019   -70970   -70684   -70276   -70119   -70313   -70424 
  -70351   -70268   -70183   -70438   -70853   -70880   -70884   -70911 
  -70622   -70426   -70451   -70368   -70375   -70660   -70845   -70838 
  -70916   -70966   -70866   -70838   -71030   -71257   -71217   -71019 
  -70961   -71055   -71099   -70904   -70590   -70359   -70071   -69847 
  -70150   -70704   -70933   -70934   -70861   -70613   -70416   -70422 
  -70290   -70100   -70279   -70438   -70287   -70353   -70610   -70571 
  -70386   -70313   -70332   -70479   -70695   -70794   -70713   -70465 
  -70255   -70318   -70367   -70229   -70298   -70490   -70571   -70723 
  -70783   -70686   -70671   -70607   -70515   -70421   -70243   -70329 
  -70441   -70148   -70162   -70725   -71015   -70907   -70873   -70964 
  -70933   -70776   -70811   -70912   -70649   -70379   -70503   -70717 
  -70884   -71097   -71115   -70833   -70656   -70704   -70757   -70918 
  -71119   -71199   -71370   -71620   -71602   -71224   -70861   -70825 
  -70941   -70933   -70731   -70626   -70802   -70784   -70393   -70198 
  -70335   -70258   -69970   -70001   -70237   -70318   -70278   -70187 
  -70073   -69955   -70004   -70264   -70384   -70451   -70650   -70652 
  -70555   -70537   -70379   -70308   -70321   -70144   -70124   -70032 
  -69415   -68994   -69203   -69561   -69847   -70085   -70224   -70221 
  -70048   -69932   -70059   -70009   -69624   -69534   -69819   -69942 
  -70063   -70529   -70849   -70775   -70762   -70710   -70272   -69925 
  -70075   -70275   -70268   -70451   -70821   -70870   -70519   -70281 
  -70447   -70586   -70563   -70760   -71047   -71184   -71116   -70818 
  -70664   -70841   -71010   -70968   -70957   -71124   -71134   -70965 
  -70929   -71020   -71235   -71471   -71602   -71537   -71050   -70553 
  -70607   -70949   -71089   -71000   -71057   -71105   -70854   -70916 
  -71405   -71446   -70883   -70429   -70390   -70382   -70356   -70591 
  -70788   -70749   -70864   -71105   -71149   -71073   -71051   -71065 
  -70966   -70734   -70663   -70911   -71064   -70730   -70328   -70463 
  -70780   -70718   -70668   -70721   -70497   -70460   -70602   -70386 
  -70313   -70592   -70757   -70860   -70989   -71055   -70845   -70174 
  -69668   -69788   -69948   -69967   -70183   -70356   -70301   -70312 
  -70303   -70104   -69984   -69904   -69776   -69898   -70105   -70218 
  -70486   -70772   -70683   -70314   -70181   -70455   -70733   -70659 
  -70447   -70486   -70542   -70457   -70586   -70756   -70699   -70596 
  -70576   -70713   -70746   -70594   -70707   -70854   -70787   -70895 
  -71074   -71197   -71285   -70991   -70722   -71027   -71213   -70960 
  -70942   -71095   -70862   -70583   -70765   -71065   -71170   -71127 
  -70765   -70291   -70152   -70213   -70225   -70191   -70375   -70761 
  -70741   -70436   -70379   -70326   -70227   -70322   -70357   -70146 
  -69996   -70038   -70062   -70082   -70127   -70127   -70121   -70065 
  -70104   -70303   -70293   -70167   -70236   -70158   -69790   -69770 
  -70282   -70681   -70760   -70665   -70456   -70422   -70386   -70150 
  -70062   -70173   -70567   -71041   -71001   -70864   -71091   -71194 
  -70950   -70713   -70754   -70757   -70343   -70125   -70580   -71032 
  -71095   -71012   -70875   -70888   -70933   -70492   -70070   -70399 
  -70902   -71007   -71008   -70973   -70737   -70484   -70359   -70409 
  -70761   -70966   -70629   -70443   -70761   -70999   -70889   -70588 
  -70382   -70409   -70208   -69734   -69805   -70314   -70428   -70490 
  -70895   -71082   -70984   -70891   -70807   -70652   -70294   -70182 
  -70525   -70567   -70587   -71026   -71003   -70676   -70875   -71058 
  -70745   -70395   -70348   -70422   -70370   -70382   -70777   -71204 
  -71023   -70559   -70595   -70838   -70646   -70497   -70942   -71246 
  -70842   -70534   -70749   -70803   -70607   -70690   -70843   -70815 
  -70864   -70781   -70468   -70341   -70322   -70272   -70308   -70252 
  -70232   -70449   -70417   -70092   -70021   -70147   -70281   -70434 
  -70509   -70665   -70783   -70630   -70641   -70710   -70565   -70592 
  -70633   -70475   -70391   -70420   -70545   -70694   -70795   -70821 
  -70619   -70437   -70487   -70502   -70459   -70524   -70656   -70692 
  -70445   -70204   -70530   -70924   -70428   -69664   -69588   -69750 
  -69873   -70362   -70875   -70764   -70302   -70105   -70129   -70078 
  -70150   -70565   -70846   -70544   -70152   -70218   -70430   -70436 
  -70556   -70849   -70760   -70397   -70314   -70425   -70479   -70503 
  -70555   -70690   -70833   -70929   -70854   -70540   -70546   -71032 
  -71309   -71215   -71104   -71096   -71104   -70961   -70907   -71254 
  -71421   -71019   -70710   -70848   -70964   -70721   -70553   -70842 
  -71077   -70930   -70771   -70785   -70862   -71020   -71234   -71157 
  -70902   -70889   -70767   -70487   -70557   -70607   -70424   -70595 
  -70953   -70877   -70560   -70441   -70376   -70217   -70195   -70258 
  -70150   -69874   -69611   -69577   -69704   -69807   -70011   -70434 
  -70777   -70587   -70019   -69811   -70062   -70221   -70285   -70513 
  -70702   -70584   -70301   -70116   -70005   -70044   -70432   -70779 
  -70622   -70349   -70336   -70287   -70089   -70133   -70519   -70756 
  -70691   -70694   -70757   -70800   -70870   -70916   -71054   -71043 
  -70676   -70596   -70850   -70802   -70708   -70772   -70731   -70831 
  -70918   -70610   -70363   -70336   -70245   -70133   -70175   -70391 
  -70471   -70486   -70738   -70846   -70783   -70794   -70718   -70750 
  -70864   -70862   -71001   -70976   -70667   -70661   -70794   -70854 
  -71085   -71151   -70868   -70614   -70525   -70596   -70815   -71046 
  -71085   -70783   -70449   -70563   -70939   -71039   -70897   -70812 
  -70663   -70490   -70630   -70931   -70802   -70263   -70090   -70191 
  -70044   -70140   -70567   -70796   -70789   -70653   -70509   -70335 
  -70200   -70295   -70283   -70156   -70282   -70491   -70707   -70916 
  -70915   -70815   -70559   -70164   -70133   -70380   -70379   -70353 
  -70605   -70630   -70263   -70166   -70389   -70422   -70299   -70173 
  -70105   -70308   -70559   -70557   -70464   -70363   -70368   -70517 
  -70544   -70622   -70829   -70808   -70586   -70470   -70627   -70657 
  -70337   -70322   -70636   -70698   -70621   -70650   -70727   -70752 
  -70729   -70717   -70586   -70428   -70579   -70837   -70880   -70884 
  -70896   -70818   -70735   -70540   -70328   -70541   -70675   -70189 
  -69921   -70298   -70725   -70988   -71219   -71316   -71005   -70437 
  -70177   -70236   -70314   -70599   -70941   -70929   -70800   -70490 
  -69971   -69985   -70236   -70113   -70348   -71031   -71165   -70621 
  -70276   -70487   -70572   -70425   -70676   -71061   -71038   -70810 
  -70626   -70623   -70795   -70722   -70436   -70546   -70939   -70953 
  -70760   -70794   -70633   -70271   -70345   -70646   -70696   -70575 
  -70502   -70605   -70756   -70711   -70433   -70087   -69979   -70094 
  -70060   -69971   -70085   -70204   -70297   -70445   -70434   -70297 
  -70270   -70340   -70349   -70289   -70449   -70823   -70879   -70700 
