Origin Time       2024/04/02 04:24:00
Lat.              40.133
Long.             141.712
Depth. (km)       71
Mag.              6.0
Station Code      FKSH06
Station Lat.      37.1723
Station Long.     139.5199
Station Height(m) 571.9
Record Time       2024/04/02 04:25:59
Sampling Freq(Hz) 100Hz
Duration Time(s)  120
Dir.              4
Scale Factor      7845(gal)/8223790
Max. Acc. (gal)   0.243
Last Correction   2024/04/02 04:26:00
Memo.             
[...]
    7570     7562     7570     7585     7593     7596     7603     7607 
    7601     7595     7581     7560     7538     7523     7522     7535 
    7550     7558     7569     7577     7578     7576     7565     7555 
    7561     7578     7595     7605     7609     7603     7597     7596 
    7591     7582     7580     7580     7592     7616     7635     7643 
    7643     7626     7599     7576     7562     7562     7578     7605 
    7634     7654     7661     7653     7635     7619     7604     7589 
    7588     7601     7614     7622     7622     7609     7591     7577 
    7573     7577     7589     7604     7622     7646     7659     7657 
    7645     7623     7601     7596     7601     7612     7627     7634 
    7630     7624     7615     7603     7593     7582     7568     7554 
    7555     7570     7585     7592     7593     7587     7580     7580 
    7580     7581     7588     7592     7601     7616     7638     7661 
    7681     7690     7685     7665     7650     7651     7665     7686 
    7708     7719     7722     7716     7707     7700     7686     7666 
    7654     7661     7673     7681     7685     7686     7680     7666 
    7659     7659     7661     7661     7659     7654     7641     7626 
    7623     7624     7619     7614     7615     7618     7615     7609 
    7604     7593     7576     7557     7535     7516     7511     7519 
    7539     7568     7595     7618     7632     7630     7612     7581 
    7550     7535     7541     7558     7580     7603     7622     7636 
    7650     7659     7647     7618     7593     7582     7584     7595 
    7603     7604     7603     7611     7623     7630     7636     7645 
    7650     7650     7641     7627     7609     7592     7585     7592 
    7601     7618     7630     7628     7622     7619     7620     7624 
    7624     7619     7605     7592     7592     7599     7608     7619 
    7622     7614     7611     7609     7603     7591     7569     7539 
    7516     7512     7522     7537     7554     7572     7585     7587 
    7573     7553     7537     7526     7524     7533     7543     7560 
    7589     7620     7635     7638     7643     7643     7631     7620 
    7614     7607     7604     7605     7609     7616     7626     7630 
    7627     7630     7639     7643     7649     7655     7662     7669 
    7672     7670     7668     7670     7670     7670     7676     7692 
    7704     7705     7699     7686     7676     7658     7643     7647 
    7651     7646     7647     7649     7645     7650     7659     7666 
    7669     7668     7659     7645     7623     7607     7592     7578 
    7569     7574     7591     7609     7628     7647     7658     7654 
    7643     7624     7600     7581     7568     7564     7569     7587 
    7603     7611     7611     7608     7601     7596     7592     7587 
    7587     7593     7599     7600     7601     7597     7593     7592 
    7588     7589     7599     7601     7593     7584     7580     7580 
    7582     7596     7618     7636     7646     7642     7641     7642 
    7641     7638     7639     7639     7636     7632     7628     7626 
    7620     7612     7611     7626     7649     7677     7695     7697 
    7692     7673     7641     7615     7605     7609     7624     7645 
    7666     7682     7680     7658     7632     7608     7585     7574 
    7576     7580     7589     7612     7635     7647     7651     7651 
    7647     7639     7630     7630     7636     7639     7636     7630 
    7620     7609     7603     7603     7597     7589     7592     7603 
    7614     7624     7631     7632     7631     7628     7632     7646 
    7657     7655     7646     7636     7624     7607     7588     7577 
    7570     7569     7574     7592     7616     7630     7635     7638 
    7634     7623     7609     7593     7576     7555     7543     7542 
    7549     7568     7585     7588     7584     7584     7584     7585 
    7588     7589     7588     7587     7582     7576     7569     7566 
    7580     7604     7623     7632     7635     7634     7624     7616 
    7608     7596     7582     7569     7565     7574     7596     7623 
    7641     7645     7646     7649     7649     7643     7631     7626 
    7635     7653     7676     7703     7719     7722     7720     7715 
    7700     7681     7670     7666     7661     7655     7657     7661 
    7661     7654     7643     7631     7615     7596     7588     7589 
    7588     7585     7587     7588     7585     7577     7574     7581 
    7584     7585     7592     7601     7604     7604     7605     7608 
    7609     7611     7612     7612     7616     7628     7643     7657 
    7666     7663     7657     7649     7634     7619     7605     7593 
    7593     7603     7611     7612     7611     7615     7619     7612 
    7597     7582     7572     7569     7580     7600     7619     7628 
    7623     7604     7596     7607     7614     7612     7615     7622 
    7623     7620     7618     7611     7595     7578     7569     7555 
    7551     7565     7581     7595     7609     7623     7626     7620 
    7609     7595     7584     7577     7576     7577     7580     7585 
    7595     7599     7600     7593     7577     7566     7570     7582 
    7593     7608     7624     7634     7643     7650     7659     7670 
    7666     7657     7651     7650     7654     7653     7642     7627 
    7616     7612     7612     7620     7632     7649     7668     7670 
    7658     7649     7642     7626     7611     7609     7615     7626 
    7645     7662     7681     7699     7704     7700     7682     7657 
    7639     7639     7657     7681     7686     7674     7659     7645 
    7628     7619     7616     7618     7624     7630     7627     7620 
    7612     7597     7580     7566     7564     7569     7578     7593 
    7620     7645     7649     7635     7616     7596     7578     7570 
    7572     7580     7587     7581     7574     7577     7585     7591 
    7593     7593     7587     7573     7558     7537     7519     7519 
    7533     7555     7578     7595     7603     7607     7603     7595 
    7591     7587     7584     7588     7601     7612     7618     7624 
    7632     7628     7615     7608     7611     7624     7639     7647 
    7643     7632     7626     7627     7636     7647     7647     7641 
    7638     7638     7638     7639     7638     7641     7650     7650 
    7638     7620     7603     7589     7585     7589     7597     7603 
    7605     7601     7597     7596     7596     7600     7605     7597 
    7592     7603     7614     7620     7619     7611     7601     7592 
    7585     7591     7604     7624     7647     7651     7643     7636 
    7622     7601     7591     7589     7588     7589     7591     7595 
    7608     7631     7651     7662     7666     7668     7663     7666 
    7672     7663     7651     7642     7635     7635     7643     7662 
    7682     7689     7685     7678     7670     7662     7651     7645 
    7646     7647     7646     7646     7647     7654     7663     7668 
    7669     7661     7642     7624     7611     7601     7604     7615 
    7632     7658     7681     7693     7696     7692     7676     7643 
    7608     7584     7570     7587     7618     7639     7650     7658 
    7659     7646     7626     7612     7596     7576     7565     7564 
    7565     7568     7568     7569     7570     7564     7555     7557 
    7564     7577     7593     7601     7600     7601     7605     7611 
    7609     7600     7584     7564     7553     7557     7569     7578 
    7584     7591     7600     7603     7596     7587     7578     7572 
    7572     7580     7591     7600     7600     7597     7596     7595 
    7597     7601     7615     7632     7642     7642     7636     7628 
    7623     7623     7628     7634     7632     7628     7622     7618 
    7612     7592     7566     7553     7554     7576     7618     7659 
    7689     7695     7677     7654     7635     7626     7631     7634 
    7623     7608     7596     7595     7601     7615     7639     7663 
    7685     7712     7727     7712     7696     7686     7672     7658 
    7653     7658     7676     7704     7732     7753     7750     7723 
    7682     7655     7646     7643     7646     7653     7658     7661 
    7659     7655     7654     7653     7653     7650     7642     7631 
    7622     7608     7587     7562     7546     7539     7534     7541 
    7564     7582     7595     7609     7618     7612     7599     7581 
    7566     7560     7557     7560     7569     7581     7584     7574 
    7560     7539     7516     7510     7519     7534     7550     7570 
    7587     7589     7578     7560     7539     7520     7510     7515 
    7534     7549     7557     7565     7573     7582     7591     7596 
    7608     7620     7609     7585     7564     7541     7518     7507 
    7516     7537     7564     7601     7642     7670     7680     7672 
    7650     7626     7601     7582     7587     7612     7634     7649 
    7663     7668     7663     7661     7655     7643     7627     7622 
    7634     7647     7658     7676     7689     7681     7665     7654 
    7651     7650     7647     7657     7665     7666     7666     7666 
    7661     7651     7641     7630     7623     7623     7628     7634 
    7643     7647     7639     7632     7626     7615     7605     7603 
    7608     7618     7627     7634     7632     7626     7619     7609 
    7601     7597     7587     7572     7561     7557     7566     7585 
    7601     7609     7607     7605     7605     7596     7587     7588 
    7593     7591     7595     7612     7624     7626     7626     7618 
    7600     7581     7569     7562     7557     7557     7566     7573 
    7584     7603     7616     7615     7612     7615     7615     7607 
    7595     7585     7581     7588     7599     7611     7624     7638 
    7638     7626     7614     7604     7592     7588     7596     7604 
    7603     7601     7603     7604     7608     7622     7634     7635 
    7638     7643     7643     7639     7632     7634     7643     7645 
    7645     7657     7670     7674     7673     7665     7645     7619 
    7596     7581     7573     7574     7589     7607     7618     7619 
    7611     7607     7611     7618     7624     7638     7655     7672 
    7682     7685     7678     7673     7674     7676     7681     7686 
    7693     7695     7688     7678     7676     7682     7686     7682 
    7677     7673     7668     7665     7674     7684     7686     7695 
    7711     7723     7730     7728     7713     7689     7673     7678 
    7695     7705     7704     7695     7678     7665     7663     7668 
    7666     7654     7645     7650     7661     7670     7681     7681 
    7674     7673     7674     7673     7670     7668     7662     7645 
    7614     7585     7570     7565     7564     7573     7585     7588 
    7581     7576     7568     7551     7539     7530     7520     7520 
    7531     7545     7560     7574     7585     7588     7582     7582 
    7582     7576     7562     7543     7531     7538     7558     7581 
    7599     7604     7605     7609     7614     7619     7628     7632 
    7630     7622     7612     7595     7577     7568     7573     7596 
    7630     7653     7658     7658     7651     7638     7619     7597 
    7582     7581     7587     7599     7609     7615     7620     7623 
    7626     7624     7612     7600     7595     7588     7581     7574 
    7568     7564     7573     7599     7635     7662     7659     7634 
    7593     7551     7524     7524     7543     7561     7569     7569 
    7564     7557     7554     7551     7553     7555     7557     7560 
    7566     7564     7553     7538     7523     7518     7527     7546 
    7573     7604     7626     7630     7618     7595     7570     7547 
    7531     7530     7543     7566     7593     7619     7636     7639 
    7632     7620     7603     7588     7577     7572     7577     7596 
    7616     7628     7632     7634     7622     7603     7592     7592 
    7593     7589     7591     7600     7607     7614     7627     7643 
    7650     7646     7639     7632     7624     7620     7626     7624 
    7615     7611     7614     7622     7635     7642     7635     7626 
    7616     7608     7608     7612     7612     7616     7626     7628 
    7623     7632     7654     7665     7668     7676     7681     7681 
    7686     7700     7708     7704     7699     7693     7685     7680 
    7677     7674     7677     7682     7692     7700     7704     7704 
    7705     7699     7684     7670     7658     7642     7632     7635 
    7646     7654     7653     7646     7634     7618     7607     7603 
    7607     7622     7643     7657     7655     7638     7614     7595 
    7587     7582     7585     7595     7600     7593     7580     7568 
    7572     7585     7587     7582     7589     7600     7612     7630 
    7647     7655     7654     7651     7646     7641     7638     7632 
    7641     7663     7682     7695     7707     7716     7726     7734 
    7730     7728     7730     7726     7722     7717     7712     7707 
    7705     7705     7708     7719     7734     7744     7755     7762 
    7751     7732     7720     7703     7678     7663     7655     7651 
    7647     7643     7641     7630     7607     7576     7545     7520 
    7507     7501     7489     7470     7457     7450     7447     7449 
    7450     7443     7430     7418     7406     7391     7379     7366 
    7362     7373     7391     7404     7419     7430     7429     7422 
    7414     7406     7407     7416     7434     7462     7503     7545 
    7577     7601     7622     7631     7628     7618     7612     7620 
    7645     7681     7720     7757     7780     7781     7776     7778 
    7777     7778     7788     7794     7792     7781     7771     7765 
    7755     7747     7740     7727     7712     7707     7703     7690 
    7685     7690     7686     7665     7641     7614     7582     7569 
    7570     7574     7577     7577     7573     7564     7551     7545 
    7538     7537     7543     7550     7551     7551     7554     7558 
    7566     7573     7576     7573     7565     7555     7539     7528 
    7533     7538     7541     7547     7558     7573     7595     7616 
    7638     7662     7673     7669     7666     7666     7676     7697 
    7711     7711     7711     7709     7705     7704     7707     7703 
    7688     7670     7654     7639     7631     7630     7635     7645 
    7643     7626     7599     7566     7537     7516     7511     7518 
    7523     7527     7537     7553     7569     7580     7576     7566 
    7558     7546     7530     7518     7516     7533     7557     7582 
    7603     7608     7605     7608     7615     7616     7612     7609 
    7607     7597     7580     7569     7570     7587     7619     7666 
    7708     7724     7716     7692     7653     7616     7595     7582 
    7582     7599     7620     7638     7653     7665     7669     7668 
    7666     7666     7672     7680     7682     7676     7668     7659 
    7653     7653     7662     7676     7673     7650     7631     7623 
    7620     7626     7643     7657     7659     7655     7651     7650 
    7651     7657     7663     7669     7678     7678     7676     7680 
    7684     7689     7700     7703     7696     7690     7686     7676 
    7661     7641     7618     7588     7557     7542     7547     7560 
    7581     7607     7630     7642     7639     7631     7620     7599 
    7574     7550     7527     7514     7515     7528     7543     7553 
    7564     7569     7561     7550     7538     7526     7510     7492 
    7491     7511     7534     7561     7589     7608     7622     7641 
    7668     7700     7726     7732     7724     7701     7677     7665 
    7662     7678     7715     7749     7773     7788     7790     7790 
    7789     7789     7798     7820     7844     7861     7866     7858 
    7836     7808     7776     7744     7712     7680     7662     7662 
    7670     7677     7682     7678     7661     7634     7605     7574 
    7546     7524     7515     7518     7530     7541     7541     7524 
    7499     7460     7416     7388     7376     7373     7393     7435 
    7474     7484     7468     7437     7396     7369     7366     7384 
    7404     7414     7414     7416     7418     7418     7422     7423 
    7423     7430     7445     7470     7491     7501     7511     7515 
    7504     7495     7493     7493     7496     7504     7526     7566 
    7608     7641     7670     7689     7688     7673     7658     7645 
    7632     7632     7645     7659     7672     7680     7692     7711 
    7722     7720     7708     7692     7677     7673     7684     7704 
    7720     7732     7739     7739     7746     7755     7761     7763 
    7761     7742     7712     7689     7680     7681     7690     7712 
    7742     7769     7789     7800     7797     7776     7738     7692 
    7654     7632     7628     7636     7641     7641     7643     7639 
    7632     7632     7628     7620     7607     7592     7589     7595 
    7595     7587     7587     7604     7632     7657     7676     7689 
    7689     7678     7659     7639     7620     7604     7597     7605 
    7626     7661     7700     7727     7732     7717     7695     7677 
    7665     7655     7651     7654     7658     7663     7678     7696 
    7711     7726     7736     7735     7716     7682     7636     7595 
    7568     7551     7546     7550     7553     7551     7545     7537 
    7528     7522     7526     7533     7528     7514     7497     7487 
    7489     7496     7500     7501     7503     7510     7520     7526 
    7527     7527     7520     7503     7485     7483     7497     7516 
    7533     7549     7562     7577     7595     7611     7619     7603 
    7572     7550     7549     7565     7600     7632     7654     7676 
    7690     7699     7700     7699     7697     7689     7684     7681 
    7669     7662     7677     7701     7724     7749     7765     7758 
    7738     7722     7711     7700     7689     7678     7669     7668 
    7677     7689     7692     7682     7666     7655     7654     7658 
    7663     7668     7672     7666     7647     7634     7623     7611 
    7600     7593     7585     7584     7595     7615     7631     7630 
    7615     7597     7581     7570     7574     7595     7623     7646 
    7661     7668     7668     7672     7672     7661     7647     7632 
    7622     7620     7620     7609     7591     7572     7554     7539 
    7530     7535     7549     7564     7578     7580     7562     7538 
    7515     7492     7466     7449     7453     7465     7472     7481 
    7495     7499     7497     7495     7501     7512     7515     7515 
    7528     7551     7574     7593     7609     7622     7626     7618 
    7601     7589     7581     7580     7593     7626     7661     7686 
    7704     7701     7680     7657     7643     7642     7638     7628 
    7631     7646     7665     7685     7690     7676     7645     7611 
    7588     7568     7551     7551     7566     7582     7603     7622 
    7630     7624     7609     7592     7578     7572     7570     7580 
    7605     7634     7657     7673     7674     7657     7638     7624 
    7608     7599     7604     7612     7623     7638     7655     7670 
