Origin Time       2024/04/02 04:24:00
Lat.              40.133
Long.             141.712
Depth. (km)       71
Mag.              6.0
Station Code      FKSH17
Station Lat.      37.6636
Station Long.     140.5974
Station Height(m) 205
Record Time       2024/04/02 04:25:18
Sampling Freq(Hz) 100Hz
Duration Time(s)  120
Dir.              4
Scale Factor      7845(gal)/8223790
Max. Acc. (gal)   4.675
Last Correction   2024/04/02 04:25:19
Memo.             
[...]
  -36474   -36796   -37052   -37114   -36940   -36752   -36661   -36514 
  -36424   -36501   -36521   -36386   -36139   -35858   -35653   -35565 
  -35630   -35733   -35799   -35977   -36162   -36151   -36107   -36124 
  -36143   -36296   -36613   -36906   -37046   -36891   -36545   -36435 
  -36549   -36536   -36391   -36261   -36175   -36173   -36167   -36059 
  -35982   -36054   -36173   -36217   -36236   -36289   -36319   -36289 
  -36196   -36080   -35980   -35937   -36089   -36417   -36610   -36586 
  -36517   -36431   -36369   -36333   -36221   -36181   -36301   -36405 
  -36436   -36366   -36185   -36063   -36003   -35914   -35970   -36208 
  -36279   -36130   -36070   -36088   -36031   -36061   -36274   -36478 
  -36547   -36566   -36618   -36718   -36846   -36798   -36499   -36324 
  -36400   -36359   -36136   -36020   -35965   -35822   -35777   -35880 
  -35927   -35900   -35941   -36051   -36197   -36439   -36610   -36549 
  -36562   -36801   -36936   -36857   -36721   -36537   -36397   -36454 
  -36572   -36532   -36298   -36061   -35961   -35797   -35484   -35276 
  -35309   -35517   -35785   -35986   -36119   -36278   -36436   -36553 
  -36663   -36687   -36626   -36621   -36694   -36806   -36855   -36707 
  -36460   -36265   -36135   -36143   -36223   -36173   -36090   -36130 
  -36181   -36120   -35969   -35869   -35862   -35888   -36035   -36229 
  -36229   -36157   -36148   -36085   -36123   -36416   -36733   -36929 
  -36984   -36845   -36560   -36275   -36225   -36406   -36439   -36266 
  -36181   -36175   -36062   -35876   -35775   -35725   -35660   -35712 
  -35896   -36096   -36371   -36649   -36671   -36483   -36325   -36267 
  -36340   -36491   -36493   -36347   -36389   -36576   -36529   -36333 
  -36227   -36082   -35919   -35980   -36207   -36332   -36310   -36283 
  -36282   -36289   -36327   -36362   -36378   -36448   -36548   -36620 
  -36657   -36570   -36294   -35992   -35876   -35985   -36158   -36215 
  -36108   -35976   -35982   -36024   -35954   -35951   -36116   -36248 
  -36315   -36360   -36335   -36251   -36162   -36157   -36297   -36501 
  -36617   -36533   -36391   -36389   -36472   -36514   -36477   -36387 
  -36328   -36286   -36165   -36038   -36039   -36011   -35797   -35607 
  -35725   -35995   -36059   -36081   -36313   -36528   -36624   -36734 
  -36740   -36556   -36432   -36440   -36490   -36720   -36999   -36891 
  -36505   -36239   -36173   -36288   -36412   -36266   -36000   -35911 
  -35957   -36046   -36121   -36117   -36211   -36513   -36736   -36738 
  -36738   -36718   -36505   -36350   -36477   -36564   -36416   -36271 
  -36235   -36250   -36285   -36259   -36178   -36189   -36236   -36177 
  -36181   -36342   -36433   -36418   -36456   -36533   -36552   -36490 
  -36491   -36684   -36917   -36952   -36744   -36425   -36163   -36078 
  -36185   -36308   -36277   -36111   -35912   -35810   -35861   -35950 
  -36072   -36255   -36310   -36346   -36616   -36801   -36605   -36339 
  -36293   -36371   -36463   -36579   -36664   -36549   -36275   -36099 
  -35978   -35770   -35650   -35656   -35590   -35537   -35622   -35741 
  -35858   -36000   -36167   -36364   -36499   -36510   -36441   -36333 
  -36192   -36008   -35861   -35788   -35657   -35556   -35694   -35892 
  -35993   -36194   -36414   -36408   -36389   -36514   -36601   -36672 
  -36822   -36927   -36845   -36595   -36389   -36293   -36121   -35900 
  -35760   -35675   -35766   -35903   -35698   -35452   -35564   -35760 
  -35864   -35942   -35914   -35918   -36143   -36432   -36701   -36909 
  -36910   -36837   -36803   -36671   -36528   -36543   -36603   -36603 
  -36564   -36483   -36394   -36367   -36439   -36563   -36522   -36205 
  -35982   -36120   -36323   -36414   -36547   -36647   -36548   -36356 
  -36216   -36223   -36450   -36760   -36957   -36957   -36748   -36421 
  -36042   -35716   -35590   -35506   -35388   -35492   -35754   -35878 
  -35888   -35958   -36181   -36516   -36779   -36864   -36872   -36879 
  -36849   -36795   -36729   -36580   -36421   -36417   -36528   -36679 
  -36818   -36720   -36310   -35939   -35893   -35981   -35893   -35702 
  -35658   -35784   -35922   -36036   -36073   -35949   -35837   -35905 
  -36109   -36343   -36402   -36198   -35978   -35981   -36215   -36489 
  -36545   -36467   -36541   -36736   -36890   -36944   -36799   -36529 
  -36344   -36209   -36054   -35943   -35841   -35722   -35743   -35972 
  -36220   -36262   -36157   -36142   -36227   -36288   -36328   -36239 
  -35985   -35853   -35920   -36061   -36248   -36358   -36265   -36093 
  -36069   -36252   -36352   -36189   -36061   -36105   -36207   -36414 
  -36614   -36548   -36336   -36267   -36379   -36545   -36653   -36674 
  -36684   -36656   -36497   -36374   -36397   -36358   -36244   -36240 
  -36238   -36105   -35985   -36005   -36063   -36062   -36113   -36205 
  -36177   -36148   -36189   -36112   -36022   -36072   -36096   -36190 
  -36536   -36837   -36909   -36922   -36855   -36690   -36553   -36460 
  -36499   -36564   -36414   -36363   -36587   -36591   -36267   -36059 
  -36032   -35961   -35907   -36009   -36194   -36288   -36225   -36167 
  -36256   -36439   -36525   -36383   -36216   -36321   -36602   -36763 
  -36705   -36456   -36151   -36049   -36169   -36243   -36182   -36059 
  -35920   -35900   -35995   -36040   -36050   -36076   -36174   -36366 
  -36506   -36618   -36736   -36641   -36420   -36335   -36327   -36350 
  -36439   -36471   -36391   -36331   -36369   -36337   -36084   -35784 
  -35645   -35664   -35768   -35845   -35922   -36097   -36190   -36093 
  -36018   -36043   -36127   -36308   -36452   -36436   -36389   -36385 
  -36378   -36409   -36529   -36625   -36493   -36256   -36266   -36398 
  -36342   -36285   -36373   -36398   -36379   -36404   -36390   -36412 
  -36491   -36414   -36217   -36150   -36224   -36300   -36381   -36516 
  -36510   -36221   -35900   -35712   -35536   -35460   -35665   -35908 
  -35974   -35995   -35978   -35945   -36107   -36397   -36603   -36775 
  -36898   -36856   -36734   -36637   -36628   -36668   -36520   -36248 
  -36136   -36055   -35816   -35559   -35402   -35386   -35542   -35791 
  -35953   -35930   -35876   -35993   -36189   -36360   -36624   -36898 
  -36956   -36954   -37143   -37357   -37327   -37035   -36641   -36458 
  -36641   -36855   -36832   -36720   -36548   -36244   -35955   -35818 
  -35758   -35699   -35718   -35919   -36200   -36262   -36022   -35815 
  -35892   -36158   -36490   -36742   -36715   -36490   -36292   -36143 
  -36074   -36111   -36120   -36058   -35976   -35932   -35978   -36054 
  -36084   -36100   -36236   -36522   -36702   -36747   -36887   -36950 
  -36709   -36324   -35939   -35735   -35881   -36158   -36313   -36374 
  -36394   -36346   -36177   -35966   -35961   -36158   -36297   -36435 
  -36664   -36713   -36551   -36387   -36212   -36130   -36246   -36347 
  -36355   -36387   -36417   -36385   -36333   -36319   -36352   -36401 
  -36367   -36189   -35957   -35876   -35993   -36094   -36092   -36065 
  -35954   -35896   -36078   -36198   -36128   -36136   -36190   -36296 
  -36586   -36759   -36649   -36541   -36482   -36408   -36435   -36444 
  -36283   -36148   -36121   -36069   -35965   -35876   -35860   -35892 
  -36013   -36240   -36297   -36147   -36082   -36117   -36262   -36531 
  -36564   -36289   -36124   -36178   -36246   -36317   -36405   -36377 
  -36180   -36081   -36270   -36382   -36196   -36127   -36300   -36379 
  -36362   -36408   -36440   -36401   -36381   -36432   -36474   -36463 
  -36443   -36439   -36491   -36610   -36683   -36521   -36166   -35993 
  -36132   -36197   -36049   -36047   -36227   -36282   -36250   -36180 
  -35982   -35908   -36094   -36261   -36316   -36346   -36309   -36204 
  -36174   -36329   -36505   -36472   -36378   -36447   -36609   -36693 
  -36602   -36437   -36418   -36498   -36467   -36328   -36198   -36097 
  -35986   -35908   -35874   -35784   -35692   -35716   -35800   -35892 
  -35997   -36039   -36018   -36086   -36301   -36520   -36606   -36558 
  -36513   -36597   -36699   -36653   -36533   -36486   -36489   -36518 
  -36647   -36760   -36634   -36404   -36350   -36409   -36420   -36433 
  -36454   -36369   -36252   -36209   -36126   -35974   -35789   -35537 
  -35403   -35596   -35926   -36047   -35995   -35996   -36004   -36024 
  -36244   -36495   -36533   -36521   -36517   -36337   -36153   -36188 
  -36266   -36302   -36409   -36556   -36632   -36564   -36413   -36258 
  -36080   -35991   -36092   -36219   -36319   -36448   -36502   -36432 
  -36296   -36167   -36205   -36394   -36585   -36757   -36711   -36369 
  -36180   -36267   -36333   -36379   -36428   -36387   -36360   -36423 
  -36412   -36202   -35964   -35887   -35937   -35999   -35972   -35904 
  -35915   -35918   -35942   -36198   -36508   -36553   -36504   -36625 
  -36767   -36769   -36772   -36830   -36819   -36722   -36576   -36423 
  -36378   -36344   -36194   -36107   -36096   -35996   -35827   -35708 
  -35739   -35793   -35692   -35608   -35673   -35769   -35891   -36067 
  -36246   -36443   -36675   -36859   -36876   -36778   -36729   -36675 
  -36493   -36359   -36352   -36259   -36105   -36059   -36012   -35901 
  -35880   -35982   -36151   -36305   -36387   -36472   -36494   -36439 
  -36579   -36856   -36941   -36906   -36911   -36796   -36521   -36247 
  -35997   -35793   -35675   -35563   -35486   -35475   -35422   -35333 
  -35307   -35411   -35716   -36100   -36342   -36429   -36425   -36456 
  -36656   -36759   -36686   -36828   -37115   -37210   -37185   -37010 
  -36661   -36406   -36219   -35984   -35881   -35934   -35916   -35768 
  -35635   -35640   -35764   -35896   -35978   -36092   -36304   -36545 
  -36691   -36769   -36877   -36942   -36801   -36541   -36405   -36381 
  -36370   -36432   -36499   -36454   -36335   -36213   -36162   -36227 
  -36235   -36074   -35923   -35901   -35896   -35888   -36001   -36090 
  -36039   -36126   -36367   -36521   -36614   -36649   -36558   -36455 
  -36423   -36404   -36337   -36261   -36274   -36315   -36220   -36027 
  -35877   -35793   -35796   -35905   -35958   -35880   -35932   -36235 
  -36545   -36698   -36616   -36381   -36394   -36643   -36707   -36636 
  -36606   -36540   -36478   -36444   -36379   -36325   -36225   -36047 
  -35986   -36111   -36236   -36225   -36186   -36313   -36435   -36239 
  -35943   -35820   -35769   -35818   -36011   -36174   -36302   -36448 
  -36525   -36594   -36661   -36652   -36687   -36682   -36516   -36427 
  -36346   -36040   -35772   -35754   -35791   -35797   -35860   -35951 
  -35932   -35892   -36023   -36059   -35928   -36054   -36323   -36483 
  -36741   -36984   -36945   -36775   -36628   -36477   -36317   -36166 
  -36004   -35910   -36000   -36051   -35827   -35591   -35649   -35858 
  -35950   -35984   -36177   -36443   -36548   -36495   -36429   -36450 
  -36571   -36670   -36634   -36575   -36597   -36522   -36323   -36282 
  -36321   -36174   -36062   -36177   -36246   -36142   -36073   -36066 
  -36015   -36101   -36425   -36691   -36722   -36705   -36774   -36852 
  -36805   -36633   -36464   -36332   -36266   -36261   -36189   -36097 
  -36113   -36147   -36146   -36247   -36475   -36661   -36722   -36702 
  -36603   -36455   -36306   -36170   -36127   -36296   -36483   -36400 
  -36292   -36451   -36630   -36705   -36794   -36676   -36398   -36397 
  -36568   -36690   -36860   -36958   -36942   -36995   -36994   -36775 
  -36477   -36202   -36030   -36109   -36258   -36163   -35939   -35851 
  -35942   -36174   -36456   -36657   -36760   -36864   -36990   -37048 
  -36963   -36738   -36525   -36479   -36510   -36382   -36096   -35949 
  -35943   -35830   -35665   -35505   -35322   -35280   -35407   -35483 
  -35422   -35379   -35473   -35684   -36051   -36510   -36867   -37174 
  -37494   -37604   -37405   -37084   -36760   -36448   -36182   -35997 
  -35892   -35714   -35333   -34963   -34766   -34695   -34889   -35262 
  -35383   -35314   -35407   -35680   -35997   -36289   -36532   -36713 
  -36776   -36660   -36385   -36124   -35928   -35591   -35152   -34933 
  -34881   -34761   -34705   -34735   -34666   -34670   -34865   -35109 
  -35490   -36049   -36601   -37093   -37385   -37295   -37083   -37019 
  -37038   -37038   -37002   -37052   -37212   -37296   -37280   -37243 
  -37103   -36887   -36868   -37146   -37349   -37152   -36865   -36749 
  -36471   -35946   -35561   -35413   -35463   -35907   -36609   -37220 
  -37804   -38365   -38593   -38431   -38055   -37598   -37282   -37314 
  -37520   -37449   -36907   -36105   -35343   -34851   -34641   -34403 
  -33988   -33628   -33556   -33816   -34315   -34842   -35105   -35143 
  -35402   -35999   -36609   -37011   -37129   -37131   -37357   -37774 
  -38090   -38132   -37920   -37594   -37134   -36644   -36541   -36799 
  -36917   -36695   -36297   -35810   -35179   -34479   -33910   -33608 
  -33674   -34169   -34965   -35781   -36451   -37012   -37570   -38048 
  -38195   -38003   -37831   -37860   -37849   -37552   -36971   -36240 
  -35608   -35291   -35193   -35060   -34947   -35109   -35564   -36147 
  -36599   -36644   -36352   -36103   -36101   -36288   -36575   -36892 
  -37102   -37087   -36937   -36967   -37233   -37282   -36822   -36023 
  -35140   -34530   -34403   -34443   -34314   -34080   -34025   -34308 
  -34685   -34828   -34724   -34495   -34331   -34465   -34882   -35478 
  -36369   -37551   -38632   -39383   -39970   -40425   -40736   -41030 
  -41175   -40917   -40165   -38959   -37673   -36602   -35445   -34145 
  -33124   -32362   -31783   -31675   -31969   -32410   -33022   -33762 
  -34658   -35930   -37436   -38620   -39105   -39221   -39521   -39822 
  -39717   -39445   -39217   -38842   -38372   -37918   -37237   -36240 
  -35203   -34366   -33826   -33647   -33920   -34577   -35235   -35573 
  -35541   -35210   -34828   -34715   -34906   -35259   -35753   -36332 
  -36892   -37424   -37847   -38087   -38124   -37843   -37407   -37125 
  -36810   -36308   -35911   -35635   -35247   -34834   -34651   -34767 
  -35066   -35383   -35505   -35398   -35344   -35521   -35916   -36518 
  -37131   -37469   -37565   -37660   -37808   -37809   -37605   -37366 
  -37164   -36979   -36714   -36217   -35694   -35372   -35110   -34952 
  -35114   -35491   -35896   -36088   -35785   -35306   -35082   -34951 
  -34933   -35232   -35654   -36063   -36427   -36682   -36975   -37439 
  -37997   -38508   -38823   -38859   -38588   -37918   -36964   -36088 
  -35545   -35426   -35549   -35623   -35727   -35791   -35426   -34865 
  -34572   -34496   -34715   -35371   -36136   -36805   -37272   -37174 
  -36668   -36374   -36436   -36726   -37233   -37863   -38277   -38034 
  -37147   -36126   -35297   -34680   -34362   -34506   -34951   -35316 
  -35550   -35837   -36189   -36490   -36618   -36738   -37176   -37685 
  -37659   -37052   -36371   -35968   -35785   -35694   -35835   -36315 
  -36674   -36467   -36011   -35734   -35544   -35345   -35364   -35725 
  -36243   -36583   -36532   -36209   -35745   -35109   -34607   -34597 
  -34894   -35374   -36093   -36664   -36856   -36995   -37131   -37093 
  -37089   -37265   -37494   -37793   -38141   -38202   -37713   -36917 
  -36089   -35224   -34585   -34407   -34334   -34071   -33798   -33790 
  -34126   -34736   -35645   -36698   -37457   -37840   -38010   -37937 
  -37733   -37490   -37091   -36794   -36971   -37427   -37821   -37809 
  -37120   -36140   -35270   -34406   -33918   -34222   -34832   -35351 
  -35878   -36202   -36163   -36173   -36400   -36524   -36560   -36737 
  -37000   -37266   -37400   -37235   -37165   -37565   -38025   -38275 
  -38539   -38664   -38331   -37667   -36841   -35900   -35075   -34612 
  -34385   -34128   -33855   -33701   -33627   -33748   -34350   -35318 
  -36270   -37019   -37559   -37994   -38481   -38865   -38820   -38635 
  -38782   -38974   -38584   -37393   -35677   -34009   -32841   -32313 
  -32422   -32969   -33669   -34381   -34974   -35422   -35777   -35970 
  -36175   -36722   -37521   -38161   -38450   -38578   -38639   -38429 
  -37968   -37579   -37289   -36923   -36599   -36483   -36406   -36166 
  -35976   -36161   -36580   -36980   -37355   -37531   -37295   -36826 
  -36271   -35668   -35295   -35313   -35498   -35626   -35702   -35618 
  -35033   -34219   -34030   -34684   -35849   -37142   -37849   -37706 
  -37324   -37003   -36603   -36274   -36132   -36023   -35851   -35552 
  -34923   -33943   -33169   -33135   -33647   -34322   -34936   -35361 
  -35785   -36275   -36640   -36934   -37285   -37696   -38252   -38755 
  -38773   -38392   -37897   -37255   -36622   -36121   -35515   -34973 
  -34855   -34969   -35108   -35322   -35442   -35236   -34973   -35202 
  -35881   -36629   -37485   -38350   -38780   -38804   -38672   -38331 
  -37920   -37608   -37188   -36559   -35924   -35480   -35266   -35141 
  -35031   -34913   -34763   -34816   -35306   -36073   -36798   -37150 
  -37107   -37081   -37093   -36838   -36428   -36136   -36078   -36146 
  -36030   -35595   -35005   -34574   -34562   -34855   -35203   -35556 
  -35991   -36479   -36828   -37092   -37427   -37565   -37511   -37714 
  -37833   -37309   -36732   -36667   -36663   -36464   -36381   -36374 
  -36347   -36701   -37368   -37552   -37207   -36927   -36583   -35942 
  -35433   -35141   -34813   -34557   -34312   -33886   -33536   -33693 
  -34377   -35183   -36007   -36952   -37525   -37721   -38394   -39224 
  -39276   -38967   -38794   -38514   -38248   -38078   -37504   -36302 
  -35031   -34279   -33813   -33432   -33554   -34013   -34317   -34878 
  -35911   -36683   -36933   -36891   -36684   -36863   -37619   -38091 
  -37845   -37320   -36765   -36351   -36269   -36320   -36223   -35903 
  -35586   -35680   -36150   -36567   -36674   -36405   -35923   -35592 
  -35571   -35764   -36019   -36217   -36347   -36404   -36396   -36333 
  -36194   -36178   -36433   -36748   -37069   -37359   -37152   -36421 
  -35856   -35692   -35676   -35652   -35432   -35068   -34823   -34673 
  -34539   -34503   -34545   -34527   -34541   -34985   -35907   -36779 
  -37390   -37801   -37883   -37957   -38292   -38407   -38188   -37987 
  -37687   -37251   -36975   -36664   -36043   -35457   -35299   -35514 
  -35695   -35553   -35297   -35181   -35284   -35662   -36111   -36428 
  -36687   -36791   -36618   -36315   -36082   -35976   -35815   -35792 
  -36346   -37062   -37412   -37521   -37327   -36752   -36155   -35721 
  -35511   -35718   -36120   -36192   -35928   -35689   -35479   -35202 
  -35131   -35390   -35669   -35862   -36070   -36335   -36721   -37025 
  -37053   -37258   -37837   -38159   -37874   -37341   -36813   -36290 
  -35989   -36066   -36263   -36408   -36502   -36351   -36008   -35991 
  -36292   -36319   -36159   -36358   -36672   -36664   -36644   -36742 
  -36510   -36009   -35656   -35406   -35403   -35970   -36610   -36828 
  -36837   -36683   -36283   -35845   -35565   -35681   -36208   -36533 
  -36202   -35591   -35135   -34898   -34985   -35299   -35411   -35374 
  -35596   -35877   -35999   -36360   -36823   -36890   -36859   -36873 
  -36471   -35901   -35806   -35954   -35842   -35529   -35310   -35405 
  -35816   -36259   -36433   -36300   -36136   -36254   -36652   -37089 
  -37497   -38072   -38626   -38620   -38148   -37652   -37088   -36405 
