Origin Time       2024/04/02 04:24:00
Lat.              40.133
Long.             141.712
Depth. (km)       71
Mag.              6.0
Station Code      FKSH16
Station Lat.      37.7643
Station Long.     140.3766
Station Height(m) -165
Record Time       2024/04/02 04:25:23
Sampling Freq(Hz) 100Hz
Duration Time(s)  120
Dir.              2
Scale Factor      3923(gal)/8224838
Max. Acc. (gal)   0.485
Last Correction   2024/04/02 04:25:23
Memo.             
[...]
   -8252    -8182    -8086    -8106    -8122    -8093    -8164    -8239 
   -8175    -8133    -8171    -8162    -8158    -8209    -8244    -8293 
   -8341    -8307    -8278    -8311    -8307    -8235    -8164    -8122 
   -8094    -8066    -8056    -8100    -8141    -8151    -8191    -8233 
   -8212    -8214    -8228    -8170    -8128    -8141    -8156    -8222 
   -8305    -8274    -8208    -8208    -8199    -8170    -8164    -8185 
   -8230    -8244    -8213    -8236    -8230    -8140    -8185    -8328 
   -8301    -8245    -8314    -8307    -8224    -8217    -8228    -8213 
   -8240    -8297    -8318    -8302    -8330    -8432    -8482    -8403 
   -8318    -8287    -8245    -8197    -8166    -8145    -8168    -8226 
   -8247    -8232    -8214    -8194    -8182    -8172    -8189    -8237 
   -8243    -8228    -8270    -8287    -8249    -8253    -8253    -8217 
   -8259    -8293    -8172    -8101    -8203    -8245    -8148    -8122 
   -8198    -8198    -8168    -8224    -8212    -8116    -8179    -8295 
   -8236    -8176    -8259    -8306    -8280    -8280    -8278    -8240 
   -8197    -8168    -8181    -8198    -8155    -8124    -8181    -8251 
   -8263    -8240    -8232    -8237    -8239    -8260    -8272    -8194 
   -8108    -8122    -8124    -8062    -8073    -8097    -8043    -8073 
   -8181    -8175    -8144    -8229    -8297    -8271    -8255    -8259 
   -8225    -8178    -8152    -8118    -8102    -8132    -8139    -8121 
   -8158    -8163    -8081    -8051    -8135    -8198    -8203    -8248 
   -8306    -8290    -8274    -8316    -8317    -8239    -8175    -8162 
   -8191    -8240    -8225    -8154    -8140    -8198    -8237    -8218 
   -8187    -8162    -8122    -8102    -8136    -8186    -8220    -8203 
   -8149    -8162    -8199    -8159    -8143    -8189    -8179    -8172 
   -8243    -8320    -8374    -8405    -8367    -8253    -8132    -8055 
   -8013    -8019    -8091    -8156    -8154    -8114    -8068    -8066 
   -8112    -8116    -8106    -8178    -8235    -8221    -8236    -8255 
   -8198    -8106    -8062    -8112    -8208    -8272    -8321    -8338 
   -8306    -8338    -8422    -8386    -8278    -8243    -8230    -8205 
   -8190    -8172    -8176    -8189    -8164    -8174    -8233    -8244 
   -8198    -8172    -8174    -8191    -8217    -8189    -8118    -8089 
   -8090    -8097    -8090    -8067    -8125    -8199    -8162    -8155 
   -8239    -8256    -8256    -8310    -8338    -8351    -8328    -8229 
   -8171    -8189    -8210    -8264    -8280    -8164    -8085    -8135 
   -8128    -8082    -8168    -8236    -8176    -8202    -8257    -8181 
   -8168    -8222    -8152    -8154    -8310    -8372    -8359    -8388 
   -8390    -8386    -8434    -8475    -8465    -8424    -8405    -8445 
   -8480    -8457    -8384    -8282    -8241    -8276    -8264    -8243 
   -8322    -8397    -8398    -8417    -8419    -8356    -8299    -8255 
   -8213    -8208    -8182    -8139    -8168    -8248    -8311    -8326 
   -8299    -8290    -8289    -8255    -8225    -8206    -8190    -8187 
   -8175    -8160    -8176    -8186    -8162    -8144    -8174    -8224 
   -8230    -8199    -8174    -8136    -8082    -8052    -8067    -8112 
   -8152    -8143    -8102    -8118    -8167    -8122    -8010    -7982 
   -8039    -8064    -8062    -8117    -8214    -8276    -8293    -8311 
   -8365    -8395    -8325    -8225    -8190    -8176    -8148    -8154 
   -8208    -8267    -8321    -8348    -8316    -8271    -8248    -8187 
   -8114    -8097    -8105    -8117    -8131    -8121    -8140    -8197 
   -8210    -8209    -8222    -8162    -8062    -8062    -8133    -8186 
   -8213    -8206    -8186    -8190    -8162    -8128    -8182    -8203 
   -8154    -8193    -8230    -8145    -8132    -8224    -8199    -8110 
   -8158    -8237    -8252    -8299    -8314    -8206    -8151    -8214 
   -8229    -8179    -8118    -8046    -8037    -8104    -8151    -8189 
   -8229    -8221    -8222    -8278    -8291    -8233    -8189    -8179 
   -8167    -8156    -8166    -8171    -8118    -8059    -8079    -8127 
   -8118    -8109    -8147    -8189    -8235    -8294    -8274    -8171 
   -8122    -8122    -8104    -8112    -8154    -8166    -8185    -8239 
   -8264    -8233    -8156    -8071    -8064    -8117    -8125    -8131 
   -8187    -8229    -8237    -8266    -8299    -8293    -8274    -8270 
   -8243    -8212    -8229    -8274    -8324    -8359    -8361    -8386 
   -8406    -8328    -8275    -8328    -8290    -8170    -8154    -8167 
   -8140    -8178    -8224    -8197    -8199    -8262    -8301    -8306 
   -8280    -8245    -8262    -8291    -8280    -8275    -8307    -8372 
   -8424    -8421    -8434    -8461    -8379    -8282    -8313    -8343 
   -8284    -8241    -8217    -8172    -8151    -8133    -8125    -8186 
   -8237    -8225    -8232    -8266    -8289    -8289    -8240    -8187 
   -8158    -8117    -8135    -8216    -8185    -8104    -8182    -8266 
   -8187    -8175    -8286    -8297    -8249    -8284    -8317    -8310 
   -8332    -8355    -8337    -8274    -8190    -8143    -8137    -8128 
   -8156    -8235    -8209    -8068    -8005    -8010    -7977    -7981 
   -8059    -8112    -8143    -8197    -8199    -8167    -8203    -8235 
   -8193    -8176    -8195    -8226    -8282    -8272    -8189    -8127 
   -8056    -7989    -7994    -7993    -7985    -8064    -8140    -8155 
   -8181    -8172    -8122    -8100    -8059    -8032    -8093    -8093 
   -7998    -8017    -8112    -8100    -8060    -8081    -8120    -8194 
   -8259    -8263    -8289    -8311    -8255    -8259    -8370    -8394 
   -8330    -8357    -8401    -8316    -8249    -8330    -8444    -8484 
   -8459    -8405    -8360    -8325    -8287    -8257    -8229    -8170 
   -8101    -8097    -8139    -8112    -8048    -8060    -8079    -8020 
   -7985    -8028    -8052    -8036    -8048    -8085    -8101    -8086 
   -8059    -8039    -8029    -8070    -8149    -8205    -8278    -8386 
   -8409    -8359    -8341    -8317    -8268    -8252    -8239    -8220 
   -8251    -8301    -8314    -8298    -8255    -8212    -8199    -8194 
   -8178    -8168    -8155    -8147    -8151    -8139    -8167    -8243 
   -8226    -8194    -8314    -8429    -8401    -8387    -8382    -8297 
   -8305    -8386    -8322    -8264    -8356    -8376    -8286    -8247 
   -8253    -8278    -8295    -8262    -8236    -8267    -8287    -8252 
   -8218    -8206    -8194    -8186    -8151    -8110    -8174    -8263 
   -8255    -8264    -8314    -8274    -8262    -8390    -8465    -8415 
   -8398    -8445    -8473    -8453    -8401    -8364    -8340    -8321 
   -8365    -8415    -8379    -8311    -8268    -8249    -8240    -8203 
   -8166    -8168    -8172    -8171    -8143    -8068    -8019    -8008 
   -8002    -7998    -7966    -7969    -8055    -8074    -8005    -7985 
   -7978    -7923    -7908    -7963    -7989    -7950    -7948    -8006 
   -8016    -7993    -7996    -7966    -7971    -8054    -8064    -8046 
   -8122    -8172    -8135    -8104    -8086    -8082    -8086    -8086 
   -8144    -8203    -8159    -8125    -8155    -8137    -8125    -8162 
   -8158    -8139    -8155    -8217    -8316    -8332    -8244    -8210 
   -8235    -8260    -8330    -8353    -8289    -8309    -8405    -8428 
   -8390    -8329    -8245    -8209    -8236    -8236    -8244    -8348 
   -8405    -8349    -8347    -8368    -8305    -8256    -8240    -8189 
   -8174    -8213    -8236    -8232    -8205    -8193    -8241    -8276 
   -8247    -8255    -8297    -8260    -8193    -8197    -8243    -8249 
   -8194    -8171    -8193    -8124    -8090    -8272    -8398    -8298 
   -8237    -8267    -8235    -8208    -8226    -8245    -8293    -8330 
   -8322    -8352    -8401    -8386    -8351    -8310    -8279    -8343 
   -8430    -8405    -8353    -8375    -8415    -8460    -8509    -8483 
   -8419    -8410    -8395    -8371    -8409    -8392    -8282    -8218 
   -8228    -8268    -8291    -8247    -8266    -8353    -8268    -8122 
   -8186    -8272    -8208    -8181    -8221    -8168    -8086    -8044 
   -7977    -7942    -8006    -8074    -8095    -8120    -8143    -8166 
   -8228    -8274    -8268    -8262    -8230    -8149    -8106    -8060 
   -7917    -7790    -7784    -7843    -7920    -7992    -8040    -8082 
   -8100    -8120    -8189    -8206    -8171    -8225    -8284    -8194 
   -8095    -8108    -8059    -7935    -7913    -7929    -7882    -7875 
   -7942    -8010    -8075    -8117    -8122    -8140    -8158    -8136 
   -8140    -8178    -8145    -8137    -8233    -8244    -8172    -8240 
   -8332    -8244    -8159    -8209    -8233    -8202    -8212    -8225 
   -8226    -8251    -8289    -8313    -8279    -8222    -8237    -8249 
   -8222    -8268    -8301    -8217    -8175    -8152    -8052    -8051 
   -8128    -8125    -8175    -8244    -8187    -8212    -8337    -8305 
   -8213    -8237    -8235    -8209    -8293    -8349    -8332    -8363 
   -8368    -8329    -8378    -8424    -8413    -8461    -8467    -8343 
   -8268    -8301    -8356    -8417    -8426    -8348    -8283    -8289 
   -8280    -8202    -8156    -8224    -8310    -8341    -8349    -8343 
   -8320    -8307    -8278    -8243    -8268    -8318    -8322    -8309 
   -8295    -8295    -8340    -8365    -8318    -8260    -8232    -8232 
   -8268    -8289    -8248    -8189    -8137    -8101    -8101    -8067 
   -7973    -7956    -7987    -7951    -7966    -8052    -8070    -8058 
   -8071    -8070    -8118    -8210    -8237    -8233    -8229    -8164 
   -8110    -8124    -8144    -8170    -8197    -8182    -8181    -8181 
   -8093    -8056    -8164    -8229    -8197    -8160    -8054    -7908 
   -7900    -7996    -8081    -8160    -8178    -8120    -8137    -8156 
   -8027    -7974    -8094    -8132    -8086    -8125    -8158    -8120 
   -8106    -8108    -8090    -8109    -8125    -8125    -8194    -8303 
   -8410    -8506    -8513    -8453    -8414    -8363    -8310    -8338 
   -8372    -8330    -8316    -8336    -8271    -8182    -8194    -8240 
   -8229    -8199    -8163    -8125    -8131    -8152    -8163    -8220 
   -8305    -8328    -8302    -8303    -8303    -8248    -8210    -8278 
   -8394    -8445    -8410    -8363    -8374    -8368    -8295    -8287 
   -8360    -8333    -8247    -8251    -8259    -8214    -8210    -8213 
   -8220    -8314    -8356    -8237    -8137    -8140    -8152    -8185 
   -8222    -8182    -8155    -8216    -8251    -8221    -8163    -8094 
   -8073    -8066    -8035    -8120    -8260    -8290    -8376    -8499 
   -8379    -8202    -8191    -8129    -8036    -8089    -8116    -8082 
   -8167    -8252    -8260    -8351    -8428    -8353    -8307    -8338 
   -8317    -8325    -8375    -8295    -8194    -8193    -8139    -8071 
   -8086    -8040    -8002    -8090    -8117    -8114    -8252    -8330 
   -8253    -8186    -8104    -8035    -8093    -8160    -8171    -8193 
   -8181    -8163    -8183    -8131    -8074    -8089    -8005    -7902 
   -7966    -8032    -8081    -8226    -8243    -8074    -8043    -8168 
   -8197    -8144    -8148    -8132    -8010    -7979    -8141    -8243 
   -8244    -8332    -8384    -8317    -8325    -8360    -8287    -8267 
   -8317    -8280    -8252    -8321    -8348    -8333    -8394    -8451 
   -8430    -8399    -8353    -8284    -8253    -8232    -8201    -8244 
   -8309    -8282    -8226    -8175    -8063    -7973    -7983    -7986 
   -7966    -8019    -8108    -8143    -8139    -8147    -8112    -7969 
   -7847    -7871    -7906    -7902    -8028    -8218    -8280    -8320 
   -8428    -8471    -8410    -8309    -8202    -8116    -8078    -8081 
   -8051    -7965    -7956    -8035    -8032    -7956    -7967    -8067 
   -8155    -8191    -8210    -8241    -8241    -8226    -8268    -8299 
   -8284    -8299    -8276    -8217    -8251    -8276    -8205    -8186 
   -8198    -8159    -8122    -8000    -7820    -7830    -7929    -7923 
   -7966    -8041    -7970    -7952    -8089    -8114    -8051    -8047 
   -7987    -7950    -8077    -8139    -8089    -8149    -8237    -8222 
   -8244    -8324    -8332    -8284    -8294    -8380    -8473    -8519 
   -8513    -8482    -8461    -8491    -8560    -8594    -8580    -8559 
   -8526    -8507    -8511    -8523    -8573    -8563    -8438    -8398 
   -8484    -8527    -8552    -8604    -8606    -8608    -8662    -8642 
   -8573    -8599    -8656    -8631    -8583    -8561    -8550    -8552 
   -8569    -8564    -8507    -8405    -8309    -8282    -8311    -8307 
   -8225    -8110    -8012    -7983    -8040    -8064    -8036    -8083 
   -8095    -7905    -7743    -7776    -7817    -7838    -7921    -7986 
   -8017    -8052    -8028    -7981    -7985    -7969    -7965    -8054 
   -8101    -8044    -8010    -7978    -7916    -7974    -8132    -8201 
   -8210    -8274    -8320    -8322    -8364    -8409    -8425    -8460 
   -8455    -8361    -8314    -8376    -8418    -8413    -8468    -8573 
   -8669    -8753    -8803    -8772    -8660    -8519    -8471    -8526 
   -8503    -8372    -8279    -8185    -8024    -7935    -7927    -7871 
   -7832    -7844    -7803    -7796    -7908    -7950    -7875    -7846 
   -7881    -7886    -7874    -7905    -7935    -7929    -7956    -7998 
   -7970    -7915    -7906    -7917    -7929    -7962    -8036    -8143 
   -8183    -8147    -8160    -8167    -8093    -8051    -8021    -7947 
   -7967    -8059    -8079    -8117    -8189    -8141    -8121    -8309 
   -8434    -8380    -8386    -8433    -8402    -8453    -8676    -8923 
   -9073    -9151    -9225    -9212    -9054    -8915    -8826    -8692 
   -8634    -8671    -8600    -8442    -8318    -8175    -8006    -7892 
   -7850    -7855    -7820    -7751    -7780    -7840    -7870    -7994 
   -8085    -7959    -7834    -7855    -7859    -7796    -7780    -7869 
   -8001    -8064    -8094    -8198    -8240    -8086    -7929    -7889 
   -7851    -7857    -7982    -8090    -8156    -8278    -8348    -8293 
   -8230    -8171    -8097    -8128    -8262    -8345    -8336    -8316 
   -8329    -8298    -8243    -8320    -8433    -8332    -8152    -8124 
   -8125    -8078    -8104    -8147    -8139    -8182    -8239    -8220 
   -8229    -8272    -8276    -8367    -8525    -8548    -8507    -8502 
   -8421    -8316    -8260    -8162    -8128    -8197    -8120    -7923 
   -7789    -7684    -7616    -7636    -7665    -7663    -7627    -7607 
   -7770    -8075    -8343    -8567    -8700    -8650    -8509    -8380 
   -8306    -8317    -8343    -8287    -8193    -8194    -8322    -8442 
   -8465    -8429    -8357    -8284    -8252    -8193    -8094    -8064 
   -8121    -8230    -8380    -8521    -8608    -8608    -8550    -8553 
   -8567    -8475    -8425    -8519    -8573    -8513    -8473    -8457 
   -8348    -8148    -7971    -7875    -7867    -7936    -7992    -8008 
   -8055    -8091    -8027    -7847    -7607    -7473    -7527    -7597 
   -7649    -7776    -7867    -7866    -7843    -7727    -7551    -7429 
   -7338    -7342    -7470    -7526    -7520    -7663    -7869    -8028 
   -8221    -8363    -8382    -8351    -8284    -8237    -8187    -8063 
   -8054    -8162    -8160    -8236    -8453    -8394    -8145    -8136 
   -8154    -8001    -7992    -8112    -8163    -8294    -8495    -8586 
   -8671    -8797    -8819    -8757    -8692    -8626    -8572    -8500 
   -8438    -8479    -8517    -8467    -8482    -8503    -8325    -8136 
   -8187    -8352    -8509    -8611    -8554    -8478    -8494    -8403 
   -8299    -8421    -8527    -8499    -8571    -8614    -8494    -8482 
   -8533    -8352    -8101    -8029    -8041    -8125    -8348    -8517 
   -8506    -8482    -8498    -8471    -8455    -8498    -8500    -8464 
   -8511    -8617    -8676    -8691    -8703    -8745    -8772    -8648 
   -8432    -8372    -8434    -8371    -8197    -8032    -7900    -7863 
   -7917    -7943    -7893    -7828    -7840    -7931    -7959    -7882 
   -7804    -7744    -7755    -7881    -7929    -7896    -7969    -7981 
   -7850    -7879    -8095    -8295    -8419    -8413    -8316    -8252 
   -8195    -8172    -8198    -8090    -7942    -8028    -8187    -8193 
   -8194    -8279    -8326    -8351    -8434    -8498    -8460    -8376 
   -8262    -8090    -8004    -8113    -8266    -8392    -8584    -8731 
   -8750    -8777    -8753    -8542    -8380    -8368    -8237    -8124 
   -8347    -8586    -8581    -8599    -8606    -8424    -8256    -8172 
   -8068    -8019    -8028    -8055    -8128    -8129    -8027    -8012 
   -8073    -8033    -7898    -7859    -8008    -8121    -8077    -8036 
   -7958    -7801    -7832    -7987    -7963    -7927    -8016    -8063 
   -8128    -8241    -8244    -8203    -8166    -8070    -8086    -8206 
   -8233    -8220    -8189    -8091    -8073    -8143    -8135    -8087 
   -8070    -8014    -7974    -8047    -8128    -8063    -7890    -7724 
   -7669    -7784    -7960    -8082    -8245    -8442    -8506    -8492 
   -8537    -8529    -8390    -8218    -8090    -7975    -7813    -7689 
   -7755    -7896    -7948    -7978    -7982    -7902    -7869    -7912 
   -7916    -7924    -7996    -8095    -8282    -8488    -8461    -8267 
   -8195    -8206    -8176    -8239    -8330    -8282    -8229    -8202 
   -8082    -8047    -8174    -8251    -8280    -8352    -8364    -8307 
   -8251    -8220    -8303    -8479    -8538    -8496    -8522    -8530 
   -8383    -8199    -8104    -8063    -8078    -8208    -8390    -8425 
   -8260    -8090    -8028    -8000    -7967    -7966    -8024    -8131 
   -8216    -8244    -8274    -8318    -8280    -8121    -7985    -7973 
   -8039    -8176    -8351    -8471    -8557    -8600    -8523    -8426 
   -8418    -8387    -8264    -8135    -8002    -7875    -7863    -7979 
   -8160    -8355    -8473    -8424    -8221    -8016    -7989    -8132 
   -8235    -8243    -8347    -8541    -8587    -8573    -8721    -8845 
   -8781    -8696    -8631    -8534    -8483    -8418    -8284    -8229 
   -8272    -8320    -8386    -8452    -8436    -8401    -8467    -8590 
   -8626    -8569    -8505    -8460    -8457    -8491    -8405    -8222 
   -8178    -8151    -7939    -7784    -7835    -7862    -7867    -8000 
   -8075    -8014    -7997    -7987    -7975    -8110    -8283    -8326 
   -8284    -8186    -8090    -8085    -8082    -8027    -8014    -8040 
   -7997    -7884    -7839    -7958    -8121    -8158    -8095    -8071 
   -8140    -8220    -8216    -8163    -8159    -8171    -8114    -8037 
   -7997    -7958    -7987    -8100    -8140    -8081    -8009    -7986 
   -8085    -8230    -8264    -8245    -8297    -8306    -8193    -8091 
   -8017    -7908    -7940    -8120    -8152    -8046    -7986    -7981 
   -8035    -8090    -8089    -8158    -8262    -8244    -8191    -8137 
   -8037    -8046    -8154    -8149    -8079    -8006    -7811    -7601 
   -7597    -7730    -7896    -8086    -8216    -8268    -8253    -8131 
   -8082    -8235    -8361    -8403    -8527    -8644    -8631    -8588 
   -8556    -8511    -8541    -8719    -8876    -8803    -8658    -8630 
   -8600    -8513    -8457    -8476    -8588    -8707    -8702    -8633 
   -8583    -8534    -8519    -8488    -8345    -8209    -8208    -8262 
   -8324    -8440    -8526    -8445    -8321    -8374    -8542    -8565 
   -8383    -8193    -8051    -7869    -7807    -8041    -8306    -8355 
   -8316    -8208    -7942    -7765    -7835    -7916    -7900    -7913 
