Origin Time       2024/04/02 04:24:00
Lat.              40.133
Long.             141.712
Depth. (km)       71
Mag.              6.0
Station Code      FKSH05
Station Lat.      37.2544
Station Long.     139.8725
Station Height(m) 390.5
Record Time       2024/04/02 04:25:48
Sampling Freq(Hz) 100Hz
Duration Time(s)  120
Dir.              1
Scale Factor      2942(gal)/8224139
Max. Acc. (gal)   0.381
Last Correction   2024/04/02 04:25:49
Memo.             
[...]
  173205   173222   173215   173222   173221   173211   173233   173248 
  173237   173241   173264   173283   173315   173365   173392   173367 
  173317   173307   173317   173288   173256   173241   173241   173275 
  173302   173307   173335   173367   173369   173358   173334   173314 
  173334   173365   173376   173389   173396   173373   173334   173277 
  173238   173269   173335   173367   173361   173362   173376   173400 
  173462   173534   173554   173545   173564   173604   173620   173585 
  173538   173558   173614   173614   173604   173626   173632   173627 
  173614   173588   173558   173527   173499   173448   173379   173335 
  173331   173346   173371   173395   173411   173415   173412   173410 
  173385   173333   173303   173319   173342   173364   173392   173408 
  173427   173464   173465   173415   173369   173360   173338   173304 
  173296   173295   173276   173257   173252   173268   173295   173311 
  173342   173403   173453   173477   173488   173479   173461   173464 
  173475   173468   173446   173426   173414   173415   173415   173407 
  173407   173410   173418   173425   173414   173400   173412   173433 
  173430   173429   173442   173437   173429   173442   173453   173454 
  173450   173414   173348   173292   173275   173292   173317   173314 
  173286   173253   173240   173261   173315   173352   173344   173327 
  173306   173277   173257   173236   173236   173257   173245   173233 
  173265   173295   173299   173303   173314   173311   173303   173299 
  173292   173304   173349   173415   173479   173503   173483   173452 
  173427   173410   173395   173371   173361   173375   173384   173404 
  173445   173462   173452   173460   173465   173449   173430   173403 
  173375   173375   173387   173404   173437   173484   173527   173526 
  173493   173472   173461   173465   173504   173524   173470   173404 
  173383   173392   173439   173496   173508   173518   173542   173520 
  173462   173426   173425   173450   173488   173531   173553   173526 
  173473   173446   173450   173460   173464   173500   173569   173599 
  173566   173526   173514   173502   173477   173479   173492   173466 
  173408   173365   173341   173344   173380   173403   173403   173418 
  173431   173411   173377   173360   173372   173394   173387   173348 
  173311   173294   173279   173268   173272   173265   173246   173236 
  173223   173219   173222   173184   173115   173053   173006   172987 
  173002   172997   172972   172979   172986   172962   172943   172949 
  172979   173024   173063   173106   173145   173136   173094   173072 
  173037   172998   173025   173086   173134   173205   173277   173281 
  173237   173229   173272   173304   173321   173345   173333   173280 
  173256   173271   173288   173317   173360   173402   173435   173464 
  173483   173470   173433   173400   173376   173350   173333   173344 
  173375   173392   173383   173376   173398   173443   173477   173480 
  173481   173483   173462   173431   173410   173414   173446   173491 
  173551   173619   173659   173650   173608   173568   173535   173529 
  173550   173581   173615   173622   173585   173541   173504   173484 
  173504   173551   173570   173565   173583   173585   173547   173524 
  173537   173535   173500   173475   173469   173439   173407   173400 
  173398   173419   173476   173506   173500   173495   173488   173481 
  173495   173546   173600   173605   173585   173566   173539   173530 
  173527   173499   173475   173465   173446   173435   173458   173475 
  173456   173433   173418   173398   173388   173377   173345   173317 
  173306   173292   173287   173314   173364   173389   173392   173419 
  173479   173527   173520   173481   173464   173462   173453   173460 
  173500   173549   173580   173565   173537   173550   173549   173493 
  173435   173411   173437   173458   173411   173367   173387   173415 
  173421   173422   173419   173421   173426   173414   173410   173441 
  173465   173460   173468   173488   173491   173476   173449   173422 
  173418   173418   173387   173345   173325   173313   173299   173303 
  173331   173357   173373   173394   173408   173415   173442   173499 
  173541   173545   173543   173549   173545   173534   173539   173558 
  173566   173565   173560   173550   173562   173596   173611   173627 
  173692   173769   173800   173776   173740   173735   173728   173686 
  173645   173615   173576   173515   173435   173383   173402   173452 
  173477   173487   173496   173511   173531   173524   173475   173437 
  173435   173392   173292   173213   173187   173173   173136   173113 
  173117   173101   173097   173134   173151   173132   173124   173129 
  173124   173103   173082   173059   173022   172968   172916   172871 
  172840   172839   172860   172886   172914   172918   172898   172883 
  172859   172820   172802   172791   172771   172763   172752   172716 
  172674   172647   172643   172686   172777   172879   172983   173055 
  173091   173163   173249   173295   173344   173404   173464   173542 
  173619   173678   173732   173770   173784   173763   173711   173662 
  173619   173574   173574   173611   173642   173681   173707   173697 
  173693   173708   173722   173735   173743   173740   173739   173743 
  173740   173719   173668   173603   173538   173472   173416   173395 
  173411   173418   173384   173362   173369   173350   173300   173232 
  173160   173132   173153   173188   173221   173254   173298   173331 
  173356   173414   173488   173546   173592   173595   173558   173529 
  173495   173464   173456   173437   173441   173516   173597   173632 
  173635   173612   173597   173637   173692   173711   173708   173697 
  173668   173601   173504   173434   173425   173452   173477   173479 
  173477   173487   173470   173418   173380   173395   173442   173502 
  173546   173558   173558   173529   173449   173379   173329   173275 
  173230   173182   173103   173022   172983   172995   173038   173091 
  173129   173126   173095   173072   173032   172939   172813   172716 
  172677   172700   172755   172789   172791   172802   172812   172791 
  172773   172793   172831   172860   172936   173067   173180   173273 
  173362   173410   173400   173362   173315   173273   173233   173190 
  173160   173175   173230   173291   173331   173358   173369   173364 
  173367   173396   173465   173572   173657   173691   173686   173635 
  173577   173560   173580   173654   173793   173940   174029   174077 
  174136   174189   174220   174255   174287   174298   174279   174251 
  174248   174267   174275   174267   174247   174193   174105   174033 
  173997   173997   174023   174042   174067   174120   174150   174123 
  174050   173971   173880   173726   173566   173461   173356   173272 
  173230   173151   173028   172912   172828   172789   172785   172820 
  172894   172960   172970   172917   172848   172790   172721   172666 
  172624   172569   172525   172504   172501   172548   172617   172682 
  172748   172768   172743   172748   172789   172800   172822   172891 
  172970   173059   173165   173236   173236   173222   173225   173200 
  173168   173192   173236   173245   173241   173250   173306   173407 
  173466   173470   173508   173564   173583   173595   173628   173684 
  173750   173794   173772   173739   173781   173838   173874   173909 
  173902   173889   173907   173915   173897   173826   173695   173558 
  173457   173426   173461   173504   173534   173547   173541   173530 
  173531   173539   173547   173553   173547   173550   173578   173580 
  173549   173550   173589   173643   173693   173704   173707   173727 
  173728   173695   173672   173688   173711   173699   173630   173535 
  173470   173429   173376   173342   173326   173272   173198   173159 
  173140   173117   173130   173167   173190   173199   173211   173211 
  173178   173148   173156   173175   173191   173196   173169   173153 
  173194   173248   173271   173290   173345   173406   173411   173367 
  173299   173214   173111   173006   172956   173002   173097   173188 
  173264   173295   173304   173342   173385   173412   173419   173399 
  173362   173299   173196   173134   173153   173187   173215   173281 
  173348   173375   173403   173430   173433   173427   173429   173460 
  173506   173491   173449   173445   173446   173437   173421   173398 
  173421   173506   173564   173562   173558   173561   173542   173531 
  173572   173620   173646   173676   173695   173672   173618   173539 
  173448   173373   173352   173361   173353   173319   173269   173218 
  173183   173184   173234   173290   173290   173283   173334   173400 
  173422   173437   173496   173570   173622   173659   173709   173759 
  173754   173659   173530   173418   173352   173344   173376   173402 
  173421   173481   173574   173628   173631   173608   173581   173570 
  173578   173580   173572   173570   173570   173568   173572   173557 
  173518   173479   173429   173377   173346   173345   173375   173406 
  173414   173426   173484   173560   173581   173573   173591   173615 
  173608   173562   173462   173346   173291   173292   173296   173264 
  173205   173173   173179   173155   173088   173047   173048   173060 
  173079   173095   173079   173043   173016   172998   172936   172836 
  172797   172840   172890   172908   172885   172836   172802   172800 
  172822   172898   173010   173059   173030   172982   172908   172832 
  172806   172800   172791   172808   172825   172798   172752   172739 
  172768   172833   172879   172889   172930   172975   172982   173011 
  173049   173070   173117   173153   173153   173200   173299   173360 
  173402   173489   173561   173568   173572   173631   173755   173886 
  173955   173969   173969   173981   173992   173978   173944   173905 
  173859   173828   173861   173935   173998   174071   174156   174185 
  174156   174133   174113   174064   173992   173936   173942   173986 
  174037   174074   174070   174043   174037   174023   173958   173869 
  173793   173708   173603   173541   173560   173616   173651   173653 
  173651   173647   173600   173545   173534   173524   173479   173442 
  173452   173469   173457   173445   173434   173369   173256   173157 
  173110   173113   173136   173168   173194   173144   173014   172882 
  172816   172843   172913   172975   173036   173087   173134   173200 
  173252   173253   173252   173283   173331   173360   173368   173392 
  173414   173418   173402   173349   173325   173348   173330   173277 
  173253   173260   173268   173241   173217   173252   173303   173338 
  173354   173315   173232   173168   173161   173207   173254   173277 
  173303   173330   173335   173317   173326   173400   173504   173596 
  173639   173627   173573   173446   173290   173227   173271   173340 
  173365   173318   173249   173198   173132   173033   172968   172991 
  173049   173092   173133   173171   173207   173256   173299   173306 
  173286   173259   173236   173217   173196   173173   173146   173126 
  173140   173178   173209   173241   173302   173361   173400   173454 
  173510   173526   173522   173543   173587   173626   173650   173673 
  173674   173619   173566   173568   173547   173472   173431   173441 
  173425   173391   173399   173454   173543   173619   173651   173705 
  173772   173757   173682   173627   173589   173564   173560   173558 
  173541   173510   173484   173468   173466   173491   173507   173437 
  173281   173159   173121   173119   173097   173047   173022   173053 
  173057   172999   172995   173047   173061   173057   173043   172980 
  172898   172863   172909   173021   173159   173268   173357   173438 
  173468   173476   173526   173568   173562   173546   173554   173615 
  173701   173755   173782   173750   173624   173514   173483   173485 
  173545   173655   173711   173678   173645   173632   173596   173546 
  173530   173535   173535   173549   173576   173596   173597   173556 
  173500   173500   173541   173545   173534   173560   173558   173465 
  173367   173357   173411   173492   173568   173574   173524   173480 
  173435   173416   173460   173468   173392   173318   173287   173292 
  173313   173299   173264   173257   173286   173344   173396   173387 
  173350   173346   173364   173389   173445   173492   173493   173493 
  173508   173496   173477   173479   173492   173512   173531   173542 
  173551   173543   173506   173487   173496   173485   173450   173430 
  173416   173391   173372   173348   173308   173296   173298   173257 
  173209   173178   173141   173128   173164   173209   173222   173214 
  173199   173188   173203   173226   173248   173298   173353   173344 
  173287   173260   173264   173267   173284   173341   173429   173503 
  173522   173512   173508   173492   173473   173479   173462   173377 
  173261   173152   173060   172998   172952   172920   172933   173009 
  173107   173173   173198   173192   173161   173134   173144   173144 
  173090   173016   172964   172945   172941   172939   172930   172947 
  172979   172987   172972   172953   172940   172974   173025   173047 
  173105   173187   173223   173269   173335   173361   173373   173414 
  173462   173530   173623   173693   173718   173751   173823   173871 
  173875   173875   173888   173948   174081   174179   174178   174160 
  174171   174167   174171   174236   174318   174360   174384   174407 
  174433   174453   174414   174309   174178   174040   173932   173889 
  173877   173865   173836   173790   173738   173647   173515   173429 
  173403   173349   173245   173169   173160   173173   173167   173157 
  173144   173098   173051   173051   173084   173121   173121   173052 
  172960   172928   172962   173007   173037   173060   173041   172956 
  172860   172801   172777   172768   172747   172736   172783   172864 
  172914   172922   172928   172953   172978   172974   172972   173029 
  173111   173141   173138   173132   173095   173065   173086   173111 
  173101   173079   173088   173155   173263   173383   173484   173526 
  173489   173410   173326   173272   173281   173308   173307   173311 
  173317   173307   173318   173361   173406   173406   173383   173421 
  173512   173587   173653   173704   173712   173703   173674   173601 
  173514   173443   173395   173394   173458   173519   173518   173511 
  173529   173534   173520   173499   173491   173516   173538   173535 
  173534   173511   173457   173399   173344   173337   173379   173391 
  173377   173360   173319   173292   173284   173260   173237   173256 
  173315   173335   173283   173236   173233   173250   173279   173313 
  173326   173327   173388   173504   173591   173645   173691   173682 
  173635   173605   173600   173612   173623   173601   173553   173523 
  173578   173709   173826   173875   173888   173896   173905   173894 
  173846   173815   173844   173855   173778   173661   173569   173546 
  173605   173668   173642   173584   173574   173545   173476   173449 
  173448   173422   173354   173242   173132   173047   172999   173013 
  173067   173133   173213   173271   173253   173163   173071   173038 
  173044   173017   172967   172957   173010   173091   173156   173209 
  173267   173303   173280   173211   173144   173102   173067   173021 
  172989   173006   173055   173103   173171   173249   173281   173267 
  173248   173256   173277   173284   173292   173291   173253   173234 
  173265   173281   173264   173272   173319   173345   173280   173157 
  173082   173074   173101   173136   173179   173248   173325   173385 
  173454   173518   173543   173533   173530   173570   173615   173591 
  173520   173476   173468   173469   173469   173485   173535   173583 
  173585   173565   173543   173508   173477   173476   173493   173531 
  173572   173574   173584   173669   173766   173816   173881   173978 
  174048   174050   173978   173893   173839   173803   173817   173905 
  173977   173961   173911   173884   173859   173821   173773   173735 
  173732   173730   173716   173697   173642   173565   173546   173564 
  173558   173566   173618   173655   173626   173560   173530   173541 
  173515   173421   173325   173284   173267   173199   173094   173017 
  172972   172956   172963   172959   172936   172910   172883   172906 
  172968   172995   172995   172980   172932   172883   172867   172891 
  172952   173026   173083   173099   173103   173136   173171   173205 
  173260   173291   173267   173240   173252   173300   173353   173360 
  173326   173327   173385   173445   173461   173443   173400   173329 
  173275   173276   173325   173381   173415   173419   173408   173396 
  173384   173361   173330   173299   173273   173279   173321   173365 
  173416   173487   173546   173584   173593   173543   173457   173392 
  173376   173389   173373   173326   173272   173215   173205   173246 
  173250   173206   173196   173214   173198   173141   173097   173142 
  173238   173281   173318   173372   173383   173384   173414   173430 
  173457   173531   173570   173529   173458   173402   173385   173399 
  173412   173435   173487   173554   173581   173542   173503   173506 
  173477   173411   173403   173452   173488   173493   173462   173438 
  173456   173456   173404   173333   173269   173233   173178   173083 
  173038   173059   173061   173059   173071   173067   173072   173099 
  173088   173038   173025   173060   173083   173075   173047   173020 
  173064   173192   173298   173322   173302   173272   173279   173337 
  173404   173464   173518   173556   173578   173615   173684   173734 
  173753   173797   173838   173813   173774   173770   173755   173701 
  173668   173680   173688   173676   173689   173732   173766   173767 
  173740   173696   173634   173589   173616   173682   173708   173681 
  173639   173576   173475   173365   173300   173286   173259   173179 
  173111   173136   173203   173237   173226   173190   173182   173225 
  173257   173277   173321   173337   173315   173326   173385   173442 
  173448   173400   173354   173327   173291   173265   173275   173290 
  173300   173321   173360   173423   173479   173493   173489   173484 
  173464   173450   173481   173526   173556   173593   173630   173623 
  173570   173515   173499   173507   173538   173593   173607   173577 
  173580   173595   173578   173568   173593   173658   173692   173622 
  173530   173508   173535   173576   173627   173665   173666   173634 
  173570   173484   173423   173406   173391   173385   173403   173421 
  173426   173403   173318   173211   173149   173097   173016   172993 
  173060   173092   173041   172989   172948   172902   172891   172913 
  172925   172947   172974   172967   172925   172883   172845   172808 
  172800   172831   172866   172866   172833   172821   172870   172943 
  173025   173122   173213   173272   173286   173298   173348   173375 
  173356   173369   173437   173511   173550   173547   173522   173487 
  173481   173512   173537   173569   173631   173670   173653   173620 
  173618   173618   173604   173634   173686   173680   173654   173674 
  173701   173707   173718   173723   173713   173708   173711   173693 
  173655   173626   173607   173566   173481   173402   173389   173422 
