Origin Time       2024/04/02 04:24:00
Lat.              40.133
Long.             141.712
Depth. (km)       71
Mag.              6.0
Station Code      FKSH06
Station Lat.      37.1723
Station Long.     139.5199
Station Height(m) 471.7
Record Time       2024/04/02 04:25:59
Sampling Freq(Hz) 100Hz
Duration Time(s)  120
Dir.              1
Scale Factor      2942(gal)/8224139
Max. Acc. (gal)   0.198
Last Correction   2024/04/02 04:26:00
Memo.             
[...]
   92601    92595    92595    92596    92589    92585    92584    92580 
   92574    92572    92574    92578    92574    92566    92566    92568 
   92562    92553    92556    92561    92562    92577    92597    92610 
   92614    92614    92607    92608    92610    92608    92607    92603 
   92604    92608    92610    92614    92618    92623    92634    92639 
   92641    92646    92643    92631    92618    92614    92612    92604 
   92593    92593    92596    92592    92588    92585    92577    92580 
   92591    92597    92593    92592    92593    92583    92564    92547 
   92543    92553    92562    92574    92587    92580    92574    92578 
   92576    92577    92583    92581    92577    92578    92574    92560 
   92549    92545    92527    92506    92504    92510    92511    92515 
   92515    92516    92523    92526    92524    92527    92531    92524 
   92512    92504    92497    92495    92507    92522    92529    92537 
   92542    92547    92557    92564    92572    92592    92615    92630 
   92646    92670    92691    92704    92708    92708    92713    92724 
   92739    92755    92769    92780    92780    92776    92777    92773 
   92770    92772    92766    92758    92754    92751    92746    92738 
   92736    92742    92746    92739    92728    92719    92707    92695 
   92685    92672    92655    92639    92623    92599    92580    92570 
   92561    92556    92560    92564    92561    92556    92547    92533 
   92524    92523    92514    92503    92512    92526    92538    92553 
   92562    92566    92565    92562    92560    92556    92554    92549 
   92542    92546    92557    92566    92577    92591    92603    92605 
   92605    92604    92603    92604    92605    92605    92603    92595 
   92592    92592    92589    92600    92614    92620    92623    92627 
   92624    92610    92597    92599    92599    92596    92605    92615 
   92615    92611    92601    92587    92576    92573    92573    92564 
   92556    92556    92554    92554    92561    92553    92535    92527 
   92516    92499    92491    92484    92485    92495    92492    92491 
   92499    92492    92488    92503    92516    92523    92534    92549 
   92557    92556    92554    92551    92546    92550    92562    92578 
   92596    92611    92620    92618    92614    92610    92607    92608 
   92620    92641    92655    92669    92684    92693    92699    92697 
   92693    92697    92700    92696    92692    92692    92691    92685 
   92678    92674    92673    92673    92680    92684    92689    92695 
   92695    92699    92703    92692    92678    92669    92655    92641 
   92627    92615    92614    92618    92619    92624    92631    92628 
   92624    92623    92618    92612    92611    92601    92593    92588 
   92583    92584    92588    92585    92589    92597    92603    92614 
   92620    92622    92626    92626    92619    92616    92614    92605 
   92596    92584    92566    92560    92568    92568    92558    92570 
   92589    92597    92605    92607    92601    92604    92605    92614 
   92624    92619    92623    92631    92632    92641    92653    92659 
   92654    92645    92639    92641    92643    92638    92620    92614 
   92619    92619    92619    92624    92631    92635    92643    92657 
   92666    92669    92670    92666    92661    92657    92651    92650 
   92658    92664    92666    92662    92654    92650    92642    92635 
   92638    92647    92653    92653    92646    92637    92631    92626 
   92611    92599    92599    92597    92589    92584    92583    92587 
   92589    92585    92587    92599    92612    92622    92615    92605 
   92618    92627    92627    92634    92632    92624    92612    92600 
   92595    92591    92589    92593    92600    92611    92626    92632 
   92619    92600    92585    92569    92549    92529    92522    92530 
   92535    92537    92537    92538    92535    92530    92523    92520 
   92524    92534    92542    92545    92537    92529    92527    92524 
   92527    92542    92554    92560    92562    92560    92549    92543 
   92543    92543    92547    92558    92558    92556    92565    92569 
   92568    92578    92588    92595    92607    92616    92624    92637 
   92645    92654    92664    92666    92672    92686    92700    92704 
   92709    92712    92711    92716    92728    92735    92746    92763 
   92769    92767    92762    92753    92742    92727    92713    92701 
   92686    92674    92666    92659    92650    92647    92643    92632 
   92622    92618    92611    92600    92592    92581    92576    92574 
   92572    92576    92580    92577    92577    92578    92574    92578 
   92585    92584    92580    92581    92587    92596    92603    92604 
   92607    92603    92595    92592    92585    92573    92569    92573 
   92569    92564    92564    92554    92547    92547    92535    92524 
   92526    92523    92516    92516    92516    92512    92508    92511 
   92515    92520    92527    92524    92516    92511    92507    92506 
   92507    92514    92523    92527    92533    92539    92547    92556 
   92554    92550    92551    92556    92558    92551    92543    92535 
   92523    92524    92533    92527    92531    92547    92553    92550 
   92560    92576    92587    92591    92599    92612    92618    92618 
   92623    92630    92631    92632    92641    92653    92665    92677 
   92686    92692    92695    92695    92699    92703    92703    92709 
   92720    92724    92724    92728    92735    92736    92727    92723 
   92723    92718    92719    92728    92730    92726    92718    92713 
   92716    92708    92692    92681    92673    92666    92666    92668 
   92668    92672    92672    92654    92642    92643    92635    92623 
   92615    92604    92588    92576    92572    92566    92558    92556 
   92547    92535    92524    92519    92520    92523    92524    92524 
   92518    92512    92514    92512    92507    92514    92526    92535 
   92546    92545    92527    92518    92515    92510    92514    92520 
   92522    92523    92522    92516    92515    92518    92512    92506 
   92504    92506    92511    92520    92531    92542    92556    92564 
   92569    92580    92595    92605    92612    92615    92614    92616 
   92622    92635    92642    92645    92646    92642    92645    92649 
   92643    92649    92661    92662    92666    92673    92677    92681 
   92682    92677    92672    92665    92659    92651    92642    92632 
   92623    92626    92631    92626    92623    92622    92610    92595 
   92584    92581    92584    92577    92565    92564    92568    92572 
   92576    92576    92580    92581    92569    92566    92572    92564 
   92560    92558    92550    92542    92537    92533    92535    92543 
   92546    92539    92539    92553    92572    92589    92600    92616 
   92628    92630    92637    92651    92658    92657    92658    92658 
   92654    92651    92651    92651    92655    92668    92680    92676 
   92674    92684    92688    92684    92684    92692    92700    92701 
   92699    92696    92688    92680    92673    92662    92661    92665 
   92659    92658    92668    92681    92688    92680    92665    92659 
   92665    92672    92680    92682    92681    92676    92664    92657 
   92653    92647    92649    92647    92637    92630    92626    92616 
   92610    92599    92584    92570    92560    92547    92545    92557 
   92565    92562    92558    92551    92542    92537    92534    92531 
   92524    92516    92518    92526    92524    92520    92523    92534 
   92545    92546    92550    92556    92553    92553    92558    92558 
   92558    92565    92570    92574    92576    92578    92587    92593 
   92591    92587    92585    92576    92569    92576    92580    92589 
   92605    92614    92623    92628    92622    92623    92619    92603 
   92599    92596    92584    92581    92584    92584    92588    92593 
   92592    92591    92593    92592    92589    92589    92592    92589 
   92583    92578    92580    92581    92585    92589    92596    92605 
   92612    92619    92632    92643    92643    92646    92655    92664 
   92662    92668    92681    92689    92693    92699    92712    92727 
   92728    92730    92727    92720    92726    92723    92719    92726 
   92722    92711    92709    92703    92692    92684    92681    92677 
   92668    92657    92649    92638    92624    92612    92601    92593 
   92592    92587    92581    92577    92572    92573    92576    92570 
   92577    92592    92585    92570    92554    92529    92506    92500 
   92500    92496    92489    92488    92484    92480    92476    92469 
   92462    92464    92466    92457    92454    92465    92465    92461 
   92468    92476    92472    92470    92483    92499    92508    92512 
   92510    92507    92506    92500    92500    92497    92492    92493 
   92487    92473    92470    92475    92476    92484    92500    92510 
   92512    92524    92541    92543    92542    92545    92538    92530 
   92535    92545    92554    92566    92578    92595    92614    92632 
   92651    92668    92674    92677    92677    92676    92676    92674 
   92677    92692    92704    92711    92722    92728    92719    92703 
   92697    92696    92693    92696    92699    92697    92701    92707 
   92712    92715    92711    92707    92700    92691    92691    92692 
   92681    92677    92674    92659    92653    92653    92642    92627 
   92614    92599    92588    92574    92560    92556    92553    92551 
   92553    92560    92566    92570    92572    92568    92554    92545 
   92545    92546    92546    92546    92558    92566    92553    92538 
   92535    92538    92537    92534    92531    92539    92554    92568 
   92578    92585    92584    92589    92592    92587    92583    92591 
   92596    92596    92593    92596    92601    92600    92601    92604 
   92600    92596    92589    92577    92577    92585    92589    92596 
   92607    92610    92605    92604    92601    92603    92612    92619 
   92624    92618    92608    92611    92607    92599    92603    92616 
   92630    92639    92642    92646    92651    92653    92653    92646 
   92635    92630    92632    92632    92631    92634    92639    92641 
   92639    92641    92639    92635    92641    92650    92651    92651 
   92659    92665    92665    92668    92678    92693    92703    92708 
   92708    92707    92716    92730    92731    92728    92728    92738 
   92749    92746    92734    92728    92731    92739    92757    92774 
   92778    92780    92780    92772    92763    92755    92750    92755 
   92757    92751    92750    92755    92761    92762    92758    92754 
   92755    92759    92759    92750    92746    92745    92739    92731 
   92727    92726    92724    92724    92718    92700    92689    92680 
   92659    92647    92637    92614    92595    92585    92570    92557 
   92551    92541    92524    92514    92504    92491    92481    92476 
   92473    92473    92472    92475    92479    92477    92484    92489 
   92481    92468    92456    92450    92456    92456    92454    92462 
   92462    92453    92453    92465    92481    92497    92510    92519 
   92527    92534    92531    92523    92531    92550    92561    92573 
   92588    92595    92604    92612    92612    92619    92627    92630 
   92637    92649    92657    92654    92647    92646    92651    92654 
   92653    92649    92638    92626    92619    92614    92600    92588 
   92581    92583    92591    92595    92588    92580    92576    92570 
   92564    92557    92551    92541    92531    92530    92526    92514 
   92507    92507    92506    92507    92510    92507    92503    92500 
   92493    92489    92481    92465    92450    92442    92434    92433 
   92438    92437    92439    92460    92475    92481    92492    92493 
   92492    92503    92519    92539    92556    92561    92561    92561 
   92551    92549    92557    92557    92553    92558    92569    92577 
   92577    92574    92570    92565    92561    92557    92547    92545 
   92545    92539    92542    92553    92558    92557    92554    92557 
   92565    92568    92572    92574    92570    92569    92565    92557 
   92551    92556    92564    92562    92562    92565    92560    92553 
   92553    92558    92565    92576    92588    92587    92588    92597 
   92597    92604    92622    92632    92637    92643    92647    92649 
   92653    92662    92670    92674    92677    92685    92692    92692 
   92701    92713    92718    92722    92722    92719    92724    92715 
   92701    92707    92711    92705    92711    92720    92722    92716 
   92712    92701    92691    92686    92691    92689    92689    92699 
   92707    92705    92699    92688    92681    92678    92676    92677 
   92682    92682    92673    92659    92645    92630    92631    92642 
   92643    92637    92643    92658    92666    92668    92669    92673 
   92670    92674    92689    92696    92695    92701    92707    92704 
   92703    92705    92705    92707    92726    92749    92762    92777 
   92794    92807    92813    92813    92813    92823    92836    92847 
   92861    92877    92888    92892    92890    92884    92877    92866 
   92858    92851    92847    92850    92842    92828    92826    92809 
   92781    92761    92739    92712    92691    92664    92632    92608 
   92584    92551    92516    92481    92448    92412    92376    92346 
   92323    92292    92265    92252    92230    92206    92187    92169 
   92149    92128    92105    92087    92070    92057    92051    92049 
   92053    92060    92063    92065    92075    92083    92094    92110 
   92138    92175    92206    92234    92269    92292    92310    92350 
   92392    92419    92450    92491    92529    92564    92599    92630 
   92658    92691    92722    92743    92763    92785    92803    92820 
   92835    92847    92857    92865    92867    92870    92877    92881 
   92881    92884    92881    92870    92857    92843    92826    92800 
   92777    92761    92742    92718    92703    92688    92669    92659 
   92647    92622    92605    92600    92592    92584    92577    92568 
   92558    92547    92530    92507    92499    92504    92512    92518 
   92530    92545    92558    92576    92592    92601    92616    92642 
   92657    92668    92677    92686    92701    92718    92730    92745 
   92761    92776    92788    92789    92781    92772    92770    92773 
   92777    92780    92770    92759    92755    92753    92745    92735 
   92722    92707    92688    92665    92645    92620    92592    92568 
   92549    92523    92491    92457    92430    92404    92377    92356 
   92348    92342    92333    92327    92325    92314    92302    92298 
   92300    92307    92322    92334    92334    92341    92349    92349 
   92348    92352    92362    92385    92412    92435    92460    92475 
   92476    92480    92492    92502    92510    92523    92534    92539 
   92542    92546    92558    92573    92587    92595    92608    92631 
   92646    92653    92668    92684    92692    92693    92705    92722 
   92730    92732    92728    92712    92703    92712    92723    92728 
   92740    92753    92757    92759    92769    92777    92782    92792 
   92801    92807    92815    92826    92836    92850    92865    92870 
   92870    92862    92855    92851    92850    92848    92843    92834 
   92830    92824    92807    92793    92793    92799    92804    92807 
   92801    92796    92790    92784    92772    92757    92731    92699 
   92672    92647    92620    92597    92574    92551    92534    92520 
   92508    92497    92492    92487    92472    92453    92429    92402 
   92381    92364    92348    92342    92340    92337    92350    92371 
   92387    92404    92426    92442    92452    92466    92492    92522 
   92545    92558    92570    92578    92597    92622    92639    92670 
   92718    92755    92788    92813    92819    92826    92839    92855 
   92871    92874    92881    92901    92920    92931    92939    92940 
   92939    92940    92932    92916    92896    92869    92851    92847 
   92827    92801    92780    92747    92715    92688    92654    92616 
   92592    92574    92550    92526    92507    92487    92464    92437 
   92402    92365    92341    92325    92311    92296    92273    92249 
   92223    92195    92176    92171    92167    92164    92164    92160 
   92157    92152    92146    92142    92145    92149    92156    92173 
   92196    92210    92221    92238    92253    92267    92291    92325 
   92357    92381    92399    92414    92422    92433    92452    92475 
   92500    92529    92546    92556    92574    92601    92614    92620 
   92637    92654    92669    92682    92701    92723    92732    92734 
   92739    92736    92728    92740    92759    92765    92763    92761 
   92769    92788    92796    92790    92786    92793    92811    92832 
   92854    92865    92873    92890    92898    92888    92877    92869 
   92858    92854    92850    92838    92823    92821    92830    92823 
   92812    92815    92823    92828    92824    92808    92788    92772 
   92761    92758    92757    92759    92769    92769    92757    92747 
   92736    92735    92739    92739    92746    92749    92735    92727 
   92724    92718    92713    92713    92709    92709    92712    92704 
   92693    92688    92677    92661    92651    92641    92624    92615 
   92614    92604    92592    92589    92583    92569    92558    92546 
   92535    92526    92506    92484    92464    92442    92426    92423 
   92425    92415    92400    92385    92372    92371    92376    92369 
   92346    92327    92323    92322    92321    92326    92330    92325 
   92323    92327    92331    92338    92352    92375    92399    92421 
   92433    92445    92466    92485    92497    92523    92547    92557 
   92574    92595    92600    92610    92626    92634    92646    92657 
   92664    92684    92705    92713    92727    92746    92757    92769 
   92784    92804    92827    92844    92855    92859    92854    92854 
   92867    92873    92869    92866    92859    92862    92869    92865 
   92854    92848    92840    92827    92813    92813    92826    92839 
   92850    92853    92839    92817    92803    92789    92772    92749 
   92722    92701    92700    92704    92699    92691    92680    92668 
   92654    92631    92616    92619    92623    92618    92605    92597 
   92596    92591    92584    92584    92584    92576    92562    92547 
   92529    92522    92522    92514    92507    92493    92477    92470 
   92460    92449    92441    92422    92399    92380    92360    92338 
   92315    92290    92267    92241    92221    92217    92217    92219 
   92225    92233    92237    92234    92250    92279    92296    92310 
   92313    92306    92307    92313    92315    92325    92341    92364 
   92385    92404    92423    92443    92468    92491    92518    92549 
   92573    92587    92603    92630    92653    92662    92680    92708 
   92723    92728    92734    92735    92732    92728    92731    92742 
   92746    92742    92736    92730    92728    92726    92723    92728 
   92720    92697    92677    92654    92632    92624    92620    92620 
   92623    92623    92627    92637    92637    92634    92632    92622 
   92611    92607    92601    92596    92592    92591    92592    92600 
