Origin Time       2024/04/02 04:24:00
Lat.              40.133
Long.             141.712
Depth. (km)       71
Mag.              6.0
Station Code      FKSH12
Station Lat.      37.2169
Station Long.     140.5703
Station Height(m) 365
Record Time       2024/04/02 04:25:30
Sampling Freq(Hz) 100Hz
Duration Time(s)  120
Dir.              2
Scale Factor      3923(gal)/8224838
Max. Acc. (gal)   0.834
Last Correction   2024/04/02 04:25:30
Memo.             
[...]
  -30033   -30044   -29970   -29909   -29959   -30007   -29983   -29948 
  -29863   -29797   -29899   -30002   -29997   -30034   -30036   -29943 
  -29918   -29883   -29824   -29952   -30067   -29891   -29722   -29813 
  -29953   -29991   -29983   -29922   -29810   -29798   -29887   -29911 
  -29902   -29956   -29991   -29968   -29916   -29830   -29835   -29965 
  -30007   -29956   -29980   -29938   -29764   -29728   -29824   -29895 
  -30049   -30168   -30084   -30057   -30094   -29951   -29863   -29952 
  -29936   -29902   -30044   -30114   -29999   -29945   -29980   -29898 
  -29763   -29812   -29945   -29956   -29974   -30037   -29955   -29872 
  -29968   -29997   -29938   -30042   -30167   -30118   -30042   -30013 
  -30006   -30078   -30144   -30080   -29999   -30024   -30061   -30069 
  -30079   -29987   -29856   -29893   -29955   -29905   -29920   -29947 
  -29867   -29817   -29781   -29728   -29812   -29897   -29863   -29893 
  -29916   -29875   -29953   -29970   -29828   -29829   -29880   -29845 
  -29976   -30106   -30002   -29938   -29882   -29718   -29790   -29999 
  -29971   -29920   -29995   -29948   -29868   -29957   -30032   -29959 
  -29934   -30045   -30068   -29967   -30006   -30110   -30019   -29952 
  -30075   -30094   -29982   -30006   -30033   -29901   -29905   -30140 
  -30219   -30083   -30019   -29975   -29857   -29871   -29988   -29998 
  -29932   -29809   -29639   -29643   -29820   -29905   -29897   -29868 
  -29739   -29658   -29820   -29965   -29903   -29901   -30003   -29951 
  -29887   -29994   -30052   -30033   -30090   -30084   -29972   -29947 
  -30006   -30056   -30125   -30154   -30095   -30090   -30163   -30127 
  -30019   -30007   -30001   -29970   -30056   -30109   -29975   -29944 
  -30092   -30129   -30056   -29995   -29916   -29836   -29776   -29808 
  -29968   -30026   -29924   -29920   -29978   -29921   -29857   -29830 
  -29789   -29794   -29821   -29841   -29922   -29988   -29975   -29965 
  -29938   -29883   -29925   -30036   -30073   -30046   -30009   -29936 
  -29837   -29833   -30001   -30141   -30079   -29964   -29891   -29843 
  -29930   -30064   -30057   -30049   -30079   -29994   -29922   -29953 
  -29897   -29816   -29914   -30029   -29974   -29860   -29801   -29836 
  -29949   -29991   -29913   -29872   -29907   -29901   -29844   -29835 
  -29898   -29959   -29945   -29902   -29934   -30021   -29992   -29853 
  -29851   -29967   -29953   -29934   -30067   -30072   -29913   -29874 
  -29879   -29833   -29864   -29883   -29817   -29820   -29903   -29999 
  -30045   -29960   -29945   -30105   -30134   -30034   -30051   -30072 
  -29983   -29909   -29924   -29999   -30076   -30163   -30223   -30080 
  -29871   -29933   -30079   -30049   -30006   -29976   -29926   -30005 
  -30024   -29859   -29825   -29903   -29867   -29928   -30103   -30040 
  -29849   -29849   -29860   -29785   -29871   -30009   -29956   -29886 
  -29894   -29862   -29857   -29920   -29971   -30032   -30088   -30091 
  -30059   -30029   -30080   -30145   -30083   -30036   -30053   -29998 
  -29944   -29994   -30118   -30215   -30144   -30083   -30157   -30060 
  -29949   -30141   -30165   -29949   -29986   -30028   -29893   -29940 
  -30026   -29975   -29959   -29924   -29909   -29987   -29920   -29859 
  -29982   -29909   -29764   -29901   -29930   -29825   -29941   -29936 
  -29713   -29729   -29845   -29826   -29816   -29755   -29679   -29713 
  -29713   -29791   -29982   -29905   -29762   -29853   -29809   -29697 
  -29868   -29964   -29884   -29949   -29998   -29972   -30010   -29889 
  -29755   -29943   -30051   -29953   -30045   -30076   -29860   -29830 
  -29891   -29744   -29718   -29884   -29944   -29974   -30019   -29944 
  -29862   -29835   -29813   -29911   -30025   -29980   -29961   -29955 
  -29836   -29911   -30181   -30237   -30187   -30241   -30192   -30048 
  -30040   -30087   -30022   -29964   -30065   -30203   -30149   -30053 
  -30198   -30310   -30090   -29921   -29994   -29941   -29855   -30007 
  -30059   -29887   -29868   -29967   -29964   -29999   -30052   -29980 
  -29907   -29910   -29943   -30015   -30015   -29902   -29879   -29948 
  -29947   -29951   -30009   -29992   -29916   -29880   -29862   -29833 
  -29856   -29952   -29956   -29826   -29808   -29878   -29847   -29914 
  -30061   -29940   -29794   -29902   -29930   -29893   -30052   -30092 
  -29898   -29855   -29902   -29883   -30013   -30110   -29936   -29886 
  -30038   -30026   -29976   -29972   -29849   -29884   -30075   -29999 
  -29914   -30024   -29934   -29797   -29911   -29984   -29988   -30069 
  -29979   -29764   -29762   -29914   -30007   -29998   -29891   -29809 
  -29864   -29937   -29965   -29965   -29884   -29863   -29960   -29917 
  -29852   -30006   -30051   -29936   -29994   -30028   -29937   -30029 
  -30136   -30067   -30109   -30213   -30152   -30075   -30065   -30072 
  -30063   -29955   -29916   -30083   -30123   -29994   -30045   -30096 
  -29974   -30014   -30114   -30028   -30038   -30034   -29718   -29562 
  -29717   -29718   -29702   -29874   -29887   -29748   -29735   -29805 
  -29883   -29930   -29887   -29898   -29963   -29921   -29884   -29940 
  -29901   -29810   -29902   -30042   -29987   -29905   -29968   -29945 
  -29820   -29893   -30041   -30009   -29979   -29984   -29870   -29903 
  -30148   -30165   -29998   -30025   -30114   -30065   -30033   -30065 
  -29987   -29808   -29809   -30007   -30095   -30084   -30109   -29995 
  -29843   -29955   -30052   -29938   -29938   -29963   -29832   -29906 
  -30057   -29882   -29794   -29933   -29829   -29798   -30099   -30136 
  -30015   -30153   -30075   -29779   -29907   -30217   -30206   -30086 
  -30030   -29970   -29961   -29997   -29983   -29941   -29940   -29957 
  -29871   -29767   -29852   -29934   -29837   -29808   -29878   -29866 
  -29913   -30044   -30017   -29934   -29983   -30028   -29990   -29963 
  -29986   -30018   -29963   -29871   -29917   -30009   -30010   -30018 
  -30001   -29938   -29987   -30018   -29909   -29901   -29978   -29899 
  -29866   -30013   -29999   -29806   -29795   -29894   -29889   -29957 
  -30041   -29878   -29729   -29786   -29760   -29717   -29929   -30172 
  -30194   -30087   -29890   -29700   -29751   -29965   -30106   -30140 
  -30036   -29835   -29776   -29863   -29920   -29964   -29918   -29739 
  -29704   -29835   -29920   -30033   -30092   -29941   -29886   -29956 
  -29866   -29878   -30076   -30029   -29856   -29859   -29848   -29852 
  -29972   -29964   -29916   -29999   -29957   -29876   -29984   -29980 
  -29901   -30051   -30094   -29909   -29875   -29902   -29847   -29868 
  -29868   -29836   -29951   -30014   -29945   -30002   -30082   -30057 
  -30088   -30092   -29965   -29903   -29918   -29860   -29808   -29887 
  -30010   -30068   -30073   -30045   -30029   -30096   -30132   -30041 
  -30026   -30109   -30159   -30264   -30276   -30057   -30034   -30217 
  -30163   -30119   -30230   -30091   -29957   -30127   -30126   -29960 
  -30026   -30030   -29868   -29890   -29909   -29767   -29748   -29739 
  -29620   -29736   -29964   -29872   -29689   -29678   -29685   -29741 
  -29906   -29984   -29953   -29906   -29848   -29848   -29899   -29884 
  -29894   -29978   -29979   -29967   -30025   -29959   -29878   -30048 
  -30153   -29963   -29847   -29899   -29937   -30037   -30100   -29925 
  -29787   -29886   -29949   -29917   -29986   -30060   -29990   -29899 
  -29890   -29899   -29910   -29934   -29918   -29876   -29891   -29964 
  -30025   -29976   -29830   -29766   -29841   -29961   -30098   -30153 
  -30033   -29918   -29930   -29929   -29922   -30029   -30118   -30107 
  -30138   -30206   -30156   -30006   -29943   -30032   -30129   -30134 
  -30144   -30221   -30299   -30265   -30056   -29822   -29835   -30028 
  -30067   -29952   -29887   -29812   -29720   -29829   -30033   -30072 
  -30034   -29987   -29874   -29883   -30007   -29949   -29801   -29803 
  -29932   -30087   -30107   -29967   -29906   -29916   -29867   -29922 
  -30002   -29907   -29933   -30121   -30021   -29805   -29876   -29976 
  -29938   -29971   -29949   -29802   -29830   -29968   -29922   -29860 
  -29938   -29957   -29920   -29999   -30102   -30113   -30098   -30071 
  -29986   -29959   -30049   -30041   -29875   -29862   -30005   -29937 
  -29821   -29979   -30052   -29926   -29992   -30049   -29851   -29794 
  -29895   -29848   -29825   -29894   -29932   -30025   -30029   -29926 
  -30036   -30102   -29894   -29914   -30099   -29991   -29947   -30087 
  -29944   -29814   -30038   -30103   -29941   -29982   -30025   -29897 
  -29909   -29967   -29818   -29740   -29911   -30019   -29965   -29992 
  -29999   -29798   -29743   -29960   -29922   -29647   -29694   -29897 
  -29835   -29729   -29756   -29771   -29833   -29980   -30011   -29940 
  -29943   -29956   -29878   -29808   -29847   -29932   -29916   -29805 
  -29803   -29878   -29860   -29913   -30051   -30026   -29983   -30009 
  -29844   -29708   -29871   -29997   -30019   -30092   -30007   -29921 
  -30071   -30091   -30015   -30176   -30192   -29998   -30067   -30153 
  -30051   -30136   -30225   -30087   -30110   -30206   -30018   -29913 
  -30094   -30114   -29963   -30009   -30072   -29910   -29836   -29979 
  -30006   -29907   -29905   -29898   -29836   -29867   -29906   -29864 
  -29845   -29817   -29808   -29913   -29960   -29898   -29918   -29938 
  -29937   -30075   -30148   -30049   -30083   -30195   -30176   -30140 
  -30076   -30002   -30073   -30037   -29860   -30011   -30257   -30149 
  -30034   -29987   -29798   -29844   -30057   -29995   -29979   -30075 
  -29941   -29886   -29925   -29739   -29783   -30028   -29882   -29856 
  -30152   -29982   -29744   -30044   -30145   -29975   -30071   -30007 
  -29795   -29940   -30028   -29975   -30145   -30079   -29835   -30030 
  -30114   -29812   -29872   -30051   -29880   -29913   -30118   -30015 
  -29975   -30088   -29933   -29822   -29990   -29961   -29821   -29924 
  -29894   -29654   -29745   -30001   -29925   -29810   -29874   -29845 
  -29851   -29940   -29772   -29654   -29917   -30006   -29802   -29803 
  -29810   -29659   -29771   -29938   -29786   -29733   -29843   -29724 
  -29671   -29848   -29866   -29814   -29828   -29689   -29654   -29793 
  -29697   -29651   -29890   -29917   -29856   -30011   -29916   -29690 
  -29874   -30029   -29874   -29870   -29960   -29899   -29916   -29938 
  -29833   -29849   -29863   -29694   -29693   -29810   -29749   -29783 
  -29895   -29760   -29722   -29901   -29820   -29654   -29770   -29878 
  -29909   -30018   -30018   -29956   -29994   -29918   -29817   -29988 
  -30138   -30096   -30211   -30315   -30129   -30106   -30360   -30396 
  -30326   -30411   -30341   -30169   -30241   -30306   -30219   -30250 
  -30269   -30144   -30083   -30017   -29930   -29967   -29910   -29759 
  -29785   -29798   -29655   -29609   -29668   -29694   -29754   -29793 
  -29689   -29625   -29759   -29824   -29689   -29677   -29814   -29793 
  -29791   -29987   -30029   -29898   -29928   -29998   -29948   -29965 
  -30024   -29953   -29929   -30063   -30122   -30056   -30053   -30078 
  -30064   -30117   -30191   -30241   -30327   -30335   -30252   -30218 
  -30136   -30067   -30237   -30362   -30275   -30353   -30516   -30415 
  -30303   -30343   -30311   -30292   -30338   -30191   -29928   -29835 
  -29871   -29914   -29986   -30079   -30194   -30369   -30491   -30423 
  -30329   -30372   -30370   -30271   -30250   -30264   -30200   -30123 
  -29998   -29818   -29790   -29890   -29855   -29751   -29791   -29768 
  -29531   -29459   -29624   -29616   -29536   -29640   -29621   -29416 
  -29452   -29714   -29876   -29948   -29955   -29772   -29582   -29613 
  -29652   -29540   -29454   -29467   -29547   -29627   -29592   -29594 
  -29698   -29560   -29347   -29519   -29664   -29542   -29762   -30141 
  -30084   -30118   -30443   -30380   -30099   -30117   -30113   -29957 
  -29994   -30144   -30256   -30423   -30512   -30358   -30134   -30042 
  -30036   -30040   -30132   -30272   -30238   -30044   -29971   -30095 
  -30119   -29879   -29689   -29691   -29608   -29556   -29817   -30019 
  -29972   -30090   -30265   -30140   -30010   -30009   -29864   -29803 
  -30057   -30291   -30316   -30246   -30137   -30084   -30092   -30092 
  -30145   -30153   -29957   -29727   -29619   -29624   -29785   -29984 
  -30067   -30107   -30091   -29944   -29775   -29673   -29662   -29758 
  -29876   -29959   -29918   -29690   -29516   -29596   -29809   -30072 
  -30281   -30279   -30252   -30366   -30454   -30495   -30483   -30258 
  -29998   -29922   -29876   -29916   -30169   -30283   -30072   -29907 
  -29959   -29960   -29810   -29735   -29798   -29832   -29894   -30175 
  -30407   -30291   -30175   -30304   -30288   -30076   -30002   -29863 
  -29516   -29478   -29813   -29979   -29953   -29974   -29953   -29868 
  -29716   -29467   -29347   -29455   -29667   -30009   -30358   -30516 
  -30516   -30271   -29781   -29494   -29617   -29934   -30307   -30564 
  -30500   -30195   -29880   -29691   -29621   -29604   -29671   -29829 
  -29922   -30048   -30443   -30753   -30623   -30518   -30557   -30252 
  -29911   -30005   -30045   -29910   -30065   -30288   -30318   -30434 
  -30480   -30240   -30088   -30042   -29894   -29863   -29847   -29673 
  -29808   -30222   -30352   -30420   -30542   -30213   -29833   -29952 
  -29968   -29756   -29825   -29791   -29500   -29548   -29749   -29722 
  -29682   -29490   -29224   -29457   -29813   -29859   -30026   -30010 
  -29373   -28896   -28741   -28327   -28206   -28759   -29250   -29574 
  -29917   -29902   -29709   -29740   -29808   -29898   -30022   -29956 
  -29910   -29984   -29988   -30214   -30558   -30451   -30294   -30345 
  -29959   -29512   -29760   -30125   -30127   -29999   -29701   -29435 
  -29566   -29747   -29727   -29787   -29903   -29832   -29655   -29513 
  -29339   -29161   -29218   -29488   -29731   -29940   -30053   -29879 
  -29627   -29627   -29826   -29975   -29930   -29851   -29982   -30217 
  -30427   -30630   -30657   -30599   -30755   -30869   -30753   -30684 
  -30518   -30123   -29999   -30245   -30430   -30410   -30177   -29916 
  -30010   -30230   -30122   -29903   -29790   -29704   -29868   -30231 
  -30294   -30163   -30150   -30059   -30002   -30231   -30391   -30439 
  -30645   -30534   -29987   -29816   -30034   -30033   -29943   -29907 
  -29795   -29806   -29844   -29678   -29627   -29705   -29629   -29673 
  -29961   -30144   -30096   -29941   -29949   -30195   -30248   -30165 
  -30365   -30478   -30252   -30014   -29759   -29596   -29725   -29701 
  -29535   -29729   -29944   -29963   -30154   -30187   -29771   -29527 
  -29694   -29758   -29560   -29563   -29897   -30064   -30051   -30249 
  -30353   -30218   -30330   -30418   -30082   -29789   -29612   -29367 
  -29470   -29820   -29949   -30028   -30001   -29729   -29682   -29755 
  -29506   -29315   -29304   -29211   -29386   -29797   -29938   -30061 
  -30210   -29949   -29729   -29976   -30217   -30314   -30406   -30252 
  -29961   -29857   -29902   -30169   -30651   -30906   -30680   -30126 
  -29612   -29525   -29763   -29917   -29979   -30057   -29990   -29697 
  -29384   -29307   -29415   -29413   -29447   -29835   -30211   -30144 
  -29903   -29790   -29776   -29837   -29883   -29852   -29876   -29913 
  -29743   -29471   -29370   -29424   -29562   -29783   -29936   -29901 
  -29843   -29929   -30115   -30308   -30396   -30311   -30252   -30468 
  -30732   -30734   -30721   -30798   -30692   -30665   -30869   -30744 
  -30395   -30380   -30404   -30264   -30227   -30082   -29856   -29959 
  -30055   -29880   -29774   -29697   -29589   -29631   -29667   -29598 
  -29415   -29066   -28923   -29025   -28917   -28926   -29388   -29752 
  -29913   -30096   -30024   -29875   -29980   -29891   -29608   -29624 
  -29637   -29471   -29571   -29767   -29790   -29944   -30113   -30044 
  -30029   -30160   -30183   -30051   -29871   -29851   -30055   -30148 
  -29974   -29790   -29689   -29596   -29678   -30040   -30292   -30194 
  -30231   -30542   -30423   -29947   -29948   -30188   -30028   -29929 
  -30219   -30385   -30420   -30584   -30469   -30022   -29795   -29713 
  -29512   -29612   -30100   -30377   -30369   -30389   -30334   -30177 
  -30096   -29994   -29895   -29906   -29830   -29741   -29894   -30038 
  -29955   -29867   -29974   -30198   -30199   -29922   -29821   -29903 
  -29886   -30033   -30379   -30495   -30418   -30292   -30111   -30072 
  -30046   -29806   -29675   -29706   -29695   -29887   -30146   -29997 
  -29766   -29887   -30087   -30141   -30092   -30059   -30160   -30105 
  -29775   -29763   -30038   -29895   -29613   -29744   -29837   -29701 
  -29744   -29837   -29866   -30245   -30796   -30862   -30546   -30424 
  -30555   -30550   -30337   -30219   -30088   -29654   -29386   -29748 
  -30161   -30127   -30113   -30294   -30087   -29559   -29474   -29694 
  -29543   -29397   -29741   -30033   -30090   -30276   -30304   -30028 
  -29868   -29810   -29721   -29686   -29601   -29635   -29883   -29889 
  -29755   -29837   -29736   -29586   -29843   -29851   -29500   -29586 
  -29674   -29415   -29710   -30234   -30019   -29805   -30118   -30094 
  -29687   -29579   -29596   -29563   -29712   -29770   -29577   -29466 
  -29411   -29380   -29590   -29793   -29843   -30003   -30019   -29728 
  -29640   -29768   -29847   -30146   -30504   -30464   -30339   -30350 
  -30303   -30423   -30628   -30573   -30707   -31018   -30785   -30469 
  -30578   -30389   -30094   -30335   -30360   -30063   -30310   -30555 
  -30260   -30167   -30300   -30152   -29938   -29739   -29519   -29614 
  -29872   -29887   -29794   -29775   -29772   -29721   -29613   -29601 
  -29770   -29934   -29914   -29732   -29629   -29744   -29911   -30029 
  -30080   -29934   -29728   -29639   -29516   -29463   -29713   -29968 
  -30006   -30121   -30346   -30333   -30119   -30022   -30014   -29965 
  -29965   -29983   -29920   -29864   -29805   -29589   -29312   -29269 
  -29431   -29448   -29415   -29720   -30024   -29975   -30091   -30327 
  -30102   -29857   -29894   -29722   -29602   -29749   -29641   -29558 
  -29821   -29886   -29832   -29948   -29868   -29759   -29916   -29983 
  -30024   -30206   -30195   -30064   -29947   -29647   -29550   -29876 
  -30024   -29948   -29986   -29875   -29691   -29813   -29871   -29714 
  -29887   -30339   -30649   -30782   -30654   -30329   -30177   -30067 
  -29862   -29933   -30169   -30303   -30522   -30586   -30237   -29948 
  -29798   -29597   -29759   -30140   -30064   -29895   -30126   -30264 
  -30034   -29833   -29839   -29964   -30079   -30034   -30011   -30177 
  -30164   -29940   -30051   -30299   -30126   -29961   -30065   -29875 
  -29659   -29979   -30237   -30091   -29955   -29762   -29681   -30069 
  -30106   -29454   -29173   -29339   -29309   -29486   -29894   -29866 
  -29741   -29961   -29974   -29647   -29536   -29631   -29597   -29628 
  -29980   -30337   -30231   -29710   -29286   -29268   -29490   -29803 
  -30065   -30122   -30179   -30225   -29920   -29706   -29980   -30191 
  -30306   -30508   -30299   -30063   -30343   -30230   -29631   -29593 
  -29820   -29875   -30186   -30307   -30026   -30091   -30218   -30094 
  -30303   -30532   -30485   -30581   -30329   -29801   -29980   -30173 
  -29926   -30211   -30361   -29783   -29727   -29844   -29353   -29377 
