Origin Time       2024/04/02 04:24:00
Lat.              40.133
Long.             141.712
Depth. (km)       71
Mag.              6.0
Station Code      FKSH14
Station Lat.      37.0264
Station Long.     140.9702
Station Height(m) 3
Record Time       2024/04/02 04:25:26
Sampling Freq(Hz) 100Hz
Duration Time(s)  150
Dir.              4
Scale Factor      7845(gal)/8223790
Max. Acc. (gal)   3.610
Last Correction   2024/04/02 04:25:26
Memo.             
[...]
  -13756   -13655   -13633   -13664   -13783   -13948   -14079   -14181 
  -14238   -14242   -14304   -14438   -14499   -14459   -14426   -14415 
  -14393   -14339   -14245   -14157   -14100   -14026   -13969   -14034 
  -14197   -14349   -14492   -14663   -14750   -14690   -14652   -14692 
  -14685   -14686   -14820   -14982   -14993   -14847   -14640   -14384 
  -14115   -13983   -13991   -14000   -14030   -14146   -14295   -14424 
  -14496   -14492   -14473   -14472   -14426   -14338   -14308   -14351 
  -14400   -14420   -14396   -14318   -14206   -14099   -14015   -13957 
  -13975   -14071   -14098   -13969   -13821   -13788   -13878   -14061 
  -14243   -14281   -14168   -13988   -13837   -13764   -13744   -13774 
  -13861   -13887   -13798   -13724   -13753   -13861   -14014   -14199 
  -14400   -14592   -14709   -14709   -14650   -14586   -14493   -14396 
  -14351   -14274   -14092   -13921   -13864   -13869   -13888   -13956 
  -14065   -14122   -14019   -13884   -13923   -14033   -14112   -14296 
  -14519   -14629   -14705   -14760   -14692   -14555   -14477   -14490 
  -14578   -14706   -14796   -14773   -14613   -14351   -14094   -13932 
  -13894   -13967   -14130   -14365   -14571   -14586   -14415   -14235 
  -14158   -14188   -14331   -14508   -14594   -14617   -14673   -14754 
  -14769   -14675   -14602   -14615   -14570   -14445   -14346   -14258 
  -14189   -14200   -14227   -14206   -14145   -14048   -13987   -14056 
  -14206   -14322   -14370   -14389   -14391   -14368   -14388   -14488 
  -14594   -14642   -14600   -14436   -14183   -13917   -13710   -13591 
  -13576   -13651   -13711   -13706   -13703   -13751   -13819   -13900 
  -13994   -14079   -14102   -14041   -13963   -13938   -13967   -14007 
  -14050   -14110   -14202   -14305   -14339   -14265   -14166   -14058 
  -13890   -13760   -13802   -13987   -14246   -14515   -14671   -14696 
  -14728   -14798   -14787   -14681   -14567   -14454   -14293   -14148 
  -14161   -14332   -14493   -14555   -14569   -14569   -14558   -14555 
  -14559   -14513   -14428   -14407   -14416   -14382   -14409   -14509 
  -14557   -14598   -14689   -14697   -14597   -14530   -14516   -14428 
  -14218   -13990   -13872   -13884   -13948   -13953   -13915   -13957 
  -14057   -14122   -14183   -14273   -14353   -14408   -14489   -14578 
  -14557   -14404   -14254   -14185   -14173   -14229   -14376   -14555 
  -14651   -14575   -14362   -14156   -14057   -14025   -14022   -14081 
  -14165   -14185   -14148   -14114   -14098   -14102   -14127   -14177 
  -14280   -14377   -14342   -14192   -14031   -13918   -13883   -13953 
  -14129   -14319   -14442   -14543   -14575   -14472   -14330   -14220 
  -14129   -14091   -14143   -14268   -14392   -14446   -14423   -14337 
  -14204   -14062   -13975   -14007   -14076   -14040   -13936   -13878 
  -13875   -13930   -14062   -14187   -14224   -14241   -14283   -14315 
  -14328   -14319   -14295   -14260   -14164   -14025   -13936   -13910 
  -13887   -13884   -13964   -14075   -14148   -14211   -14308   -14422 
  -14507   -14594   -14720   -14758   -14643   -14531   -14494   -14465 
  -14496   -14616   -14656   -14563   -14527   -14636   -14791   -14908 
  -14958   -14945   -14886   -14767   -14589   -14377   -14143   -13963 
  -13909   -13940   -14002   -14067   -14080   -14022   -13954   -13910 
  -13830   -13724   -13683   -13725   -13817   -13953   -14058   -14072 
  -14084   -14138   -14133   -14050   -14007   -14027   -14034   -14048 
  -14122   -14145   -14079   -14065   -14089   -14085   -14145   -14261 
  -14315   -14288   -14238   -14234   -14254   -14200   -14148   -14245 
  -14449   -14623   -14709   -14715   -14650   -14492   -14269   -14088 
  -14033   -14110   -14276   -14482   -14717   -14924   -14979   -14874 
  -14690   -14462   -14229   -14061   -14030   -14130   -14266   -14407 
  -14577   -14702   -14675   -14517   -14358   -14296   -14260   -14118 
  -13907   -13748   -13641   -13585   -13609   -13614   -13559   -13624 
  -13834   -13969   -13988   -14019   -14065   -14142   -14287   -14380 
  -14377   -14418   -14517   -14559   -14557   -14620   -14715   -14690 
  -14515   -14276   -13979   -13679   -13543   -13599   -13755   -13953 
  -14134   -14243   -14285   -14266   -14245   -14272   -14327   -14381 
  -14419   -14497   -14640   -14708   -14642   -14532   -14396   -14242 
  -14185   -14208   -14162   -14035   -13940   -13896   -13856   -13867 
  -13945   -13995   -14048   -14216   -14420   -14515   -14548   -14640 
  -14760   -14800   -14786   -14771   -14686   -14538   -14423   -14353 
  -14307   -14312   -14377   -14478   -14584   -14655   -14677   -14677 
  -14673   -14639   -14605   -14602   -14593   -14593   -14635   -14655 
  -14602   -14535   -14481   -14392   -14316   -14355   -14461   -14542 
  -14592   -14526   -14231   -13825   -13556   -13509   -13574   -13647 
  -13695   -13657   -13535   -13466   -13494   -13543   -13637   -13818 
  -13979   -14045   -14100   -14210   -14304   -14312   -14258   -14196 
  -14135   -14054   -13929   -13837   -13876   -14034   -14276   -14584 
  -14908   -15168   -15319   -15384   -15387   -15272   -15032   -14748 
  -14489   -14323   -14264   -14223   -14216   -14296   -14341   -14218 
  -14037   -14014   -14160   -14315   -14395   -14401   -14323   -14215 
  -14238   -14467   -14779   -15102   -15445   -15603   -15435   -15160 
  -14918   -14624   -14320   -14127   -14007   -13892   -13807   -13743 
  -13663   -13581   -13539   -13610   -13822   -14060   -14154   -14050 
  -13824   -13640   -13626   -13749   -13896   -13954   -13822   -13528 
  -13263   -13171   -13184   -13221   -13350   -13537   -13641   -13693 
  -13819   -14018   -14211   -14338   -14362   -14293   -14143   -13918 
  -13714   -13698   -13871   -14153   -14542   -14966   -15315   -15554 
  -15641   -15584   -15429   -15132   -14760   -14454   -14237   -14166 
  -14307   -14601   -14941   -15206   -15330   -15333   -15276   -15221 
  -15199   -15234   -15349   -15529   -15716   -15862   -15916   -15795 
  -15485   -15067   -14553   -13933   -13317   -12858   -12636   -12584 
  -12623   -12793   -13063   -13300   -13513   -13770   -13994   -14017 
  -13811   -13571   -13396   -13277   -13339   -13589   -13863   -14150 
  -14405   -14389   -14050   -13653   -13358   -13026   -12588   -12249 
  -12109   -12098   -12301   -12895   -13784   -14677   -15437   -16028 
  -16264   -16055   -15579   -15024   -14538   -14291   -14361   -14673 
  -15049   -15294   -15269   -14897   -14289   -13703   -13270   -13050 
  -13158   -13541   -13926   -14196   -14504   -14837   -15024   -15101 
  -15215   -15422   -15681   -15861   -15873   -15695   -15250   -14647 
  -14193   -14038   -14237   -14775   -15341   -15587   -15394   -14748 
  -13803   -12874   -12264   -12183   -12642   -13424   -14270   -15039 
  -15614   -15819   -15622   -15233   -14843   -14511   -14206   -13868 
  -13656   -13703   -13767   -13694   -13625   -13537   -13355   -13198 
  -13170   -13254   -13355   -13390   -13417   -13477   -13555   -13745 
  -14098   -14555   -15052   -15437   -15531   -15271   -14725   -14107 
  -13518   -12955   -12675   -12874   -13301   -13729   -14160   -14438 
  -14303   -13733   -13027   -12498   -12191   -12155   -12549   -13293 
  -14137   -14995   -15801   -16333   -16472   -16308   -15871   -15167 
  -14343   -13521   -12768   -12241   -12033   -12136   -12588   -13348 
  -14268   -15117   -15596   -15533   -14968   -14081   -13207   -12642 
  -12532   -13008   -14031   -15329   -16541   -17242   -17248   -16754 
  -15903   -14844   -13945   -13475   -13433   -13701   -14150   -14625 
  -14925   -14958   -14843   -14648   -14381   -14193   -14189   -14319 
  -14538   -14775   -14931   -14955   -14878   -14747   -14536   -14234 
  -13861   -13402   -12955   -12702   -12607   -12614   -12831   -13205 
  -13549   -13818   -14031   -14180   -14242   -14216   -14157   -14166 
  -14362   -14831   -15499   -16206   -16812   -17135   -17022   -16474 
  -15615   -14659   -13824   -13315   -13293   -13672   -14139   -14520 
  -14839   -15107   -15272   -15304   -15314   -15507   -15896   -16283 
  -16546   -16629   -16411   -15924   -15384   -14935   -14646   -14536 
  -14430   -14096   -13509   -12830   -12178   -11650   -11470   -11765 
  -12379   -13068   -13691   -14226   -14655   -14917   -15016   -15013 
  -14840   -14442   -13984   -13628   -13311   -13035   -12955   -13068 
  -13327   -13757   -14231   -14582   -14723   -14555   -14072   -13387 
  -12640   -12005   -11703   -11884   -12491   -13327   -14258   -15136 
  -15649   -15641   -15322   -14864   -14264   -13702   -13421   -13374 
  -13416   -13566   -13880   -14323   -14785   -15183   -15431   -15363 
  -14939   -14372   -13819   -13350   -13061   -12918   -12907   -13234 
  -13950   -14841   -15665   -16158   -16198   -15893   -15288   -14430 
  -13536   -12907   -12758   -13062   -13652   -14447   -15242   -15705 
  -15711   -15363   -14889   -14526   -14322   -14197   -14006   -13713 
  -13603   -13817   -14119   -14423   -14760   -15043   -15234   -15407 
  -15576   -15633   -15454   -15080   -14652   -14312   -14195   -14287 
  -14453   -14643   -14831   -14866   -14665   -14295   -13794   -13212 
  -12688   -12380   -12409   -12793   -13440   -14200   -14871   -15315 
  -15525   -15510   -15263   -14827   -14296   -13780   -13379   -13139 
  -13088   -13261   -13593   -13921   -14173   -14386   -14530   -14602 
  -14681   -14666   -14420   -14023   -13632   -13331   -13157   -13088 
  -13131   -13331   -13591   -13765   -13860   -13965   -14118   -14273 
  -14349   -14289   -14139   -14014   -13964   -13926   -13882   -13856 
  -13845   -13867   -13934   -14031   -14175   -14347   -14571   -14949 
  -15333   -15438   -15375   -15408   -15500   -15484   -15299   -14985 
  -14632   -14432   -14573   -15005   -15453   -15665   -15614   -15417 
  -15137   -14894   -14894   -15138   -15415   -15542   -15450   -15145 
  -14659   -14116   -13709   -13455   -13273   -13089   -12833   -12604 
  -12611   -12916   -13527   -14361   -15151   -15688   -15876   -15616 
  -14949   -14073   -13244   -12711   -12614   -12873   -13308   -13841 
  -14407   -14790   -14829   -14566   -14084   -13570   -13328   -13440 
  -13734   -14099   -14492   -14801   -15005   -15217   -15446   -15435 
  -14910   -14022   -13228   -12752   -12617   -12915   -13576   -14295 
  -14827   -15128   -15219   -15086   -14762   -14362   -13933   -13470 
  -13034   -12753   -12779   -13163   -13772   -14445   -15040   -15369 
  -15368   -15209   -15044   -14867   -14697   -14588   -14431   -13972 
  -13130   -12182   -11488   -11217   -11541   -12515   -13772   -14875 
  -15612   -15793   -15342   -14486   -13597   -12891   -12402   -12181 
  -12275   -12622   -13124   -13608   -13853   -13896   -13890   -13838 
  -13791   -13863   -13984   -13990   -13899   -13883   -14040   -14432 
  -15133   -16006   -16758   -17192   -17247   -17000   -16637   -16336 
  -16229   -16274   -16287   -16224   -16093   -15782   -15290   -14778 
  -14368   -14087   -13942   -13979   -14162   -14292   -14283   -14260 
  -14345   -14623   -15086   -15539   -15734   -15511   -14944   -14300 
  -13753   -13362   -13216   -13293   -13456   -13676   -13949   -14161 
  -14234   -14169   -13977   -13709   -13360   -12897   -12440   -12124 
  -12002   -12204   -12754   -13452   -14153   -14809   -15256   -15321 
  -15013   -14484   -13937   -13549   -13435   -13613   -13988   -14434 
  -14850   -15107   -15171   -15102   -14901   -14559   -14169   -13826 
  -13614   -13570   -13672   -13911   -14243   -14566   -14763   -14810 
  -14777   -14674   -14496   -14285   -14065   -13917   -13973   -14233 
  -14501   -14621   -14659   -14754   -14936   -15179   -15376   -15357 
  -15022   -14368   -13513   -12734   -12248   -12056   -12074   -12305 
  -12780   -13355   -13782   -13964   -14073   -14285   -14454   -14423 
  -14334   -14265   -14071   -13768   -13548   -13489   -13525   -13572 
  -13576   -13455   -13232   -13069   -13070   -13271   -13649   -14037 
  -14249   -14266   -14169   -14050   -14021   -14091   -14189   -14289 
  -14342   -14281   -14224   -14303   -14500   -14832   -15240   -15530 
  -15665   -15770   -15919   -16070   -16167   -16289   -16456   -16484 
  -16291   -16002   -15734   -15515   -15363   -15319   -15414   -15543 
  -15611   -15634   -15579   -15330   -14864   -14238   -13556   -12992 
  -12730   -12835   -13176   -13601   -14071   -14489   -14715   -14706 
  -14567   -14470   -14376   -14111   -13772   -13509   -13281   -13163 
  -13317   -13682   -14007   -14057   -13829   -13468   -13051   -12704 
  -12604   -12787   -13219   -13846   -14497   -14944   -15063   -14908 
  -14604   -14133   -13448   -12841   -12680   -12961   -13524   -14287 
  -15091   -15739   -16090   -16073   -15730   -15153   -14466   -13811 
  -13215   -12618   -12098   -11854   -11925   -12102   -12307   -12765 
  -13532   -14350   -15016   -15425   -15537   -15426   -15186   -14874 
  -14582   -14427   -14458   -14640   -14936   -15269   -15531   -15718 
  -15743   -15481   -15086   -14733   -14420   -14219   -14185   -14191 
  -14091   -13848   -13536   -13240   -12989   -12889   -13111   -13660 
  -14369   -15028   -15496   -15666   -15460   -15033   -14696   -14465 
  -14169   -13782   -13304   -12683   -12039   -11699   -11943   -12757 
  -13894   -15074   -16009   -16394   -16143   -15537   -14986   -14681 
  -14590   -14585   -14508   -14322   -14141   -14107   -14347   -14922 
  -15738   -16609   -17366   -17879   -18045   -17848   -17421   -16777 
  -15750   -14482   -13332   -12469   -12008   -12093   -12694   -13549 
  -14284   -14621   -14547   -14188   -13674   -13216   -13054   -13200 
  -13508   -13875   -14143   -14161   -14018   -13937   -14000   -14170 
  -14439   -14727   -14872   -14810   -14546   -14142   -13753   -13432 
  -13068   -12588   -12050   -11573   -11221   -10962   -10800   -10791 
  -11056   -11736   -12798   -14030   -15248   -16289   -16920   -17026 
  -16758   -16286   -15645   -14952   -14396   -14073   -13968   -13927 
  -13783   -13490   -13122   -12872   -12880   -13099   -13489   -14015 
  -14463   -14661   -14656   -14584   -14597   -14844   -15354   -16056 
  -16740   -17170   -17367   -17346   -16980   -16374   -15726   -15060 
  -14435   -13933   -13532   -13216   -12995   -12873   -12889   -13095 
  -13454   -13783   -13921   -13933   -13902   -13763   -13521   -13281 
  -13143   -13228   -13564   -13969   -14215   -14188   -13911   -13467 
  -12919   -12407   -12125   -12090   -12252   -12633   -13116   -13497 
  -13794   -14104   -14378   -14573   -14791   -15120   -15508   -15849 
  -16039   -16070   -16006   -15874   -15634   -15317   -15044   -14863 
  -14692   -14505   -14374   -14343   -14422   -14592   -14789   -14967 
  -15041   -14960   -14863   -14867   -14932   -15017   -15101   -15217 
  -15391   -15531   -15542   -15325   -14793   -14045   -13203   -12297 
  -11461   -10902   -10762   -11111   -11894   -12853   -13672   -14185 
  -14347   -14137   -13697   -13298   -13143   -13292   -13586   -13764 
  -13743   -13594   -13402   -13328   -13524   -13973   -14611   -15331 
  -15863   -15996   -15854   -15653   -15391   -15021   -14634   -14337 
  -14208   -14346   -14750   -15191   -15483   -15624   -15550   -15244 
  -14944   -14832   -14944   -15237   -15508   -15601   -15515   -15244 
  -14883   -14604   -14426   -14280   -14154   -14106   -14226   -14521 
  -14932   -15400   -15826   -16036   -15919   -15549   -15103   -14677 
  -14341   -14172   -14172   -14268   -14369   -14422   -14377   -14214 
  -13980   -13718   -13493   -13389   -13355   -13294   -13138   -12853 
  -12571   -12447   -12486   -12696   -13090   -13595   -14094   -14466 
  -14688   -14773   -14702   -14535   -14339   -14053   -13651   -13274 
  -13100   -13132   -13266   -13460   -13684   -13879   -14062   -14200 
  -14187   -14038   -13888   -13844   -13936   -14096   -14257   -14435 
  -14694   -15032   -15369   -15668   -15819   -15565   -14862   -13992 
  -13155   -12436   -12000   -11951   -12191   -12564   -13000   -13474 
  -13898   -14165   -14230   -14091   -13775   -13381   -13051   -12930 
  -13100   -13537   -14139   -14759   -15277   -15669   -15897   -15874 
  -15630   -15334   -15118   -14994   -14968   -15125   -15499   -15978 
  -16425   -16646   -16394   -15687   -14800   -13914   -13069   -12410 
  -12202   -12505   -13128   -13936   -14789   -15406   -15616   -15527 
  -15334   -15091   -14786   -14470   -14125   -13733   -13404   -13243 
  -13332   -13703   -14296   -14993   -15577   -15797   -15579   -14991 
  -14156   -13300   -12679   -12405   -12455   -12741   -13109   -13436 
  -13645   -13682   -13625   -13663   -13875   -14193   -14469   -14624 
  -14715   -14786   -14877   -15017   -15153   -15184   -15091   -14975 
  -14891   -14762   -14575   -14404   -14230   -14007   -13836   -13883 
  -14149   -14466   -14705   -14816   -14752   -14557   -14312   -14081 
  -13933   -13898   -13945   -14025   -14067   -14011   -13888   -13818 
  -13927   -14215   -14598   -15086   -15603   -15836   -15611   -15087 
  -14499   -14004   -13671   -13474   -13343   -13189   -13024   -12918 
  -12864   -12901   -13124   -13506   -13936   -14350   -14701   -14922 
  -15007   -15020   -15005   -14949   -14825   -14677   -14586   -14581 
  -14666   -14914   -15277   -15507   -15473   -15240   -14829   -14295 
  -13783   -13371   -13076   -12865   -12650   -12374   -12091   -11943 
  -12032   -12299   -12685   -13239   -13886   -14459   -14920   -15233 
  -15363   -15356   -15250   -15093   -14980   -14958   -15009   -15037 
  -14891   -14535   -14042   -13576   -13362   -13447   -13711   -14034 
  -14303   -14446   -14490   -14499   -14516   -14551   -14611   -14728 
  -14909   -15163   -15514   -15927   -16333   -16617   -16610   -16233 
  -15581   -14855   -14243   -13853   -13710   -13753   -13855   -13915 
  -13937   -13992   -14116   -14283   -14496   -14802   -15134   -15337 
  -15342   -15145   -14706   -14096   -13473   -12864   -12307   -11981 
  -11946   -12113   -12452   -12962   -13608   -14311   -14928   -15333 
  -15479   -15377   -15147   -14979   -14970   -15107   -15295   -15385 
  -15315   -15126   -14824   -14418   -13971   -13606   -13477   -13597 
  -13872   -14253   -14631   -14851   -14908   -14843   -14650   -14359 
  -14041   -13744   -13522   -13412   -13386   -13406   -13487   -13618 
  -13733   -13764   -13716   -13651   -13529   -13294   -13058   -12906 
  -12785   -12726   -12835   -13116   -13463   -13845   -14315   -14885 
  -15487   -16019   -16347   -16405   -16297   -16143   -15930   -15665 
  -15472   -15350   -15155   -14856   -14527   -14218   -13990   -13875 
  -13844   -13882   -13994   -14130   -14184   -14133   -14049   -13981 
  -13915   -13842   -13783   -13734   -13662   -13556   -13466   -13439 
  -13477   -13521   -13520   -13421   -13166   -12829   -12544   -12312 
  -12113   -12031   -12123   -12352   -12692   -13138   -13609   -14045 
  -14503   -14951   -15260   -15434   -15527   -15472   -15246   -14953 
  -14682   -14451   -14274   -14142   -14003   -13803   -13599   -13552 
  -13790   -14341   -15134   -16001   -16721   -17154   -17297   -17219 
  -16984   -16663   -16356   -16082   -15711   -15136   -14430   -13736 
  -13127   -12685   -12509   -12518   -12545   -12572   -12600   -12544 
