Origin Time       2024/04/02 04:24:00
Lat.              40.133
Long.             141.712
Depth. (km)       71
Mag.              6.0
Station Code      HDKH05
Station Lat.      42.5977
Station Long.     142.5446
Station Height(m) 205
Record Time       2024/04/02 04:25:45
Sampling Freq(Hz) 100Hz
Duration Time(s)  120
Dir.              2
Scale Factor      3920(gal)/6170801
Max. Acc. (gal)   0.272
Last Correction   2024/04/02 04:25:29
Memo.             
[...]
  -29916   -29912   -29913   -29918   -29911   -29895   -29884   -29868 
  -29847   -29846   -29851   -29847   -29844   -29839   -29828   -29833 
  -29853   -29876   -29905   -29917   -29896   -29877   -29874   -29866 
  -29866   -29883   -29901   -29921   -29927   -29901   -29886   -29896 
  -29892   -29898   -29932   -29955   -29964   -29966   -29953   -29944 
  -29933   -29905   -29898   -29899   -29883   -29896   -29929   -29940 
  -29948   -29945   -29901   -29867   -29870   -29874   -29864   -29833 
  -29791   -29792   -29832   -29862   -29880   -29906   -29940   -29969 
  -29967   -29937   -29896   -29848   -29824   -29837   -29840   -29825 
  -29829   -29845   -29844   -29839   -29843   -29849   -29857   -29862 
  -29853   -29835   -29822   -29823   -29825   -29798   -29754   -29746 
  -29779   -29802   -29810   -29833   -29865   -29889   -29895   -29863 
  -29817   -29810   -29818   -29804   -29799   -29806   -29810   -29839 
  -29889   -29918   -29926   -29940   -29956   -29961   -29954   -29930 
  -29904   -29899   -29906   -29918   -29958   -30004   -29990   -29925 
  -29887   -29902   -29932   -29962   -29987   -29998   -29979   -29928 
  -29891   -29907   -29936   -29951   -29969   -29960   -29899   -29840 
  -29833   -29878   -29945   -29991   -30008   -30009   -29985   -29946 
  -29926   -29931   -29928   -29900   -29864   -29822   -29783   -29788 
  -29856   -29942   -29980   -29970   -29958   -29957   -29949   -29930 
  -29908   -29899   -29913   -29944   -29949   -29901   -29856   -29863 
  -29882   -29887   -29897   -29899   -29888   -29895   -29908   -29900 
  -29879   -29850   -29813   -29809   -29850   -29884   -29871   -29824 
  -29789   -29789   -29798   -29794   -29808   -29852   -29877   -29862 
  -29847   -29841   -29854   -29900   -29930   -29925   -29937   -29961 
  -29967   -29971   -29975   -29965   -29940   -29913   -29919   -29951 
  -29970   -29986   -29991   -29969   -29964   -29962   -29927   -29923 
  -29961   -29978   -29994   -30009   -29957   -29891   -29899   -29934 
  -29949   -29958   -29959   -29955   -29954   -29938   -29907   -29873 
  -29858   -29884   -29922   -29923   -29896   -29885   -29892   -29890 
  -29867   -29819   -29779   -29796   -29863   -29935   -29984   -29982 
  -29938   -29905   -29905   -29907   -29896   -29878   -29867   -29884 
  -29914   -29923   -29907   -29869   -29818   -29805   -29837   -29842 
  -29813   -29814   -29840   -29867   -29906   -29938   -29941   -29935 
  -29909   -29861   -29852   -29899   -29950   -29988   -30002   -29971 
  -29939   -29950   -29972   -29988   -29991   -29951   -29898   -29872 
  -29862   -29883   -29918   -29898   -29863   -29862   -29867   -29893 
  -29938   -29939   -29928   -29954   -29970   -29972   -29966   -29918 
  -29874   -29860   -29838   -29838   -29872   -29885   -29893   -29906 
  -29895   -29900   -29921   -29913   -29896   -29886   -29874   -29864 
  -29853   -29853   -29862   -29857   -29866   -29897   -29908   -29898 
  -29878   -29858   -29875   -29900   -29892   -29891   -29888   -29863 
  -29878   -29910   -29874   -29808   -29782   -29776   -29771   -29781 
  -29796   -29806   -29824   -29857   -29895   -29900   -29855   -29811 
  -29811   -29834   -29864   -29909   -29948   -29953   -29932   -29916 
  -29915   -29913   -29901   -29907   -29932   -29944   -29942   -29934 
  -29906   -29889   -29919   -29946   -29928   -29896   -29876   -29867 
  -29886   -29923   -29933   -29916   -29897   -29889   -29909   -29955 
  -29989   -29993   -29981   -29965   -29947   -29947   -29954   -29918 
  -29852   -29824   -29829   -29842   -29897   -29970   -29993   -29992 
  -30020   -30069   -30083   -30024   -29937   -29888   -29863   -29834 
  -29841   -29882   -29887   -29870   -29883   -29893   -29887   -29916 
  -29975   -30029   -30067   -30076   -30061   -30032   -29992   -29956 
  -29920   -29885   -29864   -29843   -29827   -29816   -29768   -29718 
  -29734   -29783   -29843   -29901   -29922   -29939   -29955   -29926 
  -29913   -29936   -29907   -29840   -29791   -29756   -29762   -29820 
  -29885   -29950   -30006   -30040   -30061   -30051   -30007   -29966 
  -29928   -29865   -29799   -29761   -29745   -29740   -29746   -29743 
  -29726   -29738   -29786   -29834   -29866   -29868   -29839   -29835 
  -29857   -29856   -29853   -29860   -29840   -29817   -29826   -29838 
  -29838   -29845   -29876   -29908   -29902   -29887   -29903   -29920 
  -29920   -29912   -29869   -29799   -29770   -29791   -29826   -29849 
  -29822   -29769   -29757   -29769   -29783   -29830   -29870   -29857 
  -29835   -29826   -29805   -29787   -29781   -29764   -29727   -29688 
  -29666   -29668   -29677   -29678   -29680   -29698   -29736   -29781 
  -29796   -29784   -29783   -29801   -29836   -29883   -29920   -29942 
  -29967   -29997   -30021   -30020   -29997   -29977   -29954   -29924 
  -29904   -29881   -29864   -29881   -29885   -29856   -29829   -29779 
  -29717   -29695   -29680   -29665   -29682   -29701   -29722   -29750 
  -29745   -29765   -29849   -29900   -29909   -29932   -29917   -29866 
  -29848   -29844   -29838   -29847   -29856   -29876   -29923   -29967 
  -29992   -29983   -29950   -29943   -29986   -30054   -30101   -30091 
  -30050   -30018   -29987   -29956   -29945   -29948   -29936   -29877 
  -29807   -29818   -29910   -29999   -30025   -29988   -29927   -29872 
  -29837   -29858   -29903   -29892   -29873   -29916   -29963   -29991 
  -30051   -30090   -30056   -29996   -29947   -29931   -29938   -29918 
  -29896   -29901   -29886   -29879   -29957   -30058   -30112   -30138 
  -30134   -30112   -30124   -30144   -30126   -30098   -30073   -30032 
  -29998   -29988   -29974   -29956   -29950   -29937   -29937   -29955 
  -29923   -29866   -29865   -29878   -29863   -29867   -29898   -29931 
  -29962   -29993   -30035   -30081   -30120   -30169   -30200   -30152 
  -30051   -29973   -29938   -29941   -29961   -29956   -29917   -29879 
  -29846   -29828   -29842   -29875   -29906   -29919   -29897   -29855 
  -29823   -29793   -29746   -29692   -29665   -29667   -29637   -29565 
  -29525   -29545   -29572   -29583   -29595   -29601   -29609   -29662 
  -29743   -29790   -29830   -29903   -29962   -30003   -30061   -30093 
  -30091   -30098   -30095   -30052   -29994   -29935   -29882   -29846 
  -29821   -29777   -29698   -29631   -29632   -29671   -29701   -29743 
  -29791   -29795   -29778   -29782   -29786   -29783   -29791   -29809 
  -29824   -29828   -29820   -29825   -29852   -29883   -29912   -29927 
  -29916   -29900   -29893   -29884   -29879   -29905   -29969   -30039 
  -30070   -30050   -30033   -30042   -30034   -30007   -29990   -29956 
  -29888   -29826   -29791   -29757   -29732   -29736   -29738   -29732 
  -29764   -29819   -29857   -29893   -29906   -29871   -29843   -29847 
  -29846   -29857   -29892   -29909   -29914   -29940   -29970   -30000 
  -30028   -30009   -29944   -29886   -29865   -29879   -29923   -29983 
  -30038   -30052   -29996   -29906   -29845   -29823   -29843   -29899 
  -29941   -29964   -30006   -30046   -30049   -30020   -29985   -29984 
  -30011   -30017   -30003   -29976   -29927   -29878   -29847   -29830 
  -29849   -29907   -29963   -30001   -30028   -30031   -29994   -29947 
  -29920   -29914   -29922   -29934   -29923   -29902   -29897   -29899 
  -29906   -29909   -29900   -29917   -29982   -30051   -30084   -30067 
  -30008   -29937   -29875   -29819   -29780   -29774   -29770   -29733 
  -29691   -29679   -29672   -29671   -29732   -29810   -29826   -29823 
  -29840   -29837   -29828   -29848   -29865   -29840   -29771   -29685 
  -29616   -29588   -29611   -29640   -29648   -29684   -29758   -29813 
  -29848   -29893   -29907   -29859   -29791   -29766   -29798   -29842 
  -29868   -29887   -29907   -29911   -29897   -29886   -29887   -29911 
  -29950   -29967   -29978   -30024   -30064   -30061   -30046   -30018 
  -29967   -29928   -29905   -29876   -29857   -29870   -29928   -30015 
  -30068   -30075   -30074   -30066   -30044   -30015   -29983   -29964 
  -29966   -29969   -29952   -29906   -29852   -29833   -29842   -29846 
  -29847   -29841   -29835   -29866   -29919   -29957   -29986   -30011 
  -30020   -30010   -30000   -29979   -29926   -29883   -29896   -29921 
  -29919   -29913   -29923   -29932   -29938   -29964   -30012   -30064 
  -30104   -30107   -30060   -29991   -29937   -29906   -29884   -29874 
  -29884   -29888   -29877   -29884   -29908   -29925   -29930   -29916 
  -29882   -29851   -29843   -29863   -29892   -29891   -29866   -29852 
  -29837   -29815   -29830   -29887   -29934   -29945   -29928   -29911 
  -29906   -29920   -29963   -30011   -30019   -29988   -29927   -29850 
  -29821   -29845   -29852   -29833   -29833   -29846   -29855   -29888 
  -29936   -29949   -29944   -29956   -29945   -29903   -29889   -29894 
  -29887   -29881   -29886   -29897   -29903   -29895   -29891   -29892 
  -29864   -29812   -29770   -29723   -29661   -29609   -29591   -29616 
  -29663   -29713   -29773   -29819   -29837   -29853   -29851   -29799 
  -29727   -29685   -29682   -29683   -29675   -29671   -29661   -29650 
  -29669   -29708   -29760   -29849   -29918   -29900   -29853   -29846 
  -29843   -29805   -29759   -29743   -29749   -29761   -29805   -29873 
  -29941   -30012   -30061   -30066   -30056   -30016   -29956   -29954 
  -29991   -29985   -29943   -29904   -29870   -29829   -29784   -29749 
  -29736   -29750   -29791   -29828   -29842   -29840   -29831   -29841 
  -29873   -29893   -29881   -29847   -29812   -29804   -29821   -29833 
  -29825   -29804   -29802   -29846   -29931   -30030   -30107   -30141 
  -30138   -30106   -30071   -30079   -30127   -30174   -30198   -30185 
  -30124   -30024   -29915   -29843   -29818   -29803   -29806   -29845 
  -29885   -29899   -29886   -29845   -29795   -29750   -29710   -29700 
  -29739   -29797   -29841   -29871   -29907   -29957   -30010   -30043 
  -30059   -30070   -30070   -30066   -30067   -30061   -30062   -30101 
  -30144   -30137   -30112   -30091   -30038   -29978   -29982   -30034 
  -30064   -30041   -29960   -29845   -29751   -29695   -29672   -29703 
  -29772   -29841   -29918   -30005   -30055   -30058   -30028   -29959 
  -29873   -29825   -29826   -29851   -29879   -29872   -29832   -29820 
  -29856   -29912   -29976   -30028   -30047   -30037   -29985   -29885 
  -29779   -29703   -29650   -29602   -29562   -29553   -29592   -29654 
  -29705   -29751   -29816   -29887   -29955   -30031   -30077   -30049 
  -29977   -29882   -29763   -29686   -29707   -29776   -29833   -29876 
  -29917   -29959   -30001   -30039   -30053   -30028   -29988   -29972 
  -29979   -29979   -29949   -29884   -29828   -29834   -29904   -29999 
  -30098   -30171   -30185   -30148   -30104   -30052   -29981   -29916 
  -29870   -29857   -29897   -29959   -30008   -30042   -30041   -30023 
  -30040   -30069   -30067   -30048   -30015   -29974   -29951   -29948 
  -29960   -29967   -29939   -29903   -29909   -29938   -29952   -29963 
  -29966   -29937   -29889   -29859   -29843   -29818   -29774   -29715 
  -29671   -29663   -29666   -29661   -29650   -29643   -29649   -29681 
  -29743   -29798   -29825   -29846   -29865   -29883   -29896   -29865 
  -29803   -29776   -29777   -29784   -29806   -29817   -29807   -29817 
  -29859   -29922   -29993   -30046   -30060   -30031   -29966   -29913 
  -29896   -29874   -29847   -29836   -29831   -29848   -29897   -29929 
  -29932   -29930   -29904   -29844   -29776   -29716   -29675   -29634 
  -29579   -29539   -29536   -29576   -29675   -29805   -29909   -29982 
  -30046   -30093   -30111   -30109   -30089   -30027   -29939   -29874 
  -29839   -29832   -29867   -29943   -30028   -30092   -30115   -30085 
  -30020   -29960   -29915   -29883   -29873   -29871   -29854   -29821 
  -29793   -29794   -29824   -29859   -29890   -29930   -29967   -29979 
  -29979   -29985   -30000   -30011   -29994   -29939   -29879   -29854 
  -29863   -29878   -29878   -29866   -29868   -29887   -29904   -29936 
  -29975   -29984   -29971   -29960   -29939   -29908   -29883   -29870 
  -29861   -29846   -29831   -29827   -29828   -29844   -29869   -29891 
  -29920   -29944   -29960   -29997   -30029   -30037   -30040   -30030 
  -30012   -29996   -29963   -29915   -29873   -29848   -29855   -29884 
  -29891   -29893   -29923   -29956   -29967   -29947   -29898   -29875 
  -29902   -29925   -29938   -29965   -29980   -29981   -30001   -30041 
  -30080   -30096   -30070   -30012   -29966   -29965   -29989   -30008 
  -30020   -30015   -29984   -29963   -29980   -30012   -30017   -29978 
  -29902   -29827   -29797   -29809   -29828   -29826   -29793   -29755 
  -29738   -29733   -29740   -29773   -29801   -29785   -29747   -29733 
  -29738   -29734   -29738   -29767   -29792   -29797   -29793   -29776 
  -29736   -29689   -29666   -29684   -29720   -29743   -29753   -29759 
  -29754   -29721   -29664   -29601   -29553   -29551   -29601   -29656 
  -29684   -29712   -29760   -29809   -29837   -29851   -29873   -29905 
  -29930   -29936   -29929   -29928   -29938   -29969   -30036   -30087 
  -30066   -30020   -30002   -29993   -29988   -29985   -29960   -29923 
  -29917   -29943   -29965   -29954   -29921   -29903   -29908   -29937 
  -29999   -30067   -30103   -30130   -30158   -30153   -30129   -30102 
  -30036   -29963   -29941   -29950   -29960   -29958   -29935   -29904 
  -29880   -29859   -29844   -29811   -29732   -29634   -29544   -29477 
  -29462   -29490   -29540   -29609   -29677   -29745   -29822   -29878 
  -29907   -29914   -29877   -29831   -29816   -29809   -29806   -29809 
  -29794   -29787   -29795   -29771   -29735   -29724   -29693   -29653 
  -29666   -29693   -29699   -29726   -29770   -29811   -29870   -29929 
  -29952   -29964   -29983   -29995   -30017   -30068   -30127   -30169 
  -30173   -30126   -30048   -29981   -29930   -29874   -29810   -29751 
  -29703   -29670   -29647   -29622   -29599   -29596   -29616   -29646 
  -29691   -29767   -29847   -29908   -29962   -30000   -30000   -29974 
  -29940   -29905   -29897   -29937   -29999   -30046   -30066   -30058 
  -30046   -30060   -30101   -30147   -30164   -30133   -30072   -30031 
  -30021   -30018   -30033   -30059   -30048   -30034   -30064   -30112 
  -30152   -30167   -30138   -30089   -30053   -30014   -29963   -29938 
  -29944   -29935   -29912   -29912   -29929   -29951   -29970   -29976 
  -29988   -30008   -30010   -29997   -29966   -29913   -29872   -29862 
  -29879   -29931   -29987   -30009   -30011   -29988   -29925   -29865 
  -29827   -29807   -29797   -29761   -29711   -29689   -29689   -29708 
  -29737   -29736   -29717   -29717   -29724   -29736   -29766   -29801 
  -29836   -29866   -29884   -29908   -29933   -29938   -29937   -29927 
  -29877   -29807   -29760   -29758   -29816   -29903   -29957   -29973 
  -29977   -29963   -29933   -29917   -29916   -29917   -29915   -29900 
  -29885   -29891   -29921   -29971   -30012   -29997   -29947   -29920 
  -29932   -29975   -30019   -30023   -29999   -29974   -29967   -29999 
  -30051   -30097   -30125   -30114   -30082   -30062   -30029   -29988 
  -29974   -29969   -29960   -29969   -29979   -29982   -29995   -30008 
  -30018   -30032   -30039   -30041   -30033   -29991   -29945   -29920 
  -29889   -29851   -29816   -29774   -29745   -29750   -29774   -29796 
  -29795   -29786   -29796   -29821   -29870   -29925   -29916   -29858 
  -29826   -29818   -29817   -29843   -29881   -29903   -29912   -29907 
  -29893   -29869   -29834   -29814   -29801   -29770   -29733   -29716 
  -29720   -29730   -29730   -29740   -29770   -29795   -29823   -29864 
  -29894   -29907   -29923   -29945   -29951   -29942   -29941   -29968 
  -30018   -30071   -30098   -30079   -30033   -29983   -29943   -29937 
  -29963   -29983   -29984   -29973   -29949   -29911   -29864   -29837 
  -29835   -29830   -29817   -29791   -29756   -29743   -29752   -29769 
  -29792   -29811   -29812   -29799   -29779   -29772   -29784   -29783 
  -29765   -29766   -29786   -29806   -29830   -29843   -29827   -29788 
  -29728   -29669   -29644   -29634   -29620   -29617   -29616   -29620 
  -29650   -29692   -29730   -29779   -29838   -29891   -29940   -29989 
  -30015   -29998   -29951   -29914   -29901   -29890   -29882   -29901 
  -29932   -29951   -29965   -29984   -30007   -30039   -30065   -30071 
  -30053   -30012   -29975   -29966   -29962   -29936   -29900   -29864 
  -29837   -29829   -29840   -29859   -29868   -29851   -29823   -29814 
  -29816   -29807   -29810   -29830   -29836   -29832   -29820   -29785 
  -29754   -29752   -29766   -29788   -29813   -29840   -29892   -29968 
  -30023   -30054   -30079   -30086   -30070   -30051   -30030   -30004 
  -29988   -29962   -29899   -29827   -29773   -29750   -29762   -29767 
  -29751   -29753   -29762   -29755   -29752   -29751   -29748   -29755 
  -29756   -29738   -29722   -29725   -29752   -29789   -29798   -29772 
  -29753   -29759   -29780   -29807   -29835   -29851   -29850   -29853 
  -29877   -29899   -29914   -29942   -29970   -29989   -30020   -30044 
  -30032   -30010   -29990   -29961   -29944   -29945   -29955   -29979 
  -30010   -30035   -30051   -30058   -30057   -30043   -30011   -29973 
  -29949   -29941   -29929   -29909   -29897   -29901   -29919   -29931 
  -29920   -29905   -29913   -29931   -29939   -29940   -29924   -29885 
  -29855   -29850   -29851   -29859   -29876   -29893   -29903   -29906 
  -29918   -29940   -29948   -29943   -29940   -29921   -29890   -29874 
  -29870   -29864   -29848   -29824   -29787   -29748   -29722   -29705 
  -29697   -29704   -29713   -29729   -29771   -29831   -29877   -29904 
  -29929   -29945   -29942   -29933   -29926   -29921   -29906   -29871 
  -29833   -29809   -29803   -29818   -29837   -29845   -29875   -29933 
  -29990   -30030   -30052   -30050   -30037   -30013   -29987   -29986 
  -29999   -29999   -29992   -29978   -29970   -29990   -30019   -30040 
  -30064   -30076   -30059   -30036   -30014   -29990   -29978   -29972 
  -29951   -29930   -29922   -29913   -29913   -29930   -29927   -29896 
  -29873   -29865   -29859   -29858   -29843   -29816   -29795   -29756 
  -29695   -29656   -29634   -29610   -29615   -29637   -29645   -29651 
  -29656   -29670   -29717   -29770   -29813   -29865   -29912   -29932 
  -29936   -29933   -29929   -29921   -29899   -29883   -29891   -29907 
  -29939   -29997   -30039   -30049   -30040   -30004   -29971   -29978 
  -30007   -30028   -30031   -30015   -29999   -29989   -29975   -29961 
  -29946   -29931   -29916   -29890   -29862   -29851   -29842   -29825 
  -29813   -29810   -29820   -29833   -29837   -29857   -29895   -29919 
  -29928   -29929   -29902   -29869   -29859   -29858   -29855   -29854 
  -29864   -29872   -29875   -29885   -29892   -29885   -29871   -29854 
  -29829   -29801   -29783   -29762   -29733   -29720   -29725   -29734 
  -29760   -29796   -29822   -29855   -29902   -29948   -29983   -30004 
  -30016   -30027   -30029   -30010   -29980   -29953   -29930   -29922 
  -29932   -29935   -29931   -29942   -29961   -29986   -30022   -30038 
  -30016   -29985   -29960   -29933   -29901   -29875   -29857   -29831 
  -29792   -29752   -29725   -29721   -29735   -29744   -29755   -29786 
  -29812   -29805   -29783   -29774   -29777   -29780   -29786   -29797 
