Origin Time       2024/04/02 04:24:00
Lat.              40.133
Long.             141.712
Depth. (km)       71
Mag.              6.0
Station Code      HDKH05
Station Lat.      42.5977
Station Long.     142.5446
Station Height(m) 205
Record Time       2024/04/02 04:25:45
Sampling Freq(Hz) 100Hz
Duration Time(s)  120
Dir.              3
Scale Factor      3920(gal)/6170801
Max. Acc. (gal)   0.267
Last Correction   2024/04/02 04:25:29
Memo.             
[...]
   12360    12357    12349    12359    12381    12393    12389    12385 
   12381    12376    12369    12361    12363    12375    12375    12355 
   12330    12304    12269    12249    12267    12300    12310    12306 
   12317    12341    12374    12414    12435    12431    12417    12409 
   12416    12412    12393    12377    12364    12348    12329    12313 
   12318    12339    12341    12315    12299    12315    12338    12351 
   12366    12386    12397    12402    12414    12425    12416    12388 
   12378    12401    12409    12390    12378    12382    12388    12384 
   12376    12374    12373    12370    12365    12354    12350    12352 
   12342    12330    12334    12343    12363    12390    12398    12408 
   12438    12455    12442    12419    12410    12421    12421    12388 
   12362    12369    12373    12353    12324    12301    12290    12294 
   12299    12289    12275    12270    12271    12269    12272    12283 
   12291    12294    12298    12303    12311    12313    12303    12305 
   12328    12350    12359    12361    12369    12384    12385    12366 
   12358    12373    12386    12384    12374    12366    12378    12404 
   12412    12406    12418    12450    12484    12493    12474    12462 
   12487    12513    12492    12450    12430    12433    12430    12403 
   12386    12383    12356    12317    12306    12310    12309    12298 
   12272    12257    12270    12283    12277    12278    12297    12308 
   12307    12311    12318    12315    12313    12322    12324    12314 
   12310    12315    12324    12332    12331    12332    12346    12359 
   12356    12330    12299    12294    12298    12280    12253    12239 
   12232    12232    12254    12284    12306    12322    12339    12377 
   12433    12471    12472    12448    12426    12426    12431    12429 
   12420    12400    12383    12384    12387    12373    12343    12312 
   12308    12332    12350    12345    12330    12319    12312    12317 
   12339    12360    12359    12351    12357    12372    12370    12349 
   12331    12332    12329    12307    12286    12283    12285    12275 
   12270    12288    12318    12337    12334    12327    12355    12412 
   12450    12447    12438    12463    12498    12502    12505    12527 
   12537    12530    12519    12503    12473    12440    12421    12398 
   12363    12346    12350    12351    12345    12340    12340    12342 
   12340    12339    12349    12354    12333    12306    12301    12315 
   12322    12309    12285    12272    12281    12311    12341    12349 
   12328    12293    12279    12297    12304    12284    12271    12265 
   12262    12291    12342    12366    12365    12374    12407    12443 
   12450    12434    12415    12394    12367    12346    12330    12313 
   12306    12319    12340    12343    12335    12340    12360    12372 
   12369    12357    12341    12327    12314    12296    12273    12255 
   12262    12291    12317    12337    12347    12354    12385    12429 
   12462    12467    12451    12443    12447    12444    12432    12416 
   12399    12373    12345    12334    12324    12302    12283    12265 
   12248    12246    12262    12285    12291    12276    12272    12294 
   12316    12321    12319    12330    12352    12364    12370    12381 
   12399    12418    12427    12409    12384    12381    12398    12423 
   12453    12474    12479    12473    12461    12455    12452    12434 
   12409    12400    12407    12411    12388    12353    12349    12357 
   12336    12317    12333    12363    12369    12347    12332    12352 
   12386    12409    12412    12395    12368    12345    12325    12306 
   12297    12306    12323    12310    12271    12254    12266    12271 
   12259    12238    12231    12242    12244    12232    12223    12220 
   12221    12240    12275    12309    12333    12359    12398    12442 
   12475    12492    12499    12513    12537    12552    12544    12522 
   12505    12506    12499    12464    12419    12391    12383    12376 
   12357    12325    12295    12293    12317    12337    12343    12331 
   12317    12338    12380    12389    12367    12334    12319    12343 
   12377    12386    12382    12374    12364    12355    12340    12317 
   12308    12312    12301    12276    12263    12284    12324    12351 
   12366    12390    12412    12416    12419    12424    12408    12374 
   12351    12351    12354    12330    12292    12277    12274    12270 
   12276    12290    12302    12303    12301    12312    12330    12339 
   12327    12312    12321    12338    12343    12335    12330    12340 
   12353    12361    12364    12364    12364    12347    12317    12303 
   12311    12335    12352    12336    12323    12354    12396    12429 
   12451    12444    12425    12426    12435    12437    12427    12417 
   12422    12415    12374    12346    12354    12357    12328    12283 
   12245    12235    12252    12270    12273    12269    12268    12278 
   12300    12317    12323    12324    12323    12316    12296    12278 
   12293    12340    12367    12344    12311    12311    12329    12339 
   12337    12324    12307    12296    12293    12290    12276    12254 
   12248    12272    12300    12318    12333    12332    12319    12333 
   12371    12403    12418    12427    12442    12468    12503    12530 
   12522    12497    12501    12532    12561    12559    12530    12505 
   12499    12504    12497    12467    12429    12386    12342    12312 
   12288    12266    12261    12266    12262    12264    12291    12321 
   12340    12360    12376    12371    12358    12348    12332    12305 
   12278    12263    12263    12266    12272    12284    12295    12306 
   12328    12344    12341    12343    12376    12420    12436    12413 
   12383    12373    12378    12374    12362    12364    12384    12399 
   12394    12393    12413    12437    12449    12454    12454    12439 
   12428    12431    12433    12430    12433    12435    12423    12401 
   12386    12384    12381    12364    12338    12312    12291    12288 
   12319    12353    12353    12349    12357    12356    12349    12349 
   12345    12343    12353    12374    12385    12374    12353    12353 
   12377    12383    12345    12306    12311    12333    12317    12269 
   12248    12264    12276    12278    12290    12314    12333    12340 
   12357    12366    12346    12346    12395    12441    12445    12421 
   12392    12370    12351    12318    12278    12259    12267    12285 
   12287    12265    12247    12255    12279    12302    12317    12325 
   12334    12350    12358    12361    12362    12334    12293    12294 
   12342    12376    12358    12332    12334    12339    12317    12277 
   12251    12262    12292    12302    12295    12297    12321    12374 
   12436    12470    12462    12438    12433    12429    12396    12360 
   12360    12387    12400    12391    12383    12384    12388    12393 
   12388    12391    12418    12421    12382    12362    12378    12400 
   12420    12444    12478    12498    12470    12416    12397    12414 
   12430    12429    12417    12408    12413    12421    12411    12390 
   12370    12345    12323    12333    12363    12377    12371    12362 
   12350    12339    12338    12342    12334    12310    12285    12270 
   12259    12255    12266    12265    12248    12263    12313    12339 
   12320    12284    12262    12257    12268    12293    12306    12306 
   12328    12382    12425    12414    12368    12352    12388    12436 
   12453    12430    12398    12379    12358    12318    12279    12264 
   12270    12287    12314    12331    12327    12320    12333    12375 
   12424    12453    12473    12511    12537    12511    12478    12492 
   12525    12534    12521    12505    12501    12493    12443    12362 
   12314    12315    12312    12271    12212    12178    12172    12148 
   12115    12117    12125    12120    12137    12174    12196    12213 
   12253    12291    12294    12288    12304    12331    12346    12346 
   12341    12346    12370    12417    12446    12422    12370    12342 
   12354    12365    12355    12359    12384    12394    12380    12373 
   12394    12423    12436    12433    12427    12441    12454    12425 
   12388    12385    12391    12365    12322    12307    12317    12322 
   12332    12344    12336    12317    12299    12300    12324    12336 
   12316    12299    12316    12350    12347    12307    12300    12344 
   12379    12361    12336    12367    12419    12422    12384    12341 
   12318    12330    12356    12370    12378    12385    12365    12326 
   12308    12319    12345    12380    12408    12406    12399    12412 
   12420    12409    12403    12408    12412    12418    12426    12420 
   12405    12408    12427    12439    12436    12436    12446    12447 
   12433    12414    12403    12416    12442    12461    12468    12468 
   12469    12479    12498    12506    12488    12460    12429    12375 
   12306    12268    12260    12232    12186    12186    12222    12236 
   12225    12216    12237    12293    12332    12321    12276    12249 
   12280    12318    12308    12290    12298    12320    12353    12367 
   12352    12354    12370    12358    12329    12307    12280    12251 
   12248    12260    12267    12294    12334    12340    12313    12312 
   12360    12413    12418    12393    12400    12425    12415    12392 
   12399    12413    12408    12405    12421    12439    12445    12447 
   12465    12501    12526    12530    12535    12534    12506    12461 
   12421    12385    12357    12340    12311    12268    12227    12191 
   12158    12153    12198    12269    12309    12292    12267    12283 
   12335    12381    12389    12368    12349    12340    12307    12244 
   12218    12264    12311    12291    12235    12215    12245    12290 
   12323    12339    12350    12369    12386    12393    12385    12367 
   12368    12410    12453    12473    12489    12505    12511    12496 
   12466    12460    12488    12503    12466    12386    12303    12238 
   12194    12182    12194    12196    12170    12146    12174    12232 
   12257    12259    12268    12279    12302    12362    12438    12476 
   12454    12434    12463    12503    12524    12538    12555    12572 
   12578    12558    12519    12501    12529    12563    12537    12456 
   12401    12404    12408    12369    12315    12281    12250    12208 
   12179    12189    12237    12294    12347    12402    12440    12444 
   12446    12471    12487    12470    12456    12458    12424    12355 
   12313    12307    12284    12228    12184    12198    12243    12255 
   12218    12189    12218    12258    12229    12166    12183    12288 
   12400    12454    12446    12436    12470    12517    12534    12511 
   12463    12412    12373    12350    12339    12336    12320    12265 
   12214    12204    12214    12238    12269    12287    12324    12389 
   12444    12480    12504    12502    12496    12529    12571    12573 
   12545    12514    12479    12436    12409    12402    12389    12379 
   12363    12338    12344    12356    12326    12289    12253    12211 
   12213    12253    12275    12268    12259    12293    12368    12419 
   12432    12441    12436    12419    12428    12444    12421    12378 
   12344    12333    12346    12342    12304    12261    12234    12224 
   12213    12189    12171    12153    12127    12139    12202    12248 
   12258    12284    12338    12387    12414    12438    12448    12408 
   12347    12315    12315    12339    12367    12367    12355    12352 
   12338    12333    12348    12324    12268    12262    12304    12338 
   12347    12328    12310    12338    12407    12466    12483    12457 
   12438    12468    12492    12461    12415    12386    12374    12365 
   12330    12285    12283    12305    12299    12264    12225    12191 
   12185    12196    12194    12190    12208    12217    12185    12180 
   12253    12329    12329    12280    12258    12295    12332    12325 
   12336    12385    12389    12340    12333    12409    12504    12529 
   12478    12415    12392    12399    12401    12404    12412    12410 
   12430    12471    12475    12431    12382    12355    12347    12327 
   12281    12246    12241    12223    12205    12230    12262    12267 
   12268    12278    12284    12299    12344    12401    12426    12421 
   12424    12439    12466    12506    12518    12489    12443    12401 
   12387    12409    12432    12417    12384    12387    12413    12412 
   12397    12426    12488    12523    12517    12509    12508    12497 
   12480    12461    12438    12428    12423    12388    12331    12287 
   12278    12292    12311    12309    12291    12310    12372    12403 
   12374    12350    12383    12432    12417    12344    12286    12250 
   12219    12224    12269    12313    12319    12283    12255    12275 
   12290    12253    12201    12201    12245    12263    12241    12225 
   12224    12223    12210    12178    12152    12175    12240    12282 
   12267    12239    12243    12279    12305    12295    12286    12310 
   12326    12339    12390    12445    12482    12507    12497    12478 
   12506    12564    12591    12544    12455    12405    12426    12463 
   12469    12449    12414    12393    12424    12475    12484    12466 
   12461    12461    12466    12480    12489    12468    12420    12400 
   12434    12476    12460    12384    12327    12318    12293    12245 
   12234    12247    12242    12214    12181    12176    12150    12050 
   11952    11936    11996    12084    12131    12134    12151    12193 
   12254    12346    12429    12452    12447    12455    12456    12450 
   12455    12435    12390    12386    12417    12410    12374    12377 
   12442    12526    12569    12554    12517    12490    12481    12493 
   12509    12519    12537    12566    12598    12618    12601    12565 
   12527    12482    12455    12430    12362    12300    12294    12278 
   12214    12164    12146    12151    12199    12256    12276    12299 
   12350    12381    12376    12383    12416    12450    12459    12452 
   12472    12487    12421    12342    12324    12318    12301    12299 
   12292    12260    12234    12245    12285    12314    12313    12301 
   12322    12370    12406    12434    12461    12464    12454    12468 
   12482    12463    12435    12427    12440    12463    12476    12462 
   12429    12400    12388    12393    12396    12402    12412    12399 
   12373    12360    12356    12359    12361    12359    12372    12406 
   12434    12443    12469    12531    12571    12538    12480    12445 
   12414    12378    12358    12347    12331    12322    12328    12338 
   12346    12341    12309    12291    12322    12350    12329    12281 
   12243    12233    12239    12223    12185    12168    12199    12254 
   12298    12325    12335    12317    12306    12332    12366    12376 
   12368    12355    12339    12334    12353    12379    12381    12365 
   12340    12289    12219    12176    12176    12211    12264    12306 
   12317    12306    12311    12341    12347    12300    12244    12211 
   12176    12141    12141    12182    12224    12245    12278    12334 
   12360    12327    12279    12254    12234    12218    12224    12238 
   12242    12255    12273    12270    12269    12308    12357    12392 
   12438    12479    12482    12477    12471    12433    12388    12382 
   12416    12455    12477    12485    12482    12460    12452    12514 
   12605    12620    12568    12530    12499    12459    12436    12424 
   12426    12443    12441    12427    12426    12463    12531    12565 
   12537    12503    12503    12515    12486    12417    12371    12355 
   12309    12225    12147    12094    12048    12013    12024    12064 
   12087    12101    12111    12118    12135    12160    12202    12277 
   12344    12381    12416    12450    12460    12464    12483    12483 
   12441    12383    12328    12283    12258    12246    12231    12218 
   12199    12179    12193    12225    12237    12261    12315    12359 
   12389    12429    12445    12441    12468    12512    12538    12569 
   12598    12588    12549    12505    12461    12409    12372    12400 
   12484    12556    12571    12530    12464    12419    12399    12372 
   12333    12285    12243    12238    12244    12214    12168    12148 
   12162    12202    12240    12247    12244    12255    12289    12361 
   12429    12441    12430    12437    12431    12393    12349    12324 
   12314    12303    12300    12317    12328    12316    12308    12327 
   12355    12370    12380    12393    12416    12441    12428    12376 
   12350    12375    12427    12486    12540    12567    12562    12569 
   12610    12620    12539    12414    12320    12248    12160    12102 
   12132    12201    12219    12185    12169    12190    12215    12233 
   12249    12266    12286    12317    12359    12379    12358    12334 
   12349    12398    12455    12500    12512    12507    12491    12438 
   12356    12296    12287    12304    12306    12299    12318    12373 
   12447    12499    12533    12586    12620    12608    12605    12645 
   12669    12625    12555    12524    12510    12461    12383    12305 
   12224    12150    12119    12123    12122    12113    12117    12146 
   12195    12250    12292    12324    12377    12425    12403    12357 
   12371    12422    12461    12480    12460    12418    12392    12382 
   12364    12325    12275    12237    12223    12234    12250    12250 
   12245    12240    12218    12200    12214    12237    12261    12271 
   12232    12176    12148    12136    12135    12156    12204    12260 
   12286    12285    12280    12279    12290    12308    12318    12334 
   12355    12370    12397    12436    12469    12480    12467    12440 
   12409    12405    12438    12452    12416    12348    12276    12237 
   12250    12295    12328    12321    12321    12386    12459    12455 
   12384    12327    12330    12341    12295    12250    12281    12341 
   12375    12402    12448    12502    12528    12535    12568    12614 
   12627    12602    12584    12618    12698    12735    12665    12552 
   12498    12517    12533    12493    12424    12368    12325    12289 
   12251    12220    12222    12250    12271    12282    12313    12379 
   12434    12440    12438    12466    12486    12458    12408    12368 
   12335    12321    12343    12393    12430    12444    12448    12435 
   12409    12399    12407    12400    12373    12364    12383    12389 
   12371    12358    12377    12434    12478    12451    12380    12324 
   12292    12275    12289    12341    12400    12424    12416    12372 
   12292    12225    12210    12226    12226    12190    12159    12168 
   12197    12228    12278    12343    12381    12384    12382    12386 
   12384    12385    12397    12396    12365    12337    12361    12417 
   12428    12384    12358    12376    12378    12335    12276    12213 
   12169    12170    12182    12175    12152    12146    12176    12201 
   12187    12179    12196    12217    12240    12271    12271    12220 
   12175    12174    12195    12218    12230    12226    12228    12248 
   12284    12344    12417    12462    12461    12429    12386    12341 
   12305    12295    12290    12261    12243    12278    12328    12341 
   12333    12351    12389    12405    12408    12432    12460    12479 
