Origin Time       2024/04/02 04:24:00
Lat.              40.133
Long.             141.712
Depth. (km)       71
Mag.              6.0
Station Code      HDKH04
Station Lat.      42.5126
Station Long.     142.0381
Station Height(m) -210
Record Time       2024/04/02 04:25:16
Sampling Freq(Hz) 100Hz
Duration Time(s)  152
Dir.              2
Scale Factor      2942(gal)/8224139
Max. Acc. (gal)   0.641
Last Correction   2024/04/02 04:25:17
Memo.             
[...]
  103821   103734   103684   103693   103732   103759   103767   103763 
  103747   103725   103704   103682   103667   103650   103635   103628 
  103621   103636   103702   103794   103871   103910   103917   103902 
  103873   103862   103889   103886   103789   103650   103551   103522 
  103566   103648   103709   103759   103817   103870   103902   103914 
  103906   103905   103950   104018   104047   104032   104013   103991 
  103960   103935   103940   103974   104009   104013   103989   103956 
  103906   103836   103778   103750   103765   103829   103927   104026 
  104101   104133   104133   104091   104022   103982   103977   103990 
  104018   104048   104067   104060   104013   103928   103831   103765 
  103744   103735   103704   103666   103643   103644   103673   103739 
  103821   103877   103913   103940   103936   103898   103848   103820 
  103831   103866   103891   103878   103844   103827   103824   103809 
  103767   103713   103673   103647   103611   103573   103586   103657 
  103727   103779   103828   103870   103908   103931   103935   103958 
  104013   104071   104095   104086   104085   104093   104071   104039 
  104055   104107   104134   104120   104079   104020   103951   103896 
  103877   103893   103893   103863   103824   103783   103770   103812 
  103863   103864   103817   103762   103715   103667   103635   103648 
  103705   103762   103786   103798   103836   103870   103862   103851 
  103881   103925   103952   103958   103944   103913   103873   103837 
  103810   103782   103751   103731   103708   103667   103628   103647 
  103746   103878   103982   104013   103960   103866   103788   103763 
  103798   103847   103870   103871   103859   103844   103858   103889 
  103891   103854   103798   103751   103731   103731   103740   103770 
  103809   103832   103836   103839   103862   103894   103917   103927 
  103912   103891   103921   103985   104017   103985   103909   103851 
  103827   103804   103766   103712   103665   103661   103694   103725 
  103736   103747   103762   103754   103732   103725   103752   103821 
  103916   104001   104055   104056   104002   103923   103833   103750 
  103720   103775   103894   104014   104071   104058   104008   103977 
  104005   104078   104130   104118   104044   103929   103804   103712 
  103662   103638   103635   103654   103692   103756   103833   103896 
  103933   103943   103918   103871   103806   103729   103675   103661 
  103678   103739   103813   103850   103848   103839   103835   103824 
  103804   103793   103815   103862   103896   103886   103828   103744 
  103677   103673   103750   103852   103912   103944   103974   103987 
  103989   103972   103962   104002   104086   104155   104166   104121 
  104066   104044   104059   104106   104161   104195   104209   104209 
  104178   104114   104040   103970   103924   103882   103820   103777 
  103797   103871   103955   104010   104039   104041   103985   103908 
  103890   103925   103974   104041   104134   104220   104252   104221 
  104172   104157   104178   104179   104144   104095   104008   103871 
  103748   103665   103611   103590   103607   103654   103717   103778 
  103837   103883   103890   103866   103848   103881   103951   103990 
  103978   103958   103947   103936   103928   103913   103875   103817 
  103750   103674   103609   103593   103621   103648   103634   103594 
  103593   103640   103688   103704   103704   103692   103659   103627 
  103628   103654   103690   103758   103863   103975   104068   104126 
  104132   104094   104045   103993   103932   103882   103870   103896 
  103945   104016   104083   104110   104095   104064   104026   103951 
  103828   103717   103663   103626   103562   103497   103505   103590 
  103682   103755   103819   103839   103837   103879   103939   103958 
  103940   103905   103860   103800   103693   103573   103491   103435 
  103399   103388   103397   103439   103530   103642   103739   103805 
  103836   103836   103824   103793   103716   103597   103455   103302 
  103168   103077   103038   103052   103090   103114   103131   103152 
  103152   103113   103060   103029   103052   103145   103288   103451 
  103615   103769   103912   104037   104124   104171   104232   104321 
  104383   104404   104425   104449   104469   104490   104488   104449 
  104388   104332   104256   104125   103951   103777   103619   103497 
  103459   103518   103628   103744   103846   103918   103939   103910 
  103875   103846   103820   103820   103836   103847   103844   103813 
  103744   103635   103478   103295   103129   103013   102973   103030 
  103156   103297   103415   103481   103503   103532   103597   103675 
  103755   103870   104052   104301   104554   104738   104816   104815 
  104745   104602   104423   104238   104055   103896   103759   103611 
  103411   103179   102979   102883   102924   103044   103150   103198 
  103199   103222   103339   103559   103832   104120   104383   104577 
  104684   104733   104747   104697   104566   104400   104253   104140 
  104083   104105   104159   104167   104114   104039   103943   103831 
  103755   103756   103848   104032   104267   104487   104654   104768 
  104855   104943   105001   104971   104838   104629   104398   104203 
  104082   104031   103990   103890   103725   103522   103289   103050 
  102838   102682   102613   102654   102793   103018   103297   103578 
  103825   104052   104261   104426   104527   104556   104494   104406 
  104406   104491   104575   104619   104603   104510   104386   104306 
  104274   104214   104058   103801   103513   103291   103168   103111 
  103123   103203   103316   103439   103542   103613   103682   103752 
  103778   103727   103654   103635   103671   103725   103790   103852 
  103877   103856   103790   103671   103530   103407   103323   103279 
  103265   103279   103324   103399   103497   103631   103843   104137 
  104423   104599   104637   104552   104373   104148   103971   103929 
  104028   104222   104449   104620   104660   104538   104260   103855 
  103420   103094   102949   102998   103246   103665   104137   104554 
  104849   104986   104992   104909   104778   104596   104311   103935 
  103546   103218   103014   102983   103099   103269   103437   103604 
  103754   103851   103874   103833   103783   103797   103927   104190 
  104537   104850   105015   105001   104838   104565   104242   103928 
  103653   103438   103292   103185   103075   102924   102708   102451 
  102242   102188   102325   102601   102924   103256   103616   103982 
  104310   104603   104872   105111   105302   105414   105410   105275 
  105040   104766   104502   104278   104125   104056   104080   104193 
  104326   104399   104368   104218   103975   103727   103573   103562 
  103700   103974   104341   104733   105061   105214   105148   104924 
  104633   104338   104089   103908   103801   103756   103759   103796 
  103860   103929   103928   103805   103566   103275   103026   102874 
  102807   102798   102821   102899   103068   103289   103484   103630 
  103739   103820   103848   103789   103685   103605   103534   103418 
  103264   103095   102898   102690   102574   102593   102690   102821 
  102965   103094   103192   103299   103468   103697   103923   104076 
  104117   104072   104040   104118   104344   104647   104895   104998 
  104955   104776   104481   104168   103937   103815   103769   103756 
  103758   103794   103855   103889   103873   103805   103677   103524 
  103426   103388   103354   103306   103275   103310   103466   103748 
  104076   104348   104490   104491   104373   104152   103851   103526 
  103215   102938   102726   102583   102478   102417   102431   102525 
  102671   102814   102910   102988   103103   103252   103403   103593 
  103871   104184   104452   104650   104774   104828   104808   104707 
  104522   104278   104018   103778   103580   103457   103446   103546 
  103740   104010   104303   104517   104599   104598   104585   104608 
  104642   104627   104529   104364   104193   104089   104060   104037 
  103964   103873   103851   103931   104075   104259   104441   104550 
  104534   104382   104132   103867   103670   103594   103651   103804 
  103974   104099   104180   104230   104238   104205   104157   104117 
  104086   104059   104020   103972   103932   103874   103761   103616 
  103491   103385   103296   103246   103249   103310   103451   103674 
  103901   104039   104072   104022   103912   103761   103597   103474 
  103447   103516   103644   103788   103923   104068   104210   104287 
  104284   104240   104191   104166   104159   104140   104090   104012 
  103916   103817   103735   103665   103607   103551   103476   103420 
  103412   103396   103369   103357   103323   103253   103177   103156 
  103241   103419   103631   103832   103995   104116   104180   104168 
  104091   104001   103936   103897   103860   103832   103846   103925 
  104066   104233   104369   104399   104305   104148   104010   103944 
  103970   104074   104224   104377   104503   104604   104695   104762 
  104778   104739   104673   104612   104545   104423   104210   103901 
  103534   103192   102979   102913   102952   103059   103212   103383 
  103522   103603   103620   103594   103588   103631   103692   103732 
  103739   103748   103769   103767   103770   103796   103817   103819 
  103802   103789   103825   103891   103958   104033   104071   104002 
  103833   103623   103432   103303   103214   103130   103033   102917 
  102837   102853   102964   103158   103401   103584   103650   103680 
  103777   103971   104232   104500   104724   104870   104904   104797 
  104591   104353   104095   103815   103574   103418   103372   103489 
  103766   104106   104391   104556   104588   104506   104372   104264 
  104198   104174   104217   104325   104472   104634   104774   104876 
  104917   104861   104707   104531   104388   104267   104132   103995 
  103875   103756   103604   103419   103234   103068   102929   102833 
  102818   102922   103134   103384   103611   103783   103867   103852 
  103788   103717   103644   103554   103455   103365   103293   103237 
  103154   103013   102830   102683   102671   102811   103033   103272 
  103520   103781   104026   104203   104305   104368   104403   104396 
  104373   104388   104473   104633   104818   104949   104955   104822 
  104587   104311   104044   103843   103758   103775   103832   103871 
  103889   103918   103991   104107   104263   104450   104602   104631 
  104541   104403   104256   104116   104012   103966   103971   104006 
  104058   104120   104179   104215   104171   103995   103725   103446 
  103219   103081   103015   102969   102934   102930   102965   103040 
  103107   103135   103167   103261   103407   103572   103725   103829 
  103846   103792   103723   103685   103682   103680   103658   103636 
  103609   103531   103392   103237   103138   103160   103291   103472 
  103651   103805   103944   104106   104294   104487   104649   104742 
  104760   104714   104612   104458   104263   104070   103948   103933 
  103994   104080   104167   104241   104310   104361   104333   104190 
  103993   103824   103720   103702   103777   103890   103972   103995 
  103960   103867   103716   103527   103351   103276   103339   103464 
  103557   103580   103534   103465   103451   103496   103536   103543 
  103512   103458   103423   103438   103515   103640   103766   103835 
  103835   103777   103674   103572   103524   103531   103543   103551 
  103588   103661   103778   103936   104067   104128   104149   104167 
  104191   104230   104264   104313   104407   104527   104629   104666 
  104606   104457   104268   104091   103989   103989   104047   104091 
  104090   104062   104036   104022   104012   104009   104014   104002 
  103950   103882   103831   103797   103779   103763   103728   103700 
  103712   103729   103711   103654   103561   103442   103330   103230 
  103121   103005   102913   102876   102913   103030   103215   103447 
  103707   103958   104176   104350   104438   104413   104298   104130 
  103910   103642   103378   103195   103135   103195   103299   103412 
  103532   103626   103692   103732   103732   103738   103774   103812 
  103883   104016   104183   104348   104490   104608   104712   104797 
  104855   104885   104880   104835   104739   104577   104376   104211 
  104144   104176   104295   104471   104638   104743   104742   104593 
  104302   103933   103576   103304   103167   103153   103243   103439 
  103711   103982   104163   104218   104190   104136   104074   104032 
  104043   104072   104053   103960   103836   103756   103765   103809 
  103796   103702   103609   103574   103567   103535   103469   103391 
  103326   103303   103356   103504   103744   104031   104284   104437 
  104465   104399   104301   104217   104180   104201   104233   104210 
  104101   103924   103744   103623   103582   103604   103650   103717 
  103829   103982   104153   104307   104402   104417   104380   104363 
  104414   104512   104591   104615   104611   104615   104606   104519 
  104357   104156   103923   103636   103324   103060   102884   102786 
  102752   102797   102949   103203   103509   103837   104167   104461 
  104660   104692   104538   104295   104075   103912   103794   103704 
  103608   103480   103300   103075   102832   102612   102423   102259 
  102126   102062   102122   102305   102581   102929   103296   103616 
  103878   104070   104190   104290   104382   104456   104517   104519 
  104414   104225   104024   103879   103832   103874   103937   103951 
  103914   103875   103836   103767   103680   103593   103546   103599 
  103754   103945   104098   104164   104136   104049   103951   103883 
  103891   103954   103995   103995   103982   103963   103908   103798 
  103659   103522   103408   103331   103291   103281   103273   103218 
  103135   103063   102994   102944   102972   103104   103308   103531 
  103709   103798   103820   103850   103939   104080   104241   104383 
  104458   104441   104365   104272   104178   104093   104022   103944 
  103852   103765   103690   103624   103574   103551   103557   103605 
  103721   103866   103972   104008   103999   104008   104047   104072 
  104063   104053   104087   104198   104423   104745   105063   105278 
  105339   105235   104971   104607   104247   103967   103774   103655 
  103621   103669   103752   103805   103769   103647   103508   103397 
  103312   103208   103063   102913   102816   102794   102840   102948 
  103140   103395   103627   103763   103801   103748   103596   103365 
  103123   102956   102929   103059   103314   103631   103918   104101 
  104147   104066   103902   103711   103524   103361   103229   103144 
  103113   103121   103165   103245   103354   103491   103638   103806 
  103999   104187   104348   104461   104523   104580   104668   104781 
  104926   105075   105158   105131   104985   104701   104309   103905 
  103574   103347   103231   103225   103307   103461   103673   103902 
  104133   104364   104545   104615   104569   104437   104271   104141 
  104082   104071   104066   104026   103936   103817   103705   103620 
  103584   103596   103621   103617   103576   103495   103385   103284 
  103234   103246   103315   103449   103658   103914   104143   104299 
  104398   104440   104398   104272   104093   103883   103667   103472 
  103319   103212   103160   103191   103319   103496   103674   103858 
  104037   104183   104282   104318   104290   104228   104170   104145 
  104183   104259   104313   104325   104311   104292   104287   104279 
  104230   104134   104035   103983   104001   104074   104179   104292 
  104380   104399   104359   104322   104330   104356   104380   104404 
  104422   104414   104345   104211   104070   103971   103925   103893 
  103821   103711   103561   103368   103188   103086   103069   103133 
  103268   103434   103611   103798   103963   104078   104153   104182 
  104166   104151   104153   104174   104220   104278   104317   104342 
  104365   104367   104321   104222   104093   103963   103837   103712 
  103600   103497   103392   103295   103226   103200   103207   103222 
  103234   103256   103310   103424   103615   103883   104193   104472 
  104677   104819   104909   104950   104920   104795   104571   104286 
  104021   103846   103762   103739   103767   103829   103890   103924 
  103921   103900   103904   103945   103998   104063   104151   104257 
  104367   104460   104498   104446   104314   104139   103978   103859 
  103777   103724   103690   103648   103580   103489   103426   103434 
  103492   103546   103582   103636   103738   103867   103956   103947 
  103846   103711   103605   103565   103584   103630   103663   103669 
  103642   103582   103499   103411   103354   103330   103308   103287 
  103280   103308   103385   103486   103573   103605   103585   103578 
  103642   103766   103902   103998   104028   104025   104029   104052 
  104086   104107   104113   104128   104170   104233   104286   104306 
  104295   104261   104225   104218   104240   104264   104284   104295 
  104251   104120   103923   103681   103423   103210   103104   103127 
  103265   103484   103732   103954   104110   104194   104224   104225 
  104229   104245   104252   104215   104120   103989   103855   103736 
  103654   103634   103678   103759   103844   103901   103893   103788 
  103599   103385   103218   103123   103107   103175   103308   103462 
  103616   103755   103862   103940   104005   104064   104134   104213 
  104257   104222   104105   103925   103713   103505   103346   103257 
  103222   103218   103245   103319   103437   103566   103680   103742 
  103729   103646   103516   103395   103347   103393   103503   103631 
  103734   103783   103793   103808   103864   103977   104118   104230 
  104255   104168   103974   103717   103470   103285   103196   103204 
  103281   103365   103383   103324   103260   103238   103253   103296 
  103354   103430   103530   103631   103692   103697   103665   103632 
  103642   103715   103842   103981   104080   104116   104095   104056 
  104022   103987   103936   103870   103806   103748   103709   103686 
  103636   103553   103473   103403   103330   103269   103254   103308 
  103437   103630   103863   104090   104242   104260   104160   104018 
  103883   103788   103752   103751   103731   103681   103638   103623 
  103627   103658   103735   103847   103967   104053   104087   104080 
  104075   104113   104195   104288   104373   104471   104592   104704 
  104769   104787   104755   104693   104638   104598   104544   104464 
  104356   104210   104028   103821   103623   103466   103351   103275 
  103266   103335   103431   103512   103580   103657   103783   103971 
  104184   104377   104521   104589   104603   104612   104643   104674 
  104672   104627   104535   104410   104283   104183   104112   104056 
  104009   103962   103916   103877   103847   103858   103929   104022 
  104093   104118   104089   104004   103893   103801   103746   103723 
  103724   103751   103808   103889   103967   104006   103986   103916 
  103809   103678   103545   103422   103324   103270   103280   103364 
