Origin Time       2024/04/02 04:24:00
Lat.              40.133
Long.             141.712
Depth. (km)       71
Mag.              6.0
Station Code      HDKH01
Station Lat.      42.7031
Station Long.     142.2296
Station Height(m) 82
Record Time       2024/04/02 04:25:20
Sampling Freq(Hz) 100Hz
Duration Time(s)  127
Dir.              4
Scale Factor      7845(gal)/8223790
Max. Acc. (gal)   2.037
Last Correction   2024/04/02 04:25:21
Memo.             
[...]
   23703    23730    23812    23922    24027    24105    24129    24101 
   24036    23939    23822    23707    23622    23593    23623    23710 
   23841    23981    24101    24173    24186    24155    24101    24052 
   24025    24024    24044    24067    24075    24062    24012    23935 
   23846    23753    23677    23643    23672    23772    23904    24020 
   24100    24155    24187    24197    24198    24198    24187    24163 
   24113    24021    23896    23753    23622    23546    23550    23637 
   23785    23957    24108    24204    24227    24182    24108    24047 
   23985    23904    23826    23772    23754    23789    23855    23938 
   24042    24136    24190    24200    24174    24120    24048    23986 
   23932    23886    23870    23870    23878    23916    23978    24047 
   24115    24163    24178    24152    24102    24043    23978    23928 
   23915    23935    23985    24040    24074    24084    24061    23989 
   23881    23761    23642    23538    23494    23527    23619    23746 
   23885    24015    24125    24200    24237    24264    24293    24329 
   24367    24374    24327    24219    24067    23895    23738    23639 
   23598    23589    23606    23635    23677    23734    23792    23842 
   23890    23947    24012    24069    24101    24119    24129    24154 
   24192    24216    24209    24193    24192    24200    24200    24167 
   24082    23951    23808    23677    23577    23515    23485    23498 
   23571    23701    23855    24001    24120    24204    24255    24263 
   24210    24102    23966    23830    23730    23695    23726    23819 
   23955    24106    24236    24306    24308    24241    24123    23985 
   23847    23726    23649    23623    23658    23741    23832    23922 
   24017    24117    24219    24298    24349    24378    24398    24413 
   24410    24368    24264    24101    23916    23742    23602    23525 
   23522    23583    23685    23788    23862    23907    23938    23970 
   24009    24050    24079    24096    24108    24112    24093    24058 
   24013    23985    23993    24023    24063    24108    24146    24187 
   24231    24254    24241    24196    24133    24062    23989    23917 
   23841    23782    23774    23809    23877    23953    24016    24067 
   24098    24094    24044    23957    23873    23846    23901    24011 
   24102    24131    24085    23986    23869    23746    23629    23544 
   23512    23550    23639    23751    23866    23965    24047    24112 
   24146    24140    24112    24085    24079    24090    24111    24142 
   24170    24179    24169    24129    24065    23978    23881    23784 
   23706    23674    23696    23764    23884    24036    24197    24358 
   24502    24603    24630    24582    24487    24355    24174    23949 
   23697    23476    23334    23306    23396    23565    23747    23903 
   23996    24025    24013    23976    23932    23905    23901    23916 
   23936    23966    24005    24047    24081    24084    24034    23936 
   23816    23715    23657    23641    23670    23730    23796    23861 
   23926    23982    24030    24077    24131    24174    24196    24179 
   24113    24016    23917    23851    23836    23846    23853    23851 
   23849    23846    23854    23888    23961    24050    24125    24174 
   24198    24223    24246    24252    24225    24167    24096    24021 
   23944    23869    23795    23742    23727    23727    23723    23704 
   23673    23674    23755    23908    24092    24273    24432    24541 
   24574    24514    24349    24104    23835    23607    23463    23423 
   23492    23654    23870    24062    24156    24128    24017    23884 
   23797    23805    23901    24051    24225    24390    24502    24525 
   24443    24287    24124    24001    23927    23885    23849    23799 
   23750    23741    23762    23785    23804    23834    23892    23965 
   24021    24039    24015    23961    23893    23819    23766    23781 
   23881    24055    24244    24371    24410    24368    24266    24120 
   23940    23755    23604    23531    23546    23607    23674    23734 
   23784    23861    23974    24098    24214    24300    24341    24336 
   24262    24120    23950    23800    23701    23666    23704    23816 
   23981    24167    24325    24403    24381    24256    24063    23843 
   23642    23499    23436    23463    23579    23753    23951    24140 
   24290    24378    24391    24331    24209    24046    23890    23780 
   23741    23787    23892    24019    24123    24165    24148    24088 
   23992    23866    23728    23637    23635    23712    23838    23982 
   24109    24208    24277    24310    24293    24225    24115    23973 
   23843    23758    23726    23766    23869    24001    24133    24233 
   24273    24250    24173    24055    23923    23809    23737    23708 
   23720    23758    23800    23842    23874    23892    23903    23922 
   23951    23980    24009    24057    24127    24206    24270    24285 
   24244    24167    24048    23903    23774    23693    23677    23714 
   23781    23857    23916    23962    23986    23989    23992    23998 
   24008    24035    24085    24154    24214    24246    24251    24252 
   24273    24306    24325    24316    24263    24158    24023    23885 
   23757    23647    23558    23502    23498    23553    23656    23781 
   23900    23997    24066    24116    24158    24197    24244    24297 
   24352    24401    24413    24368    24254    24086    23909    23764 
   23677    23662    23714    23808    23907    23971    23985    23951 
   23908    23892    23922    23992    24078    24166    24258    24335 
   24362    24314    24201    24061    23922    23801    23722    23691 
   23704    23750    23828    23931    24021    24081    24121    24143 
   24148    24128    24051    23911    23727    23542    23402    23334 
   23365    23491    23652    23792    23876    23909    23927    23944 
   23966    23994    24016    24023    23998    23935    23876    23847 
   23857    23895    23953    24003    24005    23946    23849    23751 
   23689    23680    23734    23854    24000    24135    24251    24352 
   24444    24503    24495    24413    24277    24112    23951    23824 
   23765    23773    23819    23878    23917    23916    23896    23878 
   23873    23878    23881    23881    23884    23890    23885    23859 
   23828    23804    23784    23755    23712    23666    23639    23638 
   23676    23768    23916    24106    24290    24417    24455    24383 
   24210    23985    23745    23526    23344    23218    23186    23260 
   23419    23616    23807    23955    24036    24063    24075    24104 
   24173    24279    24394    24499    24583    24628    24592    24459 
   24241    23961    23638    23321    23055    22883    22827    22896 
   23083    23353    23660    23969    24233    24422    24511    24510 
   24466    24414    24372    24348    24327    24295    24256    24205 
   24155    24123    24101    24077    24034    23966    23881    23792 
   23724    23696    23719    23787    23865    23931    23984    24025 
   24070    24131    24220    24340    24464    24547    24544    24443 
   24252    24004    23760    23577    23490    23502    23598    23745 
   23896    24001    24031    23978    23845    23677    23537    23460 
   23460    23522    23620    23731    23830    23912    23985    24082 
   24236    24424    24586    24672    24655    24563    24437    24312 
   24216    24159    24160    24229    24333    24432    24484    24447 
   24317    24123    23899    23683    23502    23386    23349    23392 
   23514    23674    23830    23949    24003    23994    23961    23942 
   23970    24061    24213    24386    24524    24598    24603    24534 
   24398    24210    24016    23872    23823    23884    24038    24254 
   24493    24703    24845    24880    24802    24644    24448    24260 
   24119    24021    23946    23878    23816    23765    23742    23754 
   23797    23872    23970    24044    24046    23966    23808    23610 
   23429    23306    23283    23379    23573    23819    24073    24309 
   24501    24624    24669    24626    24511    24368    24223    24082 
   23953    23846    23784    23789    23874    24031    24217    24395 
   24530    24599    24594    24493    24278    23973    23622    23292 
   23058    22951    22994    23197    23518    23882    24200    24395 
   24435    24333    24154    23955    23797    23723    23727    23792 
   23870    23907    23901    23874    23836    23831    23885    23990 
   24129    24286    24444    24599    24733    24800    24764    24630 
   24425    24174    23908    23654    23426    23252    23161    23182 
   23311    23522    23789    24101    24417    24671    24804    24791 
   24629    24343    23996    23647    23346    23149    23072    23117 
   23276    23491    23693    23857    23990    24104    24208    24306 
   24372    24376    24317    24182    23963    23699    23422    23182 
   23055    23080    23241    23490    23765    24017    24223    24368 
   24445    24455    24414    24320    24177    23994    23755    23464 
   23179    22982    22935    23047    23296    23664    24121    24617 
   25069    25394    25544    25513    25332    25047    24702    24331 
   23969    23672    23490    23426    23476    23625    23819    24001 
   24113    24094    23938    23677    23373    23101    22917    22863 
   22960    23193    23510    23828    24070    24173    24129    23986 
   23800    23627    23539    23575    23742    24034    24405    24796 
   25147    25398    25493    25390    25080    24592    24003    23419 
   22941    22631    22511    22566    22793    23159    23593    24025 
   24375    24582    24615    24487    24255    23997    23793    23712 
   23799    24051    24409    24777    25069    25199    25104    24792 
   24314    23743    23174    22704    22432    22412    22635    23045 
   23565    24133    24698    25188    25540    25691    25600    25297 
   24856    24351    23847    23394    23048    22862    22827    22902 
   23047    23213    23359    23458    23499    23496    23502    23593 
   23800    24104    24463    24799    25033    25093    24941    24597 
   24120    23618    23201    22929    22823    22852    22966    23114 
   23252    23357    23445    23550    23716    23954    24244    24564 
   24873    25116    25258    25267    25127    24854    24506    24167 
   23888    23701    23616    23611    23666    23735    23747    23673 
   23525    23349    23201    23133    23191    23371    23638    23942 
   24213    24405    24495    24471    24348    24152    23922    23712 
   23560    23476    23465    23517    23620    23766    23917    24017 
   24016    23922    23768    23614    23518    23504    23566    23703 
   23901    24124    24322    24445    24486    24457    24381    24281 
   24158    24000    23796    23560    23328    23147    23047    23067 
   23234    23552    23980    24435    24830    25088    25165    25049 
   24754    24367    23994    23718    23600    23665    23880    24182 
   24484    24686    24732    24624    24409    24169    23980    23876 
   23855    23908    24004    24109    24186    24171    24039    23818 
   23560    23328    23170    23117    23186    23369    23634    23930 
   24201    24412    24533    24552    24484    24344    24155    23965 
   23830    23789    23834    23919    24012    24094    24166    24205 
   24166    24047    23888    23741    23653    23630    23657    23722 
   23796    23846    23846    23793    23714    23652    23660    23764 
   23943    24154    24340    24453    24471    24401    24267    24105 
   23961    23880    23866    23897    23936    23940    23901    23850 
   23807    23793    23835    23942    24109    24295    24440    24497 
   24462    24356    24206    24061    23973    23954    24000    24094 
   24196    24277    24314    24289    24197    24050    23885    23753 
   23693    23747    23926    24204    24518    24787    24954    24972 
   24807    24501    24119    23728    23396    23164    23041    23020 
   23083    23195    23318    23452    23608    23787    24003    24260 
   24548    24865    25181    25428    25546    25488    25253    24891 
   24462    24030    23649    23364    23221    23225    23340    23514 
   23703    23877    23998    24057    24061    24036    24027    24077 
   24204    24393    24598    24779    24910    24958    24899    24711 
   24410    24058    23733    23499    23398    23440    23607    23859 
   24128    24329    24395    24317    24119    23839    23535    23264 
   23074    22999    23048    23213    23450    23703    23931    24093 
   24174    24206    24209    24200    24206    24237    24283    24329 
   24348    24325    24247    24123    23971    23807    23652    23508 
   23376    23256    23152    23082    23083    23174    23340    23541 
   23737    23916    24071    24178    24212    24155    24013    23811 
   23585    23384    23242    23193    23255    23426    23673    23927 
   24119    24224    24244    24197    24100    23982    23897    23881 
   23923    23978    23993    23935    23815    23679    23585    23562 
   23611    23724    23882    24062    24227    24329    24325    24187 
   23940    23641    23364    23198    23205    23390    23719    24109 
   24456    24676    24706    24549    24271    23959    23692    23521 
   23458    23483    23550    23604    23598    23518    23398    23276 
   23211    23260    23450    23788    24255    24808    25371    25839 
   26102    26109    25866    25436    24902    24349    23874    23529 
   23329    23264    23284    23360    23477    23633    23826    24039 
   24239    24398    24499    24541    24529    24468    24391    24313 
   24243    24187    24139    24098    24074    24055    24031    23994 
   23959    23942    23936    23920    23857    23735    23576    23403 
   23249    23144    23099    23116    23203    23379    23645    23969 
   24306    24617    24856    24988    24979    24826    24575    24271 
   23955    23661    23419    23257    23180    23194    23315    23526 
   23773    24013    24200    24306    24314    24219    24036    23785 
   23488    23175    22887    22678    22577    22603    22759    23024 
   23377    23804    24254    24688    25072    25348    25486    25485 
   25362    25147    24883    24626    24424    24294    24254    24278 
   24318    24324    24236    24048    23788    23498    23238    23062 
   23008    23106    23349    23719    24175    24651    25072    25371 
   25512    25479    25265    24899    24437    23944    23496    23159 
   22966    22920    23009    23202    23445    23692    23928    24140 
   24331    24513    24684    24830    24929    24965    24921    24788 
   24579    24308    24000    23688    23387    23120    22912    22778 
   22746    22832    23026    23328    23712    24138    24536    24815 
   24916    24819    24563    24228    23885    23589    23387    23301 
   23340    23468    23625    23753    23811    23792    23703    23565 
   23427    23332    23303    23357    23481    23646    23819    23990 
   24170    24337    24478    24579    24626    24618    24556    24437 
   24289    24143    24023    23970    23998    24092    24198    24259 
   24255    24182    24052    23907    23770    23661    23602    23600 
   23646    23735    23861    24000    24115    24178    24171    24078 
   23931    23797    23731    23751    23847    24001    24182    24360 
   24517    24615    24624    24551    24410    24205    23938    23625 
   23298    22995    22752    22599    22542    22589    22742    22993 
   23332    23724    24116    24466    24760    24992    25149    25216 
   25193    25084    24894    24641    24320    23949    23579    23265 
   23067    23009    23074    23222    23407    23588    23733    23820 
   23846    23808    23734    23661    23611    23593    23630    23726 
   23876    24071    24290    24498    24663    24767    24784    24692 
   24506    24266    24039    23897    23873    23962    24125    24317 
   24487    24565    24506    24313    24034    23735    23473    23303 
   23269    23372    23603    23928    24289    24633    24899    25031 
   25016    24848    24544    24166    23777    23444    23221    23122 
   23129    23211    23336    23464    23565    23637    23673    23681 
   23697    23747    23851    24021    24221    24402    24522    24534 
   24420    24209    23958    23735    23606    23599    23708    23920 
   24205    24506    24753    24891    24889    24741    24468    24129 
   23800    23552    23448    23502    23674    23911    24135    24271 
   24274    24124    23865    23589    23386    23306    23360    23518 
   23737    23967    24175    24339    24443    24487    24478    24421 
   24340    24241    24129    24017    23920    23861    23832    23823 
   23846    23896    23958    24007    24016    23985    23934    23896 
   23920    24034    24216    24414    24571    24652    24626    24472 
   24183    23788    23348    22941    22631    22457    22441    22577 
   22825    23114    23399    23643    23834    23981    24093    24186 
   24277    24356    24412    24433    24410    24337    24214    24054 
   23884    23739    23660    23666    23745    23872    24008    24128 
   24209    24219    24144    24008    23857    23743    23700    23750 
   23889    24098    24366    24656    24916    25108    25201    25184 
   25062    24846    24579    24301    24042    23834    23704    23664 
   23707    23823    23992    24173    24308    24348    24270    24092 
   23859    23629    23458    23380    23406    23535    23731    23949 
   24142    24259    24277    24190    24034    23858    23701    23593 
   23561    23608    23714    23846    23985    24121    24239    24313 
   24339    24321    24281    24229    24179    24142    24106    24061 
   23992    23892    23758    23596    23430    23295    23217    23224 
   23314    23465    23657    23854    24016    24109    24116    24055 
   23966    23899    23877    23905    23971    24043    24079    24069 
   23998    23878    23760    23689    23691    23777    23938    24152 
   24409    24669    24868    24939    24850    24601    24225    23801 
   23423    23175    23121    23274    23593    24012    24426    24749 
   24912    24891    24710    24416    24061    23697    23382    23174 
   23114    23206    23425    23715    24007    24229    24339    24339 
   24251    24112    23978    23886    23858    23895    23970    24061 
   24143    24206    24254    24287    24309    24309    24275    24212 
   24119    23996    23855    23707    23568    23460    23395    23392 
   23463    23600    23777    23961    24124    24231    24250    24193 
   24079    23932    23787    23670    23588    23531    23511    23541 
   23629    23781    23990    24229    24464    24661    24783    24808 
   24727    24555    24339    24136    24001    23966    24015    24108 
   24194    24227    24170    24016    23795    23558    23384    23341 
   23452    23701    24042    24401    24713    24914    24958    24845 
   24603    24301    24012    23789    23664    23652    23745    23920 
   24124    24298    24403    24410    24325    24166    23951    23716 
   23514    23384    23359    23440    23598    23784    23959    24108 
   24208    24244    24221    24143    24011    23830    23622    23415 
