Origin Time       2024/04/02 04:24:00
Lat.              40.133
Long.             141.712
Depth. (km)       71
Mag.              6.0
Station Code      HDKH03
Station Lat.      42.5934
Station Long.     142.3521
Station Height(m) 160
Record Time       2024/04/02 04:25:46
Sampling Freq(Hz) 100Hz
Duration Time(s)  120
Dir.              4
Scale Factor      7845(gal)/8223790
Max. Acc. (gal)   3.359
Last Correction   2024/04/02 04:25:30
Memo.             
[...]
   40765    40884    40984    41046    41068    41054    41008    40946 
   40894    40873    40907    40994    41114    41261    41407    41515 
   41580    41612    41620    41611    41586    41531    41430    41278 
   41079    40852    40628    40441    40323    40297    40373    40527 
   40725    40938    41142    41311    41445    41554    41632    41678 
   41692    41669    41608    41517    41405    41288    41175    41069 
   40971    40880    40803    40751    40734    40768    40851    40969 
   41103    41219    41289    41295    41230    41114    40977    40865 
   40813    40840    40933    41064    41200    41296    41312    41249 
   41121    40954    40794    40676    40622    40635    40697    40784 
   40871    40937    40975    40980    40961    40919    40867    40824 
   40813    40857    40968    41133    41331    41531    41705    41828 
   41874    41841    41733    41555    41328    41088    40869    40699 
   40597    40566    40599    40672    40759    40846    40936    41027 
   41122    41215    41304    41380    41430    41447    41431    41373 
   41272    41137    40979    40817    40663    40532    40443    40401 
   40410    40482    40625    40844    41118    41418    41692    41881 
   41949    41906    41775    41604    41434    41295    41193    41123 
   41067    41010    40937    40852    40780    40749    40765    40834 
   40948    41069    41165    41231    41273    41295    41295    41273 
   41234    41169    41076    40959    40824    40694    40602    40563 
   40585    40675    40821    40983    41134    41256    41322    41320 
   41257    41153    41044    40960    40926    40965    41064    41181 
   41285    41345    41334    41258    41149    41042    40980    40981 
   41040    41126    41210    41257    41253    41196    41100    40994 
   40905    40848    40824    40817    40803    40783    40763    40770 
   40834    40968    41154    41365    41555    41681    41724    41690 
   41597    41478    41358    41254    41185    41148    41126    41112 
   41099    41071    41019    40950    40873    40792    40717    40663 
   40649    40687    40775    40907    41061    41202    41303    41358 
   41361    41319    41233    41103    40944    40774    40614    40506 
   40493    40594    40811    41118    41449    41737    41924    41980 
   41910    41736    41490    41212    40926    40640    40371    40150 
   40012    39996    40117    40363    40691    41041    41353    41585 
   41728    41779    41739    41625    41470    41304    41143    41006 
   40906    40849    40832    40851    40890    40932    40967    40990 
   41006    41029    41065    41104    41121    41098    41041    40960 
   40880    40830    40829    40891    41006    41141    41260    41324 
   41319    41251    41145    41031    40940    40879    40837    40798 
   40763    40733    40716    40740    40824    40950    41094    41222 
   41301    41315    41269    41185    41092    41019    40983    40983 
   41006    41037    41065    41089    41131    41200    41285    41369 
   41435    41470    41472    41442    41384    41295    41188    41065 
   40927    40783    40648    40540    40485    40497    40579    40734 
   40934    41142    41341    41513    41631    41693    41709    41671 
   41588    41466    41314    41126    40921    40716    40544    40448 
   40448    40547    40726    40948    41173    41382    41558    41690 
   41767    41779    41723    41597    41419    41222    41044    40917 
   40852    40837    40857    40902    40959    41023    41088    41138 
   41164    41162    41133    41081    41031    40999    40983    40992 
   41023    41058    41080    41076    41049    40996    40910    40809 
   40717    40655    40647    40703    40826    41007    41206    41376 
   41486    41521    41492    41439    41396    41374    41365    41337 
   41251    41089    40865    40618    40412    40308    40332    40475 
   40702    40967    41214    41395    41486    41485    41407    41289 
   41166    41076    41049    41092    41183    41288    41359    41353 
   41258    41096    40894    40703    40571    40520    40552    40662 
   40824    41002    41158    41273    41346    41396    41445    41509 
   41590    41662    41692    41652    41531    41350    41154    40995 
   40903    40896    40971    41085    41204    41299    41346    41322 
   41211    41011    40749    40470    40227    40096    40126    40316 
   40635    41013    41373    41662    41840    41902    41877    41794 
   41671    41530    41386    41239    41085    40922    40760    40624 
   40528    40463    40423    40406    40414    40455    40541    40672 
   40824    40971    41112    41256    41389    41513    41625    41696 
   41704    41634    41484    41272    41042    40841    40703    40637 
   40629    40655    40695    40744    40805    40883    40987    41112 
   41241    41345    41407    41423    41396    41343    41277    41207 
   41138    41076    41022    40972    40930    40906    40899    40910 
   40919    40909    40863    40791    40732    40730    40818    41000 
   41249    41499    41690    41774    41733    41586    41374    41141 
   40922    40745    40629    40581    40599    40678    40807    40969 
   41131    41264    41358    41418    41447    41453    41442    41407 
   41335    41223    41083    40937    40814    40733    40718    40775 
   40899    41071    41253    41392    41445    41391    41237    41007 
   40745    40504    40335    40266    40305    40459    40720    41056 
   41423    41775    42053    42199    42188    42039    41782    41461 
   41116    40786    40501    40278    40122    40032    40019    40086 
   40244    40486    40797    41153    41521    41836    42028    42053 
   41901    41600    41223    40861    40598    40477    40493    40618 
   40813    41031    41243    41432    41588    41701    41758    41732 
   41596    41337    40965    40544    40154    39866    39731    39775 
   39989    40336    40759    41204    41608    41890    41998    41913 
   41651    41270    40863    40525    40328    40311    40458    40707 
   40991    41246    41432    41551    41611    41616    41584    41515 
   41397    41233    41049    40880    40763    40728    40782    40911 
   41081    41238    41346    41385    41339    41208    41000    40752 
   40520    40342    40248    40248    40333    40479    40667    40883 
   41111    41323    41508    41654    41743    41763    41721    41631 
   41515    41384    41241    41087    40930    40784    40678    40643 
   40686    40791    40945    41135    41346    41562    41758    41906 
   41983    41976    41878    41683    41403    41067    40717    40386 
   40096    39856    39668    39548    39514    39588    39789    40122 
   40562    41071    41589    42030    42314    42407    42334    42148 
   41917    41689    41482    41285    41088    40903    40749    40656 
   40645    40716    40844    40980    41065    41064    40984    40867 
   40765    40716    40724    40780    40868    40976    41103    41257 
   41443    41661    41883    42056    42115    42013    41729    41296 
   40794    40327    39984    39831    39904    40185    40620    41138 
   41656    42095    42391    42508    42462    42290    42052    41812 
   41605    41461    41396    41416    41513    41665    41827    41937 
   41940    41805    41532    41127    40616    40058    39528    39096 
   38832    38788    38997    39459    40101    40821    41509    42074 
   42457    42646    42665    42542    42306    41979    41590    41183 
   40799    40474    40238    40100    40047    40072    40165    40320 
   40528    40776    41045    41312    41532    41663    41679    41577 
   41376    41122    40869    40657    40524    40478    40512    40617 
   40776    40953    41111    41218    41241    41165    40995    40761 
   40501    40261    40088    40019    40085    40304    40672    41157 
   41702    42242    42703    43021    43155    43077    42785    42322 
   41748    41138    40578    40138    39842    39690    39654    39694 
   39775    39885    40039    40274    40617    41058    41559    42056 
   42473    42738    42808    42701    42473    42188    41928    41756 
   41686    41686    41705    41670    41534    41293    40987    40683 
   40451    40329    40335    40437    40586    40721    40786    40761 
   40672    40566    40504    40540    40695    40944    41241    41515 
   41706    41813    41870    41921    42003    42133    42288    42418 
   42434    42259    41867    41292    40617    39978    39510    39289 
   39332    39598    39995    40409    40744    40944    41008    40972 
   40886    40802    40755    40749    40764    40787    40830    40911 
   41037    41199    41374    41531    41642    41675    41616    41467 
   41238    40946    40645    40402    40296    40397    40733    41260 
   41862    42394    42724    42781    42581    42218    41814    41484 
   41284    41206    41189    41165    41077    40906    40672    40423 
   40209    40086    40077    40169    40323    40490    40628    40711 
   40729    40680    40587    40495    40474    40583    40856    41274 
   41764    42215    42522    42606    42437    42053    41524    40926 
   40339    39831    39440    39183    39069    39098    39260    39528 
   39884    40324    40846    41436    42060    42654    43139    43429 
   43470    43258    42844    42338    41872    41535    41337    41237 
   41139    40923    40525    39978    39374    38842    38520    38487 
   38742    39199    39714    40146    40414    40514    40522    40559 
   40740    41119    41665    42280    42850    43252    43402    43287 
   42957    42500    42024    41600    41245    40925    40610    40282 
   39933    39602    39363    39258    39321    39546    39877    40242 
   40587    40883    41122    41315    41497    41716    41997    42341 
   42720    43065    43281    43283    43016    42480    41751    40952 
   40239    39739    39514    39534    39703    39910    40086    40211 
   40296    40379    40506    40683    40888    41087    41251    41357 
   41420    41492    41628    41872    42228    42634    43005    43251 
   43272    43011    42484    41763    40950    40171    39537    39124 
   38944    38958    39100    39302    39507    39687    39843    40011 
   40232    40541    40952    41443    41958    42419    42766    42959 
   42989    42873    42653    42377    42074    41744    41366    40930 
   40448    39954    39494    39131    38923    38897    39037    39298 
   39617    39927    40192    40417    40621    40836    41104    41465 
   41928    42456    42978    43398    43606    43517    43109    42429 
   41594    40768    40104    39707    39626    39831    40243    40756 
   41258    41651    41887    41960    41875    41661    41354    40986 
   40581    40178    39818    39559    39463    39573    39897    40385 
   40933    41424    41764    41904    41848    41662    41420    41175 
   40968    40841    40821    40941    41208    41601    42060    42495 
   42803    42905    42776    42448    42007    41551    41160    40876 
   40705    40618    40595    40599    40601    40591    40586    40599 
   40648    40734    40864    41042    41262    41497    41708    41836 
   41831    41669    41365    40981    40614    40351    40247    40313 
   40512    40760    40981    41126    41181    41168    41129    41098 
   41098    41146    41249    41404    41596    41793    41941    41995 
   41910    41659    41247    40729    40185    39702    39339    39140 
   39116    39239    39457    39719    39985    40242    40510    40825 
   41203    41635    42080    42472    42749    42861    42769    42457 
   41947    41295    40595    39972    39518    39283    39290    39519 
   39912    40398    40921    41440    41920    42327    42628    42780 
   42759    42574    42276    41940    41636    41418    41338    41412 
   41607    41863    42098    42225    42168    41867    41314    40559 
   39710    38923    38367    38134    38249    38666    39294    40032 
   40799    41524    42164    42681    43025    43166    43087    42799 
   42341    41785    41204    40668    40248    39999    39927    40012 
   40198    40414    40590    40694    40730    40734    40753    40822 
   40959    41149    41358    41531    41616    41594    41501    41380 
   41272    41207    41192    41214    41264    41322    41365    41365 
   41291    41122    40882    40602    40328    40139    40104    40261 
   40613    41107    41651    42132    42437    42508    42357    42036 
   41631    41241    40944    40772    40721    40770    40892    41052 
   41223    41392    41530    41602    41581    41457    41237    40950 
   40656    40402    40232    40181    40250    40427    40690    41011 
   41358    41689    41958    42129    42178    42093    41889    41602 
   41270    40944    40675    40487    40377    40323    40289    40231 
   40131    39997    39864    39779    39793    39935    40211    40612 
   41102    41628    42136    42542    42774    42796    42615    42296 
   41933    41612    41396    41301    41296    41337    41370    41370 
   41358    41372    41436    41553    41688    41786    41797    41686 
   41458    41164    40868    40635    40510    40490    40521    40535 
   40466    40281    40003    39698    39451    39344    39432    39721 
   40178    40755    41386    42007    42561    43012    43333    43495 
   43470    43237    42793    42137    41304    40377    39463    38653 
   38025    37648    37554    37743    38194    38853    39627    40447 
   41264    42049    42785    43449    43983    44302    44342    44074 
   43529    42778    41926    41091    40359    39787    39401    39190 
   39128    39201    39399    39704    40099    40540    40971    41335 
   41607    41775    41851    41867    41862    41871    41910    41958 
   41967    41879    41654    41289    40828    40336    39889    39549 
   39349    39309    39442    39746    40189    40713    41235    41685 
   42017    42210    42264    42203    42052    41825    41550    41262 
   40990    40764    40626    40597    40662    40774    40863    40875 
   40797    40645    40474    40350    40315    40358    40436    40502 
   40517    40462    40365    40289    40300    40454    40776    41242 
   41778    42286    42676    42888    42898    42728    42417    42033 
   41638    41273    40975    40761    40626    40551    40490    40423 
   40354    40315    40342    40470    40705    41011    41327    41582 
   41731    41773    41736    41656    41555    41431    41268    41048 
   40776    40482    40208    40011    39938    40014    40221    40522 
   40863    41210    41563    41929    42302    42660    42957    43154 
   43204    43067    42735    42209    41523    40743    39938    39189 
   38581    38184    38038    38157    38520    39070    39741    40485 
   41266    42051    42797    43437    43893    44084    43947    43480 
   42747    41855    40946    40163    39590    39256    39152    39224 
   39414    39677    39993    40369    40810    41318    41866    42394 
   42815    43048    43035    42768    42295    41713    41126    40622 
   40250    40004    39853    39758    39685    39646    39687    39839 
   40111    40475    40875    41242    41520    41682    41743    41733 
   41673    41582    41480    41377    41284    41211    41156    41104 
   41049    40988    40937    40914    40938    41034    41214    41461 
   41737    41983    42124    42107    41925    41605    41214    40824 
   40505    40309    40267    40379    40621    40946    41293    41596 
   41800    41866    41791    41615    41403    41212    41088    41041 
   41052    41083    41085    41021    40867    40635    40373    40142 
   40000    39989    40122    40377    40710    41080    41446    41770 
   42007    42107    42044    41828    41515    41183    40900    40709 
   40606    40549    40481    40359    40182    39984    39830    39783 
   39881    40135    40518    40973    41423    41794    42026    42091 
   42003    41804    41534    41235    40957    40734    40598    40583 
   40713    40977    41334    41727    42090    42360    42488    42452 
   42246    41894    41451    40986    40572    40285    40165    40216 
   40412    40698    40996    41226    41330    41289    41125    40899 
   40701    40597    40630    40813    41114    41481    41851    42160 
   42363    42433    42361    42152    41818    41393    40918    40435 
   39995    39650    39438    39375    39457    39663    39949    40277 
   40618    40952    41247    41485    41655    41755    41774    41704 
   41554    41332    41056    40748    40431    40136    39916    39816 
   39879    40127    40548    41098    41708    42295    42755    42998 
   42961    42624    42048    41346    40655    40113    39819    39806 
   40045    40450    40909    41337    41689    41952    42132    42242 
   42292    42272    42178    42018    41812    41592    41393    41243 
   41146    41098    41079    41083    41103    41139    41188    41235 
   41257    41238    41191    41143    41134    41208    41370    41592 
   41806    41924    41867    41621    41246    40856    40574    40468 
   40544    40740    40952    41091    41100    40977    40767    40533 
   40343    40243    40238    40300    40374    40402    40360    40255 
   40134    40055    40066    40182    40396    40678    41000    41338 
   41661    41928    42093    42106    41951    41644    41233    40782 
   40355    40012    39800    39744    39839    40072    40419    40849 
   41330    41810    42233    42533    42646    42561    42310    41944 
   41539    41172    40900    40749    40713    40760    40861    40983 
   41094    41185    41257    41291    41268    41187    41054    40903 
   40779    40707    40717    40825    41010    41235    41458    41620 
   41656    41527    41233    40828    40406    40076    39933    40016 
   40311    40749    41234    41669    41982    42133    42126    41995 
   41778    41521    41266    41035    40832    40664    40556    40528 
   40585    40709    40860    40987    41044    41015    40918    40783 
   40648    40541    40479    40462    40483    40560    40709    40927 
   41208    41517    41804    42029    42178    42264    42317    42350 
   42369    42363    42288    42120    41847    41469    41008    40512 
   40019    39573    39218    38988    38908    38992    39217    39553 
   39980    40481    41038    41628    42214    42745    43167    43436 
   43511    43376    43020    42456    41742    40950    40159    39447 
   38871    38488    38334    38418    38724    39212    39827    40495 
   41137    41674    42047    42219    42198    42028    41783    41558 
   41431    41445    41605    41858    42093    42203    42118    41814 
   41334    40772    40243    39839    39622    39618    39818    40178 
   40636    41116    41543    41859    42032    42059    41967    41801 
   41605    41430    41310    41246    41211    41166    41073    40917 
   40711    40483    40269    40100    39996    39970    40028    40181 
   40433    40765    41135    41486    41752    41883    41863    41710 
   41472    41212    40992    40853    40815    40857    40950    41072 
   41204    41349    41504    41652    41770    41824    41779    41625 
   41372    41060    40749    40481    40292    40186    40135    40105 
