Origin Time       2024/04/02 04:24:00
Lat.              40.133
Long.             141.712
Depth. (km)       71
Mag.              6.0
Station Code      HDKH02
Station Lat.      42.7061
Station Long.     142.4054
Station Height(m) 120
Record Time       2024/04/02 04:25:34
Sampling Freq(Hz) 100Hz
Duration Time(s)  120
Dir.              2
Scale Factor      2940(gal)/6170270
Max. Acc. (gal)   0.443
Last Correction   2024/04/02 04:25:19
Memo.             
[...]
   66529    66501    66446    66413    66447    66495    66491    66462 
   66459    66492    66554    66632    66717    66786    66799    66792 
   66828    66892    66955    66980    66932    66840    66746    66673 
   66648    66667    66693    66703    66723    66759    66759    66744 
   66747    66706    66659    66718    66838    66933    67001    67038 
   67042    67038    67033    67016    67011    67047    67054    66951 
   66828    66784    66777    66782    66806    66802    66746    66691 
   66695    66746    66815    66871    66881    66887    66945    66972 
   66901    66812    66739    66684    66696    66754    66791    66807 
   66801    66747    66668    66619    66622    66642    66659    66676 
   66670    66649    66640    66636    66670    66742    66757    66745 
   66836    66959    66982    66933    66883    66868    66883    66865 
   66806    66761    66754    66784    66834    66882    66926    66925 
   66855    66780    66739    66700    66667    66676    66727    66775 
   66810    66866    66927    66941    66912    66854    66778    66728 
   66733    66757    66750    66725    66731    66766    66767    66740 
   66747    66770    66764    66735    66679    66621    66629    66690 
   66725    66711    66672    66646    66627    66565    66471    66415 
   66426    66487    66584    66707    66827    66912    66956    66958 
   66934    66899    66826    66715    66632    66613    66633    66656 
   66670    66687    66717    66770    66818    66811    66766    66737 
   66709    66662    66622    66623    66654    66675    66696    66731 
   66740    66746    66803    66885    66960    67020    67072    67120 
   67125    67076    66997    66836    66598    66435    66422    66496 
   66597    66700    66781    66795    66769    66783    66806    66776 
   66729    66676    66591    66522    66501    66502    66522    66542 
   66551    66590    66647    66675    66696    66731    66753    66749 
   66716    66667    66635    66618    66615    66656    66728    66782 
   66811    66840    66876    66879    66823    66733    66651    66630 
   66696    66798    66877    66916    66920    66944    66981    66923 
   66775    66680    66701    66775    66834    66851    66798    66679 
   66575    66533    66538    66593    66650    66643    66620    66657 
   66729    66782    66817    66846    66860    66843    66784    66693 
   66599    66523    66478    66496    66582    66667    66700    66692 
   66662    66619    66598    66645    66743    66804    66802    66786 
   66786    66795    66773    66716    66732    66852    66956    66984 
   66970    66915    66815    66730    66720    66766    66821    66860 
   66828    66738    66698    66729    66786    66872    66966    67041 
   67100    67116    67108    67127    67134    67108    67086    67060 
   66963    66761    66563    66494    66477    66422    66395    66424 
   66476    66562    66639    66662    66692    66760    66833    66885 
   66897    66892    66892    66906    66955    67017    67023    66938 
   66779    66600    66471    66422    66437    66466    66475    66471 
   66447    66386    66305    66261    66320    66439    66523    66597 
   66699    66753    66757    66806    66915    67023    67072    67023 
   66901    66772    66662    66598    66637    66764    66848    66820 
   66775    66790    66823    66852    66907    66990    67053    67021 
   66893    66794    66777    66768    66770    66837    66935    66999 
   67013    67020    67064    67088    67030    66982    67032    67120 
   67174    67190    67193    67216    67233    67196    67120    67038 
   66963    66890    66824    66803    66803    66771    66758    66783 
   66798    66818    66842    66844    66862    66890    66909    66933 
   66936    66916    66894    66873    66905    67020    67149    67233 
   67245    67199    67134    67013    66844    66730    66695    66669 
   66626    66638    66746    66830    66804    66738    66656    66528 
   66387    66284    66247    66255    66262    66310    66434    66576 
   66694    66797    66863    66857    66804    66750    66700    66667 
   66657    66624    66569    66554    66571    66560    66537    66556 
   66592    66575    66524    66499    66478    66426    66388    66399 
   66446    66509    66582    66647    66682    66692    66680    66642 
   66597    66555    66516    66497    66533    66631    66736    66814 
   66909    67023    67088    67066    66990    66942    66933    66882 
   66805    66782    66804    66871    67015    67198    67346    67447 
   67491    67427    67285    67171    67124    67110    67110    67112 
   67132    67220    67338    67394    67396    67387    67352    67296 
   67247    67192    67139    67126    67129    67108    67116    67185 
   67211    67140    67075    67071    67071    67037    66956    66847 
   66768    66713    66635    66567    66558    66575    66551    66471 
   66386    66346    66347    66368    66385    66381    66358    66333 
   66333    66351    66358    66406    66501    66539    66503    66451 
   66425    66470    66550    66586    66599    66628    66636    66572 
   66416    66230    66117    66115    66201    66293    66314    66334 
   66428    66542    66616    66645    66639    66620    66595    66602 
   66701    66849    66960    67026    67051    67024    66955    66852 
   66739    66664    66644    66696    66831    66977    67051    67054 
   67033    67030    67062    67100    67135    67174    67190    67173 
   67114    67001    66911    66911    66917    66875    66825    66770 
   66717    66727    66799    66878    66970    67111    67234    67242 
   67165    67072    66985    66936    66918    66872    66804    66776 
   66788    66772    66710    66639    66560    66459    66380    66363 
   66382    66391    66382    66396    66434    66419    66348    66298 
   66291    66304    66334    66394    66495    66637    66819    67008 
   67140    67207    67219    67148    66995    66821    66699    66652 
   66646    66644    66625    66564    66482    66426    66443    66535 
   66600    66590    66608    66683    66716    66690    66660    66639 
   66609    66576    66591    66679    66801    66923    67028    67112 
   67192    67255    67283    67290    67249    67117    66946    66808 
   66714    66655    66628    66636    66677    66724    66754    66754 
   66738    66743    66759    66740    66715    66728    66761    66776 
   66780    66805    66844    66881    66936    66966    66919    66859 
   66856    66874    66870    66837    66761    66643    66547    66523 
   66540    66556    66572    66576    66578    66620    66697    66782 
   66844    66860    66874    66948    67060    67163    67248    67265 
   67165    67020    66937    66906    66888    66921    67008    67103 
   67162    67138    67043    66942    66864    66802    66757    66737 
   66734    66744    66771    66788    66760    66721    66713    66726 
   66753    66763    66730    66701    66718    66749    66766    66788 
   66830    66837    66749    66598    66468    66395    66398    66487 
   66623    66731    66771    66786    66808    66789    66751    66827 
   67032    67242    67369    67391    67328    67230    67132    67041 
   66947    66859    66783    66718    66694    66708    66699    66651 
   66582    66471    66335    66254    66252    66295    66398    66597 
   66830    66994    67072    67082    67029    66997    67036    67040 
   66934    66786    66653    66557    66555    66654    66772    66849 
   66875    66824    66704    66570    66469    66451    66554    66724 
   66853    66893    66872    66848    66856    66889    66910    66908 
   66917    66890    66735    66518    66361    66244    66124    66024 
   65994    66056    66133    66132    66091    66122    66273    66470 
   66634    66762    66820    66775    66697    66648    66655    66730 
   66806    66826    66810    66757    66654    66540    66446    66364 
   66316    66346    66435    66542    66666    66786    66876    66974 
   67083    67161    67201    67210    67188    67144    67079    66986 
   66895    66842    66817    66818    66843    66843    66811    66813 
   66859    66922    67004    67048    67008    66989    67073    67193 
   67280    67336    67341    67260    67153    67089    67041    66971 
   66891    66816    66773    66746    66690    66650    66650    66625 
   66586    66600    66653    66697    66733    66767    66798    66830 
   66863    66857    66789    66708    66646    66613    66650    66741 
   66807    66808    66753    66695    66673    66639    66580    66535 
   66487    66415    66342    66305    66349    66454    66539    66604 
   66703    66791    66791    66754    66770    66838    66903    66955 
   67004    67023    66993    66922    66831    66754    66709    66687 
   66697    66733    66750    66742    66745    66784    66845    66885 
   66875    66824    66758    66693    66628    66580    66576    66562 
   66491    66420    66391    66407    66483    66595    66718    66849 
   66937    66939    66883    66797    66685    66568    66505    66539 
   66647    66765    66857    66947    67064    67170    67196    67137 
   67051    66974    66882    66759    66634    66549    66524    66544 
   66591    66651    66685    66696    66748    66846    66942    67006 
   67047    67086    67114    67126    67139    67125    67058    66972 
   66898    66883    66954    67013    66975    66879    66793    66742 
   66714    66706    66727    66740    66717    66673    66612    66568 
   66571    66592    66633    66716    66803    66859    66884    66911 
   66978    67054    67080    67039    66936    66804    66676    66555 
   66471    66435    66406    66405    66470    66539    66582    66646 
   66736    66830    66896    66914    66938    67009    67090    67145 
   67155    67101    66998    66871    66779    66795    66879    66936 
   66929    66855    66720    66531    66335    66246    66292    66377 
   66436    66479    66547    66662    66794    66941    67123    67280 
   67334    67293    67199    67081    66943    66823    66806    66887 
   66971    67000    66955    66860    66777    66698    66579    66460 
   66388    66362    66361    66378    66429    66501    66573    66652 
   66708    66737    66795    66885    66973    67042    67066    67033 
   66995    66999    67026    67008    66904    66745    66605    66553 
   66584    66624    66634    66595    66506    66428    66396    66382 
   66378    66389    66415    66452    66499    66577    66700    66840 
   66948    66981    66965    66946    66905    66833    66766    66719 
   66705    66721    66743    66789    66874    66971    67056    67111 
   67140    67165    67186    67200    67173    67083    66979    66896 
   66829    66793    66792    66814    66847    66869    66863    66847 
   66839    66813    66735    66634    66566    66545    66565    66618 
   66680    66731    66789    66856    66894    66909    66926    66920 
   66880    66840    66804    66753    66701    66689    66724    66764 
   66768    66731    66679    66630    66599    66622    66721    66861 
   66984    67069    67110    67091    67028    66973    66952    66952 
   66947    66918    66863    66797    66749    66737    66768    66843 
   66919    66952    66967    66996    67035    67078    67129    67170 
   67151    67055    66941    66830    66703    66592    66529    66521 
   66589    66729    66877    66962    66967    66927    66875    66827 
   66800    66772    66697    66585    66479    66383    66286    66222 
   66223    66249    66239    66218    66240    66301    66363    66399 
   66404    66403    66411    66421    66447    66485    66532    66609 
   66705    66798    66879    66907    66870    66806    66715    66606 
   66528    66511    66540    66559    66557    66578    66606    66611 
   66612    66607    66596    66589    66583    66601    66649    66680 
   66674    66651    66626    66628    66694    66808    66891    66893 
   66870    66912    67029    67160    67268    67336    67326    67244 
   67153    67114    67135    67158    67141    67098    67039    66961 
   66862    66749    66673    66658    66651    66614    66563    66550 
   66607    66700    66795    66907    67047    67206    67363    67492 
   67565    67564    67509    67433    67371    67338    67277    67140 
   66963    66780    66596    66459    66404    66407    66433    66472 
   66525    66563    66562    66537    66520    66533    66579    66621 
   66641    66689    66770    66831    66872    66909    66925    66914 
   66877    66832    66783    66708    66631    66598    66600    66604 
   66610    66629    66684    66779    66872    66926    66942    66950 
   66981    67040    67109    67160    67169    67122    67008    66854 
   66733    66668    66610    66554    66534    66555    66597    66644 
   66689    66720    66725    66714    66686    66616    66509    66400 
   66307    66228    66179    66177    66206    66216    66182    66116 
   66042    65994    65994    66035    66098    66149    66159    66144 
   66139    66162    66211    66257    66295    66346    66406    66470 
   66539    66600    66638    66664    66682    66678    66650    66623 
   66609    66598    66584    66580    66616    66722    66870    66986 
   67046    67094    67146    67197    67249    67289    67281    67231 
   67178    67156    67195    67302    67404    67441    67459    67514 
   67589    67646    67685    67703    67677    67608    67527    67441 
   67337    67231    67139    67085    67091    67137    67189    67232 
   67267    67304    67336    67352    67359    67359    67340    67284 
   67207    67179    67208    67233    67240    67247    67237    67204 
   67167    67138    67121    67098    67034    66916    66766    66625 
   66540    66534    66578    66614    66610    66588    66576    66566 
   66551    66530    66482    66399    66304    66242    66216    66187 
   66141    66108    66117    66183    66293    66423    66553    66634 
   66624    66549    66435    66284    66157    66127    66146    66134 
   66109    66109    66130    66178    66247    66310    66362    66400 
   66418    66428    66431    66405    66340    66257    66221    66255 
   66304    66330    66351    66386    66425    66441    66461    66529 
   66617    66686    66742    66792    66853    66923    66977    67021 
   67059    67065    67038    66991    66935    66893    66870    66867 
   66877    66879    66887    66895    66865    66823    66801    66794 
   66824    66901    66984    67054    67106    67132    67146    67168 
   67188    67191    67173    67117    67006    66863    66731    66605 
   66463    66340    66272    66242    66251    66312    66398    66495 
   66609    66713    66790    66856    66923    66988    67044    67079 
   67106    67156    67225    67276    67292    67278    67219    67115 
   67024    66983    66967    66958    66964    66990    67044    67126 
   67194    67218    67225    67242    67281    67337    67364    67350 
   67332    67325    67323    67333    67324    67279    67233    67203 
   67194    67224    67264    67271    67258    67253    67244    67225 
   67218    67215    67176    67093    66972    66827    66700    66613 
   66553    66527    66530    66535    66524    66492    66459    66460 
   66505    66561    66578    66541    66484    66448    66449    66488 
   66549    66611    66644    66616    66544    66467    66392    66344 
   66321    66271    66201    66157    66136    66134    66163    66201 
   66228    66256    66296    66337    66396    66478    66525    66501 
   66451    66414    66408    66436    66500    66599    66709    66789 
   66829    66837    66831    66831    66836    66848    66872    66897 
   66899    66878    66858    66857    66855    66836    66814    66795 
   66770    66736    66694    66638    66571    66530    66532    66540 
   66529    66509    66483    66448    66416    66399    66402    66446 
   66550    66685    66809    66908    66956    66949    66920    66887 
   66857    66848    66844    66834    66828    66804    66745    66661 
   66572    66515    66510    66556    66637    66703    66735    66773 
   66826    66878    66942    67010    67074    67139    67163    67120 
   67046    66979    66942    66948    66981    67025    67063    67083 
   67104    67126    67136    67139    67133    67103    67065    67053 
   67063    67047    66987    66915    66846    66777    66698    66596 
   66499    66442    66420    66428    66483    66552    66586    66592 
   66578    66544    66530    66574    66637    66676    66696    66715 
   66747    66789    66830    66859    66864    66843    66797    66728 
   66669    66659    66683    66723    66778    66846    66934    67032 
   67104    67139    67149    67137    67123    67138    67193    67256 
   67285    67293    67312    67337    67357    67360    67323    67256 
   67203    67181    67158    67114    67065    67036    67021    67015 
   67022    67017    66964    66867    66754    66664    66635    66668 
   66744    66843    66927    66961    66960    66937    66874    66786 
   66714    66662    66613    66596    66625    66667    66691    66684 
   66649    66608    66588    66581    66561    66535    66525    66524 
   66537    66570    66606    66636    66662    66671    66666    66667 
   66664    66631    66582    66564    66580    66604    66629    66644 
   66625    66571    66503    66434    66379    66369    66413    66471 
   66509    66538    66580    66634    66689    66739    66781    66805 
   66780    66677    66537    66425    66346    66286    66265    66296 
   66355    66401    66425    66450    66484    66528    66580    66623 
   66652    66675    66686    66683    66673    66653    66619    66578 
   66548    66547    66569    66592    66609    66623    66620    66582 
   66533    66512    66517    66539    66576    66614    66650    66688 
   66742    66830    66936    67027    67109    67184    67227    67220 
   67175    67131    67113    67104    67077    67035    66993    66954 
   66908    66846    66781    66748    66773    66836    66890    66897 
   66844    66756    66677    66617    66567    66533    66523    66545 
   66589    66632    66655    66653    66640    66629    66606    66581 
   66589    66603    66589    66582    66622    66693    66754    66783 
   66794    66800    66795    66778    66739    66669    66587    66503 
   66419    66364    66348    66358    66387    66429    66472    66516 
   66565    66623    66686    66751    66818    66882    66937    66976 
   66989    66988    67000    67025    67034    67007    66956    66907 
   66886    66887    66874    66851    66837    66808    66748    66680 
   66619    66573    66568    66617    66708    66834    66970    67059 
   67084    67065    67027    66992    66981    66985    67015    67088 
   67159    67175    67152    67139    67158    67198    67220    67214 
   67199    67187    67178    67162    67131    67117    67143    67185 
   67217    67243    67270    67285    67291    67308    67337    67375 
   67418    67451    67465    67460    67443    67417    67379    67335 
   67275    67198    67132    67089    67047    66987    66919    66870 
   66847    66831    66823    66839    66854    66843    66815    66794 
