Origin Time       2024/04/02 04:24:00
Lat.              40.133
Long.             141.712
Depth. (km)       71
Mag.              6.0
Station Code      HDKH05
Station Lat.      42.5977
Station Long.     142.5446
Station Height(m) 205
Record Time       2024/04/02 04:25:45
Sampling Freq(Hz) 100Hz
Duration Time(s)  120
Dir.              1
Scale Factor      3920(gal)/6170801
Max. Acc. (gal)   0.227
Last Correction   2024/04/02 04:25:29
Memo.             
[...]
   37781    37779    37793    37789    37779    37788    37801    37795 
   37784    37782    37770    37750    37735    37726    37733    37750 
   37758    37765    37770    37772    37791    37811    37817    37827 
   37829    37791    37740    37726    37769    37840    37899    37933 
   37952    37945    37923    37909    37905    37901    37877    37850 
   37867    37909    37937    37968    37985    37950    37896    37869 
   37867    37885    37923    37961    37984    38006    38032    38051 
   38054    38043    38013    37976    37962    37957    37930    37884 
   37824    37761    37747    37797    37841    37843    37843    37863 
   37891    37919    37933    37924    37887    37834    37792    37766 
   37752    37761    37788    37809    37820    37824    37838    37887 
   37938    37950    37940    37909    37846    37782    37749    37756 
   37780    37790    37787    37787    37787    37805    37848    37872 
   37868    37870    37856    37809    37768    37759    37782    37811 
   37821    37824    37824    37804    37778    37759    37743    37723 
   37699    37692    37727    37771    37807    37863    37913    37912 
   37884    37842    37777    37719    37691    37667    37641    37631 
   37636    37658    37690    37707    37721    37753    37785    37805 
   37803    37774    37739    37716    37697    37665    37619    37597 
   37626    37668    37718    37806    37879    37902    37924    37927 
   37873    37814    37784    37762    37749    37745    37743    37755 
   37759    37745    37744    37739    37700    37677    37710    37764 
   37803    37809    37785    37752    37731    37733    37751    37774 
   37794    37798    37801    37835    37870    37870    37870    37879 
   37857    37817    37795    37773    37743    37738    37764    37801 
   37856    37915    37947    37963    37981    37979    37954    37934 
   37919    37888    37849    37826    37813    37812    37829    37867 
   37930    37995    38027    38032    38029    38013    37982    37951 
   37925    37905    37883    37848    37807    37782    37787    37808 
   37814    37808    37806    37804    37803    37807    37793    37765 
   37760    37770    37778    37823    37907    37968    37984    37976 
   37951    37929    37923    37917    37913    37916    37894    37844 
   37824    37857    37914    37970    38003    37990    37947    37919 
   37918    37930    37929    37901    37889    37922    37951    37941 
   37928    37924    37892    37827    37776    37767    37786    37831 
   37900    37976    38039    38049    38019    38007    38013    37991 
   37941    37890    37843    37808    37820    37885    37954    37989 
   37992    37950    37847    37721    37637    37642    37723    37819 
   37883    37904    37902    37917    37949    37962    37945    37902 
   37841    37802    37801    37805    37816    37844    37842    37802 
   37792    37813    37820    37827    37847    37844    37788    37711 
   37669    37670    37683    37691    37696    37702    37721    37764 
   37815    37851    37860    37838    37801    37783    37792    37816 
   37846    37880    37907    37916    37927    37959    37986    37988 
   37986    37979    37954    37933    37908    37852    37789    37734 
   37669    37618    37593    37583    37612    37660    37652    37611 
   37610    37639    37680    37752    37830    37884    37919    37919 
   37875    37817    37754    37680    37617    37584    37603    37684 
   37789    37870    37917    37946    37965    37979    37979    37940 
   37862    37791    37760    37759    37794    37864    37924    37944 
   37952    37960    37965    37983    38008    38006    37958    37881 
   37815    37789    37790    37808    37843    37879    37907    37942 
   37989    38038    38100    38152    38138    38082    38050    38020 
   37971    37951    37938    37870    37787    37737    37695    37673 
   37701    37750    37808    37879    37905    37860    37795    37725 
   37655    37626    37639    37646    37631    37615    37623    37665 
   37719    37755    37770    37768    37745    37719    37703    37692 
   37676    37650    37621    37605    37606    37626    37660    37680 
   37696    37746    37819    37879    37930    37975    37993    37997 
   38008    38007    37990    37976    37958    37946    37956    37960 
   37952    37962    37989    38026    38077    38122    38153    38183 
   38176    38100    37983    37867    37787    37758    37761    37781 
   37810    37825    37829    37835    37834    37813    37777    37747 
   37751    37799    37849    37877    37904    37923    37904    37862 
   37836    37828    37809    37773    37744    37737    37750    37775 
   37779    37751    37730    37728    37729    37753    37800    37822 
   37793    37740    37708    37710    37740    37796    37849    37865 
   37866    37891    37928    37951    37958    37941    37908    37901 
   37935    37996    38080    38157    38173    38129    38066    38010 
   37981    37984    37975    37928    37868    37811    37756    37722 
   37714    37711    37716    37745    37782    37805    37826    37853 
   37858    37839    37805    37744    37674    37652    37671    37693 
   37719    37766    37831    37891    37906    37870    37819    37750 
   37674    37658    37690    37696    37691    37705    37720    37735 
   37745    37747    37782    37842    37863    37831    37782    37740 
   37717    37708    37694    37659    37622    37609    37625    37662 
   37709    37764    37825    37886    37940    37968    37959    37955 
   37982    38013    38029    38006    37928    37857    37845    37862 
   37877    37882    37865    37836    37804    37747    37679    37639 
   37654    37716    37786    37829    37834    37812    37776    37762 
   37808    37899    37976    38016    38026    38007    37972    37953 
   37941    37902    37853    37825    37804    37782    37772    37762 
   37732    37691    37641    37569    37522    37551    37608    37649 
   37709    37789    37849    37896    37951    38002    38025    38008 
   37981    37978    37985    37977    37958    37920    37861    37834 
   37888    37998    38103    38165    38167    38136    38116    38104 
   38078    38036    37980    37919    37882    37863    37829    37776 
   37729    37706    37692    37686    37723    37789    37811    37782 
   37743    37711    37708    37742    37770    37766    37738    37705 
   37686    37684    37690    37722    37769    37780    37760    37760 
   37774    37789    37812    37807    37755    37712    37696    37684 
   37688    37713    37735    37756    37793    37840    37883    37910 
   37898    37856    37829    37835    37851    37870    37890    37900 
   37898    37888    37876    37866    37865    37877    37886    37881 
   37868    37852    37857    37886    37913    37934    37952    37938 
   37893    37844    37804    37800    37834    37866    37887    37889 
   37871    37877    37921    37956    37969    37977    37968    37930 
   37881    37838    37803    37780    37770    37774    37803    37854 
   37893    37904    37918    37940    37950    37952    37950    37944 
   37958    37978    37968    37948    37951    37958    37948    37935 
   37935    37924    37879    37814    37759    37709    37656    37626 
   37626    37646    37688    37729    37744    37759    37789    37794 
   37779    37798    37848    37878    37892    37916    37933    37929 
   37923    37918    37906    37891    37873    37862    37878    37921 
   37975    38021    38048    38043    38002    37946    37921    37936 
   37956    37970    38001    38037    38039    38016    37986    37937 
   37875    37813    37752    37715    37718    37735    37742    37731 
   37687    37633    37626    37662    37690    37703    37719    37739 
   37754    37753    37743    37748    37772    37777    37759    37751 
   37756    37746    37726    37710    37711    37745    37791    37809 
   37813    37818    37801    37768    37757    37742    37711    37701 
   37704    37703    37730    37783    37810    37802    37784    37776 
   37790    37813    37825    37838    37859    37869    37865    37853 
   37825    37784    37768    37812    37903    37996    38064    38087 
   38074    38079    38114    38130    38104    38035    37932    37848 
   37811    37787    37769    37771    37776    37775    37767    37751 
   37741    37739    37736    37730    37716    37694    37682    37681 
   37672    37670    37686    37694    37698    37718    37741    37768 
   37809    37843    37858    37859    37822    37757    37709    37691 
   37699    37743    37808    37874    37924    37948    37958    37964 
   37961    37974    38020    38049    38032    38024    38055    38081 
   38083    38068    38035    37999    37981    37982    37993    37998 
   37981    37930    37864    37804    37746    37688    37662    37673 
   37670    37630    37594    37590    37616    37674    37732    37755 
   37763    37767    37760    37765    37785    37798    37805    37812 
   37826    37851    37877    37895    37905    37900    37880    37865 
   37858    37847    37822    37796    37787    37805    37838    37862 
   37863    37848    37827    37810    37802    37796    37801    37818 
   37825    37828    37848    37857    37823    37768    37723    37697 
   37680    37663    37657    37676    37699    37703    37692    37680 
   37684    37711    37744    37769    37801    37844    37884    37901 
   37893    37868    37848    37839    37838    37859    37894    37914 
   37920    37930    37933    37933    37933    37908    37870    37864 
   37892    37930    37966    37987    37980    37948    37901    37874 
   37885    37916    37961    38026    38067    38056    38024    37987 
   37953    37934    37923    37925    37949    37970    37978    37982 
   37976    37961    37949    37941    37938    37944    37953    37951 
   37923    37865    37801    37774    37785    37781    37770    37786 
   37798    37788    37794    37813    37822    37828    37830    37827 
   37841    37883    37946    37994    37991    37960    37930    37891 
   37847    37809    37769    37741    37740    37753    37783    37836 
   37872    37871    37867    37876    37891    37902    37907    37917 
   37933    37943    37947    37965    37995    38023    38040    38047 
   38057    38061    38043    38017    37987    37936    37883    37845 
   37805    37768    37743    37713    37679    37646    37605    37577 
   37578    37585    37582    37575    37572    37577    37599    37626 
   37629    37617    37624    37636    37629    37630    37650    37674 
   37708    37760    37819    37878    37925    37946    37932    37901 
   37876    37863    37863    37884    37919    37946    37965    37965 
   37929    37873    37831    37794    37746    37701    37675    37677 
   37715    37771    37814    37837    37851    37871    37903    37946 
   37989    38014    38019    38025    38022    37986    37947    37930 
   37907    37889    37910    37948    37986    38026    38047    38054 
   38071    38071    38038    37996    37951    37901    37863    37838 
   37824    37813    37799    37788    37796    37816    37815    37785 
   37759    37753    37762    37794    37837    37849    37811    37756 
   37721    37699    37688    37702    37739    37777    37791    37771 
   37722    37673    37645    37629    37639    37682    37724    37762 
   37807    37843    37877    37918    37944    37955    37960    37944 
   37921    37918    37922    37934    37965    37979    37958    37928 
   37893    37856    37828    37800    37782    37794    37796    37753 
   37700    37680    37696    37737    37789    37828    37859    37891 
   37910    37911    37909    37905    37887    37858    37842    37850 
   37868    37897    37926    37926    37904    37871    37816    37762 
   37731    37696    37656    37630    37621    37625    37623    37609 
   37613    37635    37654    37684    37741    37798    37830    37833 
   37808    37766    37721    37674    37639    37644    37681    37716 
   37735    37756    37777    37778    37773    37799    37858    37916 
   37952    37967    37973    37972    37967    37963    37956    37937 
   37917    37911    37911    37902    37881    37848    37812    37797 
   37802    37816    37843    37871    37884    37893    37885    37851 
   37810    37782    37769    37773    37775    37762    37759    37773 
   37775    37753    37725    37702    37695    37712    37739    37761 
   37780    37784    37775    37773    37773    37763    37759    37767 
   37786    37812    37828    37825    37831    37853    37871    37891 
   37924    37957    37981    38005    38020    38018    38012    38009 
   38005    38003    37993    37970    37948    37945    37953    37962 
   37973    37972    37948    37927    37913    37901    37918    37963 
   38001    38034    38069    38088    38091    38081    38057    38045 
   38054    38062    38071    38073    38048    38019    37998    37960 
   37911    37871    37828    37784    37761    37764    37795    37844 
   37883    37899    37906    37910    37905    37889    37866    37844 
   37835    37820    37782    37753    37745    37747    37757    37761 
   37745    37734    37745    37772    37803    37829    37842    37837 
   37808    37779    37775    37794    37813    37819    37819    37825 
   37851    37898    37946    37988    38017    38009    37972    37939 
   37896    37829    37765    37700    37613    37534    37494    37480 
   37489    37513    37515    37505    37525    37558    37574    37574 
   37568    37568    37584    37609    37640    37677    37713    37744 
   37763    37763    37749    37723    37679    37647    37654    37675 
   37694    37718    37732    37733    37747    37769    37774    37770 
   37760    37731    37708    37714    37729    37751    37784    37806 
   37810    37813    37817    37829    37840    37841    37840    37836 
   37818    37801    37785    37759    37740    37752    37781    37814 
   37851    37882    37905    37921    37930    37933    37927    37911 
   37906    37923    37945    37965    37977    37963    37931    37916 
   37915    37908    37901    37904    37915    37928    37951    37984 
   38003    38007    38011    38012    38004    37990    37968    37945 
   37928    37910    37887    37879    37890    37902    37900    37893 
   37887    37874    37860    37857    37857    37857    37862    37859 
   37858    37888    37921    37929    37942    37957    37959    37978 
   38003    38001    37988    37969    37937    37925    37946    37976 
   37999    38012    38005    37980    37955    37932    37916    37919 
   37937    37945    37943    37950    37954    37940    37918    37893 
   37870    37860    37859    37859    37858    37852    37842    37834 
   37835    37840    37844    37845    37833    37801    37769    37751 
   37733    37710    37682    37651    37627    37616    37611    37615 
   37629    37642    37656    37683    37714    37735    37753    37770 
   37795    37830    37858    37870    37883    37896    37897    37894 
   37900    37913    37929    37947    37964    37976    37974    37953 
   37921    37904    37917    37941    37951    37944    37923    37889 
   37852    37832    37837    37853    37856    37838    37808    37785 
   37780    37783    37781    37781    37785    37790    37802    37822 
   37844    37868    37888    37883    37855    37833    37821    37803 
   37788    37787    37795    37805    37822    37841    37857    37869 
   37868    37859    37856    37853    37822    37758    37684    37620 
   37590    37603    37638    37680    37720    37740    37739    37737 
   37748    37777    37810    37834    37854    37863    37848    37836 
   37848    37857    37854    37860    37870    37883    37911    37938 
   37950    37959    37970    37977    37979    37978    37983    37996 
   38002    37991    37965    37931    37893    37852    37809    37763 
   37726    37721    37741    37766    37795    37826    37840    37839 
   37832    37822    37811    37797    37790    37791    37786    37775 
   37760    37729    37701    37696    37705    37733    37778    37809 
   37826    37848    37860    37851    37842    37836    37820    37814 
   37830    37839    37823    37801    37790    37786    37785    37791 
   37798    37797    37791    37792    37812    37842    37861    37866 
   37867    37864    37849    37828    37816    37817    37821    37817 
   37823    37850    37879    37899    37916    37929    37927    37907 
   37884    37877    37886    37901    37911    37903    37881    37857 
   37830    37803    37785    37777    37774    37765    37751    37746 
   37752    37756    37757    37760    37749    37725    37716    37731 
   37761    37789    37795    37780    37761    37750    37753    37769 
   37788    37811    37829    37828    37821    37822    37820    37821 
   37833    37837    37833    37844    37854    37849    37854    37874 
   37889    37909    37932    37943    37944    37934    37908    37883 
   37867    37863    37877    37900    37914    37925    37943    37967 
   37990    38001    37992    37981    37983    37993    37997    37995 
   37981    37951    37919    37898    37881    37862    37851    37850 
   37844    37835    37843    37864    37882    37901    37914    37905 
   37889    37880    37872    37863    37851    37824    37798    37790 
   37791    37801    37821    37826    37819    37821    37824    37837 
   37869    37880    37855    37833    37825    37815    37810    37805 
   37794    37792    37784    37751    37718    37698    37670    37642 
   37630    37624    37630    37657    37685    37709    37729    37733 
   37729    37731    37726    37714    37710    37707    37708    37723 
   37736    37742    37749    37742    37723    37716    37720    37731 
   37749    37761    37770    37782    37782    37769    37759    37747 
   37730    37722    37719    37712    37712    37715    37717    37741 
   37786    37832    37877    37920    37958    37994    38025    38053 
   38078    38076    38049    38029    38024    38020    38025    38031 
   38022    38015    38013    38003    37986    37969    37949    37935 
   37934    37932    37926    37926    37926    37912    37889    37860 
   37827    37805    37800    37804    37810    37807    37792    37768 
   37738    37709    37688    37672    37649    37630    37627    37626 
   37627    37641    37656    37670    37689    37705    37719    37725 
   37713    37702    37710    37722    37731    37750    37772    37795 
   37826    37857    37880    37887    37873    37855    37845    37833 
   37818    37810    37800    37783    37767    37755    37746    37743 
   37749    37751    37742    37732    37728    37730    37742    37761 
   37774    37789    37818    37846    37869    37896    37915    37925 
   37945    37964    37964    37958    37952    37945    37946    37957 
   37955    37939    37921    37903    37877    37849    37827    37820 
   37817    37815    37821    37829    37834    37840    37849    37862 
   37876    37880    37875    37882    37893    37890    37884    37884 
   37889    37914    37945    37965    37995    38033    38050    38053 
   38058    38054    38042    38030    38019    38005    37998    37992 
