Origin Time       2024/04/02 04:24:00
Lat.              40.133
Long.             141.712
Depth. (km)       71
Mag.              6.0
Station Code      HDKH03
Station Lat.      42.5934
Station Long.     142.3521
Station Height(m) 54
Record Time       2024/04/02 04:25:46
Sampling Freq(Hz) 100Hz
Duration Time(s)  120
Dir.              3
Scale Factor      2942(gal)/8224139
Max. Acc. (gal)   0.350
Last Correction   2024/04/02 04:25:30
Memo.             
[...]
  -66768   -66750   -66735   -66737   -66741   -66744   -66752   -66761 
  -66766   -66753   -66723   -66708   -66726   -66758   -66779   -66785 
  -66791   -66796   -66800   -66810   -66831   -66865   -66911   -66955 
  -66978   -66982   -66987   -66999   -67012   -67016   -67011   -67004 
  -66997   -66987   -66977   -66976   -66980   -66973   -66951   -66924 
  -66901   -66896   -66919   -66946   -66954   -66951   -66960   -66980 
  -66993   -66997   -66999   -67000   -67007   -67018   -67019   -67004 
  -66981   -66950   -66918   -66910   -66928   -66966   -67007   -67022 
  -66996   -66939   -66892   -66884   -66912   -66953   -66985   -66999 
  -66992   -66966   -66933   -66901   -66877   -66860   -66835   -66807 
  -66789   -66796   -66827   -66865   -66880   -66861   -66823   -66788 
  -66764   -66758   -66785   -66842   -66892   -66903   -66888   -66861 
  -66830   -66811   -66814   -66830   -66853   -66869   -66866   -66845 
  -66823   -66820   -66837   -66853   -66864   -66879   -66893   -66901 
  -66914   -66931   -66935   -66910   -66858   -66796   -66746   -66723 
  -66727   -66757   -66800   -66837   -66854   -66854   -66854   -66862 
  -66868   -66858   -66850   -66866   -66908   -66960   -67000   -67022 
  -67027   -67005   -66955   -66903   -66862   -66826   -66806   -66803 
  -66796   -66789   -66811   -66861   -66912   -66942   -66958   -66978 
  -67009   -67039   -67062   -67082   -67090   -67070   -67024   -66978 
  -66957   -66958   -66972   -66995   -67018   -67018   -66988   -66941 
  -66900   -66896   -66924   -66970   -67019   -67051   -67055   -67039 
  -67015   -67009   -67035   -67084   -67127   -67138   -67117   -67088 
  -67063   -67057   -67062   -67061   -67046   -67028   -67004   -66965 
  -66912   -66849   -66783   -66727   -66695   -66683   -66679   -66672 
  -66653   -66621   -66586   -66569   -66573   -66586   -66606   -66638 
  -66665   -66680   -66704   -66761   -66838   -66906   -66941   -66942 
  -66904   -66842   -66784   -66746   -66734   -66746   -66769   -66791 
  -66811   -66829   -66835   -66837   -66842   -66857   -66887   -66930 
  -66978   -67028   -67076   -67099   -67097   -67095   -67113   -67151 
  -67182   -67185   -67158   -67122   -67081   -67041   -67015   -66995 
  -66962   -66919   -66883   -66853   -66838   -66847   -66873   -66904 
  -66926   -66919   -66876   -66822   -66802   -66845   -66935   -67030 
  -67077   -67053   -66966   -66862   -66810   -66837   -66914   -66978 
  -66993   -66951   -66858   -66737   -66645   -66627   -66668   -66727 
  -66789   -66847   -66892   -66901   -66872   -66833   -66815   -66827 
  -66869   -66933   -66993   -67032   -67043   -67041   -67049   -67084 
  -67144   -67203   -67217   -67177   -67100   -67009   -66937   -66901 
  -66899   -66903   -66888   -66841   -66765   -66695   -66664   -66679 
  -66717   -66745   -66730   -66680   -66633   -66602   -66582   -66598 
  -66671   -66776   -66877   -66945   -66972   -66957   -66916   -66884 
  -66885   -66916   -66958   -66999   -67043   -67084   -67100   -67089 
  -67062   -67028   -66993   -66973   -66978   -66999   -67018   -67024 
  -67014   -66995   -66973   -66938   -66910   -66915   -66950   -67004 
  -67063   -67112   -67134   -67122   -67090   -67066   -67058   -67066 
  -67077   -67074   -67047   -66993   -66920   -66861   -66830   -66819 
  -66814   -66798   -66769   -66746   -66748   -66785   -66849   -66915 
  -66953   -66945   -66883   -66793   -66731   -66729   -66779   -66854 
  -66923   -66950   -66924   -66870   -66826   -66798   -66793   -66841 
  -66924   -66976   -66955   -66883   -66796   -66738   -66735   -66788 
  -66866   -66947   -67016   -67042   -67019   -66985   -66973   -66984 
  -66995   -66989   -66977   -66978   -66985   -66984   -66962   -66923 
  -66887   -66870   -66862   -66852   -66826   -66788   -66765   -66769 
  -66799   -66856   -66922   -66961   -66961   -66924   -66870   -66842 
  -66862   -66916   -66985   -67034   -67038   -67014   -66980   -66938 
  -66888   -66849   -66827   -66804   -66761   -66726   -66725   -66735 
  -66733   -66708   -66664   -66613   -66576   -66576   -66618   -66684 
  -66745   -66799   -66850   -66903   -66953   -66980   -66964   -66926 
  -66897   -66895   -66927   -66980   -67016   -67009   -66960   -66891 
  -66835   -66804   -66796   -66802   -66826   -66866   -66907   -66935 
  -66951   -66950   -66938   -66933   -66933   -66949   -66982   -67014 
  -67018   -66993   -66947   -66900   -66857   -66818   -66806   -66829 
  -66862   -66884   -66884   -66861   -66822   -66769   -66719   -66704 
  -66735   -66783   -66826   -66853   -66847   -66802   -66741   -66702 
  -66692   -66703   -66726   -66765   -66825   -66893   -66955   -67014 
  -67070   -67103   -67093   -67050   -67009   -66993   -66995   -67014 
  -67055   -67103   -67116   -67081   -67030   -66989   -66962   -66928 
  -66885   -66850   -66841   -66869   -66920   -66960   -66970   -66960 
  -66927   -66880   -66839   -66841   -66881   -66923   -66935   -66931 
  -66934   -66949   -66984   -67049   -67116   -67147   -67126   -67073 
  -67026   -66992   -66976   -67001   -67068   -67140   -67185   -67173 
  -67108   -67014   -66924   -66873   -66870   -66893   -66916   -66920 
  -66908   -66893   -66892   -66904   -66914   -66915   -66923   -66933 
  -66928   -66908   -66887   -66876   -66866   -66865   -66883   -66897 
  -66892   -66874   -66869   -66891   -66928   -66964   -66987   -66988 
  -66972   -66949   -66923   -66908   -66922   -66961   -67018   -67088 
  -67157   -67189   -67153   -67049   -66907   -66771   -66661   -66609 
  -66626   -66673   -66695   -66679   -66633   -66560   -66479   -66417 
  -66375   -66366   -66402   -66480   -66577   -66673   -66760   -66827 
  -66860   -66847   -66804   -66756   -66719   -66704   -66718   -66766 
  -66823   -66854   -66857   -66837   -66803   -66773   -66771   -66806 
  -66872   -66953   -67018   -67057   -67080   -67095   -67112   -67147 
  -67198   -67258   -67319   -67355   -67346   -67319   -67293   -67257 
  -67198   -67123   -67038   -66957   -66906   -66899   -66924   -66949 
  -66950   -66926   -66873   -66804   -66752   -66733   -66742   -66762 
  -66789   -66826   -66850   -66846   -66823   -66793   -66745   -66675 
  -66634   -66667   -66734   -66776   -66776   -66752   -66712   -66657 
  -66609   -66606   -66657   -66734   -66807   -66860   -66893   -66923 
  -66964   -67011   -67049   -67089   -67139   -67173   -67174   -67155 
  -67131   -67099   -67047   -66987   -66935   -66907   -66899   -66903 
  -66910   -66920   -66924   -66904   -66868   -66842   -66847   -66883 
  -66926   -66949   -66953   -66958   -66977   -67008   -67026   -67008 
  -66964   -66896   -66808   -66733   -66711   -66753   -66820   -66870 
  -66892   -66872   -66819   -66779   -66788   -66849   -66939   -67032 
  -67104   -67143   -67140   -67108   -67076   -67049   -67012   -66984 
  -66991   -67019   -67036   -67043   -67050   -67050   -67050   -67053 
  -67041   -66999   -66938   -66872   -66810   -66762   -66742   -66754 
  -66777   -66783   -66764   -66753   -66785   -66868   -66970   -67055 
  -67089   -67063   -67005   -66973   -66989   -67043   -67120   -67204 
  -67278   -67338   -67379   -67390   -67369   -67342   -67323   -67284 
  -67211   -67123   -67051   -67014   -66991   -66961   -66937   -66934 
  -66935   -66915   -66880   -66856   -66860   -66874   -66880   -66874 
  -66861   -66842   -66833   -66842   -66862   -66873   -66864   -66833 
  -66779   -66726   -66688   -66667   -66668   -66698   -66752   -66829 
  -66907   -66973   -67032   -67099   -67159   -67186   -67184   -67185 
  -67205   -67231   -67250   -67257   -67251   -67231   -67189   -67135 
  -67078   -66991   -66865   -66748   -66673   -66642   -66642   -66663 
  -66680   -66671   -66618   -66542   -66487   -66463   -66460   -66482 
  -66533   -66594   -66638   -66656   -66654   -66650   -66657   -66671 
  -66671   -66646   -66611   -66572   -66517   -66457   -66430   -66445 
  -66494   -66560   -66625   -66681   -66741   -66814   -66868   -66866 
  -66838   -66826   -66834   -66845   -66849   -66853   -66868   -66892 
  -66923   -66962   -67019   -67093   -67157   -67190   -67209   -67230 
  -67251   -67271   -67285   -67282   -67262   -67220   -67158   -67084 
  -67015   -66964   -66933   -66914   -66899   -66881   -66868   -66862 
  -66864   -66869   -66881   -66901   -66920   -66924   -66918   -66897 
  -66881   -66877   -66865   -66862   -66899   -66972   -67051   -67115 
  -67159   -67190   -67193   -67166   -67142   -67131   -67113   -67082 
  -67016   -66919   -66827   -66775   -66761   -66765   -66773   -66785 
  -66795   -66796   -66796   -66811   -66839   -66845   -66796   -66710 
  -66626   -66561   -66517   -66499   -66507   -66541   -66592   -66653 
  -66717   -66757   -66761   -66750   -66744   -66750   -66775   -66827 
  -66911   -67001   -67068   -67100   -67103   -67074   -67036   -67024 
  -67043   -67072   -67095   -67108   -67112   -67105   -67078   -67061 
  -67080   -67123   -67159   -67190   -67221   -67235   -67211   -67153 
  -67084   -67022   -66974   -66962   -66995   -67045   -67076   -67090 
  -67093   -67072   -67032   -66985   -66928   -66865   -66820   -66800 
  -66789   -66777   -66760   -66749   -66754   -66768   -66779   -66785 
  -66791   -66795   -66807   -66830   -66850   -66857   -66833   -66768 
  -66679   -66596   -66542   -66530   -66556   -66598   -66650   -66733 
  -66838   -66938   -67005   -67022   -66991   -66949   -66930   -66946 
  -66976   -66997   -67014   -67012   -66981   -66950   -66954   -66989 
  -67032   -67070   -67090   -67080   -67039   -66980   -66912   -66860 
  -66823   -66795   -66776   -66758   -66741   -66727   -66704   -66672 
  -66656   -66673   -66696   -66692   -66660   -66625   -66604   -66598 
  -66600   -66606   -66595   -66549   -66498   -66474   -66487   -66540 
  -66610   -66680   -66749   -66807   -66852   -66893   -66934   -66974 
  -67009   -67035   -67051   -67051   -67027   -66988   -66953   -66924 
  -66895   -66876   -66873   -66870   -66842   -66780   -66696   -66619 
  -66567   -66552   -66577   -66619   -66652   -66680   -66719   -66765 
  -66819   -66895   -66974   -67041   -67095   -67134   -67171   -67221 
  -67274   -67302   -67302   -67285   -67278   -67300   -67338   -67367 
  -67373   -67338   -67265   -67178   -67111   -67066   -67034   -67012 
  -67011   -67027   -67045   -67051   -67049   -67043   -67038   -67027 
  -67009   -66987   -66951   -66896   -66831   -66785   -66776   -66808 
  -66861   -66914   -66964   -67000   -67005   -66984   -66951   -66920 
  -66888   -66845   -66793   -66752   -66735   -66745   -66764   -66779 
  -66811   -66853   -66873   -66869   -66876   -66910   -66962   -67015 
  -67059   -67096   -67131   -67159   -67189   -67230   -67267   -67298 
  -67317   -67300   -67242   -67173   -67115   -67065   -67022   -66985 
  -66947   -66914   -66893   -66881   -66870   -66870   -66893   -66941 
  -67004   -67070   -67116   -67123   -67101   -67070   -67031   -66974 
  -66896   -66802   -66719   -66656   -66590   -66505   -66411   -66333 
  -66276   -66228   -66214   -66280   -66413   -66553   -66673   -66783 
  -66874   -66945   -66999   -67057   -67131   -67215   -67285   -67347 
  -67405   -67439   -67440   -67413   -67365   -67294   -67201   -67105 
  -67032   -66981   -66939   -66907   -66889   -66895   -66916   -66933 
  -66938   -66951   -66991   -67059   -67157   -67269   -67369   -67425 
  -67406   -67321   -67215   -67103   -66981   -66849   -66727   -66644 
  -66604   -66584   -66540   -66468   -66386   -66310   -66255   -66233 
  -66243   -66276   -66320   -66364   -66405   -66432   -66461   -66518 
  -66588   -66648   -66675   -66667   -66644   -66618   -66586   -66561 
  -66573   -66631   -66721   -66808   -66870   -66908   -66926   -66922 
  -66916   -66938   -66982   -67039   -67112   -67197   -67274   -67321 
  -67333   -67335   -67333   -67332   -67320   -67292   -67254   -67217 
  -67173   -67105   -67022   -66946   -66904   -66903   -66927   -66955 
  -66970   -66974   -66982   -67003   -67026   -67041   -67032   -66999 
  -66947   -66881   -66796   -66714   -66667   -66653   -66646   -66627 
  -66594   -66536   -66464   -66398   -66344   -66303   -66272   -66263 
  -66291   -66330   -66363   -66393   -66415   -66424   -66422   -66410 
  -66379   -66343   -66332   -66360   -66413   -66476   -66549   -66621 
  -66675   -66707   -66735   -66783   -66862   -66966   -67081   -67188 
  -67251   -67286   -67333   -67397   -67467   -67540   -67597   -67618 
  -67612   -67595   -67582   -67586   -67629   -67714   -67807   -67855 
  -67836   -67770   -67694   -67633   -67586   -67549   -67510   -67456 
  -67379   -67277   -67157   -67049   -66972   -66922   -66891   -66873 
  -66860   -66841   -66816   -66795   -66779   -66757   -66727   -66690 
  -66641   -66582   -66528   -66499   -66511   -66552   -66611   -66677 
  -66723   -66727   -66704   -66673   -66649   -66653   -66692   -66753 
  -66823   -66907   -67007   -67084   -67104   -67093   -67080   -67058 
  -67030   -67016   -67031   -67049   -67028   -66966   -66879   -66783 
  -66706   -66663   -66654   -66676   -66698   -66699   -66676   -66650 
  -66654   -66685   -66726   -66780   -66852   -66924   -66982   -67031 
  -67100   -67205   -67320   -67416   -67491   -67540   -67564   -67591 
  -67635   -67689   -67745   -67782   -67779   -67734   -67648   -67531 
  -67409   -67298   -67170   -67000   -66811   -66641   -66498   -66371 
  -66252   -66139   -66037   -65963   -65927   -65925   -65956   -66020 
  -66100   -66174   -66240   -66307   -66391   -66496   -66615   -66750 
  -66884   -66981   -67028   -67042   -67051   -67080   -67127   -67184 
  -67239   -67246   -67180   -67080   -66982   -66896   -66838   -66823 
  -66830   -66833   -66815   -66783   -66735   -66665   -66572   -66475 
  -66395   -66336   -66279   -66229   -66221   -66272   -66356   -66447 
  -66530   -66586   -66607   -66621   -66652   -66715   -66808   -66915 
  -66992   -67023   -67024   -67007   -66966   -66914   -66868   -66838 
  -66833   -66842   -66839   -66808   -66745   -66660   -66586   -66528 
  -66490   -66492   -66529   -66571   -66602   -66623   -66644   -66694 
  -66784   -66901   -67016   -67112   -67171   -67193   -67196   -67207 
  -67236   -67278   -67313   -67316   -67288   -67267   -67277   -67293 
  -67289   -67265   -67216   -67132   -67024   -66920   -66837   -66776 
  -66738   -66714   -66677   -66622   -66560   -66496   -66442   -66409 
  -66405   -66433   -66486   -66544   -66599   -66661   -66717   -66744 
  -66749   -66752   -66768   -66811   -66881   -66965   -67038   -67084 
  -67109   -67124   -67139   -67173   -67211   -67230   -67219   -67185 
  -67149   -67135   -67149   -67167   -67171   -67149   -67113   -67093 
  -67103   -67143   -67211   -67298   -67381   -67429   -67439   -67429 
  -67417   -67396   -67359   -67316   -67270   -67223   -67171   -67128 
  -67123   -67157   -67203   -67239   -67265   -67262   -67213   -67131 
  -67045   -66966   -66896   -66841   -66815   -66815   -66834   -66865 
  -66899   -66942   -66997   -67038   -67043   -67032   -67004   -66954 
  -66896   -66857   -66837   -66816   -66788   -66764   -66744   -66727 
  -66719   -66718   -66718   -66725   -66737   -66758   -66791   -66823 
  -66838   -66829   -66789   -66729   -66657   -66596   -66568   -66572 
  -66587   -66596   -66599   -66588   -66559   -66513   -66468   -66441 
  -66442   -66471   -66530   -66609   -66692   -66771   -66829   -66860 
  -66891   -66937   -66996   -67066   -67149   -67239   -67327   -67398 
  -67451   -67485   -67518   -67554   -67571   -67558   -67505   -67405 
  -67261   -67092   -66941   -66837   -66776   -66750   -66754   -66765 
  -66773   -66788   -66822   -66869   -66915   -66939   -66941   -66927 
  -66918   -66934   -66976   -67027   -67063   -67069   -67038   -66987 
  -66934   -66891   -66868   -66868   -66883   -66910   -66949   -66982 
  -66995   -66985   -66954   -66911   -66865   -66835   -66835   -66858 
  -66874   -66880   -66873   -66849   -66827   -66831   -66850   -66858 
  -66852   -66825   -66787   -66761   -66762   -66787   -66818   -66843 
  -66862   -66874   -66876   -66879   -66897   -66938   -66974   -66987 
  -66973   -66955   -66941   -66916   -66887   -66854   -66819   -66773 
  -66718   -66663   -66633   -66631   -66642   -66658   -66683   -66711 
  -66745   -66802   -66892   -67004   -67120   -67223   -67300   -67333 
  -67335   -67333   -67343   -67354   -67350   -67329   -67313   -67298 
  -67271   -67228   -67162   -67058   -66920   -66766   -66618   -66501 
  -66424   -66376   -66341   -66302   -66247   -66186   -66144   -66125 
  -66123   -66151   -66201   -66241   -66268   -66301   -66345   -66403 
  -66480   -66573   -66671   -66749   -66804   -66833   -66827   -66800 
  -66761   -66717   -66679   -66652   -66640   -66654   -66692   -66726 
  -66752   -66781   -66816   -66858   -66918   -66992   -67074   -67150 
  -67188   -67184   -67157   -67132   -67115   -67099   -67086   -67081 
  -67085   -67105   -67130   -67153   -67189   -67240   -67286   -67309 
  -67300   -67267   -67242   -67232   -67230   -67232   -67258   -67306 
  -67362   -67416   -67464   -67486   -67474   -67443   -67408   -67377 
  -67340   -67278   -67192   -67104   -67026   -66957   -66904   -66873 
  -66856   -66837   -66819   -66820   -66839   -66869   -66896   -66897 
  -66857   -66792   -66739   -66718   -66729   -66757   -66780   -66793 
  -66802   -66816   -66839   -66876   -66926   -66980   -67028   -67058 
  -67041   -66981   -66926   -66906   -66907   -66915   -66926   -66931 
  -66910   -66850   -66772   -66711   -66687   -66699   -66729   -66754 
  -66762   -66760   -66756   -66760   -66783   -66837   -66907   -66968 
  -67000   -67001   -66976   -66924   -66854   -66791   -66749   -66726 
  -66722   -66726   -66703   -66652   -66592   -66537   -66509   -66529 
  -66575   -66613   -66638   -66665   -66703   -66758   -66816   -66868 
  -66907   -66923   -66915   -66907   -66911   -66927   -66950   -66976 
  -67001   -67016   -67011   -66987   -66951   -66907   -66862   -66827 
  -66814   -66820   -66843   -66888   -66950   -67016   -67073   -67113 
  -67134   -67142   -67140   -67132   -67124   -67107   -67070   -67016 
  -66947   -66860   -66760   -66661   -66580   -66525   -66488   -66467 
  -66459   -66449   -66438   -66432   -66420   -66399   -66387   -66394 
  -66410   -66430   -66475   -66552   -66652   -66757   -66842   -66901 
  -66931   -66923   -66889   -66856   -66833   -66822   -66823   -66825 
  -66816   -66810   -66804   -66781   -66748   -66719   -66704   -66695 
  -66690   -66700   -66746   -66811   -66862   -66895   -66916   -66918 
  -66904   -66892   -66888   -66889   -66880   -66864   -66861   -66870 
  -66872   -66860   -66841   -66825   -66811   -66793   -66791   -66814 
  -66856   -66915   -66995   -67089   -67180   -67248   -67293   -67323 
  -67346   -67363   -67385   -67406   -67410   -67378   -67305   -67211 
  -67117   -67039   -66969   -66904   -66854   -66835   -66843   -66862 
  -66888   -66926   -66976   -67042   -67120   -67203   -67279   -67336 
  -67365   -67367   -67344   -67308   -67273   -67239   -67211   -67194 
  -67197   -67215   -67235   -67246   -67236   -67198   -67130   -67051 
  -66997   -66989   -67024   -67074   -67116   -67146   -67166   -67177 
