Origin Time       2024/04/02 04:24:00
Lat.              40.133
Long.             141.712
Depth. (km)       71
Mag.              6.0
Station Code      HDKH07
Station Lat.      42.1330
Station Long.     142.9164
Station Height(m) -61
Record Time       2024/04/02 04:25:13
Sampling Freq(Hz) 100Hz
Duration Time(s)  164
Dir.              2
Scale Factor      2942(gal)/8224139
Max. Acc. (gal)   0.842
Last Correction   2024/04/02 04:25:13
Memo.             
[...]
  133600   133532   133463   133425   133478   133628   133798   133891 
  133897   133841   133741   133621   133516   133471   133517   133605 
  133685   133755   133820   133878   133944   134036   134148   134235 
  134245   134173   134098   134069   134050   134014   133976   133938 
  133886   133821   133763   133725   133702   133702   133743   133812 
  133891   133972   134015   134003   133974   133959   133936   133868 
  133799   133806   133859   133898   133934   134001   134067   134104 
  134123   134107   134015   133882   133794   133776   133809   133844 
  133833   133790   133759   133726   133699   133708   133744   133774 
  133772   133747   133710   133659   133606   133606   133672   133739 
  133725   133629   133540   133523   133533   133520   133513   133573 
  133674   133744   133774   133817   133863   133845   133780   133735 
  133718   133751   133833   133910   133964   134026   134113   134200 
  134268   134314   134319   134261   134158   134052   134001   134034 
  134072   134068   134109   134200   134237   134230   134256   134257 
  134173   134037   133887   133755   133683   133681   133689   133671 
  133660   133660   133670   133731   133852   133988   134077   134104 
  134110   134107   134055   133951   133856   133791   133732   133681 
  133656   133674   133739   133828   133890   133894   133857   133791 
  133705   133629   133590   133600   133629   133623   133586   133554 
  133506   133439   133389   133393   133458   133533   133593   133667 
  133776   133918   134076   134192   134195   134107   134014   133932 
  133828   133731   133683   133697   133766   133870   133953   134021 
  134123   134222   134223   134134   134042   134010   134023   134045 
  134050   134040   134040   134064   134076   134076   134088   134106 
  134114   134100   134049   133979   133929   133907   133883   133856 
  133855   133863   133883   133936   133984   134002   133994   133932 
  133812   133662   133500   133342   133236   133239   133355   133536 
  133721   133863   133972   134087   134156   134119   134026   133947 
  133878   133820   133778   133713   133609   133551   133581   133651 
  133735   133816   133849   133849   133876   133918   133913   133866 
  133807   133736   133627   133490   133416   133458   133552   133643 
  133751   133890   134032   134125   134133   134086   134028   133952 
  133895   133894   133898   133910   133944   133932   133871   133839 
  133861   133905   133915   133855   133740   133650   133636   133694 
  133797   133895   133920   133857   133785   133770   133802   133802 
  133739   133652   133589   133594   133689   133810   133901   133945 
  133956   133948   133907   133802   133651   133527   133479   133504 
  133556   133579   133587   133662   133801   133917   133967   133990 
  134030   134064   134037   133957   133903   133951   134098   134252 
  134310   134250   134100   133915   133772   133720   133726   133764 
  133834   133915   133986   134036   134053   134050   134034   133984 
  133941   133936   133932   133932   133951   133959   133969   134021 
  134125   134246   134319   134312   134288   134279   134244   134164 
  134063   133956   133863   133813   133799   133786   133740   133702 
  133720   133768   133810   133845   133872   133871   133814   133714 
  133632   133614   133645   133710   133816   133940   134059   134119 
  134067   133933   133824   133802   133852   133902   133897   133863 
  133859   133895   133940   133963   133934   133861   133793   133753 
  133731   133745   133826   133949   134046   134103   134142   134157 
  134144   134134   134125   134050   133879   133697   133600   133571 
  133577   133613   133648   133677   133737   133817   133882   133944 
  134025   134075   134014   133857   133728   133712   133794   133902 
  133968   133955   133888   133855   133855   133833   133810   133806 
  133789   133760   133728   133654   133567   133551   133586   133633 
  133713   133782   133791   133803   133840   133857   133871   133871 
  133834   133833   133894   133926   133880   133805   133741   133671 
  133596   133548   133546   133608   133751   133913   134029   134103 
  134163   134219   134231   134153   134029   133929   133864   133813 
  133776   133783   133844   133918   133947   133906   133841   133806 
  133832   133899   133941   133905   133816   133724   133652   133625 
  133647   133705   133797   133903   133994   134061   134110   134168 
  134283   134401   134414   134356   134358   134423   134442   134352 
  134177   133971   133778   133651   133602   133596   133625   133693 
  133756   133803   133888   134019   134092   134025   133870   133722 
  133593   133479   133417   133424   133477   133550   133640   133763 
  133933   134103   134208   134266   134320   134335   134284   134200 
  134129   134100   134102   134071   133974   133864   133797   133728 
  133632   133578   133571   133540   133471   133394   133321   133267 
  133262   133315   133374   133378   133361   133381   133412   133419 
  133436   133465   133467   133473   133520   133596   133713   133880 
  134052   134234   134435   134580   134616   134557   134383   134138 
  133945   133860   133822   133797   133817   133852   133833   133762 
  133662   133528   133377   133240   133115   133003   132956   132989 
  133095   133269   133479   133683   133882   134073   134237   134381 
  134523   134623   134634   134558   134442   134357   134326   134280 
  134154   133975   133794   133641   133552   133539   133559   133591 
  133650   133686   133636   133492   133290   133114   133030   133004 
  132962   132914   132915   132980   133135   133411   133729   133961 
  134096   134188   134268   134377   134526   134684   134813   134829 
  134671   134411   134161   133965   133836   133782   133794   133844 
  133897   133925   133963   134011   133991   133856   133644   133417 
  133251   133219   133326   133533   133816   134137   134415   134617 
  134800   134962   135002   134851   134554   134226   133944   133747 
  133640   133573   133502   133463   133470   133483   133493   133515 
  133552   133610   133679   133702   133668   133652   133725   133861 
  133996   134129   134310   134532   134701   134761   134716   134539 
  134217   133824   133432   133108   132966   133031   133195   133390 
  133590   133782   134005   134230   134362   134404   134416   134385 
  134271   134114   133972   133868   133839   133860   133866   133897 
  134002   134103   134133   134119   134094   134065   133998   133880 
  133770   133658   133459   133153   132829   132619   132602   132721 
  132846   132894   132892   132888   132868   132842   132876   132996 
  133170   133357   133532   133722   133983   134285   134503   134572 
  134532   134441   134369   134364   134347   134273   134211   134184 
  134140   134013   133759   133434   133139   132876   132637   132480 
  132394   132359   132437   132614   132787   132910   133026   133212 
  133485   133789   134050   134217   134289   134314   134333   134347 
  134315   134233   134138   134044   134011   134090   134176   134176 
  134126   134037   133905   133789   133751   133778   133816   133841 
  133860   133876   133882   133902   133971   134111   134350   134669 
  134964   135182   135351   135463   135449   135297   135067   134817 
  134541   134215   133851   133523   133330   133324   133489   133716 
  133868   133924   133934   133937   133964   134037   134137   134234 
  134295   134320   134356   134406   134442   134441   134377   134280 
  134208   134150   134048   133910   133802   133766   133841   134037 
  134284   134515   134676   134709   134619   134478   134342   134194 
  133994   133799   133705   133713   133778   133884   133992   134068 
  134142   134250   134369   134451   134454   134393   134356   134408 
  134549   134721   134866   134919   134815   134593   134349   134121 
  133899   133672   133455   133323   133323   133396   133492   133608 
  133714   133772   133752   133643   133496   133439   133533   133720 
  133948   134199   134401   134501   134499   134433   134356   134272 
  134109   133810   133439   133081   132752   132452   132227   132097 
  132042   132054   132138   132281   132472   132706   132992   133313 
  133600   133836   134045   134190   134226   134175   134080   133965 
  133855   133789   133764   133751   133764   133806   133817   133782 
  133753   133778   133871   133990   134052   134044   133995   133884 
  133717   133586   133558   133618   133753   133941   134127   134291 
  134439   134554   134603   134568   134443   134249   134049   133910 
  133853   133848   133886   133969   134086   134214   134295   134296 
  134265   134223   134136   134014   133884   133749   133627   133502 
  133359   133249   133242   133319   133409   133509   133640   133779 
  133917   134073   134226   134349   134433   134442   134353   134215 
  134096   133996   133902   133849   133830   133778   133660   133498 
  133331   133234   133255   133362   133482   133590   133705   133848 
  134041   134266   134460   134584   134627   134569   134441   134322 
  134258   134241   134226   134211   134222   134222   134184   134152 
  134098   133949   133760   133643   133648   133753   133910   134091 
  134299   134495   134605   134612   134577   134595   134684   134794 
  134866   134817   134611   134316   134023   133756   133519   133316 
  133157   133046   132966   132877   132746   132582   132429   132313 
  132219   132185   132293   132530   132822   133137   133467   133778 
  133995   134072   134042   133974   133887   133771   133609   133421 
  133267   133204   133219   133254   133278   133286   133276   133277 
  133321   133413   133550   133728   133917   134060   134165   134288 
  134426   134557   134677   134769   134815   134796   134678   134474 
  134242   134029   133849   133737   133722   133759   133812   133901 
  133988   133996   133895   133687   133401   133110   132844   132624 
  132517   132513   132510   132484   132476   132509   132590   132710 
  132837   132980   133161   133320   133370   133328   133265   133205 
  133149   133116   133108   133084   133035   132979   132919   132877 
  132896   132984   133137   133369   133635   133867   134061   134212 
  134279   134314   134401   134489   134509   134488   134438   134356 
  134299   134335   134520   134855   135248   135552   135679   135652 
  135548   135425   135305   135175   135000   134773   134542   134372 
  134311   134377   134531   134688   134781   134801   134792   134831 
  134987   135194   135287   135218   135059   134875   134752   134738 
  134769   134761   134701   134619   134503   134339   134129   133882 
  133631   133420   133280   133224   133250   133343   133490   133679 
  133902   134123   134262   134275   134172   134003   133814   133628 
  133458   133296   133138   133043   133027   132988   132867   132738 
  132655   132590   132540   132551   132638   132808   133046   133299 
  133535   133764   133975   134127   134203   134249   134343   134516 
  134727   134909   134994   134929   134719   134407   134009   133546 
  133105   132737   132441   132240   132148   132133   132181   132302 
  132499   132767   133092   133456   133814   134100   134307   134470 
  134578   134622   134643   134651   134616   134577   134584   134636 
  134708   134771   134793   134739   134592   134352   134048   133732 
  133470   133276   133120   133020   133046   133212   133448   133681 
  133883   134056   134206   134347   134454   134492   134464   134385 
  134271   134138   134006   133897   133828   133786   133775   133806 
  133837   133859   133918   133998   134026   133995   133933   133810 
  133612   133386   133236   133226   133304   133397   133490   133606 
  133797   134061   134335   134543   134647   134617   134465   134276 
  134172   134229   134435   134712   134979   135159   135199   135120 
  134993   134855   134686   134493   134335   134210   134068   133928 
  133813   133693   133560   133425   133282   133161   133110   133132 
  133201   133312   133438   133510   133505   133438   133309   133110 
  132840   132516   132185   131915   131757   131700   131697   131745 
  131845   131928   131962   132005   132102   132237   132403   132626 
  132898   133172   133407   133585   133717   133822   133887   133884 
  133825   133732   133628   133563   133563   133581   133555   133475 
  133374   133267   133178   133142   133165   133243   133409   133678 
  134002   134302   134505   134603   134647   134698   134775   134867 
  134935   134924   134844   134759   134670   134565   134487   134449 
  134420   134387   134331   134234   134125   134050   134022   134049 
  134121   134202   134296   134443   134627   134811   134962   135032 
  134977   134833   134667   134484   134293   134118   133978   133898 
  133887   133925   134009   134138   134303   134499   134698   134869 
  134987   135024   134971   134883   134809   134761   134762   134821 
  134917   135032   135135   135164   135101   134978   134815   134615 
  134387   134138   133915   133801   133820   133914   134002   134037 
  134022   133975   133902   133809   133737   133721   133745   133802 
  133891   133995   134094   134183   134269   134366   134465   134527 
  134531   134476   134357   134163   133902   133620   133370   133159 
  132925   132614   132255   131927   131683   131535   131503   131588 
  131734   131880   132011   132138   132283   132467   132680   132881 
  133030   133141   133255   133404   133601   133807   133963   134052 
  134115   134171   134211   134249   134303   134366   134406   134387 
  134311   134185   134010   133814   133652   133544   133500   133539 
  133670   133882   134113   134249   134248   134164   134052   133925 
  133780   133609   133455   133400   133429   133490   133593   133736 
  133871   133969   134032   134094   134192   134327   134493   134689 
  134885   135018   135041   134962   134804   134578   134304   134009 
  133714   133429   133170   132949   132772   132645   132568   132543 
  132548   132557   132580   132646   132777   133006   133343   133759 
  134234   134736   135176   135499   135714   135837   135895   135912 
  135877   135785   135657   135488   135283   135079   134889   134681 
  134457   134254   134123   134096   134152   134210   134212   134181 
  134169   134176   134161   134133   134154   134269   134453   134634 
  134747   134798   134858   134954   135031   135056   135028   134920 
  134720   134470   134215   133956   133699   133458   133215   132958 
  132715   132513   132341   132205   132131   132101   132079   132069 
  132079   132121   132224   132381   132563   132764   132997   133278 
  133585   133867   134087   134231   134302   134304   134239   134111 
  133937   133729   133501   133277   133078   132907   132763   132684 
  132709   132827   132993   133181   133393   133643   133932   134241 
  134545   134827   135090   135294   135395   135410   135353   135228 
  135049   134836   134597   134333   134044   133739   133442   133219 
  133110   133078   133068   133045   133024   133039   133081   133099 
  133077   133064   133112   133204   133288   133354   133432   133520 
  133582   133597   133591   133593   133594   133573   133504   133389 
  133246   133084   132884   132642   132399   132193   132047   131990 
  132031   132129   132251   132409   132607   132799   132941   133053 
  133159   133265   133375   133520   133725   133972   134215   134428 
  134595   134707   134785   134863   134943   134983   134937   134797 
  134596   134395   134242   134136   134029   133915   133812   133717 
  133621   133532   133471   133481   133597   133820   134118   134451 
  134790   135122   135421   135658   135804   135838   135769   135639 
  135477   135303   135135   134982   134843   134716   134603   134497 
  134385   134277   134191   134136   134113   134118   134168   134280 
  134428   134578   134742   134897   134991   135005   134950   134840 
  134686   134500   134300   134094   133882   133663   133448   133255 
  133095   132985   132954   132985   133049   133128   133209   133294 
  133413   133551   133683   133798   133891   133978   134053   134071 
  134029   133983   133957   133953   133960   133933   133816   133627 
  133442   133313   133247   133220   133185   133131   133097   133104 
  133114   133131   133213   133366   133540   133708   133872   134034 
  134149   134163   134087   133986   133884   133778   133678   133647 
  133735   133914   134113   134284   134411   134500   134545   134527 
  134466   134403   134350   134288   134195   134083   133984   133894 
  133810   133756   133717   133663   133601   133535   133471   133454 
  133520   133641   133767   133868   133932   133957   133960   133932 
  133848   133716   133569   133442   133343   133263   133209   133212 
  133281   133398   133535   133656   133753   133855   133957   134021 
  134030   134026   134032   134032   134036   134068   134106   134095 
  134042   133991   133952   133902   133832   133737   133601   133428 
  133261   133134   133070   133080   133123   133151   133153   133142 
  133130   133091   133006   132929   132921   132992   133123   133278 
  133419   133528   133608   133662   133706   133743   133751   133751 
  133778   133820   133830   133802   133751   133712   133733   133829 
  133952   134069   134210   134377   134527   134628   134677   134676 
  134647   134620   134597   134546   134446   134345   134303   134341 
  134414   134472   134496   134474   134395   134276   134154   134055 
  133998   133979   133980   134005   134079   134195   134308   134406 
  134493   134574   134650   134720   134757   134703   134536   134295 
  134028   133764   133532   133373   133288   133216   133112   133006 
  132946   132945   132962   132960   132938   132921   132922   132958 
  133035   133159   133320   133490   133635   133740   133799   133810 
  133772   133697   133609   133539   133479   133413   133336   133270 
  133224   133191   133172   133185   133227   133282   133357   133461 
  133564   133632   133658   133655   133641   133640   133666   133714 
  133795   133937   134129   134315   134461   134558   134605   134601 
  134565   134493   134392   134281   134171   134067   134002   133994 
  134023   134068   134095   134067   133986   133882   133783   133725 
  133731   133797   133902   134019   134126   134211   134266   134271 
  134217   134137   134060   133992   133945   133921   133898   133860 
  133803   133717   133604   133512   133479   133506   133585   133706 
  133849   133983   134090   134183   134271   134327   134352   134353 
  134318   134249   134154   134048   133955   133905   133887   133876 
  133872   133890   133909   133905   133883   133878   133901   133938 
  133992   134071   134173   134288   134404   134512   134613   134704 
  134742   134701   134615   134530   134461   134396   134322   134262 
  134250   134269   134291   134306   134308   134273   134192   134086 
  133980   133901   133868   133894   133963   134055   134160   134264 
  134347   134400   134428   134431   134389   134291   134144   133976 
