Origin Time       2024/04/02 04:24:00
Lat.              40.133
Long.             141.712
Depth. (km)       71
Mag.              6.0
Station Code      HYMH02
Station Lat.      41.9856
Station Long.     140.3087
Station Height(m) -16
Record Time       2024/04/02 04:25:12
Sampling Freq(Hz) 100Hz
Duration Time(s)  120
Dir.              2
Scale Factor      2940(gal)/6170270
Max. Acc. (gal)   0.444
Last Correction   2024/04/02 04:24:57
Memo.             
[...]
   67592    67564    67512    67442    67388    67351    67334    67354 
   67388    67411    67432    67444    67440    67435    67427    67404 
   67365    67320    67313    67367    67437    67491    67524    67504 
   67440    67410    67440    67495    67558    67599    67565    67476 
   67392    67336    67326    67380    67479    67590    67682    67724 
   67728    67740    67749    67715    67644    67563    67499    67471 
   67485    67526    67559    67573    67583    67591    67582    67562 
   67536    67504    67480    67471    67481    67517    67558    67598 
   67653    67706    67761    67834    67909    67968    68011    68022 
   67986    67927    67872    67814    67742    67648    67523    67380 
   67268    67212    67180    67142    67103    67085    67102    67154 
   67223    67297    67371    67441    67492    67508    67492    67443 
   67369    67311    67277    67240    67210    67213    67246    67299 
   67334    67310    67243    67162    67094    67073    67090    67134 
   67203    67271    67328    67389    67450    67497    67535    67553 
   67541    67524    67531    67543    67532    67485    67401    67313 
   67258    67237    67259    67334    67434    67508    67528    67514 
   67499    67499    67498    67470    67435    67425    67445    67493 
   67550    67596    67636    67670    67691    67682    67639    67569 
   67483    67421    67404    67411    67452    67521    67572    67603 
   67649    67683    67676    67652    67627    67610    67592    67562 
   67544    67554    67594    67647    67687    67698    67682    67653 
   67614    67592    67623    67674    67709    67724    67706    67665 
   67635    67637    67654    67656    67647    67642    67639    67611 
   67550    67472    67397    67349    67342    67356    67342    67290 
   67242    67238    67288    67356    67393    67388    67372    67379 
   67419    67485    67577    67626    67600    67564    67533    67475 
   67411    67389    67423    67498    67595    67685    67751    67778 
   67728    67605    67480    67418    67430    67494    67569    67632 
   67680    67685    67633    67565    67541    67589    67687    67792 
   67870    67882    67833    67769    67694    67625    67613    67662 
   67723    67767    67780    67753    67714    67707    67740    67787 
   67820    67825    67804    67753    67670    67585    67527    67485 
   67446    67429    67456    67517    67575    67618    67641    67631 
   67589    67512    67425    67357    67285    67227    67219    67224 
   67237    67271    67303    67337    67387    67437    67456    67426 
   67349    67251    67167    67111    67079    67069    67064    67060 
   67064    67075    67097    67130    67152    67152    67143    67147 
   67158    67179    67225    67288    67356    67422    67458    67453 
   67452    67498    67580    67670    67729    67730    67688    67627 
   67584    67582    67590    67585    67583    67587    67604    67626 
   67614    67559    67488    67437    67426    67461    67518    67557 
   67561    67522    67445    67370    67355    67403    67460    67488 
   67484    67457    67431    67426    67443    67470    67490    67493 
   67491    67503    67539    67603    67675    67702    67659    67568 
   67468    67392    67344    67318    67309    67293    67243    67191 
   67203    67287    67385    67435    67403    67332    67294    67301 
   67318    67298    67226    67145    67112    67145    67226    67332 
   67433    67500    67558    67627    67700    67788    67852    67835 
   67752    67662    67606    67597    67624    67632    67591    67564 
   67586    67626    67669    67705    67718    67726    67752    67797 
   67853    67912    67949    67928    67870    67812    67774    67774 
   67809    67859    67906    67931    67911    67859    67797    67732 
   67677    67636    67596    67560    67549    67560    67595    67643 
   67651    67614    67584    67570    67570    67572    67544    67487 
   67430    67372    67310    67254    67195    67136    67105    67115 
   67171    67268    67364    67437    67508    67581    67623    67633 
   67648    67683    67712    67709    67681    67640    67594    67559 
   67533    67513    67516    67548    67600    67654    67695    67730 
   67755    67750    67717    67691    67704    67745    67778    67793 
   67790    67770    67747    67729    67727    67734    67745    67763 
   67759    67716    67665    67641    67639    67631    67597    67551 
   67517    67481    67446    67442    67472    67524    67572    67591 
   67582    67552    67525    67514    67506    67499    67473    67398 
   67294    67196    67121    67086    67081    67072    67063    67086 
   67155    67226    67263    67268    67231    67151    67085    67076 
   67096    67104    67110    67141    67196    67258    67309    67338 
   67356    67378    67403    67430    67472    67535    67598    67644 
   67668    67672    67661    67642    67624    67620    67623    67617 
   67611    67621    67650    67695    67740    67756    67740    67728 
   67750    67777    67779    67764    67736    67697    67664    67646 
   67647    67669    67674    67621    67535    67487    67482    67461 
   67401    67290    67137    67013    66968    66979    67010    67033 
   67041    67053    67080    67119    67159    67179    67193    67250 
   67350    67468    67586    67653    67660    67644    67604    67527 
   67434    67357    67307    67289    67309    67331    67316    67304 
   67307    67309    67327    67352    67336    67258    67131    66987 
   66864    66801    66854    67052    67338    67626    67862    68013 
   68072    68060    67999    67900    67792    67707    67662    67669 
   67697    67694    67669    67639    67597    67563    67554    67571 
   67580    67530    67437    67347    67281    67258    67276    67308 
   67327    67337    67375    67431    67452    67424    67371    67324 
   67316    67359    67427    67487    67528    67553    67551    67500 
   67414    67325    67257    67234    67256    67316    67415    67539 
   67647    67721    67737    67656    67495    67325    67209    67179 
   67220    67285    67337    67366    67396    67451    67514    67578 
   67679    67815    67953    68084    68179    68208    68176    68109 
   68049    68003    67961    67941    67941    67933    67906    67857 
   67793    67755    67774    67838    67914    67966    67987    67991 
   67975    67931    67850    67734    67628    67563    67524    67520 
   67599    67737    67837    67840    67742    67594    67488    67470 
   67514    67581    67632    67638    67597    67514    67400    67274 
   67164    67110    67144    67262    67427    67584    67671    67637 
   67501    67345    67229    67186    67219    67292    67367    67419 
   67410    67330    67191    67025    66890    66838    66882    66995 
   67124    67226    67278    67260    67189    67099    67033    67052 
   67163    67294    67387    67397    67341    67320    67385    67497 
   67598    67652    67674    67674    67619    67521    67433    67384 
   67378    67395    67397    67377    67352    67353    67402    67500 
   67604    67668    67683    67646    67557    67468    67425    67442 
   67540    67741    67979    68144    68197    68132    67973    67817 
   67738    67755    67844    67938    67970    67912    67790    67651 
   67518    67435    67442    67531    67662    67785    67859    67850 
   67732    67531    67306    67114    67016    67038    67143    67286 
   67444    67572    67629    67623    67579    67519    67486    67527 
   67646    67789    67885    67889    67800    67665    67540    67459 
   67427    67419    67399    67369    67367    67375    67358    67325 
   67272    67205    67140    67096    67084    67096    67127    67155 
   67137    67105    67104    67133    67195    67290    67402    67520 
   67636    67731    67767    67717    67590    67444    67342    67314 
   67372    67509    67674    67789    67824    67815    67811    67842 
   67924    68040    68136    68165    68121    68029    67931    67853 
   67790    67753    67760    67769    67715    67615    67541    67522 
   67548    67598    67644    67676    67704    67710    67685    67641 
   67582    67528    67508    67509    67504    67491    67469    67431 
   67375    67319    67263    67200    67139    67090    67051    67026 
   67004    66974    66955    66968    67018    67086    67153    67201 
   67217    67217    67242    67307    67382    67430    67447    67471 
   67516    67544    67520    67454    67368    67286    67220    67171 
   67157    67209    67333    67494    67633    67717    67752    67761 
   67752    67737    67724    67726    67760    67795    67793    67767 
   67702    67575    67440    67366    67369    67430    67520    67614 
   67698    67770    67836    67884    67878    67801    67684    67569 
   67491    67461    67468    67495    67500    67459    67389    67311 
   67261    67259    67294    67345    67400    67448    67487    67535 
   67601    67669    67729    67773    67800    67817    67831    67852 
   67870    67855    67806    67739    67663    67597    67546    67497 
   67429    67363    67343    67367    67401    67427    67450    67489 
   67543    67612    67688    67759    67833    67903    67939    67924 
   67869    67798    67735    67682    67615    67511    67392    67272 
   67146    67027    66926    66857    66826    66846    66930    67036 
   67118    67199    67290    67364    67416    67453    67471    67464 
   67428    67370    67307    67253    67214    67190    67178    67177 
   67187    67204    67200    67156    67106    67078    67053    67040 
   67068    67128    67184    67225    67277    67332    67369    67377 
   67337    67261    67205    67204    67249    67294    67325    67351 
   67364    67378    67407    67417    67402    67379    67361    67380 
   67442    67494    67499    67464    67417    67390    67391    67412 
   67437    67450    67442    67439    67460    67507    67583    67656 
   67684    67677    67652    67625    67635    67680    67706    67687 
   67631    67572    67557    67589    67644    67719    67805    67886 
   67970    68033    68030    67974    67896    67806    67744    67720 
   67721    67753    67799    67828    67850    67880    67901    67901 
   67861    67770    67670    67611    67574    67515    67422    67325 
   67254    67229    67256    67336    67451    67564    67660    67748 
   67826    67890    67933    67940    67900    67836    67779    67721 
   67646    67585    67574    67593    67623    67670    67722    67749 
   67735    67671    67575    67491    67434    67410    67431    67489 
   67552    67584    67587    67590    67606    67639    67694    67749 
   67795    67844    67892    67929    67971    68031    68093    68138 
   68168    68181    68163    68137    68133    68125    68095    68060 
   68017    67954    67869    67764    67661    67559    67439    67327 
   67239    67162    67110    67114    67172    67254    67323    67368 
   67414    67468    67517    67557    67593    67628    67657    67672 
   67663    67616    67523    67413    67304    67188    67085    67023 
   66990    66972    66978    66988    66978    66959    66945    66961 
   67032    67134    67228    67294    67330    67355    67393    67441 
   67480    67509    67526    67519    67485    67428    67348    67254 
   67148    67033    66940    66895    66880    66881    66912    66988 
   67075    67136    67164    67159    67165    67225    67294    67337 
   67362    67372    67392    67433    67469    67487    67479    67438 
   67381    67343    67328    67303    67270    67241    67191    67128 
   67077    67045    67029    67023    67030    67054    67088    67145 
   67227    67316    67396    67439    67436    67435    67464    67527 
   67636    67736    67760    67729    67659    67556    67436    67304 
   67177    67087    67034    67001    66988    66993    67004    67039 
   67126    67265    67424    67559    67639    67673    67694    67726 
   67768    67805    67827    67835    67842    67853    67856    67823 
   67747    67656    67576    67520    67512    67567    67665    67759 
   67810    67813    67796    67784    67791    67818    67873    67958 
   68024    68018    67917    67733    67531    67374    67283    67242 
   67222    67222    67241    67268    67314    67395    67503    67616 
   67693    67711    67688    67661    67653    67675    67738    67846 
   67993    68161    68306    68384    68400    68373    68302    68189 
   68055    67939    67864    67820    67804    67804    67778    67698 
   67584    67474    67401    67384    67412    67449    67478    67499 
   67510    67533    67581    67622    67633    67626    67603    67569 
   67533    67485    67436    67413    67430    67478    67533    67586 
   67641    67673    67660    67614    67542    67454    67370    67305 
   67266    67233    67202    67206    67246    67291    67338    67378 
   67382    67365    67354    67348    67367    67440    67553    67665 
   67752    67806    67837    67865    67895    67910    67897    67846 
   67742    67620    67530    67464    67408    67376    67352    67323 
   67304    67293    67288    67301    67333    67394    67488    67575 
   67624    67659    67699    67732    67753    67743    67682    67610 
   67566    67528    67487    67443    67367    67250    67114    66983 
   66849    66703    66591    66573    66631    66703    66771    66855 
   66954    67045    67113    67176    67240    67290    67320    67336 
   67363    67414    67470    67504    67511    67504    67506    67523 
   67531    67514    67465    67381    67294    67245    67217    67191 
   67173    67181    67256    67398    67563    67691    67741    67726 
   67697    67679    67688    67735    67820    67920    68015    68094 
   68119    68080    68026    67983    67952    67920    67871    67816 
   67758    67710    67686    67663    67639    67637    67659    67690 
   67702    67704    67731    67796    67896    68003    68067    68039 
   67924    67788    67687    67632    67596    67540    67466    67404 
   67365    67347    67332    67299    67254    67219    67196    67182 
   67208    67276    67332    67333    67293    67236    67215    67278 
   67393    67504    67585    67623    67623    67597    67542    67473 
   67424    67408    67435    67533    67683    67801    67839    67842 
   67852    67859    67870    67894    67915    67923    67906    67876 
   67844    67790    67722    67663    67624    67624    67644    67642 
   67596    67485    67319    67181    67159    67261    67418    67542 
   67610    67657    67694    67735    67782    67793    67756    67704 
   67660    67631    67608    67567    67501    67428    67374    67349 
   67344    67335    67286    67200    67134    67117    67149    67198 
   67219    67213    67204    67202    67221    67244    67250    67233 
   67178    67106    67059    67043    67045    67042    67019    66977 
   66942    66965    67056    67176    67296    67400    67479    67526 
   67550    67559    67553    67547    67572    67603    67604    67581 
   67554    67542    67562    67610    67652    67644    67580    67503 
   67447    67417    67409    67424    67472    67552    67635    67699 
   67756    67808    67839    67853    67852    67842    67837    67822 
   67784    67727    67659    67600    67568    67551    67523    67489 
   67465    67451    67450    67484    67548    67629    67709    67754 
   67752    67738    67745    67756    67738    67690    67632    67602 
   67614    67635    67637    67610    67540    67442    67331    67214 
   67119    67050    67008    67005    67020    67032    67023    67005 
   67026    67113    67250    67410    67557    67663    67705    67691 
   67671    67668    67646    67595    67560    67551    67552    67560 
   67559    67528    67472    67414    67377    67369    67403    67470 
   67504    67462    67381    67310    67267    67261    67289    67324 
   67339    67344    67358    67380    67411    67444    67482    67542 
   67606    67637    67629    67591    67543    67490    67416    67331 
   67262    67212    67198    67231    67285    67331    67366    67396 
   67416    67420    67412    67396    67377    67389    67455    67545 
   67604    67606    67586    67584    67623    67687    67739    67765 
   67764    67731    67672    67592    67512    67442    67390    67381 
   67387    67378    67394    67452    67522    67607    67710    67812 
   67903    67966    67983    67961    67923    67911    67940    67979 
   67996    67966    67887    67792    67700    67630    67607    67621 
   67646    67664    67683    67727    67789    67830    67829    67804 
   67770    67732    67684    67615    67535    67477    67463    67479 
   67515    67569    67609    67594    67517    67415    67336    67309 
   67324    67341    67313    67244    67167    67106    67086    67098 
   67111    67123    67136    67140    67132    67128    67126    67116 
   67122    67141    67139    67134    67145    67151    67163    67192 
   67235    67299    67354    67383    67416    67451    67479    67506 
   67530    67538    67533    67514    67472    67436    67434    67454 
   67484    67510    67519    67507    67475    67464    67514    67610 
   67744    67896    68011    68060    68063    68060    68081    68126 
   68187    68244    68273    68265    68226    68184    68157    68128 
   68078    67996    67894    67799    67731    67687    67649    67608 
   67576    67563    67567    67561    67530    67500    67479    67452 
   67427    67415    67417    67424    67410    67370    67333    67323 
   67341    67369    67387    67376    67315    67215    67114    67047 
   67033    67054    67070    67082    67121    67183    67236    67277 
   67325    67367    67378    67364    67341    67357    67430    67496 
   67535    67571    67584    67578    67577    67580    67589    67573 
   67511    67428    67348    67303    67305    67326    67356    67413 
   67490    67567    67633    67671    67648    67582    67531    67529 
   67576    67639    67685    67716    67751    67770    67745    67699 
   67679    67677    67671    67664    67655    67655    67677    67693 
   67680    67645    67599    67542    67480    67429    67378    67317 
   67258    67238    67274    67340    67391    67416    67439    67478 
   67527    67556    67543    67505    67479    67499    67554    67599 
   67612    67568    67450    67313    67202    67120    67088    67085 
   67083    67088    67110    67161    67233    67295    67331    67336 
   67306    67266    67241    67237    67250    67276    67316    67363 
   67399    67409    67383    67323    67250    67172    67108    67082 
   67107    67180    67255    67287    67277    67242    67197    67173 
   67192    67265    67367    67449    67499    67532    67547    67545 
   67545    67553    67555    67537    67502    67469    67461    67467 
   67463    67453    67450    67434    67379    67305    67269    67290 
   67331    67364    67376    67364    67354    67363    67402    67474 
   67559    67631    67669    67664    67632    67589    67550    67525 
   67499    67437    67363    67322    67329    67391    67494    67579 
