Origin Time       2024/04/02 04:24:00
Lat.              40.133
Long.             141.712
Depth. (km)       71
Mag.              6.0
Station Code      HYMH03
Station Lat.      42.1344
Station Long.     140.0040
Station Height(m) -30
Record Time       2024/04/02 04:25:15
Sampling Freq(Hz) 100Hz
Duration Time(s)  120
Dir.              3
Scale Factor      2942(gal)/8224139
Max. Acc. (gal)   1.037
Last Correction   2024/04/02 04:25:15
Memo.             
[...]
  129321   129320   129319   129316   129319   129319   129317   129321 
  129320   129319   129321   129321   129320   129323   129319   129316 
  129320   129323   129320   129320   129323   129320   129316   129320 
  129321   129319   129321   129321   129321   129321   129321   129321 
  129320   129320   129320   129321   129323   129324   129320   129319 
  129321   129323   129323   129321   129320   129323   129325   129324 
  129321   129321   129321   129320   129320   129321   129323   129319 
  129317   129319   129319   129321   129324   129324   129324   129321 
  129319   129321   129323   129321   129319   129317   129321   129325 
  129324   129321   129321   129324   129324   129321   129320   129321 
  129321   129323   129323   129320   129321   129323   129320   129321 
  129323   129320   129321   129323   129321   129323   129324   129323 
  129323   129323   129323   129323   129320   129320   129323   129321 
  129320   129324   129323   129319   129320   129325   129324   129321 
  129320   129323   129324   129323   129324   129324   129321   129321 
  129320   129321   129321   129323   129324   129321   129319   129321 
  129324   129321   129320   129321   129320   129320   129321   129323 
  129321   129323   129325   129323   129321   129324   129324   129321 
  129321   129323   129323   129323   129323   129321   129319   129319 
  129323   129325   129323   129321   129324   129324   129321   129321 
  129323   129321   129321   129321   129321   129320   129323   129324 
  129323   129323   129321   129324   129325   129323   129320   129323 
  129325   129321   129320   129324   129324   129321   129323   129321 
  129319   129323   129323   129319   129321   129323   129320   129321 
  129324   129323   129321   129323   129319   129319   129323   129321 
  129319   129320   129321   129320   129319   129319   129323   129324 
  129323   129321   129320   129321   129321   129321   129320   129321 
  129323   129324   129321   129319   129320   129321   129321   129320 
  129320   129324   129323   129321   129324   129324   129321   129320 
  129320   129323   129323   129323   129323   129323   129321   129321 
  129321   129323   129324   129324   129321   129320   129320   129321 
  129321   129324   129323   129319   129320   129324   129324   129321 
  129320   129321   129321   129321   129321   129319   129317   129321 
  129321   129316   129319   129323   129321   129321   129320   129321 
  129323   129320   129320   129324   129321   129319   129319   129320 
  129320   129321   129321   129321   129321   129323   129321   129319 
  129320   129320   129323   129325   129320   129317   129323   129324 
  129323   129324   129323   129320   129319   129321   129321   129319 
  129320   129325   129320   129317   129324   129324   129319   129319 
  129324   129321   129319   129321   129323   129320   129319   129320 
  129324   129327   129325   129323   129319   129320   129323   129320 
  129319   129323   129323   129321   129321   129319   129323   129324 
  129320   129320   129324   129320   129315   129319   129323   129321 
  129321   129324   129323   129321   129321   129317   129316   129323 
  129321   129317   129320   129324   129324   129321   129320   129323 
  129323   129319   129320   129321   129323   129324   129324   129321 
  129320   129321   129321   129321   129321   129323   129321   129321 
  129324   129321   129320   129323   129320   129319   129323   129323 
  129321   129323   129320   129317   129321   129323   129321   129321 
  129321   129325   129321   129319   129324   129324   129321   129320 
  129320   129323   129319   129320   129323   129317   129317   129325 
  129325   129321   129320   129323   129323   129321   129319   129317 
  129320   129321   129324   129323   129320   129321   129324   129323 
  129320   129321   129323   129320   129320   129320   129320   129323 
  129324   129324   129324   129323   129319   129320   129324   129321 
  129321   129323   129319   129321   129327   129323   129320   129321 
  129320   129319   129320   129319   129320   129324   129323   129320 
  129321   129324   129320   129320   129324   129324   129320   129320 
  129323   129321   129317   129317   129320   129320   129320   129324 
  129323   129323   129321   129317   129319   129324   129320   129320 
  129324   129321   129320   129320   129320   129323   129323   129323 
  129321   129320   129321   129320   129319   129321   129323   129323 
  129321   129321   129323   129323   129321   129323   129323   129321 
  129319   129321   129323   129321   129321   129320   129319   129320 
  129324   129323   129319   129320   129320   129319   129321   129324 
  129325   129325   129320   129320   129323   129320   129317   129319 
  129319   129320   129321   129320   129320   129323   129323   129323 
  129324   129323   129321   129323   129323   129319   129317   129320 
  129321   129320   129320   129321   129320   129319   129321   129321 
  129319   129317   129321   129321   129317   129320   129321   129321 
  129320   129319   129321   129324   129323   129320   129320   129320 
  129320   129319   129317   129321   129324   129320   129316   129319 
  129324   129323   129317   129317   129317   129317   129320   129325 
  129323   129317   129320   129323   129321   129320   129321   129321 
  129323   129324   129323   129321   129324   129323   129321   129324 
  129321   129319   129321   129320   129319   129320   129321   129321 
  129323   129321   129321   129323   129324   129324   129321   129317 
  129321   129324   129319   129317   129323   129324   129323   129321 
  129323   129323   129320   129321   129324   129323   129319   129320 
  129324   129324   129324   129323   129321   129321   129319   129319 
  129323   129324   129321   129320   129323   129321   129319   129324 
  129325   129320   129321   129324   129321   129323   129323   129320 
  129323   129323   129319   129320   129324   129324   129321   129319 
  129321   129321   129319   129321   129324   129321   129323   129323 
  129320   129321   129321   129320   129324   129325   129321   129321 
  129323   129321   129320   129324   129324   129320   129323   129323 
  129320   129321   129321   129321   129321   129323   129321   129317 
  129319   129321   129319   129320   129323   129321   129319   129321 
  129323   129323   129324   129323   129320   129320   129320   129321 
  129323   129321   129323   129325   129321   129320   129321   129320 
  129320   129323   129321   129320   129321   129321   129320   129321 
  129323   129317   129317   129321   129321   129321   129323   129320 
  129319   129321   129324   129321   129319   129323   129324   129320 
  129321   129323   129321   129323   129321   129319   129319   129321 
  129323   129320   129317   129319   129325   129325   129320   129321 
  129320   129317   129320   129320   129319   129321   129321   129319 
  129323   129323   129319   129319   129320   129320   129320   129319 
  129320   129323   129320   129323   129325   129320   129316   129320 
  129321   129319   129316   129317   129323   129323   129320   129321 
  129324   129324   129321   129321   129321   129320   129320   129320 
  129323   129323   129319   129320   129323   129321   129317   129317 
  129323   129325   129324   129323   129321   129320   129317   129317 
  129319   129319   129320   129321   129321   129321   129319   129317 
  129319   129320   129323   129324   129321   129320   129323   129324 
  129321   129320   129324   129324   129323   129323   129323   129324 
  129324   129323   129320   129320   129321   129323   129323   129323 
  129321   129323   129324   129324   129323   129321   129323   129324 
  129323   129324   129324   129321   129320   129321   129320   129319 
  129319   129320   129321   129320   129317   129319   129320   129320 
  129319   129317   129319   129320   129320   129319   129320   129323 
  129321   129321   129323   129323   129323   129321   129317   129319 
  129320   129321   129321   129320   129320   129321   129323   129324 
  129321   129320   129321   129323   129320   129320   129321   129324 
  129324   129320   129317   129320   129321   129320   129321   129323 
  129321   129320   129319   129319   129320   129324   129325   129321 
  129321   129324   129321   129323   129324   129321   129323   129325 
  129321   129321   129324   129321   129323   129327   129321   129317 
  129321   129325   129325   129323   129321   129321   129323   129323 
  129321   129321   129320   129323   129324   129319   129319   129324 
  129323   129320   129323   129323   129323   129323   129321   129321 
  129320   129319   129323   129324   129321   129317   129319   129319 
  129321   129323   129321   129320   129320   129320   129321   129323 
  129321   129321   129321   129321   129323   129323   129321   129321 
  129321   129320   129323   129324   129320   129320   129325   129324 
  129321   129320   129320   129324   129327   129323   129319   129321 
  129324   129321   129320   129321   129319   129320   129321   129320 
  129321   129320   129317   129321   129323   129321   129320   129321 
  129321   129321   129321   129320   129317   129320   129324   129321 
  129319   129323   129323   129319   129321   129324   129321   129320 
  129321   129321   129323   129323   129323   129323   129323   129321 
  129319   129319   129323   129324   129321   129321   129323   129323 
  129324   129324   129319   129317   129323   129321   129317   129321 
  129324   129320   129317   129321   129321   129320   129321   129319 
  129320   129327   129323   129320   129321   129321   129323   129323 
  129321   129321   129320   129317   129319   129320   129320   129320 
  129320   129320   129323   129323   129320   129321   129324   129323 
  129321   129323   129324   129323   129321   129323   129321   129320 
  129321   129321   129319   129323   129325   129323   129319   129319 
  129323   129327   129324   129319   129320   129319   129316   129319 
  129323   129320   129320   129324   129323   129319   129319   129321 
  129321   129324   129324   129320   129320   129323   129323   129323 
  129323   129320   129321   129325   129323   129317   129320   129321 
  129317   129321   129327   129321   129320   129323   129320   129319 
  129323   129323   129320   129323   129323   129320   129320   129320 
  129319   129319   129320   129319   129320   129321   129321   129321 
  129320   129317   129317   129324   129325   129319   129319   129323 
  129321   129319   129320   129321   129320   129321   129321   129320 
  129320   129323   129320   129320   129325   129321   129316   129321 
  129323   129320   129323   129323   129320   129323   129323   129323 
  129323   129320   129320   129321   129321   129319   129320   129323 
  129323   129321   129321   129320   129321   129323   129321   129321 
  129321   129323   129321   129320   129319   129321   129323   129320 
  129319   129321   129321   129320   129323   129323   129323   129324 
  129321   129319   129321   129323   129321   129324   129323   129321 
  129324   129323   129321   129323   129324   129323   129321   129321 
  129323   129324   129324   129323   129320   129321   129327   129328 
  129323   129320   129321   129321   129320   129321   129321   129321 
  129321   129321   129323   129321   129321   129323   129323   129321 
  129320   129319   129319   129320   129321   129320   129319   129317 
  129320   129321   129320   129323   129324   129320   129321   129324 
  129324   129323   129321   129323   129324   129323   129321   129320 
  129321   129320   129320   129320   129320   129321   129321   129321 
  129324   129323   129321   129325   129323   129317   129323   129325 
  129321   129320   129323   129321   129323   129324   129321   129324 
  129327   129327   129325   129323   129320   129323   129324   129323 
  129323   129323   129320   129323   129325   129324   129323   129321 
  129324   129328   129323   129321   129324   129323   129321   129324 
  129325   129323   129323   129324   129324   129323   129323   129320 
  129319   129323   129323   129320   129321   129323   129323   129323 
  129325   129325   129324   129324   129325   129324   129320   129320 
  129324   129323   129320   129324   129324   129319   129317   129317 
  129315   129316   129315   129311   129309   129304   129300   129297 
  129290   129289   129288   129277   129271   129270   129262   129257 
  129255   129246   129236   129230   129220   129213   129208   129203 
  129200   129201   129208   129224   129240   129261   129290   129321 
  129355   129393   129428   129455   129470   129469   129450   129411 
  129354   129281   129186   129080   128966   128846   128731   128634 
  128552   128493   128457   128452   128483   128551   128652   128783 
  128947   129141   129354   129581   129814   130036   130225   130366 
  130453   130491   130491   130462   130411   130330   130218   130075 
  129914   129749   129604   129483   129374   129251   129109   128962 
  128830   128736   128684   128648   128606   128568   128545   128557 
  128632   128772   128953   129126   129239   129285   129286   129277 
  129278   129273   129222   129104   128931   128740   128567   128463 
  128461   128540   128629   128690   128742   128810   128912   129074 
  129294   129544   129789   130015   130257   130527   130806   131071 
  131321   131549   131741   131903   132046   132160   132220   132198 
  132081   131868   131581   131251   130910   130581   130270   129986 
  129713   129402   129051   128699   128380   128113   127916   127785 
  127687   127577   127445   127319   127218   127140   127087   127078 
  127124   127228   127394   127589   127773   127939   128106   128286 
  128468   128641   128817   128996   129150   129280   129442   129645 
  129851   130046   130233   130397   130543   130696   130839   130924 
  130940   130886   130729   130486   130221   129980   129772   129593 
  129435   129266   129072   128869   128694   128567   128497   128483 
  128506   128497   128403   128277   128173   128098   128071   128119 
  128212   128314   128428   128534   128582   128576   128582   128650 
  128783   128931   129065   129173   129250   129294   129327   129369 
  129423   129486   129547   129601   129675   129787   129888   129933 
  129919   129825   129666   129539   129513   129585   129724   129874 
  129979   130029   130052   130088   130173   130280   130365   130428 
  130484   130486   130405   130287   130184   130108   130061   130036 
  129992   129911   129809   129681   129517   129347   129211   129126 
  129042   128884   128656   128430   128227   128043   127935   127904 
  127858   127769   127714   127728   127815   127985   128212   128420 
  128579   128729   128907   129107   129348   129618   129849   130038 
  130242   130476   130693   130828   130833   130740   130619   130511 
  130430   130365   130264   130081   129829   129570   129381   129285 
  129228   129138   128993   128842   128733   128667   128628   128629 
  128687   128748   128736   128648   128547   128471   128414   128368 
  128358   128378   128432   128560   128771   129001   129182   129288 
  129346   129412   129548   129756   129984   130172   130297   130377 
  130427   130450   130450   130437   130411   130368   130314   130243 
  130140   130048   130006   129979   129933   129847   129703   129529 
  129379   129307   129334   129408   129477   129541   129566   129514 
  129427   129330   129216   129111   129033   128953   128834   128671 
  128484   128340   128282   128256   128225   128214   128212   128179 
  128174   128282   128494   128721   128876   128956   129027   129131 
  129250   129363   129465   129552   129627   129708   129795   129845 
  129825   129759   129689   129647   129654   129685   129681   129578 
  129397   129271   129253   129266   129250   129181   129076   129016 
  129020   129006   128977   129007   129082   129168   129282   129417 
  129527   129600   129622   129577   129523   129501   129456   129374 
  129293   129209   129107   128974   128784   128578   128430   128352 
  128318   128336   128406   128497   128569   128619   128679   128796 
  128956   129101   129224   129330   129427   129536   129663   129791 
  129898   129971   130029   130079   130100   130096   130073   130041 
  130034   130064   130110   130145   130142   130102   130065   130063 
  130091   130115   130100   130044   129964   129865   129767   129705 
  129654   129582   129489   129358   129184   129004   128868   128808 
  128808   128794   128714   128602   128518   128480   128478   128515 
  128590   128652   128680   128713   128772   128853   128964   129089 
  129200   129305   129436   129579   129708   129805   129861   129892 
  129926   129956   129968   129987   130025   130034   129980   129879 
  129752   129602   129465   129415   129440   129436   129351   129223 
  129074   128941   128900   128966   129061   129128   129169   129181 
  129176   129184   129190   129178   129178   129193   129199   129200 
  129209   129182   129107   129076   129119   129161   129161   129135 
  129105   129096   129091   129061   129051   129064   129020   128907 
  128806   128756   128761   128864   129058   129266   129433   129541 
  129575   129574   129622   129763   129941   130071   130134   130152 
  130129   130111   130126   130114   130042   129945   129857   129784 
  129705   129591   129433   129240   129047   128902   128839   128834 
  128822   128791   128771   128753   128736   128752   128821   128904 
  128968   129015   129055   129088   129096   129082   129078   129096 
  129096   129078   129085   129115   129150   129186   129217   129259 
  129324   129389   129442   129504   129578   129647   129679   129655 
  129625   129666   129740   129771   129764   129748   129698   129605 
  129533   129527   129543   129535   129502   129452   129397   129365 
  129370   129400   129443   129474   129460   129435   129458   129519 
  129563   129567   129554   129529   129485   129440   129440   129493 
  129527   129466   129324   129165   129039   128985   128996   129020 
  129041   129051   129018   128952   128902   128876   128857   128858 
  128883   128899   128875   128815   128765   128763   128780   128798 
  128841   128922   129026   129151   129289   129405   129470   129486 
  129483   129486   129487   129487   129501   129505   129450   129320 
  129151   128999   128946   129006   129100   129163   129209   129244 
  129250   129236   129246   129292   129348   129396   129424   129417 
  129385   129377   129402   129420   129424   129442   129456   129456 
  129451   129473   129540   129602   129613   129597   129570   129527 
  129481   129454   129490   129582   129636   129595   129514   129460 
  129433   129438   129483   129523   129494   129412   129334   129267 
  129193   129150   129162   129192   129232   129305   129378   129402 
  129352   129249   129159   129147   129212   129311   129398   129456 
  129478   129485   129504   129519   129529   129555   129571   129562 
  129559   129579   129597   129582   129531   129470   129435   129397 
  129334   129270   129216   129182   129192   129231   129246   129228 
