Origin Time       2024/04/02 04:24:00
Lat.              40.133
Long.             141.712
Depth. (km)       71
Mag.              6.0
Station Code      HYMH03
Station Lat.      42.1344
Station Long.     140.0040
Station Height(m) -30
Record Time       2024/04/02 04:25:15
Sampling Freq(Hz) 100Hz
Duration Time(s)  120
Dir.              2
Scale Factor      2942(gal)/8224139
Max. Acc. (gal)   0.296
Last Correction   2024/04/02 04:25:15
Memo.             
[...]
   -1433    -1441    -1440    -1437    -1441    -1440    -1437    -1439 
   -1439    -1444    -1445    -1435    -1425    -1436    -1444    -1436 
   -1436    -1441    -1437    -1437    -1437    -1435    -1441    -1443 
   -1437    -1439    -1439    -1439    -1439    -1436    -1436    -1437 
   -1436    -1436    -1437    -1437    -1439    -1443    -1440    -1436 
   -1439    -1443    -1441    -1439    -1439    -1443    -1448    -1441 
   -1432    -1429    -1436    -1441    -1440    -1440    -1444    -1437 
   -1431    -1440    -1444    -1433    -1436    -1443    -1437    -1436 
   -1440    -1436    -1437    -1440    -1440    -1436    -1436    -1441 
   -1439    -1437    -1443    -1439    -1436    -1440    -1441    -1445 
   -1447    -1436    -1428    -1441    -1451    -1439    -1431    -1445 
   -1448    -1433    -1435    -1443    -1440    -1439    -1440    -1439 
   -1439    -1439    -1441    -1441    -1440    -1443    -1440    -1433 
   -1439    -1443    -1440    -1436    -1437    -1444    -1449    -1440 
   -1428    -1433    -1445    -1440    -1433    -1437    -1439    -1439 
   -1441    -1439    -1439    -1440    -1440    -1439    -1437    -1436 
   -1439    -1439    -1439    -1441    -1441    -1437    -1437    -1437 
   -1437    -1437    -1439    -1441    -1440    -1441    -1443    -1433 
   -1433    -1443    -1441    -1435    -1436    -1437    -1443    -1449 
   -1448    -1437    -1432    -1441    -1441    -1433    -1436    -1436 
   -1435    -1440    -1437    -1435    -1441    -1440    -1437    -1440 
   -1441    -1435    -1433    -1439    -1443    -1440    -1435    -1432 
   -1437    -1443    -1437    -1436    -1439    -1437    -1437    -1439 
   -1439    -1439    -1440    -1443    -1445    -1437    -1425    -1435 
   -1447    -1436    -1433    -1441    -1436    -1435    -1440    -1435 
   -1437    -1440    -1436    -1439    -1443    -1439    -1436    -1439 
   -1437    -1435    -1439    -1439    -1435    -1436    -1437    -1441 
   -1448    -1445    -1435    -1435    -1437    -1431    -1433    -1444 
   -1439    -1432    -1436    -1440    -1439    -1437    -1439    -1443 
   -1443    -1439    -1436    -1436    -1428    -1429    -1447    -1445 
   -1431    -1432    -1440    -1441    -1436    -1439    -1444    -1437 
   -1437    -1440    -1435    -1436    -1439    -1439    -1439    -1443 
   -1439    -1435    -1443    -1443    -1433    -1440    -1443    -1437 
   -1440    -1440    -1437    -1440    -1441    -1439    -1436    -1435 
   -1439    -1439    -1436    -1440    -1440    -1437    -1440    -1439 
   -1437    -1437    -1439    -1441    -1441    -1439    -1440    -1439 
   -1437    -1440    -1440    -1440    -1440    -1440    -1439    -1433 
   -1433    -1437    -1440    -1443    -1440    -1436    -1441    -1443 
   -1439    -1439    -1440    -1440    -1441    -1439    -1437    -1441 
   -1441    -1435    -1433    -1440    -1440    -1435    -1436    -1439 
   -1441    -1443    -1439    -1440    -1447    -1443    -1436    -1429 
   -1436    -1445    -1436    -1437    -1444    -1439    -1440    -1447 
   -1443    -1431    -1433    -1449    -1449    -1433    -1432    -1440 
   -1441    -1437    -1436    -1440    -1440    -1437    -1435    -1440 
   -1443    -1432    -1433    -1444    -1444    -1445    -1439    -1429 
   -1431    -1436    -1439    -1440    -1435    -1436    -1439    -1436 
   -1437    -1440    -1440    -1439    -1437    -1439    -1439    -1439 
   -1443    -1439    -1435    -1437    -1436    -1436    -1441    -1440 
   -1437    -1439    -1439    -1439    -1436    -1435    -1439    -1441 
   -1439    -1444    -1445    -1432    -1426    -1441    -1445    -1433 
   -1436    -1441    -1439    -1441    -1437    -1432    -1441    -1441 
   -1431    -1439    -1448    -1431    -1426    -1445    -1444    -1435 
   -1443    -1437    -1431    -1441    -1439    -1436    -1441    -1436 
   -1433    -1436    -1439    -1439    -1440    -1441    -1439    -1437 
   -1440    -1437    -1435    -1436    -1439    -1437    -1439    -1441 
   -1439    -1440    -1445    -1441    -1435    -1440    -1443    -1439 
   -1440    -1439    -1436    -1439    -1443    -1443    -1444    -1441 
   -1436    -1433    -1441    -1445    -1435    -1437    -1443    -1440 
   -1443    -1441    -1436    -1441    -1441    -1437    -1440    -1440 
   -1436    -1440    -1444    -1440    -1439    -1441    -1440    -1437 
   -1437    -1439    -1440    -1440    -1439    -1436    -1436    -1440 
   -1439    -1436    -1439    -1441    -1443    -1439    -1435    -1440 
   -1443    -1435    -1435    -1437    -1435    -1437    -1437    -1436 
   -1440    -1444    -1445    -1445    -1435    -1429    -1435    -1429 
   -1432    -1447    -1441    -1432    -1440    -1441    -1437    -1440 
   -1440    -1439    -1440    -1437    -1432    -1439    -1441    -1435 
   -1440    -1440    -1431    -1436    -1440    -1439    -1436    -1435 
   -1439    -1441    -1439    -1437    -1440    -1440    -1437    -1433 
   -1436    -1443    -1443    -1439    -1440    -1440    -1436    -1432 
   -1444    -1448    -1429    -1435    -1448    -1432    -1432    -1449 
   -1437    -1431    -1441    -1439    -1437    -1439    -1437    -1436 
   -1436    -1440    -1440    -1436    -1439    -1441    -1440    -1439 
   -1433    -1437    -1444    -1437    -1436    -1444    -1439    -1432 
   -1435    -1444    -1441    -1433    -1436    -1439    -1440    -1441 
   -1439    -1437    -1436    -1437    -1440    -1441    -1437    -1435 
   -1440    -1441    -1437    -1441    -1439    -1436    -1439    -1437 
   -1439    -1444    -1440    -1436    -1437    -1439    -1439    -1437 
   -1437    -1441    -1447    -1449    -1447    -1432    -1425    -1435 
   -1441    -1439    -1436    -1436    -1437    -1441    -1441    -1436 
   -1432    -1436    -1441    -1440    -1439    -1441    -1435    -1432 
   -1441    -1443    -1441    -1443    -1431    -1428    -1444    -1441 
   -1431    -1437    -1439    -1436    -1439    -1439    -1436    -1437 
   -1440    -1439    -1436    -1436    -1437    -1435    -1437    -1439 
   -1435    -1433    -1435    -1437    -1439    -1435    -1435    -1436 
   -1433    -1436    -1439    -1439    -1437    -1437    -1437    -1437 
   -1437    -1436    -1436    -1437    -1437    -1437    -1436    -1433 
   -1436    -1439    -1435    -1435    -1437    -1435    -1429    -1432 
   -1439    -1440    -1439    -1436    -1436    -1440    -1440    -1439 
   -1441    -1444    -1439    -1428    -1435    -1448    -1435    -1424 
   -1439    -1440    -1432    -1435    -1441    -1441    -1440    -1439 
   -1432    -1429    -1437    -1440    -1433    -1437    -1440    -1435 
   -1436    -1437    -1436    -1437    -1439    -1437    -1440    -1443 
   -1431    -1426    -1443    -1444    -1432    -1439    -1443    -1436 
   -1437    -1439    -1436    -1439    -1440    -1439    -1437    -1437 
   -1440    -1441    -1440    -1439    -1439    -1439    -1439    -1437 
   -1436    -1437    -1440    -1441    -1439    -1431    -1435    -1447 
   -1441    -1433    -1440    -1443    -1440    -1441    -1437    -1439 
   -1443    -1439    -1437    -1440    -1439    -1440    -1444    -1444 
   -1440    -1436    -1435    -1436    -1444    -1444    -1436    -1440 
   -1440    -1435    -1439    -1440    -1439    -1439    -1439    -1437 
   -1439    -1440    -1440    -1439    -1440    -1443    -1441    -1441 
   -1441    -1439    -1439    -1440    -1440    -1439    -1437    -1437 
   -1444    -1449    -1441    -1425    -1432    -1447    -1441    -1440 
   -1452    -1445    -1428    -1431    -1440    -1443    -1439    -1440 
   -1447    -1444    -1445    -1445    -1428    -1428    -1445    -1443 
   -1435    -1436    -1439    -1440    -1439    -1437    -1441    -1440 
   -1439    -1441    -1440    -1439    -1439    -1439    -1444    -1441 
   -1440    -1444    -1439    -1439    -1445    -1440    -1435    -1439 
   -1441    -1439    -1440    -1440    -1435    -1433    -1436    -1439 
   -1440    -1443    -1440    -1437    -1436    -1437    -1439    -1437 
   -1439    -1440    -1441    -1440    -1437    -1437    -1439    -1440 
   -1439    -1436    -1439    -1440    -1437    -1436    -1435    -1433 
   -1436    -1440    -1441    -1440    -1440    -1443    -1440    -1435 
   -1439    -1444    -1436    -1435    -1443    -1439    -1437    -1447 
   -1447    -1435    -1424    -1431    -1445    -1441    -1431    -1437 
   -1441    -1435    -1437    -1445    -1447    -1439    -1429    -1431 
   -1436    -1439    -1441    -1445    -1445    -1437    -1426    -1436 
   -1444    -1432    -1432    -1456    -1452    -1426    -1432    -1443 
   -1436    -1441    -1443    -1437    -1440    -1436    -1435    -1439 
   -1439    -1437    -1437    -1441    -1443    -1439    -1440    -1445 
   -1443    -1436    -1433    -1439    -1444    -1439    -1439    -1443 
   -1440    -1435    -1435    -1435    -1436    -1436    -1437    -1439 
   -1439    -1435    -1437    -1440    -1436    -1437    -1440    -1439 
   -1439    -1437    -1436    -1439    -1439    -1437    -1439    -1437 
   -1439    -1443    -1437    -1435    -1439    -1439    -1437    -1440 
   -1440    -1439    -1439    -1439    -1439    -1440    -1439    -1435 
   -1439    -1439    -1431    -1435    -1444    -1436    -1433    -1440 
   -1437    -1436    -1439    -1441    -1443    -1439    -1436    -1440 
   -1437    -1435    -1436    -1439    -1439    -1437    -1440    -1440 
   -1435    -1435    -1441    -1440    -1435    -1439    -1439    -1435 
   -1437    -1441    -1440    -1440    -1439    -1437    -1439    -1437 
   -1439    -1441    -1439    -1437    -1441    -1440    -1431    -1432 
   -1444    -1440    -1429    -1436    -1441    -1439    -1437    -1431 
   -1432    -1436    -1433    -1433    -1435    -1431    -1431    -1431 
   -1429    -1428    -1422    -1418    -1418    -1417    -1416    -1416 
   -1414    -1412    -1413    -1416    -1421    -1429    -1435    -1432 
   -1433    -1449    -1452    -1447    -1451    -1452    -1445    -1435 
   -1418    -1401    -1383    -1367    -1354    -1343    -1341    -1348 
   -1356    -1360    -1366    -1379    -1383    -1371    -1362    -1348 
   -1329    -1317    -1313    -1323    -1343    -1370    -1406    -1443 
   -1471    -1487    -1486    -1474    -1463    -1466    -1485    -1510 
   -1545    -1595    -1665    -1729    -1757    -1755    -1719    -1640 
   -1541    -1437    -1329    -1240    -1183    -1158    -1166    -1209 
   -1279    -1336    -1367    -1395    -1394    -1351    -1302    -1250 
   -1177    -1115    -1097    -1105    -1143    -1229    -1335    -1453 
   -1587    -1696    -1779    -1838    -1853    -1817    -1732    -1605 
   -1452    -1294    -1173    -1123    -1134    -1208    -1345    -1506 
   -1667    -1814    -1935    -2014    -2029    -1983    -1921    -1879 
   -1848    -1803    -1782    -1802    -1803    -1745    -1688    -1641 
   -1576    -1529    -1498    -1466    -1456    -1445    -1379    -1278 
   -1177    -1067     -953     -876     -850     -842     -843     -882 
    -965    -1066    -1178    -1313    -1449    -1551    -1626    -1711 
   -1794    -1827    -1803    -1749    -1686    -1632    -1613    -1642 
   -1719    -1809    -1865    -1876    -1875    -1885    -1899    -1890 
   -1850    -1783    -1690    -1578    -1440    -1278    -1144    -1077 
   -1059    -1075    -1125    -1215    -1321    -1387    -1371    -1270 
   -1102     -899     -731     -668     -684     -714     -716     -683 
    -639     -614     -623     -693     -799     -882     -973    -1107 
   -1248    -1366    -1453    -1529    -1624    -1756    -1898    -2007 
   -2083    -2142    -2170    -2119    -2000    -1902    -1888    -1912 
   -1921    -1949    -1992    -1956    -1829    -1686    -1560    -1422 
   -1273    -1190    -1228    -1328    -1404    -1429    -1435    -1426 
   -1398    -1390    -1435    -1513    -1610    -1728    -1841    -1904 
   -1927    -1938    -1944    -1939    -1888    -1782    -1682    -1591 
   -1482    -1394    -1339    -1274    -1204    -1194    -1254    -1302 
   -1289    -1254    -1217    -1138    -1020     -938     -907     -866 
    -803     -780     -820     -870     -868     -855     -913    -1011 
   -1096    -1200    -1348    -1494    -1579    -1601    -1595    -1579 
   -1539    -1462    -1363    -1316    -1386    -1526    -1642    -1726 
   -1804    -1858    -1868    -1853    -1858    -1867    -1790    -1647 
   -1572    -1597    -1587    -1475    -1359    -1325    -1314    -1237 
   -1111    -1000     -930     -909     -949    -1026    -1071    -1031 
    -945     -862     -797     -768     -762     -741     -746     -873 
   -1117    -1351    -1487    -1613    -1799    -1953    -1980    -1945 
   -1973    -2084    -2191    -2227    -2212    -2189    -2160    -2112 
   -2072    -2035    -1969    -1895    -1860    -1845    -1814    -1798 
   -1836    -1887    -1860    -1728    -1544    -1364    -1217    -1119 
   -1117    -1240    -1414    -1537    -1595    -1644    -1709    -1748 
   -1702    -1582    -1462    -1386    -1337    -1283    -1244    -1246 
   -1255    -1242    -1189    -1098    -1043    -1044    -1023     -959 
    -927     -980    -1070    -1123    -1159    -1236    -1310    -1327 
   -1325    -1385    -1509    -1614    -1629    -1628    -1694    -1767 
   -1783    -1749    -1668    -1564    -1518    -1534    -1544    -1545 
   -1579    -1661    -1752    -1782    -1745    -1711    -1694    -1628 
   -1474    -1298    -1212    -1228    -1275    -1337    -1431    -1502 
   -1493    -1412    -1310    -1229    -1171    -1121    -1081    -1031 
    -958     -869     -764     -654     -610     -693     -896    -1119 
   -1269    -1363    -1447    -1475    -1385    -1247    -1194    -1242 
   -1318    -1406    -1514    -1591    -1606    -1613    -1676    -1760 
   -1768    -1694    -1628    -1626    -1660    -1671    -1629    -1549 
   -1474    -1435    -1436    -1464    -1507    -1541    -1545    -1525 
   -1512    -1560    -1645    -1652    -1568    -1501    -1474    -1404 
   -1269    -1174    -1163    -1152    -1098    -1054    -1023     -982 
    -981    -1048    -1128    -1166    -1193    -1252    -1317    -1354 
   -1431    -1580    -1709    -1755    -1775    -1842    -1925    -1954 
   -1961    -1979    -1958    -1881    -1810    -1768    -1686    -1525 
   -1375    -1306    -1263    -1179    -1088    -1044    -1051    -1097 
   -1158    -1210    -1251    -1302    -1375    -1441    -1495    -1551 
   -1597    -1624    -1633    -1686    -1827    -1976    -2033    -2006 
   -1957    -1945    -1956    -1958    -1957    -1921    -1865    -1892 
   -1954    -1910    -1763    -1605    -1485    -1398    -1348    -1347 
   -1336    -1228    -1093    -1067    -1101    -1073    -1021    -1070 
   -1205    -1321    -1401    -1470    -1478    -1398    -1313    -1306 
   -1335    -1314    -1289    -1325    -1364    -1333    -1309    -1395 
   -1532    -1574    -1537    -1557    -1632    -1621    -1491    -1405 
   -1452    -1537    -1583    -1603    -1590    -1568    -1620    -1714 
   -1714    -1590    -1428    -1283    -1156    -1027     -916     -885 
    -927     -970     -994    -1007    -1009    -1028    -1047    -1013 
    -953     -920     -913     -905     -915     -992    -1128    -1239 
   -1300    -1382    -1498    -1567    -1564    -1561    -1606    -1634 
   -1599    -1561    -1588    -1655    -1702    -1732    -1791    -1868 
   -1898    -1891    -1872    -1813    -1741    -1709    -1690    -1641 
   -1588    -1595    -1661    -1717    -1748    -1803    -1873    -1875 
   -1786    -1706    -1698    -1696    -1620    -1485    -1356    -1244 
   -1128    -1032     -962     -886     -822     -819     -868     -912 
    -924     -936     -976    -1034    -1085    -1117    -1116    -1073 
   -1034    -1048    -1081    -1108    -1138    -1169    -1232    -1367 
   -1529    -1656    -1744    -1804    -1823    -1791    -1723    -1649 
   -1586    -1551    -1543    -1536    -1509    -1459    -1414    -1421 
   -1479    -1543    -1582    -1609    -1655    -1740    -1838    -1908 
   -1907    -1818    -1705    -1638    -1606    -1564    -1516    -1506 
   -1541    -1571    -1591    -1606    -1575    -1505    -1439    -1402 
   -1377    -1336    -1308    -1308    -1321    -1340    -1336    -1308 
   -1300    -1316    -1337    -1359    -1371    -1399    -1468    -1528 
   -1513    -1451    -1426    -1440    -1418    -1360    -1356    -1431 
   -1512    -1539    -1524    -1494    -1455    -1440    -1475    -1543 
   -1620    -1691    -1737    -1745    -1715    -1688    -1687    -1632 
   -1497    -1402    -1421    -1449    -1370    -1260    -1255    -1323 
   -1343    -1310    -1293    -1289    -1233    -1135    -1075    -1070 
   -1073    -1081    -1121    -1183    -1197    -1183    -1223    -1270 
   -1254    -1232    -1278    -1336    -1324    -1271    -1248    -1254 
   -1248    -1251    -1300    -1364    -1405    -1460    -1559    -1664 
   -1744    -1804    -1871    -1923    -1937    -1937    -1946    -1946 
   -1914    -1884    -1894    -1884    -1833    -1818    -1849    -1858 
   -1798    -1686    -1575    -1475    -1381    -1324    -1314    -1306 
   -1259    -1205    -1210    -1248    -1250    -1233    -1244    -1278 
   -1300    -1300    -1302    -1301    -1279    -1269    -1262    -1246 
   -1266    -1331    -1394    -1447    -1491    -1507    -1468    -1375 
   -1302    -1312    -1356    -1352    -1287    -1227    -1192    -1144 
   -1090    -1100    -1204    -1329    -1402    -1439    -1486    -1539 
   -1557    -1520    -1456    -1414    -1395    -1366    -1343    -1382 
   -1464    -1507    -1502    -1493    -1476    -1417    -1333    -1286 
   -1297    -1337    -1377    -1402    -1404    -1414    -1468    -1522 
   -1541    -1536    -1517    -1502    -1503    -1533    -1590    -1641 
   -1657    -1651    -1652    -1656    -1640    -1594    -1548    -1530 
   -1528    -1525    -1530    -1520    -1466    -1386    -1328    -1290 
   -1244    -1209    -1248    -1336    -1379    -1356    -1332    -1351 
   -1374    -1339    -1275    -1260    -1308    -1360    -1375    -1398 
   -1478    -1540    -1530    -1494    -1471    -1467    -1445    -1374 
   -1298    -1263    -1251    -1216    -1165    -1161    -1205    -1236 
   -1252    -1278    -1313    -1359    -1402    -1443    -1486    -1512 
   -1507    -1490    -1494    -1544    -1609    -1640    -1653    -1705 
   -1786    -1823    -1800    -1786    -1794    -1769    -1721    -1683 
   -1659    -1642    -1625    -1615    -1609    -1579    -1547    -1533 
   -1525    -1529    -1549    -1548    -1516    -1487    -1494    -1524 
   -1520    -1476    -1460    -1485    -1447    -1343    -1294    -1305 
   -1291    -1250    -1242    -1278    -1297    -1278    -1283    -1325 
   -1354    -1347    -1331    -1335    -1333    -1301    -1264    -1254 
   -1273    -1313    -1358    -1424    -1494    -1534    -1578    -1588 
   -1518    -1453    -1431    -1393    -1320    -1278    -1337    -1448 
   -1509    -1518    -1536    -1561    -1556    -1539    -1555    -1580 
   -1566    -1548    -1584    -1638    -1638    -1590    -1549    -1534 
   -1513    -1480    -1466    -1460    -1445    -1440    -1436    -1393 
   -1317    -1264    -1254    -1243    -1194    -1146    -1134    -1134 
   -1120    -1116    -1127    -1113    -1077    -1080    -1144    -1215 
   -1263    -1329    -1412    -1445    -1420    -1412    -1458    -1502 
   -1513    -1549    -1629    -1663    -1611    -1576    -1613    -1644 
