Origin Time       2024/04/02 04:24:00
Lat.              40.133
Long.             141.712
Depth. (km)       71
Mag.              6.0
Station Code      HYMH02
Station Lat.      41.9856
Station Long.     140.3087
Station Height(m) 85
Record Time       2024/04/02 04:25:12
Sampling Freq(Hz) 100Hz
Duration Time(s)  120
Dir.              4
Scale Factor      3920(gal)/6170801
Max. Acc. (gal)   1.111
Last Correction   2024/04/02 04:24:57
Memo.             
[...]
   -5522    -5444    -5502    -5594    -5624    -5688    -5839    -6025 
   -6161    -6161    -6107    -6100    -6104    -6098    -6067    -6034 
   -6096    -6233    -6334    -6355    -6332    -6322    -6304    -6218 
   -6107    -6050    -6058    -6111    -6180    -6221    -6214    -6169 
   -6085    -5987    -5904    -5824    -5807    -5900    -6032    -6179 
   -6317    -6374    -6376    -6368    -6369    -6397    -6431    -6476 
   -6591    -6742    -6808    -6770    -6711    -6684    -6672    -6627 
   -6536    -6427    -6330    -6242    -6135    -6014    -5881    -5740 
   -5629    -5533    -5448    -5402    -5370    -5341    -5338    -5366 
   -5410    -5393    -5330    -5313    -5397    -5631    -5916    -6120 
   -6322    -6526    -6611    -6592    -6551    -6536    -6531    -6445 
   -6242    -6058    -6039    -6135    -6218    -6202    -6100    -6056 
   -6118    -6118    -5952    -5723    -5592    -5626    -5759    -5873 
   -5935    -6021    -6172    -6288    -6248    -6087    -5960    -5965 
   -6064    -6154    -6215    -6294    -6413    -6550    -6671    -6775 
   -6830    -6762    -6585    -6378    -6204    -6102    -6044    -5999 
   -5985    -5994    -6034    -6129    -6239    -6297    -6255    -6124 
   -5967    -5862    -5880    -5996    -6129    -6258    -6380    -6504 
   -6648    -6758    -6771    -6715    -6673    -6678    -6693    -6647 
   -6496    -6296    -6150    -6083    -6052    -6034    -6088    -6229 
   -6345    -6346    -6235    -6060    -5931    -5894    -5843    -5692 
   -5479    -5322    -5338    -5499    -5618    -5603    -5534    -5523 
   -5633    -5800    -5881    -5831    -5751    -5768    -5890    -6030 
   -6137    -6227    -6300    -6341    -6342    -6288    -6217    -6195 
   -6218    -6268    -6345    -6412    -6475    -6544    -6512    -6355 
   -6223    -6209    -6257    -6286    -6260    -6234    -6303    -6442 
   -6491    -6355    -6142    -6023    -6002    -5981    -5943    -5959 
   -6086    -6267    -6364    -6355    -6338    -6369    -6436    -6498 
   -6522    -6535    -6549    -6509    -6408    -6307    -6221    -6103 
   -5922    -5723    -5589    -5533    -5521    -5534    -5582    -5709 
   -5913    -6140    -6343    -6487    -6559    -6583    -6575    -6525 
   -6447    -6381    -6328    -6249    -6095    -5885    -5709    -5627 
   -5612    -5625    -5655    -5698    -5723    -5694    -5636    -5645 
   -5767    -5926    -6027    -6074    -6134    -6252    -6419    -6565 
   -6615    -6598    -6615    -6697    -6788    -6816    -6741    -6592 
   -6439    -6315    -6193    -6026    -5807    -5592    -5431    -5337 
   -5298    -5284    -5278    -5309    -5407    -5563    -5746    -5883 
   -5912    -5881    -5909    -6060    -6286    -6466    -6500    -6386 
   -6214    -6084    -6003    -5904    -5784    -5749    -5881    -6109 
   -6263    -6278    -6214    -6146    -6142    -6192    -6210    -6194 
   -6211    -6297    -6442    -6588    -6649    -6591    -6459    -6320 
   -6244    -6252    -6290    -6319    -6347    -6340    -6272    -6198 
   -6161    -6151    -6165    -6227    -6346    -6467    -6511    -6445 
   -6286    -6100    -5989    -5987    -6042    -6119    -6226    -6353 
   -6446    -6466    -6429    -6397    -6435    -6538    -6626    -6641 
   -6575    -6480    -6426    -6413    -6395    -6374    -6384    -6407 
   -6375    -6242    -6034    -5837    -5734    -5714    -5676    -5583 
   -5485    -5426    -5451    -5584    -5750    -5859    -5909    -5940 
   -5964    -5981    -5976    -5942    -5928    -6007    -6187    -6377 
   -6476    -6469    -6416    -6368    -6350    -6353    -6313    -6210 
   -6142    -6171    -6223    -6208    -6120    -6029    -6010    -6055 
   -6087    -6083    -6100    -6189    -6326    -6402    -6332    -6166 
   -6017    -5941    -5915    -5899    -5900    -5936    -5987    -6026 
   -6043    -6017    -5928    -5806    -5703    -5671    -5732    -5836 
   -5893    -5878    -5851    -5855    -5857    -5814    -5713    -5604 
   -5597    -5755    -5981    -6112    -6120    -6104    -6140    -6222 
   -6307    -6355    -6361    -6372    -6432    -6543    -6671    -6759 
   -6765    -6705    -6636    -6626    -6707    -6830    -6915    -6928 
   -6881    -6772    -6570    -6275    -5957    -5695    -5537    -5482 
   -5484    -5506    -5565    -5687    -5833    -5903    -5852    -5746 
   -5662    -5626    -5657    -5752    -5886    -6063    -6260    -6402 
   -6460    -6491    -6539    -6587    -6598    -6566    -6516    -6460 
   -6377    -6263    -6165    -6146    -6212    -6301    -6325    -6262 
   -6178    -6135    -6112    -6083    -6071    -6059    -5971    -5794 
   -5602    -5490    -5524    -5642    -5707    -5693    -5703    -5794 
   -5916    -5996    -6028    -6081    -6199    -6328    -6396    -6425 
   -6477    -6547    -6588    -6601    -6625    -6651    -6631    -6540 
   -6404    -6318    -6357    -6456    -6473    -6352    -6174    -6068 
   -6078    -6114    -6061    -5926    -5821    -5837    -5955    -6078 
   -6131    -6130    -6139    -6190    -6248    -6263    -6214    -6128 
   -6075    -6109    -6198    -6254    -6203    -6051    -5878    -5743 
   -5638    -5543    -5463    -5446    -5576    -5849    -6121    -6260 
   -6248    -6145    -6046    -6036    -6109    -6184    -6213    -6223 
   -6267    -6357    -6439    -6421    -6284    -6154    -6168    -6306 
   -6423    -6427    -6357    -6295    -6248    -6143    -5967    -5840 
   -5877    -6046    -6216    -6302    -6340    -6414    -6528    -6596 
   -6570    -6494    -6439    -6438    -6433    -6357    -6235    -6147 
   -6119    -6108    -6082    -6053    -6038    -6028    -5966    -5808 
   -5635    -5580    -5661    -5763    -5776    -5723    -5725    -5842 
   -5970    -5981    -5897    -5826    -5820    -5870    -5926    -5949 
   -5945    -5955    -6012    -6111    -6195    -6204    -6134    -6049 
   -6021    -6055    -6110    -6155    -6200    -6255    -6287    -6285 
   -6285    -6310    -6355    -6387    -6391    -6410    -6473    -6517 
   -6447    -6243    -5990    -5808    -5740    -5718    -5642    -5523 
   -5479    -5598    -5828    -6024    -6098    -6112    -6152    -6192 
   -6172    -6118    -6113    -6201    -6338    -6455    -6533    -6607 
   -6704    -6798    -6852    -6857    -6813    -6719    -6572    -6363 
   -6130    -5974    -5944    -5979    -6014    -6041    -6074    -6115 
   -6119    -6035    -5905    -5837    -5873    -5949    -5982    -5967 
   -5963    -5991    -6027    -6047    -6051    -6057    -6069    -6062 
   -6021    -5958    -5887    -5827    -5792    -5777    -5776    -5778 
   -5763    -5744    -5750    -5802    -5897    -5984    -6012    -6006 
   -6021    -6088    -6189    -6259    -6255    -6221    -6216    -6247 
   -6278    -6292    -6317    -6384    -6477    -6555    -6598    -6598 
   -6556    -6508    -6486    -6486    -6495    -6498    -6502    -6551 
   -6637    -6652    -6528    -6352    -6246    -6217    -6182    -6078 
   -5945    -5885    -5947    -6068    -6182    -6303    -6461    -6627 
   -6742    -6756    -6663    -6517    -6357    -6181    -6032    -5973 
   -5967    -5937    -5868    -5779    -5697    -5676    -5713    -5720 
   -5648    -5555    -5500    -5466    -5404    -5291    -5186    -5174 
   -5252    -5367    -5508    -5687    -5909    -6166    -6409    -6572 
   -6647    -6662    -6640    -6609    -6566    -6481    -6353    -6211 
   -6086    -6011    -6008    -6075    -6200    -6381    -6604    -6814 
   -6933    -6916    -6796    -6645    -6525    -6440    -6344    -6197 
   -6015    -5857    -5762    -5737    -5766    -5816    -5854    -5889 
   -5942    -5991    -5999    -5942    -5813    -5636    -5475    -5404 
   -5464    -5638    -5864    -6095    -6315    -6507    -6660    -6759 
   -6772    -6704    -6612    -6527    -6449    -6404    -6420    -6448 
   -6428    -6390    -6403    -6459    -6466    -6328    -6046    -5733 
   -5501    -5341    -5177    -4986    -4831    -4786    -4878    -5078 
   -5301    -5490    -5669    -5872    -6077    -6264    -6440    -6605 
   -6734    -6812    -6837    -6818    -6783    -6754    -6712    -6638 
   -6558    -6513    -6489    -6422    -6297    -6171    -6088    -6040 
   -5995    -5931    -5847    -5752    -5677    -5703    -5869    -6085 
   -6225    -6264    -6260    -6249    -6189    -6023    -5773    -5535 
   -5408    -5440    -5606    -5848    -6149    -6514    -6887    -7172 
   -7331    -7380    -7322    -7173    -6977    -6771    -6599    -6505 
   -6478    -6472    -6450    -6386    -6289    -6166    -5995    -5790 
   -5616    -5493    -5394    -5324    -5295    -5297    -5318    -5368 
   -5475    -5646    -5846    -6041    -6230    -6402    -6513    -6507 
   -6378    -6215    -6134    -6139    -6133    -6069    -5998    -5964 
   -5959    -5933    -5863    -5815    -5873    -6058    -6307    -6504 
   -6579    -6589    -6594    -6545    -6377    -6122    -5874    -5755 
   -5819    -5975    -6113    -6209    -6269    -6283    -6252    -6165 
   -6008    -5799    -5588    -5439    -5413    -5510    -5651    -5759 
   -5846    -5965    -6103    -6195    -6219    -6233    -6289    -6386 
   -6502    -6618    -6697    -6728    -6740    -6752    -6764    -6790 
   -6845    -6894    -6885    -6824    -6748    -6650    -6498    -6313 
   -6162    -6072    -6010    -5924    -5777    -5576    -5409    -5374 
   -5461    -5578    -5656    -5699    -5769    -5920    -6135    -6331 
   -6415    -6372    -6294    -6294    -6392    -6499    -6528    -6513 
   -6565    -6714    -6862    -6888    -6772    -6602    -6473    -6386 
   -6275    -6150    -6088    -6105    -6124    -6092    -6020    -5901 
   -5715    -5494    -5292    -5142    -5057    -5043    -5086    -5170 
   -5298    -5463    -5644    -5818    -5969    -6077    -6137    -6188 
   -6286    -6436    -6615    -6793    -6923    -6982    -6990    -6950 
   -6845    -6688    -6511    -6318    -6114    -5910    -5710    -5535 
   -5397    -5273    -5172    -5129    -5141    -5178    -5204    -5203 
   -5234    -5378    -5628    -5912    -6175    -6398    -6598    -6783 
   -6914    -6937    -6866    -6781    -6734    -6729    -6736    -6707 
   -6630    -6530    -6428    -6321    -6187    -6003    -5777    -5557 
   -5397    -5320    -5325    -5381    -5461    -5576    -5758    -6003 
   -6235    -6369    -6408    -6426    -6472    -6533    -6561    -6527 
   -6461    -6411    -6391    -6380    -6349    -6270    -6139    -6014 
   -5983    -6076    -6219    -6302    -6290    -6251    -6270    -6338 
   -6359    -6252    -6054    -5914    -5935    -6031    -6040    -5940 
   -5853    -5911    -6140    -6419    -6624    -6756    -6867    -6959 
   -6983    -6887    -6673    -6414    -6194    -6060    -6004    -5972 
   -5922    -5877    -5894    -5997    -6147    -6254    -6239    -6125 
   -6009    -5944    -5897    -5836    -5771    -5727    -5692    -5648 
   -5608    -5605    -5662    -5760    -5857    -5910    -5890    -5808 
   -5680    -5534    -5451    -5494    -5643    -5854    -6113    -6395 
   -6645    -6793    -6779    -6626    -6460    -6356    -6233    -5997 
   -5678    -5384    -5194    -5113    -5091    -5077    -5067    -5102 
   -5240    -5478    -5729    -5936    -6152    -6433    -6763    -7070 
   -7272    -7338    -7305    -7226    -7152    -7113    -7108    -7130 
   -7164    -7193    -7219    -7235    -7217    -7163    -7103    -7073 
   -7081    -7120    -7164    -7184    -7167    -7104    -6989    -6839 
   -6684    -6536    -6390    -6258    -6155    -6048    -5896    -5735 
   -5650    -5694    -5835    -5964    -5992    -5955    -5935    -5939 
   -5903    -5788    -5641    -5553    -5569    -5685    -5874    -6093 
   -6324    -6577    -6826    -6987    -6983    -6797    -6463    -6062 
   -5678    -5363    -5152    -5040    -4965    -4887    -4840    -4873 
   -4975    -5074    -5095    -5034    -4984    -5048    -5206    -5359 
   -5470    -5588    -5782    -6064    -6350    -6525    -6558    -6534 
   -6570    -6698    -6830    -6842    -6726    -6609    -6592    -6600 
   -6476    -6208    -5957    -5883    -5998    -6169    -6254    -6237 
   -6194    -6156    -6070    -5876    -5573    -5224    -4923    -4751 
   -4743    -4888    -5149    -5463    -5762    -6033    -6266    -6381 
   -6311    -6105    -5874    -5708    -5640    -5619    -5592    -5620 
   -5790    -6078    -6391    -6658    -6866    -7052    -7201    -7244 
   -7201    -7171    -7174    -7150    -7064    -6935    -6818    -6750 
   -6702    -6619    -6498    -6394    -6324    -6231    -6069    -5870 
   -5691    -5563    -5458    -5316    -5131    -4961    -4861    -4866 
   -5011    -5304    -5693    -6085    -6390    -6552    -6587    -6574 
   -6551    -6485    -6377    -6296    -6288    -6325    -6357    -6355 
   -6314    -6203    -6002    -5759    -5585    -5578    -5777    -6115 
   -6464    -6756    -6984    -7114    -7079    -6875    -6593    -6338 
   -6140    -5988    -5848    -5696    -5544    -5421    -5376    -5456 
   -5646    -5893    -6147    -6354    -6470    -6509    -6490    -6404 
   -6257    -6084    -5914    -5778    -5711    -5720    -5789    -5877 
   -5919    -5907    -5910    -5984    -6125    -6295    -6440    -6568 
   -6718    -6852    -6883    -6734    -6372    -5896    -5518    -5369 
   -5409    -5538    -5665    -5711    -5676    -5627    -5572    -5482 
   -5368    -5263    -5237    -5404    -5791    -6271    -6628    -6699 
   -6516    -6270    -6106    -5998    -5857    -5723    -5766    -6072 
   -6523    -6907    -7127    -7276    -7486    -7738    -7880    -7805 
   -7577    -7351    -7220    -7164    -7117    -7081    -7122    -7236 
   -7315    -7248    -7018    -6692    -6370    -6139    -5996    -5861 
   -5690    -5524    -5421    -5424    -5550    -5746    -5900    -5935 
   -5839    -5649    -5417    -5188    -5046    -5105    -5416    -5936 
   -6527    -6983    -7168    -7108    -6922    -6715    -6549    -6423 
   -6272    -6063    -5836    -5649    -5522    -5397    -5195    -4968 
   -4852    -4909    -5086    -5247    -5263    -5144    -5021    -5007 
   -5105    -5234    -5321    -5397    -5595    -5996    -6518    -6992 
   -7279    -7341    -7261    -7151    -7072    -7051    -7092    -7168 
   -7246    -7290    -7254    -7120    -6905    -6647    -6426    -6352 
   -6461    -6670    -6854    -6907    -6765    -6444    -6018    -5576 
   -5210    -4996    -4951    -5035    -5201    -5417    -5621    -5705 
   -5608    -5404    -5247    -5259    -5472    -5817    -6198    -6547 
   -6806    -6918    -6891    -6811    -6806    -6966    -7235    -7466 
   -7572    -7551    -7403    -7133    -6763    -6341    -5955    -5690 
   -5538    -5434    -5368    -5383    -5497    -5667    -5797    -5817 
   -5752    -5662    -5585    -5564    -5622    -5723    -5817    -5881 
   -5911    -5918    -5922    -5926    -5924    -5953    -6050    -6182 
   -6277    -6286    -6214    -6102    -5978    -5845    -5702    -5574 
   -5514    -5562    -5675    -5736    -5637    -5395    -5178    -5168 
   -5380    -5651    -5843    -5953    -6064    -6235    -6395    -6389 
   -6192    -5978    -5940    -6114    -6380    -6605    -6764    -6898 
   -7023    -7109    -7123    -7056    -6904    -6682    -6447    -6247 
   -6069    -5874    -5645    -5428    -5318    -5354    -5465    -5574 
   -5665    -5771    -5903    -6011    -6044    -6041    -6080    -6161 
   -6228    -6244    -6200    -6110    -6038    -6049    -6134    -6271 
   -6442    -6585    -6658    -6681    -6641    -6483    -6253    -6095 
   -6101    -6217    -6294    -6226    -6064    -5934    -5906    -5956 
   -6012    -6051    -6123    -6245    -6345    -6342    -6210    -5989 
   -5766    -5649    -5707    -5921    -6224    -6523    -6745    -6925 
   -7144    -7371    -7495    -7492    -7425    -7370    -7354    -7300 
   -7116    -6807    -6451    -6114    -5826    -5582    -5360    -5157 
   -4992    -4891    -4881    -4939    -4976    -4942    -4885    -4884 
   -4983    -5207    -5562    -5996    -6443    -6822    -7032    -7046 
   -6950    -6804    -6598    -6333    -6064    -5868    -5812    -5875 
   -5972    -6063    -6149    -6229    -6308    -6390    -6429    -6375 
   -6242    -6099    -6034    -6120    -6324    -6497    -6525    -6440 
   -6334    -6243    -6163    -6080    -5960    -5779    -5563    -5356 
   -5170    -5001    -4867    -4798    -4838    -5031    -5353    -5705 
   -6005    -6248    -6465    -6657    -6759    -6698    -6493    -6243 
   -6024    -5849    -5721    -5687    -5797    -6035    -6326    -6587 
   -6746    -6738    -6542    -6210    -5839    -5505    -5256    -5115 
   -5094    -5220    -5480    -5800    -6096    -6326    -6503    -6646 
   -6720    -6697    -6603    -6477    -6356    -6301    -6357    -6509 
   -6727    -6966    -7143    -7216    -7187    -7053    -6845    -6637 
   -6489    -6430    -6411    -6328    -6146    -5910    -5681    -5518 
   -5454    -5460    -5513    -5630    -5786    -5936    -6079    -6209 
   -6301    -6350    -6386    -6435    -6477    -6483    -6437    -6338 
   -6230    -6167    -6141    -6114    -6087    -6073    -6063    -6073 
   -6120    -6152    -6076    -5835    -5463    -5099    -4883    -4849 
   -4910    -4963    -5040    -5204    -5405    -5545    -5565    -5469 
   -5358    -5369    -5549    -5852    -6208    -6537    -6767    -6894 
   -6962    -6989    -6987    -7002    -7077    -7209    -7364    -7484 
   -7514    -7472    -7413    -7371    -7331    -7235    -7045    -6787 
   -6521    -6273    -6036    -5810    -5616    -5459    -5351    -5309 
   -5311    -5346    -5454    -5633    -5796    -5871    -5885    -5929 
   -6077    -6341    -6672    -6999    -7272    -7474    -7576    -7513 
   -7271    -6959    -6726    -6655    -6718    -6807    -6814    -6724 
   -6594    -6475    -6357    -6201    -6001    -5783    -5597    -5487 
   -5452    -5465    -5501    -5522    -5496    -5445    -5420    -5450 
   -5524    -5636    -5777    -5914    -6018    -6070    -6043    -5959 
   -5903    -5932    -6003    -6026    -5970    -5891    -5853    -5813 
   -5684    -5465    -5269    -5201    -5234    -5271    -5276    -5312 
   -5475    -5769    -6064    -6255    -6381    -6527    -6698    -6815 
   -6776    -6570    -6282    -5989    -5734    -5567    -5545    -5685 
   -5933    -6198    -6405    -6532    -6599    -6642    -6666    -6655 
   -6630    -6638    -6701    -6814    -6940    -7013    -6975    -6836 
   -6673    -6559    -6528    -6566    -6632    -6691    -6718    -6710 
   -6682    -6597    -6404    -6116    -5803    -5558    -5439    -5400 
   -5348    -5266    -5192    -5152    -5143    -5150    -5164    -5207 
   -5294    -5387    -5429    -5404    -5343    -5284    -5253    -5298 
   -5474    -5797    -6210    -6580    -6744    -6640    -6378    -6134 
   -6003    -5957    -5915    -5849    -5790    -5740    -5652    -5487 
   -5267    -5101    -5113    -5313    -5572    -5764    -5877    -5988 
   -6158    -6368    -6551    -6638    -6608    -6522    -6456    -6424 
   -6391    -6350    -6339    -6424    -6652    -6969    -7250    -7409 
   -7422    -7295    -7075    -6838    -6646    -6540    -6529    -6566 
   -6634    -6740    -6830    -6814    -6668    -6437    -6213    -6078 
   -6033    -6025    -6015    -5980    -5905    -5809    -5722    -5639 
   -5533    -5402    -5286    -5261    -5387    -5643    -5907    -6065 
