Origin Time       2024/04/02 04:24:00
Lat.              40.133
Long.             141.712
Depth. (km)       71
Mag.              6.0
Station Code      HYMH03
Station Lat.      42.1344
Station Long.     140.0040
Station Height(m) -30
Record Time       2024/04/02 04:25:15
Sampling Freq(Hz) 100Hz
Duration Time(s)  120
Dir.              1
Scale Factor      2942(gal)/8224139
Max. Acc. (gal)   0.437
Last Correction   2024/04/02 04:25:15
Memo.             
[...]
   95418    95418    95422    95422    95420    95423    95420    95419 
   95423    95422    95416    95419    95422    95419    95419    95419 
   95416    95420    95423    95418    95416    95420    95420    95420 
   95419    95420    95419    95419    95419    95419    95418    95416 
   95416    95419    95420    95416    95415    95416    95413    95415 
   95419    95422    95418    95415    95418    95420    95419    95415 
   95416    95418    95419    95419    95416    95419    95424    95422 
   95415    95416    95416    95419    95420    95413    95415    95422 
   95420    95419    95420    95418    95419    95420    95416    95418 
   95420    95418    95418    95420    95420    95420    95418    95413 
   95419    95422    95418    95415    95419    95419    95415    95418 
   95422    95420    95419    95418    95422    95423    95416    95415 
   95420    95419    95415    95416    95416    95413    95416    95420 
   95418    95415    95420    95420    95418    95416    95418    95420 
   95416    95413    95420    95420    95416    95420    95420    95416 
   95418    95419    95418    95419    95415    95416    95422    95419 
   95419    95422    95416    95415    95419    95418    95415    95418 
   95419    95418    95419    95419    95418    95419    95416    95415 
   95416    95418    95419    95420    95418    95416    95419    95418 
   95418    95420    95420    95419    95419    95422    95423    95419 
   95416    95419    95420    95418    95419    95422    95419    95416 
   95416    95418    95418    95419    95422    95420    95418    95416 
   95419    95420    95419    95418    95418    95416    95413    95415 
   95418    95418    95416    95415    95416    95419    95418    95416 
   95419    95420    95419    95416    95416    95419    95416    95413 
   95416    95418    95415    95418    95419    95416    95415    95416 
   95418    95419    95416    95419    95420    95419    95419    95418 
   95418    95420    95418    95416    95420    95416    95413    95419 
   95420    95419    95419    95416    95415    95419    95418    95416 
   95420    95418    95413    95415    95420    95420    95415    95412 
   95416    95422    95419    95413    95416    95419    95416    95415 
   95418    95420    95420    95418    95418    95418    95418    95419 
   95420    95416    95412    95415    95419    95420    95419    95415 
   95415    95419    95418    95419    95420    95416    95418    95419 
   95416    95419    95422    95420    95418    95413    95418    95420 
   95419    95418    95419    95419    95419    95419    95416    95413 
   95418    95420    95416    95415    95419    95419    95416    95419 
   95418    95418    95420    95416    95412    95422    95426    95419 
   95418    95419    95418    95420    95420    95415    95415    95422 
   95423    95419    95418    95419    95420    95420    95420    95419 
   95416    95419    95419    95415    95416    95419    95419    95416 
   95415    95416    95419    95419    95419    95419    95418    95418 
   95418    95416    95418    95420    95419    95418    95420    95419 
   95415    95415    95416    95418    95416    95416    95419    95419 
   95416    95419    95420    95416    95416    95420    95420    95418 
   95418    95419    95419    95416    95415    95418    95418    95419 
   95422    95419    95418    95422    95419    95416    95422    95422 
   95416    95418    95420    95418    95416    95419    95418    95415 
   95415    95416    95420    95423    95420    95416    95416    95420 
   95422    95418    95418    95420    95422    95422    95419    95415 
   95416    95420    95420    95416    95418    95419    95418    95419 
   95418    95418    95422    95423    95420    95418    95418    95418 
   95419    95419    95415    95416    95422    95420    95416    95418 
   95422    95418    95416    95416    95416    95419    95419    95416 
   95416    95418    95415    95418    95422    95420    95416    95418 
   95419    95418    95416    95418    95419    95416    95416    95419 
   95419    95416    95415    95418    95419    95416    95416    95419 
   95418    95416    95419    95419    95418    95420    95420    95418 
   95416    95416    95416    95418    95420    95418    95412    95416 
   95420    95419    95418    95416    95416    95418    95415    95415 
   95418    95418    95416    95416    95416    95418    95420    95419 
   95412    95415    95420    95416    95415    95423    95422    95415 
   95413    95416    95420    95419    95413    95416    95420    95418 
   95416    95418    95416    95418    95420    95418    95418    95419 
   95416    95418    95420    95418    95413    95415    95420    95422 
   95416    95418    95419    95418    95419    95420    95416    95418 
   95420    95416    95419    95423    95419    95415    95419    95423 
   95422    95418    95419    95419    95416    95419    95422    95419 
   95418    95422    95423    95419    95419    95422    95419    95418 
   95419    95419    95415    95413    95416    95423    95423    95420 
   95420    95420    95419    95420    95422    95418    95415    95416 
   95416    95416    95418    95419    95418    95416    95418    95419 
   95420    95419    95419    95422    95419    95416    95416    95416 
   95418    95422    95419    95415    95415    95419    95420    95415 
   95413    95419    95419    95415    95418    95420    95419    95418 
   95418    95418    95419    95418    95415    95416    95418    95419 
   95420    95415    95413    95416    95416    95418    95418    95416 
   95419    95420    95416    95416    95418    95418    95419    95419 
   95418    95415    95415    95419    95419    95419    95419    95418 
   95413    95419    95423    95418    95418    95419    95416    95416 
   95416    95413    95418    95420    95415    95416    95419    95418 
   95418    95418    95418    95419    95418    95420    95420    95416 
   95413    95416    95420    95420    95418    95418    95419    95416 
   95418    95419    95416    95413    95413    95418    95419    95419 
   95420    95422    95419    95416    95418    95418    95418    95419 
   95419    95420    95420    95419    95418    95418    95418    95419 
   95416    95416    95419    95420    95422    95419    95416    95418 
   95416    95415    95415    95415    95418    95420    95418    95416 
   95418    95419    95420    95422    95420    95419    95418    95419 
   95420    95419    95419    95418    95416    95420    95422    95419 
   95419    95418    95416    95418    95419    95419    95418    95418 
   95420    95420    95422    95423    95419    95418    95420    95419 
   95416    95419    95419    95416    95418    95419    95416    95418 
   95420    95416    95415    95419    95418    95418    95420    95419 
   95416    95419    95416    95415    95418    95419    95418    95419 
   95420    95420    95420    95420    95419    95419    95420    95420 
   95418    95418    95422    95422    95422    95419    95419    95422 
   95419    95419    95420    95416    95419    95422    95420    95419 
   95420    95420    95416    95416    95419    95418    95416    95418 
   95419    95420    95418    95418    95418    95420    95422    95418 
   95416    95422    95420    95418    95418    95418    95420    95422 
   95415    95418    95422    95419    95416    95416    95416    95418 
   95419    95419    95415    95416    95420    95418    95416    95420 
   95420    95413    95415    95420    95419    95416    95420    95420 
   95416    95418    95419    95416    95416    95416    95413    95415 
   95418    95416    95419    95422    95419    95419    95419    95418 
   95419    95420    95416    95415    95416    95418    95418    95419 
   95416    95418    95420    95420    95419    95418    95412    95416 
   95423    95420    95413    95415    95418    95416    95416    95419 
   95419    95415    95416    95419    95416    95415    95418    95418 
   95419    95418    95415    95419    95423    95420    95418    95419 
   95419    95419    95418    95415    95415    95415    95418    95422 
   95418    95415    95416    95416    95420    95420    95415    95415 
   95418    95422    95422    95415    95416    95423    95422    95418 
   95418    95420    95418    95412    95416    95420    95418    95418 
   95422    95420    95419    95416    95418    95422    95419    95413 
   95416    95419    95418    95419    95418    95416    95416    95415 
   95416    95419    95418    95416    95419    95419    95416    95418 
   95419    95416    95416    95416    95415    95419    95420    95413 
   95416    95420    95418    95416    95416    95418    95416    95413 
   95416    95416    95415    95419    95418    95415    95418    95419 
   95415    95419    95422    95418    95416    95419    95419    95415 
   95416    95422    95419    95413    95418    95420    95416    95416 
   95419    95418    95416    95420    95423    95419    95418    95422 
   95420    95415    95416    95418    95418    95416    95415    95418 
   95420    95419    95420    95420    95418    95419    95422    95422 
   95420    95418    95415    95416    95418    95419    95419    95420 
   95420    95420    95420    95418    95415    95418    95418    95416 
   95420    95422    95418    95419    95420    95419    95416    95415 
   95416    95416    95416    95419    95422    95419    95416    95422 
   95420    95413    95418    95420    95418    95418    95419    95416 
   95418    95419    95419    95420    95420    95419    95423    95420 
   95418    95420    95420    95415    95415    95418    95420    95419 
   95418    95418    95418    95418    95419    95416    95415    95418 
   95418    95418    95419    95418    95418    95422    95420    95418 
   95419    95419    95418    95419    95419    95418    95418    95418 
   95419    95419    95416    95419    95422    95418    95419    95419 
   95416    95420    95420    95415    95419    95420    95418    95419 
   95420    95419    95419    95423    95420    95416    95420    95420 
   95416    95415    95419    95422    95422    95420    95419    95419 
   95420    95416    95416    95419    95422    95418    95413    95418 
   95422    95416    95415    95422    95423    95419    95420    95420 
   95413    95418    95423    95419    95419    95420    95416    95420 
   95418    95411    95420    95423    95413    95418    95419    95413 
   95416    95418    95415    95418    95420    95416    95416    95419 
   95418    95419    95419    95418    95413    95413    95419    95420 
   95416    95416    95422    95419    95418    95418    95418    95418 
   95419    95419    95419    95416    95412    95419    95419    95412 
   95416    95419    95415    95416    95419    95418    95415    95416 
   95416    95416    95418    95419    95419    95419    95418    95418 
   95419    95419    95415    95415    95420    95423    95416    95412 
   95419    95420    95416    95419    95422    95415    95413    95419 
   95420    95416    95418    95419    95416    95415    95415    95413 
   95416    95418    95416    95419    95419    95416    95419    95418 
   95416    95422    95420    95411    95413    95422    95418    95412 
   95416    95420    95415    95412    95418    95418    95415    95415 
   95416    95411    95407    95409    95408    95407    95409    95407 
   95401    95400    95400    95395    95395    95396    95393    95392 
   95391    95385    95385    95384    95382    95385    95388    95386 
   95389    95395    95397    95400    95401    95396    95389    95384 
   95377    95370    95362    95353    95343    95341    95338    95332 
   95328    95323    95314    95310    95308    95299    95288    95277 
   95272    95272    95274    95284    95304    95322    95332    95347 
   95359    95366    95369    95372    95373    95376    95381    95388 
   95400    95420    95442    95470    95509    95535    95539    95540 
   95544    95550    95559    95570    95573    95567    95566    95569 
   95575    95577    95558    95513    95440    95342    95234    95134 
   95045    94971    94919    94892    94882    94894    94942    95019 
   95114    95212    95301    95377    95432    95462    95467    95455 
   95434    95408    95370    95334    95315    95308    95316    95368 
   95465    95573    95669    95750    95833    95914    95966    95982 
   95983    95987    95987    95966    95948    95968    96032    96132 
   96237    96314    96356    96363    96342    96304    96246    96159 
   96052    95920    95750    95577    95428    95284    95154    95075 
   95049    95046    95060    95099    95142    95150    95116    95057 
   94986    94918    94861    94790    94705    94657    94672    94717 
   94768    94842    94950    95068    95206    95381    95557    95697 
   95823    95931    95953    95890    95829    95825    95851    95871 
   95887    95924    95979    96028    96063    96107    96167    96223 
   96256    96242    96163    96024    95874    95739    95588    95436 
   95324    95212    95088    95015    94996    94963    94898    94844 
   94788    94707    94649    94652    94652    94620    94609    94636 
   94645    94628    94626    94651    94698    94775    94855    94879 
   94867    94892    94945    94957    94930    94900    94867    94838 
   94826    94783    94706    94713    94849    95004    95107    95238 
   95454    95642    95725    95802    95939    96072    96163    96256 
   96372    96488    96591    96638    96576    96461    96402    96367 
   96249    96074    95976    95985    95983    95941    95933    95939 
   95885    95787    95692    95593    95485    95396    95326    95229 
   95096    94983    94922    94903    94919    94971    95017    95015 
   95013    95067    95141    95187    95204    95203    95196    95195 
   95214    95241    95239    95214    95181    95143    95152    95243 
   95342    95386    95436    95538    95601    95550    95466    95453 
   95480    95473    95446    95418    95349    95257    95202    95184 
   95189    95210    95215    95189    95175    95196    95195    95131 
   95068    95061    95087    95138    95224    95316    95400    95505 
   95597    95615    95623    95713    95837    95932    96034    96129 
   96110    95980    95877    95852    95828    95752    95658    95569 
   95489    95459    95484    95515    95516    95501    95505    95530 
   95534    95494    95420    95328    95226    95102    94968    94878 
   94860    94898    94965    95061    95176    95274    95347    95428 
   95520    95588    95593    95547    95478    95422    95423    95478 
   95535    95577    95644    95742    95798    95767    95692    95620 
   95559    95489    95399    95312    95258    95241    95242    95222 
   95143    95052    94987    94944    94937    94988    95076    95157 
   95216    95251    95241    95184    95108    95038    95008    95054 
   95133    95169    95185    95262    95366    95409    95396    95364 
   95341    95384    95493    95567    95569    95585    95648    95674 
   95624    95544    95463    95403    95399    95434    95434    95419 
   95462    95548    95621    95698    95771    95759    95675    95625 
   95624    95590    95531    95521    95559    95577    95574    95581 
   95582    95588    95623    95625    95546    95470    95476    95504 
   95505    95509    95521    95501    95445    95378    95312    95287 
   95326    95345    95278    95197    95176    95175    95173    95212 
   95273    95278    95258    95297    95389    95477    95526    95512 
   95420    95291    95170    95076    95017    94994    94965    94923 
   94930    94987    95033    95054    95065    95064    95092    95197 
   95330    95407    95470    95596    95708    95735    95770    95917 
   96110    96242    96322    96408    96477    96484    96437    96358 
   96272    96205    96164    96126    96059    95963    95875    95825 
   95798    95771    95751    95739    95708    95629    95500    95328 
   95129    94944    94802    94674    94570    94512    94481    94459 
   94460    94459    94439    94444    94495    94524    94493    94486 
   94559    94668    94765    94879    95021    95131    95211    95322 
   95462    95598    95728    95866    96010    96126    96183    96195 
   96190    96191    96222    96260    96261    96248    96264    96302 
   96310    96267    96176    96052    95922    95843    95827    95814 
   95789    95755    95675    95544    95422    95357    95350    95339 
   95281    95230    95246    95291    95312    95337    95378    95401 
   95399    95413    95445    95428    95337    95229    95142    95035 
   94917    94836    94801    94787    94783    94786    94791    94791 
   94809    94865    94919    94954    95014    95076    95065    95023 
   95061    95161    95219    95210    95215    95258    95288    95301 
   95339    95373    95355    95327    95346    95392    95436    95492 
   95544    95557    95520    95455    95380    95314    95285    95310 
   95355    95393    95440    95503    95548    95582    95638    95704 
   95748    95764    95751    95693    95612    95563    95563    95569 
   95563    95548    95505    95430    95365    95339    95338    95345 
   95361    95374    95366    95384    95462    95535    95528    95489 
   95482    95493    95519    95621    95773    95852    95862    95891 
   95914    95883    95872    95912    95928    95883    95804    95689 
   95548    95419    95312    95210    95121    95057    94996    94945 
   94946    94956    94910    94863    94852    94805    94718    94683 
   94720    94768    94803    94840    94871    94896    94956    95042 
   95112    95200    95334    95469    95573    95669    95760    95805 
   95796    95802    95845    95867    95850    95829    95825    95854 
   95905    95935    95941    95958    95964    95924    95852    95777 
   95698    95636    95602    95561    95488    95423    95373    95284 
   95157    95067    95026    94971    94884    94837    94852    94886 
   94922    94979    95033    95056    95095    95196    95310    95377 
   95430    95493    95505    95451    95427    95469    95515    95540 
   95585    95646    95671    95671    95677    95659    95600    95547 
   95517    95450    95337    95273    95299    95339    95351    95357 
   95389    95453    95530    95596    95640    95671    95678    95632 
   95567    95530    95507    95469    95422    95384    95354    95338 
   95357    95381    95372    95354    95361    95378    95395    95399 
   95373    95338    95343    95405    95482    95536    95585    95646 
   95674    95643    95597    95562    95531    95500    95455    95401 
   95389    95420    95430    95420    95470    95570    95616    95570 
   95517    95504    95467    95397    95369    95408    95465    95513 
   95557    95574    95573    95611    95675    95666    95562    95461 
   95426    95409    95359    95276    95179    95104    95072    95062 
   95072    95131    95203    95211    95188    95185    95179    95146 
   95141    95196    95276    95361    95453    95528    95574    95623 
   95685    95729    95751    95766    95747    95693    95670    95685 
   95666    95616    95597    95598    95586    95571    95543    95458 
   95366    95331    95303    95226    95138    95073    95027    95031 
