Origin Time       2024/04/02 04:24:00
Lat.              40.133
Long.             141.712
Depth. (km)       71
Mag.              6.0
Station Code      IBRH13
Station Lat.      36.7955
Station Long.     140.5750
Station Height(m) 405
Record Time       2024/04/02 04:25:30
Sampling Freq(Hz) 100Hz
Duration Time(s)  120
Dir.              3
Scale Factor      3923(gal)/8224838
Max. Acc. (gal)   0.472
Last Correction   2024/04/02 04:25:30
Memo.             
[...]
  -43009   -43071   -43114   -43085   -43048   -43000   -42965   -42944 
  -42925   -42912   -42971   -43047   -43001   -42958   -43065   -43164 
  -43121   -43089   -43200   -43321   -43347   -43312   -43258   -43225 
  -43260   -43333   -43278   -43127   -43105   -43190   -43217   -43147 
  -43124   -43232   -43287   -43255   -43293   -43383   -43464   -43498 
  -43438   -43367   -43343   -43335   -43294   -43189   -43127   -43104 
  -43021   -43042   -43166   -43154   -43093   -43183   -43316   -43367 
  -43387   -43340   -43291   -43368   -43406   -43340   -43352   -43380 
  -43316   -43259   -43256   -43241   -43217   -43245   -43260   -43240 
  -43303   -43401   -43497   -43588   -43563   -43467   -43438   -43509 
  -43533   -43403   -43324   -43359   -43324   -43260   -43271   -43299 
  -43335   -43406   -43374   -43236   -43255   -43370   -43362   -43326 
  -43359   -43432   -43482   -43437   -43364   -43314   -43264   -43218 
  -43121   -43031   -43093   -43193   -43179   -43155   -43195   -43233 
  -43282   -43351   -43351   -43347   -43407   -43436   -43436   -43465 
  -43479   -43459   -43391   -43301   -43244   -43170   -43074   -43038 
  -43029   -43001   -42990   -42973   -42925   -42955   -43060   -43092 
  -43070   -43121   -43198   -43214   -43217   -43213   -43204   -43251 
  -43293   -43241   -43209   -43282   -43336   -43264   -43156   -43179 
  -43272   -43298   -43317   -43308   -43218   -43239   -43390   -43467 
  -43470   -43432   -43313   -43245   -43274   -43245   -43171   -43204 
  -43345   -43438   -43409   -43421   -43487   -43410   -43312   -43262 
  -43151   -43105   -43098   -43039   -43070   -43140   -43089   -43025 
  -43063   -43102   -43124   -43160   -43085   -42963   -42992   -43066 
  -43060   -43056   -43079   -43082   -43101   -43198   -43308   -43314 
  -43259   -43264   -43313   -43322   -43259   -43200   -43236   -43286 
  -43290   -43244   -43175   -43182   -43202   -43210   -43259   -43197 
  -43116   -43221   -43329   -43312   -43283   -43255   -43258   -43329 
  -43340   -43270   -43320   -43422   -43380   -43353   -43437   -43425 
  -43363   -43394   -43368   -43290   -43237   -43152   -43155   -43237 
  -43206   -43141   -43166   -43212   -43183   -43124   -43173   -43279 
  -43298   -43310   -43345   -43285   -43236   -43305   -43398   -43452 
  -43455   -43486   -43607   -43711   -43623   -43432   -43375   -43329 
  -43225   -43249   -43305   -43306   -43312   -43306   -43333   -43379 
  -43349   -43286   -43233   -43139   -43017   -42982   -43011   -42989 
  -42969   -43032   -43092   -43117   -43168   -43144   -43011   -42986 
  -43060   -42986   -42901   -42998   -43086   -43092   -43078   -43006 
  -43005   -43116   -43136   -43086   -43117   -43190   -43291   -43362 
  -43317   -43367   -43495   -43395   -43335   -43505   -43480   -43321 
  -43366   -43428   -43382   -43372   -43384   -43343   -43301   -43314 
  -43275   -43174   -43171   -43159   -43048   -43075   -43202   -43195 
  -43166   -43279   -43353   -43289   -43255   -43221   -43132   -43109 
  -43173   -43201   -43136   -43146   -43267   -43270   -43235   -43329 
  -43387   -43374   -43359   -43297   -43264   -43229   -43075   -42971 
  -43055   -43151   -43146   -43174   -43289   -43359   -43335   -43298 
  -43322   -43344   -43308   -43287   -43290   -43299   -43310   -43267 
  -43245   -43347   -43440   -43422   -43393   -43368   -43326   -43341 
  -43313   -43201   -43233   -43371   -43402   -43335   -43281   -43332 
  -43448   -43476   -43379   -43303   -43324   -43317   -43241   -43182 
  -43146   -43127   -43139   -43117   -43066   -43102   -43210   -43274 
  -43239   -43193   -43301   -43389   -43256   -43187   -43258   -43236 
  -43221   -43290   -43293   -43264   -43275   -43244   -43189   -43151 
  -43146   -43217   -43279   -43259   -43270   -43318   -43294   -43271 
  -43313   -43306   -43263   -43264   -43260   -43244   -43276   -43316 
  -43308   -43343   -43422   -43409   -43355   -43360   -43367   -43333 
  -43290   -43274   -43270   -43228   -43214   -43308   -43341   -43220 
  -43143   -43187   -43252   -43262   -43228   -43158   -43038   -43044 
  -43159   -43123   -43089   -43156   -43162   -43171   -43201   -43170 
  -43144   -43143   -43104   -43054   -43101   -43200   -43225   -43201 
  -43167   -43113   -43039   -43008   -43040   -43028   -43020   -43183 
  -43366   -43309   -43231   -43355   -43416   -43318   -43283   -43356 
  -43418   -43430   -43475   -43526   -43492   -43449   -43430   -43383 
  -43318   -43268   -43293   -43317   -43218   -43154   -43198   -43212 
  -43240   -43295   -43252   -43183   -43232   -43353   -43359   -43228 
  -43156   -43158   -43124   -43121   -43148   -43090   -43051   -43174 
  -43290   -43326   -43376   -43340   -43259   -43239   -43167   -43066 
  -43021   -43015   -43073   -43156   -43204   -43255   -43293   -43290 
  -43310   -43321   -43371   -43517   -43507   -43379   -43414   -43506 
  -43540   -43445   -43213   -43181   -43326   -43347   -43324   -43283 
  -43217   -43264   -43302   -43240   -43217   -43247   -43236   -43197 
  -43194   -43224   -43243   -43266   -43302   -43328   -43341   -43328 
  -43313   -43357   -43362   -43225   -43152   -43237   -43263   -43194 
  -43175   -43193   -43212   -43231   -43159   -43020   -43044   -43156 
  -43114   -43109   -43232   -43259   -43232   -43287   -43320   -43276 
  -43255   -43299   -43329   -43276   -43285   -43360   -43262   -43197 
  -43345   -43368   -43297   -43333   -43370   -43357   -43305   -43224 
  -43166   -43152   -43204   -43232   -43202   -43227   -43267   -43252 
  -43274   -43285   -43214   -43189   -43178   -43171   -43222   -43187 
  -43140   -43146   -43077   -43119   -43248   -43194   -43159   -43268 
  -43348   -43353   -43295   -43255   -43268   -43247   -43222   -43182 
  -43112   -43160   -43222   -43164   -43143   -43186   -43148   -43141 
  -43252   -43313   -43362   -43416   -43376   -43362   -43367   -43336 
  -43301   -43235   -43260   -43333   -43258   -43206   -43289   -43320 
  -43324   -43382   -43395   -43360   -43332   -43318   -43343   -43339 
  -43241   -43162   -43168   -43187   -43119   -43039   -43082   -43141 
  -43135   -43148   -43177   -43204   -43248   -43255   -43247   -43227 
  -43144   -43125   -43205   -43206   -43173   -43186   -43156   -43132 
  -43181   -43173   -43112   -43144   -43170   -43137   -43220   -43336 
  -43329   -43330   -43360   -43317   -43285   -43298   -43266   -43231 
  -43287   -43387   -43414   -43345   -43301   -43374   -43402   -43322 
  -43353   -43406   -43363   -43421   -43467   -43393   -43375   -43378 
  -43329   -43287   -43274   -43256   -43239   -43248   -43201   -43136 
  -43144   -43167   -43224   -43289   -43254   -43212   -43202   -43187 
  -43224   -43240   -43167   -43087   -43090   -43187   -43248   -43212 
  -43187   -43224   -43297   -43282   -43150   -43131   -43214   -43174 
  -43090   -43124   -43156   -43101   -43132   -43231   -43241   -43231 
  -43263   -43286   -43267   -43266   -43291   -43258   -43258   -43306 
  -43264   -43285   -43360   -43314   -43289   -43271   -43245   -43372 
  -43457   -43409   -43407   -43370   -43308   -43340   -43318   -43287 
  -43339   -43339   -43372   -43460   -43452   -43416   -43394   -43374 
  -43357   -43262   -43143   -43158   -43241   -43202   -43105   -43151 
  -43193   -43102   -43096   -43164   -43174   -43190   -43183   -43154 
  -43186   -43201   -43114   -43008   -43038   -43125   -43087   -43025 
  -43043   -43074   -43101   -43174   -43256   -43290   -43308   -43324 
  -43353   -43378   -43259   -43123   -43155   -43183   -43166   -43236 
  -43297   -43306   -43339   -43355   -43372   -43455   -43465   -43387 
  -43401   -43436   -43380   -43299   -43252   -43294   -43347   -43272 
  -43224   -43297   -43312   -43290   -43301   -43232   -43133   -43155 
  -43248   -43283   -43255   -43249   -43264   -43259   -43237   -43191 
  -43166   -43175   -43166   -43178   -43202   -43224   -43271   -43237 
  -43146   -43148   -43200   -43210   -43221   -43245   -43264   -43289 
  -43297   -43271   -43264   -43297   -43276   -43214   -43264   -43335 
  -43286   -43245   -43254   -43270   -43294   -43201   -43033   -43092 
  -43256   -43198   -43124   -43268   -43403   -43395   -43351   -43348 
  -43384   -43367   -43295   -43299   -43308   -43231   -43259   -43359 
  -43326   -43283   -43287   -43251   -43279   -43348   -43282   -43183 
  -43221   -43293   -43281   -43237   -43209   -43205   -43229   -43218 
  -43201   -43239   -43209   -43159   -43256   -43352   -43339   -43341 
  -43305   -43247   -43329   -43336   -43198   -43183   -43183   -43119 
  -43137   -43116   -43050   -43105   -43133   -43092   -43140   -43159 
  -43124   -43162   -43168   -43114   -43035   -42990   -43058   -43055 
  -42998   -43056   -43092   -43123   -43181   -43135   -43100   -43152 
  -43198   -43227   -43201   -43175   -43245   -43295   -43252   -43214 
  -43217   -43237   -43258   -43330   -43395   -43262   -43186   -43364 
  -43406   -43293   -43316   -43336   -43285   -43309   -43330   -43264 
  -43224   -43249   -43247   -43222   -43185   -43092   -43108   -43244 
  -43274   -43283   -43340   -43357   -43426   -43437   -43329   -43332 
  -43379   -43352   -43322   -43258   -43287   -43447   -43433   -43324 
  -43378   -43449   -43432   -43417   -43440   -43463   -43401   -43330 
  -43363   -43351   -43276   -43279   -43264   -43235   -43302   -43364 
  -43351   -43299   -43278   -43293   -43231   -43162   -43163   -43186 
  -43245   -43258   -43209   -43249   -43335   -43324   -43275   -43309 
  -43302   -43179   -43160   -43233   -43168   -43060   -43113   -43241 
  -43271   -43194   -43129   -43202   -43320   -43316   -43271   -43271 
  -43302   -43347   -43317   -43244   -43214   -43193   -43200   -43240 
  -43224   -43125   -43046   -43029   -42984   -42979   -43114   -43167 
  -43094   -43112   -43144   -43100   -43096   -43087   -42997   -42943 
  -42970   -43000   -43060   -43181   -43241   -43222   -43237   -43326 
  -43382   -43289   -43225   -43326   -43379   -43329   -43289   -43294 
  -43351   -43317   -43247   -43306   -43339   -43324   -43321   -43333 
  -43448   -43517   -43497   -43537   -43518   -43447   -43518   -43603 
  -43569   -43529   -43540   -43602   -43598   -43499   -43488   -43529 
  -43529   -43521   -43455   -43360   -43345   -43420   -43461   -43391 
  -43345   -43407   -43426   -43397   -43452   -43502   -43472   -43461 
  -43494   -43538   -43565   -43565   -43518   -43379   -43310   -43418 
  -43479   -43394   -43330   -43376   -43449   -43463   -43398   -43329 
  -43410   -43484   -43337   -43245   -43326   -43326   -43272   -43309 
  -43328   -43274   -43274   -43349   -43364   -43259   -43201   -43243 
  -43240   -43224   -43178   -43087   -43144   -43245   -43179   -43100 
  -43100   -43066   -43011   -42951   -42871   -42882   -42959   -42967 
  -42961   -42988   -42992   -42975   -42921   -42850   -42828   -42819 
  -42843   -42919   -42923   -42861   -42853   -42835   -42770   -42762 
  -42804   -42809   -42832   -42911   -42920   -42874   -42975   -43140 
  -43171   -43174   -43260   -43387   -43460   -43449   -43487   -43544 
  -43551   -43548   -43440   -43286   -43231   -43185   -43133   -43140 
  -43132   -43071   -43101   -43260   -43329   -43264   -43268   -43349 
  -43394   -43401   -43375   -43341   -43332   -43355   -43409   -43398 
  -43332   -43343   -43344   -43267   -43208   -43139   -43009   -42897 
  -42858   -42843   -42832   -42834   -42823   -42796   -42790   -42867 
  -43025   -43166   -43194   -43125   -43097   -43144   -43132   -43077 
  -43078   -43051   -43020   -43042   -43005   -43036   -43178   -43163 
  -43092   -43179   -43243   -43209   -43204   -43210   -43200   -43205 
  -43252   -43324   -43364   -43447   -43578   -43592   -43609   -43744 
  -43845   -43884   -43842   -43761   -43811   -43876   -43740   -43518 
  -43353   -43254   -43279   -43374   -43389   -43341   -43270   -43200 
  -43168   -43160   -43163   -43136   -43055   -43092   -43283   -43384 
  -43353   -43337   -43430   -43600   -43661   -43576   -43511   -43475 
  -43353   -43141   -43019   -43085   -43194   -43301   -43406   -43437 
  -43506   -43586   -43537   -43425   -43320   -43345   -43416   -43316 
  -43217   -43206   -43143   -43112   -43148   -43113   -43044   -43031 
  -42970   -42874   -42871   -42859   -42782   -42769   -42857   -43002 
  -43113   -43120   -43096   -43056   -42977   -42990   -43123   -43206 
  -43228   -43243   -43287   -43371   -43353   -43271   -43214   -43136 
  -43131   -43132   -43001   -42876   -42888   -42938   -42843   -42826 
  -43075   -43270   -43317   -43343   -43383   -43483   -43514   -43422 
  -43329   -43283   -43263   -43302   -43398   -43370   -43255   -43333 
  -43534   -43572   -43456   -43433   -43556   -43626   -43546   -43464 
  -43467   -43486   -43582   -43749   -43785   -43744   -43784   -43777 
  -43661   -43606   -43610   -43525   -43459   -43561   -43672   -43688 
  -43636   -43521   -43482   -43487   -43391   -43343   -43433   -43580 
  -43699   -43717   -43708   -43698   -43630   -43587   -43573   -43552 
  -43571   -43556   -43529   -43541   -43405   -43228   -43239   -43260 
  -43166   -43102   -43187   -43212   -43033   -42946   -42928   -42728 
  -42552   -42574   -42643   -42722   -42843   -42890   -42877   -42982 
  -43164   -43139   -42928   -42931   -43093   -43033   -42859   -42871 
  -42907   -42716   -42542   -42520   -42431   -42291   -42263   -42291 
  -42259   -42288   -42460   -42573   -42601   -42700   -42788   -42786 
  -42795   -42718   -42561   -42593   -42693   -42622   -42561   -42662 
  -42766   -42769   -42808   -42846   -42774   -42754   -42751   -42741 
  -42861   -42892   -42834   -42951   -43042   -43077   -43216   -43343 
  -43460   -43475   -43330   -43291   -43347   -43349   -43344   -43426 
  -43603   -43741   -43839   -43933   -43908   -43784   -43707   -43688 
  -43638   -43638   -43700   -43611   -43441   -43399   -43333   -43231 
  -43297   -43394   -43425   -43471   -43480   -43579   -43818   -43862 
  -43634   -43559   -43777   -43853   -43650   -43537   -43637   -43746 
  -43725   -43648   -43660   -43713   -43735   -43781   -43757   -43613 
  -43595   -43684   -43642   -43563   -43560   -43652   -43722   -43521 
  -43330   -43318   -43274   -43417   -43663   -43714   -43776   -43860 
  -43843   -43710   -43524   -43513   -43561   -43447   -43390   -43486 
  -43409   -43194   -43194   -43201   -43060   -43044   -43116   -43231 
  -43335   -43258   -43205   -43268   -43316   -43305   -43260   -43337 
  -43395   -43272   -43212   -43213   -43069   -42940   -43011   -43066 
  -43073   -43175   -43243   -43270   -43287   -43221   -43264   -43308 
  -43094   -42969   -43159   -43275   -43158   -43155   -43262   -43120 
  -42909   -42982   -43124   -43067   -43027   -43140   -43258   -43325 
  -43366   -43472   -43610   -43582   -43582   -43704   -43637   -43444 
  -43356   -43371   -43349   -43159   -43004   -43020   -43038   -43000 
  -43016   -43170   -43321   -43352   -43340   -43251   -43074   -42928 
  -42854   -42781   -42691   -42734   -42854   -42913   -43065   -43274 
  -43353   -43399   -43536   -43673   -43606   -43312   -43097   -43066 
  -43067   -43164   -43260   -43164   -43163   -43340   -43387   -43299 
  -43204   -43156   -43194   -43241   -43205   -43183   -43291   -43339 
  -43266   -43349   -43472   -43405   -43407   -43603   -43698   -43569 
  -43436   -43333   -43117   -42921   -42919   -43083   -43167   -43004 
  -42912   -43036   -43100   -43044   -43021   -43106   -43186   -43178 
  -43194   -43228   -43264   -43329   -43244   -43075   -43082   -43144 
  -43146   -43120   -43054   -43104   -43143   -42928   -42755   -42726 
  -42707   -42877   -43135   -43129   -43060   -43233   -43379   -43308 
  -43245   -43281   -43320   -43272   -43222   -43299   -43310   -43233 
  -43222   -43094   -42957   -43065   -43137   -43100   -43139   -43210 
  -43386   -43519   -43366   -43339   -43517   -43457   -43339   -43353 
  -43382   -43478   -43532   -43475   -43414   -43318   -43245   -43241 
  -43282   -43344   -43313   -43260   -43229   -43139   -43183   -43276 
  -43224   -43295   -43488   -43546   -43403   -43195   -43162   -43235 
  -43264   -43168   -42962   -42881   -42932   -42982   -42943   -42805 
  -42866   -43164   -43340   -43249   -43202   -43403   -43459   -43268 
  -43259   -43312   -43181   -43152   -43266   -43216   -43079   -43050 
  -43017   -42939   -42938   -43021   -43092   -43135   -43175   -43194 
  -43243   -43402   -43480   -43363   -43299   -43291   -43190   -43173 
  -43208   -43074   -43050   -43289   -43318   -43146   -43209   -43328 
  -43239   -43186   -43282   -43339   -43368   -43448   -43495   -43544 
  -43652   -43738   -43764   -43730   -43677   -43650   -43625   -43521 
  -43429   -43498   -43565   -43567   -43646   -43677   -43545   -43475 
  -43591   -43618   -43483   -43397   -43324   -43241   -43218   -43144 
  -43048   -43055   -43066   -42934   -42826   -42986   -43127   -42984 
  -42963   -43201   -43218   -43032   -43031   -43114   -43098   -43060 
  -43137   -43316   -43272   -43048   -43046   -43120   -43050   -42955 
  -42934   -43069   -43244   -43260   -43248   -43309   -43352   -43375 
  -43397   -43394   -43321   -43185   -43175   -43197   -43016   -43046 
  -43359   -43417   -43422   -43584   -43583   -43567   -43664   -43699 
  -43748   -43796   -43696   -43579   -43596   -43555   -43279   -43051 
  -43074   -43136   -43120   -43119   -43117   -43031   -42946   -42967 
  -43011   -43098   -43254   -43267   -43164   -43060   -42950   -42885 
  -42799   -42742   -42908   -43051   -42977   -43006   -43217   -43216 
  -42974   -42932   -43055   -42934   -42769   -42838   -42796   -42570 
  -42538   -42745   -42882   -42951   -43205   -43526   -43683   -43661 
  -43582   -43613   -43633   -43511   -43434   -43447   -43426   -43337 
  -43333   -43479   -43501   -43432   -43501   -43519   -43397   -43403 
  -43578   -43514   -43224   -43243   -43457   -43480   -43478   -43551 
  -43592   -43622   -43640   -43660   -43644   -43484   -43328   -43297 
  -43185   -42969   -42878   -42932   -43100   -43299   -43395   -43511 
  -43644   -43642   -43572   -43548   -43556   -43440   -43220   -43164 
  -43262   -43317   -43326   -43355   -43436   -43448   -43335   -43233 
  -43159   -43128   -43160   -43190   -43168   -43181   -43294   -43282 
  -43147   -43148   -43212   -43264   -43321   -43337   -43295   -43227 
  -43150   -42997   -42893   -42911   -42898   -42935   -43008   -43074 
  -43295   -43480   -43441   -43336   -43206   -43092   -43060   -43016 
  -42897   -42745   -42689   -42774   -42840   -42897   -43005   -43046 
  -43079   -43147   -43114   -43059   -43004   -42882   -42828   -42861 
  -42869   -42871   -43031   -43255   -43244   -43227   -43437   -43445 
  -43171   -43065   -43175   -43217   -43144   -43178   -43391   -43575 
  -43615   -43642   -43715   -43735   -43675   -43598   -43438   -43312 
  -43467   -43561   -43374   -43298   -43330   -43332   -43405   -43501 
  -43595   -43642   -43663   -43645   -43507   -43480   -43540   -43438 
  -43382   -43474   -43536   -43509   -43443   -43476   -43542   -43422 
  -43233   -43097   -42940   -42863   -42909   -42931   -42967   -43074 
  -43101   -43047   -43001   -42984   -42997   -42931   -42850   -42955 
