Origin Time       2024/04/02 04:24:00
Lat.              40.133
Long.             141.712
Depth. (km)       71
Mag.              6.0
Station Code      IBRH07
Station Lat.      35.9521
Station Long.     140.3301
Station Height(m) -1197
Record Time       2024/04/02 04:26:25
Sampling Freq(Hz) 100Hz
Duration Time(s)  120
Dir.              2
Scale Factor      7845(gal)/8223790
Max. Acc. (gal)   0.397
Last Correction   2024/04/02 04:26:25
Memo.             
[...]
   -6292    -6328    -6357    -6365    -6319    -6268    -6274    -6300 
   -6286    -6284    -6322    -6316    -6273    -6289    -6312    -6276 
   -6269    -6319    -6338    -6309    -6303    -6322    -6331    -6334 
   -6323    -6300    -6303    -6312    -6313    -6320    -6330    -6358 
   -6365    -6320    -6297    -6292    -6280    -6276    -6282    -6315 
   -6339    -6324    -6318    -6319    -6315    -6313    -6293    -6284 
   -6313    -6332    -6303    -6293    -6332    -6320    -6264    -6273 
   -6307    -6297    -6295    -6328    -6350    -6343    -6343    -6346 
   -6332    -6318    -6293    -6285    -6349    -6397    -6353    -6318 
   -6342    -6350    -6340    -6331    -6315    -6305    -6304    -6307 
   -6301    -6295    -6303    -6296    -6292    -6319    -6320    -6296 
   -6300    -6285    -6258    -6301    -6359    -6340    -6289    -6270 
   -6262    -6239    -6251    -6311    -6342    -6334    -6304    -6281 
   -6322    -6354    -6291    -6253    -6305    -6335    -6299    -6284 
   -6308    -6301    -6286    -6332    -6361    -6322    -6303    -6332 
   -6330    -6281    -6268    -6304    -6292    -6254    -6285    -6323 
   -6318    -6311    -6292    -6261    -6278    -6315    -6318    -6319 
   -6320    -6293    -6289    -6316    -6338    -6351    -6331    -6286 
   -6286    -6340    -6347    -6309    -6316    -6324    -6315    -6323 
   -6303    -6291    -6331    -6336    -6308    -6334    -6366    -6327 
   -6265    -6246    -6255    -6280    -6327    -6351    -6323    -6308 
   -6346    -6343    -6300    -6320    -6350    -6320    -6300    -6308 
   -6288    -6264    -6277    -6307    -6323    -6332    -6335    -6328 
   -6331    -6338    -6319    -6301    -6299    -6296    -6319    -6331 
   -6301    -6297    -6313    -6331    -6361    -6332    -6257    -6246 
   -6281    -6295    -6312    -6335    -6313    -6284    -6320    -6365 
   -6363    -6347    -6331    -6320    -6328    -6346    -6342    -6313 
   -6303    -6309    -6293    -6280    -6300    -6334    -6361    -6359 
   -6331    -6320    -6342    -6334    -6291    -6291    -6324    -6319 
   -6318    -6351    -6336    -6312    -6340    -6336    -6312    -6315 
   -6296    -6278    -6284    -6273    -6276    -6304    -6322    -6328 
   -6335    -6332    -6319    -6311    -6316    -6295    -6265    -6297 
   -6332    -6313    -6300    -6311    -6300    -6286    -6300    -6305 
   -6277    -6274    -6320    -6338    -6297    -6246    -6249    -6296 
   -6309    -6300    -6313    -6311    -6291    -6295    -6309    -6324 
   -6334    -6336    -6342    -6311    -6274    -6305    -6326    -6295 
   -6301    -6319    -6296    -6304    -6354    -6363    -6338    -6324 
   -6320    -6307    -6299    -6299    -6278    -6274    -6300    -6311 
   -6339    -6357    -6305    -6269    -6269    -6277    -6295    -6282 
   -6268    -6297    -6343    -6370    -6354    -6327    -6327    -6342 
   -6363    -6378    -6381    -6358    -6300    -6291    -6347    -6353 
   -6312    -6326    -6363    -6343    -6288    -6274    -6288    -6295 
   -6308    -6327    -6318    -6273    -6272    -6304    -6282    -6270 
   -6273    -6243    -6280    -6359    -6347    -6292    -6276    -6272 
   -6255    -6272    -6312    -6296    -6276    -6338    -6357    -6282 
   -6270    -6312    -6315    -6319    -6331    -6309    -6296    -6297 
   -6301    -6323    -6327    -6284    -6269    -6304    -6300    -6292 
   -6343    -6338    -6276    -6272    -6291    -6288    -6309    -6338 
   -6334    -6318    -6340    -6361    -6336    -6331    -6355    -6359 
   -6330    -6299    -6307    -6305    -6285    -6328    -6363    -6326 
   -6299    -6285    -6286    -6312    -6299    -6282    -6282    -6243 
   -6257    -6343    -6382    -6351    -6303    -6296    -6347    -6357 
   -6324    -6347    -6353    -6319    -6349    -6355    -6307    -6320 
   -6334    -6311    -6332    -6382    -6384    -6323    -6297    -6336 
   -6340    -6322    -6312    -6273    -6254    -6280    -6282    -6266 
   -6273    -6278    -6282    -6322    -6324    -6280    -6304    -6343 
   -6315    -6308    -6322    -6305    -6309    -6327    -6343    -6369 
   -6347    -6292    -6277    -6282    -6278    -6285    -6281    -6264 
   -6273    -6296    -6301    -6301    -6288    -6272    -6285    -6305 
   -6316    -6316    -6320    -6328    -6309    -6293    -6297    -6304 
   -6288    -6262    -6292    -6324    -6312    -6320    -6318    -6293 
   -6315    -6339    -6311    -6288    -6299    -6297    -6295    -6330 
   -6357    -6328    -6291    -6284    -6311    -6357    -6369    -6354 
   -6365    -6363    -6286    -6230    -6297    -6361    -6335    -6318 
   -6304    -6278    -6295    -6311    -6286    -6293    -6346    -6365 
   -6335    -6318    -6303    -6295    -6339    -6354    -6305    -6311 
   -6350    -6336    -6324    -6332    -6308    -6274    -6286    -6327 
   -6313    -6264    -6273    -6307    -6304    -6280    -6257    -6265 
   -6295    -6316    -6331    -6324    -6295    -6289    -6320    -6324 
   -6293    -6299    -6320    -6292    -6250    -6247    -6289    -6349 
   -6350    -6304    -6303    -6330    -6323    -6311    -6307    -6301 
   -6316    -6311    -6286    -6312    -6330    -6295    -6296    -6315 
   -6309    -6309    -6307    -6312    -6336    -6332    -6295    -6277 
   -6300    -6323    -6312    -6295    -6307    -6334    -6328    -6286 
   -6261    -6285    -6318    -6299    -6282    -6328    -6343    -6313 
   -6354    -6392    -6345    -6327    -6361    -6338    -6293    -6320 
   -6367    -6355    -6330    -6345    -6340    -6303    -6308    -6340 
   -6324    -6265    -6253    -6301    -6324    -6326    -6335    -6316 
   -6303    -6335    -6353    -6349    -6358    -6336    -6307    -6312 
   -6300    -6280    -6284    -6293    -6304    -6296    -6295    -6311 
   -6300    -6295    -6305    -6289    -6293    -6320    -6309    -6296 
   -6328    -6361    -6361    -6334    -6339    -6382    -6372    -6316 
   -6293    -6304    -6309    -6288    -6277    -6289    -6288    -6291 
   -6296    -6293    -6301    -6296    -6291    -6301    -6299    -6299 
   -6315    -6313    -6286    -6254    -6255    -6282    -6291    -6297 
   -6319    -6319    -6316    -6335    -6316    -6289    -6327    -6359 
   -6330    -6286    -6258    -6262    -6296    -6301    -6297    -6323 
   -6308    -6247    -6250    -6305    -6308    -6304    -6316    -6285 
   -6288    -6335    -6326    -6323    -6357    -6351    -6347    -6357 
   -6334    -6318    -6326    -6338    -6340    -6311    -6288    -6299 
   -6299    -6292    -6307    -6308    -6312    -6347    -6338    -6296 
   -6315    -6336    -6328    -6338    -6318    -6291    -6296    -6268 
   -6265    -6342    -6373    -6332    -6323    -6312    -6261    -6254 
   -6311    -6350    -6350    -6332    -6299    -6291    -6308    -6301 
   -6309    -6349    -6382    -6396    -6347    -6274    -6261    -6274 
   -6309    -6361    -6365    -6366    -6358    -6296    -6278    -6315 
   -6320    -6324    -6334    -6320    -6319    -6326    -6293    -6251 
   -6261    -6323    -6354    -6326    -6308    -6319    -6312    -6292 
   -6284    -6303    -6326    -6346    -6357    -6350    -6358    -6351 
   -6320    -6326    -6335    -6301    -6285    -6300    -6293    -6276 
   -6278    -6293    -6288    -6269    -6286    -6309    -6296    -6305 
   -6323    -6303    -6303    -6319    -6301    -6284    -6297    -6303 
   -6285    -6295    -6323    -6309    -6326    -6373    -6323    -6257 
   -6284    -6286    -6265    -6297    -6301    -6250    -6262    -6326 
   -6334    -6311    -6313    -6316    -6297    -6280    -6284    -6280 
   -6241    -6258    -6343    -6355    -6300    -6277    -6273    -6272 
   -6291    -6328    -6357    -6340    -6299    -6297    -6318    -6318 
   -6336    -6354    -6320    -6285    -6292    -6318    -6326    -6300 
   -6262    -6255    -6319    -6388    -6353    -6285    -6305    -6335 
   -6313    -6300    -6305    -6309    -6323    -6338    -6319    -6289 
   -6297    -6327    -6339    -6312    -6276    -6286    -6312    -6324 
   -6358    -6381    -6359    -6338    -6328    -6334    -6349    -6359 
   -6388    -6385    -6320    -6308    -6351    -6336    -6292    -6305 
   -6334    -6330    -6330    -6324    -6300    -6297    -6299    -6276 
   -6264    -6292    -6336    -6330    -6293    -6299    -6296    -6282 
   -6320    -6353    -6318    -6278    -6282    -6288    -6264    -6262 
   -6297    -6309    -6323    -6358    -6354    -6307    -6284    -6295 
   -6307    -6324    -6342    -6322    -6265    -6228    -6253    -6296 
   -6311    -6326    -6335    -6291    -6268    -6313    -6326    -6296 
   -6292    -6299    -6297    -6300    -6316    -6326    -6297    -6272 
   -6277    -6288    -6299    -6311    -6330    -6339    -6304    -6285 
   -6327    -6349    -6323    -6269    -6242    -6284    -6301    -6297 
   -6334    -6340    -6331    -6343    -6323    -6319    -6351    -6307 
   -6237    -6278    -6355    -6367    -6362    -6324    -6268    -6323 
   -6397    -6340    -6280    -6277    -6250    -6250    -6274    -6264 
   -6272    -6313    -6335    -6339    -6339    -6319    -6313    -6342 
   -6369    -6376    -6384    -6394    -6361    -6274    -6234    -6262 
   -6266    -6234    -6228    -6280    -6339    -6318    -6266    -6280 
   -6300    -6266    -6261    -6330    -6345    -6291    -6327    -6426 
   -6450    -6415    -6377    -6358    -6377    -6374    -6315    -6295 
   -6288    -6226    -6216    -6285    -6327    -6331    -6339    -6338 
   -6309    -6281    -6245    -6223    -6303    -6390    -6381    -6377 
   -6396    -6370    -6328    -6319    -6339    -6281    -6169    -6208 
   -6327    -6313    -6250    -6278    -6355    -6380    -6327    -6286 
   -6316    -6355    -6408    -6443    -6363    -6264    -6245    -6249 
   -6254    -6231    -6174    -6156    -6212    -6309    -6332    -6281 
   -6277    -6309    -6308    -6308    -6334    -6304    -6264    -6312 
   -6332    -6323    -6361    -6300    -6184    -6226    -6335    -6401 
   -6459    -6465    -6408    -6366    -6305    -6226    -6228    -6297 
   -6372    -6378    -6301    -6297    -6328    -6266    -6230    -6262 
   -6273    -6268    -6246    -6230    -6276    -6316    -6295    -6292 
   -6305    -6315    -6351    -6359    -6347    -6347    -6305    -6289 
   -6361    -6417    -6415    -6411    -6393    -6363    -6355    -6312 
   -6215    -6151    -6164    -6224    -6291    -6353    -6354    -6303 
   -6311    -6313    -6277    -6295    -6319    -6343    -6405    -6467 
   -6555    -6579    -6459    -6353    -6328    -6305    -6292    -6309 
   -6324    -6266    -6130    -6116    -6286    -6340    -6243    -6272 
   -6345    -6309    -6327    -6413    -6388    -6312    -6336    -6386 
   -6359    -6307    -6274    -6243    -6243    -6323    -6399    -6353 
   -6273    -6289    -6338    -6367    -6407    -6413    -6365    -6266 
   -6174    -6195    -6231    -6257    -6365    -6359    -6193    -6174 
   -6334    -6385    -6259    -6145    -6129    -6216    -6384    -6447 
   -6372    -6385    -6466    -6444    -6485    -6550    -6342    -6133 
   -6212    -6247    -6142    -6185    -6367    -6442    -6347    -6257 
   -6250    -6258    -6320    -6447    -6462    -6342    -6270    -6223 
   -6068    -5956    -6085    -6343    -6532    -6625    -6629    -6492 
   -6281    -6185    -6231    -6281    -6251    -6189    -6126    -6068 
   -6106    -6200    -6276    -6404    -6453    -6367    -6394    -6525 
   -6525    -6331    -6147    -6165    -6189    -6087    -6127    -6318 
   -6420    -6459    -6403    -6218    -6216    -6413    -6413    -6308 
   -6405    -6474    -6336    -6207    -6134    -6111    -6235    -6372 
   -6336    -6297    -6374    -6359    -6274    -6327    -6332    -6227 
   -6237    -6288    -6367    -6567    -6592    -6377    -6249    -6266 
   -6380    -6507    -6461    -6296    -6230    -6345    -6420    -6301 
   -6299    -6415    -6293    -6138    -6183    -6214    -6265    -6396 
   -6351    -6253    -6332    -6326    -6215    -6270    -6322    -6249 
   -6258    -6376    -6462    -6392    -6197    -6151    -6303    -6357 
   -6250    -6218    -6295    -6315    -6277    -6231    -6200    -6232 
   -6281    -6320    -6303    -6192    -6245    -6453    -6443    -6324 
   -6409    -6458    -6282    -6235    -6390    -6404    -6284    -6286 
   -6322    -6231    -6161    -6205    -6299    -6389    -6457    -6505 
   -6457    -6296    -6215    -6265    -6300    -6295    -6230    -6154 
   -6251    -6390    -6377    -6358    -6359    -6390    -6489    -6415 
   -6235    -6237    -6231    -6272    -6538    -6571    -6299    -6191 
   -6245    -6270    -6285    -6334    -6386    -6397    -6404    -6404 
   -6336    -6266    -6326    -6381    -6254    -6154    -6281    -6465 
   -6436    -6249    -6201    -6311    -6349    -6268    -6226    -6346 
   -6434    -6285    -6177    -6311    -6335    -6173    -6187    -6308 
   -6296    -6174    -6029    -6045    -6208    -6338    -6466    -6473 
   -6313    -6288    -6362    -6319    -6250    -6201    -6133    -6238 
   -6556    -6718    -6678    -6658    -6542    -6304    -6068    -5913 
   -6006    -6187    -6220    -6273    -6370    -6443    -6588    -6596 
   -6330    -6173    -6212    -6184    -6214    -6349    -6342    -6296 
   -6328    -6315    -6316    -6343    -6324    -6326    -6296    -6264 
   -6354    -6430    -6409    -6372    -6318    -6238    -6176    -6245 
   -6443    -6558    -6525    -6451    -6392    -6358    -6230    -5960 
   -5895    -6200    -6438    -6350    -6297    -6458    -6497    -6319 
   -6203    -6212    -6223    -6214    -6246    -6370    -6401    -6220 
   -6123    -6245    -6345    -6369    -6480    -6512    -6257    -6118 
   -6328    -6399    -6220    -6195    -6245    -6246    -6343    -6335 
   -6153    -6081    -6096    -6135    -6270    -6335    -6320    -6399 
   -6494    -6493    -6384    -6238    -6145    -6084    -6070    -6119 
   -6154    -6242    -6424    -6536    -6502    -6367    -6188    -6185 
   -6411    -6579    -6555    -6373    -6184    -6183    -6291    -6424 
   -6633    -6709    -6470    -6247    -6254    -6270    -6266    -6335 
   -6453    -6558    -6455    -6153    -6018    -6219    -6411    -6393 
   -6430    -6490    -6370    -6247    -6308    -6461    -6451    -6241 
   -6097    -6127    -6249    -6388    -6439    -6297    -6154    -6199 
   -6145    -5984    -6073    -6211    -6200    -6226    -6249    -6269 
   -6397    -6536    -6606    -6594    -6420    -6160    -6089    -6207 
   -6226    -6115    -6149    -6281    -6181    -6011    -6097    -6255 
   -6295    -6272    -6254    -6328    -6421    -6419    -6346    -6214 
   -6153    -6247    -6361    -6394    -6328    -6303    -6451    -6519 
   -6381    -6339    -6388    -6274    -6173    -6237    -6237    -6183 
   -6270    -6359    -6331    -6440    -6627    -6513    -6276    -6265 
   -6370    -6378    -6281    -6262    -6454    -6664    -6623    -6427 
   -6405    -6505    -6386    -6154    -6151    -6247    -6257    -6313 
   -6289    -6103    -6133    -6374    -6471    -6502    -6606    -6623 
   -6484    -6322    -6273    -6301    -6261    -6231    -6295    -6299 
   -6242    -6176    -6073    -6118    -6272    -6272    -6270    -6412 
   -6462    -6353    -6228    -6149    -6142    -6246    -6423    -6552 
   -6592    -6592    -6548    -6428    -6277    -6216    -6199    -6091 
   -6053    -6195    -6247    -6197    -6292    -6361    -6251    -6255 
   -6443    -6488    -6303    -6223    -6370    -6419    -6313    -6315 
   -6359    -6278    -6259    -6355    -6296    -6180    -6285    -6430 
   -6417    -6332    -6292    -6386    -6473    -6366    -6208    -6158 
   -6220    -6332    -6338    -6207    -6120    -6131    -6173    -6297 
   -6481    -6539    -6434    -6318    -6280    -6297    -6385    -6470 
   -6384    -6255    -6319    -6365    -6228    -6191    -6304    -6347 
   -6354    -6281    -6053    -6034    -6276    -6353    -6295    -6312 
   -6338    -6370    -6381    -6320    -6394    -6563    -6469    -6258 
   -6274    -6338    -6245    -6189    -6300    -6300    -6103    -6127 
   -6362    -6388    -6297    -6318    -6376    -6417    -6412    -6319 
   -6239    -6269    -6285    -6241    -6270    -6343    -6350    -6388 
   -6457    -6400    -6296    -6311    -6369    -6351    -6309    -6293 
   -6307    -6388    -6492    -6570    -6593    -6444    -6272    -6205 
   -6127    -6191    -6393    -6374    -6269    -6336    -6386    -6311 
   -6177    -6106    -6180    -6253    -6308    -6416    -6424    -6366 
   -6340    -6249    -6173    -6255    -6405    -6477    -6444    -6376 
   -6305    -6258    -6237    -6197    -6189    -6293    -6420    -6431 
   -6345    -6264    -6269    -6355    -6361    -6301    -6318    -6304 
   -6201    -6174    -6216    -6162    -6087    -6188    -6313    -6226 
   -6168    -6347    -6447    -6350    -6359    -6431    -6291    -6168 
   -6255    -6243    -6174    -6259    -6269    -6222    -6282    -6281 
   -6197    -6151    -6195    -6303    -6370    -6440    -6493    -6377 
   -6234    -6223    -6289    -6366    -6393    -6358    -6349    -6374 
   -6345    -6293    -6315    -6343    -6327    -6319    -6288    -6242 
   -6304    -6372    -6293    -6262    -6328    -6366    -6474    -6554 
   -6488    -6502    -6509    -6266    -6046    -6106    -6220    -6230 
   -6307    -6466    -6480    -6362    -6323    -6322    -6276    -6297 
   -6366    -6363    -6297    -6243    -6265    -6366    -6473    -6439 
   -6320    -6330    -6382    -6359    -6424    -6502    -6404    -6320 
   -6340    -6291    -6239    -6316    -6384    -6365    -6328    -6258 
   -6189    -6280    -6424    -6428    -6396    -6304    -6088    -6014 
   -6114    -6162    -6177    -6215    -6266    -6362    -6401    -6312 
   -6281    -6345    -6335    -6347    -6427    -6354    -6285    -6467 
   -6512    -6293    -6288    -6403    -6316    -6237    -6249    -6238 
   -6269    -6289    -6223    -6211    -6273    -6261    -6223    -6223 
   -6189    -6208    -6291    -6332    -6378    -6328    -6199    -6238 
   -6257    -6170    -6295    -6481    -6454    -6381    -6340    -6230 
   -6145    -6226    -6363    -6386    -6332    -6320    -6363    -6367 
   -6330    -6338    -6357    -6359    -6420    -6492    -6413    -6265 
   -6281    -6367    -6326    -6250    -6243    -6251    -6247    -6270 
   -6247    -6138    -6112    -6219    -6305    -6309    -6319    -6346 
   -6274    -6162    -6193    -6289    -6338    -6365    -6345    -6330 
   -6361    -6316    -6212    -6197    -6277    -6304    -6266    -6300 
   -6320    -6259    -6245    -6208    -6168    -6311    -6488    -6527 
   -6501    -6403    -6255    -6170    -6170    -6185    -6200    -6320 
   -6496    -6519    -6434    -6411    -6415    -6339    -6212    -6187 
   -6334    -6496    -6547    -6519    -6431    -6330    -6269    -6262 
   -6312    -6318    -6274    -6319    -6394    -6355    -6269    -6262 
   -6319    -6338    -6278    -6264    -6332    -6312    -6234    -6255 
   -6297    -6338    -6466    -6542    -6427    -6318    -6342    -6316 
   -6282    -6374    -6350    -6192    -6156    -6158    -6114    -6150 
   -6253    -6315    -6340    -6378    -6389    -6338    -6331    -6411 
   -6431    -6309    -6237    -6346    -6459    -6471    -6416    -6280 
   -6192    -6270    -6339    -6289    -6258    -6282    -6284    -6254 
