Origin Time       2024/04/02 04:24:00
Lat.              40.133
Long.             141.712
Depth. (km)       71
Mag.              6.0
Station Code      IBRH09
Station Lat.      36.4390
Station Long.     140.3559
Station Height(m) -55.5
Record Time       2024/04/02 04:26:16
Sampling Freq(Hz) 100Hz
Duration Time(s)  120
Dir.              2
Scale Factor      2942(gal)/8224139
Max. Acc. (gal)   0.399
Last Correction   2024/04/02 04:26:17
Memo.             
[...]
 -105521  -105551  -105530  -105607  -105655  -105664  -105664  -105574 
 -105517  -105533  -105536  -105544  -105516  -105472  -105472  -105476 
 -105532  -105592  -105605  -105637  -105599  -105475  -105452  -105495 
 -105480  -105484  -105599  -105700  -105642  -105538  -105547  -105590 
 -105586  -105570  -105584  -105621  -105609  -105559  -105590  -105667 
 -105633  -105548  -105518  -105534  -105576  -105602  -105622  -105675 
 -105702  -105665  -105609  -105579  -105557  -105491  -105480  -105561 
 -105547  -105460  -105489  -105556  -105568  -105564  -105543  -105503 
 -105471  -105445  -105463  -105529  -105576  -105597  -105575  -105484 
 -105444  -105499  -105495  -105436  -105480  -105547  -105483  -105401 
 -105395  -105416  -105448  -105476  -105448  -105410  -105418  -105414 
 -105378  -105375  -105405  -105403  -105387  -105418  -105463  -105464 
 -105480  -105518  -105472  -105394  -105372  -105394  -105495  -105638 
 -105680  -105599  -105460  -105387  -105445  -105487  -105475  -105480 
 -105443  -105409  -105456  -105520  -105556  -105537  -105489  -105497 
 -105518  -105479  -105472  -105482  -105468  -105517  -105521  -105484 
 -105561  -105622  -105561  -105470  -105406  -105376  -105383  -105486 
 -105607  -105611  -105553  -105487  -105425  -105420  -105435  -105435 
 -105524  -105672  -105672  -105595  -105575  -105503  -105444  -105459 
 -105416  -105405  -105482  -105502  -105503  -105476  -105412  -105472 
 -105532  -105412  -105351  -105437  -105421  -105355  -105459  -105491 
 -105362  -105397  -105491  -105429  -105413  -105426  -105301  -105256 
 -105445  -105571  -105538  -105502  -105420  -105387  -105433  -105399 
 -105433  -105479  -105347  -105337  -105483  -105482  -105432  -105464 
 -105501  -105480  -105401  -105444  -105592  -105605  -105547  -105579 
 -105652  -105703  -105719  -105727  -105726  -105653  -105568  -105606 
 -105694  -105692  -105702  -105795  -105850  -105833  -105810  -105776 
 -105700  -105663  -105718  -105741  -105710  -105683  -105605  -105533 
 -105545  -105587  -105629  -105617  -105574  -105580  -105564  -105526 
 -105591  -105636  -105553  -105509  -105521  -105540  -105595  -105606 
 -105613  -105672  -105645  -105602  -105667  -105672  -105571  -105564 
 -105641  -105630  -105572  -105564  -105576  -105591  -105657  -105682 
 -105571  -105506  -105563  -105587  -105579  -105556  -105472  -105406 
 -105386  -105364  -105420  -105525  -105524  -105516  -105602  -105615 
 -105548  -105526  -105510  -105480  -105455  -105437  -105482  -105536 
 -105516  -105468  -105453  -105493  -105524  -105509  -105564  -105661 
 -105651  -105598  -105591  -105575  -105547  -105541  -105560  -105597 
 -105590  -105556  -105538  -105479  -105451  -105501  -105506  -105530 
 -105606  -105576  -105521  -105568  -105598  -105538  -105541  -105609 
 -105565  -105511  -105568  -105632  -105675  -105655  -105518  -105399 
 -105425  -105521  -105529  -105528  -105613  -105594  -105495  -105544 
 -105615  -105564  -105478  -105421  -105385  -105283  -105206  -105337 
 -105421  -105318  -105381  -105560  -105548  -105479  -105521  -105549 
 -105518  -105548  -105607  -105579  -105514  -105484  -105491  -105532 
 -105559  -105528  -105503  -105570  -105660  -105687  -105703  -105754 
 -105738  -105651  -105603  -105576  -105532  -105533  -105570  -105586 
 -105630  -105742  -105811  -105740  -105646  -105688  -105736  -105705 
 -105748  -105807  -105773  -105737  -105732  -105687  -105576  -105511 
 -105586  -105676  -105653  -105630  -105673  -105659  -105598  -105561 
 -105526  -105518  -105551  -105563  -105565  -105551  -105522  -105599 
 -105698  -105656  -105630  -105653  -105579  -105564  -105614  -105509 
 -105455  -105626  -105717  -105591  -105530  -105609  -105579  -105489 
 -105516  -105537  -105533  -105559  -105574  -105613  -105570  -105447 
 -105490  -105526  -105409  -105412  -105506  -105541  -105583  -105597 
 -105567  -105561  -105575  -105605  -105597  -105560  -105584  -105574 
 -105495  -105498  -105551  -105553  -105517  -105494  -105540  -105582 
 -105552  -105547  -105583  -105606  -105619  -105578  -105480  -105429 
 -105444  -105484  -105503  -105506  -105540  -105586  -105619  -105610 
 -105537  -105509  -105557  -105560  -105547  -105555  -105501  -105482 
 -105570  -105583  -105538  -105567  -105603  -105592  -105511  -105413 
 -105437  -105503  -105509  -105530  -105556  -105518  -105437  -105433 
 -105511  -105528  -105514  -105555  -105563  -105526  -105522  -105533 
 -105528  -105521  -105511  -105499  -105490  -105494  -105484  -105453 
 -105489  -105541  -105506  -105489  -105538  -105538  -105467  -105455 
 -105514  -105510  -105499  -105609  -105717  -105698  -105622  -105576 
 -105574  -105595  -105572  -105482  -105459  -105572  -105669  -105676 
 -105653  -105595  -105572  -105629  -105645  -105653  -105690  -105667 
 -105560  -105435  -105448  -105530  -105491  -105493  -105610  -105683 
 -105703  -105732  -105710  -105628  -105576  -105563  -105548  -105561 
 -105572  -105551  -105556  -105598  -105642  -105656  -105628  -105617 
 -105602  -105560  -105582  -105615  -105541  -105510  -105615  -105669 
 -105649  -105675  -105687  -105661  -105671  -105668  -105633  -105645 
 -105636  -105555  -105572  -105648  -105625  -105610  -105597  -105545 
 -105603  -105695  -105700  -105707  -105727  -105683  -105603  -105559 
 -105526  -105495  -105501  -105567  -105617  -105572  -105544  -105575 
 -105561  -105495  -105468  -105494  -105475  -105444  -105460  -105498 
 -105567  -105553  -105476  -105484  -105457  -105331  -105264  -105332 
 -105408  -105422  -105433  -105448  -105476  -105444  -105339  -105358 
 -105470  -105491  -105437  -105413  -105452  -105453  -105418  -105429 
 -105440  -105457  -105468  -105451  -105507  -105529  -105466  -105536 
 -105584  -105503  -105555  -105599  -105489  -105486  -105540  -105524 
 -105602  -105678  -105586  -105509  -105544  -105567  -105545  -105534 
 -105545  -105592  -105649  -105610  -105579  -105676  -105711  -105645 
 -105607  -105588  -105609  -105655  -105653  -105637  -105611  -105625 
 -105678  -105667  -105638  -105607  -105553  -105602  -105692  -105615 
 -105478  -105522  -105582  -105514  -105567  -105684  -105672  -105700 
 -105780  -105780  -105750  -105738  -105730  -105642  -105475  -105429 
 -105524  -105571  -105541  -105532  -105603  -105706  -105750  -105698 
 -105583  -105524  -105568  -105628  -105675  -105732  -105748  -105702 
 -105618  -105499  -105466  -105529  -105494  -105417  -105467  -105530 
 -105468  -105385  -105474  -105637  -105679  -105698  -105763  -105777 
 -105706  -105601  -105594  -105645  -105583  -105487  -105487  -105543 
 -105588  -105579  -105561  -105528  -105364  -105194  -105178  -105217 
 -105220  -105256  -105370  -105457  -105491  -105588  -105669  -105678 
 -105722  -105669  -105510  -105439  -105393  -105382  -105475  -105545 
 -105610  -105680  -105705  -105690  -105613  -105557  -105540  -105463 
 -105347  -105264  -105335  -105489  -105534  -105576  -105664  -105618 
 -105547  -105625  -105659  -105588  -105588  -105597  -105570  -105645 
 -105792  -105804  -105759  -105822  -105763  -105597  -105609  -105588 
 -105426  -105441  -105560  -105489  -105383  -105412  -105399  -105355 
 -105375  -105336  -105270  -105283  -105301  -105325  -105409  -105471 
 -105544  -105744  -105965  -106073  -106027  -105829  -105642  -105525 
 -105386  -105349  -105410  -105459  -105590  -105710  -105733  -105781 
 -105763  -105667  -105615  -105517  -105441  -105551  -105634  -105516 
 -105436  -105525  -105570  -105520  -105517  -105538  -105560  -105586 
 -105565  -105607  -105710  -105695  -105753  -106019  -106111  -105946 
 -105788  -105583  -105297  -105135  -105123  -105160  -105304  -105524 
 -105582  -105547  -105655  -105786  -105858  -105852  -105676  -105499 
 -105443  -105448  -105536  -105694  -105779  -105749  -105803  -105979 
 -106034  -105921  -105806  -105730  -105592  -105420  -105332  -105344 
 -105383  -105418  -105565  -105775  -105817  -105798  -105931  -106065 
 -106037  -105939  -105768  -105526  -105410  -105399  -105406  -105526 
 -105726  -105956  -106196  -106232  -106002  -105772  -105659  -105552 
 -105518  -105617  -105718  -105819  -105922  -105898  -105813  -105753 
 -105688  -105607  -105474  -105402  -105493  -105501  -105374  -105453 
 -105696  -105679  -105555  -105688  -105754  -105528  -105390  -105495 
 -105480  -105254  -105156  -105204  -105348  -105700  -105973  -105929 
 -105813  -105831  -105796  -105592  -105525  -105613  -105548  -105418 
 -105382  -105412  -105511  -105614  -105706  -105880  -106099  -106230 
 -106177  -105875  -105538  -105494  -105514  -105336  -105251  -105401 
 -105517  -105491  -105506  -105597  -105671  -105788  -105960  -106092 
 -106104  -106043  -106006  -105826  -105440  -105139  -105043  -104976 
 -104973  -105163  -105408  -105688  -105981  -105989  -105780  -105695 
 -105714  -105669  -105561  -105379  -105119  -104917  -104818  -104839 
 -105082  -105387  -105564  -105610  -105563  -105533  -105563  -105506 
 -105398  -105381  -105344  -105268  -105282  -105340  -105435  -105564 
 -105576  -105582  -105807  -105942  -105698  -105444  -105441  -105425 
 -105165  -104998  -105308  -105649  -105648  -105618  -105744  -105933 
 -105889  -105611  -105456  -105255  -105098  -105397  -105645  -105669 
 -105818  -105738  -105495  -105520  -105545  -105526  -105595  -105584 
 -105619  -105644  -105529  -105625  -105802  -105726  -105698  -105768 
 -105696  -105636  -105684  -105644  -105528  -105511  -105543  -105592 
 -105722  -105765  -105672  -105630  -105664  -105757  -105867  -105902 
 -105906  -105780  -105638  -105796  -105899  -105807  -105892  -105889 
 -105753  -105818  -105802  -105636  -105645  -105660  -105449  -105225 
 -105271  -105575  -105831  -105838  -105794  -105923  -106084  -106060 
 -105904  -105710  -105490  -105271  -105048  -104992  -105306  -105671 
 -105644  -105464  -105491  -105556  -105598  -105663  -105588  -105459 
 -105413  -105382  -105474  -105718  -105860  -105844  -105831  -105807 
 -105655  -105494  -105451  -105397  -105378  -105482  -105538  -105563 
 -105634  -105750  -105962  -106002  -105734  -105629  -105764  -105798 
 -105753  -105634  -105422  -105351  -105435  -105590  -105875  -106070 
 -105984  -105899  -105872  -105671  -105553  -105713  -105853  -105898 
 -105988  -106145  -106188  -105946  -105672  -105659  -105786  -105879 
 -105987  -106023  -105825  -105753  -106002  -106088  -105906  -105779 
 -105753  -105682  -105609  -105665  -105734  -105826  -106068  -106116 
 -105814  -105638  -105640  -105484  -105408  -105594  -105679  -105603 
 -105669  -105665  -105309  -105115  -105310  -105244  -104862  -104803 
 -105089  -105283  -105383  -105605  -105787  -105702  -105383  -105109 
 -104947  -104614  -104535  -105071  -105472  -105637  -105999  -106267 
 -106313  -106201  -105873  -105560  -105305  -104992  -104872  -105061 
 -105408  -105711  -105624  -105304  -105482  -105853  -105463  -104862 
 -104958  -105262  -105332  -105480  -105798  -105991  -105858  -105563 
 -105395  -105363  -105232  -105115  -105217  -105213  -104962  -104967 
 -105352  -105609  -105713  -105889  -105919  -105756  -105509  -105403 
 -105682  -105764  -105408  -105282  -105393  -105516  -105754  -105862 
 -105780  -105592  -105336  -105331  -105491  -105609  -105848  -105981 
 -105873  -105880  -105903  -105792  -105879  -106118  -106161  -106072 
 -105854  -105501  -105413  -105614  -105759  -105943  -106216  -106312 
 -106191  -106093  -106138  -106020  -105618  -105440  -105544  -105511 
 -105648  -105969  -105888  -105717  -105808  -105875  -105835  -105649 
 -105447  -105491  -105574  -105514  -105479  -105700  -106051  -106164 
 -106253  -106344  -105975  -105583  -105680  -105759  -105555  -105451 
 -105613  -105718  -105559  -105568  -105827  -105691  -105432  -105729 
 -106000  -105734  -105484  -105466  -105397  -105333  -105344  -105484 
 -105798  -105796  -105498  -105517  -105574  -105397  -105370  -105507 
 -105642  -105706  -105683  -105601  -105274  -104892  -105020  -105448 
 -105545  -105439  -105445  -105476  -105588  -105714  -105642  -105574 
 -105457  -105156  -105160  -105487  -105541  -105466  -105583  -105599 
 -105474  -105354  -105279  -105443  -105683  -105765  -105827  -105776 
 -105498  -105216  -104961  -104872  -105140  -105275  -105205  -105524 
 -105838  -105638  -105498  -105551  -105304  -105106  -105403  -105806 
 -105988  -105898  -105511  -105212  -105403  -105790  -105876  -105706 
 -105405  -105079  -105031  -105075  -104985  -105101  -105416  -105607 
 -105603  -105499  -105564  -105702  -105722  -105815  -105750  -105420 
 -105312  -105522  -105931  -106315  -106415  -106493  -106613  -106517 
 -106373  -106200  -105827  -105598  -105645  -105680  -105667  -105676 
 -105916  -106227  -106178  -106209  -106327  -105927  -105664  -105844 
 -105763  -105711  -105958  -105999  -105900  -105892  -106007  -106305 
 -106289  -105956  -106115  -106239  -105642  -105416  -105929  -106068 
 -105582  -105258  -105489  -105765  -105788  -105927  -106092  -106026 
 -106054  -106343  -106648  -106655  -106280  -106012  -105960  -105626 
 -105297  -105316  -105281  -105194  -105328  -105497  -105579  -105618 
 -105633  -105696  -105788  -105956  -106212  -106272  -106042  -105705 
 -105403  -105169  -104943  -104812  -104845  -104916  -104890  -104846 
 -105031  -105352  -105452  -105439  -105625  -105779  -105756  -105854 
 -105880  -105420  -104838  -104623  -104552  -104498  -104726  -105001 
 -105102  -105268  -105410  -105432  -105478  -105499  -105526  -105499 
 -105251  -105105  -105220  -105210  -104993  -104931  -105151  -105349 
 -105370  -105381  -105328  -104969  -104646  -104869  -105155  -105146 
 -105432  -105903  -105902  -105794  -105988  -106003  -105642  -105192 
 -104772  -104637  -104784  -104814  -104878  -105200  -105525  -105760 
 -105869  -105757  -105651  -105749  -105715  -105362  -105363  -105852 
 -106034  -106122  -106351  -106085  -105788  -105853  -105687  -105556 
 -105696  -105676  -105580  -105533  -105498  -105579  -105598  -105502 
 -105540  -105652  -105723  -105787  -105811  -105935  -106185  -106242 
 -106126  -106249  -106579  -106589  -106262  -106138  -106085  -105732 
 -105403  -105405  -105664  -105973  -106045  -105930  -105848  -105699 
 -105560  -105579  -105669  -105876  -106047  -106041  -106153  -106168 
 -105846  -105678  -105586  -105382  -105394  -105306  -105093  -105456 
 -105954  -105799  -105332  -105025  -105067  -105366  -105444  -105339 
 -105324  -105381  -105602  -105787  -105619  -105449  -105625  -105614 
 -105048  -104672  -104799  -104915  -104988  -105054  -105077  -105177 
 -105223  -105464  -106045  -106164  -105767  -105672  -105668  -105387 
 -105368  -105518  -105398  -105378  -105555  -105561  -105356  -105239 
 -105445  -105624  -105435  -105200  -105247  -105510  -105759  -105857 
 -105806  -105857  -106138  -106193  -105894  -105582  -105424  -105522 
 -105653  -105659  -105692  -105692  -105715  -105725  -105703  -105915 
 -106064  -105997  -106066  -106137  -106100  -106050  -105991  -106000 
 -105821  -105398  -105297  -105470  -105449  -105385  -105466  -105684 
 -106003  -106243  -106307  -106030  -105669  -105752  -105788  -105435 
 -105349  -105464  -105312  -105250  -105470  -105656  -105699  -105480 
 -105152  -105196  -105356  -105287  -105221  -105106  -105113  -105507 
 -105775  -105821  -105927  -105780  -105509  -105574  -105664  -105548 
 -105630  -105780  -105430  -105112  -105304  -105258  -105092  -105460 
 -105659  -105402  -105475  -105864  -106056  -106103  -106122  -106012 
 -105779  -105628  -105799  -106137  -106226  -105953  -105478  -105196 
 -105440  -105807  -105850  -105842  -106007  -106209  -106236  -105962 
 -105634  -105476  -105441  -105478  -105571  -105688  -105617  -105336 
 -105294  -105459  -105339  -105224  -105408  -105347  -105174  -105534 
 -106010  -106023  -105844  -105648  -105441  -105511  -105671  -105532 
 -105368  -105306  -105197  -105268  -105522  -105696  -105864  -106022 
 -105976  -105853  -105791  -105607  -105344  -105294  -105490  -105661 
 -105642  -105676  -105888  -105977  -106065  -106434  -106510  -106045 
 -105761  -105750  -105582  -105490  -105652  -105821  -105989  -106137 
 -106058  -105884  -105703  -105475  -105448  -105435  -105260  -105430 
 -105765  -105788  -105726  -105629  -105521  -105595  -105673  -105565 
 -105305  -105206  -105352  -105281  -105061  -105043  -105160  -105444 
 -105742  -105757  -105614  -105493  -105367  -105140  -105020  -105223 
 -105310  -105259  -105428  -105399  -105239  -105417  -105472  -105231 
 -105212  -105294  -105108  -105001  -105133  -105169  -105225  -105370 
 -105374  -105359  -105387  -105327  -105235  -105198  -105128  -105139 
 -105448  -105699  -105714  -105844  -105970  -105853  -105753  -105769 
 -105750  -105834  -105993  -105933  -105900  -105987  -105791  -105607 
 -105775  -105942  -105946  -105826  -105717  -105837  -105822  -105462 
 -105394  -105690  -105675  -105493  -105601  -105659  -105564  -105601 
 -105628  -105629  -105638  -105478  -105285  -105220  -105115  -105009 
 -105279  -105637  -105575  -105510  -105579  -105505  -105565  -105705 
 -105663  -105576  -105443  -105371  -105397  -105367  -105413  -105455 
 -105517  -105749  -105752  -105574  -105667  -105776  -105661  -105684 
 -105949  -106054  -105985  -105966  -105853  -105817  -106119  -106326 
 -106209  -106191  -106308  -106162  -105906  -105925  -106062  -106000 
 -105803  -105796  -105875  -105746  -105619  -105602  -105618  -105730 
 -105838  -105856  -105765  -105597  -105520  -105455  -105305  -105243 
 -105243  -105254  -105372  -105371  -105286  -105491  -105636  -105501 
 -105514  -105556  -105528  -105760  -105969  -105860  -105776  -105792 
 -105742  -105741  -105860  -106035  -106184  -106146  -105934  -105835 
 -105919  -105939  -105923  -106068  -106153  -106023  -105952  -105957 
 -105933  -106018  -106232  -106392  -106258  -106010  -106014  -106000 
 -105833  -105834  -105938  -105991  -106022  -105929  -105698  -105494 
 -105410  -105417  -105363  -105160  -105039  -105036  -104951  -104993 
 -105247  -105316  -105260  -105306  -105216  -105078  -105217  -105370 
 -105390  -105489  -105475  -105236  -105085  -104998  -104900  -104966 
 -105100  -105082  -104939  -104876  -105025  -105213  -105283  -105385 
 -105426  -105268  -105225  -105379  -105543  -105628  -105447  -105170 
 -105198  -105399  -105529  -105591  -105483  -105302  -105430  -105668 
 -105586  -105470  -105619  -105673  -105528  -105513  -105459  -105271 
 -105256  -105352  -105439  -105487  -105522  -105618  -105578  -105528 
 -105672  -105822  -105968  -106072  -106012  -105918  -105821  -105765 
 -105842  -105898  -105850  -105825  -105795  -105625  -105561  -105871 
 -106042  -105814  -105760  -105923  -105862  -105673  -105595  -105586 
 -105599  -105644  -105676  -105714  -105723  -105667  -105710  -105729 
 -105506  -105278  -105209  -105293  -105422  -105428  -105493  -105680 
 -105725  -105667  -105626  -105529  -105437  -105447  -105520  -105553 
 -105483  -105416  -105409  -105349  -105302  -105385  -105514  -105529 
 -105428  -105524  -105736  -105705  -105769  -105891  -105671  -105598 
 -105777  -105738  -105640  -105645  -105692  -105837  -105927  -105873 
