Origin Time       2024/04/02 04:24:00
Lat.              40.133
Long.             141.712
Depth. (km)       71
Mag.              6.0
Station Code      IBRH09
Station Lat.      36.4390
Station Long.     140.3559
Station Height(m) -55.5
Record Time       2024/04/02 04:26:16
Sampling Freq(Hz) 100Hz
Duration Time(s)  120
Dir.              3
Scale Factor      2942(gal)/8224139
Max. Acc. (gal)   0.316
Last Correction   2024/04/02 04:26:17
Memo.             
[...]
 -261473  -261627  -261519  -261436  -261445  -261535  -261665  -261613 
 -261517  -261582  -261642  -261605  -261534  -261554  -261715  -261689 
 -261454  -261395  -261465  -261458  -261392  -261374  -261455  -261382 
 -261168  -261168  -261320  -261450  -261478  -261368  -261380  -261495 
 -261459  -261404  -261463  -261620  -261732  -261619  -261488  -261596 
 -261693  -261570  -261528  -261712  -261796  -261640  -261484  -261455 
 -261453  -261432  -261466  -261462  -261364  -261366  -261397  -261273 
 -261199  -261227  -261227  -261285  -261326  -261300  -261357  -261451 
 -261511  -261526  -261436  -261378  -261446  -261441  -261408  -261497 
 -261490  -261346  -261292  -261353  -261403  -261374  -261323  -261342 
 -261393  -261401  -261387  -261396  -261470  -261509  -261411  -261353 
 -261391  -261377  -261400  -261508  -261489  -261393  -261458  -261600 
 -261600  -261478  -261447  -261620  -261779  -261623  -261378  -261447 
 -261558  -261454  -261411  -261449  -261459  -261528  -261567  -261508 
 -261391  -261311  -261395  -261449  -261351  -261303  -261306  -261250 
 -261192  -261276  -261416  -261434  -261432  -261382  -261280  -261389 
 -261544  -261489  -261358  -261326  -261387  -261446  -261463  -261459 
 -261488  -261617  -261735  -261659  -261539  -261578  -261669  -261694 
 -261625  -261562  -261603  -261549  -261449  -261473  -261447  -261373 
 -261320  -261295  -261387  -261432  -261380  -261473  -261570  -261482 
 -261396  -261461  -261623  -261721  -261692  -261642  -261617  -261651 
 -261754  -261719  -261553  -261547  -261608  -261527  -261465  -261490 
 -261476  -261495  -261578  -261495  -261277  -261242  -261405  -261482 
 -261412  -261461  -261550  -261424  -261391  -261576  -261667  -261696 
 -261650  -261496  -261492  -261517  -261455  -261501  -261526  -261412 
 -261337  -261393  -261511  -261515  -261412  -261377  -261389  -261382 
 -261408  -261388  -261281  -261256  -261306  -261307  -261311  -261350 
 -261388  -261453  -261519  -261465  -261355  -261408  -261567  -261567 
 -261432  -261372  -261362  -261306  -261252  -261279  -261380  -261362 
 -261114  -261058  -261322  -261345  -261127  -261127  -261319  -261395 
 -261288  -261264  -261316  -261226  -261199  -261351  -261434  -261335 
 -261246  -261428  -261688  -261604  -261499  -261742  -261850  -261628 
 -261481  -261492  -261478  -261355  -261256  -261283  -261314  -261260 
 -261156  -261187  -261315  -261299  -261304  -261478  -261554  -261445 
 -261387  -261457  -261474  -261368  -261338  -261511  -261679  -261739 
 -261721  -261644  -261775  -261963  -261793  -261704  -261844  -261685 
 -261503  -261612  -261632  -261526  -261490  -261472  -261426  -261407 
 -261430  -261354  -261214  -261247  -261370  -261432  -261459  -261438 
 -261369  -261284  -261301  -261453  -261473  -261335  -261361  -261534 
 -261582  -261516  -261515  -261563  -261582  -261620  -261669  -261661 
 -261662  -261711  -261684  -261590  -261635  -261751  -261767  -261702 
 -261547  -261415  -261430  -261493  -261611  -261679  -261580  -261478 
 -261462  -261511  -261547  -261499  -261480  -261511  -261531  -261561 
 -261565  -261574  -261647  -261704  -261702  -261632  -261543  -261527 
 -261486  -261418  -261495  -261601  -261530  -261465  -261550  -261534 
 -261414  -261465  -261561  -261470  -261357  -261372  -261432  -261407 
 -261335  -261395  -261486  -261503  -261442  -261323  -261420  -261623 
 -261531  -261355  -261377  -261458  -261481  -261455  -261423  -261462 
 -261528  -261484  -261320  -261142  -261139  -261308  -261250  -261021 
 -261118  -261426  -261465  -261230  -261137  -261261  -261330  -261291 
 -261126  -261063  -261301  -261397  -261227  -261223  -261416  -261489 
 -261384  -261291  -261333  -261451  -261485  -261470  -261481  -261373 
 -261225  -261265  -261472  -261597  -261513  -261505  -261644  -261590 
 -261388  -261346  -261511  -261644  -261540  -261443  -261454  -261372 
 -261411  -261620  -261677  -261674  -261689  -261527  -261354  -261412 
 -261540  -261532  -261462  -261411  -261326  -261322  -261495  -261613 
 -261628  -261690  -261690  -261604  -261590  -261677  -261750  -261670 
 -261519  -261509  -261627  -261620  -261462  -261384  -261486  -261685 
 -261613  -261399  -261563  -261725  -261636  -261609  -261585  -261553 
 -261497  -261453  -261542  -261457  -261243  -261276  -261320  -261185 
 -261146  -261312  -261420  -261277  -261196  -261370  -261446  -261436 
 -261600  -261658  -261516  -261411  -261339  -261339  -261412  -261443 
 -261461  -261469  -261488  -261551  -261481  -261311  -261316  -261459 
 -261557  -261585  -261584  -261540  -261528  -261652  -261658  -261496 
 -261547  -261696  -261549  -261276  -261252  -261312  -261226  -261274 
 -261443  -261424  -261391  -261482  -261503  -261408  -261438  -261652 
 -261721  -261588  -261528  -261492  -261341  -261308  -261476  -261511 
 -261322  -261106  -261107  -261269  -261237  -261161  -261285  -261470 
 -261585  -261478  -261310  -261354  -261430  -261395  -261453  -261635 
 -261532  -261144  -261026  -261223  -261435  -261576  -261563  -261435 
 -261249  -261107  -261246  -261382  -261270  -261234  -261269  -261374 
 -261501  -261287  -261161  -261505  -261712  -261455  -261187  -261337 
 -261617  -261658  -261717  -261804  -261620  -261396  -261445  -261553 
 -261507  -261504  -261621  -261694  -261600  -261280  -261080  -261207 
 -261273  -261266  -261380  -261432  -261453  -261458  -261306  -261299 
 -261535  -261523  -261303  -261414  -261634  -261497  -261399  -261582 
 -261597  -261455  -261511  -261597  -261476  -261439  -261536  -261368 
 -261071  -261044  -261192  -261207  -261166  -261392  -261673  -261654 
 -261638  -261779  -261860  -261924  -261860  -261717  -261740  -261627 
 -261360  -261243  -261172  -261222  -261366  -261243  -261009  -261054 
 -261409  -261802  -261754  -261397  -261496  -261878  -261779  -261476 
 -261658  -262132  -262194  -261800  -261458  -261297  -261288  -261461 
 -261557  -261512  -261468  -261292  -261061  -260969  -260961  -261104 
 -261292  -261274  -261247  -261303  -261381  -261569  -261754  -261883 
 -261949  -261948  -261994  -261913  -261732  -261797  -261913  -261744 
 -261500  -261473  -261490  -261361  -261365  -261484  -261366  -261219 
 -261354  -261481  -261320  -261177  -261211  -261177  -261144  -261141 
 -260963  -260923  -261273  -261535  -261395  -261129  -260983  -261058 
 -261316  -261446  -261412  -261539  -261717  -261603  -261372  -261397 
 -261476  -261316  -261273  -261472  -261509  -261380  -261258  -261283 
 -261538  -261651  -261486  -261366  -261281  -261207  -261301  -261353 
 -261117  -260972  -261285  -261634  -261647  -261617  -261760  -262005 
 -262116  -261755  -261207  -261176  -261528  -261536  -261210  -261127 
 -261289  -261299  -261206  -261295  -261462  -261507  -261577  -261705 
 -261814  -261976  -261864  -261523  -261547  -261736  -261746  -261605 
 -261337  -261318  -261501  -261507  -261625  -261851  -261889  -261924 
 -261839  -261673  -261812  -261820  -261586  -261720  -261914  -261733 
 -261515  -261438  -261297  -260984  -260778  -260969  -261373  -261593 
 -261465  -261353  -261513  -261666  -261630  -261432  -261331  -261567 
 -261671  -261397  -261292  -261382  -261358  -261378  -261446  -261450 
 -261522  -261594  -261513  -261337  -261198  -261226  -261273  -261156 
 -261099  -261191  -261324  -261557  -261771  -261762  -261505  -261219 
 -261187  -261420  -261701  -261801  -261688  -261513  -261354  -261242 
 -261280  -261472  -261550  -261409  -261314  -261326  -261370  -261515 
 -261756  -261824  -261454  -261176  -261450  -261715  -261698  -261592 
 -261458  -261473  -261565  -261526  -261497  -261631  -261773  -261670 
 -261343  -261165  -261277  -261296  -261119  -261065  -261139  -261199 
 -261249  -261310  -261326  -261227  -261154  -261189  -261296  -261455 
 -261480  -261512  -261662  -261604  -261458  -261349  -261115  -261041 
 -261247  -261408  -261496  -261577  -261455  -261214  -261196  -261233 
 -261014  -260932  -261191  -261306  -261323  -261589  -261809  -261960 
 -262203  -262148  -261918  -261917  -261854  -261705  -261640  -261507 
 -261539  -261824  -261840  -261569  -261550  -261766  -261750  -261569 
 -261551  -261558  -261488  -261484  -261519  -261596  -261812  -262025 
 -261993  -261777  -261573  -261420  -261451  -261596  -261594  -261700 
 -261929  -261839  -261690  -261864  -261985  -261816  -261654  -261581 
 -261520  -261522  -261509  -261557  -261717  -261690  -261401  -261107 
 -261175  -261646  -261881  -261670  -261625  -261833  -261790  -261574 
 -261644  -261867  -261873  -261662  -261577  -261868  -261991  -261675 
 -261554  -261516  -261193  -260940  -260959  -261258  -261485  -261345 
 -261304  -261333  -261250  -261346  -261407  -261499  -261821  -261975 
 -261966  -261844  -261532  -261397  -261559  -261706  -261519  -261160 
 -261191  -261351  -261179  -261085  -261185  -261207  -261310  -261543 
 -261632  -261524  -261463  -261430  -261204  -260973  -260923  -260926 
 -261033  -261396  -261729  -261650  -261353  -261247  -261291  -261266 
 -261148  -261002  -260998  -261226  -261403  -261269  -260992  -260960 
 -261277  -261461  -261245  -261121  -261272  -261220  -261094  -261424 
 -261748  -261578  -261424  -261503  -261657  -261781  -261596  -261374 
 -261401  -261280  -261133  -261166  -261144  -261173  -261061  -260679 
 -260628  -260857  -260992  -261301  -261821  -262128  -262035  -261925 
 -262099  -262194  -262036  -261850  -261698  -261499  -261301  -261289 
 -261250  -261099  -261054  -260965  -260959  -261183  -261311  -261319 
 -261297  -261237  -261233  -261257  -261229  -261287  -261557  -261782 
 -261809  -261824  -261796  -261679  -261651  -261650  -261634  -261679 
 -261620  -261423  -261281  -261187  -261171  -261304  -261419  -261369 
 -261243  -261276  -261550  -261817  -261858  -261694  -261485  -261488 
 -261692  -261809  -261858  -261910  -261848  -261754  -261669  -261422 
 -261106  -260963  -260964  -261049  -261168  -261173  -261102  -261090 
 -261166  -261257  -261306  -261385  -261380  -261288  -261311  -261257 
 -261129  -261295  -261493  -261279  -261036  -261270  -261684  -261939 
 -262009  -261825  -261720  -261833  -261721  -261480  -261530  -261754 
 -261805  -261651  -261581  -261632  -261458  -261277  -261681  -262183 
 -262152  -261944  -261725  -261536  -261585  -261582  -261516  -261719 
 -261913  -261855  -261640  -261405  -261455  -261585  -261396  -261350 
 -261549  -261450  -261277  -261343  -261447  -261492  -261353  -261134 
 -261119  -261204  -261281  -261451  -261557  -261468  -261468  -261565 
 -261468  -261303  -261380  -261657  -261839  -261829  -261738  -261577 
 -261396  -261315  -261430  -261682  -261725  -261632  -261646  -261466 
 -261339  -261688  -261982  -261927  -261794  -261581  -261424  -261547 
 -261627  -261411  -261063  -260853  -260930  -261027  -261064  -261215 
 -261333  -261382  -261395  -261350  -261538  -261858  -261939  -261995 
 -262141  -262121  -261936  -261748  -261681  -261705  -261665  -261567 
 -261450  -261192  -260848  -260802  -261083  -261220  -261203  -261324 
 -261396  -261301  -261264  -261200  -261144  -261368  -261588  -261492 
 -261274  -261158  -261222  -261324  -261430  -261643  -261731  -261623 
 -261412  -261092  -260988  -261153  -261289  -261466  -261601  -261489 
 -261422  -261477  -261293  -261025  -261081  -261252  -261320  -261455 
 -261561  -261534  -261480  -261360  -261229  -261253  -261408  -261571 
 -261566  -261434  -261345  -261153  -261006  -261320  -261724  -261777 
 -261742  -261709  -261605  -261534  -261468  -261455  -261484  -261504 
 -261679  -261796  -261566  -261227  -261103  -261187  -261195  -261060 
 -261060  -261207  -261277  -261334  -261477  -261447  -261308  -261374 
 -261424  -261380  -261513  -261690  -261731  -261733  -261550  -261156 
 -261069  -261331  -261486  -261527  -261567  -261507  -261443  -261480 
 -261450  -261470  -261719  -261905  -261846  -261739  -261729  -261611 
 -261364  -261347  -261397  -261333  -261486  -261681  -261581  -261369 
 -261181  -261125  -261287  -261492  -261635  -261732  -261871  -262016 
 -261840  -261490  -261411  -261438  -261387  -261400  -261409  -261339 
 -261281  -261345  -261549  -261705  -261781  -261863  -261885  -261905 
 -261986  -261925  -261634  -261357  -261331  -261395  -261319  -261280 
 -261365  -261423  -261468  -261462  -261454  -261693  -261948  -261858 
 -261740  -261832  -261775  -261671  -261794  -261724  -261513  -261607 
 -261787  -261802  -261526  -261184  -261393  -261750  -261640  -261570 
 -261634  -261420  -261161  -261084  -261068  -261215  -261484  -261470 
 -261260  -261196  -261211  -261308  -261517  -261639  -261603  -261573 
 -261640  -261519  -261266  -261301  -261405  -261520  -261882  -261920 
 -261441  -261118  -261071  -261123  -261233  -261202  -261098  -261158 
 -261280  -261258  -261207  -261307  -261420  -261463  -261503  -261451 
 -261422  -261550  -261630  -261505  -261349  -261426  -261625  -261617 
 -261507  -261592  -261731  -261704  -261601  -261423  -261270  -261328 
 -261291  -261130  -261138  -261168  -261149  -261184  -261296  -261458 
 -261463  -261277  -261166  -261299  -261488  -261523  -261588  -261635 
 -261341  -261085  -261231  -261295  -261191  -261331  -261473  -261439 
 -261607  -261843  -261820  -261636  -261453  -261504  -261630  -261434 
 -261308  -261481  -261520  -261441  -261473  -261482  -261486  -261671 
 -261828  -261775  -261642  -261504  -261501  -261636  -261627  -261484 
 -261415  -261261  -260867  -260594  -260621  -260614  -260587  -260807 
 -261044  -261065  -261161  -261395  -261524  -261603  -261666  -261697 
 -261740  -261658  -261635  -261793  -261736  -261601  -261632  -261555 
 -261420  -261374  -261268  -261189  -261289  -261392  -261288  -261152 
 -261219  -261297  -261265  -261354  -261461  -261364  -261337  -261546 
 -261613  -261446  -261468  -261550  -261276  -261013  -261058  -261162 
 -261380  -261526  -261285  -261196  -261466  -261607  -261662  -261787 
 -261751  -261551  -261443  -261536  -261719  -261794  -261735  -261690 
 -261705  -261725  -261729  -261725  -261808  -261932  -261885  -261746 
 -261709  -261628  -261451  -261378  -261338  -261310  -261377  -261393 
 -261586  -261905  -261882  -261900  -262167  -262141  -261900  -261875 
 -261891  -261694  -261566  -261562  -261450  -261414  -261476  -261361 
 -261187  -261239  -261400  -261408  -261418  -261613  -261786  -261679 
 -261372  -261269  -261430  -261608  -261770  -261758  -261624  -261689 
 -261774  -261742  -261813  -261885  -261782  -261681  -261677  -261666 
 -261657  -261613  -261446  -261307  -261318  -261380  -261415  -261435 
 -261493  -261589  -261731  -261914  -261945  -261835  -261868  -261908 
 -261775  -261744  -261748  -261553  -261405  -261357  -261229  -261110 
 -261087  -261077  -261009  -261072  -261279  -261265  -261183  -261200 
 -261154  -261226  -261304  -261216  -261268  -261396  -261434  -261482 
 -261493  -261528  -261631  -261647  -261713  -261781  -261531  -261206 
 -261010  -260803  -260759  -260964  -261195  -261289  -261203  -261092 
 -261048  -261011  -261000  -260992  -261065  -261215  -261188  -261017 
 -260940  -261026  -261204  -261279  -261257  -261315  -261335  -261293 
 -261401  -261580  -261589  -261453  -261395  -261481  -261532  -261478 
 -261501  -261600  -261549  -261468  -261535  -261592  -261688  -261779 
 -261616  -261447  -261457  -261536  -261700  -261777  -261708  -261661 
 -261592  -261472  -261382  -261380  -261507  -261652  -261689  -261732 
 -261883  -261963  -261816  -261623  -261578  -261588  -261604  -261624 
 -261585  -261574  -261443  -261207  -261254  -261331  -261219  -261252 
 -261346  -261343  -261372  -261364  -261171  -261006  -261193  -261463 
 -261463  -261485  -261624  -261597  -261480  -261520  -261604  -261509 
 -261500  -261632  -261500  -261385  -261585  -261613  -261474  -261523 
 -261539  -261499  -261540  -261453  -261334  -261258  -260986  -260815 
 -260944  -261084  -261206  -261300  -261369  -261435  -261377  -261377 
 -261527  -261547  -261509  -261589  -261650  -261621  -261557  -261520 
 -261569  -261657  -261666  -261590  -261573  -261609  -261580  -261503 
 -261507  -261601  -261536  -261330  -261269  -261292  -261314  -261368 
 -261376  -261374  -261395  -261438  -261468  -261377  -261301  -261415 
 -261477  -261328  -261247  -261280  -261299  -261269  -261156  -261121 
 -261156  -261111  -261149  -261315  -261482  -261565  -261543  -261555 
 -261547  -261418  -261360  -261418  -261478  -261476  -261392  -261397 
 -261461  -261315  -261134  -261161  -261184  -261160  -261270  -261312 
 -261183  -261212  -261409  -261503  -261531  -261621  -261728  -261670 
 -261553  -261685  -261882  -261940  -261968  -261932  -261812  -261652 
 -261507  -261481  -261513  -261526  -261551  -261555  -261509  -261391 
 -261303  -261426  -261578  -261605  -261589  -261507  -261405  -261380 
 -261341  -261311  -261376  -261381  -261308  -261377  -261520  -261490 
 -261378  -261388  -261426  -261365  -261285  -261330  -261532  -261684 
 -261605  -261515  -261593  -261611  -261530  -261566  -261630  -261673 
 -261852  -261995  -261886  -261663  -261569  -261729  -261894  -261844 
 -261774  -261742  -261694  -261646  -261517  -261382  -261351  -261331 
 -261237  -261169  -261281  -261511  -261615  -261559  -261576  -261721 
 -261797  -261767  -261774  -261809  -261786  -261797  -261893  -261850 
 -261666  -261574  -261512  -261405  -261343  -261291  -261225  -261231 
 -261296  -261234  -261096  -261179  -261419  -261528  -261439  -261300 
 -261234  -261225  -261285  -261399  -261474  -261400  -261085  -260878 
 -261117  -261411  -261442  -261389  -261364  -261327  -261304  -261350 
 -261415  -261468  -261530  -261461  -261304  -261339  -261462  -261484 
 -261543  -261684  -261760  -261647  -261365  -261176  -261235  -261326 
 -261220  -261125  -261195  -261223  -261254  -261414  -261590  -261712 
 -261767  -261829  -261870  -261715  -261447  -261342  -261446  -261553 
 -261472  -261203  -261009  -261102  -261225  -261208  -261303  -261404 
 -261260  -261127  -261239  -261430  -261520  -261519  -261434  -261293 
 -261219  -261184  -261187  -261318  -261376  -261307  -261357  -261449 
 -261457  -261478  -261555  -261662  -261654  -261459  -261355  -261493 
 -261557  -261447  -261385  -261303  -261206  -261249  -261225  -261133 
 -261235  -261365  -261368  -261378  -261446  -261474  -261373  -261316 
 -261468  -261574  -261472  -261358  -261347  -261349  -261342  -261360 
 -261384  -261497  -261731  -261809  -261684  -261635  -261674  -261665 
 -261589  -261504  -261571  -261725  -261708  -261616  -261643  -261697 
 -261700  -261704  -261754  -261832  -261837  -261720  -261590  -261597 
 -261704  -261755  -261769  -261773  -261759  -261786  -261766  -261658 
 -261657  -261787  -261783  -261555  -261469  -261613  -261586  -261436 
 -261387  -261303  -261234  -261250  -261274  -261308  -261295  -261252 
 -261316  -261465  -261473  -261262  -261072  -261065  -261129  -261161 
 -261215  -261279  -261299  -261345  -261373  -261274  -261144  -261139 
 -261231  -261246  -261218  -261274  -261323  -261297  -261301  -261395 
 -261501  -261561  -261612  -261601  -261478  -261409  -261500  -261643 
 -261721  -261667  -261536  -261459  -261420  -261387  -261392  -261451 
 -261520  -261445  -261249  -261222  -261347  -261350  -261351  -261461 
