Origin Time       2024/04/02 04:24:00
Lat.              40.133
Long.             141.712
Depth. (km)       71
Mag.              6.0
Station Code      IBRH13
Station Lat.      36.7955
Station Long.     140.5750
Station Height(m) 505
Record Time       2024/04/02 04:25:30
Sampling Freq(Hz) 100Hz
Duration Time(s)  120
Dir.              4
Scale Factor      7845(gal)/8223790
Max. Acc. (gal)   4.241
Last Correction   2024/04/02 04:25:30
Memo.             
[...]
   -4183    -4430    -4594    -4402    -4199    -4314    -4769    -5254 
   -5278    -4870    -4490    -4436    -4758    -5159    -5329    -5367 
   -5525    -5782    -5856    -5818    -5977    -5991    -5543    -5265 
   -5597    -6039    -6021    -5528    -5001    -4619    -4456    -4907 
   -5394    -5092    -4793    -4951    -4760    -4217    -3939    -3978 
   -3944    -3797    -3979    -4340    -4450    -4433    -4332    -4380 
   -4877    -5135    -4869    -4884    -5209    -5244    -5224    -5741 
   -6523    -6658    -6214    -6006    -5950    -5738    -5525    -5293 
   -5142    -5067    -4784    -4730    -5204    -5346    -4887    -4604 
   -4685    -4711    -4345    -3642    -3434    -4108    -4598    -4356 
   -4297    -4706    -4812    -4415    -4151    -4472    -5030    -5324 
   -5409    -5462    -5422    -5246    -5240    -5675    -6029    -5795 
   -5381    -5418    -5807    -5769    -5130    -4665    -4795    -4988 
   -4837    -4891    -5263    -5188    -4772    -4666    -4666    -4369 
   -4066    -4203    -4634    -4866    -4673    -4430    -4592    -4846 
   -4700    -4502    -4865    -5463    -5607    -5651    -6057    -6061 
   -5227    -4681    -5089    -5595    -5752    -5834    -5574    -4945 
   -4799    -5229    -5259    -4922    -5128    -5416    -4901    -4334 
   -4526    -4818    -4614    -4372    -4386    -4415    -4553    -4783 
   -4660    -4406    -4521    -4734    -4803    -4966    -5167    -5128 
   -5155    -5603    -5809    -5379    -5194    -5494    -5472    -5073 
   -4973    -5229    -5325    -5262    -5163    -4796    -4711    -5377 
   -5857    -5695    -5428    -5155    -4916    -4976    -5026    -4688 
   -4482    -4669    -4625    -4433    -4611    -4754    -4592    -4522 
   -4457    -4236    -4313    -4622    -4611    -4444    -4380    -4421 
   -4774    -5119    -4922    -4673    -4792    -4887    -4927    -5078 
   -5204    -5381    -5695    -5965    -6069    -6039    -5869    -5421 
   -4878    -4715    -4833    -4864    -5027    -5499    -5732    -5337 
   -4870    -4787    -4626    -4283    -4232    -4307    -4328    -4511 
   -4626    -4507    -4437    -4469    -4507    -4571    -4722    -4950 
   -5135    -5323    -5470    -5343    -5266    -5578    -5765    -5489 
   -5223    -5321    -5440    -5354    -5452    -5640    -5381    -4935 
   -4668    -4467    -4638    -5231    -5435    -4900    -4093    -3738 
   -4257    -5012    -5023    -4492    -4503    -5151    -5328    -5036 
   -5178    -5239    -4720    -4599    -4958    -4853    -4666    -5097 
   -5468    -5277    -5104    -5302    -5583    -5707    -5502    -4865 
   -4415    -4843    -5514    -5719    -5809    -5722    -5151    -4760 
   -5028    -5350    -5324    -5229    -4993    -4491    -4283    -4585 
   -4707    -4483    -4661    -5246    -5367    -4993    -4824    -4757 
   -4453    -4365    -4503    -4440    -4436    -4742    -5148    -5356 
   -5225    -4990    -5011    -5424    -5910    -5857    -5337    -5081 
   -5265    -5459    -5557    -5626    -5335    -4749    -4571    -4842 
   -4936    -4861    -5003    -5132    -4968    -4716    -4600    -4698 
   -4847    -4710    -4321    -4078    -4104    -4202    -4394    -4730 
   -4936    -4931    -5004    -5260    -5364    -5116    -5034    -5447 
   -5495    -4830    -4515    -4739    -4878    -5093    -5255    -4901 
   -4577    -4905    -5306    -5320    -5375    -5370    -5152    -5113 
   -4932    -4549    -4630    -4974    -5189    -5459    -5682    -5548 
   -5124    -4831    -4698    -4309    -4064    -4437    -4826    -5132 
   -5548    -5297    -4560    -4592    -5131    -5390    -5667    -5840 
   -5448    -4962    -4931    -5273    -5605    -5653    -5514    -5255 
   -4882    -4772    -4773    -4275    -3954    -4592    -5047    -4553 
   -4345    -4877    -4887    -4247    -4209    -4615    -4506    -4468 
   -5053    -5382    -5143    -4842    -4673    -4959    -5543    -5549 
   -5179    -5260    -5551    -5544    -5536    -5765    -5748    -5456 
   -5520    -5737    -5505    -5090    -4873    -4556    -4189    -4414 
   -4899    -4739    -4356    -4576    -4928    -4716    -4483    -4895 
   -5204    -4831    -4618    -4918    -5292    -5617    -5634    -5208 
   -4880    -4923    -4995    -5058    -5405    -5778    -5560    -4822 
   -4274    -4167    -4151    -4207    -4611    -5131    -5244    -5017 
   -4804    -4693    -4811    -5059    -5158    -5231    -5362    -5385 
   -5152    -4653    -4430    -4918    -5418    -5325    -5163    -5358 
   -5564    -5391    -4862    -4407    -4433    -4752    -4943    -4951 
   -4872    -4800    -4799    -4677    -4517    -4784    -5271    -5319 
   -4978    -4808    -4939    -5005    -4986    -5251    -5495    -5265 
   -5107    -5420    -5782    -5998    -5887    -5192    -4483    -4241 
   -4091    -3915    -4013    -4526    -5105    -5109    -4731    -4689 
   -4781    -4545    -4332    -4459    -4754    -5080    -5163    -4903 
   -4849    -5086    -4969    -4634    -4765    -5238    -5557    -5547 
   -5429    -5522    -5557    -5309    -5227    -5513    -5753    -5665 
   -5537    -5503    -5271    -4811    -4340    -4068    -4147    -4355 
   -4504    -4733    -5050    -5228    -5301    -5470    -5479    -5189 
   -5071    -5246    -5270    -5035    -4849    -4924    -5107    -5097 
   -5000    -5017    -4984    -4934    -5051    -5103    -5038    -5159 
   -5247    -4779    -4271    -4533    -4885    -4634    -4282    -4176 
   -4399    -4873    -5181    -5297    -5433    -5597    -5584    -5306 
   -5229    -5377    -5147    -4833    -4896    -4950    -4920    -5109 
   -5310    -5158    -4811    -4838    -5177    -5124    -4738    -4587 
   -4509    -4297    -4352    -4550    -4399    -4318    -4710    -5074 
   -5098    -5046    -5115    -5233    -5312    -5320    -5200    -5047 
   -5174    -5552    -5636    -5347    -5287    -5571    -5811    -5842 
   -5462    -4680    -4217    -4363    -4459    -4519    -5040    -5354 
   -4997    -4629    -4419    -4330    -4507    -4585    -4533    -4712 
   -4981    -5115    -5088    -5057    -5173    -5251    -5275    -5337 
   -5294    -5255    -5377    -5471    -5366    -5227    -5275    -5333 
   -5366    -5586    -5524    -4873    -4456    -4630    -4838    -4908 
   -4897    -4992    -5337    -5144    -4224    -3879    -4422    -4757 
   -4585    -4521    -4515    -4442    -4959    -5706    -5498    -5005 
   -5258    -5281    -4693    -4720    -5331    -5471    -5227    -5296 
   -5347    -4711    -4261    -4781    -5344    -5575    -5752    -5467 
   -5047    -5181    -5333    -5121    -5030    -5177    -5115    -4712 
   -4519    -4677    -4623    -4615    -5066    -5262    -4959    -4843 
   -4946    -4869    -4855    -5202    -5382    -5036    -4749    -4739 
   -4495    -4085    -4040    -4596    -5524    -5879    -5254    -4648 
   -4665    -4942    -5130    -5136    -5044    -4793    -4465    -4414 
   -4529    -4598    -4927    -5381    -5352    -5209    -5408    -5333 
   -4943    -4857    -4847    -4580    -4455    -4774    -5286    -5499 
   -5173    -4683    -4550    -4695    -4835    -4984    -5123    -5161 
   -5107    -5082    -5265    -5371    -4999    -4707    -5063    -5424 
   -5319    -5179    -5344    -5691    -5776    -5479    -5181    -4833 
   -4359    -4294    -4567    -4719    -4942    -5221    -5401    -5487 
   -5193    -4866    -4953    -4761    -4199    -4193    -4645    -4804 
   -4811    -5005    -5012    -4729    -4654    -4804    -4963    -5289 
   -5655    -5717    -5494    -5290    -5260    -5181    -4963    -4707 
   -4361    -4260    -4909    -5764    -5784    -5300    -5258    -5273 
   -4839    -4569    -4718    -4986    -5337    -5458    -5044    -4541 
   -4395    -4519    -4631    -4522    -4432    -4756    -5208    -5236 
   -4993    -4837    -4750    -4685    -4746    -5026    -5305    -5362 
   -5486    -5757    -5647    -5007    -4510    -4700    -5121    -5292 
   -5479    -5602    -5374    -5244    -5437    -5428    -5108    -4924 
   -4897    -4741    -4475    -4245    -4212    -4394    -4514    -4510 
   -4622    -5015    -5563    -5567    -4762    -4171    -4332    -4658 
   -5040    -5441    -5286    -4791    -4716    -5054    -5340    -5350 
   -5193    -5043    -4930    -4774    -4612    -4811    -5443    -5841 
   -5532    -4783    -4220    -4221    -4433    -4553    -4872    -5296 
   -5552    -5809    -5856    -5400    -5024    -5051    -4820    -4464 
   -4901    -5610    -5536    -5076    -4893    -4843    -4735    -4747 
   -5073    -5437    -5325    -4969    -4878    -4789    -4591    -4646 
   -4716    -4606    -4689    -4851    -4676    -4436    -4639    -5155 
   -5570    -5710    -5556    -5328    -5108    -4723    -4450    -4560 
   -4789    -4911    -4858    -4826    -5227    -5807    -5791    -5182 
   -4747    -4816    -4951    -4808    -4626    -4672    -4807    -4783 
   -4604    -4637    -4966    -5080    -4927    -5085    -5445    -5458 
   -5391    -5571    -5501    -5101    -5028    -5402    -5649    -5394 
   -4915    -4631    -4499    -4369    -4406    -4811    -5371    -5485 
   -5046    -4870    -5093    -4843    -4372    -4472    -4729    -4818 
   -4988    -4919    -4716    -4916    -4796    -4016    -3924    -5009 
   -5967    -5887    -5462    -5467    -5510    -5302    -5166    -5054 
   -4866    -4834    -4927    -4945    -4874    -4827    -4976    -5270 
   -5456    -5464    -5294    -5088    -5101    -5009    -4364    -3775 
   -4062    -4654    -4720    -4757    -5289    -5699    -5557    -5223 
   -4926    -4718    -4729    -4899    -5053    -5105    -5035    -4911 
   -4791    -4614    -4571    -4824    -5043    -5174    -5485    -5641 
   -5313    -4999    -5124    -5347    -5148    -4672    -4696    -5155 
   -5215    -5109    -5298    -5310    -4986    -4737    -4839    -5088 
   -4935    -4545    -4617    -4986    -4888    -4455    -4564    -5047 
   -5003    -4639    -4573    -4762    -4945    -4822    -4631    -4658 
   -4465    -4433    -5057    -5471    -5296    -5050    -5100    -5436 
   -5529    -5412    -5494    -5435    -5285    -5327    -5255    -5224 
   -5494    -5678    -5445    -5039    -4935    -4891    -4627    -4806 
   -5194    -4874    -4421    -4707    -5368    -5571    -5198    -4881 
   -4731    -4554    -4569    -4681    -4762    -4957    -5003    -4897 
   -4908    -4754    -4685    -5170    -5404    -4947    -4679    -4868 
   -5020    -5073    -5078    -4993    -5035    -5292    -5413    -5227 
   -5200    -5437    -5193    -4463    -4141    -4374    -4595    -4742 
   -5054    -5225    -5040    -4963    -5003    -4685    -4401    -4657 
   -4893    -4835    -5039    -5314    -5162    -4997    -5131    -5107 
   -4830    -4779    -5067    -5533    -5983    -5776    -4851    -4446 
   -4909    -4950    -4260    -4144    -4793    -4949    -4676    -4904 
   -4993    -4415    -4233    -4707    -4962    -4966    -5143    -5408 
   -5706    -5867    -5471    -4976    -5035    -5065    -4600    -4491 
   -5136    -5530    -5297    -5313    -5605    -5409    -5108    -5447 
   -5825    -5513    -5221    -5358    -5005    -4463    -4772    -5169 
   -5146    -5368    -5562    -5324    -4943    -4649    -4518    -4469 
   -4492    -4442    -4305    -4764    -5435    -5184    -4854    -5239 
   -5319    -5009    -4947    -4861    -4565    -4356    -4533    -4903 
   -5135    -5364    -5428    -5182    -5285    -5860    -6100    -5764 
   -5300    -4914    -4641    -4468    -4271    -4028    -3832    -3789 
   -3877    -4062    -4573    -5313    -5514    -5051    -4835    -5073 
   -5044    -4797    -4901    -5258    -5472    -5405    -5297    -5445 
   -5405    -4656    -4144    -4765    -5344    -5148    -5208    -5420 
   -5017    -4795    -5167    -5420    -5633    -5811    -5310    -4625 
   -4615    -4874    -4762    -4627    -5101    -5590    -5077    -4409 
   -4734    -5117    -4795    -4554    -4706    -4976    -5441    -5867 
   -5730    -5212    -4793    -4457    -4182    -4072    -3927    -3771 
   -4129    -4847    -5047    -4895    -5212    -5522    -5225    -5134 
   -5552    -5603    -5424    -5680    -5698    -5120    -4996    -5474 
   -5622    -5599    -5941    -6276    -6340    -6147    -5695    -5165 
   -4769    -4712    -4731    -4573    -4590    -4422    -3728    -3499 
   -3915    -4126    -4396    -5103    -5483    -5196    -5011    -5165 
   -5009    -4477    -3915    -3446    -3422    -3717    -3646    -3395 
   -3618    -4221    -4752    -5155    -5478    -5479    -5198    -5116 
   -5219    -4961    -4549    -4776    -5389    -5602    -5575    -5537 
   -5382    -5509    -5881    -5985    -6168    -6582    -6596    -6061 
   -5336    -4924    -5059    -5192    -5097    -5382    -5818    -5456 
   -4541    -3900    -3532    -3443    -3929    -4612    -4951    -5084 
   -5088    -4912    -4976    -5281    -5250    -4949    -4924    -5175 
   -5389    -5516    -5456    -5157    -4934    -5024    -5297    -5528 
   -5873    -6516    -6700    -5879    -5097    -5036    -4783    -4141 
   -4066    -4375    -4176    -3555    -2768    -2122    -2423    -3345 
   -4070    -4995    -6033    -6458    -6243    -5714    -5468    -5449 
   -4908    -4388    -4641    -5236    -5929    -6664    -6928    -6494 
   -5906    -5622    -5302    -4787    -4442    -4234    -4193    -4738 
   -5479    -5440    -4914    -4822    -4885    -4676    -4396    -3962 
   -3380    -3133    -3161    -3119    -3447    -4405    -5298    -5748 
   -5854    -5514    -4757    -4050    -3743    -3636    -3439    -3439 
   -4291    -5786    -6968    -7923    -9005    -9433    -8591    -7082 
   -6079    -5572    -4638    -3774    -3661    -3596    -3335    -3443 
   -4063    -4837    -5397    -5587    -5478    -5537    -5715    -5022 
   -3865    -3659    -3748    -3302    -3466    -4600    -5682    -6319 
   -6513    -6289    -6058    -6272    -6936    -7453    -7044    -5659 
   -4145    -3416    -3805    -4738    -5260    -5397    -5610    -5636 
   -5437    -5154    -4797    -5182    -6177    -6378    -6076    -5987 
   -5242    -3963    -3564    -3765    -3470    -3250    -3586    -3601 
   -3349    -3685    -4311    -4657    -4880    -5204    -5387    -5012 
   -4521    -4746    -5327    -5408    -5016    -4912    -5387    -5624 
   -5562    -6120    -6674    -6046    -4814    -4086    -3863    -3604 
   -3469    -3919    -4785    -5883    -6812    -6544    -5586    -5362 
   -5005    -3429    -2427    -3613    -5027    -4611    -3758    -3782 
   -3767    -3481    -3505    -3478    -3319    -3905    -4923    -5067 
   -4710    -4818    -4780    -4687    -5868    -7222    -6708    -5401 
   -4918    -4658    -4421    -5100    -6076    -6181    -6137    -6878 
   -7928    -8532    -8401    -7645    -6335    -4750    -3848    -3894 
   -4059    -4025    -3960    -3912    -3991    -4159    -4244    -4302 
   -4359    -3801    -2577    -2340    -3591    -4843    -5768    -6571 
   -6493    -5857    -5996    -6733    -6898    -6388    -5867    -5616 
   -5637    -5586    -4850    -3890    -3915    -4946    -5796    -5967 
   -6227    -6386    -5335    -3707    -2668    -2207    -2245    -2704 
   -3240    -3807    -4448    -4704    -4232    -3905    -4612    -5616 
   -5929    -5783    -5632    -5420    -5391    -6087    -7096    -7388 
   -7105    -6964    -6469    -5393    -4905    -5455    -6033    -5746 
   -5155    -5089    -4742    -4185    -4839    -5505    -4799    -4504 
   -5171    -4868    -3546    -2540    -1737    -1147    -1648    -2791 
   -3469    -4266    -6039    -7257    -6623    -5971    -6486    -6728 
   -6299    -6377    -7015    -7150    -6505    -5497    -4060    -2798 
   -3164    -4992    -6841    -7846    -7577    -6589    -6058    -5478 
   -4039    -3161    -3734    -4125    -3535    -3223    -3443    -3092 
   -2467    -2878    -4144    -5061    -5140    -4830    -4806    -5131 
   -5251    -5043    -5194    -5710    -5371    -4234    -4175    -5482 
   -6492    -6763    -7056    -7207    -6620    -5633    -5080    -5044 
   -4757    -4260    -4607    -5468    -5518    -5004    -5086    -5548 
   -5664    -6057    -6485    -5359    -3424    -2417    -2074    -2174 
   -3079    -4040    -4430    -4884    -5509    -5578    -5611    -6077 
   -5562    -4322    -4634    -5671    -5277    -4494    -4676    -5298 
   -6002    -6462    -6176    -5861    -6180    -6076    -5332    -5359 
   -5733    -5073    -4131    -3790    -3565    -3114    -2614    -2467 
   -2887    -3555    -3963    -4050    -4764    -5911    -5289    -3681 
   -4284    -6045    -6029    -5094    -5104    -5620    -5767    -5894 
   -6658    -7341    -6685    -5377    -4815    -5024    -5436    -5282 
   -4735    -5410    -6920    -6902    -5393    -4396    -4349    -4216 
   -3832    -3937    -4307    -4217    -3851    -3662    -3816    -4041 
   -4090    -4324    -4514    -4442    -4884    -5687    -6216    -6733 
   -6898    -6235    -5795    -6392    -6982    -6494    -5887    -6399 
   -6983    -6434    -5699    -5458    -5125    -5201    -6405    -7167 
   -6023    -4351    -3249    -1883     -843    -1186    -1514    -1082 
   -1161    -1813    -2512    -3878    -5481    -5653    -4776    -4807 
   -5867    -6401    -5776    -4977    -5120    -5954    -6413    -6156 
   -5751    -5736    -6142    -6779    -6890    -5958    -5379    -5728 
   -5444    -4405    -3491    -3126    -3913    -4986    -4961    -4550 
   -4896    -6034    -6825    -5814    -4058    -3539    -3476    -2922 
   -2732    -3387    -4860    -6357    -6488    -5931    -6158    -6517 
   -6276    -6286    -7182    -8218    -8025    -6642    -5327    -3947 
   -2697    -3446    -5374    -5740    -4911    -4395    -3893    -3365 
   -3257    -3028    -2632    -3015    -3813    -3788    -3271    -3218 
   -3694    -4633    -5556    -5931    -6544    -7492    -7310    -6087 
   -5105    -4421    -3721    -3534    -4449    -5715    -6235    -6386 
   -6394    -5805    -5576    -6631    -7603    -7298    -6550    -5602 
   -3975    -2886    -3055    -3037    -2695    -3532    -5067    -5761 
   -5861    -5961    -5661    -4830    -4266    -4642    -4831    -3727 
   -3126    -4070    -4612    -4594    -5327    -6035    -6340    -7250 
   -8347    -8341    -7376    -6291    -4927    -3747    -3966    -4349 
   -3564    -3638    -5356    -6089    -5286    -4893    -4830    -4260 
   -3855    -3843    -3696    -3341    -2835    -2632    -3446    -4585 
   -4822    -4878    -5790    -6330    -5764    -5472    -5516    -5136 
   -5139    -5541    -5312    -4877    -4970    -5067    -5103    -5898 
   -6851    -6681    -6039    -5876    -5548    -4702    -4029    -3667 
   -3346    -3618    -4839    -5771    -5231    -4112    -3640    -3450 
   -3156    -3294    -3812    -4294    -4918    -5429    -5374    -5209 
   -5158    -5009    -4996    -4954    -4843    -5283    -5757    -5601 
   -5742    -6794    -7786    -7627    -6621    -5788    -5385    -5228 
   -5212    -5000    -4276    -3651    -4259    -5537    -5869    -5439 
   -5301    -5324    -5034    -4378    -3534    -3065    -3329    -3913 
   -4121    -3597    -3213    -4330    -6085    -6471    -6031    -6399 
   -7142    -7195    -6756    -6593    -6832    -6708    -5815    -5054 
   -5340    -5728    -4687    -3445    -4240    -5733    -5552    -4679 
   -4531    -4349    -3473    -2556    -2246    -2027    -1448    -1310 
   -1763    -2403    -3809    -5300    -5791    -6632    -8032    -8185 
