Origin Time       2024/04/02 04:24:00
Lat.              40.133
Long.             141.712
Depth. (km)       71
Mag.              6.0
Station Code      IBRH16
Station Lat.      36.6405
Station Long.     140.3976
Station Height(m) -210
Record Time       2024/04/02 04:25:31
Sampling Freq(Hz) 100Hz
Duration Time(s)  122
Dir.              1
Scale Factor      2942(gal)/8224139
Max. Acc. (gal)   0.545
Last Correction   2024/04/02 04:25:31
Memo.             
[...]
    3734     3711     3688     3554     3519     3658     3694     3535 
    3362     3314     3385     3404     3322     3375     3528     3523 
    3422     3423     3554     3669     3608     3480     3499     3619 
    3636     3528     3430     3384     3389     3411     3356     3319 
    3353     3310     3271     3370     3427     3360     3372     3504 
    3582     3523     3473     3588     3690     3555     3377     3441 
    3588     3504     3329     3377     3524     3516     3427     3430 
    3474     3453     3430     3439     3381     3307     3352     3491 
    3589     3542     3449     3520     3649     3585     3492     3591 
    3688     3622     3558     3604     3680     3653     3518     3433 
    3375     3235     3149     3180     3223     3267     3343     3403 
    3353     3246     3291     3414     3391     3349     3439     3539 
    3555     3586     3727     3859     3812     3666     3601     3555 
    3445     3408     3500     3580     3569     3496     3462     3514 
    3578     3628     3599     3476     3481     3667     3789     3790 
    3831     3897     3809     3626     3634     3820     3886     3726 
    3561     3618     3677     3500     3416     3608     3639     3372 
    3246     3420     3574     3534     3445     3488     3582     3515 
    3397     3407     3410     3376     3408     3426     3372     3289 
    3289     3426     3465     3302     3238     3381     3456     3362 
    3299     3330     3311     3183     3126     3295     3453     3353 
    3221     3322     3481     3466     3422     3516     3636     3678 
    3608     3433     3353     3476     3562     3443     3316     3445 
    3666     3582     3354     3419     3623     3658     3599     3589 
    3631     3609     3528     3572     3703     3709     3607     3581 
    3653     3708     3727     3739     3721     3663     3615     3632 
    3701     3723     3681     3697     3808     3916     3908     3808 
    3778     3820     3754     3618     3632     3761     3738     3585 
    3599     3774     3781     3593     3541     3665     3682     3565 
    3510     3523     3468     3407     3511     3663     3615     3472 
    3500     3640     3618     3451     3483     3703     3690     3415 
    3283     3375     3408     3327     3272     3275     3250     3098 
    2982     3107     3264     3265     3250     3256     3211     3191 
    3271     3349     3331     3325     3447     3537     3388     3202 
    3287     3443     3389     3289     3323     3388     3420     3461 
    3461     3387     3345     3391     3415     3369     3377     3451 
    3423     3335     3397     3531     3514     3379     3318     3391 
    3488     3493     3368     3233     3256     3350     3369     3362 
    3361     3383     3489     3541     3449     3437     3561     3568 
    3449     3461     3626     3723     3692     3669     3736     3785 
    3739     3747     3865     3878     3678     3473     3446     3477 
    3477     3545     3663     3662     3551     3596     3758     3719 
    3572     3607     3763     3797     3666     3555     3559     3539 
    3419     3327     3345     3433     3553     3592     3507     3497 
    3612     3600     3427     3353     3484     3613     3612     3663 
    3782     3693     3451     3392     3484     3474     3391     3395 
    3497     3578     3559     3547     3585     3477     3277     3311 
    3522     3604     3566     3566     3546     3473     3474     3489 
    3397     3291     3213     3145     3184     3323     3434     3483 
    3518     3577     3619     3636     3678     3669     3574     3527 
    3585     3689     3719     3608     3528     3562     3546     3469 
    3489     3577     3592     3573     3615     3661     3642     3609 
    3657     3723     3603     3368     3341     3489     3551     3553 
    3661     3786     3707     3497     3429     3500     3537     3528 
    3531     3530     3495     3426     3400     3457     3531     3511 
    3372     3222     3140     3136     3202     3256     3298     3373 
    3373     3314     3343     3384     3356     3387     3493     3507 
    3427     3407     3457     3477     3396     3334     3431     3532 
    3524     3488     3473     3542     3616     3535     3458     3532 
    3591     3527     3499     3604     3639     3465     3334     3462 
    3613     3491     3311     3426     3615     3519     3345     3422 
    3592     3532     3380     3461     3661     3651     3461     3377 
    3461     3514     3480     3477     3515     3545     3524     3495 
    3531     3520     3431     3442     3511     3473     3439     3539 
    3612     3519     3453     3561     3685     3674     3554     3474 
    3489     3456     3341     3264     3296     3451     3611     3615 
    3541     3497     3453     3392     3358     3396     3489     3588 
    3693     3771     3746     3642     3539     3496     3483     3431 
    3365     3326     3330     3407     3514     3589     3578     3507 
    3531     3642     3669     3582     3520     3580     3646     3573 
    3492     3580     3693     3620     3487     3487     3535     3527 
    3555     3650     3677     3655     3667     3659     3627     3601 
    3578     3581     3586     3539     3476     3446     3429     3400 
    3384     3399     3415     3396     3391     3434     3476     3481 
    3504     3638     3805     3808     3669     3613     3693     3682 
    3439     3218     3280     3454     3496     3477     3530     3577 
    3549     3522     3527     3518     3441     3334     3338     3389 
    3357     3379     3488     3510     3465     3484     3570     3631 
    3593     3511     3453     3383     3310     3387     3597     3651 
    3480     3377     3412     3366     3261     3267     3383     3496 
    3483     3414     3483     3564     3489     3431     3464     3424 
    3375     3422     3437     3393     3379     3388     3414     3445 
    3492     3559     3511     3395     3474     3635     3580     3441 
    3480     3615     3623     3542     3568     3627     3542     3449 
    3496     3530     3492     3531     3643     3662     3530     3404 
    3439     3478     3388     3372     3534     3654     3581     3469 
    3496     3501     3335     3225     3342     3515     3609     3647 
    3640     3623     3619     3624     3623     3555     3495     3572 
    3663     3669     3654     3599     3476     3395     3442     3526 
    3549     3558     3522     3365     3258     3349     3516     3558 
    3485     3495     3665     3836     3812     3680     3732     3900 
    3897     3751     3694     3811     3865     3690     3573     3622 
    3551     3418     3476     3570     3573     3684     3881     3867 
    3642     3541     3638     3593     3379     3349     3522     3584 
    3435     3300     3361     3435     3345     3330     3523     3620 
    3505     3442     3503     3515     3505     3612     3744     3694 
    3505     3451     3541     3476     3245     3210     3379     3308 
    3032     3042     3289     3372     3388     3553     3694     3661 
    3553     3514     3535     3496     3442     3503     3558     3478 
    3414     3462     3516     3430     3218     3140     3288     3404 
    3387     3424     3604     3757     3734     3596     3450     3372 
    3411     3472     3454     3369     3217     3094     3146     3306 
    3441     3566     3700     3771     3696     3438     3149     3087 
    3181     3149     3061     3157     3303     3264     3207     3362 
    3546     3507     3407     3456     3500     3395     3315     3445 
    3611     3530     3326     3310     3411     3366     3230     3253 
    3384     3408     3372     3430     3559     3522     3262     3142 
    3339     3609     3730     3692     3669     3757     3785     3658 
    3474     3331     3330     3407     3362     3304     3397     3497 
    3539     3623     3717     3751     3797     3936     4025     3844 
    3465     3196     3195     3308     3380     3492     3638     3616 
    3500     3538     3667     3636     3487     3501     3634     3585 
    3466     3569     3742     3690     3528     3550     3688     3566 
    3230     3172     3288     3142     3037     3299     3627     3825 
    3983     4097     4099     4059     4155     4334     4274     4009 
    3870     3813     3676     3565     3591     3635     3543     3488 
    3673     3838     3780     3727     3831     3931     3897     3897 
    4044     4114     4012     3919     3862     3731     3549     3418 
    3450     3570     3546     3443     3470     3492     3373     3291 
    3396     3630     3794     3842     3971     4129     4037     3825 
    3804     3846     3665     3384     3339     3447     3364     3132 
    2984     3048     3254     3310     3249     3381     3588     3611 
    3462     3341     3426     3534     3407     3257     3289     3321 
    3271     3214     3156     3146     3191     3096     2755     2533 
    2760     3048     2974     2710     2613     2805     3072     3181 
    3262     3458     3689     3785     3690     3595     3500     3298 
    3149     3063     2994     3142     3466     3721     3739     3376 
    2934     2955     3218     3179     3022     3105     3222     3103 
    2921     3007     3268     3419     3519     3651     3717     3746 
    3816     3823     3631     3420     3543     3904     3983     3766 
    3720     3825     3738     3458     3252     3318     3484     3511 
    3586     3732     3669     3484     3285     2984     2794     2903 
    3094     3063     2789     2582     2631     2797     3065     3495 
    3912     4117     4137     4121     4005     3657     3365     3499 
    3774     3662     3315     3299     3613     3715     3526     3568 
    3851     3850     3535     3334     3368     3453     3522     3623 
    3657     3588     3634     3828     3936     3908     3905     3912 
    3711     3369     3361     3792     4113     4124     4280     4595 
    4473     3867     3411     3451     3750     3892     3769     3728 
    3824     3570     3119     3134     3491     3723     3840     3927 
    3843     3508     3214     3269     3519     3689     3757     3819 
    3858     3769     3730     3856     3801     3523     3431     3441 
    3180     2855     2878     3068     2971     2682     2671     2997 
    3364     3639     3835     3836     3643     3574     3670     3569 
    3348     3451     3732     3654     3279     3087     3144     3079 
    2791     2764     3191     3487     3376     3399     3738     3928 
    3889     3863     3762     3438     3129     3227     3512     3411 
    3122     3169     3379     3499     3676     3754     3580     3589 
    3835     3878     3748     3618     3520     3626     3913     4163 
    4216     3925     3561     3596     3753     3627     3604     3921 
    4194     4193     4068     3978     3827     3581     3620     3978 
    4001     3635     3593     3928     4043     3971     4317     4936 
    4889     4124     3708     3932     4024     3952     4299     4630 
    4099     3069     2646     3003     3208     2974     3080     3595 
    3649     3167     3106     3788     4333     4187     3854     3757 
    3537     3041     2876     3190     3360     3179     2995     3032 
    3191     3219     3069     3015     3092     3038     2951     3003 
    3048     3087     3231     3442     3613     3478     2971     2479 
    2262     2239     2301     2366     2409     2493     2616     2673 
    2554     2425     2488     2573     2619     2727     2812     3019 
    3426     3618     3458     3262     3240     3349     3429     3442 
    3399     3283     3241     3319     3287     3180     3233     3345 
    3406     3545     3716     3705     3406     2884     2434     2404 
    2729     3046     3284     3535     3751     3823     3736     3711 
    3896     4018     3854     3635     3692     3985     4268     4440 
    4418     4083     3682     3686     3994     4143     4126     4045 
    3639     2926     2559     3038     3888     4330     4395     4392 
    4233     3940     3784     3855     3923     3800     3753     3952 
    4097     4033     3894     3761     3734     3940     4320     4553 
    4436     4129     3751     3356     3186     3285     3454     3588 
    3627     3597     3531     3439     3419     3364     3150     2992 
    3082     3466     3985     4293     4160     3723     3446     3515 
    3678     3839     4006     4095     4106     4008     3665     3241 
    3057     3030     3018     3092     3183     3171     3067     2830 
    2540     2515     2755     2882     2778     2736     3030     3465 
    3626     3507     3395     3368     3230     3029     3213     3713 
    3801     3481     3566     3966     3865     3466     3516     3888 
    3936     3577     3451     3778     3871     3489     3395     3902 
    4261     4021     3705     3593     3391     3234     3469     3875 
    4050     3985     4032     4320     4468     4205     3813     3653 
    3709     3956     4396     4637     4387     3989     3790     3704 
    3636     3796     4228     4460     4249     4090     4240     4167 
    3673     3366     3483     3669     3774     3839     3832     3551 
    2988     2741     3041     3343     3334     3159     3037     2899 
    2462     2042     2216     2756     3110     3319     3632     3755 
    3404     3056     2979     2874     2828     2952     3019     2945 
    2748     2675     3034     3412     3059     2236     1979     2411 
    2663     2436     2431     2832     2866     2454     2413     3044 
    3719     3715     3307     3161     3072     2837     3007     3642 
    3863     3350     2930     3230     3674     3518     3229     3569 
    4081     3892     3307     3314     3624     3348     3060     3400 
    3639     3462     3388     3334     2870     2340     2524     3291 
    3672     3384     3397     4299     4784     3767     2690     3105 
    4147     4503     4488     4784     4993     4557     3817     3377 
    3289     3419     3847     4477     4816     4665     4379     4210 
    4120     3981     3719     3573     3827     4359     4737     4675 
    4463     4334     3973     3528     3514     3744     3894     4028 
    4189     4288     4234     4199     4419     4611     4249     3461 
    3100     3487     3850     3564     2934     2681     2968     3318 
    3500     3619     3572     3350     3348     3663     3748     3339 
    3057     3372     3696     3508     3271     3221     3045     2863 
    2975     3252     3358     3207     3113     3231     3125     2793 
    2944     3316     3096     2737     2894     3067     2675     2235 
    2668     3592     3797     3353     3122     3138     3118     3086 
    3024     3048     3326     3565     3385     2891     2589     2940 
    3694     3916     3446     3296     3788     3909     3415     3369 
    3798     3620     2978     2868     3281     3477     3221     2995 
    3121     3350     3562     3812     4001     4125     4266     4414 
    4438     4108     3640     3585     3859     4066     4218     4309 
    4198     3969     3731     3477     3364     3505     3666     3708 
    3680     3618     3674     3726     3597     3497     3316     3014 
    3032     3227     3190     3028     2901     3006     3399     3438 
    2917     2802     3453     4025     4066     3923     3915     3890 
    3636     3350     3250     3202     3055     3238     4101     4826 
    4688     4143     3767     3680     3649     3433     3295     3489 
    3646     3370     2949     2867     3034     3159     3322     3497 
    3403     3127     3025     3078     3032     2976     3196     3661 
    4051     4016     3613     3294     3203     3199     3339     3649 
    3757     3485     3292     3557     3975     3946     3461     3299 
    3615     3653     3412     3473     3685     3557     3253     3438 
    3939     3846     3441     3712     4251     4105     3622     3605 
    3856     3758     3454     3591     4126     4239     3646     3053 
    3052     3451     3704     3595     3383     3234     3037     2806 
    2875     3469     4118     4112     3553     3257     3492     3685 
    3451     3034     2875     3037     3134     3172     3453     3636 
    3534     3543     3603     3416     3099     2953     3018     2948 
    2617     2424     2658     2975     2987     2980     3238     3523 
    3619     3609     3770     4105     4114     3651     3372     3647 
    3886     3747     3782     4137     4271     4050     3740     3611 
    3838     4135     4128     3959     3878     3940     4032     3890 
    3674     3854     4147     3994     3626     3520     3651     3716 
    3537     3217     3002     3084     3412     3569     3365     3271 
    3673     4178     4052     3434     3125     3136     3011     2918 
    3250     3786     3794     3261     3115     3570     3736     3434 
    3377     3518     3376     3296     3646     3871     3534     3159 
    3187     3296     3213     3132     3184     3196     3068     2968 
    3037     3203     3354     3431     3300     2866     2419     2474 
    2943     3142     3028     3149     3375     3346     3330     3543 
    3786     3811     3612     3619     4013     4298     4287     4251 
    4152     3924     3680     3588     3780     4093     4322     4452 
    4417     4278     4255     4284     4133     3823     3601     3618 
    3734     3805     3808     3744     3728     3761     3748     3577 
    3194     3094     3516     3719     3527     3631     3975     3997 
    3746     3532     3356     3142     3028     3294     3808     3850 
    3366     3269     3555     3298     2795     2964     3341     3165 
    2818     2875     3200     3312     3219     3442     3780     3493 
    2871     2701     2965     3067     2741     2629     3168     3569 
    3329     3030     3059     3133     2975     2793     2897     3141 
    3267     3345     3520     3596     3402     3393     3740     3667 
    2965     2484     2801     3477     3534     2999     2911     3300 
    3457     3408     3420     3449     3377     3284     3362     3534 
    3608     3618     3623     3504     3322     3464     3867     3852 
    3358     3246     3732     4016     3908     4020     4309     4164 
    3689     3527     3753     3819     3480     3119     3064     3200 
    3399     3709     3944     3778     3325     3018     3111     3389 
    3549     3639     3746     3838     3904     3846     3667     3665 
    3947     4213     4212     4132     4293     4460     4241     3905 
    3898     4197     4386     4062     3526     3527     3929     3978 
    3798     4002     4282     3952     3438     3608     4048     3869 
    3375     3331     3700     3867     3573     3186     3048     3071 
    3133     3253     3370     3457     3638     3724     3387     2897 
    2749     3001     3310     3298     3117     3149     3180     2944 
    2789     2910     2990     2949     3071     3326     3368     3156 
    2988     3021     3252     3616     3842     3717     3447     3362 
    3460     3449     3235     3142     3379     3622     3514     3273 
    3307     3447     3322     3084     3233     3762     3973     3720 
    3678     3939     3979     3739     3635     3834     4052     4021 
