Origin Time       2024/04/02 04:24:00
Lat.              40.133
Long.             141.712
Depth. (km)       71
Mag.              6.0
Station Code      IBRH15
Station Lat.      36.5566
Station Long.     140.3013
Station Height(m) 45
Record Time       2024/04/02 04:25:58
Sampling Freq(Hz) 100Hz
Duration Time(s)  120
Dir.              6
Scale Factor      7845(gal)/8223790
Max. Acc. (gal)   1.007
Last Correction   2024/04/02 04:25:59
Memo.             
[...]
  -30149   -30173   -30087   -29933   -29683   -29596   -29853   -30203 
  -30319   -30199   -30060   -30007   -29914   -29813   -29944   -30231 
  -30358   -30217   -29920   -29787   -30014   -30300   -30310   -30051 
  -29743   -29695   -29916   -30080   -30109   -30086   -29984   -29862 
  -29814   -29862   -30011   -30145   -30126   -30044   -30059   -30115 
  -30036   -29974   -30152   -30315   -30181   -29945   -29871   -29884 
  -29852   -29909   -30167   -30362   -30241   -29956   -29755   -29687 
  -29758   -29916   -30079   -30222   -30208   -30005   -29875   -29945 
  -30073   -30136   -30105   -30025   -29945   -29922   -29951   -29951 
  -30007   -30160   -30121   -29826   -29646   -29779   -30055   -30150 
  -29995   -29862   -29882   -29949   -29978   -29897   -29798   -29845 
  -29972   -30069   -30114   -30065   -29934   -29801   -29787   -29968 
  -30202   -30176   -29875   -29709   -29844   -30002   -30061   -30075 
  -29991   -29876   -29878   -29959   -30033   -30057   -30021   -29959 
  -29863   -29794   -29899   -30063   -30096   -30046   -29943   -29793 
  -29782   -30029   -30295   -30227   -29925   -29814   -29889   -29949 
  -30125   -30302   -30159   -29843   -29686   -29782   -29937   -29961 
  -29979   -29983   -29786   -29601   -29700   -29960   -30264   -30456 
  -30292   -29976   -29941   -30164   -30218   -29986   -29826   -29929 
  -30063   -30044   -30021   -30068   -30048   -30030   -30134   -30115 
  -29855   -29781   -30075   -30258   -30138   -30005   -29964   -29924 
  -29781   -29656   -29829   -30184   -30377   -30249   -29856   -29559 
  -29655   -29992   -30271   -30272   -30002   -29755   -29789   -30029 
  -30213   -30229   -30141   -30002   -29867   -29794   -29897   -30172 
  -30298   -30114   -29913   -29883   -29918   -29994   -30127   -30125 
  -29944   -29843   -29957   -30204   -30342   -30235   -30068   -29948 
  -29785   -29629   -29671   -29957   -30250   -30240   -29957   -29774 
  -29836   -29947   -29975   -30046   -30257   -30334   -30063   -29722 
  -29570   -29660   -29961   -30253   -30333   -30184   -29976   -29911 
  -29906   -29841   -29948   -30279   -30402   -30118   -29772   -29677 
  -29806   -29982   -30118   -30206   -30165   -30001   -29883   -29880 
  -29855   -29820   -29957   -30218   -30319   -30164   -29949   -29853 
  -29886   -30011   -30117   -30079   -29953   -29853   -29833   -29872 
  -29929   -30064   -30175   -30005   -29695   -29632   -29922   -30272 
  -30353   -30206   -30005   -29791   -29674   -29768   -30003   -30114 
  -29957   -29814   -29863   -29855   -29732   -29763   -30063   -30345 
  -30229   -29911   -29884   -30078   -30075   -29806   -29683   -29941 
  -30098   -29867   -29743   -29963   -30105   -29909   -29675   -29809 
  -30186   -30326   -30153   -30010   -29984   -29948   -29960   -30087 
  -30215   -30177   -29925   -29794   -30029   -30261   -30160   -29959 
  -29916   -29944   -29906   -29901   -30010   -30072   -29992   -29897 
  -29880   -29999   -30091   -29952   -29871   -30033   -30132   -30048 
  -29974   -30098   -30327   -30271   -29863   -29594   -29772   -30180 
  -30474   -30410   -30079   -29898   -29910   -29836   -29752   -29880 
  -30177   -30318   -30107   -29926   -30014   -30049   -29951   -29899 
  -29941   -30084   -30075   -29748   -29565   -29758   -29999   -30183 
  -30237   -29984   -29712   -29751   -30046   -30396   -30408   -30033 
  -29818   -29876   -29936   -30075   -30269   -30245   -29992   -29736 
  -29740   -30001   -30204   -30214   -30006   -29727   -29693   -29808 
  -29897   -30019   -30053   -29972   -29961   -29990   -29987   -30032 
  -30140   -30223   -30168   -29980   -29889   -29974   -30078   -30157 
  -30122   -29813   -29544   -29833   -30437   -30510   -29961   -29581 
  -29729   -30013   -30094   -30098   -30146   -29967   -29524   -29403 
  -29852   -30265   -30180   -29878   -29718   -29690   -29701   -29818 
  -30045   -30180   -30134   -30019   -29891   -29782   -29789   -29988 
  -30280   -30312   -29934   -29527   -29486   -29836   -30254   -30430 
  -30346   -29974   -29471   -29451   -29970   -30399   -30406   -30092 
  -29797   -29810   -29972   -30076   -30146   -30115   -30083   -30146 
  -30040   -29814   -29830   -30168   -30559   -30411   -29743   -29448 
  -29740   -30103   -30289   -30258   -30192   -30223   -30137   -29949 
  -29880   -29901   -30010   -30217   -30271   -30065   -29878   -29887 
  -29876   -29739   -29760   -30069   -30379   -30360   -30011   -29689 
  -29681   -29880   -30075   -30188   -30137   -29926   -29763   -29829 
  -30099   -30218   -29997   -29768   -29802   -30071   -30350   -30292 
  -30014   -29883   -29884   -29970   -30102   -30086   -29953   -29957 
  -30129   -30210   -30075   -29833   -29575   -29509   -29837   -30341 
  -30524   -30183   -29701   -29596   -29775   -29859   -29941   -30237 
  -30469   -30279   -29857   -29664   -29759   -29895   -30052   -30354 
  -30514   -30161   -29643   -29546   -29857   -30080   -29944   -29767 
  -29813   -29959   -30098   -30183   -30192   -30084   -29849   -29735 
  -29890   -30167   -30318   -30208   -30044   -29959   -29856   -29847 
  -30038   -30260   -30289   -30049   -29797   -29766   -29789   -29762 
  -29833   -30038   -30227   -30204   -30046   -30018   -30010   -29826 
  -29705   -29874   -30123   -30215   -30275   -30412   -30338   -29926 
  -29632   -29798   -30156   -30333   -30218   -29943   -29774   -29739 
  -29708   -29789   -30067   -30337   -30333   -30049   -29802   -29814 
  -29913   -29926   -29941   -30025   -30157   -30234   -30065   -29737 
  -29620   -29901   -30296   -30298   -29983   -29940   -30179   -30169 
  -29845   -29629   -29716   -29893   -29963   -30064   -30227   -30200 
  -30106   -30087   -29952   -29790   -29812   -30048   -30280   -30215 
  -30136   -30272   -30132   -29675   -29574   -29972   -30368   -30356 
  -29976   -29624   -29583   -29767   -29839   -29736   -29760   -29951 
  -30129   -30241   -30242   -30140   -30017   -29882   -29639   -29448 
  -29718   -30303   -30568   -30308   -29894   -29656   -29610   -29745 
  -29992   -30091   -29955   -29776   -29775   -29891   -29901   -29951 
  -30202   -30316   -30134   -29913   -29851   -29903   -29855   -29705 
  -29737   -29982   -30225   -30262   -30107   -29964   -29793   -29563 
  -29574   -30036   -30680   -30765   -30009   -29188   -29045   -29573 
  -30357   -30797   -30653   -30217   -29787   -29552   -29521   -29705 
  -30167   -30507   -30285   -29772   -29481   -29601   -30107   -30618 
  -30487   -29806   -29258   -29154   -29528   -30177   -30595   -30508 
  -30082   -29656   -29457   -29511   -29816   -30260   -30543   -30464 
  -30145   -29813   -29641   -29886   -30419   -30559   -30133   -29760 
  -29852   -30219   -30433   -30267   -29922   -29702   -29678   -29829 
  -30115   -30258   -30033   -29751   -29775   -30006   -30215   -30292 
  -30156   -29866   -29786   -30075   -30327   -30292   -30129   -29926 
  -29817   -29905   -30003   -30092   -30277   -30412   -30338   -30061 
  -29758   -29706   -29932   -30105   -30010   -29925   -30133   -30326 
  -30149   -29875   -29825   -29764   -29547   -29602   -30098   -30472 
  -30267   -29929   -30186   -30612   -30226   -29457   -29458   -30014 
  -30088   -29658   -29613   -30110   -30316   -30052   -29953   -30084 
  -29901   -29461   -29596   -30342   -30634   -30152   -29646   -29650 
  -29887   -29978   -30164   -30466   -30431   -30105   -29891   -29910 
  -29944   -29771   -29619   -29739   -29953   -30028   -29829   -29562 
  -29775   -30289   -30352   -29971   -29689   -29650   -29748   -30005 
  -30346   -30504   -30295   -29960   -29936   -30029   -29830   -29736 
  -30055   -30337   -30306   -30092   -29945   -30022   -30102   -29992 
  -29813   -29739   -29828   -29934   -29934   -30028   -30314   -30381 
  -29856   -29204   -29300   -30034   -30499   -30420   -30096   -29741 
  -29520   -29527   -29884   -30454   -30613   -30161   -29735   -29797 
  -29952   -29751   -29466   -29620   -30230   -30650   -30342   -29771 
  -29679   -29933   -30092   -30029   -29700   -29427   -29690   -30310 
  -30639   -30335   -29732   -29439   -29636   -30022   -30262   -30245 
  -29987   -29616   -29420   -29589   -29929   -30041   -29933   -30015 
  -30152   -29816   -29249   -29259   -29986   -30514   -30256   -29893 
  -29955   -30086   -30028   -30010   -30289   -30435   -29929   -29467 
  -29786   -30396   -30568   -30163   -29733   -29802   -29941   -29829 
  -30026   -30600   -30828   -30411   -29812   -29690   -30090   -30388 
  -30311   -30172   -30083   -29995   -30002   -30038   -30157   -30408 
  -30456   -30213   -29867   -29569   -29689   -30234   -30561   -30339 
  -29864   -29593   -29821   -30227   -30262   -30045   -29914   -29860 
  -29860   -29833   -29844   -29990   -29825   -29359   -29369   -29938 
  -30391   -30299   -29906   -29740   -29776   -29693   -29700   -30121 
  -30516   -30276   -29764   -29587   -29683   -29932   -30260   -30354 
  -30030   -29511   -29398   -29889   -30331   -30289   -30033   -29970 
  -30142   -30154   -29961   -30005   -30316   -30380   -29916   -29562 
  -29914   -30283   -30018   -29686   -29884   -30353   -30430   -30011 
  -29791   -29979   -30044   -29987   -30098   -30194   -30056   -29727 
  -29489   -29721   -30271   -30557   -30446   -30221   -29880   -29434 
  -29353   -29840   -30438   -30616   -30258   -29766   -29613   -29848 
  -30211   -30362   -30071   -29640   -29625   -29963   -30152   -30091 
  -30169   -30473   -30450   -29924   -29466   -29467   -29895   -30465 
  -30689   -30411   -30036   -30009   -30210   -30163   -29868   -29722 
  -29870   -30157   -30244   -29949   -29675   -29731   -29924   -30091 
  -30175   -30057   -29687   -29280   -29178   -29597   -30364   -30747 
  -30369   -29816   -29664   -29902   -30238   -30350   -30123   -29721 
  -29470   -29702   -30222   -30399   -30175   -29983   -29826   -29519 
  -29376   -29737   -30231   -30254   -29799   -29466   -29702   -30096 
  -30161   -30144   -30198   -30144   -29947   -29693   -29731   -30214 
  -30562   -30376   -30009   -29776   -29787   -30203   -30627   -30461 
  -29952   -29673   -29717   -29864   -29963   -30038   -30084   -29968 
  -29678   -29570   -29957   -30443   -30422   -29991   -29744   -29970 
  -30333   -30403   -30284   -30242   -30213   -30218   -30368   -30439 
  -30350   -30250   -30001   -29605   -29324   -29197   -29425   -30160 
  -30780   -30608   -29902   -29498   -29643   -29836   -29833   -29822 
  -29887   -29999   -30215   -30526   -30665   -30349   -29717   -29247 
  -29231   -29613   -30048   -30187   -30202   -30271   -30096   -29662 
  -29340   -29209   -29234   -29531   -30021   -30462   -30595   -30353 
  -30152   -30110   -29947   -29880   -30049   -30165   -30225   -30352 
  -30492   -30389   -29891   -29346   -29200   -29547   -30080   -30368 
  -30214   -29633   -29047   -29014   -29513   -30188   -30685   -30739 
  -30385   -29953   -29789   -29818   -29820   -29893   -30086   -30094 
  -29729   -29413   -29702   -30299   -30465   -30221   -30107   -30154 
  -30099   -29990   -29974   -30013   -29898   -29566   -29421   -29840 
  -30466   -30696   -30577   -30433   -30183   -29802   -29506   -29371 
  -29471   -29943   -30589   -30790   -30202   -29438   -29376   -30028 
  -30651   -30667   -30227   -29848   -29770   -29947   -30181   -30144 
  -29907   -29929   -30176   -30276   -30127   -29840   -29609   -29570 
  -29763   -30115   -30292   -30105   -29907   -29970   -30015   -29835 
  -29579   -29454   -29573   -29837   -30003   -29957   -29797   -29817 
  -30113   -30323   -30167   -29817   -29662   -29817   -30005   -29997 
  -29913   -29941   -30003   -30024   -30127   -30311   -30365   -30099 
  -29647   -29405   -29528   -29863   -30154   -30246   -30323   -30418 
  -30218   -29853   -29891   -30307   -30375   -29971   -29822   -30057 
  -30156   -30046   -29940   -29947   -30159   -30358   -30221   -29870 
  -29766   -30015   -30037   -29720   -29822   -30429   -30820   -30534 
  -29798   -29420   -29640   -29844   -29884   -30122   -30456   -30377 
  -29874   -29624   -29862   -29982   -29605   -29115   -29115   -29749 
  -30446   -30661   -30476   -30041   -29569   -29497   -29805   -30177 
  -30456   -30375   -29988   -29782   -29810   -29830   -29875   -29975 
  -29952   -29721   -29613   -29899   -30207   -30138   -29903   -29844 
  -30041   -30213   -29983   -29663   -29760   -30087   -30312   -30346 
  -30164   -29959   -29957   -30113   -30150   -29791   -29357   -29681 
  -30581   -30890   -30372   -29671   -29355   -29667   -30063   -30071 
  -29983   -29828   -29624   -29720   -29963   -30150   -30439   -30677 
  -30554   -30122   -29732   -29785   -30208   -30473   -30369   -30137 
  -30005   -29961   -29905   -29941   -30099   -30117   -29933   -29718 
  -29612   -29752   -30211   -30685   -30615   -30103   -29778   -29646 
  -29411   -29327   -29805   -30643   -31021   -30474   -29655   -29373 
  -29571   -29855   -30053   -30231   -30306   -30075   -29832   -29809 
  -29748   -29593   -29656   -30013   -30190   -29984   -29953   -30304 
  -30449   -30102   -29781   -29943   -30318   -30504   -30511   -30395 
  -30006   -29500   -29409   -29772   -30065   -30048   -29883   -29771 
  -29805   -30022   -30225   -29947   -29415   -29432   -29943   -30308 
  -30369   -30361   -30384   -30219   -29836   -29717   -30175   -30682 
  -30542   -29898   -29471   -29479   -29573   -29762   -30181   -30284 
  -29694   -29076   -29284   -30245   -31047   -30956   -30137   -29401 
  -29388   -29872   -30256   -30360   -30283   -30184   -30041   -29735 
  -29598   -29874   -30169   -30179   -30068   -30145   -30230   -29924 
  -29687   -30006   -30234   -30006   -29866   -29970   -30040   -29863 
  -29509   -29427   -29712   -30065   -30411   -30596   -30426   -30034 
  -29637   -29442   -29523   -29764   -30118   -30461   -30510   -30165 
  -29732   -29560   -29655   -29951   -30279   -30214   -29740   -29392 
  -29589   -30148   -30411   -30221   -30033   -29870   -29556   -29490 
  -29914   -30446   -30551   -30156   -29934   -30134   -30173   -29988 
  -29903   -30036   -30225   -29968   -29448   -29378   -29722   -30153 
  -30388   -30196   -29910   -29709   -29486   -29629   -30149   -30288 
  -29772   -29282   -29500   -30123   -30397   -30306   -30241   -30145 
  -29826   -29479   -29528   -30091   -30601   -30507   -30099   -29957 
  -30184   -30411   -30233   -29720   -29350   -29444   -29898   -30402 
  -30569   -30180   -29693   -29643   -29894   -30156   -30366   -30419 
  -30187   -29760   -29528   -29744   -30001   -29955   -29911   -30053 
  -30250   -30306   -30060   -29805   -29910   -30211   -30277   -30046 
  -29952   -30148   -30168   -29890   -29794   -29953   -30017   -29970 
  -30019   -30138   -30040   -29640   -29459   -29832   -30354   -30601 
  -30504   -30256   -30065   -29812   -29419   -29417   -30087   -30677 
  -30580   -30136   -29907   -30075   -30279   -30181   -29987   -29909 
  -29835   -29745   -29806   -30129   -30546   -30487   -29793   -29236 
  -29305   -29667   -29947   -30092   -30202   -30188   -30036   -30003 
  -30059   -30010   -29929   -29840   -29799   -29945   -30105   -30107 
  -30042   -29988   -29960   -29805   -29543   -29658   -30194   -30539 
  -30348   -29887   -29637   -29679   -29702   -29682   -29847   -30087 
  -30195   -30150   -29882   -29542   -29612   -30165   -30730   -30867 
  -30537   -30046   -29700   -29550   -29555   -29731   -29949   -29943 
  -29650   -29454   -29882   -30622   -30688   -30060   -29614   -29662 
  -29909   -30125   -30252   -30252   -29940   -29440   -29299   -29643 
  -30103   -30348   -30289   -30167   -30157   -30141   -29990   -29691 
  -29531   -29891   -30493   -30622   -30229   -29959   -30032   -30078 
  -30038   -30168   -30370   -30375   -30250   -30102   -29776   -29482 
  -29664   -30134   -30418   -30414   -30159   -29728   -29517   -29808 
  -30234   -30302   -30083   -30001   -30181   -30329   -30192   -29934 
  -29893   -29986   -29988   -29998   -30106   -30268   -30280   -29974 
  -29667   -29670   -29889   -30079   -29951   -29632   -29629   -29929 
  -30129   -30160   -30114   -30069   -30136   -30280   -30348   -30146 
  -29685   -29323   -29339   -29625   -29970   -30180   -30073   -29848 
  -30015   -30433   -30358   -29759   -29396   -29594   -29821   -29639 
  -29470   -29830   -30294   -30213   -29893   -29945   -30223   -30345 
  -30326   -30283   -30176   -29906   -29729   -29924   -30083   -29959 
  -29926   -30009   -29879   -29689   -29878   -30291   -30415   -30221 
  -29898   -29508   -29342   -29716   -30376   -30653   -30198   -29504 
  -29438   -30007   -30329   -30102   -29955   -30073   -29992   -29735 
  -29758   -30029   -30137   -30040   -30073   -30249   -30214   -29933 
  -29729   -29837   -30164   -30315   -30163   -30075   -30150   -30132 
  -30055   -30109   -30258   -30249   -29978   -29705   -29594   -29712 
  -30136   -30534   -30473   -29943   -29384   -29342   -29774   -30208 
  -30442   -30415   -30117   -29852   -29891   -30079   -30123   -29956 
  -29778   -29751   -29794   -29921   -30190   -30419   -30523   -30489 
  -30172   -29670   -29381   -29578   -30059   -30381   -30451   -30299 
  -29920   -29629   -29706   -30001   -30222   -30091   -29587   -29235 
  -29470   -29898   -29963   -29760   -29693   -29817   -29868   -29876 
  -30119   -30415   -30288   -29781   -29431   -29502   -29783   -30036 
  -30180   -30159   -30001   -29857   -29755   -29682   -29839   -30231 
  -30376   -30091   -29883   -30040   -30221   -30107   -29907   -29948 
  -30076   -30098   -30144   -30248   -30312   -30265   -30088   -29903 
  -29760   -29735   -30037   -30368   -30219   -29820   -29706   -29990 
  -30323   -30249   -29845   -29627   -29710   -29870   -30015   -30132 
  -30229   -30254   -30042   -29663   -29425   -29554   -29936   -30140 
  -29990   -29749   -29573   -29574   -29894   -30231   -30217   -30032 
  -30021   -30146   -30049   -29705   -29648   -29956   -30119   -30119 
  -30180   -30196   -30100   -29921   -29775   -29803   -29840   -29835 
  -29967   -30056   -29886   -29674   -29689   -29936   -30146   -30087 
  -29862   -29776   -29926   -30092   -30165   -30164   -30075   -29978 
  -29825   -29677   -29897   -30329   -30449   -30248   -29963   -29743 
  -29736   -29982   -30304   -30396   -30161   -29876   -29817   -29988 
  -30262   -30456   -30350   -29987   -29786   -29928   -30082   -30059 
  -30060   -30171   -30199   -30053   -29916   -30005   -30250   -30331 
  -30179   -29963   -29781   -29704   -29710   -29791   -29992   -30175 
  -30219   -30161   -30029   -29902   -29849   -29809   -29783   -29916 
  -30127   -30102   -29901   -29956   -30356   -30619   -30217   -29425 
  -29170   -29739   -30447   -30654   -30434   -30202   -30067   -29921 
  -29790   -29731   -29821   -30154   -30441   -30312   -30011   -29802 
  -29577   -29484   -29710   -30024   -30164   -30109   -30038   -30095 
  -30049   -29776   -29673   -29974   -30339   -30400   -30207   -30075 
  -30156   -30280   -30235   -30091   -30032   -30048   -30063   -30150 
  -30373   -30507   -30249   -29748   -29470   -29519   -29710   -29975 
  -30279   -30423   -30206   -29844   -29752   -29797   -29673   -29632 
  -29922   -30230   -30234   -30022   -29886   -29907   -29972   -30080 
