Origin Time       2024/04/02 04:24:00
Lat.              40.133
Long.             141.712
Depth. (km)       71
Mag.              6.0
Station Code      IBRH11
Station Lat.      36.3701
Station Long.     140.1401
Station Height(m) 67
Record Time       2024/04/02 04:26:20
Sampling Freq(Hz) 100Hz
Duration Time(s)  120
Dir.              5
Scale Factor      7845(gal)/8223790
Max. Acc. (gal)   4.220
Last Correction   2024/04/02 04:26:20
Memo.             
[...]
   17221    17290    17645    17791    17655    17545    17690    17940 
   18022    18107    18276    18253    18157    18337    18650    18625 
   18342    18378    18580    18516    18478    18523    18355    18171 
   18164    18152    18040    17990    18057    17977    17739    17640 
   17563    17255    16902    16933    17288    17362    17296    17614 
   17965    17968    17863    17977    18249    18256    18030    18036 
   18312    18511    18434    18409    18702    18906    18844    18679 
   18412    18284    18219    17857    17535    17378    17112    16945 
   16976    17146    17451    17528    17462    17724    18003    17960 
   17971    18230    18420    18392    18445    18654    18555    18269 
   18485    18901    18866    18704    18671    18442    18030    17751 
   17672    17691    17695    17697    17728    17601    17234    16896 
   16854    16978    17058    17309    17690    17859    18025    18185 
   18126    18183    18247    18079    18184    18559    18686    18698 
   18778    18729    18636    18624    18509    18307    18212    18169 
   18073    18017    17936    17628    17355    17452    17540    17342 
   17312    17470    17375    17339    17583    17589    17486    17679 
   17857    17960    18018    17838    17770    17957    18148    18517 
   18855    18800    18797    18796    18428    18261    18474    18588 
   18657    18740    18642    18446    18104    17624    17477    17578 
   17393    17196    17356    17506    17409    17265    17304    17555 
   17672    17547    17470    17373    17302    17593    18023    18266 
   18387    18365    18164    17975    17959    18152    18470    18665 
   18592    18472    18534    18585    18465    18346    18357    18449 
   18320    17952    17809    17791    17577    17487    17717    17859 
   17659    17451    17439    17397    17355    17440    17577    17798 
   18081    18226    18226    18200    17971    17626    17836    18443 
   18558    18295    18180    18034    17748    17555    17590    17832 
   18064    18261    18477    18436    18257    18353    18512    18485 
   18457    18374    18094    17940    18145    18239    17933    17752 
   17886    17944    17887    17794    17771    17953    18025    17863 
   17647    17338    17172    17281    17267    17100    17068    17068 
   17019    17227    17644    17795    17757    18030    18528    18750 
   18763    18983    19178    18987    18871    19167    19349    19117 
   18843    18744    18600    18169    17780    17874    18007    17817 
   17768    17783    17351    16902    16968    17338    17697    17833 
   17788    17779    17636    17347    17300    17381    17312    17374 
   17591    17622    17586    17764    18002    18003    18025    18542 
   19086    18979    18736    18813    18650    18295    18319    18357 
   18094    17921    17842    17745    17872    18179    18372    18358 
   18199    18065    18004    17864    17679    17577    17622    17810 
   17926    17953    17919    17586    17223    17159    17103    17100 
   17354    17544    17548    17527    17532    17671    17934    18279 
   18765    19002    18746    18603    18732    18786    18902    18883 
   18477    18206    18161    17998    17822    17756    17779    17841 
   17756    17570    17460    17420    17505    17733    17937    18064 
   18088    17892    17640    17562    17590    17678    17856    18017 
   18034    18014    18139    18339    18473    18468    18229    17875 
   17736    17895    18056    17960    17894    18118    18252    18162 
   18119    18091    17991    17799    17705    18026    18401    18459 
   18401    18243    18036    17968    17915    17869    18027    18179 
   18044    17872    17917    17980    17837    17648    17572    17491 
   17412    17389    17409    17624    17996    18256    18308    18139 
   17840    17683    17744    17887    18013    18088    18100    17964 
   17876    18087    18207    18110    18287    18654    18802    18802 
   18679    18384    18168    18202    18301    18241    18094    18030 
   17849    17543    17482    17516    17385    17392    17523    17493 
   17494    17636    17763    17824    17702    17563    17783    18207 
   18441    18343    18153    18168    18130    17929    18038    18322 
   18328    18327    18455    18380    18114    17948    18009    18018 
   17710    17599    17941    18083    18067    18272    18080    17459 
   17329    17678    17937    18126    18347    18416    18269    18112 
   18068    18027    17899    17779    17770    17670    17346    17115 
   17081    17131    17547    18098    18214    18218    18387    18451 
   18465    18495    18546    18790    18985    18797    18549    18447 
   18162    17706    17374    17220    17419    17856    18040    18048 
   18025    17876    17830    17764    17636    17774    17736    17536 
   17833    17959    17410    17151    17510    17791    17726    17726 
   18056    18376    18395    18293    18435    18747    18661    18476 
   18796    18978    18667    18366    18048    17713    17660    17729 
   17672    17516    17409    17491    17568    17514    17664    17917 
   17914    17917    18069    18056    17926    18018    18145    17959 
   17780    17874    17896    17732    17716    17994    18150    18017 
   18075    18351    18454    18362    18158    18003    17944    17826 
   17982    18447    18465    17898    17413    17323    17478    17744 
   18048    18339    18562    18524    18208    17938    17913    17926 
   17803    17794    17928    17865    17729    17734    17734    17693 
   17694    17919    18345    18461    18314    18423    18578    18454 
   18180    17841    17614    17645    17698    17631    17649    17829 
   17801    17544    17514    17670    17896    18272    18392    18264 
   18405    18522    18303    18306    18586    18539    18204    17926 
   17702    17575    17628    17890    18257    18242    17847    17745 
   17743    17400    17327    17648    17844    18102    18447    18488 
   18404    18350    18115    17712    17335    17238    17410    17525 
   17578    17724    17860    17836    17663    17560    17571    17525 
   17572    17886    18364    18860    19145    19209    19124    18723 
   18327    18277    18237    18214    18396    18416    18169    17878 
   17597    17513    17547    17350    17197    17334    17485    17563 
   17581    17537    17716    18256    18797    18947    18698    18250 
   17780    17466    17261    17097    17323    17786    17775    17464 
   17374    17321    17257    17481    18007    18558    18794    18719 
   18673    18775    18929    18993    18852    18607    18260    17810 
   17635    17743    17633    17307    17261    17567    17760    17776 
   17971    18260    18343    18269    18369    18662    18640    18343 
   18254    18077    17555    17336    17635    17643    17150    16908 
   16996    17008    17253    17730    17940    18130    18538    18882 
   19192    19353    19091    18658    18430    18299    17972    17768 
   17859    17743    17598    17861    18139    18068    17743    17536 
   17670    17717    17389    17061    17069    17397    17905    18388 
   18516    18123    17730    17814    18110    18473    18735    18661 
   18678    18762    18412    17864    17637    17933    18283    18189 
   17998    17818    17562    17716    18198    18419    18508    18690 
   18528    17806    17244    17323    17351    16964    16922    17471 
   17817    17672    17707    18002    17913    17732    18075    18485 
   18461    18153    17809    17844    18307    18605    18598    18463 
   18212    17999    17845    17960    18368    18331    18069    18392 
   18855    18878    18423    17648    17259    17327    17226    17420 
   18160    18401    17868    17286    17194    17571    17799    17887 
   18378    18678    18146    17494    17483    17807    17766    17593 
   17861    18030    17676    17479    17675    17770    17651    17604 
   17983    18751    19242    19229    19215    19275    18939    18233 
   17848    17977    17909    17436    17066    16810    16494    16362 
   16667    17400    18027    18106    18094    18268    18315    18323 
   18411    18438    18426    18436    18535    18455    17976    17725 
   17828    17567    17234    17570    18218    18496    18315    17971 
   17813    17817    17918    18300    18481    18072    17793    17879 
   17874    17891    18019    17949    17847    17959    17942    17676 
   17373    17213    17432    17716    17825    18207    18582    18468 
   18312    18357    18360    18277    18239    18266    18121    17842 
   17682    17485    17344    17398    17275    17072    17161    17520 
   18220    19086    19502    19188    18661    18547    18493    18173 
   18110    18129    17751    17450    17535    17413    16833    16688 
   17386    17930    18065    18397    18519    18088    17709    17552 
   17609    17979    18162    18103    18351    18931    19298    18731 
   17706    17610    18160    18342    18279    18166    17992    17824 
   17540    17431    17901    18597    18993    18931    18615    18486 
   18675    18916    18821    18146    17286    16899    17038    17355 
   17469    17122    16834    17250    17817    18175    18932    19666 
   19359    18258    17258    16942    17026    16621    16173    16934 
   18295    18864    19013    19479    19862    19789    19217    18457 
   17894    17135    16582    17173    17990    18292    18631    18685 
   18272    18037    17921    17834    18193    18566    18360    18176 
   18310    18088    17293    16374    15892    15990    16380    16935 
   17675    18624    19508    19751    19332    18569    17609    16839 
   16634    16984    17539    17644    17363    17751    19098    20213 
   20218    19342    18029    17038    16694    16410    16501    17302 
   17637    17242    17374    17855    17898    18158    18594    18570 
   18582    18615    18461    18685    19151    19392    19371    18882 
   17936    16729    15558    15446    16491    17232    17405    17999 
   18932    19356    19070    18434    17842    17456    17185    17200 
   17435    17756    18378    18265    17200    17473    18940    19310 
   18963    18453    17158    16268    16688    17536    18427    19122 
   19577    20131    19762    18207    17512    18303    18983    18729 
   18131    17639    16841    15776    15350    15876    16997    17984 
   17905    17111    16742    16744    16760    17273    18361    19407 
   20052    20255    20067    19336    17969    17069    17478    18085 
   18343    18773    18754    18193    18250    18898    19194    18885 
   18400    18013    17568    17242    17267    17455    17888    18561 
   19029    19076    18766    18114    16966    15915    15957    16542 
   16976    17643    18156    18231    18426    18308    17694    17577 
   18104    18813    19245    18779    17921    17421    16970    16873 
   17535    18319    19049    19761    19943    19419    18644    18419 
   18712    18436    17523    17149    17374    16815    15483    15205 
   16217    17122    17829    18561    18638    18500    19072    19792 
   19996    19872    19689    19265    18152    17143    17120    16885 
   16194    16487    17236    17568    17911    17714    17143    17617 
   18580    19066    19178    18465    17433    17591    18388    18175 
   17130    16769    17459    18269    18738    18893    18752    18365 
   17691    17186    17332    17895    18364    18049    17131    16791 
   17134    17317    17261    17497    17918    17883    17352    16923 
   16829    16862    17292    18414    19704    20402    20086    18908 
   17598    17030    17370    17945    18457    18877    18648    18057 
   18303    18890    18542    17946    17551    16461    15931    17635 
   19595    19813    19453    19192    18372    17464    17280    17833 
   18193    17186    15705    15286    15303    15422    16672    18569 
   19944    20640    20193    19178    19263    19611    19084    19102 
   19830    19597    18512    17848    17331    16222    15743    16517 
   16754    16378    17015    18527    19834    20125    19384    18636 
   18265    17799    17192    16856    17070    17512    17747    18231 
   19192    19661    19399    19041    18403    17487    16918    16564 
   16243    16228    16422    17161    18466    18873    18463    18303 
   17545    16626    16700    16868    17879    20306    21258    20272 
   19842    19850    18922    17547    16673    16209    16183    17196 
   18698    19260    18701    17994    17876    18088    17404    15828 
   15299    16187    16822    17007    18010    19785    20810    19955 
   18006    16758    16129    15390    15709    17247    18463    19484 
   20656    20723    19641    18492    17118    15619    15296    16560 
   18369    19602    19924    19634    18971    17610    16040    16006 
   17308    18280    19039    19330    18129    17132    17755    18112 
   17869    18573    18924    17925    17613    18328    18794    19128 
   19249    19134    19103    17860    15426    14447    15205    15989 
   16853    17973    18584    18742    19052    19052    18053    17099 
   16873    16247    15601    16509    18585    20437    21324    21350 
   20664    18920    16753    15588    15480    15927    17147    18187 
   17547    16411    16754    17937    18493    18986    20445    21571 
   21258    20829    20471    19194    17851    17046    15943    14474 
   13556    14067    15795    17508    18659    19314    19361    19036 
   18682    18686    19476    20252    19880    18937    18315    17725 
   17051    16829    16914    16788    16748    16735    16272    16794 
   19251    21239    21404    21012    20217    18679    17112    16411 
   17053    17940    17828    17649    17666    16866    16221    16411 
   16314    16290    17027    17714    18058    18418    19164    20316 
   21068    20902    19974    19215    19126    18166    16297    15650 
   15925    15965    15950    15819    16514    18454    19516    19306 
   19201    19194    19302    19263    18176    16582    15205    14430 
   14983    16453    18364    20324    20605    19381    18918    19184 
   19009    18940    19265    18854    17722    17334    17780    17849 
   17721    18311    18553    17199    15576    15264    15934    16702 
   17464    18299    18397    17706    17543    17774    17666    17956 
   18663    18702    18254    18419    19029    19342    19826    20524 
   20386    19627    19233    18971    18554    18218    17779    17493 
   17034    15325    14284    15515    16345    16009    16474    17416 
   17940    18048    17923    18269    18735    18242    17180    16681 
   17112    17809    18000    18262    19404    20349    19830    18522 
   17929    18438    18817    18277    17824    18033    18323    18763 
   19333    19141    18164    17116    16482    16549    16725    16486 
   16580    17331    17793    17680    17886    18557    19021    19008 
   18817    19103    19774    20015    19699    19157    18689    18443 
   18148    17729    17393    16876    15961    15340    15434    15723 
   16474    18022    19234    19542    19429    18935    18056    17289 
   17273    18061    18905    18983    18341    17875    17767    17402 
   17016    17088    17236    17386    18003    18711    18978    18991 
   18868    18574    18121    18103    18981    19248    18326    18096 
   18347    17660    17433    18426    18854    18388    18118    18135 
   17824    16830    16154    16846    17867    18152    18299    18723 
   18917    18459    17655    17509    18489    19562    19495    18549 
   17716    17004    16254    15898    15736    15472    15520    15817 
   16073    16777    17928    18654    18990    19480    19939    20097 
   19869    19429    18964    18337    17914    17660    16703    15862 
   16580    17933    18543    18553    18432    18441    18501    18619 
   19120    19334    19063    19344    19460    18773    18698    19028 
   18620    18208    17883    16923    16279    16418    16294    16166 
   16718    17104    16877    16862    17356    17878    18040    17860 
   17871    18073    17926    17793    17984    18044    17821    17447 
   17382    18220    19118    19051    18858    19053    19133    19129 
   19002    18839    18775    18372    17788    17478    17317    17315 
   17309    17026    16974    17128    16756    16653    17629    18482 
   18715    19271    19662    18960    17932    17070    16222    15984 
   16274    16657    17662    19062    20031    20551    20422    19805 
   19746    20088    19867    19202    18401    17236    15830    14913 
   14875    15024    14979    15680    17189    18249    18736    19332 
   19905    20074    19874    19778    19943    19611    18603    17988 
   17953    17386    16386    16112    16340    16202    15927    15858 
   15855    16178    16858    17289    17644    18291    18677    18841 
   19102    18868    18593    19300    20131    20177    19620    18455 
   17184    16467    16102    16173    16997    17949    18427    18828 
   19496    20223    20472    19770    18793    18346    17922    17297 
   17132    17482    17909    18281    18408    17961    16995    16135 
   16278    17082    17176    16999    17701    18501    18864    19237 
   19067    18029    16818    16008    16185    17095    17633    17767 
   17778    17807    18594    19773    20274    20101    19143    17455 
   16372    16478    16945    17701    19057    19880    19541    19140 
   18673    17694    17469    18199    18454    18115    17659    17118 
   16961    17386    18090    18806    19095    18916    18550    17760 
   16875    16969    17645    17633    17293    17321    17336    17274 
   17278    17172    17383    18072    18550    18623    18420    18094 
   18193    18694    19097    19388    19570    19818    20229    20031 
   19241    18767    18198    17159    16742    17373    17890    17321 
   16337    16125    16564    16887    16865    16789    16903    16866 
   16583    16649    17170    17859    18852    19849    19757    18611 
   17678    17163    16538    16557    17874    18971    18765    18422 
   18526    18493    18531    19190    19969    19978    19479    19064 
   18651    18324    18185    17757    16942    16514    16630    16320 
   15711    16100    17074    17267    17155    17562    17728    17203 
   17050    18172    19602    19889    19483    19352    19241    18935 
   18760    18644    18335    17848    17190    16656    16366    15938 
   15816    16526    17529    18580    19635    20285    20378    19793 
   19014    18958    19172    19354    20210    20713    19804    18955 
   18859    18365    17145    15827    15006    14715    14566    14609 
   14827    15020    15543    16314    16781    17130    17599    17982 
   18349    18932    19521    19670    19514    19460    19192    18685 
   18733    19188    19368    19662    20310    20761    20817    20433 
   19631    18937    18472    17891    17409    17280    17122    16652 
   15982    15183    14663    14817    15159    15537    16150    16644 
   17300    18189    18397    18203    18226    18123    18191    18555 
   18543    18489    18781    18819    18639    18786    19076    19056 
   18617    18081    17829    17612    17240    17459    18513    19473 
