Origin Time       2024/04/02 04:24:00
Lat.              40.133
Long.             141.712
Depth. (km)       71
Mag.              6.0
Station Code      IBRH07
Station Lat.      35.9521
Station Long.     140.3301
Station Height(m) -1197
Record Time       2024/04/02 04:26:25
Sampling Freq(Hz) 100Hz
Duration Time(s)  120
Dir.              1
Scale Factor      7845(gal)/8223790
Max. Acc. (gal)   0.486
Last Correction   2024/04/02 04:26:25
Memo.             
[...]
  -26064   -26075   -26073   -26083   -26092   -26065   -26033   -26042 
  -26077   -26107   -26118   -26096   -26071   -26067   -26068   -26080 
  -26109   -26125   -26126   -26152   -26164   -26126   -26096   -26094 
  -26095   -26118   -26129   -26100   -26082   -26092   -26087   -26069 
  -26065   -26055   -26040   -26071   -26113   -26096   -26060   -26061 
  -26079   -26071   -26064   -26080   -26082   -26061   -26068   -26091 
  -26106   -26111   -26103   -26111   -26126   -26133   -26144   -26125 
  -26092   -26096   -26103   -26087   -26069   -26087   -26131   -26145 
  -26129   -26104   -26065   -26056   -26069   -26065   -26067   -26068 
  -26052   -26052   -26073   -26075   -26057   -26050   -26049   -26048 
  -26065   -26092   -26104   -26092   -26088   -26118   -26118   -26073 
  -26052   -26068   -26100   -26123   -26117   -26107   -26118   -26134 
  -26144   -26153   -26163   -26156   -26118   -26071   -26079   -26131 
  -26140   -26107   -26087   -26088   -26119   -26148   -26145   -26148 
  -26164   -26142   -26094   -26087   -26117   -26149   -26152   -26123 
  -26134   -26167   -26165   -26140   -26103   -26111   -26152   -26150 
  -26136   -26133   -26122   -26107   -26092   -26092   -26107   -26084 
  -26064   -26086   -26082   -26057   -26050   -26053   -26067   -26061 
  -26045   -26056   -26075   -26095   -26096   -26048   -26036   -26095 
  -26123   -26079   -26038   -26057   -26083   -26044   -26007   -26053 
  -26068   -26014   -26022   -26048   -26046   -26090   -26103   -26059 
  -26061   -26079   -26064   -26092   -26129   -26091   -26059   -26072 
  -26087   -26100   -26091   -26050   -26032   -26049   -26067   -26059 
  -26056   -26091   -26114   -26106   -26102   -26083   -26052   -26055 
  -26082   -26106   -26122   -26125   -26126   -26142   -26165   -26153 
  -26095   -26059   -26075   -26102   -26107   -26102   -26118   -26122 
  -26076   -26075   -26131   -26160   -26156   -26133   -26107   -26122 
  -26154   -26165   -26167   -26148   -26106   -26084   -26076   -26072 
  -26107   -26148   -26152   -26150   -26131   -26111   -26149   -26164 
  -26106   -26073   -26080   -26077   -26117   -26179   -26195   -26165 
  -26114   -26086   -26106   -26106   -26094   -26138   -26184   -26172 
  -26140   -26126   -26114   -26083   -26075   -26096   -26111   -26110 
  -26111   -26136   -26144   -26114   -26086   -26080   -26084   -26082 
  -26075   -26079   -26075   -26063   -26068   -26072   -26067   -26083 
  -26102   -26092   -26082   -26095   -26082   -26046   -26064   -26096 
  -26091   -26096   -26107   -26094   -26073   -26079   -26107   -26086 
  -26034   -26049   -26086   -26088   -26090   -26090   -26073   -26072 
  -26076   -26040   -26009   -26044   -26092   -26086   -26044   -26041 
  -26060   -26041   -26053   -26096   -26086   -26076   -26110   -26092 
  -26046   -26067   -26114   -26123   -26123   -26152   -26153   -26099 
  -26088   -26138   -26175   -26192   -26198   -26165   -26098   -26080 
  -26142   -26168   -26115   -26092   -26103   -26092   -26092   -26102 
  -26069   -26033   -26057   -26098   -26122   -26168   -26191   -26163 
  -26137   -26136   -26134   -26126   -26121   -26119   -26149   -26198 
  -26176   -26118   -26111   -26102   -26067   -26075   -26103   -26106 
  -26083   -26090   -26134   -26133   -26099   -26111   -26129   -26130 
  -26134   -26111   -26076   -26090   -26104   -26080   -26077   -26100 
  -26077   -26045   -26063   -26091   -26110   -26121   -26115   -26106 
  -26091   -26053   -26036   -26071   -26091   -26082   -26102   -26127 
  -26131   -26115   -26050   -26019   -26071   -26068   -26033   -26073 
  -26109   -26082   -26050   -26071   -26119   -26102   -26063   -26075 
  -26073   -26076   -26126   -26129   -26088   -26082   -26091   -26092 
  -26082   -26056   -26045   -26080   -26123   -26126   -26131   -26153 
  -26133   -26094   -26063   -26041   -26086   -26148   -26133   -26121 
  -26154   -26157   -26137   -26140   -26172   -26207   -26188   -26131 
  -26106   -26094   -26055   -26042   -26084   -26125   -26133   -26088 
  -26037   -26052   -26076   -26087   -26109   -26134   -26142   -26107 
  -26096   -26142   -26134   -26094   -26098   -26091   -26079   -26094 
  -26094   -26091   -26106   -26100   -26060   -26032   -26057   -26083 
  -26055   -26063   -26111   -26113   -26098   -26076   -26052   -26080 
  -26107   -26115   -26129   -26098   -26067   -26087   -26104   -26114 
  -26110   -26071   -26049   -26067   -26080   -26069   -26061   -26072 
  -26076   -26090   -26119   -26107   -26080   -26087   -26084   -26083 
  -26106   -26118   -26115   -26121   -26125   -26113   -26086   -26092 
  -26146   -26168   -26142   -26118   -26103   -26091   -26080   -26055 
  -26032   -26059   -26096   -26077   -26038   -26053   -26131   -26185 
  -26169   -26141   -26123   -26099   -26079   -26087   -26115   -26104 
  -26068   -26076   -26121   -26138   -26115   -26099   -26107   -26107 
  -26095   -26096   -26122   -26149   -26119   -26073   -26088   -26100 
  -26076   -26100   -26140   -26115   -26092   -26104   -26098   -26073 
  -26075   -26103   -26125   -26140   -26141   -26107   -26065   -26060 
  -26076   -26091   -26100   -26096   -26117   -26145   -26115   -26082 
  -26098   -26111   -26102   -26088   -26103   -26137   -26127   -26098 
  -26121   -26156   -26138   -26113   -26113   -26091   -26073   -26100 
  -26100   -26072   -26065   -26060   -26057   -26060   -26060   -26077 
  -26084   -26073   -26098   -26115   -26092   -26106   -26137   -26113 
  -26117   -26158   -26127   -26106   -26150   -26142   -26115   -26107 
  -26061   -26053   -26114   -26136   -26111   -26091   -26091   -26092 
  -26077   -26084   -26109   -26099   -26079   -26082   -26073   -26059 
  -26053   -26042   -26053   -26113   -26157   -26134   -26083   -26071 
  -26106   -26118   -26077   -26061   -26106   -26141   -26119   -26092 
  -26090   -26080   -26071   -26083   -26095   -26082   -26075   -26076 
  -26077   -26104   -26115   -26106   -26127   -26110   -26073   -26094 
  -26114   -26117   -26133   -26131   -26079   -26025   -26037   -26060 
  -26056   -26088   -26129   -26114   -26065   -26036   -26064   -26090 
  -26076   -26113   -26140   -26087   -26090   -26152   -26153   -26121 
  -26095   -26071   -26075   -26111   -26133   -26107   -26084   -26110 
  -26125   -26114   -26129   -26130   -26110   -26119   -26138   -26136 
  -26100   -26067   -26087   -26138   -26146   -26094   -26046   -26076 
  -26127   -26123   -26110   -26121   -26114   -26106   -26111   -26095 
  -26077   -26073   -26071   -26094   -26115   -26096   -26094   -26129 
  -26137   -26098   -26050   -26040   -26071   -26095   -26099   -26111 
  -26117   -26118   -26111   -26077   -26068   -26094   -26100   -26100 
  -26140   -26160   -26103   -26077   -26114   -26087   -26060   -26110 
  -26104   -26069   -26107   -26133   -26100   -26063   -26042   -26044 
  -26048   -26045   -26046   -26040   -26033   -26055   -26094   -26094 
  -26068   -26064   -26069   -26098   -26140   -26136   -26117   -26130 
  -26140   -26122   -26098   -26114   -26158   -26167   -26152   -26146 
  -26130   -26111   -26102   -26069   -26045   -26073   -26109   -26119 
  -26123   -26106   -26076   -26069   -26082   -26098   -26099   -26083 
  -26065   -26071   -26102   -26103   -26055   -26049   -26119   -26160 
  -26137   -26137   -26154   -26168   -26180   -26140   -26080   -26096 
  -26145   -26130   -26098   -26110   -26088   -26049   -26083   -26099 
  -26065   -26090   -26130   -26137   -26160   -26154   -26099   -26072 
  -26106   -26127   -26086   -26065   -26118   -26138   -26115   -26123 
  -26122   -26099   -26086   -26061   -26072   -26100   -26091   -26087 
  -26084   -26076   -26106   -26152   -26169   -26129   -26104   -26127 
  -26114   -26107   -26129   -26126   -26145   -26152   -26133   -26129 
  -26087   -26053   -26061   -26032   -26010   -26068   -26129   -26118 
  -26091   -26096   -26098   -26094   -26111   -26114   -26094   -26090 
  -26077   -26052   -26084   -26144   -26142   -26129   -26130   -26083 
  -26041   -26064   -26110   -26156   -26169   -26118   -26061   -26083 
  -26123   -26100   -26096   -26125   -26092   -26056   -26076   -26072 
  -26042   -26040   -26033   -26028   -26041   -26069   -26121   -26144 
  -26106   -26080   -26073   -26050   -26050   -26080   -26104   -26099 
  -26073   -26067   -26065   -26059   -26063   -26061   -26063   -26082 
  -26088   -26086   -26096   -26110   -26109   -26065   -26022   -26061 
  -26107   -26092   -26104   -26127   -26095   -26060   -26055   -26067 
  -26075   -26080   -26099   -26099   -26104   -26131   -26117   -26106 
  -26165   -26207   -26172   -26131   -26136   -26138   -26125   -26137 
  -26158   -26148   -26148   -26169   -26140   -26080   -26086   -26114 
  -26077   -26044   -26064   -26095   -26160   -26185   -26103   -26056 
  -26092   -26129   -26152   -26148   -26145   -26144   -26106   -26091 
  -26096   -26065   -26075   -26131   -26129   -26082   -26063   -26060 
  -26059   -26075   -26095   -26098   -26115   -26141   -26118   -26099 
  -26127   -26141   -26130   -26104   -26057   -26045   -26065   -26067 
  -26087   -26117   -26098   -26073   -26072   -26068   -26065   -26087 
  -26125   -26121   -26102   -26141   -26167   -26102   -26049   -26077 
  -26109   -26117   -26146   -26141   -26095   -26096   -26099   -26044 
  -26042   -26096   -26109   -26092   -26082   -26083   -26088   -26098 
  -26129   -26119   -26069   -26067   -26060   -26049   -26102   -26117 
  -26050   -26019   -26053   -26083   -26098   -26115   -26082   -26037 
  -26063   -26077   -26064   -26077   -26096   -26109   -26107   -26082 
  -26080   -26104   -26103   -26107   -26118   -26114   -26126   -26113 
  -26052   -26019   -26044   -26099   -26130   -26126   -26127   -26117 
  -26094   -26115   -26138   -26091   -26044   -26084   -26137   -26136 
  -26130   -26131   -26111   -26083   -26067   -26069   -26102   -26131 
  -26117   -26088   -26082   -26091   -26082   -26056   -26060   -26106 
  -26153   -26146   -26106   -26095   -26096   -26084   -26076   -26079 
  -26088   -26087   -26086   -26100   -26104   -26106   -26114   -26082 
  -26042   -26065   -26106   -26121   -26134   -26131   -26113   -26088 
  -26053   -26052   -26071   -26069   -26092   -26121   -26099   -26080 
  -26109   -26142   -26144   -26119   -26094   -26050   -26002   -26019 
  -26057   -26044   -26049   -26083   -26091   -26080   -26091   -26152 
  -26161   -26098   -26114   -26152   -26118   -26123   -26136   -26113 
  -26129   -26137   -26130   -26160   -26176   -26168   -26141   -26096 
  -26090   -26103   -26071   -26042   -26061   -26088   -26122   -26158 
  -26191   -26219   -26184   -26109   -26106   -26122   -26102   -26125 
  -26152   -26126   -26111   -26111   -26107   -26102   -26073   -26092 
  -26175   -26158   -26096   -26123   -26152   -26138   -26106   -26057 
  -26050   -26045   -26038   -26098   -26153   -26133   -26080   -26075 
  -26114   -26111   -26079   -26083   -26082   -26059   -26073   -26095 
  -26098   -26142   -26177   -26137   -26106   -26106   -26099   -26103 
  -26110   -26094   -26091   -26095   -26055   -26026   -26063   -26072 
  -26034   -26042   -26063   -26075   -26130   -26167   -26184   -26211 
  -26142   -26049   -26057   -26071   -26067   -26096   -26100   -26048 
  -26001   -26038   -26098   -26032   -25951   -26018   -26067   -26010 
  -26048   -26146   -26144   -26127   -26157   -26160   -26141   -26138 
  -26134   -26129   -26109   -26038   -25976   -25967   -25969   -25999 
  -26022   -26042   -26113   -26127   -26106   -26158   -26217   -26252 
  -26257   -26188   -26148   -26160   -26129   -26100   -26092   -26055 
  -26029   -26028   -26034   -26048   -26023   -26003   -26065   -26152 
  -26164   -26138   -26131   -26102   -26084   -26134   -26157   -26146 
  -26183   -26210   -26169   -26086   -26022   -26072   -26133   -26087 
  -26072   -26141   -26190   -26183   -26129   -26091   -26099   -26109 
  -26118   -26149   -26173   -26168   -26137   -26096   -26030   -25980 
  -26038   -26136   -26150   -26080   -26010   -26037   -26119   -26127 
  -26059   -26014   -26011   -26017   -26028   -26018   -26030   -26095 
  -26153   -26208   -26212   -26111   -26015   -25999   -26033   -26077 
  -26110   -26129   -26092   -26017   -25992   -25975   -25945   -26018 
  -26103   -26080   -26046   -26057   -26073   -26080   -26087   -26125 
  -26144   -26077   -26040   -26148   -26230   -26153   -26100   -26102 
  -26056   -26032   -26036   -26069   -26117   -26086   -26071   -26117 
  -26073   -26023   -26094   -26164   -26192   -26223   -26207   -26136 
  -26045   -25960   -25964   -26044   -26107   -26122   -26106   -26114 
  -26158   -26233   -26325   -26287   -26119   -26030   -26036   -26049 
  -26071   -26123   -26185   -26165   -26119   -26150   -26136   -26044 
  -26069   -26200   -26245   -26211   -26227   -26260   -26206   -26076 
  -25944   -25879   -25940   -26061   -26121   -26176   -26264   -26272 
  -26190   -26130   -26146   -26195   -26202   -26161   -26127   -26092 
  -26009   -25915   -25894   -25917   -25940   -26028   -26173   -26272 
  -26272   -26184   -26102   -26106   -26111   -26061   -26014   -26022 
  -26122   -26211   -26131   -25964   -25898   -25983   -26102   -26131 
  -26141   -26160   -26072   -25944   -25937   -25988   -26011   -26102 
  -26275   -26300   -26146   -26107   -26150   -26057   -26030   -26130 
  -26122   -26140   -26258   -26199   -26048   -26017   -25959   -25924 
  -26045   -26188   -26337   -26545   -26609   -26362   -26050   -25944 
  -25926   -25978   -26125   -26195   -26161   -26080   -25971   -25917 
  -25913   -25995   -26198   -26288   -26184   -26103   -26083   -26038 
  -26021   -26055   -26102   -26118   -26088   -26006   -25861   -25821 
  -25980   -26110   -26091   -26117   -26212   -26125   -25933   -25967 
  -26131   -26133   -25992   -25940   -26026   -26052   -26005   -26021 
  -26030   -26029   -26091   -26126   -26107   -26109   -26094   -26104 
  -26204   -26188   -25983   -25856   -25961   -26169   -26225   -26084 
  -25941   -25863   -25903   -26115   -26244   -26244   -26360   -26387 
  -26160   -26017   -26048   -26071   -26111   -26156   -26102   -26096 
  -26196   -26171   -26064   -26064   -26073   -26049   -26075   -26087 
  -26037   -26045   -26152   -26171   -26090   -26138   -26241   -26172 
  -26076   -26075   -26026   -25980   -26099   -26229   -26244   -26311 
  -26296   -26006   -25801   -25888   -26046   -26148   -26152   -26115 
  -26142   -26219   -26233   -26090   -25998   -26095   -26145   -26111 
  -26056   -25986   -26030   -26052   -25945   -25987   -26154   -26176 
  -26165   -26239   -26196   -26021   -25944   -26041   -26175   -26198 
  -26130   -26161   -26335   -26327   -26001   -25806   -25910   -25940 
  -25911   -26014   -26088   -26149   -26275   -26231   -26083   -26173 
  -26335   -26275   -26156   -26102   -26036   -26059   -26127   -26077 
  -26091   -26173   -26090   -26045   -26190   -26237   -26153   -26145 
  -26146   -26084   -26059   -26053   -26106   -26262   -26239   -25940 
  -25768   -25824   -25859   -25999   -26258   -26275   -26118   -26119 
  -26214   -26195   -26099   -26098   -26122   -26033   -25978   -26064 
  -26150   -26203   -26300   -26343   -26249   -26103   -25978   -25953 
  -25983   -25913   -25897   -26005   -25994   -25999   -26200   -26280 
  -26176   -26161   -26188   -26172   -26211   -26258   -26206   -26063 
  -25965   -26002   -25992   -25898   -25952   -26141   -26271   -26312 
  -26303   -26277   -26217   -26095   -26073   -26202   -26245   -26118 
  -26010   -26069   -26137   -26040   -25952   -26003   -26111   -26199 
  -26185   -26086   -26026   -26055   -26133   -26136   -26033   -26088 
  -26322   -26399   -26388   -26512   -26507   -26288   -26223   -26292 
  -26134   -25837   -25743   -25826   -25938   -26026   -26091   -26203 
  -26280   -26237   -26203   -26195   -26140   -26063   -26006   -26014 
  -26065   -26030   -25963   -26015   -26067   -26083   -26202   -26315 
  -26285   -26212   -26195   -26152   -26050   -25929   -25764   -25704 
  -25855   -25969   -26013   -26127   -26130   -26011   -25990   -25980 
  -25955   -26010   -26061   -26086   -26050   -25918   -25824   -25836 
  -25929   -26118   -26385   -26561   -26419   -26064   -25864   -25911 
  -25928   -25816   -25826   -25982   -26006   -25959   -26088   -26223 
  -26131   -25996   -26096   -26319   -26349   -26327   -26400   -26230 
  -25899   -25826   -25834   -25708   -25782   -26196   -26455   -26349 
  -26225   -26154   -26134   -26244   -26231   -26079   -26033   -25996 
  -25936   -26029   -26180   -26188   -26153   -26262   -26347   -26283 
  -26204   -26136   -26057   -25955   -25961   -26164   -26184   -26013 
  -25994   -25959   -25959   -26198   -26276   -26223   -26365   -26322 
  -26073   -26006   -25917   -25809   -25934   -26095   -26122   -26123 
  -26206   -26266   -26180   -26115   -26163   -26113   -25959   -25944 
  -26026   -26032   -26032   -26052   -26030   -26010   -26060   -26161 
  -26171   -26125   -26208   -26253   -26131   -26090   -26086   -25924 
  -25814   -25978   -26230   -26271   -26173   -26136   -26048   -25938 
  -25974   -26087   -26173   -26202   -26238   -26276   -26211   -26117 
  -26084   -26096   -26090   -26033   -25979   -25921   -25920   -26056 
  -26223   -26245   -26050   -25951   -26173   -26281   -26067   -25996 
  -26168   -26215   -26136   -26088   -26028   -25975   -26032   -26176 
  -26298   -26279   -26099   -25960   -26019   -26117   -26103   -26069 
  -26082   -26098   -26117   -26146   -26158   -26123   -26010   -25891 
  -25856   -25888   -26029   -26221   -26271   -26207   -26125   -26033 
  -26048   -26157   -26157   -26071   -26075   -26158   -26203   -26190 
  -26183   -26173   -26073   -25976   -26005   -26065   -26123   -26192 
  -26191   -26123   -26026   -25964   -26014   -26050   -26044   -26149 
  -26225   -26084   -25933   -25992   -26164   -26257   -26245   -26177 
  -26103   -26059   -25984   -25918   -25951   -25975   -26028   -26199 
  -26196   -26005   -25979   -26014   -25999   -26141   -26276   -26191 
  -26087   -26063   -26071   -26111   -26134   -26115   -26102   -26141 
  -26177   -26119   -26028   -25991   -26029   -26106   -26076   -25945 
  -25978   -26126   -26117   -26110   -26231   -26233   -26111   -26063 
  -26061   -26084   -26185   -26258   -26217   -26171   -26180   -26184 
  -26141   -26029   -25905   -25906   -26005   -26088   -26154   -26169 
  -26144   -26084   -25917   -25855   -26036   -26181   -26191   -26145 
  -26103   -26169   -26203   -26082   -26018   -26079   -26122   -26153 
  -26245   -26325   -26314   -26237   -26149   -26121   -26161   -26161 
  -26048   -25890   -25845   -25922   -25974   -26056   -26221   -26284 
  -26248   -26242   -26165   -26030   -26034   -26096   -26077   -26091 
  -26185   -26223   -26167   -26111   -26072   -26063   -26095   -26068 
  -25926   -25855   -25972   -26044   -26041   -26188   -26266   -26167 
  -26144   -26061   -25860   -25898   -26181   -26369   -26257   -26026 
  -26006   -26095   -26087   -26084   -26083   -26063   -26146   -26183 
  -26080   -26109   -26191   -26092   -26044   -26114   -26100   -26099 
  -26149   -26073   -25994   -26080   -26127   -26006   -25938   -26037 
  -26121   -26092   -26094   -26118   -26028   -25929   -25994   -26158 
