Origin Time       2024/04/02 04:24:00
Lat.              40.133
Long.             141.712
Depth. (km)       71
Mag.              6.0
Station Code      IBRH11
Station Lat.      36.3701
Station Long.     140.1401
Station Height(m) -36
Record Time       2024/04/02 04:26:20
Sampling Freq(Hz) 100Hz
Duration Time(s)  120
Dir.              2
Scale Factor      2942(gal)/8224139
Max. Acc. (gal)   0.478
Last Correction   2024/04/02 04:26:20
Memo.             
[...]
   92610    92610    92512    92604    92728    92731    92661    92589 
   92581    92550    92518    92566    92624    92578    92377    92190 
   92206    92333    92429    92464    92527    92653    92601    92419 
   92421    92479    92492    92630    92732    92664    92607    92581 
   92529    92504    92504    92572    92701    92715    92631    92591 
   92538    92506    92543    92554    92560    92591    92627    92677 
   92655    92580    92592    92619    92565    92554    92628    92626 
   92523    92497    92546    92527    92445    92381    92385    92458 
   92512    92514    92554    92603    92569    92539    92551    92500 
   92412    92429    92510    92546    92564    92547    92470    92473 
   92556    92581    92588    92581    92535    92491    92485    92591 
   92668    92578    92495    92484    92526    92580    92527    92535 
   92670    92653    92545    92596    92666    92653    92669    92630 
   92527    92515    92524    92500    92520    92576    92682    92816 
   92769    92537    92410    92476    92600    92678    92661    92616 
   92600    92561    92533    92566    92631    92614    92512    92512 
   92549    92479    92454    92491    92539    92561    92433    92341 
   92450    92580    92616    92566    92485    92373    92329    92475 
   92568    92583    92688    92627    92472    92623    92815    92716 
   92574    92510    92454    92539    92650    92574    92545    92623 
   92553    92458    92469    92477    92543    92627    92642    92685 
   92670    92585    92597    92619    92631    92681    92653    92581 
   92519    92496    92543    92553    92535    92595    92620    92545 
   92518    92514    92415    92381    92450    92496    92523    92556 
   92589    92583    92507    92475    92551    92620    92572    92466 
   92454    92556    92651    92657    92573    92516    92485    92373 
   92377    92546    92545    92415    92419    92507    92539    92519 
   92516    92487    92435    92479    92551    92556    92535    92554 
   92599    92611    92577    92533    92541    92591    92605    92624 
   92647    92611    92570    92542    92487    92466    92497    92511 
   92512    92570    92665    92657    92611    92655    92650    92619 
   92653    92601    92570    92653    92655    92615    92607    92557 
   92553    92608    92635    92649    92608    92568    92556    92497 
   92460    92421    92360    92369    92404    92452    92487    92453 
   92423    92388    92340    92358    92457    92524    92442    92423 
   92639    92746    92634    92601    92630    92604    92623    92662 
   92649    92692    92750    92724    92712    92650    92481    92484 
   92592    92514    92470    92595    92674    92732    92755    92701 
   92700    92699    92680    92762    92762    92622    92610    92632 
   92566    92630    92727    92651    92529    92522    92662    92739 
   92574    92403    92411    92469    92453    92410    92448    92483 
   92435    92402    92407    92425    92461    92518    92583    92623 
   92577    92415    92335    92443    92514    92489    92519    92523 
   92443    92504    92688    92657    92497    92537    92653    92614 
   92538    92529    92452    92410    92529    92576    92530    92518 
   92449    92398    92454    92546    92665    92697    92584    92473 
   92414    92441    92510    92458    92375    92408    92472    92470 
   92454    92500    92577    92584    92497    92458    92576    92693 
   92627    92502    92480    92533    92604    92662    92708    92722 
   92618    92465    92468    92637    92731    92605    92491    92516 
   92522    92558    92647    92585    92553    92669    92622    92485 
   92512    92547    92539    92604    92620    92524    92526    92622 
   92600    92538    92560    92583    92622    92681    92700    92712 
   92650    92546    92576    92637    92601    92520    92484    92543 
   92583    92581    92619    92642    92627    92516    92403    92489 
   92566    92450    92400    92541    92628    92569    92522    92487 
   92434    92489    92619    92709    92672    92495    92414    92407 
   92356    92448    92620    92669    92647    92653    92682    92639 
   92605    92665    92681    92655    92672    92672    92639    92584 
   92542    92587    92616    92588    92576    92515    92469    92522 
   92543    92589    92703    92628    92449    92483    92588    92614 
   92666    92649    92524    92523    92686    92709    92445    92227 
   92299    92427    92526    92665    92670    92560    92477    92416 
   92516    92630    92593    92628    92611    92511    92589    92662 
   92639    92619    92539    92519    92550    92458    92392    92391 
   92387    92484    92597    92589    92529    92512    92581    92657 
   92684    92688    92666    92620    92572    92614    92700    92665 
   92593    92569    92539    92508    92461    92460    92573    92637 
   92535    92493    92551    92506    92502    92596    92578    92564 
   92588    92556    92581    92628    92638    92649    92569    92442 
   92418    92479    92531    92531    92488    92549    92740    92790 
   92634    92469    92379    92423    92531    92611    92661    92615 
   92546    92568    92583    92462    92381    92542    92639    92529 
   92539    92627    92604    92520    92512    92584    92522    92510 
   92716    92695    92495    92500    92512    92475    92562    92607 
   92569    92607    92607    92500    92470    92487    92445    92454 
   92531    92549    92480    92452    92495    92495    92493    92550 
   92597    92626    92615    92589    92672    92742    92637    92547 
   92515    92381    92371    92604    92740    92651    92542    92526 
   92545    92534    92522    92587    92734    92781    92622    92453 
   92403    92445    92538    92597    92645    92699    92759    92761 
   92550    92365    92438    92522    92557    92650    92650    92520 
   92445    92473    92524    92541    92535    92577    92643    92623 
   92593    92670    92763    92808    92759    92562    92407    92480 
   92651    92709    92695    92666    92512    92368    92369    92373 
   92441    92574    92530    92389    92402    92480    92454    92423 
   92415    92434    92560    92547    92412    92466    92500    92416 
   92416    92450    92462    92484    92587    92693    92549    92357 
   92399    92469    92497    92565    92578    92553    92600    92670 
   92627    92535    92469    92410    92506    92654    92631    92623 
   92677    92661    92599    92587    92713    92734    92520    92445 
   92561    92618    92653    92674    92574    92396    92222    92210 
   92423    92495    92362    92371    92398    92295    92265    92364 
   92460    92453    92458    92527    92566    92578    92565    92593 
   92668    92630    92568    92562    92480    92391    92434    92534 
   92510    92362    92415    92686    92758    92672    92604    92493 
   92522    92655    92722    92863    92877    92585    92416    92549 
   92755    92901    92893    92718    92539    92576    92758    92790 
   92686    92562    92395    92377    92518    92495    92426    92545 
   92592    92443    92416    92584    92603    92480    92524    92628 
   92550    92402    92387    92427    92407    92485    92678    92766 
   92695    92550    92434    92492    92762    92977    92901    92732 
   92665    92623    92577    92581    92647    92693    92672    92627 
   92522    92491    92680    92782    92619    92399    92331    92372 
   92352    92441    92673    92726    92581    92499    92591    92643 
   92566    92628    92735    92650    92608    92763    92853    92731 
   92576    92503    92475    92470    92493    92531    92565    92630 
   92626    92371    92168    92219    92238    92412    92820    92912 
   92753    92697    92574    92427    92500    92658    92701    92632 
   92596    92689    92777    92703    92566    92570    92676    92662 
   92497    92349    92296    92418    92681    92724    92600    92597 
   92472    92287    92395    92589    92635    92572    92483    92383 
   92367    92639    92894    92724    92394    92180    92105    92291 
   92632    92716    92454    92179    92071    92064    92184    92449 
   92597    92531    92523    92572    92523    92449    92430    92538 
   92735    92767    92569    92399    92457    92677    92770    92576 
   92406    92514    92746    92874    92638    92138    91921    92028 
   92111    92276    92623    92800    92658    92503    92496    92530 
   92524    92497    92481    92500    92672    92928    92874    92439 
   92103    92171    92322    92263    92279    92492    92611    92672 
   92754    92692    92593    92591    92543    92421    92380    92600 
   92935    92973    92668    92260    91941    91832    92018    92519 
   92961    93001    92796    92487    92250    92229    92227    92254 
   92423    92533    92572    92769    92944    92812    92657    92672 
   92641    92647    92728    92634    92493    92493    92438    92318 
   92334    92362    92242    92200    92443    92662    92565    92542 
   92812    92965    92947    92870    92634    92484    92520    92570 
   92793    93020    92935    92862    92900    92790    92755    92970 
   93140    92904    92399    92291    92628    92932    93154    93135 
   92757    92580    92792    92983    93202    93515    93403    92794 
   92223    91948    92090    92438    92406    92267    92504    92631 
   92489    92664    93056    93117    92869    92565    92453    92650 
   92801    92831    92962    92907    92637    92558    92638    92769 
   92912    92813    92507    92318    92385    92634    92921    92978 
   92583    92024    91805    92014    92438    92946    93386    93337 
   92767    92300    92275    92580    92927    92881    92340    91820 
   91828    92041    92057    92129    92431    92835    93064    92969 
   92659    92230    92048    92192    92102    91933    92068    92159 
   92227    92512    92653    92531    92423    92311    92140    92013 
   92036    92227    92568    92908    92859    92546    92346    92161 
   91984    91952    92183    92647    92880    92651    92415    92504 
   92549    92330    92218    92367    92553    92623    92576    92454 
   92507    92709    92469    92167    92638    93183    93104    92898 
   92654    92184    91940    92168    92573    92749    92522    92240 
   92173    92107    92051    92402    92911    92808    92403    92497 
   92635    92362    92384    92759    92800    92755    92908    92739 
   92176    91835    92055    92520    92716    92605    92477    92430 
   92326    92092    92002    92169    92421    92711    92753    92661 
   92907    92881    92443    92670    93204    93037    92709    92735 
   92732    92616    92585    92523    92523    92978    93405    93162 
   92738    92719    92875    92584    92155    92396    92712    92705 
   93032    93260    93108    93112    92853    92410    92557    93001 
   93326    93283    92817    92569    92406    91894    91774    92300 
   92677    92869    93143    92955    92240    91740    91948    92564 
   92759    92587    92673    92780    92604    92394    92381    92456 
   92396    92543    92931    92901    92750    92986    93109    92870 
   92518    92412    92556    92292    92053    92522    92851    92788 
   92692    92411    92584    93213    93087    92493    92383    92518 
   92566    92674    92766    92564    92314    92318    92169    91902 
   92106    92537    92799    92951    92792    92492    92487    92512 
   92403    92229    92277    92805    92912    92383    92221    92249 
   91979    91926    92184    92256    92180    92025    91801    91729 
   91689    91805    92115    92271    92453    92604    92371    92099 
   92300    92793    92989    92973    92882    92403    92024    92318 
   92643    92434    92188    92053    91625    91598    92546    93127 
   92570    92265    92626    92539    92379    92904    93294    93158 
   92889    92592    92720    93143    93043    92777    92750    92716 
   92692    92457    92244    92576    92828    92488    92184    92437 
   92767    92805    92943    92977    92554    92468    93106    93586 
   93372    92946    92866    93087    93251    93240    93035    92707 
   92523    92394    92296    92530    92746    92659    92823    93074 
   92722    92472    92847    92774    92414    92801    93037    92755 
   92939    93179    92958    92599    92175    91952    91997    92051 
   92288    92601    92688    92828    93023    92961    92777    92534 
   92082    91592    91779    92774    93388    93229    93021    92801 
   92431    92125    92169    92907    93515    92859    91983    92103 
   92429    92129    91562    91585    92211    92488    92318    92410 
   92732    92649    92214    92202    92611    92850    93051    93274 
   92975    92338    92057    91821    91288    91351    92341    93112 
   93110    92801    92298    91791    91536    91417    91804    92631 
   93044    92978    92769    92423    92209    92383    92475    92371 
   92688    92936    92750    92978    93278    93231    93183    92785 
   92429    92539    92237    91760    91979    92352    92346    92322 
   92330    92061    92005    92708    93170    92784    92647    92877 
   92616    91918    91656    92450    93163    92885    92535    92153 
   91590    91678    92252    92549    92331    92083    92125    91729 
   91218    91727    92410    92277    92307    93023    93286    92924 
   93035    93278    93085    93191    93426    93002    92242    91994 
   92335    92574    92626    92615    92446    92341    92183    92082 
   92523    92946    92728    92375    92257    92298    92604    92958 
   93179    93468    93653    93722    93573    92942    92772    93359 
   93421    92969    92759    92546    92222    92024    92176    92622 
   92751    92545    92452    92367    92439    92898    93067    92578 
   92203    92550    93154    93139    92662    92627    92993    93191 
   93162    93124    93388    93522    92726    91845    91829    92072 
   92414    92715    92311    91867    92011    92145    92223    92541 
   92815    92894    92907    92711    92175    91801    92086    92464 
   92554    92997    93301    92631    92164    92703    93102    92786 
   92654    92804    92195    91373    91565    92036    92092    92352 
   92668    92404    91994    92074    92553    93094    93205    92774 
   92453    92311    92048    91928    92017    92175    92388    92680 
   92765    92410    92437    92988    93037    92950    93289    93210 
   92819    93090    93391    92898    92415    92456    92510    92385 
   92107    91972    92299    92508    92317    92117    92052    92146 
   92279    92542    92900    92786    92302    92065    92344    92804 
   92691    92176    92072    92318    92599    92800    92739    92553 
   92323    92140    92275    92485    92533    92480    92195    91933 
   92087    92337    92371    92515    92774    92572    92092    92125 
   92626    92956    92890    92718    92674    92596    92311    92129 
   92531    93128    93090    92801    92880    93166    93499    93617 
   93451    93151    92809    92595    92434    92533    92838    92757 
   92583    92618    92445    92211    92275    92453    92615    92688 
   92556    92483    92596    92743    92796    92469    92088    92295 
   92703    92770    92696    92669    92651    92497    92248    92373 
   92624    92317    92134    92616    92840    92649    92707    92751 
   92430    92387    92946    93285    93063    92873    92807    92546 
   92195    92327    93101    93526    93024    92659    93058    93278 
   92925    92685    92797    92973    93040    92932    92678    92395 
   92213    92354    92578    92403    92199    92238    92078    91804 
   91844    92025    92032    92051    92175    92219    92234    92250 
   92260    92276    92190    92326    92646    92496    92163    92263 
   92670    92908    92600    92080    91932    92055    92253    92458 
   92418    92268    92384    92578    92491    92395    92622    92890 
   93075    93270    93310    93204    93101    93070    93104    93139 
   93070    92661    92165    92215    92653    92800    92614    92445 
   92310    92338    92583    92641    92553    92419    92125    92160 
   92641    92854    92604    92254    92061    92233    92565    92705 
   92719    92529    92203    92144    92222    92173    92068    92045 
   92283    92566    92422    92124    92254    92550    92546    92651 
   93147    93189    92527    92171    92300    92385    92489    92529 
   92537    92836    92952    92726    92736    92865    92723    92572 
   92792    93051    92983    92993    93017    92624    92353    92556 
   92591    92345    92388    92604    92600    92588    92678    92755 
   92826    92731    92538    92599    92817    92900    92840    92691 
   92329    91898    92022    92718    93046    92848    92645    92233 
   91817    91944    92217    92192    91895    91602    91665    91906 
   91909    91854    92221    92535    92269    92227    92557    92443 
   92134    92038    92014    92009    91986    92225    92697    92954 
   93141    93204    92858    92688    92992    93193    93164    93162 
   93082    92801    92483    92488    92781    92807    92493    92264 
   92263    92439    92642    92607    92403    92387    92497    92441 
   92319    92349    92639    93001    92977    92817    92812    92539 
   92284    92469    92761    92994    92863    92385    92232    92298 
   92287    92356    92483    92742    92888    92655    92599    92643 
   92438    92518    92653    92449    92507    92541    92068    91905 
   92277    92569    92758    92790    92518    92377    92395    92371 
   92877    93476    93263    93135    93321    93028    92885    93123 
   93013    92866    93078    93232    93128    92886    92450    92013 
   91959    92276    92658    92808    92759    92601    92330    92294 
   92639    92979    93019    92799    92728    92973    93036    92758 
   92442    92364    92699    92907    92681    92533    92406    92134 
   92036    92169    92394    92731    92929    92396    91696    91991 
   92623    92503    92299    92608    92669    92311    92303    92581 
   92688    92583    92242    92002    92125    92225    92205    92352 
   92588    92672    92637    92550    92524    92553    92229    91824 
   92064    92469    92407    92426    92696    92604    92310    92362 
   92581    92616    92483    92443    92716    92896    92703    92734 
   92986    92794    92395    92340    92379    92202    92199    92620 
   92977    92927    92807    92801    92655    92461    92423    92578 
   92925    93136    93295    93602    93447    92857    92827    93298 
   93181    92588    92472    92500    92145    92055    92418    92443 
   91951    91628    91874    92307    92543    92736    92870    92727 
   92585    92539    92437    92568    92731    92452    92225    92313 
   92298    92322    92634    92894    92878    92786    92632    92341 
   92206    92325    92495    92607    92573    92562    92739    92851 
   92788    92773    92850    92907    92947    92831    92614    92603 
   92504    92074    91982    92493    92842    92754    92674    92534 
