Origin Time       2024/04/02 04:24:00
Lat.              40.133
Long.             141.712
Depth. (km)       71
Mag.              6.0
Station Code      IBUH05
Station Lat.      42.5629
Station Long.     141.3497
Station Height(m) -157
Record Time       2024/04/02 04:25:22
Sampling Freq(Hz) 100Hz
Duration Time(s)  150
Dir.              3
Scale Factor      2942(gal)/8224139
Max. Acc. (gal)   0.563
Last Correction   2024/04/02 04:25:22
Memo.             
[...]
   91295    91316    91457    91523    91477    91466    91470    91423 
   91390    91328    91176    91089    91165    91323    91461    91500 
   91516    91628    91740    91720    91586    91457    91432    91500 
   91628    91770    91839    91821    91739    91619    91558    91602 
   91638    91573    91488    91393    91227    91098    91149    91332 
   91450    91439    91417    91423    91457    91604    91750    91642 
   91422    91428    91625    91778    91782    91633    91417    91258 
   91218    91335    91552    91646    91516    91400    91482    91615 
   91628    91558    91484    91466    91478    91407    91273    91166 
   91116    91147    91247    91316    91284    91218    91251    91389 
   91466    91343    91137    91092    91195    91235    91237    91326 
   91354    91297    91467    91804    91914    91858    91841    91778 
   91716    91783    91836    91818    91840    91790    91605    91386 
   91185    91111    91212    91331    91413    91535    91647    91633 
   91504    91374    91281    91165    91096    91199    91382    91503 
   91604    91729    91770    91654    91519    91492    91520    91536 
   91532    91494    91432    91396    91342    91242    91220    91196 
   91057    91057    91251    91339    91299    91330    91416    91439 
   91422    91416    91450    91578    91758    91918    92055    92044 
   91840    91665    91598    91482    91350    91341    91386    91470 
   91658    91833    91890    91864    91801    91770    91812    91886 
   91925    91874    91795    91831    91935    91943    91879    91848 
   91813    91774    91775    91762    91723    91762    91824    91706 
   91521    91516    91534    91372    91237    91326    91409    91251 
   91093    91188    91358    91447    91578    91656    91497    91365 
   91486    91601    91505    91370    91288    91134    91023    91112 
   91192    91135    91081    91166    91374    91565    91756    91982 
   92017    91829    91750    91874    91867    91675    91609    91577 
   91401    91378    91633    91844    91874    91874    91920    91953 
   91935    91928    91976    91963    91825    91728    91743    91710 
   91593    91501    91434    91408    91501    91609    91611    91596 
   91644    91678    91689    91729    91747    91723    91689    91611 
   91463    91355    91342    91324    91257    91162    91087    91122 
   91230    91241    91179    91176    91174    91122    91192    91431 
   91598    91598    91551    91516    91544    91643    91700    91678 
   91604    91586    91728    91837    91773    91728    91736    91624 
   91494    91571    91791    91890    91828    91775    91740    91675 
   91712    91901    92059    92061    91989    91925    91849    91746 
   91712    91777    91755    91574    91458    91573    91725    91663 
   91534    91570    91616    91512    91453    91550    91601    91485 
   91303    91180    91199    91335    91388    91285    91189    91187 
   91206    91143    91006    90931    90956    90992    91039    91134 
   91177    91116    91035    90900    90699    90605    90628    90612 
   90568    90630    90814    90964    91019    91066    91044    90930 
   90937    91102    91243    91339    91422    91415    91405    91520 
   91569    91447    91386    91454    91484    91480    91562    91600 
   91382    91122    91112    91204    91247    91365    91542    91665 
   91777    91898    91945    91905    91827    91752    91774    91890 
   91875    91683    91524    91423    91363    91454    91646    91762 
   91701    91501    91362    91454    91662    91723    91586    91382 
   91276    91374    91566    91739    91903    91940    91810    91782 
   91883    91809    91593    91439    91253    91054    91091    91342 
   91508    91444    91304    91269    91280    91212    91197    91319 
   91413    91461    91554    91642    91663    91656    91650    91624 
   91628    91692    91714    91701    91723    91708    91673    91719 
   91706    91490    91288    91311    91408    91473    91557    91601 
   91597    91605    91682    91851    91980    91948    91831    91797 
   91922    92070    92113    92049    91851    91624    91543    91579 
   91620    91606    91579    91571    91550    91538    91609    91733 
   91801    91824    91868    91858    91752    91589    91393    91258 
   91245    91251    91211    91300    91536    91642    91600    91627 
   91702    91685    91598    91582    91623    91571    91465    91353 
   91030    90597    90571    90980    91332    91571    91887    92025 
   91912    91947    92105    92038    91752    91426    91120    90910 
   90929    91110    91249    91274    91273    91323    91314    91164 
   91071    91088    91058    91021    91061    91133    91246    91411 
   91492    91467    91489    91561    91558    91497    91474    91515 
   91525    91458    91423    91455    91488    91563    91731    91837 
   91821    91785    91628    91308    91061    90964    90931    90984 
   91126    91304    91489    91639    91706    91756    91817    91724 
   91477    91291    91161    91071    91164    91272    91087    90822 
   90819    90931    90934    90946    91096    91293    91458    91548 
   91490    91440    91589    91689    91538    91381    91407    91469 
   91454    91478    91619    91682    91517    91250    91039    90999 
   91135    91251    91245    91215    91247    91431    91767    92025 
   92057    91983    91843    91660    91670    91864    91951    91903 
   91789    91512    91257    91336    91621    91782    91779    91713 
   91617    91582    91712    91898    91887    91619    91424    91561 
   91779    91921    92136    92230    91953    91731    91886    91984 
   91739    91444    91327    91355    91520    91771    91920    91820 
   91577    91461    91562    91764    91979    92141    92187    92219 
   92341    92331    92045    91820    91859    91889    91800    91727 
   91639    91444    91164    90910    90856    90915    90880    90861 
   90971    91114    91305    91561    91758    91898    92029    92102 
   92140    92171    92106    92024    91959    91705    91419    91463 
   91625    91535    91264    91014    90984    91165    91249    91292 
   91484    91478    91254    91307    91539    91619    91714    91839 
   91771    91662    91669    91632    91528    91511    91606    91752 
   91872    91925    91918    91804    91627    91584    91581    91461 
   91477    91710    91787    91642    91643    91843    91866    91635 
   91521    91646    91643    91388    91273    91459    91598    91517 
   91451    91426    91192    90918    90971    91187    91219    91228 
   91440    91509    91223    91053    91142    91053    90817    90813 
   90977    91081    91116    91179    91303    91357    91272    91234 
   91324    91470    91677    91821    91710    91442    91204    91042 
   90952    90956    91045    91143    91169    91095    91088    91335 
   91678    91793    91651    91446    91242    91129    91262    91455 
   91440    91382    91476    91577    91552    91488    91490    91505 
   91477    91602    91956    92209    92192    92117    92037    91854 
   91683    91615    91528    91396    91315    91324    91351    91316 
   91257    91249    91228    91129    91079    91154    91292    91540 
   91859    92049    92130    92254    92383    92403    92331    92213 
   92076    91978    91918    91845    91755    91620    91350    91052 
   90967    91062    91153    91222    91319    91408    91454    91534 
   91774    92092    92215    92084    91959    91978    92028    92098 
   92191    92144    91924    91667    91482    91467    91593    91674 
   91724    91856    91889    91660    91319    91012    90837    90913 
   91208    91530    91705    91783    91887    91951    91984    92068 
   92002    91719    91558    91650    91702    91539    91338    91233 
   91073    90891    90965    91200    91251    91165    91196    91284 
   91284    91399    91690    91836    91790    91751    91693    91682 
   91840    91939    91798    91589    91440    91363    91322    91253 
   91200    91285    91566    91930    92091    91933    91802    91901 
   91854    91493    91207    91165    91162    91181    91358    91585 
   91662    91605    91557    91552    91511    91434    91442    91535 
   91639    91848    92157    92246    91993    91709    91617    91554 
   91444    91485    91588    91497    91380    91365    91260    91115 
   91034    90818    90529    90545    90779    90806    90687    90749 
   90884    90902    90954    91184    91507    91804    92016    92095 
   91989    91795    91675    91579    91480    91449    91411    91320 
   91238    91135    91038    91025    91033    91060    91156    91134 
   90995    91049    91211    91269    91489    91891    92011    91859 
   91794    91806    91773    91654    91498    91444    91469    91523 
   91613    91601    91397    91139    90961    90880    90946    91206 
   91442    91451    91393    91411    91377    91303    91388    91536 
   91509    91389    91444    91702    91905    91885    91706    91446 
   91150    90972    91054    91289    91446    91390    91165    91052 
   91179    91295    91331    91473    91704    91871    91982    92159 
   92322    92215    91818    91368    91053    90904    90925    91088 
   91249    91324    91451    91689    91789    91694    91682    91725 
   91615    91505    91575    91636    91536    91435    91386    91291 
   91255    91389    91590    91790    91986    92095    92092    92107 
   92115    92010    91993    92167    92223    92060    91860    91658 
   91446    91274    91129    91006    90929    90922    91026    91210 
   91416    91651    91866    91890    91731    91635    91594    91458 
   91358    91374    91353    91210    91156    91362    91569    91628 
   91752    91821    91593    91289    91156    91204    91369    91467 
   91485    91627    91814    91818    91762    91816    91783    91627 
   91679    91921    92087    92129    92009    91876    91970    92044 
   91878    91671    91478    91204    91027    91065    91071    90934 
   90860    90960    91150    91336    91494    91548    91478    91528 
   91797    91999    91964    91866    91860    91856    91768    91704 
   91628    91376    91141    91169    91272    91293    91327    91354 
   91318    91314    91405    91481    91395    91270    91270    91210 
   91060    91089    91255    91328    91305    91260    91247    91254 
   91206    91212    91427    91694    91763    91605    91372    91292 
   91442    91558    91374    91084    91015    91060    91076    91207 
   91322    91239    91224    91408    91571    91620    91566    91428 
   91299    91253    91392    91773    92080    92029    91912    92020 
   92179    92275    92314    92206    92009    91781    91442    91114 
   91000    91112    91342    91534    91663    91926    92257    92284 
   92084    92006    91887    91524    91237    91226    91241    91068 
   90828    90748    90868    90990    91011    91033    90963    90687 
   90571    90945    91431    91567    91581    91692    91644    91527 
   91706    92036    92186    92140    92028    91941    91808    91500 
   91135    90896    90813    90863    90983    91138    91319    91309 
   90988    90760    90965    91258    91258    91134    91077    90999 
   90902    90972    91135    91095    90926    90953    91199    91490 
   91754    91909    91822    91586    91453    91432    91415    91493 
   91702    91858    91960    92141    92277    92202    91995    91833 
   91740    91646    91536    91512    91643    91746    91714    91701 
   91681    91571    91521    91589    91671    91755    91797    91713 
   91702    91899    92018    92009    92071    92041    91808    91720 
   91906    92009    91908    91890    92025    92072    92006    92075 
   92244    92210    92014    91854    91665    91486    91434    91389 
   91324    91303    91265    91204    91165    91180    91251    91234 
   91039    90898    91014    91233    91388    91530    91674    91847 
   92094    92232    92160    92059    91956    91824    91794    91816 
   91746    91654    91581    91470    91335    91110    90765    90522 
   90541    90693    90794    90803    90764    90769    90867    91006 
   91162    91305    91422    91559    91701    91767    91706    91609 
   91655    91790    91876    91970    92047    91975    91778    91585 
   91512    91554    91530    91386    91292    91284    91269    91347 
   91538    91558    91374    91254    91250    91311    91428    91524 
   91540    91490    91431    91471    91624    91759    91809    91825 
   91833    91828    91829    91839    91794    91651    91470    91380 
   91368    91326    91280    91253    91152    91035    91022    91056 
   91143    91303    91377    91395    91535    91751    91932    92026 
   91918    91671    91515    91461    91399    91385    91458    91508 
   91484    91462    91589    91863    91976    91812    91640    91573 
   91515    91520    91659    91825    91922    92009    92146    92229 
   92168    92113    92080    91917    91774    91849    92006    92068 
   91990    91883    91914    91974    91913    91812    91701    91520 
   91368    91395    91503    91562    91674    91833    91913    91913 
   91939    92048    92078    91943    91894    91951    91887    91794 
   91839    91870    91743    91575    91449    91311    91154    91012 
   90833    90482    90076    89935    90092    90294    90385    90520 
   90817    91060    91192    91368    91524    91532    91373    91147 
   91057    91218    91520    91674    91524    91326    91382    91585 
   91727    91802    91759    91540    91272    91053    90882    90849 
   91062    91324    91380    91386    91523    91665    91655    91420 
   91123    91015    91034    91049    91080    91103    91091    91141 
   91314    91505    91660    91800    91879    91972    92159    92307 
   92356    92368    92284    92106    92011    92007    91941    91849 
   91821    91836    91831    91743    91647    91642    91589    91426 
   91365    91508    91627    91551    91413    91370    91411    91473 
   91570    91681    91689    91667    91781    91856    91727    91598 
   91557    91440    91285    91230    91211    91130    90981    90764 
   90572    90562    90687    90803    90968    91319    91778    92078 
   92156    92190    92175    92001    91740    91497    91319    91247 
   91293    91408    91463    91412    91366    91363    91358    91285 
   91154    91091    91079    90998    90864    90705    90516    90406 
   90532    90898    91309    91592    91767    91813    91640    91463 
   91515    91639    91677    91631    91559    91667    91894    91890 
   91789    91957    92233    92327    92392    92543    92497    92172 
   91917    91818    91677    91486    91373    91380    91420    91435 
   91515    91632    91709    91829    91940    91881    91696    91488 
   91315    91242    91251    91284    91288    91216    91122    91088 
   91104    91119    91141    91285    91575    91849    91945    91856 
   91724    91611    91488    91440    91485    91476    91427    91490 
   91606    91652    91685    91713    91654    91554    91449    91388 
   91455    91515    91470    91376    91177    90944    90845    90807 
   90717    90652    90688    90757    90856    91053    91187    91106 
   90938    90815    90733    90702    90806    91035    91179    91207 
   91353    91570    91675    91764    91879    91841    91733    91793 
   91917    91918    91924    92101    92341    92472    92499    92511 
   92507    92334    92018    91854    91786    91548    91342    91420 
   91584    91663    91748    91856    91875    91775    91689    91766 
   91970    92153    92238    92209    92114    92084    92103    92018 
   91879    91805    91732    91624    91577    91604    91582    91531 
   91488    91312    91044    90890    90788    90589    90435    90512 
   90682    90757    90774    90821    90919    91003    91072    91183 
   91280    91370    91478    91453    91230    90990    90859    90780 
   90772    90948    91179    91234    91206    91328    91515    91571 
   91563    91501    91327    91274    91501    91755    91775    91565 
   91265    91025    90872    90745    90695    90775    90873    91025 
   91326    91558    91594    91629    91670    91577    91517    91663 
   91881    92090    92287    92331    92232    92161    92126    92037 
   91933    91871    91828    91820    91876    91940    91976    92009 
   92041    92098    92184    92254    92321    92426    92533    92538 
   92380    92144    91951    91751    91504    91339    91253    91092 
   90904    90879    90990    91065    91046    90977    90944    90946 
   90909    90894    90965    90996    90929    90903    91052    91345 
   91682    91976    92182    92294    92333    92385    92565    92746 
   92669    92325    91897    91509    91247    91197    91300    91357 
   91262    91143    91233    91555    91844    91930    91908    91872 
   91839    91874    92055    92244    92223    92043    91889    91821 
   91868    91970    91893    91650    91570    91744    91886    91791 
   91594    91395    91108    90873    90872    90887    90734    90595 
   90582    90633    90807    91157    91540    91750    91752    91768 
   91913    92016    91998    92003    92017    91867    91605    91451 
   91524    91740    91831    91724    91635    91586    91517    91478 
   91422    91384    91420    91416    91432    91551    91585    91467 
   91281    91026    90829    90815    90830    90779    90784    90856 
   90909    90995    91179    91374    91407    91254    91174    91291 
   91377    91338    91326    91389    91443    91458    91512    91705 
   91956    92049    91984    91957    91978    91959    91983    92038 
   91908    91600    91365    91301    91314    91322    91296    91193 
   91006    90845    90837    90914    90944    90904    90861    90946 
   91193    91430    91525    91555    91550    91507    91563    91725 
   91841    91939    92072    92128    92037    91885    91762    91663 
   91579    91565    91656    91795    91903    91993    92075    92047 
   91890    91809    91868    91827    91600    91370    91223    91165 
   91189    91174    91131    91195    91281    91291    91292    91227 
   91075    90990    91045    91233    91411    91385    91288    91299 
   91305    91246    91210    91246    91339    91451    91570    91716 
   91783    91623    91342    91161    91108    91111    91092    91023 
   90981    90995    90977    90938    90980    91064    91120    91215 
   91358    91478    91582    91681    91773    91924    92151    92416 
   92643    92707    92546    92236    91945    91825    91852    91867 
   91774    91615    91434    91245    91083    90956    90865    90830 
   90853    90940    91119    91330    91444    91446    91446    91528 
   91686    91833    91886    91868    91851    91809    91708    91559 
   91369    91230    91181    91068    90948    91053    91249    91305 
   91342    91492    91652    91747    91774    91729    91706    91716 
   91692    91767    91970    92002    91782    91573    91474    91434 
   91455    91430    91291    91143    91048    91066    91238    91408 
