Origin Time       2024/04/02 04:24:00
Lat.              40.133
Long.             141.712
Depth. (km)       71
Mag.              6.0
Station Code      IBUH01
Station Lat.      42.8739
Station Long.     141.8191
Station Height(m) -40.6
Record Time       2024/04/02 04:25:23
Sampling Freq(Hz) 100Hz
Duration Time(s)  148
Dir.              1
Scale Factor      2940(gal)/6170270
Max. Acc. (gal)   0.546
Last Correction   2024/04/02 04:25:08
Memo.             
[...]
   99541    99556    99551    99545    99571    99623    99680    99730 
   99780    99842    99916    99974    99996    99985    99957    99936 
   99936    99959   100010   100080   100138   100176   100217   100259 
  100275   100268   100250   100211   100131   100022    99920    99846 
   99795    99775    99810    99870    99906    99922    99932    99923 
   99902    99896    99933   100003   100064   100102   100128   100142 
  100132   100112   100105   100111   100120   100141   100172   100180 
  100162   100155   100155   100130   100075   100001    99906    99817 
   99782    99802    99843    99873    99863    99814    99756    99709 
   99693    99710    99734    99730    99698    99662    99649    99689 
   99780    99875    99944    99999   100043   100066   100087   100118 
  100137   100117   100074   100040   100005    99949    99900    99873 
   99845    99813    99800    99827    99889    99941    99937    99898 
   99886    99907    99929    99954    99998   100040   100064   100089 
  100137   100185   100210   100216   100199   100149   100075    99995 
   99939    99918    99905    99882    99855    99840    99837    99840 
   99855    99881    99898    99899    99898    99905    99932    99985 
  100034   100048   100042   100036   100032   100049   100091   100124 
  100136   100136   100114   100072   100028    99991    99947    99878 
   99791    99737    99753    99829    99931   100020   100055   100027 
   99979    99937    99887    99818    99751    99714    99726    99777 
   99838    99899    99956   100001   100035   100067   100090   100092 
  100078   100051   100003    99957    99944    99959    99969    99975 
  100011   100080   100133   100128   100079   100027    99978    99928 
   99886    99859    99852    99858    99877    99927    99993   100020 
   99994    99952    99905    99844    99797    99798    99832    99876 
   99926    99971    99997   100010   100026   100038   100021   100000 
  100005   100003    99974    99943    99918    99901    99897    99906 
   99925    99967   100032   100091   100122   100128   100110   100065 
  100001    99956    99952    99956    99930    99892    99870    99867 
   99887    99931    99980   100010    99997    99946    99894    99873 
   99886    99924    99968    99993    99997   100002   100011   100001 
   99972    99941    99903    99865    99866    99916    99968    99990 
   99990    99971    99929    99884    99849    99821    99786    99747 
   99738    99766    99793    99814    99845    99874    99919    99999 
  100067   100086   100082   100066   100023    99958    99893    99854 
   99842    99842    99863    99913    99971    99992    99961    99908 
   99866    99842    99823    99788    99752    99742    99741    99731 
   99735    99785    99868    99961   100043   100084   100064   100018 
   99984    99958    99947    99970   100008   100030   100036   100042 
  100044   100035   100030   100051   100064   100033    99975    99919 
   99882    99877    99895    99914    99939    99984   100030   100031 
   99988    99956    99962    99985   100013   100043   100047   100012 
   99966    99941    99956    99997   100033   100049   100048   100038 
  100017    99971    99928    99936    99975   100003   100028   100069 
  100111   100122   100106   100085   100058   100019    99980    99955 
   99926    99877    99832    99823    99828    99806    99754    99700 
   99682    99715    99769    99806    99817    99833    99880    99929 
   99967   100021   100092   100149   100180   100156   100064    99968 
   99940    99955    99955    99936    99926    99929    99927    99928 
   99950    99979    99987    99978    99962    99940    99920    99913 
   99917    99928    99950    99989   100056   100131   100182   100187 
  100145   100097   100095   100122   100127   100114   100093   100053 
   99996    99936    99884    99864    99877    99897    99904    99893 
   99868    99853    99884    99958   100045   100112   100141   100122 
  100055    99980    99955    99977    99991    99978    99955    99941 
   99943    99957    99964    99948    99911    99889    99903    99919 
   99912    99909    99924    99931    99926    99915    99886    99846 
   99844    99888    99922    99920    99894    99859    99828    99815 
   99799    99765    99757    99801    99863    99901    99902    99871 
   99827    99783    99744    99743    99797    99857    99894    99925 
   99942    99925    99891    99862    99867    99907    99951    99971 
   99956    99912    99882    99901    99953    99993   100001    99988 
   99983   100013   100064   100097   100098   100070   100021    99971 
   99934    99915    99912    99927    99965   100008   100033   100052 
  100089   100114   100087   100040   100018   100023   100043   100071 
  100086   100066   100016    99963    99934    99937    99965    99992 
   99999   100002   100027   100060   100047    99967    99876    99840 
   99861    99885    99878    99850    99827    99828    99869    99935 
   99987    99985    99921    99840    99807    99818    99822    99812 
   99817    99842    99893    99961   100010   100018    99998    99952 
   99897    99877    99896    99917    99928    99935    99937    99948 
   99975    99999   100003   100011   100047   100082   100085   100065 
  100033    99986    99944    99936    99966   100024   100083   100108 
  100103   100099   100109   100120   100115   100082   100043   100020 
   99990    99963    99979   100024   100035    99984    99917    99889 
   99902    99940    99977    99976    99924    99868    99869    99929 
   99992   100020   100019   100008    99985    99960    99961    99979 
   99962    99909    99878    99895    99920    99908    99869    99833 
   99808    99800    99832    99876    99880    99856    99843    99846 
   99868    99900    99916    99900    99876    99890    99958   100046 
  100119   100175   100213   100224   100208   100165   100110   100061 
  100024    99989    99941    99886    99839    99810    99816    99852 
   99871    99845    99799    99758    99720    99693    99701    99739 
   99782    99819    99845    99859    99874    99905    99936    99946 
   99954    99977   100000   100008   100017   100033   100036   100031 
  100032   100012    99962    99922    99909    99895    99857    99814 
   99802    99814    99824    99829    99836    99842    99839    99816 
   99797    99820    99871    99917    99952    99967    99955    99936 
   99938    99967   100009   100042   100047   100024   100006    99994 
   99967    99926    99891    99881    99912    99964   100005   100040 
  100082   100105   100085   100053   100050   100082   100131   100163 
  100168   100172   100171   100143   100102   100083   100079   100063 
  100031   100001    99994   100014   100037   100041   100030   100021 
  100010   100002   100010   100035   100059   100066   100068   100086 
  100107   100096   100061   100039   100031   100003    99931    99847 
   99801    99792    99796    99795    99781    99760    99744    99750 
   99795    99871    99947    99999   100027   100050   100092   100131 
  100132   100109   100084   100059   100034   100016   100013   100005 
   99951    99861    99770    99696    99637    99583    99521    99476 
   99468    99491    99550    99660    99797    99921   100015   100076 
  100114   100138   100138   100107   100085   100106   100145   100148 
  100120   100101   100103   100121   100136   100111   100042    99972 
   99921    99890    99881    99899    99934    99960    99958    99937 
   99911    99890    99872    99852    99834    99827    99850    99908 
   99958    99964    99951    99951    99961    99969    99978    99989 
   99989    99969    99939    99909    99893    99900    99912    99904 
   99876    99845    99836    99847    99843    99800    99740    99693 
   99670    99679    99707    99710    99688    99693    99735    99799 
   99877    99950   100000   100023   100024   100000    99956    99900 
   99861    99862    99885    99915    99964   100029   100072   100080 
  100089   100124   100160   100172   100169   100168   100158   100132 
  100109   100076   100009    99925    99870    99870    99908    99961 
  100027   100094   100128   100117   100084   100066   100070   100084 
  100103   100121   100124   100119   100120   100132   100152   100173 
  100190   100216   100249   100251   100206   100145   100086   100029 
   99995    99996    99988    99935    99862    99808    99780    99762 
   99760    99797    99867    99930    99964    99970    99964    99963 
   99961    99958    99970    99994   100017   100031   100028   100003 
   99971    99934    99884    99823    99763    99733    99741    99765 
   99785    99803    99822    99847    99895    99969   100027   100023 
   99945    99826    99736    99727    99789    99873    99938    99957 
   99933    99900    99881    99873    99876    99878    99860    99834 
   99835    99880    99942    99993   100029   100059   100086   100114 
  100147   100178   100184   100165   100145   100136   100133   100112 
  100060   100008    99971    99942    99911    99870    99841    99831 
   99822    99815    99838    99893    99949    99983   100005   100028 
  100042   100040   100040   100059   100071   100056   100037   100043 
  100083   100124   100124   100098   100070   100028    99973    99929 
   99894    99866    99857    99858    99874    99913    99946    99951 
   99950    99952    99941    99930    99950    99988   100011   100022 
  100030   100022    99994    99962    99939    99939    99965    99987 
   99971    99915    99849    99792    99738    99677    99622    99585 
   99586    99628    99676    99712    99753    99790    99790    99761 
   99741    99738    99747    99777    99827    99875    99905    99919 
   99938    99964    99975    99977    99995    99998    99944    99867 
   99815    99790    99785    99799    99803    99781    99760    99779 
   99838    99901    99934    99936    99924    99914    99909    99924 
   99962   100002   100011    99983    99943    99921    99923    99925 
   99906    99870    99826    99778    99732    99706    99723    99772 
   99832    99904    99979   100038   100079   100098   100080   100030 
   99973    99928    99890    99828    99743    99682    99677    99718 
   99765    99782    99766    99736    99694    99632    99561    99515 
   99521    99575    99653    99744    99824    99850    99829    99821 
   99842    99857    99848    99834    99841    99864    99871    99837 
   99791    99787    99821    99846    99826    99753    99665    99601 
   99565    99589    99695    99823    99910    99963   100015   100063 
  100086   100083   100063   100029    99996    99983   100014   100078 
  100140   100181   100199   100185   100141   100099   100079   100062 
  100037   100020   100015   100044   100135   100270   100387   100445 
  100442   100394   100327   100269   100224   100169   100100   100043 
  100026   100052   100111   100200   100304   100379   100387   100343 
  100293   100266   100271   100302   100311   100258   100175   100101 
  100025    99940    99880    99873    99900    99928    99962   100010 
  100050   100065   100059   100026    99959    99881    99820    99777 
   99760    99790    99857    99931   100002   100084   100161   100182 
  100170   100198   100241   100242   100227   100231   100253   100266 
  100226   100141   100065   100003    99959    99948    99956    99972 
   99996   100023   100060   100115   100149   100124   100069   100034 
  100041   100102   100203   100309   100400   100449   100429   100370 
  100331   100317   100306   100300   100303   100281   100191   100037 
   99876    99776    99780    99873    99991   100109   100226   100298 
  100289   100242   100213   100188   100116    99987    99858    99788 
   99809    99919   100049   100102   100040    99910    99785    99693 
   99604    99517    99456    99411    99373    99356    99344    99331 
   99345    99391    99458    99548    99644    99719    99739    99683 
   99565    99442    99363    99322    99299    99311    99384    99513 
   99673    99853   100046   100208   100275   100234   100100    99900 
   99704    99600    99645    99839   100095   100297   100399   100397 
  100300   100173   100079   100022    99968    99879    99767    99671 
   99598    99534    99493    99494    99534    99597    99653    99688 
   99719    99768    99831    99877    99880    99850    99838    99899 
  100040   100195   100301   100344   100319   100240   100150   100067 
   99984    99927    99947   100059   100211   100319   100332   100270 
  100186   100107   100058   100068   100126   100173   100140   100011 
   99833    99669    99560    99507    99492    99493    99487    99492 
   99563    99725    99953   100178   100322   100364   100330   100261 
  100214   100212   100228   100235   100215   100170   100141   100165 
  100224   100284   100329   100356   100351   100299   100233   100205 
  100233   100294   100370   100477   100626   100771   100831   100758 
  100597   100435   100305   100200   100119   100046    99985    99997 
  100098   100212   100259   100212   100074    99902    99787    99774 
   99829    99901    99926    99864    99759    99688    99662    99655 
   99661    99697    99781    99872    99910    99891    99837    99765 
   99704    99671    99670    99704    99769    99860    99992   100143 
  100232   100195   100032    99788    99539    99336    99193    99117 
   99113    99164    99249    99325    99304    99130    98900    98804 
   98909    99110    99292    99427    99525    99600    99681    99775 
   99864    99937   100006   100108   100245   100341   100333   100229 
  100067    99875    99650    99411    99229    99151    99165    99256 
   99417    99627    99845   100019   100116   100140   100139   100195 
  100346   100542   100704   100798   100833   100822   100768   100670 
  100540   100397   100288   100251   100291   100381   100462   100470 
  100386   100213    99958    99690    99528    99558    99782   100145 
  100521   100733   100680   100451   100224   100086   100017    99986 
   99977    99964    99951    99983   100082   100222   100351   100439 
  100487   100495   100454   100356   100201   100027    99894    99833 
   99837    99883    99942    99977    99955    99869    99739    99590 
   99452    99366    99358    99407    99454    99454    99395    99294 
   99211    99206    99279    99375    99464    99570    99703    99821 
   99886    99888    99844    99798    99792    99833    99906    99995 
  100056   100029    99926    99832    99803    99817    99833    99836 
   99831    99816    99791    99750    99682    99570    99429    99315 
   99273    99308    99417    99595    99807   100010   100183   100302 
  100352   100342   100311   100291   100263   100175   100018    99821 
   99621    99462    99381    99380    99432    99512    99603    99687 
   99747    99783    99818    99880    99987   100147   100359   100595 
  100816   100962   100987   100895   100704   100430   100134    99900 
   99766    99717    99730    99793    99872    99926    99944    99920 
   99852    99760    99691    99683    99732    99782    99800    99820 
   99883    99992   100140   100329   100534   100701   100793   100817 
  100811   100807   100785   100705   100554   100342   100128    99998 
   99972    99975    99936    99874    99848    99864    99876    99856 
   99832    99830    99836    99829    99818    99818    99831    99854 
   99888    99925    99941    99931    99929    99957   100019   100115 
  100211   100244   100209   100182   100203   100244   100302   100408 
  100543   100627   100594   100450   100272   100129   100053   100040 
  100034    99944    99752    99553    99454    99445    99448    99457 
   99524    99671    99859   100026   100118   100129   100103   100074 
  100047   100029   100041   100084   100131   100145   100102   100023 
   99959    99933    99929    99926    99922    99914    99887    99843 
   99805    99784    99783    99805    99814    99761    99646    99527 
   99469    99479    99508    99502    99458    99422    99427    99462 
   99505    99530    99514    99460    99422    99441    99498    99560 
   99634    99746    99877    99965    99975    99936    99883    99832 
   99807    99836    99921   100044   100203   100372   100494   100544 
  100549   100537   100533   100557   100579   100527   100364   100118 
   99863    99692    99669    99779    99938   100051   100072   100022 
   99949    99883    99838    99847    99929   100039   100120   100166 
  100190   100190   100174   100179   100233   100298   100313   100259 
  100170   100071    99976    99892    99816    99750    99697    99634 
   99555    99481    99441    99457    99517    99589    99663    99727 
   99745    99707    99646    99597    99600    99690    99843    99998 
  100112   100162   100130   100054   100007   100009   100013    99980 
   99916    99841    99760    99677    99622    99625    99668    99706 
   99725    99737    99756    99791    99832    99886    99979   100114 
  100260   100388   100471   100463   100353   100211   100118   100084 
  100069   100036    99983    99933    99889    99838    99785    99765 
   99806    99890    99960    99979    99961    99926    99871    99804 
   99770    99824    99978   100155   100260   100278   100248   100206 
  100174   100176   100226   100298   100353   100395   100453   100509 
  100536   100540   100499   100343   100057    99743    99550    99531 
   99631    99763    99860    99903    99904    99868    99809    99758 
   99736    99764    99856   100009   100173   100280   100303   100271 
  100248   100268   100298   100284   100209   100100   100006    99960 
   99944    99923    99898    99906    99981   100112   100257   100374 
  100415   100344   100163    99910    99650    99453    99372    99413 
   99513    99594    99642    99691    99766    99861    99950   100009 
  100028    99995    99912    99800    99684    99607    99619    99720 
   99864    99989   100022    99916    99724    99551    99474    99493 
   99547    99577    99594    99639    99731    99882   100084   100262 
  100339   100317   100256   100217   100229   100267   100263   100177 
  100038    99871    99683    99504    99380    99331    99340    99379 
   99444    99535    99655    99791    99898    99948    99955    99947 
   99959    99998   100011    99983    99969    99997   100061   100148 
  100238   100293   100301   100287   100277   100252   100172   100050 
   99947    99902    99913    99962   100039   100147   100268   100348 
  100325   100211   100058    99885    99724    99619    99572    99560 
   99572    99607    99679    99816   100006   100174   100284   100376 
  100462   100485   100405   100250   100101   100021   100018   100077 
  100178   100263   100257   100153   100020    99954    99995   100083 
  100126   100090   100009    99966   100022   100139   100246   100309 
  100294   100188   100035    99886    99755    99632    99540    99531 
   99619    99748    99836    99844    99792    99711    99637    99608 
   99626    99667    99702    99725    99761    99859   100030   100227 
  100399   100515   100561   100554   100524   100474   100372   100201 
   99991    99796    99648    99563    99543    99572    99625    99680 
