Origin Time       2024/04/02 04:24:00
Lat.              40.133
Long.             141.712
Depth. (km)       71
Mag.              6.0
Station Code      IBUH01
Station Lat.      42.8739
Station Long.     141.8191
Station Height(m) -40.6
Record Time       2024/04/02 04:25:23
Sampling Freq(Hz) 100Hz
Duration Time(s)  148
Dir.              3
Scale Factor      2940(gal)/6170270
Max. Acc. (gal)   0.343
Last Correction   2024/04/02 04:25:08
Memo.             
[...]
   -4451    -4497    -4493    -4433    -4354    -4304    -4288    -4274 
   -4276    -4330    -4394    -4411    -4390    -4347    -4298    -4286 
   -4307    -4315    -4317    -4326    -4326    -4327    -4323    -4295 
   -4274    -4292    -4334    -4368    -4368    -4333    -4273    -4225 
   -4223    -4235    -4222    -4206    -4231    -4298    -4373    -4429 
   -4463    -4485    -4478    -4414    -4331    -4280    -4240    -4205 
   -4219    -4270    -4296    -4279    -4226    -4160    -4135    -4157 
   -4186    -4212    -4241    -4257    -4247    -4219    -4193    -4182 
   -4180    -4178    -4170    -4164    -4176    -4216    -4257    -4260 
   -4219    -4146    -4059    -3993    -3982    -4030    -4093    -4111 
   -4108    -4147    -4214    -4255    -4246    -4194    -4138    -4128 
   -4163    -4216    -4253    -4265    -4295    -4365    -4403    -4364 
   -4308    -4290    -4321    -4385    -4423    -4396    -4327    -4256 
   -4218    -4203    -4181    -4180    -4222    -4264    -4242    -4161 
   -4076    -4018    -4008    -4063    -4153    -4223    -4237    -4217 
   -4218    -4216    -4157    -4076    -4062    -4139    -4254    -4330 
   -4317    -4266    -4268    -4263    -4144    -3987    -3941    -4025 
   -4162    -4261    -4286    -4285    -4301    -4298    -4240    -4156 
   -4092    -4082    -4141    -4226    -4261    -4230    -4218    -4276 
   -4314    -4250    -4165    -4166    -4222    -4251    -4245    -4255 
   -4317    -4397    -4417    -4356    -4287    -4277    -4312    -4346 
   -4374    -4385    -4380    -4392    -4408    -4374    -4290    -4226 
   -4212    -4223    -4241    -4261    -4287    -4324    -4346    -4320 
   -4247    -4164    -4104    -4091    -4144    -4252    -4373    -4458 
   -4457    -4356    -4204    -4076    -4035    -4110    -4251    -4359 
   -4400    -4383    -4306    -4212    -4162    -4157    -4167    -4174 
   -4179    -4200    -4228    -4230    -4195    -4161    -4166    -4222 
   -4318    -4407    -4440    -4420    -4375    -4322    -4293    -4300 
   -4303    -4292    -4303    -4333    -4342    -4338    -4333    -4327 
   -4339    -4377    -4415    -4419    -4378    -4321    -4298    -4321 
   -4375    -4442    -4469    -4439    -4408    -4389    -4380    -4408 
   -4458    -4475    -4432    -4352    -4274    -4213    -4176    -4169 
   -4192    -4273    -4386    -4434    -4364    -4197    -4003    -3886 
   -3892    -3985    -4088    -4141    -4167    -4199    -4214    -4183 
   -4136    -4138    -4201    -4273    -4303    -4269    -4206    -4184 
   -4237    -4319    -4367    -4386    -4407    -4442    -4491    -4514 
   -4479    -4415    -4370    -4364    -4384    -4392    -4375    -4364 
   -4383    -4414    -4410    -4351    -4262    -4187    -4167    -4219 
   -4315    -4393    -4418    -4386    -4324    -4278    -4254    -4243 
   -4266    -4322    -4363    -4349    -4279    -4202    -4176    -4173 
   -4145    -4155    -4251    -4318    -4269    -4162    -4084    -4065 
   -4073    -4070    -4082    -4117    -4132    -4117    -4090    -4056 
   -4024    -4004    -3981    -3946    -3932    -3958    -3977    -3957 
   -3947    -3975    -3998    -4001    -4025    -4074    -4118    -4135 
   -4128    -4114    -4073    -4011    -3999    -4065    -4156    -4232 
   -4288    -4332    -4354    -4335    -4276    -4220    -4210    -4246 
   -4295    -4324    -4327    -4319    -4294    -4234    -4155    -4122 
   -4154    -4199    -4218    -4223    -4217    -4189    -4163    -4154 
   -4143    -4126    -4126    -4146    -4189    -4292    -4436    -4534 
   -4569    -4591    -4607    -4601    -4589    -4591    -4574    -4509 
   -4455    -4458    -4467    -4448    -4442    -4470    -4494    -4482 
   -4420    -4331    -4247    -4166    -4096    -4053    -4053    -4128 
   -4265    -4385    -4420    -4376    -4296    -4215    -4166    -4171 
   -4211    -4276    -4364    -4442    -4482    -4462    -4357    -4207 
   -4099    -4070    -4118    -4254    -4446    -4607    -4674    -4644 
   -4563    -4491    -4442    -4384    -4321    -4295    -4314    -4326 
   -4305    -4303    -4348    -4373    -4311    -4188    -4074    -4013 
   -4005    -4043    -4103    -4120    -4073    -4026    -4037    -4083 
   -4080    -4017    -3987    -4049    -4169    -4260    -4249    -4150 
   -4038    -3993    -4003    -3985    -3968    -4056    -4219    -4349 
   -4379    -4304    -4209    -4149    -4072    -3985    -3980    -4092 
   -4275    -4445    -4537    -4545    -4485    -4370    -4242    -4166 
   -4201    -4353    -4547    -4681    -4722    -4701    -4637    -4551 
   -4483    -4449    -4462    -4517    -4576    -4629    -4654    -4601 
   -4492    -4384    -4290    -4220    -4186    -4186    -4202    -4207 
   -4201    -4196    -4186    -4157    -4124    -4102    -4090    -4086 
   -4103    -4176    -4282    -4309    -4223    -4124    -4078    -4055 
   -4044    -4077    -4160    -4275    -4366    -4346    -4228    -4129 
   -4107    -4116    -4127    -4162    -4220    -4256    -4253    -4248 
   -4252    -4225    -4155    -4094    -4098    -4176    -4308    -4460 
   -4568    -4589    -4551    -4483    -4363    -4196    -4054    -4016 
   -4091    -4196    -4248    -4257    -4252    -4231    -4225    -4255 
   -4284    -4313    -4359    -4409    -4455    -4469    -4399    -4263 
   -4155    -4132    -4176    -4219    -4208    -4171    -4164    -4188 
   -4188    -4124    -4031    -3994    -4049    -4143    -4182    -4135 
   -4068    -4043    -4047    -4047    -4046    -4052    -4051    -4029 
   -4017    -4046    -4108    -4191    -4275    -4298    -4240    -4157 
   -4079    -4005    -3951    -3928    -3946    -4002    -4042    -4016 
   -3927    -3818    -3751    -3754    -3839    -3990    -4142    -4243 
   -4300    -4344    -4404    -4464    -4461    -4399    -4391    -4491 
   -4612    -4672    -4687    -4695    -4685    -4634    -4577    -4575 
   -4640    -4698    -4667    -4571    -4463    -4357    -4263    -4225 
   -4280    -4420    -4558    -4592    -4515    -4405    -4304    -4231 
   -4205    -4218    -4262    -4309    -4305    -4271    -4264    -4235 
   -4108    -3944    -3880    -3964    -4126    -4290    -4435    -4537 
   -4556    -4499    -4425    -4366    -4291    -4196    -4136    -4124 
   -4137    -4184    -4228    -4195    -4095    -4002    -3955    -3955 
   -3989    -4055    -4173    -4322    -4438    -4497    -4532    -4563 
   -4562    -4526    -4470    -4380    -4262    -4176    -4131    -4054 
   -3919    -3769    -3655    -3616    -3662    -3743    -3828    -3898 
   -3910    -3879    -3862    -3875    -3907    -3978    -4108    -4257 
   -4371    -4445    -4474    -4456    -4437    -4447    -4483    -4534 
   -4552    -4499    -4373    -4200    -4034    -3918    -3874    -3927 
   -4067    -4235    -4342    -4361    -4378    -4442    -4504    -4551 
   -4624    -4731    -4811    -4777    -4628    -4441    -4292    -4179 
   -4090    -4091    -4227    -4433    -4623    -4739    -4763    -4711 
   -4615    -4504    -4404    -4344    -4357    -4456    -4596    -4694 
   -4706    -4628    -4466    -4266    -4124    -4089    -4125    -4190 
   -4274    -4336    -4313    -4230    -4169    -4159    -4184    -4248 
   -4343    -4423    -4467    -4482    -4447    -4331    -4140    -3946 
   -3854    -3887    -3967    -4028    -4048    -4049    -4060    -4039 
   -3937    -3823    -3775    -3782    -3806    -3843    -3895    -3952 
   -3992    -4015    -4054    -4151    -4307    -4459    -4538    -4539 
   -4504    -4432    -4291    -4125    -4023    -4027    -4121    -4257 
   -4371    -4453    -4527    -4588    -4620    -4642    -4667    -4680 
   -4667    -4648    -4658    -4704    -4742    -4745    -4728    -4685 
   -4589    -4410    -4164    -3944    -3839    -3851    -3912    -3940 
   -3914    -3905    -3986    -4121    -4221    -4256    -4276    -4323 
   -4380    -4416    -4421    -4376    -4271    -4148    -4051    -4015 
   -4074    -4188    -4269    -4280    -4214    -4096    -3999    -3968 
   -3981    -3997    -3997    -3998    -4024    -4057    -4071    -4069 
   -4084    -4148    -4223    -4241    -4209    -4168    -4136    -4133 
   -4180    -4258    -4317    -4305    -4186    -3999    -3855    -3820 
   -3859    -3905    -3942    -3989    -4049    -4101    -4121    -4117 
   -4114    -4117    -4121    -4112    -4101    -4135    -4246    -4390 
   -4513    -4602    -4681    -4757    -4781    -4725    -4634    -4537 
   -4435    -4339    -4240    -4139    -4089    -4122    -4188    -4229 
   -4267    -4338    -4408    -4430    -4412    -4384    -4369    -4385 
   -4399    -4349    -4284    -4306    -4389    -4450    -4473    -4451 
   -4383    -4331    -4327    -4302    -4208    -4096    -4019    -3952 
   -3845    -3702    -3596    -3598    -3720    -3922    -4133    -4290 
   -4372    -4378    -4342    -4311    -4294    -4299    -4349    -4397 
   -4395    -4384    -4384    -4342    -4257    -4196    -4166    -4120 
   -4053    -3999    -3947    -3862    -3762    -3705    -3723    -3826 
   -4003    -4180    -4284    -4339    -4391    -4432    -4462    -4487 
   -4497    -4504    -4529    -4558    -4575    -4579    -4566    -4542 
   -4523    -4488    -4427    -4356    -4285    -4221    -4171    -4139 
   -4149    -4198    -4239    -4243    -4252    -4326    -4440    -4520 
   -4549    -4563    -4586    -4606    -4608    -4612    -4647    -4691 
   -4709    -4693    -4635    -4563    -4521    -4482    -4396    -4290 
   -4171    -3999    -3804    -3672    -3631    -3662    -3745    -3838 
   -3903    -3971    -4090    -4240    -4357    -4420    -4474    -4558 
   -4651    -4686    -4647    -4614    -4625    -4613    -4545    -4457 
   -4342    -4177    -4006    -3900    -3888    -3953    -4054    -4126 
   -4131    -4115    -4115    -4112    -4120    -4210    -4396    -4577 
   -4627    -4550    -4432    -4314    -4182    -4062    -4009    -4003 
   -3967    -3884    -3802    -3725    -3632    -3551    -3556    -3677 
   -3880    -4107    -4315    -4477    -4605    -4707    -4727    -4648 
   -4548    -4476    -4438    -4457    -4532    -4609    -4653    -4653 
   -4616    -4576    -4537    -4448    -4266    -4037    -3879    -3854 
   -3914    -3962    -3940    -3870    -3824    -3862    -3976    -4098 
   -4176    -4232    -4304    -4383    -4434    -4445    -4421    -4395 
   -4399    -4432    -4494    -4577    -4648    -4681    -4654    -4566 
   -4496    -4484    -4462    -4389    -4294    -4204    -4130    -4069 
   -3988    -3881    -3823    -3876    -3989    -4083    -4156    -4227 
   -4281    -4298    -4259    -4180    -4121    -4112    -4138    -4178 
   -4210    -4204    -4164    -4132    -4120    -4118    -4130    -4164 
   -4206    -4207    -4127    -4001    -3891    -3835    -3869    -3998 
   -4171    -4322    -4416    -4435    -4396    -4339    -4289    -4264 
   -4296    -4367    -4405    -4374    -4309    -4242    -4176    -4102 
   -4020    -3971    -4004    -4120    -4258    -4348    -4365    -4334 
   -4284    -4215    -4140    -4104    -4142    -4265    -4430    -4530 
   -4510    -4399    -4236    -4050    -3916    -3913    -4023    -4177 
   -4339    -4494    -4639    -4749    -4752    -4612    -4415    -4286 
   -4261    -4312    -4388    -4435    -4452    -4474    -4474    -4422 
   -4359    -4338    -4360    -4396    -4404    -4371    -4326    -4292 
   -4264    -4233    -4202    -4190    -4234    -4324    -4404    -4459 
   -4495    -4501    -4497    -4477    -4391    -4215    -3991    -3797 
   -3698    -3704    -3788    -3916    -4055    -4169    -4236    -4256 
   -4242    -4212    -4184    -4161    -4148    -4175    -4229    -4265 
   -4274    -4281    -4297    -4273    -4185    -4115    -4135    -4228 
   -4336    -4395    -4364    -4264    -4149    -4069    -4063    -4130 
   -4230    -4329    -4405    -4455    -4500    -4551    -4599    -4659 
   -4740    -4792    -4785    -4726    -4592    -4369    -4152    -4046 
   -4054    -4122    -4203    -4265    -4319    -4386    -4441    -4458 
   -4453    -4453    -4482    -4546    -4607    -4625    -4594    -4510 
   -4388    -4270    -4175    -4105    -4082    -4120    -4192    -4254 
   -4290    -4295    -4254    -4196    -4208    -4318    -4472    -4625 
   -4732    -4738    -4623    -4425    -4205    -4023    -3902    -3820 
   -3770    -3764    -3781    -3787    -3769    -3717    -3664    -3665 
   -3733    -3813    -3852    -3876    -3941    -4051    -4169    -4246 
   -4284    -4335    -4401    -4459    -4503    -4528    -4542    -4530 
   -4456    -4315    -4164    -4091    -4118    -4179    -4225    -4269 
   -4339    -4418    -4437    -4357    -4224    -4113    -4081    -4122 
   -4195    -4269    -4328    -4385    -4432    -4417    -4332    -4244 
   -4202    -4204    -4241    -4293    -4310    -4286    -4253    -4181 
   -4055    -3923    -3827    -3785    -3805    -3895    -4076    -4308 
   -4477    -4518    -4441    -4298    -4166    -4097    -4065    -4015 
   -3945    -3906    -3916    -3930    -3905    -3882    -3909    -3972 
   -4042    -4114    -4182    -4243    -4277    -4268    -4230    -4208 
   -4229    -4280    -4338    -4383    -4414    -4448    -4465    -4392 
   -4221    -4052    -3959    -3913    -3892    -3909    -3954    -3999 
   -4018    -3991    -3915    -3812    -3731    -3746    -3877    -4051 
   -4196    -4283    -4308    -4320    -4365    -4402    -4412    -4438 
   -4463    -4438    -4377    -4303    -4228    -4180    -4180    -4223 
   -4296    -4370    -4408    -4391    -4336    -4298    -4330    -4440 
   -4598    -4764    -4902    -4971    -4955    -4865    -4715    -4557 
   -4460    -4424    -4415    -4432    -4440    -4421    -4436    -4503 
   -4555    -4561    -4542    -4511    -4505    -4554    -4626    -4702 
   -4800    -4901    -4945    -4922    -4877    -4824    -4757    -4693 
   -4653    -4650    -4673    -4678    -4640    -4584    -4520    -4422 
   -4288    -4173    -4124    -4100    -4050    -3988    -3961    -3985 
   -4010    -3966    -3843    -3707    -3621    -3598    -3618    -3649 
   -3680    -3734    -3814    -3903    -3995    -4117    -4282    -4447 
   -4550    -4577    -4536    -4444    -4338    -4246    -4186    -4178 
   -4225    -4298    -4341    -4312    -4229    -4131    -4047    -3983 
   -3925    -3890    -3896    -3919    -3920    -3905    -3904    -3919 
   -3940    -3982    -4058    -4149    -4205    -4201    -4195    -4249 
   -4352    -4468    -4563    -4617    -4655    -4697    -4710    -4660 
   -4570    -4501    -4480    -4458    -4404    -4346    -4296    -4254 
   -4229    -4201    -4160    -4135    -4106    -4009    -3847    -3688 
   -3587    -3565    -3610    -3671    -3727    -3799    -3891    -3974 
   -4039    -4097    -4162    -4230    -4255    -4206    -4128    -4072 
   -4037    -4014    -4005    -4019    -4060    -4130    -4235    -4366 
   -4509    -4633    -4701    -4710    -4689    -4651    -4617    -4602 
   -4617    -4672    -4726    -4705    -4607    -4494    -4379    -4258 
   -4182    -4178    -4218    -4258    -4245    -4157    -4041    -3972 
   -3973    -4029    -4122    -4233    -4352    -4457    -4508    -4496 
   -4446    -4398    -4417    -4519    -4632    -4690    -4689    -4644 
   -4566    -4472    -4393    -4338    -4298    -4289    -4314    -4316 
   -4270    -4232    -4234    -4253    -4267    -4273    -4279    -4300 
   -4345    -4396    -4397    -4318    -4188    -4057    -3972    -3937 
   -3938    -3972    -4037    -4121    -4174    -4144    -4057    -3973 
   -3919    -3922    -3990    -4088    -4179    -4240    -4260    -4252 
   -4249    -4261    -4279    -4308    -4356    -4418    -4483    -4533 
   -4533    -4469    -4382    -4310    -4242    -4193    -4190    -4220 
   -4256    -4270    -4239    -4168    -4070    -3970    -3882    -3798 
   -3734    -3727    -3789    -3892    -3996    -4078    -4130    -4161 
   -4189    -4177    -4098    -3987    -3890    -3824    -3798    -3818 
   -3872    -3950    -4036    -4085    -4078    -4047    -4057    -4143 
   -4270    -4388    -4489    -4565    -4615    -4663    -4705    -4716 
   -4720    -4735    -4728    -4690    -4655    -4635    -4618    -4571 
   -4488    -4404    -4346    -4338    -4388    -4442    -4436    -4365 
   -4256    -4144    -4059    -4016    -4006    -4021    -4085    -4207 
   -4329    -4371    -4340    -4295    -4262    -4229    -4178    -4105 
   -4049    -4051    -4104    -4169    -4210    -4215    -4207    -4206 
   -4221    -4252    -4287    -4312    -4316    -4290    -4238    -4190 
   -4166    -4174    -4219    -4286    -4340    -4361    -4361    -4355 
   -4334    -4301    -4283    -4307    -4376    -4458    -4515    -4551 
   -4566    -4535    -4465    -4398    -4356    -4325    -4293    -4280 
   -4301    -4339    -4353    -4311    -4250    -4233    -4268    -4304 
   -4306    -4289    -4280    -4277    -4265    -4251    -4274    -4356 
   -4462    -4541    -4567    -4550    -4504    -4417    -4273    -4096 
   -3936    -3843    -3818    -3833    -3881    -3942    -3986    -4014 
   -4024    -4004    -3976    -3982    -4029    -4086    -4108    -4091 
   -4054    -4010    -3987    -3997    -4021    -4059    -4113    -4167 
   -4208    -4233    -4239    -4221    -4176    -4107    -4026    -3968 
   -3960    -4004    -4084    -4178    -4265    -4319    -4314    -4255 
   -4192    -4175    -4214    -4276    -4339    -4415    -4500    -4543 
   -4516    -4430    -4317    -4235    -4221    -4245    -4260    -4255 
   -4256    -4271    -4273    -4257    -4264    -4324    -4431    -4555 
   -4657    -4719    -4747    -4737    -4670    -4551    -4437    -4387 
   -4425    -4535    -4660    -4739    -4744    -4682    -4585    -4472 
   -4348    -4246    -4195    -4197    -4248    -4303    -4309    -4275 
   -4242    -4224    -4245    -4309    -4374    -4412    -4427    -4423 
   -4406    -4355    -4252    -4127    -4016    -3951    -3942    -3956 
   -3968    -3996    -4051    -4111    -4151    -4174    -4201    -4242 
   -4283    -4301    -4292    -4294    -4334    -4382    -4394    -4355 
   -4298    -4286    -4326    -4365    -4351    -4276    -4174    -4068 
   -3958    -3876    -3859    -3891    -3926    -3957    -3986    -3995 
   -3970    -3929    -3913    -3939    -3981    -4015    -4046    -4080 
   -4119    -4173    -4223    -4230    -4171    -4066    -3974    -3920 
   -3904    -3938    -3994    -4041    -4083    -4131    -4190    -4275 
   -4379    -4470    -4522    -4547    -4567    -4595    -4635    -4677 
   -4722    -4768    -4784    -4763    -4746    -4739    -4719    -4681 
   -4612    -4506    -4393    -4284    -4183    -4112    -4078    -4063 
   -4048    -4023    -3996    -3989    -4021    -4094    -4175    -4233 
   -4265    -4272    -4241    -4198    -4189    -4214    -4245    -4262 
   -4256    -4244    -4240    -4235    -4214    -4171    -4120    -4081 
   -4054    -4033    -4025    -4037    -4054    -4051    -4032    -4017 
   -4017    -4033    -4070    -4143    -4239    -4323    -4381    -4405 
   -4387    -4331    -4262    -4208    -4179    -4181    -4221    -4255 
   -4239    -4183    -4116    -4053    -4004    -3984    -3992    -4020 
   -4074    -4154    -4243    -4334    -4410    -4451    -4477    -4513 
   -4547    -4559    -4544    -4510    -4477    -4452    -4435    -4439 
   -4457    -4460    -4430    -4373    -4302    -4228    -4157    -4107 
   -4109    -4160    -4205    -4205    -4162    -4103    -4053    -4021 
