Origin Time       2024/04/02 04:24:00
Lat.              40.133
Long.             141.712
Depth. (km)       71
Mag.              6.0
Station Code      IBUH07
Station Lat.      42.6476
Station Long.     141.0643
Station Height(m) 350
Record Time       2024/04/02 04:25:51
Sampling Freq(Hz) 100Hz
Duration Time(s)  120
Dir.              6
Scale Factor      3920(gal)/6170801
Max. Acc. (gal)   0.823
Last Correction   2024/04/02 04:25:36
Memo.             
[...]
  -30570   -30527   -30657   -30788   -30844   -30881   -30958   -31051 
  -31055   -30946   -30830   -30774   -30793   -30937   -31128   -31165 
  -31082   -31017   -30968   -30951   -30962   -30971   -30971   -30871 
  -30674   -30507   -30401   -30400   -30544   -30696   -30788   -30855 
  -30847   -30848   -31013   -31200   -31272   -31290   -31196   -31061 
  -31160   -31419   -31536   -31431   -31196   -30969   -30883   -30907 
  -30914   -30879   -30836   -30811   -30811   -30853   -30971   -31023 
  -30907   -30767   -30685   -30627   -30552   -30503   -30612   -30810 
  -30832   -30710   -30733   -30936   -31181   -31399   -31481   -31444 
  -31417   -31445   -31544   -31589   -31441   -31171   -30869   -30670 
  -30689   -30798   -30846   -30833   -30827   -30890   -30966   -31023 
  -31120   -31149   -30999   -30832   -30753   -30705   -30714   -30778 
  -30823   -30861   -30946   -31085   -31188   -31150   -31022   -30949 
  -30923   -30853   -30790   -30790   -30876   -31054   -31163   -31175 
  -31308   -31544   -31688   -31709   -31645   -31562   -31541   -31557 
  -31506   -31359   -31172   -31036   -30970   -30856   -30687   -30591 
  -30535   -30522   -30622   -30740   -30817   -30860   -30865   -30906 
  -30971   -31048   -31231   -31467   -31558   -31439   -31231   -31030 
  -30864   -30781   -30709   -30591   -30555   -30631   -30712   -30767 
  -30839   -30905   -30912   -30947   -31056   -31164   -31237   -31258 
  -31258   -31279   -31242   -31110   -31052   -31128   -31100   -30914 
  -30749   -30634   -30593   -30675   -30743   -30694   -30649   -30737 
  -30942   -31156   -31262   -31284   -31277   -31220   -31189   -31154 
  -30979   -30813   -30701   -30471   -30256   -30217   -30253   -30320 
  -30397   -30376   -30272   -30271   -30442   -30682   -30859   -30845 
  -30740   -30770   -30910   -31074   -31228   -31376   -31617   -31808 
  -31789   -31777   -31825   -31694   -31408   -31144   -30869   -30521 
  -30240   -30186   -30382   -30645   -30826   -31026   -31222   -31289 
  -31328   -31383   -31405   -31371   -31224   -31064   -31029   -31019 
  -30964   -30939   -30966   -31000   -30926   -30663   -30365   -30215 
  -30174   -30169   -30210   -30287   -30352   -30351   -30305   -30365 
  -30619   -30960   -31241   -31439   -31566   -31639   -31723   -31832 
  -31896   -31904   -31958   -32030   -31941   -31760   -31700   -31698 
  -31599   -31336   -30947   -30683   -30671   -30738   -30775   -30756 
  -30652   -30567   -30493   -30321   -30157   -30087   -30038   -30056 
  -30184   -30301   -30402   -30627   -30929   -31164   -31332   -31433 
  -31431   -31345   -31256   -31251   -31282   -31332   -31447   -31490 
  -31352   -31147   -31012   -31005   -31114   -31201   -31074   -30815 
  -30670   -30613   -30588   -30687   -30785   -30731   -30694   -30769 
  -30859   -31019   -31206   -31122   -30832   -30779   -31023   -31161 
  -31079   -31008   -30935   -30746   -30576   -30514   -30465   -30406 
  -30430   -30577   -30838   -31160   -31365   -31342   -31211   -31142 
  -31214   -31394   -31541   -31452   -31141   -30939   -30905   -30782 
  -30612   -30565   -30598   -30662   -30725   -30681   -30547   -30497 
  -30509   -30401   -30272   -30331   -30545   -30775   -30938   -31019 
  -31109   -31273   -31408   -31413   -31355   -31278   -31239   -31326 
  -31408   -31356   -31258   -31186   -31093   -30878   -30546   -30335 
  -30348   -30369   -30333   -30370   -30411   -30383   -30389   -30476 
  -30596   -30776   -31002   -31175   -31351   -31610   -31852   -32001 
  -32022   -31889   -31694   -31494   -31274   -31086   -30911   -30682 
  -30513   -30450   -30336   -30249   -30378   -30635   -30919   -31222 
  -31482   -31677   -31804   -31865   -31924   -31982   -31941   -31828 
  -31747   -31586   -31206   -30813   -30635   -30622   -30623   -30525 
  -30265   -29928   -29803   -30048   -30466   -30805   -30967   -30991 
  -30994   -31056   -31226   -31477   -31631   -31595   -31491   -31377 
  -31254   -31211   -31206   -31119   -31007   -30907   -30808   -30739 
  -30579   -30248   -29943   -29804   -29768   -29772   -29826   -29955 
  -30169   -30448   -30744   -31060   -31373   -31590   -31695   -31725 
  -31741   -31803   -31821   -31700   -31525   -31387   -31289   -31253 
  -31234   -31061   -30773   -30623   -30632   -30678   -30721   -30698 
  -30566   -30420   -30423   -30598   -30785   -30883   -30919   -30964 
  -31083   -31234   -31317   -31343   -31407   -31516   -31549   -31434 
  -31238   -31090   -31036   -30998   -30959   -30887   -30691   -30507 
  -30526   -30744   -31083   -31323   -31259   -31070   -30988   -30975 
  -31024   -31157   -31206   -31069   -30877   -30791   -30903   -31125 
  -31248   -31252   -31180   -31010   -30859   -30823   -30826   -30795 
  -30700   -30593   -30522   -30464   -30495   -30707   -30957   -30998 
  -30807   -30621   -30610   -30725   -30829   -30828   -30752   -30749 
  -30911   -31146   -31264   -31226   -31196   -31242   -31294   -31353 
  -31436   -31485   -31449   -31246   -30889   -30562   -30341   -30216 
  -30243   -30348   -30372   -30358   -30467   -30684   -30834   -30877 
  -30942   -31064   -31212   -31409   -31541   -31459   -31298   -31226 
  -31164   -31038   -30879   -30775   -30810   -30910   -30996   -31077 
  -31100   -31008   -30865   -30806   -30787   -30626   -30407   -30385 
  -30656   -31042   -31219   -31094   -30844   -30738   -30938   -31235 
  -31314   -31226   -31185   -31243   -31294   -31189   -30991   -30961 
  -31143   -31377   -31517   -31540   -31604   -31670   -31487   -31106 
  -30771   -30691   -30909   -31136   -31165   -31136   -31080   -30965 
  -30960   -31085   -31163   -31208   -31329   -31458   -31468   -31338 
  -31112   -30856   -30637   -30472   -30383   -30420   -30530   -30570 
  -30560   -30574   -30562   -30553   -30503   -30294   -30164   -30304 
  -30509   -30672   -30856   -31071   -31256   -31322   -31275   -31230 
  -31241   -31267   -31330   -31480   -31611   -31607   -31521   -31423 
  -31323   -31251   -31206   -31155   -31035   -30856   -30754   -30715 
  -30648   -30584   -30484   -30393   -30449   -30573   -30598   -30493 
  -30352   -30306   -30326   -30296   -30209   -30171   -30290   -30545 
  -30803   -30997   -31181   -31351   -31403   -31333   -31163   -30938 
  -30808   -30811   -30920   -31103   -31216   -31287   -31475   -31660 
  -31638   -31521   -31535   -31666   -31743   -31689   -31552   -31370 
  -31114   -30742   -30355   -30133   -30062   -30093   -30292   -30586 
  -30831   -30965   -30937   -30763   -30541   -30411   -30510   -30775 
  -30985   -31097   -31234   -31419   -31576   -31646   -31569   -31349 
  -31103   -30978   -30995   -30977   -30839   -30763   -30827   -30969 
  -31185   -31421   -31605   -31659   -31533   -31397   -31404   -31450 
  -31350   -31057   -30707   -30457   -30366   -30461   -30634   -30592 
  -30297   -30058   -30007   -30053   -30188   -30328   -30367   -30424 
  -30562   -30740   -30970   -31202   -31394   -31536   -31610   -31652 
  -31614   -31440   -31288   -31286   -31361   -31418   -31401   -31261 
  -31039   -30940   -31058   -31183   -31198   -31170   -31146   -31134 
  -31092   -31097   -31145   -31002   -30810   -30825   -30881   -30909 
  -30989   -31015   -30926   -30756   -30557   -30424   -30437   -30610 
  -30886   -31096   -31145   -31198   -31340   -31384   -31272   -31108 
  -30951   -30869   -30842   -30842   -31018   -31277   -31272   -31075 
  -30941   -30843   -30734   -30632   -30530   -30503   -30586   -30662 
  -30728   -30972   -31323   -31436   -31252   -30961   -30703   -30640 
  -30823   -31062   -31167   -31090   -30915   -30793   -30807   -30879 
  -30865   -30824   -30919   -31084   -31164   -31135   -31107   -31184 
  -31273   -31231   -31148   -31250   -31454   -31494   -31385   -31285 
  -31243   -31254   -31356   -31503   -31418   -31042   -30671   -30457 
  -30366   -30335   -30229   -30053   -30053   -30311   -30593   -30745 
  -30816   -30841   -30921   -31155   -31367   -31371   -31190   -30893 
  -30627   -30547   -30574   -30536   -30467   -30484   -30484   -30420 
  -30476   -30605   -30654   -30703   -30719   -30620   -30570   -30703 
  -30949   -31194   -31380   -31487   -31503   -31452   -31363   -31264 
  -31209   -31163   -31030   -30826   -30675   -30650   -30724   -30806 
  -30793   -30733   -30781   -30892   -30987   -31113   -31251   -31419 
  -31633   -31754   -31717   -31600   -31606   -31838   -32008   -31938 
  -31770   -31535   -31271   -31138   -31093   -31000   -30818   -30552 
  -30305   -30215   -30231   -30190   -30162   -30327   -30563   -30700 
  -30844   -31071   -31279   -31420   -31546   -31620   -31599   -31549 
  -31435   -31200   -30927   -30678   -30543   -30534   -30453   -30255 
  -30126   -30152   -30304   -30496   -30618   -30688   -30766   -30809 
  -30781   -30716   -30666   -30701   -30885   -31076   -31051   -30919 
  -30856   -30836   -30926   -31149   -31292   -31275   -31223   -31236 
  -31353   -31538   -31635   -31523   -31240   -31031   -31151   -31387 
  -31397   -31295   -31240   -31206   -31219   -31241   -31205   -31103 
  -30927   -30786   -30820   -30961   -31026   -30982   -30927   -30867 
  -30759   -30668   -30671   -30728   -30772   -30795   -30753   -30624 
  -30559   -30641   -30658   -30504   -30382   -30430   -30672   -31034 
  -31202   -31057   -30915   -30977   -31145   -31358   -31510   -31391 
  -31080   -30828   -30676   -30620   -30677   -30760   -30853   -31008 
  -31178   -31242   -31101   -30791   -30508   -30400   -30476   -30678 
  -30900   -31034   -30941   -30598   -30364   -30492   -30774   -31066 
  -31355   -31518   -31568   -31647   -31766   -31850   -31880   -31821 
  -31538   -31082   -30771   -30806   -31049   -31194   -31155   -31123 
  -31151   -31151   -31110   -31024   -30912   -30834   -30826   -30888 
  -30933   -30876   -30759   -30622   -30460   -30327   -30279   -30329 
  -30451   -30572   -30619   -30576   -30496   -30418   -30379   -30473 
  -30690   -30933   -31229   -31579   -31819   -31877   -31830   -31828 
  -31935   -31913   -31639   -31361   -31184   -30991   -30795   -30664 
  -30571   -30488   -30415   -30365   -30382   -30470   -30561   -30589 
  -30528   -30488   -30618   -30827   -30989   -31199   -31468   -31578 
  -31460   -31317   -31237   -31140   -31083   -31053   -30910   -30799 
  -30901   -31052   -31129   -31175   -31188   -31227   -31363   -31451 
  -31386   -31295   -31266   -31272   -31267   -31222   -31190   -31182 
  -31120   -30989   -30836   -30704   -30581   -30412   -30210   -30124 
  -30192   -30172   -30026   -30080   -30376   -30669   -30893   -31041 
  -31054   -31014   -31029   -31056   -31108   -31262   -31318   -31080 
  -30804   -30783   -30895   -30930   -30937   -31047   -31217   -31265 
  -31124   -30964   -30952   -30993   -30924   -30767   -30627   -30576 
  -30639   -30748   -30840   -30964   -31135   -31322   -31479   -31502 
  -31395   -31204   -30894   -30590   -30494   -30567   -30693   -30817 
  -30856   -30871   -31001   -31135   -31212   -31380   -31575   -31652 
  -31657   -31617   -31543   -31477   -31430   -31408   -31410   -31378 
  -31182   -30818   -30549   -30518   -30566   -30592   -30603   -30576 
  -30542   -30573   -30683   -30848   -31067   -31308   -31452   -31487 
  -31493   -31351   -31029   -30879   -31028   -31156   -31119   -31019 
  -30898   -30805   -30763   -30689   -30521   -30344   -30297   -30350 
  -30426   -30492   -30435   -30318   -30345   -30426   -30365   -30252 
  -30282   -30422   -30520   -30565   -30629   -30762   -30973   -31169 
  -31309   -31462   -31599   -31642   -31643   -31678   -31773   -31902 
  -31903   -31668   -31372   -31207   -31117   -31061   -31124   -31218 
  -31212   -31206   -31208   -31083   -30901   -30780   -30742   -30809 
  -30919   -31014   -31051   -30975   -30918   -31009   -31181   -31309 
  -31290   -31136   -30951   -30848   -30893   -30962   -30907   -30747 
  -30533   -30351   -30371   -30594   -30800   -30819   -30714   -30639 
  -30676   -30827   -30986   -31103   -31263   -31417   -31498   -31495 
  -31323   -31054   -30818   -30609   -30447   -30397   -30443   -30442 
  -30308   -30182   -30211   -30402   -30689   -30893   -30885   -30798 
  -30766   -30820   -30998   -31172   -31224   -31220   -31139   -30994 
  -30916   -30896   -30894   -30899   -30845   -30757   -30735   -30821 
  -31014   -31172   -31078   -30844   -30780   -30927   -31172   -31446 
  -31634   -31709   -31806   -31912   -31856   -31675   -31535   -31441 
  -31359   -31322   -31308   -31315   -31312   -31150   -30864   -30653 
  -30484   -30261   -30092   -30071   -30168   -30341   -30527   -30612 
  -30595   -30623   -30671   -30626   -30676   -30919   -31124   -31243 
  -31346   -31361   -31302   -31248   -31238   -31321   -31473   -31555 
  -31487   -31376   -31382   -31471   -31520   -31450   -31238   -30993 
  -30778   -30598   -30597   -30735   -30794   -30829   -30935   -31012 
  -31014   -31016   -31035   -31050   -31111   -31203   -31242   -31240 
  -31235   -31218   -31166   -31086   -31035   -30982   -30906   -30872 
  -30761   -30546   -30462   -30548   -30629   -30580   -30402   -30220 
  -30081   -29983   -29996   -30085   -30171   -30292   -30473   -30669 
  -30800   -30859   -30992   -31257   -31487   -31530   -31392   -31193 
  -30993   -30765   -30579   -30467   -30364   -30292   -30307   -30399 
  -30558   -30761   -30976   -31167   -31331   -31500   -31637   -31702 
  -31763   -31917   -32132   -32258   -32253   -32121   -31881   -31732 
  -31692   -31561   -31349   -31040   -30627   -30338   -30248   -30218 
  -30176   -30142   -30103   -30079   -30234   -30574   -30916   -31246 
  -31574   -31772   -31810   -31764   -31678   -31583   -31531   -31516 
  -31459   -31351   -31240   -31108   -30943   -30778   -30618   -30514 
  -30492   -30480   -30490   -30543   -30552   -30538   -30658   -30900 
  -31093   -31144   -31067   -30930   -30855   -30881   -30885   -30812 
  -30744   -30675   -30604   -30624   -30698   -30709   -30705   -30754 
  -30797   -30831   -30893   -30929   -30917   -30873   -30842   -30951 
  -31173   -31329   -31369   -31383   -31460   -31580   -31607   -31466 
  -31282   -31173   -31054   -30878   -30745   -30699   -30700   -30665 
  -30560   -30493   -30529   -30573   -30574   -30624   -30735   -30789 
  -30759   -30770   -30863   -30888   -30782   -30707   -30759   -30872 
  -30991   -31075   -31117   -31171   -31247   -31239   -31116   -31010 
  -30986   -30965   -30866   -30718   -30658   -30730   -30800   -30777 
  -30718   -30728   -30800   -30813   -30815   -30936   -31074   -31125 
  -31172   -31225   -31223   -31187   -31120   -31035   -31028   -31101 
  -31140   -31111   -31038   -30908   -30825   -30863   -30910   -30942 
  -31027   -31112   -31174   -31260   -31338   -31358   -31280   -31130 
  -31005   -30874   -30713   -30655   -30725   -30820   -30855   -30753 
  -30607   -30635   -30823   -30978   -31081   -31178   -31205   -31197 
  -31200   -31170   -31157   -31172   -31129   -31051   -31052   -31172 
  -31302   -31385   -31478   -31569   -31615   -31570   -31398   -31193 
  -31079   -31051   -31021   -30905   -30702   -30490   -30347   -30278 
  -30256   -30278   -30341   -30435   -30480   -30395   -30268   -30233 
  -30316   -30489   -30743   -31018   -31170   -31152   -31084   -31107 
  -31251   -31384   -31368   -31220   -31049   -30962   -30940   -30923 
  -30893   -30818   -30768   -30838   -30952   -31027   -31105   -31207 
  -31275   -31283   -31266   -31196   -31094   -31099   -31143   -31066 
  -30963   -30953   -30977   -30972   -30944   -30938   -30946   -30905 
  -30854   -30855   -30869   -30844   -30775   -30736   -30825   -30995 
  -31113   -31152   -31211   -31371   -31563   -31669   -31640   -31472 
  -31227   -30987   -30831   -30863   -31017   -31046   -30933   -30850 
  -30815   -30771   -30680   -30535   -30448   -30520   -30729   -30945 
  -31028   -30968   -30887   -30913   -31071   -31246   -31332   -31351 
  -31306   -31162   -31009   -30960   -30938   -30842   -30692   -30570 
  -30545   -30580   -30587   -30550   -30470   -30347   -30273   -30293 
  -30298   -30277   -30334   -30461   -30623   -30824   -30987   -31047 
  -31073   -31127   -31141   -31117   -31157   -31268   -31398   -31469 
  -31423   -31370   -31442   -31599   -31742   -31796   -31722   -31597 
  -31537   -31531   -31492   -31367   -31192   -31054   -30949   -30837 
  -30765   -30703   -30604   -30537   -30503   -30492   -30548   -30639 
  -30705   -30728   -30732   -30725   -30699   -30720   -30848   -30999 
  -31086   -31124   -31138   -31142   -31159   -31177   -31221   -31286 
  -31252   -31134   -31060   -31024   -31047   -31138   -31196   -31214 
  -31220   -31164   -31071   -31024   -31027   -31011   -30925   -30835 
  -30830   -30872   -30873   -30793   -30676   -30614   -30599   -30576 
  -30577   -30635   -30687   -30684   -30645   -30579   -30500   -30441 
  -30461   -30612   -30789   -30855   -30827   -30759   -30735   -30841 
  -31018   -31207   -31382   -31434   -31399   -31406   -31441   -31477 
  -31462   -31316   -31149   -31032   -30899   -30788   -30709   -30635 
  -30612   -30573   -30497   -30565   -30785   -30975   -31102   -31217 
  -31305   -31351   -31394   -31463   -31518   -31537   -31549   -31563 
  -31572   -31540   -31431   -31300   -31205   -31104   -30917   -30654 
  -30448   -30356   -30320   -30296   -30254   -30238   -30310   -30433 
  -30571   -30694   -30804   -30923   -31042   -31214   -31464   -31682 
  -31798   -31814   -31694   -31451   -31239   -31174   -31231   -31338 
  -31336   -31163   -31027   -30985   -30887   -30726   -30542   -30355 
  -30251   -30226   -30216   -30234   -30283   -30372   -30523   -30664 
  -30789   -30971   -31163   -31303   -31360   -31323   -31305   -31337 
  -31298   -31162   -30984   -30797   -30672   -30649   -30668   -30684 
  -30746   -30933   -31182   -31265   -31128   -30969   -30896   -30919 
  -31011   -31048   -30971   -30845   -30772   -30834   -30974   -31035 
  -30970   -30864   -30742   -30613   -30557   -30577   -30617   -30692 
  -30768   -30788   -30823   -30973   -31182   -31281   -31231   -31144 
  -31048   -30975   -31026   -31121   -31137   -31133   -31178   -31174 
  -31057   -30997   -31069   -31096   -31043   -30979   -30875   -30773 
  -30724   -30708   -30728   -30725   -30679   -30736   -30935   -31133 
  -31243   -31286   -31304   -31337   -31397   -31436   -31411   -31368 
  -31320   -31215   -31097   -31069   -31115   -31131   -31075   -31007 
  -30963   -30965   -31021   -31072   -31115   -31168   -31190   -31166 
  -31088   -30962   -30842   -30745   -30688   -30670   -30649   -30648 
  -30679   -30668   -30583   -30483   -30442   -30448   -30439   -30391 
  -30330   -30314   -30385   -30548   -30759   -30947   -31124   -31323 
  -31496   -31628   -31724   -31732   -31717   -31806   -31890   -31837 
  -31756   -31664   -31488   -31292   -31111   -30961   -30866   -30790 
  -30734   -30681   -30579   -30469   -30389   -30307   -30223   -30169 
  -30215   -30415   -30708   -30992   -31215   -31347   -31417   -31503 
  -31595   -31635   -31611   -31503   -31323   -31108   -30888   -30733 
  -30674   -30690   -30712   -30659   -30567   -30538   -30600   -30700 
  -30796   -30886   -30960   -31022   -31075   -31093   -31089   -31103 
