Origin Time       2024/04/02 04:24:00
Lat.              40.133
Long.             141.712
Depth. (km)       71
Mag.              6.0
Station Code      IKRH03
Station Lat.      42.8880
Station Long.     141.6399
Station Height(m) 10
Record Time       2024/04/02 04:25:21
Sampling Freq(Hz) 100Hz
Duration Time(s)  179
Dir.              4
Scale Factor      7845(gal)/8223790
Max. Acc. (gal)   2.584
Last Correction   2024/04/02 04:25:22
Memo.             
[...]
   -6542    -6616    -6733    -6843    -6910    -6912    -6845    -6747 
   -6640    -6507    -6349    -6218    -6131    -6064    -5994    -5902 
   -5803    -5721    -5694    -5749    -5842    -5940    -6053    -6188 
   -6308    -6384    -6417    -6436    -6478    -6596    -6781    -6947 
   -7053    -7118    -7140    -7094    -6979    -6817    -6620    -6389 
   -6134    -5854    -5587    -5427    -5417    -5499    -5618    -5791 
   -6023    -6266    -6474    -6637    -6763    -6848    -6913    -6971 
   -6999    -6978    -6928    -6858    -6768    -6671    -6558    -6404 
   -6242    -6124    -6034    -5934    -5849    -5836    -5908    -6008 
   -6096    -6161    -6195    -6226    -6280    -6332    -6357    -6358 
   -6385    -6442    -6466    -6420    -6318    -6203    -6143    -6162 
   -6219    -6247    -6246    -6241    -6188    -6075    -5967    -5927 
   -5964    -6064    -6208    -6366    -6496    -6602    -6728    -6868 
   -6993    -7069    -7064    -6987    -6906    -6840    -6741    -6600 
   -6454    -6311    -6168    -6057    -6002    -5985    -6002    -6052 
   -6124    -6189    -6214    -6207    -6199    -6154    -6054    -5965 
   -5922    -5918    -5975    -6122    -6308    -6446    -6520    -6550 
   -6535    -6511    -6500    -6498    -6520    -6567    -6617    -6675 
   -6766    -6849    -6853    -6787    -6670    -6497    -6319    -6162 
   -6038    -5977    -5984    -6030    -6085    -6106    -6093    -6102 
   -6168    -6272    -6365    -6423    -6442    -6431    -6427    -6423 
   -6385    -6346    -6365    -6424    -6478    -6513    -6528    -6478 
   -6345    -6169    -6003    -5871    -5818    -5876    -6016    -6184 
   -6355    -6524    -6654    -6733    -6793    -6810    -6766    -6704 
   -6646    -6575    -6515    -6458    -6349    -6187    -6049    -5971 
   -5933    -5938    -5971    -5987    -5988    -5992    -6008    -6037 
   -6069    -6120    -6201    -6284    -6359    -6453    -6566    -6660 
   -6702    -6691    -6639    -6573    -6551    -6574    -6596    -6620 
   -6633    -6600    -6528    -6442    -6351    -6274    -6219    -6176 
   -6126    -6064    -6018    -6029    -6089    -6170    -6250    -6316 
   -6338    -6296    -6241    -6222    -6242    -6292    -6349    -6372 
   -6359    -6339    -6324    -6311    -6292    -6280    -6278    -6277 
   -6265    -6237    -6205    -6207    -6259    -6311    -6324    -6330 
   -6335    -6295    -6191    -6076    -5998    -5972    -6019    -6119 
   -6232    -6361    -6481    -6524    -6470    -6369    -6300    -6297 
   -6330    -6353    -6338    -6291    -6239    -6203    -6176    -6150 
   -6153    -6226    -6338    -6419    -6475    -6524    -6525    -6454 
   -6342    -6235    -6201    -6292    -6470    -6642    -6764    -6849 
   -6886    -6841    -6736    -6629    -6556    -6523    -6509    -6501 
   -6500    -6508    -6519    -6498    -6412    -6268    -6108    -5983 
   -5929    -5956    -6046    -6158    -6274    -6392    -6486    -6544 
   -6589    -6624    -6627    -6605    -6563    -6477    -6357    -6257 
   -6218    -6234    -6278    -6336    -6382    -6386    -6355    -6300 
   -6234    -6192    -6210    -6276    -6323    -6312    -6293    -6309 
   -6327    -6296    -6214    -6123    -6081    -6096    -6124    -6135 
   -6145    -6156    -6150    -6143    -6174    -6264    -6393    -6523 
   -6604    -6598    -6500    -6377    -6307    -6289    -6266    -6234 
   -6216    -6216    -6238    -6276    -6309    -6353    -6412    -6453 
   -6426    -6324    -6195    -6084    -6033    -6068    -6164    -6262 
   -6332    -6385    -6426    -6408    -6324    -6257    -6285    -6407 
   -6566    -6700    -6771    -6779    -6767    -6744    -6681    -6612 
   -6583    -6561    -6496    -6382    -6239    -6106    -6021    -5981 
   -5958    -5962    -6016    -6093    -6151    -6211    -6293    -6388 
   -6489    -6588    -6646    -6639    -6588    -6536    -6496    -6463 
   -6485    -6573    -6651    -6637    -6539    -6428    -6361    -6334 
   -6323    -6311    -6309    -6340    -6378    -6369    -6320    -6297 
   -6313    -6319    -6270    -6177    -6087    -6053    -6072    -6097 
   -6103    -6129    -6228    -6374    -6507    -6601    -6651    -6667 
   -6664    -6636    -6592    -6562    -6558    -6577    -6574    -6509 
   -6419    -6358    -6322    -6264    -6154    -6015    -5898    -5834 
   -5819    -5826    -5861    -5972    -6138    -6284    -6403    -6493 
   -6524    -6538    -6575    -6604    -6583    -6539    -6502    -6477 
   -6453    -6426    -6396    -6384    -6384    -6374    -6363    -6353 
   -6357    -6393    -6419    -6390    -6318    -6250    -6222    -6224 
   -6265    -6340    -6421    -6512    -6597    -6628    -6594    -6515 
   -6400    -6273    -6149    -6019    -5899    -5848    -5902    -6033 
   -6199    -6376    -6544    -6673    -6741    -6751    -6705    -6616 
   -6542    -6531    -6531    -6481    -6428    -6411    -6392    -6353 
   -6339    -6363    -6384    -6361    -6284    -6162    -6030    -5935 
   -5896    -5888    -5898    -5942    -6030    -6130    -6227    -6335 
   -6439    -6517    -6562    -6577    -6558    -6531    -6540    -6561 
   -6538    -6492    -6457    -6419    -6372    -6345    -6355    -6362 
   -6351    -6335    -6292    -6211    -6133    -6079    -6034    -5985 
   -5922    -5840    -5751    -5698    -5707    -5757    -5852    -6007 
   -6177    -6311    -6401    -6443    -6439    -6415    -6394    -6372 
   -6332    -6303    -6316    -6362    -6415    -6458    -6490    -6535 
   -6590    -6644    -6694    -6732    -6758    -6763    -6718    -6631 
   -6548    -6494    -6443    -6392    -6369    -6347    -6274    -6151 
   -5998    -5823    -5679    -5630    -5684    -5799    -5949    -6126 
   -6296    -6434    -6531    -6604    -6673    -6713    -6682    -6571 
   -6409    -6278    -6237    -6258    -6309    -6389    -6470    -6520 
   -6542    -6539    -6520    -6511    -6517    -6507    -6448    -6362 
   -6305    -6307    -6338    -6372    -6424    -6498    -6569    -6609 
   -6615    -6574    -6477    -6343    -6205    -6072    -5968    -5946 
   -5988    -6064    -6178    -6305    -6421    -6548    -6693    -6831 
   -6930    -6952    -6880    -6748    -6627    -6548    -6493    -6465 
   -6490    -6540    -6544    -6475    -6359    -6238    -6161    -6165 
   -6218    -6246    -6234    -6224    -6249    -6278    -6291    -6303 
   -6322    -6322    -6281    -6205    -6139    -6112    -6112    -6107 
   -6081    -6046    -6019    -6016    -6065    -6177    -6326    -6462 
   -6571    -6654    -6673    -6605    -6497    -6400    -6304    -6232 
   -6246    -6339    -6435    -6481    -6447    -6328    -6158    -6019 
   -5981    -6053    -6187    -6299    -6343    -6340    -6327    -6308 
   -6292    -6309    -6372    -6436    -6469    -6471    -6461    -6442 
   -6427    -6431    -6426    -6361    -6262    -6177    -6099    -6037 
   -6015    -6043    -6127    -6245    -6338    -6376    -6372    -6357 
   -6349    -6349    -6359    -6376    -6376    -6357    -6309    -6243 
   -6199    -6200    -6242    -6304    -6351    -6378    -6384    -6350 
   -6288    -6227    -6185    -6176    -6218    -6291    -6339    -6335 
   -6312    -6309    -6313    -6284    -6226    -6199    -6232    -6285 
   -6319    -6343    -6378    -6438    -6519    -6585    -6594    -6578 
   -6579    -6555    -6488    -6426    -6382    -6315    -6216    -6119 
   -6027    -5971    -6026    -6199    -6392    -6527    -6606    -6654 
   -6667    -6647    -6597    -6536    -6493    -6500    -6528    -6515 
   -6471    -6453    -6451    -6431    -6384    -6309    -6227    -6192 
   -6203    -6187    -6120    -6065    -6058    -6096    -6174    -6309 
   -6502    -6701    -6849    -6924    -6883    -6755    -6640    -6577 
   -6513    -6404    -6288    -6234    -6237    -6253    -6258    -6227 
   -6203    -6242    -6292    -6282    -6223    -6166    -6141    -6131 
   -6104    -6057    -6037    -6091    -6192    -6278    -6323    -6347 
   -6363    -6346    -6288    -6220    -6187    -6199    -6230    -6235 
   -6174    -6077    -6029    -6052    -6120    -6224    -6342    -6432 
   -6485    -6508    -6497    -6458    -6408    -6346    -6247    -6141 
   -6089    -6116    -6183    -6246    -6270    -6242    -6185    -6145 
   -6151    -6201    -6286    -6421    -6567    -6664    -6708    -6706 
   -6667    -6615    -6546    -6455    -6349    -6247    -6178    -6139 
   -6118    -6107    -6099    -6120    -6201    -6324    -6431    -6485 
   -6493    -6485    -6463    -6431    -6428    -6473    -6516    -6525 
   -6507    -6461    -6413    -6412    -6466    -6523    -6551    -6570 
   -6596    -6631    -6658    -6670    -6674    -6642    -6552    -6434 
   -6336    -6300    -6324    -6350    -6320    -6257    -6204    -6183 
   -6196    -6249    -6330    -6399    -6424    -6397    -6316    -6226 
   -6201    -6270    -6367    -6447    -6527    -6639    -6790    -6941 
   -7041    -7086    -7101    -7107    -7067    -6929    -6744    -6583 
   -6470    -6416    -6427    -6477    -6536    -6597    -6628    -6556 
   -6357    -6142    -6045    -6076    -6183    -6335    -6525    -6732 
   -6939    -7122    -7233    -7248    -7196    -7095    -6914    -6656 
   -6378    -6166    -6097    -6183    -6361    -6569    -6781    -6982 
   -7107    -7084    -6940    -6771    -6636    -6550    -6517    -6516 
   -6515    -6538    -6635    -6766    -6852    -6886    -6918    -6940 
   -6887    -6725    -6475    -6197    -5931    -5687    -5486    -5359 
   -5340    -5431    -5536    -5563    -5520    -5437    -5379    -5422 
   -5551    -5695    -5856    -6087    -6396    -6727    -7047    -7342 
   -7546    -7564    -7381    -7069    -6720    -6409    -6176    -5976 
   -5771    -5576    -5413    -5281    -5206    -5224    -5313    -5440 
   -5591    -5740    -5829    -5832    -5746    -5579    -5360    -5135 
   -4968    -4923    -5020    -5217    -5445    -5636    -5761    -5849 
   -5933    -6016    -6091    -6158    -6214    -6231    -6210    -6180 
   -6129    -6052    -5991    -5944    -5873    -5778    -5684    -5617 
   -5606    -5692    -5880    -6104    -6308    -6474    -6604    -6731 
   -6858    -6964    -7057    -7150    -7231    -7263    -7186    -6994 
   -6731    -6417    -6065    -5691    -5302    -4914    -4603    -4507 
   -4676    -5040    -5541    -6147    -6789    -7339    -7665    -7704 
   -7488    -7130    -6794    -6583    -6544    -6700    -6997    -7303 
   -7476    -7427    -7194    -6886    -6602    -6353    -6062    -5691 
   -5298    -4980    -4812    -4850    -5085    -5414    -5707    -5894 
   -5926    -5806    -5667    -5628    -5674    -5749    -5842    -5977 
   -6184    -6453    -6751    -7001    -7111    -7061    -6864    -6511 
   -6006    -5408    -4811    -4351    -4136    -4212    -4606    -5320 
   -6250    -7200    -7983    -8469    -8627    -8542    -8324    -8056 
   -7796    -7560    -7357    -7236    -7233    -7334    -7504    -7709 
   -7889    -7938    -7777    -7411    -6876    -6253    -5667    -5219 
   -4946    -4854    -4927    -5113    -5375    -5711    -6103    -6534 
   -6999    -7461    -7834    -8055    -8148    -8172    -8129    -7992 
   -7757    -7441    -7122    -6907    -6820    -6799    -6785    -6755 
   -6685    -6500    -6168    -5757    -5379    -5139    -5085    -5200 
   -5443    -5787    -6195    -6574    -6802    -6845    -6754    -6577 
   -6388    -6235    -6099    -5960    -5823    -5699    -5582    -5456 
   -5360    -5371    -5537    -5875    -6367    -6953    -7533    -7989 
   -8236    -8230    -8012    -7716    -7453    -7257    -7137    -7065 
   -6991    -6876    -6712    -6528    -6366    -6237    -6130    -6023 
   -5883    -5683    -5448    -5217    -5054    -5049    -5221    -5506 
   -5856    -6192    -6397    -6386    -6154    -5794    -5428    -5155 
   -5057    -5135    -5302    -5485    -5637    -5725    -5741    -5714 
   -5717    -5803    -5969    -6173    -6357    -6485    -6583    -6700 
   -6833    -6948    -7017    -7024    -6952    -6813    -6635    -6455 
   -6311    -6169    -5922    -5532    -5070    -4652    -4388    -4359 
   -4612    -5132    -5814    -6511    -7048    -7298    -7257    -6984 
   -6556    -6070    -5634    -5358    -5292    -5406    -5659    -5999 
   -6353    -6636    -6801    -6813    -6664    -6448    -6340    -6424 
   -6673    -7032    -7462    -7927    -8363    -8696    -8897    -8988 
   -8972    -8807    -8469    -7996    -7483    -7041    -6697    -6413 
   -6158    -5899    -5634    -5404    -5206    -5004    -4811    -4703 
   -4719    -4838    -5044    -5344    -5736    -6164    -6539    -6820 
   -7036    -7222    -7393    -7550    -7677    -7758    -7771    -7688 
   -7524    -7344    -7187    -7034    -6833    -6544    -6150    -5675 
   -5238    -4930    -4723    -4598    -4611    -4804    -5150    -5563 
   -5971    -6347    -6660    -6875    -6964    -6914    -6785    -6716 
   -6797    -6986    -7177    -7312    -7420    -7534    -7638    -7677 
   -7628    -7558    -7507    -7377    -7071    -6594    -6030    -5479 
   -5042    -4781    -4687    -4700    -4788    -4911    -5007    -5047 
   -5065    -5127    -5292    -5590    -6002    -6474    -6932    -7308 
   -7524    -7489    -7163    -6579    -5854    -5190    -4774    -4649 
   -4720    -4874    -4999    -4999    -4865    -4704    -4684    -4918 
   -5406    -6072    -6785    -7435    -7965    -8325    -8500    -8509 
   -8390    -8222    -8048    -7865    -7672    -7447    -7142    -6693 
   -6057    -5283    -4523    -3943    -3643    -3632    -3882    -4330 
   -4858    -5340    -5713    -5989    -6245    -6559    -6968    -7435 
   -7886    -8282    -8606    -8823    -8904    -8869    -8777    -8676 
   -8571    -8446    -8257    -7911    -7369    -6667    -5852    -5028 
   -4342    -3923    -3839    -4067    -4514    -5062    -5613    -6097 
   -6448    -6612    -6598    -6470    -6305    -6162    -6076    -6076 
   -6164    -6313    -6484    -6617    -6662    -6613    -6492    -6303 
   -6048    -5772    -5513    -5271    -5063    -4932    -4905    -4985 
   -5174    -5464    -5775    -6029    -6249    -6478    -6696    -6897 
   -7118    -7350    -7539    -7641    -7619    -7480    -7276    -7075 
   -6920    -6822    -6809    -6882    -6967    -6960    -6786    -6440 
   -6002    -5580    -5275    -5134    -5165    -5360    -5670    -6015 
   -6346    -6646    -6921    -7146    -7281    -7295    -7171    -6947 
   -6714    -6525    -6393    -6350    -6423    -6590    -6760    -6840 
   -6782    -6570    -6235    -5869    -5549    -5305    -5143    -5061 
   -5074    -5208    -5437    -5717    -6027    -6362    -6701    -6994 
   -7199    -7350    -7510    -7661    -7755    -7778    -7720    -7596 
   -7447    -7288    -7095    -6856    -6593    -6338    -6070    -5752 
   -5377    -4989    -4673    -4500    -4467    -4538    -4703    -4957 
   -5270    -5591    -5903    -6231    -6574    -6898    -7171    -7346 
   -7371    -7234    -6990    -6709    -6439    -6201    -5967    -5703 
   -5447    -5242    -5123    -5116    -5216    -5383    -5587    -5803 
   -5967    -6026    -6014    -6021    -6123    -6323    -6562    -6790 
   -6966    -7037    -6980    -6809    -6546    -6235    -5946    -5746 
   -5661    -5719    -5953    -6307    -6623    -6759    -6704    -6547 
   -6403    -6335    -6396    -6621    -6988    -7434    -7874    -8201 
   -8361    -8372    -8236    -7928    -7461    -6897    -6323    -5841 
   -5535    -5378    -5316    -5370    -5552    -5796    -6037    -6245 
   -6423    -6565    -6658    -6698    -6691    -6669    -6671    -6713 
   -6781    -6875    -7002    -7111    -7129    -7056    -6949    -6864 
   -6843    -6864    -6841    -6708    -6489    -6254    -6042    -5875 
   -5787    -5779    -5796    -5794    -5746    -5671    -5640    -5705 
   -5857    -6031    -6150    -6200    -6196    -6124    -6016    -5927 
   -5886    -5869    -5849    -5806    -5733    -5683    -5753    -5961 
   -6250    -6555    -6812    -6986    -7078    -7103    -7072    -6976 
   -6822    -6617    -6347    -6038    -5767    -5587    -5495    -5447 
   -5417    -5402    -5379    -5333    -5260    -5193    -5242    -5489 
   -5881    -6313    -6727    -7109    -7416    -7603    -7678    -7666 
   -7615    -7614    -7686    -7754    -7712    -7538    -7267    -6903 
   -6438    -5937    -5505    -5208    -5065    -5035    -5032    -5013 
   -4982    -4951    -4930    -4941    -5015    -5166    -5435    -5841 
   -6313    -6762    -7129    -7372    -7465    -7422    -7298    -7149 
   -6980    -6790    -6562    -6269    -5913    -5537    -5228    -5044 
   -4957    -4922    -4949    -5036    -5167    -5339    -5562    -5844 
   -6153    -6431    -6606    -6646    -6585    -6498    -6459    -6525 
   -6701    -6951    -7236    -7512    -7723    -7813    -7778    -7659 
   -7487    -7249    -6960    -6682    -6443    -6205    -5946    -5683 
   -5452    -5321    -5312    -5391    -5544    -5765    -6033    -6331 
   -6615    -6825    -6934    -6948    -6898    -6805    -6675    -6536 
   -6427    -6386    -6434    -6548    -6708    -6863    -6926    -6832 
   -6577    -6223    -5872    -5621    -5502    -5485    -5528    -5613 
   -5717    -5834    -5976    -6126    -6270    -6417    -6558    -6662 
   -6716    -6747    -6764    -6739    -6650    -6509    -6349    -6218 
   -6162    -6187    -6273    -6405    -6575    -6735    -6812    -6783 
   -6675    -6539    -6439    -6404    -6421    -6463    -6494    -6490 
   -6443    -6353    -6223    -6075    -5960    -5956    -6093    -6363 
   -6723    -7099    -7425    -7619    -7631    -7487    -7257    -7025 
   -6858    -6760    -6689    -6589    -6454    -6324    -6220    -6161 
   -6191    -6301    -6440    -6556    -6635    -6675    -6710    -6787 
   -6937    -7132    -7311    -7406    -7368    -7196    -6928    -6608 
   -6254    -5886    -5543    -5250    -5022    -4908    -4962    -5186 
   -5517    -5883    -6211    -6408    -6420    -6276    -6041    -5822 
   -5737    -5825    -6052    -6363    -6709    -7030    -7267    -7393 
   -7441    -7465    -7500    -7522    -7465    -7267    -6909    -6435 
   -5910    -5404    -5031    -4891    -4953    -5109    -5240    -5271 
   -5211    -5154    -5217    -5440    -5799    -6250    -6717    -7113 
   -7375    -7497    -7515    -7438    -7277    -7041    -6721    -6345 
   -5984    -5699    -5543    -5564    -5775    -6110    -6482    -6837 
   -7090    -7152    -7057    -6910    -6786    -6716    -6717    -6786 
   -6874    -6920    -6897    -6787    -6590    -6340    -6114    -5971 
   -5926    -5981    -6146    -6377    -6606    -6787    -6889    -6899 
   -6837    -6708    -6517    -6285    -6064    -5915    -5864    -5879 
   -5914    -5908    -5850    -5769    -5690    -5661    -5732    -5919 
   -6204    -6485    -6662    -6712    -6669    -6586    -6520    -6498 
   -6511    -6556    -6656    -6752    -6735    -6573    -6295    -5941 
   -5564    -5235    -4995    -4872    -4938    -5255    -5767    -6342 
   -6883    -7335    -7628    -7722    -7662    -7564    -7526    -7574 
   -7670    -7731    -7668    -7431    -7022    -6467    -5825    -5179 
   -4626    -4240    -4044    -4008    -4074    -4221    -4460    -4760 
   -5096    -5468    -5888    -6339    -6782    -7204    -7615    -7981 
   -8291    -8540    -8689    -8730    -8710    -8656    -8537    -8321 
