Origin Time       2024/04/02 04:24:00
Lat.              40.133
Long.             141.712
Depth. (km)       71
Mag.              6.0
Station Code      IKRH02
Station Lat.      43.2204
Station Long.     141.6523
Station Height(m) -117
Record Time       2024/04/02 04:26:01
Sampling Freq(Hz) 100Hz
Duration Time(s)  120
Dir.              1
Scale Factor      2940(gal)/6170270
Max. Acc. (gal)   0.775
Last Correction   2024/04/02 04:25:46
Memo.             
[...]
   57699    57669    57653    57667    57682    57677    57669    57666 
   57647    57616    57605    57618    57631    57645    57683    57740 
   57778    57787    57773    57736    57710    57714    57709    57701 
   57723    57750    57773    57821    57874    57892    57891    57873 
   57825    57780    57763    57744    57728    57727    57723    57718 
   57717    57721    57730    57730    57723    57730    57744    57754 
   57776    57828    57890    57936    57968    57984    57961    57912 
   57864    57813    57749    57691    57655    57634    57627    57636 
   57659    57694    57751    57823    57870    57862    57831    57824 
   57832    57812    57749    57692    57676    57670    57656    57655 
   57661    57658    57649    57652    57664    57664    57668    57695 
   57727    57746    57754    57770    57798    57814    57804    57778 
   57751    57719    57680    57657    57642    57603    57565    57566 
   57592    57619    57646    57674    57706    57750    57805    57853 
   57874    57875    57883    57901    57904    57879    57835    57784 
   57743    57740    57775    57811    57825    57820    57798    57772 
   57756    57749    57756    57761    57745    57724    57708    57692 
   57675    57666    57671    57694    57720    57730    57723    57717 
   57709    57684    57653    57652    57678    57684    57665    57641 
   57629    57642    57671    57698    57731    57771    57791    57775 
   57752    57754    57770    57784    57802    57818    57828    57849 
   57873    57867    57818    57754    57704    57664    57628    57633 
   57665    57674    57677    57688    57695    57725    57798    57866 
   57877    57856    57851    57851    57841    57839    57829    57798 
   57779    57783    57791    57795    57800    57810    57801    57759 
   57734    57746    57757    57759    57767    57777    57783    57780 
   57765    57748    57732    57719    57714    57714    57719    57724 
   57713    57677    57628    57596    57601    57635    57662    57655 
   57637    57644    57662    57663    57655    57646    57638    57663 
   57709    57721    57706    57706    57723    57749    57779    57805 
   57819    57801    57755    57716    57688    57658    57648    57670 
   57691    57664    57598    57542    57510    57487    57481    57514 
   57579    57651    57703    57731    57751    57772    57798    57819 
   57816    57797    57791    57795    57794    57782    57764    57769 
   57795    57810    57819    57835    57852    57866    57871    57859 
   57827    57805    57812    57824    57838    57873    57907    57923 
   57929    57913    57877    57853    57848    57848    57858    57877 
   57890    57891    57871    57833    57807    57778    57726    57675 
   57650    57656    57690    57733    57746    57721    57695    57683 
   57671    57655    57647    57674    57718    57723    57684    57622 
   57568    57569    57612    57636    57635    57638    57653    57672 
   57679    57663    57637    57620    57606    57596    57607    57644 
   57689    57736    57798    57846    57846    57813    57775    57729 
   57669    57598    57531    57482    57445    57426    57453    57503 
   57546    57595    57653    57705    57743    57765    57770    57754 
   57735    57737    57770    57817    57846    57851    57852    57874 
   57906    57921    57913    57897    57885    57886    57892    57893 
   57886    57862    57830    57790    57738    57695    57679    57682 
   57679    57657    57636    57622    57609    57618    57647    57667 
   57680    57708    57757    57803    57827    57848    57877    57887 
   57863    57828    57806    57790    57771    57753    57727    57696 
   57684    57689    57672    57628    57607    57626    57642    57648 
   57665    57669    57644    57629    57642    57657    57662    57671 
   57691    57694    57670    57652    57656    57654    57637    57645 
   57678    57700    57719    57776    57864    57926    57947    57953 
   57948    57931    57913    57884    57845    57818    57796    57773 
   57751    57723    57687    57648    57609    57584    57583    57591 
   57600    57622    57659    57695    57716    57715    57689    57661 
   57679    57738    57798    57842    57877    57898    57888    57860 
   57849    57846    57829    57805    57794    57796    57808    57836 
   57856    57848    57827    57816    57812    57782    57746    57759 
   57799    57806    57784    57778    57788    57767    57721    57694 
   57677    57645    57619    57624    57637    57643    57664    57697 
   57704    57678    57651    57639    57629    57634    57681    57725 
   57710    57688    57714    57752    57774    57782    57777    57758 
   57711    57656    57635    57641    57650    57674    57718    57737 
   57724    57727    57736    57721    57696    57670    57653    57676 
   57735    57794    57822    57814    57779    57739    57702    57662 
   57630    57620    57629    57646    57671    57701    57734    57766 
   57790    57793    57788    57801    57832    57855    57862    57865 
   57869    57863    57847    57836    57827    57799    57768    57767 
   57796    57831    57857    57870    57884    57891    57876    57850 
   57827    57800    57776    57771    57779    57777    57759    57751 
   57750    57737    57718    57699    57675    57652    57631    57619 
   57614    57615    57640    57686    57724    57739    57735    57743 
   57764    57768    57741    57689    57630    57591    57589    57605 
   57600    57576    57574    57592    57590    57575    57576    57579 
   57572    57578    57614    57673    57725    57750    57762    57765 
   57763    57763    57767    57765    57736    57703    57695    57693 
   57698    57730    57766    57789    57794    57792    57798    57815 
   57819    57800    57775    57753    57733    57738    57775    57810 
   57824    57818    57803    57785    57760    57730    57720    57738 
   57760    57785    57831    57877    57899    57908    57914    57898 
   57856    57807    57757    57715    57696    57693    57686    57666 
   57640    57615    57582    57560    57565    57588    57614    57636 
   57658    57669    57654    57643    57662    57696    57720    57726 
   57726    57740    57780    57831    57869    57892    57913    57940 
   57966    57975    57952    57909    57872    57852    57835    57805 
   57776    57759    57751    57753    57760    57751    57731    57732 
   57744    57737    57726    57734    57754    57758    57735    57707 
   57699    57699    57695    57698    57707    57706    57697    57691 
   57690    57692    57705    57740    57775    57782    57783    57803 
   57814    57803    57794    57800    57819    57843    57854    57849 
   57843    57853    57862    57837    57796    57797    57848    57892 
   57885    57846    57809    57777    57747    57736    57756    57787 
   57805    57809    57799    57766    57708    57650    57613    57590 
   57581    57612    57684    57751    57784    57793    57804    57832 
   57857    57852    57828    57804    57769    57722    57669    57614 
   57578    57579    57601    57613    57604    57586    57570    57573 
   57583    57579    57578    57587    57584    57574    57569    57572 
   57584    57591    57590    57594    57614    57665    57729    57760 
   57767    57802    57869    57934    57989    58027    58042    58025 
   57984    57950    57930    57912    57898    57888    57868    57834 
   57802    57784    57767    57741    57709    57688    57684    57686 
   57686    57674    57644    57615    57606    57608    57600    57577 
   57568    57587    57623    57648    57642    57617    57601    57608 
   57632    57653    57666    57687    57695    57671    57656    57676 
   57717    57755    57767    57760    57757    57754    57745    57736 
   57728    57715    57700    57689    57681    57678    57674    57671 
   57671    57668    57665    57658    57652    57663    57674    57658 
   57616    57573    57554    57544    57525    57534    57581    57618 
   57620    57623    57652    57668    57654    57637    57624    57608 
   57614    57643    57670    57681    57686    57694    57701    57703 
   57701    57700    57705    57730    57770    57800    57823    57850 
   57861    57831    57783    57754    57744    57739    57741    57758 
   57793    57833    57847    57837    57826    57813    57788    57771 
   57788    57828    57871    57914    57952    57978    57988    57969 
   57927    57893    57871    57833    57782    57736    57711    57711 
   57707    57673    57626    57588    57570    57576    57610    57656 
   57686    57702    57728    57753    57749    57740    57753    57742 
   57663    57576    57545    57547    57552    57572    57602    57613 
   57618    57641    57668    57666    57637    57622    57635    57652 
   57679    57727    57772    57797    57825    57851    57849    57825 
   57809    57813    57821    57818    57816    57836    57858    57848 
   57818    57785    57741    57689    57655    57665    57706    57738 
   57768    57814    57839    57829    57829    57838    57824    57808 
   57813    57819    57831    57863    57889    57885    57857    57830 
   57822    57814    57791    57778    57778    57759    57725    57704 
   57694    57677    57663    57667    57684    57708    57743    57784 
   57804    57801    57807    57829    57852    57876    57893    57885 
   57857    57838    57827    57803    57773    57758    57759    57769 
   57783    57809    57832    57825    57808    57817    57839    57849 
   57845    57824    57790    57755    57718    57690    57687    57701 
   57711    57732    57774    57815    57837    57846    57840    57805 
   57739    57676    57641    57621    57599    57582    57575    57582 
   57607    57649    57696    57741    57785    57819    57832    57835 
   57837    57834    57816    57788    57765    57758    57750    57729 
   57718    57740    57782    57823    57847    57848    57837    57828 
   57832    57856    57873    57858    57848    57862    57845    57783 
   57727    57686    57622    57556    57532    57551    57590    57640 
   57684    57713    57727    57733    57747    57757    57752    57764 
   57809    57843    57857    57877    57893    57883    57851    57804 
   57743    57686    57648    57633    57646    57682    57725    57771 
   57805    57816    57810    57791    57767    57754    57748    57743 
   57737    57723    57712    57717    57725    57719    57708    57700 
   57707    57739    57778    57806    57817    57805    57772    57730 
   57690    57661    57654    57667    57664    57635    57606    57574 
   57543    57537    57545    57550    57566    57579    57569    57551 
   57538    57518    57495    57502    57544    57591    57640    57695 
   57728    57717    57669    57606    57562    57555    57567    57589 
   57624    57643    57615    57546    57456    57367    57295    57257 
   57265    57306    57344    57371    57409    57449    57460    57461 
   57482    57504    57504    57514    57564    57628    57679    57723 
   57763    57783    57775    57755    57725    57683    57648    57638 
   57630    57613    57610    57642    57703    57776    57861    57965 
   58064    58108    58083    58025    57962    57899    57856    57843 
   57847    57846    57837    57830    57822    57807    57793    57774 
   57735    57694    57689    57729    57773    57795    57812    57826 
   57840    57863    57893    57930    57968    58009    58064    58126 
   58148    58095    57986    57863    57738    57626    57537    57453 
   57368    57308    57280    57257    57223    57201    57221    57294 
   57412    57544    57638    57675    57698    57739    57775    57787 
   57794    57809    57823    57842    57860    57841    57773    57678 
   57576    57489    57429    57399    57402    57440    57496    57555 
   57615    57651    57629    57558    57481    57419    57386    57389 
   57416    57448    57479    57523    57575    57606    57627    57672 
   57752    57850    57948    58023    58082    58148    58207    58243 
   58288    58371    58482    58583    58643    58664    58651    58606 
   58531    58408    58258    58128    58040    57981    57917    57834 
   57775    57789    57876    58001    58129    58238    58323    58405 
   58504    58593    58626    58608    58560    58475    58359    58243 
   58130    58007    57874    57746    57643    57569    57521    57494 
   57467    57451    57481    57541    57596    57647    57711    57780 
   57833    57861    57864    57830    57736    57604    57472    57345 
   57220    57122    57059    57015    56974    56944    56934    56937 
   56959    57004    57046    57092    57191    57366    57592    57837 
   58076    58257    58304    58207    58041    57870    57716    57584 
   57476    57381    57309    57309    57410    57561    57696    57797 
   57860    57892    57913    57921    57896    57842    57789    57766 
   57780    57820    57884    57978    58079    58146    58167    58169 
   58173    58169    58167    58196    58274    58403    58559    58695 
   58759    58732    58656    58553    58389    58170    57961    57805 
   57713    57662    57611    57538    57460    57382    57281    57164 
   57079    57060    57108    57202    57295    57348    57383    57441 
   57535    57655    57774    57869    57940    57977    57950    57852 
   57723    57596    57463    57311    57149    56991    56837    56673 
   56490    56306    56167    56109    56134    56227    56377    56598 
   56900    57242    57578    57906    58217    58483    58677    58779 
   58797    58748    58658    58535    58342    58066    57779    57553 
   57370    57202    57086    57041    57067    57198    57425    57690 
   57953    58180    58376    58567    58751    58922    59087    59225 
   59291    59248    59103    58903    58686    58458    58232    58032 
   57861    57698    57538    57405    57294    57188    57115    57109 
   57156    57216    57264    57299    57332    57389    57501    57647 
   57760    57804    57799    57770    57692    57559    57421    57319 
   57262    57245    57250    57246    57206    57119    56999    56895 
   56865    56935    57067    57203    57321    57417    57481    57508 
   57513    57535    57597    57681    57754    57799    57823    57838 
   57854    57887    57949    58006    58012    57955    57864    57768 
   57673    57586    57515    57462    57434    57446    57510    57633 
   57794    57924    57973    57958    57940    57965    58055    58193 
   58350    58505    58641    58753    58856    58931    58949    58931 
   58919    58930    58940    58912    58825    58688    58537    58390 
   58222    57992    57687    57357    57078    56871    56715    56593 
   56512    56496    56570    56754    57034    57352    57686    58006 
   58243    58385    58462    58473    58420    58304    58108    57846 
   57588    57380    57204    57025    56857    56733    56664    56655 
   56713    56815    56932    57065    57210    57331    57409    57459 
   57484    57466    57424    57424    57467    57466    57366    57218 
   57110    57073    57079    57095    57102    57112    57179    57354 
   57606    57869    58104    58292    58421    58489    58519    58539 
   58522    58413    58221    58001    57786    57578    57398    57295 
   57272    57300    57378    57495    57631    57800    58023    58273 
   58489    58644    58756    58833    58859    58808    58675    58497 
   58313    58124    57937    57771    57635    57561    57578    57633 
   57654    57648    57666    57717    57785    57873    57979    58082 
   58165    58220    58248    58246    58195    58087    57936    57759 
   57612    57547    57522    57467    57381    57302    57255    57259 
   57311    57403    57549    57752    57978    58168    58270    58277 
   58220    58129    58028    57915    57782    57639    57494    57342 
   57195    57083    57008    56942    56874    56838    56853    56896 
   56960    57060    57198    57380    57618    57891    58174    58455 
   58704    58860    58872    58748    58553    58348    58163    58000 
   57839    57679    57550    57463    57393    57335    57293    57254 
   57207    57175    57184    57229    57319    57473    57645    57758 
   57805    57826    57835    57827    57799    57768    57756    57779 
   57832    57890    57946    58013    58106    58236    58395    58560 
   58717    58852    58941    58979    58978    58921    58764    58510 
   58235    57995    57785    57610    57502    57455    57428    57404 
   57399    57417    57428    57415    57418    57455    57493    57513 
   57547    57603    57644    57651    57632    57597    57552    57513 
   57513    57567    57636    57673    57680    57670    57639    57594 
   57559    57537    57523    57532    57551    57533    57474    57425 
   57413    57413    57417    57445    57501    57568    57653    57752 
   57823    57827    57780    57729    57675    57579    57453    57349 
   57296    57296    57346    57440    57559    57689    57828    57991 
   58183    58372    58527    58658    58785    58893    58951    58948 
   58874    58722    58529    58366    58254    58150    58039    57954 
   57907    57886    57877    57856    57813    57772    57734    57665 
   57544    57382    57230    57137    57086    57041    57003    56961 
   56907    56893    56944    57002    57013    56994    56981    56984 
   57004    57055    57152    57288    57426    57554    57704    57865 
   57975    58002    57950    57834    57700    57560    57377    57150 
   56920    56727    56620    56631    56739    56903    57110    57360 
   57604    57798    57955    58095    58195    58221    58183    58108 
   57996    57842    57657    57461    57276    57133    57064    57071 
   57139    57275    57486    57763    58086    58414    58691    58872 
   58952    58963    58915    58808    58674    58553    58462    58397 
   58347    58304    58267    58221    58140    58027    57919    57828 
   57752    57702    57666    57614    57546    57492    57469    57455 
   57422    57387    57378    57395    57434    57486    57539    57595 
   57654    57701    57740    57773    57776    57741    57690    57630 
   57579    57562    57573    57588    57596    57610    57635    57645 
   57625    57591    57566    57535    57495    57457    57420    57375 
   57329    57293    57253    57193    57139    57133    57177    57250 
   57365    57537    57735    57913    58057    58186    58306    58400 
   58467    58512    58540    58561    58565    58517    58405    58251 
   58091    57957    57851    57742    57640    57590    57596    57622 
   57648    57671    57698    57744    57798    57820    57813    57813 
   57832    57833    57781    57714    57705    57761    57829    57869 
   57869    57823    57743    57651    57551    57438    57327    57240 
   57200    57204    57236    57297    57393    57497    57579    57640 
   57678    57674    57616    57526    57436    57384    57407    57499 
   57620    57753    57896    58018    58093    58134    58168    58175 
   58143    58122    58136    58143    58112    58052    57978    57899 
   57820    57744    57676    57631    57637    57716    57840    57947 
   58000    58008    58009    58040    58089    58123    58142    58175 
