Origin Time       2024/04/02 04:24:00
Lat.              40.133
Long.             141.712
Depth. (km)       71
Mag.              6.0
Station Code      IWTH14
Station Lat.      39.7435
Station Long.     141.9087
Station Height(m) 100
Record Time       2024/04/02 04:24:50
Sampling Freq(Hz) 100Hz
Duration Time(s)  136
Dir.              2
Scale Factor      2942(gal)/8224139
Max. Acc. (gal)   51.526
Last Correction   2024/04/02 04:24:50
Memo.             
[...]
  145883   145916   145929   145878   145876   145918   145891   145879 
  145922   145922   145914   145921   145909   145910   145909   145897 
  145908   145910   145905   145913   145909   145910   145913   145898 
  145898   145912   145899   145894   145906   145899   145898   145901 
  145890   145899   145909   145903   145906   145901   145902   145912 
  145914   145910   145893   145906   145928   145903   145897   145916 
  145899   145898   145928   145922   145909   145925   145918   145890 
  145891   145917   145913   145891   145893   145894   145890   145903 
  145918   145926   145913   145894   145898   145903   145899   145899 
  145898   145910   145926   145909   145891   145909   145916   145891 
  145889   145906   145902   145906   145917   145898   145894   145908 
  145908   145913   145913   145891   145891   145920   145913   145887 
  145912   145935   145912   145909   145924   145916   145903   145903 
  145906   145898   145891   145918   145932   145902   145897   145910 
  145909   145908   145902   145895   145906   145916   145906   145895 
  145902   145916   145917   145910   145909   145912   145909   145897 
  145893   145913   145920   145905   145906   145906   145908   145918 
  145902   145883   145902   145924   145913   145901   145917   145918 
  145885   145874   145901   145914   145891   145889   145916   145924 
  145913   145908   145903   145894   145903   145916   145910   145908 
  145903   145887   145893   145901   145889   145902   145926   145910 
  145901   145913   145912   145916   145899   145879   145908   145928 
  145910   145908   145906   145898   145918   145922   145893   145895 
  145917   145921   145920   145921   145913   145899   145913   145917 
  145895   145908   145925   145909   145901   145905   145898   145902 
  145912   145908   145908   145926   145924   145883   145875   145903 
  145918   145913   145893   145889   145905   145920   145925   145893 
  145882   145912   145902   145886   145902   145910   145905   145901 
  145898   145906   145909   145898   145887   145893   145917   145912 
  145890   145913   145921   145898   145910   145912   145881   145887 
  145910   145897   145895   145909   145908   145903   145908   145903 
  145887   145909   145939   145895   145870   145906   145909   145893 
  145914   145918   145895   145897   145913   145914   145909   145903 
  145903   145908   145908   145905   145902   145906   145916   145905 
  145893   145916   145921   145897   145906   145917   145891   145887 
  145913   145906   145899   145912   145901   145899   145917   145912 
  145910   145910   145897   145912   145922   145899   145894   145909 
  145921   145930   145924   145893   145876   145909   145926   145897 
  145894   145908   145905   145924   145928   145898   145895   145918 
  145908   145883   145902   145925   145912   145906   145914   145905 
  145905   145909   145901   145901   145903   145909   145912   145898 
  145886   145895   145914   145910   145898   145917   145922   145906 
  145908   145906   145909   145916   145901   145887   145886   145905 
  145925   145899   145889   145925   145914   145881   145902   145910 
  145890   145909   145914   145897   145891   145891   145897   145897 
  145903   145918   145914   145898   145893   145914   145937   145930 
  145889   145868   145895   145901   145893   145913   145913   145905 
  145917   145913   145894   145909   145929   145910   145893   145905 
  145917   145920   145916   145891   145883   145910   145925   145918 
  145912   145901   145902   145912   145902   145891   145898   145920 
  145918   145901   145909   145914   145894   145893   145912   145909 
  145898   145910   145909   145898   145902   145908   145914   145902 
  145883   145910   145922   145905   145922   145922   145908   145922 
  145908   145890   145918   145921   145893   145909   145928   145889 
  145890   145935   145917   145897   145908   145898   145916   145936 
  145901   145887   145925   145933   145918   145916   145913   145912 
  145909   145912   145918   145902   145898   145913   145905   145908 
  145903   145887   145930   145944   145890   145899   145926   145908 
  145898   145878   145835   145839   145876   145875   145870   145893 
  145862   145781   145735   145770   145886   145994   146017   145951 
  145821   145681   145650   145704   145538   145274   145444   145759 
  145714   145550   145372   145368   145689   145781   145650   145436 
  145057   145455   146292   146236   145910   145474   145161   146059 
  146882   146915   146365   145187   145536   146728   146178   145840 
  146661   146438   145045   143984   145170   148246   148829   146983 
  145956   143750   143046   146682   146454   143910   145536   145507 
  144350   145012   145179   147218   148995   148663   148790   146485 
  143035   141967   141571   143668   148147   150017   148784   145417 
  143303   145223   145211   145077   148620   148358   147330   147768 
  143668   141924   143147   144008   150255   152018   147667   152080 
  153265   145002   144769   148672   147750   145362   144084   146460 
  148556   147442   143580   140884   149465   157084   151073   144504 
  138388   134728   142890   148667   144157   140613   143194   147167 
  146715   147860   151879   148884   144861   146489   147083   145794 
  144601   142750   141997   145272   150327   148907   142013   140238 
  143361   144539   147324   153401   150930   141118   141443   148864 
  148756   145689   148581   152712   149553   141898   144489   157855 
  158562   142411   136476   143544   143997   144104   146383   138265 
  133855   143449   148890   144706   143968   151336   156096   148824 
  139873   141122   144447   142149   137836   138538   146722   150664 
  146287   141833   140794   145974   149755   145453   141108   140792 
  143245   144331   143171   143326   142013   141755   147599   150133 
  145119   145192   149581   147109   143106   142875   146334   151502 
  147598   139872   141270   145674   149061   153031   151559   144192 
  142503   149624   154761   154913   152224   144818   138299   141129 
  149165   151686   147330   144522   148564   151394   148305   146531 
  144072   141762   145987   146515   141696   143298   147550   146682 
  143388   142722   146475   151147   152169   151989   150911   145048 
  142535   145442   144572   143872   144702   144251   147622   150196 
  149053   152161   154259   148352   143451   143345   144640   147884 
  148919   146615   147607   149318   146799   143506   141826   141729 
  142288   143294   146206   149536   149445   144038   138589   137628 
  139128   144166   149833   149615   148116   148582   147636   147753 
  149369   146628   142076   143959   147741   146628   145062   144016 
  143136   144876   147221   148756   145836   141667   144418   146082 
  145066   146068   143051   142279   147382   147353   143669   142434 
  142227   145493   150172   147066   144181   147999   145316   140425 
  144491   147673   145052   142626   143171   146369   148813   147923 
  144342   143375   147698   147430   143070   146338   150597   146649 
  140725   140034   143950   146453   146362   146157   144536   143831 
  147378   150801   149578   146246   145434   146152   146016   146557 
  148289   148475   144217   141281   144872   146537   145297   146475 
  144909   144036   151370   153692   144204   139969   144040   144963 
  144391   147712   151093   150284   149318   149462   147988   147394 
  146988   147075   150441   150515   144954   141015   143301   148556 
  148088   145399   147402   146996   144128   144751   143796   140491 
  142954   149812   151227   146866   144945   145897   145185   144350 
  144961   146101   146993   145945   143054   141334   142942   144390 
  143351   143862   148270   151586   147961   143550   143692   144315 
  147170   149142   144130   141116   143193   143945   146612   149403 
  146454   144393   144296   142345   144173   147626   145604   141369 
  139716   142651   147340   148007   146534   147205   147883   146970 
  146639   146084   144146   142780   143738   147147   149828   148637 
  145002   142167   143090   148378   152613   151592   148910   146061 
  142650   143149   145922   144283   142319   145141   145970   144235 
  145539   146092   146539   150411   152868   151644   148386   145173 
  145004   147438   148774   147278   143618   140815   144447   149632 
  146256   141509   142740   145210   148246   151266   152770   150842 
  144236   143927   151132   151637   146385   142877   143515   149345 
  150928   145291   144369   146840   145138   145477   148720   149544 
  149732   148167   145534   145239   144979   145589   146832   145152 
  143619   145642   147525   145598   145046   149179   148671   142218 
  143090   148501   146032   143721   145643   143900   144509   146503 
  142479   141709   145762   146651   145304   142762   138762   138942 
  147233   152189   144803   138391   141010   143962   143915   143179 
  144281   147826   147239   142503   142371   144427   142599   141280 
  144406   148312   147036   142222   142592   147522   148015   145837 
  148594   149191   142662   140494   143071   144915   149004   148842 
  142962   143236   146500   145612   147233   148483   144400   145449 
  150186   148186   145201   145964   146365   147224   148697   148504 
  146830   145285   146029   145049   141358   143391   149531   151877 
  150371   146948   144424   146213   150056   148429   141106   139529 
  146221   149995   147334   145960   148572   146985   141054   143459 
  150160   148147   145064   146607   146337   145446   145430   145458 
  144786   142037   143206   148228   148817   147803   149557   149987 
  148640   148602   147276   144038   145480   149882   148825   143838 
  141975   144278   146815   149446   151672   147806   141319   141767 
  146350   147483   147816   150291   150176   148570   149565   150477 
  149413   146724   147367   150569   143926   137361   146422   156012 
  154861   149993   147595   147586   145774   144724   145667   142869 
  139473   141110   145741   149075   146728   142668   143051   144856 
  146033   144489   141543   142267   142318   140979   142670   144705 
  145963   147827   147359   143748   141481   143244   148350   150611 
  144335   138705   143829   150803   148918   143538   140174   138520 
  142327   148136   146704   142522   143020   144067   142693   144209 
  148400   147162   144409   146007   144587   141975   143783   145439 
  146608   147345   145423   146885   151556   148591   144437   146911 
  145932   145948   151505   151148   146916   142978   140506   145493 
  149523   145423   141880   142713   145149   145331   144054   147533 
  149253   144767   145816   148436   144377   143942   147931   150813 
  151420   147249   143622   144146   147349   151448   151298   146938 
  143847   143198   142927   144733   147455   146001   143394   144656 
  146971   146462   144171   141936   141893   145392   148501   149436 
  148853   145766   143583   145669   147891   145770   144895   148973 
  148713   142844   142507   147680   148772   145536   144163   144877 
  144830   145906   149183   149017   146240   146650   146184   144837 
  146805   146916   143403   141660   144325   147492   146321   142487 
  142125   146767   148851   146056   141223   137250   142427   148938 
  145377   143860   148397   149945   148227   144937   142917   144058 
  147422   151738   149624   142291   142593   149145   150471   146508 
  144603   144747   141218   138442   145615   152431   148224   144753 
  143699   138495   140610   148568   144869   137748   141405   146736 
  146728   143141   140429   143151   144254   143243   147125   149827 
  148305   145574   142072   144035   149338   147841   144846   146051 
  146475   147874   150396   148057   148516   153000   147850   143576 
  147987   146493   146565   152250   151704   148730   142546   137500 
  144597   150799   146869   140726   140135   146673   150201   145876 
  142295   144393   148016   148026   147117   147345   145362   144196 
  144579   142803   142476   144853   146431   143094   137403   142587 
  151980   148872   144031   146335   147075   146168   147742   150001 
  150552   148298   144243   143853   148752   149991   145471   142788 
  144067   148142   149454   144373   141943   144979   145288   143557 
  144109   143752   143043   146604   150660   149450   145947   145396 
  147406   149477   149207   147596   150793   155514   152140   147118 
  152076   157194   151445   148819   152693   149199   144656   142992 
  137848   137747   142616   144151   144556   141758   136525   136282 
  138438   137072   133506   129751   124220   120528   121309   120907 
  120542   124152   128814   134698   143121   147741   147879   153218 
  160026   159003   155086   157065   164185   163499   159452   168593 
  179173   178943   173743   171914   175585   170834   163182   164671 
  151941   128013   123090   126318   122488   118766   112383   103518 
   99134    97136   101815   113854   114100    97839    87656    92585 
   93733    82857    75357    77606    85251    97756   104457    98847 
  100719   119919   144157   167603   176647   168955   179459   201837 
  195259   181512   189573   190283   164574   140282   145291   164747 
  168203   163642   176403   194202   194601   201366   235109   267100 
  282415   289943   277778   245232   219816   213004   219889   234522 
  239391   224075   198840   185319   190971   187223   166259   151524 
  137373   124923   137311   157102   149566   129400   134395   150857 
  135934   101466    88524    89058    80400    74402    72883    67825 
   73483    90332    98061    89102    78379    82464   105262   149121 
  190931   197638   181168   168010   169283   174892   154178   120449 
  114578   120059   116618   121215   126581   121436   109204    91266 
   94424   122461   136448   136183   141099   137532   124228   138138 
  173348   168640   137208   132430   130856   122534   132783   138640 
  124776   107304    98115   110624   125000   117593   116125   129907 
  141436   148001   146680   160845   193295   197739   187605   191794 
  183535   169974   181033   193531   178931   157821   155209   160273 
  156053   148413   148976   145779   130389   128449   146948   150345 
  132590   133120   158140   172677   166066   157152   152595   145601 
  146303   155860   151533   140454   142747   150142   152323   146330 
  135691   130640   128502   123404   121223   128941   145844   156315 
  150317   146951   151464   141759   129234   134654   134245   122357 
  130702   146819   137546   128941   136845   126758   112349   119226 
  121558   120078   129130   130566   124227   125444   131440   143483 
  162693   166098   143889   126337   138573   160556   163478   154460 
  151375   156568   160567   153099   143534   151464   173510   180176 
  162171   154001   165136   166946   160845   157403   153023   151297 
  152651   158421   161329   147795   135490   144410   157613   152489 
  138879   137474   141612   138372   139684   154117   158881   151515 
  161568   175239   168345   162441   162032   151715   145002   154548 
  166347   164704   153447   142438   133952   135765   145677   143077 
  136378   146307   151808   136275   121265   120159   126937   136358 
  141250   135214   129290   136633   147753   147451   138597   136089 
  143858   151286   151295   149111   149056   142620   129980   124553 
  129436   142074   151105   143993   136869   138059   132903   130041 
  136267   140765   147378   146889   135067   139887   150396   141621 
  134914   140790   147424   150007   148230   149214   149157   143075 
  145633   149265   137879   138140   158215   159254   143278   145845 
  161595   168313   164265   159124   162229   170275   173813   171370 
  162943   154172   157858   166224   164209   161577   160731   151810 
  143583   141575   143800   148872   147788   143849   141691   138057 
  138437   138358   133155   133029   138859   141538   135737   126954 
  127035   141523   158442   160043   154095   150776   143171   136931 
  138275   137242   132902   134148   138917   142732   143719   140493 
  142707   150234   151740   151011   149486   143122   137640   138557 
  142377   141596   138609   136692   135427   140059   141137   131534 
  129845   136534   138443   145381   154041   147167   143114   157570 
  162882   149982   148616   161411   161991   151295   146044   146583 
  151247   157073   154354   143834   138319   142292   142854   134889 
  132231   136372   139833   142585   138484   133443   138377   141033 
  139077   140873   144440   153453   161086   152037   141169   145025 
  151413   158668   168574   160717   144281   150145   160146   150214 
  143479   149258   149939   144495   137019   135666   145837   150525 
  145066   143545   148617   154877   155089   149280   147306   146227 
  144563   150772   153100   149193   155100   157891   149671   147546 
  147492   143139   145386   150084   144157   132289   128632   135796 
  143282   145351   144289   141345   138761   136541   136806   141563 
  141710   140254   142184   137517   134163   142862   152240   152054 
  150606   153301   144660   132854   140236   149850   148675   149710 
  150892   145752   144867   147596   138750   132339   144336   149796 
  140395   140036   149443   153326   150115   146643   144130   141394 
  145791   154318   151868   145885   152527   159726   150920   140792 
  146076   153212   153756   157462   161212   159495   155925   154719 
  157144   153165   144414   146172   150700   150098   151428   150847 
  147984   148216   148649   146658   140854   138996   146021   147907 
  143657   141183   136036   132877   136663   140644   143345   143964 
  140775   138412   139619   142528   144792   146503   147024   143313 
  139402   136638   129539   127554   136651   141727   142507   147216 
  148119   148354   154481   158571   155204   143918   136691   142770 
  147919   147032   147870   147280   145724   150179   155056   153080 
  146946   140665   141048   147676   149859   146533   143374   144768 
  147313   146318   150871   156151   149389   143932   147845   150612 
  148794   147071   149782   151505   150136   151268   147056   138897 
  138916   140940   143471   148382   143699   133100   133693   143559 
  148365   145532   143772   145465   144443   141515   140589   137350 
  136252   145658   153312   151845   151645   150117   145561   146855 
  145188   138856   140822   143808   143656   145677   144447   142522 
  144622   148131   151146   147769   140015   137694   142591   149995 
  150450   142985   138616   140699   144065   143320   141303   145671 
  149895   147672   148184   152266   151726   148787   146458   144783 
  146854   148470   146441   147366   148716   144166   141619   145089 
  146986   146701   144339   140445   142364   144987   143125   144246 
  146426   144567   143465   147225   151506   151181   148977   147688 
  147627   149875   151610   149526   146090   146114   147150   145875 
  148941   153674   149601   145804   150174   150808   146534   148220 
  152396   151723   149955   149270   147289   146294   145230   141111 
