Origin Time       2024/04/02 04:24:00
Lat.              40.133
Long.             141.712
Depth. (km)       71
Mag.              6.0
Station Code      IWTH23
Station Lat.      39.2741
Station Long.     141.8233
Station Height(m) 44
Record Time       2024/04/02 04:24:55
Sampling Freq(Hz) 100Hz
Duration Time(s)  126
Dir.              4
Scale Factor      7845(gal)/8223790
Max. Acc. (gal)   77.898
Last Correction   2024/04/02 04:24:55
Memo.             
[...]
     216      216      217      220      218      214      216      217 
     216      214      216      217      217      218      220      217 
     217      218      217      216      216      216      218      218 
     214      217      220      216      216      218      220      221 
     217      217      217      217      218      220      217      217 
     217      216      217      218      216      213      213      211 
     210      213      217      225      243      276      325      387 
     472      579      658      684      689      699      638      460 
     302      251      175       62      118      314      422      504 
     715     1028     1524     2253     2893     3107     2901     2396 
    1513      318     -402     -190      156     -105     -600     -788 
   -1108    -1498     -436     1765     2975     3199     3040     1270 
   -1863    -3604    -2916    -1923    -2052    -1676     -365     -137 
    -108     1854     4218     5161     6199     8024     8225     6313 
    2200    -5441   -12741   -14713   -11214    -4221     1028      305 
   -3539    -6073    -4133     1917     6876     9297     8757      861 
   -9391   -11040    -7145    -3990      155      498    -4248    -4045 
    1287     6635     8271       31   -10480   -12216    -9410    -4058 
    3650     8136    10277     6901    -3214    -6687    -5147    -4180 
    4888    12796    10141     7761     8197     6010    -2247   -10395 
   -7812    -3145    -1935     3700     6145     -238    -5217    -4720 
    1922    11032     9489    -1143    -6565    -5975    -5077     -449 
    8198    10793     7755     7122     3088    -4187     -205     8476 
    4160    -4324    -5880    -7379    -8024    -4996    -2296     4001 
    9011     3531    -1057    -2741    -9238    -8559     2110    10269 
   15326    15460     7029    -1638   -10555   -18189    -9066     5962 
    6925     3381     1540    -2268      928    11896    11797    -3681 
  -15534   -15292    -5759    10017    15715     2774   -11126   -16629 
  -16567    -3716    14451    18937    13709     4611    -6678    -6131 
    4460     7381      103    -9868   -14033    -6177     7118    14083 
   10027       47    -6644    -8704    -4006    10886    21151    12698 
   -3051    -9551    -8546    -7284    -2050     2847    -2285    -4788 
    3381     6509     1449    -2721    -6670    -8202    -3442     3809 
    7337     2409    -4267    -7380    -9740    -1224    11867     5265 
   -4927    -1418    -2319      878    15512    11462    -3954    -3051 
    1880     1729     4201     4719    -3258   -11813    -9363    -3902 
   -3900     1255     8367     4774    -3503   -10400   -13787    -4005 
   13790    17906     7901    -2042   -13257   -17928    -3646    11703 
   15664    14500     7322     -471    -6062   -12722   -10554    -1652 
    1333     2407     6149     7638     2199    -3550     -376      869 
   -3038     2034     7191     1169    -4862    -5039     -301     4399 
    2497     3921    10350     5621    -6856    -9998    -1979     5440 
    5274     1417    -4833   -10476    -6293     4752     8357     2604 
     607     -113    -9940   -16167    -9223     2882    11982    13328 
   10584     5008    -5162    -9822    -8568    -7456     3088    14191 
    7986    -1026    -3361    -5032     -292     7804     5456    -1489 
     719       -9    -8379    -5506     -880    -5443    -3603     2011 
    5050    10125     8992      440    -3565    -1040      951    -3149 
   -6997    -1738     6373     9035     5768     -972    -6586    -7531 
   -2114     5121     3670    -3543    -4618    -1563     1055     5796 
    9481     6369     -575    -5042    -6428    -4368     1502     6972 
    7873     1038    -8160    -8984    -4010     1945     9355    10600 
    2768    -5930    -9216    -4205     1645     1250     3221     6227 
     648    -4448    -1460     1243     1283     3909     4414    -2280 
   -5837      334     5888     3184    -1336    -2261    -2755    -3754 
   -2717     3931    12835    10577    -1876    -9667    -8345    -2481 
    2263     5139     7855     2377    -9734    -8181     4571     7809 
    4232       85    -8989   -12883    -4465     2232     2562     3060 
    1308    -1551     -355     3524     5152     2601     1741    -1872 
  -10535    -4823     8271     6227     3829     7299    -1726   -11377 
   -4109     4988     5266     2353    -3191    -7839    -5337      365 
    3873     5640     3645    -2949    -4372      874      523    -1992 
    3188     6569     1059    -3812    -2585     1668     6808     7647 
    1394    -3489    -3817    -5833    -5973     1606     6320      511 
   -3676      685     4963     5356     4039    -1448    -8966    -9406 
   -3048     3334     6858     6258     1971    -2775    -3951    -1760 
    1979     5661     5287     1556    -2554    -4395     -959     2813 
     997    -2425     -272     3973     1210    -2961      716     3792 
   -1413    -3179     2382      993    -3275     2046     5722     2307 
    3110     3746    -4873   -11489    -5086     4495     4808     1115 
    2043     3026     2020     2509    -1615    -8417    -5377     2003 
    4919     6724     4500    -2509    -5454    -2380     2168     4263 
    3339     1429    -1814    -2920      -64    -1459    -5630    -5514 
   -4132     -610     4696     5602     1498    -6484    -9386     -672 
    5822     5818     8158     4249    -5113    -2061     3631     1545 
    2424    -1138    -7831    -1038     5690     2018     -155     -892 
   -3697    -5940    -5170     2077     9132     7055      796    -5292 
   -8980    -3663     4681     3634    -1973    -1339     3994     5418 
    1561      487      772    -2685    -1811     2790     1964     1665 
    4824      940    -6281    -4884      804     3279     2066    -1722 
   -5633    -6318     -400     7870     8872     2208    -3663    -3226 
    -247      315     1418     6095     7677      823    -6951    -7804 
   -2332     3063     3164     3021     2378    -4668    -6748     1128 
    4768     1661    -1715    -1474     2485     4453     6998     9182 
    2212    -4468    -3469    -4395    -5483     -515     2832     1186 
     658     1071     1580     3757     2416    -3060    -4746     -642 
    3588     1934    -1132     -151    -2354    -3310     4477     5859 
   -2797    -5408     -851     1204      688      695     1729     3481 
    -274    -3913     2524     2717    -4114     -504      456    -5760 
   -3369     3219     7492     8448     3902     -414    -5767   -12005 
   -8411     1124     8456    11734     5691    -5697   -12232    -8750 
    1857     8301    10033     8438    -3909   -13123    -5254     3809 
    5778     4814     -456    -4104    -2857    -1672     2184     6621 
    1767    -5061    -2296      654    -1865     -306     3460     1796 
    -579     1291     2307     -681    -2542    -1790       -9     3408 
    3535    -1694    -3380      330     1950     1485     1285    -1661 
   -5609    -3812     4264    10334     6995    -1679    -7364    -8806 
   -6517     1548    11615    11711     1614    -5876    -8715    -6114 
    1298     2678     2112     4405     1705    -1927    -2020    -1933 
    -662     3084     5840     1903    -4081    -3611    -2218    -2056 
    1823     3542      677    -1136    -1772     -957     1231     2431 
    2697      280    -1934      931     1849      963     5543     4725 
   -4278    -6130    -1842     2762     8766     7196    -2353    -8463 
  -10512    -3759    12282    15597     3088    -7659   -12752    -9757 
   -1406     1925     5624    10467     4714    -5147    -6363    -1287 
    3312     4278     2999     1382    -1113    -2632     -673     1757 
    1613     3127     4449     -733    -4957    -3956    -3321    -1667 
    2825     5027      495    -3748    -1641     -460      465     4990 
    6810     2968    -5185    -9435    -3642     2786     4630     5425 
    2728    -5009    -7545     -926     2187     1819     5109     3176 
   -1825     1796     6671     5509      753    -5073    -5875    -6174 
   -8689     1282    13922     9096       -1    -4834    -9032    -3218 
    8818    13986     9340    -3859   -13963   -13288    -2867    12096 
   10813    -4101    -7002    -1906     2191     7527     7493     2261 
   -3172    -7260    -3485     5633     5188    -5174    -7159      895 
    2169      309     3298      615    -4872    -3499    -2509    -3758 
     -24     4891     5027     4492     5236     3497    -1622    -4544 
    -692     1672    -1590    -2744    -1814      287     3716     2007 
   -1432      -18     1929     4563     7589     2744    -5039    -5433 
   -2744    -1147     1426     1593    -1721    -1097     3207     5698 
    6991     4098    -4618   -10746    -7838     -337     4538     7015 
    4014    -7051   -12843    -6822     2126     9288    10396     2733 
   -4480    -5128    -5232    -4035     4066     8006     3022     1984 
      43    -5713    -3013     -521    -1053     3832     2683     -831 
    -163    -7041    -7500     2990     3717     2100     3268     -484 
   -1063      918     -831    -1286     4113     8580     3015    -3470 
   -4831    -7581    -6848    -1065     5505     9458     4536     2022 
    4355    -4854   -11886    -4492     1545     4379     7542     6787 
    3044    -3179    -8118    -5161      973     4617     8631     8920 
    1567    -5293    -7762    -5891     -464     -372    -1772     6767 
    9304    -1246    -2794      745    -4259    -5402     1559     6261 
    3510      176     4203     4387    -3119    -4349    -1826    -3191 
   -4672    -3469      109     1678     4024     9335     4314    -5757 
   -6232    -1065     7237    10480     5059      896    -6717   -12181 
   -3105     5208     4703     1950    -3240    -4904    -1525     1252 
    5838     4941    -4808    -7919    -4510        5     6762     4872 
   -3146    -3932    -1354     2997     9263     7777     1417    -1958 
   -4810    -4996    -1154     3137     6033     5698     4733     -477 
  -12002   -12363      950     6463     2566     3181     3092    -2884 
   -3343      396    -1494    -2556     2660     7515     9255     5954 
   -2779    -8271    -9034    -6933     1372     8644     7383     2997 
   -2187    -6282    -2748     2475     4527     7261     4657    -2145 
   -5945    -9096    -4974     8082    11923     3001    -3312    -5860 
   -8330    -2817     6227     9159     6346    -2640    -8476    -5395 
   -4687    -3766     3613     5753     2131     1069    -2270    -5058 
   -2658    -1243     3639     9205     3832    -2951    -6477    -9209 
    -650     9628     7246     5055     3024    -5684    -6939    -1675 
    1003     5690     5913    -2273    -6312    -3989    -1953     2812 
   11149     9533    -5089   -13683    -6860     2525     4781     5559 
    6141     -625    -7742    -5602     -683     5248    11557     9182 
    1422    -4325    -6709    -6362    -5649      602     7858     5583 
    4198     3686    -5464    -9094    -1717     3979     4757     2656 
   -2181    -6370    -1799     6943     5459     -718    -3065    -6281 
   -4652     6215    13477     9714    -2361   -12879    -8082     3736 
    6232     3996     1630    -4078    -8694    -5157     4434     8568 
    2147    -4816    -5643    -5543    -4139     2222     7014     5771 
     870    -2646     2108     8595     6805     2003    -4245   -11453 
   -9278     1190     8849     7177      727      498     1069    -1931 
     346      676    -1622     3792     4707    -1641    -4338    -3048 
    3480     5694      112    -1270    -1750     1181     7672     1856 
   -6245    -3855      749     4394     4168      229    -4104    -9246 
   -6662     2446     5541     3717      263    -2866    -2647     -774 
    3257     4781      -39    -3199    -3809    -2539     4401     8935 
    4325    -2594    -4480    -4706    -7094    -3194     3036     -167 
     -98     5620      255    -5363     1567     4152    -2879    -4938 
   -1071     -153    -4302    -6829    -3708    -3211    -4660       81 
    2783      737     2111     1652    -1089      884    -2258   -12996 
  -17436   -12256      965    13512    13203     6995    -2072   -14535 
  -12301     3829    12565    12193     4858    -8247   -13247    -8951 
   -4446     2560    10662    10223     1678    -5015    -3144     5270 
    9309     5570     4754     5655     -278    -7434   -10866    -5597 
   12614    25540    23442    18625     4151   -19453   -23055    -5232 
   14080    28314    28722    16135     5884      573    -1718    -1161 
   -5809    -9607     3272    22804    33763    29308      521   -30287 
  -34731   -20806     6524    37498    44178    28588     1674   -39788 
  -71034   -63601   -29440     6339    28039    29581    15043    -5020 
  -15866   -12927    -3627     5587     8181     6664     2238   -17444 
  -40613   -42535   -25682     4249    36069    38722    14261    -1039 
   -3694   -13606   -26977   -30298   -24505   -16464    -6184    12590 
   36043    39276    15471      429     5053     2324    -2664     4638 
    9674     4359    -6924    -7685    17045    34755    14648   -19619 
  -39297   -38815   -19711    16397    52331    50788    -4341   -66336 
  -68639   -24552     5494    23830    52200    64470    42944     5317 
  -26496   -30916   -14609   -13869   -24119   -17022    -6966   -14343 
  -25689   -16214    23855    64494    68042    45824    15014   -22713 
  -40934   -27386     7257    51979    59779     8976   -38821   -34060 
    4567    35005    31660    -5800   -55942   -81441   -59809   -12895 
   27866    53465    53354    20937   -25659   -58781   -64430   -49885 
  -13653    44184    80242    72355    46908     8008   -34493   -47420 
  -38619   -31276   -18268     9536    33169    23579    -3146   -11680 
  -21169   -38759   -15300    39607    62243    47663    19608   -20467 
  -56370   -60772   -30109    23229    65558    50579      314   -14631 
     481    -3327   -16139    -9798    -1186    -9136   -10393     3457 
    4689    -4136    -8745   -11546     6399    33160    17180   -22148 
  -33308   -23619    -4722    26719    46550    35411    13568    -7300 
  -38221   -53277   -25328    10505    25219    28244    13659   -17836 
  -37208   -28530     5058    36198    32189     7177   -22110   -48929 
  -35672     9757    37431    51453    54260    20201   -24058   -36595 
  -19896    10956    37505    38105    11059   -24106   -39667   -21427 
    9493    21459    17346     9891    -5397   -16147    -8202     2247 
    6737    10049      -72   -21006   -27423   -16426     -236    15175 
   24498    14800   -25527   -61815   -45673    -2458    25513    45400 
   42705      600   -31703   -29362   -12694    20848    44259    23431 
   -4977   -11272    -7064     7294    23599    23083     4787   -19796 
  -33417   -29980   -11992    11030    11632     3503    10741    -4742 
  -26083      679    25787    18385    15029     1444   -18748    -8082 
    9065    12285    15758     8357    -9188   -15639   -14604   -12152 
   -7510    -5753      344    13740    22122    17030    -4414   -27125 
  -33203   -18114    19344    46967    30824      356    -8399    -8278 
  -11242    -1877    12942     6716    -8991    -8109     1706     7013 
   10407     4606   -17794   -33374   -25249    -9458     8233    24756 
   21512     5317    -5030   -10496    -7489     7597    17757    12687 
    7765    13081    10498   -12663   -28372   -15610    -2317    -3314 
   -4104    -3267     2365     5688    -4550    -3709    11484    15990 
   14516     6400    -9896   -14484   -12556    -4203    16437    15318 
   -6292   -18746   -27785   -14053    25135    30275      432   -14843 
  -17226   -18719    -4955    18542    30908    22369    -8741   -34871 
  -28158   -13805    -9636     2533    17636    21687    15958     -237 
  -15013   -11130     5952    16511    10530     1661     -310    -3855 
   -8445    -4594    12798    22086      236   -17593    -4209     8889 
    7885     8037     5358    -7107   -10504     1507     5984     6075 
   12945     5580   -10708    -5368     8263     6227     1599    -1046 
   -9900    -4764    15746    20821    16733    13402    -7123   -24410 
  -16538    -7434      849    15117    15271     3308    -9470   -24355 
  -30190   -20214     1759    23068    21568     4018    -7312   -14040 
  -19120   -13617     1108    11157    13873    19056    17053    -7573 
  -28055   -16073     5447    17088    21956    12317    -3586   -12403 
  -22451   -24553    -6295    12681    19143    16860     3275   -13174 
  -15838    -9054     -899    13539    24977    18345     4004    -7719 
  -19575   -22432    -8769    11280    21145     9194   -12090   -19302 
  -13213    -1047    17274    25744    12839    -3962    -9290    -5903 
   -1135      733     1607     5297    10732     9764     -808   -11368 
  -11855      109    15022    19897    13026     -151   -15700   -28063 
  -18527    13948    31847    22262     1363   -24680   -30801    -5508 
   13890    13621     8604    -2802   -14432   -14443    -8232     -681 
    7341    13159     9863    -3446    -5517     3599     -255    -5969 
    1279     5903     -426    -7403    -1090    11642     7800    -6924 
   -8155     3235     5794     -951      938     2917    -3523    -3871 
    -348     1900     5171     1966    -4245    -8156   -11218    -5756 
     999     1344     7798     7022    -9316   -10793      665     5142 
    6694     1544    -2218     5994     6415    -1944    -4353    -2562 
    6586    15029     7346    -4507    -9865    -8560     -310     1633 
   -1084     4716     6015     -795    -1233    -1910    -6824    -5023 
     573     2817     1733    -1865    -4101    -1678     5400    10828 
    7913     4428     3964     -502    -6281    -8561    -4784      409 
   -2644    -1881     7442     4982    -3153    -1529     -523     2180 
   11489    11321      421    -9806   -11200    -2997     2479     8986 
   18133    10098    -5597   -12324   -13905    -2404    11291     8756 
    7520     6524    -6987   -12209    -6943    -3663     4321     7457 
     129    -2963    -3032      585     5683    -4054   -12495     -820 
    7349      373    -1813     4595     2983    -8298   -11801    -3875 
    4029     9764     9652     1310    -3905    -3878    -2578      -59 
   -2459    -4878     2880     9256     3811     -174     8199    14805 
    6772    -2127      126     -565   -10480    -8640     5409    10589 
    7604    -2390   -16857   -15427    -3123     3092     9687     8941 
   -8685   -17038    -8085    -1606     3686     5911     -534    -2496 
   -1648     -206     8244     5638    -9269    -9906     -831     5155 
   14388    14204    -1321    -9045    -6000     -792     7317     9838 
    3396    -7275   -16841   -11502     6970    18180    15680     5728 
   -3009     -994     7346    10505    10177     4333   -11169   -17089 
   -5567     4676     8482     6439    -1055    -2084      427     -481 
    1868      804    -8881   -13701    -9339    -2376     3792     5969 
    1406    -6912    -9570     -743     9678     8490      517    -4255 
   -5995    -3161     6740    12193     -450   -14337    -9504    -1367 
    5887    15137     7314    -6173    -8780   -11523    -6675     4594 
    5298     2389     -406    -3688    -2683     -459     4889     9861 
    8179     4862    -2477    -9999    -6921     -604     1873     1447 
