Origin Time       2024/04/02 04:24:00
Lat.              40.133
Long.             141.712
Depth. (km)       71
Mag.              6.0
Station Code      IWTH16
Station Lat.      39.6436
Station Long.     140.9465
Station Height(m) 212
Record Time       2024/04/02 04:24:53
Sampling Freq(Hz) 100Hz
Duration Time(s)  187
Dir.              6
Scale Factor      7845(gal)/8223790
Max. Acc. (gal)   29.583
Last Correction   2024/04/02 04:24:53
Memo.             
[...]
  -21794   -19128   -20142   -23375   -21496   -18732   -21223   -24391 
  -23620   -20119   -15511   -10978   -10431   -14751   -17988   -18322 
  -20358   -25951   -32024   -33428   -29755   -27039   -27787   -28479 
  -26163   -21413   -18489   -20254   -23251   -23720   -21910   -19083 
  -18790   -23062   -25571   -22125   -18064   -16988   -17701   -20448 
  -23349   -21531   -16930   -16513   -20217   -22287   -21259   -20769 
  -24098   -29539   -28358   -19010   -15057   -20344   -24374   -25266 
  -26003   -24740   -23332   -24692   -24463   -22231   -24854   -29697 
  -28459   -22276   -16854   -15358   -17799   -20360   -20514   -20439 
  -21354   -22484   -23664   -23916   -22688   -20614   -18686   -18424 
  -19311   -19683   -20501   -23831   -28156   -28939   -27060   -26041 
  -24163   -22578   -23404   -22840   -21532   -23635   -25852   -23102 
  -18974   -18678   -18968   -17304   -17259   -18509   -18837   -21254 
  -26842   -30484   -27986   -21674   -17454   -18544   -22113   -22798 
  -22477   -26079   -29600   -28146   -24162   -19998   -16857   -17169 
  -18388   -16538   -16181   -20831   -24664   -24906   -25623   -28125 
  -29285   -26979   -23010   -20954   -22486   -23957   -21011   -17945 
  -19576   -21601   -20125   -17493   -17613   -21424   -24594   -23986 
  -22080   -21262   -22570   -24565   -23118   -20071   -20574   -23025 
  -24268   -25527   -26234   -23926   -21107   -20353   -19415   -18235 
  -19666   -23579   -26357   -24321   -19446   -17697   -19955   -22249 
  -22515   -22524   -23830   -25174   -25577   -24871   -21779   -17388 
  -16748   -19816   -20727   -19722   -20695   -23244   -25023   -23878 
  -22326   -25143   -27839   -24279   -18936   -17689   -19683   -21699 
  -22184   -21586   -21695   -23502   -24402   -21940   -19025   -19271 
  -21853   -24556   -25793   -24669   -22982   -22519   -21998   -20100 
  -17878   -18098   -21348   -23909   -22947   -20533   -21055   -24780 
  -26661   -24560   -21216   -18391   -18243   -22041   -24277   -22180 
  -21837   -25143   -26654   -25288   -25766   -27878   -26878   -22508 
  -17872   -15704   -16742   -19121   -20205   -19554   -21051   -25413 
  -26858   -24140   -21506   -20592   -20831   -20861   -19878   -19584 
  -20501   -21666   -22793   -23229   -23801   -25478   -26759   -26069 
  -23207   -21176   -21720   -20922   -18631   -18679   -19359   -18438 
  -18496   -20699   -23472   -25837   -26673   -26227   -25810   -24738 
  -23739   -24139   -23931   -22021   -20413   -20985   -23085   -23988 
  -22813   -22549   -25056   -27028   -25679   -23191   -21863   -20607 
  -18355   -16279   -16194   -18593   -20524   -20476   -22129   -24687 
  -23819   -22792   -24391   -24239   -21371   -18939   -18628   -19869 
  -19453   -18030   -20274   -25158   -26873   -24052   -22027   -23916 
  -25861   -24177   -20719   -19884   -21127   -20889   -20920   -22133 
  -21100   -19711   -21019   -22335   -22609   -22959   -22314   -20488 
  -19209   -18651   -17932   -18813   -22376   -24943   -23930   -22029 
  -22767   -24957   -24066   -21419   -22262   -24032   -22931   -22195 
  -22835   -22377   -21980   -22883   -23149   -22833   -23062   -22613 
  -21645   -21416   -21890   -22727   -23043   -22759   -22788   -23076 
  -23406   -23399   -22603   -21960   -22284   -22646   -21594   -19886 
  -20553   -22900   -22688   -20143   -19056   -19917   -20561   -21142 
  -22596   -24475   -26478   -26366   -23773   -23407   -25065   -24001 
  -21537   -21676   -22843   -22189   -21595   -22269   -22327   -22486 
  -23591   -23781   -22944   -21339   -19360   -19890   -21793   -20578 
  -18283   -19580   -22561   -23356   -22432   -21720   -22389   -24308 
  -24671   -22550   -21350   -21582   -21249   -21736   -23124   -23581 
  -23950   -23943   -22225   -20455   -20490   -22048   -23431   -23454 
  -23463   -23518   -22125   -21126   -20798   -19435   -19305   -21023 
  -22465   -23102   -22769   -22686   -23072   -22225   -21406   -21524 
  -21093   -20814   -21735   -22906   -23656   -23951   -23615   -22850 
  -22488   -22810   -23452   -23627   -22665   -22362   -23245   -22507 
  -20995   -21953   -24067   -23569   -20362   -17362   -16393   -18331 
  -21262   -21637   -21130   -22307   -23164   -23120   -23452   -23376 
  -22654   -22234   -22746   -23610   -23434   -23159   -23456   -23793 
  -24911   -24842   -22044   -20672   -22665   -24210   -23569   -22725 
  -22623   -22276   -21096   -20081   -19226   -18339   -19327   -21332 
  -21396   -20031   -19491   -20871   -22470   -21433   -19395   -20116 
  -22817   -23845   -22202   -21054   -22365   -23519   -23210   -22527 
  -21319   -20923   -22403   -22924   -21273   -19788   -20223   -22172 
  -23689   -23275   -21752   -21247   -21682   -21951   -22553   -22978 
  -22262   -20623   -19647   -21729   -24275   -22935   -20309   -20474 
  -22287   -23214   -23395   -24436   -26208   -26690   -25436   -24237 
  -23274   -21556   -20147   -20142   -21177   -22138   -21439   -20332 
  -21713   -23534   -22196   -20156   -21082   -23318   -23926   -22351 
  -20480   -21541   -24182   -24371   -23342   -22835   -21797   -21482 
  -22489   -22755   -23457   -26154   -27270   -25644   -24553   -23766 
  -22904   -23612   -23611   -21583   -21126   -22958   -23980   -22950 
  -21010   -19757   -19521   -19535   -19458   -19615   -20733   -22253 
  -21859   -19714   -19525   -21568   -21573   -19921   -20784   -22465 
  -21987   -21582   -22176   -23283   -25207   -25116   -22770   -21475 
  -21377   -22685   -24453   -23148   -20117   -19419   -21195   -22943 
  -22800   -22053   -23583   -25875   -25240   -22989   -22546   -23720 
  -24073   -23121   -21162   -17834   -16542   -19535   -21332   -19452 
  -19566   -22974   -24127   -22252   -21537   -22365   -21825   -19897 
  -20340   -23533   -24455   -21760   -19404   -19789   -22187   -24698 
  -25429   -23874   -22805   -24282   -25413   -24810   -24235   -23471 
  -22395   -21795   -20629   -18138   -17458   -20594   -23329   -23364 
  -23199   -23259   -22512   -21463   -21222   -21162   -20066   -19808 
  -20958   -21659   -22518   -22198   -20175   -21342   -25458   -26663 
  -23125   -19211   -19626   -21851   -22279   -22809   -24008   -24057 
  -23098   -21586   -19981   -19515   -19786   -19855   -20413   -21748 
  -22891   -22771   -22005   -22279   -23719   -25520   -25357   -21713 
  -18717   -20079   -23021   -23857   -23114   -22785   -23454   -24264 
  -23076   -20344   -19870   -22052   -23546   -23490   -23267   -22252 
  -19751   -18207   -18520   -19143   -21300   -24590   -24638   -22594 
  -23198   -24059   -21357   -18227   -18126   -20042   -21915   -22534 
  -21871   -21514   -22944   -24433   -23751   -22654   -23452   -25681 
  -27245   -26088   -23194   -21940   -23449   -25195   -24246   -20725 
  -17238   -17016   -20326   -22848   -22505   -21659   -22253   -23560 
  -23409   -22416   -21466   -19835   -19948   -21779   -21581   -21077 
  -23614   -26320   -25458   -23349   -23026   -23360   -23522   -24074 
  -24673   -24206   -23156   -22746   -21676   -19923   -19737   -20780 
  -21745   -22492   -22604   -22334   -22952   -23598   -21440   -17574 
  -17108   -20632   -22725   -21097   -19489   -20337   -21550   -22019 
  -22971   -23923   -24649   -25361   -24663   -23186   -22531   -22774 
  -23683   -23965   -23120   -22318   -22138   -23125   -24086   -22690 
  -20409   -20194   -21201   -20224   -17739   -17050   -18296   -20349 
  -22877   -24837   -25350   -24413   -22380   -19251   -16745   -17331 
  -20231   -23066   -23903   -23932   -25444   -25416   -22322   -20179 
  -20791   -23460   -26473   -26921   -24819   -23004   -22558   -22138 
  -21762   -22711   -23415   -23105   -24509   -26420   -24599   -21050 
  -20256   -20800   -19406   -16803   -16024   -17570   -19164   -21151 
  -24244   -25012   -23087   -23102   -25516   -26052   -23508   -21651 
  -22991   -24775   -24362   -23124   -21880   -20258   -19710   -20181 
  -20013   -20236   -21409   -22021   -22081   -22720   -23876   -23287 
  -20850   -20190   -20780   -20252   -20479   -22007   -22675   -21797 
  -20191   -18889   -19620   -22763   -24723   -23857   -22609   -21868 
  -20806   -19350   -19704   -22195   -23292   -23977   -26265   -26064 
  -22526   -21213   -23476   -24312   -21810   -19140   -18528   -20385 
  -22999   -23179   -21369   -20475   -20372   -19476   -19036   -21020 
  -24513   -27859   -29400   -27164   -23376   -21789   -21609   -21513 
  -21695   -21864   -22300   -22806   -22721   -22388   -22396   -23129 
  -23587   -22879   -22048   -22056   -22576   -21492   -18959   -18906 
  -21026   -22041   -22447   -22269   -19942   -17725   -18856   -22620 
  -25921   -25620   -21550   -18418   -20285   -25269   -28574   -28312 
  -26198   -24302   -23761   -23560   -21728   -19854   -20768   -23101 
  -23128   -20552   -18411   -18189   -19754   -21286   -19900   -17995 
  -18789   -19880   -21038   -23797   -25459   -24044   -21448   -21158 
  -23330   -23819   -22426   -23217   -26095   -26811   -24144   -21635 
  -21297   -21799   -22108   -21609   -20741   -21456   -23126   -23284 
  -22288   -21303   -19934   -18809   -18774   -18288   -17559   -18945 
  -20841   -20422   -18605   -18381   -20509   -21807   -21809   -23198 
  -24894   -24921   -23988   -23571   -23249   -22014   -22797   -26136 
  -26819   -24533   -23107   -22584   -22192   -22144   -21405   -20094 
  -20684   -22924   -22663   -19796   -18825   -20738   -22781   -22927 
  -22200   -22812   -24228   -24510   -22823   -20472   -19696   -20618 
  -22405   -23801   -24256   -25552   -27571   -29088   -30087   -29346 
  -28092   -28753   -28672   -26482   -25321   -24790   -22805   -21069 
  -20282   -18887   -17104   -16028   -16206   -17066   -17181   -16626 
  -16501   -17620   -19749   -20954   -20704   -20205   -19812   -20509 
  -22797   -24514   -24860   -25257   -25446   -24854   -24478   -24946 
  -26233   -28085   -29925   -31060   -31014   -30260   -29729   -29668 
  -29409   -27849   -24748   -22064   -20992   -19241   -16853   -16497 
  -16293   -14550   -13475   -13066   -12177   -11426   -11740   -13367 
  -14617   -14216   -13882   -15468   -17901   -18331   -17383   -18952 
  -22491   -23824   -23603   -25560   -29678   -33162   -33258   -30389 
  -27946   -26964   -27832   -30545   -32390   -32358   -30191   -26156 
  -23295   -21158   -17316   -13251   -10571    -9279    -9169   -10606 
  -13306   -14808   -15136   -15867   -15315   -13250   -12498   -14351 
  -18250   -22219   -24111   -24908   -26931   -28996   -28092   -25513 
  -25839   -29394   -31078   -28494   -26778   -29413   -31996   -31963 
  -31575   -30531   -27843   -26131   -25828   -23425   -20484   -20139 
  -18661   -14986   -13294   -12781   -11442   -12783   -18096   -22828 
  -25107   -25620   -23170   -20318   -21801   -25974   -28741   -30404 
  -33436   -37157   -38256   -37245   -36147   -33254   -28904   -26148 
  -25240   -24468   -21918   -18463   -16680   -14586   -11538   -12050 
  -15064   -15651   -14889   -15263   -14566   -10725    -6493    -5491 
   -8183   -12870   -17363   -20129   -22135   -25552   -27754   -25494 
  -22835   -24075   -28117   -31661   -31739   -27978   -23261   -21987 
  -25257   -29290   -30840   -28458   -23062   -19472   -18929   -16949 
  -11360    -4639    -1139    -2285    -5069    -7404   -10050   -13602 
  -16075   -15920   -16123   -18704   -22071   -26190   -30314   -30669 
  -27159   -25008   -26111   -27303   -27433   -27013   -26401   -27082 
  -28440   -29107   -31351   -35326   -37273   -37744   -39366   -39322 
  -34303   -27072   -21930   -18692   -15518   -13105   -12699   -14590 
  -19608   -26981   -32332   -32842   -31402   -30670   -28274   -23974 
  -21605   -21398   -20952   -20015   -19818   -20528   -21034   -20518 
  -18724   -17983   -20499   -23144   -22459   -19375   -17940   -20511 
  -23105   -21433   -17402   -15487   -17346   -20695   -22881   -24224 
  -26859   -31407   -34688   -32718   -26280   -17759    -9158    -6783 
  -12116   -16675   -16954   -16870   -17728   -18495   -18913   -18179 
  -16421   -17579   -22520   -24074   -19714   -17643   -22659   -29555 
  -32440   -31440   -29799   -28399   -26399   -24096   -22357   -22233 
  -22692   -21244   -19789   -21049   -22796   -22361   -20946   -21859 
  -24281   -23350   -19630   -17572   -17120   -16329   -16337   -19468 
  -24511   -28055   -28946   -27564   -26453   -28480   -31523   -32953 
  -33436   -32586   -28869   -23229   -18612   -16362   -15260   -14211 
  -14594   -17323   -20015   -21396   -21674   -20767   -20356   -20127 
  -17273   -12301    -8992   -10674   -15611   -18693   -20459   -24719 
  -30163   -32292   -28969   -24584   -25902   -31519   -34142   -31087 
  -26707   -25934   -27386   -26701   -24139   -22497   -22320   -22770 
  -22844   -21662   -19942   -19032   -17543   -13481    -8051    -4297 
   -4712    -8178   -10933   -12187   -12779   -12700   -13375   -14316 
  -12887   -12943   -18462   -23614   -24754   -25205   -25542   -24479 
  -21991   -19477   -18635   -18732   -21080   -27396   -33292   -34767 
  -33304   -33080   -35031   -34125   -30369   -29759   -31039   -30657 
  -30620   -30175   -26689   -21960   -16576   -10320    -6376    -5017 
   -2594      746     1050    -2146    -4810    -4738    -3631    -3978 
   -6732   -10651   -13601   -15165   -17795   -22867   -27475   -29525 
  -30765   -33141   -37261   -42583   -47463   -50429   -51491   -51867 
  -52502   -53180   -51925   -47368   -42457   -40397   -39293   -36957 
  -34520   -32771   -30863   -26455   -19029   -12472    -8915    -7519 
   -7653    -6704    -2980      125     -495    -3717    -6574    -7636 
   -9085   -11421   -12066   -12725   -14959   -17335   -21271   -25335 
  -26902   -29336   -33786   -38092   -42210   -46340   -49619   -50263 
  -49135   -48143   -45366   -41123   -38672   -37520   -35731   -33004 
  -29070   -24090   -19391   -15915   -13344   -11057    -9134    -7435 
   -5765    -4704    -3451    -2135    -2575    -2841    -1827    -2257 
   -3585    -4144    -4820    -5988    -8284   -11533   -12503   -12239 
  -16434   -24013   -29886   -33169   -34144   -34366   -36310   -37987 
  -36177   -31693   -27148   -24183   -22057   -18986   -16137   -15870 
  -18006   -20189   -20835   -21406   -21806   -20016   -18605   -19190 
  -18114   -15205   -13545   -12966   -12244   -11866   -12726   -15174 
  -18416   -20727   -21721   -23110   -25428   -26376   -24551   -21838 
  -20452   -20349   -21131   -22596   -22559   -21131   -21876   -24548 
  -26083   -25119   -23013   -22420   -22630   -21328   -18401   -16414 
  -18399   -22450   -25871   -29853   -34083   -36756   -37806   -38109 
  -38789   -39618   -39114   -37193   -35352   -34393   -32651   -28831 
  -24853   -22497   -22315   -23900   -24553   -23955   -24088   -23209 
  -19858   -16221   -13424   -10662    -7951    -6771    -7607    -9016 
  -10856   -14131   -18019   -21288   -23664   -24406   -23234   -21698 
  -21246   -21249   -21319   -23152   -25621   -25373   -24042   -24170 
  -24837   -26252   -27945   -27688   -26211   -25116   -24324   -23850 
  -23483   -23134   -23153   -22481   -20742   -18906   -16179   -13390 
  -12945   -12954   -11685   -11506   -13333   -15573   -17606   -19484 
  -20486   -20146   -19045   -18046   -17651   -17907   -18559   -18895 
  -18242   -17753   -19377   -21517   -21432   -21197   -23368   -26622 
  -29686   -31752   -31611   -30326   -30362   -31862   -32501   -30836 
  -28487   -29058   -32782   -34634   -32310   -28985   -26825   -25049 
  -22566   -20517   -20541   -20545   -19079   -18465   -18098   -15134 
  -11152    -9918   -11661   -13358   -13873   -14588   -15569   -16598 
  -18134   -19163   -19494   -21081   -24090   -26913   -28381   -27858 
  -26808   -27588   -29447   -29504   -27359   -25216   -24943   -27425 
  -30649   -31684   -31487   -31340   -30393   -28235   -25682   -23750 
  -21928   -20043   -18873   -17644   -15742   -13686   -12276   -12066 
  -12314   -12785   -13660   -13572   -12004   -10783   -11703   -14386 
  -17065   -18171   -17676   -18064   -20413   -22121   -22705   -23862 
  -25143   -26769   -28823   -29651   -30253   -31615   -31600   -28827 
  -24393   -21818   -23107   -25343   -25917   -25328   -24837   -24929 
  -24356   -22283   -20398   -21143   -23419   -23271   -21428   -21066 
  -20992   -20179   -19672   -18991   -17830   -16825   -16032   -15545 
  -15870   -17559   -19884   -21217   -21547   -21574   -21670   -22347 
  -23556   -25458   -28375   -31148   -32418   -32760   -33288   -33597 
  -33238   -32324   -30531   -28510   -26874   -25158   -24003   -23151 
  -21258   -19708   -19465   -18862   -17856   -16687   -14192   -12216 
  -12880   -13878   -13913   -14875   -16908   -18878   -20542   -21513 
  -22029   -22609   -22789   -22692   -22754   -23205   -24212   -24452 
  -22909   -21076   -21456   -24421   -27117   -28070   -28624   -28301 
  -26122   -24030   -23847   -24530   -24216   -22970   -21643   -19981 
  -17734   -15669   -15488   -17491   -19751   -21736   -23522   -23950 
  -23349   -22647   -21992   -21888   -21778   -21340   -21502   -21425 
  -20196   -18621   -18461   -21127   -23791   -23484   -22639   -22939 
  -23774   -25127   -25728   -25975   -27301   -27210   -24777   -23442 
  -24004   -23820   -22198   -21348   -22366   -23495   -23841   -24267 
  -24314   -23209   -21976   -22376   -24560   -26169   -25014   -22234 
  -21100   -21791   -21605   -20541   -20275   -20796   -21069   -20285 
  -19014   -17892   -16625   -16096   -16951   -17961   -18339   -17977 
  -17289   -17103   -16324   -14412   -14084   -15913   -17301   -18158 
  -19792   -21320   -21894   -22063   -22106   -22346   -23464   -25255 
  -26852   -27283   -26190   -25188   -25856   -26530   -25286   -24428 
  -26439   -28698   -28424   -27283   -26658   -26072   -26053   -26640 
  -26684   -25509   -23851   -23124   -22771   -21504   -19734   -18743 
  -19415   -20050   -18353   -15992   -15719   -16591   -16133   -14743 
  -14169   -13936   -13477   -14287   -16353   -17469   -17826   -19516 
  -21925   -22763   -21586   -20380   -22141   -26192   -27784   -26042 
  -24780   -25751   -27422   -27550   -25872   -24781   -25253   -25169 
  -23394   -20862   -18893   -18862   -20555   -22268   -22878   -21879 
  -20113   -18882   -18138   -17807   -18002   -18573   -18843   -18465 
  -18688   -18670   -17126   -17180   -19471   -20312   -20317   -21779 
  -23078   -23248   -23722   -25789   -29771   -33504   -34123   -32221 
  -30612   -30249   -30345   -30979   -31743   -31688   -31191   -30127 
  -29262   -29856   -30140   -29143   -28078   -26881   -25049   -23110 
  -21748   -20316   -18643   -18339   -18829   -18706   -18863   -19730 
  -21470   -23541   -23963   -23201   -23296   -24090   -23855   -22300 
  -21244   -21622   -22435   -22219   -20611   -19722   -21008   -22775 
  -23599   -23884   -24221   -24327   -23908   -23433   -22951   -22918 
  -23900   -24543   -24258   -24166   -23707   -22661   -22400   -21404 
  -18882   -18033   -18675   -17891   -16067   -14989   -15133   -15519 
  -15624   -15992   -15638   -14310   -14037   -14482   -14821   -16320 
  -17784   -17991   -18360   -18652   -18594   -18825   -18620   -18459 
  -18902   -19090   -19719   -20684   -20544   -20525   -21748   -22407 
