Origin Time       2024/04/02 04:24:00
Lat.              40.133
Long.             141.712
Depth. (km)       71
Mag.              6.0
Station Code      IWTH17
Station Lat.      39.6442
Station Long.     141.5977
Station Height(m) 305
Record Time       2024/04/02 04:24:51
Sampling Freq(Hz) 100Hz
Duration Time(s)  138
Dir.              4
Scale Factor      7845(gal)/8223790
Max. Acc. (gal)   78.707
Last Correction   2024/04/02 04:24:51
Memo.             
[...]
   -5104    -5103    -5103    -5101    -5103    -5105    -5103    -5101 
   -5104    -5104    -5103    -5104    -5104    -5101    -5100    -5103 
   -5105    -5103    -5103    -5101    -5100    -5105    -5105    -5100 
   -5103    -5104    -5101    -5100    -5100    -5104    -5103    -5100 
   -5103    -5103    -5101    -5103    -5101    -5103    -5104    -5101 
   -5101    -5103    -5104    -5105    -5101    -5100    -5101    -5101 
   -5103    -5101    -5103    -5105    -5103    -5101    -5103    -5101 
   -5101    -5101    -5100    -5104    -5101    -5101    -5105    -5104 
   -5103    -5103    -5098    -5103    -5104    -5101    -5103    -5105 
   -5105    -5104    -5101    -5104    -5101    -5098    -5103    -5103 
   -5100    -5103    -5100    -5100    -5103    -5103    -5103    -5103 
   -5104    -5105    -5101    -5098    -5101    -5100    -5101    -5103 
   -5104    -5105    -5104    -5104    -5105    -5103    -5101    -5103 
   -5100    -5101    -5100    -5100    -5104    -5101    -5100    -5104 
   -5101    -5101    -5104    -5101    -5101    -5104    -5104    -5104 
   -5101    -5103    -5101    -5100    -5104    -5104    -5103    -5104 
   -5103    -5104    -5105    -5103    -5104    -5104    -5100    -5103 
   -5103    -5101    -5104    -5105    -5103    -5101    -5101    -5103 
   -5101    -5101    -5104    -5101    -5100    -5104    -5103    -5100 
   -5100    -5100    -5101    -5100    -5100    -5104    -5104    -5103 
   -5103    -5101    -5103    -5103    -5101    -5104    -5103    -5103 
   -5104    -5104    -5104    -5103    -5101    -5103    -5104    -5104 
   -5104    -5101    -5104    -5105    -5101    -5103    -5104    -5104 
   -5104    -5101    -5103    -5104    -5101    -5101    -5103    -5103 
   -5105    -5104    -5101    -5104    -5104    -5101    -5103    -5103 
   -5104    -5104    -5103    -5104    -5103    -5103    -5105    -5103 
   -5103    -5104    -5103    -5104    -5103    -5101    -5103    -5103 
   -5101    -5103    -5103    -5103    -5101    -5101    -5103    -5101 
   -5104    -5104    -5100    -5103    -5104    -5103    -5104    -5103 
   -5100    -5103    -5104    -5103    -5103    -5104    -5104    -5103 
   -5104    -5105    -5103    -5104    -5105    -5104    -5105    -5103 
   -5100    -5104    -5104    -5103    -5103    -5103    -5103    -5104 
   -5104    -5107    -5105    -5103    -5104    -5103    -5103    -5105 
   -5103    -5103    -5103    -5101    -5104    -5101    -5103    -5105 
   -5100    -5103    -5108    -5103    -5103    -5104    -5103    -5105 
   -5103    -5103    -5104    -5103    -5103    -5101    -5101    -5104 
   -5101    -5101    -5105    -5101    -5100    -5103    -5103    -5103 
   -5100    -5101    -5105    -5101    -5103    -5107    -5104    -5103 
   -5101    -5101    -5104    -5101    -5101    -5104    -5104    -5105 
   -5105    -5100    -5101    -5104    -5100    -5098    -5101    -5105 
   -5104    -5100    -5101    -5100    -5098    -5103    -5104    -5103 
   -5101    -5101    -5105    -5105    -5100    -5100    -5103    -5104 
   -5105    -5101    -5101    -5103    -5098    -5101    -5103    -5100 
   -5103    -5104    -5101    -5104    -5107    -5104    -5100    -5103 
   -5105    -5101    -5103    -5105    -5103    -5104    -5107    -5105 
   -5108    -5105    -5105    -5115    -5120    -5125    -5138    -5140 
   -5130    -5098    -5065    -5066    -5098    -5130    -5139    -5127 
   -5123    -5147    -5165    -5127    -5059    -5042    -5120    -5243 
   -5219    -4981    -4687    -4510    -4645    -4973    -5059    -4872 
   -4629    -4656    -5275    -5830    -5439    -4587    -4428    -5375 
   -6243    -5220    -3402    -3632    -5341    -5977    -4818    -3276 
   -3777    -5625    -5971    -5451    -5097    -4432    -4765    -6620 
   -7854    -5760    -2096    -3319    -8151    -8176    -3420    -1044 
   -3862    -8155    -7869    -2810    -1183    -5366    -7514    -6232 
   -5977    -5753    -5224    -6066    -6868    -5162    -1062    -1512 
   -7807    -9543    -5872     -607     3026    -5848   -15199    -6781 
     -59    -5942    -7688    -3505    -5109   -11766    -6646     3878 
   -3801   -13517    -7341     1260     3160    -7483   -18388    -8276 
    2828    -2485    -8526    -9414    -5275    -1968    -9061    -9088 
    3464     1221   -13153    -9578     4021     -976   -13556   -12387 
   -7954    -5401     2196     2637    -7469   -10103    -4167     -905 
   -1998    -6779   -13451   -11635      739     -650   -15861   -10832 
    3674     4307     3481     -699    -8187    -6336    -3322    -6079 
  -12287   -14384    -7277    -3283    -1323     3454    -3150    -8695 
    1618      639   -14007   -13868    -5895    -1398     4826     1570 
   -5521    -1174    -5522   -16318    -7049     1364    -8812   -14391 
  -10608    -2385     8621     2686   -11063    -6041     -530    -9379 
  -13181    -8055    -4035     -364      899    -2609    -2999     -881 
   -3010    -7318   -11977   -12366    -6885    -7724    -9778     -812 
     202    -9547    -6470      -52     -861      305    -7666   -15488 
    -437     6362    -6828    -5169    -1240   -12278   -14601    -6812 
    -558    -1780   -10633   -10702    -7805    -8569     4072    10843 
   -6613   -15549    -5086      333    -3690    -8594   -11898   -10134 
   -4282    -1100     -900     -934     -180    -4349   -17489   -16781 
    2374     1966   -15944   -15404    -4136    -1896     -828       -4 
   -3559    -2394    -4270   -12175    -5953     2214    -3520    -8016 
  -10341   -11205    -5682    -4244    -6278    -2012      649    -8472 
  -13780      -52     7045    -5671    -9275    -3222    -4275    -4220 
   -4455    -6504    -2457    -6346   -17753   -11371     3963     3616 
   -7001   -13338    -8974     1291      164   -10681    -9942    -1950 
   -6286   -12785    -1871    10652     2876   -11182   -12452    -3034 
    3562    -4969   -19373   -16551     3551    10257    -6313   -12914 
   -3056    -4187   -10686    -2450     7932       51   -14146   -15869 
   -8662     3258     6817    -4288    -4978     2174    -4658   -15102 
  -17552   -13845    -7885    -4880    -3476      562     3777     -255 
   -4336    -3175    -5852    -8661    -8722    -8583    -1313    -2103 
  -12421    -2702     8383    -5314   -17078   -14327    -7317      471 
    -130    -3609    -2504    -7122    -7168     2597      789    -9216 
  -12873   -11392    -5225     -953    -2257      198     3550    -3898 
  -16059   -15039    -1668     2432    -9258   -18646   -11192     3611 
    4371    -4334    -3585     -367    -3786    -9367   -14505    -9602 
    3083      537   -13632   -14235    -3854      284      307     2058 
   -3407   -14539   -11758     1117      702    -9709   -12459    -7261 
   -5489    -7754     1713    14203     2010   -21647   -25312    -6399 
   12683     6542   -14370   -17682    -5614      691    -1154    -5070 
   -7898    -7938    -5265    -1385       55    -3846    -7156    -6039 
   -8202    -9764    -2211     4112     -290   -10384   -13921    -8298 
   -4502    -3851    -3349    -3900    -2581    -2046    -5354    -8476 
   -7296    -3240    -3445    -6367    -5795    -4625    -4909    -5944 
   -6255    -2839     -699    -5088   -11510   -11823    -2122     6340 
    2844    -5093    -9047    -9103   -10449   -11601    -5256      549 
   -1895    -5455    -5348    -3508    -5059    -7103    -4432    -5806 
   -8095    -2100    -2812   -11429    -8039     1561      600    -5198 
   -6782    -8216    -8222    -4047    -4903    -9161    -6440    -2010 
   -4141    -8271    -8235    -5463     -588     2317    -3878    -9579 
   -5098     -585    -3372    -6613    -7061    -9751   -10227    -2512 
    1831    -5418   -14747   -13082      202     8510     2758    -8533 
  -15020    -8203     2415    -1858   -11360    -9745    -1397     3705 
   -3045   -14716   -12156    -1885    -2906    -9323    -7028     -419 
    -891    -5849    -7051    -6134    -5899    -4522    -5206    -8221 
   -4170      958    -6708   -11793    -2632       -2    -5121    -4164 
   -6804    -8329      687    -2295   -13491    -4206     8576      468 
  -12004   -11369    -4473    -2268    -4245    -9408   -15660    -8846 
    3303    -4341   -12901    -1448     1665    -8546    -5422     2259 
   -3207    -8548    -3234      162    -5498   -13801   -17251    -8599 
     581    -2714    -1355     2698    -9537   -16654    -3550     5626 
     832    -3585    -3788    -8595   -12725    -8703    -6299    -5301 
   -2131    -6161   -12741   -11132    -1728     6768     1470    -7992 
   -5861    -3820    -6428    -3589    -1543    -4518    -5281    -6596 
   -8966    -5945    -3454    -4914    -5082    -6581    -6434     -560 
   -1312    -9462    -9213    -3411    -4542    -6311    -3793    -7538 
  -12425    -6237    -1344    -3812    -3854    -6231    -7771     1223 
    2887    -7861   -10164    -8451    -9857    -3172     3114     1582 
   -1521    -9985   -13298    -3530    -2083    -9460    -6593     -675 
   -4365    -9857    -8652    -6508    -8105    -8340    -4672      -17 
    -222    -7403    -8723      261     1823    -3298    -2327    -6075 
  -13028    -7499    -1819    -5609    -6731    -5066    -7219    -6733 
    1961     7230    -1717   -10706    -6930    -3418    -9549   -17196 
  -14276     3750    11840    -9265   -21034    -1914     8016    -4079 
  -12880    -9679     -990    -2502   -15029   -14010      668     6701 
    2353    -4284   -10288    -8001      639    -3188   -16563   -17319 
   -6874     1270     3692     -217    -8729   -11269    -2047     1923 
   -7080    -9536    -3190    -3755    -8996    -7855    -1896     -585 
   -4078    -6917    -9470    -7223    -1263    -3149    -6889    -5638 
   -5097    -3896    -3551    -3805     1895     2872   -10767   -20229 
   -9097     4762     1534    -8769   -12533   -10037    -3021      585 
   -5489    -9709    -5827    -1517     -195    -3932   -11060   -11151 
   -3932      418    -2359   -10822   -12837    -1723     3257    -3507 
   -6516    -7906    -9670    -4494    -1159    -4519    -3404      564 
     548       41    -5422   -14461   -11230    -5956   -13547   -10791 
    4611     1281    -7626      886     1972   -12584   -17051    -7052 
    4102     7221    -2133   -13459   -11496    -2424    -1308    -5416 
   -4961    -4619    -9050    -8457    -3504    -4419    -4048      468 
   -3053   -11005   -10060    -1452     2891    -2502   -10393   -13383 
   -9765    -4727    -6104    -6031       -6    -2380   -10134    -9622 
   -2766     2011    -4442    -9999    -2080    -2609   -14943   -16672 
   -7353       37    -1966    -7410    -5143     1753      240   -10233 
  -12465    -7312    -8704    -5830     2455     -568    -6779    -7645 
   -8941    -6393    -4835    -8907    -2682     3102   -11115   -17496 
    -935     5510    -6266    -8430    -1316    -4695    -7659     1080 
    5432      797    -7091   -18469   -20403    -3879    10570      642 
  -17163   -11244     3267    -1755    -7701    -1135      189    -5509 
   -9297   -10636    -8324    -3789    -2026    -1636      118      429 
    -101     -706    -4507    -9892   -10571    -4318    -2353    -6573 
   -2010     4409      777    -5502   -10862    -9752    -3288    -7164 
  -12113    -4662    -2331    -8687    -5641     2949     1327    -9042 
  -12491    -5246    -2754    -4294      695     1372    -4442    -4854 
   -4307    -6733    -8838   -11171    -5749     2355    -4945   -11036 
   -3755    -3250    -5721    -5062   -10076    -7018     1525    -3792 
   -8418    -6700   -14285   -16794    -5476    -2335    -4369    -1094 
   -5987   -11662    -5921     -905      851     -676    -8148    -7550 
    1250    -2600   -12978    -4989     7067    -1225    -9742    -4504 
   -2258    -5185    -8691   -14507   -15394    -3956    12015     8563 
  -16973   -22636      510     6801    -5341    -5466    -4016    -9240 
   -5194     2620     -405    -8132    -9876    -5148     -309    -1293 
   -9464   -18249   -11437     7299     5690   -15930   -19182      248 
   12571     1560   -17319   -13932      683    -3461   -12167    -6230 
    7584    10644    -8718   -20617    -5692     -356   -11826   -10744 
   -2932     2377     5958    -4611    -9333     6365     3944   -14932 
  -12607      355     2475    -2633   -10030   -15341    -9321     3102 
    4544    -3908   -11364   -15005   -11789       36    16978    21577 
   -1530   -28414   -33513   -24815    -4149    20889    19665      453 
    -981     7727     8197    11308    16714     7946    -6196    -2316 
    8823     1053   -11176    -9213    -9659   -13729   -12583   -22092 
  -34497   -23527    -8645   -16825   -22621   -12101   -22752   -47707 
  -37933   -10898    -5687    -7599    -3009    -4951   -17140   -28868 
  -25786    -1455    24939    23052    -4973   -24907   -13844    11727 
   18809    11527     5120   -13792   -22445    10881    29910    -9243 
  -50746   -54854   -35168     5124    43757    37189      195   -13012 
   -8190   -28622   -55464   -44248   -11766     4537     7006     5819 
   -5251   -19462   -22590   -13911     4552    26620    36568    24506 
    8432    16043    22293   -14762   -49932   -21112    21037     5023 
  -33775   -32366     2872    35270    41902    14472   -12174    13468 
   49377    11391   -51607   -45453   -15479   -24048   -34452   -26563 
   -7422    32796    58770    30753   -15472   -30406   -12415     7766 
    5976     3088    11415    -8445   -48821   -67413   -74070   -53258 
   12829    56146    50149    42519    18759   -47036   -87609   -46346 
   29359    67441    46105     -581   -11788    21400    39283     1721 
  -58374   -75655   -43669   -22297   -22427     1497    38025    30538 
  -16240   -37347   -14284     6922     5913     1217     3901     5235 
   -6394    -7774     9489    -4607   -29871     3909    43119    21612 
  -10750   -14924    -4005     -226   -31681   -77109   -75967   -22349 
   24680    19191    -7942     -176    25145    16278   -12191   -18706 
  -16632   -29512   -37141   -24376    -3935    15259    23193    12877 
    -159    -4207    -2770     6902    16470     3786   -16124    -6876 
   13965    -3750   -51877   -67953   -31417     8368    11075      503 
   13767    32119    15630   -25689   -46820   -29012     -222    13721 
   24753    35928    24165   -10295   -38098   -35050      657    34408 
   19163   -22620   -20530    10107     5197    -7905    17514    37057 
    3838   -47108   -60763   -31221    13662    41836    31542       76 
  -15013   -12037   -18792   -41909   -43344    -3755    20578     1844 
   -8407     5973    17836    16163    -6629   -41823   -57777   -36099 
    7695    37628    34489     3672   -30080   -31909   -13531   -21562 
  -40736   -22990    12259    18542     2056     -814    19210    29671 
    3410   -31201   -28545    -7963   -18081   -30044     -841    29165 
   29980    21070     -220   -21955    -8005    17107     2994   -30719 
  -34392   -14917   -10534   -23824   -31625   -22782     2717    30473 
   25926    -9462   -19518     4063     5454   -22771   -35329   -20198 
   -2498     7402    13385     9995     2828     1374    -7134   -18362 
   -9533     1791    -8734   -19570   -13311     2729    17942     4639 
  -31125   -29219    10293    22813    -3076   -26241   -24406    -8548 
    2727     3235    -3078    -4575     4828    12386     3649   -15376 
  -12035    19641    23665   -18026   -41262   -15437    13504    11138 
   -5390   -14679   -17994   -17053    -4104    14721    16131     2664 
   -5395   -22215   -47297   -33513    14829    37247    18752    -8892 
  -20113   -11117     3762    10098     2817   -12792   -21753   -19480 
  -15223    -5128    16190    20367    -6890   -25772   -18698    -9633 
   -5703    -5602    -8172    -4984       35     2010      545    -9024 
  -13018    -3960    -6822   -19556   -14791    -5802    -7053     4988 
   23955    12137   -18384   -21944     -542     6590    -5842   -16545 
  -20362   -15588    -5463    -5815   -13636   -12525    -7026    -7250 
   -5545    -4178    -9688    -1347    13637    -3504   -30964   -21621 
    6085     9262    -7881   -13360    -1497     7391    -2309   -19812 
  -17988    -5474    -3840     4756    15306    -1132   -15948     1996 
   17470     -315   -22250   -21292   -11584    -1336     6373    -2266 
  -11196     1260    15681    12474    -1900   -17497   -23473   -10658 
   10638    16163     5251     1453     3747    -6097   -22480   -27174 
   -8829    16958    14162    -8475   -13339     -770    15256    19086 
   -2871   -22005   -20479   -20869   -20636    -6858    10893    16490 
     383   -16619   -16730   -15754    -8613     9040     -193   -26149 
  -15595     4144   -14085   -31507   -20229    -9339     1715    17016 
    9918    -7584    -5711       40   -11426   -26736   -21053      557 
    7137    -1740    -1775     3034    -1093    -4673       41     -510 
  -11880   -18153   -14212    -5370     8538    13261    -1846   -14098 
   -8159    -1155    -7134   -19337   -23209   -16177    -9522    -4147 
    1489    -3994   -12171    -1969    10839     3087   -10925   -12852 
   -4598     3940     2112   -10017   -19728   -11997     7354     5771 
  -15006   -13836     1058    -7928   -22045   -10243     9675    11075 
   -3315   -14100   -12407    -3916     7052    13053     8213     2571 
    1279    -5096   -16731   -18004    -4834     2529    -4108    -7777 
   -2932    -2947   -13977   -19796    -5688     9969     7173    -6112 
  -19336   -25309   -15018     4776     8858    -8039   -12663      693 
    -923    -8915    -3412    -5454   -12100    -4062    -3472   -14644 
   -9022     3586      564    -8326   -11907    -9520    -3618    -2921 
   -8723   -10446    -1833     7823     2559    -8760    -6403    -5007 
  -14463   -13852    -3446     3759     4741    -5738   -14431    -6417 
     654    -4116    -6588    -6748    -9900    -3580     3086    -9518 
  -16432    -3426    -2034   -11940    -6714     6110    10766     3654 
  -14675   -23804    -6961    12066     8581    -3929    -9996   -13554 
  -12663    -5405     -961     1422     2301    -7241   -14442    -2589 
   12509    10393    -5883   -18582   -18395   -12195    -4077     1873 
    1161     3366     5752    -6917   -22021   -19303    -3758     7059 
     225   -11843    -5325     8429     4369   -12345   -22241   -15022 
    1046     4147    -7206   -10315     -773     1570   -10091   -17536 
   -7288     2556    -3142    -4214     4463     1960    -4671    -2479 
   -3784    -8035    -5304    -6933   -16906   -16837    -5926    -3993 
  -11044   -11056     -155    10570     3701   -16023   -20409    -9279 
   -4347    -2902     -747    -5575    -4870      961   -11275   -21532 
   -4604    10932     5861    -2211    -5620    -8634    -5834     -452 
   -7740   -18026   -11639    -1151    -4294    -9702    -5440     -743 
   -1807    -5594   -13281   -20374   -14265     2479     7894    -3612 
   -8739       29     4693     1563    -2710    -9579   -15118   -11133 
     859     7565     -550    -9410    -3415     4433      722    -3456 
   -2899    -4411    -5348    -6565   -11893   -15857   -15859    -9890 
     472     5120     4369     2988    -2062   -11134   -16447    -8780 
    1125    -7642   -20532   -11823      257    -5454    -9709    -2010 
    -587    -8594   -11299    -5987    -3632    -6426    -1837     4904 
