Origin Time       2024/04/02 04:24:00
Lat.              40.133
Long.             141.712
Depth. (km)       71
Mag.              6.0
Station Code      IWTH27
Station Lat.      39.0307
Station Long.     141.5320
Station Height(m) -20
Record Time       2024/04/02 04:24:58
Sampling Freq(Hz) 100Hz
Duration Time(s)  127
Dir.              2
Scale Factor      2942(gal)/8224139
Max. Acc. (gal)   8.434
Last Correction   2024/04/02 04:24:58
Memo.             
[...]
 -125016  -125670  -124459  -124818  -126951  -127737  -126875  -126547 
 -125902  -124580  -124744  -124127  -122758  -124108  -125871  -126234 
 -125582  -124175  -124297  -124780  -123634  -123520  -124834  -124912 
 -123982  -122750  -122616  -125285  -126396  -124637  -125138  -127008 
 -127699  -127769  -126639  -125826  -126253  -125464  -123657  -122296 
 -121583  -122235  -123399  -123970  -123882  -122027  -121054  -124345 
 -126978  -125941  -125743  -126242  -124703  -123750  -125236  -126621 
 -126185  -125379  -125424  -125436  -124835  -123465  -121886  -122305 
 -124316  -124918  -123988  -123604  -124665  -126261  -125813  -123151 
 -122134  -122659  -122859  -124722  -125689  -123342  -122959  -125574 
 -126106  -123199  -121389  -124389  -127502  -125713  -122586  -121620 
 -122667  -126112  -129640  -129582  -126697  -124563  -124741  -125184 
 -125041  -125652  -126144  -125894  -126447  -127685  -127321  -124920 
 -122843  -123055  -124777  -124941  -123152  -121910  -121765  -122835 
 -124780  -125458  -124294  -123624  -125320  -127122  -126615  -124505 
 -122893  -123816  -125046  -125296  -126851  -126964  -124486  -123445 
 -123867  -124730  -126158  -126611  -126430  -126665  -125651  -123241 
 -122515  -123549  -123537  -123688  -124521  -123562  -123319  -124850 
 -123986  -121833  -121817  -123117  -124036  -123966  -123943  -124355 
 -124949  -126459  -126119  -123631  -124255  -126215  -125517  -124749 
 -124201  -123429  -125105  -126678  -124594  -122418  -123633  -125556 
 -125159  -124973  -126859  -127557  -126153  -125231  -125313  -124715 
 -123169  -123043  -124387  -124598  -124282  -124456  -123901  -124119 
 -125313  -124054  -122449  -123746  -125454  -126443  -126850  -126052 
 -125741  -126536  -126285  -124573  -123030  -122708  -123672  -124943 
 -126083  -126369  -125101  -124875  -125351  -123978  -124032  -125811 
 -124881  -123067  -123090  -123292  -123909  -125085  -124935  -124422 
 -125012  -125340  -124403  -123218  -123055  -124020  -125554  -125759 
 -124236  -125146  -127654  -126546  -124852  -125787  -125358  -123510 
 -123639  -124047  -123678  -125089  -126608  -125613  -124434  -124529 
 -124453  -123862  -124087  -124538  -122885  -121651  -124131  -126806 
 -126447  -125068  -124502  -123707  -122859  -124038  -125004  -123535 
 -123711  -126126  -126449  -124281  -121637  -121410  -124267  -125332 
 -124235  -124594  -124596  -124120  -125520  -126295  -125467  -125478 
 -126037  -126299  -126262  -124891  -123757  -124884  -125246  -123959 
 -124038  -124245  -123030  -122985  -124414  -124438  -122989  -122026 
 -121543  -121838  -123817  -125724  -125798  -125308  -125914  -126858 
 -126364  -124980  -124823  -125861  -126477  -126476  -126387  -126431 
 -126500  -125281  -123472  -124251  -126049  -125392  -124411  -124525 
 -123205  -121379  -122193  -124798  -126314  -125559  -123869  -123651 
 -124918  -125486  -124853  -124965  -125520  -124879  -124995  -125918 
 -125824  -126112  -125751  -124135  -124460  -125235  -124679  -125460 
 -126670  -125582  -123283  -122065  -122447  -123788  -125136  -124545 
 -122962  -123380  -123921  -123129  -123433  -124335  -124475  -124930 
 -125350  -125217  -125496  -125766  -125957  -126704  -126310  -123782 
 -121694  -122430  -123952  -124200  -125790  -128175  -127498  -125639 
 -125275  -125467  -125491  -124656  -123624  -124525  -126129  -126160 
 -125502  -124591  -122944  -121902  -121952  -121350  -121004  -123880 
 -126068  -123422  -122035  -124821  -126306  -125679  -125859  -126396 
 -125702  -125142  -127276  -129589  -128125  -125302  -123681  -122751 
 -123411  -124775  -125266  -125844  -125740  -123627  -121285  -120884 
 -121875  -122477  -122615  -123396  -125533  -127175  -125234  -122617 
 -122941  -123437  -123711  -124699  -124742  -125566  -127070  -126280 
 -125427  -125892  -124893  -123172  -123268  -124794  -126432  -126951 
 -125774  -124707  -124699  -123838  -123287  -125124  -125842  -124270 
 -123831  -124453  -125174  -125787  -124159  -122088  -123697  -125949 
 -125420  -124488  -123666  -123151  -124912  -126499  -125324  -124231 
 -125163  -125995  -125343  -124108  -123859  -125172  -126500  -126403 
 -124850  -123182  -123384  -124700  -125521  -125818  -125251  -124964 
 -125329  -124139  -122818  -123511  -124093  -124159  -125181  -125443 
 -124150  -123398  -123665  -124544  -125535  -125516  -124815  -124097 
 -123353  -123223  -123925  -125081  -126481  -126570  -124864  -123963 
 -124236  -124263  -124713  -125527  -125751  -125486  -124845  -123627 
 -122669  -123396  -124854  -125108  -124627  -124461  -124129  -123547 
 -124043  -125605  -126283  -125686  -125626  -125888  -125050  -124650 
 -125435  -125487  -124746  -124727  -125170  -124328  -123471  -124798 
 -125096  -123564  -124241  -125914  -125971  -124719  -123307  -124124 
 -125605  -125086  -125074  -126115  -125532  -124617  -125639  -126681 
 -126403  -125834  -125428  -125992  -126351  -124487  -122535  -122314 
 -122945  -123461  -123238  -123252  -124221  -124406  -123055  -122598 
 -123985  -124482  -123688  -123862  -124372  -123903  -123781  -125377 
 -126890  -125149  -122239  -122958  -125481  -125328  -124148  -125069 
 -125631  -124325  -124301  -125415  -125618  -125523  -124754  -123669 
 -124316  -125001  -123620  -122338  -122686  -124101  -125504  -124877 
 -123153  -123549  -125437  -126065  -124977  -123761  -123431  -123769 
 -124525  -125358  -126632  -127592  -126817  -126165  -125751  -124649 
 -125284  -126312  -125401  -124965  -125281  -124806  -124067  -123569 
 -123466  -123718  -123830  -124143  -125663  -127172  -126847  -125390 
 -123417  -122203  -123520  -125512  -126179  -125959  -125262  -125059 
 -125637  -125158  -123817  -124200  -125613  -125354  -123935  -123411 
 -123822  -123736  -123527  -124110  -124401  -124613  -124591  -123129 
 -122647  -124060  -124464  -123869  -124298  -125150  -125072  -125080 
 -125103  -123871  -123191  -123518  -123546  -124582  -126422  -126895 
 -125959  -125285  -125604  -125228  -124073  -124433  -125369  -125458 
 -125759  -126103  -125749  -124089  -122354  -123263  -124478  -123240 
 -122793  -125167  -126887  -125921  -125004  -124699  -123471  -123160 
 -124426  -125097  -125506  -126489  -126493  -125639  -125532  -125340 
 -124367  -123403  -123020  -123905  -124421  -123388  -124274  -126832 
 -126797  -125689  -125779  -124384  -121856  -122436  -125751  -127626 
 -126974  -125685  -125061  -124970  -124887  -125200  -125498  -125000 
 -125802  -127041  -124556  -121531  -122808  -124684  -123971  -123433 
 -123624  -123280  -123287  -123109  -122408  -123341  -124785  -123402 
 -121587  -123010  -125042  -125392  -125470  -125494  -125563  -126490 
 -126743  -124912  -123834  -124951  -125562  -125388  -125509  -125289 
 -124692  -124885  -126090  -126351  -125134  -123259  -121576  -122296 
 -124414  -125292  -125744  -125955  -125496  -125232  -124738  -123688 
 -123034  -123784  -125977  -127631  -127336  -125756  -123462  -121745 
 -122208  -123591  -124012  -123815  -123429  -123149  -124098  -125143 
 -124173  -123612  -125244  -125932  -125732  -126705  -126812  -125829 
 -126144  -126694  -125112  -122719  -123418  -126445  -126341  -123896 
 -123493  -123433  -122056  -121355  -122740  -125478  -126358  -125088 
 -124210  -123556  -123570  -124328  -123792  -123726  -125385  -125672 
 -125166  -125608  -124981  -124376  -124665  -122890  -122295  -126247 
 -128225  -125373  -123348  -124108  -125493  -126198  -125393  -123666 
 -122716  -123407  -125220  -125830  -124398  -124205  -125815  -125497 
 -124325  -124993  -125077  -123952  -123732  -124522  -125408  -125381 
 -125107  -125847  -126328  -125535  -124726  -124295  -123742  -123967 
 -124893  -124822  -124339  -125221  -126069  -125139  -124104  -124104 
 -124178  -124167  -124129  -124000  -124713  -125381  -124298  -124443 
 -126765  -127157  -126314  -125023  -122678  -124214  -127882  -126922 
 -124530  -124322  -124217  -124019  -124573  -125128  -125230  -125122 
 -124236  -123408  -124675  -126115  -125068  -123645  -124060  -124771 
 -125076  -125203  -123913  -123012  -123379  -122403  -122839  -125404 
 -124598  -122627  -123319  -123147  -122127  -123156  -124671  -125905 
 -126960  -125914  -123900  -123746  -124916  -125810  -125917  -125771 
 -126331  -126775  -125743  -123738  -122154  -122431  -124193  -124839 
 -123873  -123523  -124098  -123435  -121880  -122077  -123745  -124378 
 -123913  -124301  -125134  -125212  -125548  -126268  -126623  -125876 
 -123865  -123982  -126574  -126847  -125421  -125356  -125408  -125136 
 -124841  -124252  -124397  -125176  -125593  -125073  -124664  -125940 
 -126457  -124897  -123699  -123920  -125059  -124492  -122462  -123653 
 -126504  -126877  -126646  -127337  -127446  -125955  -123334  -122381 
 -124120  -125367  -125545  -126058  -125336  -124264  -124673  -123782 
 -122343  -123711  -124881  -124602  -125266  -124831  -123244  -123687 
 -125267  -126094  -125955  -124661  -122781  -122409  -124534  -126445 
 -125582  -123334  -122663  -123580  -124047  -124785  -125886  -125618 
 -125548  -126111  -125086  -123341  -122997  -124384  -126115  -126091 
 -125042  -124825  -124241  -122943  -122974  -124146  -124463  -123558 
 -122887  -122947  -123381  -124660  -125882  -125782  -125130  -124387 
 -123453  -123526  -124995  -126114  -126357  -125963  -125115  -125216 
 -125232  -123573  -122802  -124802  -126366  -124457  -121783  -122000 
 -124232  -125539  -124960  -123898  -123348  -123755  -125201  -125991 
 -125369  -124962  -125417  -125643  -125732  -126237  -126141  -125332 
 -124437  -123993  -125591  -127719  -126906  -124656  -123785  -124279 
 -125780  -126436  -124691  -123191  -123352  -123404  -123765  -124710 
 -124356  -123188  -122462  -121998  -122624  -123157  -121421  -120993 
 -123931  -125111  -124029  -124843  -125651  -125104  -126111  -127029 
 -126015  -125617  -126407  -127332  -127492  -125964  -124611  -124947 
 -124846  -123516  -122956  -123638  -124467  -125101  -125483  -125733 
 -125523  -123723  -122380  -123915  -125417  -125208  -125062  -125393 
 -126744  -127529  -124816  -121891  -122825  -124534  -124308  -124795 
 -125604  -123606  -121751  -123595  -125429  -124197  -123408  -124791 
 -124989  -123573  -123565  -125286  -126424  -125813  -125217  -125761 
 -125595  -124907  -125378  -125772  -125331  -124483  -123533  -124457 
 -127080  -128422  -127360  -125065  -123788  -123437  -122835  -123574 
 -125706  -127064  -126727  -125428  -125004  -124815  -123183  -122372 
 -124148  -125956  -126064  -125833  -125637  -124785  -124740  -125671 
 -125602  -125146  -124559  -123624  -124114  -124195  -122300  -122388 
 -125128  -126272  -124445  -122704  -123372  -124614  -125300  -125863 
 -124812  -123298  -124148  -125587  -125425  -125155  -125491  -125367 
 -125054  -124710  -124908  -125544  -123607  -120888  -120687  -121285 
 -124004  -127325  -125200  -122110  -123913  -126787  -127368  -125625 
 -124298  -126337  -127657  -125496  -123751  -123068  -123535  -126597 
 -128225  -127333  -127391  -126578  -123970  -122872  -123954  -125763 
 -126670  -126400  -125822  -124876  -124876  -125512  -124079  -123545 
 -127026  -129587  -128047  -126333  -126960  -128150  -127926  -126476 
 -125975  -127057  -127606  -126736  -125663  -125459  -126164  -126315 
 -125435  -125865  -127276  -126829  -126092  -126523  -125868  -124630 
 -124156  -123493  -124087  -126130  -126122  -124931  -124798  -123813 
 -122251  -122492  -123800  -124876  -126315  -127627  -127576  -127542 
 -128466  -128574  -127346  -127043  -128478  -128244  -125369  -122161 
 -118497  -116571  -118578  -121578  -122770  -119533  -113823  -112432 
 -113586  -113479  -115873  -119199  -118002  -116665  -120722  -125675 
 -126522  -126218  -127823  -129103  -128569  -127483  -127970  -131407 
 -133571  -130599  -127614  -127336  -123870  -117792  -117510  -122530 
 -124384  -120453  -115146  -113829  -117674  -122642  -123670  -119437 
 -115724  -118077  -122010  -121948  -121028  -125150  -132750  -134061 
 -127971  -124321  -124768  -124310  -120120  -114214  -115965  -126964 
 -134585  -131782  -126090  -125226  -125486  -121814  -118408  -122443 
 -135265  -147226  -146553  -137731  -132223  -128993  -124081  -121265 
 -122689  -124973  -124204  -117667  -112368  -121697  -137290  -137741 
 -126496  -119699  -116406  -109063  -102567  -105518  -113841  -120744 
 -126315  -126790  -120474  -115430  -116136  -118079  -115456  -112337 
 -117220  -127465  -138593  -147922  -145575  -130608  -119419  -120667 
 -125952  -128433  -126825  -123144  -122995  -123835  -120205  -116263 
 -117344  -121707  -123720  -124036  -126590  -128252  -126920  -122137 
 -114174  -112742  -119592  -123164  -124251  -128067  -126513  -118831 
 -118096  -126126  -133953  -139148  -141731  -140028  -133883  -124789 
 -120502  -127317  -134844  -132286  -126445  -126536  -134169  -143907 
 -145376  -137913  -128378  -119753  -117788  -125031  -131071  -128817 
 -123566  -121073  -119523  -113887  -106936  -105058  -105156  -104895 
 -111770  -125289  -133416  -131994  -128318  -129708  -133006  -129914 
 -122678  -117717  -115577  -117185  -124744  -134370  -135167  -124644 
 -116652  -119304  -124947  -128393  -129767  -126806  -122725  -125047 
 -131008  -132023  -130081  -133883  -141134  -143468  -141471  -136663 
 -129323  -124544  -122778  -120586  -117243  -114196  -115303  -118235 
 -118191  -116910  -112024  -103522  -101094  -108502  -120675  -128356 
 -125779  -119576  -119807  -126944  -130670  -127102  -125772  -128403 
 -130106  -134331  -139904  -138229  -133429  -134527  -134617  -128700 
 -124980  -125467  -128144  -131878  -131761  -129033  -125504  -116922 
 -109555  -113007  -122297  -130277  -136656  -140734  -139747  -132300 
 -121547  -112588  -109173  -111892  -116334  -121281  -127894  -130407 
 -127543  -123786  -117725  -113184  -115433  -118457  -118447  -115909 
 -114381  -120829  -128563  -128395  -127475  -128891  -126604  -125362 
 -133188  -142230  -139573  -130804  -128934  -130985  -127774  -118702 
 -110629  -110018  -114166  -117502  -120056  -122638  -124167  -122758 
 -119404  -120445  -126069  -129918  -133027  -134697  -128856  -123106 
 -126920  -131730  -129355  -125302  -124524  -125208  -128139  -133608 
 -134235  -127106  -117675  -110516  -109956  -115304  -118849  -123053 
 -132586  -134867  -126279  -120307  -116387  -110228  -110813  -121926 
 -136393  -145442  -144906  -137313  -127984  -122233  -120152  -117150 
 -117470  -127815  -139780  -143714  -141994  -135193  -122883  -114359 
 -114716  -116962  -117541  -119607  -122530  -121273  -116972  -118056 
 -124825  -127066  -121101  -115912  -117664  -121159  -122497  -122210 
 -120648  -122138  -127120  -127313  -123461  -124966  -127911  -122548 
 -116000  -120118  -128757  -130199  -128389  -130430  -133134  -133132 
 -128683  -122685  -123342  -126230  -125370  -128106  -133168  -132150 
 -126885  -121439  -117830  -118131  -120374  -119789  -116082  -113529 
 -114859  -120333  -123859  -118091  -110867  -113459  -121941  -127340 
 -128171  -128383  -129662  -129824  -128594  -128056  -128363  -128619 
 -127226  -122528  -119344  -122544  -126188  -124401  -119915  -116168 
 -115387  -118797  -122025  -121911  -124394  -131166  -133128  -129301 
 -127830  -129043  -128704  -126890  -127342  -131157  -133084  -129610 
 -124248  -123182  -126895  -129039  -128493  -128776  -127714  -125940 
 -129223  -133972  -134778  -134002  -130708  -125496  -125240  -128394 
 -128710  -127714  -125772  -120388  -118129  -123306  -127720  -126682 
 -123498  -121117  -119727  -117929  -116661  -117323  -119938  -123680 
 -125678  -124999  -121799  -118810  -121761  -125359  -122449  -119963 
 -122246  -123400  -121301  -119267  -118640  -119674  -121375  -121323 
 -121626  -124537  -128611  -131642  -130701  -127562  -124757  -121347 
 -120546  -123257  -126208  -129119  -130663  -130080  -128537  -127712 
 -129544  -129409  -125194  -125298  -129861  -129930  -127172  -128025 
 -128542  -125197  -125319  -129794  -130221  -128031  -127948  -127255 
 -124267  -120946  -119981  -122451  -126049  -127772  -127758  -126997 
 -125181  -124190  -123930  -122175  -121130  -121285  -121235  -121977 
 -122027  -120657  -119707  -118727  -117937  -118212  -117806  -117528 
 -119176  -119407  -118551  -120330  -121397  -119415  -117771  -118789 
 -122470  -125104  -123691  -122450  -124146  -126770  -130650  -132266 
 -128399  -127372  -130527  -128551  -123757  -123201  -126843  -132702 
 -135704  -133436  -129705  -126472  -125971  -128277  -129055  -129481 
 -131838  -131989  -127980  -125107  -126110  -125815  -121894  -119091 
 -120226  -123053  -125261  -127206  -128385  -126193  -122373  -121072 
 -120556  -119508  -120344  -120970  -118800  -118018  -122480  -127338 
 -126775  -124281  -124721  -124946  -121809  -120037  -123041  -127063 
 -128464  -126781  -123750  -122239  -123345  -123757  -121697  -122359 
 -125194  -124777  -124528  -127022  -128918  -128058  -124846  -123815 
 -126878  -129668  -129027  -126108  -124760  -125182  -124964  -126621 
 -129574  -127383  -121772  -120150  -121375  -120857  -120532  -122096 
 -123799  -124965  -124299  -123017  -124390  -125707  -123466  -121629 
 -124684  -127774  -126739  -126492  -126889  -124105  -122065  -122979 
 -124544  -126169  -125670  -123969  -125702  -127642  -126850  -126233 
 -124326  -122134  -123827  -125647  -123665  -120773  -120825  -123816 
 -125944  -125903  -126046  -126212  -125429  -123074  -119925  -121305 
 -124680  -122439  -120476  -124475  -127728  -126183  -123738  -125153 
 -128011  -125516  -121965  -124941  -126922  -122994  -121821  -123970 
 -124181  -122979  -120185  -118257  -120679  -124437  -126789  -126157 
 -122682  -123056  -127242  -127083  -125329  -126752  -127136  -126708 
 -127653  -128096  -127485  -125826  -125065  -126326  -127265  -128439 
 -129490  -126481  -121474  -121447  -124789  -125408  -125675  -126850 
 -126284  -125189  -122844  -120445  -120775  -120675  -121046  -123831 
 -124750  -124166  -124746  -125622  -127259  -129046  -128514  -125169 
 -122369  -124090  -126038  -124372  -124887  -128888  -130495  -127774 
 -124186  -122565  -121591  -121255  -123824  -127577  -128626  -127091 
 -126550  -126636  -124182  -123080  -126474  -126918  -123020  -123793 
 -127535  -126711  -124737  -124665  -123896  -122866  -122557  -124341 
 -126697  -124274  -122034  -123992  -122413  -118543  -118083  -118571 
 -119646  -121803  -122345  -120897  -119628  -119522  -120544  -123546 
 -126949  -126076  -121093  -118845  -121730  -123203  -121279  -122472 
 -126196  -125713  -123078  -124042  -127265  -127754  -124417  -121382 
 -121236  -123984  -128857  -131302  -129856  -128468  -127932  -127386 
 -127874  -128933  -128046  -126832  -128331  -128880  -126844  -126388 
 -126517  -124614  -123349  -124314  -126551  -129898  -131097  -126372 
 -121203  -121305  -122384  -122338  -123144  -124318  -127719  -131197 
 -128576  -124883  -126069  -126625  -125109  -126123  -127865  -127813 
 -127878  -128545  -128482  -127329  -125868  -125305  -125050  -123257 
 -122053  -124457  -125857  -122129  -119749  -121562  -121988  -122084 
 -124097  -125146  -125207  -124703  -124445  -127319  -130426  -128614 
