Origin Time       2024/04/02 04:24:00
Lat.              40.133
Long.             141.712
Depth. (km)       71
Mag.              6.0
Station Code      IWTH14
Station Lat.      39.7435
Station Long.     141.9087
Station Height(m) 200
Record Time       2024/04/02 04:24:50
Sampling Freq(Hz) 100Hz
Duration Time(s)  136
Dir.              4
Scale Factor      7845(gal)/8223790
Max. Acc. (gal)   325.308
Last Correction   2024/04/02 04:24:50
Memo.             
[...]
   -2093    -2073    -2084    -2097    -2095    -2087    -2089    -2087 
   -2084    -2099    -2100    -2081    -2077    -2099    -2104    -2080 
   -2083    -2106    -2088    -2077    -2103    -2097    -2072    -2088 
   -2111    -2084    -2073    -2099    -2093    -2087    -2095    -2085 
   -2085    -2095    -2093    -2093    -2081    -2081    -2101    -2092 
   -2070    -2095    -2111    -2076    -2073    -2110    -2095    -2070 
   -2096    -2107    -2084    -2079    -2092    -2093    -2091    -2092 
   -2087    -2091    -2096    -2081    -2085    -2101    -2092    -2080 
   -2089    -2095    -2081    -2088    -2114    -2088    -2062    -2099 
   -2111    -2084    -2085    -2085    -2083    -2103    -2097    -2077 
   -2093    -2089    -2073    -2104    -2104    -2064    -2089    -2112 
   -2077    -2079    -2101    -2088    -2081    -2100    -2097    -2074 
   -2084    -2103    -2085    -2080    -2103    -2097    -2074    -2088 
   -2104    -2084    -2083    -2106    -2089    -2069    -2096    -2107 
   -2076    -2079    -2103    -2089    -2083    -2093    -2089    -2097 
   -2093    -2073    -2092    -2101    -2084    -2088    -2092    -2089 
   -2093    -2088    -2083    -2091    -2097    -2088    -2085    -2095 
   -2091    -2089    -2088    -2083    -2093    -2089    -2084    -2099 
   -2093    -2081    -2091    -2092    -2087    -2092    -2092    -2085 
   -2095    -2096    -2081    -2091    -2093    -2080    -2096    -2099 
   -2080    -2092    -2099    -2083    -2087    -2101    -2092    -2080 
   -2097    -2095    -2076    -2104    -2103    -2066    -2092    -2112 
   -2076    -2074    -2107    -2095    -2074    -2095    -2097    -2081 
   -2092    -2095    -2083    -2091    -2091    -2083    -2093    -2095 
   -2083    -2089    -2096    -2083    -2087    -2103    -2089    -2080 
   -2092    -2092    -2092    -2096    -2088    -2084    -2096    -2089 
   -2074    -2093    -2101    -2079    -2089    -2103    -2081    -2085 
   -2100    -2092    -2088    -2089    -2091    -2099    -2093    -2076 
   -2084    -2103    -2096    -2084    -2084    -2088    -2093    -2088 
   -2089    -2097    -2089    -2085    -2089    -2091    -2092    -2088 
   -2097    -2099    -2074    -2084    -2101    -2085    -2079    -2093 
   -2100    -2084    -2080    -2093    -2089    -2087    -2092    -2089 
   -2091    -2088    -2084    -2092    -2095    -2089    -2085    -2088 
   -2092    -2088    -2084    -2091    -2096    -2083    -2087    -2099 
   -2080    -2080    -2101    -2089    -2085    -2100    -2087    -2081 
   -2096    -2093    -2085    -2089    -2092    -2092    -2095    -2089 
   -2080    -2091    -2096    -2092    -2095    -2088    -2084    -2092 
   -2087    -2088    -2096    -2091    -2091    -2088    -2084    -2095 
   -2093    -2079    -2083    -2103    -2095    -2076    -2089    -2099 
   -2084    -2079    -2091    -2101    -2089    -2083    -2093    -2085 
   -2083    -2100    -2092    -2080    -2091    -2097    -2081    -2077 
   -2097    -2097    -2081    -2084    -2091    -2087    -2091    -2096 
   -2088    -2084    -2088    -2091    -2096    -2085    -2074    -2097 
   -2103    -2080    -2081    -2096    -2091    -2091    -2096    -2089 
   -2084    -2093    -2096    -2084    -2085    -2097    -2091    -2085 
   -2091    -2083    -2087    -2110    -2088    -2069    -2101    -2101 
   -2069    -2093    -2106    -2072    -2080    -2107    -2099    -2085 
   -2079    -2085    -2100    -2093    -2088    -2093    -2084    -2084 
   -2097    -2091    -2088    -2101    -2088    -2079    -2097    -2091 
   -2076    -2096    -2103    -2083    -2085    -2100    -2092    -2085 
   -2092    -2085    -2085    -2093    -2096    -2092    -2080    -2085 
   -2103    -2088    -2074    -2092    -2103    -2092    -2077    -2083 
   -2093    -2089    -2092    -2093    -2081    -2088    -2097    -2091 
   -2091    -2091    -2085    -2091    -2099    -2084    -2079    -2101 
   -2092    -2072    -2092    -2097    -2085    -2096    -2100    -2103 
   -2145    -2195    -2199    -2157    -2076    -1953    -1783    -1513 
   -1248    -1310    -1603    -1664    -1755    -2178    -1895     -714 
    -492    -1293    -1629    -2652    -4766    -4931    -3221    -2721 
   -1551     2835     4793      255    -4056    -5139    -6867    -5019 
    1057     1139    -1871      195     -291    -5815    -7749    -7029 
   -5494     1043     7426     6227      241    -5881    -8391    -3311 
    3736     1414    -2945     -222    -8464   -24537   -17271     3411 
   13500    18910    17130     2020   -16929   -31333   -26369    -2517 
   12243    18571    29862    24187    -5690   -32749   -43376   -34800 
   -7551    21859    39344    38797    13111   -31581   -57765   -32904 
    9884    26233    27182    23334     1012   -30782   -41651   -28534 
  -12155    11064    40775    39575     -965   -34496   -41050   -44656 
  -34569    18003    72573    64033     7329   -35904   -48528   -39965 
  -12367    12699    14551     6039     -446    -7681   -13558   -16668 
  -10561    11951    31229    26376     1628   -21444   -25639   -18465 
     696    33376    44105    17697   -15425   -42619   -65412   -56631 
   -4461    52137    70177    40972     1269   -13204   -23712   -42865 
  -36634    -1437    31459    46462    35325    -2740   -43200   -57551 
  -37446     3258    37669    39607     6720   -18871    -9927    -5449 
  -24700   -23619     4575     8131    -2452    18603    17280   -30222 
  -28109    14245     8757    -4881     9791     -807   -29303   -17847 
   17682    17397    -5614    -1850     6663    -7318   -21085   -23697 
   -5699    32009    41235     9410   -19076   -29957   -28539    -9346 
    8388     6401     5786    12186     7797     7753     9691   -13296 
  -21523     5667     7962   -18009   -32977   -37982   -18972    23913 
   45851    40969    24648    -7227   -32112   -31723   -29351   -25238 
     280    25605    23345     6581    -2091    -4808   -16399   -29142 
  -20470     2628    17751    17672     2791    -8556    -1328     5486 
    2724     1040    -4754   -17797   -24063   -15654     4039    24194 
   31945    25141       37   -35509   -47475   -31581    -9900    12112 
   25338    24493    11673   -12575   -25791   -16140    -1841     7754 
   11063     9011     6921     3213      526    -7010   -32379   -43835 
  -13980    17517    21911    16286    11211      267   -16444   -21814 
  -12201    -3646    -4288   -13161   -12364     8479    24649    25242 
   20376     5358   -18328   -37922   -46927   -34107     2671    35565 
   39950    28983    15365   -10683   -31923   -29540   -26516   -29952 
  -15599    23375    55998    44921     7936   -12097   -17336   -23105 
  -26157   -24219   -18146    -4144    21423    38927    29694    13744 
   -4484   -35139   -43875   -18940    -3636    -4365     7956    23215 
   20220    14419     9661   -13070   -37339   -31267    -2292    14442 
    6120     1760    15388    17112      818    -9281   -23214   -42855 
  -28039    10763    24196    16976    12430     5780    -7578   -16218 
  -12563    -9910   -12010     -159    13707     2112   -12310    -6161 
   -3516    -7553     4565    12891    -3582   -12924      909     6220 
   -6890    -9549    -1424    -8282   -10731    11515    23816     8479 
   -8884   -11673   -10301   -13142    -4500    11867     6673   -10790 
  -11695    -1588     1235    -2997      437    10966     7654   -10061 
  -22268   -18322    -2872    10590    21412    27041     7381   -24418 
  -33370   -28777   -26428    -7233    24877    36805    24956    10789 
     475   -20918   -46159   -38234    -3018    17594    22885    28571 
   21745     -580   -19030   -30036   -33249   -13834    14982    19693 
   10887    11992     5107   -15819   -25354   -18049    -5455     6430 
   14767    15642     5283    -7955   -10484    -2851     3153    -4861 
  -19699   -14234     6988    13678    11425     7794   -13971   -29428 
   -7724    14122     6555      151     6610     1266   -11637    -9869 
   -1767      388      957    -5279   -15911   -14553    -1795    10903 
   10547    -1622    -7800    -8673    -8541    -3838    -3600    -9509 
   -5998    12656    22593     5005   -18261   -26936   -21594    -2679 
   12023     7696     7098    11485    -8590   -32401   -22420     3793 
   18049    23517    20353    -4298   -29494   -22464    -6003    -9660 
   -8318    12698    21566    13555    11569       48   -28498   -34663 
  -12673     2358     9734    22771    26368    10773   -16124   -40344 
  -40144   -14858     8804    20490    30005    29166     6292   -14580 
  -18797   -29054   -36626   -10808    26520    33423    14149     -274 
   -8129   -25825   -31773    -5017    18735    12706      785      828 
   -1090    -9447    -8444    -2961      869    12337    10107   -11515 
  -15908    -9016    -9860      720    12015     1576    -3816      884 
  -14407   -25165    -4398    10751     5751     7078    15244    11387 
   -7932   -24370   -22391   -10405      120     8464    13424    12991 
   10409     6540    -7720   -29708   -35729   -18247     3470    18065 
   25456    17784      -74    -7303    -3719    -4050   -12183   -19512 
  -18968   -12451     3674    21564    18422     1221    -9479   -10382 
    -103     9182    -1888   -16694   -11824     -190     5645     7134 
    2394    -2172    -2343    -4187   -10840   -19653   -15080     8873 
   24933    15840    -1094   -11561   -20433   -22621    -2860    16019 
    5119    -6987     -220    -2845   -15750    -6662    16062    15431 
   -1300    -7997    -6394    -3655    -8208   -15159    -9190    -2042 
    2902    10312     2552    -8171     1109     5979    -7778   -12490 
   -4063    -8019   -18262   -10504     4819    10571    15481    18582 
    5236   -16989   -24931   -13559    -2540      625     6224     5046 
   -4880    -1267     8340      275   -14075   -15670   -12637   -17367 
  -14866    15117    42012    23749    -8698   -14170   -11697   -15209 
  -12344    -5490    -5074    -7542     3693    24534    24511     -390 
  -22289   -23950   -12985    -2782     9374    15723    -2941   -22669 
  -13672     4945    16834    25532    16919   -15403   -43650   -41964 
  -13441    16819    23745    12568     7803     9595    -1459   -21490 
  -23909    -8264     5630    20853    30343     8756   -27427   -37365 
  -22110    -7739     8309    23819    16048     2822     5614     1264 
  -15303   -21668   -15714    -7149     4665    17590    17172      795 
  -17748   -23379   -10399      403     1397    12618    18974     4369 
   -7649   -14756   -22694   -14443      827     3446     3361     4650 
   -2759    -9369       47    11034     7811     6982     7327   -11971 
  -27426   -16194    -4131    -8857   -15338    -4423    18777    24921 
    8773    -4965    -7713    -5741    -4625   -14203   -28737   -22419 
    7747    29948    26088    15033     6951   -12968   -34626   -31043 
  -10916     7022    24322    31891    16953    -6211   -22480   -30140 
  -21392    -4261      602     5170    20965    25523     9923   -10586 
  -25960   -28686   -14134     2828     4652      718     5074    10160 
    7628     1861    -6278   -17018   -17466    -6454     -756      453 
    4725     4001     -888     1000      373   -11658   -14056    -1092 
    5421    11134    19124     1865   -23739   -20429   -10847   -13323 
   -3561    11383    10287     7650     5182    -6390    -9953    -4434 
   -9234   -17257    -9352     6394    14527    22774    26951     5460 
  -27734   -42645   -33072    -6561    17628    29114    31970    15579 
  -15924   -29254   -18715   -10492    -9718    -2119     8392    15445 
   19246     3785   -22667   -25134   -12660    -6594     8193    29258 
   24171    -5873   -26366   -25856   -14986    -3319     5337    13975 
   13570      853    -3669    -3784   -16048   -22146   -12010     -153 
   12668    17043      738   -10183    -2211    -2281   -12241    -9092 
    -432    -1327     3154    14053     6655   -10326   -12841    -5518 
   -1152    -8334   -14135     2546    17740     6743    -3161      170 
  -10093   -23514    -9659     5879      657     9466    31510    17361 
  -21527   -33297   -20173   -11534    -6590     9660    27900    23411 
      31   -17743   -21601   -17609   -11381     1645    20437    22491 
    2913   -14517   -19148   -16132   -10480    -1517    14358    17026 
   -3485    -8050     5157    -8915   -32556   -21053     4428    11649 
   14986    16522    -2933   -17867    -8838   -13832   -26482    -6420 
   10511      282     4758    18187    10764       52    -5764   -22840 
  -39777   -29344     3921    28467    29959    20688     6031   -14958 
  -26871   -26839   -32115   -25085    16551    46889    32359    13902 
    6342   -11840   -21938    -4198    17145    15651     3742     8143 
   14600     1451    -8491    -5038    -7948   -11140    -5790    -7105 
  -20426   -35517   -33555    -1609    37114    49188    35421    14058 
   -5107   -17670   -26628   -30842   -18168     9706    42244    67455 
   64282    30391    -9190   -40150   -69835   -87216   -67853   -30790 
  -14204   -16221   -13944    -4143    -1001    -8884   -11079    23244 
   90084   114480    49084   -61030  -153526  -182417  -131980   -40396 
   47575    96412    67381   -16699   -64305   -40236    -7396    -9366 
  -14696    12599    81675   172710   207334   121605   -28914  -136863 
 -168743  -153454   -85780    55359   210259   290046   263406   140940 
  -34064  -202398  -312812  -322991  -233809   -84840    91438   239518 
  285489   225552   124569    20048  -120941  -285431  -343091  -240625 
  -80735    71050   207712   264955   193623    59803   -43113  -113842 
 -173524  -182137  -141893   -85236    35073   193737   240939   146404 
   25123   -39189   -79394  -163062  -213578  -140518   -19805    83982 
  162318   180485   145335    90684    15966   -96904  -212218  -226578 
 -116131    22194   117263   157993   138892    82389    45053    19093 
  -70390  -179498  -175968   -64899    61531   149850   162722   100453 
   15230   -31656   -33790   -52285   -94397   -97966   -44899    31077 
   82977    79771    30912   -25088   -46710   -36323   -33161   -35619 
  -16702    14515    34443    34709    29695    35500    27837   -21433 
  -75046   -69919   -12714    32846    38564    27263     7303   -28671 
  -40016     4957    46961    36267     1671   -34110   -65394   -67446 
  -37655     3049    41647    59451    49989    34533     5404   -61788 
 -115568   -84558     1857    67413    87548    75972    31711   -39181 
  -77616   -56639   -36896   -42620   -29228    15574    68980    93285 
   45744   -32476   -62044   -64754   -69196   -29083    42094    80335 
   78611    44459    -1929   -16258   -18408   -46352   -62768   -36981 
    6637    39634    37269      805   -28867   -27861   -10517     4029 
   12521    15249     5459   -10210   -12744     1113    16410    20387 
    9413   -14894   -31143   -13032    24610    39799    11286   -40154 
  -64146   -43769   -17132     5171    43139    61539    24082   -29484 
  -49072   -27880     2281     7533     5794    19568    21300      437 
  -18134   -34026   -48398   -36458      488    34597    58608    63767 
   32475   -15834   -51440   -67252   -61758   -44151    -5984    64805 
  113228    85977     9329   -60274   -88024   -76905   -37454    23947 
   78792   105405    83339     -319   -79296   -95899   -91774   -81796 
  -28687    44586    97263   118949    85125     8078   -46575   -62556 
  -70437   -68449   -37521    17818    72187    86155    43175   -17928 
  -52324   -58976   -60291   -50188    -9501    28366    29394    18366 
   21292    36220    42789    22445   -17856   -58838   -72736   -49435 
  -20187     3948    35981    50519    29407     7088     3306    -3092 
  -25959   -54310   -61303   -31754     8333    32445    49896    51705 
   13730   -23033    -9930    10227    -9490   -34700   -30613    -7109 
   21617    34923    24308    12046    -6454   -37481   -41609   -19649 
  -14563   -20711   -10189    17331    34524    19549     6156    25546 
   34074     -325   -32946   -32090   -25442   -30807   -29189    -5730 
   21618    24084    12764    13718     9784   -19566   -50608   -45777 
   -7464    17128    10466     3562    10606    26576    39379    26952 
   -2983   -30510   -51363   -42537    -7473     4176    -7956    -8696 
    4747    22221    24806     -895   -28367   -23372     9805    29068 
   12178   -12025   -25567   -35262   -26771     7655    38851    41908 
   22026      940     -764     6286    -8225   -36007   -42438   -19267 
   10678    19302    10258     7628    10147     7285     -367   -14764 
  -24073    -7528    15850     9819    -5597     5593    15156    -1869 
  -14528   -11407      319    19915    17594    -9872   -22011   -18993 
  -15620    -3183     6624       95    -4291     8999    20097     3874 
  -22608   -30217   -22045    -7568     8233    17481    19288     9660 
   -8946   -16541   -10152    -3943    -5104   -13687   -13140     6130 
   20016    14187     2242    -8738   -20436   -21467    -2949     6185 
  -16110   -30002    -5296    25141    31137    21693    10093    -8664 
  -36317   -45890   -19113    12353    16634     8746     9860    12108 
    5086    -6111   -17284   -26640   -23490     -972    26705    38480 
   27599     3443   -14305   -19140   -21474   -14366      278    -6494 
  -19838    -7230     9526    13803    15002     7246    -3812    -8869 
  -15217   -11292     5935     7350    -5544    -5236     4888    12703 
   21747    23004     2718   -27021   -50252   -57642   -35791     -922 
   19461    38803    65529    66341    19500   -43534   -73897   -69242 
  -51208   -16869    27210    58245    63254    32225   -11709   -28336 
  -34734   -51170   -42959    -7443    13061    13732     9728     2529 
    3958    18199    17971    -8653   -25223   -13200   -10080   -27915 
  -29679    -5235    24251    48270    58525    41616     -129   -44053 
  -72198   -77751   -48107     7535    47356    56635    52077    37206 
    7030   -36624   -73842   -72453   -36595      675    34501    65353 
   68480    42700    13649   -20472   -63840   -81569   -51838    -1991 
   37077    56864    54317    32756     5787   -22081   -49226   -55266 
  -30186     4045    30955    46596    36265      912   -31315   -39532 
  -24749   -10736   -11418    -5097    13392    23662    22759    12506 
   -7978   -26994   -30701   -16174     5593    17803    15349    10046 
   10714     5343   -13151   -24722   -18108    -8819    -5433    -2169 
    5869    19476    24713     8206   -13967   -24482   -27338   -22844 
   -7892    10646    22954    18662     1013    -9020    -7341    -9693 
  -21861   -28782   -10639    22887    44321    45478    26692   -11221 
  -52099   -69674   -49983    -7044    31027    47668    38601     6986 
  -26644   -39588   -35218   -21799     1198    22611    34392    34080 
   16479    -2326   -12638   -29685   -44452   -35050    -5772    24749 
   36097    23507     4625    -8244   -15877   -19299   -14376      199 
    7125    -5455   -16197    -5942    14787    22358     3777   -21000 
  -24794   -15622    -7678     5082    15650     7497    -5296     -607 
   12606    13339    -6659   -29918   -26599    -7974    -5402    -7213 
    5386    16750    14989    13852    16958     7404   -15608   -36381 
  -40614   -18990     9421    17591    14478    15988    18848    12650 
