Origin Time       2024/04/02 04:24:00
Lat.              40.133
Long.             141.712
Depth. (km)       71
Mag.              6.0
Station Code      IWTH03
Station Lat.      39.8020
Station Long.     141.6520
Station Height(m) 310
Record Time       2024/04/02 04:24:49
Sampling Freq(Hz) 100Hz
Duration Time(s)  131
Dir.              6
Scale Factor      7845(gal)/8223790
Max. Acc. (gal)   168.036
Last Correction   2024/04/02 04:24:49
Memo.             
[...]
   -8835    -8834    -8849    -8837    -8826    -8847    -8843    -8829 
   -8843    -8839    -8833    -8847    -8838    -8830    -8845    -8841 
   -8837    -8839    -8835    -8839    -8843    -8841    -8837    -8838 
   -8847    -8839    -8834    -8843    -8838    -8843    -8845    -8830 
   -8843    -8843    -8826    -8843    -8845    -8827    -8838    -8843 
   -8835    -8838    -8846    -8838    -8831    -8841    -8838    -8837 
   -8845    -8835    -8838    -8847    -8833    -8839    -8847    -8831 
   -8841    -8847    -8830    -8835    -8843    -8833    -8835    -8843 
   -8841    -8833    -8834    -8839    -8835    -8842    -8846    -8831 
   -8838    -8843    -8837    -8845    -8834    -8831    -8854    -8837 
   -8826    -8847    -8841    -8834    -8843    -8837    -8834    -8843 
   -8842    -8837    -8841    -8843    -8835    -8839    -8842    -8834 
   -8843    -8845    -8834    -8846    -8842    -8831    -8847    -8842 
   -8829    -8841    -8845    -8841    -8839    -8839    -8838    -8842 
   -8850    -8837    -8831    -8843    -8838    -8841    -8845    -8829 
   -8838    -8849    -8830    -8835    -8846    -8838    -8845    -8841 
   -8829    -8841    -8850    -8839    -8833    -8846    -8846    -8830 
   -8843    -8849    -8829    -8839    -8846    -8831    -8838    -8839 
   -8838    -8846    -8837    -8841    -8849    -8835    -8834    -8843 
   -8838    -8837    -8845    -8843    -8831    -8838    -8839    -8834 
   -8851    -8841    -8820    -8849    -8847    -8827    -8847    -8839 
   -8826    -8849    -8842    -8824    -8839    -8845    -8835    -8841 
   -8843    -8833    -8842    -8854    -8831    -8830    -8850    -8839 
   -8835    -8842    -8838    -8845    -8843    -8833    -8841    -8837 
   -8833    -8851    -8847    -8826    -8833    -8847    -8838    -8834 
   -8849    -8838    -8827    -8847    -8841    -8829    -8847    -8841 
   -8833    -8842    -8833    -8837    -8850    -8839    -8830    -8837 
   -8842    -8841    -8842    -8843    -8834    -8838    -8843    -8831 
   -8842    -8846    -8830    -8843    -8847    -8833    -8839    -8841 
   -8837    -8846    -8839    -8831    -8843    -8846    -8837    -8841 
   -8841    -8837    -8842    -8843    -8837    -8841    -8841    -8831 
   -8838    -8842    -8831    -8841    -8846    -8835    -8837    -8842 
   -8839    -8838    -8837    -8841    -8843    -8842    -8839    -8835 
   -8841    -8842    -8838    -8842    -8834    -8834    -8847    -8831 
   -8831    -8854    -8834    -8827    -8851    -8839    -8833    -8839 
   -8837    -8843    -8849    -8837    -8826    -8841    -8851    -8834 
   -8833    -8841    -8837    -8849    -8839    -8827    -8846    -8842 
   -8831    -8842    -8838    -8837    -8845    -8838    -8837    -8842 
   -8837    -8834    -8843    -8842    -8830    -8838    -8850    -8833 
   -8833    -8847    -8835    -8837    -8845    -8833    -8843    -8850 
   -8827    -8833    -8849    -8841    -8834    -8838    -8839    -8839 
   -8842    -8837    -8834    -8843    -8838    -8834    -8845    -8833 
   -8833    -8850    -8834    -8829    -8846    -8835    -8838    -8846 
   -8830    -8835    -8846    -8835    -8835    -8841    -8837    -8837 
   -8843    -8838    -8833    -8850    -8847    -8826    -8837    -8846 
   -8837    -8842    -8845    -8838    -8838    -8837    -8842    -8843 
   -8838    -8837    -8837    -8843    -8843    -8835    -8841    -8841 
   -8847    -8847    -8823    -8839    -8857    -8829    -8835    -8849 
   -8831    -8839    -8843    -8835    -8843    -8843    -8835    -8839 
   -8842    -8837    -8837    -8846    -8841    -8833    -8846    -8839 
   -8831    -8849    -8839    -8833    -8847    -8838    -8839    -8849 
   -8834    -8835    -8850    -8839    -8830    -8842    -8845    -8830 
   -8838    -8847    -8830    -8838    -8849    -8830    -8838    -8843 
   -8831    -8846    -8845    -8831    -8845    -8842    -8830    -8839 
   -8842    -8839    -8841    -8842    -8834    -8835    -8850    -8841 
   -8833    -8851    -8845    -8835    -8845    -8830    -8834    -8856 
   -8837    -8830    -8850    -8842    -8833    -8841    -8838    -8841 
   -8850    -8831    -8823    -8847    -8845    -8831    -8850    -8845 
   -8834    -8850    -8834    -8830    -8858    -8841    -8830    -8843 
   -8835    -8842    -8846    -8831    -8835    -8830    -8787    -8681 
   -8460    -8075    -7527    -7064    -7304    -8694   -10432   -10741 
   -9055    -7797   -10336   -14052   -11843    -6241    -6903   -13266 
  -16977   -11813      666     5447    -5806   -17003   -14555    -6812 
   -5628   -10658   -14821   -15175   -12137    -8145   -10612   -14403 
   -1830    15107     8031   -14890   -26728   -19093    -5039     -943 
   -7265   -19587   -26514   -12016     7182     1586   -16433   -10255 
   15919    16900   -18034   -43078   -24938     9790    16563   -14145 
  -46677   -29262    21833    28501   -19782   -48482   -13606    34155 
   25463   -28946   -59559   -29654    16941    21261    -9398   -29461 
  -21182    -4139     4525      517   -16513   -25525    -9714     9718 
    8554    -4864   -14350   -28165   -38604   -14774    23171    25255 
  -10049   -34738   -14283    13969    -1223   -31904   -24645      392 
    2435    -5350   -16777   -39892   -39399     4353    43939    34608 
   -1028   -23747   -38344   -40306   -12289    14998     4729   -27580 
  -30006     6768    21710   -15240   -51443   -26836    33031    43067 
   -9335   -55335   -46631     -159    25714     7387   -17928   -22913 
  -13622     3948     9211   -21729   -54139   -33901    22079    41175 
   -4514   -45985   -29357    -3200   -11389   -27576   -19570     4162 
   15340     2521   -19164   -15858    15106    25409    -8005   -44415 
  -42691   -11952    11871     4706   -16542   -11265     9155     3897 
  -15121   -20271   -10493     4334     2639   -20359   -34546   -24391 
   -7510     5867    12992     -454   -18357    -7250     6532   -13622 
  -38884   -35019   -14775      341     8302     7138   -10096   -32096 
  -31256    -3774    14323     7534     1289    -3692   -24688   -43765 
  -24273    20069    26917    -1899   -12363    -4160    -8560   -28715 
  -34449   -12314    14928    22943    -3555   -42236   -49769   -18179 
   22370    20777   -16965   -21752     5427     9736    -6119   -15911 
  -19159   -15890    -8796    -8527   -10292    -5881    -4988   -10739 
   -9699    -2250    -2014   -10192   -18018   -16571      -60    12962 
   -5605   -32791   -24651     2795    11335      -76   -18592   -26906 
  -13606     1202    -7967   -29409   -23708     5927    17217     2627 
  -21065   -30901   -17051    -7276    -6849    -2648    -7896   -16815 
   -7103    10412     7379   -14023   -21281    -7531     1255    -7395 
  -17945   -13917    -6524    -6362    -5498   -13543   -31931   -23464 
   14289    23117   -12808   -38658   -19391    16907    16492   -20155 
  -38466   -19543     8210     7913   -23415   -37863   -13714    12669 
    9417   -16518   -23580     2057    13477    -8579   -29843   -25947 
   -6712     4205     2511    -7948   -22287   -20703    -1271     9788 
    -741   -16100   -23357   -22485    -1931    19371     -147   -34716 
  -35521    -8969    15095    12803   -12123   -24678   -11037     3389 
   -4325   -20794   -17594     1815     5181   -17089   -32736   -17455 
    9147    13354   -10165   -29793   -19295      -49    -4945   -17972 
   -9652     5957     7029    -4676   -17328   -15294    -5116    -7763 
  -12140    -6891   -10902   -21610   -12629     2729    -7152   -23507 
  -17663    -1372     9416     6763   -13270   -28660   -19973    -3669 
   -1912   -13618   -15346     -780     -414   -16235   -13994      845 
     110   -11522   -19425   -14253     4428     7285   -18289   -28966 
   -7846     1884    -9624   -12711    -6826    -3451    -3418   -16141 
  -33272   -19753    12091    10750   -13724   -13895     1514    -1526 
  -17127   -23182   -10507     4654    -8542   -28458   -15638    -1582 
  -12232   -14542    -3708    -4791   -11550    -6231     2651     -978 
  -11990   -17674   -11551    -1509    -3595    -8014    -5509    -9844 
  -15626   -13694   -13734   -13741    -6077      373    -6642   -18589 
  -12650     6372     7171   -15458   -29187    -9798    15491     6199 
  -21251   -28370   -13734     2929     2916   -15950   -25655   -10085 
    5298     3616   -10060   -25517   -17583    11221    16664   -11699 
  -31791   -17756     2843    -3874   -20910   -14436    -2496   -13601 
  -21207    -4657     1938   -14366   -19629    -4926     6674       62 
  -18774   -22685    -8158    -3597   -11018   -15584    -9763    10805 
   20792    -6612   -40371   -35750    -5533    10150     1579   -17080 
  -28617   -22658    -8743     -888     -472    -5737   -11392   -14202 
  -14149    -4943     2315    -8874   -19931   -12117      112     -900 
  -11076   -12679    -3902    -2258   -11199   -16220   -12355    -7519 
   -3416     3735     1703   -22481   -36289    -8271    16291    -4811 
  -34958   -34472   -11700     9269    15234     6984    -8012   -23301 
  -28402   -10678    13965    13115    -8391   -22223   -19827   -10277 
   -5815    -7550    -5773    -2941    -6906   -11736   -11732   -10612 
  -10363   -10972   -11153    -6663     -558     3122     -383   -21649 
  -35392   -12798     7850      364    -6359    -3366    -6270   -19442 
  -25778   -13513    -2933    -4892    -2605     2199    -8880   -21802 
  -13863    -1921    -5382   -12383    -8650    -2401    -7739   -14314 
   -8029    -8290   -23373   -17011    12854    16301   -14793   -36080 
  -26723    -9489    -5139    -6768     -970     7782     3632   -14393 
  -27490   -20981    -2479     4787    -7219   -14650    -5136    -3451 
  -18219   -21192     -495    14612     -984   -25239   -23959    -6259 
   -4666   -19861   -24113    -8603     9933    14021     2016   -12199 
  -22369   -26065   -21297   -19986   -12060    12811    16063   -12268 
  -27649   -15600    -2555    -5684   -11295    -5449     1938    -1351 
  -17390   -27499   -13382     2342    -3785   -18189   -19178    -5355 
    6708     5427    -9158   -24806   -21613    -4689    -3049   -18480 
  -19696     -893     9211     -625   -15464   -18688   -11462   -10381 
  -12467    -6462    -2943    -5518    -4958    -7493   -20995   -27630 
   -7187    16019     5995   -19349   -23139    -8220    -3096   -14296 
  -14939    -1320       56    -7755   -10948   -15303   -16582    -9073 
   -5263    -7823    -5447     1262     4379    -3069   -21219   -28838 
   -7788    15367     -209   -31213   -25242     1460     5954   -11774 
  -27849   -18341     9702    16559   -11871   -36252   -20459     9256 
   12592   -11742   -38013   -29583     8283    22254    -1312   -24872 
  -25888   -11815    -1136    -7396   -16325    -6663     6304      603 
  -11160   -14527   -17888   -21694   -15192     2232    16290     3234 
  -27133   -31932    -8953     6474    -2065   -21602   -20981     4216 
   10269   -19797   -40446   -21207     5213     4653    -3808     -498 
   -5004   -18771   -19390   -13933   -12542    -1927    10908     -557 
  -25208   -21402     7234     9416   -20907   -28942     -180    18215 
    2938   -23022   -30342   -16804    -2304     3381    -5166   -19267 
  -10081    12621     6835   -25559   -38047   -12893     7341    -7834 
  -19966    -1765     6820   -10326   -17064   -11761   -14662   -12695 
   -1186      -10   -10102   -12236    -6755   -11458   -14995    -5412 
   -9432   -25257   -12398    14948    10616    -8959   -13751   -14219 
  -11199      612     5262    -3581   -14173   -18976   -15403    -8151 
   -8326   -15061   -15295    -2266     8446     -693   -20167   -32050 
  -22482     4050     9281   -14887   -21712    -1422      129   -19249 
  -16699      -98    -2925   -14272   -12931    -3159    -4175   -17702 
  -14481     7415     7734   -20947   -31095      341    20480   -10027 
  -42325   -34889   -11146    12699    20999   -13738   -51930   -30616 
   22202    29446   -17232   -47136   -19449    22303    19839   -25540 
  -47726   -10746    27905    16308   -22161   -39897   -16430    13000 
     322   -29245   -19292    14391    14690   -16173   -32445   -22871 
   -1894    13771     2378   -24062   -26434    -7325     4014     4549 
   -3515   -22445   -28135    -6582    11060     5724   -15758   -37320 
  -24594     9440     9987   -10195   -12816   -10145   -12487   -11307 
   -7025    -2130     4221     8718    -2070   -25010   -31962   -19502 
  -11588   -13425   -10062      270     3993     -884    -6671   -13536 
  -21266   -16661     5709    20896     7944   -17810   -29932   -21313 
   -9189    -9887   -12837    -4534     7091     7620    -6231   -14739 
   -6412     3273     8827    -3713   -40117   -51526   -21797    -1583 
  -10678   -20109    -8268    11858    10862   -12978   -37255   -39777 
   -9810    25745    29170      600   -23391    -5719    29520    17918 
  -37767   -64403   -25573    24335     9428   -42076   -29358    31533 
   30225   -42022   -89991   -50171    16937     5360   -43043   -20920 
   27317    14678   -28985   -39453    -2743    37022    20517   -23512 
  -20609     5431     2335    -1374    11510    11619     -531    -5215 
    -656    -2706   -21793   -42388   -50056   -31731     1499    -7761 
  -45765   -36825     5637    25208    14806   -13400   -45829   -64860 
  -55418   -13903    31133    36861    15083    12154    17571    24760 
   53624    39807   -37798   -71383   -37407     1394    28926    20745 
  -21614   -20656    29066    51722    15458   -80981  -184989  -167622 
    -932   130462    68075   -55656   -59972     3362    58841    75312 
  -16318  -125304   -84701    48223    99585    23842   -45580    -8959 
   36737    24499    -9323   -53798   -71250   -45320   -19242     4149 
   21297     5548   -26804   -26056    18249    28502   -38034   -97532 
  -74568     8428    67072    43694   -16946   -34358     6955    47008 
   15552   -66681  -102505   -50722    36502    70441    12789   -35680 
    5944    29328   -22383   -55213   -40914    -4460    26970     9150 
  -26119   -26083   -12961   -13710   -31656   -48205   -25043    11264 
   11084     8201    25290    23785     1200   -25338   -46550   -35121 
   -4179     5309      166     9709    32035    18338   -51987   -95466 
  -35275    53674    51341   -12510   -39141   -17581    14952    20013 
  -19053   -55729   -43166    -2004    23511    18091    -1540    -9948 
   -2758     2218    -9945   -32009   -35654   -15504     -846     7952 
   18547     9121    -6975    -3732     -642   -20313   -49261   -44608 
   -4679    14943     1964   -11746   -15646   -15462   -20428   -23680 
   -8654     6737     3596    -1699      616     2747    -4669   -22962 
  -35883   -27454    -2569    12040     3280    -6251    -5844   -12546 
  -25347   -26757   -22901   -23301   -11088    12548    18103     1364 
  -15840    -7221    24494    21132   -30411   -55671   -24710    15283 
   26954     8376   -20854   -34001   -25645   -21286   -31918   -25285 
    5634    11670   -13733   -15981     3983    -9998   -50345   -50484 
    -715    35569    27807    10305     4245    -3635   -23048   -41370 
  -33632    -4499    14708    15916     8621     -985    -5860   -14671 
  -38516   -55005   -35649     9807    31865     5555   -16668     4938 
   25721     4414   -37605   -58006   -32809    13008    22292    -3811 
  -13011     -167     5490    -6705   -30732   -38317   -14759     4703 
    -237   -10085   -15562   -15641   -10659    -8784   -10481   -11704 
  -11333    -4941     3883    -5773   -29332   -29868    -5232    10039 
    -652   -16575   -14823    -4800     1625     2041   -11317   -30395 
  -28027    -1289    11369     -949    -4085     1665    -2412    -8974 
  -19062   -30933   -22200     2862     7951    -8437   -10376    -3339 
  -16009   -29749   -20726    -2727     8329     5844    -9985   -17631 
  -11121   -15195   -22284   -11916     -433     3996     5468    -1502 
   -6835    -4450    -6384   -10436   -10551    -8112      803     7051 
    2683     1958     -309   -15693   -28462   -34018   -34121   -18139 
    3524     9212     2824    -2242   -13930   -32190   -32197   -14442 
   -1946     2061     6127    11299    12611     6038   -12312   -34923 
  -36440   -13960     3279     3487    -3497    -7268     -193     1614 
  -14056   -28475   -36073   -32996    -8989     9094     1317    -8155 
   -8384   -11283   -13643   -12312   -15481   -20386   -17433    -3230 
   12314    11560    -3859   -18306   -22056   -12449     1640     6743 
    -537    -6952    -4401    -7360   -16769   -17189    -9695    -5751 
   -8714    -9371    -6193    -5625    -3339    -3696   -15047   -23664 
  -15433    -2524    -3231    -7792     -805     5053    -2670   -16163 
  -27367   -32377   -26357   -12630      658     8424      117   -17759 
  -19818    -9127     3485    15331     5760   -23052   -39220   -30778 
   -8968     6076     2282    -7068    -4314     1402    -5483   -22979 
  -38356   -31160    -6843     1687    -5067    -2710     9394    14692 
    -969   -35279   -56417   -36849     -828    13670     7674     1096 
    5764    12441    -1075   -34221   -58878   -45958     -490    31183 
   18034    -8884    -6666     7599     2583   -18885   -49678   -58688 
  -18686    28845    35032     7352   -12444    -8391    -3581   -10589 
  -23450   -25559    -8680     6559     7885       58   -13144   -26341 
  -29752   -13518     6075     4108    -7731    -7468    -1170    -3535 
  -14715   -28242   -30701   -11990     6592      -14   -21292   -28547 
   -9325     9261    -2662   -22563   -22779    -9815     7562    10570 
   -8712   -14770    -3011    -6848   -17590   -19561   -17443     -691 
   19727    11523   -16086   -30385   -24178    -8289     1561    -7125 
  -15857    -1105    13324     1398   -19967   -28433   -13753     7419 
    1910   -12480    -7696    -5003   -12515   -15421   -11009     1736 
   10123      546   -11754   -14689   -13478   -10667   -11333   -15595 
  -11007      764     -210   -18837   -26983    -4845    14018    -2431 
  -25049   -19159    -2843    -6131   -16318   -11867    -4475    -3542 
   -6284   -18185   -26790   -14419    -2111    -7882    -9852    -1138 
   -3165   -15221   -23186   -22343    -7252     6675    -5429   -22777 
  -14532     2083     -618   -17030   -25747   -20402    -7414     6451 
    9375    -3937   -17429   -16707   -11014   -12046   -14335   -10069 
   -2562     2041     1796    -4333    -9761   -12733   -23935   -28398 
  -10548     3121      288    -1601      889     3942      -86   -15105 
  -21147    -8985     2492     2361    -3001    -7924    -9481    -8183 
  -11252   -17693   -16281    -4935     1898    -5402   -12334    -9288 
   -9678   -16353   -15768    -9005    -5644    -2828    -2879   -14148 
  -23264   -15912    -4680    -3469   -11496   -17197    -6426     8812 
    1277   -22238   -30194   -16575    -5186   -10064   -16113    -9113 
     275     -182    -7971   -17405   -20088   -10778    -2594    -6222 
   -8789    -1918      769    -8648   -20121   -22527   -13780    -2254 
    3057     2907    -2381   -12272   -14864    -6623    -1269    -7335 
  -18353   -15755     3242     9477    -8741   -23761   -16571     -465 
    3196    -8712   -18852   -13895    -1605     2830    -3222   -12289 
  -19097   -19260   -12604    -5529    -3485    -7011    -7886    -3555 
