Origin Time       2024/04/02 04:24:00
Lat.              40.133
Long.             141.712
Depth. (km)       71
Mag.              6.0
Station Code      IWTH26
Station Lat.      38.9690
Station Long.     141.0013
Station Height(m) 125
Record Time       2024/04/02 04:25:00
Sampling Freq(Hz) 100Hz
Duration Time(s)  188
Dir.              5
Scale Factor      7845(gal)/8223790
Max. Acc. (gal)   39.597
Last Correction   2024/04/02 04:25:00
Memo.             
[...]
  -12837   -12621   -14771   -18773   -22869   -24333   -22453   -19318 
  -16329   -13076   -10170    -9355   -11296   -15612   -21217   -25963 
  -27853   -26327   -21911   -15952   -10678    -8071    -8997   -13562 
  -20251   -25845   -28278   -27298   -22893   -16492   -11375    -9165 
   -9028   -10887   -15319   -21008   -25141   -25735   -23193   -19252 
  -15021   -11641   -10822   -13257   -17814   -22171   -24394   -24225 
  -22293   -19305   -16173   -13848   -13248   -14828   -17940   -21435 
  -24206   -25276   -23986   -20127   -14897   -10883    -9429   -10212 
  -13317   -18393   -23094   -24935   -23816   -21620   -19391   -16397 
  -13042   -11909   -13994   -16968   -18678   -19525   -20418   -20758 
  -19770   -18199   -17270   -17239   -17625   -17795   -17331   -16216 
  -14859   -14331   -15282   -16764   -17941   -19079   -19989   -20011 
  -19016   -17307   -15773   -15620   -16852   -18260   -18891   -18559 
  -17946   -18006   -18557   -18825   -18851   -19109   -19641   -19610 
  -17898   -15055   -13282   -13657   -15071   -16384   -17822   -19645 
  -21115   -21181   -19630   -17620   -16237   -15093   -13914   -13725 
  -15076   -17355   -19913   -21992   -22604   -21388   -18908   -16368 
  -14643   -13840   -14293   -16526   -20025   -22840   -22967   -20602 
  -17416   -14543   -13147   -14083   -16542   -19300   -21536   -22237 
  -21004   -18616   -16108   -14266   -13420   -13729   -16043   -20468 
  -24637   -25752   -23275   -18874   -14604   -11678   -11061   -13274 
  -16941   -19969   -21679   -21952   -20590   -18312   -16221   -14998 
  -15484   -17901   -20642   -22054   -21822   -19622   -15523   -11477 
  -10031   -12183   -16852   -22059   -26227   -28181   -27261   -23652 
  -18133   -12294    -8337    -7777   -10478   -14901   -19541   -23529 
  -25633   -24787   -21504   -17316   -13620   -11468   -11635   -14231 
  -18017   -20937   -22086   -21930   -20656   -18381   -16183   -15014 
  -14963   -15813   -17026   -18152   -19342   -20328   -20401   -19697 
  -18690   -17343   -16185   -16529   -18454   -19974   -19236   -16623 
  -13915   -12425   -12785   -14820   -17200   -18630   -18804   -18338 
  -18135   -17988   -17088   -15866   -15415   -16221   -18208   -20345 
  -20916   -19747   -18454   -17980   -17860   -17510   -17149   -17581 
  -19078   -20752   -21340   -20474   -18813   -17174   -16117   -15726 
  -15834   -17001   -19867   -23403   -25208   -23625   -19359   -14951 
  -12456   -12015   -12654   -13849   -15816   -18247   -19917   -20086 
  -18936   -17220   -16397   -17128   -18230   -18852   -19381   -19751 
  -19403   -18349   -17092   -16096   -15527   -15435   -16073   -17671 
  -19893   -21590   -21671   -20391   -18978   -18237   -18137   -18126 
  -17764   -17028   -16200   -16065   -16849   -17109   -16046   -15256 
  -16252   -18295   -19774   -19986   -19149   -18152   -17830   -17837 
  -17523   -17316   -17662   -18056   -18034   -17481   -16432   -15728 
  -16452   -18266   -19539   -19164   -17570   -15757   -14472   -14107 
  -14341   -15060   -16730   -18918   -20515   -20999   -20598   -19985 
  -19198   -17691   -15994   -15496   -16777   -19059   -20919   -21389 
  -20048   -17103   -14256   -13640   -15168   -16853   -17944   -19458 
  -21311   -21645   -19473   -15981   -13242   -12484   -13825   -16825 
  -20032   -21667   -21816   -21621   -20997   -19360   -17266   -16005 
  -16208   -17348   -18642   -19649   -19912   -19491   -19311   -19618 
  -19327   -17782   -16073   -15591   -16154   -17037   -18127   -18894 
  -18589   -17597   -16954   -17101   -17772   -18551   -19089   -19095 
  -18636   -18162   -17988   -17780   -16825   -15186   -14145   -14825 
  -16791   -18770   -20151   -20742   -20078   -18341   -16683   -15768 
  -15539   -16345   -18364   -20611   -21843   -21566   -20317   -19039 
  -17767   -16270   -15124   -14666   -14841   -15981   -17874   -19307 
  -19435   -18697   -17791   -16537   -14974   -14061   -14347   -15739 
  -17923   -19851   -20603   -20205   -18881   -17408   -16858   -16964 
  -17069   -17776   -19720   -21832   -22242   -20596   -18044   -15607 
  -14046   -13753   -14507   -16077   -17967   -19307   -19772   -19480 
  -18607   -17517   -16669   -16393   -16475   -16397   -16448   -17273 
  -18561   -19469   -19668   -19425   -18989   -18349   -17809   -17722 
  -17737   -17609   -17689   -17705   -17041   -16208   -16058   -16644 
  -17755   -18890   -19255   -18895   -18441   -17983   -17437   -17147 
  -17348   -17494   -17285   -17543   -18584   -19569   -19795   -19117 
  -17906   -16757   -16270   -17122   -18995   -20416   -20505   -19681 
  -18910   -18584   -18227   -17586   -16903   -16325   -16094   -16540 
  -17606   -18850   -19630   -19483   -18666   -17724   -16425   -14424 
  -12708   -12645   -14347   -17041   -19830   -21843   -22019   -19587 
  -15684   -13186   -13666   -15838   -17778   -19399   -21294   -22524 
  -21880   -19959   -18171   -17130   -16794   -17068   -17899   -18667 
  -18341   -17315   -17251   -18343   -19348   -19765   -19654   -18671 
  -16545   -13775   -11773   -11805   -13738   -16486   -19145   -21405 
  -22867   -22635   -20777   -18732   -17370   -16587   -16505   -17408 
  -18873   -19715   -19244   -18046   -16916   -15962   -15275   -15361 
  -16340   -17648   -18989   -20336   -21339   -21759   -21492   -19994 
  -17192   -14547   -13616   -14249   -15530   -17134   -18904   -20493 
  -21458   -21238   -19606   -16992   -14338   -12815   -13157   -15105 
  -17809   -20395   -22091   -22414   -21303   -18993   -16393   -15114 
  -15857   -17577   -18891   -19093   -18266   -17182   -16299   -15465 
  -14922   -15165   -16166   -17648   -19221   -20175   -20131   -19403 
  -18461   -17606   -16943   -16614   -16965   -17907   -18808   -19399 
  -19816   -19822   -18993   -17544   -16376   -16256   -16950   -17720 
  -18604   -19620   -19684   -18200   -15865   -13657   -12827   -14145 
  -16750   -19192   -20448   -20012   -18495   -17049   -16141   -15835 
  -16245   -17378   -18890   -19884   -19707   -18721   -17506   -16254 
  -15219   -14908   -15817   -18058   -20888   -22874   -22898   -20927 
  -17899   -15226   -14138   -14845   -16430   -17987   -19449   -20784 
  -21177   -19865   -17338   -15130   -14597   -15893   -18003   -19888 
  -20995   -20903   -19688   -18014   -16294   -14790   -14137   -14688 
  -16123   -17949   -19557   -20417   -20578   -20054   -18555   -16606 
  -15348   -15255   -16433   -18814   -21482   -23390   -23954   -22464 
  -18952   -15165   -13031   -13057   -14717   -17382   -20289   -22207 
  -22125   -20108   -16992   -13667   -11136   -10378   -11757   -14979 
  -19136   -22705   -24524   -24403   -22418   -18935   -15287   -12858 
  -12272   -13872   -17297   -21020   -23398   -23745   -22401   -19796 
  -16191   -12826   -11458   -12521   -15191   -18198   -20135   -20401 
  -19639   -18819   -18289   -17784   -17038   -16152   -15518   -15549 
  -16042   -16517   -17369   -19067   -20839   -21393   -20137   -17732 
  -15404   -13944   -13981   -15785   -18527   -21055   -22543   -22419 
  -20893   -18944   -17352   -16318   -16048   -16837   -18033   -18382 
  -17810   -17124   -16607   -16337   -16502   -16834   -17016   -17334 
  -17963   -18511   -18642   -18211   -17440   -17226   -18002   -18879 
  -19013   -18837   -18820   -18229   -16696   -15622   -16457   -18732 
  -20956   -22428   -23148   -22593   -20012   -16069   -12656   -11002 
  -11367   -13535   -16645   -19645   -21736   -22445   -21990   -20690 
  -18378   -15473   -13547   -13976   -16430   -19291   -21123   -21096 
  -19230   -16758   -14844   -13837   -14335   -16505   -18909   -20155 
  -20050   -18733   -16683   -15111   -15141   -16791   -19033   -20800 
  -21500   -20773   -18739   -16359   -14802   -14535   -15322   -16804 
  -18767   -20911   -22527   -22751   -21351   -18941   -16578   -15279 
  -15421   -16609   -17991   -18604   -18106   -16954   -15776   -15039 
  -14944   -15334   -16105   -17454   -19186   -20206   -19672   -18307 
  -17535   -17644   -18013   -18335   -18527   -18486   -18412   -18388 
  -18061   -17344   -16903   -17528   -19008   -20101   -19899   -18530 
  -16637   -14951   -14327   -14971   -15843   -16475   -17720   -19514 
  -20626   -20451   -19229   -17624   -16325   -15581   -15434   -16150 
  -17923   -19813   -20397   -20079   -19930   -19197   -17296   -15820 
  -16335   -18067   -19035   -18742   -18397   -18524   -18188   -16827 
  -15309   -14751   -15315   -16506   -17902   -19172   -19425   -17959 
  -16245   -16677   -19120   -21290   -21906   -21578   -20889   -19411 
  -17213   -15580   -15476   -16343   -16958   -17230   -17868   -18508 
  -18022   -16525   -15558   -16042   -17219   -18138   -18597   -18463 
  -17709   -16789   -16252   -16371   -16949   -17300   -17197   -17455 
  -18399   -19144   -19448   -20059   -20911   -21108   -20055   -17940 
  -16023   -15471   -16143   -17460   -18651   -18739   -17955   -17432 
  -17367   -17028   -15940   -14628   -14382   -15708   -17578   -19183 
  -20690   -21520   -20800   -19338   -18268   -17135   -15622   -15257 
  -17077   -19471   -20464   -20052   -18982   -17609   -16673   -17023 
  -18503   -20285   -21282   -20547   -18592   -16842   -15628   -14698 
  -14716   -16274   -18554   -20306   -21043   -20657   -19171   -17253 
  -16108   -16368   -17263   -17632   -17629   -17990   -18146   -17066 
  -15219   -14242   -14941   -16389   -17435   -17906   -17770   -17103 
  -16803   -17629   -19406   -21527   -23191   -23637   -22644   -20426 
  -17437   -14710   -13255   -13099   -13890   -15530   -17712   -19985 
  -21963   -22662   -21007   -17722   -14905   -13473   -12487   -11165 
  -10874   -13464   -17761   -20791   -21759   -21892   -21654   -20328 
  -17963   -15955   -15514   -16773   -18574   -19198   -18527   -17817 
  -17971   -19268   -20788   -20810   -18943   -16560   -15369   -15859 
  -16838   -17070   -16588   -15948   -15645   -16136   -17556   -19483 
  -21197   -21888   -20943   -18713   -16345   -14728   -14300   -15221 
  -17340   -20187   -22717   -23637   -22600   -20386   -17783   -15282 
  -13749   -14102   -16083   -18256   -19230   -18426   -16128   -13671 
  -13023   -14953   -18099   -20544   -21574   -21648   -20985   -18952 
  -15886   -13780   -13798   -15367   -17760   -20252   -21664   -21583 
  -20989   -20684   -20128   -18457   -16119   -14820   -15261   -15739 
  -15083   -15102   -17339   -20092   -21091   -20371   -19171   -18196 
  -17756   -17855   -17857   -17467   -17531   -18758   -20393   -20871 
  -19402   -16518   -13579   -11990   -12148   -13495   -15757   -18904 
  -22014   -23565   -22955   -20664   -17415   -14519   -13720   -15098 
  -16914   -18040   -18540   -18311   -17023   -15241   -14463   -15695 
  -18284   -20553   -21652   -21849   -20999   -18810   -16114   -14258 
  -14015   -15276   -17529   -20385   -22905   -23550   -21857   -19033 
  -16380   -14369   -13417   -14208   -16669   -19880   -23018   -25054 
  -24615   -21475   -17197   -14131   -13878   -15938   -18068   -18567 
  -17955   -17761   -18080   -17466   -15323   -13257   -13232   -15306 
  -17919   -19495   -19307   -17609   -15732   -15318   -16513   -17960 
  -18346   -17521   -16619   -16438   -16560   -16618   -16970   -17971 
  -18993   -18909   -17949   -17275   -17038   -16976   -17385   -18496 
  -20173   -21822   -22611   -22347   -21675   -21066   -20120   -18563 
  -16984   -15885   -15772   -17392   -19934   -21374   -21452   -21532 
  -22032   -22079   -21200   -19882   -18461   -17386   -17690   -19448 
  -21564   -22998   -23253   -22740   -21793   -19457   -15218   -10841 
   -8892    -9900   -12424   -15836   -19973   -22666   -21797   -18229 
  -14216   -11481   -11314   -14027   -18499   -22981   -25636   -25343 
  -22974   -20414   -18037   -15205   -12904   -12684   -13807   -14635 
  -15211   -16359   -18138   -19894   -20911   -21305   -21582   -21134 
  -19043   -15935   -13144   -10582    -7597    -5776    -7457   -11816 
  -16055   -18821   -20223   -20556   -19939   -18540   -17010   -16152 
  -16456   -18099   -20671   -22762   -22431   -18840   -13455    -8969 
   -7403    -9282   -13726   -19392   -24783   -27656   -26446   -22146 
  -17269   -13717   -12120   -12409   -13963   -15722   -17451   -19678 
  -22092   -23437   -22851   -21101   -19824   -19356   -18727   -17278 
  -15346   -13745   -13062   -13668   -15460   -17550   -19272   -20626 
  -21805   -23012   -23611   -21884   -16903   -10158    -4633    -2539 
   -4838   -11691   -21412   -30389   -35154   -33806   -26669   -16316 
   -6070      946     2022    -3334   -12506   -22192   -29366   -30408 
  -24305   -14596    -5258      961     1503    -4438   -15642   -30060 
  -43646   -50642   -48162   -38462   -25625   -13462    -5505    -3329 
   -6624   -14022   -22044   -27095   -28058   -24945   -18646   -12046 
   -8280    -8532   -12128   -17518   -23323   -28513   -31321   -29583 
  -23321   -15583    -9499    -5864    -4500    -5987   -10458   -15957 
  -20251   -23296   -25169   -24132   -20331   -17493   -17788   -18986 
  -17955   -14195    -9757    -6913    -6941   -10920   -19272   -29616 
  -37019   -37741   -32011   -22681   -12256    -2670     2420    -1120 
  -12920   -27743   -39494   -43102   -36076   -20463    -1949    12372 
   17140    12063      584   -13541   -26180   -33053   -32309   -25204 
  -15269    -7086    -3593    -5395   -12899   -25814   -40886   -53357 
  -59343   -55732   -41636   -21238    -2272     9413    12469     7645 
   -3171   -15847   -26754   -34971   -39815   -39592   -33507   -23071 
  -11766    -3927    -3111    -9903   -20830   -30123   -33210   -29281 
  -21848   -16077   -13641   -11646    -7688    -3426    -2249    -5204 
  -10261   -14754   -16947   -16069   -12398    -7222    -2880    -2004 
   -5555   -12145   -19156   -25118   -30427   -34591   -35734   -33062 
  -26967   -18515    -9841    -3504    -1849    -5755   -12876   -19195 
  -22141   -21586   -19383   -17682   -16981   -17026   -18160   -19680 
  -20316   -21446   -25304   -30551   -32732   -28447   -19394   -11589 
   -8598    -8800   -10122   -12555   -16525   -21782   -26919   -29573 
  -27572   -20587   -11577    -5175    -3991    -7512   -13737   -20880 
  -27677   -32614   -34304   -32713   -28912   -24561   -21586   -20655 
  -20498   -19722   -18276   -16638   -15099   -14447   -15403   -17251 
  -18369   -17730   -15624   -13390   -12114   -11661   -12063   -14489 
  -19070   -23647   -25504   -23206   -17319   -10207    -5517    -5888 
   -9779   -13721   -16935   -20521   -24756   -28128   -27869   -22967 
  -16260   -11785   -10912   -12455   -14771   -16193   -16051   -15153 
  -13432   -10459    -8058    -8695   -13416   -21807   -31621   -39487 
  -42457   -39263   -31220   -21146   -11380    -2983     3396     5863 
    2170    -7445   -19541   -28524   -29604   -22762   -13513    -8807 
  -10291   -13529   -14909   -15142   -17042   -21668   -26044   -26705 
  -23835   -20029   -17354   -16129   -15457   -14137   -12198   -11921 
  -14771   -18778   -21740   -24487   -28863   -33312   -33077   -25845 
  -14253    -2938     3778     2714    -6640   -21350   -36127   -45711 
  -47252   -40088   -25177    -6929     7319    11395     3735   -11321 
  -26688   -37187   -39448   -32063   -17988    -2673     8456     9971 
    -261   -18247   -37012   -49789   -51300   -41150   -24946    -9224 
    1660     4314    -2007   -14133   -27207   -35484   -34569   -25589 
  -13409    -1721     6512     7265    -1227   -15547   -29173   -35977 
  -33250   -23032   -10162      610     4985     -699   -15126   -31001 
  -41844   -44879   -38622   -24236    -7044     5964     9201     1431 
  -13398   -29207   -40693   -44459   -39572   -27781   -13227     -965 
    4533      989   -10044   -24332   -36956   -43143   -40886   -32319 
  -20637    -8608      -79     1848    -2413   -10539   -19569   -25620 
  -26518   -23811   -19942   -15770   -12027    -9726    -8689    -8151 
   -8487   -11103   -15986   -21073   -25186   -28529   -30319   -29192 
  -25008   -19028   -13455   -10396   -10385   -12089   -13437   -13505 
  -12953   -12850   -13963   -16258   -18771   -20648   -22111   -23666 
  -24669   -24355   -23117   -21184   -18681   -17113   -17999   -20619 
  -22648   -22454   -20326   -17691   -15365   -13063   -10447    -7901 
   -6389    -6755    -8923   -12058   -15498   -18696   -20513   -20376 
  -19448   -18774   -18067   -17676   -19048   -22311   -25832   -28073 
  -28065   -25212   -20444   -16024   -13433   -12945   -14157   -15751 
  -16665   -17312   -18283   -19494   -20538   -20375   -18061   -14430 
  -11502   -10189    -9609    -8989    -9684   -13671   -20320   -26507 
  -29127   -26916   -21332   -15599   -12611   -13370   -16515   -20304 
  -24389   -28463   -31032   -30370   -26003   -19676   -14526   -12501 
  -13189   -14739   -15318   -14507   -13609   -14134   -15534   -15354 
  -12807   -10816   -12876   -18368   -22773   -22948   -20218   -17624 
  -16372   -15732   -14628   -12906   -11882   -13428   -17734   -22306 
  -23895   -21509   -16800   -12046    -9181    -9683   -13508   -18746 
  -23207   -26019   -26974   -25614   -22638   -20305   -20468   -23399 
  -27931   -32341   -35137   -35001   -31545   -25830   -18921   -11573 
   -5331    -1827    -1548    -3863    -7315   -10115   -11758   -14281 
  -19905   -27341   -32827   -33604   -28983   -20744   -12478    -6882 
   -4846    -6513   -11365   -18038   -25265   -31857   -34948   -30983 
  -20304    -8436    -1175      133    -2552    -7570   -14064   -20916 
  -26765   -30306   -30981   -29488   -26914   -24352   -23043   -23112 
  -23182   -22349   -21135   -20094   -18351   -14526    -9261    -5375 
   -5269    -9325   -15919   -21991   -24333   -21502   -15358    -9643 
   -6351    -4945    -4727    -6428   -11267   -18848   -26333   -29764 
  -27095   -20340   -13818   -10905   -12475   -16746   -20795   -23044 
  -23352   -21297   -16775   -11697    -9288   -11407   -16449   -20769 
  -22194   -20576   -16626   -11998    -9197   -10085   -14269   -20142 
  -26705   -32309   -34060   -30219   -21874   -12514    -5791    -3608 
   -6637   -14269   -23321   -29046   -28204   -21469   -12823    -6031 
   -2768    -3663    -8665   -16031   -22563   -26260   -27187   -25176 
  -20541   -16204   -14958   -16945   -20926   -24831   -26088   -23576 
  -18739   -14211   -11558   -10952   -11932   -13587   -15670   -18994 
  -23033   -25552   -25467   -23498   -20764   -18127   -16166   -15237 
  -15128   -15291   -15905   -17332   -18744   -18736   -17119   -15387 
  -15157   -16502   -18408   -20065   -21142   -21362   -20283   -17902 
  -14881   -12032   -10192   -10234   -12760   -17001   -20668   -22599 
  -23494   -23460   -21960   -19341   -16519   -14509   -14148   -15061 
  -16075   -17404   -20016   -23052   -24899   -25022   -23202   -20204 
  -18581   -19734   -21976   -23249   -23206   -22223   -20646   -18688 
  -16634   -15488   -16071   -17695   -18808   -18370   -16193   -12800 
   -9493    -7628    -7233    -7423    -8306   -10700   -14149   -17140 
  -18576   -17834   -15043   -11792   -10156   -11179   -14501   -18789 
  -22859   -26163   -27864   -26967   -24165   -21829   -20827   -19454 
  -16885   -14908   -15587   -18909   -22603   -24262   -23584   -22042 
