Origin Time       2024/04/02 04:24:00
Lat.              40.133
Long.             141.712
Depth. (km)       71
Mag.              6.0
Station Code      IWTH02
Station Lat.      39.8250
Station Long.     141.3826
Station Height(m) 572.5
Record Time       2024/04/02 04:24:50
Sampling Freq(Hz) 100Hz
Duration Time(s)  137
Dir.              2
Scale Factor      2942(gal)/8224139
Max. Acc. (gal)   17.635
Last Correction   2024/04/02 04:24:50
Memo.             
[...]
  267629   267629   267629   267630   267630   267629   267630   267630 
  267629   267629   267630   267630   267629   267629   267630   267632 
  267633   267632   267630   267630   267630   267629   267630   267632 
  267632   267632   267630   267630   267630   267629   267630   267632 
  267630   267630   267629   267629   267630   267630   267629   267630 
  267630   267630   267630   267630   267632   267632   267629   267629 
  267633   267632   267629   267629   267630   267630   267630   267630 
  267630   267632   267630   267630   267630   267630   267629   267629 
  267629   267629   267630   267629   267630   267632   267630   267628 
  267630   267632   267629   267629   267628   267628   267630   267630 
  267628   267629   267630   267630   267630   267630   267630   267632 
  267630   267628   267629   267630   267632   267632   267630   267630 
  267630   267630   267630   267630   267629   267632   267633   267630 
  267628   267628   267630   267632   267630   267630   267629   267628 
  267630   267632   267632   267630   267630   267630   267630   267632 
  267633   267633   267632   267629   267630   267630   267630   267632 
  267633   267632   267630   267630   267632   267633   267632   267629 
  267628   267628   267629   267630   267630   267630   267630   267632 
  267632   267632   267630   267629   267630   267632   267632   267632 
  267632   267630   267630   267629   267629   267630   267630   267629 
  267628   267630   267630   267629   267630   267632   267632   267632 
  267632   267632   267629   267630   267632   267632   267629   267630 
  267632   267633   267632   267632   267632   267632   267632   267632 
  267629   267630   267630   267630   267629   267630   267633   267634 
  267633   267630   267629   267628   267628   267629   267629   267628 
  267630   267630   267626   267628   267629   267630   267632   267630 
  267632   267632   267629   267632   267633   267630   267630   267630 
  267630   267630   267628   267629   267632   267633   267633   267630 
  267632   267633   267630   267630   267632   267632   267630   267632 
  267633   267632   267629   267629   267632   267633   267632   267632 
  267633   267630   267628   267630   267633   267630   267630   267633 
  267630   267629   267630   267630   267630   267629   267630   267633 
  267632   267632   267633   267630   267630   267634   267634   267629 
  267629   267629   267628   267630   267633   267633   267632   267632 
  267630   267630   267630   267629   267630   267632   267629   267630 
  267632   267630   267629   267630   267632   267632   267630   267632 
  267632   267632   267630   267632   267632   267630   267630   267630 
  267632   267632   267632   267632   267632   267634   267634   267629 
  267629   267632   267632   267630   267630   267632   267632   267630 
  267629   267630   267632   267630   267632   267633   267630   267629 
  267632   267632   267629   267629   267630   267632   267632   267632 
  267632   267633   267632   267632   267633   267630   267630   267632 
  267630   267629   267632   267632   267629   267630   267632   267632 
  267630   267630   267628   267629   267629   267629   267630   267630 
  267629   267628   267630   267632   267630   267632   267630   267629 
  267629   267632   267632   267629   267626   267629   267632   267632 
  267632   267633   267633   267628   267626   267629   267630   267630 
  267632   267633   267630   267629   267630   267630   267630   267632 
  267630   267629   267630   267630   267629   267629   267630   267630 
  267629   267629   267633   267633   267630   267630   267632   267630 
  267629   267630   267632   267630   267630   267632   267632   267632 
  267632   267630   267629   267632   267630   267628   267630   267629 
  267629   267630   267629   267629   267632   267633   267630   267629 
  267630   267632   267633   267630   267629   267630   267629   267629 
  267630   267630   267629   267628   267632   267632   267630   267633 
  267632   267629   267632   267632   267630   267630   267630   267630 
  267632   267629   267629   267630   267630   267630   267630   267630 
  267632   267633   267632   267630   267630   267630   267630   267630 
  267630   267630   267630   267630   267632   267630   267629   267626 
  267629   267632   267632   267630   267632   267632   267626   267619 
  267609   267599   267592   267583   267567   267547   267522   267499 
  267475   267448   267425   267439   267457   267437   267439   267487 
  267511   267544   267607   267671   267818   267934   267854   267850 
  267927   267800   267726   267659   267403   267468   267632   267378 
  267340   267374   266905   267039   267981   268419   268528   268435 
  267398   266467   266681   267386   267826   267478   267082   267599 
  268003   268011   268282   268170   268250   269156   268604   266897 
  266919   267483   267406   267564   266878   266203   266836   266885 
  267063   268573   269221   268616   267707   266523   266411   267004 
  266117   265438   265927   265790   266444   268440   269987   270384 
  269046   267916   268708   269246   268853   268286   266313   263606 
  263648   266299   268146   267915   267166   268289   270040   268691 
  266207   267976   271931   272042   269850   267759   264200   262534 
  264362   266364   269773   272878   270171   265414   265383   269689 
  274260   273946   268269   265119   266593   267753   269635   269681 
  264609   264546   269403   267595   266458   272924   274288   268162 
  265464   266247   265054   262487   263864   270476   272982   267919 
  264124   264385   266151   270072   273839   273519   269639   264262 
  261603   266661   272596   269011   264485   267190   266923   264833 
  269350   270945   267177   268698   269487   263009   263316   269910 
  267715   265131   268614   266704   263827   267335   268114   266707 
  269597   270608   269322   270315   269285   266785   265315   261596 
  261134   266930   270270   271626   271950   267588   264953   265470 
  267054   271628   270338   262899   264535   269913   265643   263947 
  270170   267726   262562   269532   273747   266670   264679   269360 
  268294   262723   261589   267918   274018   272060   268651   268496 
  267495   268551   271954   270738   266815   265191   264516   265977 
  269717   269508   266742   266774   267201   266525   266890   269195 
  269908   266996   266125   267435   265573   263802   265987   267617 
  268440   270839   268293   262926   265638   271539   271823   268528 
  264234   262911   266161   268618   268893   265955   261956   264578 
  269122   269577   270963   271642   266904   265133   269397   267671 
  263270   267621   270750   266033   264339   266498   266303   268016 
  271927   270398   265345   265303   269975   271124   268371   267312 
  265636   262622   264452   269910   271907   269427   266110   265381 
  267024   268230   270309   271687   267483   265270   270008   271078 
  268083   267911   266436   264250   266232   268066   268529   270656 
  270197   266981   266622   265628   262642   264566   269165   269721 
  267759   266410   267154   269511   270508   270859   270908   268716 
  267147   268354   269014   267159   265227   266035   268613   269539 
  268088   265566   264620   266845   267158   266128   269368   269690 
  265898   268107   270472   266846   266508   270427   271047   269192 
  269230   269179   266241   263004   262106   264671   269291   270972 
  268505   265584   264864   266110   268893   271281   269369   266078 
  265810   266087   266905   269509   271120   269986   266437   263102 
  263698   268294   272130   270862   266222   263698   266018   268994 
  268945   268073   266345   265108   268427   270504   266241   263209 
  265353   269157   270518   267081   266496   271182   270473   266858 
  268195   267884   265030   266577   268686   266889   264821   265593 
  268107   269169   268178   265751   263830   267310   271117   268037 
  266909   269840   267286   263976   265122   265981   268020   269721 
  266985   267120   270561   269455   267467   267794   267395   267902 
  268027   265181   264867   268068   270066   271416   270716   266618 
  264991   266892   267160   267317   270683   272046   267514   263495 
  264323   266188   268759   272057   271275   267522   265226   265523 
  268749   271690   271499   270464   269303   268024   267706   267123 
  267390   268413   266018   263996   267368   270217   268515   265527 
  263448   264062   267694   270303   270390   270255   268779   265239 
  263903   266499   268955   267933   265596   265096   266035   267252 
  269030   270839   269736   267376   268600   269447   266735   267448 
  271020   268197   264276   266942   267142   265373   269369   268555 
  262224   264771   269380   266900   267343   270352   268204   267031 
  269457   270175   268625   265771   264057   266572   269869   269644 
  269905   272666   270056   263358   264271   269954   271081   270306 
  269478   267348   267071   268056   268346   269003   267679   263139 
  261790   266629   269647   267655   266776   266421   264589   266305 
  269611   268053   265096   266773   270418   270040   267857   267852 
  266788   265928   269048   270851   269495   269302   267781   264201 
  263405   265037   267965   270529   268073   264656   265859   265751 
  264114   266830   266674   262175   265246   271483   268984   264694 
  267471   270001   266460   264925   268706   270589   270186   270697 
  269418   266255   265377   267336   270411   273042   271804   268600 
  269154   268922   265027   265990   270641   270139   266766   265072 
  264081   264096   265032   265349   265833   266279   265943   267771 
  270484   269596   269577   270922   267682   266760   271001   270608 
  267395   266672   265083   264864   268429   270414   270545   269808 
  266283   265377   268357   268454   267672   268925   268263   265972 
  264581   263857   263730   265828   270820   272751   267921   264136 
  264996   265609   267027   270311   270110   267000   266782   267891 
  266726   266407   268074   267484   265466   267567   270803   269549 
  267788   267073   265890   267490   270032   270576   270919   269933 
  267322   265991   265762   264811   264568   266043   266881   267486 
  268918   268708   266294   263704   263803   267655   270648   269827 
  268108   267904   269046   269271   268081   268031   269859   270959 
  268517   266706   269465   271320   270257   268392   265165   264038 
  266211   267745   269337   271227   269541   265206   262905   262901 
  264944   268785   269827   268281   267255   265057   263831   266815 
  269495   268513   267447   268786   269396   268209   268636   269489 
  269013   269345   268766   266565   266360   267606   266688   265099 
  267073   268061   265531   267796   270629   266267   263945   266888 
  268220   267703   267834   268412   266982   264662   266172   269060 
  268392   265453   263613   265369   269176   270522   270314   270394 
  267791   264593   266993   271823   270472   266884   268235   267084 
  263491   265852   267340   266002   269281   271621   268432   265816 
  265030   265442   269379   272713   271449   269401   268423   266990 
  266134   267610   269365   268269   265990   265126   266855   270866 
  271744   266687   261708   263035   268216   270267   269373   268110 
  265546   265009   268076   270116   269235   266494   264771   265756 
  267074   269015   270920   268965   267108   268587   269819   271849 
  272371   267625   265516   267837   267717   267813   270063   269418 
  267302   267586   267691   265158   263345   266201   270515   271275 
  269545   267595   265658   264223   265455   269396   271387   268940 
  265033   263660   265401   268786   269882   265171   262811   267655 
  269177   266989   269350   271359   268049   263555   261971   266634 
  273018   272134   269235   270095   267981   264053   265752   269670 
  270859   270625   267877   262103   259842   264095   269098   271379 
  272160   270603   267370   265682   264047   261245   262359   268137 
  269917   266441   267054   269898   267860   265902   265545   264363 
  267098   271244   270850   267679   264305   265160   269854   271333 
  269698   266753   263004   263980   268373   268371   267521   269565 
  266564   261250   263850   269311   270693   268377   264767   265127 
  267497   267121   267295   266629   262649   263002   267734   267432 
  265798   268319   267517   265789   268159   266441   265824   271269 
  268532   261396   264370   270295   272033   272416   268751   262635 
  262560   266858   268555   268266   267479   265446   265330   266282 
  264049   262822   264469   264352   262161   258600   255496   255982 
  255837   251737   249234   249930   249993   251833   256852   258596 
  259233   266897   274592   272479   266727   266398   270645   278059 
  287005   287032   275602   264899   260817   259424   256367   252814 
  251168   248351   246854   247645   246268   250429   258863   259487 
  258595   261539   263429   266507   271212   271215   268149   271733 
  278769   278907   276073   275138   275655   280228   285493   286043 
  283022   275602   264532   258681   262623   273276   286255   293626 
  290493   279489   260933   238268   224645   226624   237824   254727 
  277238   292239   287487   276828   279047   288014   290047   290097 
  296831   303670   301043   290101   281264   282834   293911   308318 
  316926   311126   291146   270193   262672   268073   276982   286270 
  294879   294787   283383   270167   262140   261546   268783   276166 
  274639   266134   260300   259347   257149   256992   264906   275892 
  285176   287918   281531   276052   278937   285159   282506   265235 
  253606   266773   285897   287930   283578   286326   280478   256321 
  235317   231309   237177   248289   260915   270035   273717   266881 
  252031   241415   234971   231360   237216   247507   256238   263812 
  265898   264521   265882   267622   266094   260977   257885   265832 
  274923   264571   245174   240287   247440   259636   269901   264081 
  255903   266360   278349   278440   279502   277084   264509   262843 
  274665   275290   266751   268046   277330   288172   300414   300443 
  278986   260024   261717   272525   286036   296597   291822   276381 
  261697   250306   244213   248784   263202   272949   271100   268705 
  266830   261863   257145   245917   237550   250384   262195   256208 
  253970   256671   248310   243926   258616   273438   273792   264971 
  251781   245937   258579   280710   298382   304360   295794   279437 
  266326   261937   268637   280516   283597   277121   271548   269084 
  266572   261196   254824   254985   258427   255617   250431   250257 
  252100   252487   255398   259910   258022   254136   260116   270378 
  270959   264821   263977   268434   271867   272546   271331   271509 
  275763   279752   275055   266060   264536   265968   265823   268045 
  267912   263637   261542   263875   267610   269418   267957   262070 
  256432   256613   257365   253785   251414   255847   259179   255137 
  254759   261485   266733   267900   264319   261890   266908   269488 
  267058   272196   281233   280588   274969   274352   275378   275887 
  280798   285396   281414   275364   275756   278760   279312   276822 
  272149   267846   266727   270881   277469   278617   273920   271927 
  275054   277468   275887   271455   267856   267563   267178   266607 
  271088   276376   275757   273434   274800   280027   280563   268180 
  255833   255609   258661   260120   261975   262013   264057   272093 
  277531   276207   275377   274683   270460   267710   267552   265315 
  262417   261812   263004   264459   264427   263923   263653   262823 
  261848   261176   262346   264366   265083   265343   264635   263991 
  264215   262224   260185   262691   268064   272897   275167   271849 
  263509   257584   258552   262608   264433   264587   267754   271668 
  271140   269142   267456   265314   267641   273130   273110   269466 
  269538   269982   266267   262029   258815   258223   265491   274499 
  272554   263537   259798   260653   260973   263133   268173   271719 
  270837   267848   266602   267313   269298   270988   270629   270016 
  268739   266980   268078   269545   268964   272774   281619   282160 
  273150   269431   271638   271383   271146   272592   270812   265873 
  260782   258172   259132   259583   261565   268326   271413   268280 
  265653   264072   262360   263101   267196   273057   276481   272290 
  265135   263318   263383   261766   260404   258228   260612   270635 
  273919   267306   264737   264027   259677   261442   268385   269732 
  268203   269136   267892   264598   265974   268907   269084   268718 
  267389   266650   267000   264860   263618   266215   267857   266236 
  264682   268744   276698   276829   270155   269894   273473   273827 
  274600   272697   267687   269422   272929   269547   265453   264818 
  266144   268421   270880   272724   271128   268905   271332   273242 
  271771   273229   275850   273935   271733   272131   271444   268996 
  267757   269646   272020   272474   271698   268101   264001   266213 
  272488   275994   276505   274675   270066   267759   270978   273640 
  272328   270919   269161   264689   262029   262624   262745   264470 
  266079   263567   262338   263667   262986   261843   264232   267594 
  265659   261323   260406   260977   262113   262842   259565   255758 
  256298   257651   256655   257037   260331   262973   263977   265249 
  266691   267206   268473   269982   268203   265894   264971   263475 
  264702   268231   270179   271954   272866   271339   268794   265754 
  264108   265553   268363   270082   268517   265083   264072   266139 
  269234   270294   268893   269117   269642   267439   266870   268759 
  268556   267281   267077   265792   265423   269855   274299   274128 
  272312   271147   270426   270463   271507   271121   267564   266105 
  269383   269858   264728   263156   267651   269391   268263   270132 
  272740   272668   271159   270037   268073   266098   268024   268741 
  263858   262174   266442   269171   268733   267603   267347   268664 
  269449   269361   269844   269522   268165   266051   263553   263474 
  264178   263615   265227   267548   266943   267906   271740   271591 
  267995   265284   261786   259999   263073   266554   266720   263648 
  261604   262957   263574   264725   267470   266071   263332   264528 
  265179   264672   268378   272592   271096   267730   265102   261555 
  262082   267799   270517   269015   268064   267862   267641   268860 
  271124   271040   268856   268467   269204   268992   269308   270090 
  269245   267435   266774   268614   272781   274159   270202   267682 
  268852   270105   273688   278059   276714   273430   273349   273075 
  272238   274604   277372   275490   272462   271032   267564   265372 
  269010   272768   271478   267213   263746   262818   262750   262608 
  264347   265291   263914   266047   269262   267343   265842   267289 
  265357   261839   263935   268019   267509   266734   267530   264533 
  261766   265504   269562   268645   267478   267691   266527   267463 
  273211   276434   272073   265983   265118   268875   270892   269245 
