Origin Time       2024/04/02 04:24:00
Lat.              40.133
Long.             141.712
Depth. (km)       71
Mag.              6.0
Station Code      IWTH27
Station Lat.      39.0307
Station Long.     141.5320
Station Height(m) -20
Record Time       2024/04/02 04:24:58
Sampling Freq(Hz) 100Hz
Duration Time(s)  127
Dir.              1
Scale Factor      2942(gal)/8224139
Max. Acc. (gal)   9.800
Last Correction   2024/04/02 04:24:58
Memo.             
[...]
   77965    79504    81083    81800    81488    80242    78075    76597 
   77303    78291    77274    75415    73876    72457    72929    76742 
   79672    77130    73620    74915    77491    76966    75362    75795 
   77535    77333    75126    74703    77793    81032    80697    77770 
   75975    77812    79305    75915    73450    76095    80426    83278 
   80721    74441    71666    73724    77931    81130    80631    76831 
   72291    71454    75234    76381    71793    70156    76061    80397 
   77004    72256    71744    74086    77383    80442    80464    76306 
   72817    74432    77908    78921    78112    78167    78945    77087 
   74780    74973    73958    75203    79728    77642    73593    76284 
   78071    75367    72994    71802    73323    77863    79901    77889 
   76010    75479    75058    75544    77861    80022    80049    78776 
   76420    74383    76399    79571    78190    75323    74938    73198 
   69245    69414    73494    74237    72914    76744    81999    79713 
   73502    72825    77928    81598    78568    73365    74013    78447 
   80007    78116    74731    71651    73156    78822    80148    76268 
   74228    73611    72785    73807    74673    73751    73059    74645 
   76856    75077    72725    74792    76308    75436    75165    74320 
   73811    76185    79066    79589    77511    75049    76081    79074 
   80192    80169    78262    74100    71539    71304    71882    74893 
   79745    80813    76651    72119    70499    72511    76779    78764 
   77662    78371    80137    79097    77880    77149    76157    78048 
   80458    77499    71324    70915    77550    80319    74594    69853 
   72576    76800    75529    71667    71667    74499    75691    74818 
   73939    75559    78412    77981    76338    77538    77488    74128 
   74002    78576    80734    77828    73561    72742    78052    83641 
   81946    75890    72617    73249    74190    75570    80261    82989 
   78256    72442    71273    72658    75182    76943    74868    72493 
   74972    78100    75945    72868    75159    79448    80018    78077 
   77064    76090    74980    77909    82439    80766    74499    70632 
   71370    74416    76337    77502    79666    80191    77203    74335 
   74807    75847    74892    75659    79045    80104    78387    76185 
   73697    74629    79855    80944    75872    72284    73417    76423 
   77388    76933    76918    74745    72743    74850    76049    73332 
   72304    76179    78970    75500    71594    73573    77681    77895 
   75103    74517    76674    77499    76491    77392    79929    78291 
   73849    74363    78356    79559    77684    75863    76113    76651 
   75446    74808    75999    75130    71683    71653    75674    77149 
   74259    73253    76330    76756    74686    76819    80424    79639 
   75290    72956    76315    80038    78027    74020    74248    76445 
   75374    73410    74756    77218    76887    75664    77244    78316 
   75201    72760    75404    78344    77292    76329    77309    75763 
   72472    73136    76603    76924    74401    74112    76806    78538 
   76904    74551    75026    77334    78777    79172    78416    75073 
   72279    74927    78846    77958    75438    75459    75686    74366 
   74000    75358    75898    73916    72048    74164    77693    77226 
   74093    73639    76123    77708    77804    77147    75582    75405 
   76227    74679    73670    76366    78551    77986    76481    74251 
   73167    76175    80827    81302    78451    77461    77391    77549 
   78775    78393    77600    77724    77002    75870    73746    72839 
   76837    80437    78537    75170    73796    73603    74047    74713 
   75280    75791    76077    75716    74245    74401    77193    77710 
   76554    77206    76677    75415    76644    77411    75762    74698 
   75431    75941    75775    75770    75708    76022    76513    76115 
   75870    76140    75174    73357    72933    75042    78791    79898 
   76389    73649    74619    76162    77009    78201    78938    76585 
   73037    73819    76634    75897    74287    74872    75122    74962 
   76113    76994    76084    74889    75354    76647    77018    75992 
   75092    76690    78634    77538    75363    74835    75798    76770 
   76442    75321    74374    74110    75585    77693    77337    74706 
   73624    76056    78412    77685    77503    79326    78904    76176 
   75010    75979    76646    76372    75944    74071    72220    73518 
   75544    76275    76854    76952    75960    74464    74382    76138 
   76558    74259    73140    76117    79087    79092    79413    79203 
   76370    75902    78258    77607    74999    74844    75921    75444 
   74910    76543    78510    77812    73872    71042    74186    78503 
   77500    74263    72828    73437    76392    79879    80168    76955 
   74827    75663    75413    74182    75662    77535    76009    73468 
   73827    75624    75546    74425    75280    77004    76604    75978 
   75875    74548    74980    77885    78503    76149    74973    76343 
   77172    77334    79155    79062    75161    73788    76781    78684 
   77745    75882    74196    74190    75871    76747    76621    76999 
   77035    76297    75937    75506    75466    76981    77526    75523 
   73654    74128    75938    76527    75791    75757    76848    77247 
   75963    75780    77319    76723    75307    76882    78139    76092 
   74580    75752    76416    74764    73327    74538    77307    78587 
   76783    74939    75913    76650    75699    75663    76549    76900 
   76432    75602    75573    76289    76465    76393    76762    77076 
   76742    75751    75844    77013    76237    74262    73944    74661 
   74981    75420    76100    75604    75566    77450    76958    74162 
   74544    76480    76005    75412    76734    77580    76665    76110 
   76231    75348    74459    75277    76396    75142    73421    74526 
   76708    78192    77770    75163    75478    79600    81425    78999 
   75080    73357    75293    77298    76597    74471    73691    75729 
   77068    75649    75297    76644    77171    76094    73998    73757 
   75612    76646    76611    76858    78354    78772    76354    74642 
   74459    74372    75114    75728    75421    75116    74216    73360 
   75622    79091    79072    76258    73265    72692    76285    79994 
   80049    78610    77334    76032    75316    75135    75039    75012 
   75983    78078    78206    75243    72457    72639    76561    80742 
   79543    75559    74568    75162    75995    77286    77260    76790 
   75710    73269    73669    76958    78494    78088    76658    74394 
   72893    72841    75247    79185    79046    75205    74340    76572 
   78375    77861    74459    72343    73997    76530    78555    78694 
   76441    74289    73381    75031    78345    78806    76454    74283 
   72990    73315    75884    77654    75795    73776    74376    75546 
   76451    77060    77166    76971    76081    75294    75741    76752 
   77275    76893    75784    75006    76284    78181    77044    76117 
   78000    76590    72974    74108    77205    76721    73465    72183 
   74588    76202    75695    75794    75361    74687    76345    78270 
   78236    77045    75020    74588    78162    80572    78028    75832 
   77336    78324    75442    73122    74926    77001    77053    76362 
   75582    74445    74154    76381    77708    76048    74945    75539 
   75658    74445    75158    78092    77395    74687    75369    76871 
   77183    77121    76168    76123    77458    77269    76119    75999 
   76272    76721    76786    75344    74250    75244    76837    78402 
   79849    78580    74561    72426    73778    75713    77048    78320 
   79211    78516    76588    76466    76180    73468    74109    77912 
   78213    75791    75008    75018    72917    71955    75317    78448 
   77326    74321    73921    75721    76546    76462    76658    77969 
   78435    76172    75841    79105    80395    77816    75209    75699 
   77696    76744    73354    73125    75523    76021    74838    73747 
   74596    75971    74002    72751    75709    77191    75659    75018 
   75506    76434    77583    78553    79240    78278    76816    77187 
   77606    76530    74873    74575    77242    79883    78745    76018 
   74375    72559    71367    73878    77608    77199    75280    76489 
   77325    76235    76333    76572    76141    76746    77801    77410 
   75829    75446    76430    76566    75439    74302    74036    74074 
   73873    75208    77423    76350    73595    73877    75216    74781 
   74227    74811    76323    77471    77230    76977    76431    74514 
   73684    75381    77282    77280    76113    74695    72411    72045 
   76354    80343    79049    75111    74163    76887    76990    74150 
   75546    78250    76311    74602    75829    76212    75181    74837 
   76221    77874    77572    75313    73813    75415    76474    74482 
   74260    76765    78075    77026    75172    74960    76380    76682 
   75109    74484    75227    74974    75581    78413    79992    78876 
   77350    76628    76022    76137    76590    75867    76627    79002 
   77895    74551    74416    76160    75744    74235    74013    75240 
   76975    77089    75802    76293    78170    78129    76578    75691 
   75605    76090    76156    76108    77710    79554    80068    78399 
   75460    76110    78788    78606    77184    75088    73585    75455 
   76763    75624    74568    72921    72603    75320    75716    73273 
   74048    76966    76800    74471    73530    74881    77503    78436 
   76951    75998    75351    75008    77526    79745    77726    74754 
   74761    77163    79267    78730    75265    71506    71825    76707 
   79870    77646    73575    71157    72196    75583    76788    76461 
   77572    77677    75907    74970    75633    76481    76716    76877 
   76027    73759    73048    75396    77989    78815    78578    76875 
   74682    75173    77132    77163    76114    76356    76455    74151 
   73448    77345    79459    77272    77211    79267    78416    77296 
   77841    75909    73913    76177    78672    78302    76669    75227 
   74611    73705    72677    74621    78498    78310    73757    72161 
   74421    74611    73745    73969    73629    74771    77056    77298 
   76613    75902    74792    74869    77684    80194    78200    75841 
   77588    78421    76578    76717    77163    75219    74335    75357 
   75964    75917    75498    74611    74009    74958    76447    76266 
   75460    75632    75655    75644    76532    76248    74821    75417 
   76827    76806    76393    75562    75303    76391    75617    74123 
   76138    78617    76825    73361    73013    76005    78950    77822 
   74148    73039    73704    75019    78109    79386    76932    75408 
   77583    78734    75559    74229    76582    76014    74178    76149 
   78499    77746    75921    76551    79558    79436    76260    77172 
   79708    77093    73434    74139    76750    77450    76509    75519 
   74062    73187    74556    74563    72347    74332    78742    77257 
   72878    73337    76357    77656    79162    79512    75676    73219 
   75988    78129    76585    75632    77442    78478    75693    73305 
   75254    76744    74580    73109    75605    78370    77410    76241 
   76673    75177    73292    74078    76006    78057    79724    79297 
   77213    75772    75798    76261    76986    77616    76832    75955 
   75555    73822    72485    74067    76014    75622    74615    74888 
   75632    75851    77616    81619    82507    78463    75076    74522 
   75028    76466    77544    77411    77269    76308    74547    73642 
   73728    75767    79705    81390    78950    75544    73927    74460 
   75964    77302    78142    77476    74900    73155    74748    76732 
   76126    75030    74528    73911    74848    77629    77899    74322 
   73095    76283    78568    79300    80044    77326    72492    73465 
   79390    81976    78765    73372    72243    76427    78205    75628 
   73936    74970    76238    75261    74268    75189    75720    75247 
   73975    73265    76658    80640    78387    74459    75614    76759 
   74954    75712    78590    78502    75502    74094    75250    74468 
   71836    71955    74275    74956    73715    72956    72503    70366 
   69087    72272    75824    75122    73434    73954    73759    71366 
   72314    77294    78572    76018    75429    76315    75757    74268 
   73892    75168    77063    77877    76823    75255    74798    75882 
   77444    77700    76357    74987    75132    76881    78854    78964 
   77356    76492    77681    80408    81631    79216    76623    76419 
   76523    75706    74610    73516    71887    71547    73928    74440 
   72835    72441    70630    69300    72877    77938    78948    76015 
   75578    78067    77604    76307    78246    80360    79506    78691 
   80805    82000    80042    79324    81903    83848    82656    81272 
   80762    77465    72848    73658    78888    81322    78938    74723 
   72665    72997    73145    75363    78796    77507    75775    79807 
   83744    82628    81021    82518    82898    77677    70629    68308 
   71103    74069    74154    74139    75872    75660    73881    76022 
   79987    80150    78324    78830    82452    85182    85148    89484 
   96256    90289    75112    70451    75471    74993    69040    65394 
   62625    61192    66976    72927    67278    55495    48663    48697 
   53441    59648    65481    72759    80767    84083    82682    82147 
   78962    69935    66843    71236    69502    67433    75980    82416 
   81175    83489    87073    86185    84631    77962    64301    59813 
   69674    77980    80642    87378    92299    86379    82908    89499 
   94693    95014    93247    89486    83623    76400    74304    76986 
   77283    79482    83435    77990    67198    65414    72813    79181 
   81440    85433    89932    85831    76520    73716    77545    80067 
   77232    71707    70627    75087    76015    71142    65215    58452 
   54955    57075    60161    64914    71626    75081    73269    69847 
   71301    80269    88094    80919    63013    56717    64384    70217 
   73668    75967    72414    68577    69363    70861    69344    70110 
   76559    79412    81503    91108    95320    85999    74947    72736 
   79861    90749    97090    94648    89938    85423    75894    69591 
   73403    76045    71813    68388    70580    76284    83181    86452 
   80912    72450    70988    78289    85824    87177    88379    88906 
   83331    77722    74958    74857    78563    79300    78034    81491 
   81530    73872    68359    66941    65210    64216    65407    69585 
   73710    71095    65286    63247    65157    69464    70206    67243 
   69984    78073    83396    82409    78328    75741    74933    77604 
   80546    74785    69689    75951    79185    75230    76700    80300 
   80731    81197    80622    79197    79346    79756    77460    71929 
   67315    68332    72073    72508    72678    75016    76701    79826 
   80761    74289    71300    79176    85225    81669    78510    81041 
   84823    86671    82957    77211    79844    85815    83729    75371 
   64528    59185    65331    70019    69499    73472    77706    75975 
   71709    71109    74692    75242    72320    72461    76414    77152 
   71266    69136    75203    79489    79567    78605    78347    81645 
   84208    83216    83394    82428    77010    74066    77739    79909 
   74399    66606    63009    65605    71331    73695    72054    69909 
   68262    68700    73873    81301    83678    79344    74663    74378 
   76871    77535    78171    83349    83516    74776    75928    85992 
   82845    75436    79459    79412    71177    69662    71990    72804 
   76023    79586    81203    80713    76329    71585    73082    77502 
   75686    71710    74945    81074    83794    85093    84272    78090 
   71604    70420    71554    73236    74402    73742    76254    79654 
   76260    72166    74811    77890    75462    71348    68791    67828 
   69747    74170    79234    83073    82124    76801    74459    77500 
   79809    79321    80673    84809    85722    80384    75528    77988 
   83289    82225    75413    70645    70549    72322    70987    66133 
   66321    72901    77581    76287    70772    70278    77353    81514 
   83987    87303    80739    69947    70722    76698    76898    75043 
   75301    77402    78570    74985    70279    68570    68615    71662 
   75728    75139    72573    73199    75490    77673    79415    78678 
   76991    76065    73993    74412    79157    80874    77830    74679 
   75551    81189    82460    76925    74048    73835    73813    75361 
   76293    77172    78214    78619    78430    74497    71833    76075 
   80025    81508    84507    86474    83286    77465    77170    81587 
   82112    79276    78201    78887    77283    71464    68998    74769 
   78943    76160    73660    72787    69893    68372    71454    76268 
   77969    74985    73338    74456    73068    73365    77472    77409 
   72948    71606    74879    77137    76272    77305    80442    78339 
   73199    73260    73539    71871    74656    75556    71459    72010 
   76870    79548    79083    76003    72427    70713    71481    74244 
   76303    78957    84341    83717    76782    78005    83223    80520 
   77935    79660    78821    75983    74312    74849    77090    77665 
   75475    71995    69569    69762    70881    72588    75250    77093 
   77205    76912    78428    79652    78335    76877    74542    72597 
   75865    80117    79628    77350    77206    77419    74939    71531 
   69838    71490    75450    75589    72978    73801    74811    74309 
   77070    79791    77305    73703    72482    71945    72392    75219 
   78051    77249    73392    72104    75424    77292    76169    76265 
   75551    73521    73820    72397    69587    74025    80280    79002 
   76712    77931    78489    79122    80794    82198    84686    85540 
   81291    78798    82563    82934    77191    76638    81210    82709 
   82314    79960    73877    68659    67011    68910    72709    73666 
   72662    74160    76087    74247    70899    71905    74746    72658 
   71574    77286    80875    77469    73097    72480    73876    73643 
   74900    78903    79668    78553    79776    78880    74262    73300 
   78656    82930    80771    77187    77012    75039    71162    72837 
   75764    74391    74136    75924    75242    72284    70356    72794 
   78313    80169    77584    76450    76276    74613    76879    82941 
   84132    81491    79413    74841    70371    71273    72513    71274 
   72006    72496    71346    73545    77741    79907    77036    70175 
   69942    76265    76912    73280    74085    77598    77719    74189 
   73184    77368    79685    77184    75343    75239    74844    74181 
   74335    77436    80743    78175    74162    76221    79103    79062 
   80545    82325    82294    81247    78929    77696    77589    77444 
   79979    82359    80271    78362    80716    81739    77264    75863 
   80447    80262    76202    75429    74375    74223    77745    78648 
   77326    77935    76977    74016    72496    72638    73704    73889 
