Origin Time       2024/04/02 04:24:00
Lat.              40.133
Long.             141.712
Depth. (km)       71
Mag.              6.0
Station Code      IWTH05
Station Lat.      38.8654
Station Long.     141.3512
Station Height(m) 120
Record Time       2024/04/02 04:25:00
Sampling Freq(Hz) 100Hz
Duration Time(s)  123
Dir.              5
Scale Factor      7845(gal)/8223790
Max. Acc. (gal)   37.804
Last Correction   2024/04/02 04:25:00
Memo.             
[...]
    6156     3851      603      -20     3663     6849     6943     4380 
     471     -926     1915     5467     6605     5417     4059     5097 
    6274     3896     1745     3365     4785     4442     4911     5686 
    5371     3568     1321     2218     5420     6043     4672     4901 
    6508     6851     4733     2039     1822     3784     5360     6242 
    5996     4025     1723      -63      712     4928     7735     5825 
    2004      703     2598     4228     4309     4882     5725     4677 
    2749     3087     5528     7106     6376     4124     2473     3485 
    6218     7908     7557     4772      750     -494     1545     3303 
    4355     5852     5562     3389     3651     6795     8664     6416 
    1567    -1055      700     4503     7210     7207     5701     4972 
    4793     3087       49    -1250     1964     7761     9413     6459 
    5155     4731     2991     3780     5664     4151     1445      905 
    2602     4037     2701     1690     4966     9196     9136     5132 
    1298      226     2228     6853    10480     9795     7531     5674 
    2735     -418    -1453      469     3037     3487     3592     4491 
    4469     3954     3663     4368     6701     7485     5437     3721 
    2907     2706     4855     6932     4849     1676     2543     5868 
    6451     3190      511     1398     3967     5910     5479     2928 
    2195     4158     5957     7130     7646     5872     2328      954 
    2987     4044     2830     3461     5621     5775     5157     4534 
    3411     4288     5028     2613     2165     5481     6864     5568 
    5297     5632     4260     2367     2594     3595     3086     2326 
    1845     2103     3844     4441     3450     3372     4519     6643 
    8275     6682     3531     3283     5661     6546     5090     4075 
    3931     2837     1248      729     1873     3797     4618     5263 
    6987     6729     3743     2987     5651     7107     6030     4066 
    1131     -787     1134     4642     5961     4954     4058     4700 
    5590     5209     3974     3456     4561     5825     5583     5213 
    5707     5189     3125     1370     1432     3851     7038     7150 
    3843     1405     1563     3348     5954     6831     5100     3739 
    3634     2998     1459      764     2820     5821     6705     5593 
    3534     2795     5151     7292     6647     5351     4398     3700 
    3966     3794     2450     1880     2801     4311     5370     5421 
    5576     5564     3003      922     3689     6570     4810     2416 
    2463     3057     4452     6284     5044     2933     3863     5101 
    4955     4356     2512     1529     3708     5061     3631     4236 
    6907     6018     2710     2091     4180     7473    10091     8679 
    4218      851      203     1590     2613     2346     3635     7133 
    8962     6713     2988     1957     3570     4703     4571     4214 
    4540     5513     5250     3780     3418     3470     2613     2616 
    3198     2176     1582     3003     4434     5877     7052     5872 
    3807     3522     4529     5377     5857     6505     6691     5262 
    2891      819      399     1617     2047     2879     5692     6470 
    4695     4091     4433     4847     5535     5486     4893     4378 
    3373     2462     2702     3072     3142     4679     7060     7086 
    4563     2560     2717     3843     4376     3839     2635     2180 
    3643     5929     6802     5265     3098     3964     7793     9552 
    6731     2771     1732     3446     3852      189    -3037      669 
    7942     9495     4806     2100     4810     7138     5009     2448 
    3080     4842     5854     5941     4415     3079     3607     3994 
    3913     3684     2500     2916     5239     5362     4715     6660 
    8176     7672     6984     5059     2358      751    -1120    -1798 
    1707     6135     7165     5201     2772     2204     3607     4382 
    3468     2667     3009     4445     5884     5351     5472     9342 
   11114     6353     1309      456     1189     1879     2803     4098 
    5341     5530     4990     4610     4171     3456     3150     3599 
    4004     3298     1528     1258     4293     7624     7460     4545 
    2862     3815     4220     2675     1575     1958     3979     6848 
    7400     5586     4126     3947     4974     5339     4145     3373 
    2432     1672     4017     7446     8830     7449     3022      -32 
    2026     4005     1858      182     2609     6210     7773     7422 
    5283     2509     2602     4935     5563     4318     3747     4874 
    5994     5220     3192     2560     4676     6054     3500     1163 
    3229     5738     5638     6323     6812     3862     2104     3514 
    3619     3092     3605     3420     3723     5692     7177     7176 
    6728     6042     4054     1379      201     -261    -1344     -168 
    4591     9211    10767     8392     2872     -746     1638     6581 
    8490     6517     3221     1939     3694     4934     3430     2718 
    5035     7221     6265     2756     -201       37     3059     5780 
    6536     7280     7476     4710     2485     3276     3119     1877 
    2710     3342     2393     2893     4328     4806     5633     7229 
    7169     4260     2334     4201     6011     5382     4569     4052 
    3948     4457     3126      841     1444     4515     7460     8222 
    6624     5185     4221     3260     3364     2764     1098     1950 
    5130     6756     5656     3951     2589     1287     1760     3932 
    5390     6154     6026     4282     3159     3484     2660      855 
     923     3015     6277     9701    10008     7034     4927     4864 
    4374     2000      365     2683     5593     4642     2253     1548 
    2660     4625     4807     3910     5061     5686     3568     2677 
    4361     5302     5013     4860     4880     5533     5809     4059 
    2205     2677     5057     7036     6814     5374     4097     3288 
    3079     2521     1451     1657     3900     6246     5819     3272 
    2168     2610     3063     4071     4816     4806     5184     5120 
    4143     3393     3735     5088     5471     4021     3014     3842 
    5784     7434     6720     3950     2654     3388     3176     1386 
     495     2748     6245     7092     5524     3593     2998     4783 
    5243     2195     1071     4179     6588     5643     3735     3978 
    6075     7184     6164     2470    -1765      -28     6782     9131 
    5144     1279      697     3335     8043    10806     7653      187 
   -3962     -726     5287     8988     9424     7797     5688     4108 
    3381     2786     2641     3892     4590     3586     3384     4764 
    5085     3696     3115     3453     2814     2269     2222     1845 
    3686     7676     9640     8348     5378     2898     2286     3292 
    4553     3970     2081     2146     4477     6640     6848     4502 
    2309     3202     4889     4934     4853     5298     5246     5157 
    5189     4459     2467     -168     -567     2425     5491     4916 
     997     -521     4240     9806     9441     5205     2980     4252 
    6187     6226     4900     3395     2878     4407     5603     5223 
    5292     4968     3909     4198     4272     2397     1468     2259 
    1711     1525     4482     6438     4726     2743     2478     3260 
    4897     6309     5460     3148     2154     3233     5004     6062 
    6292     6003     5017     3696     3122     4629     7578     7986 
    4896     2227      706     -608     1115     5545     6860     4043 
    2632     4514     5907     5143     4182     4224     4267     2832 
    1200     2347     5008     5302     3998     4734     7068     7564 
    5960     4239     2974     3057     4396     4934     4738     4047 
    2781     3442     5476     4993     3272     4321     6339     5101 
    1591     -236     1402     4760     7037     7361     5305     2197 
    1695     3897     6291     8197     8224     5281     2070      842 
    1517     4160     7155     7357     4033      515      912     4118 
    6103     5871     3943     2170     2963     4054     3461     3952 
    5360     5152     4376     3986     2871     1381     1526     3262 
    4807     6632     8492     8167     6401     4592     3586     5007 
    6242     4411     2461     1610      395      832     3257     4779 
    6060     7244     5058     1512     1583     3962     5351     5914 
    5657     4040     2932     3175     3577     3942     3889     3996 
    5090     5719     5333     4912     4692     3759     2835     3942 
    4811     3267     2259     3312     4801     5393     4486     3245 
    3582     4930     5121     3937     3079     2995     3342     5003 
    6760     5698     3811     4471     5367     3696     1921     3172 
    5385     4548     1690     1413     4202     6459     7612     8291 
    6910     3989     1413      302     1426     3539     5784     7870 
    7069     3747     2714     3905     3229     1505     2424     5553 
    7562     7248     4779     1351      714     2739     3446     3329 
    3343     2381     2679     5439     6990     5806     5035     5767 
    5807     4827     3856     3782     5131     6153     5834     5341 
    4614     3345     1969     1128     1939     2492      530      534 
    4781     7794     7720     6582     4654     3331     3831     5043 
    5717     5416     5042     5285     4423     1904      920     3508 
    6601     6543     4885     4552     4461     2484      369     1629 
    4889     6550     5956     3181      729     2304     5648     6397 
    4665     2740     2524     4002     4695     3928     4363     6771 
    7884     6481     4730     2538      783     3171     7948     9475 
    7092     4396     3311     2319      363     -743      378     3172 
    5863     5724     2732       67      -70     2857     7506    10777 
   10141     6057     3631     5591     6683     4379     2636     2797 
    4328     6058     4419      584     -282     1239     2461     4360 
    6593     7620     7285     5853     5082     4471     2234     1333 
    3059     3538     2097     2317     4429     5653     5744     5823 
    5717     4866     3527     2300     2794     6810    10872     9144 
    3349      707     3119     5139     4241     3757     3665     2123 
    1405     2481     2810     2018     2281     2947     2126     2155 
    4282     5895     7171     8230     7543     7260     7420     4754 
    1395      872     2396     3824     3091     1526     2589     4897 
    6056     6758     6497     5363     5312     4498     1682     1028 
    3360     5128     5259     4094     2342     2050     3848     5094 
    2756     -769      770     5926     7369     5606     5692     7813 
    9940    10015     6281     2120     2269     3276      649    -1587 
     924     5308     6602     4908     3851     3956     4025     5135 
    6435     5366     4137     5321     6322     5354     3427      579 
    -858     2432     6439     6442     5159     4943     5410     5796 
    3395      105     2134     7083     8094     5135     1090     -760 
    1740     5841     8429     7488     3381     1082     2061     3685 
    5028     6081     7468     8224     6724     4603     3137     2141 
    2663     3703     1869    -1119      -45     3457     4766     4816 
    5694     7021     7415     6282     5215     4626     4136     5256 
    6147     4098     2531     3033     2963     3693     5586     4861 
    2408     1470     1467     1549     1559     2322     6064    10215 
    9931     6189     2155     -253      102     1428     2099     4126 
    7410     8603     8162     6667     2627      602     3300     4676 
    3165     3564     6625     8727     7834     5948     4942     3774 
    1819     -468    -1968    -1154      969     3492     6693     8329 
    6947     4476     2679     1757     2821     5899     7634     7223 
    5941     3950     4143     7407     8545     5977     4077     3624 
    2261      869      490     1729     5429     7051     3572      504 
     226     -274      284     2932     4233     4055     5308     7668 
    7780     4448     1937     3198     5181     5790     6929     9406 
    9772     6110     2130      712     2030     4380     5071     5232 
    4915     1732    -1553     -942     2223     2743     -796    -2608 
    -845      201     1289     4206     6049     6114     5701     4958 
    4617     4488     3781     3977     5919     7739     8719     9170 
    7512     2947     -939       86     4359     7619     9105     8668 
    6168     4359     4407     3159      -98    -1831    -1387     -106 
    2427     4179     3437     2970     3473     2932     1907     2216 
    4004     7200    12383    17136    18654    19388    20351    18036 
   12347     5767     -789    -6898   -11735   -13853   -12989    -9292 
   -2169     7034    15041    18762    19145    19273    17023    10820 
    4787     1048    -1044    -1597    -1422    -1042     -781    -1588 
   -3103    -3626    -2362     -670     1695     7248    14330    19418 
   22065    21196    15221     7076     1575    -2104    -7272   -11915 
  -12047    -8483    -5371    -1869     7245    17890    19475    14204 
   11855    10241     3694    -1417     1691     9212    15491    17869 
   13572     1694   -11877   -18904   -20984   -23095   -20733   -13124 
   -6772     -811     5883    11380    18952    27340    29918    27688 
   26163    27772    30399    27418    15843     2122    -7017   -12906 
  -20445   -29656   -35428   -33932   -23770    -5618    13528    25294 
   29813    30129    25590    17845    10609     4914     1856      990 
   -1611    -5274    -4371      363     2737     3723     8154    12128 
   10694     8878    12853    19502    19577    10030    -1910    -9146 
  -11276   -10692    -6914      143     5181     4517     -895    -8851 
  -14060   -10786      895    13913    20754    21041    16475     8062 
    2235     3253     8058    14593    18076    12988     5526     3376 
    4226     4423     2886     -664    -2752    -1455    -1093     -525 
    4725     6789      125    -4708    -3032    -1919    -2512     -507 
    4356     8136     8509     6216     1116    -3991    -2920     3655 
   10100    15639    20341    20364    16772    14951    10257    -4634 
  -20704   -24024   -15646    -4363     5841    13906    17613    16227 
   12459     5825    -5776   -15507   -16344   -10639    -1625     8494 
   16633    18964    12303     3264      988     2339     3966     9221 
   16752    23553    27072    22256    11794     3535      197     2704 
    8471    11480    10442     4912    -8430   -24630   -30388   -22491 
   -8676     7114    20787    22563    11430       60    -2961    -1391 
    1798     8533    15345    17250    16252    15692    17149    17855 
   11496     2565      245     1645     2523     3553     1975    -2683 
   -6455    -8305    -6799    -1301     3179     5817     9062     6409 
   -4561   -12070    -9659     -992    10319    20413    26325    24799 
   14855     3181    -5994   -11979    -8842     2705    10378    10901 
    9699     5370     -625    -2212    -2128    -2081     2056     5956 
    3811     1656     6239    11645     8706     1972      676     1493 
    -703      618    10014    15850     9765     1907    -3299    -9818 
   -9144      476     4727     3260     5370     8356     9207    10227 
    9385     6319     6856    10254     9720     8189    11090    15373 
   20440    24975    20325     6004    -8121   -15041   -15454   -13046 
   -8542    -5911    -9502   -10963    -3696     3141     2620     -541 
   -1221     1709     7042    13882    21778    25020    20360    15292 
   12266     5628    -2284    -6477    -7668    -4307     4635    12366 
   11487     2573    -5501    -4183     6428    17644    18632     9408 
    -315    -4811    -3295     1756     5871     6635     3585      112 
     170     1717     4669    12924    21286    20551    12708     5242 
    1794      652    -3461    -6176      332     5675     1502    -2400 
   -4414    -9745   -11553    -3902     8279    17838    20559    15117 
    3019    -7435    -5300     6130    13927    15105    12202     6124 
     923     -429     1351     5678    10138    12127     9987      -14 
  -12587   -12742     -333     9580     9776     5054     1069    -2299 
   -4441    -1763     2995     7211    13467    16910    13304    10679 
   12140     9852     1830    -5765   -10106   -11404    -7357       94 
    2403      113     3379    11491    16816    17030     9761     1584 
    4815    12526    11928     7361     5822     4789     4009     7161 
    8749     3489     -284     1906     2338    -3013   -10034   -12154 
   -6324     2691    10243    15076    14303     9377     5529     4444 
    7380    13132    16781    15687     9305     1798      -36      901 
   -2207    -6324    -6135    -2026     4407     8843     6643     2782 
    4785    10110    11535     5903    -3055    -6632    -4379    -4275 
   -4776      550     8005    10767     7572     2641     2763     7327 
    9680     9856     9811     7364     3036    -2744    -9938   -12834 
   -8263     1553    12468    14777     6385     1058     5013    11578 
   18192    22029    18277     9973      434    -9435   -14860   -12892 
   -5020     6165    16738    19846    13289     5603      616    -2938 
    1556    12417    16771    14773    13435     8226    -1601    -4275 
     850     4756     9686    15815    14770     6978    -1945    -7812 
   -8610    -6150      796     7717     4106    -3348    -2705     1429 
    3646     7512    12143    10616     3955      723     2486     3175 
    -410    -2722     1437     5624     5383     7245    13288    17620 
   17464    14912     9913      792    -7233    -6500    -1009      475 
    -402     -187    -1699    -4918    -4602      652     5791     8233 
    7504      770    -5899    -1375     8043     9097     7029    11028 
   15966    16534    13482     7577     1786    -1620    -1846     2467 
    5374     1755    -1027      761     2741     4162     4595     5686 
   11225    14049     6498    -4418    -9832    -8641    -4118     1359 
    7530    10519     7392     1243    -3414    -2720      594      858 
    2254     8753    13537    12474    11666    14412    15739    14665 
   13548    10598     6806     2266    -7668   -15719    -9787     3924 
   14189    19743    18744    10953     4163     1004    -4116    -9537 
   -6947     3882    13987    16343    11851     3483    -4853    -6554 
   -2828      746     6042    13220    16372    13103     7206     3816 
    4132     6208     7515     4257    -4527   -11376    -9297    -2733 
    2523     7279     9973     8819     7200     5101     1613     1715 
    6268     9464     7738     2666    -1031     -873     1166     2415 
    2496     3423     6467     9169     8058     4853     5719    11338 
   13529     8742     4375     3438     1977     -425    -4725    -9796 
   -8862    -3732    -1647    -1189     1441     6018    11034    12456 
    7346     2251     4194     8559     9493     8808     8444     7821 
    6021     2149     -801      141     1988     3414     6413     9622 
   10324     8093     5424     3462     -911    -5090    -2984      648 
     317     1138     7169    14889    18586    15917    10501     7221 
    5881     4024     2035      602     -874    -1127     1389     4546 
