Origin Time       2024/04/02 04:24:00
Lat.              40.133
Long.             141.712
Depth. (km)       71
Mag.              6.0
Station Code      IWTH18
Station Lat.      39.4630
Station Long.     141.6775
Station Height(m) 552
Record Time       2024/04/02 04:24:53
Sampling Freq(Hz) 100Hz
Duration Time(s)  134
Dir.              5
Scale Factor      3920(gal)/6170801
Max. Acc. (gal)   93.646
Last Correction   2024/04/02 04:24:38
Memo.             
[...]
  -17270   -17269   -17267   -17266   -17265   -17267   -17271   -17269 
  -17267   -17265   -17264   -17270   -17270   -17267   -17267   -17267 
  -17265   -17267   -17271   -17271   -17268   -17265   -17267   -17269 
  -17269   -17268   -17269   -17269   -17268   -17267   -17268   -17267 
  -17267   -17267   -17268   -17269   -17268   -17268   -17272   -17269 
  -17266   -17267   -17268   -17269   -17269   -17268   -17269   -17268 
  -17267   -17266   -17264   -17268   -17276   -17274   -17264   -17264 
  -17267   -17267   -17268   -17269   -17270   -17271   -17270   -17267 
  -17265   -17269   -17272   -17267   -17265   -17270   -17274   -17270 
  -17265   -17264   -17267   -17272   -17276   -17273   -17267   -17268 
  -17269   -17267   -17265   -17268   -17272   -17269   -17264   -17264 
  -17270   -17274   -17269   -17266   -17270   -17268   -17264   -17268 
  -17273   -17271   -17267   -17266   -17266   -17269   -17272   -17269 
  -17264   -17264   -17269   -17270   -17269   -17267   -17267   -17268 
  -17269   -17267   -17268   -17271   -17268   -17264   -17268   -17271 
  -17266   -17267   -17271   -17270   -17268   -17269   -17266   -17264 
  -17266   -17265   -17265   -17266   -17265   -17267   -17271   -17271 
  -17268   -17265   -17266   -17268   -17269   -17267   -17267   -17269 
  -17270   -17271   -17272   -17269   -17263   -17263   -17268   -17270 
  -17268   -17267   -17268   -17267   -17265   -17266   -17269   -17270 
  -17271   -17269   -17265   -17264   -17267   -17270   -17270   -17267 
  -17267   -17269   -17267   -17265   -17268   -17271   -17270   -17267 
  -17267   -17269   -17268   -17266   -17268   -17270   -17270   -17268 
  -17267   -17266   -17266   -17268   -17269   -17270   -17271   -17269 
  -17266   -17268   -17270   -17267   -17266   -17268   -17269   -17268 
  -17268   -17268   -17272   -17274   -17269   -17266   -17266   -17266 
  -17268   -17271   -17271   -17270   -17269   -17267   -17263   -17262 
  -17266   -17269   -17268   -17270   -17270   -17267   -17268   -17271 
  -17268   -17268   -17268   -17264   -17268   -17275   -17271   -17265 
  -17267   -17269   -17268   -17269   -17271   -17269   -17266   -17267 
  -17269   -17268   -17268   -17271   -17267   -17264   -17268   -17271 
  -17267   -17266   -17268   -17268   -17265   -17267   -17271   -17271 
  -17269   -17268   -17264   -17262   -17269   -17274   -17272   -17274 
  -17278   -17276   -17276   -17280   -17282   -17277   -17271   -17264 
  -17250   -17225   -17201   -17200   -17214   -17212   -17193   -17190 
  -17212   -17210   -17202   -17261   -17321   -17256   -17199   -17358 
  -17520   -17334   -17016   -17034   -17254   -17205   -17010   -17008 
  -17009   -16957   -17101   -17302   -17336   -17135   -16869   -17116 
  -17805   -17897   -17187   -16845   -17215   -17253   -17119   -17409 
  -17079   -16583   -17314   -17446   -16264   -16379   -17645   -17933 
  -17369   -16856   -16887   -17538   -18276   -18106   -16327   -14619 
  -14404   -14735   -16823   -20290   -19961   -16418   -15395   -17547 
  -19798   -19937   -18837   -18235   -17209   -16264   -16233   -15158 
  -14577   -16373   -17765   -18922   -21182   -22732   -21399   -14309 
   -7344   -11171   -19310   -21193   -19475   -17869   -16771   -15669 
  -15126   -15172   -12717   -14235   -23778   -27123   -23895   -25705 
  -22767    -9730    -2968    -9798   -20879   -25239   -23911   -23481 
  -15693    -1416    -4136   -23725   -34916   -27502   -10176    -3153 
  -15273   -23422   -15232   -11695   -20873   -27240   -19831    -4811 
   -4080   -22057   -35719   -36614   -26008    -2412     9537    -6667 
  -25865   -30820   -27903   -20824   -11059    -6374   -13217   -19461 
  -14348   -14047   -26161   -28758   -11592      861   -12383   -28814 
  -18603    -3049   -10859   -20739   -19391   -24122   -28376   -23106 
  -14611    -4179    -8729   -28500   -32441   -25813   -22802    -9191 
    7816     7880    -8134   -31253   -50579   -45350   -12034    12255 
    7738    -2220   -11488   -31998   -49582   -42670   -18413     -147 
   -1465   -13077   -14877   -16010   -28141   -25159    -9875   -16422 
  -31536   -28627   -12555      710    -2950   -15143   -21371   -26673 
  -27203   -17814   -12823   -13878   -11754   -17253   -32160   -31848 
  -13908    -2762    -5943   -15210   -26095   -31483   -22069    -7221 
   -5981   -12710   -14905   -22813   -37417   -36152   -13477     7242 
    7679    -5589   -21282   -37563   -49095   -42401   -11972    16947 
   13485   -10135   -26548   -32568   -31104   -21821    -7500     1858 
   -6848   -22251   -24915   -26199   -26767   -12684    -3374    -8495 
  -16848   -28584   -31405   -23635   -19232    -8871     -545   -15935 
  -29504   -17699    -7939   -14940   -17784   -14280   -17013   -22498 
  -26693   -26147   -12036     6061       76   -28127   -37565   -23418 
  -22944   -32922   -21079     8340    16919   -13015   -44554   -46230 
  -30338    -5641    11829    -3090   -29057   -32015   -18576   -14078 
  -22879   -19122    -1473    -6863   -32210   -38819   -22840    -8236 
  -12857   -23053   -13604    -7051   -18757   -18938   -12984   -15733 
  -16033   -22380   -26171   -12352    -8337   -16990   -18898   -20859 
  -18886   -10719   -11542   -16508   -14920   -14649   -22511   -23510 
  -12754   -14271   -25368   -27089   -27148   -21002     -112    11595 
   -1314   -23714   -42306   -48735   -30888    -3916     5076     1889 
  -10815   -33489   -37290   -20772    -8939    -2613    -5428   -20212 
  -30946   -30442   -19201    -6646    -8733   -17360   -20224   -23383 
  -24702   -14525     -628    -2469   -21574   -36697   -33436   -18611 
   -6367      341      621   -18050   -44483   -43679   -18908    -1719 
     186    -5084   -12637   -20167   -27418   -31918   -25237    -9527 
   -6546   -15816   -15738   -16474   -25789   -22333   -10898   -11518 
  -19481   -22216   -14351    -8426   -18027   -23967   -17911   -22445 
  -28463   -17009    -6519    -8966   -16146   -20981   -18455   -14789 
  -19090   -24425   -19185   -10527   -11618   -17343   -21591   -24127 
  -22241   -20809   -19028   -10457    -6184   -13449   -20821   -20721 
  -15572   -13419   -17769   -20023   -19596   -22010   -21325   -20343 
  -25417   -21623    -5916    -1888   -13897   -22199   -21512   -21419 
  -23364   -21488   -16200   -12028    -7540    -4334   -10038   -22758 
  -32594   -31963   -22943   -14197    -7530    -5324   -10874   -16320 
  -17032   -18339   -20899   -19880   -18014   -21035   -19872   -11638 
  -13172   -19031   -12566    -9512   -19443   -25804   -23578   -17822 
  -13806   -16617   -22171   -22453   -15137    -9522    -9805    -7364 
  -10341   -22830   -26182   -25015   -28924   -22148    -8202    -5785 
  -11663   -16947   -21063   -22721   -20965   -17741   -15397   -17068 
  -20425   -18379   -13943   -14101   -17210   -21676   -26287   -23608 
  -15024   -12062   -11896    -8325   -11280   -22289   -28454   -23185 
   -8894    -2406   -15283   -26710   -25086   -21564   -14191    -7599 
  -11808   -18738   -25859   -30054   -22921   -11735    -2935     -582 
  -11647   -27045   -34308   -29368   -13206    -2305    -7409   -16302 
  -24212   -33389   -33883   -23615   -11999    -5174    -7946   -15032 
  -17321   -19278   -21029   -16439   -12896   -17515   -22280   -17712 
   -8748    -6789    -9934   -15134   -26714   -30516   -15711    -7532 
  -17220   -23602   -24759   -29498   -27400   -13507    -2026    -4249 
  -12345   -14858   -18693   -29530   -33619   -24147   -11512    -8304 
  -16827   -16982     -445     3440   -14283   -29850   -36167   -33874 
  -21259    -9294    -4878    -4977   -10551   -22672   -33555   -31128 
  -15701    -1611     -289   -12250   -28334   -37659   -33702   -17324 
   -2485      492    -5858   -18735   -28562   -29952   -29332   -19426 
   -2304    -1018   -12583   -20521   -25889   -27175   -21072   -15349 
  -13796   -14028   -17810   -18528   -10399    -8948   -20926   -32571 
  -32818   -20987   -10268    -8331    -6268    -4221   -11249   -26778 
  -38991   -31166    -7569     2724    -5934   -15359   -23167   -32107 
  -32021   -15386     -159    -5737   -16366   -19580   -26370   -30293 
  -20627   -11911   -13557   -13937   -11586   -18908   -30555   -27323 
  -11919    -8019   -17251   -17287   -13900   -23424   -24290    -8265 
   -2698   -10107   -14391   -17774   -26562   -32671   -24113    -9752 
   -6565    -7972    -7243   -16537   -31459   -34877   -28805   -18467 
   -7832    -4983    -7156   -13001   -21540   -24047   -21173   -14703 
   -9724   -15018   -19727   -19395   -24599   -28259   -21461    -9584 
   -3628   -12633   -25526   -28132   -22453    -9822    -3555   -14463 
  -20600   -19634   -26593   -21494    -4817   -10053   -27869   -29378 
  -18926   -12799   -15744   -16576   -11166   -14911   -24576   -22204 
  -10988    -6572   -14722   -21008   -14002   -10068   -20859   -30221 
  -24870   -17229   -20031   -20069    -8750    -1486    -8456   -24015 
  -33141   -28109   -20368   -14221    -5048     -954    -9105   -26544 
  -41050   -34141   -13588    -4782    -4996    -6771   -16435   -26326 
  -29718   -25004   -10966    -8261   -19320   -17740   -10672   -17684 
  -24868   -19178   -14696   -20202   -21039   -13006    -7971    -7978 
  -13222   -21841   -26543   -27439   -22235   -13051    -7264     -758 
   -4343   -26847   -40160   -29241   -12120    -6196   -11763   -13521 
  -13394   -23236   -30458   -27483   -17277    -1702    -1571   -20846 
  -30599   -22545   -11946    -8401   -14712   -25537   -27372   -16277 
   -6479    -8418   -14479   -18400   -24664   -30396   -26151   -16850 
  -12352    -9836    -7838   -12745   -22615   -22523   -10423   -12205 
  -34540   -44406   -28244    -7582     1105     -464    -3330   -10367 
  -26554   -38203   -35604   -23771    -7636     4464    -1795   -24019 
  -35066   -26343   -17912   -17597   -18736   -15478    -9005    -7504 
  -11631   -15990   -14984   -11608   -20818   -32435   -23481    -9816 
  -10247   -16502   -22632   -22598   -15376   -12213   -12686   -12856 
  -14863   -16473   -16853   -17133   -18344   -20503   -20516   -19176 
  -18381   -16799   -13945   -11818   -14291   -20578   -26490   -28182 
  -20513    -8793    -6064   -13010   -19222   -19022   -18522   -21470 
  -21589   -19285   -17594   -13160   -15204   -27549   -28566   -19277 
  -18307   -14353    -3081    -3218   -13156   -21461   -29240   -29608 
  -15782    -5819   -11746   -18434   -15336   -10561   -13577   -19262 
  -21772   -24940   -22463   -16084   -19689   -20346    -8292    -5247 
  -18846   -28686   -25040   -19641   -13341    -4221    -8346   -19381 
  -19952   -22460   -25737   -17318   -15663   -24564   -22213   -13207 
  -10299    -5591    -3444   -17563   -28273   -22168   -24205   -29635 
  -19314   -11913    -9780    -7417   -20864   -32814   -22014    -7819 
   -6217   -15721   -21898   -17820   -21106   -25273   -16147   -14310 
  -23613   -24854   -16425    -6923    -5644   -14661   -23449   -25350 
  -23811   -21783   -14740    -4964    -8342   -23273   -31809   -30989 
  -19505      716     8044    -3440   -20212   -36293   -42087   -34521 
  -21023    -1503    10721     2989   -12596   -29224   -37951   -26949 
  -13524    -9221    -3878    -5472   -20916   -32675   -30896   -19428 
   -5775    -4914   -14773   -17833   -17821   -20592   -18787   -17088 
  -18738   -17582   -16901   -15645   -10324   -13615   -26185   -28293 
  -20667   -20473   -21643    -9662     -468   -11918   -27464   -33592 
  -31333   -14978     4280     6371    -6656   -23257   -35476   -38169 
  -25315    -2285     6038    -6606   -21261   -31234   -36547   -30132 
  -10666     6589      491   -21513   -34194   -32205   -21281   -12193 
  -11266    -7777    -7691   -21737   -26906   -17578   -17905   -22182 
  -20794   -22140   -16435    -3911    -3662   -11099   -18075   -30819 
  -39864   -29932   -10888     -655    -2876   -14054   -23863   -23233 
  -20680   -21475   -16222    -8103   -13869   -28168   -26304   -16462 
  -19684   -18663    -7349    -8429   -19013   -23289   -20769   -17120 
  -18366   -19172   -11317    -6299   -14962   -28155   -32067   -24817 
  -17198   -12122    -2906      932   -11209   -25195   -29515   -28830 
  -26260   -23092   -14528    -1408    -2996   -17284   -19812   -12613 
  -14336   -28151   -40720   -31851    -5773     6717    -2097   -14863 
  -21336   -22976   -29629   -34820   -19793     -240      541   -11588 
  -27739   -37501   -33496   -21057    -3208     6175    -2767   -16707 
  -31825   -41872   -34333   -23823   -19742   -11375    -2721    -3909 
  -15085   -24697   -20252   -15857   -25371   -31342   -23161   -12624 
   -5797    -2482    -7351   -18655   -29151   -39453   -46149   -37036 
  -14399    -1484    -9340   -19441   -24053   -33658   -38502   -29708 
  -19648   -11763    -7157   -11352   -16065   -18801   -19179    -1994 
   20466    14450   -15185   -38484   -44254   -38520   -29499   -22525 
  -17385   -14075   -15661   -16490   -10140    -6637   -18242   -39825 
  -53870   -50272   -32451    -5267    24322    41831    39771    21471 
  -12828   -51044   -57088   -22485    -1011   -27863   -55237   -41219 
   -8619    23760    51772    55034    31251    -9501   -71167  -109479 
  -62418    11387    23521    10215    12422    -1443   -32357   -58151 
  -72679   -57185   -14100    25120    51428    65466    56406    17892 
  -36676   -84143  -121480  -129172   -61424    47447   102048    93519 
   65920     -371  -105289  -164716  -146364   -91672   -14709    62213 
   87441    63925    34096     3086   -42179   -78829   -68174   -18887 
   28149    63506    85345    59326   -28664  -126058  -161283  -122455 
  -72208   -57890   -53805   -37697   -14592    18667    46341    50597 
   36578     4994   -41753   -81454   -74294    -2056    78206    82407 
   17351   -35486   -58715   -83233   -76852   -10852    63908    69839 
  -17519  -109820  -127667   -95721   -30095    23994    11539     6717 
   31337    -2540   -66065   -64217    -3980    32871    11496   -28797 
  -74548  -107315   -55773    49071    86997    56541    38267    33110 
   -2597   -56251   -82987   -67655   -17602    33641    23469   -43537 
  -96336  -123148  -129698   -72040    40360   119523   113356    46500 
  -27903   -63845   -61890   -56734   -34122    18294    40615    14191 
  -16449   -49804   -89178   -82726   -12363    55587    70153    35897 
  -39052  -112389  -119015   -73379   -28181    15231    49935    42244 
    4244   -25144   -39070   -45998   -43586   -25801    -5104   -10946 
  -36572   -29086    21425    50940    29353    -2818   -34371   -77077 
  -88971   -41286    20711    48800    40764    10029   -41651   -99557 
 -119176   -79895   -21306    15954    34751    27987   -22499   -73480 
  -75074   -36417    33869   105537   105955    37661   -22833   -48855 
  -74953  -100895   -79228   -24936     6522    13864     4309   -23564 
  -50273   -49441    -8962    31697    28939     4457   -23753   -66952 
  -94335   -69953   -18899    19902    36174    31632     4571   -34830 
  -52447   -40679   -22983    -1471    19067    16220   -15965   -49903 
  -47333   -28611   -28576   -16160    11909    15674     5005    -9846 
  -37897   -52625   -46586   -48936   -51017   -31196   -12850   -12053 
   -3836    15564    23426    21224    15772     1055   -19364   -41384 
  -66261   -81784   -72763   -50329   -29120     6189    49098    57280 
   29599    -1766   -23212   -31074   -28263   -20214    -6217      500 
  -21108   -59642   -78500   -66187   -34343     7224    37647    44297 
   34558     2331   -51272   -97255  -103293   -53269    21177    62485 
   61999    43471     1909   -60422   -95701   -81208   -46991    -8848 
   33230    47747     8510   -39768   -54091   -61968   -66122   -43704 
  -18309    -6656    -3028    -3308     2231     9362     4363   -17974 
  -42345   -40977   -27025   -21538    -3798    20983    18913   -17804 
  -70592   -90112   -55582   -15703     4305    22969    39300    28848 
  -19610   -61813   -55089   -30655    -7825    29872    45006     8549 
  -32152   -55127   -76616   -71752   -31285    -2526    -6802   -22041 
  -21147     7616    24542     1492    -8268     9390    -1403   -34083 
  -46648   -35512    -9918    -1944   -25123   -33440   -22907   -23648 
  -14468     9279    14220    -7747   -38664   -48416   -29652   -12635 
   -6487     5527    15020    -1901   -43092   -69782   -46770     8961 
   50393    47455     1325   -58385   -97750   -98081   -59435    -7477 
   29934    46997    34175   -10511   -50147   -62342   -59926   -36985 
    7236    30422    12320   -13325   -21831   -26756   -42544   -50270 
  -26210     3229    -2399   -18468    -7980     -552   -15757   -28771 
  -38374   -44598   -36621   -23247    -1461    28756    35301     6428 
  -33028   -58159   -61883   -52889   -32657    -4278    15022    22764 
    9445   -32823   -55909   -35471   -18663   -21589   -15441    -1298 
  -10169   -40353   -45864   -20532    -5154     -694     7639     6886 
   -2110    -9671   -19922   -28772   -29347   -27958   -30186   -30999 
  -21797    -9194    -6411    -5046    -5819   -22988   -35907   -27326 
  -12529      757     2062   -11718   -18238   -24454   -41583   -39408 
  -19989   -13470   -12231    -9414    -7994    -2197    -5031   -21188 
  -31237   -32937   -31557   -19825    -3610     2183     6555    13781 
    5628   -11303   -27179   -51174   -62840   -44091   -17419      735 
   11555    12690    -5422   -41690   -65153   -58473   -39604   -11468 
   23826    38538    22606   -14855   -55448   -68899   -56931   -32283 
   10305    37580    18737   -14941   -41894   -62686   -57507   -25538 
     813     5971     2882       50    -5302   -11295   -18303   -25692 
  -23123   -17544   -28795   -43487   -31756    -4823     4739    -3961 
  -16979   -32286   -38733   -22368    -2363     1301     2775     3337 
  -13726   -37919   -49091   -45917   -31447    -6547    14901    11128 
  -14242   -32142   -34563   -34225   -26965   -11240    -1375    -1327 
  -11054   -25945   -27726   -14020      589    10209     7149   -15843 
  -41692   -52434   -50122   -32860    -2342    25161    32249     -192 
  -52995   -72286   -59320   -42758   -18860     3245    11492     7249 
  -16197   -36836   -36854   -38103   -27883     6128    16390   -10514 
  -32007   -33649   -27468   -15008     3133    19864    20272   -10155 
  -50623   -59962   -37257   -12213     4176    13284     5591   -23028 
  -51587   -52579   -25579     4840    19059    12599    -7482   -28413 
  -44450   -53702   -44952   -10714    27025    33181     2078   -38423 
  -57041   -46469   -23375    -5524     2621     5203     1584    -8432 
  -17481   -28147   -39523   -33831   -19223   -21131   -27989   -20147 
  -10411    -8183    -6389    -8966   -16630   -20881   -24970   -30379 
  -31708   -29294   -21865    -9631     1593     8463     2544   -20384 
  -39264   -38416   -25795    -5748    12119    10824    -5607   -20348 
  -30148   -45746   -56201   -36165    -6704    -3104   -11095   -10806 
  -14289   -27884   -35646   -24948    -6228    -1900   -16155   -28741 
  -24461   -14268   -12877   -14534   -14531   -20280   -27470   -25282 
  -10263    11742    19777     7796    -8991   -30253   -51138   -54386 
  -41218   -18235     6123    15005     5346   -14908   -34762   -40374 
