Origin Time       2024/04/02 04:24:00
Lat.              40.133
Long.             141.712
Depth. (km)       71
Mag.              6.0
Station Code      IWTH20
Station Lat.      39.3434
Station Long.     141.0473
Station Height(m) 106
Record Time       2024/04/02 04:24:55
Sampling Freq(Hz) 100Hz
Duration Time(s)  218
Dir.              6
Scale Factor      7845(gal)/8223790
Max. Acc. (gal)   15.335
Last Correction   2024/04/02 04:24:56
Memo.             
[...]
  -15269   -15842   -15373   -14890   -15040   -15850   -16632   -15886 
  -14644   -14446   -14852   -16546   -19480   -20988   -20023   -17998 
  -15695   -13400   -12984   -15608   -18424   -18551   -17437   -17491 
  -18330   -18715   -18580   -17672   -16069   -14797   -14451   -14987 
  -15061   -14661   -16201   -18539   -18805   -18029   -16854   -15361 
  -15936   -16968   -15701   -15164   -15877   -15275   -15232   -16839 
  -17790   -17845   -17242   -15380   -14750   -16576   -17443   -17462 
  -19060   -19309   -17163   -16179   -15340   -13564   -14382   -16854 
  -17948   -18775   -18430   -15836   -14204   -14647   -15276   -15687 
  -16715   -18129   -18203   -17045   -16900   -17628   -17545   -16465 
  -14845   -14442   -16607   -18665   -18392   -17521   -16571   -14416 
  -13113   -14434   -16762   -19525   -21598   -20385   -18072   -17583 
  -17250   -16656   -16244   -14985   -14037   -14801   -16754   -18328 
  -17479   -16062   -17818   -19623   -17464   -15804   -17061   -16981 
  -15896   -16245   -17055   -17909   -17703   -15789   -14894   -16465 
  -18403   -18515   -18377   -20262   -21101   -18728   -16610   -15171 
  -12523   -11716   -14847   -17940   -17741   -16421   -16339   -16642 
  -16352   -15866   -16437   -18006   -18590   -17932   -17521   -16857 
  -15315   -15253   -17039   -17917   -17339   -15996   -14623   -14901 
  -17226   -19531   -19661   -18347   -17051   -14894   -12413   -12680 
  -15167   -18007   -21844   -22897   -18612   -14535   -12676   -12325 
  -14493   -15831   -15589   -17597   -19774   -18806   -17278   -17163 
  -17485   -18065   -18038   -16706   -16285   -16606   -15527   -15681 
  -17633   -17577   -16987   -17235   -16054   -16303   -19152   -19885 
  -18130   -16125   -15160   -15946   -16602   -16726   -16978   -17477 
  -19279   -19800   -17242   -15583   -15693   -15250   -15261   -16405 
  -17787   -19322   -19021   -16143   -13865   -13455   -14420   -15930 
  -16411   -16375   -16185   -16183   -18094   -19669   -18457   -17008 
  -16459   -15392   -14104   -13960   -15946   -18679   -19026   -17597 
  -17246   -17537   -16965   -15908   -15492   -15939   -16426   -17186 
  -18535   -18354   -16100   -14700   -14470   -14139   -15284   -17531 
  -18848   -20178   -20695   -17961   -14311   -13285   -14532   -15885 
  -16549   -17112   -16927   -15606   -14804   -15113   -15997   -16507 
  -16158   -16858   -18424   -18009   -16443   -16335   -17636   -18823 
  -18436   -17304   -17397   -17493   -16610   -16413   -16650   -16654 
  -17242   -17698   -17173   -15924   -14521   -14974   -17338   -18081 
  -16995   -16464   -15395   -14265   -15745   -17555   -17613   -18040 
  -18690   -18072   -17039   -16717   -17265   -17532   -16795   -15978 
  -14906   -14521   -16644   -18542   -18235   -17535   -16768   -16321 
  -16376   -15380   -14505   -15195   -15407   -15051   -16222   -17860 
  -18755   -19943   -20008   -17504   -15724   -16380   -16765   -16305 
  -16474   -16792   -16104   -15233   -16367   -18472   -18315   -17578 
  -18319   -17343   -15022   -15022   -15876   -15912   -15977   -15693 
  -15595   -16260   -16540   -16960   -18084   -18873   -19561   -19780 
  -18673   -17508   -16961   -16920   -16830   -15847   -15520   -16212 
  -15989   -15622   -16675   -18250   -18640   -17313   -16217   -17007 
  -17793   -17703   -17934   -17496   -16073   -15330   -15776   -16954 
  -17767   -17001   -15202   -14499   -15730   -17458   -18540   -18542 
  -17066   -15039   -13720   -13849   -16190   -18125   -16514   -14662 
  -15780   -17558   -18137   -18192   -17922   -16850   -15712   -15168 
  -15003   -15645   -17011   -18214   -18492   -17543   -16177   -15705 
  -16464   -17213   -17598   -18200   -17550   -15749   -15880   -17679 
  -18426   -17770   -16237   -15020   -15498   -16845   -18091   -18102 
  -16225   -15057   -16210   -17905   -17968   -16414   -15633   -16120 
  -16490   -16835   -16842   -16135   -16189   -17194   -17797   -17793 
  -17452   -17373   -17675   -17088   -16583   -17772   -18808   -18766 
  -18434   -16457   -13149   -12498   -15276   -17535   -17698   -17466 
  -16912   -15483   -14859   -16109   -17408   -17670   -17923   -17648 
  -16002   -15217   -16403   -17215   -17018   -17199   -17537   -17490 
  -17475   -17232   -16106   -14943   -15144   -16312   -16838   -16156 
  -15263   -14932   -14891   -15537   -17097   -17937   -17659   -17427 
  -16999   -16502   -16746   -16752   -16281   -17037   -18046   -17390 
  -16896   -17556   -17786   -17554   -17577   -17775   -17190   -15957 
  -16583   -18245   -17466   -15673   -15654   -16271   -16390   -16843 
  -17404   -17020   -16213   -15870   -16205   -16908   -16515   -15163 
  -15437   -17032   -17690   -17788   -17340   -15920   -15068   -15353 
  -16380   -17332   -16783   -15836   -15997   -16750   -17868   -18500 
  -18134   -17717   -16902   -16135   -17085   -18800   -19545   -19013 
  -17473   -16097   -15654   -15053   -14528   -15525   -16457   -16283 
  -17030   -18499   -19028   -18598   -17305   -15947   -15726   -16258 
  -17331   -18643   -18261   -16066   -14625   -15489   -17563   -18609 
  -18283   -17510   -16374   -15418   -15403   -16457   -18374   -19672 
  -18819   -16233   -13971   -13838   -15269   -16694   -17664   -18565 
  -19168   -17620   -14994   -15160   -16139   -14920   -14870   -17319 
  -19350   -19337   -17389   -15800   -15466   -14605   -14283   -15207 
  -15738   -16648   -17361   -16405   -15800   -15592   -15040   -16140 
  -18243   -18550   -16896   -15842   -16951   -17788   -16907   -17082 
  -18256   -17406   -15280   -13941   -14245   -16124   -16849   -15541 
  -15024   -15800   -16517   -17450   -18752   -19340   -18688   -17909 
  -18192   -18540   -17374   -16216   -17262   -18589   -18002   -17185 
  -17172   -17054   -17199   -17305   -15892   -14223   -14833   -17039 
  -18361   -17864   -16093   -14713   -15209   -16426   -16935   -17618 
  -18666   -19070   -19368   -19534   -17953   -15781   -15379   -15824 
  -15820   -16075   -16833   -17042   -16279   -15673   -15944   -15822 
  -14985   -15329   -16775   -17768   -18046   -17366   -16312   -16012 
  -16328   -16950   -17239   -16713   -16613   -17739   -18686   -18006 
  -16367   -15692   -16233   -16591   -16437   -15969   -15282   -15363 
  -16461   -17298   -16653   -14939   -14081   -14716   -15952   -17359 
  -18445   -18611   -17986   -16652   -15144   -15149   -16776   -18203 
  -18985   -19462   -18900   -17848   -17898   -18081   -17386   -16606 
  -15708   -15187   -15414   -14835   -13942   -15063   -17647   -18972 
  -17802   -16011   -16622   -18469   -17876   -16345   -16239   -15778 
  -15460   -16486   -16972   -17024   -17741   -18219   -17763   -16236 
  -14689   -14750   -15799   -17019   -18874   -20154   -18972   -16444 
  -15678   -16834   -17574   -18018   -17953   -16374   -15876   -16916 
  -16750   -16152   -16168   -15893   -15824   -16222   -16646   -17663 
  -18693   -18088   -16309   -15126   -15138   -15959   -16945   -17675 
  -18146   -18069   -17126   -15984   -15897   -16413   -15827   -15202 
  -16353   -17986   -18590   -17641   -15485   -14816   -16406   -17082 
  -16116   -16182   -17859   -19415   -19564   -17960   -15654   -14517 
  -14575   -14486   -14405   -15115   -16433   -17505   -17450   -16625 
  -16185   -16579   -17516   -17942   -17109   -16013   -15317   -14827 
  -15566   -17374   -18596   -19457   -19827   -18160   -15562   -15171 
  -16795   -17315   -16148   -14616   -13139   -12811   -14675   -16856 
  -17203   -17158   -17539   -16995   -17327   -20012   -21138   -18443 
  -16055   -16206   -16387   -16795   -17922   -17733   -17463   -17922 
  -16714   -15025   -15344   -16443   -17251   -18219   -18585   -17606 
  -16544   -16688   -17263   -16943   -16051   -15522   -15954   -18017 
  -19977   -19684   -18877   -17886   -15616   -14979   -16772   -17878 
  -17682   -17092   -16177   -14891   -14007   -14586   -15284   -14785 
  -14956   -16533   -17699   -18206   -18917   -19213   -18517   -17581 
  -17266   -17497   -17184   -16272   -15549   -14828   -14894   -15672 
  -15480   -16425   -19237   -19499   -17462   -15911   -13956   -13126 
  -14712   -15858   -16468   -17108   -16289   -16240   -18534   -19812 
  -18835   -17755   -16987   -15726   -15086   -15525   -16216   -18322 
  -20509   -19030   -15638   -13771   -13281   -14419   -16857   -17475 
  -16235   -16218   -17065   -17317   -17516   -17608   -17844   -18069 
  -16938   -15834   -15977   -16016   -16578   -17691   -17531   -17217 
  -17221   -16248   -16063   -17158   -17216   -16784   -16966   -16406 
  -15333   -15979   -17429   -16996   -16452   -17703   -17860   -16063 
  -15068   -15607   -16594   -17356   -17325   -16351   -16069   -17236 
  -17504   -16586   -16657   -16872   -15916   -15568   -16561   -17397 
  -17629   -16679   -15284   -17109   -20143   -19353   -17568   -17080 
  -15620   -15137   -16384   -16366   -16441   -17512   -16654   -15209 
  -16177   -17108   -16079   -16056   -17548   -17705   -17199   -17706 
  -17660   -16390   -15727   -16798   -17749   -16016   -14270   -15908 
  -18091   -19005   -19596   -18314   -15715   -14945   -15726   -16104 
  -16818   -18717   -19203   -17405   -16038   -14877   -14100   -16287 
  -18800   -19288   -20040   -19988   -17722   -15795   -15773   -16414 
  -15996   -15938   -17078   -16262   -14173   -13937   -14685   -15503 
  -16318   -17223   -18798   -19168   -17181   -14921   -13683   -14297 
  -17410   -20170   -19286   -15990   -13724   -13960   -15071   -15558 
  -16754   -18480   -18503   -17103   -15700   -14916   -15583   -17825 
  -18962   -17122   -15331   -15554   -16393   -17902   -19614   -19242 
  -17159   -16070   -16298   -16916   -18157   -18752   -17967   -17477 
  -17244   -16688   -16185   -15462   -15403   -16121   -15905   -16143 
  -17822   -18075   -17348   -17926   -17926   -17092   -17644   -18203 
  -17342   -16368   -15473   -14746   -15082   -15803   -16551   -17659 
  -17911   -16873   -15842   -15488   -15523   -15484   -16156   -18389 
  -19419   -17517   -16457   -16885   -15842   -15730   -17826   -17747 
  -15498   -14850   -15160   -14411   -14177   -15680   -16957   -17119 
  -17265   -17489   -17712   -18068   -17377   -15734   -15438   -16526 
  -17317   -17562   -17458   -17199   -17024   -17462   -18260   -17763 
  -16830   -17028   -17043   -16708   -16376   -14735   -13263   -14404 
  -16282   -16800   -16394   -15225   -14588   -16349   -18698   -18318 
  -16062   -15792   -17436   -18343   -19307   -20285   -19259   -17832 
  -17167   -16005   -15504   -16406   -16789   -16448   -16352   -15803 
  -15495   -17239   -18828   -17848   -17091   -17759   -17078   -16263 
  -16896   -16536   -16534   -18592   -19172   -17895   -17185   -16471 
  -16043   -16945   -17259   -16143   -15897   -16837   -17269   -17795 
  -18870   -18364   -16136   -14980   -15962   -17950   -19626   -19804 
  -18769   -17532   -15842   -14617   -15371   -16317   -15993   -16258 
  -17266   -16173   -13203   -12410   -14112   -14841   -14087   -13370 
  -13946   -15673   -15759   -14076   -13396   -13572   -14114   -15955 
  -17610   -17302   -16714   -17093   -16684   -15997   -17431   -19156 
  -19075   -18777   -18628   -17810   -16810   -16447   -17321   -18029 
  -17518   -18102   -19489   -19300   -19757   -21787   -21957   -20360 
  -19242   -17926   -16295   -16071   -17240   -18046   -18019   -17594 
  -16389   -15186   -15535   -16745   -17169   -16506   -15766   -15419 
  -14704   -14559   -16012   -16642   -15978   -16812   -17963   -16910 
  -15850   -16671   -17207   -16356   -16062   -16791   -16929   -16430 
  -16364   -16717   -16168   -13990   -12667   -13674   -13933   -13244 
  -14409   -16421   -18553   -19637   -17271   -15896   -18000   -19280 
  -20502   -22302   -20316   -15913   -14311   -15406   -16326   -16320 
  -16011   -15776   -15974   -16852   -17689   -18428   -19593   -19880 
  -19773   -21064   -20930   -18689   -17913   -17297   -16052   -16806 
  -17338   -15691   -14629   -14276   -12972   -12804   -15196   -18258 
  -20445   -20256   -17770   -15672   -14540   -13231   -12344   -13394 
  -15819   -16696   -14955   -13408   -14337   -16028   -16563   -17084 
  -18678   -19176   -16571   -14504   -16235   -18960   -21001   -21508 
  -18797   -16046   -15403   -15449   -17805   -21550   -22293   -21546 
  -22493   -22990   -20533   -16285   -13165   -12467   -12807   -12947 
  -12842   -13518   -16537   -20125   -21077   -20248   -19462   -18881 
  -18947   -18947   -17950   -16657   -14889   -11847    -8166    -6543 
   -8561   -12098   -15419   -17300   -17240   -16869   -15342   -12880 
  -13126   -14809   -14193   -13169   -14477   -16146   -15516   -12907 
  -12465   -17849   -25064   -28919   -29849   -27475   -20791   -13406 
   -9545    -9566   -12405   -16977   -19784   -18770   -17244   -17018 
  -16136   -15375   -16148   -16482   -16559   -18068   -18794   -17309 
  -14558   -11107    -9274    -9764   -10746   -13382   -17788   -21146 
  -22451   -20772   -16024   -12471   -14735   -21631   -28119   -30897 
  -27301   -18454   -10786    -6245    -5316   -10731   -17828   -21288 
  -24472   -27572   -24533   -17084   -12864   -12469   -12424   -12221 
  -12501   -11776    -9173    -8407   -10287   -11680   -13329   -15465 
  -17801   -20534   -19823   -15110   -10153    -7819   -10473   -14874 
  -16351   -17972   -20598   -18846   -14494   -13030   -13886   -17200 
  -23373   -29205   -32841   -31402   -23546   -17103   -16919   -18616 
  -20563   -21995   -21100   -20514   -20895   -20135   -18063   -15996 
  -16345   -17658   -17948   -19246   -19468   -15723   -11314   -10191 
  -12116   -14304   -17194   -21448   -23299   -21624   -18257   -13651 
   -9776    -9609   -11496   -12313   -14644   -16885   -14006   -11915 
  -13054   -12607   -14320   -19704   -23191   -24318   -24035   -21269 
  -19336   -20417   -20518   -19469   -20274   -20737   -19541   -18864 
  -17543   -15731   -17760   -21265   -20772   -19012   -19184   -19705 
  -20032   -20464   -20275   -18457   -16069   -15766   -17162   -18382 
  -18939   -18118   -15932   -14507   -14742   -14500   -13325   -12833 
  -12182   -10777    -9690    -8410    -7304    -7751    -9310   -11454 
  -12906   -12850   -14115   -17366   -19365   -20595   -22303   -21749 
  -20737   -23461   -25338   -21936   -17717   -15728   -15153   -16386 
  -16854   -14349   -13041   -13061   -10516    -9656   -12379   -12625 
  -12478   -16476   -20209   -20898   -20451   -20186   -20912   -21215 
  -19055   -16213   -15130   -15252   -15394   -15051   -13772   -11726 
  -10131   -10972   -13620   -13832   -11927   -13217   -16723   -17128 
  -14983   -13576   -12793   -12532   -14756   -17743   -17556   -16433 
  -17126   -16686   -15199   -14993   -14597   -15003   -17699   -18941 
  -17340   -15867   -15553   -16016   -17872   -19863   -19508   -18750 
  -18800   -16514   -14235   -15338   -15769   -14862   -17122   -21774 
  -24025   -21984   -18512   -16907   -16846   -16757   -16808   -18369 
  -20343   -19981   -18493   -18385   -19125   -19502   -19029   -17506 
  -15423   -14432   -15448   -17316   -18442   -17676   -16344   -17189 
  -19156   -20216   -20939   -21421   -22123   -23395   -22813   -19572 
  -15839   -13743   -14488   -15831   -15373   -15164   -16137   -17088 
  -17741   -17568   -17597   -17261   -13672   -10002    -9648   -10053 
  -11099   -14690   -19155   -22123   -23669   -24039   -22017   -18149 
  -15314   -15799   -19342   -22735   -23171   -20737   -17228   -13724 
  -10470    -9589   -11832   -14527   -15847   -15367   -14994   -15912 
  -14814   -12197   -12205   -13956   -15957   -19460   -22049   -20460 
  -17381   -15047   -13130   -13585   -14905   -14246   -14801   -17132 
  -17319   -16478   -17393   -17942   -17454   -19180   -22137   -23834 
  -25355   -25444   -22578   -19256   -16995   -16375   -18088   -19800 
  -20436   -21215   -19953   -16398   -14355   -13462   -12314   -12722 
  -13367   -11789   -11443   -14250   -15666   -15226   -15816   -15674 
  -14936   -15317   -13963   -11576   -11369   -11682   -11978   -13045 
  -13848   -15473   -18571   -20181   -19346   -18536   -19259   -21146 
  -22202   -21944   -21533   -18831   -14227   -12835   -14049   -13447 
  -12557   -14461   -17334   -19784   -21224   -19839   -17583   -15360 
  -12098   -11816   -14092   -14534   -16059   -18281   -17289   -17358 
  -19442   -17872   -15153   -15925   -16803   -17120   -19672   -21344 
  -19808   -17524   -15711   -14540   -14175   -13625   -12804   -12549 
  -12324   -11680   -11040   -11246   -13495   -16484   -17450   -16175 
  -14817   -15754   -18103   -18939   -18813   -19548   -20267   -19701 
  -18372   -17741   -17737   -17325   -16807   -15433   -12418   -11079 
  -13641   -17270   -20247   -22599   -22250   -19765   -18435   -17571 
  -16893   -19157   -22435   -22327   -19363   -16495   -15002   -14542 
  -14412   -14407   -14168   -14551   -16989   -18463   -16630   -15371 
  -15354   -14550   -16073   -19059   -19099   -19095   -20456   -20140 
  -19305   -19176   -19148   -18978   -17697   -16945   -18796   -20337 
  -19453   -17944   -15824   -13452   -13845   -16212   -17377   -18257 
  -19445   -18395   -16557   -17151   -18056   -17971   -19340   -21193 
  -20912   -19561   -18231   -16428   -15442   -16414   -17703   -17863 
  -17747   -17741   -16348   -14180   -13567   -14332   -15739   -16911 
  -16089   -14376   -14161   -14975   -15475   -16221   -17131   -15920 
  -13745   -14241   -16229   -17153   -16652   -14426   -12402   -12974 
  -15064   -16951   -17437   -16281   -15452   -15809   -16347   -16212 
  -15566   -15901   -17266   -18246   -18484   -17529   -15695   -15342 
  -16819   -17494   -16549   -15502   -15450   -16646   -17969   -18500 
  -19589   -21605   -22684   -22107   -21073   -20035   -17508   -14598 
  -14739   -16818   -18391   -19843   -20218   -18503   -16143   -14732 
  -14975   -16109   -17072   -17234   -15611   -13243   -11754   -10924 
  -11784   -13933   -13540   -11421   -11256   -11588   -11713   -13239 
  -14079   -13435   -13451   -13679   -13406   -13825   -15194   -15889 
  -14277   -11989   -12023   -13338   -14609   -17047   -18550   -17625 
  -18142   -20397   -20579   -19822   -21028   -22515   -22675   -22755 
  -22203   -19723   -17062   -15823   -15437   -16028   -17482   -17782 
  -17335   -18670   -20023   -18713   -16977   -16958   -17388   -17308 
  -16908   -16565   -17275   -18303   -17836   -17625   -19823   -22950 
  -24563   -23028   -18798   -15091   -14315   -15896   -18566   -21411 
  -22862   -21938   -20124   -18920   -17559   -16275   -16455   -17189 
  -17439   -17207   -15807   -14697   -15506   -15450   -14565   -16630 
  -19537   -19624   -17913   -16155   -15665   -16204   -16254   -16866 
  -18495   -18214   -15466   -13181   -12218   -11919   -12869   -14365 
  -14200   -12764   -13140   -15502   -16474   -15674   -15064   -14017 
  -12047   -11006   -11484   -12221   -13101   -14662   -16544   -18640 
  -20061   -19037   -17645   -18507   -18449   -15886   -14234   -13506 
  -12596   -13522   -15039   -14651   -14589   -16291   -17990   -18925 
  -18794   -17732   -17501   -18064   -18096   -18283   -18522   -18434 
  -19114   -19039   -17068   -16087   -16767   -17664   -19326   -20318 
