Origin Time       2024/04/02 04:24:00
Lat.              40.133
Long.             141.712
Depth. (km)       71
Mag.              6.0
Station Code      IWTH13
Station Lat.      39.9398
Station Long.     141.5492
Station Height(m) 570
Record Time       2024/04/02 04:24:48
Sampling Freq(Hz) 100Hz
Duration Time(s)  133
Dir.              4
Scale Factor      7845(gal)/8223790
Max. Acc. (gal)   65.622
Last Correction   2024/04/02 04:24:48
Memo.             
[...]
  -22110   -22110   -22108   -22107   -22111   -22110   -22108   -22108 
  -22107   -22108   -22110   -22108   -22108   -22110   -22107   -22110 
  -22111   -22108   -22110   -22111   -22110   -22110   -22110   -22108 
  -22107   -22111   -22113   -22107   -22106   -22110   -22110   -22110 
  -22111   -22110   -22110   -22110   -22110   -22110   -22110   -22110 
  -22110   -22110   -22111   -22113   -22110   -22111   -22111   -22111 
  -22113   -22110   -22108   -22110   -22110   -22108   -22108   -22108 
  -22110   -22110   -22108   -22110   -22110   -22111   -22111   -22108 
  -22108   -22111   -22113   -22111   -22111   -22113   -22111   -22110 
  -22110   -22110   -22111   -22111   -22110   -22110   -22108   -22108 
  -22111   -22110   -22110   -22111   -22110   -22108   -22108   -22110 
  -22111   -22110   -22107   -22110   -22113   -22111   -22110   -22106 
  -22108   -22111   -22108   -22110   -22111   -22111   -22111   -22108 
  -22110   -22113   -22111   -22108   -22107   -22108   -22110   -22108 
  -22108   -22110   -22108   -22108   -22110   -22110   -22108   -22108 
  -22111   -22110   -22107   -22110   -22113   -22110   -22110   -22110 
  -22110   -22111   -22110   -22107   -22108   -22111   -22110   -22107 
  -22110   -22110   -22108   -22108   -22108   -22108   -22107   -22108 
  -22107   -22107   -22111   -22113   -22110   -22107   -22110   -22113 
  -22111   -22110   -22113   -22110   -22107   -22110   -22108   -22107 
  -22108   -22110   -22110   -22108   -22110   -22110   -22108   -22108 
  -22110   -22110   -22110   -22107   -22108   -22111   -22110   -22110 
  -22111   -22108   -22110   -22111   -22110   -22108   -22110   -22111 
  -22110   -22108   -22110   -22110   -22108   -22113   -22113   -22108 
  -22108   -22111   -22110   -22108   -22108   -22110   -22108   -22108 
  -22110   -22110   -22110   -22110   -22108   -22108   -22111   -22110 
  -22110   -22110   -22110   -22110   -22108   -22108   -22111   -22113 
  -22110   -22107   -22108   -22108   -22108   -22110   -22110   -22110 
  -22108   -22108   -22108   -22110   -22110   -22110   -22110   -22110 
  -22111   -22110   -22107   -22108   -22111   -22108   -22108   -22110 
  -22110   -22110   -22110   -22110   -22108   -22108   -22110   -22110 
  -22108   -22108   -22108   -22108   -22110   -22110   -22110   -22108 
  -22110   -22113   -22110   -22107   -22108   -22111   -22111   -22108 
  -22108   -22110   -22108   -22110   -22110   -22107   -22108   -22111 
  -22110   -22108   -22108   -22108   -22108   -22108   -22110   -22111 
  -22111   -22111   -22111   -22108   -22108   -22108   -22108   -22110 
  -22107   -22104   -22107   -22111   -22111   -22108   -22108   -22111 
  -22111   -22110   -22110   -22107   -22108   -22111   -22111   -22110 
  -22111   -22110   -22110   -22110   -22113   -22111   -22108   -22107 
  -22107   -22110   -22111   -22110   -22110   -22111   -22110   -22108 
  -22108   -22108   -22110   -22110   -22110   -22111   -22110   -22107 
  -22108   -22110   -22108   -22108   -22111   -22111   -22110   -22110 
  -22110   -22110   -22111   -22108   -22107   -22110   -22110   -22110 
  -22108   -22106   -22106   -22113   -22110   -22107   -22110   -22108 
  -22108   -22110   -22110   -22111   -22110   -22110   -22111   -22110 
  -22108   -22110   -22108   -22108   -22110   -22110   -22110   -22110 
  -22110   -22107   -22107   -22111   -22110   -22108   -22111   -22110 
  -22110   -22111   -22110   -22111   -22110   -22107   -22110   -22111 
  -22113   -22114   -22111   -22108   -22111   -22110   -22110   -22110 
  -22110   -22108   -22108   -22110   -22110   -22107   -22107   -22110 
  -22110   -22108   -22108   -22108   -22110   -22107   -22107   -22110 
  -22108   -22110   -22111   -22111   -22110   -22108   -22110   -22111 
  -22110   -22110   -22113   -22110   -22108   -22111   -22110   -22108 
  -22108   -22110   -22110   -22110   -22110   -22110   -22111   -22110 
  -22107   -22108   -22108   -22106   -22110   -22111   -22110   -22111 
  -22108   -22106   -22110   -22110   -22110   -22110   -22107   -22107 
  -22108   -22108   -22107   -22106   -22107   -22110   -22108   -22110 
  -22111   -22108   -22108   -22108   -22110   -22111   -22110   -22110 
  -22110   -22108   -22108   -22108   -22106   -22106   -22108   -22110 
  -22107   -22108   -22111   -22111   -22110   -22108   -22106   -22108 
  -22113   -22110   -22107   -22111   -22111   -22110   -22110   -22107 
  -22108   -22113   -22110   -22107   -22107   -22108   -22110   -22110 
  -22110   -22107   -22106   -22110   -22113   -22108   -22107   -22111 
  -22115   -22123   -22148   -22191   -22256   -22338   -22422   -22485 
  -22508   -22447   -22284   -22127   -22175   -22387   -22300   -21602 
  -20881   -21122   -22142   -22423   -21267   -20518   -22177   -24661 
  -24556   -21456   -19130   -21300   -25375   -25479   -21826   -19199 
  -19557   -21057   -21933   -22747   -23049   -22273   -22546   -23514 
  -23566   -23182   -21405   -19234   -19958   -22763   -24478   -24688 
  -23214   -18816   -17809   -24127   -27788   -25351   -21722   -19067 
  -21806   -25218   -20491   -14612   -15869   -22964   -29236   -27419 
  -21766   -19801   -21001   -24402   -26208   -21891   -16686   -17914 
  -24489   -29520   -27089   -18341   -13990   -19560   -26786   -29890 
  -26526   -18096   -13468   -15271   -24127   -34122   -31845   -20202 
   -8719    -8456   -25512   -37863   -28981   -13023    -6733   -16896 
  -35428   -40533   -26366    -9670    -4413   -13043   -26962   -33042 
  -27098   -15377   -12722   -24221   -34410   -35286   -26334    -7565 
     653   -14573   -36771   -45316   -29517    -7400    -6366   -19792 
  -30192   -29142   -18330   -15043   -22538   -28107   -27976   -24810 
  -22308   -18478   -14966   -21816   -29120   -23942   -17581   -15137 
  -15965   -25446   -31843   -25710   -16575   -11989   -15657   -23677 
  -29644   -31696   -25087   -18727   -21531   -22346   -21324   -23764 
  -24121   -26302   -28777   -21672   -15653   -18547   -19186   -18311 
  -18343   -14782   -18087   -27024   -28489   -29085   -28873   -24814 
  -21887   -14855   -15460   -29273   -30163   -20953   -18239   -16931 
  -19755   -23048   -19530   -19553   -23259   -24879   -23862   -17284 
  -14207   -22361   -30640   -29226   -22033   -18234   -20402   -24279 
  -25844   -24744   -24505   -25034   -22565   -17859   -15944   -19298 
  -21984   -22072   -23881   -21843   -15669   -15635   -22092   -28113 
  -26469   -20209   -20734   -24953   -27750   -28520   -19801   -12395 
  -22376   -32443   -27280   -17776   -14432   -21001   -26904   -21535 
  -19138   -22547   -20883   -20488   -20644   -19572   -26298   -30042 
  -26055   -25934   -21730   -14735   -18470   -22770   -20394   -19213 
  -21917   -25274   -23264   -18361   -21169   -29111   -28591   -17656 
   -9456   -13271   -22045   -26250   -29455   -32641   -25533   -14481 
  -18640   -30712   -31683   -21843   -10042    -7645   -16738   -25882 
  -30476   -28163   -21489   -20015   -22578   -25317   -24094   -18725 
  -20626   -26279   -24711   -21558   -18736   -14573   -14774   -18863 
  -25204   -32319   -30483   -20029   -13657   -15537   -23010   -29361 
  -26040   -19684   -18708   -21209   -27738   -29208   -20922   -18342 
  -22088   -24840   -27144   -23294   -18044   -19391   -19735   -20124 
  -25833   -28552   -24437   -15831    -6528   -10091   -29127   -41895 
  -33744   -16588    -9562   -17575   -28193   -27309   -18276   -11291 
  -11245   -22018   -30686   -25918   -23329   -24767   -24052   -26982 
  -22022   -12282   -18308   -26916   -23973   -21195   -24777   -27487 
  -24356   -19616   -17204   -20028   -26316   -26183   -20815   -16992 
  -17073   -23314   -27511   -24706   -20476   -16474   -20004   -29772 
  -27931   -16368   -11739   -17824   -27730   -31635   -27232   -20918 
  -16416   -15944   -21605   -27985   -27303   -23144   -22823   -21859 
  -17944   -17545   -20920   -25543   -28088   -25542   -22677   -22403 
  -20957   -17280   -18408   -23475   -21168   -18289   -21884   -23330 
  -26593   -29980   -21375   -12106   -14359   -21733   -28563   -28606 
  -19363   -13437   -18931   -27434   -30618   -26161   -16977   -13331 
  -18960   -26889   -29286   -23201   -17161   -19410   -25334   -27220 
  -23863   -19803   -16270   -15385   -22744   -29957   -26617   -19631 
  -16191   -16889   -22337   -27274   -24628   -18832   -19330   -24738 
  -29158   -29336   -22468   -15341   -16085   -20687   -24993   -25559 
  -19125   -14519   -19310   -26261   -29037   -28865   -24302   -16487 
  -15180   -20023   -21570   -23434   -27244   -26044   -23187   -22574 
  -23677   -24328   -18184   -12515   -19872   -29934   -28161   -19735 
  -14879   -17244   -25355   -29533   -22516   -14197   -16761   -26581 
  -32643   -27006   -13467    -9607   -21253   -32871   -32930   -22796 
  -12518   -14420   -23673   -26769   -24246   -21500   -20930   -23190 
  -23836   -21955   -20749   -20012   -20811   -22137   -23082   -26407 
  -27261   -23175   -17740   -14642   -19668   -24611   -22006   -17980 
  -14253   -20471   -33565   -29430   -17774   -18609   -22214   -22281 
  -23037   -24942   -27018   -28008   -26501   -19951   -13224   -15245 
  -21116   -24279   -25915   -24561   -22121   -21628   -21814   -23633 
  -24590   -22599   -20880   -18509   -17523   -21253   -23650   -23583 
  -24255   -22324   -20784   -23433   -23538   -20501   -20254   -21500 
  -21089   -21753   -23708   -21352   -18380   -20056   -21269   -23753 
  -27996   -25979   -21774   -19984   -18577   -19938   -22913   -26993 
  -30068   -24225   -15827   -15483   -19596   -22692   -22287   -20016 
  -21801   -25326   -24869   -21600   -18711   -19842   -24216   -25976 
  -24664   -22729   -20429   -19793   -21726   -22199   -21155   -22486 
  -23588   -24213   -25821   -23230   -20719   -22923   -21313   -16791 
  -16802   -20272   -24190   -25164   -24362   -23928   -21705   -22551 
  -24706   -21417   -21151   -23070   -20552   -19361   -17622   -18218 
  -26488   -29801   -26615   -23610   -16348   -11581   -18264   -26632 
  -28722   -26877   -22844   -19931   -19342   -19256   -21760   -24675 
  -22300   -17429   -18536   -26306   -28630   -22515   -20028   -22160 
  -23265   -22619   -18655   -16776   -21213   -25685   -26499   -23041 
  -18353   -19738   -25231   -26144   -23194   -21415   -19082   -17431 
  -19290   -22029   -25104   -26156   -24075   -23163   -20923   -17506 
  -19102   -22214   -23780   -25087   -22480   -17396   -16784   -22589 
  -28404   -26337   -20075   -16240   -16704   -23423   -29871   -28864 
  -24520   -20987   -19737   -19089   -17003   -19769   -27272   -29594 
  -25629   -20542   -19390   -24486   -25664   -19138   -18193   -22416 
  -22189   -18307   -16541   -22851   -28549   -24992   -20416   -17787 
  -19683   -26088   -25782   -22145   -22003   -21006   -22164   -24236 
  -19851   -16464   -19712   -21865   -23479   -28516   -27164   -19500 
  -19672   -22445   -20467   -21199   -21408   -20399   -23571   -23537 
  -21450   -22842   -22233   -21641   -24575   -26410   -24286   -17641 
  -12511   -17813   -26072   -25232   -22453   -24228   -24709   -25747 
  -27045   -22509   -17558   -16322   -19417   -28023   -31449   -25155 
  -17543   -13960   -19930   -27787   -24425   -17775   -15053   -18050 
  -27800   -32463   -27459   -18937   -13879   -18991   -25045   -22354 
  -18847   -21675   -25979   -21996   -16704   -24066   -32309   -27722 
  -15754    -8379   -17069   -31032   -30376   -19489   -11334   -13933 
  -25502   -32331   -29273   -21529   -15373   -17675   -26827   -31599 
  -24065   -12388   -13710   -25906   -31001   -24725   -16255   -12548 
  -14663   -21535   -29416   -30350   -22763   -15678   -16390   -22840 
  -26585   -23807   -23797   -27498   -22843   -18110   -20054   -17200 
  -18526   -28722   -30520   -24227   -17290   -11080   -11686   -18337 
  -24919   -28601   -27319   -24565   -23985   -24027   -24140   -20329 
  -13338   -14682   -23133   -29304   -31841   -25618   -14715   -14829 
  -19152   -17084   -18972   -24601   -24956   -22900   -18889   -13157 
  -10520   -13845   -25319   -32401   -23294   -13911   -15223   -21232 
  -29704   -36066   -35661   -29677   -22883   -19040   -13713   -10644 
  -16852   -20561   -16069   -11601    -7851    -7303   -11989   -12798 
  -11969   -21003   -33563   -37007   -29964   -21740   -27179   -41789 
  -42849   -27893   -12615    -4143      749     6083     4725   -10616 
  -30211   -46916   -56670   -48319   -32989   -28038   -22959   -14737 
  -13293   -13493   -10219    -2563     7862     9610    -1258   -18816 
  -38098   -50907   -52294   -48528   -45330   -38099   -24953   -12118 
     276    11124     8417   -11377   -30716   -30666   -14509    -2739 
  -10264   -33733   -56839   -65022   -55491   -36934   -24885   -28470 
  -35792   -28561    -8297     3931    -8114   -30662   -39205   -38091 
  -43452   -49453   -38858   -13689     4423     7932     -870   -26662 
  -52718   -54530   -43907   -43723   -49365   -42950   -26050   -16266 
   -8109    13876    26524     3252   -34649   -57673   -64588   -58334 
  -39002   -21978   -22535   -29548   -29682   -27993   -18281     6289 
   16534   -11156   -56046   -83925   -68638   -15992    24750    18747 
  -16806   -36142   -13466    23770    32697    -1044   -55884   -79274 
  -45508     8700    39787    36084     4841   -43691   -85688   -85032 
  -48010   -18538   -12197   -14562   -16510   -22524   -30901   -32495 
  -21824     9450    44523    46680    20398    -9563   -37999   -57237 
  -54137   -32757   -20969   -30025   -35762   -35284   -36121   -24930 
  -13801   -19863   -31784   -40537   -28883    14179    45238    24696 
  -24949   -66213   -74455   -42835     2058    24746    12668   -14729 
  -33910   -47325   -54283   -40871   -18771   -13741   -24150   -35156 
  -39633   -31984   -18180    -9112      889    11732      259   -37291 
  -65203   -58881   -26804     7074    13159    -8149   -24534   -23712 
  -13802    -2579    -6168   -29635   -52003   -57508   -49593   -36601 
  -20220     3219    23355    20771    -4434   -33677   -44321   -29922 
  -15306   -24753   -48366   -54214   -31193    -9609   -14127   -28656 
  -30044   -16256    -1644    -4588   -27753   -47061   -41789   -27803 
  -24584   -26842   -28533   -22534    -8210    -5356   -17983   -28053 
  -24860   -16711   -18451   -22578   -16220    -6007    -1661   -11647 
  -37100   -58247   -49026   -14991     1375   -17227   -40549   -47839 
  -43804   -32081   -20031   -18906   -22698   -21296   -20121   -18655 
   -8708     -723    -7210   -16910   -18802   -20700   -24555   -26535 
  -31865   -31683   -16475    -3909    -4649   -17149   -38946   -43425 
  -19167     -149    -4275   -19872   -37822   -43395   -29532   -13344 
   -7107   -11109   -21627   -29149   -32474   -33521   -28590   -19858 
  -12623   -10948   -12623   -11897   -15558   -28690   -39064   -36051 
  -25631   -23809   -35455   -43434   -33899   -15091    -4459   -14292 
  -35473   -43147   -32044   -15880    -5875    -9960   -21911   -25046 
  -20085   -16623   -14025   -10295    -9364   -17045   -27893   -25051 
  -10773    -9772   -25529   -33883   -25293   -11519    -4669   -14368 
  -35563   -43258   -27249    -6122     3908     1954   -10548   -30704 
  -47551   -46395   -24813    -1246     3420   -12658   -33285   -35865 
  -15843     1314    -3915   -22308   -35870   -36620   -33226   -34709 
  -37559   -36788   -26349    -8487    -3154   -17749   -32675   -30883 
  -17424    -9020   -17694   -39434   -53833   -48173   -33203   -24603 
  -27156   -30655   -20383    -2416     3245   -10427   -31618   -40107 
  -29856   -17714   -17293   -21081   -20698   -20353   -20686   -15634 
   -9371   -12745   -22705   -30530   -36694   -36189   -23167   -10659 
  -13508   -29083   -44621   -48451   -36634   -16526    -2781    -5220 
  -20987   -35139   -35082   -26821   -20367   -18694   -24113   -26318 
  -17521   -13803   -19425   -23514   -27514   -26824   -17146   -13894 
  -23714   -32310   -28830   -18549   -10254    -6096    -7792   -17714 
  -28726   -27589   -17312   -12762   -15762   -19147   -18216   -13610 
  -12395   -17963   -24583   -24317   -17602   -12901   -11978   -13659 
  -22141   -29983   -22840    -8379    -5510   -15994   -28626   -34530 
  -29756   -16991   -10597   -20042   -30630   -31244   -31456   -29970 
  -22092   -18955   -20109   -23349   -37821   -49221   -39334   -24401 
  -24120   -31064   -29627   -22211   -20684   -25961   -32337   -32830 
  -25174   -20976   -24799   -26543   -25737   -24588   -15974    -2586 
    1070   -11797   -31434   -39087   -29797   -17899   -12602   -12984 
  -18328   -24246   -24980   -18546   -10369   -12613   -23147   -25236 
  -14856    -3283     -594    -7780   -18827   -25775   -25297   -22181 
  -21951   -25915   -28833   -20988    -8544    -9919   -22735   -32771 
  -36801   -33393   -28566   -31349   -35174   -36574   -35135   -23849 
  -11438   -13140   -28755   -46338   -49102   -33979   -18457   -17001 
  -25335   -29597   -24894   -15858    -6583    -3975   -12665   -25083 
  -30079   -23364   -13293   -13225   -21163   -24792   -20362   -12434 
   -7090    -7068   -13023   -25535   -37579   -38780   -27572   -13873 
  -12699   -25664   -38541   -38241   -24638   -14231   -17374   -23325 
  -23583   -20634   -17297   -14913   -15981   -23074   -30510   -26258 
  -11556    -2193    -4230   -11067   -17617   -20827   -22856   -26292 
  -25446   -20518   -16902   -14577   -16024   -21937   -27224   -29685 
  -29500   -29610   -33662   -37937   -36412   -27319   -13363    -6561 
  -14733   -24494   -23571   -18195   -17564   -22408   -27058   -27477 
  -25332   -24759   -26482   -26088   -22960   -22167   -26126   -29587 
  -22893    -7882     -311    -8614   -24154   -32205   -28502   -21496 
  -17995   -19400   -23835   -24196   -17167   -10573   -12893   -20409 
  -24609   -25428   -24969   -23746   -24962   -28012   -28620   -28162 
  -27260   -22435   -19700   -22516   -19975   -12619   -11578   -15900 
  -20680   -24047   -23295   -18241   -13387   -16818   -29351   -39297 
  -39204   -32418   -25207   -23010   -25443   -27121   -25042   -20075 
  -16603   -19851   -26356   -27251   -22577   -16798   -13678   -19647 
  -30855   -32468   -20514    -7894    -8333   -18608   -26057   -25598 
  -18243   -12630   -19471   -31788   -34897   -27633   -15533    -8044 
  -16009   -30029   -32229   -24568   -17362   -16102   -22576   -29508 
  -28013   -20989   -17459   -20750   -26928   -31274   -30696   -24671 
  -19597   -22189   -29594   -32260   -25132   -15520   -15450   -25867 
  -34441   -30582   -17788    -9794   -14891   -26221   -33118   -30439 
  -16059       31     -132   -16637   -33818   -38952   -27913   -11404 
   -5198   -10172   -17537   -21624   -22449   -22006   -20518   -19761 
  -20934   -21419   -19450   -16456   -17747   -24853   -29265   -26227 
  -20039   -15689   -16171   -18423   -18813   -20274   -23668   -26114 
  -24908   -20326   -18462   -20970   -22654   -21494   -18472   -16627 
  -18364   -20899   -21809   -21381   -23468   -31172   -34828   -28097 
  -21938   -21402   -21305   -22291   -24939   -25822   -26477   -29597 
  -31557   -27315   -17413   -10548   -14720   -25061   -33220   -34839 
  -27060   -17591   -15462   -17740   -20510   -21517   -21972   -25745 
