Origin Time       2024/04/02 04:24:00
Lat.              40.133
Long.             141.712
Depth. (km)       71
Mag.              6.0
Station Code      IWTH24
Station Lat.      39.1979
Station Long.     141.0118
Station Height(m) 49.9
Record Time       2024/04/02 04:24:58
Sampling Freq(Hz) 100Hz
Duration Time(s)  124
Dir.              3
Scale Factor      2942(gal)/8224139
Max. Acc. (gal)   3.826
Last Correction   2024/04/02 04:24:58
Memo.             
[...]
    2515     1977     2718     4911     6258     6027     5080     4234 
    4361     5391     5973     5169     4020     3622     3743     4337 
    4660     4338     4978     5825     4995     4089     3937     3883 
    4596     4922     4205     4862     6237     5895     5474     5915 
    5196     4441     5204     5405     4671     4267     3859     3595 
    4268     5358     5004     3763     4571     5805     4693     3996 
    4727     4649     4712     5227     3969     1930     2146     3685 
    4548     6127     7180     5162     3612     4128     3342     2631 
    4175     4930     4234     4656     5228     4170     3403     4468 
    5336     4540     3501     3215     2982     2660     2636     2983 
    4212     5387     4495     2945     3530     5113     4787     3450 
    3971     5206     4757     3766     3754     3805     3487     4336 
    5566     4761     3451     3335     3765     5436     6659     4653 
    3148     4995     5846     4264     3975     5275     5580     4550 
    3346     2754     3215     4344     5104     5755     6824     6625 
    4970     4712     5459     4868     4391     4799     4104     2941 
    2380     1499     1318     2455     3886     5914     7179     6080 
    4332     3411     3793     5101     5104     3811     3672     4102 
    3011     1470     2041     4611     6242     5886     5313     4685 
    3179     1709     1451     2458     3570     3565     3111     3146 
    3014     3134     4685     6169     5591     3800     3163     3711 
    3068     1992     3491     6115     6759     6582     6498     4916 
    3323     3615     4317     4677     4631     4031     3537     2992 
    2976     4163     5358     6249     5837     3906     4166     5983 
    5250     3469     2851     2324     1668     2069     3888     4826 
    3804     4587     8236    10075     8287     5981     5302     5127 
    4121     2818     2205     2826     3909     3886     3265     3483 
    4395     5595     6664     6716     6393     6574     6039     4648 
    3561     2751     3055     4889     6085     5810     5040     4141 
    3879     4530     4797     4237     3061     1503     1359     2841 
    3645     4153     5715     7110     7501     7206     6216     4326 
    2088     1015     1534     2706     3499     3069     2299     2922 
    4128     4352     4428     5368     6173     5359     3348     1773 
    1422     3003     6034     7576     6864     5991     5343     4625 
    4830     5877     6288     5625     4664     3337     1684     1761 
    3221     3003     2795     4843     5933     5537     6034     5975 
    4800     3693     1746      109     1274     3847     5331     6070 
    7020     6698     4465     3002     3192     3762     4795     5186 
    3959     3311     3699     4029     5393     6651     5601     4309 
    4735     5514     5468     5570     6335     5317     2195      989 
    2403     3570     3419     2544     2668     4224     4950     4251 
    4002     4783     5733     6608     6629     5084     4032     4426 
    4149     2999     1848      922     1656     4099     6246     7491 
    7843     6768     5327     4749     4251     3866     3990     3229 
    2188     2563     2926     2400     2205     2624     3623     5013 
    6214     7117     6988     5556     4710     4959     3973     1570 
     633     2064     3919     4831     5007     5166     6030     7236 
    7385     6218     4125     1761     1470     3690     5094     4511 
    3716     3697     4542     4429     2305     1356     3202     5516 
    6804     6828     5721     4561     4055     3635     2887     2920 
    4220     4720     3611     2938     3005     2226     1613     3163 
    4963     4756     4905     6251     5497     3381     3245     4214 
    4923     5040     3245     1663     3431     5726     5387     4468 
    4861     5605     6139     6534     6118     4897     4290     4888 
    4969     3561     2382     2502     3221     3580     3307     3526 
    5305     7707     8722     8303     7757     6440     4045     2451 
    1340     -168      642     4158     7010     7767     6733     5773 
    5886     4503     2521     4357     8534     9994     7676     3358 
    -301     -665     1296     2748     4135     6404     7704     7782 
    7608     5667     2810     2266     3618     5400     6563     5262 
    2884     2446     3680     4700     4093     2057     1351     3750 
    6228     5952     5502     6156     5902     5647     5462     3473 
    1579     1466     2164     3289     3339     1683      873     1225 
    1323     2232     4410     6228     7095     6929     5526     4988 
    6373     6242     3400     1676     2849     4369     4396     4032 
    3719     3599     5113     5665     2477      373     2538     4932 
    5710     6489     6149     3836     2484     2637     1551      334 
    2097     5687     8297     9409     8779     6330     3767     1879 
     422      406     2305     4293     4055     2542     2145     2304 
    3153     5813     7344     5618     4041     5455     7550     7298 
    5363     3055     1628     3542     6374     5435     3559     4600 
    5493     4822     5845     7523     6880     5655     5244     4468 
    3562     3700     4426     4742     5211     5734     5066     3720 
    2208      668     1100     3835     5999     6092     5767     6088 
    5051     2458     1694     2947     3927     5346     7002     6139 
    3331     1738     2444     4540     5591     4218     3010     3842 
    4931     4777     3757     2953     2898     2903     2735     2727 
    2937     4446     6712     6539     4198     2917     3699     6083 
    8278     7701     5306     3553     1798       52      182     1233 
    2361     4213     5229     5229     5351     5683     7681     9965 
    8922     5539     2637     1836     3087     3649     2327      940 
     522     1216     3007     4961     6338     7280     8109     8854 
    8482     6331     3819     3300     5571     7057     4990     3237 
    4428     5940     6458     6404     5136     2902     1752     2338 
    3645     5301     5756     4167     3261     3289     2616     3021 
    5260     7346     8479     9045     8841     7284     4656     2069 
     861     1809     3024     1981      565     1304     2241     2548 
    3565     3878     3932     5694     6606     6370     8290    10230 
    8206     4090     1915     1588     1107     1228     2627     3821 
    3707     1686     -622     -170     2178     4438     6543     7126 
    5691     3967     2702     2722     4372     5530     4963     4055 
    4225     4833     4700     4082     3493     3824     5196     5274 
    3775     3171     3285     3044     4160     6586     6814     5433 
    5837     5595     3063     2427     4095     4768     3611     1406 
     -41      432     1426     2054     3403     5362     5949     4488 
    3082     3500     4789     6081     7476     7538     5930     5393 
    6405     6423     4180      502     -820     2227     4475     2967 
    2301     5327     8667     8592     7067     7157     6975     5895 
    6451     7348     5915     2729      -98     -298     1490     2625 
    3643     5225     5651     4819     4603     6355     8742     8723 
    7298     7447     7136     4720     4070     6434     7615     5859 
    4261     4526     4639     4558     5994     7465     7167     5490 
    3750     3616     4311     3557     2636     3807     5499     5918 
    5726     5790     6012     4912     3090     3022     2982     1618 
    1196     1503     1308      838     1119     3159     4673     4680 
    5738     6725     5740     3970     2401     2077     2269     1364 
    1224     2457     3095     3912     4980     3834     2382     3520 
    4567     4171     3527     1792      638     1998     2787     1308 
     557     2640     5194     6161     6907     6694     4887     4469 
    4969     3699     1956     1933     3369     4818     5710     6463 
    7388     7870     6659     4410     4045     5811     6288     4815 
    3285     1594     1151     3213     3888     1975     1516     3376 
    5387     6438     6655     6393     5483     4904     5059     4536 
    4409     5606     6000     5138     3685     2084     2088     3345 
    3690     3646     4240     4376     3576     2856     2847     3538 
    4382     4785     4511     3821     4091     5011     5213     5772 
    6674     6444     5277     4355     5042     5971     4997     4455 
    5834     7010     7462     7057     5459     5239     7036     7335 
    5738     4557     3955     4006     4843     4758     2732      799 
    1354     3819     6307     7072     5827     5240     5472     3832 
    1844     1908     3770     6832     8048     5096     1607     1618 
    4189     6484     6940     5356     3172     1898     1448     1586 
    2582     4137     5462     6635     7585     6790     4905     4437 
    4579     3688     2697     2650     3009     2498     1568     2130 
    3510     3164     1456     1075     2837     4577     3831     2409 
    3924     6143     5946     5764     6538     6203     4945     3488 
    2087     1193        8    -1674    -1903       45     2359     3894 
    4903     5892     6470     4873     2319     2432     4440     5340 
    5389     5695     5070     3450     3813     5942     5937     3831 
    2702     3924     6886     8584     7196     4770     2749     1603 
    2100     3090     3121     2732     3589     5487     5405     3133 
    2151     3573     5823     7084     6490     5023     3534     2771 
    3962     6552     8253     7334     5459     5367     6054     5508 
    3019     -672    -2107     -183     2223     4396     5672     3819 
    1254     1363     2671     3168     2263      932     1792     3993 
    4338     3728     3928     3148     1212     1883     5405     7636 
    8525     9823     9437     7152     5355     4676     5302     5864 
    3559     -546    -3118    -3422     -602     5236     8726     8235 
    9054    10797     9229     6833     6647     6917     7169     7641 
    6380     3757     2667     3842     6243     9140    11232    11546 
   11503    11739    10308     7672     6276     5097     2986     2351 
    3715     4341     3277     2261     2895     4486     5935     8441 
   11919    13173    11400     8847     6130     3184     1150      589 
    1771     4083     5200     5242     6390     7338     5719     3238 
    2434     2956     3674     4301     3971     1362    -1590    -2116 
   -2258    -2655     -387     3739     7674    10424    10161     8167 
    7526     7792     6795     4055     1287       -4     -457       76 
    2543     5116     5984     5902     4683     1892     -282     -392 
     660     2679     5802     8540     9364     8552     7078     4950 
    2493     1989     3526     4905     6430     6345     3102     1505 
    2359     2334     2211      652    -2745    -2199     1206      772 
   -1914    -2007     1015     4714     6729     8027     9630    10662 
   11153    10952     9711     8127     7589     8592     8310     4495 
    -135    -1864     -557      562      129     1487     5680     8149 
    6907     5872     7219     8129     6509     3354      643     -444 
    -540       93     1815     3673     4999     5560     4576     2604 
    1472     1939     2022    -1090    -5121    -5440    -3273    -1674 
    -760      160     2182     4556     6011     7595     9410    10980 
   12009    11211     9053     6936     4594     2320     1456     1652 
    1879     2759     4664     5888     4923     3221     3581     6204 
    9178    11352    12008    10605     8255     6886     7426     8498 
    7165     3538      502    -1092    -1593     -880      576     1961 
    2601     2412     1880     1413     1354     1507      865    -1201 
   -3227    -2965    -1244     -340      851     4318     8028     8721 
    6647     3838     1080     -862    -1501    -1487      -47     2817 
    3901     3264     4430     6835     8176     8945     9059     8228 
    8604    10301    10484     9460     9267     8472     5818     3900 
    4332     5443     6173     6905     7898     8382     6963     4617 
    3499     2799     1192      116      665     1822     2443     2035 
    1228      731      189     -306     -546     -341      862     1984 
    2061     2065     1887     1526     2886     5699     7142     7011 
    8496    11854    13817    14095    13146     9421     4357      959 
    -336      361     3003     6045     7222     6108     4673     3838 
    3253     3929     5868     7700     9397    10237     9502     8401 
    7059     5574     4168     1660      637     3726     5988     5005 
    5647     7812     7087     4897     4032     2828      630     -378 
     687     3204     6019     7977     9526    10733     9655     6474 
    3913     3159     4603     7615     8731     6704     4228     2845 
    2316     2764     4348     5263     4405     5327     9163    11774 
   12521    12591    10052     5579     3059     2718     1957     1560 
    3190     4673     4864     4644     3389     2182     2331     1879 
     390     -614     -525     1453     4529     6365     6736     5935 
    3774     1987     1560     1115     1771     5614     9590     9999 
    8216     6297     4499     3454     3376     3723     3960     3388 
    1969      271     -353     1923     6258    10293    12746    12575 
   10354     7593     4314     1358      112       35      284      270 
   -1146    -4152    -6362    -4577      611     5227     7427     8338 
    8336     6424     2839       91     -174      334      423     1379 
    3412     4673     3854     2084      751      321     1652     4299 
    6558     7322     6793     6496     6234     4482     2160     1647 
    3287     4313     3329     2234     1737     2091     3960     5416 
    4895     3973     4503     6434     8286     8567     6295     2308 
     -55      989     4054     7469     9248     8484     7246     6257 
    4097     1003    -1140     -676     1123     2123     3770     6053 
    5937     4329     4230     5416     6670     7657     8294     9270 
   10503    10123     7285     3515      756     -164      348      510 
    -627    -1298       43     3052     5995     6785     5945     5235 
    4411     3289     2177      438    -1297    -1197     1393     5941 
    9845     9828     7113     5995     7303     8712     9158     9132 
    9383     9494     7655     4475     2485     1880     2247     3234 
    3127     2486     3132     3789     3717     3848     3094     2149 
    4093     7009     7071     5503     4509     4006     4004     4919 
    6718     8606     9448     8764     7339     6860     7241     7113 
    7350     7925     6551     4432     4422     5975     7267     7460 
    6590     5188     3816     3271     3954     5373     6431     6106 
    5313     5830     6612     5688     4324     4577     5630     6127 
    6435     6064     3225     -472    -1664    -2029    -3451    -3269 
   -2007    -2718    -3654    -2762    -1875    -2124    -1759      595 
    3370     4585     4406     3669     3107     3152     3207     3084 
    3196     3280     3307     3213     2802     2925     3372     3227 
    2844     1661     -233     -922     -553      144     1506     2733 
    3759     5323     6643     6998     6944     7645     9088     9501 
    8317     6334     4441     4062     4677     4719     4999     5510 
    4806     3557     2552     1345      822     2261     4642     5722 
    4857     3788     4390     6066     6895     7010     8257    10401 
   11673    12201    12633    12186    10709     9144     7884     7312 
    7395     6975     5691     3873     1957     1367     2481     3269 
    2749     2709     3893     4569     4325     4190     3245      714 
   -1854    -3754    -4214    -1786     1455     3572     5493     6168 
    5198     4658     4675     3881     1513    -1304    -2960    -3546 
   -2817    -1210      -33     1620     3942     5240     5508     5670 
    5520     4914     4930     5899     6802     7642     8345     8325 
    8676     9744     9552     7349     5142     4761     5260     4662 
    2698      985     1109     2415     3325     3418     3300     4414 
    6450     7169     6860     7021     7138     6744     6116     5204 
    4058     3307     3674     4464     4595     4122     2533      523 
     770     2496     3373     4654     7454    10152    10917     9846 
    9255    10393    11639    11913    11585    10677     9520     8333 
    6424     4118     2841     2720     2982     3828     4869     4587 
    3372     2907     3740     5162     5755     5872     6853     7258 
    5375     2270      328      573      892      132      333      730 
    -665    -1660    -1059     -616     -626     -471      367     2106 
    4005     5852     7508     8329     9020    10496    12028    12097 
   10037     7366     5286     2951      888      527     1471     2822 
    3813     4230     5023     5918     5543     4098     2241      761 
    1165     2511     2824     2870     3404     4093     4772     4168 
    2251     1624     2412     2223     1691     2654     3657     3523 
    4149     5859     6365     5601     5618     6250     5937     5459 
    5829     5919     5344     4283     2859     2361     2261     1566 
    1888     3146     3931     4962     5958     5755     5171     4540 
    3173     1918     1996     2999     3735     3929     3778     3360 
    3342     3654     3480     3840     5358     6050     5539     5049 
    4102     2785     2107     2131     2740     3692     4251     3699 
    2713     2686     2895     2424     2404     3145     3924     4581 
    4496     3771     3451     2990     2411     3226     4704     5097 
    4376     3516     3397     3208     1926      974     1344     2095 
    2953     3996     5155     6436     6818     6473     6534     6323 
    5872     5796     6052     6974     7383     6808     7159     7938 
    7349     6543     7002     7460     6798     6496     6538     4897 
    3303     4263     5910     6799     7281     6698     5822     5752 
    5005     3919     5259     7597     7047     4656     3960     4563 
    4210     3612     3959     3612     1956      922      781     1078 
    3190     6378     7391     6061     4388     2736     1618     1904 
    2884     3759     4521     5042     5185     4995     4711     4540 
    4430     4696     5420     5541     4630     3568     2884     2394 
    2061     2241     2691     2886     2938     2739     2627     3173 
    3500     3485     3766     3334     1954      800      315     1686 
    5364     8052     8106     8004     8147     7376     6424     5491 
    4382     4230     5314     6099     5765     5594     6619     7389 
    6853     6768     7167     5729     3493     3005     3807     4403 
    4272     3701     3028     1858      265     -305      838     2440 
    3524     4617     5768     5624     4260     3862     5046     6339 
    6581     5796     5309     5836     5524     3292     1599     2085 
    3083     3526     3704     3550     3754     4324     3924     3314 
    3742     4040     3352     2725     3510     5201     5683     5034 
    4876     4895     4837     4997     4236     2799     2404     2106 
     488     -761     -411      -40     -344      -40      827     1000 
