Origin Time       2024/04/02 04:24:00
Lat.              40.133
Long.             141.712
Depth. (km)       71
Mag.              6.0
Station Code      IWTH24
Station Lat.      39.1979
Station Long.     141.0118
Station Height(m) 200
Record Time       2024/04/02 04:24:58
Sampling Freq(Hz) 100Hz
Duration Time(s)  124
Dir.              4
Scale Factor      7845(gal)/8223790
Max. Acc. (gal)   15.232
Last Correction   2024/04/02 04:24:58
Memo.             
[...]
  -20657   -21047   -20567   -19545   -18955   -18878   -18908   -19603 
  -20318   -19799   -19145   -19650   -21234   -22986   -22821   -20393 
  -18441   -18409   -19367   -20218   -19828   -18403   -17806   -18472 
  -19445   -20367   -20995   -21135   -21369   -21617   -20659   -19170 
  -19287   -20403   -20914   -20968   -20162   -18520   -17987   -19083 
  -20704   -21841   -21288   -19333   -17894   -18009   -19149   -19766 
  -19430   -19525   -20216   -20376   -20016   -19722   -19511   -19287 
  -19408   -19962   -20293   -20302   -20035   -19176   -18712   -19602 
  -20930   -21571   -21173   -20016   -19005   -18816   -19136   -19195 
  -19315   -20248   -21000   -20605   -19908   -19550   -19365   -19670 
  -20935   -22042   -21207   -19057   -17710   -18144   -19622   -20768 
  -21197   -21127   -20808   -20387   -19959   -19739   -19280   -18870 
  -19604   -20649   -20779   -20304   -19692   -19276   -19504   -20424 
  -21300   -21099   -20077   -19588   -19835   -19681   -18823   -18256 
  -18501   -19183   -19851   -20155   -19865   -19313   -19391   -19907 
  -19813   -19627   -20217   -20729   -20243   -19539   -19635   -19700 
  -19349   -20104   -21243   -20983   -20355   -19899   -18792   -17725 
  -17944   -18828   -18856   -19097   -20374   -20368   -19229   -19225 
  -19681   -19307   -18615   -18543   -19134   -19932   -20961   -21277 
  -20147   -19309   -19510   -19700   -19893   -20244   -20507   -20931 
  -21381   -21189   -20447   -19915   -19751   -19730   -19797   -19680 
  -19095   -18277   -18026   -18709   -19449   -19793   -20490   -21423 
  -21604   -21316   -21227   -20837   -19770   -18603   -18366   -19132 
  -19881   -20498   -21151   -21107   -20293   -19836   -20267   -20668 
  -20391   -19858   -19387   -19244   -19572   -19483   -18542   -17699 
  -17938   -19747   -21901   -22445   -21960   -21486   -20537   -19518 
  -19286   -19444   -19429   -19093   -18392   -17820   -17942   -18609 
  -19569   -20673   -21528   -21928   -22019   -21767   -20907   -20101 
  -19974   -19473   -18373   -17818   -17774   -17944   -18704   -20067 
  -21304   -21585   -21514   -21841   -21338   -19942   -19550   -19677 
  -19095   -19021   -19982   -20328   -19369   -18731   -19398   -20389 
  -21184   -21892   -21959   -20926   -19471   -18716   -18735   -18999 
  -19363   -19452   -18866   -17878   -17305   -18175   -20116   -21328 
  -21465   -21514   -21606   -21343   -20663   -19917   -19353   -18760 
  -18272   -18316   -18887   -19629   -20340   -20993   -21043   -20279 
  -19375   -18839   -19199   -20386   -21240   -21235   -20736   -20212 
  -19835   -19307   -18603   -17856   -17334   -18076   -19857   -20553 
  -19699   -18797   -18759   -19553   -20611   -21165   -21011   -20640 
  -20247   -19764   -19684   -20019   -20283   -20621   -20796   -20362 
  -19778   -19384   -19132   -19290   -19822   -20487   -21446   -22231 
  -21645   -20090   -19427   -19719   -19552   -19087   -19148   -19260 
  -19338   -19678   -19608   -19273   -19310   -19583   -20097   -20241 
  -19553   -18970   -19263   -20167   -20441   -19957   -20331   -21222 
  -20997   -20375   -20510   -20596   -20085   -19778   -19564   -18797 
  -18454   -19080   -19527   -19909   -20788   -21065   -20413   -19747 
  -19192   -18640   -18727   -19777   -20969   -21459   -21003   -19545 
  -17752   -17000   -17594   -18281   -18590   -19279   -19896   -19962 
  -20598   -21471   -21316   -20957   -20683   -19469   -18264   -18686 
  -20002   -20725   -20750   -20467   -19700   -18547   -18179   -19132 
  -20225   -20628   -20240   -19202   -18679   -19053   -19296   -19333 
  -19697   -20370   -21118   -21419   -21070   -20754   -20945   -21105 
  -20453   -19349   -18922   -19063   -18983   -18972   -19430   -19661 
  -19060   -18492   -18906   -19936   -21119   -22161   -22165   -21062 
  -20254   -20102   -19633   -19068   -18972   -18732   -18563   -19203 
  -19957   -20264   -20520   -20933   -21435   -21652   -21334   -20769 
  -20128   -19337   -18809   -18885   -18814   -18191   -18220   -19731 
  -21510   -22095   -21539   -20579   -20020   -20449   -21236   -21116 
  -19804   -18404   -18376   -19680   -20638   -20260   -19183   -18366 
  -18304   -18886   -19823   -21039   -22064   -22077   -21077   -20214 
  -20075   -20056   -20063   -20019   -19202   -17890   -17432   -18628 
  -20429   -21154   -20977   -20511   -19645   -19346   -20135   -20810 
  -20812   -20254   -19318   -18553   -18206   -18373   -18881   -19404 
  -19911   -20083   -19996   -20274   -20965   -21589   -21556   -20749 
  -19622   -18530   -17952   -18389   -19298   -19804   -19853   -19735 
  -19880   -20437   -20923   -20935   -20229   -18995   -18176   -18257 
  -18832   -19492   -19819   -19529   -19430   -20185   -20969   -21207 
  -21064   -20328   -19394   -19408   -20052   -19905   -19329   -19710 
  -20418   -19881   -18810   -19083   -20212   -20644   -20632   -20919 
  -21263   -21085   -20186   -18952   -17967   -17841   -18690   -19924 
  -20906   -21078   -20397   -19616   -19766   -21180   -22288   -21313 
  -19224   -18130   -18300   -19175   -20231   -20385   -19637   -19414 
  -20135   -20676   -20372   -19994   -19959   -19861   -19845   -19768 
  -19307   -19210   -19418   -18928   -18590   -19468   -20245   -20125 
  -20379   -20965   -20286   -18728   -18192   -19084   -20298   -20595 
  -19649   -18623   -18623   -19230   -19831   -20232   -19942   -19159 
  -19089   -20005   -20688   -20528   -20125   -19719   -19198   -18825 
  -18873   -18914   -18559   -18516   -19241   -20389   -21217   -20849 
  -20055   -20124   -20316   -19812   -19427   -19908   -20734   -20962 
  -20665   -20575   -20710   -20563   -19745   -18516   -17581   -16996 
  -17219   -19120   -21558   -22588   -22122   -21594   -21756   -21505 
  -20445   -20046   -20640   -21085   -20929   -20325   -19395   -18632 
  -18565   -18850   -18828   -18500   -18203   -18450   -19525   -20663 
  -21028   -20834   -20810   -21145   -21236   -20841   -20140   -18839 
  -17613   -18300   -20493   -21582   -20908   -20232   -20540   -21076 
  -21045   -20493   -19669   -18890   -18682   -19249   -20124   -20293 
  -19827   -20214   -21193   -21450   -21487   -21374   -20096   -18642 
  -18951   -20351   -20560   -19516   -18887   -18847   -18628   -18279 
  -18129   -18478   -19581   -20853   -21028   -19816   -18432   -17810 
  -18087   -19608   -21760   -22627   -21482   -19624   -18611   -18732 
  -19341   -19939   -20245   -19942   -19094   -18586   -18870   -19080 
  -19086   -19805   -21043   -21907   -22015   -21332   -20339   -19676 
  -19283   -18836   -18404   -18381   -19067   -19974   -20082   -19350 
  -18991   -19583   -20684   -21783   -21990   -21143   -20139   -18921 
  -17614   -17497   -18612   -19549   -19766   -19730   -19398   -18948 
  -19508   -21076   -21887   -21382   -21311   -22009   -21629   -20144 
  -19172   -19082   -19191   -19350   -19816   -20073   -20046   -20686 
  -21492   -21228   -20545   -20418   -20252   -19514   -18836   -18499 
  -18204   -18517   -19700   -20474   -20185   -19489   -18823   -18705 
  -19765   -21312   -21635   -20563   -19834   -19606   -18700   -17926 
  -18033   -18150   -18607   -19888   -20740   -20447   -19907   -20279 
  -21066   -20648   -19631   -19255   -18713   -18345   -19695   -21442 
  -21362   -20493   -20162   -19076   -17523   -18229   -20864   -22179 
  -21874   -22158   -22335   -20664   -18945   -18875   -19044   -19244 
  -20372   -20425   -18469   -17712   -18971   -19603   -19815   -20862 
  -20757   -19106   -19230   -21370   -22226   -21668   -21664   -21330 
  -19893   -19361   -19881   -19458   -19122   -20399   -20790   -19232 
  -18632   -19253   -19265   -19423   -20430   -21043   -20868   -20775 
  -20147   -17999   -16667   -18096   -19847   -20108   -20008   -20127 
  -20279   -20626   -20675   -19650   -18486   -18738   -19959   -20547 
  -20218   -19650   -19047   -18852   -19052   -18868   -18918   -19761 
  -20293   -20293   -20713   -21169   -20659   -20048   -20456   -21230 
  -21717   -21829   -21020   -19587   -18947   -19300   -19658   -19448 
  -18671   -18199   -18886   -19969   -20146   -19564   -19392   -19867 
  -20185   -19780   -18744   -17895   -18347   -20209   -21739   -21265 
  -19657   -18574   -18378   -19315   -21166   -22153   -21397   -20445 
  -20595   -21182   -21532   -21801   -21419   -19755   -17695   -16576 
  -16586   -16902   -17662   -19658   -21527   -21676   -21226   -21573 
  -22106   -21447   -19807   -18523   -17932   -17776   -17805   -17809 
  -18204   -19273   -20420   -21037   -21242   -21388   -21735   -22265 
  -21988   -20340   -18662   -18233   -18588   -18879   -18837   -18060 
  -17396   -18789   -21396   -22797   -22504   -21201   -19549   -18350 
  -18611   -19673   -19565   -18711   -18738   -19381   -19899   -20321 
  -20603   -20440   -20376   -21139   -21658   -20721   -18974   -17905 
  -18400   -19553   -19878   -19642   -19390   -18601   -18075   -19078 
  -20052   -19766   -19691   -20125   -20451   -21130   -21539   -20688 
  -19441   -19041   -19178   -18964   -19087   -19714   -19228   -18370 
  -19124   -20623   -21197   -20668   -19973   -19789   -20159   -21193 
  -21833   -21074   -20359   -20665   -20830   -20247   -19527   -19056 
  -18816   -19028   -19758   -20227   -20002   -20017   -20626   -20854 
  -20416   -20025   -19998   -20356   -21170   -21564   -20420   -18366 
  -17097   -17548   -19037   -19626   -18904   -18551   -19148   -20154 
  -21455   -22419   -21714   -19591   -18497   -19236   -20229   -21230 
  -22063   -21377   -20074   -20116   -20775   -20532   -20059   -20470 
  -21255   -21618   -20668   -18000   -16117   -17312   -19795   -20818 
  -20143   -19260   -19148   -19789   -20668   -20952   -20638   -20105 
  -19219   -18576   -18512   -18272   -17744   -17575   -18231   -19395 
  -20312   -20910   -21178   -21162   -21753   -22566   -21924   -20432 
  -20011   -20548   -20960   -20637   -19152   -17396   -17420   -19264 
  -20278   -19618   -19489   -20079   -19950   -20413   -22258   -22666 
  -20368   -18357   -18636   -19402   -19180   -18976   -19425   -19870 
  -20216   -20803   -21138   -20949   -20722   -20299   -19683   -19487 
  -19484   -19515   -19907   -19877   -18466   -16472   -16039   -17794 
  -19685   -20536   -20937   -20730   -20155   -20085   -20239   -19746 
  -18279   -17105   -17606   -18832   -19568   -19769   -19332   -18673 
  -18999   -20290   -20891   -20389   -20040   -20124   -20131   -19894 
  -19244   -18678   -19399   -20943   -21124   -20146   -20217   -20823 
  -20513   -19993   -19661   -19117   -18894   -19676   -20869   -20729 
  -18982   -17786   -18268   -19379   -20124   -20254   -20214   -20591 
  -21041   -21147   -21124   -21115   -21215   -21007   -19705   -18238 
  -18400   -19927   -21203   -21764   -21782   -20634   -18828   -18486 
  -19614   -20259   -20359   -20502   -19670   -18029   -17559   -18551 
  -19332   -19255   -19086   -18760   -18177   -18700   -20151   -20501 
  -19742   -19003   -17938   -16532   -16310   -17739   -19068   -18943 
  -18260   -18361   -18881   -19018   -18879   -18816   -18835   -18550 
  -18168   -18121   -18246   -18558   -18612   -17902   -17485   -18446 
  -19839   -20112   -19811   -20162   -20869   -21330   -21240   -20641 
  -20004   -19380   -18426   -17572   -18033   -19789   -21748   -22986 
  -22495   -20884   -20358   -21517   -23311   -24501   -24428   -23764 
  -23306   -23202   -23402   -23545   -23554   -23807   -24301   -24418 
  -23593   -22235   -21230   -21473   -23382   -25390   -25431   -23679 
  -21910   -21145   -20799   -20252   -19772   -19453   -19109   -19259 
  -20331   -21033   -20008   -18330   -17864   -18508   -19084   -19172 
  -18399   -16783   -16094   -17290   -18675   -19036   -18970   -18878 
  -18696   -18158   -16815   -15286   -15246   -17261   -19341   -19379 
  -18069   -17712   -19529   -22014   -22716   -21595   -20298   -20137 
  -21343   -22624   -22815   -21876   -19961   -18666   -19909   -21853 
  -22239   -22601   -23915   -24583   -24260   -24144   -24286   -23700 
  -22484   -21357   -19746   -17720   -17173   -18239   -19404   -20050 
  -19255   -16325   -13092   -12978   -16848   -21015   -22156   -20499 
  -17012   -13101   -11146   -12139   -14554   -15978   -16024   -16222 
  -17494   -20413   -25035   -29324   -30939   -29444   -25617   -20808 
  -17022   -15518   -15390   -14953   -14431   -15404   -17510   -18694 
  -18509   -18095   -18405   -20160   -23430   -26368   -27037   -26443 
  -25853   -24235   -22098   -21037   -19936   -18513   -18999   -21770 
  -24336   -24277   -22156   -20221   -19464   -20214   -21648   -21001 
  -17397   -13759   -12349   -12541   -14076   -16700   -17566   -15279 
  -13389   -15097   -18960   -22077   -23269   -22910   -21905   -20501 
  -17794   -13946   -11931   -13081   -14042   -12739   -11777   -13153 
  -16011   -19658   -23781   -27319   -29296   -29207   -27075   -23517 
  -19300   -15616   -14374   -16696   -21243   -25251   -26960   -26615 
  -25362   -23726   -22079   -21216   -20800   -19313   -16691   -14561 
  -13743   -14115   -16085   -19179   -21566   -23603   -26303   -26815 
  -23508   -19900   -18385   -17416   -15159   -12557   -12679   -15961 
  -19143   -20339   -21143   -23221   -25641   -26859   -26715   -24930 
  -21716   -19192   -17994   -16528   -14682   -13570   -13672   -14928 
  -16654   -17892   -18002   -16509   -13946   -13196   -16634   -21990 
  -25289   -26384   -28001   -31367   -34808   -35834   -33532   -28583 
  -22547   -17806   -15647   -14770   -14166   -15159   -18249   -21344 
  -22990   -24208   -25793   -26372   -24749   -21307   -17058   -14054 
  -14126   -16100   -16804   -15453   -14705   -16638   -20906   -25097 
  -25820   -22648   -18561   -16390   -17293   -20418   -23411   -23703 
  -20403   -15816   -13124   -12977   -14162   -15480   -15688   -14601 
  -14260   -16263   -19057   -20359   -20860   -22065   -22621   -20866 
  -17949   -15932   -15422   -15126   -13463   -11306   -11450   -14567 
  -18058   -20067   -21490   -22804   -22806   -21849   -22599   -25483 
  -26870   -24043   -19152   -16607   -17618   -19734   -21435   -23657 
  -27569   -31715   -32125   -27972   -23005   -19755   -17937   -17312 
  -17371   -17019   -16808   -18867   -23292   -26261   -25359   -23440 
  -22569   -21365   -19797   -18994   -18704   -19307   -21894   -24382 
  -23197   -19228   -16657   -17196   -19182   -20254   -19300   -16660 
  -13807   -13432   -16428   -19086   -18347   -16618   -17188   -19815 
  -22438   -22717   -19364   -14832   -13274   -15381   -18635   -21100 
  -22145   -21582   -20902   -22554   -25762   -27079   -25681   -23569 
  -21709   -19920   -18989   -19616   -20931   -22243   -23494   -23662 
  -22333   -21018   -20837   -21629   -22565   -21938   -19082   -16087 
  -15232   -15754   -15606   -15465   -16509   -17128   -16645   -16857 
  -18126   -19089   -18925   -17196   -14817   -14412   -16322   -18125 
  -18759   -19032   -19314   -19476   -20035   -20837   -21095   -22168 
  -25319   -27469   -24470   -17713   -13128   -13564   -16858   -20742 
  -23743   -23673   -20952   -19245   -19961   -21008   -20582   -18995 
  -17828   -18018   -19197   -20425   -21151   -22284   -24403   -25620 
  -24779   -23302   -21917   -20578   -20101   -20625   -21276   -21254 
  -20387   -19445   -18898   -18455   -18018   -17180   -15816   -15406 
  -17149   -19785   -21024   -19869   -17081   -14963   -15643   -17961 
  -18401   -16216   -14589   -15803   -18605   -21073   -22466   -22411 
  -21539   -21853   -23689   -24929   -25222   -25969   -26488   -25551 
  -24155   -23404   -22715   -21672   -20644   -19165   -17352   -16993 
  -18540   -20633   -22030   -21559   -19195   -16667   -15600   -16245 
  -17007   -16193   -14092   -12159   -11797   -13313   -15947   -18882 
  -20617   -19710   -17059   -15317   -16336   -19229   -21292   -21095 
  -19043   -16734   -16613   -18993   -21222   -21357   -20074   -19118 
  -18797   -18520   -19492   -22931   -27021   -28633   -26098   -20326 
  -14960   -13562   -15758   -18511   -20328   -21415   -21941   -22281 
  -22968   -23915   -24862   -25841   -26252   -24240   -19226   -14828 
  -14735   -17591   -20551   -22346   -21365   -17367   -13154   -10901 
  -10241   -10828   -13883   -19084   -22939   -23708   -23514   -24088 
  -24726   -24251   -23021   -22019   -21415   -20899   -19623   -17724 
  -16915   -17775   -19643   -21161   -20599   -18427   -16602   -15863 
  -15936   -16317   -16463   -16657   -17910   -19638   -20278   -20044 
  -19329   -17471   -15290   -15138   -17940   -21838   -24232   -24286 
  -22474   -19827   -18770   -20779   -23512   -23915   -21772   -19344 
  -19323   -21775   -24341   -25596   -25243   -23102   -19649   -16583 
  -16266   -19114   -22914   -25786   -26761   -24908   -21276   -18966 
  -19380   -20830   -21751   -22422   -23124   -23896   -24876   -25263 
  -24602   -24079   -24337   -24565   -24366   -23819   -22775   -21602 
  -20819   -20440   -20823   -22312   -23672   -23072   -20846   -19125 
  -18679   -18612   -18176   -17034   -15805   -16189   -18235   -19958 
  -20719   -21288   -21551   -21537   -21982   -22372   -21471   -19801 
  -19145   -20144   -21826   -22504   -21242   -18989   -17242   -16567 
  -16939   -17798   -18585   -19615   -20617   -20267   -18459   -16592 
  -16171   -18031   -21304   -23895   -24263   -22693   -21258   -20979 
  -20649   -19422   -17232   -14823   -14355   -16056   -17093   -16329 
  -15892   -17157   -18990   -20272   -20850   -21101   -22310   -24668 
  -25702   -23168   -18103   -13922   -12873   -14710   -17959   -20217 
  -19982   -18898   -18798   -18774   -17776   -16480   -15579   -15407 
  -16410   -17809   -17809   -16656   -16501   -17605   -18586   -19492 
  -21443   -24300   -26318   -26711   -26441   -25718   -24258   -22566 
  -20757   -19016   -18000   -17782   -18238   -18932   -19198   -19184 
  -19057   -18519   -18156   -19129   -21122   -22605   -22566   -20494 
  -16848   -13702   -12680   -13448   -14542   -14740   -14330   -14588 
  -16096   -18303   -19936   -19745   -18063   -17281   -18793   -21128 
  -22319   -21649   -20047   -19568   -20935   -22985   -24597   -25093 
  -23770   -20904   -18226   -17076   -17315   -17938   -17752   -17051 
  -17667   -19940   -22280   -23673   -24275   -24254   -23715   -23070 
  -22334   -20706   -18180   -16672   -17311   -18520   -18563   -17459 
  -16113   -15913   -18029   -21493   -24057   -24652   -23737   -22761 
  -22482   -21968   -20213   -17658   -16132   -16571   -17556   -17887 
  -18075   -19186   -21516   -23350   -22848   -20520   -18108   -17405 
  -18457   -18921   -17946   -16861   -16544   -17309   -18990   -21432 
  -24196   -25416   -24514   -23159   -22053   -21212   -21454   -22250 
  -21281   -18272   -16086   -16376   -17352   -16965   -15570   -14605 
  -14705   -16210   -19037   -21271   -20528   -16946   -13182   -11526 
  -12395   -15002   -17774   -19259   -19703   -20650   -22441   -23571 
  -23356   -22827   -22653   -22736   -23053   -23269   -22744   -21649 
  -20839   -20295   -19259   -18137   -18623   -21384   -24888   -27351 
  -28005   -26457   -23660   -22148   -23332   -25775   -26674   -25358 
  -23085   -20349   -18054   -17487   -18247   -19645   -21467   -22527 
