Origin Time       2024/04/02 04:24:00
Lat.              40.133
Long.             141.712
Depth. (km)       71
Mag.              6.0
Station Code      IWTH21
Station Lat.      39.4734
Station Long.     141.9336
Station Height(m) 13
Record Time       2024/04/02 04:24:53
Sampling Freq(Hz) 100Hz
Duration Time(s)  130
Dir.              6
Scale Factor      7845(gal)/8223790
Max. Acc. (gal)   56.241
Last Correction   2024/04/02 04:24:53
Memo.             
[...]
  -20502   -20493   -20494   -20502   -20503   -20498   -20493   -20499 
  -20502   -20494   -20491   -20497   -20501   -20502   -20495   -20494 
  -20498   -20498   -20498   -20499   -20495   -20493   -20498   -20503 
  -20498   -20491   -20501   -20503   -20493   -20493   -20503   -20503 
  -20497   -20493   -20499   -20499   -20495   -20499   -20498   -20498 
  -20503   -20498   -20495   -20498   -20497   -20495   -20499   -20498 
  -20495   -20498   -20503   -20497   -20491   -20501   -20503   -20497 
  -20497   -20498   -20499   -20495   -20494   -20501   -20498   -20494 
  -20498   -20501   -20498   -20494   -20494   -20502   -20503   -20491 
  -20491   -20505   -20506   -20494   -20490   -20502   -20498   -20493 
  -20502   -20501   -20491   -20494   -20502   -20501   -20494   -20495 
  -20501   -20497   -20495   -20498   -20501   -20499   -20493   -20493 
  -20503   -20503   -20494   -20493   -20499   -20502   -20494   -20493 
  -20502   -20498   -20493   -20499   -20502   -20497   -20497   -20502 
  -20501   -20493   -20493   -20501   -20501   -20497   -20495   -20498 
  -20503   -20498   -20494   -20497   -20497   -20498   -20501   -20499 
  -20495   -20493   -20495   -20499   -20495   -20493   -20501   -20503 
  -20493   -20491   -20502   -20502   -20491   -20494   -20502   -20497 
  -20495   -20499   -20498   -20495   -20497   -20499   -20498   -20494 
  -20497   -20499   -20498   -20495   -20494   -20497   -20503   -20497 
  -20491   -20498   -20499   -20495   -20497   -20502   -20497   -20493 
  -20499   -20499   -20491   -20495   -20501   -20497   -20494   -20497 
  -20502   -20501   -20493   -20494   -20501   -20499   -20497   -20497 
  -20495   -20498   -20499   -20497   -20498   -20502   -20498   -20495 
  -20503   -20502   -20494   -20498   -20502   -20494   -20494   -20501 
  -20501   -20498   -20493   -20495   -20501   -20497   -20495   -20498 
  -20495   -20493   -20499   -20501   -20495   -20493   -20499   -20502 
  -20498   -20491   -20493   -20505   -20501   -20491   -20498   -20503 
  -20495   -20493   -20498   -20502   -20499   -20494   -20498   -20499 
  -20493   -20497   -20502   -20495   -20491   -20498   -20502   -20494 
  -20488   -20494   -20498   -20495   -20490   -20495   -20517   -20537 
  -20547   -20563   -20584   -20602   -20607   -20618   -20667   -20749 
  -20804   -20752   -20668   -20733   -20817   -20719   -20715   -20846 
  -20582   -20128   -20136   -20277   -20413   -21047   -21462   -20810 
  -20297   -21122   -21953   -21186   -20247   -21213   -22566   -21560 
  -19359   -19141   -20455   -20887   -20780   -20930   -20509   -20260 
  -21501   -22620   -21760   -20721   -22252   -23544   -19890   -15603 
  -17728   -21945   -20844   -19610   -24270   -26092   -19458   -14191 
  -18084   -26906   -30211   -24293   -17232   -14488   -15785   -21837 
  -25829   -19970   -13630   -19003   -28837   -28071   -17880    -9420 
   -9316   -19720   -27679   -20939   -16271   -27275   -34672   -18409 
    3493    -1414   -26559   -41331   -33015   -10065     2269   -13648 
  -36618   -36918   -20069    -5020    -1529   -15425   -30975   -26805 
  -17313   -21493   -24263   -14678   -11776   -22925   -31298   -25527 
  -11172    -7155   -15854   -22796   -28555   -26211   -12054   -12891 
  -28443   -30152   -19780   -13954   -19311   -27880   -22524   -11406 
  -13729   -25031   -34450   -32458   -16950    -6701    -9782   -20864 
  -35922   -31143    -7468     -750   -10536   -19710   -29115   -40320 
  -41308   -17740      669   -15541   -30323   -19692   -19489   -39290 
  -34357    -7176    -9216   -30422   -24271    -6280   -25552   -50718 
  -23475     6041    -9977   -26574   -22642   -20703   -20123   -12906 
  -16170   -33717   -34022    -6462     7580   -20331   -47657   -37045 
  -10054    -1687   -26987   -45559   -27054   -14492   -20561   -15940 
   -7295   -16032   -36216   -36464   -10450     3288   -12297   -28948 
  -26723   -16399   -13000   -16309   -28799   -46872   -32209     9378 
    6886   -44641   -64851   -14877    26781    -4607   -44601   -41592 
  -20941    -9892   -17377   -19063   -13539   -26752   -29087    -8461 
  -11032   -34684   -36108   -14280    -2438   -13818   -22821   -16175 
  -21733   -31112   -14211    -6939   -31009   -44186   -24302     7870 
   10049   -32514   -64358   -30736    25532    13007   -52596   -61029 
   -5690    10606   -27290   -41863   -15589     -405   -17964   -36355 
  -32753   -18489   -12455   -17898   -19017   -14959   -20614   -26173 
  -20398   -17740   -21111   -17203   -14685   -30689   -42180   -21101 
   -3908   -19753   -30842   -27282   -24436    -9166    -3391   -32286 
  -47625   -14719    11157   -15664   -44047   -27166    -3897   -11125 
  -25477   -23430   -17956   -20150   -25555   -30497   -28433   -17695 
   -8313   -11669   -26111   -31068   -18585   -12721   -25261   -28143 
  -10264    -4614   -23290   -38889   -33532   -19242   -12326    -8008 
   -8247   -25015   -36139   -21676    -8186   -15367   -25415   -22728 
  -16499   -19869   -25799   -20686   -13879   -19141   -26238   -26850 
  -23283   -16611   -18544   -25432   -20781   -18185   -22639   -19066 
  -17537   -24074   -21828   -13420   -19545   -30784   -23410   -14478 
  -19607   -19832   -15822   -19512   -21485   -20110   -22296   -21848 
  -20719   -24204   -19025    -9493   -16841   -29045   -27270   -25118 
  -24443   -11391    -8889   -28362   -31391   -11416    -5428   -22573 
  -36763   -28817   -11188    -6471   -17508   -33122   -36331   -18673 
   -3565   -15306   -32301   -22659    -8668   -21847   -35210   -27496 
  -16560    -8721   -11427   -25677   -29331   -23920   -20845   -15056 
  -12722   -18339   -24953   -26869   -20551   -19611   -24452   -16163 
  -11005   -21477   -24240   -18485   -22222   -28506   -23253   -14481 
  -14061   -19415   -25961   -29286   -22234   -11149   -14806   -28377 
  -29677   -21556   -14131   -11223   -21874   -31202   -20642    -9802 
  -14739   -24532   -29115   -23371   -11124    -7784   -17919   -31563 
  -37311   -24370    -1393    -1491   -27434   -39033   -21733    -6250 
  -16046   -33759   -29732   -12530    -9948   -18846   -26518   -30244 
  -22750   -12121   -16332   -26239   -23039   -12636   -13192   -23895 
  -27013   -20197   -18850   -22937   -21427   -18639   -19400   -21042 
  -23845   -24624   -20278   -13522   -14416   -28198   -32138   -16274 
  -12025   -26052   -29002   -18530   -14077   -18115   -22542   -23873 
  -22427   -20915   -20193   -16119   -15257   -25137   -28846   -19643 
  -15547   -20590   -26509   -26981   -17740    -8804   -13409   -23923 
  -26511   -20675   -14843   -17628   -25404   -28131   -22823   -14844 
  -17641   -29540   -30495   -17857    -6330    -9038   -27178   -35916 
  -22734   -16692   -22612   -14256    -5667   -21577   -38788   -28675 
   -8819   -10118   -23988   -27191   -20568   -12002   -12029   -28996 
  -36923   -15724    -1644   -15318   -26141   -21177   -14135   -13034 
  -18719   -27773   -31206   -25431   -19089   -13552   -12160   -22052 
  -25336   -15688   -15736   -26100   -24327    -7927    -7074   -30786 
  -38075   -18694   -14744   -27935   -23134   -11439   -19830   -32132 
  -25581   -11797   -12699   -18234   -16494   -23642   -34221   -27907 
  -12271    -7994   -20969   -28008   -22420   -26126   -25724   -12390 
  -13215   -23855   -26013   -23529   -22612   -23889   -21447   -17740 
  -20132   -21516   -15230    -8059   -15039   -34489   -33272    -6268 
   -3017   -35276   -48865   -25284    -9624   -20902   -27426   -18396 
  -14193   -18107   -21348   -20058   -11811   -10339   -25641   -31342 
  -18044   -15149   -23338   -24252   -20721   -16951   -19163   -23920 
  -18211   -15160   -18678   -15921   -16306   -22212   -26358   -27961 
  -20460   -11049   -14385   -25193   -29852   -24773   -19984   -18692 
  -10392    -4665   -20846   -36724   -23525    -8091   -19072   -33646 
  -26088    -5589    -4058   -30294   -43711   -25208    -9317   -13667 
  -23545   -24159   -15225   -15606   -27147   -24705   -10874   -15005 
  -30229   -24660    -9802   -17861   -33161   -24459    -7006   -10513 
  -28233   -33388   -19849    -8796   -12029   -20700   -29994   -33197 
  -22207    -7165   -10481   -32871   -39008   -18501    -5309   -14997 
  -35684   -42090   -15045     9258   -13192   -44479   -35541   -15045 
  -12915   -16256   -21250   -25554   -19440   -13423   -19495   -27274 
  -23166   -14910   -19197   -27469   -25421   -21583   -17498   -12344 
  -20756   -33224   -27557   -12725    -6439   -14546   -28401   -31131 
  -23955   -15431   -13275   -23031   -29146   -23083   -15427   -12810 
  -18543   -27052   -27209   -18323   -13321   -18671   -19440   -18424 
  -29254   -28756    -9655    -6292   -19811   -24101   -19924   -17802 
  -20277   -23407   -23018   -23028   -17913    -9749   -16721   -25284 
  -20218   -20322   -24686   -21813   -20850   -18982   -16139   -22651 
  -23615   -17055   -20749   -23855   -18675   -12746   -14542   -31399 
  -35930   -18238   -10628   -13115   -18476   -30011   -28426   -13774 
  -10226   -19238   -26983   -26260   -19176   -14480   -17297   -25412 
  -28183   -19276   -14172   -23826   -30667   -18700    -7364   -18604 
  -30811   -23341   -12360   -15115   -32217   -38630   -18117    -5929 
  -17477   -24452   -24821   -26900   -20270    -8421    -9477   -21811 
  -28908   -29265   -21847    -8853   -14331   -33521   -32582   -13990 
   -4591   -15088   -33068   -33008   -14098    -4228   -12827   -28525 
  -38202   -27619    -5189    -2011   -28825   -50633   -29018     7630 
    1732   -35633   -45590   -18993      692   -10559   -32162   -33197 
  -22149   -22106   -16718    -4995   -17342   -34996   -25120   -14982 
  -27843   -29241    -6511    -4433   -31999   -40684   -17986    -4446 
  -16902   -31187   -28524   -13664    -5913   -12999   -23526   -31846 
  -28449   -11508    -8715   -23359   -31056   -27486   -18138   -10355 
  -12723   -24688   -33029   -23009   -10759   -15817   -21150   -17537 
  -19583   -25331   -21246   -16794   -24117   -27182   -20717   -19116 
  -20756   -19612   -16336   -13425   -13674   -18272   -29029   -32989 
  -18704   -11952   -27290   -32734   -18504   -10727   -14580   -20726 
  -25523   -23124   -14207   -12843   -23859   -28543   -19178   -15029 
  -24495   -29585   -15192     -972   -16433   -39441   -29604   -11788 
  -20677   -25579   -14161   -18850   -30667   -28925   -24638   -17329 
   -6102    -9058   -22848   -23558   -16101   -22647   -32937   -28483 
  -19251   -17332   -19712   -16853   -13288   -24036   -33399   -24332 
  -11280    -6994   -15283   -28021   -32498   -25265   -12183   -15514 
  -30618   -26954   -13668   -14804   -27125   -29489   -13440    -5374 
  -15819   -23195   -26619   -27049   -16213   -13273   -25660   -29135 
  -19028   -11770   -15745   -22488   -20205   -15742   -21388   -30595 
  -28279   -16893   -12306   -17433   -25479   -32031   -25805    -7327 
   -3743   -19226   -29088   -28489   -22717   -16237   -17907   -22630 
  -23579   -23213   -19369   -13703   -17779   -31945   -31236    -4683 
    5009   -30820   -57109   -25240    14145     4738   -28547   -46450 
  -37932   -12793    -2296   -13662   -25145   -27556   -19161   -12333 
  -21247   -28090   -21919   -15734   -15357   -19070   -23283   -25596 
  -22762   -14386   -17718   -34091   -30145    -5718    -2515   -22889 
  -35059   -34003   -23715    -3746      330   -26611   -45389   -26134 
   -2334    -8935   -28776   -31623   -18397    -9950   -14241   -25930 
  -33377   -22604   -10042   -15793   -22558   -21016   -21001   -24011 
  -25405   -21768   -17200   -14674   -16533   -26218   -31298   -22682 
  -13620   -12722   -17961   -25069   -23822   -18661   -21498   -24387 
  -22468   -20235   -17213   -14531   -14187   -23337   -37226   -28769 
   -5533    -7260   -26057   -25550   -16567   -23386   -29119   -17593 
  -10000   -25650   -37390   -18979    -3595   -16916   -29515   -22667 
  -15750   -21880   -29332   -22712    -6986    -6457   -25020   -36402 
  -26460   -11557   -11614   -18929   -20420   -22026   -24655   -23546 
  -22041   -23198   -20020   -12860   -19078   -31981   -29316   -16964 
   -9319    -7933   -13352   -27427   -34933   -20304    -4611   -12066 
  -30508   -37752   -26715   -11978   -17251   -31811   -25324    -4742 
   -1876   -24227   -42290   -32309   -11013    -5228   -15870   -23319 
  -22137   -25521   -28227   -20178   -12383   -14359   -25963   -33045 
  -23264   -15384   -21884   -27372   -21271   -14534   -22774   -31321 
  -20295    -8091   -13984   -26892   -28800   -19319   -14463   -16555 
  -17824   -24840   -30716   -19695   -11479   -23534   -29839   -14138 
   -4203   -20178   -36481   -24553    -3858    -6907   -23560   -31452 
  -28906   -21801   -21321   -23761   -17479   -15687   -22605   -24632 
  -21909   -18118   -15133   -15766   -22505   -28597   -19251   -10469 
  -18288   -18573    -5782    -4468   -23171   -40112   -27228    -3507 
   -9051   -30906   -33512   -19557   -15770   -29161   -34430   -17687 
   -4399   -11059   -23872   -30028   -24192   -14021   -16355   -26257 
  -25932   -17790   -16208   -17404   -11338   -12484   -29579   -37991 
  -21266     -650    -8155   -35725   -40783   -22387   -18673   -35270 
  -45810   -26927     5177     1906   -26790   -27454   -12949   -24592 
  -51985   -60809   -28240    22476    35109     8209   -18651   -32620 
  -41215   -52733   -47605    -3682    32919    16060   -29724   -70719 
  -79454   -37118    15406    13647   -24899   -27870    -8625   -18010 
  -30538   -25790   -21660   -21660   -21270    -5894    17707    14439 
  -20252   -60374   -63580   -15028    27379    10563   -42965   -66012 
  -33559     1351    -3233   -24904   -31023   -24214   -26226   -36903 
  -38246   -21963     2305     9011   -13224   -42839   -49874   -25489 
     108     -344    -5741    -6650   -27270   -55200   -54726   -20968 
   13976     6253   -26362   -37719   -43173   -44821   -16640    13892 
   10876   -17228   -36342   -35314   -28869    -7523    19048    10795 
  -23130   -46646   -51131   -42079   -22063    -1259    -1767   -18347 
  -20056   -17161   -35645   -48235   -28690    -6326   -14389   -33211 
  -20557     7491     2547   -31675   -56816   -51989   -32748   -19616 
    5815    32906     7796   -48004   -73427   -59709   -12460    29335 
    -527   -47005   -16895     9130   -31920   -55655   -40136   -16090 
    1236    -5780    -9240    -6385   -26742   -36725   -12106     5815 
   -7061   -25285   -27170   -26063   -32895   -30526   -10550     9826 
    7160   -21072   -42877   -40876   -31476   -21733   -16996   -25312 
  -33689   -35613   -32755   -13946     5117    -7595   -37623   -42381 
  -19855   -10100   -21857   -26036   -17262   -12236   -14917   -18631 
  -21999   -28306   -37770   -38215   -16260     8387     3384   -26064 
  -48184   -38011    -7650    -2837   -20733   -18488    -8031   -14064 
  -19813   -22566   -36425   -34094     3539    19111   -20941   -60297 
  -53925   -22248    -2143    -9911   -31004   -31611   -13450   -11259 
  -24070   -27473   -24169   -25269   -24247   -19479   -21250   -23113 
  -13058    -9315   -25617   -34348   -24466   -15088    -4214     4041 
   -9728   -31419   -35240   -26061   -24367   -30157   -25550   -10160 
    3321     3927   -17143   -39734   -33556   -12627   -11542   -31622 
  -41497   -26366    -7051    -2540   -18316   -35425   -20908    -3866 
  -26900   -45432   -21802     5346     4068   -19869   -40050   -36117 
  -22373   -14042    -9482   -13792   -26615   -31055   -20162    -9957 
  -17608   -36936   -42188   -24127    -7157   -12271   -29365   -34599 
  -23495   -15109   -13979   -10755   -10191   -17779   -24241   -19186 
  -16047   -25400   -27313   -21928   -26865   -31909   -27207   -19553 
  -16393   -17707   -14681   -15151   -27247   -31707   -22235   -14177 
  -15627   -21128   -19773   -16544   -21760   -26304   -23221   -19583 
  -13508    -7223   -16474   -29901   -25095   -17312   -18474   -11952 
   -5871   -17307   -27835   -25400   -24154   -27440   -29844   -29438 
  -20368    -9563   -10027   -16862   -28221   -37721   -26928    -9907 
   -9732   -16438   -19340   -21708   -27486   -35413   -36321   -24111 
   -6790     -533    -5240   -10666   -20769   -30784   -28564   -23090 
  -20952   -15664    -9413   -10380   -19194   -23839   -20205   -24073 
  -32356   -25872   -13221    -8949   -11097   -19190   -27662   -30904 
  -33131   -27189   -14238   -14013   -20830   -22324   -25475   -26015 
  -21736   -22235   -24655   -25725   -21384   -10453    -8908   -14623 
  -18054   -28379   -37939   -31560   -13625    -2853   -13726   -24848 
  -18808   -17892   -27784   -33644   -29257   -13073    -2548    -9626 
  -19013   -22590   -24336   -31078   -34952   -19246    -7601   -17406 
  -21043   -17655   -20962   -20505   -20015   -25628   -23021    -9876 
   -8500   -26249   -35318   -25506   -18536   -20267   -21339   -17378 
  -11720   -14046   -24759   -31365   -26717   -18125   -15145   -18694 
  -21621   -14311    -4259   -13891   -33779   -32551   -20075   -18690 
  -18250   -13730   -11087   -11049   -19869   -31199   -33027   -32320 
  -27081   -10794    -1931   -13900   -33153   -43918   -38408   -16962 
    -660    -9475   -29920   -35935   -24714   -16094   -18219   -18777 
  -16499   -18615   -21231   -21061   -19828   -18308   -17550   -18485 
  -23699   -28667   -25328   -20780   -18314   -13771   -13054   -15654 
  -19948   -28065   -28327   -16621    -7418    -8765   -16951   -26825 
  -31203   -23982   -16148   -22179   -29224   -20194   -11510   -21807 
  -31282   -23272   -16868   -19680   -19962   -18100   -15873   -16681 
  -25454   -29425   -19658    -8946   -12667   -29600   -35982   -18972 
   -6288   -17736   -29290   -23939   -15944   -18486   -27622   -28659 
  -19874   -13319   -14308   -22061   -25439   -16465   -10115   -18424 
  -29112   -25257   -15709   -17429   -19654   -14589   -16941   -25694 
  -27313   -25829   -23953   -13014    -7321   -19404   -25339   -20745 
  -20962   -19369   -17325   -18328   -17265   -22600   -30549   -26419 
  -15718   -12834   -22666   -28055   -15174    -8630   -20834   -27511 
  -28833   -32861   -19348    -2671   -18049   -38952   -28871    -8529 
  -11237   -31256   -34749   -18627   -11657   -15722   -17155   -17072 
  -17038   -17757   -22018   -26115   -23647   -17469   -15395   -17550 
  -22596   -30474   -31908   -20133   -10401   -16737   -24759   -23382 
  -21991   -20742   -16271   -17653   -25717   -27417   -18079    -9703 
  -13456   -19591   -16803   -20133   -31602   -23530    -5821   -13347 
  -31079   -32949   -28387   -23043   -15468   -12561   -15673   -23793 
  -30281   -25770   -16397    -8290    -6593   -22559   -39795   -33471 
  -15674    -5877   -10706   -25806   -28998   -17937   -15855   -25272 
  -32605   -30102   -18310   -10129   -14937   -25412   -30919   -24996 
  -10858    -6115   -17088   -26226   -21138   -11763   -14879   -25959 
  -26014   -16295   -11226   -16093   -25717   -27064   -17463   -12600 
  -17790   -20497   -18970   -23152   -31391   -31922   -20958    -9558 
  -10110   -20885   -32040   -33635   -21949   -11951   -14932   -18242 
  -19205   -25448   -24459   -11518   -10292   -27045   -32860   -20488 
  -16051   -23184   -24888   -18287   -14087   -22080   -31723   -27187 
