Origin Time       2024/04/02 04:24:00
Lat.              40.133
Long.             141.712
Depth. (km)       71
Mag.              6.0
Station Code      IWTH03
Station Lat.      39.8020
Station Long.     141.6520
Station Height(m) 209.8
Record Time       2024/04/02 04:24:49
Sampling Freq(Hz) 100Hz
Duration Time(s)  131
Dir.              3
Scale Factor      2942(gal)/8224139
Max. Acc. (gal)   22.447
Last Correction   2024/04/02 04:24:49
Memo.             
[...]
 -109040  -109040  -109040  -109040  -109039  -109038  -109040  -109042 
 -109039  -109040  -109042  -109039  -109038  -109040  -109038  -109035 
 -109038  -109042  -109040  -109040  -109040  -109038  -109039  -109040 
 -109039  -109040  -109040  -109039  -109039  -109039  -109038  -109039 
 -109040  -109040  -109039  -109039  -109038  -109036  -109040  -109042 
 -109039  -109038  -109039  -109038  -109038  -109039  -109040  -109040 
 -109039  -109039  -109040  -109039  -109038  -109039  -109039  -109038 
 -109039  -109042  -109040  -109038  -109039  -109040  -109040  -109039 
 -109040  -109042  -109042  -109040  -109042  -109042  -109042  -109042 
 -109040  -109039  -109038  -109039  -109042  -109043  -109042  -109042 
 -109042  -109040  -109039  -109039  -109040  -109039  -109038  -109040 
 -109042  -109038  -109038  -109040  -109039  -109039  -109042  -109042 
 -109042  -109038  -109038  -109042  -109042  -109039  -109042  -109040 
 -109036  -109038  -109039  -109038  -109038  -109040  -109039  -109038 
 -109040  -109040  -109039  -109040  -109042  -109042  -109040  -109040 
 -109040  -109039  -109040  -109042  -109042  -109039  -109039  -109040 
 -109042  -109042  -109043  -109040  -109040  -109040  -109039  -109038 
 -109039  -109039  -109039  -109040  -109042  -109040  -109040  -109040 
 -109039  -109040  -109039  -109039  -109040  -109039  -109040  -109043 
 -109040  -109038  -109038  -109038  -109040  -109044  -109043  -109040 
 -109042  -109042  -109040  -109040  -109039  -109039  -109040  -109042 
 -109044  -109043  -109043  -109043  -109040  -109040  -109043  -109040 
 -109038  -109039  -109040  -109040  -109040  -109040  -109039  -109040 
 -109042  -109040  -109039  -109039  -109040  -109040  -109040  -109042 
 -109039  -109035  -109039  -109043  -109040  -109039  -109040  -109039 
 -109039  -109040  -109040  -109042  -109042  -109040  -109042  -109042 
 -109039  -109039  -109040  -109038  -109039  -109042  -109040  -109039 
 -109040  -109040  -109042  -109040  -109038  -109039  -109043  -109040 
 -109038  -109042  -109042  -109039  -109040  -109040  -109039  -109039 
 -109040  -109040  -109039  -109039  -109039  -109039  -109039  -109039 
 -109039  -109040  -109040  -109040  -109040  -109039  -109039  -109039 
 -109040  -109040  -109039  -109042  -109040  -109039  -109040  -109042 
 -109042  -109042  -109042  -109039  -109038  -109040  -109042  -109043 
 -109043  -109040  -109039  -109040  -109040  -109042  -109042  -109042 
 -109043  -109042  -109039  -109040  -109043  -109044  -109042  -109039 
 -109039  -109040  -109040  -109039  -109039  -109039  -109039  -109040 
 -109042  -109040  -109039  -109038  -109040  -109043  -109040  -109038 
 -109040  -109042  -109039  -109039  -109040  -109042  -109040  -109040 
 -109039  -109039  -109039  -109042  -109040  -109040  -109040  -109039 
 -109040  -109040  -109038  -109039  -109043  -109040  -109038  -109039 
 -109040  -109042  -109040  -109038  -109040  -109042  -109040  -109040 
 -109042  -109043  -109042  -109039  -109040  -109043  -109042  -109038 
 -109036  -109040  -109040  -109038  -109039  -109040  -109039  -109040 
 -109042  -109039  -109039  -109040  -109039  -109038  -109040  -109043 
 -109042  -109040  -109038  -109039  -109040  -109040  -109040  -109038 
 -109038  -109040  -109038  -109038  -109042  -109044  -109040  -109038 
 -109039  -109040  -109040  -109040  -109040  -109039  -109039  -109043 
 -109040  -109038  -109040  -109042  -109035  -109038  -109043  -109042 
 -109039  -109040  -109039  -109039  -109040  -109042  -109040  -109039 
 -109039  -109042  -109043  -109042  -109040  -109039  -109038  -109039 
 -109040  -109040  -109039  -109039  -109039  -109039  -109039  -109039 
 -109040  -109040  -109040  -109040  -109038  -109039  -109043  -109042 
 -109039  -109040  -109042  -109040  -109040  -109039  -109039  -109040 
 -109040  -109039  -109039  -109039  -109039  -109039  -109040  -109042 
 -109040  -109039  -109040  -109042  -109042  -109040  -109040  -109039 
 -109040  -109040  -109040  -109039  -109040  -109043  -109040  -109039 
 -109042  -109040  -109039  -109039  -109039  -109038  -109039  -109039 
 -109038  -109038  -109039  -109042  -109042  -109039  -109038  -109042 
 -109040  -109036  -109030  -108999  -108912  -108723  -108372  -107825 
 -107227  -106983  -107380  -108051  -108332  -108162  -108693  -111094 
 -113028  -111545  -110150  -112426  -114951  -115072  -112553  -107719 
 -105811  -108202  -108170  -105440  -105301  -107269  -108679  -110798 
 -115227  -117054  -113799  -114189  -116387  -108491   -99619  -101521 
 -104437  -102509  -101629  -104163  -107007  -109822  -117693  -123238 
 -115641  -108238  -112567  -114940  -104976   -93931   -95623  -104291 
 -104931   -99644  -100341  -108477  -120402  -125651  -113800  -102097 
 -109521  -120105  -113802  -100399   -98250  -103783  -108044  -111314 
 -111171  -109995  -112195  -112634  -112104  -117312  -118408  -104876 
  -96807  -110235  -120744  -111176  -100988  -100799   -99804  -101066 
 -114351  -122238  -109395   -99523  -108961  -117656  -110674   -97621 
  -95014  -104882  -110832  -107532  -110713  -117481  -111103  -108297 
 -124583  -131275  -112522   -97343  -100658  -100803   -94282   -99493 
 -104643   -97083   -99079  -119900  -136044  -126206  -104784  -100942 
 -114242  -123715  -110702   -92398  -101082  -114770  -109881  -103280 
 -104129  -110038  -109262  -102458  -112288  -121543  -103432   -91233 
 -111754  -133062  -124808  -102514  -102625  -121456  -117706  -100953 
 -109954  -125950  -123993  -117717  -116587  -118010  -117499  -107964 
  -92443   -85575   -92121  -100904  -103250  -105109  -110967  -111920 
 -110879  -115871  -114027  -106897  -107357  -102471   -93394   -96327 
 -103153  -108720  -112930  -111831  -115263  -119645  -113694  -110446 
 -114898  -110569   -95357   -91366  -106664  -117385  -115384  -119187 
 -125415  -119593  -113300  -117057  -121560  -116928  -104961  -102647 
 -108602  -103482  -100090  -110076  -113798  -101908   -93606  -109302 
 -121512  -102319   -86209   -95075  -107535  -110074  -107327  -107796 
 -112638  -117682  -115651  -111021  -112951  -112536  -111505  -112892 
 -107464  -105540  -106362   -94598   -87579  -101451  -117162  -117780 
 -109293  -104982  -108494  -113682  -115148  -110362  -103883  -103248 
 -106825  -109825  -108629  -102216  -101051  -111757  -116812  -104114 
  -96546  -106047  -110466  -108307  -112114  -112114  -107912  -114053 
 -123600  -118870  -110598  -110656  -107206  -106899  -112507  -109995 
 -109597  -110731  -109621  -120417  -123147  -105958   -98157  -103744 
 -104237   -98545   -96881  -101503  -105410  -106342  -106559  -109228 
 -113665  -113320  -113556  -120888  -118365  -102710  -102949  -117259 
 -113761   -99935  -100689  -107755  -108935  -110039  -110650  -109259 
 -114957  -121865  -117576  -113373  -116276  -115797  -111879  -104872 
  -99006  -106423  -111284  -103256  -102994  -111565  -113467  -106848 
 -105204  -115453  -116812  -103677  -100476  -107721  -109486  -110754 
 -112368  -102311   -96163  -110673  -119612  -112649  -110636  -109645 
 -105210  -108417  -112286  -107118  -101372  -104449  -109498  -107109 
 -105059  -110150  -114295  -112070  -108513  -109626  -113281  -113682 
 -112163  -111107  -110188  -112090  -110813  -103280  -105386  -112880 
 -105549   -95079   -97673  -105335  -108434  -104957  -104326  -113768 
 -118941  -112000  -110219  -118289  -118760  -111790  -107350  -104120 
 -105340  -111150  -111906  -106914  -105219  -111357  -116309  -110092 
 -106119  -115194  -116608  -104580  -101302  -108283  -109952  -105443 
 -102338  -102555  -107657  -113904  -109629  -103608  -110860  -114799 
 -106370  -105744  -112391  -111373  -112097  -117765  -111924  -104157 
 -111808  -115187  -103505   -99289  -106404  -109146  -104911  -102132 
 -110570  -121845  -115446  -105447  -117343  -127919  -114259  -104615 
 -114008  -117535  -105598   -96471  -100896  -108685  -109294  -102995 
 -101548  -109629  -107603   -99979  -107279  -111705  -108432  -112793 
 -112369  -107492  -112371  -115962  -112793  -108795  -103176  -103532 
 -110184  -108523  -100782  -100834  -106651  -108224  -107754  -108315 
 -106756  -107779  -112761  -112394  -109883  -112561  -110012  -105763 
 -112672  -110177   -93876   -96527  -110959  -107222   -99657  -107366 
 -116737  -112769  -104662  -113358  -126783  -117984  -106097  -113140 
 -118266  -110528  -105313  -106664  -110425  -111964  -104893  -102536 
 -113404  -117829  -111545  -106056  -100965   -99308  -105112  -107350 
 -103890  -107059  -111264  -110134  -115160  -123792  -123639  -116824 
 -111472  -112280  -116375  -115537  -110924  -107632  -103584  -103303 
 -110943  -113553  -108189  -107701  -109077  -107029  -106089  -103216 
 -102432  -108407  -109262  -106502  -109547  -110019  -103410  -102300 
 -112583  -114856  -102425  -103773  -119828  -123550  -118276  -116121 
 -114534  -109494  -101754  -102203  -111735  -111808   -98577   -91673 
  -99366  -108648  -110886  -107049  -102826  -106516  -110748  -106367 
 -107253  -115356  -110246   -99900  -105054  -111823  -109711  -109405 
 -109013  -107462  -106979  -105223  -109294  -111735  -104422  -108333 
 -118436  -109386   -98922  -106606  -113493  -109225  -108508  -113846 
 -113769  -110400  -111743  -113184  -107520  -100734  -102963  -110263 
 -111265  -106138  -107667  -115059  -110675  -101240  -108576  -118044 
 -108333  -100576  -108918  -114613  -113265  -110582  -110894  -117864 
 -116752  -107573  -106660  -108062  -107912  -107554  -103774  -104237 
 -107677  -107823  -108735  -108662  -109352  -113458  -108837   -98398 
 -102778  -114378  -111662  -104830  -108506  -114485  -115786  -113879 
 -112473  -111427  -107422  -104471  -104024  -104826  -108437  -111361 
 -113552  -114288  -111268  -113505  -118443  -112765  -104188  -105916 
 -111049  -107580  -102659  -105916  -108191  -107273  -108226  -107977 
 -112039  -118158  -114168  -108542  -108621  -108091  -106066  -105062 
 -109512  -114458  -109347  -106370  -114920  -116770  -109219  -109073 
 -111100  -107304  -104927  -106041  -110084  -110498  -105355  -108982 
 -114181  -107897  -106983  -114135  -111964  -105042  -105827  -112070 
 -113791  -107546  -103360  -107663  -112272  -109001  -105817  -111573 
 -114203  -109046  -108126  -109466  -109317  -110940  -109809  -107485 
 -106794  -102289  -101177  -106312  -105252   -99991  -100759  -110062 
 -117521  -110247  -104565  -113537  -117096  -111007  -108507  -108081 
 -107929  -110029  -110538  -109004  -107877  -106625  -109864  -115963 
 -112553  -106191  -108996  -110007  -106166  -110443  -114216  -107933 
 -107068  -111369  -108996  -107318  -108830  -106193  -101549  -103945 
 -112729  -115631  -110081  -105368  -108125  -112629  -109395  -105282 
 -107168  -109968  -112571  -112550  -108638  -110408  -118095  -117521 
 -109231  -111443  -119290  -109910   -99814  -112384  -119456  -105740 
 -101421  -110830  -109630  -102038  -107337  -114592  -107408   -98842 
 -104120  -112845  -106748   -97102  -101352  -105051  -102983  -106006 
 -110096  -110273  -109282  -110879  -109904  -105626  -107819  -109880 
 -108548  -109279  -106154  -107302  -114905  -110628  -105390  -115684 
 -120139  -106822  -101775  -114242  -115365  -102555  -105048  -114932 
 -109934  -105999  -111831  -107752  -101447  -115121  -124544  -106107 
  -96897  -113537  -112985   -95355   -99218  -106701   -92801   -88119 
 -105295  -112622  -105547  -104083  -107115  -109046  -114583  -117923 
 -110612  -107877  -115693  -114844  -109884  -110296  -107863  -109972 
 -117062  -113495  -106062  -112014  -119481  -109332  -102563  -113112 
 -111952  -100503  -106393  -116580  -112360  -103040   -98469  -105285 
 -117251  -110173   -92106   -97885  -119543  -122249  -112822  -115129 
 -114104  -107188  -118832  -128456  -114925  -103268  -106640  -114466 
 -113950  -105799  -102724  -105394  -111007  -114554  -108787  -104454 
 -107928  -108059  -104068  -103805  -109725  -117501  -114987  -103148 
 -103231  -113166  -107971   -99090  -108233  -114320  -106130  -105286 
 -112000  -113540  -111971  -104832   -95905  -102929  -117251  -114724 
 -105050  -105228  -106278  -108518  -115920  -112189  -104994  -112401 
 -113337  -103249  -107276  -115200  -108598   -99273   -99603  -104147 
 -102834  -103751  -112698  -111558  -103796  -112916  -123870  -117876 
 -115341  -118365  -109273   -98466   -98343  -107300  -113090   -97825 
  -81996   -96572  -116410  -108502   -94367  -104976  -122276  -119588 
 -111115  -108143  -104500  -103781   -98802   -89580   -93102  -102007 
 -108661  -115715  -114432  -115115  -131635  -140502  -128324  -119619 
 -124135  -125016  -110587   -91812   -91762  -104109  -102045   -89630 
  -90401  -101880  -101115   -92800  -102826  -119380  -117431  -110964 
 -113256  -121113  -132044  -129181  -115121  -113209  -121481  -129197 
 -124191  -110713  -115501  -129861  -128571  -115765  -114235  -133895 
 -138412  -106837   -84944   -98415  -114169  -110457  -103950  -100931 
  -82737   -57867   -58475   -78992   -86027   -77410   -83118  -111788 
 -134025  -132209  -123322  -123782  -136269  -151344  -145370  -122472 
 -126577  -155457  -153481  -131253  -140046  -150175  -120702   -88434 
  -90119  -104476   -93889   -66496   -59472   -60754   -52365   -60119 
  -71427   -62077   -61558   -76345   -89233  -102262  -105074   -96977 
  -98358  -117759  -148205  -163844  -147985  -129296  -139407  -161916 
 -171790  -168567  -143139  -103738   -91741  -107392  -109367   -87856 
  -69661   -64709   -67062   -80981   -90136   -76623   -68937   -91289 
 -116526  -120417  -121069  -122798  -117556  -131552  -154280  -143880 
 -122818  -119169  -120985  -125967  -126242  -111136  -101864  -108765 
 -109552  -102042  -103828  -110818  -109544  -105949  -110324  -110025 
 -103293  -112720  -122893  -109784   -95539   -88730   -84103   -95385 
 -103491   -92902  -100363  -121136  -118270  -113076  -121969  -125942 
 -127383  -130266  -129012  -128606  -130696  -128842  -120830  -110839 
  -98961   -86491   -83551   -90269   -97048  -100430  -100110   -96927 
  -94755  -101839  -118679  -126223  -112954   -91088   -84024  -103501 
 -121510  -113080  -102149  -103765  -102558  -106736  -120483  -117844 
 -107531  -105933   -99229  -103157  -123053  -123828  -108360   -98868 
  -94710   -99482  -109711  -109605   -97995   -86486   -90397  -104456 
 -101934   -92539  -102562  -108792   -97366  -105144  -129506  -130951 
 -120857  -125575  -135753  -138501  -127464  -110002  -110127  -115358 
 -102874   -97505  -101563   -95203   -99990  -111511  -103918   -98944 
 -107323  -110806  -111537  -118449  -126868  -124717  -114015  -113408 
 -120864  -117115  -105825  -106509  -115083  -108171   -88408   -81615 
  -92827   -99821   -88754   -82520   -96132  -102578  -100468  -112953 
 -122454  -117656  -118407  -123504  -123708  -124576  -128588  -130071 
 -127792  -130160  -134698  -124745  -103175   -98521  -113784  -113127 
  -95985   -94990   -99145   -92790   -95748  -104004  -100363   -97271 
  -99665   -98350  -100476  -109480  -116942  -122264  -122041  -112434 
 -107769  -115973  -121092  -112672   -98807   -92395   -98150  -105417 
 -107118  -105456   -97989   -97877  -112479  -112818   -98577  -100811 
 -113439  -117903  -113814  -107167  -108641  -114727  -116100  -119622 
 -121968  -114507  -111902  -119635  -120911  -115360  -111784  -109632 
 -113243  -119765  -115813  -105139  -104465  -115492  -117787  -105686 
 -103929  -112401  -109163  -102429  -103308  -103630  -101081  -101391 
 -103428  -101784  -103184  -107476  -104004  -102910  -109777  -112167 
 -109520  -108961  -112178  -111477  -105661  -109209  -118840  -116646 
 -109098  -112664  -117086  -111643  -110322  -113664  -111442  -109919 
 -110497  -107991  -107172  -110077  -106490   -97977  -100008  -105181 
  -99990   -91273   -85048   -85594   -91943   -95307   -96749   -97744 
  -98209  -104064  -111889  -115585  -121180  -126646  -124096  -122022 
 -123469  -119564  -116868  -121834  -122197  -115323  -111323  -105040 
  -93185   -92796  -101626   -98084   -92457  -100495  -106409  -103701 
 -104352  -111231  -116256  -108973  -100450  -109520  -121239  -119159 
 -113258  -112545  -119125  -125165  -120085  -115507  -119561  -118022 
 -112885  -116839  -118708  -110756  -103974  -101123  -101856  -108799 
 -113370  -105443   -93438   -91619   -96535   -99732  -101142  -103121 
 -104800  -102591  -100218  -102473  -107335  -111009  -110817  -109630 
 -109155  -108286  -109345  -111655  -111743  -110151  -109966  -108661 
 -103145  -101225  -104993  -108301  -114362  -120355  -119113  -117814 
 -119750  -120270  -119680  -117695  -112044  -104128  -101889  -106945 
 -108842  -107222  -107276  -105811  -105162  -107393  -109263  -114583 
 -120073  -116847  -110262  -108603  -114006  -117161  -110716  -111462 
 -118316  -112004  -106316  -110805  -113271  -115665  -115959  -110205 
 -109580  -112661  -111723  -112820  -114852  -110798  -106706  -109074 
 -112839  -111707  -107076  -103611  -103966  -108193  -110080  -107250 
 -107985  -110178  -109503  -113358  -115677  -110185  -106627  -104398 
 -102685  -106367  -107622  -103376  -100649  -100535   -99931  -100009 
 -105615  -110201  -106728  -107882  -116648  -115811  -107927  -109339 
 -112124  -107055  -104503  -103801  -101560  -107812  -115495  -111730 
 -109005  -117547  -126951  -128306  -122165  -115357  -116517  -119990 
 -116000  -111650  -108869  -102679  -102755  -107273  -102182   -98913 
 -106582  -106809  -100398  -102280  -104475  -105447  -110752  -109269 
 -101692  -101769  -107396  -110160  -110411  -107931  -102926  -103859 
 -108448  -107037  -104681  -103674  -103958  -109799  -109487  -102563 
 -106647  -111059  -102976   -97482  -100693  -104738  -103071   -96136 
  -96187  -103847  -106181  -106947  -112806  -113710  -110114  -113169 
 -115503  -107828  -102832  -110073  -114903  -109335  -106454  -109341 
 -111483  -112635  -111848  -111677  -114972  -117059  -117115  -114894 
 -112287  -116391  -117687  -109702  -110164  -119628  -119504  -113313 
 -112498  -111466  -110376  -115271  -115067  -108021  -109239  -114636 
 -113860  -113039  -114589  -111931  -108673  -110957  -110099  -103341 
 -102789  -109435  -113564  -110920  -106008  -106165  -108062  -105430 
 -103459  -105529  -107886  -110061  -110081  -107605  -110131  -114702 
 -110748  -103256  -100074   -99098  -100834  -101314   -95643   -94998 
 -100334  -100180   -99273  -100593  -101537  -105286  -107763  -108166 
 -110192  -111983  -113032  -109583  -106204  -112687  -114785  -105594 
 -104782  -111288  -111312  -113108  -120160  -120001  -112567  -108791 
 -110276  -112617  -112550  -107156  -102370  -107198  -115753  -116703 
 -112270  -113413  -119693  -119164  -113373  -113468  -115406  -113292 
 -112521  -112010  -108144  -108330  -112220  -108801  -103964  -108835 
 -114106  -110342  -105024  -106239  -108241  -104950  -104333  -107473 
 -104809   -99767  -101247  -106475  -107148  -104359  -104619  -105108 
 -104225  -105484  -104949  -103650  -106674  -107846  -106563  -108112 
 -106853  -102658  -106164  -113767  -113086  -109393  -111002  -111411 
 -108616  -109019  -111187  -109301  -106011  -108013  -112564  -113946 
 -114027  -112761  -110130  -112016  -114411  -111065  -110043  -113985 
