Origin Time       2024/04/02 04:24:00
Lat.              40.133
Long.             141.712
Depth. (km)       71
Mag.              6.0
Station Code      KKWH13
Station Lat.      43.5113
Station Long.     142.3906
Station Height(m) 315
Record Time       2024/04/02 04:26:22
Sampling Freq(Hz) 100Hz
Duration Time(s)  120
Dir.              5
Scale Factor      7845(gal)/8223790
Max. Acc. (gal)   0.505
Last Correction   2024/04/02 04:26:23
Memo.             
    1695     1744     1798     1853     1902     1935     1952     1949 
    1926     1887     1830     1761     1690     1624     1574     1551 
    1553     1582     1628     1684     1744     1790     1818     1829 
    1815     1787     1750     1707     1671     1644     1632     1633 
    1651     1680     1715     1756     1794     1823     1841     1842 
    1829     1807     1782     1755     1730     1714     1702     1696 
    1695     1695     1692     1687     1682     1679     1686     1699 
    1722     1759     1799     1833     1860     1876     1877     1864 
    1834     1788     1734     1679     1620     1571     1541     1528 
    1536     1566     1611     1669     1734     1796     1845     1872 
    1876     1863     1830     1786     1741     1701     1669     1656 
    1660     1676     1701     1734     1776     1817     1846     1868 
    1887     1902     1906     1904     1896     1877     1848     1806 
    1752     1691     1629     1574     1534     1522     1539     1584 
    1655     1745     1834     1910     1961     1984     1977     1945 
    1888     1819     1746     1675     1620     1587     1575     1590 
    1628     1676     1736     1795     1840     1868     1876     1860 
    1829     1800     1773     1745     1733     1734     1741     1752 
    1769     1787     1800     1810     1813     1809     1804     1796 
    1782     1761     1741     1718     1688     1660     1637     1622 
    1617     1622     1640     1665     1692     1723     1752     1772 
    1786     1794     1791     1773     1749     1722     1695     1669 
    1653     1641     1626     1614     1610     1603     1599     1609 
    1629     1656     1696     1741     1780     1815     1844     1860 
    1868     1875     1876     1867     1849     1827     1795     1750 
    1703     1657     1622     1605     1606     1624     1660     1709 
    1761     1811     1860     1903     1935     1950     1948     1925 
    1884     1833     1776     1725     1686     1661     1656     1665 
    1678     1687     1684     1667     1638     1603     1570     1551 
    1555     1579     1621     1678     1742     1804     1858     1900 
    1929     1944     1934     1904     1863     1809     1744     1684 
    1636     1603     1593     1609     1644     1692     1750     1813 
    1865     1898     1911     1906     1875     1819     1750     1674 
    1598     1534     1493     1480     1498     1540     1602     1664 
    1718     1757     1777     1782     1772     1753     1738     1726 
    1715     1714     1721     1728     1730     1730     1728     1726 
    1729     1738     1750     1767     1780     1783     1777     1764 
    1741     1715     1690     1667     1653     1648     1655     1674 
    1695     1719     1745     1767     1786     1798     1803     1799 
    1787     1775     1761     1746     1732     1717     1703     1692 
    1684     1682     1687     1695     1709     1729     1750     1768 
    1783     1792     1792     1780     1763     1734     1696     1660 
    1628     1606     1601     1606     1622     1648     1675     1702 
    1728     1748     1769     1788     1806     1825     1845     1861 
    1868     1865     1858     1846     1831     1821     1815     1817 
    1818     1817     1814     1807     1796     1783     1771     1764 
    1761     1764     1773     1779     1780     1782     1776     1772 
    1777     1787     1799     1815     1826     1834     1833     1819 
    1798     1765     1723     1686     1655     1624     1603     1601 
    1606     1625     1655     1686     1715     1745     1761     1761 
    1750     1725     1686     1647     1615     1591     1583     1597 
    1632     1676     1729     1786     1838     1876     1895     1892 
    1864     1817     1757     1690     1622     1563     1525     1517 
    1533     1571     1626     1688     1745     1791     1825     1840 
    1834     1821     1806     1794     1795     1806     1819     1841 
    1861     1871     1867     1853     1825     1786     1745     1705 
    1669     1647     1638     1638     1656     1687     1721     1755 
    1787     1809     1821     1819     1799     1772     1742     1710 
    1687     1678     1675     1683     1699     1717     1728     1736 
    1741     1746     1755     1764     1776     1796     1822     1848 
    1875     1896     1908     1912     1904     1883     1854     1823 
    1792     1761     1732     1711     1705     1707     1719     1740 
    1757     1763     1757     1741     1709     1667     1624     1590 
    1574     1582     1610     1656     1715     1776     1826     1865 
    1890     1899     1896     1885     1875     1864     1846     1830 
    1817     1800     1782     1763     1746     1736     1722     1705 
    1684     1659     1629     1602     1582     1574     1576     1595 
    1633     1683     1741     1803     1864     1910     1935     1945 
    1933     1900     1853     1795     1736     1684     1645     1630 
    1645     1683     1741     1810     1873     1922     1938     1915 
    1857     1768     1659     1552     1462     1402     1383     1404 
    1463     1549     1652     1759     1852     1922     1966     1969 
    1930     1858     1764     1664     1567     1485     1429     1408 
    1421     1463     1524     1601     1680     1745     1800     1842 
    1864     1868     1863     1849     1826     1796     1769     1746 
    1726     1715     1715     1725     1742     1768     1798     1827 
    1852     1867     1869     1868     1858     1837     1811     1786 
    1756     1723     1702     1686     1679     1684     1699     1717 
    1734     1746     1745     1729     1699     1663     1622     1583 
    1553     1539     1537     1551     1583     1626     1679     1738 
    1800     1854     1898     1926     1939     1937     1921     1898 
    1871     1844     1823     1811     1803     1802     1803     1807 
    1814     1819     1818     1806     1784     1748     1696     1632 
    1560     1493     1436     1397     1382     1398     1444     1513 
    1599     1695     1790     1872     1935     1971     1983     1973 
    1945     1912     1883     1856     1838     1836     1845     1861 
    1879     1898     1910     1912     1899     1871     1833     1783 
    1725     1665     1609     1560     1521     1493     1478     1486 
    1516     1560     1617     1683     1749     1803     1838     1854 
    1845     1813     1765     1707     1651     1598     1553     1522 
    1507     1509     1529     1564     1618     1687     1756     1821 
    1876     1912     1929     1919     1892     1849     1795     1734 
    1682     1640     1611     1605     1610     1629     1664     1707 
    1750     1796     1834     1856     1864     1856     1831     1798 
    1759     1717     1679     1652     1640     1649     1676     1719 
    1776     1848     1926     2006     2077     2137     2173     2178 
    2149     2087     1995     1881     1760     1647     1552     1482 
    1444     1435     1451     1494     1549     1615     1688     1753 
    1807     1848     1868     1865     1840     1794     1736     1672 
    1609     1557     1524     1514     1525     1555     1603     1660 
    1717     1768     1800     1809     1787     1738     1678     1611 
    1551     1517     1517     1555     1633     1737     1854     1979 
    2088     2170     2226     2251     2247     2219     2170     2110 
    2041     1962     1877     1798     1730     1679     1647     1636 
    1641     1657     1678     1699     1719     1729     1733     1730 
    1718     1702     1686     1671     1659     1651     1647     1652 
    1667     1687     1707     1729     1753     1777     1798     1815 
    1830     1833     1819     1790     1742     1679     1602     1514 
    1432     1367     1328     1323     1360     1437     1548     1682 
    1822     1952     2060     2130     2155     2139     2085     1999 
    1894     1787     1684     1594     1534     1505     1506     1533 
    1580     1636     1690     1738     1771     1783     1777     1753 
    1717     1683     1653     1636     1637     1656     1694     1742 
    1791     1833     1858     1865     1849     1817     1771     1714 
    1653     1602     1563     1545     1552     1575     1615     1669 
    1725     1776     1815     1837     1841     1823     1796     1759 
    1713     1674     1644     1621     1611     1618     1634     1659 
    1688     1719     1748     1767     1779     1788     1799     1821 
    1850     1884     1926     1965     1991     1999     1985     1948 
    1885     1809     1729     1651     1582     1534     1517     1530 
    1572     1642     1733     1829     1917     1980     2002     1972 
    1896     1777     1634     1489     1356     1259     1212     1217 
    1277     1378     1505     1641     1772     1877     1952     1992 
    1998     1976     1937     1887     1831     1783     1749     1732 
    1733     1750     1779     1815     1849     1875     1891     1892 
    1880     1854     1817     1776     1737     1702     1676     1664 
    1668     1694     1734     1788     1856     1929     1998     2057 
    2106     2138     2151     2147     2130     2101     2066     2029 
    1991     1956     1917     1871     1822     1768     1705     1641 
    1583     1528     1486     1459     1449     1453     1474     1506 
    1547     1595     1651     1705     1755     1806     1849     1883 
    1904     1910     1908     1902     1887     1868     1844     1814 
    1776     1729     1672     1609     1539     1471     1412     1367 
    1345     1345     1362     1393     1441     1497     1559     1625 
    1686     1741     1784     1814     1829     1821     1794     1760 
    1723     1686     1657     1647     1655     1679     1719     1768 
    1823     1873     1911     1931     1930     1912     1881     1833 
    1776     1728     1688     1665     1667     1684     1713     1750 
    1794     1831     1856     1861     1841     1802     1741     1663 
    1574     1486     1408     1341     1291     1263     1256     1278 
    1328     1395     1489     1606     1728     1845     1953     2035 
    2074     2076     2043     1977     1890     1796     1710     1638 
    1583     1555     1555     1575     1613     1659     1699     1728 
    1740     1730     1699     1652     1601     1552     1518     1520 
    1556     1625     1722     1841     1964     2076     2164     2224 
    2249     2235     2193     2133     2062     1992     1926     1871 
    1826     1798     1780     1768     1761     1760     1755     1749 
    1744     1736     1725     1715     1710     1705     1701     1692 
    1680     1667     1657     1645     1628     1615     1611     1615 
    1634     1671     1722     1779     1829     1875     1911     1921 
    1910     1881     1831     1772     1707     1645     1597     1570 
    1566     1590     1645     1726     1815     1907     1998     2066 
    2106     2112     2079     2004     1902     1779     1649     1529 
    1433     1370     1345     1360     1408     1474     1549     1629 
    1706     1772     1831     1880     1917     1944     1956     1953 
    1935     1898     1854     1810     1763     1723     1698     1682 
    1678     1690     1713     1741     1775     1804     1821     1827 
    1819     1796     1764     1721     1669     1622     1582     1555 
    1541     1543     1553     1574     1599     1628     1661     1698 
    1737     1784     1831     1872     1907     1934     1946     1942 
    1930     1914     1896     1875     1854     1840     1829     1819 
    1811     1800     1786     1771     1749     1718     1684     1651 
    1622     1598     1584     1587     1606     1636     1672     1717 
    1763     1800     1830     1846     1846     1831     1807     1775 
    1737     1701     1671     1651     1638     1638     1647     1661 
    1683     1715     1752     1788     1822     1852     1869     1875 
    1868     1852     1830     1809     1791     1782     1780     1787 
    1804     1823     1836     1844     1845     1836     1818     1792 
    1761     1732     1705     1686     1675     1676     1695     1723 
    1759     1802     1848     1888     1923     1949     1961     1961 
    1949     1919     1879     1827     1768     1711     1655     1601 
    1556     1525     1507     1506     1520     1545     1578     1607 
    1634     1652     1655     1651     1641     1629     1621     1621 
    1620     1625     1651     1683     1719     1767     1815     1858 
    1895     1918     1918     1892     1850     1791     1717     1637 
    1560     1493     1440     1408     1399     1413     1444     1490 
    1543     1595     1642     1680     1706     1718     1719     1710 
    1692     1676     1665     1660     1665     1683     1713     1749 
    1788     1827     1864     1887     1898     1898     1884     1854 
    1817     1776     1733     1692     1657     1633     1620     1617 
    1628     1653     1683     1715     1749     1776     1791     1798 
    1791     1768     1740     1707     1675     1649     1636     1633 
    1645     1665     1692     1721     1748     1771     1786     1792 
    1794     1790     1782     1772     1764     1761     1771     1795 
    1833     1876     1923     1971     2007     2029     2033     2011 
    1969     1914     1849     1788     1737     1694     1665     1653 
    1652     1663     1686     1713     1741     1769     1795     1817 
    1831     1840     1840     1836     1826     1815     1802     1790 
    1782     1775     1768     1761     1756     1745     1729     1709 
    1679     1640     1599     1556     1518     1489     1467     1460 
    1468     1491     1526     1571     1618     1668     1718     1764 
    1802     1836     1861     1879     1885     1881     1873     1858 
    1840     1815     1787     1759     1728     1701     1680     1661 
    1649     1644     1648     1663     1683     1707     1733     1757 
    1775     1783     1779     1764     1740     1707     1667     1625 
    1588     1563     1551     1552     1572     1611     1664     1721 
    1780     1837     1881     1912     1930     1933     1925     1907 
    1887     1869     1848     1827     1813     1798     1784     1772 
    1763     1748     1722     1696     1669     1637     1606     1584 
    1574     1578     1602     1644     1703     1776     1857     1942 
    2023     2092     2143     2170     2169     2143     2097     2035 
    1962     1887     1818     1755     1703     1675     1669     1684 
    1715     1763     1815     1861     1896     1914     1914     1896 
    1864     1823     1780     1732     1682     1645     1617     1598 
    1593     1595     1603     1621     1640     1659     1674     1683 
    1687     1688     1686     1682     1669     1655     1636     1609 
    1580     1552     1518     1494     1483     1480     1491     1517 
    1549     1587     1625     1657     1679     1690     1690     1680 
    1665     1655     1649     1648     1657     1674     1695     1718 
    1736     1746     1750     1746     1730     1703     1674     1645 
    1622     1611     1617     1640     1686     1748     1826     1915 
    2000     2079     2141     2178     2185     2161     2106     2026 
    1926     1818     1714     1628     1564     1521     1510     1532 
    1571     1620     1680     1740     1790     1830     1857     1872 
    1877     1872     1854     1834     1814     1794     1782     1779 
    1787     1804     1827     1848     1861     1864     1852     1819 
    1775     1721     1664     1606     1553     1516     1495     1491 
    1510     1552     1605     1672     1749     1825     1896     1960 
    2007     2030     2031     2011     1971     1915     1850     1782 
    1717     1656     1606     1570     1549     1547     1561     1591 
    1634     1690     1745     1799     1848     1885     1919     1952 
    1979     2006     2035     2062     2089     2110     2114     2099 
    2066     2023     1971     1912     1860     1817     1786     1764 
    1752     1741     1728     1703     1672     1636     1595     1549 
    1507     1476     1453     1441     1441     1456     1483     1517 
    1555     1597     1632     1660     1682     1688     1682     1667 
    1644     1622     1603     1593     1594     1603     1625     1657 
    1692     1725     1752     1765     1764     1746     1717     1682 
    1649     1625     1615     1624     1651     1694     1744     1794 
    1837     1864     1875     1864     1830     1779     1715     1644 
    1572     1514     1474     1451     1453     1483     1532     1594 
    1667     1738     1803     1853     1884     1895     1881     1850 
    1806     1748     1692     1647     1609     1590     1597     1620 
    1657     1710     1767     1819     1863     1890     1898     1885 
    1854     1813     1768     1719     1679     1651     1634     1630 
    1637     1656     1679     1705     1733     1759     1775     1787 
    1794     1795     1790     1776     1759     1736     1709     1678 
    1651     1632     1621     1615     1628     1655     1687     1726 
    1772     1810     1840     1858     1860     1844     1806     1748 
    1683     1613     1543     1491     1464     1464     1494     1559 
    1649     1746     1846     1937     2007     2049     2060     2035 
    1980     1898     1799     1694     1594     1510     1451     1428 
    1445     1502     1590     1702     1822     1939     2039     2107 
    2139     2137     2100     2033     1942     1845     1752     1669 
    1607     1575     1576     1607     1667     1741     1825     1908 
    1980     2031     2064     2070     2053     2018     1973     1923 
    1871     1818     1775     1742     1721     1710     1710     1717 
    1730     1745     1756     1761     1757     1748     1732     1711 
    1694     1682     1671     1669     1679     1695     1718     1741 
    1763     1783     1800     1809     1811     1804     1787     1763 
    1740     1718     1699     1686     1682     1690     1705     1726 
    1755     1782     1807     1827     1831     1823     1807     1779 
    1740     1699     1661     1624     1591     1568     1556     1553 
    1563     1576     1595     1621     1644     1664     1679     1686 
    1691     1695     1694     1694     1701     1706     1714     1725 
    1734     1734     1725     1705     1675     1638     1599     1561 
    1525     1498     1485     1485     1501     1529     1568     1614 
    1664     1710     1749     1779     1800     1811     1819     1826 
    1831     1846     1865     1885     1906     1923     1931     1934 
    1929     1911     1887     1860     1838     1817     1799     1788 
    1784     1786     1795     1807     1819     1830     1841     1849 
    1848     1834     1817     1792     1765     1738     1717     1706 
    1703     1713     1734     1760     1790     1819     1842     1857 
    1861     1849     1826     1796     1759     1721     1692     1676 
    1671     1678     1696     1713     1718     1715     1705     1682 
    1653     1622     1597     1578     1566     1566     1579     1602 
    1632     1665     1702     1742     1782     1817     1852     1881 
