Origin Time       2024/04/02 04:24:00
Lat.              40.133
Long.             141.712
Depth. (km)       71
Mag.              6.0
Station Code      KSRH02
Station Lat.      43.1142
Station Long.     144.1230
Station Height(m) -75
Record Time       2024/04/02 04:25:31
Sampling Freq(Hz) 100Hz
Duration Time(s)  153
Dir.              1
Scale Factor      2942(gal)/8224139
Max. Acc. (gal)   1.022
Last Correction   2024/04/02 04:25:31
Memo.             
[...]
  156400   156370   156343   156419   156648   156841   156817   156712 
  156601   156396   156254   156309   156396   156460   156492   156421 
  156348   156334   156374   156455   156477   156429   156413   156487 
  156640   156718   156697   156733   156718   156541   156406   156390 
  156440   156558   156620   156554   156483   156463   156433   156344 
  156263   156355   156558   156605   156497   156473   156597   156705 
  156695   156639   156600   156613   156705   156778   156760   156763 
  156755   156618   156456   156381   156377   156475   156629   156689 
  156598   156365   156159   156204   156366   156444   156537   156676 
  156683   156577   156528   156477   156336   156189   156149   156288 
  156509   156681   156830   156917   156838   156699   156666   156728 
  156757   156702   156610   156579   156629   156649   156636   156694 
  156753   156686   156606   156639   156675   156658   156672   156721 
  156749   156767   156798   156818   156794   156745   156694   156631 
  156604   156652   156621   156478   156475   156602   156585   156438 
  156335   156309   156300   156284   156340   156483   156564   156529 
  156527   156629   156687   156610   156562   156585   156532   156508 
  156601   156602   156455   156320   156293   156377   156482   156524 
  156540   156614   156749   156871   156942   156960   156887   156726 
  156577   156521   156566   156636   156656   156679   156767   156826 
  156749   156589   156492   156523   156605   156668   156699   156672 
  156591   156489   156374   156304   156354   156442   156416   156355 
  156409   156517   156575   156573   156516   156482   156505   156513 
  156524   156541   156474   156377   156378   156446   156505   156573 
  156627   156602   156540   156496   156502   156597   156666   156575 
  156427   156375   156448   156591   156710   156730   156655   156570 
  156624   156820   156925   156829   156652   156555   156648   156768 
  156622   156335   156217   156312   156459   156524   156555   156640 
  156649   156517   156473   156587   156691   156730   156635   156409 
  156289   156319   156348   156336   156240   156045   155912   155958 
  156076   156142   156108   156039   156109   156288   156409   156529 
  156695   156836   156978   157100   157048   156849   156753   156853 
  156992   157027   156961   156821   156620   156432   156309   156238 
  156205   156200   156163   156149   156308   156568   156749   156836 
  156865   156863   156865   156852   156809   156771   156748   156706 
  156656   156597   156467   156350   156362   156429   156482   156509 
  156473   156469   156509   156404   156169   156016   156020   156112 
  156223   156330   156509   156805   157041   157060   156978   156838 
  156621   156527   156613   156649   156577   156514   156551   156701 
  156814   156774   156730   156803   156870   156845   156747   156633 
  156632   156748   156782   156648   156513   156501   156516   156446 
  156320   156255   156313   156432   156541   156671   156805   156793 
  156606   156438   156424   156517   156606   156590   156492   156432 
  156436   156438   156450   156531   156682   156871   157026   157038 
  156884   156726   156640   156524   156431   156497   156606   156579 
  156492   156523   156694   156890   156956   156803   156593   156502 
  156446   156324   156239   156219   156150   156066   156108   156305 
  156487   156506   156469   156459   156406   156343   156402   156579 
  156635   156425   156197   156147   156205   156340   156581   156867 
  157053   157053   156951   156806   156624   156529   156520   156448 
  156385   156374   156294   156266   156373   156392   156332   156313 
  156224   156157   156284   156427   156470   156537   156597   156554 
  156531   156609   156722   156816   156743   156492   156443   156706 
  156864   156840   156901   156990   156960   156816   156659   156694 
  156768   156516   156096   155911   156004   156146   156190   156215 
  156324   156508   156656   156629   156552   156637   156729   156643 
  156533   156500   156478   156435   156394   156448   156620   156772 
  156847   156882   156880   156822   156741   156675   156679   156737 
  156644   156436   156443   156627   156798   156957   156994   156887 
  156829   156814   156697   156521   156535   156709   156670   156501 
  156537   156649   156756   156909   156832   156509   156352   156415 
  156470   156525   156583   156517   156454   156550   156552   156362 
  156316   156496   156648   156690   156694   156699   156689   156597 
  156428   156327   156388   156528   156562   156402   156244   156289 
  156423   156369   156112   156068   156423   156771   156863   156898 
  156998   156998   156805   156668   156699   156740   156838   156973 
  156902   156705   156621   156689   156825   156794   156475   156213 
  156201   156158   156011   155984   156099   156127   155983   155895 
  155969   156141   156463   156791   156874   156735   156577   156575 
  156593   156431   156271   156276   156432   156662   156724   156606 
  156625   156820   156848   156594   156382   156424   156541   156579 
  156564   156477   156371   156340   156263   156142   156212   156436 
  156513   156381   156286   156358   156481   156551   156577   156675 
  156778   156660   156516   156575   156629   156606   156651   156733 
  156755   156691   156663   156825   157021   156942   156663   156524 
  156509   156331   156082   156096   156312   156509   156695   156836 
  156930   157100   157202   157002   156591   156263   156200   156315 
  156451   156521   156404   156118   155965   156176   156456   156467 
  156500   156834   157129   157080   156871   156743   156718   156686 
  156551   156428   156564   156807   156728   156432   156342   156497 
  156683   156686   156490   156366   156374   156392   156519   156760 
  156878   156772   156578   156481   156579   156729   156725   156618 
  156543   156531   156567   156581   156594   156705   156803   156721 
  156536   156436   156448   156448   156359   156238   156224   156369 
  156563   156784   157046   157150   156999   156801   156739   156706 
  156497   156185   156016   156084   156239   156154   155899   155923 
  156231   156482   156595   156662   156724   156749   156698   156573 
  156474   156471   156419   156313   156450   156721   156745   156724 
  156856   156816   156609   156483   156374   156317   156374   156298 
  156030   155891   156107   156519   156787   156724   156529   156573 
  156855   157065   157095   157076   157096   157083   156878   156608 
  156546   156598   156644   156806   157025   157064   156795   156325 
  156092   156342   156678   156706   156544   156435   156425   156433 
  156446   156486   156485   156439   156444   156475   156447   156378 
  156339   156286   156196   156213   156379   156540   156541   156358 
  156161   156127   156278   156597   156936   157015   156764   156509 
  156521   156693   156860   156917   156756   156536   156475   156497 
  156525   156570   156498   156357   156366   156432   156413   156500 
  156778   157006   157065   157023   156978   157045   157056   156775 
  156450   156405   156600   156820   156840   156590   156361   156440 
  156635   156668   156597   156523   156532   156655   156633   156384 
  156246   156371   156617   156824   156798   156512   156239   156192 
  156253   156335   156527   156639   156533   156535   156708   156809 
  156774   156621   156443   156315   156231   156255   156293   156231 
  156269   156455   156469   156189   155992   156174   156415   156303 
  156066   156181   156494   156501   156361   156555   156898   156980 
  156802   156598   156666   156988   157094   156838   156705   156809 
  156633   156165   155957   156146   156439   156637   156755   156838 
  156825   156706   156613   156618   156693   156771   156795   156717 
  156550   156411   156350   156336   156408   156544   156598   156517 
  156404   156309   156276   156415   156637   156739   156797   156861 
  156790   156674   156686   156755   156775   156744   156659   156509 
  156394   156459   156617   156698   156633   156427   156286   156366 
  156467   156390   156247   156230   156315   156405   156536   156622 
  156532   156394   156315   156273   156385   156632   156752   156720 
  156690   156568   156282   156058   156177   156612   156876   156718 
  156604   156739   156805   156702   156547   156460   156496   156497 
  156408   156313   156172   156006   156043   156277   156420   156555 
  156919   157262   157323   157203   157071   156996   156855   156571 
  156325   156215   156231   156311   156305   156266   156303   156319 
  156325   156423   156550   156699   156779   156652   156635   156883 
  156972   156803   156713   156710   156582   156459   156547   156725 
  156776   156628   156443   156388   156378   156408   156585   156763 
  156733   156614   156675   156775   156558   156204   156168   156370 
  156469   156525   156709   156880   156855   156625   156347   156292 
  156537   156710   156528   156316   156373   156514   156492   156340 
  156340   156582   156772   156689   156544   156654   156891   156853 
  156532   156246   156026   155834   155823   155965   156220   156524 
  156521   156276   156297   156640   156953   157013   156988   157122 
  157194   157038   156834   156659   156602   156822   157200   157353 
  157184   157049   157021   156813   156415   156111   156147   156358 
  156415   156415   156490   156521   156551   156612   156558   156450 
  156459   156528   156482   156428   156635   156905   156919   156860 
  156868   156774   156492   156150   155993   156139   156570   157071 
  157141   156729   156324   156004   155695   155715   156122   156513 
  156717   156764   156520   156023   155661   155638   155911   156401 
  156787   156668   156119   155598   155421   155579   156022   156702 
  157291   157395   157038   156689   156708   156852   156810   156772 
  156892   157081   157161   157096   157243   157495   157287   156860 
  156676   156532   156170   155703   155339   155135   155166   155679 
  156581   157258   157284   156824   156451   156502   156671   156778 
  157071   157580   158071   158193   157800   157306   156999   156735 
  156492   156366   156251   155958   155571   155320   155263   155490 
  155969   156363   156550   156598   156558   156550   156519   156359 
  156273   156551   157146   157496   157150   156423   155838   155657 
  155892   156226   156401   156585   156913   157153   157161   157145 
  156917   156234   155715   155830   156425   157430   158355   158544 
  158198   157716   157114   156474   155721   154822   154326   154518 
  154867   155112   155545   156215   156892   157387   157509   157246 
  156917   156852   157014   157268   157532   157654   157735   157847 
  157696   157319   157036   156857   156578   156004   155302   155000 
  155263   155703   156112   156629   157118   157331   157361   157275 
  157038   156774   156450   155980   155821   156397   157173   157235 
  156589   156131   156253   156467   156379   156057   155753   155740 
  156146   156703   157032   157296   157675   157827   157761   157727 
  157378   156547   155906   156149   157152   157856   157268   155763 
  154553   154202   154495   155073   155711   156371   156879   156940 
  156668   156350   155954   155673   155925   156416   156608   156732 
  157141   157478   157366   157079   157068   157377   157567   157168 
  156379   155790   155490   155178   154858   154980   155640   156254 
  156481   156459   156321   156197   156288   156813   157624   158098 
  158149   158291   158426   158187   157789   157354   156717   156011 
  155460   155174   155340   155943   156593   157230   158126   158668 
  157954   156467   155309   154788   154619   154610   154959   155860 
  156879   157299   156942   156323   156169   156782   157631   158018 
  157889   157356   156411   155352   154511   154124   154372   154980 
  155457   155661   155895   156521   157333   157950   158369   158410 
  157835   156925   156174   155915   156045   156286   156930   157982 
  158321   157366   156035   155181   154894   155213   155914   156423 
  156637   156671   156450   156257   156365   156581   156801   156956 
  156949   157086   157306   156867   156155   156500   157624   158398 
  158668   158184   156836   155652   155162   155081   155659   156883 
  157616   157000   155845   155605   156366   156978   156833   156513 
  156745   157318   157470   156992   156348   156008   156288   157333 
  158533   158727   157600   156011   154888   154685   155353   156338 
  157172   157589   157315   156548   155825   155453   155560   156045 
  156681   157196   157214   156687   156034   155505   155139   155216 
  155879   156581   156861   156934   156891   156718   156832   157218 
  157214   156720   156027   155092   154241   154161   154827   155731 
  156675   157765   158778   159036   158512   157944   157605   157374 
  157069   156404   155544   154878   154631   155121   156166   156979 
  157180   156878   156367   155949   155798   156178   156957   157441 
  157416   157154   156706   156104   155614   155495   155738   156249 
  157023   157792   158230   158506   158631   158232   157401   156620 
  156263   156369   156375   155911   155366   155116   155105   155031 
  154897   155117   155633   156240   157188   158133   158290   157751 
  156959   155977   154926   154056   153696   154133   155208   156455 
  157368   157704   157929   158368   158526   158232   158055   158117 
  157802   156830   155736   155213   155440   156066   156604   156844 
  156892   156805   156583   156535   156948   157369   157063   156172 
  155584   155628   155811   155911   156174   156564   156953   157330 
  157410   157119   156733   156321   156016   156024   156172   156185 
  156116   156161   156440   156961   157366   157391   157388   157295 
  156694   155934   155459   155426   156085   157000   157457   157585 
  157349   156365   155231   154718   154650   154705   155043   155819 
  156672   157141   157414   157847   158201   158228   158152   158010 
  157558   156917   156473   156308   156231   156278   156686   157350 
  157785   157612   157077   156789   156736   156405   155729   155135 
  154909   155058   155555   156119   156317   156255   156317   156552 
  156771   156813   156822   157029   157212   156936   156301   155989 
  156363   156980   157225   157118   157214   157582   157527   156799 
  156151   156033   155995   155829   155858   156247   156816   157144 
  156995   156544   155997   155491   155233   155224   155308   155507 
  155737   155740   155652   155815   156427   157350   157897   157794 
  157685   157732   157459   156964   156597   156423   156637   157152 
  157534   157707   157570   157168   156979   157019   157157   157404 
  157374   156857   156085   155449   155432   155880   156163   156197 
  156180   156057   155831   155664   155590   155632   156054   156818 
  157345   157454   157414   157100   156389   155865   156043   156508 
  156641   156479   156297   156055   155714   155553   155876   156616 
  157276   157400   156996   156239   155368   154807   154704   154984 
  155727   156844   157823   158211   158259   158496   158610   157997 
  157021   156520   156641   156953   157250   157468   157351   157005 
  156810   156755   156709   156801   157094   157277   157063   156687 
  156354   155887   155466   155443   155692   156050   156448   156587 
  156419   156293   156159   155714   155320   155510   156095   156554 
  156701   156728   156829   156892   156625   156080   155783   155902 
  155930   155633   155405   155640   156298   157081   157669   157763 
  157415   157022   156775   156685   156656   156304   155711   155746 
  156675   157582   157729   157542   157661   157792   157589   157454 
  157492   157206   156492   155741   155283   155220   155353   155506 
  155857   156431   157013   157621   158122   158126   157482   156312 
  155129   154737   155383   156489   157258   157273   156629   155796 
  155324   155526   156276   157069   157316   156772   155876   155256 
  155140   155548   156350   157064   157345   157391   157549   157601 
  156963   155875   155397   155891   156697   157314   157697   157658 
  157061   156324   155979   155930   155880   156055   156601   157111 
  157281   157160   156938   156837   156921   157206   157609   157670 
  157265   156892   156594   156051   155584   155605   155860   155937 
  155753   155574   155668   155920   156257   156861   157553   157975 
  158071   157827   157370   157072   157040   156992   156683   156000 
  155175   154942   155545   156301   156747   156926   156786   156460 
  156392   156498   156400   156297   156455   156612   156393   155881 
  155729   156114   156369   156284   156234   156340   156637   157059 
  157216   156965   156477   155965   155925   156597   157345   157331 
  156411   155336   154924   155093   155494   156159   156979   157581 
  157793   157778   157684   157432   157111   157030   157237   157354 
  156903   155746   154410   153881   154677   156226   157434   157685 
  157189   156627   156443   156604   156922   157187   157215   157018 
  156671   156265   155979   155916   156165   156736   157253   157351 
  157223   157106   156697   155869   155325   155673   156558   157295 
  157553   157320   156921   156793   156907   156929   156791   156658 
  156668   156662   156301   155709   155223   154877   154873   155498 
  156466   157264   157702   157740   157383   156865   156439   156176 
  156146   156342   156648   156901   156983   157050   157291   157550 
  157458   156837   156097   155852   156007   156176   156398   156730 
  156988   157054   156918   156651   156427   156274   156132   156212 
  156683   157258   157523   157358   156907   156455   156292   156412 
  156527   156586   156687   156664   156417   156114   155849   155672 
  155675   155776   155753   155714   155947   156303   156577   156991 
  157516   157608   157048   156325   156014   156195   156567   156789 
  156791   156836   156918   156710   156323   156200   156439   156654 
  156497   156293   156408   156550   156601   156903   157420   157709 
  157604   157385   157366   157405   157221   156926   156768   156817 
  156903   156762   156465   156169   155915   155784   155783   155888 
  155973   155980   156228   156713   157150   157499   157296   156197 
  155152   155032   155409   155753   156176   156779   157231   157068 
  156348   155661   155313   155074   154935   155254   155861   156080 
  155777   155436   155412   155623   155763   155765   155945   156517 
  157177   157427   157216   157007   157233   157778   158106   157952 
  157619   157403   157160   156745   156289   155873   155656   155854 
  156114   156096   156190   156585   156968   157276   157581   157837 
  157904   157473   156693   156267   156289   156276   156172   156072 
  155976   156123   156444   156425   156150   156170   156568   157064 
  157437   157464   157040   156512   156258   156217   156412   157003 
  157615   157827   157854   157793   157399   156826   156389   156168 
  156261   156548   156627   156402   156157   156103   156163   156109 
