Origin Time       2024/04/02 04:24:00
Lat.              40.133
Long.             141.712
Depth. (km)       71
Mag.              6.0
Station Code      KSRH03
Station Lat.      43.3848
Station Long.     144.6279
Station Height(m) -24
Record Time       2024/04/02 04:25:35
Sampling Freq(Hz) 100Hz
Duration Time(s)  166
Dir.              1
Scale Factor      2940(gal)/6170270
Max. Acc. (gal)   1.230
Last Correction   2024/04/02 04:25:20
Memo.             
[...]
  115191   115180   115269   115253   115059   114940   114884   114807 
  114839   114934   115013   115187   115343   115293   115175   115204 
  115341   115357   115256   115250   115259   115200   115231   115284 
  115259   115295   115365   115335   115244   115117   115036   115090 
  115150   115128   115103   115133   115192   115189   115176   115229 
  115213   115162   115228   115302   115322   115294   115170   115051 
  114993   114951   114945   114930   114924   114977   114996   115003 
  115069   115051   114961   115005   115118   115199   115281   115225 
  115073   115084   115181   115223   115243   115197   115159   115206 
  115154   115056   115142   115277   115261   115156   115046   114958 
  114948   115013   115064   115072   115073   115051   115003   115020 
  115081   115052   114986   115041   115168   115231   115270   115316 
  115261   115166   115205   115319   115327   115247   115224   115260 
  115238   115172   115175   115191   115129   115094   115135   115206 
  115296   115292   115189   115145   115080   114923   114879   114928 
  114895   114869   114932   115043   115200   115310   115325   115330 
  115296   115187   115125   115146   115173   115233   115345   115387 
  115268   115086   114980   114949   114947   114995   115122   115280 
  115350   115346   115312   115191   115042   114985   115029   115118 
  115183   115238   115307   115302   115197   115093   115109   115228 
  115236   115136   115157   115229   115230   115243   115231   115145 
  115085   115080   115130   115198   115191   115165   115152   115097 
  115083   115118   115151   115234   115261   115188   115228   115296 
  115211   115158   115117   114944   114892   115032   115100   115095 
  115155   115262   115358   115423   115464   115469   115425   115358 
  115252   115097   114995   114952   114868   114799   114820   114860 
  114878   114952   115085   115136   115126   115163   115160   115158 
  115238   115190   115043   115021   115075   115155   115244   115300 
  115393   115469   115431   115357   115273   115154   115050   115031 
  115148   115267   115279   115307   115313   115197   115086   115051 
  115075   115128   115097   115025   115043   115118   115158   115142 
  115148   115193   115211   115229   115214   115159   115204   115249 
  115157   115106   115106   115058   115127   115212   115071   114912 
  114931   115049   115182   115280   115331   115314   115258   115263 
  115302   115289   115209   115108   115092   115137   115098   115053 
  115059   114928   114764   114845   115048   115149   115121   115040 
  115020   115055   115062   115068   115125   115191   115242   115340 
  115405   115353   115311   115298   115276   115300   115283   115213 
  115199   115124   115009   115044   115141   115216   115260   115165 
  115048   115064   115061   115005   115089   115246   115286   115212 
  115115   115087   115146   115184   115153   115156   115211   115205 
  115128   115052   114998   114951   114896   114924   115051   115100 
  115075   115089   115070   115012   115044   115199   115304   115247 
  115183   115156   115124   115137   115116   115156   115310   115250 
  115095   115164   115248   115255   115231   115069   114934   114943 
  114953   114986   115037   115000   115054   115293   115418   115310 
  115206   115200   115233   115271   115280   115269   115246   115233 
  115305   115351   115259   115208   115179   115005   114878   114919 
  115004   115147   115279   115240   115111   114990   114911   114988 
  115163   115259   115331   115446   115478   115414   115345   115249 
  115129   115087   115153   115294   115395   115319   115199   115188 
  115161   115048   114955   114955   115041   115095   115024   114958 
  115005   115108   115192   115161   115060   115063   115147   115246 
  115322   115279   115141   114985   114937   115104   115259   115226 
  115172   115212   115318   115379   115269   115121   115109   115151 
  115151   115157   115213   115255   115246   115284   115335   115277 
  115165   115064   114976   114923   114947   115089   115201   115082 
  114891   114875   114969   115013   114991   115019   115124   115227 
  115334   115350   115181   115038   115049   115115   115166   115164 
  115147   115208   115268   115203   115098   115109   115250   115351 
  115249   115117   115140   115178   115193   115253   115258   115212 
  115235   115220   115037   114879   114901   114963   114983   115020 
  115080   115139   115180   115180   115151   115171   115288   115395 
  115429   115475   115408   115185   115107   115139   115066   115004 
  114954   114858   114859   114998   115256   115533   115634   115531 
  115316   115148   115077   114977   114892   114893   114944   115173 
  115522   115681   115685   115693   115570   115275   115019   114958 
  115058   115114   114996   114857   114777   114722   114898   115244 
  115375   115342   115344   115328   115325   115282   115132   115093 
  115182   115133   114916   114709   114689   114879   115072   115205 
  115428   115674   115699   115405   114899   114489   114545   115049 
  115538   115729   115664   115395   115253   115503   115708   115599 
  115465   115321   115106   115032   115038   114875   114682   114773 
  115122   115411   115483   115449   115370   115186   114893   114594 
  114534   114912   115539   116073   116278   115969   115355   114952 
  114774   114538   114395   114539   114789   114892   114761   114555 
  114384   114273   114476   115067   115646   115828   115659   115493 
  115380   115229   115315   115582   115601   115477   115379   115228 
  115279   115592   115776   115665   115264   114663   114129   113875 
  114065   114595   115113   115524   115764   115662   115288   114833 
  114570   114740   115088   115374   115650   115636   115310   115104 
  115025   115105   115423   115593   115497   115261   114870   114474 
  114142   113970   114249   114781   115177   115446   115536   115532 
  115633   115664   115730   115928   115859   115536   115189   114906 
  114853   114877   114942   115282   115543   115447   115253   114771 
  113882   113199   113169   113755   114511   114971   115322   115696 
  115851   115921   116047   116124   116197   116158   115939   115727 
  115488   115291   115289   115234   115108   115117   115041   114841 
  114880   115090   115115   115076   115163   115070   114717   114487 
  114552   114989   115733   116364   116758   116907   116385   115100 
  113761   113058   113074   113682   114613   115265   115481   115544 
  115277   114717   114606   115091   115527   115716   115830   115710 
  115266   114843   114733   114752   114778   115074   115566   115842 
  115759   115434   115128   115125   115442   115731   115694   115397 
  115015   114708   114702   115120   115640   115807   115647   115306 
  114809   114480   114617   115055   115509   115845   116018   115991 
  115672   115079   114456   114013   113831   113965   114393   115075 
  115829   116246   116119   115670   115386   115474   115711   116012 
  116151   115719   115068   114779   114624   114302   114146   114385 
  114701   114867   114917   114756   114464   114395   114633   115062 
  115583   115989   116076   115764   115144   114596   114584   115109 
  115679   115828   115466   114959   114693   114623   114719   115096 
  115460   115465   115309   115344   115587   115857   116035   116025 
  115731   115260   114812   114437   114225   114258   114442   114884 
  115582   116084   116251   116226   115912   115345   114694   114034 
  113476   113126   112984   113062   113543   114414   115267   115925 
  116363   116505   116645   116823   116755   116586   116293   115749 
  115281   114874   114285   113860   113980   114482   115046   115437 
  115587   115707   115825   115577   114975   114523   114372   114371 
  114669   115283   115657   115424   114996   114766   114390   113785 
  113761   114500   115106   115344   115758   116297   116470   116259 
  116014   115623   114687   113719   113637   114205   114590   114733 
  115044   115563   115947   115987   115976   116111   116029   115745 
  115764   115958   115866   115446   114982   114853   114891   114613 
  114200   114061   114193   114340   114294   114177   114110   113978 
  113784   113807   114420   115565   116553   116988   117160   117072 
  116617   116256   116048   115635   115263   115172   115041   114584 
  114067   114151   114833   115410   115682   115797   115694   115345 
  114802   114520   114886   115125   114626   114246   114453   114575 
  114545   114779   114987   114822   114562   114712   115450   116289 
  116530   116138   115745   115691   115542   115046   114722   114723 
  114570   114479   114846   115032   114658   114500   115055   115882 
  116507   116782   116779   116694   116453   116032   115739   115349 
  114482   113704   113510   113585   113684   113902   114300   114640 
  114674   114678   114941   115250   115474   115597   115388   114946 
  114739   114880   114990   114771   114595   114842   115214   115537 
  115971   116465   116827   116931   116836   116498   115662   114698 
  114345   114530   114744   114859   114967   115110   115177   115062 
  114977   115020   114892   114812   115368   116097   116115   115626 
  115162   114720   114392   114192   113811   113518   113694   113910 
  114022   114340   114667   115031   115665   116077   116085   116260 
  116656   116801   116611   116413   116339   116117   115645   115350 
  115489   115656   115463   115060   114728   114348   113833   113576 
  113581   113359   112998   112966   113443   114251   115013   115694 
  116308   116479   116198   115739   115183   114908   115182   115719 
  116177   116243   115911   115651   115537   115301   115147   115269 
  115439   115478   115386   115145   114670   114179   114188   114637 
  115132   115696   116169   116266   116325   116472   116308   115906 
  115540   115251   115078   114901   114693   114491   114080   113671 
  113708   113967   114160   114488   114946   115253   115447   115544 
  115362   115162   115265   115376   115339   115443   115640   115732 
  115767   115628   115318   115319   115659   115788   115604   115283 
  114738   114084   113744   113902   114262   114492   114731   115187 
  115606   115762   115732   115554   115407   115566   115917   116195 
  116280   116132   115864   115474   114855   114387   114578   115305 
  115864   115677   114929   114167   113703   113559   113603   113985 
  114739   115324   115649   115905   115592   114670   114027   114025 
  114310   114739   115427   116156   116479   116334   115951   115560 
  115424   115642   115978   116169   116109   115784   115307   114852 
  114679   114896   115126   115168   115237   115257   115076   114701 
  113994   113281   113279   113842   114287   114622   115090   115495 
  115760   116094   116439   116473   116095   115609   115285   115059 
  114912   114900   114898   114870   114820   114707   114789   115174 
  115503   115609   115634   115752   116001   116030   115729   115466 
  115162   114653   114340   114430   114686   114882   114990   115122 
  115216   115157   115064   114869   114444   114226   114438   114585 
  114627   114880   115093   115035   114845   114672   114799   115422 
  116277   116886   116900   116479   116031   115580   115316   115459 
  115465   115050   114537   114020   113766   114138   114896   115525 
  115611   115350   115388   115563   115419   115176   114966   114790 
  114785   114797   114858   115121   115189   115016   115016   114971 
  114682   114620   114962   115207   115008   114741   114739   114630 
  114410   114716   115481   116241   116870   116971   116337   115538 
  114980   114737   114870   115120   115184   114957   114553   114378 
  114295   113973   113970   114463   114906   115259   115532   115689 
  115973   116326   116628   116669   116034   115127   114724   114763 
  114831   114803   114847   115060   115089   114922   115001   115223 
  115284   115214   115134   115305   115791   116252   116420   116146 
  115475   114730   114101   113825   114073   114472   114922   115526 
  115806   115651   115445   115360   115438   115287   114671   114156 
  113918   113790   114029   114577   115127   115718   116336   116699 
  116598   116214   115989   116045   116061   115783   115341   115065 
  114941   114771   114767   114833   114462   113973   113872   113908 
  114167   115045   116054   116623   116870   116750   116114   115243 
  114546   114133   113752   113566   113979   114410   114300   114196 
  114388   114671   115191   115894   116326   116428   116512   116567 
  116260   115608   114965   114482   114194   114260   114607   114891 
  115164   115740   116419   116780   116833   116762   116479   115878 
  115147   114426   113721   113211   113061   113285   113801   114273 
  114346   114279   114655   115356   115809   116037   116175   115888 
  115357   115238   115505   115775   115863   115666   115372   115211 
  115068   114760   114321   114107   114334   114749   115145   115471 
  115645   115769   115838   115678   115491   115263   114686   114124 
  113899   113837   114107   114976   116196   117082   117158   116666 
  115990   115204   114381   113858   113929   114263   114413   114421 
  114248   113955   114036   114501   115067   115735   116348   116951 
  117642   117734   116917   115973   115368   115088   115263   115601 
  115489   114802   113927   113425   113416   113597   114026   114667 
  115034   115176   115431   115601   115622   115738   115893   115852 
  115484   115029   114921   114948   114761   114768   115176   115512 
  115596   115696   115777   115410   114718   114339   114217   114025 
  114069   114452   114622   114387   114295   114588   114936   115275 
  115728   116187   116560   116793   116782   116643   116527   116175 
  115447   114865   114773   114884   114953   114973   114871   114612 
  114399   114320   114187   114132   114399   114761   115077   115398 
  115580   115577   115503   115519   115698   115706   115345   114987 
  114728   114286   113783   113459   113403   113855   114773   115677 
  116279   116507   116356   116074   115946   115881   115726   115609 
  115530   115455   115537   115609   115433   115157   114973   115007 
  115282   115638   115954   116085   115822   115264   114729   114323 
  113923   113530   113400   113620   113972   114303   114556   114731 
  115038   115581   116080   116267   116194   116084   116108   116260 
  116339   116130   115664   115092   114469   114036   114113   114573 
  115086   115484   115728   115909   115908   115547   115270   115399 
  115526   115406   115162   114911   114726   114636   114822   115304 
  115604   115467   115115   114762   114579   114643   114879   115140 
  115138   114828   114525   114414   114483   114504   114464   114722 
  115065   115179   115338   115550   115773   116183   116574   116885 
  117174   116978   116230   115509   115097   114957   114857   114594 
  114301   113905   113372   113156   113326   113529   113767   114200 
  114736   115100   115245   115458   115697   115653   115496   115482 
  115503   115549   115691   115831   115898   115801   115421   114967 
  114798   114871   115033   115345   115643   115615   115252   114847 
  114749   114848   114741   114518   114519   114780   115102   115315 
  115398   115261   114943   114767   114737   114769   114999   115240 
  115435   115710   115742   115560   115537   115451   115182   115017 
  115038   115120   115021   114727   114553   114539   114547   114625 
  114784   115018   115349   115689   115982   116261   116414   116261 
  115878   115403   114910   114634   114616   114614   114708   115020 
  115223   115134   114963   114835   114699   114496   114312   114331 
  114574   114959   115375   115676   115896   116097   116099   115861 
  115644   115542   115533   115642   115728   115692   115479   114943 
  114320   114019   114081   114421   114840   115144   115422   115548 
  115223   114674   114432   114598   114829   114984   115231   115451 
  115483   115663   115982   115931   115629   115372   115058   114854 
  114911   115116   115443   115730   115858   115951   116008   115957 
  115660   115080   114756   114896   114995   115035   115109   114906 
  114506   114177   114014   114100   114304   114592   115055   115404 
  115462   115365   115154   114972   114953   115023   115203   115494 
  115718   115820   115826   115706   115565   115485   115386   115316 
  115224   114928   114570   114357   114434   114978   115659   115945 
  115913   115853   115769   115618   115472   115439   115525   115639 
  115665   115504   115177   114761   114313   114011   114043   114331 
  114577   114687   114871   115131   115317   115558   115876   116037 
  115931   115539   114972   114517   114373   114525   114794   114972 
  114954   114798   114665   114647   114739   114950   115292   115653 
  115873   115881   115703   115535   115491   115469   115482   115430 
  115179   115096   115267   115206   115030   115059   115012   114820 
  114740   114785   114887   114971   115030   115199   115360   115325 
  115233   115187   115183   115232   115189   115068   115120   115248 
  115279   115438   115688   115711   115567   115414   115253   115045 
  114830   114879   115159   115197   114910   114661   114597   114604 
  114755   115176   115672   115965   115960   115627   115061   114558 
  114294   114184   114121   114118   114251   114578   115097   115645 
  115907   115810   115588   115378   115183   114926   114642   114607 
  114782   114969   115267   115543   115648   115814   116034   116089 
  115921   115639   115473   115398   115211   115006   114845   114618 
  114478   114605   114846   115006   115025   114843   114583   114486 
  114452   114265   114053   114060   114274   114494   114609   114744 
  115051   115363   115553   115714   115674   115510   115626   115777 
  115664   115537   115527   115561   115496   115258   115024   114894 
  114935   115195   115409   115451   115495   115529   115455   115315 
  115136   115060   115255   115496   115466   115288   115228   115244 
  115235   115239   115219   115164   115192   115278   115270   115188 
  115225   115306   115166   115026   115130   115128   114854   114654 
  114733   114966   115069   114971   114920   114938   114865   114817 
  114843   114741   114540   114463   114550   114677   114711   114664 
  114768   115087   115447   115778   116005   116052   115939   115661 
  115370   115236   115127   115051   115157   115284   115267   115148 
  115062   115174   115376   115455   115529   115673   115716   115626 
  115524   115446   115402   115416   115436   115513   115711   115769 
  115542   115329   115242   115215   115370   115580   115600   115538 
  115426   115189   115006   114951   114936   114971   114922   114702 
  114563   114709   115076   115370   115393   115370   115359   115148 
  114877   114697   114550   114531   114645   114762   114799   114643 
  114444   114515   114806   115181   115645   116080   116282   116139 
  115796   115560   115510   115527   115529   115467   115374   115320 
