Origin Time       2024/04/02 04:24:00
Lat.              40.133
Long.             141.712
Depth. (km)       71
Mag.              6.0
Station Code      KSRH03
Station Lat.      43.3848
Station Long.     144.6279
Station Height(m) -24
Record Time       2024/04/02 04:25:35
Sampling Freq(Hz) 100Hz
Duration Time(s)  166
Dir.              3
Scale Factor      2940(gal)/6170270
Max. Acc. (gal)   0.828
Last Correction   2024/04/02 04:25:20
Memo.             
[...]
   34312    34163    34207    34343    34405    34439    34527    34624 
   34670    34649    34535    34416    34427    34506    34569    34570 
   34454    34324    34316    34367    34384    34440    34577    34638 
   34530    34390    34356    34416    34541    34685    34744    34677 
   34543    34428    34343    34304    34325    34350    34443    34607 
   34698    34730    34721    34645    34580    34580    34602    34552 
   34397    34279    34325    34429    34479    34510    34490    34436 
   34432    34407    34376    34420    34469    34475    34502    34508 
   34379    34284    34336    34341    34348    34505    34656    34654 
   34559    34478    34460    34538    34665    34653    34474    34293 
   34187    34167    34265    34441    34567    34638    34730    34753 
   34647    34547    34490    34382    34263    34249    34324    34407 
   34470    34507    34517    34518    34531    34540    34522    34500 
   34445    34365    34408    34550    34566    34436    34325    34292 
   34364    34530    34583    34439    34311    34269    34253    34319 
   34428    34478    34519    34550    34509    34476    34540    34616 
   34597    34600    34686    34699    34596    34414    34204    34116 
   34163    34197    34183    34245    34370    34400    34403    34469 
   34535    34598    34594    34474    34382    34389    34413    34427 
   34427    34426    34498    34599    34585    34481    34431    34479 
   34551    34547    34469    34441    34510    34546    34508    34551 
   34672    34714    34647    34457    34173    34029    34156    34375 
   34478    34504    34478    34329    34252    34361    34436    34412 
   34426    34525    34626    34629    34535    34352    34181    34190 
   34312    34440    34551    34527    34449    34493    34581    34649 
   34720    34668    34421    34206    34180    34247    34397    34609 
   34702    34601    34433    34356    34376    34426    34455    34456 
   34539    34673    34660    34533    34425    34272    34136    34250 
   34535    34729    34735    34601    34464    34384    34405    34613 
   34770    34680    34580    34593    34585    34486    34354    34281 
   34287    34340    34330    34238    34246    34371    34468    34527 
   34582    34598    34575    34507    34330    34193    34294    34429 
   34411    34424    34565    34649    34509    34255    34153    34296 
   34506    34576    34512    34445    34440    34414    34313    34288 
   34387    34446    34405    34367    34441    34615    34750    34726 
   34622    34559    34488    34426    34410    34324    34226    34253 
   34346    34460    34613    34701    34623    34467    34395    34489 
   34666    34674    34483    34366    34380    34388    34408    34474 
   34498    34420    34399    34593    34749    34629    34451    34364 
   34366    34500    34602    34572    34540    34482    34307    34093 
   33998    34098    34295    34440    34511    34605    34765    34847 
   34643    34298    34267    34497    34610    34653    34687    34630 
   34519    34425    34392    34332    34199    34151    34224    34325 
   34422    34493    34578    34725    34744    34518    34299    34194 
   34129    34224    34482    34662    34718    34753    34676    34439 
   34274    34321    34450    34520    34570    34636    34594    34431 
   34285    34279    34419    34504    34463    34458    34486    34435 
   34341    34386    34603    34764    34741    34579    34293    33994 
   33948    34107    34178    34303    34686    34963    34814    34469 
   34274    34320    34455    34476    34419    34417    34428    34425 
   34509    34622    34494    34204    34174    34359    34405    34292 
   34216    34281    34449    34618    34680    34622    34474    34226 
   34068    34172    34363    34513    34714    34878    34778    34525 
   34359    34222    34144    34248    34417    34483    34460    34481 
   34514    34444    34330    34287    34387    34587    34738    34741 
   34646    34599    34567    34482    34406    34364    34375    34443 
   34516    34487    34344    34287    34371    34483    34564    34563 
   34534    34561    34607    34547    34329    34177    34239    34351 
   34421    34494    34527    34550    34635    34608    34453    34378 
   34347    34403    34585    34644    34560    34491    34466    34443 
   34356    34215    34072    34081    34334    34548    34503    34361 
   34325    34402    34486    34498    34460    34515    34709    34800 
   34568    34217    34145    34315    34391    34325    34233    34245 
   34442    34603    34544    34449    34521    34684    34723    34634 
   34600    34595    34524    34465    34457    34539    34691    34597 
   34238    34088    34210    34278    34304    34406    34556    34740 
   34828    34646    34403    34349    34329    34317    34450    34556 
   34617    34735    34663    34373    34200    34230    34373    34574 
   34666    34541    34398    34443    34574    34571    34423    34297 
   34329    34500    34546    34349    34222    34367    34614    34704 
   34546    34338    34293    34354    34342    34250    34241    34383 
   34559    34617    34533    34375    34210    34150    34256    34405 
   34509    34643    34766    34721    34531    34384    34410    34523 
   34532    34462    34535    34698    34642    34380    34247    34388 
   34597    34626    34432    34144    34014    34215    34533    34599 
   34476    34538    34733    34727    34549    34439    34572    34878 
   34938    34681    34484    34385    34241    34106    34019    34090 
   34371    34618    34658    34582    34497    34463    34472    34399 
   34266    34314    34570    34722    34554    34254    34093    34133 
   34287    34370    34344    34353    34376    34397    34476    34461 
   34312    34248    34273    34287    34360    34511    34636    34608 
   34507    34551    34597    34439    34297    34390    34502    34427 
   34338    34367    34408    34328    34144    34164    34468    34734 
   34828    34755    34599    34590    34636    34490    34340    34486 
   34745    34759    34578    34517    34597    34596    34484    34347 
   34316    34519    34776    34831    34733    34668    34662    34587 
   34473    34474    34526    34442    34274    34199    34232    34342 
   34406    34280    34139    34122    34175    34322    34569    34778 
   34766    34643    34634    34585    34332    34102    34077    34168 
   34343    34572    34678    34603    34443    34289    34164    34128 
   34253    34373    34397    34414    34379    34368    34447    34487 
   34502    34542    34482    34269    34151    34271    34423    34513 
   34594    34709    34889    34977    34819    34511    34300    34323 
   34408    34356    34264    34357    34579    34662    34517    34305 
   34304    34512    34692    34813    34910    34945    34828    34454 
   33975    33688    33655    33760    34019    34440    34820    34998 
   34890    34525    34248    34305    34470    34468    34339    34178 
   34015    33953    33989    34050    34205    34512    34878    35097 
   35066    34893    34610    34267    34073    34096    34267    34393 
   34310    34254    34404    34529    34562    34670    34782    34780 
   34705    34532    34326    34227    34179    34168    34245    34395 
   34604    34760    34757    34691    34708    34770    34791    34818 
   34742    34464    34250    34204    34133    34030    34050    34261 
   34603    34913    35032    34947    34716    34324    33931    33887 
   34181    34475    34604    34596    34457    34350    34485    34605 
   34472    34428    34618    34689    34546    34408    34307    34205 
   34183    34238    34304    34446    34605    34620    34666    34880 
   35052    35072    34920    34579    34210    33988    33962    34076 
   34241    34456    34774    35086    35098    34671    34161    34118 
   34537    34904    34919    34750    34596    34306    33867    33656 
   33736    33960    34363    34739    34793    34649    34477    34267 
   34139    34230    34468    34683    34747    34601    34256    34027 
   34159    34279    34255    34341    34373    34322    34477    34729 
   34800    34777    34827    34776    34444    34050    33961    34237 
   34473    34338    34131    34215    34413    34478    34441    34361 
   34348    34491    34612    34640    34681    34602    34382    34325 
   34441    34474    34435    34437    34423    34419    34583    34756 
   34707    34696    34933    35155    35049    34514    33867    33631 
   33772    33874    33936    34192    34488    34500    34267    34096 
   34187    34561    35138    35521    35324    34877    34589    34338 
   34084    33954    33946    34077    34349    34644    34878    34925 
   34687    34430    34466    34619    34569    34396    34306    34226 
   34061    33939    34049    34371    34651    34712    34584    34450 
   34517    34723    34829    34820    34774    34663    34563    34578 
   34598    34597    34673    34653    34435    34304    34388    34517 
   34496    34291    34195    34480    34883    34873    34483    34341 
   34522    34570    34441    34239    33997    33893    33929    33991 
   34177    34466    34651    34674    34503    34236    34186    34322 
   34358    34238    34065    33940    33925    34188    34890    35610 
   35725    35246    34537    33949    33775    33806    33740    33845 
   34248    34634    34907    35016    34765    34396    34323    34389 
   34368    34394    34431    34361    34386    34601    34673    34385 
   34094    34188    34443    34549    34609    34767    35061    35314 
   35052    34301    33867    34182    34710    34882    34750    34623 
   34605    34514    34230    33905    33788    34073    34586    34816 
   34652    34520    34669    34842    34729    34402    34081    33920 
   33966    34047    34058    34113    34192    34213    34260    34306 
   34288    34413    34701    34867    34971    35163    35187    34927 
   34562    34219    34043    34070    34108    34033    33870    33688 
   33716    34131    34492    34409    34446    35003    35460    35364 
   35091    34925    34673    34298    33990    33856    33905    33953 
   33775    33597    33904    34553    34976    35051    34920    34788 
   34802    34857    34834    34565    34149    34064    34250    34311 
   34402    34692    34803    34603    34505    34477    34172    33877 
   34041    34469    34762    34867    34776    34440    34122    34130 
   34436    34855    35206    35246    34906    34446    34190    34248 
   34408    34520    34799    35193    35203    34741    34191    33811 
   33752    34095    34558    34803    34819    34630    34401    34385 
   34423    34279    34042    33953    34163    34531    34804    34903 
   34831    34570    34315    34367    34554    34555    34444    34354 
   34253    34097    33977    34055    34174    34202    34401    34831 
   35275    35543    35421    34959    34553    34364    34166    33896 
   33739    33841    34208    34581    34738    34779    34874    35058 
   35136    34963    34686    34420    34124    33829    33701    33874 
   34285    34763    35097    35079    34677    34258    34239    34447 
   34491    34238    33898    33851    33982    34017    34159    34572 
   35004    35124    34966    34702    34399    34284    34435    34532 
   34373    34270    34491    34574    34155    33828    34110    34539 
   34568    34357    34258    34255    34195    34235    34510    34703 
   34573    34274    34034    33970    34101    34405    34717    34834 
   34769    34688    34742    34966    35177    35063    34644    34322 
   34311    34392    34175    33811    33885    34304    34544    34571 
   34599    34783    35165    35344    34969    34496    34335    34210 
   33948    33785    33970    34336    34453    34267    33946    33732 
   33872    34077    34064    34231    34886    35606    35818    35529 
   35135    34799    34370    33725    33125    33198    34075    34871 
   34978    34869    34827    34590    34321    34340    34506    34568 
   34524    34597    34764    34757    34696    34707    34541    34175 
   33848    33689    33768    34025    34224    34334    34536    34845 
   35113    35149    34982    34844    34765    34627    34382    34212 
   34440    34876    34985    34691    34265    34020    34134    34395 
   34612    34836    35051    35125    34879    34274    33598    33275 
   33364    33580    33959    34631    35234    35390    35127    34723 
   34444    34336    34197    34008    34145    34452    34333    34021 
   33996    34137    34439    34991    35332    35188    34925    34625 
   34287    34259    34437    34364    33996    33730    33799    33973 
   34182    34544    34975    35286    35195    34723    34331    34142 
   33982    34015    34409    34912    35251    35377    35205    34627 
   33902    33530    33548    33603    33720    34138    34619    34800 
   34676    34379    34149    34196    34449    34744    34964    35139 
   35310    35266    34855    34350    34257    34587    34707    34432 
   34290    34438    34532    34385    33976    33510    33413    33615 
   33775    34015    34510    35080    35403    35381    35307    35334 
   35199    34823    34472    34175    33836    33610    33566    33717 
   34024    34222    34343    34588    34888    35032    34954    34891 
   34767    34413    34141    34011    33946    33973    33996    34158 
   34503    34913    35441    35970    36192    35879    35246    34649 
   34041    33526    33340    33312    33267    33471    34110    34677 
   34816    34846    34873    34823    34845    34934    34951    34841 
   34540    34173    34026    34049    33984    33811    33723    33821 
   34080    34539    34994    35058    34836    34610    34363    34169 
   34174    34306    34331    34090    33906    34283    34995    35306 
   35072    34756    34571    34359    34102    33952    34019    34290 
   34508    34476    34364    34368    34443    34418    34248    34133 
   34277    34628    34840    34572    34006    33752    33936    34081 
   34149    34463    34865    35176    35512    35740    35709    35534 
   35181    34573    33963    33610    33448    33452    33718    34059 
   34303    34635    34983    34931    34506    34183    34175    34216 
   34213    34498    34967    35109    34926    34726    34631    34648 
   34664    34550    34373    34186    33974    33902    34019    34141 
   34288    34481    34483    34278    34295    34774    35264    35304 
   35042    34704    34315    33955    33692    33476    33257    33126 
   33327    33945    34647    34969    34862    34774    34887    34867 
   34706    34724    34925    35207    35454    35350    34834    34254 
   33846    33551    33458    33865    34632    35223    35511    35661 
   35567    35129    34539    34098    33935    33914    34027    34321 
   34454    34352    34433    34647    34586    34330    34257    34381 
   34488    34576    34627    34616    34788    35141    35281    35031 
   34506    33875    33417    33316    33460    33770    34219    34583 
   34719    34733    34673    34406    34029    33971    34289    34621 
   34820    34850    34705    34602    34592    34545    34592    34808 
   34968    34973    34846    34627    34501    34532    34614    34711 
   34714    34492    34173    33961    33845    33748    33759    33918 
   34045    34125    34345    34649    34814    34812    34778    34859 
   35080    35240    35176    34975    34726    34407    34135    34081 
   34210    34352    34288    33907    33388    33096    33348    34016 
   34653    35163    35546    35579    35281    34885    34478    34153 
   34092    34258    34413    34541    34756    34938    34986    34990 
   34946    34781    34488    34067    33638    33373    33330    33511 
   33787    34035    34292    34440    34362    34226    34215    34284 
   34335    34529    34984    35322    35252    34983    34695    34395 
   34207    34180    34165    34185    34335    34456    34529    34703 
   34770    34512    34211    34204    34400    34597    34726    34713 
   34700    34856    34949    34843    34790    34775    34487    34117 
   34135    34458    34751    34838    34685    34465    34280    34109 
   34012    34000    34045    34202    34473    34630    34512    34349 
   34443    34755    35079    35354    35509    35452    35205    34848 
   34479    34099    33774    33702    33840    33975    34012    34009 
   34063    34106    34001    33882    34010    34304    34550    34618 
   34353    33938    33801    34038    34504    35015    35381    35561 
   35637    35626    35391    34902    34361    33883    33511    33265 
   33115    33123    33267    33445    33667    33956    34328    34733 
   35080    35279    35308    35287    35186    34904    34666    34645 
   34687    34614    34432    34243    34064    33958    34029    34211 
   34432    34640    34655    34451    34311    34422    34562    34536 
   34588    34870    35119    35134    35024    34924    34700    34284 
   33995    34026    34318    34674    34786    34712    34646    34510 
   34346    34295    34293    34194    34010    33909    33963    34015 
   33966    33911    34011    34437    34982    35053    34609    34174 
   34002    34157    34590    34899    34874    34817    34848    34764 
   34679    34850    35103    35116    34865    34503    34187    33956 
   33606    33103    32861    33111    33597    34064    34489    34911 
   35293    35628    35882    35783    35249    34690    34336    34043 
   33858    33939    34153    34296    34322    34324    34450    34651 
   34768    34818    34896    34994    35006    34904    34767    34594 
   34396    34246    34165    34096    34053    34132    34262    34311 
   34337    34373    34356    34353    34414    34393    34271    34208 
   34235    34274    34307    34410    34518    34420    34267    34301 
   34375    34419    34550    34717    34822    34818    34722    34725 
   34868    34880    34823    34978    35116    34919    34457    34005 
   33865    33947    33872    33691    33756    34108    34425    34474 
   34336    34217    34249    34397    34599    34924    35281    35352 
   35066    34661    34367    34250    34159    33911    33590    33364 
   33231    33195    33326    33619    33971    34279    34528    34692 
   34727    34736    34824    34998    35195    35262    35165    35072 
   35127    35231    35172    34973    34742    34449    34098    33802 
   33649    33652    33768    33958    34220    34537    34864    35154 
   35311    35245    34978    34650    34337    33984    33688    33682 
   33948    34189    34272    34320    34306    34130    33929    33827 
   33822    33995    34434    34939    35165    35086    34921    34862 
   35000    35184    35193    35057    34947    34850    34638    34390 
   34282    34385    34666    34826    34652    34393    34230    34070 
   33840    33591    33499    33606    33800    34037    34221    34293 
   34318    34425    34725    35092    35349    35446    35395    35219 
   34920    34611    34372    34198    34192    34346    34549    34707 
   34751    34717    34642    34534    34382    34180    34016    33991 
   34083    34177    34239    34304    34359    34388    34364    34404 
