Origin Time       2024/04/02 04:24:00
Lat.              40.133
Long.             141.712
Depth. (km)       71
Mag.              6.0
Station Code      KSRH06
Station Lat.      43.2200
Station Long.     144.4285
Station Height(m) -207
Record Time       2024/04/02 04:25:36
Sampling Freq(Hz) 100Hz
Duration Time(s)  151
Dir.              1
Scale Factor      2942(gal)/8224139
Max. Acc. (gal)   0.930
Last Correction   2024/04/02 04:25:36
Memo.             
[...]
  135031   134994   134956   135066   135201   135253   135256   135172 
  135010   134910   134879   134806   134754   134797   134801   134743 
  134789   134928   135027   134989   134827   134746   134835   134921 
  134932   134956   135005   134956   134781   134709   134850   134935 
  134840   134775   134852   134914   134893   134944   135047   135013 
  134892   134840   134840   134805   134796   134840   134820   134828 
  135055   135340   135400   135305   135253   135120   134835   134758 
  134892   134827   134740   134910   135056   135067   135071   135036 
  135005   134966   134874   134863   134936   134952   134919   134890 
  134879   134916   135029   135047   134802   134626   134806   135033 
  135054   134977   134929   134941   134936   134960   135121   135186 
  135048   135031   135170   135174   135083   135048   134904   134647 
  134562   134689   134781   134728   134689   134808   134919   134847 
  134751   134748   134731   134736   134866   134989   134944   134855 
  134894   135037   135130   135086   135010   134990   134958   134964 
  135070   135072   134929   134904   135025   135035   134905   134842 
  134886   134970   135033   135004   134952   134982   135074   135210 
  135276   135237   135251   135238   135151   135182   135147   134963 
  134966   134993   134796   134694   134832   134877   134693   134667 
  134939   135047   134910   134825   134765   134723   134773   134860 
  134977   135076   135110   135066   134902   134778   134850   134878 
  134690   134582   134747   134950   135079   135207   135211   135067 
  134954   134844   134708   134731   134908   134995   134948   134869 
  134800   134754   134758   134873   134975   134898   134889   135047 
  135025   134927   135000   134955   134805   134866   134897   134728 
  134724   134973   135164   135163   135082   135022   135000   135000 
  134952   134833   134839   135009   135048   134867   134680   134636 
  134747   134948   135148   135155   134910   134755   134913   135072 
  135031   134997   134973   134824   134725   134720   134661   134686 
  134913   135099   135060   134974   134998   134981   134831   134730 
  134730   134650   134616   134782   134848   134771   134889   135145 
  135295   135363   135384   135268   135062   134936   134904   134859 
  134865   134975   135048   135048   135056   134975   134885   134927 
  134960   134923   134789   134536   134465   134744   135056   135122 
  135017   134951   134991   135109   135218   135189   135048   134890 
  134855   135021   135105   134959   134889   134910   134793   134692 
  134804   134968   135085   135197   135175   134975   134875   135001 
  135014   134728   134580   134766   134848   134824   135009   135112 
  134900   134667   134605   134775   135147   135338   135189   135018 
  134989   135083   135280   135348   135140   134839   134636   134609 
  134786   135018   135083   134978   134928   135059   135236   135199 
  134925   134697   134622   134592   134713   135018   135221   135167 
  134977   134842   134927   135174   135261   135068   134843   134692 
  134538   134493   134624   134851   135071   135081   134905   134813 
  134801   134852   134925   134813   134708   134852   135008   135017 
  135022   135095   135049   134813   134744   134929   134985   134893 
  134821   134665   134484   134519   134643   134605   134607   134827 
  135058   135230   135378   135450   135394   135220   135159   135218 
  135108   134932   134825   134651   134577   134742   134878   134887 
  134952   134990   134801   134640   134788   135017   135103   135079 
  135040   135056   135090   135102   135118   135157   135176   135178 
  135241   135264   135049   134735   134698   134990   135162   134941 
  134627   134485   134465   134565   134829   135101   135187   135133 
  135027   134824   134716   134901   135082   135029   134906   134796 
  134782   134935   135051   134901   134626   134582   134747   134898 
  135054   135114   135035   135024   134986   134767   134612   134696 
  134801   134638   134345   134438   134950   135328   135292   135108 
  135074   135062   134910   134763   134588   134500   134767   135000 
  134916   134940   135149   135182   134962   134816   135043   135410 
  135515   135388   135236   135055   134790   134566   134557   134689 
  134819   134882   134933   135153   135359   135205   135002   134993 
  134831   134655   134804   135024   135060   134950   134974   135222 
  135305   135124   134950   134856   134784   134723   134751   134870 
  135008   135044   134867   134576   134345   134372   134689   135005 
  135122   135109   135125   135291   135387   135056   134582   134469 
  134545   134646   134906   135137   135145   134959   134607   134295 
  134439   135047   135394   135176   135018   135189   135265   135108 
  134977   134974   134912   134673   134469   134550   134865   135243 
  135484   135421   135313   135380   135272   135008   134979   134948 
  134763   134897   135241   135122   134590   134196   134011   134022 
  134464   135159   135526   135426   135348   135495   135429   135097 
  135000   135120   134993   134646   134534   134774   134951   134932 
  135031   135171   135126   134852   134329   133965   134223   134823 
  135175   135178   135205   135234   134825   134261   134271   134734 
  135078   135328   135544   135321   134744   134368   134229   134279 
  134684   135253   135715   135997   135814   135083   134397   134177 
  134249   134464   134801   135160   135545   135793   135616   135357 
  135430   135418   134977   134372   133942   134111   134905   135468 
  135398   135345   135387   134914   134144   133887   134400   135135 
  135383   135221   135170   135217   135198   135290   135475   135414 
  135054   134769   134974   135633   136042   135665   134765   133859 
  133482   133972   134917   135480   135367   134928   134615   134711 
  135009   135008   134728   134554   134569   134727   135035   135406 
  135668   135653   135363   134964   134536   134177   134010   133994 
  134217   134816   135583   136131   135982   135005   133897   133465 
  133945   134893   135554   135656   135406   135120   134944   134742 
  134450   134233   134299   134773   135437   135837   135777   135378 
  134755   134114   134001   134661   135261   135012   134596   134986 
  135847   136440   136633   136435   135760   134735   133813   133463 
  133670   134117   134755   135518   135936   135735   135187   134713 
  134474   134352   134419   134856   135311   135342   134939   134318 
  133945   134010   134167   134380   134947   135783   136219   135770 
  135122   134855   134509   134298   134752   135228   135261   135369 
  135653   135552   134979   134396   134045   133905   133982   134158 
  134295   134545   135002   135483   135928   136136   135761   135126 
  134881   135024   135195   135299   135137   134509   133872   133625 
  133785   134545   135711   136560   136633   135977   135132   134694 
  134682   134528   133903   133521   134241   135454   135857   135330 
  134586   134056   133911   134161   134715   135440   135984   135996 
  135484   134806   134389   134310   134327   134503   135130   135854 
  135990   135731   135666   135568   135081   134626   134532   134593 
  134739   135072   135529   135874   135704   135085   134704   134408 
  133662   133199   133691   134600   135329   135658   135766   136070 
  136290   135851   134943   134410   134839   135583   135504   134568 
  133537   133332   134283   135357   135568   135365   135413   135229 
  134370   133805   134235   134890   135079   134759   134212   134196 
  134985   135715   135762   135722   136119   136335   135762   134655 
  133542   132895   132996   133787   135120   136525   137088   136499 
  135476   134694   134281   134238   134435   134574   134484   134322 
  134433   134686   134823   135098   135518   135707   135525   135025 
  134740   135068   135315   134970   134472   134233   134283   134295 
  134030   133984   134647   135499   135756   135610   135400   134798 
  134142   134231   134815   135243   135625   136340   136903   136545 
  135727   135234   134819   134150   133609   133655   134258   134906 
  135135   135220   135534   135583   135001   134283   133824   133790 
  134527   135815   136526   136121   135391   134829   134185   133841 
  134411   135305   135480   134921   134360   134288   134461   134357 
  134041   133678   133343   133717   135117   136642   137185   136514 
  135456   134843   134603   134358   134052   133816   133672   133725 
  134250   135133   136042   136522   135814   134244   133301   133623 
  134761   135850   136158   135931   135753   135747   135608   135049 
  134705   135139   135525   135163   134612   134653   135198   135426 
  135106   134890   134901   134829   134855   134909   134693   134384 
  134007   133587   133824   134975   136073   136355   136263   136190 
  135571   134500   134424   135421   135591   134296   132964   132811 
  133674   134673   135330   135830   136201   136012   135460   135287 
  135230   134650   134015   134152   134955   135562   135781   136200 
  136517   135915   134725   133938   133878   134103   134323   134354 
  133589   132484   132493   133551   134731   135699   136140   136088 
  135984   135973   135920   135461   134443   133462   133170   133438 
  133828   134446   135502   136659   137366   137162   136051   135021 
  134977   135157   134408   133312   133288   134549   136027   136750 
  136544   135747   134901   134277   134032   134473   135198   135180 
  134465   134075   134365   134982   135454   135415   135078   134781 
  134545   134519   134740   134909   134848   134650   134477   134310 
  134303   134862   135573   135735   135657   135531   134982   134353 
  134199   134312   134366   134404   134659   135368   136266   136786 
  136800   136165   134859   133874   133864   134044   133910   134287 
  135645   136776   136606   135973   135741   135417   134846   134366 
  133847   133471   133706   134318   134553   134215   134154   134665 
  134788   134426   134547   134985   134758   134231   134538   135351 
  135454   134940   134670   134689   134935   135789   136826   136894 
  135911   134811   133928   133440   134006   135210   135684   135338 
  135324   136003   136487   136138   135279   134333   133407   132591 
  132374   133452   135203   136162   136246   136084   135754   135324 
  135010   134970   134916   134466   134057   134196   134725   135580 
  136567   136568   135310   134360   134369   134500   134707   135202 
  135106   134033   133254   133600   134293   134797   135305   135604 
  135306   134782   134968   135792   135905   134910   133766   133165 
  133258   133667   134073   135066   136556   137307   137087   136474 
  135395   134179   133799   134071   134167   134426   135368   136108 
  135639   134541   133868   133695   133775   134288   135303   136320 
  136517   135776   134946   134516   134524   135039   135356   135009 
  134909   135380   135762   136013   136105   135438   133975   132745 
  132857   134079   135338   135978   135714   134902   134380   134505 
  135129   135676   135577   134796   133888   133963   135037   135633 
  135309   135001   135205   135460   135305   135228   135581   135726 
  135297   134632   134126   133941   133987   134296   134875   135314 
  135429   135398   135040   134350   134065   134488   135225   136001 
  136502   136579   136308   135442   134362   133867   133623   133315 
  133585   134592   135638   135990   135548   134967   134712   134584 
  134505   134561   134530   134252   133944   133956   134468   135234 
  135529   135168   134966   135195   135097   134419   134010   134473 
  135232   135534   135371   134948   134497   134298   134453   135159 
  136179   136642   136552   136393   135762   134750   134208   134069 
  134053   134302   134500   134670   135087   135230   134897   134482 
  134006   133847   134543   135440   135845   136036   135900   135114 
  134372   134288   134418   134369   134337   134433   134812   135723 
  136485   135980   134693   134125   134349   134671   135248   135936 
  135969   135530   135259   134859   134033   133470   133509   133732 
  134187   134820   135186   135506   135943   136135   135823   135083 
  134604   134523   134009   133424   133922   135091   135693   135633 
  135429   135109   134983   135241   135230   135232   135857   136313 
  136202   135990   135526   134659   133911   133745   133944   134017 
  133847   133712   134165   135116   135541   135105   134615   134846 
  135626   136058   135962   135901   135827   135560   135305   134916 
  134269   133671   133628   134538   135665   135839   135324   134887 
  134541   134295   134388   134770   135062   135056   135076   135224 
  135201   135020   134658   133995   133446   133550   134219   134935 
  135353   135378   135175   135193   135519   135835   135931   135650 
  134944   134300   134528   135526   136074   135831   135504   135090 
  134501   134397   134813   134937   134519   134334   134831   135359 
  135576   135766   135970   135969   135495   134948   134925   134908 
  134578   134586   134928   134939   134657   134527   134207   133548 
  133756   135001   135553   134947   134370   134446   135122   135939 
  136098   135565   134913   134308   133947   134154   134499   134482 
  134586   135322   136449   137411   137532   136432   134767   133689 
  133347   133173   133097   133186   133409   134003   134821   135329 
  135499   135649   135677   135236   134743   134944   135510   135851 
  136043   136005   135653   135306   134900   134218   133660   133623 
  134107   134871   135171   134751   134385   134441   134696   135147 
  135787   136341   136574   136358   135610   134929   134998   135168 
  134823   134418   134156   133959   134202   135054   135722   135546 
  135353   135643   135449   134734   134419   134225   133585   133069 
  133381   134380   135349   135633   135155   134473   134165   134292 
  134750   135550   136340   136540   136163   135530   134692   133947 
  133949   134697   135199   135090   135334   136035   135978   135101 
  134586   134667   134600   134469   134824   135156   134956   134883 
  135265   135279   134662   134292   134334   134194   134065   134283 
  134677   135178   135565   135511   135230   135209   135326   135101 
  134808   134856   135079   135460   135785   135504   134789   134285 
  134200   134200   134095   134119   134296   134559   134962   135233 
  135236   135176   135294   135772   136158   135692   134595   133870 
  133979   134370   134488   134431   134349   134230   134306   134847 
  135614   136078   136190   136259   136283   136082   135621   134870 
  133841   133003   133041   133855   134844   135604   135623   134954 
  134530   134663   134835   134774   134616   134474   134177   133825 
  133859   134063   134032   134173   134789   135351   135558   135932 
  136632   137016   136771   136235   135820   135517   134912   133882 
  133066   133164   133818   134276   134499   134690   134932   135164 
  135017   134573   134538   135159   135888   135916   135124   134366 
  134196   134484   135124   135796   136015   135754   135341   135016 
  134910   135126   135417   135473   135487   135538   135464   135382 
  135233   134646   133704   133003   133027   133768   134638   135039 
  135139   135434   135954   136381   136389   135804   134905   134419 
  134673   135028   135074   135202   135205   134585   133953   134025 
  134465   134622   134501   134600   134943   135116   135136   135194 
  135209   135151   134952   134623   134681   135324   135814   135680 
  135380   135317   135391   135441   135337   134952   134219   133351 
  132916   133174   133840   134620   135311   135658   135490   134977 
  134518   134315   134277   134345   134761   135661   136501   136584 
  135955   135225   134624   134030   133778   134067   134329   134379 
  134676   135241   135745   135946   135769   135589   135614   135384 
  134781   134312   134401   134950   135306   135193   135157   135344 
  135294   135167   135338   135311   134585   133917   134104   134458 
  134260   134032   134252   134707   135148   135629   136102   136286 
  136185   135916   135395   134819   134523   134541   134750   134824 
  134585   134500   134788   135079   135302   135486   135414   135175 
  135052   135072   135129   135052   134689   134177   133813   133880 
  134431   134952   135140   135388   135770   135886   135569   135086 
  134790   134539   134163   134071   134451   135004   135434   135409 
  134823   134207   134079   134194   134275   134790   135838   136647 
  136767   136210   135329   134746   134330   133735   133447   133780 
  134447   135140   135581   135558   135049   134473   134300   134327 
  134404   134750   135124   135423   135997   136536   136381   135514 
  134558   134099   133974   133814   133933   134643   135515   135981 
  135874   135319   134651   134190   133942   133868   134059   134565 
  135314   136104   136567   136351   135646   135132   134948   134674 
  134285   134113   134343   134788   135016   134974   134869   134800 
  134805   134832   135054   135666   136082   135862   135623   135649 
  135526   135245   134981   134854   135010   135174   135075   134821 
  134458   134082   133876   133778   133674   133705   134023   134558 
  135133   135523   135553   135236   134740   134455   134658   135036 
  135137   135095   135283   135531   135295   134712   134611   135013 
  135052   134707   134800   135264   135380   135310   135472   135513 
  135207   134920   134750   134497   134284   134272   134248   134244 
  134543   134889   134958   134948   135079   135341   135596   135658 
  135426   134948   134553   134505   134686   135002   135191   134770 
  134130   134067   134341   134434   134478   134707   135089   135361 
  135333   135216   135216   135260   135270   135197   135012   135000 
  135425   135935   136019   135568   134858   134354   134179   134073 
  134069   134415   135002   135340   135279   135228   135206   134881 
  134470   134364   134464   134622   134966   135271   135144   134898 
  134920   135074   135276   135503   135612   135405   134813   134357 
  134489   134805   134858   134842   135014   135120   134928   134821 
  134947   135079   135398   135712   135500   135184   135210   135112 
  134663   134360   134446   134426   134134   134158   134474   134577 
  134470   134200   133967   134273   134943   135301   135170   134889 
  134781   134894   135168   135446   135398   134967   134630   134797 
  135284   135610   135533   135275   135149   135035   134770   134487 
  134148   133689   133459   133771   134403   135045   135696   136039 
  135649   135029   134848   134964   135175   135465   135604   135423 
  135024   134751   134912   135244   135245   134871   134501   134539 
  134939   135195   135021   134703   134678   134950   135178   135371 
  135733   135950   135653   135175   135041   135329   135666   135537 
  134859   134149   133944   134287   134725   134846   134698   134600 
  134643   134859   135422   136043   136111   135645   135089   134650 
