Origin Time       2024/04/02 04:24:00
Lat.              40.133
Long.             141.712
Depth. (km)       71
Mag.              6.0
Station Code      KSRH04
Station Lat.      43.2139
Station Long.     144.6804
Station Height(m) -210
Record Time       2024/04/02 04:25:36
Sampling Freq(Hz) 100Hz
Duration Time(s)  153
Dir.              3
Scale Factor      3923(gal)/8224838
Max. Acc. (gal)   0.639
Last Correction   2024/04/02 04:25:36
Memo.             
[...]
   40201    40153    40046    39941    39922    39926    39935    40015 
   40108    40100    39997    39927    39934    39895    39785    39781 
   39852    39819    39850    40014    40030    39968    40020    40012 
   39899    39874    39896    39857    39947    40177    40192    40012 
   39984    40051    40031    40030    40004    39862    39826    39884 
   39868    39893    39964    39987    40020    40023    39958    40003 
   40147    40170    40070    39926    39785    39798    39884    39862 
   39883    39976    39957    40005    40247    40321    40092    39862 
   39799    39853    39962    40009    39931    39837    39831    39896 
   39906    39800    39802    39915    39808    39650    39766    39969 
   40107    40132    39942    39799    39904    40019    40008    39957 
   39947    39935    39825    39762    39846    39904    39900    39884 
   39834    39837    39934    39985    39966    39922    39819    39725 
   39726    39839    39993    40018    39984    40084    40163    40057 
   39973    39993    39893    39746    39771    39860    39872    39892 
   40036    40127    39968    39816    39857    39939    40080    40151 
   39892    39607    39679    39826    39820    39764    39663    39727 
   40027    40089    39982    40117    40157    39962    39924    39938 
   39856    39822    39731    39695    39895    39955    39814    39881 
   40046    40009    39931    40011    40109    40084    40016    39907 
   39784    39807    39857    39830    39864    39866    39793    39833 
   39981    40142    40186    39958    39687    39683    39816    39900 
   39926    39911    39968    40116    40153    40088    40120    40097 
   39856    39730    39884    40036    40042    39964    39916    39962 
   40034    40061    39997    39904    39923    40004    40007    39985 
   40065    40123    40014    39906    39895    39916    40027    40132 
   40070    39938    39869    39885    39977    40042    39908    39749 
   39874    40070    40054    39974    39853    39687    39788    40070 
   40065    39900    39910    39920    39853    39879    39906    39904 
   40055    40262    40219    39941    39792    39947    40085    39955 
   39773    39787    39945    40070    40024    39831    39710    39772 
   39899    39974    39965    39920    39900    39950    40096    40212 
   40197    40004    39757    39742    39795    39692    39733    39941 
   40038    40059    39981    39823    39877    40004    39906    39802 
   39810    39833    39978    40059    39883    39901    40203    40331 
   40333    40279    40045    39850    39772    39688    39723    39911 
   40032    39972    39838    39823    39914    39845    39702    39900 
   40169    40053    39872    39820    39672    39553    39625    39785 
   39953    39985    39899    39942    40038    39964    39900    40042 
   40200    40111    39847    39768    39923    40000    39970    40001 
   40030    39987    39884    39741    39654    39664    39756    39911 
   40000    40074    40221    40216    40070    40003    39991    40043 
   40011    39815    39876    40134    40077    39833    39735    39734 
   39788    39918    40027    39968    39749    39746    39999    40053 
   40014    40132    40082    39839    39733    39723    39796    40081 
   40247    40062    39958    40027    39919    39775    39761    39690 
   39619    39711    39896    40095    40200    40100    39941    39879 
   39879    39928    40009    40019    39970    39976    40047    40130 
   40090    39874    39756    39881    39991    39938    39818    39725 
   39723    39816    39919    39968    39910    39798    39885    40050 
   39906    39726    39858    40041    40088    40036    39915    39727 
   39542    39671    40072    40209    40042    39993    40130    40217 
   40153    40054    39973    39776    39642    39869    40031    39783 
   39690    39962    40076    40036    40146    40162    39980    39924 
   39930    39723    39541    39673    39881    39993    40135    40138 
   39985    39992    40123    40189    40201    40178    40086    39982 
   39864    39672    39576    39654    39749    39880    40070    40147 
   40124    40169    40151    39985    39900    39833    39687    39703 
   39789    39864    40109    40178    39966    40014    40108    39908 
   39888    39997    39866    39834    40000    40007    39920    39896 
   39787    39656    39702    39831    39924    39960    40027    40255 
   40344    40174    40153    40225    40076    39935    40050    40132 
   39941    39757    39704    39544    39457    39642    39731    39657 
   39811    40088    40099    39923    39849    39884    39910    39928 
   40063    40265    40169    39912    40043    40278    40170    40007 
   39964    39937    39972    39955    39714    39492    39583    39810 
   39947    39997    40000    39981    39922    39943    40070    40034 
   39884    39849    39858    39846    39760    39594    39572    39814 
   40063    40086    39981    39783    39567    39690    40007    39949 
   39630    39582    39865    40135    40184    40178    40207    40167 
   40203    40163    39758    39499    39764    40103    40242    40138 
   39822    39714    39903    40050    40109    40026    39814    39820 
   40014    40046    39900    39772    39762    39800    39852    39954 
   39920    39748    39769    39904    39987    40155    40107    39783 
   39847    40073    39966    39930    39989    40011    40194    40228 
   40063    40073    40041    39872    39900    39918    39596    39371 
   39610    39874    39895    39951    39970    39931    40170    40328 
   40068    39885    39924    39864    39745    39792    39939    39891 
   39764    39865    40077    40201    40123    39995    40116    40174 
   39972    39950    40022    39900    39884    39880    39668    39702 
   39957    39995    40015    40142    40144    40076    39973    39811 
   39707    39591    39556    39777    39876    39756    39889    40275 
   40532    40570    40495    40234    39845    39757    39881    39793 
   39730    39945    40045    39781    39546    39694    39901    39723 
   39457    39521    39681    39892    40221    40228    39955    39906 
   39981    40045    40162    40086    39924    40084    40277    40136 
   39884    39695    39614    39692    39671    39533    39742    40162 
   40198    39960    39812    39753    39766    39927    40263    40424 
   40080    39833    40113    40266    40009    39831    39783    39692 
   39818    40080    40041    39920    39964    39927    39856    39837 
   39761    39707    39664    39619    39845    40240    40393    40348 
   40262    40046    39800    39835    40113    40194    40036    40007 
   40058    40028    39987    39910    39866    39830    39673    39753 
   39941    39642    39397    39771    40219    40400    40366    40181 
   40076    39955    39744    39843    40182    40200    39860    39595 
   39549    39528    39591    39714    39604    39526    39706    39868 
   40053    40255    40227    40074    39976    40038    40293    40454 
   40319    40007    39750    39837    40263    40495    40185    39787 
   39734    39761    39649    39505    39401    39525    39812    39803 
   39657    39815    40009    39968    39861    39957    40409    40679 
   40205    39911    40483    40682    40069    39815    40012    40066 
   40096    40085    39850    39607    39552    39615    39765    39993 
   40080    39924    39761    39779    40045    40325    40131    39696 
   39684    39906    39870    39665    39540    39734    40192    40390 
   40270    40158    40031    39924    39830    39532    39395    39802 
   40155    39995    39675    39428    39375    39773    40325    40405 
   40074    39860    39700    39467    39630    40035    39981    39692 
   39742    40055    40254    40081    39719    39648    39908    40055 
   39961    39880    39896    39870    39633    39387    39599    40034 
   40215    40351    40490    40335    40080    40034    40041    39806 
   39502    39491    39630    39787    40004    39904    39640    39946 
   40536    40601    40306    40167    40139    39997    39690    39488 
   39572    39528    39502    40030    40529    40350    39912    39718 
   39748    39854    39897    39881    39966    39996    39827    39744 
   39969    40360    40423    39984    39586    39650    40054    40261 
   39895    39429    39515    40012    40271    40108    39895    39846 
   39947    40084    40177    40217    40003    39657    39586    39653 
   39785    40171    40401    40177    40076    40240    40132    39947 
   40180    40382    39993    39507    39579    39866    39818    39538 
   39326    39368    39756    40144    40270    40394    40414    40186 
   40174    40271    40115    40038    39943    39596    39568    40041 
   40493    40643    40502    40188    39945    39888    39853    39785 
   39816    39818    39603    39457    39653    39901    40024    40101 
   39966    39877    40278    40683    40552    40123    39861    40004 
   40066    39579    39206    39370    39613    39879    40059    39769 
   39418    39544    39756    39607    39433    39615    39915    40061 
   40216    40435    40344    39862    39459    39495    39788    39808 
   39695    40100    40761    41042    40888    40267    39518    39395 
   39631    39482    39322    39690    40124    40016    39523    39324 
   39752    40435    40747    40493    40092    39928    39949    39914 
   39711    39677    40005    40128    39991    40119    40277    40157 
   39974    39699    39355    39415    39820    39865    39433    39190 
   39533    39984    40122    40282    40381    40070    39846    39866 
   39796    39922    40265    40294    40188    40269    40105    39671 
   39590    39938    40289    40292    40068    40034    39895    39237 
   38754    39118    39874    40250    40239    40373    40554    40329 
   39981    39789    39586    39572    39891    40236    40378    40132 
   39699    39640    39873    39945    39762    39501    39537    39954 
   40197    40112    40124    40136    40009    40076    40112    39839 
   39712    39694    39496    39588    40062    40338    40323    40331 
   40315    40043    39812    39941    40153    40240    40051    39505 
   39220    39579    39960    39864    39518    39432    39874    40510 
   40767    40406    39618    38934    39013    39772    40323    40405 
   40495    40581    40412    40252    40242    40194    40288    40350 
   39708    38832    38669    39094    39640    39903    39723    39657 
   40026    40360    40377    40279    40142    39973    39943    39924 
   39841    39892    39757    39502    39854    40482    40531    40182 
   40078    40182    40192    40288    40309    39874    39603    39941 
   40184    40007    39815    39725    39704    39791    39862    39903 
   39920    39819    39787    39961    40112    39991    39865    40239 
   40583    40155    39556    39540    40011    40640    40857    40250 
   39676    39943    40230    39970    39625    39210    38908    39282 
   39849    39780    39525    39660    39795    39991    40497    40651 
   40242    39980    40049    39880    39534    39733    40275    40385 
   39969    39525    39565    39982    40113    39820    39636    39538 
   39206    39150    39618    40024    40217    40359    40458    40699 
   40917    40609    40151    40122    40146    40030    40116    40070 
   39484    38986    39123    39430    39556    39757    40112    40478 
   40676    40528    40234    40057    39914    39741    39680    39846 
   40144    40371    40338    39934    39425    39310    39534    39644 
   39436    39110    39181    39618    39922    40294    40771    40547 
   39726    39366    39665    40107    40360    40234    39897    39850 
   40026    39931    39685    39733    39907    39731    39361    39345 
   39654    39860    39721    39486    39707    40323    40741    40794 
   40741    40578    40151    39706    39426    39195    39121    39226 
   39263    39521    40333    40902    40556    40117    40228    40277 
   40016    39847    39761    39723    39690    39671    40143    40659 
   40373    40055    40279    40284    39969    39714    39479    39383 
   39494    39426    39194    39502    40359    40892    40702    40189 
   39996    40166    40279    40173    39712    39183    39294    39788 
   40009    40019    40070    40211    40054    39540    39506    40111 
   40532    40413    39973    39572    39653    40099    40211    40068 
   40274    40431    40019    39672    39861    40105    40058    39804 
   39604    39826    40212    40041    39468    39488    40217    40640 
   40485    40184    39634    39054    39212    40097    40706    40381 
   39785    39617    39541    39321    39249    39536    40018    40181 
   39911    39723    40036    40618    40784    40414    40046    40018 
   40232    40261    40028    39992    40078    39884    39687    39719 
   39584    39309    39262    39555    40258    40882    40921    40814 
   40713    40296    39812    39573    39631    40003    40246    39896 
   39437    39399    39395    39233    39247    39421    39757    40342 
   40682    40489    40174    39972    39934    39980    39825    39667 
   39619    39399    39429    40068    40562    40436    40076    39773 
   39707    39881    39995    39962    39803    39679    39766    39610 
   39202    39349    39996    40347    40285    40235    40223    39988 
   39870    40113    40116    39729    39280    38954    39108    39397 
   39451    40112    41202    41273    40520    40062    39908    40047 
   40602    40757    40181    39707    39704    39916    40140    40081 
   39681    39352    39252    39224    39156    39036    39283    40104 
   40707    40552    40115    40026    40427    40775    40535    40034 
   39802    39919    40213    40147    39545    39212    39390    39405 
   39368    39799    40289    40425    40533    40625    40297    39775 
   39629    39900    40184    40235    40146    40062    40115    40248 
   40166    39802    39442    39322    39398    39333    38942    38680 
   39033    39706    40279    40711    40930    40888    40567    39927 
   39413    39575    40008    40085    40084    40154    39964    39816 
   40031    40278    40369    40240    39923    39660    39499    39286 
   38942    38838    39282    39644    39613    39935    40728    41169 
   40938    40447    40089    39947    39799    39460    39363    39830 
   40344    40487    40354    40147    40248    40699    40814    40402 
   40111    39884    39294    38956    39376    39865    39839    39676 
   39810    40057    40144    40150    40030    39679    39320    39112 
   39104    39345    39773    40425    40990    40872    40328    39982 
   39912    40139    40581    40563    39842    39255    39256    39395 
   39405    39483    39784    40059    40188    40468    40717    40532 
   40162    39876    39671    39549    39463    39567    39900    40104 
   40186    40282    40126    39652    39094    38761    38773    38938 
   39252    39796    40304    40593    40841    41069    40975    40666 
   40489    40292    39965    39700    39552    39618    39950    40244 
   40312    40235    39976    39626    39553    39733    39895    39991 
   39928    39744    39739    39911    39964    39868    39806    39862 
   40109    40423    40306    39771    39471    39452    39295    39193 
   39448    39712    39730    39764    39919    40136    40335    40429 
   40482    40400    40151    40016    39938    39652    39409    39573 
   39868    40011    40410    40981    40891    40252    39722    39202 
   38776    38863    39286    39816    40404    40737    40817    40941 
   41026    40803    40373    39985    39553    39137    39139    39478 
   39729    39781    39796    39972    40177    40041    39640    39499 
   39684    39729    39596    39559    39673    39978    40425    40725 
   40695    40521    40377    40026    39451    39158    39336    39673 
   40008    40323    40470    40429    40410    40365    40077    39818 
   39762    39492    39133    39222    39596    39995    40377    40495 
   40404    40456    40539    40243    39691    39507    39839    40036 
   39800    39587    39582    39556    39514    39586    39695    39757 
   39919    40120    40008    39648    39464    39575    39811    40165 
   40543    40508    40107    39884    40009    40219    40196    40111 
   40327    40512    40147    39509    39208    39352    39753    40123 
   40212    40161    40078    39846    39656    39829    40130    40089 
   39954    40032    39980    39602    39263    39387    39688    39567 
   39453    39900    40207    39816    39372    39442    39761    40023 
   40344    40690    40775    40581    40157    39573    39368    39711 
   39873    39586    39438    39711    40042    40197    40297    40369 
   40398    40419    40335    40197    40140    40015    39829    39843 
   39966    40005    40092    40217    40189    40059    39922    39730 
   39607    39646    39721    39897    40124    39947    39532    39515 
   39776    39973    40240    40452    40217    39664    39344    39422 
   39595    39708    39876    40126    40308    40286    40147    40128 
   40147    39849    39434    39430    39687    39825    39864    39745 
   39503    39537    39712    39683    39772    39988    40019    40103 
   40328    40535    40621    40367    39988    39868    39837    39721 
   39644    39627    39609    39510    39420    39669    40042    40059 
   40080    40293    40231    40053    39981    39835    39985    40468 
   40551    40216    39922    39704    39726    40077    40354    40379 
   40352    40219    39837    39602    39690    39568    39326    39536 
   39862    39852    39819    39903    39853    39808    39974    40219 
   40338    40244    40061    39879    39733    39792    39937    39887 
   39812    39954    40063    40023    40116    40166    39934    39792 
   39934    40132    40068    39748    39717    39982    40099    40217 
   40304    40138    40165    40437    40441    40292    40288    40221 
   39974    39669    39460    39598    39895    39927    39866    39919 
   39924    39866    39918    40113    40185    40007    39879    39800 
   39550    39449    39591    39565    39499    39734    40099    40301 
   40327    40366    40486    40540    40386    40062    39699    39432 
   39380    39459    39544    39675    39807    39818    39699    39702 
   40019    40257    40074    39810    39717    39669    39734    40011 
   40266    40348    40409    40335    39895    39459    39464    39687 
   39788    39754    39609    39420    39407    39561    39785    40157 
   40447    40340    40093    40058    40144    40215    40230    40124 
   40041    40092    40051    39841    39710    39742    39722    39582 
   39511    39591    39756    39853    39710    39510    39576    39803 
   39946    40034    40142    40171    40042    39853    39787    39895 
   39931    39738    39726    40082    40305    40207    40159    40246 
   40215    40093    40059    40086    40076    39914    39610    39399 
   39363    39388    39555    39789    39748    39526    39496    39699 
   40069    40437    40555    40436    40216    39910    39623    39615 
   39904    40123    40074    40023    40109    40216    40363    40462 
   40311    40047    39847    39691    39652    39667    39642    39738 
