Origin Time       2024/04/02 04:24:00
Lat.              40.133
Long.             141.712
Depth. (km)       71
Mag.              6.0
Station Code      KSRH03
Station Lat.      43.3848
Station Long.     144.6279
Station Height(m) 83
Record Time       2024/04/02 04:25:35
Sampling Freq(Hz) 100Hz
Duration Time(s)  166
Dir.              5
Scale Factor      3920(gal)/6170801
Max. Acc. (gal)   8.129
Last Correction   2024/04/02 04:25:20
Memo.             
[...]
   -8258    -8510    -8625    -8695    -8558    -8053    -7284    -6736 
   -6812    -7352    -7883    -8135    -8117    -7873    -7493    -7223 
   -7179    -7267    -7472    -7803    -8099    -8174    -7988    -7639 
   -7230    -6823    -6594    -6761    -7345    -8193    -9087    -9736 
   -9800    -9147    -8015    -6782    -5816    -5477    -5826    -6543 
   -7420    -8460    -9353    -9574    -9053    -8218    -7394    -6674 
   -6254    -6377    -7033    -7912    -8565    -8661    -8218    -7507 
   -6836    -6429    -6434    -6968    -7953    -8927    -9420    -9389 
   -8939    -8135    -7256    -6676    -6530    -6714    -7113    -7760 
   -8597    -9226    -9227    -8553    -7497    -6480    -5870    -5779 
   -6049    -6533    -7242    -8096    -8762    -8913    -8447    -7629 
   -7074    -7045    -7171    -7269    -7520    -7844    -8040    -8136 
   -8208    -8238    -8148    -7915    -7700    -7665    -7759    -7863 
   -7867    -7696    -7430    -7244    -7251    -7515    -7986    -8388 
   -8397    -8032    -7630    -7386    -7135    -6695    -6273    -6250 
   -6653    -7244    -7809    -8103    -8086    -8115    -8380    -8600 
   -8513    -8154    -7660    -7181    -6875    -6838    -7047    -7338 
   -7587    -7924    -8448    -8829    -8630    -7949    -7310    -7016 
   -6990    -7016    -6938    -6896    -7156    -7703    -8334    -8780 
   -8690    -8012    -7213    -6858    -7055    -7411    -7669    -7999 
   -8418    -8623    -8491    -8112    -7612    -7153    -6802    -6657 
   -6976    -7739    -8466    -8710    -8463    -8024    -7610    -7303 
   -7166    -7161    -7238    -7474    -7955    -8610    -8987    -8504 
   -7333    -6362    -6142    -6529    -7150    -7737    -8225    -8614 
   -8717    -8286    -7423    -6646    -6411    -6733    -7423    -8257 
   -8803    -8720    -8217    -7730    -7366    -6920    -6429    -6518 
   -7647    -9211   -10135   -10054    -9329    -8348    -7234    -6131 
   -5404    -5275    -5688    -6621    -7896    -8946    -9330    -9035 
   -8272    -7410    -6849    -6720    -6955    -7502    -8254    -8937 
   -9139    -8629    -7743    -7086    -6889    -7088    -7622    -8283 
   -8726    -8797    -8490    -7781    -6775    -5784    -5109    -5044 
   -5843    -7260    -8601    -9461    -9757    -9271    -8043    -6796 
   -6249    -6408    -6914    -7622    -8434    -8972    -8931    -8424 
   -7700    -6889    -6183    -5913    -6366    -7523    -8898    -9786 
   -9807    -9133    -8153    -7133    -6223    -5593    -5528    -6180 
   -7306    -8437    -9081    -8995    -8455    -7891    -7414    -7023 
   -6893    -7159    -7704    -8319    -8767    -8755    -8240    -7646 
   -7311    -7087    -6944    -7205    -7784    -8174    -8217    -8070 
   -7726    -7174    -6582    -6158    -6126    -6595    -7397    -8269 
   -8978    -9287    -9041    -8239    -7157    -6383    -6313    -6701 
   -7115    -7622    -8399    -9085    -9213    -8778    -8078    -7454 
   -7054    -6866    -6963    -7306    -7688    -8049    -8297    -8191 
   -7686    -7080    -6868    -7265    -7768    -7866    -7788    -7832 
   -7756    -7352    -6926    -6894    -7330    -8018    -8640    -9030 
   -9263    -9149    -8277    -6985    -6129    -5858    -5847    -6168 
   -7040    -8283    -9334    -9682    -9383    -8846    -8176    -7248 
   -6304    -5921    -6326    -7142    -7818    -8149    -8367    -8541 
   -8333    -7750    -7239    -6896    -6594    -6567    -7011    -7603 
   -7940    -8166    -8639    -9045    -8749    -8043    -7776    -7907 
   -7813    -7533    -7436    -7489    -7562    -7505    -7097    -6540 
   -6242    -6276    -6682    -7512    -8459    -9165    -9543    -9588 
   -9271    -8513    -7309    -6127    -5697    -6182    -6989    -7506 
   -7725    -7984    -8337    -8503    -8356    -8046    -7683    -7317 
   -7150    -7362    -7741    -7868    -7614    -7257    -7163    -7349 
   -7518    -7612    -7842    -8207    -8432    -8254    -7738    -7455 
   -7863    -8538    -8664    -8103    -7459    -7171    -7069    -6904 
   -6697    -6613    -6854    -7380    -7861    -8091    -8166    -8309 
   -8514    -8375    -7729    -7164    -7215    -7620    -7753    -7381 
   -6882    -6740    -6997    -7382    -7661    -7885    -8188    -8304 
   -7999    -7603    -7398    -7353    -7488    -7782    -8122    -8426 
   -8597    -8505    -8034    -7356    -6886    -6644    -6441    -6602 
   -7459    -8520    -9051    -8966    -8591    -8053    -7303    -6470 
   -5941    -6054    -6732    -7577    -8264    -8611    -8468    -7908 
   -7289    -6949    -7019    -7343    -7676    -8188    -9129    -9993 
   -9923    -8731    -7015    -5693    -5338    -5854    -6825    -7799 
   -8487    -8889    -8986    -8627    -7825    -6753    -5744    -5359 
   -5940    -7242    -8741    -9967   -10504   -10105    -8997    -7779 
   -6849    -6196    -5813    -5934    -6590    -7252    -7456    -7486 
   -7876    -8568    -9023    -8946    -8616    -8469    -8495    -8286 
   -7628    -6793    -6179    -5887    -5799    -6030    -6872    -8125 
   -9053    -9273    -9089    -8795    -8332    -7771    -7496    -7592 
   -7656    -7477    -7264    -7233    -7446    -7720    -7612    -7041 
   -6608    -6886    -7726    -8423    -8510    -8224    -8009    -7988 
   -8097    -8204    -8135    -7837    -7436    -7116    -6898    -6576 
   -6096    -5742    -5791    -6305    -7134    -7963    -8631    -9199 
   -9537    -9412    -8868    -8150    -7548    -7264    -7225    -7184 
   -6976    -6652    -6440    -6504    -6726    -6946    -7396    -8392 
   -9608   -10316   -10175    -9317    -8026    -6572    -5200    -4346 
   -4628    -6080    -7802    -9038    -9921   -10561   -10419    -9193 
   -7513    -6314    -5938    -6078    -6431    -7035    -7860    -8594 
   -8978    -8982    -8689    -8206    -7669    -7346    -7472    -7809 
   -7775    -7115    -6108    -5382    -5503    -6381    -7483    -8528 
   -9397    -9914   -10092    -9890    -8941    -7266    -5689    -4863 
   -4660    -4905    -5788    -7299    -8920    -9853    -9616    -8612 
   -7616    -6941    -6674    -6960    -7603    -8141    -8364    -8398 
   -8373    -8162    -7567    -6711    -6098    -6250    -7118    -8055 
   -8576    -8665    -8393    -7831    -7122    -6414    -6030    -6435 
   -7632    -8924    -9640    -9711    -9350    -8692    -7852    -7061 
   -6671    -7027    -8184    -9618   -10492   -10460    -9874    -9052 
   -7982    -6860    -6131    -6001    -6452    -7317    -8106    -8418 
   -8323    -7877    -7074    -6383    -6251    -6402    -6474    -6555 
   -6728    -6856    -6815    -6560    -6238    -6225    -6759    -7754 
   -8966    -9922   -10141    -9694    -8890    -7720    -6331    -5385 
   -5531    -6841    -8707   -10297   -11156   -11136   -10022    -7868 
   -5521    -4088    -4039    -5085    -6492    -7568    -8209    -8567 
   -8426    -7629    -6558    -5779    -5763    -6684    -8180    -9648 
  -10660   -11055   -10860   -10021    -8581    -7122    -6270    -5980 
   -6121    -7047    -8618    -9819   -10094    -9619    -8298    -6093 
   -3869    -2821    -3466    -5344    -7433    -8926    -9553    -9327 
   -8370    -6818    -4882    -3342    -3575    -6328   -10478   -13775 
  -14916   -14207   -12309    -9387    -5756    -2478     -792    -1319 
   -3880    -7619   -11324   -13909   -14752   -13847   -11724    -9049 
   -6294    -3882    -2267    -1735    -2278    -3675    -5668    -7909 
   -9798   -10672   -10296    -9120    -7854    -6769    -5702    -4695 
   -4115    -4241    -5210    -6909    -8737   -10072   -10735   -10748 
  -10180    -9261    -8271    -7393    -6941    -7213    -7794    -7967 
   -7734    -7519    -7527    -7803    -8202    -8364    -7891    -6727 
   -5669    -5857    -7335    -8819    -9227    -8943    -8953    -9342 
   -9603    -9710    -9857    -9753    -8940    -7521    -5964    -4340 
   -2623    -1459    -1666    -3396    -6491   -10692   -14797   -16983 
  -16443   -13611    -9266    -4450     -612     1007       64    -2860 
   -6674   -10165   -12571   -13808   -13635   -11503    -8003    -5047 
   -4086    -5034    -6731    -7997    -8521    -8543    -7879    -6107 
   -3679    -2009    -2364    -5012    -9080   -12972   -15417   -15986 
  -14363   -10219    -4440      572     2526      855    -3458    -9057 
  -14597   -18481   -19134   -15820    -9540    -2952     1360     2490 
     847    -2930    -7982   -12713   -15242   -14626   -11332    -6790 
   -2848    -1134    -2162    -5050    -8390   -11154   -12600   -12135 
   -9915    -6965    -4360    -3009    -3875    -7179   -11751   -15633 
  -16875   -14604    -9955    -5094    -1368      917     1269    -1232 
   -6463   -12416   -16485   -17324   -15176   -10842    -5371     -443 
    2398     2577       96    -4450    -9463   -13092   -14279   -12799 
   -9144    -4799    -1792    -1350    -3284    -6686   -10489   -13397 
  -14393   -13502   -11524    -9337    -7615    -6622    -6224    -6408 
   -7328    -8442    -8366    -6258    -2863       50      818    -1235 
   -5342    -9915   -13817   -16436   -16882   -14405    -9577    -4293 
    -591      510     -919    -4473    -9375   -14097   -17015   -17097 
  -14316   -10167    -6625    -4318    -3271    -4199    -7011    -9657 
  -10281    -9207    -7650    -5810    -3529    -1784    -1998    -4293 
   -7593   -10758   -12901   -13398   -11957    -8882    -5587    -3796 
   -3938    -5271    -7121    -9155   -10917   -11733   -11103    -9170 
   -6850    -5232    -4615    -4692    -5615    -7568    -9602   -10494 
  -10361   -10084    -9660    -8441    -6479    -4476    -3003    -2553 
   -3386    -5009    -6706    -8322   -10100   -12055   -13607   -14155 
  -13664   -12158    -9719    -7188    -5424    -4205    -2830    -1283 
    -323     -668    -2358    -4851    -7389    -9391   -10922   -12365 
  -13426   -13401   -12210   -10256    -7940    -5658    -3650    -2133 
   -1542    -2271    -4550    -8240   -12449   -15766   -16852   -15161 
  -11506    -7402    -3974    -1745     -739     -820    -2182    -4879 
   -8085   -10417   -10856    -9440    -7183    -5389    -5194    -7116 
  -10399   -13204   -14045   -12886   -10611    -8043    -5952    -5025 
   -5248    -6164    -7488    -8715    -8959    -7725    -5553    -3858 
   -3749    -4969    -6542    -8096    -9843   -11514   -12123   -11088 
   -9033    -7199    -6337    -6167    -6078    -6140    -6550    -6903 
   -6910    -6586    -5730    -4486    -3826    -4637    -6832    -9766 
  -12906   -15499   -16368   -14954   -12030    -8628    -5000    -1696 
    -545    -2873    -7410   -11268   -12590   -11509    -9160    -6410 
   -3353      -78     2172     1433    -2908    -8804   -13139   -14606 
  -14003   -12149    -9159    -5482    -2407    -1314    -2676    -5842 
   -9403   -11759   -12128   -10932    -8947    -6950    -5980    -6692 
   -8738   -11255   -13376   -14289   -13354   -10422    -6229    -2441 
    -629     -817    -1825    -3253    -5771    -9202   -11948   -12845 
  -12233   -10926    -9447    -8232    -7268    -5994    -4663    -4476 
   -5518    -6395    -6144    -5184    -4671    -5289    -6663    -8096 
   -9236    -9911   -10103    -9918    -9312    -8332    -7487    -7173 
   -7042    -6810    -7041    -8216    -9951   -11717   -13122   -13280 
  -11327    -7780    -4411    -2625    -2445    -3204    -4502    -6014 
   -7224    -7848    -7978    -7829    -7670    -7738    -7871    -7545 
   -6805    -6405    -6555    -6611    -6243    -5898    -6099    -7015 
   -8494   -10144   -11527   -12248   -12027   -10959    -9651    -8896 
   -8870    -9023    -9119    -9177    -8645    -7381    -6274    -5791 
   -5443    -4675    -3438    -2337    -2180    -3245    -5144    -7120 
   -8661    -9960   -11378   -12570   -12655   -11345    -9406    -7762 
   -6581    -5643    -5150    -5403    -6127    -6994    -8172    -9807 
  -11615   -12972   -13001   -11039    -7496    -3815    -1422    -1075 
   -2728    -5620    -8936   -11943   -13302   -11738    -7602    -2787 
     595     1130    -1554    -6746   -12808   -17507   -19080   -17209 
  -12556    -6260     -427     2460     1282    -3107    -8723   -13455 
  -15739   -15144   -12166    -7578    -2642      839     1456    -1168 
   -6186   -11695   -15775   -17437   -16368   -12779    -7869    -3219 
      23      709    -1835    -6277   -10018   -11669   -11804   -11292 
   -9837    -7139    -4590    -4021    -5511    -7833    -9977   -11361 
  -11477    -9926    -6666    -2425     1067     1955     -249    -4381 
   -8790   -12411   -14706   -15203   -13838   -11467    -9322    -8041 
   -7565    -7728    -8469    -9500   -10154    -9717    -8032    -5766 
   -3703    -2080    -1141    -1490    -3393    -6625   -10695   -14469 
  -16520   -16193   -13700    -9657    -4918     -594     1889     1496 
   -1439    -5448    -8903   -10890   -11560   -11385   -10474    -9005 
   -7640    -7164    -7832    -9087   -10005   -10073    -9293    -7648 
   -5284    -3065    -2152    -3020    -5147    -7611    -9778   -11192 
  -11387   -10325    -8585    -6887    -5822    -5849    -6876    -8106 
   -8873    -9184    -9230    -9051    -8767    -8412    -7578    -5997 
   -4274    -3390    -3885    -5700    -8282   -10923   -12958   -13757 
  -13246   -11952   -10039    -7456    -4769    -2765    -1923    -2554 
   -4396    -6324    -7268    -7023    -5934    -4601    -4107    -5535 
   -8923   -13305   -17392   -19770   -19193   -15250    -8833    -2000 
    3052     5137     4219      722    -4767   -10798   -15121   -16327 
  -14564   -10759    -6381    -3383    -3044    -4811    -7047    -8866 
  -10156   -10337    -8740    -5814    -3003    -1794    -3011    -6449 
  -10816   -14259   -15516   -14475   -11548    -7422    -3475    -1132 
    -810    -2365    -5668    -9798   -12852   -13482   -11808    -8804 
   -5647    -3520    -3319    -5175    -8177   -11109   -13363   -14424 
  -13511   -10655    -7004    -3695    -1300     -251    -1031    -3590 
   -6888    -9637   -11308   -11939   -11518   -10165    -8523    -7338 
   -6859    -6866    -7021    -7123    -7157    -7039    -6457    -5283 
   -4111    -3995    -5459    -8025   -10661   -12337   -12573   -11729 
  -10385    -8785    -6958    -4970    -3357    -3137    -4811    -7699 
  -10508   -12279   -12798   -12349   -11182    -9305    -6885    -4532 
   -2829    -1992    -2114    -3258    -5276    -7556    -9114    -9290 
   -8306    -7029    -6222    -6037    -6512    -8002   -10284   -12147 
  -12641   -11967   -10939    -9988    -8885    -7461    -6177    -5759 
   -6492    -7711    -8192    -7353    -5705    -4212    -3568    -3907 
   -5007    -6691    -8764   -10604   -11284   -10540    -9215    -8253 
   -7763    -7638    -8334   -10123   -12025   -12485   -10948    -8143 
   -5066    -2481    -1189    -1764    -3917    -6635    -8832    -9810 
   -9374    -7759    -5606    -3962    -3818    -5458    -8494   -12203 
  -15305   -16194   -14262   -10351    -5912    -2286     -328     -415 
   -2630    -6384   -10355   -13289   -14309   -12916    -9732    -6501 
   -4630    -4328    -5167    -6550    -7656    -7734    -6589    -4667 
   -2716    -1430    -1353    -2728    -5321    -8618   -11938   -14310 
  -14971   -14048   -12096    -9620    -7627    -7322    -8583    -9920 
  -10290    -9732    -8301    -5914    -3196    -1144     -152     -258 
   -1755    -4773    -8587   -11984   -14212   -15109   -14661   -12991 
  -10658    -8507    -6943    -5696    -4569    -3851    -3851    -4587 
   -5830    -7117    -8000    -8415    -8475    -8139    -7642    -7819 
   -9118   -10672   -11153   -10115    -8201    -6372    -4932    -3833 
   -3530    -4281    -5509    -6697    -7844    -8932    -9541    -9234 
   -8341    -7763    -7969    -8709    -9334    -9345    -8694    -7429 
   -5848    -4792    -4790    -5531    -6527    -7660    -9047   -10574 
  -11705   -12043   -11816   -11390   -10691    -9494    -7972    -6547 
   -5622    -5546    -6068    -6268    -5633    -4567    -3916    -4316 
   -5632    -7287    -8978   -10465   -11322   -11316   -10605    -9635 
   -8876    -8490    -8354    -8275    -8024    -7307    -5931    -4208 
   -3012    -2985    -4003    -5730    -7997   -10385   -12056   -12264 
  -10865    -8352    -5593    -3532    -2921    -4068    -6612    -9610 
  -11971   -12867   -12136   -10389    -8526    -7254    -6777    -6688 
   -6589    -6597    -6722    -6619    -6190    -5598    -4960    -4477 
   -4455    -5225    -6800    -8499    -9595    -9934    -9573    -8717 
   -7940    -7821    -8396    -9154    -9773   -10386   -10754   -10254 
   -8945    -7400    -5922    -4843    -4529    -4848    -5504    -6457 
   -7554    -8386    -8745    -8649    -8005    -6819    -5668    -5496 
   -6820    -9070   -10879   -11270   -10395    -9045    -7707    -6334 
   -4969    -4144    -4405    -5859    -8126   -10338   -11551   -11365 
   -9999    -8054    -6241    -4926    -4225    -4549    -6144    -8211 
   -9490    -9495    -8521    -7051    -5695    -5081    -5513    -6777 
   -8208    -9200    -9670    -9761    -9446    -8645    -7576    -6830 
   -6886    -7596    -8337    -8598    -8280    -7522    -6427    -5187 
   -4407    -4833    -6523    -8682   -10377   -11069   -10598    -9074 
   -7006    -5101    -3805    -3479    -4513    -6658    -8966   -10628 
  -11299   -10897    -9602    -7871    -6277    -5325    -5251    -5892 
   -6893    -8075    -9438   -10734   -11317   -10798    -9673    -8786 
   -8340    -7997    -7491    -6664    -5574    -4745    -4702    -5462 
   -6744    -8256    -9579   -10177    -9915    -9232    -8423    -7373 
   -6262    -5648    -5674    -5970    -6210    -6217    -5859    -5364 
   -5396    -6421    -8202   -10132   -11760   -12865   -13298   -12856 
  -11450    -9361    -7094    -5196    -4150    -4051    -4531    -5195 
   -5820    -6270    -6556    -6860    -7248    -7626    -8035    -8550 
   -9003    -9164    -9079    -8982    -8839    -8343    -7556    -7057 
   -7276    -8046    -8822    -9152    -9008    -8535    -7640    -6340 
   -5184    -4728    -5026    -5921    -7139    -8126    -8405    -7927 
   -6942    -5783    -4765    -4343    -5098    -7106    -9701   -12091 
  -13812   -14607   -14191   -12388    -9560    -6631    -4585    -3869 
   -4222    -5084    -6071    -6877    -7112    -6611    -5791    -5399 
   -5805    -6824    -8138    -9425   -10318   -10624   -10369    -9635 
   -8527    -7241    -6112    -5472    -5479    -6137    -7260    -8400 
   -9084    -9161    -8768    -8051    -7229    -6715    -6683    -6822 
   -6958    -7338    -7964    -8377    -8290    -7795    -7001    -6023 
   -5323    -5506    -6611    -8014    -9195   -10187   -11021   -11207 
  -10333    -8672    -6767    -5057    -4017    -3943    -4726    -6141 
   -7965    -9718   -10763   -10765    -9822    -8159    -6075    -4208 
   -3263    -3514    -4921    -7134    -9336   -10828   -11458   -11353 
  -10710    -9747    -8773    -8132    -7801    -7510    -7314    -7356 
   -7399    -7149    -6668    -6220    -6027    -6119    -6354    -6672 
   -7137    -7733    -8274    -8488    -8315    -8083    -8226    -8832 
   -9523    -9813    -9541    -8845    -7861    -6733    -5755    -5101 
   -4643    -4321    -4318    -4845    -5897    -7175    -8345    -9246 
   -9767    -9997   -10230   -10324    -9776    -8608    -7326    -6207 
