Origin Time       2024/04/02 04:24:00
Lat.              40.133
Long.             141.712
Depth. (km)       71
Mag.              6.0
Station Code      KSRH09
Station Lat.      42.9856
Station Long.     143.9841
Station Height(m) -73
Record Time       2024/04/02 04:25:31
Sampling Freq(Hz) 100Hz
Duration Time(s)  174
Dir.              3
Scale Factor      2940(gal)/6170270
Max. Acc. (gal)   0.701
Last Correction   2024/04/02 04:25:16
Memo.             
[...]
  155354   155198   155110   155200   155321   155337   155338   155322 
  155202   155139   155234   155309   155265   155201   155183   155138 
  155049   155035   155074   155051   155037   155060   155033   155029 
  155152   155321   155378   155286   155210   155238   155227   155182 
  155223   155270   155283   155415   155615   155627   155524   155521 
  155472   155313   155226   155168   155094   155100   155129   155113 
  155120   155187   155241   155227   155243   155369   155474   155403 
  155264   155282   155393   155389   155327   155290   155184   155060 
  155062   155140   155202   155250   155256   155207   155194   155274 
  155355   155342   155270   155210   155196   155260   155363   155400 
  155388   155361   155296   155304   155396   155381   155350   155451 
  155493   155386   155287   155321   155457   155549   155558   155503 
  155364   155253   155252   155249   155191   155160   155241   155362 
  155360   155349   155521   155700   155670   155547   155447   155346 
  155285   155268   155235   155214   155239   155266   155269   155253 
  155257   155295   155296   155249   155259   155349   155418   155435 
  155459   155479   155445   155400   155402   155404   155349   155283 
  155293   155306   155219   155188   155246   155181   155092   155165 
  155265   155267   155231   155253   155320   155346   155343   155347 
  155329   155269   155144   155035   155071   155187   155264   155288 
  155293   155343   155428   155468   155469   155465   155452   155436 
  155402   155329   155277   155283   155314   155362   155427   155480 
  155514   155546   155558   155512   155435   155351   155263   155292 
  155438   155480   155423   155434   155443   155407   155436   155476 
  155392   155265   155294   155402   155342   155173   155135   155232 
  155279   155216   155158   155192   155253   155232   155124   155026 
  155062   155235   155335   155259   155178   155222   155314   155282 
  155118   155018   155059   155176   155318   155381   155326   155266 
  155227   155151   155109   155171   155245   155232   155204   155327 
  155536   155589   155456   155276   155176   155212   155331   155440 
  155476   155467   155474   155406   155282   155294   155344   155241 
  155163   155274   155424   155472   155453   155418   155358   155247 
  155134   155106   155100   155039   155092   155285   155339   155231 
  155173   155187   155136   155027   155053   155174   155160   155157 
  155369   155548   155440   155181   155017   155014   155080   155149 
  155223   155303   155376   155424   155461   155531   155560   155437 
  155277   155249   155307   155371   155450   155476   155414   155418 
  155521   155508   155360   155329   155438   155429   155295   155263 
  155340   155431   155473   155411   155332   155280   155200   155154 
  155134   155103   155089   155037   155066   155276   155420   155437 
  155452   155403   155319   155357   155498   155546   155405   155239 
  155142   155054   155010   155048   155159   155259   155241   155221 
  155306   155400   155430   155382   155309   155208   155069   155081 
  155205   155234   155254   155338   155476   155636   155638   155556 
  155586   155605   155508   155372   155239   155170   155208   155273 
  155294   155262   155210   155224   155321   155372   155331   155306 
  155324   155309   155232   155163   155160   155172   155155   155156 
  155177   155136   155074   155222   155521   155600   155505   155454 
  155361   155240   155179   155120   155021   154926   154986   155192 
  155300   155313   155383   155438   155418   155321   155142   155032 
  155082   155134   155157   155293   155485   155571   155597   155611 
  155523   155366   155266   155227   155258   155344   155379   155356 
  155344   155403   155545   155636   155557   155342   155156   155088 
  155009   154943   155026   155094   155049   155113   155297   155324 
  155178   155075   155078   155174   155313   155402   155476   155548 
  155556   155564   155588   155517   155391   155346   155350   155366 
  155441   155419   155248   155269   155475   155535   155520   155529 
  155458   155380   155340   155276   155208   155225   155400   155556 
  155530   155525   155580   155469   155287   155262   155320   155356 
  155396   155380   155293   155272   155321   155318   155264   155250 
  155271   155306   155410   155533   155531   155409   155325   155313 
  155266   155258   155331   155268   155122   155177   155386   155501 
  155477   155452   155367   155129   155085   155388   155532   155307 
  155166   155283   155379   155433   155580   155618   155397   155197 
  155224   155287   155269   155279   155264   155123   154995   155021 
  155112   155112   155073   155164   155386   155553   155482   155281 
  155208   155241   155245   155193   155044   154935   155037   155172 
  155227   155309   155333   155275   155326   155409   155329   155236 
  155274   155244   155058   154963   155042   155059   155029   155209 
  155415   155361   155300   155366   155319   155216   155264   155348 
  155266   155147   155272   155478   155428   155318   155421   155546 
  155539   155506   155439   155346   155344   155388   155377   155275 
  155145   155150   155255   155275   155205   155139   155103   155030 
  154937   154997   155142   155190   155243   155323   155305   155289 
  155353   155373   155338   155329   155270   155095   155017   155159 
  155226   155139   155193   155330   155348   155345   155386   155397 
  155342   155260   155126   154936   154965   155248   155379   155308 
  155300   155323   155279   155265   155287   155192   155024   155058 
  155245   155293   155333   155537   155561   155269   155092   155212 
  155364   155420   155465   155486   155427   155350   155325   155315 
  155280   155277   155339   155403   155469   155498   155389   155290 
  155345   155425   155377   155174   155041   155185   155394   155456 
  155403   155284   155230   155331   155438   155482   155557   155636 
  155595   155423   155310   155354   155301   155125   155140   155318 
  155429   155454   155386   155256   155192   155166   155084   155000 
  154967   155032   155269   155511   155600   155632   155560   155321 
  155102   155047   155214   155464   155496   155408   155449   155502 
  155450   155373   155351   155367   155370   155375   155351   155265 
  155237   155320   155384   155359   155324   155329   155383   155516 
  155666   155708   155634   155478   155279   155154   155153   155202 
  155264   155342   155375   155348   155446   155683   155722   155603 
  155571   155433   155182   155144   155222   155144   155039   155128 
  155244   155220   155330   155575   155497   155165   155103   155288 
  155298   155143   155051   154940   154803   154842   155022   155216 
  155348   155375   155408   155443   155381   155295   155201   155061 
  154957   154992   155205   155389   155314   155173   155165   155188 
  155212   155298   155394   155317   155062   155021   155315   155510 
  155376   155192   155236   155367   155421   155486   155417   155130 
  155067   155307   155325   155087   155028   155163   155264   155379 
  155520   155480   155304   155282   155397   155375   155214   155145 
  155207   155299   155388   155383   155276   155306   155493   155528 
  155418   155460   155581   155526   155374   155168   154830   154695 
  154968   155190   155130   155118   155309   155521   155578   155426 
  155187   155077   155157   155271   155336   155408   155465   155507 
  155601   155665   155604   155445   155278   155212   155189   155156 
  155250   155400   155371   155274   155400   155634   155604   155406 
  155346   155330   155346   155484   155495   155332   155280   155320 
  155314   155374   155492   155460   155337   155333   155323   155157 
  155024   155079   155198   155249   155312   155403   155332   155195 
  155210   155237   155189   155163   155199   155308   155412   155426 
  155349   155191   155034   154961   155054   155326   155464   155338 
  155325   155449   155365   155195   155138   154995   154828   154995 
  155312   155358   155320   155471   155635   155653   155525   155360 
  155355   155450   155395   155340   155512   155625   155557   155611 
  155673   155472   155264   155296   155389   155323   155189   155214 
  155268   155128   155021   155106   155201   155262   155349   155381 
  155198   154903   154884   155178   155403   155361   155230   155268 
  155323   155247   155307   155288   154912   154783   155076   155291 
  155483   155717   155670   155350   155016   154906   155026   155085 
  155073   155190   155343   155415   155483   155540   155440   155264 
  155231   155179   155019   155065   155344   155551   155519   155371 
  155425   155627   155645   155537   155482   155469   155424   155234 
  155048   155044   155051   155074   155218   155377   155565   155707 
  155587   155326   155160   155094   155118   155238   155281   155178 
  155183   155363   155506   155456   155245   155146   155239   155261 
  155226   155329   155425   155421   155463   155476   155394   155365 
  155389   155375   155235   155035   155055   155362   155713   155790 
  155487   155100   154880   154823   154877   154925   155002   155292 
  155622   155689   155557   155394   155309   155320   155171   154865 
  154810   154994   155220   155513   155684   155574   155385   155319 
  155291   155147   155103   155366   155564   155433   155408   155660 
  155649   155389   155345   155265   155075   155263   155628   155632 
  155376   155276   155391   155440   155405   155403   155298   155215 
  155369   155520   155483   155361   155232   155173   155184   155159 
  155160   155282   155379   155404   155450   155430   155459   155641 
  155516   155000   154669   154749   155059   155343   155423   155313 
  155089   155059   155408   155661   155551   155390   155238   155079 
  155099   155205   155239   155278   155240   155121   155263   155567 
  155606   155517   155484   155352   155190   155089   154987   154991 
  155179   155401   155465   155449   155538   155538   155390   155375 
  155385   155359   155484   155567   155407   155136   154963   154964 
  154988   155056   155286   155429   155334   155259   155411   155638 
  155596   155316   155172   155159   155058   155068   155311   155359 
  155077   154951   155085   155150   155209   155385   155483   155406 
  155284   155290   155353   155287   155239   155310   155349   155339 
  155208   154983   154964   155076   155138   155216   155175   155082 
  155224   155333   155208   155209   155311   155163   154968   155081 
  155379   155618   155816   155930   155723   155341   155266   155460 
  155476   155281   155105   155024   155075   155228   155403   155499 
  155462   155482   155607   155589   155401   155196   155084   155036 
  154923   154930   155137   155251   155386   155650   155614   155253 
  154989   154966   155009   155016   155220   155560   155547   155356 
  155459   155612   155535   155366   155168   155068   155250   155478 
  155453   155316   155253   155258   155296   155268   155163   155133 
  155223   155349   155510   155674   155648   155376   154968   154622 
  154674   155048   155225   155187   155285   155498   155620   155594 
  155446   155145   154751   154616   154913   155291   155459   155416 
  155272   155278   155418   155414   155371   155340   155130   155098 
  155552   155914   155824   155667   155577   155366   155065   154950 
  155159   155373   155436   155547   155511   155263   155257   155447 
  155422   155164   154995   155227   155606   155678   155539   155438 
  155421   155416   155329   155314   155428   155480   155601   155890 
  155974   155638   155191   154945   154759   154550   154641   155006 
  155408   155919   156109   155489   154707   154500   154697   154810 
  154774   155046   155695   156229   156515   156530   156078   155357 
  154704   154394   154640   155124   155428   155544   155502   155349 
  155202   154931   154555   154599   155181   155733   155881   155639 
  155294   155167   155074   154843   154885   155392   155915   156088 
  156049   156048   155955   155559   155118   154963   154924   154780 
  154749   154998   155216   155114   154912   154959   155139   155183 
  155264   155602   155890   155871   155797   155735   155548   155407 
  155334   155217   155132   154991   154901   155101   155177   154812 
  154405   154224   154228   154398   154753   155258   155586   155516 
  155359   155333   155328   155297   155363   155586   155667   155558 
  155734   156040   155878   155470   155327   155314   155135   154858 
  154679   154724   154906   154938   154689   154412   154483   154916 
  155329   155440   155275   155071   155151   155439   155544   155495 
  155522   155576   155678   155706   155331   154927   155076   155385 
  155313   155157   155313   155513   155489   155386   155269   155195 
  155271   155441   155649   155714   155474   155177   154998   154882 
  154998   155405   155714   155677   155526   155601   155856   155928 
  155679   155279   154942   154813   154843   154861   154819   154808 
  154860   154916   155185   155890   156498   156478   156290   156315 
  156215   155918   155741   155697   155479   155060   154883   155100 
  155338   155363   155299   155276   155217   155060   154908   154821 
  154861   154992   155040   155123   155415   155730   156031   156447 
  156771   156695   156259   155778   155348   154992   154974   155203 
  155374   155617   155916   155952   155743   155414   154912   154380 
  154180   154492   155076   155514   155632   155409   154857   154438 
  154617   155024   155305   155661   155904   155898   155994   155925 
  155296   154537   154144   154295   154822   155353   155729   155740 
  155414   155198   155050   154711   154287   153984   154066   154405 
  154639   154948   155362   155630   155917   156127   155984   155800 
  155798   155729   155534   155413   155302   154999   154849   155236 
  155597   155328   154886   154772   154718   154624   154778   155028 
  155096   155144   155267   155336   155411   155624   155839   155809 
  155625   155580   155615   155624   155785   155930   155753   155536 
  155560   155656   155528   154967   154279   154094   154428   154687 
  154596   154641   155121   155460   155294   154953   154640   154357 
  154353   154861   155515   155714   155483   155272   155360   155652 
  155770   155591   155307   155138   155359   155855   156130   156151 
  156075   155883   155675   155357   154978   154928   154998   154900 
  154903   155137   155594   156085   156232   156108   155982   155850 
  155641   155453   155441   155517   155560   155742   155955   155700 
  155023   154572   154608   154866   155121   155340   155535   155605 
  155438   155135   154978   155156   155428   155484   155490   155523 
  155325   155052   155008   154978   154873   155016   155276   155221 
  155056   155153   155295   155137   154784   154621   154675   154667 
  154741   155109   155470   155643   155709   155538   155208   155165 
  155471   155655   155455   155198   155168   155145   154965   154804 
  154668   154542   154690   155211   155695   155739   155664   155854 
  156001   156004   156084   155993   155748   155778   155781   155462 
  155361   155568   155584   155395   155285   155352   155461   155352 
  155126   155086   155237   155500   155730   155662   155417   155305 
  155134   154747   154547   154707   154949   155166   155458   155790 
  155949   155859   155701   155600   155537   155426   155201   154977 
  154944   154996   154895   154694   154574   154720   155216   155683 
  155759   155528   155069   154607   154512   154559   154527   154763 
  155173   155172   154834   154795   155125   155424   155687   156002 
  156022   155620   155234   155029   154810   154701   154919   155317 
  155614   155798   155917   155779   155543   155616   155593   155028 
  154528   154465   154481   154743   155469   156028   156028   155955 
  156032   155832   155451   155473   155657   155427   155085   155124 
  155300   155238   155168   155273   155232   155146   155399   155738 
  155889   155924   155673   155112   154779   154973   155249   155245 
  155302   155563   155576   155328   155137   154824   154380   154242 
  154344   154459   154825   155380   155640   155436   155059   154990 
  155418   155923   156030   155852   155781   155848   155789   155582 
  155484   155598   155609   155170   154613   154499   154711   154929 
  155108   155275   155470   155610   155641   155669   155661   155580 
  155438   155183   155047   155212   155457   155599   155520   155206 
  154989   155069   155217   155128   154865   154801   154934   155045 
  155303   155642   155591   155280   155166   155210   155276   155360 
  155412   155458   155563   155810   156106   156133   155878   155517 
  155188   155068   154984   154843   154913   155092   155309   155646 
  155630   155211   155081   155343   155587   155682   155732   155774 
  155650   155394   155309   155336   155191   155025   155098   155214 
  155264   155460   155635   155482   155202   155160   155397   155576 
  155464   155308   155257   155152   155110   155229   155200   154982 
  154888   154822   154520   154220   154259   154555   154842   155039 
  155305   155645   155950   156310   156534   156280   155818   155499 
  155344   155269   154989   154678   154898   155267   155169   155012 
  155078   154916   154570   154636   155131   155521   155592   155602 
  155659   155567   155347   155214   155188   155186   155245   155488 
  155812   155952   155967   156003   155889   155556   155215   154980 
  154941   155207   155518   155523   155378   155369   155337   155107 
  154852   154688   154595   154662   154930   155249   155388   155242 
  155007   154911   154958   155079   155217   155314   155401   155492 
  155499   155417   155336   155383   155604   155708   155513   155296 
  155118   154965   154991   154947   154777   154864   155113   155373 
  155761   156022   155984   155912   155943   156023   155967   155618 
  155273   155246   155295   155110   154827   154749   154889   155061 
  155271   155539   155728   155852   155975   155961   155797   155698 
  155682   155596   155401   155190   155149   155211   155186   155168 
  154993   154468   154093   154260   154624   154790   154778   154761 
  154790   154879   155055   155152   155048   155008   155160   155270 
  155336   155425   155326   155094   155165   155578   155822   155817 
  155970   156000   155443   154863   154882   155176   155269   155238 
  155345   155578   155834   156151   156367   156188   155869   155833 
  155881   155794   155687   155451   155106   155037   155212   155277 
  155331   155452   155247   154763   154559   154699   154949   155363 
  155842   156045   155954   155745   155371   154973   154897   155048 
  155123   155117   155117   155147   155197   155092   154743   154564 
  154949   155435   155425   155256   155371   155506   155451   155390 
  155370   155251   154989   154768   154792   154954   155094   155261 
  155457   155527   155361   155131   155073   155039   154877   154872 
  155180   155367   155205   155201   155527   155734   155759   155794 
