Origin Time       2024/04/02 04:24:00
Lat.              40.133
Long.             141.712
Depth. (km)       71
Mag.              6.0
Station Code      KSRH07
Station Lat.      43.1359
Station Long.     144.3274
Station Height(m) -184
Record Time       2024/04/02 04:26:04
Sampling Freq(Hz) 100Hz
Duration Time(s)  120
Dir.              2
Scale Factor      2942(gal)/8224139
Max. Acc. (gal)   1.798
Last Correction   2024/04/02 04:26:05
Memo.             
[...]
   59598    59539    59304    59331    59535    59624    59780    59865 
   59683    59629    59726    59672    59683    59756    59609    59517 
   59622    59610    59587    59680    59632    59503    59476    59433 
   59451    59606    59595    59437    59490    59614    59497    59310 
   59325    59513    59657    59671    59702    59695    59522    59506 
   59709    59705    59618    59701    59625    59447    59485    59441 
   59297    59493    59773    59733    59655    59810    60085    60207 
   59975    59730    59830    59930    59814    59721    59648    59603 
   59645    59589    59618    59973    60255    60157    59807    59428 
   59263    59248    59235    59389    59594    59590    59605    59692 
   59628    59549    59541    59490    59486    59553    59647    59796 
   59894    59864    59695    59422    59374    59509    59429    59341 
   59409    59412    59611    59995    60065    59944    59818    59589 
   59464    59493    59566    59764    59759    59381    59285    59594 
   59638    59385    59297    59443    59671    59806    59701    59509 
   59422    59428    59544    59722    59721    59513    59447    59701 
   59930    59817    59598    59583    59636    59549    59418    59370 
   59418    59620    59788    59636    59456    59628    59846    59865 
   59836    59761    59783    60045    60138    59914    59730    59652 
   59637    59657    59578    59557    59545    59309    59244    59431 
   59441    59479    59638    59652    59746    59817    59451    59154 
   59425    59819    59983    59977    59748    59433    59435    59647 
   59679    59668    59649    59373    59219    59397    59464    59579 
   59895    59917    59730    59613    59413    59333    59516    59741 
   59945    59926    59603    59350    59319    59509    59867    59944 
   59668    59529    59536    59532    59637    59618    59327    59167 
   59341    59687    59972    59975    59759    59514    59335    59325 
   59425    59497    59525    59501    59503    59587    59644    59759 
   59941    59979    59989    59996    59703    59310    59262    59518 
   59778    59860    59799    59699    59653    59827    60075    59969 
   59598    59366    59367    59575    59852    59906    59776    59648 
   59494    59444    59552    59593    59678    59860    59724    59339 
   59131    59077    59224    59601    59815    59852    59977    59979 
   59783    59671    59630    59595    59601    59532    59470    59597 
   59746    59792    59807    59745    59624    59607    59661    59647 
   59551    59395    59292    59401    59638    59799    59926    60077 
   60026    59667    59297    59243    59516    59791    59756    59583 
   59648    59842    59850    59737    59661    59620    59643    59589 
   59319    59236    59563    59867    59918    59822    59601    59437 
   59524    59653    59591    59489    59555    59582    59387    59363 
   59641    59780    59752    59752    59607    59425    59552    59786 
   59765    59602    59491    59343    59150    59163    59381    59520 
   59526    59568    59717    59857    59850    59798    59763    59589 
   59431    59572    59779    59791    59755    59710    59571    59460 
   59508    59663    59768    59765    59819    59954    59837    59452 
   59297    59540    59744    59611    59400    59427    59582    59571 
   59421    59385    59443    59383    59333    59518    59749    59842 
   59846    59740    59672    59884    60102    59954    59675    59513 
   59320    59221    59382    59436    59364    59590    59857    59807 
   59755    59775    59582    59362    59391    59444    59364    59456 
   59741    59826    59809    59934    59915    59719    59717    59848 
   59864    59794    59659    59443    59337    59402    59387    59279 
   59290    59444    59699    59871    59768    59621    59528    59335 
   59285    59470    59576    59633    59733    59729    59670    59705 
   59837    59892    59787    59907    60185    59898    59341    59263 
   59290    59194    59302    59418    59539    59819    59790    59505 
   59517    59657    59751    59894    59886    59772    59698    59574 
   59614    59740    59583    59551    59811    59848    59740    59740 
   59730    59746    59707    59599    59601    59525    59408    59444 
   59331    59219    59513    59840    59981    60080    59926    59717 
   59852    59937    59751    59752    59904    59767    59476    59409 
   59529    59628    59590    59410    59277    59395    59656    59846 
   59906    59761    59475    59316    59256    59194    59244    59319 
   59386    59632    59833    59815    59818    59745    59574    59701 
   59872    59730    59732    59908    59868    59821    59763    59535 
   59460    59447    59366    59567    59703    59449    59328    59413 
   59536    59749    59715    59526    59597    59621    59493    59479 
   59386    59239    59309    59471    59719    60038    59985    59556 
   59339    59493    59698    59864    60112    60305    60161    59730 
   59390    59390    59455    59329    59366    59670    59733    59609 
   59690    59729    59464    59267    59472    59832    59888    59706 
   59691    59821    59786    59580    59424    59413    59401    59371 
   59622    59995    59981    59721    59532    59358    59308    59460 
   59556    59475    59301    59208    59294    59445    59714    60046 
   59979    59705    59787    59796    59524    59613    59813    59630 
   59556    59697    59705    59656    59528    59428    59618    59746 
   59562    59339    59233    59408    59779    59884    59849    59875 
   59702    59618    59806    59722    59464    59459    59445    59414 
   59665    59861    59641    59316    59231    59393    59761    60076 
   59949    59652    59620    59644    59655    59709    59494    59260 
   59491    59776    59775    59633    59417    59483    59832    59749 
   59456    59589    59741    59780    60034    60085    59806    59753 
   59827    59697    59549    59509    59598    59730    59574    59350 
   59474    59674    59795    59881    59710    59491    59535    59721 
   59994    60118    59890    59679    59547    59312    59286    59454 
   59481    59521    59680    59752    59728    59771    59898    59895 
   59663    59470    59478    59503    59485    59470    59432    59400 
   59329    59277    59431    59629    59705    59786    59864    59958 
   60025    59917    59859    59722    59223    58992    59335    59690 
   59819    59663    59397    59436    59606    59860    60261    60172 
   59692    59520    59428    59385    59632    59800    59869    59867 
   59533    59293    59354    59370    59591    59904    59761    59567 
   59606    59489    59397    59584    59844    59967    59788    59572 
   59598    59487    59255    59223    59169    59167    59422    59598 
   59745    59996    59950    59765    59776    59651    59525    59688 
   59556    59121    59140    59533    59872    60030    59836    59501 
   59378    59386    59468    59506    59394    59390    59493    59567 
   59748    59837    59671    59578    59610    59625    59687    59805 
   59891    59757    59464    59406    59472    59409    59421    59470 
   59529    59840    60106    60006    59687    59292    59213    59551 
   59632    59490    59629    59705    59641    59832    60010    59969 
   59895    59725    59437    59246    59337    59598    59629    59547 
   59701    59782    59709    59844    59899    59610    59355    59258 
   59298    59571    59736    59583    59510    59616    59657    59709 
   59701    59562    59682    59844    59586    59400    59351    59078 
   59109    59398    59429    59578    59796    59805    59942    60002 
   59892    59926    59740    59518    59699    59715    59657    59755 
   59359    59084    59647    60002    59798    59606    59389    59366 
   59676    59856    59921    59911    59665    59440    59300    59269 
   59526    59772    59876    59898    59649    59571    59892    59940 
   59729    59595    59356    59239    59382    59478    59624    59692 
   59505    59606    59865    59617    59378    59705    60042    60003 
   59769    59586    59694    59773    59441    59297    59617    59806 
   59846    59877    59634    59356    59344    59401    59532    59761 
   59755    59578    59686    59944    59923    59811    59821    59761 
   59699    59721    59663    59606    59498    59259    59364    59736 
   59632    59242    59188    59304    59336    59379    59455    59578 
   59636    59501    59425    59321    59001    59185    60064    60575 
   60288    59701    59346    59578    59964    59844    59645    59707 
   59583    59481    59748    59853    59638    59633    59729    59564 
   59458    59551    59513    59443    59455    59358    59304    59300 
   59297    59733    60185    59988    59906    60019    59574    59371 
   59795    59899    59751    59572    59274    59467    59859    59640 
   59350    59378    59456    59616    59576    59374    59525    59562 
   59216    59404    60080    60211    59757    59467    59633    59791 
   59499    59159    59233    59412    59431    59537    59833    60003 
   59832    59659    59790    59933    59908    59832    59775    59898 
   60056    59958    59805    59614    59363    59487    59687    59470 
   59431    59613    59436    59505    60008    59941    59535    59536 
   59456    59213    59298    59432    59528    59788    59850    59680 
   59694    59840    59908    59927    59888    59676    59472    59548 
   59491    59117    59148    59514    59568    59638    59954    60137 
   60069    59755    59421    59460    59616    59497    59364    59636 
   60089    60049    59582    59440    59661    59707    59537    59493 
   59606    59610    59522    59640    59863    59787    59489    59544 
   59954    59969    59620    59590    59505    59130    59352    59856 
   59595    59215    59402    59668    59809    59795    59606    59478 
   59332    59310    59494    59343    59319    59791    59692    59336 
   59688    60004    60023    60008    59616    59471    59887    59869 
   59543    59458    59269    59208    59628    59977    59989    59922 
   59886    59934    59805    59266    59004    59478    59926    59852 
   59637    59582    59733    59832    59483    59135    59522    60070 
   59848    59366    59435    59671    59570    59422    59583    59771 
   59495    59208    59578    59950    59830    59764    59794    59779 
   59597    58977    58862    59730    60137    59786    59586    59576 
   59661    59599    59378    59710    60046    59634    59386    59329 
   58819    58819    59509    59652    59502    59857    60284    60394 
   60285    59996    59539    59084    59004    59119    59103    59443 
   59972    60077    60247    60335    59710    59034    58664    58585 
   59107    59553    59664    59998    60062    59922    60373    60736 
   60559    60475    60251    59737    59703    60064    59883    59147 
   58799    59047    59036    58723    59019    59582    59521    59486 
   59887    59756    59256    59373    59590    59518    59775    59956 
   59617    59544    59792    59741    59744    60170    60608    60552 
   59914    59282    59119    59105    59270    59710    59732    59443 
   59560    59695    59625    59640    59331    58726    58525    58996 
   59984    60604    60316    59994    59784    59205    58951    59224 
   59512    59998    60359    60157    60039    60118    59898    59578 
   59105    58342    58024    58399    58931    59364    59587    59869 
   60536    60867    60424    59961    59868    59981    60334    60602 
   60227    59529    59413    60004    60586    60515    59675    58600 
   57877    57640    58214    59448    59896    59120    58548    58685 
   59017    59877    61398    62733    63329    63197    62438    60802 
   58244    56349    56211    56636    57438    59258    60828    61426 
   61549    61099    60658    60455    59224    57208    56065    56322 
   57487    58581    59113    59958    61510    62754    62968    62195 
   60685    59104    58283    58369    58738    58723    58344    57869 
   57222    57230    59082    61784    63578    64122    63448    61861 
   59791    57531    56454    56932    57466    58288    59664    59852 
   59212    59140    59093    59545    60863    60822    59285    58891 
   59830    60482    60505    60264    60097    59921    59250    58533 
   58487    58800    59260    59981    60886    61788    61492    59678 
   58612    59062    59780    60814    61416    60168    58382    57630 
   57913    59022    59694    59513    60100    60847    60322    59715 
   59031    57592    57192    57925    58064    58364    59617    60848 
   61526    61271    60230    59811    60346    60801    60574    59728 
   58919    58459    57829    57469    58008    58472    58677    59957 
   61878    62649    62171    61137    59606    58511    58943    59865 
   60026    59703    58799    57366    56968    58318    60474    62244 
   62293    60547    58916    58781    60038    61460    61423    60412 
   59906    59445    58567    58009    58240    59421    60656    60677 
   60100    59607    59171    59305    58961    57204    56519    58050 
   59466    60151    61042    61418    60789    59935    58893    57485 
   56691    57069    58229    60388    63112    64038    62167    59953 
   59860    60998    60814    58885    56984    56555    57946    59850 
   59883    58226    57318    57603    58445    60524    63283    64474 
   64034    63698    63205    61288    58552    56116    54596    55108 
   57222    58361    58237    59113    61406    63504    64054    62661 
   60157    58116    57852    59084    59370    57704    56783    58318 
   60619    62008    61812    60197    59004    59071    59177    59184 
   59408    59198    59057    59486    59209    58315    58552    59999 
   61511    62140    61188    59462    58176    57010    56552    58509 
   61434    62147    60868    60053    60420    60705    59962    59378 
   60362    61385    60255    57981    56751    56664    56782    57088 
   58193    59962    61570    62969    64057    63471    61190    59171 
   58009    57315    57408    58106    59435    61410    61982    60448 
   59120    58418    57484    57685    59448    60839    61042    60840 
   60620    59845    58637    58634    60146    61141    60604    59454 
   59004    59790    60176    58673    57487    58850    61033    61866 
   61422    60060    58087    56843    57453    59159    60034    59044 
   57248    56663    57790    59621    61366    62560    63094    63166 
   62546    61360    60035    58518    57618    58018    58279    57820 
   57964    58691    59027    58869    58631    59119    60177    60085 
   58811    58714    60590    62488    62857    62233    61408    60100 
   58341    57314    57947    59590    60675    60458    59759    59876 
   60772    60879    59275    57067    56049    57099    59637    61897 
   62464    61589    60548    60060    60127    60656    60613    58920 
   57512    58793    61318    62733    62330    59746    56737    56127 
   57354    58571    58957    57874    57092    58305    59259    59486 
   60829    61398    60030    59204    59474    60328    61384    60832 
   59379    58932    58545    58587    59902    60543    60642    61241 
   60736    59563    58984    58145    58307    59900    59805    58480 
   58842    60311    61630    62217    61222    59609    58521    57727 
   57915    59206    59946    59755    59314    58722    58629    59464 
   60133    59844    59556    60639    62588    63274    61925    59859 
   58680    58773    58749    57639    56579    56403    56930    58315 
   59969    60933    61686    62449    62260    61231    60523    60308 
   59660    58047    56548    56471    57103    57427    57908    58722 
   59884    61447    61659    59957    59355    61017    62453    62264 
   60945    59637    59857    61101    61283    60242    58573    56832 
   57075    59216    60058    59258    59140    60277    61805    62337 
   61261    60212    60023    59611    59005    58846    58649    57935 
   57169    57472    58799    59039    57696    57281    58843    60889 
   62359    62853    62478    61948    60810    58576    56779    56289 
   56114    56085    57036    58959    60673    61441    62139    62846 
   62014    60030    59086    59285    59319    59132    59103    59154 
   59247    59248    59192    59292    59463    59867    60687    61560 
   62206    62027    60588    59324    58951    57964    56478    56338 
   57973    60220    61296    60910    60596    60276    59077    58318 
   59001    59927    60129    59999    60077    60201    59964    59340 
   58795    59127    60231    60875    60961    61276    61479    61102 
   60081    58347    56920    56772    57249    57917    59059    59953 
   59710    58828    58058    57595    58027    59557    60674    60127 
   59093    59250    60208    60710    60752    60957    61191    60758 
   59633    58970    59443    60188    60502    60542    60149    59250 
   58517    58595    59535    60625    60787    60108    59929    60362 
   60219    59915    60667    61469    60980    60280    60377    60319 
   59553    58698    58214    58172    58081    57703    57913    58893 
   59827    60594    61303    61670    61275    60083    59459    60303 
   60903    59972    58720    57981    57271    56718    56878    57584 
   58332    58873    59402    60613    62256    62325    60249    58313 
   57863    58351    59460    60291    59532    57738    56943    58260 
   60224    60793    60598    60795    60849    60813    60691    59377 
   57893    58378    60068    61244    61520    60809    59881    60089 
   61038    61657    61830    61214    59817    58938    59213    59898 
   60150    59670    59108    59189    59290    58801    58170    57628 
   57287    57623    58684    59861    60249    59896    59809    59529 
   58617    58815    60172    60817    61123    61441    60525    58920 
   57967    57680    58357    59930    60590    59525    58387    58514 
   59603    60906    61574    61284    60740    60015    58777    57960 
   58037    58328    58756    59250    59761    60983    62405    62387 
   60658    58739    58491    59663    60079    59325    58662    58353 
   58310    58468    58330    58199    58561    59186    60259    61422 
   61531    61087    61011    60845    60624    60440    59481    58087 
   57121    57033    58783    61368    62083    60893    59259    58081 
   58299    59182    59328    59167    59163    59649    60994    61975 
   62060    62017    61649    61222    61082    60380    59467    58595 
   56879    55432    55397    56281    58267    60173    60114    59617 
   60104    60588    61169    61777    61079    59701    58989    58494 
   57844    57458    57375    57638    58456    59485    60116    60413 
   60921    61658    62127    61958    61034    59513    58029    57373 
   57712    58309    58594    59178    60542    61862    62456    62425 
   61572    60033    59147    59618    60246    59683    58324    57684 
   58205    58841    58818    58386    58315    59136    60214    60863 
   61342    61346    60601    60126    60200    60299    60477    60061 
   58648    58095    59444    61102    61599    60741    59351    58847 
   59344    59787    59764    59498    59514    59826    59444    58538 
