Origin Time       2024/04/02 04:24:00
Lat.              40.133
Long.             141.712
Depth. (km)       71
Mag.              6.0
Station Code      KSRH08
Station Lat.      43.1603
Station Long.     143.8936
Station Height(m) 74
Record Time       2024/04/02 04:25:28
Sampling Freq(Hz) 100Hz
Duration Time(s)  120
Dir.              3
Scale Factor      2940(gal)/6170270
Max. Acc. (gal)   0.517
Last Correction   2024/04/02 04:25:13
Memo.             
[...]
  -62489   -62465   -62423   -62394   -62409   -62475   -62527   -62527 
  -62562   -62608   -62554   -62492   -62486   -62429   -62350   -62350 
  -62377   -62396   -62447   -62485   -62454   -62391   -62356   -62379 
  -62471   -62558   -62563   -62545   -62579   -62621   -62611   -62548 
  -62492   -62518   -62591   -62604   -62579   -62605   -62664   -62667 
  -62587   -62462   -62375   -62399   -62473   -62536   -62634   -62697 
  -62612   -62477   -62402   -62358   -62338   -62370   -62438   -62496 
  -62523   -62535   -62512   -62452   -62454   -62552   -62617   -62615 
  -62631   -62639   -62602   -62581   -62583   -62579   -62580   -62595 
  -62646   -62702   -62677   -62579   -62485   -62421   -62374   -62346 
  -62367   -62423   -62431   -62367   -62322   -62343   -62370   -62349 
  -62320   -62370   -62485   -62553   -62538   -62474   -62402   -62367 
  -62352   -62327   -62346   -62442   -62540   -62544   -62489   -62458 
  -62424   -62353   -62310   -62323   -62388   -62508   -62631   -62675 
  -62646   -62666   -62748   -62723   -62617   -62605   -62631   -62584 
  -62543   -62579   -62641   -62686   -62696   -62639   -62548   -62475 
  -62407   -62350   -62350   -62445   -62588   -62643   -62617   -62634 
  -62634   -62516   -62389   -62371   -62423   -62489   -62556   -62575 
  -62538   -62496   -62465   -62447   -62441   -62442   -62452   -62465 
  -62478   -62469   -62415   -62366   -62380   -62442   -62516   -62550 
  -62512   -62455   -62437   -62410   -62345   -62343   -62453   -62599 
  -62687   -62654   -62534   -62476   -62531   -62605   -62624   -62598 
  -62586   -62612   -62638   -62624   -62559   -62506   -62500   -62465 
  -62382   -62364   -62431   -62455   -62417   -62431   -62491   -62532 
  -62570   -62588   -62562   -62524   -62466   -62394   -62382   -62458 
  -62609   -62745   -62740   -62622   -62523   -62478   -62416   -62324 
  -62293   -62351   -62430   -62520   -62616   -62615   -62499   -62375 
  -62322   -62347   -62411   -62482   -62582   -62691   -62727   -62656 
  -62532   -62443   -62449   -62491   -62499   -62526   -62559   -62520 
  -62474   -62479   -62483   -62479   -62468   -62460   -62504   -62527 
  -62460   -62419   -62449   -62493   -62556   -62621   -62660   -62684 
  -62692   -62661   -62587   -62562   -62644   -62717   -62705   -62642 
  -62547   -62467   -62441   -62432   -62443   -62541   -62651   -62594 
  -62419   -62349   -62408   -62471   -62504   -62513   -62498   -62462 
  -62406   -62349   -62295   -62286   -62403   -62567   -62608   -62537 
  -62475   -62464   -62466   -62458   -62443   -62420   -62422   -62526 
  -62687   -62732   -62641   -62574   -62572   -62560   -62537   -62537 
  -62546   -62541   -62525   -62524   -62519   -62500   -62498   -62501 
  -62500   -62497   -62462   -62411   -62415   -62477   -62503   -62452 
  -62381   -62321   -62280   -62271   -62294   -62338   -62387   -62424 
  -62445   -62453   -62413   -62311   -62242   -62258   -62271   -62290 
  -62392   -62501   -62543   -62551   -62567   -62602   -62580   -62457 
  -62384   -62485   -62648   -62728   -62723   -62690   -62633   -62539 
  -62424   -62371   -62449   -62553   -62552   -62497   -62462   -62458 
  -62512   -62620   -62707   -62688   -62588   -62515   -62519   -62543 
  -62539   -62555   -62624   -62672   -62637   -62545   -62477   -62479 
  -62525   -62569   -62599   -62621   -62610   -62562   -62541   -62556 
  -62561   -62566   -62561   -62522   -62511   -62561   -62578   -62511 
  -62444   -62415   -62397   -62400   -62418   -62439   -62469   -62457 
  -62408   -62396   -62406   -62415   -62441   -62471   -62485   -62472 
  -62447   -62455   -62503   -62548   -62540   -62491   -62500   -62575 
  -62611   -62602   -62593   -62573   -62539   -62507   -62467   -62388 
  -62308   -62325   -62393   -62393   -62367   -62385   -62413   -62432 
  -62443   -62447   -62460   -62470   -62467   -62461   -62450   -62463 
  -62548   -62642   -62621   -62543   -62596   -62746   -62757   -62603 
  -62459   -62414   -62504   -62643   -62646   -62577   -62597   -62624 
  -62550   -62402   -62295   -62368   -62563   -62698   -62754   -62740 
  -62641   -62551   -62499   -62463   -62502   -62566   -62563   -62550 
  -62571   -62638   -62696   -62643   -62535   -62454   -62360   -62325 
  -62417   -62494   -62480   -62493   -62570   -62606   -62553   -62512 
  -62526   -62525   -62523   -62532   -62499   -62478   -62532   -62604 
  -62605   -62510   -62404   -62362   -62351   -62339   -62361   -62451 
  -62542   -62523   -62425   -62349   -62357   -62461   -62573   -62621 
  -62631   -62612   -62542   -62426   -62366   -62475   -62656   -62718 
  -62616   -62463   -62400   -62431   -62477   -62561   -62702   -62790 
  -62782   -62734   -62603   -62434   -62422   -62536   -62606   -62622 
  -62639   -62648   -62592   -62469   -62387   -62402   -62448   -62445 
  -62365   -62265   -62202   -62195   -62274   -62394   -62422   -62374 
  -62386   -62424   -62411   -62406   -62424   -62465   -62561   -62599 
  -62521   -62504   -62603   -62688   -62693   -62602   -62480   -62459 
  -62475   -62413   -62346   -62366   -62464   -62553   -62548   -62485 
  -62443   -62439   -62470   -62502   -62518   -62566   -62606   -62569 
  -62502   -62462   -62456   -62495   -62525   -62485   -62456   -62496 
  -62498   -62421   -62371   -62408   -62504   -62594   -62597   -62518 
  -62486   -62529   -62524   -62492   -62483   -62452   -62455   -62502 
  -62480   -62396   -62347   -62399   -62501   -62523   -62447   -62357 
  -62336   -62431   -62561   -62586   -62533   -62506   -62496   -62468 
  -62410   -62358   -62444   -62637   -62716   -62667   -62611   -62532 
  -62458   -62488   -62584   -62606   -62501   -62335   -62252   -62372 
  -62605   -62747   -62737   -62628   -62506   -62474   -62485   -62438 
  -62412   -62452   -62507   -62612   -62677   -62578   -62492   -62520 
  -62516   -62470   -62446   -62439   -62482   -62591   -62700   -62737 
  -62674   -62583   -62553   -62562   -62578   -62645   -62721   -62697 
  -62603   -62535   -62508   -62493   -62436   -62386   -62486   -62611 
  -62562   -62472   -62464   -62509   -62593   -62605   -62523   -62452 
  -62377   -62320   -62366   -62448   -62484   -62469   -62366   -62211 
  -62166   -62269   -62368   -62362   -62332   -62370   -62446   -62491 
  -62453   -62404   -62498   -62639   -62670   -62696   -62763   -62744 
  -62629   -62523   -62490   -62511   -62585   -62697   -62705   -62596 
  -62544   -62561   -62514   -62435   -62449   -62537   -62598   -62614 
  -62582   -62497   -62426   -62415   -62442   -62486   -62510   -62513 
  -62516   -62492   -62475   -62525   -62595   -62609   -62574   -62525 
  -62466   -62373   -62281   -62358   -62595   -62710   -62666   -62640 
  -62572   -62444   -62434   -62519   -62582   -62618   -62607   -62568 
  -62546   -62493   -62423   -62411   -62430   -62437   -62430   -62403 
  -62415   -62484   -62486   -62419   -62398   -62417   -62442   -62448 
  -62436   -62473   -62573   -62658   -62638   -62525   -62466   -62504 
  -62546   -62566   -62565   -62563   -62607   -62635   -62554   -62448 
  -62461   -62529   -62533   -62538   -62559   -62519   -62464   -62476 
  -62551   -62587   -62485   -62316   -62273   -62419   -62558   -62516 
  -62435   -62451   -62443   -62352   -62309   -62336   -62325   -62302 
  -62398   -62561   -62583   -62450   -62361   -62401   -62469   -62464 
  -62460   -62582   -62729   -62707   -62585   -62550   -62573   -62548 
  -62527   -62551   -62591   -62633   -62601   -62472   -62377   -62404 
  -62531   -62622   -62563   -62484   -62510   -62501   -62376   -62312 
  -62433   -62580   -62591   -62557   -62574   -62496   -62312   -62306 
  -62489   -62528   -62407   -62391   -62485   -62534   -62546   -62599 
  -62685   -62703   -62558   -62346   -62303   -62450   -62576   -62605 
  -62632   -62703   -62691   -62475   -62238   -62182   -62237   -62323 
  -62404   -62435   -62466   -62510   -62486   -62399   -62322   -62318 
  -62394   -62480   -62568   -62673   -62661   -62487   -62395   -62516 
  -62586   -62463   -62399   -62502   -62619   -62637   -62565   -62509 
  -62519   -62537   -62553   -62549   -62463   -62367   -62395   -62461 
  -62465   -62553   -62685   -62650   -62584   -62649   -62663   -62543 
  -62478   -62575   -62722   -62743   -62632   -62571   -62589   -62525 
  -62429   -62468   -62567   -62620   -62613   -62565   -62574   -62568 
  -62441   -62412   -62521   -62569   -62603   -62615   -62549   -62572 
  -62626   -62545   -62398   -62277   -62325   -62511   -62555   -62529 
  -62613   -62646   -62573   -62474   -62346   -62307   -62463   -62676 
  -62773   -62734   -62666   -62615   -62489   -62329   -62286   -62367 
  -62504   -62610   -62610   -62516   -62385   -62319   -62345   -62368 
  -62451   -62636   -62638   -62417   -62334   -62432   -62489   -62482 
  -62479   -62529   -62618   -62623   -62508   -62376   -62336   -62373 
  -62411   -62464   -62502   -62491   -62568   -62698   -62625   -62376 
  -62216   -62260   -62409   -62521   -62552   -62555   -62587   -62617 
  -62577   -62509   -62471   -62461   -62471   -62449   -62357   -62301 
  -62450   -62727   -62830   -62684   -62508   -62458   -62440   -62333 
  -62266   -62379   -62609   -62809   -62808   -62631   -62473   -62357 
  -62315   -62427   -62543   -62559   -62606   -62664   -62575   -62442 
  -62424   -62448   -62434   -62411   -62425   -62484   -62501   -62487 
  -62599   -62740   -62644   -62418   -62353   -62416   -62411   -62366 
  -62398   -62453   -62491   -62532   -62494   -62395   -62378   -62376 
  -62336   -62373   -62410   -62380   -62375   -62352   -62316   -62360 
  -62439   -62539   -62641   -62612   -62511   -62499   -62529   -62509 
  -62481   -62532   -62641   -62673   -62599   -62543   -62545   -62545 
  -62535   -62520   -62513   -62556   -62618   -62658   -62698   -62703 
  -62660   -62669   -62688   -62585   -62423   -62361   -62427   -62546 
  -62653   -62702   -62649   -62509   -62367   -62361   -62464   -62467 
  -62435   -62524   -62595   -62600   -62593   -62519   -62406   -62320 
  -62331   -62478   -62620   -62656   -62650   -62613   -62528   -62473 
  -62473   -62498   -62584   -62657   -62544   -62353   -62296   -62327 
  -62388   -62497   -62524   -62448   -62417   -62425   -62351   -62216 
  -62204   -62379   -62539   -62547   -62516   -62546   -62566   -62498 
  -62414   -62427   -62567   -62758   -62806   -62647   -62422   -62266 
  -62318   -62554   -62740   -62807   -62816   -62734   -62586   -62464 
  -62396   -62421   -62514   -62533   -62482   -62494   -62548   -62526 
  -62419   -62306   -62278   -62323   -62344   -62367   -62478   -62574 
  -62556   -62543   -62577   -62600   -62626   -62606   -62500   -62451 
  -62547   -62691   -62758   -62690   -62560   -62490   -62445   -62399 
  -62449   -62519   -62519   -62572   -62644   -62643   -62639   -62591 
  -62528   -62553   -62548   -62541   -62614   -62617   -62568   -62528 
  -62399   -62310   -62365   -62376   -62338   -62409   -62465   -62341 
  -62213   -62248   -62306   -62320   -62412   -62526   -62536   -62520 
  -62538   -62577   -62689   -62798   -62775   -62727   -62711   -62589 
  -62396   -62320   -62421   -62604   -62752   -62841   -62831   -62637 
  -62367   -62226   -62220   -62269   -62365   -62495   -62647   -62789 
  -62806   -62674   -62519   -62413   -62350   -62352   -62442   -62557 
  -62581   -62505   -62454   -62471   -62460   -62399   -62347   -62358 
  -62496   -62713   -62804   -62653   -62444   -62390   -62365   -62267 
  -62297   -62468   -62566   -62596   -62583   -62444   -62311   -62339 
  -62429   -62501   -62560   -62537   -62474   -62457   -62446   -62503 
  -62668   -62730   -62641   -62593   -62591   -62496   -62333   -62268 
  -62347   -62429   -62443   -62434   -62416   -62414   -62462   -62555 
  -62655   -62650   -62503   -62376   -62382   -62428   -62469   -62561 
  -62663   -62747   -62901   -63042   -62957   -62679   -62494   -62538 
  -62599   -62519   -62434   -62434   -62407   -62294   -62211   -62237 
  -62276   -62296   -62393   -62572   -62732   -62784   -62694   -62518 
  -62362   -62247   -62144   -62080   -62101   -62273   -62527   -62627 
  -62597   -62578   -62477   -62326   -62234   -62125   -62122   -62400 
  -62682   -62774   -62888   -63055   -63105   -62974   -62692   -62401 
  -62226   -62178   -62243   -62385   -62553   -62708   -62816   -62844 
  -62740   -62497   -62223   -62086   -62075   -62051   -62022   -62071 
  -62206   -62382   -62537   -62718   -62945   -63038   -62964   -62895 
  -62884   -62878   -62855   -62850   -62898   -62892   -62771   -62688 
  -62690   -62624   -62502   -62428   -62365   -62372   -62536   -62670 
  -62554   -62268   -62093   -62189   -62372   -62382   -62260   -62216 
  -62290   -62355   -62366   -62369   -62340   -62309   -62327   -62325 
  -62301   -62352   -62473   -62558   -62517   -62424   -62417   -62435 
  -62420   -62429   -62417   -62396   -62450   -62513   -62517   -62453 
  -62343   -62309   -62353   -62391   -62482   -62576   -62532   -62460 
  -62553   -62774   -62897   -62810   -62572   -62302   -62217   -62382 
  -62579   -62663   -62693   -62777   -62912   -62959   -62889   -62819 
  -62772   -62713   -62702   -62792   -62919   -62943   -62833   -62707 
  -62610   -62556   -62598   -62620   -62456   -62175   -61977   -61925 
  -61955   -62083   -62389   -62745   -62880   -62777   -62606   -62424 
  -62250   -62156   -62176   -62252   -62312   -62389   -62513   -62618 
  -62664   -62661   -62651   -62664   -62505   -62016   -61514   -61420 
  -61707   -62084   -62365   -62498   -62592   -62792   -62912   -62709 
  -62422   -62378   -62526   -62661   -62674   -62573   -62473   -62473 
  -62549   -62634   -62743   -62907   -63039   -63014   -62879   -62778 
  -62720   -62689   -62736   -62769   -62728   -62695   -62613   -62478 
  -62497   -62696   -62914   -63023   -62921   -62649   -62362   -62135 
  -62015   -62032   -62130   -62227   -62308   -62387   -62450   -62537 
  -62659   -62736   -62747   -62687   -62561   -62439   -62320   -62227 
  -62278   -62429   -62485   -62411   -62270   -62077   -61931   -61926 
  -61918   -61784   -61673   -61742   -61905   -62030   -62143   -62326 
  -62595   -62882   -63120   -63238   -63091   -62802   -62706   -62754 
  -62800   -62939   -63111   -63155   -63028   -62755   -62449   -62190 
  -62068   -62204   -62478   -62648   -62650   -62555   -62452   -62439 
  -62590   -62775   -62806   -62743   -62720   -62731   -62707   -62608 
  -62515   -62484   -62463   -62471   -62523   -62529   -62484   -62475 
  -62493   -62517   -62587   -62685   -62767   -62761   -62593   -62367 
  -62202   -62112   -62120   -62172   -62150   -62057   -62052   -62231 
  -62415   -62455   -62420   -62291   -62060   -61909   -61897   -61914 
  -61980   -62145   -62285   -62337   -62442   -62665   -62918   -63120 
  -63168   -63034   -62924   -62936   -62894   -62782   -62781   -62899 
  -62997   -63006   -62968   -62960   -62976   -62896   -62678   -62505 
  -62583   -62762   -62697   -62441   -62308   -62309   -62252   -62133 
  -62085   -62145   -62247   -62317   -62314   -62293   -62340   -62410 
  -62419   -62400   -62467   -62682   -62893   -62855   -62619   -62418 
  -62266   -62107   -62000   -61941   -61931   -61997   -62029   -61962 
  -61908   -61979   -62121   -62272   -62489   -62736   -62871   -62842 
  -62710   -62570   -62499   -62571   -62717   -62783   -62800   -62877 
  -62971   -62949   -62809   -62672   -62608   -62633   -62687   -62664 
  -62541   -62454   -62576   -62728   -62636   -62525   -62636   -62821 
  -62953   -62994   -62998   -63100   -63116   -62872   -62601   -62438 
  -62316   -62233   -62113   -61949   -61895   -61958   -62064   -62179 
  -62239   -62264   -62282   -62234   -62236   -62395   -62561   -62618 
  -62561   -62441   -62411   -62464   -62453   -62354   -62259   -62344 
  -62637   -62895   -63021   -63072   -62991   -62833   -62707   -62576 
  -62484   -62469   -62426   -62366   -62328   -62275   -62265   -62299 
  -62337   -62454   -62549   -62496   -62465   -62531   -62575   -62562 
  -62497   -62442   -62437   -62437   -62447   -62461   -62484   -62599 
  -62762   -62797   -62664   -62500   -62351   -62186   -62150   -62336 
  -62580   -62719   -62780   -62839   -62832   -62742   -62679   -62637 
  -62617   -62678   -62672   -62507   -62403   -62465   -62505   -62460 
  -62469   -62511   -62466   -62385   -62361   -62337   -62217   -62080 
  -62085   -62141   -62117   -62088   -62061   -62035   -62141   -62302 
  -62374   -62472   -62653   -62794   -62843   -62809   -62724   -62615 
  -62486   -62417   -62459   -62549   -62606   -62584   -62554   -62583 
  -62576   -62523   -62486   -62422   -62387   -62480   -62610   -62630 
  -62485   -62257   -62136   -62176   -62229   -62234   -62283   -62430 
  -62676   -62958   -63139   -63191   -63190   -63134   -62985   -62774 
  -62606   -62574   -62647   -62677   -62577   -62429   -62328   -62319 
  -62424   -62547   -62575   -62548   -62557   -62642   -62748   -62739 
  -62606   -62566   -62703   -62793   -62742   -62675   -62604   -62463 
  -62273   -62169   -62232   -62311   -62259   -62138   -62043   -62019 
  -62075   -62107   -62039   -61961   -61948   -61971   -62046   -62170 
  -62229   -62225   -62309   -62412   -62371   -62315   -62341   -62324 
  -62277   -62289   -62333   -62421   -62556   -62662   -62702   -62666 
  -62586   -62562   -62611   -62670   -62716   -62796   -62939   -63104 
  -63217   -63203   -63132   -63156   -63185   -63131   -63130   -63157 
  -63026   -62743   -62496   -62389   -62324   -62288   -62386   -62494 
  -62465   -62423   -62446   -62452   -62427   -62384   -62331   -62287 
  -62288   -62315   -62254   -62164   -62236   -62434   -62610   -62701 
  -62703   -62662   -62543   -62297   -62068   -61990   -62019   -62129 
  -62319   -62492   -62576   -62622   -62661   -62636   -62555   -62515 
  -62534   -62540   -62488   -62427   -62391   -62379   -62437   -62535 
  -62550   -62475   -62441   -62505   -62564   -62569   -62570   -62527 
  -62431   -62417   -62480   -62519   -62622   -62781   -62827   -62815 
  -62839   -62816   -62741   -62709   -62755   -62804   -62760   -62698 
  -62727   -62756   -62711   -62683   -62700   -62693   -62635   -62568 
  -62512   -62440   -62387   -62407   -62434   -62411   -62386   -62396 
  -62426   -62419   -62349   -62306   -62376   -62461   -62441   -62364 
  -62278   -62159   -62081   -62114   -62150   -62141   -62196   -62272 
  -62254   -62244   -62312   -62367   -62401   -62442   -62483   -62520 
  -62565   -62675   -62843   -62974   -63029   -62993   -62879   -62777 
  -62686   -62554   -62429   -62373   -62346   -62286   -62237   -62252 
  -62273   -62279   -62278   -62188   -62006   -61893   -61946   -62082 
  -62197   -62300   -62396   -62451   -62510   -62595   -62663   -62749 
  -62872   -62987   -63052   -63052   -63007   -62906   -62766   -62688 
  -62693   -62734   -62803   -62855   -62806   -62638   -62438   -62337 
  -62382   -62474   -62502   -62508   -62522   -62471   -62400   -62408 
  -62454   -62482   -62505   -62504   -62417   -62269   -62165   -62168 
  -62246   -62325   -62388   -62438   -62415   -62290   -62119   -61990 
  -61940   -61965   -62099   -62287   -62398   -62432   -62473   -62517 
  -62562   -62676   -62821   -62879   -62878   -62881   -62843   -62755 
