Origin Time       2024/04/02 04:24:00
Lat.              40.133
Long.             141.712
Depth. (km)       71
Mag.              6.0
Station Code      MYGH04
Station Lat.      38.7860
Station Long.     141.3254
Station Height(m) 35
Record Time       2024/04/02 04:25:01
Sampling Freq(Hz) 100Hz
Duration Time(s)  122
Dir.              5
Scale Factor      7845(gal)/8223790
Max. Acc. (gal)   32.425
Last Correction   2024/04/02 04:25:01
Memo.             
[...]
   15153    16333    18684    20475    20744    18422    14527    12829 
   14127    15908    17999    20753    20399    15916    13016    14241 
   16625    18427    19342    18654    17126    16792    17216    17162 
   17277    16956    15633    15346    17370    19599    19165    17208 
   16082    15647    16482    18472    19394    18508    16744    15260 
   14590    15271    17595    19248    18393    16618    15577    15716 
   17223    19206    19364    17099    15130    14736    15244    17288 
   20009    20911    19503    16838    14427    14504    17470    20096 
   20349    19129    17115    15699    15950    16650    16830    16710 
   16933    17331    17361    17733    18176    17620    16390    14958 
   14432    15936    18384    19643    18717    16908    15708    15661 
   17356    19419    20224    19985    18166    15213    13375    14013 
   16972    19994    20839    19377    16580    14312    13883    15140 
   17142    18752    19137    17717    16243    16478    16780    17265 
   18586    18038    16058    15611    16189    16923    18223    19336 
   19075    17587    16447    16526    17180    18011    18328    17289 
   15903    15125    14828    15797    18121    19338    17749    15579 
   15423    16452    17352    18234    18746    18157    16999    16937 
   18245    19429    19450    18299    16602    15072    14720    16328 
   18234    18397    17613    17270    17037    16776    17429    18563 
   18377    16865    15997    16313    16588    16583    17055    18030 
   17982    16175    15145    16344    17910    18774    18868    18056 
   16950    16233    16245    16938    18029    18968    18752    17555 
   16656    16587    16784    16463    16251    17012    17471    16842 
   16414    16534    16767    17516    18126    17211    15865    16017 
   16911    17301    17720    17999    17151    16488    17703    19170 
   19045    17670    15969    15734    16954    17396    17763    19145 
   19368    17059    13637    12001    14212    18974    22802    22713 
   18717    13999    11213    11797    16094    21080    22968    21122 
   17431    13954    12147    13446    17043    19974    21024    20196 
   17976    16065    15411    15988    17749    19163    18492    17524 
   17901    17504    15869    14566    13595    14131    17104    19870 
   20623    20048    18239    15665    14397    15218    16374    16897 
   17624    18581    19167    18739    16756    15122    15880    17401 
   17938    18060    17869    16966    16337    16916    17513    17158 
   16935    17186    17239    17258    17155    17010    17668    18542 
   18330    17374    16649    16060    15381    15452    16430    17917 
   19870    20119    17621    15402    14936    16092    18624    20291 
   20043    17983    14501    12703    14323    17381    19938    21226 
   20502    17613    14681    13572    14245    16896    20266    21660 
   19847    15711    12355    12264    15151    19099    22036    22667 
   19766    14902    12658    13944    16726    19417    20486    19681 
   17300    14408    13120    14129    17163    20421    20815    18320 
   15402    14241    15603    17801    19205    19507    18434    16771 
   15935    16248    16987    17767    18477    17907    16179    15584 
   16540    17631    18129    17825    16850    15801    15210    15738 
   17786    19588    19381    17975    16387    15661    15997    15927 
   15874    16750    18131    19492    19689    19017    18107    16025 
   14497    15498    17030    17988    18975    19234    18527    17131 
   15009    13290    13416    15681    18657    20397    20814    19893 
   17080    14424    14423    16452    18974    20457    19357    16887 
   14929    13532    13803    16451    19286    20565    20528    19477 
   17419    14940    13732    14949    16721    17346    18283    19075 
   18141    17475    17390    16210    15194    15242    16637    19207 
   20115    18924    17396    15789    15461    16860    18090    18349 
   17946    18014    18920    18509    16268    14415    14193    15547 
   17483    18847    19552    18886    16258    13799    13798    16090 
   19415    21330    19620    16244    14773    15905    17946    18625 
   17772    16324    14544    14681    17644    20583    21628    19699 
   15453    12347    11840    14635    20294    23557    22027    18895 
   15341    12459    13104    15908    17999    19363    19071    17328 
   16999    17455    16823    16216    16353    16565    16699    17811 
   19762    19862    17544    15187    13886    14274    17307    21039 
   21984    19116    14413    11969    14110    18033    20501    21378 
   20472    17637    14901    14278    15437    16669    17512    18300 
   18114    17350    17801    17986    16594    16340    17496    17679 
   17460    17660    17442    16440    15735    16783    18264    18277 
   17373    15996    14802    14928    16258    18561    20607    20142 
   17379    14407    13768    17143    21076    20796    17637    14887 
   13460    14436    17311    19113    19035    17949    16318    15550 
   16254    17290    17618    16772    15758    15847    17030    19176 
   20942    19913    16263    12982    12667    15444    19430    22316 
   22759    20540    16503    13077    12518    14958    18207    19199 
   18249    18145    18412    17136    15468    15040    15695    17271 
   19106    19573    18150    16352    15966    16445    16942    17791 
   17421    15340    14555    15850    18083    20825    21795    19616 
   15931    12406    11511    14871    20000    23302    23032    19710 
   15344    12214    12560    16405    20580    21802    19299    15579 
   13783    13976    14901    16478    18320    19310    19020    18138 
   17404    17049    17016    16418    15518    16476    18949    20263 
   19711    17983    15631    14123    14913    16956    18395    19228 
   19037    16649    13944    13840    15714    17880    19812    20178 
   18250    15867    15425    17039    18192    17980    18115    18146 
   17073    15930    15406    16156    17517    17624    17562    18077 
   17338    16143    16644    17474    16966    16757    17691    18069 
   17566    17177    17109    16852    16276    16491    17598    18112 
   17443    16371    16073    16347    17010    18661    19292    17616 
   15800    15217    16155    18052    19064    18530    17101    15464 
   14662    15934    18349    19638    19583    18341    16123    14939 
   15716    17301    18468    18712    18223    17163    16069    15970 
   16983    18096    18462    18342    17487    16017    16494    18604 
   18862    17572    16787    16457    16367    16487    16560    16889 
   17363    16873    15957    16471    18050    18983    18472    16914 
   15503    15253    17022    19678    20100    18192    16247    15543 
   16047    16285    16544    17845    18166    17301    17547    17899 
   16532    15464    16617    18100    18443    18083    17135    16432 
   16310    16089    16208    17092    17994    17971    17398    17247 
   17393    17874    18513    17934    16186    15261    16195    18145 
   19342    18384    16263    15520    16370    17378    18551    19685 
   19315    17477    15839    15321    16021    17649    18832    18334 
   16271    14008    13949    16644    19714    21246    20391    17213 
   14312    13824    15122    17725    20445    20588    17768    14291 
   13132    15309    18508    20389    19977    17647    15102    13670 
   14692    17659    19851    20833    20497    17763    14432    13081 
   14195    16530    17874    18323    18945    18131    16849    18058 
   18549    16124    15057    16074    17329    19217    20143    18948 
   16996    14817    13336    14287    17365    19492    18709    17319 
   16951    16922    17963    19197    18328    16132    14153    13583 
   15450    18628    20907    20671    17882    14185    12297    14602 
   19288    22219    22148    19396    15164    12398    13285    16629 
   18941    19480    19130    17309    15623    15391    15558    16492 
   17706    18206    18534    18927    19450    19074    17899    17918 
   17664    15695    14204    14686    16989    19263    19237    17382 
   15395    14540    15357    17105    19133    20460    18909    15550 
   14305    15268    17115    19423    19845    18187    16586    15480 
   15410    16568    17921    18666    17865    16090    15881    17496 
   18912    19040    17618    15805    15766    17358    18697    19117 
   18689    17113    15263    14376    14361    15711    18025    18902 
   18220    17548    17382    17442    17454    17864    18156    17736 
   17236    16140    14720    14697    16360    18675    19813    18847 
   17028    16438    17572    18274    17709    17408    17869    18462 
   17883    16212    15975    17339    17825    16873    15770    15781 
   17143    18400    18094    16448    15105    15692    17226    17120 
   15719    15495    17217    19341    19870    18685    16640    15256 
   16417    17718    16804    16852    18652    19122    17505    15387 
   14632    15516    17743    20521    21004    19036    17024    15226 
   13744    13473    15256    18293    19546    19095    18744    17581 
   16171    15986    16582    17818    18411    17335    16565    16249 
   15894    17415    19342    19195    18611    17266    14472    14245 
   16892    18515    19105    19233    18260    17228    16398    15728 
   16414    17967    18199    16668    15514    15974    17100    18226 
   18569    17712    17065    16923    16872    18085    19911    19847 
   18036    15936    14098    13763    15685    18230    18939    17248 
   15755    16379    17489    18038    18778    18860    17425    15880 
   15211    15287    16364    17963    18613    17975    17481    18000 
   18553    18605    18300    17058    15318    14526    14999    16390 
   18468    20263    20056    17606    14558    12700    13690    17497 
   21294    22113    19732    17165    15934    14318    13660    15635 
   17351    18007    18438    17593    16864    17458    17903    17990 
   17992    18042    17984    17362    17531    17733    15932    14651 
   16059    18897    20663    19179    16092    14119    13964    15723 
   17863    19345    20144    18848    15979    13848    13324    15196 
   18652    20403    19406    17400    15982    16113    17286    18262 
   18951    18816    17228    15782    15606    15822    16509    18172 
   19356    18665    17371    16807    16173    15489    15773    16740 
   17659    18265    18381    17679    16683    16278    16143    16573 
   17945    18841    18634    17675    16051    14727    14349    14833 
   16592    18963    20591    20811    18885    15730    13751    13900 
   16127    19222    20826    19878    17081    14751    14636    16248 
   19017    21401    21195    18258    14427    12555    13406    15885 
   19211    20301    17420    14589    14771    16598    18585    19468 
   17921    15472    15155    16641    18084    19614    20715    19876 
   17037    13984    13351    15568    18891    21095    19680    15673 
   13323    13828    15792    18295    20263    21358    21024    17560 
   12992    11631    13980    18420    22688    23318    19022    13251 
   10759    12094    15529    19874    22376    21514    18975    15938 
   13504    13649    15909    17678    18013    18033    18943    19797 
   18773    16970    15595    14458    15344    17883    18696    18173 
   17911    16906    15623    15381    15820    16690    17683    18436 
   19245    19595    19018    18026    17041    16054    14886    14840 
   16983    19406    20602    20520    18709    15944    14532    15395 
   16950    17959    18026    16482    14439    13743    15384    18986 
   20907    19282    17158    16121    15830    17325    19552    19210 
   16440    14385    14878    17269    19569    20410    19319    17072 
   15435    15021    16187    18326    18686    16536    13500    11677 
   12996    16125    18432    18868    16907    14154    12776    13771 
   17153    19025    17352    15223    13945    14508    17444    19094 
   17587    15418    14374    14057    14100    15245    17524    19309 
   20061    19824    17385    14254    13938    16127    18041    18778 
   19137    18850    17871    17440    17034    16672    17652    19095 
   20645    22179    22065    20463    18357    16528    15584    14953 
   16228    20579    24457    25413    23433    18495    12804     9868 
   11704    17500    24563    29928    30181    24386    15811     9637 
   10270    17263    24823    26374    20336    11263     4530     4326 
   11250    19738    24908    25655    22036    16063    10932     9938 
   13126    15803    16008    15024    14231    16919    21671    21995 
   18162    14513    11869    11402    15217    22059    26616    24235 
   15610     4834    -1412     3510    17247    30396    35492    30082 
   19213    11479     9130     9094     9965    11765    14310    18227 
   23302    27156    27904    25849    21332    13616     6119     6598 
   17280    32660    44659    45836    33508    12514    -5331   -10382 
   -5379     3952    18397    34503    41693    35583    19938      446 
  -12321    -7990     9448    27486    39079    40194    28381     9832 
   -4087    -6324     4519    22947    37216    40350    33721    20370 
    6008     -669     3164    11777    18978    23369    26125    27932 
   25755    16187     5208     1842     5834    14283    26082    35857 
   38030    32004    18565     -124   -15565   -16788    -2363    19009 
   37010    42762    33538    16723     2548    -3011     1549    13691 
   28908    40586    40018    27141    13176     5953     4936     7680 
   11701    15152    17532    18199    17933    19781    22770    22283 
   19889    19874    21173    23301    26185    24008    14071     4263 
    2542     7707    15419    22578    24250    17829     9548     9189 
   16401    22333    25255    26053    22011    16434    12166     7990 
    8553    15689    23099    26919    26416    20761    11078      587 
   -4645      889    13948    28491    40851    44157    34970    18226 
    3245      656    11217    22694    25721    22419    18087    14224 
   11766    13582    18851    22662    23028    19511    12757     7317 
    5556     7090    12606    20183    25078    25263    23226    19982 
   12812     3835      746     7889    23785    40396    45504    34888 
   16776     2974     -395     5956    19521    33157    35298    23110 
    5502    -5085    -1651    12468    28476    36364    30279    15935 
    4722     2047     7057    18094    30348    35498    30352    18535 
    5031    -4959    -4644     7935    24900    38286    42511    32265 
   12949     -103     2274    12880    19461    21512    21442    18748 
   17502    18246    18603    21541    26131    27144    22438    13419 
    7817    10910    17339    22708    24656    18365     6986     -325 
     805    10166    21305    25780    25188    25191    23614    18266 
   13643    11807    10793    10887    13817    19025    22669    22566 
   20324    15896     9792     7547    13300    23818    30956    29442 
   21392    11566     4272     3072     8183    18092    29060    33724 
   28255    17469     9938     8758    11898    18042    23076    22524 
   18473    14268    12432    16077    22663    25705    22958    16152 
   10161    10071    14833    21068    25213    22589    14242     6212 
    3397     8013    18099    26923    27056    19568    12559    10188 
   11873    14698    15055    14717    17903    22546    24844    22972 
   14825     5220     3966    12764    24471    30194    26808    19423 
   14500    14071    15808    16453    15495    15435    17382    18177 
   16133    14899    17448    21184    21848    19192    16190    15237 
   16123    17280    17964    17298    15592    16235    21178    27157 
   28269    22064    13521     9267     9958    12812    14994    15148 
   15993    20293    26071    27024    18765     8019     5840    13510 
   24194    30414    28435    20430    11888     6577     4544     6461 
   13271    20433    22588    19159    12826     9579    13460    20524 
   25478    26347    22738    18087    15662    13558    10953    10174 
   11823    14330    16671    17914    15514    10902     9759    13304 
   20158    28115    31541    27945    19746    11434     9373    14752 
   22434    28042    27305    17767     5158    -1313     2272    13759 
   26443    32238    28611    19656    11199     8095    12426    20988 
   26546    25378    20044    14289    11086    11430    13593    16074 
   18247    19032    18145    17483    18002    18941    20240    20333 
   17874    15905    17516    22103    25547    22307    13759     7419 
    6138    10152    20162    31330    35811    29878    16580     4108 
    -849     3879    15728    26844    30206    24953    15924     9963 
    9354    13074    18825    21181    19734    19008    18557    17324 
   16672    17004    19460    22419    20279    13493     9279    10870 
   16525    24115    29219    26295    15939     7236     8298    15315 
   19105    17602    13805    11259    12884    16915    19394    19658 
   18527    17091    16374    15892    15348    14358    12999    13541 
   16067    18189    19842    22157    24501    23643    17841    10732 
    6447     7580    15107    23978    28005    26261    19839    11296 
    5748     7200    16129    27070    30361    23677    13379     4041 
     -89     6745    21043    31947    33982    26674    13934     3944 
     758     6120    18871    29195    31224    27121    18612     9950 
    5815     7607    15176    24283    30707    33162    30321    23653 
   15898     8648     3902     2709     7253    18420    29381    33037 
   28854    19413    10126     6789     9853    16073    21456    22589 
   20110    16663    12506     9404    11256    17771    24494    26878 
   23332    17010    12827    12001    11539    11117    13815    18981 
   23147    23458    19086    13232     9988    11175    15395    20109 
   23977    23938    19056    13433     8910     6222     9066    17909 
   26757    28991    23912    16434    10760     9192    13346    20204 
   25373    27260    23217    15076    10251     9958    11668    14199 
   15414    17338    22666    26464    25114    21568    17680    12807 
    7994     7449    14179    23579    27951    25624    18948    11099 
    6920     9255    16943    24767    26014    20734    14585    11084 
   10440    12006    16114    21041    22761    19862    13724     9162 
   10952    15746    18891    21496    23275    22878    21709    19537 
   16094    13359    11194    10592    15033    21514    23550    20193 
   13864     9537    12455    19958    25177    25654    21089    13049 
    8332    11736    20291    28123    30260    25326    16293     8010 
    5503    10401    19521    27298    28873    22650    11997     4882 
    6511    14912    24336    28582    24676    14640     6629     9177 
   19039    25405    23626    17444    11947     9995    13346    19845 
   24854    25952    22547    17000    12310     9154     9832    15284 
   20071    20298    17741    14894    14438    16455    16985    15187 
   14534    16260    18180    18650    16953    14235    14138    16725 
   18928    19438    17884    15839    14773    13323    11604    11673 
