Origin Time       2024/04/02 04:24:00
Lat.              40.133
Long.             141.712
Depth. (km)       71
Mag.              6.0
Station Code      MYGH10
Station Lat.      37.9411
Station Long.     140.8924
Station Height(m) -187
Record Time       2024/04/02 04:25:14
Sampling Freq(Hz) 100Hz
Duration Time(s)  215
Dir.              2
Scale Factor      2942(gal)/8224139
Max. Acc. (gal)   2.630
Last Correction   2024/04/02 04:25:14
Memo.             
[...]
  119789   119871   119934   119643   119344   119203   119383   119913 
  120228   120182   120087   120046   119874   119664   120091   120858 
  120698   119916   119766   119951   119572   119122   119273   119408 
  119117   119106   119591   119882   119855   119873   119789   119489 
  119460   119894   120218   120218   120321   120322   119835   119522 
  119557   119353   119416   119970   120183   120035   119912   119769 
  119381   118804   118609   118724   118910   119601   120190   119882 
  119503   119743   120271   120680   120684   120371   120036   119581 
  119248   119557   120098   120106   119686   119543   119807   119884 
  119740   119743   119851   119939   119844   119719   119836   119857 
  119751   119946   120214   120118   119734   119500   119357   118660 
  118111   118608   118905   118612   118948   119404   119369   119935 
  120764   120463   119909   120251   120541   120236   119944   119745 
  119669   119773   119684   119269   118647   118257   118400   118613 
  118636   118925   119439   119642   119878   120280   120349   120326 
  120198   119919   120079   120298   120096   119936   119954   119882 
  119587   119211   119155   119384   119346   119291   119897   120395 
  120302   120457   120401   119599   119249   119461   119465   119545 
  119524   119060   118882   119348   119777   119724   119709   120121 
  120258   119776   119674   120187   120297   119969   119807   119846 
  120015   120314   120457   120152   119917   119992   119844   119700 
  119628   119260   119022   118948   118890   119214   119434   119416 
  119763   120123   120204   120266   120290   120240   120206   120274 
  120371   120364   120218   120097   120194   120190   119923   119861 
  120040   119944   119504   119392   119588   119416   119349   119622 
  119560   119573   120046   120105   119530   119265   119869   120476 
  120128   119560   119564   119570   119464   119789   120309   120298 
  119672   119389   119889   120249   120048   119620   119187   119025 
  119273   119674   119674   119203   118894   118863   118732   118736 
  119254   119911   120221   120240   120253   120237   119827   119484 
  119794   119927   119654   119875   120159   119777   119476   119551 
  119315   119006   119053   118898   118484   118562   118944   118933 
  118966   119298   119259   119327   120040   120251   119817   119773 
  119881   119947   120391   120656   120329   120183   120463   120518 
  120356   120498   120760   120599   120078   119799   120043   120334 
  120133   119747   119643   119564   119388   119263   118935   118650 
  118955   119468   119812   120039   119813   119283   119275   119507 
  119265   119133   119681   120297   120202   119758   119727   119820 
  119892   120262   120429   120113   119705   119364   119221   119186 
  119028   118995   119137   119265   119379   119446   119588   119611 
  119292   119095   119088   119087   119488   120050   120124   120162 
  120376   120214   119842   119685   119662   119587   119632   119686 
  119292   119210   119754   119927   120096   120621   120645   120390 
  120424   120186   119546   119283   119434   119435   119512   119900 
  120190   120285   120271   120058   119650   119392   119527   119566 
  119373   119399   119655   120000   120280   120418   120463   120101 
  119568   119672   120029   120212   120735   120920   120069   119443 
  119600   119649   119454   119263   119221   119558   119853   119785 
  119641   119353   118962   118971   119277   119403   119354   119248 
  119161   119148   119146   119448   120114   120333   119669   119028 
  119350   120012   119997   119788   119921   119843   119766   119998 
  119808   119357   119421   119742   119569   119053   119005   119192 
  119353   119865   120033   119561   119446   119809   120085   120070 
  119877   119820   119947   120183   120406   120187   119711   119578 
  119549   119414   119554   119943   120237   120229   119888   119349 
  118854   118692   118944   119308   119456   119288   118797   118503 
  119070   119635   119314   119214   119704   119742   119705   120148 
  120451   120518   120600   120675   120696   120577   120785   121458 
  121356   120530   120463   120422   119519   119056   119215   119165 
  119155   119234   119192   119407   119920   120252   120252   120117 
  120177   120432   120484   120383   120351   120498   120733   120488 
  120075   120136   119889   119171   119102   119691   120109   119996 
  119645   119434   119098   118821   119057   119234   119148   119192 
  119179   119028   118964   118789   118399   118087   118035   118601 
  119620   119871   119346   119122   119205   119473   119772   119734 
  119769   119862   119867   119927   119637   119410   119712   119858 
  119542   119094   118972   119088   118891   118764   119025   119060 
  119222   119936   120131   119673   119476   119469   119448   119659 
  120037   120067   119622   119460   119826   119901   119631   119772 
  120212   120486   120541   120270   119916   120017   120214   119916 
  119677   119734   119448   119057   119005   119190   119588   119792 
  119538   119398   119855   120347   120113   119696   119369   118716 
  118670   119619   120186   119889   119466   119545   119896   119778 
  119689   120118   120016   119412   119092   118750   118763   119277 
  119353   119099   118976   119227   119958   120245   119821   119545 
  119531   119504   119433   119495   119875   120021   119874   120079 
  120521   121063   121512   121406   121149   121038   120775   120366 
  120070   120268   120746   120707   120351   120360   120577   120456 
  120174   120370   120415   119757   119534   119897   119628   118778 
  118392   118662   118847   118903   119407   119878   119707   119385 
  119549   120009   120071   119881   120120   120523   120483   120110 
  119874   119867   119801   119778   119869   119704   119516   119622 
  119688   119600   119599   119794   119812   119456   119205   119114 
  118951   118872   119002   119470   119963   119753   119215   119138 
  119079   118824   119079   119651   119739   119411   119153   119122 
  119344   119556   119280   119007   119396   119874   120118   120379 
  120411   120162   119996   120143   120406   120451   120214   119811 
  119830   120256   119971   119651   120349   120754   120656   120872 
  120773   120425   120152   119727   119830   120212   120004   119940 
  120091   119828   119846   120325   120695   120849   120375   119481 
  119326   119869   120210   120078   119708   119504   119491   119614 
  120114   120492   120220   119859   119647   119391   119547   120121 
  120402   120217   120019   120137   120240   120221   120356   120205 
  120031   120607   121186   121356   121417   121043   120583   120440 
  120274   120278   120486   120434   120129   119817   119634   119562 
  119329   118644   117748   117211   117197   117340   117239   117054 
  116823   116361   116446   117309   117805   117834   118241   118725 
  118611   118353   118412   118381   118355   118848   119377   119433 
  119647   119850   119218   118812   119165   119067   118783   118939 
  119157   119680   120291   120064   119349   119088   119448   120187 
  120951   121370   121374   121101   120696   120340   120120   119950 
  119742   119411   119003   118620   118218   118183   118906   119894 
  120649   120888   120299   119566   119608   120159   120688   120993 
  120883   120594   120529   120580   120486   120364   120637   121158 
  121180   120595   119796   119011   118575   118555   118764   119221 
  119638   119568   119137   118752   118662   118833   118876   118736 
  119021   119757   120060   119997   120336   120349   119812   119940 
  120021   119268   119098   119673   119813   119634   119761   119889 
  119754   119850   120070   119943   119765   119643   119304   118878 
  118384   117898   117769   117701   117585   117821   117929   117884 
  118656   119614   119803   119884   119979   119603   118878   118147 
  117888   118091   118335   118490   118521   118782   119495   120110 
  120430   120567   120464   120472   120777   120896   120814   121246 
  122029   122443   122752   123044   123007   122908   122715   122327 
  122015   121613   121111   120876   120644   120206   119871   119445 
  118901   118953   119747   120556   120865   120857   120839   120761 
  120681   120891   121300   121625   121648   121356   121301   121512 
  121606   121740   121686   121458   121486   121392   121024   120673 
  120433   120491   120680   120704   120757   121018   121383   121491 
  121167   120703   120317   119842   118990   118125   117850   118018 
  118431   118844   118751   118442   118416   118628   118870   118679 
  118107   117926   118411   118984   118986   118747   118739   118629 
  118439   118292   117991   117722   117706   117969   118338   118631 
  118991   119209   119124   119215   119680   120278   120618   120393 
  119711   119045   118936   119071   118758   118227   117780   117397 
  117643   118416   118516   118176   118400   118588   118570   119249 
  120063   120266   120316   120283   120059   120123   120839   121414 
  120900   120117   119615   118786   118215   118300   118146   117883 
  118197   118789   119132   119142   119304   119738   119765   119506 
  119487   119273   118793   118814   119210   119068   118509   118285 
  118544   118953   118939   118692   119173   119902   119948   120298 
  121275   121504   120969   120706   121014   121370   121265   121120 
  121036   120575   120236   120248   119812   118936   118481   118373 
  118058   118195   119172   119672   119109   118606   118755   119144 
  119461   119630   119696   119665   119272   118752   118813   119087 
  118972   119033   119160   118824   119016   119886   120096   119668 
  119499   119678   119743   119836   120541   121151   121101   121194 
  121362   121080   120769   120802   121277   121909   121946   121629 
  121544   121169   120534   120679   121532   122346   123049   123282 
  122490   121400   120781   120611   121038   121019   119896   119703 
  120491   120309   119993   120167   119735   119252   119223   119055 
  118832   118612   118519   118562   118064   117310   116839   116463 
  116446   116718   117022   117509   117787   118173   118916   119040 
  118989   119514   119682   119137   118573   118492   118798   118724 
  118335   118492   118713   118744   119533   120399   120171   119948 
  120665   121174   120721   120154   120113   120252   120432   121092 
  122057   122693   123013   122866   121934   120773   119894   119412 
  119348   119480   120000   120927   121394   121198   120776   120310 
  120136   120245   120741   121716   122103   121733   121690   121776 
  121234   120468   120133   120117   120382   121537   123592   125055 
  124795   123700   122859   122440   122674   123090   122742   121639 
  120505   120083   119838   118909   117937   116997   115770   115341 
  115996   116770   117436   117873   117547   117023   117339   117805 
  117464   116664   115761   115354   115881   116492   117042   118156 
  119199   119425   119430   119719   119627   118964   118432   118125 
  117763   117435   117644   118640   119396   119271   119186   119510 
  119827   120330   121266   122165   122172   121165   120009   119234 
  118997   119142   118424   116544   115487   116399   118227   119875 
  120833   121020   120761   119862   118612   118048   118147   118725 
  119565   119654   119422   119959   120498   120403   120023   119075 
  117823   117350   117427   117510   118211   119419   119839   118902 
  117599   117138   117085   116564   115974   115992   116877   118438 
  120347   122218   123071   122940   123234   123769   122990   121369 
  120694   120712   120291   119962   120771   122079   121969   120526 
  119665   119591   119608   119379   118628   118459   119155   119573 
  120314   121212   121023   120843   121404   121732   121312   120509 
  120031   119612   119191   119241   118543   116949   116626   118000 
  119761   121127   121564   121011   120897   122142   123122   122774 
  121788   120426   119314   119033   118970   118848   118440   117178 
  115495   114361   114578   116066   117714   119799   122261   122596 
  120842   119974   120684   121491   121486   120945   120179   119253 
  119175   120370   121271   121154   120530   119232   117767   117292 
  117698   118496   119487   120008   119626   118593   117158   116321 
  117186   118640   119727   121945   124850   125061   122527   120933 
  121490   122220   121952   120850   118833   116553   115758   116854 
  118381   119538   121076   122612   122555   121946   122785   123557 
  122689   121756   121271   120320   119843   120414   120685   120371 
  120144   119777   119612   120368   121169   121390   121567   121181 
  119850   118984   118926   118446   118006   119227   121123   121413 
  121497   122866   122566   119990   118902   120198   121672   121946 
  121113   120133   119946   121201   122967   123171   121761   120110 
  119200   119047   118548   117578   117139   117335   117861   118685 
  119443   119812   119932   119805   119499   120027   121689   122908 
  122524   121171   120744   121717   121814   120440   119605   119585 
  119344   118585   117211   116013   116561   119006   121417   122044 
  121768   121829   121528   120870   120402   119250   117150   115123 
  114006   113792   113664   113439   113474   113073   112357   113306 
  115672   117232   118521   120217   120596   120050   120343   120800 
  120737   121169   122434   123171   122500   121602   121784   122489 
  122373   121498   120784   119850   118847   119558   121077   120945 
  120177   120456   121209   121890   122501   122920   122820   122040 
  121230   120648   120144   119773   118832   117674   117848   118532 
  118188   117636   117722   117875   117637   117405   117768   118658 
  119527   120023   120347   120723   120316   118855   118003   118085 
  117985   118292   119044   118909   118235   118064   118438   118536 
  117605   117181   118833   120460   120452   120469   120895   120773 
  120490   120082   119375   118804   117952   116858   116640   117101 
  117023   116063   115260   115457   116050   117267   120067   122928 
  123491   122038   121155   122480   124038   123678   122339   120579 
  118935   119356   120395   119446   118191   118312   118585   118085 
  117522   118061   119539   120669   121113   121547   122202   122457 
  122049   121888   122268   121937   121154   122030   123457   122598 
  121084   120901   120151   118588   118270   119010   119294   119152 
  119692   120592   121142   121818   121950   121100   120661   120746 
  120795   120776   119894   118237   117529   118673   120519   120830 
  119137   117768   117610   117030   116005   116193   117429   118316 
  119003   119476   118999   118319   117865   117489   117686   117990 
  118289   119577   121257   122094   122114   121433   120340   119996 
  121001   122397   122543   121103   119464   118431   117879   117983 
  118666   119215   119242   119881   121992   123692   123612   123261 
  123307   122665   121425   120611   120040   119130   118605   118810 
  118963   119222   119907   120388   120730   121073   120522   118899 
  117433   116775   116109   115734   116807   117900   117769   117884 
  118887   120406   122152   122914   122527   121894   120702   119439 
  119796   121327   122401   123006   123508   123358   122025   120116 
  119252   119711   120270   120625   120923   120610   119179   116976 
  115152   114569   115111   116371   117991   119065   118428   116262 
  114376   114323   116028   118428   120636   122119   122643   122654 
  122777   122517   121221   119927   119747   120089   120417   121288 
  122040   121207   120002   119535   118469   117332   117304   117436 
  116935   115960   115600   116328   117320   118905   120901   122034 
  122733   123244   122862   122173   121725   121479   121667   121668 
  121100   120803   120567   119445   117682   116139   115919   117482 
  119404   120625   121204   120703   119620   119045   118766   118547 
  118366   118162   118403   119144   119947   120602   121171   122210 
  123707   124413   123421   121150   118720   116939   116256   116599 
  117105   117468   118197   119287   119920   119603   118798   118060 
  117841   118446   119466   120179   120090   119659   120258   122026 
  123233   122489   120210   117663   115871   115696   117169   118978 
  120067   120614   121722   123736   124610   123315   121417   119693 
  118551   118525   119070   120135   121740   123072   123989   124101 
  122850   121462   120734   119778   118639   118120   118026   118164 
  118941   119804   119804   119597   120094   120880   121045   120060 
  119249   120147   121112   120781   120229   119404   118077   117293 
  117123   116789   116262   115951   115947   116222   116819   117536 
  117769   117109   116571   117420   118685   118787   118054   117645 
  118118   119310   120985   122440   121967   120249   120069   120935 
  120976   120646   120653   120910   120999   120843   121417   122558 
  122466   121163   120679   121485   122226   122519   122639   121869 
  120667   120706   121092   120321   119935   120565   120140   118659 
  117375   116402   116966   119288   121204   122042   122287   121807 
  120753   119518   118534   118050   118008   118369   118600   118287 
  117852   117533   117848   119306   120604   120218   118237   116075 
  115380   115923   116665   118118   119850   120280   120148   120360 
  119851   118887   119549   121795   122825   122067   121968   122372 
  121301   119871   119803   120540   121381   121802   121225   120329 
  120289   121140   121473   120375   118979   118269   117980   118138 
  118665   118929   118871   118759   118498   118320   118592   118990 
  119461   119905   119244   117622   116256   115712   116613   118278 
  119045   118864   118261   117913   118756   119913   120255   120843 
  122103   122613   122214   121783   121108   120413   120838   122004 
  122365   121751   121178   120941   120980   121043   120178   118759 
  118208   118453   118751   119349   120343   120645   120213   120330 
  121078   121956   122446   121936   121308   121425   121512   121201 
  121015   120781   119934   119148   119236   119392   119415   119936 
  119635   117655   116382   117458   119284   120609   121662   121807 
  120633   119082   117940   118027   119600   120803   120185   119048 
  118922   119275   119564   120391   121313   121483   121421   121032 
  119996   119770   120699   120876   119664   118382   118395   119564 
  120167   119560   119044   118945   117950   116079   115056   115399 
  116171   116870   117531   118187   118855   119527   120475   121721 
  122415   122145   121306   120073   119051   118953   119029   118349 
  117405   117208   117860   118193   117945   118470   119512   119623 
  119722   121051   121806   120807   119963   120151   120502   120784 
  121271   121980   122158   121637   121030   119731   118027   117595 
  117917   117706   117405   117517   117655   117591   117873   118903 
  119998   120028   119294   119292   120008   120501   120641   120236 
