Origin Time       2024/04/02 04:24:00
Lat.              40.133
Long.             141.712
Depth. (km)       71
Mag.              6.0
Station Code      MYGH09
Station Lat.      38.0091
Station Long.     140.6027
Station Height(m) 130
Record Time       2024/04/02 04:25:14
Sampling Freq(Hz) 100Hz
Duration Time(s)  185
Dir.              6
Scale Factor      7845(gal)/8223790
Max. Acc. (gal)   1.914
Last Correction   2024/04/02 04:25:14
Memo.             
[...]
  -14773   -14983   -14929   -14407   -13886   -13757   -13915   -14029 
  -14023   -14091   -14227   -14239   -14098   -13961   -14030   -14265 
  -14480   -14582   -14391   -14104   -14166   -14210   -13813   -13464 
  -13554   -13822   -13961   -13887   -13798   -13898   -14014   -13922 
  -13701   -13510   -13508   -13636   -13626   -13761   -14257   -14447 
  -14148   -14019   -14091   -13979   -13834   -13855   -13923   -13851 
  -13676   -13749   -14069   -14189   -13986   -13689   -13578   -13791 
  -13979   -13888   -13892   -14057   -14135   -14170   -13954   -13504 
  -13486   -13729   -13551   -13324   -13537   -13879   -13964   -13838 
  -13932   -14292   -14339   -13988   -13829   -14112   -14459   -14463 
  -14257   -14175   -14238   -14312   -14332   -14326   -14355   -14337 
  -14354   -14585   -14732   -14669   -14756   -14874   -14736   -14629 
  -14688   -14742   -14787   -14758   -14585   -14505   -14739   -15047 
  -15082   -14998   -15099   -15286   -15203   -14867   -14852   -15206 
  -15159   -14696   -14574   -14841   -15071   -15234   -15468   -15623 
  -15473   -15129   -14883   -14821   -14824   -14820   -14866   -14936 
  -14943   -14980   -15098   -15010   -14577   -14210   -14126   -14015 
  -13937   -14081   -14095   -13909   -13805   -13726   -13670   -13686 
  -13630   -13603   -13813   -14141   -14260   -14023   -13717   -13629 
  -13594   -13423   -13271   -13251   -13262   -13302   -13396   -13455 
  -13562   -13684   -13548   -13417   -13806   -14230   -13968   -13606 
  -13819   -13972   -13602   -13347   -13662   -14172   -14229   -13768 
  -13479   -13662   -13915   -14040   -14035   -13945   -14014   -14258 
  -14392   -14404   -14472   -14520   -14431   -14384   -14581   -14885 
  -15140   -15344   -15358   -15114   -14800   -14725   -15045   -15303 
  -15165   -15071   -15160   -15066   -14798   -14642   -14764   -14997 
  -15090   -15276   -15547   -15407   -15048   -14872   -14740   -14759 
  -14976   -15032   -14940   -14937   -14991   -14906   -14675   -14600 
  -14696   -14678   -14562   -14474   -14482   -14682   -14774   -14546 
  -14488   -14736   -14769   -14570   -14364   -14084   -13910   -13957 
  -13990   -14099   -14372   -14480   -14436   -14493   -14427   -14129 
  -13954   -14069   -14283   -14374   -14287   -14154   -14179   -14327 
  -14281   -14106   -14191   -14335   -14200   -14130   -14451   -14831 
  -14813   -14492   -14251   -14233   -14299   -14230   -14072   -14106 
  -14160   -13837   -13360   -13149   -13146   -13238   -13355   -13463 
  -13734   -13956   -13887   -13849   -13813   -13628   -13626   -13818 
  -13846   -13828   -14085   -14253   -13946   -13691   -13840   -13994 
  -14021   -14123   -14246   -14284   -14251   -14129   -13890   -13643 
  -13624   -13865   -14068   -14042   -13926   -13959   -14123   -14237 
  -14269   -14219   -14077   -13922   -13794   -13683   -13647   -13695 
  -13666   -13621   -13894   -14335   -14419   -14223   -14316   -14635 
  -14736   -14773   -14893   -14802   -14544   -14500   -14619   -14597 
  -14575   -14790   -15028   -15138   -15226   -15199   -14990   -14794 
  -14821   -14998   -15002   -14914   -15161   -15421   -15207   -15006 
  -15059   -14909   -14651   -14571   -14507   -14389   -14369   -14467 
  -14578   -14673   -14791   -14801   -14612   -14604   -14955   -15114 
  -14928   -14928   -15167   -15194   -14991   -14953   -15055   -14897 
  -14593   -14573   -14720   -14643   -14486   -14523   -14439   -14185 
  -14251   -14551   -14597   -14338   -14116   -14100   -14081   -14017 
  -13900   -13689   -13662   -13821   -13826   -13722   -13670   -13664 
  -13705   -13691   -13644   -13737   -13822   -13753   -13659   -13563 
  -13516   -13545   -13535   -13589   -13828   -14122   -14262   -14068 
  -13699   -13676   -14062   -14218   -13927   -13810   -14130   -14436 
  -14399   -14280   -14457   -14743   -14746   -14428   -13990   -13813 
  -14087   -14376   -14278   -13941   -13792   -14052   -14350   -14361 
  -14386   -14511   -14507   -14662   -15070   -15149   -14897   -14998 
  -15387   -15387   -15134   -15210   -15522   -15724   -15731   -15529 
  -15207   -14974   -14794   -14401   -13990   -13963   -14157   -14396 
  -14706   -14802   -14621   -14526   -14542   -14476   -14472   -14566 
  -14426   -14175   -14157   -14176   -14088   -14033   -14061   -14185 
  -14362   -14405   -14181   -13956   -14023   -14169   -14150   -14118 
  -14181   -14237   -14249   -14323   -14430   -14318   -13987   -13838 
  -13999   -14064   -13842   -13628   -13720   -14092   -14343   -14210 
  -13998   -14061   -14187   -14052   -13886   -13929   -13976   -13879 
  -13675   -13625   -13944   -14110   -13770   -13624   -13891   -13926 
  -13680   -13455   -13196   -13051   -13300   -13637   -13616   -13487 
  -13579   -13664   -13657   -13778   -14013   -14122   -13991   -13930 
  -14211   -14492   -14521   -14512   -14480   -14359   -14304   -14384 
  -14558   -14689   -14685   -14732   -14931   -15041   -14991   -15028 
  -15174   -15263   -15342   -15442   -15421   -15356   -15502   -15668 
  -15399   -14891   -14748   -14918   -15017   -15149   -15422   -15507 
  -15400   -15434   -15381   -14991   -14720   -14798   -14901   -14763 
  -14455   -14413   -14600   -14496   -14346   -14528   -14620   -14476 
  -14413   -14380   -14216   -14111   -14212   -14214   -13976   -14025 
  -14389   -14424   -14170   -14092   -14116   -14071   -14089   -14121 
  -13903   -13713   -13915   -14056   -13837   -13788   -13994   -13922 
  -13730   -13859   -13969   -13857   -13915   -14084   -14018   -13822 
  -13713   -13736   -13822   -13815   -13761   -13838   -13907   -13803 
  -13655   -13575   -13601   -13618   -13497   -13495   -13832   -14184 
  -14199   -14042   -14153   -14447   -14397   -14172   -14443   -14963 
  -15045   -14886   -15012   -15282   -15268   -15151   -15321   -15399 
  -15109   -14978   -15051   -14898   -14686   -14689   -14835   -15091 
  -15385   -15418   -15192   -15157   -15342   -15327   -15114   -15082 
  -15279   -15356   -15186   -15055   -15045   -14939   -14697   -14465 
  -14374   -14477   -14639   -14648   -14477   -14258   -13996   -13690 
  -13614   -13703   -13578   -13502   -13770   -14088   -14418   -14821 
  -14986   -14836   -14496   -13977   -13543   -13405   -13432   -13471 
  -13489   -13574   -13693   -13783   -13888   -13805   -13552   -13490 
  -13502   -13390   -13360   -13486   -13667   -13826   -13865   -13849 
  -13977   -14246   -14461   -14465   -14230   -13957   -13872   -13913 
  -13879   -13747   -13791   -14164   -14474   -14323   -14046   -14285 
  -14800   -14790   -14376   -14102   -13822   -13506   -13440   -13379 
  -13270   -13617   -14172   -14170   -13775   -13736   -14060   -14081 
  -13825   -13995   -14416   -14517   -14582   -14848   -14962   -14743 
  -14420   -14203   -13932   -13671   -13797   -13980   -13896   -13952 
  -14199   -14350   -14446   -14544   -14628   -14879   -15337   -15507 
  -15152   -14901   -15107   -15149   -14679   -14303   -14374   -14451 
  -14357   -14351   -14432   -14524   -14601   -14465   -14127   -14003 
  -14189   -14197   -13976   -14035   -14404   -14697   -14786   -14778 
  -14839   -14835   -14395   -13894   -13994   -14369   -14523   -14696 
  -14924   -14740   -14373   -14478   -14625   -14278   -14123   -14501 
  -14786   -14760   -14743   -14912   -15068   -14933   -14663   -14493 
  -14362   -14362   -14629   -14921   -15051   -15304   -15815   -16046 
  -15684   -15296   -15225   -15039   -14683   -14566   -14555   -14434 
  -14401   -14399   -14234   -14134   -14202   -14123   -13915   -14170 
  -14863   -15016   -14589   -14570   -14742   -14330   -13875   -13855 
  -13782   -13608   -13693   -13963   -14137   -14068   -13906   -13942 
  -14276   -14651   -14667   -14420   -14226   -14057   -13946   -13967 
  -14084   -14308   -14407   -14229   -14000   -13732   -13441   -13360 
  -13444   -13676   -14058   -14195   -13987   -13926   -14077   -14002 
  -13753   -13929   -14585   -14812   -14233   -13749   -13726   -13463 
  -12853   -12533   -12687   -13014   -13250   -13239   -13078   -12924 
  -12825   -12980   -13328   -13414   -13424   -13825   -14342   -14762 
  -15264   -15574   -15550   -15458   -15165   -14589   -14211   -14234 
  -14269   -14161   -14249   -14596   -14729   -14466   -14181   -13965 
  -13598   -13327   -13495   -13805   -14030   -14469   -15030   -15282 
  -15090   -14670   -14580   -14874   -14980   -15047   -15508   -15944 
  -15982   -15988   -16116   -16116   -15894   -15392   -14833   -14673 
  -14755   -14760   -14895   -15284   -15649   -15735   -15603   -15457 
  -15315   -15203   -15165   -14926   -14526   -14424   -14342   -13806 
  -13315   -13155   -12970   -12981   -13448   -14004   -14486   -14933 
  -15103   -14882   -14598   -14607   -14750   -14721   -14604   -14480 
  -14264   -14131   -14261   -14256   -13710   -13244   -13506   -14021 
  -14315   -14469   -14592   -14725   -14686   -14544   -14625   -14692 
  -14378   -13892   -13605   -13662   -13929   -14152   -14231   -14123 
  -13815   -13660   -13884   -14071   -13905   -13664   -13664   -13775 
  -13786   -13817   -13721   -13208   -12880   -13320   -13875   -13927 
  -13765   -13610   -13321   -13019   -13068   -13459   -13986   -14650 
  -15087   -14891   -14652   -14775   -14740   -14627   -14868   -14979 
  -14582   -14319   -14523   -14632   -14423   -14346   -14574   -14758 
  -14621   -14200   -13811   -13940   -14451   -14508   -14145   -14312 
  -14806   -14574   -14042   -14357   -15026   -14985   -14578   -14557 
  -14764   -14733   -14385   -13921   -13587   -13541   -13741   -14025 
  -14311   -14612   -14899   -15083   -15110   -14974   -14847   -14966 
  -15028   -14739   -14627   -14800   -14531   -14094   -14466   -15273 
  -15525   -15341   -15210   -14898   -14354   -14265   -14521   -14237 
  -13748   -13899   -14435   -14740   -14573   -14158   -14040   -14323 
  -14713   -14952   -14818   -14551   -14628   -14736   -14361   -13907 
  -13849   -13711   -13104   -12757   -13258   -13894   -13954   -13818 
  -13887   -13748   -13385   -13564   -14100   -14057   -13687   -13790 
  -14193   -14440   -14692   -14983   -14883   -14619   -14852   -15164 
  -14878   -14419   -14215   -14069   -13986   -13905   -13686   -13583 
  -13524   -13347   -13423   -13672   -13782   -13940   -14129   -14208 
  -14369   -14723   -15029   -14985   -14800   -14791   -14662   -14276 
  -14134   -14384   -14590   -14513   -14251   -14021   -14134   -14569 
  -14872   -14845   -14797   -14883   -14759   -14423   -14415   -14764 
  -15094   -15290   -15498   -15817   -15820   -15263   -14785   -14720 
  -14701   -14571   -14470   -14465   -14467   -14520   -14659   -14477 
  -13968   -13770   -13780   -13494   -13158   -13254   -13775   -14215 
  -14214   -14168   -14450   -14766   -14851   -14642   -14208   -14014 
  -14173   -14300   -14400   -14499   -14312   -14044   -13959   -13797 
  -13548   -13428   -13456   -13633   -13782   -13811   -13964   -14177 
  -14141   -13887   -13626   -13460   -13498   -13670   -13759   -13934 
  -14339   -14569   -14420   -14212   -14148   -14160   -14202   -14247 
  -14188   -14111   -14354   -14793   -14863   -14669   -14851   -15199 
  -15036   -14669   -14810   -15202   -15306   -15398   -15541   -15245 
  -14829   -14843   -14866   -14629   -14531   -14611   -14542   -14308 
  -14235   -14465   -14616   -14428   -14237   -14202   -14027   -13810 
  -14010   -14499   -14775   -14810   -14689   -14374   -14280   -14523 
  -14430   -13972   -13755   -13743   -13513   -13081   -12868   -13063 
  -13417   -13652   -13780   -14041   -14324   -14154   -13656   -13393 
  -13460   -13775   -14346   -15080   -15741   -15823   -15265   -14764 
  -14566   -14446   -14477   -14503   -14327   -14327   -14539   -14596 
  -14628   -14856   -15179   -15246   -14710   -14037   -14003   -14287 
  -14154   -14019   -14585   -15265   -15260   -14956   -14970   -15133 
  -15009   -14700   -14693   -14859   -14685   -14278   -13930   -13759 
  -13826   -13698   -13242   -13278   -13987   -14555   -14601   -14511 
  -14696   -14789   -14262   -13787   -14139   -14565   -14134   -13327 
  -13009   -13281   -13693   -13763   -13547   -13562   -13810   -13787 
  -13495   -13447   -13694   -13755   -13614   -13801   -14268   -14474 
  -14445   -14493   -14636   -14879   -15153   -15267   -15407   -15709 
  -15631   -15001   -14554   -14544   -14486   -14172   -13969   -14377 
  -15157   -15503   -15411   -15423   -15314   -14810   -14265   -13842 
  -13682   -13963   -14231   -14196   -14166   -14122   -13876   -13684 
  -13883   -14428   -14740   -14480   -14227   -14322   -14378   -14346 
  -14427   -14551   -14713   -14671   -14026   -13356   -13510   -13990 
  -13871   -13500   -13760   -14343   -14319   -13995   -14130   -14320 
  -14184   -14195   -14463   -14791   -15205   -15498   -15546   -15623 
  -15616   -15114   -14370   -14007   -14042   -14080   -14008   -14091 
  -14585   -15233   -15623   -15878   -15974   -15622   -15122   -14706 
  -14311   -14289   -14478   -14048   -13317   -13393   -13941   -13969 
  -14002   -14746   -15244   -14690   -13957   -13666   -13297   -12833 
  -12789   -13167   -13609   -13729   -13587   -13751   -14207   -14359 
  -14100   -13814   -13787   -13819   -13522   -13041   -12831   -12926 
  -12942   -12814   -12966   -13371   -13435   -13184   -13300   -13907 
  -14428   -14465   -14141   -13821   -13860   -14112   -14162   -14318 
  -14932   -15425   -15381   -15390   -15888   -16339   -16255   -15917 
  -15593   -15273   -15093   -15156   -15300   -15433   -15728   -16048 
  -15944   -15433   -14928   -14758   -14793   -14629   -14449   -14517 
  -14519   -14462   -14570   -14511   -14031   -13458   -13261   -13748 
  -14743   -15411   -15248   -14844   -14798   -14771   -14349   -13747 
  -13385   -13462   -13630   -13359   -12946   -12958   -13107   -13023 
  -13058   -13504   -13895   -13753   -13508   -13626   -13730   -13622 
  -13815   -14432   -14854   -14748   -14396   -13976   -13586   -13578 
  -13905   -14035   -13934   -13973   -14146   -14250   -14301   -14347 
  -14372   -14434   -14478   -14291   -13932   -13844   -14224   -14669 
  -14825   -14793   -14758   -14860   -15160   -15408   -15333   -15070 
  -14871   -14727   -14546   -14312   -14081   -14033   -14301   -14681 
  -14928   -15111   -15184   -15028   -14852   -14677   -14353   -14212 
  -14530   -14908   -14918   -14679   -14446   -14283   -14237   -14400 
  -14594   -14490   -14342   -14381   -14083   -13598   -13824   -14481 
  -14670   -14517   -14469   -14384   -14204   -14031   -13899   -14057 
  -14373   -14322   -14085   -14234   -14597   -14679   -14592   -14667 
  -14885   -14960   -14868   -15007   -15202   -14975   -14704   -14594 
  -14226   -13755   -13541   -13518   -13805   -14445   -14754   -14343 
  -13917   -13964   -14085   -14069   -14108   -14152   -14010   -13718 
  -13581   -13755   -13977   -14129   -14274   -14245   -14115   -14243 
  -14531   -14648   -14559   -14262   -13865   -13790   -14092   -14377 
  -14578   -14918   -15300   -15361   -15099   -14902   -14943   -14983 
  -14872   -14760   -14619   -14322   -14084   -14041   -14064   -14211 
  -14393   -14246   -13971   -13957   -13882   -13590   -13433   -13274 
  -13032   -13162   -13581   -13784   -13779   -13833   -13925   -13878 
  -13732   -13737   -14075   -14531   -14681   -14481   -14169   -13778 
  -13339   -13149   -13343   -13628   -13837   -14094   -14223   -14040 
  -13922   -14088   -14096   -13670   -13381   -13726   -14273   -14620 
  -14712   -14432   -14077   -13960   -13929   -14060   -14355   -14559 
  -14909   -15475   -15813   -15859   -15753   -15484   -15191   -15140 
  -15379   -15588   -15735   -15946   -15638   -14785   -14304   -14207 
  -14060   -14134   -14501   -14781   -14935   -14975   -14573   -13815 
  -13479   -13845   -14265   -14368   -14388   -14203   -13694   -13512 
  -13883   -14256   -14546   -14864   -14970   -14755   -14365   -14075 
  -14069   -14368   -14868   -15159   -15122   -15149   -15098   -14796 
  -14868   -15327   -15327   -14978   -14944   -15049   -14926   -14733 
  -14617   -14359   -13906   -13729   -13945   -14045   -13968   -14135 
  -14500   -14592   -14372   -14266   -14401   -14578   -14632   -14424 
  -14175   -14134   -13940   -13618   -13767   -14062   -13895   -13567 
  -13270   -12892   -12800   -13127   -13329   -13333   -13640   -13990 
  -13790   -13498   -13703   -14057   -14341   -14715   -14989   -15196 
  -15426   -15088   -14339   -14268   -14779   -14925   -14647   -14500 
  -14631   -14623   -14237   -13933   -14058   -14184   -14034   -14027 
  -14291   -14408   -14310   -14376   -14655   -14670   -14391   -14303 
  -14334   -14296   -14496   -14742   -14516   -14153   -14191   -14382 
  -14239   -13819   -13671   -13894   -14041   -14157   -14381   -14372 
  -14214   -14273   -14407   -14370   -14277   -14376   -14573   -14627 
  -14621   -14690   -14836   -14881   -14640   -14342   -14250   -14308 
  -14396   -14292   -13780   -13244   -13255   -13625   -13884   -13995 
  -14135   -14350   -14388   -13971   -13397   -13275   -13606   -13971 
  -14173   -14170   -14203   -14543   -14828   -14754   -14719   -14971 
  -15130   -14956   -14763   -14667   -14404   -14142   -14160   -14192 
  -14243   -14465   -14463   -14373   -14646   -14724   -14202   -13806 
  -14134   -14709   -14688   -14254   -14276   -14704   -14779   -14435 
  -14288   -14559   -14956   -15184   -15137   -14875   -14602   -14530 
  -14453   -14121   -13910   -14062   -14235   -14269   -14381   -14616 
  -14733   -14737   -14920   -15198   -15253   -15152   -15093   -14966 
  -14686   -14526   -14654   -14715   -14472   -14247   -14162   -13983 
  -13868   -14069   -14364   -14615   -14836   -14748   -14466   -14607 
  -14955   -14777   -14315   -14138   -14108   -14052   -14145   -14373 
  -14401   -14095   -13748   -13668   -13906   -14289   -14484   -14280 
  -13811   -13382   -13275   -13485   -13729   -13948   -14148   -14193 
  -14142   -14100   -14038   -13984   -13954   -13810   -13439   -13105 
  -13225   -13764   -14169   -14048   -13824   -13972   -14107   -13932 
  -13852   -13991   -14007   -13853   -13752   -13693   -13632   -13691 
  -13743   -13628   -13763   -14229   -14296   -13922   -13822   -13824 
  -13475   -13421   -14026   -14412   -14466   -15006   -15672   -15560 
  -15056   -15152   -15620   -15460   -14962   -15026   -15311   -15336 
  -15448   -15781   -15954   -15660   -15233   -15302   -15720   -15839 
  -15468   -14968   -14702   -14527   -14347   -14558   -15072   -15184 
  -14754   -14326   -14392   -14971   -15495   -15395   -14895   -14625 
  -14620   -14486   -14283   -14253   -14119   -13683   -13477   -13730 
  -13913   -13953   -14227   -14423   -14067   -13602   -13697   -14110 
  -14284   -14303   -14251   -13927   -13730   -13918   -13749   -13230 
  -13304   -13687   -13518   -13135   -13169   -13436   -13490   -13354 
  -13389   -13640   -13774   -13695   -13570   -13402   -13111   -12852 
  -12958   -13301   -13451   -13579   -13819   -13810   -13882   -14345 
  -14446   -14208   -14566   -15176   -15171   -14801   -14544   -14401 
  -14494   -14948   -15291   -15172   -15041   -15033   -14798   -14528 
  -14577   -14802   -14840   -14571   -14346   -14512   -14829   -14886 
