Origin Time       2024/04/02 04:24:00
Lat.              40.133
Long.             141.712
Depth. (km)       71
Mag.              6.0
Station Code      MYGH07
Station Lat.      38.1802
Station Long.     140.6405
Station Height(m) 186
Record Time       2024/04/02 04:25:12
Sampling Freq(Hz) 100Hz
Duration Time(s)  214
Dir.              4
Scale Factor      7845(gal)/8223790
Max. Acc. (gal)   13.743
Last Correction   2024/04/02 04:25:12
Memo.             
[...]
   -2336    -2830    -2913    -2384    -1803    -1579    -1505    -1474 
   -1605    -1971    -2377    -2351    -1809    -1124     -676     -783 
   -1445    -2268    -2818    -2914    -2681    -2254    -1615     -924 
    -488     -546    -1027    -1444    -1576    -1692    -1779    -1633 
   -1395    -1156     -940     -850     -738     -446     -112       43 
    -175     -800    -1425    -1510    -1239    -1216    -1402    -1424 
   -1258    -1092    -1285    -2014    -2706    -2758    -2544    -2744 
   -3148    -3106    -2613    -2068    -1649    -1510    -1701    -1914 
   -2060    -2342    -2720    -3136    -3626    -3924    -3635    -2694 
   -1499     -602     -167     -194     -876    -2150    -3456    -4141 
   -3920    -2964    -1591     -218      643      839      552     -114 
   -1190    -2459    -3180    -2867    -2100    -1624    -1509    -1777 
   -2278    -2285    -1595     -872     -541     -526     -777    -1382 
   -2112    -2446    -2388    -2366    -2220    -1534     -681     -400 
    -877    -1759    -2394    -2355    -2101    -2303    -2656    -2398 
   -1536     -764     -735    -1532    -2509    -2907    -2496    -1656 
    -962     -657     -545     -355     -213     -572    -1499    -2488 
   -2933    -2523    -1557     -753     -356     -255     -553    -1192 
   -2008    -3028    -3802    -3774    -3261    -2755    -2245    -1746 
   -1324     -982    -1003    -1591    -2459    -3226    -3601    -3426 
   -3048    -2995    -3154    -2944    -2289    -1686    -1290     -978 
    -900    -1046    -1131    -1104    -1086    -1188    -1533    -2081 
   -2554    -2724    -2621    -2290    -1761    -1256     -795     -314 
    -330    -1124    -2073    -2739    -3171    -3291    -3048    -2550 
   -1723     -368     1192     1968     1486      367     -754    -1840 
   -2783    -3187    -2976    -2346    -1340     -257      274     -148 
   -1358    -2493    -2872    -2816    -2659    -2357    -2290    -2606 
   -2664    -2247    -1860    -1745    -1804    -1962    -2112    -2150 
   -2124    -2126    -2199    -2188    -1775    -1283    -1344    -1638 
   -1710    -1917    -2462    -3021    -3206    -2743    -1702     -330 
    1031     1529      592    -1001    -2173    -2616    -2369    -1629 
    -827     -306     -164     -319     -673    -1188    -1755    -2101 
   -2007    -1544     -982     -696     -854    -1115    -1174    -1129 
   -1080    -1062    -1250    -1819    -2629    -3126    -2936    -2272 
   -1552    -1040     -904    -1270    -1973    -2617    -3096    -3430 
   -3462    -3252    -3003    -2547    -1638     -621     -207     -506 
    -837     -846     -989    -1486    -1829    -1564     -950     -635 
    -859    -1337    -1814    -2142    -2216    -2131    -2068    -2004 
   -1872    -1894    -2228    -2351    -1823    -1293    -1474    -2084 
   -2587    -2903    -3114    -3165    -2860    -2052    -1000     -313 
    -283     -750    -1541    -2363    -2830    -2901    -2725    -2498 
   -2413    -2303    -2184    -2398    -2624    -2443    -2062    -1775 
   -2161    -3484    -4818    -5238    -4646    -3337    -1930     -966 
    -529     -518     -842    -1520    -2380    -2720    -2227    -1563 
   -1306    -1113     -452      353      467     -307    -1498    -2600 
   -3168    -2947    -2165    -1312     -696     -421     -623    -1325 
   -2184    -2814    -2961    -2471    -1512     -371      769     1405 
     967     -422    -2130    -3457    -3892    -3254    -1748     -171 
     664      689      -36    -1445    -2853    -3677    -3875    -3339 
   -2142     -793      129      118     -893    -2359    -3682    -4299 
   -3850    -2668    -1260       37      839     1147     1105      353 
   -1135    -2583    -3356    -3252    -2520    -1686     -747      259 
     693      346     -514    -1707    -2868    -3573    -3661    -3295 
   -2787    -2160    -1297     -333      378      380     -390    -1405 
   -2111    -2083    -1317     -614     -579     -918    -1405    -2258 
   -3240    -3622    -3129    -2284    -1799    -1696    -1377     -911 
   -1105    -1980    -2671    -2712    -2459    -2349    -2241    -2053 
   -2204    -2571    -2563    -2168    -1532     -757     -382     -781 
   -1760    -2922    -3680    -3566    -2675    -1514     -851    -1209 
   -2115    -2640    -2543    -2219    -1890    -1475     -994     -611 
    -490     -787    -1532    -2420    -2906    -2663    -1850    -1027 
    -618     -661    -1216    -2193    -2967    -3087    -2668    -1694 
    -348      319     -371    -1771    -2856    -3121    -2602    -1777 
   -1260    -1290    -1543    -1641    -1730    -2184    -2880    -3256 
   -3087    -2569    -1867    -1235    -1020    -1348    -2120    -2863 
   -2849    -1845     -287     1001     1343      859       31     -966 
   -1814    -2149    -2053    -1692    -1251     -980     -861     -880 
   -1120    -1507    -2041    -2704    -3287    -3454    -2891    -1995 
   -1555    -1672    -2030    -2376    -2523    -2559    -2721    -3175 
   -3761    -3865    -3156    -2011     -932     -392     -730    -1588 
   -2388    -2998    -3321    -3123    -2546    -2016    -1717    -1549 
   -1490    -1540    -1621    -1684    -1849    -2236    -2623    -2652 
   -2257    -1540     -700     -195     -464    -1359    -2222    -2589 
   -2413    -1796     -984     -306       32      -44     -396     -764 
   -1200    -1896    -2624    -2933    -2635    -1883    -1063     -618 
    -633     -730     -641     -654    -1293    -2538    -3717    -4315 
   -4199    -3227    -1611      -82      693      488     -492    -1836 
   -3024    -3315    -2461    -1440    -1206    -1333    -1185    -1078 
   -1320    -1657    -2049    -2593    -2940    -2866    -2605    -2215 
   -1667    -1269    -1266    -1553    -1888    -2110    -2176    -2089 
   -1788    -1136     -256      471      869      913      432     -672 
   -2209    -3669    -4347    -4118    -3481    -2641    -1641     -888 
    -664     -727     -873    -1285    -1926    -2370    -2392    -2043 
   -1561    -1281    -1161     -886     -565     -669    -1470    -2717 
   -3662    -3765    -3114    -2106    -1366    -1229    -1381    -1842 
   -2708    -3302    -3275    -2940    -2276    -1335     -561     -118 
      35     -168     -803    -1699    -2282    -2335    -2276    -1992 
    -961      461     1318     1089      -33    -1323    -2184    -2656 
   -2965    -3067    -2770    -1923     -903     -486     -797    -1359 
   -1877    -2070    -1728    -1410    -1802    -2570    -3003    -2964 
   -2548    -1821    -1035     -371      139       75     -924    -2358 
   -3623    -4596    -5012    -4487    -3192    -1765     -691     -396 
   -1167    -2322    -2856    -2867    -2709    -2112    -1377    -1073 
    -766     -224       16      -95     -355     -680     -930    -1306 
   -1826    -1925    -1359     -542      -28      141      203     -151 
   -1065    -1907    -2523    -3102    -3088    -2122     -861     -122 
    -264    -1286    -2698    -3626    -3568    -2677    -1333     -230 
    -283    -1439    -2562    -3207    -3731    -3955    -3726    -3458 
   -3168    -2822    -2835    -3244    -3686    -3739    -3159    -2312 
   -1633    -1254    -1317    -1617    -1911    -2378    -2681    -2020 
    -529      882     1617     1478      440    -1121    -2467    -3076 
   -3045    -2751    -2288    -1447     -355      217     -182    -1116 
   -2023    -2377    -1763     -643      194      448       70     -580 
    -954     -997     -957    -1054    -1375    -1764    -2118    -2398 
   -2556    -2872    -3454    -3785    -3667    -3454    -3277    -3172 
   -3165    -3061    -2918    -2979    -2960    -2533    -1968    -1721 
   -1993    -2457    -2508    -2242    -2245    -2440    -2241    -1636 
   -1190    -1058    -1158    -1694    -2339    -2424    -2057    -1571 
   -1151    -1258    -1844    -2195    -2196    -2222    -2205    -1950 
   -1517     -992     -556     -526    -1001    -1721    -2257    -2462 
   -2496    -2272    -1679    -1075     -907    -1333    -2037    -2662 
   -3442    -4228    -4271    -3692    -3061    -2340    -1674    -1409 
   -1393    -1560    -2002    -2363    -2261    -1648     -784      -70 
     429      889     1325     1606     1405      587     -233     -588 
    -959    -1564    -1737    -1368    -1217    -1443    -1414     -928 
    -359     -116     -491    -1167    -1397    -1152     -804     -291 
     205      340      340      197     -581    -1580    -1783    -1345 
   -1140    -1385    -1968    -2691    -2998    -2722    -2431    -2455 
   -2590    -2690    -2701    -2448    -2162    -2466    -3244    -3746 
   -3827    -3576    -2704    -1433     -575     -502    -1039    -1705 
   -1858    -1270     -387      113      -66     -679    -1336    -1850 
   -2161    -2317    -2435    -2358    -1953    -1611    -1678    -2030 
   -2558    -3195    -3623    -3505    -2953    -2404    -2200    -2463 
   -2887    -3009    -3032    -3281    -3231    -2469    -1524     -893 
    -616     -722     -976    -1084    -1248    -1642    -1976    -2037 
   -1987    -1988    -1868    -1510    -1175    -1104    -1374    -1954 
   -2519    -2789    -2837    -2774    -2710    -2551    -1922    -1058 
    -669     -877    -1506    -2386    -2980    -2825    -2011    -1019 
    -284      217      538      351     -465    -1483    -2068    -1930 
   -1358     -580      260      589       32    -1082    -2250    -3094 
   -3353    -2901    -2116    -1830    -2209    -2677    -2949    -2863 
   -2066     -729      369      588      -31     -915    -1606    -1910 
   -1838    -1776    -1945    -2030    -1733    -1090     -645    -1080 
   -2296    -3628    -4679    -5297    -5348    -4797    -3811    -2824 
   -2203    -1788    -1321     -892     -665     -831    -1568    -2681 
   -3635    -3991    -3510    -2207     -669      157      -33     -742 
   -1570    -2420    -3122    -3451    -3198    -2489    -1738    -1073 
    -753    -1063    -1341    -1151    -1182    -1433    -1144     -448 
      -6      -76     -337     -460     -711    -1061    -1093    -1023 
   -1135    -1273    -1328    -1200     -981    -1026    -1441    -2162 
   -2921    -3265    -3353    -3495    -3284    -2563    -2030    -2100 
   -2457    -2845    -3244    -3370    -2943    -2419    -2385    -2342 
   -1636     -770     -297     -172     -625    -1674    -2724    -3352 
   -3303    -2415    -1040      230     1040     1220      787       27 
    -648     -953     -969     -889     -568      101      719      982 
     967      638      106     -282     -550     -637     -253      216 
     162     -423    -1237    -1807    -1780    -1432    -1343    -1694 
   -1988    -1715    -1178     -967    -1197    -1833    -2666    -3242 
   -3743    -4610    -5378    -5408    -4853    -4072    -3248    -2619 
   -2207    -1755    -1350    -1401    -1937    -2673    -3346    -3704 
   -3726    -3503    -2890    -2019    -1576    -2018    -3269    -5040 
   -6728    -7659    -7546    -6396    -4680    -3279    -2644    -2791 
   -3542    -4178    -4110    -3595    -3100    -2822    -2535    -1807 
    -831     -257     -236     -487     -828    -1167    -1475    -1875 
   -2247    -1890     -306     1776     3258     3885     3568     1957 
    -649    -3137    -4345    -3811    -1742     1339     4410     6153 
    5979     4068      993    -2150    -4257    -4874    -4122    -2633 
   -1302     -772     -986    -1094     -548       79      170     -144 
    -414     -330     -135     -286     -581     -487       -5      340 
     -89    -1487    -2980    -3352    -2412     -774      966     2137 
    2081      789    -1267    -3454    -4915    -4918    -3272     -664 
    1629     2735     2161     -284    -3634    -6411    -7967    -8160 
   -7095    -5242    -3188    -1506     -224      920     1513     1220 
     332     -931    -2149    -2644    -2223    -1109      414     1879 
    2481     1605     -464    -2806    -4897    -6743    -7994    -8216 
   -7634    -6702    -5763    -5078    -5039    -5991    -7364    -8255 
   -8536    -8248    -7161    -5366    -3204    -1121      -95     -734 
   -2064    -2644    -1848       21     1765     2197     1148     -928 
   -3511    -5950    -7231    -6361    -3690     -595     2123     4002 
    4378     3137     1024    -1291    -3360    -4035    -2461      496 
    3277     5050     5795     5687     4808     3661     2789     1954 
     670     -993    -2527    -3524    -3626    -2268      442     3258 
    5005     5451     4673     2641     -198    -2988    -5193    -6575 
   -6916    -6022    -4009    -1790     -371      348      692      260 
   -1275    -3715    -6318    -8104    -8765    -8548    -7368    -4946 
   -1795      710     1462      341    -1918    -4336    -6037    -6488 
   -6010    -4572    -1529     1768     3102     2307     -313    -4770 
   -9198   -10885    -9495    -6305    -1687     3400     6415     6528 
    5082     2706     -483    -3699    -5972    -7002    -7458    -7519 
   -6575    -4963    -3397    -1764      211     2154     2887     1954 
     225    -2069    -4858    -6988    -8059    -8442    -7734    -5715 
   -3011     -480      981     1124      303    -1344    -3349    -4907 
   -5784    -6104    -5744    -4114    -1210     1560     3300     4322 
    4251     2791      959     -577    -1657    -2041    -2123    -2134 
   -1767     -953      225     1026      425    -1080    -2297    -2837 
   -2679    -2007    -1032      140     1023     1146      352    -1445 
   -3701    -5128    -4333     -587     5148    10378    12683    11280 
    7326     2452    -2408    -6363    -8279    -7815    -5778    -3277 
   -1016      679     1520      986    -1417    -5292    -9157   -11496 
  -11466    -8992    -4926     -517     3156     5028     4645     2609 
     -37    -2068    -2743    -2367     -997     1248     2729     2515 
    1540      118    -1741    -3342    -4293    -4191    -3036    -1660 
    -733     -837    -1806    -2671    -3427    -4587    -6237    -8145 
   -9501    -9641    -8365    -5270    -1105     2084     3392     2790 
     -36    -3967    -6486    -6489    -4750    -2297      -89      534 
    -814    -2714    -3981    -4464    -4162    -3273    -1962     -702 
    -189      -74       54       66      461     1571     2609     2596 
    1422     -449    -2716    -4252    -3315      -17     3816     6678 
    7474     5628     1786    -2215    -4166    -3613    -2074     -581 
     221     -386    -1825    -2889    -3141    -2716    -1912    -1021 
    -279      -20     -545    -1707    -2832    -3059    -1767      886 
    3709     5336     5348     3943     1464    -1142    -2690    -2910 
   -2473    -1976    -1475     -980     -704     -776    -1277    -2459 
   -4390    -6918    -9971   -13018   -14843   -14378   -11551    -7476 
   -3555     -810      -81    -1501    -3954    -5949    -6489    -5375 
   -3613    -2679    -2785    -3146    -3402    -3514    -3288    -2674 
   -2193    -2718    -4708    -7778   -10781   -12401   -11892    -9086 
   -4583     -124     2504     2663      787    -1715    -3240    -3072 
   -1039     2133     4375     4490     3090      920    -1331    -2532 
   -2127     -519     1503     2867     2774     1426     -230    -1119 
    -750      271     1129     1683     1933     1811     1757     2118 
    2448     2286     1513        4    -1875    -3237    -3712    -3248 
   -1786      124     1768     2901     3408     3215     2319      762 
   -1120    -2376    -2018     -448      988     1675     1325     -425 
   -2960    -5125    -6315    -6092    -4013     -715     1696     1321 
   -1420    -4263    -5702    -5733    -4515    -2486     -873     -557 
   -1341    -2249    -2141     -742      997     1706      626    -1915 
   -4799    -6454    -5778    -3510    -1302       76      272     -858 
   -2664    -4958    -7912   -10172   -10299    -8592    -5653    -2026 
     939     2027     1225     -580    -2606    -4509    -5707    -5783 
   -5184    -4133    -2331     -110     1904     3577     4793     4988 
    3689     1343    -1267    -3535    -4342    -2905      -31     2984 
    5103     5073     2528    -1350    -5059    -7303    -7287    -5350 
   -2501      -75      643     -297    -1988    -3981    -5634    -6091 
   -5356    -3820    -1883      -10     1719     2733     1725     -967 
   -3172    -3910    -3856    -3030     -974     1277     1985     1104 
      -5     -778    -1566    -2255    -2502    -2605    -2955    -3504 
   -4066    -4332    -3865    -2540     -803      818     1664      820 
   -1443    -3866    -6027    -7360    -6871    -5267    -3906    -2940 
   -2504    -2949    -3657    -3792    -3755    -4444    -5112    -4275 
   -2498     -846     1233     3638     4912     4307     1995    -1366 
   -4577    -6192    -5212    -2238      889     2944     3708     3086 
     824    -2751    -6191    -8004    -7842    -6138    -3187      556 
    3396     3846     2628      903    -1147    -2853    -3372    -3055 
   -2286     -896      483      911      521       25     -363    -1139 
   -2361    -3025    -2641    -1564      301     2724     4260     3820 
    1871     -595    -3248    -5509    -6066    -5085    -4062    -3300 
   -2778    -2882    -3059    -2868    -2843    -3080    -3380    -4244 
   -5884    -7369    -7859    -7496    -6552    -5144    -3870    -3150 
   -2450    -1486     -934    -1216    -1579     -996      346     1505 
    2089     2092     1275     -373    -1786    -1795     -947      129 
    2293     5065     6158     4882     2139    -1397    -5027    -7516 
   -7651    -5686    -3186    -1274     -291      171      739     1183 
    1151      535    -1147    -3605    -5231    -4847    -2667      311 
    3021     4479     4082     2342      210    -2108    -4494    -6087 
   -6070    -4473    -2184     -488     -148    -1233    -3412    -5391 
   -5653    -4120    -1399     2015     4681     4780     1757    -3312 
   -8027   -10319    -9886    -7048    -2413     2216     4876     4943 
    2895     -523    -4279    -7087    -8544    -8835    -7611    -5248 
   -3214    -1953    -1020     -490     -365     -201     -201    -1146 
   -3032    -5246    -7230    -7746    -5466     -889     3919     7121 
    7744     5717     1927    -2489    -6154    -7303    -5472    -1926 
    1617     3754     3963     2756     1269      448      351      353 
      86     -382    -1296    -2725    -3940    -4417    -4152    -3194 
   -1748     -529     -693    -2276    -3360    -2473     -448     1020 
    1169      149    -1660    -3680    -5140    -5695    -5452    -4465 
   -3029    -1841    -1057     -310      106     -423    -1822    -3743 
   -5769    -7041    -7106    -6347    -5053    -3172     -847     1298 
    2257     1463     -511    -2709    -4642    -6124    -6806    -5895 
   -3083       93     1505      723    -1347    -3844    -5964    -6955 
   -6548    -5022    -3045    -1167      469     1610     1923     1559 
    1144     1305     2130     3173     4072     4679     4633     3573 
    2018     1120     1054     1071      994      920      548       -6 
    -160      -56     -510    -1815    -3600    -5493    -7230    -8344 
   -8221    -6648    -4097    -1424      626     1768     2015     1185 
    -896    -3603    -5578    -5833    -4550    -2517     -437      988 
    1733     2525     3083     2567     1368      -14    -1597    -2847 
