Origin Time       2024/04/02 04:24:00
Lat.              40.133
Long.             141.712
Depth. (km)       71
Mag.              6.0
Station Code      MYGH03
Station Lat.      38.9207
Station Long.     141.6377
Station Height(m) 80
Record Time       2024/04/02 04:24:59
Sampling Freq(Hz) 100Hz
Duration Time(s)  124
Dir.              6
Scale Factor      7845(gal)/8223790
Max. Acc. (gal)   18.268
Last Correction   2024/04/02 04:24:59
Memo.             
[...]
   20621    22761    20479    18819    17707    16846    18034    18411 
   18530    22312    24402    20758    19039    21261    21606    20633 
   19645    17042    15187    16961    20749    22669    21359    19094 
   18238    18210    16814    16359    19569    21508    20201    19854 
   19137    17167    17343    18002    17869    19441    21632    22293 
   22692    24135    23180    17618    14170    17311    20682    19699 
   18183    17757    16737    17494    20104    20430    19107    19576 
   22308    23365    19429    16799    19768    19133    14103    15642 
   20498    20619    20104    20200    18053    16954    17504    17277 
   18771    21969    23641    22844    19727    18733    21336    20591 
   17153    17285    18702    18484    17805    16953    17506    21001 
   23417    20553    17478    19147    20696    19175    17664    17918 
   19633    19251    14862    14349    20972    23379    18779    17842 
   20125    19036    18014    19248    20846    22856    22451    18434 
   16096    18675    21652    20665    18374    17896    19325    21104 
   20804    19668    19719    19834    19631    19118    17651    16652 
   18203    20493    20919    20587    19002    16733    18831    22045 
   18958    14305    15464    19214    19901    19313    20277    20243 
   19529    20506    20070    19275    21705    21766    18138    17514 
   19052    19504    19133    17307    16775    19626    21003    19161 
   17739    17779    18308    18284    18353    20565    22596    21963 
   20488    18914    18149    19005    18597    16295    15650    17793 
   20768    21940    19148    17042    21062    23658    19261    16330 
   18014    18400    17818    19515    21276    21216    20031    18169 
   17080    17396    18015    18088    18396    20713    22081    19400 
   17622    19149    19693    19340    20083    19750    19037    20452 
   20266    17362    17281    19874    20645    19445    18474    18898 
   20598    22173    21365    18280    16676    18392    21386    22585 
   20063    17740    19855    22680    22315    18887    15541    16572 
   19629    19807    17599    17521    21471    23032    19133    16730 
   17247    17166    18115    19213    18659    19295    20399    20129 
   19965    20119    19684    18929    19365    19854    18615    18241 
   19028    18771    19043    19758    19170    19188    19356    17788 
   18014    20483    20177    18166    18531    19985    20499    20389 
   20040    19063    17988    18499    20115    20965    20051    17756 
   16575    18399    21467    22125    19901    18798    20011    19147 
   16542    16906    18212    18522    19777    19720    18692    20466 
   22273    20556    17437    15836    17112    20144    21178    20089 
   19876    20602    20717    18176    14966    17608    22613    21145 
   17771    19022    20322    20044    20933    19604    16390    17261 
   19658    19167    18835    19861    19683    18304    17348    18247 
   20947    21477    18443    16968    18310    19117    19809    21487 
   22570    22018    20784    19842    18094    16097    16941    19319 
   19770    18972    18985    19750    19209    16931    15496    17157 
   20772    21907    20499    20062    19642    19037    18578    16584 
   16957    21014    22009    19411    18119    18819    19668    18933 
   17876    19170    21122    20844    18473    17119    19221    20428 
   17664    17535    22056    23504    21519    20565    18605    17309 
   19402    19140    16722    18512    21020    19240    17334    19542 
   23197    22690    18658    17197    18597    19369    18966    17544 
   17010    19541    21639    20452    19315    19461    18612    17662 
   18387    18909    18905    19953    19934    19724    21119    20021 
   17703    17730    17485    17463    18924    19963    20875    20957 
   19916    19765    19245    17820    17751    18473    19036    19741 
   20433    21342    20277    17896    19471    20857    17556    16541 
   18499    18889    20873    23287    20101    15975    18064    21556 
   19857    16405    17259    20472    20526    19151    19265    17392 
   15422    18968    22480    21199    20152    20075    18931    18233 
   17934    17975    19288    20623    20194    18377    17675    18681 
   18932    18372    19218    20642    19815    18238    19830    21423 
   19137    17073    17132    17984    20301    21728    21180    20991 
   20425    19643    19105    17766    19338    21852    18743    16834 
   19383    19130    18609    19311    17670    18037    20564    20329 
   19670    20105    18990    17753    18311    18405    18420    20794 
   21959    20098    19654    19429    17705    18466    19727    18584 
   18280    18891    19329    20772    21427    19664    18254    20113 
   22007    19855    18165    19422    19062    18303    19028    18742 
   18698    18908    18014    18277    18355    17456    19275    21514 
   20825    20556    20980    19242    17536    17246    16997    18424 
   20784    20682    19338    18234    17662    19030    20650    20664 
   19903    18530    17402    18054    19317    19111    18443    19091 
   20036    19562    18532    18701    18771    18891    20406    19322 
   16317    17890    21559    21493    19919    20227    20424    19703 
   19884    19079    17336    18724    20802    19665    18291    18104 
   18176    19553    20263    18767    18207    19500    20973    21621 
   20439    18289    17007    16870    18320    20850    21228    18686 
   17621    19323    19548    18462    18549    18439    19383    21566 
   20318    18146    20173    22072    20615    18561    17127    17567 
   19712    20814    20791    20119    18819    18144    18366    19118 
   19475    19445    20376    20387    18808    18655    19516    19714 
   19660    19700    19863    19894    19804    19113    17616    17309 
   18553    19098    19619    21046    19953    17154    17848    19371 
   17872    18029    20329    19101    17301    19789    22342    21185 
   18145    16834    18968    21041    20082    18981    19534    18809 
   17375    19159    20456    18117    18605    21416    20054    17545 
   16937    16957    18742    20993    21481    20730    19105    17851 
   18210    20086    21772    21332    20730    20641    19114    18077 
   18577    18682    18531    18873    19545    19171    17644    17952 
   18675    17196    17405    19249    18496    18806    22405    22675 
   19214    18258    19584    20316    20298    19388    18677    19881 
   21088    19296    16991    18623    20668    18268    16379    18376 
   19993    20191    20086    18962    17810    18242    19237    18828 
   17685    17759    18328    18084    18220    19149    20086    20945 
   20470    18987    19025    19187    17504    17280    19809    21281 
   21139    20945    20128    19583    19651    19715    20873    20709 
   17782    17756    21219    22138    19720    17143    17185    19522 
   19961    18666    18613    18917    19419    19492    17396    17149 
   20281    20877    19171    19300    19581    19913    21944    22141 
   19271    17930    18779    19715    21011    20309    16991    16070 
   18870    20769    18658    16692    18554    20533    21710    22944 
   20785    17159    16272    16079    16403    18165    18883    19715 
   21604    20981    19099    19770    20302    19201    19450    18987 
   16785    17099    18171    17905    20406    23139    21442    20243 
   20707    18297    16428    18103    19499    20441    21249    19098 
   17851    20683    21320    18188    16085    15472    16564    20127 
   22021    20857    20810    21698    20328    16910    14986    17502 
   20490    19984    19303    19809    19379    18326    18095    19396 
   21286    20838    17035    15032    18949    22360    19080    15566 
   18270    21910    21790    21170    21602    21432    19592    16345 
   15674    18688    20490    20052    19267    18748    19607    19422 
   16812    17853    22378    21602    17527    18015    19673    19376 
   20201    20166    18751    19572    20579    19472    18454    18561 
   18825    18891    19809    21250    20441    17730    17363    19913 
   20629    17406    15747    19467    22088    19546    17948    18717 
   17999    18621    21371    21131    19653    20629    21257    19437 
   17448    18630    20244    18106    17157    18927    19444    19757 
   18270    16181    18943    21072    19317    19816    21779    21764 
   20201    18524    18913    19701    19404    19201    18027    17971 
   20325    20561    19070    18307    17479    18673    20912    20356 
   19776    20347    19341    17975    16973    16484    17984    19568 
   19857    19917    19391    18928    19831    20291    18773    18252 
   20008    19855    18007    18354    19298    19464    20029    19201 
   17004    17801    21019    21047    18771    19333    20063    17242 
   16758    20474    21546    20437    20777    20309    18890    18594 
   18794    19256    19677    18819    18389    19176    18447    17251 
   18204    19973    21201    21374    19785    18052    19650    22341 
   19680    15653    17336    20039    20537    21909    21409    17475 
   15917    17612    18577    20472    23359    21359    17181    17799 
   19534    18715    19008    21027    21357    19612    18900    19678 
   19056    17856    17968    18204    19951    21177    17259    15309 
   19572    21411    19433    18218    17428    18507    21452    21385 
   18796    17702    18111    18542    17942    17967    20386    21081 
   19430    20027    20845    19257    17834    18195    20051    20275 
   18096    18582    20268    18567    17698    19264    19086    18940 
   20749    20842    18762    18161    19514    20208    19396    18280 
   18122    18960    19118    18462    19024    20285    20020    18878 
   18443    18454    19232    20758    20583    18193    16961    19129 
   22005    22396    21072    19187    17169    16618    18787    21520 
   20741    18196    18805    20370    18891    17428    18499    19693 
   20232    20305    20194    20387    19808    18954    18069    17032 
   17610    18944    19755    20898    21386    20129    18814    18160 
   17802    18906    19935    19413    20147    21791    21354    19750 
   18558    17747    18123    18852    18129    18395    20263    19710 
   17988    18133    18104    17787    18419    19174    19768    19530 
   18360    17185    17108    18671    20752    23087    23471    20264 
   18450    18887    18168    18509    19739    18910    18886    20046 
   19168    18792    19908    19218    17685    17378    18920    21647 
   21004    17261    17049    20031    20869    19387    19124    20426 
   19542    17057    17844    21146    21790    19880    19121    18593 
   18045    18819    18570    18378    19444    19267    18759    18655 
   18897    20405    20737    17964    16600    19672    21003    19309 
   19739    19261    18165    20923    21058    17215    17940    20160 
   17316    15618    20092    23815    20619    15531    15619    19191 
   21608    21772    20036    18144    18226    19808    20780    20717 
   20976    20077    17514    17852    19770    18756    18392    20125 
   19966    18238    16636    17076    21423    23741    20514    18578 
   19417    18770    17435    17988    19884    20680    20594    20665 
   20236    20056    19483    18036    18395    19381    18887    19415 
   20025    18639    18871    19946    19001    19469    19934    17891 
   17385    18004    18522    20526    21193    20787    22248    21313 
   16765    15399    17930    19592    19938    18520    16058    17664 
   21119    20691    19305    19581    19226    17505    16999    19615 
   21213    19044    17352    18289    19614    19719    19313    18774 
   18642    20923    22281    19751    18777    20495    19745    17543 
   18503    21392    21899    20225    19465    19546    19044    18866 
   18659    17967    18542    19252    18719    19265    20900    21288 
   21886    21783    17177    14755    19548    21941    19615    19893 
   20938    19712    18796    19052    19944    19271    17139    17709 
   19951    20575    20459    20267    18473    15630    15957    19961 
   22241    21420    20301    19001    19194    21506    20391    16506 
   16306    18158    18459    19426    21338    20382    17302    16966 
   18655    18223    17054    18486    19965    18480    17238    17998 
   17824    17473    19018    18354    14187    13448    17184    18851 
   17992    18343    18551    16290    14250    15290    17301    15820 
   12347    13581    17352    19511    24043    27166    23329    20268 
   21224    19005    15743    18638    20571    16557    17004    23186 
   25880    23861    20968    19319    18095    16637    16083    15028 
   13288    15118    20424    23218    21888    21350    24414    27087 
   25385    22491    23160    26770    27600    22523    18495    19383 
   20098    21740    25463    24598    19354    17608    18717    15700 
   10917    10723    15368    21799    24189    21146    19491    22634 
   26478    26410    23994    23041    21581    18655    18045    18393 
   15118    11383    14620    21247    20575    15273    14239    15484 
   14694    12876    13208    18018    22933    23251    22999    22944 
   19993    18270    18573    17712    19255    23224    22809    18863 
   18127    19252    17689    15260    12854     9359     7686     9377 
   13103    21709    34111    38396    33685    31685    31063    26509 
   22183    17852    10675     7431    13008    20055    24066    26788 
   26446    24291    22642    21479    24494    26933    21153    15346 
   16267    19026    21394    22644    19491    16073    18496    19337 
   12549     8097    10311    10246     7047     5962     7277    11724 
   15531    14717    18003    27877    31182    23415    15345    14351 
   16723    18531    21392    24803    23103    16922    15977    19188 
   16943    15012    20835    25029    22505    21181    22346    20655 
   17142    15839    17644    19143    18092    19294    22573    21857 
   19440    18706    17269    13664     9599    11684    23634    35160 
   33920    24263    19712    20418    19515    21043    23890    18844 
   11203     9197    11295    16236    20852    22943    24880    24827 
   21932    21346    24383    25875    23431    21516    19213    10133 
    3500    12108    23240    19768     9969     9769    18650    25874 
   25980    23321    23854    26009    24943    19421    14945    17872 
   20745    17282    16691    21762    27167    29245    25239    20690 
   20630    20159    15128     8641     7739    13586    18104    16965 
   17296    22195    24070    22389    21703    20252    19067    19832 
   18712    17435    19685    19913    14823    12182    16119    19371 
   19337    21266    23592    22466    20494    19488    17478    15326 
   17220    19880    17296    14782    16918    21922    30276    36163 
   31677    22351    18002    17747    15456    12937    15498    19726 
   18705    14481    14581    18094    19103    19022    17836    12278 
   11032    18137    19315    14052    15014    15986    10752    10744 
   17586    20985    22473    25299    22567    17293    19554    25176 
   24871    19257    15653    16459    17011    19495    27463    29336 
   19827    11616    10706    14898    21217    23521    20827    18034 
   16657    15157    13907    13536    14852    19349    25849    32942 
   35149    26446    17952    19550    21053    18848    19826    21647 
   20935    20522    20335    17284    14227    16983    21732    21892 
   19658    16526    13320    15847    21523    21853    19870    21216 
   19803    14156    15561    23213    25266    21564    17876    16154 
   16062    17236    21795    27594    28321    25355    22459    18048 
   13814    14208    16843    17396    17933    19789    18964    16447 
   17680    19712    17289    15705    20052    23796    20698    15928 
   14654    13738    13477    16690    19592    20935    24274    26661 
   22113    16124    18893    24426    20954    14300    16206    24482 
   28098    22084    15938    18361    19330    13464    13143    19680 
   22461    22669    24337    21024    16146    19793    20614    12780 
   13409    22968    26850    24159    20567    18844    18798    16981 
   14308    15337    18084    17404    14821    15772    19118    19213 
   18968    22994    23523    17641    15310    16279    15464    16401 
   17892    18927    22067    22025    18779    19499    22242    22851 
   22068    19726    17284    16722    14449    11905    15688    19845 
   17872    17976    21937    22027    21070    21682    19758    18270 
   18746    19302    21932    23554    23332    25569    25046    19317 
   18063    23373    25296    19465    14536    17826    22905    21845 
   18362    18134    18624    18335    20112    20008    16444    18041 
   22605    20868    16937    16208    17143    19138    22291    24466 
   22377    18191    16217    15295    15111    15990    15786    17477 
   21809    21492    18119    16788    14543    13405    14925    15924 
   18048    20097    20000    19591    19754    21374    21402    18280 
   17949    20619    20834    19298    19236    19797    20736    22659 
   20437    14392    15643    23298    24113    17955    16599    21219 
   22297    20074    19634    18530    19159    22978    23056    20841 
   20221    19390    18681    17622    16195    16306    17687    20383 
   22023    19441    17784    19593    19489    19851    22048    19661 
   15630    14287    14188    17922    21703    18451    16263    20575 
   21389    17957    17834    18485    18102    18939    19230    19161 
   19920    19615    18852    20337    21124    17894    17698    21602 
   20020    18418    23512    24702    20040    17209    17452    20888 
   22977    20062    18462    20236    21131    19591    17257    16598 
   18334    21697    22138    17572    16266    20413    21859    21757 
   22777    19426    15614    16391    16497    16625    17759    16911 
   18179    21112    20902    20806    20826    16992    14905    18160 
   19745    18747    20908    23924    22171    18237    17170    17070 
   15739    15886    17182    18021    20532    22727    20564    18345 
   20343    21261    18376    16870    16841    15816    18443    22904 
   19913    15758    20011    23045    18989    17324    20101    20853 
   19322    19449    20308    19446    20718    24112    22094    17844 
   19296    21487    20193    19926    20879    19846    17583    17209 
   19938    21853    20850    20441    21469    21448    18783    17647 
   20926    20773    18252    20468    21392    19184    17618    16700 
   18713    20011    17346    18250    21992    19938    15925    17366 
   19507    17402    16664    18458    16977    16282    19337    19334 
   18237    20405    20868    18257    16194    15566    16231    17876 
   18667    17894    19064    22268    20299    17280    22199    24692 
   20457    20274    21203    19287    18204    16713    16996    20278 
   21402    20476    20363    20383    19257    18512    19639    19290 
   17139    18141    20376    18848    16551    17726    20515    22007 
   21817    19978    18345    19849    20614    16993    16605    20902 
