Origin Time       2024/04/02 04:24:00
Lat.              40.133
Long.             141.712
Depth. (km)       71
Mag.              6.0
Station Code      MYGH07
Station Lat.      38.1802
Station Long.     140.6405
Station Height(m) 44
Record Time       2024/04/02 04:25:12
Sampling Freq(Hz) 100Hz
Duration Time(s)  214
Dir.              1
Scale Factor      3923(gal)/8224838
Max. Acc. (gal)   2.647
Last Correction   2024/04/02 04:25:12
Memo.             
[...]
  -24225   -24055   -24042   -24030   -24221   -24813   -25092   -24952 
  -24790   -24514   -24322   -24337   -24231   -24182   -24425   -24587 
  -24468   -24344   -24406   -24495   -24511   -24582   -24644   -24474 
  -24190   -24146   -24283   -24333   -24452   -24638   -24638   -24807 
  -25253   -25448   -25477   -25573   -25478   -25274   -25110   -24769 
  -24313   -24036   -24008   -24119   -24355   -24733   -24902   -24668 
  -24482   -24408   -24160   -24057   -24190   -24139   -23982   -23924 
  -23849   -23731   -23626   -23490   -23114   -22650   -22804   -23392 
  -23619   -23780   -24173   -24304   -24268   -24409   -24553   -24669 
  -24692   -24445   -24216   -24192   -24075   -23781   -23561   -23544 
  -23537   -23395   -23265   -23180   -23198   -23562   -23877   -23746 
  -23735   -24007   -24144   -24329   -24476   -24274   -24205   -24243 
  -23901   -23695   -23836   -23855   -23971   -24229   -24270   -24321 
  -24414   -24347   -24366   -24424   -24297   -24008   -23481   -23048 
  -23153   -23436   -23620   -23966   -24410   -24668   -24700   -24637 
  -24653   -24767   -24817   -24696   -24525   -24578   -24803   -24856 
  -24819   -24906   -24892   -24750   -24804   -24916   -24827   -24819 
  -25056   -25188   -25076   -24880   -24592   -24271   -24121   -24063 
  -23990   -23982   -24062   -24278   -24491   -24402   -24268   -24397 
  -24574   -24726   -24854   -24827   -24823   -24937   -24938   -24881 
  -24876   -24640   -24243   -24273   -24691   -24961   -25042   -24980 
  -24678   -24328   -24015   -23738   -23691   -23809   -23949   -24177 
  -24441   -24614   -24607   -24414   -24173   -23926   -23824   -23959 
  -24021   -24019   -24093   -23981   -23772   -23679   -23638   -23814 
  -24183   -24538   -24927   -25158   -25047   -24772   -24537   -24641 
  -25015   -25072   -24814   -24619   -24412   -24248   -24290   -24336 
  -24314   -24224   -24090   -24251   -24601   -24730   -24630   -24412 
  -24397   -24742   -25092   -25424   -25717   -25681   -25481   -25142 
  -24576   -24273   -24310   -24173   -23917   -23970   -24121   -23955 
  -23768   -23845   -23827   -23711   -23791   -23804   -23769   -23955 
  -23980   -23947   -24471   -25114   -25401   -25552   -25435   -25027 
  -24725   -24624   -24703   -24775   -24568   -24444   -24669   -24822 
  -24822   -24858   -24741   -24525   -24532   -24615   -24606   -24703 
  -24848   -24799   -24733   -24804   -24970   -25402   -25806   -25652 
  -25380   -25288   -24961   -24659   -24709   -24718   -24544   -24291 
  -24021   -23854   -23714   -23715   -23946   -23836   -23382   -23145 
  -22939   -22766   -22948   -23039   -22816   -22527   -22280   -22488 
  -23091   -23542   -23965   -24340   -24375   -24293   -24263   -24462 
  -24879   -24952   -24744   -24602   -24320   -24088   -24123   -24077 
  -23923   -23761   -23646   -23885   -24208   -24224   -24339   -24591 
  -24619   -24632   -24675   -24634   -24817   -25119   -25143   -25087 
  -25303   -25648   -25695   -25397   -25151   -24960   -24590   -24379 
  -24510   -24586   -24503   -24395   -24196   -24100   -24201   -24003 
  -23564   -23479   -23495   -23251   -23097   -23205   -23387   -23392 
  -23257   -23292   -23284   -23155   -23425   -23749   -23565   -23396 
  -23457   -23391   -23417   -23777   -24268   -24638   -24826   -25088 
  -25404   -25475   -25496   -25616   -25722   -25965   -26246   -26314 
  -26271   -26123   -25988   -26164   -26345   -26142   -25775   -25371 
  -24972   -24823   -24688   -24235   -23737   -23388   -23122   -22968 
  -22941   -23055   -23193   -23144   -23049   -23164   -23349   -23314 
  -23151   -23089   -23105   -23296   -23579   -23465   -23203   -23234 
  -23167   -23006   -23114   -23264   -23456   -23693   -23541   -23323 
  -23560   -23792   -23625   -23400   -23523   -23878   -23970   -23930 
  -24294   -24764   -24965   -25166   -25313   -25250   -25272   -25415 
  -25413   -25246   -25195   -25409   -25439   -25146   -25223   -25602 
  -25678   -25866   -26235   -26131   -25843   -25612   -25053   -24571 
  -24556   -24686   -24838   -24861   -24667   -24619   -24714   -24636 
  -24432   -24254   -24148   -24012   -23634   -23130   -22788   -22526 
  -22215   -22014   -22023   -22184   -22365   -22457   -22518   -22626 
  -22797   -22960   -23064   -23310   -23742   -24146   -24478   -24664 
  -24737   -24910   -25073   -25199   -25432   -25702   -26136   -26632 
  -26792   -26933   -27183   -27062   -26867   -26886   -26777   -26681 
  -26635   -26346   -26045   -25855   -25640   -25456   -25278   -25119 
  -24984   -24765   -24530   -24379   -24312   -24285   -24267   -24298 
  -24239   -24071   -24051   -23969   -23599   -23342   -23321   -23279 
  -23278   -23380   -23503   -23642   -23692   -23633   -23554   -23377 
  -23198   -23295   -23553   -23699   -23727   -23656   -23610   -23958 
  -24576   -24975   -25239   -25450   -25386   -25388   -25732   -26060 
  -26122   -25759   -25078   -24656   -24468   -24254   -24262   -24295 
  -24179   -24314   -24468   -24383   -24441   -24541   -24534   -24652 
  -24733   -24740   -24881   -24902   -24672   -24526   -24441   -24148 
  -23749   -23454   -23353   -23398   -23433   -23431   -23242   -22796 
  -22688   -23012   -23076   -23037   -23306   -23510   -23468   -23317 
  -23132   -23175   -23363   -23436   -23656   -23971   -24020   -23976 
  -24028   -24201   -24578   -24802   -24613   -24408   -24412   -24495 
  -24588   -24599   -24606   -24757   -24830   -24679   -24495   -24254 
  -23970   -23930   -24001   -23896   -23773   -23716   -23656   -23657 
  -23649   -23658   -23855   -24036   -24027   -23861   -23510   -23360 
  -23603   -23674   -23592   -23807   -23986   -23893   -23816   -23757 
  -23718   -23882   -24140   -24291   -24291   -24147   -24023   -24088 
  -24256   -24464   -24715   -24939   -25096   -25045   -24773   -24684 
  -24802   -24772   -24848   -25293   -25744   -26113   -26461   -26407 
  -26117   -26160   -26164   -25836   -25722   -25740   -25524   -25393 
  -25309   -25076   -24988   -24821   -24282   -23886   -23835   -23895 
  -24092   -24306   -24354   -24293   -24101   -23811   -23500   -23126 
  -22878   -22879   -22862   -22874   -23090   -23291   -23506   -23818 
  -23830   -23643   -23824   -24202   -24433   -24713   -24977   -24981 
  -24975   -25045   -24871   -24547   -24240   -23820   -23484   -23400 
  -23495   -23846   -24115   -24012   -24036   -24185   -24111   -24187 
  -24501   -24802   -25304   -25798   -25909   -26075   -26392   -26314 
  -25917   -25547   -25189   -24984   -25034   -25116   -25146   -25149 
  -25031   -24784   -24520   -24298   -24165   -24258   -24491   -24471 
  -24159   -23745   -23348   -23313   -23479   -23359   -23288   -23346 
  -23157   -23116   -23325   -23445   -23711   -24040   -24151   -24200 
  -24120   -23977   -23989   -23905   -23770   -23789   -23757   -23766 
  -23870   -23851   -23996   -24314   -24378   -24432   -24807   -25205 
  -25357   -25390   -25506   -25610   -25629   -25717   -25820   -25852 
  -25918   -26009   -26073   -26025   -25760   -25474   -25259   -25008 
  -24865   -24795   -24516   -24183   -24133   -24408   -24838   -25165 
  -25425   -25736   -25744   -25446   -25273   -25034   -24630   -24421 
  -24182   -23762   -23453   -23139   -22825   -22682   -22497   -22345 
  -22369   -22275   -22137   -22210   -22324   -22384   -22400   -22366 
  -22360   -22306   -22249   -22447   -22736   -22829   -22916   -23128 
  -23286   -23546   -24021   -24223   -24127   -24282   -24663   -25027 
  -25362   -25477   -25419   -25428   -25330   -25084   -24972   -24948 
  -24845   -24692   -24522   -24455   -24511   -24375   -24028   -23870 
  -24023   -24308   -24632   -24875   -24831   -24651   -24810   -25335 
  -25753   -25863   -25876   -25953   -25984   -25963   -26049   -26073 
  -25759   -25340   -25097   -24881   -24560   -24235   -23967   -23816 
  -23866   -24001   -24012   -23946   -23986   -24237   -24644   -24946 
  -25016   -24919   -24484   -23747   -23207   -23043   -23164   -23681 
  -24340   -24621   -24634   -24764   -24842   -24641   -24439   -24482 
  -24606   -24597   -24476   -24358   -24268   -24232   -24314   -24525 
  -24772   -24894   -24926   -25024   -24914   -24472   -24225   -24204 
  -24009   -23930   -24109   -24264   -24665   -25405   -26010   -26407 
  -26524   -26179   -25713   -25193   -24436   -23869   -23688   -23722 
  -24058   -24349   -24078   -23446   -22704   -21994   -21735   -21828 
  -21843   -21944   -22356   -22898   -23410   -23853   -24175   -24294 
  -24358   -24563   -24740   -24748   -24549   -23978   -23317   -22928 
  -22528   -22095   -21946   -21762   -21346   -20989   -20648   -20586 
  -21303   -22270   -22929   -23525   -24160   -24803   -25404   -25631 
  -25620   -25741   -25922   -26184   -26460   -26423   -26257   -26067 
  -25501   -24744   -24351   -24586   -25359   -26157   -26717   -27035 
  -26605   -25462   -24378   -23348   -22644   -23303   -24736   -25751 
  -26735   -27402   -26781   -25724   -25035   -24452   -24474   -25215 
  -25843   -26184   -26296   -26157   -26095   -26014   -25492   -24552 
  -23541   -22731   -22057   -21398   -20952   -20769   -20756   -21095 
  -21878   -22843   -23566   -23776   -23734   -23743   -23782   -23965 
  -24109   -23957   -24086   -24734   -25338   -25897   -26558   -27083 
  -27399   -27332   -26744   -25948   -25304   -25157   -25444   -25502 
  -25243   -24912   -24264   -23522   -23122   -22789   -22438   -22318 
  -22451   -22774   -23248   -24150   -25389   -25959   -25648   -25058 
  -24032   -22824   -22392   -22573   -22910   -23776   -25054   -25980 
  -26164   -25640   -24773   -24093   -23807   -23815   -23877   -23672 
  -23198   -22883   -22964   -23313   -24011   -25305   -26878   -28065 
  -28568   -28059   -26142   -23692   -22253   -21995   -22384   -23236 
  -24070   -24678   -25456   -26284   -26923   -27615   -28279   -28518 
  -28020   -26838   -25733   -25281   -25218   -25276   -25525   -26113 
  -26713   -26670   -26248   -25830   -24950   -23935   -23572   -23625 
  -23992   -24760   -25259   -25033   -24379   -23495   -22277   -21216 
  -21155   -21980   -23118   -24403   -25540   -26134   -26025   -25087 
  -23500   -21752   -20235   -19499   -19838   -20686   -21806   -23707 
  -25987   -27587   -28370   -28389   -27202   -25280   -23701   -22503 
  -21753   -22048   -22740   -23051   -23274   -23377   -23588   -24367 
  -24912   -24896   -24906   -24826   -24734   -24875   -24896   -24885 
  -24945   -24865   -25162   -26127   -27056   -27641   -28035   -27769 
  -26298   -24178   -22551   -21668   -21043   -20637   -20672   -20987 
  -21335   -21771   -22362   -22827   -22882   -22813   -23106   -23774 
  -24524   -25107   -25450   -25713   -25883   -25825   -25605   -25043 
  -24066   -23079   -22216   -21616   -21573   -21780   -21901   -21887 
  -21536   -21097   -20911   -20715   -20505   -20603   -21212   -22522 
  -24132   -25444   -26632   -27557   -27633   -27294   -27247   -27442 
  -27723   -27846   -27437   -26647   -25928   -25432   -25186   -25249 
  -25516   -25559   -24817   -23475   -22545   -22376   -22596   -23182 
  -23733   -23589   -23310   -23544   -23832   -23938   -24020   -24127 
  -24588   -25255   -25390   -25020   -24429   -23579   -22901   -22739 
  -22858   -23186   -23535   -23477   -23110   -22616   -21899   -21177 
  -20668   -20447   -20866   -21776   -22316   -22203   -21929   -22126 
  -22999   -24052   -24992   -25820   -25957   -25340   -24848   -24683 
  -24737   -25199   -25563   -25454   -25471   -25961   -26800   -27724 
  -28269   -28305   -27972   -27348   -26681   -26055   -25411   -24846 
  -24333   -23827   -23311   -22794   -22731   -23322   -24088   -24972 
  -26023   -26673   -26825   -26913   -26936   -26882   -26870   -26681 
  -26308   -26083   -25884   -25366   -24803   -24772   -25023   -24811 
  -24243   -23727   -22993   -21984   -21068   -20352   -20201   -20996 
  -22185   -23155   -23912   -24471   -24877   -25178   -25158   -25016 
  -25177   -25357   -25498   -26264   -27367   -27897   -27989   -28009 
  -27882   -27859   -28096   -28194   -27872   -27247   -26410   -25162 
  -23811   -23109   -22937   -23041   -23685   -24367   -24663   -24865 
  -24471   -23392   -22994   -23623   -24370   -25139   -26399   -27857 
  -28536   -27962   -26704   -25317   -24012   -23404   -23714   -24001 
  -23762   -23584   -23549   -23102   -22519   -22338   -22010   -21141 
  -20520   -20507   -20617   -20834   -21348   -21986   -22794   -23801 
  -24516   -24702   -24669   -24390   -23603   -22809   -22561   -22423 
  -22196   -22067   -21691   -21424   -21961   -22788   -23629   -24614 
  -25107   -25177   -25378   -25305   -24991   -24895   -24602   -24085 
  -23708   -23064   -22338   -22050   -21725   -21359   -21374   -21398 
  -21452   -21919   -22557   -23209   -23888   -24247   -24177   -24125 
  -24657   -25782   -26674   -26762   -26446   -26181   -25955   -25699 
  -25478   -25205   -24613   -23861   -23342   -22809   -22158   -22103 
  -22723   -23363   -23854   -24151   -24443   -25245   -25988   -26094 
  -26422   -27097   -27218   -27054   -27213   -27486   -27650   -27560 
  -27132   -26542   -25766   -24957   -24467   -24055   -23854   -24437 
  -25069   -24966   -24829   -24853   -24394   -23538   -22509   -21405 
  -20838   -21007   -21409   -21855   -22393   -22812   -22947   -23161 
  -23774   -24328   -24876   -26098   -27306   -27822   -28598   -29755 
  -29901   -28629   -26967   -25810   -25401   -25728   -26365   -26632 
  -26257   -25381   -24448   -23917   -23471   -22747   -22397   -22631 
  -22748   -22918   -23525   -23943   -23915   -23754   -23560   -23734 
  -24494   -25471   -26520   -27282   -27321   -26831   -25824   -24524 
  -23676   -23031   -22427   -22867   -24017   -24295   -23469   -22146 
  -20838   -20344   -20907   -21845   -22777   -23639   -23940   -23392 
  -22567   -22181   -22414   -22931   -23206   -23220   -23471   -24013 
  -24607   -25309   -25911   -26021   -25895   -25974   -26306   -26886 
  -27325   -26854   -25756   -25042   -24618   -24112   -24212   -25189 
  -26239   -26651   -26156   -24987   -23863   -23392   -23668   -24057 
  -23967   -23738   -23556   -23071   -22588   -22582   -22883   -23195 
  -23390   -23419   -23309   -23247   -23399   -23261   -22476   -22017 
  -22756   -23973   -24765   -25292   -25753   -25938   -25956   -25982 
  -25744   -25074   -24386   -24198   -24408   -24636   -24861   -24991 
  -24949   -25155   -25477   -25280   -25074   -25555   -26005   -25883 
  -25876   -26250   -26410   -26125   -25666   -25346   -25477   -26030 
  -26242   -25435   -24061   -22867   -21949   -21593   -22096   -22752 
  -23249   -23899   -23969   -23215   -22562   -22000   -21354   -20923 
  -20669   -21015   -21975   -22600   -22921   -23172   -23013   -22994 
  -23344   -23237   -22854   -22918   -23222   -23453   -23826   -24466 
  -24942   -25016   -25181   -25292   -24772   -24266   -24439   -24957 
  -25434   -25475   -25218   -25451   -26007   -26325   -26491   -26253 
  -25832   -26111   -26485   -26165   -25697   -25293   -25142   -25450 
  -25455   -25321   -25787   -25897   -25057   -24379   -24243   -23973 
  -23633   -23653   -23676   -23232   -22788   -23120   -23830   -24021 
  -24052   -24244   -23990   -23809   -24354   -24594   -24120   -23544 
  -22900   -22631   -23144   -23554   -23490   -23402   -23373   -23745 
  -24507   -24664   -24202   -23959   -23643   -22900   -22420   -22543 
  -22937   -23284   -23220   -22812   -22774   -23314   -23572   -23044 
  -22613   -23124   -24165   -25137   -25942   -26531   -26832   -26829 
  -26561   -26320   -26307   -26414   -26720   -27039   -26747   -26165 
  -26041   -25861   -25172   -24838   -25151   -25197   -24833   -24576 
  -24183   -23757   -24225   -25155   -25123   -24312   -23754   -23585 
  -23892   -24827   -25689   -25832   -25537   -25323   -25366   -25458 
  -25301   -24834   -24212   -23689   -23498   -23607   -23571   -23164 
  -22950   -23076   -23059   -23164   -23565   -23660   -23631   -23797 
  -23641   -23306   -23248   -23307   -23623   -23994   -23730   -23233 
  -23014   -22840   -22775   -22727   -22430   -22138   -21960   -21909 
  -22127   -22391   -22627   -22864   -22689   -22423   -23028   -23982 
  -24247   -24522   -25288   -25353   -24780   -24946   -25598   -26104 
  -26700   -26731   -25785   -24975   -24880   -25226   -25807   -26141 
  -26040   -25868   -25714   -25560   -25517   -25624   -25928   -26326 
  -26588   -26654   -26669   -26816   -26765   -26061   -25245   -24938 
  -25008   -25340   -25482   -24952   -24468   -24449   -24240   -23809 
  -23411   -23006   -22912   -23156   -23535   -24059   -24252   -24066 
  -24364   -25072   -25552   -26179   -26943   -27175   -27409   -28024 
  -28063   -27498   -26978   -26473   -26241   -26122   -25286   -24070 
  -23016   -21830   -20895   -20659   -20638   -20884   -21647   -22017 
  -21624   -21398   -21621   -21936   -22358   -23082   -24062   -24682 
  -24723   -24773   -24750   -24362   -23909   -23576   -23700   -24178 
  -24020   -23267   -22585   -21963   -21786   -22211   -22578   -23010 
  -23556   -23657   -23731   -23909   -23539   -23026   -22647   -21991 
  -21654   -22041   -22550   -23116   -23539   -23140   -22520   -22530 
  -22607   -22547   -23083   -24030   -24799   -25737   -26987   -28107 
  -29003   -29571   -29605   -29258   -28718   -28316   -28174   -27865 
  -27531   -27359   -26647   -25477   -24669   -24366   -24696   -25488 
  -25617   -24922   -24421   -24425   -24810   -25358   -25448   -25226 
  -25293   -25552   -26007   -26447   -26068   -25159   -24679   -24572 
  -24474   -24408   -24291   -23912   -23199   -22381   -21865   -21703 
  -21670   -21841   -22262   -22422   -22196   -22378   -23095   -23562 
  -23880   -24545   -25145   -25531   -26080   -26414   -26140   -25404 
  -24232   -23271   -23257   -23600   -24040   -24895   -25118   -24217 
  -23487   -23394   -23434   -23492   -23344   -22905   -22762   -23364 
  -24329   -24935   -25308   -25797   -25668   -24759   -24213   -24287 
  -24563   -25213   -26068   -26736   -27326   -27603   -27051   -25751 
  -24359   -23588   -23384   -22881   -21772   -20684   -19862   -19133 
  -19029   -19970   -21307   -22418   -23125   -23290   -23188   -23004 
  -22451   -21930   -22177   -22977   -23595   -23566   -23032   -22801 
  -23348   -24077   -24302   -24386   -24950   -25529   -25573   -25620 
  -25884   -25780   -25380   -25350   -25731   -25839   -25527   -25447 
  -25404   -24815   -24405   -24552   -24503   -24281   -24243   -24322 
  -24711   -25307   -25756   -26149   -26414   -26574   -26825   -26639 
  -25969   -25674   -25956   -26680   -27313   -26636   -24960   -23754 
  -23026   -22239   -21710   -21578   -21613   -21683   -21577   -21450 
  -21648   -22081   -22924   -24128   -24857   -25068   -25293   -25293 
  -25250   -25694   -26061   -26102   -26365   -26495   -26075   -25497 
  -24919   -24455   -24132   -23602   -23241   -23537   -23768   -23296 
  -22608   -22293   -22341   -22667   -23356   -24212   -24910   -25321 
  -25300   -24814   -24124   -23442   -22842   -22441   -22339   -22577 
  -23113   -23662   -23789   -23265   -22524   -22405   -22792   -22819 
  -22457   -22173   -22000   -21830   -21803   -22046   -22308   -22584 
