Origin Time       2024/04/02 04:24:00
Lat.              40.133
Long.             141.712
Depth. (km)       71
Mag.              6.0
Station Code      MYGH03
Station Lat.      38.9207
Station Long.     141.6377
Station Height(m) -37
Record Time       2024/04/02 04:24:59
Sampling Freq(Hz) 100Hz
Duration Time(s)  124
Dir.              1
Scale Factor      2942(gal)/8224139
Max. Acc. (gal)   13.061
Last Correction   2024/04/02 04:24:59
Memo.             
[...]
  -44350   -46940   -46199   -44462   -42218   -40560   -42435   -44848 
  -44351   -44253   -44820   -42593   -39293   -38686   -39825   -40923 
  -42561   -43137   -42396   -43596   -46093   -46445   -44140   -41408 
  -39935   -39793   -41384   -43845   -44473   -42165   -38415   -35942 
  -36633   -39912   -42097   -41168   -40331   -40055   -38734   -40123 
  -44664   -46935   -46303   -44412   -41224   -40506   -44182   -47422 
  -48084   -46757   -43472   -41292   -41612   -42631   -43605   -43479 
  -42583   -42892   -43428   -42898   -42306   -42658   -44328   -45037 
  -43565   -43486   -44653   -44054   -42930   -41758   -40119   -39920 
  -41663   -44045   -45472   -45189   -43443   -40591   -39128   -40378 
  -42024   -43626   -45312   -44940   -43175   -43027   -44551   -45642 
  -44180   -40999   -40544   -43293   -46003   -47187   -45187   -41033 
  -39205   -40535   -43380   -46148   -45343   -41678   -40695   -41273 
  -40379   -41439   -43663   -43000   -41850   -41705   -41646   -43254 
  -45264   -44487   -41611   -39100   -38236   -40170   -43384   -43722 
  -42697   -42475   -41015   -40643   -42624   -43449   -43800   -45418 
  -45902   -43699   -41181   -40370   -40720   -42796   -45158   -43440 
  -39987   -40116   -42372   -43074   -42115   -41906   -42480   -41338 
  -40090   -41829   -44517   -45299   -44483   -42614   -40235   -40248 
  -42765   -43220   -42434   -44153   -44955   -41442   -38350   -40694 
  -45620   -48089   -46765   -43000   -40865   -41990   -43241   -43591 
  -43700   -44080   -44857   -43843   -42093   -42500   -42935   -42412 
  -43372   -44494   -42757   -40020   -39561   -40502   -40552   -39968 
  -40259   -41428   -42917   -44143   -43275   -41629   -42815   -44428 
  -44157   -44605   -44863   -44271   -43976   -42406   -41677   -42998 
  -43166   -43386   -44689   -45133   -44857   -42927   -39278   -37952 
  -40302   -43505   -44961   -43707   -42411   -43359   -43451   -41922 
  -41868   -42668   -42719   -42419   -41697   -41277   -42383   -42931 
  -41380   -41119   -42786   -42966   -41796   -40400   -39568   -41497 
  -44038   -44221   -44452   -45172   -43862   -41230   -40259   -43322 
  -47001   -44857   -40890   -42159   -43777   -40859   -37990   -38362 
  -40587   -43283   -45021   -45346   -45212   -44049   -41204   -39618 
  -41646   -44599   -45301   -44473   -43600   -42520   -42782   -45056 
  -45810   -43636   -40657   -39785   -42392   -44720   -43551   -41716 
  -42618   -44589   -44101   -42329   -41777   -41870   -42507   -43636 
  -43903   -43336   -42745   -41793   -40390   -39877   -40691   -41665 
  -42329   -43101   -43544   -42352   -40612   -41220   -43602   -45006 
  -44478   -43005   -42489   -43366   -44278   -43459   -41165   -40957 
  -42896   -42943   -42214   -43158   -43056   -42016   -42607   -43191 
  -43175   -42916   -41874   -42001   -42982   -43119   -42992   -41742 
  -40672   -42344   -44034   -43768   -43028   -41754   -40581   -42064 
  -45187   -45913   -44058   -42618   -42186   -41758   -41692   -42222 
  -43164   -44239   -43622   -41754   -41115   -41330   -42526   -44146 
  -42927   -40516   -40842   -42959   -44456   -43722   -41185   -40417 
  -41773   -41631   -40957   -42620   -44184   -44577   -45281   -43730 
  -41000   -42417   -44643   -42924   -41503   -42480   -42657   -42556 
  -43564   -43784   -43119   -43039   -42406   -41597   -42962   -44109 
  -41979   -39312   -39491   -42196   -45295   -45893   -43294   -40956 
  -41042   -41867   -41621   -41096   -42502   -44775   -44637   -42962 
  -43125   -44018   -43116   -42762   -43542   -42708   -42153   -43515 
  -43434   -40937   -39259   -40513   -43112   -43798   -42511   -42732 
  -44211   -42534   -39595   -40555   -42944   -43727   -44108   -43672 
  -42693   -42705   -42705   -42406   -43210   -44120   -43672   -43148 
  -43301   -43467   -44176   -44599   -43106   -42148   -43297   -43424 
  -42913   -44547   -45385   -43200   -41831   -42566   -42426   -42493 
  -43779   -42819   -40713   -41242   -43123   -43432   -42095   -41299 
  -41719   -42709   -44510   -45322   -42936   -40603   -41571   -42768 
  -42056   -41933   -43835   -45034   -43456   -42226   -42608   -42183 
  -41312   -41189   -42207   -44012   -44194   -42078   -39766   -39276 
  -41130   -42747   -42722   -43312   -44350   -44178   -43109   -41474 
  -40502   -41740   -43286   -42893   -42620   -42693   -40659   -40454 
  -44957   -46992   -43289   -40556   -41445   -42813   -42920   -41570 
  -40984   -42093   -42903   -43386   -42649   -40398   -39676   -40797 
  -43085   -45555   -44950   -42009   -39317   -37906   -39568   -42870 
  -45231   -45835   -43568   -41341   -41771   -42340   -42831   -44126 
  -44618   -43409   -41161   -40270   -41918   -43780   -43908   -42778 
  -42310   -43173   -43024   -41789   -41917   -42854   -44085   -45175 
  -44196   -43082   -43580   -43353   -42662   -43059   -43270   -43291 
  -44208   -44562   -43456   -42407   -42344   -43060   -43669   -42952 
  -41839   -42163   -42928   -43079   -43642   -44574   -45234   -45682 
  -45261   -43663   -42118   -41268   -40699   -40988   -42183   -42495 
  -41987   -42336   -43243   -43244   -42215   -41743   -42392   -43214 
  -43349   -42774   -43077   -43775   -43345   -43565   -43931   -43009 
  -42543   -41755   -40891   -41674   -41702   -40946   -41304   -42133 
  -42483   -41806   -41085   -40684   -40810   -42898   -45249   -45135 
  -42770   -40662   -41197   -43070   -43815   -43267   -41426   -39912 
  -40744   -41836   -42867   -44555   -44284   -43162   -43214   -43811 
  -45353   -45445   -42456   -40491   -41112   -41771   -41952   -42191 
  -42819   -44010   -44307   -43353   -42827   -43749   -44922   -44128 
  -42984   -43329   -43249   -43248   -43787   -43383   -42892   -41962 
  -40352   -39853   -40182   -41296   -43529   -44713   -43665   -42242 
  -41547   -41264   -42129   -43399   -43810   -43803   -42569   -41196 
  -42078   -43032   -41970   -41026   -42018   -43340   -42742   -41158 
  -41585   -43322   -43006   -41868   -41389   -40894   -42927   -46044 
  -45697   -43927   -42471   -40612   -41220   -44096   -44367   -42520 
  -41449   -40705   -40964   -42433   -43259   -43067   -42924   -43632 
  -44055   -43109   -42435   -43352   -43897   -42434   -40801   -41013 
  -43162   -44737   -42757   -40186   -40784   -41854   -41982   -43384 
  -44354   -41851   -38803   -40116   -44170   -46175   -45833   -44663 
  -43191   -42514   -42687   -43179   -43225   -41920   -41754   -43262 
  -43796   -44639   -45260   -43614   -42203   -41512   -40479   -40533 
  -41872   -43752   -45551   -45243   -41758   -38639   -39495   -42321 
  -45158   -46834   -44724   -41705   -41412   -42133   -42896   -43499 
  -43546   -43754   -43853   -43040   -41504   -40069   -40200   -42148 
  -43555   -43336   -42213   -40325   -39594   -41037   -42174   -42461 
  -42689   -43437   -45141   -44832   -42547   -42734   -44334   -44207 
  -43399   -42618   -41682   -41980   -43087   -43125   -43189   -44185 
  -44065   -42354   -40587   -39934   -41312   -42566   -41555   -40832 
  -41162   -41577   -42589   -41925   -39555   -39772   -41686   -42215 
  -42331   -42445   -41732   -40481   -40196   -42623   -45979   -45897 
  -42379   -40050   -40755   -43347   -46780   -47447   -43876   -40626 
  -40745   -43691   -46303   -45409   -43411   -42784   -43033   -43935 
  -43735   -42172   -41693   -42249   -41504   -40134   -40954   -42354 
  -42454   -42360   -40853   -39399   -41575   -44290   -44832   -44799 
  -44579   -44427   -43974   -42947   -42673   -42573   -42133   -43186 
  -45743   -46449   -43765   -41391   -42253   -43880   -44089   -43684 
  -42950   -42611   -42577   -42006   -43043   -43973   -41539   -40149 
  -42028   -43560   -43756   -43997   -44374   -43036   -40784   -40972 
  -42911   -44437   -44917   -44018   -43069   -42712   -42025   -41149 
  -40459   -40996   -43713   -45962   -44601   -41922   -42202   -44458 
  -45549   -44968   -42901   -40533   -40435   -42639   -44379   -44548 
  -43275   -41223   -40518   -40018   -39091   -41210   -44755   -44502 
  -40738   -38911   -41497   -44124   -43795   -43390   -44612   -44432 
  -41728   -39814   -39849   -40690   -42182   -42597   -41450   -42053 
  -44101   -44271   -43050   -42317   -42418   -42624   -42192   -42141 
  -44042   -45962   -44062   -40743   -40765   -42095   -43200   -45119 
  -44737   -42080   -40851   -40055   -39553   -41250   -43090   -43191 
  -42499   -42402   -43722   -44799   -44091   -43725   -44625   -44416 
  -43069   -42214   -41040   -38854   -38645   -42661   -45694   -43946 
  -42400   -42793   -42202   -41554   -41515   -41116   -41655   -43525 
  -44867   -44216   -41143   -38908   -40663   -43042   -44217   -45123 
  -43842   -42570   -43956   -44848   -44574   -43684   -41604   -41041 
  -42028   -42269   -43295   -44153   -42776   -41677   -41480   -41272 
  -42186   -44242   -45844   -45048   -43000   -42272   -41929   -41890 
  -42745   -42912   -42892   -43113   -42372   -41431   -40906   -40900 
  -41656   -42569   -43900   -45214   -45312   -43933   -41786   -41767 
  -43721   -43576   -41584   -40774   -41493   -42107   -41347   -40254 
  -40647   -42188   -43114   -42773   -42310   -42319   -42095   -41887 
  -42380   -43609   -45122   -45065   -42645   -40674   -41073   -41805 
  -41716   -43321   -46217   -45711   -43171   -43667   -45310   -44768 
  -43085   -41300   -39787   -40616   -43619   -44464   -43054   -43218 
  -44478   -44691   -43654   -42207   -41265   -41133   -42082   -43024 
  -42817   -42539   -43490   -44246   -42215   -40178   -40899   -41087 
  -41287   -44028   -45323   -42880   -40427   -40290   -41442   -43444 
  -46170   -46715   -43807   -41413   -41754   -42651   -43684   -44844 
  -42870   -40682   -43318   -44616   -42265   -42014   -42867   -43290 
  -42728   -39429   -37962   -40158   -41010   -40848   -42205   -43387 
  -43569   -43017   -42236   -42790   -43688   -43826   -44093   -43572 
  -42472   -42597   -43235   -43467   -43490   -43587   -44150   -44331 
  -43633   -43918   -44747   -42869   -39733   -39150   -40726   -42716 
  -43303   -41789   -42180   -45590   -45577   -41160   -39367   -41377 
  -42792   -42940   -43592   -44213   -42877   -40481   -39943   -41561 
  -43467   -44200   -43776   -43483   -43479   -43372   -43916   -44506 
  -43536   -41515   -39904   -39888   -42935   -47258   -47156   -41775 
  -38118   -39717   -41844   -42635   -44321   -45169   -44239   -44010 
  -43457   -41469   -41469   -43252   -43618   -43726   -43749   -42520 
  -42599   -44594   -44514   -41571   -39773   -40184   -40802   -41185 
  -42083   -43386   -43151   -41376   -40541   -40971   -41328   -40410 
  -38943   -40420   -44512   -45873   -44336   -44207   -44626   -43370 
  -42130   -42392   -44128   -44992   -42376   -39664   -39378   -39094 
  -39783   -42588   -45273   -45995   -44253   -42457   -41527   -40348 
  -41725   -45098   -45492   -43615   -42187   -41648   -42422   -43232 
  -43062   -43231   -43580   -42468   -41720   -43721   -44941   -42813 
  -40954   -41206   -41632   -41783   -42207   -42241   -42331   -43086 
  -43954   -45040   -44378   -41670   -41607   -44077   -44632   -43071 
  -41513   -41296   -42881   -44749   -44583   -42924   -42415   -43208 
  -43062   -41619   -41643   -42830   -42588   -43906   -45820   -43179 
  -41655   -44220   -43703   -41362   -42446   -44483   -44331   -42739 
  -41534   -41156   -41368   -41742   -40780   -39717   -41743   -44127 
  -42965   -40709   -40117   -41301   -43228   -44086   -43704   -42643 
  -41439   -41326   -42384   -43981   -44841   -42472   -39128   -38666 
  -39124   -40865   -45149   -47035   -44878   -42381   -40466   -39185 
  -40840   -43113   -42238   -41733   -42587   -41688   -41674   -43717 
  -44109   -43243   -43337   -43254   -43491   -44936   -44809   -43399 
  -42951   -42340   -42664   -44254   -42731   -38921   -37573   -39301 
  -42503   -44370   -44221   -44138   -43114   -40899   -40446   -41462 
  -42117   -43220   -43515   -41817   -41389   -41993   -41721   -43023 
  -44941   -43978   -41739   -41320   -42678   -44074   -44378   -44120 
  -44373   -44286   -43517   -44350   -45171   -43086   -41565   -42218 
  -42284   -41625   -41689   -42552   -42741   -42911   -44878   -46676 
  -46180   -44132   -42502   -42580   -43760   -44556   -43788   -42229 
  -41663   -41524   -41274   -42529   -44518   -44982   -44579   -43293 
  -40639   -39748   -41872   -44470   -46259   -46067   -44196   -43402 
  -42695   -41447   -42418   -43989   -43198   -41196   -40304   -41470 
  -42700   -41817   -39613   -38344   -40282   -43722   -44332   -42925 
  -41461   -40182   -42132   -45990   -46422   -44664   -43546   -42728 
  -43029   -44428   -44482   -43002   -41681   -41011   -42240   -45057 
  -46360   -46826   -47328   -45507   -44250   -46051   -46755   -47507 
  -51043   -52186   -50240   -49897   -49736   -48265   -46742   -44848 
  -44714   -47086   -49723   -53534   -56130   -53466   -48489   -42086 
  -33281   -27845   -26600   -25130   -28092   -37606   -45470   -49063 
  -51111   -50148   -44836   -39048   -39868   -47173   -51183   -51202 
  -53723   -54751   -53048   -53908   -53804   -47981   -37119   -26021 
  -20610   -16875   -10739    -9081   -14762   -21802   -23926   -21045 
  -21559   -28948   -35830   -39808   -44142   -47036   -48355   -51983 
  -56457   -58480   -58549   -56403   -52887   -47758   -34142   -15290 
   -6176    -8721   -11507    -9321   -11392   -24470   -39044   -49860 
  -61057   -69826   -73688   -73994   -70598   -65287   -55912   -41851 
  -33029   -30538   -25045   -20717   -27589   -40354   -47979   -48906 
  -47807   -46407   -44362   -48446   -60049   -65576   -63171   -62888 
  -61003   -55094   -54129   -54909   -49608   -42832   -34886   -25243 
  -25571   -36201   -42712   -43372   -46762   -50800   -45582   -32761 
  -24574   -23643   -26561   -38356   -58294   -72704   -75778   -70822 
  -57396   -42394   -39253   -44271   -44069   -37949   -34967   -38816 
  -41692   -41704   -47703   -56448   -58808   -58025   -58500   -59994 
  -62618   -59722   -44466   -28929   -27425   -33238   -36846   -41038 
  -52705   -69070   -71255   -52065   -31538   -23688   -20614   -13424 
   -7380   -11929   -21155   -25131   -27160   -31291   -36053   -36483 
  -32467   -33058   -36938   -37856   -38496   -37214   -31348   -30044 
  -41553   -56532   -61549   -58518   -55016   -50566   -43276   -38399 
  -37585   -33610   -26534   -23911   -27233   -31984   -32741   -30087 
  -33745   -46705   -54793   -50082   -44497   -45233   -46967   -47673 
  -47460   -46754   -49337   -51422   -46890   -43259   -47447   -53601 
  -54526   -52731   -55613   -59088   -54847   -45863   -38583   -37354 
  -41769   -43027   -39372   -44336   -59930   -68364   -66043   -65407 
  -65079   -56268   -41932   -32148   -31195   -30912   -26910   -27576 
  -31037   -29596   -27803   -30688   -37513   -43514   -48830   -57842 
  -59049   -46715   -38955   -40090   -38408   -37359   -44172   -55547 
  -64353   -61508   -51680   -50950   -53187   -44100   -33211   -31183 
  -30896   -26573   -22422   -24530   -33683   -41945   -42534   -38786 
  -39019   -44119   -45638   -45208   -47830   -47217   -43252   -38002 
  -30678   -30530   -38561   -41184   -40500   -44505   -42526   -35222 
  -37174   -41847   -39171   -35133   -35695   -39417   -42893   -50063 
  -60345   -61852   -56328   -53358   -52543   -51128   -46156   -39197 
  -34010   -28775   -26593   -30426   -37528   -48972   -57539   -53526 
  -47247   -46822   -44145   -38294   -35687   -36329   -35448   -32514 
  -35985   -47857   -54400   -48058   -40821   -41655   -42321   -40930 
  -45058   -51518   -55817   -55525   -44720   -30966   -26603   -29153 
  -35039   -43097   -49500   -52420   -49469   -44248   -45920   -52690 
  -54315   -49137   -44527   -40521   -36022   -35367   -34572   -35340 
  -43241   -47495   -46415   -47324   -45416   -44069   -47380   -45125 
  -39077   -38600   -37585   -30981   -28915   -37592   -45866   -45100 
  -44344   -47837   -43942   -31517   -26466   -33646   -40154   -38696 
  -36832   -41539   -47096   -45752   -41696   -43680   -45976   -38983 
  -34836   -42628   -49013   -48390   -46811   -46044   -45910   -47305 
  -50032   -49646   -46217   -45760   -44616   -37951   -31553   -31081 
  -36867   -43020   -43268   -42037   -47545   -56265   -54360   -40732 
  -31893   -33515   -36447   -39361   -44347   -47413   -46018   -39349 
  -33393   -36930   -41449   -38129   -37524   -47367   -57233   -54434 
  -44948   -38554   -33718   -35044   -42036   -43181   -42256   -47741 
  -54253   -53372   -45906   -42105   -44181   -40717   -31754   -30916 
  -37126   -40945   -45384   -51865   -54082   -50387   -44861   -44215 
  -49034   -49613   -45100   -46576   -48496   -40159   -33200   -34501 
  -39307   -47721   -51547   -48172   -49974   -53352   -46489   -37115 
  -34816   -34438   -33401   -33538   -32787   -36782   -47564   -53262 
  -52658   -49080   -41812   -39266   -40940   -39861   -40844   -42430 
  -39884   -39545   -41300   -41395   -47247   -55111   -51841   -44760 
  -43656   -43475   -42253   -42097   -40911   -37577   -36333   -39912 
  -43598   -42291   -42695   -51490   -54993   -46314   -39825   -38345 
  -37858   -41864   -47304   -49515   -48417   -42529   -34825   -33168 
  -37157   -37534   -33831   -35268   -40481   -41168   -39961   -41175 
  -38971   -33921   -35648   -41428   -43686   -43235   -42014   -42066 
  -41875   -39221   -39888   -42633   -41141   -42238   -47831   -48007 
  -45411   -48440   -49639   -42709   -38788   -43532   -48753   -50723 
  -51564   -50400   -46016   -43411   -44656   -45279   -44853   -42819 
  -41739   -46876   -50184   -44848   -38489   -38398   -43478   -45530 
  -39509   -35792   -41922   -45605   -42256   -40684   -39312   -36653 
  -38018   -42334   -44277   -43216   -43182   -45111   -45488   -41011 
  -34069   -32641   -38800   -43791   -42527   -42704   -45632   -44986 
  -43344   -42423   -41092   -40517   -41000   -43800   -46469   -44440 
  -39487   -37322   -40255   -43987   -44813   -44772   -43305   -38464 
  -35978   -37503   -37226   -38904   -45307   -46666   -43063   -43723 
  -45563   -44406   -43841   -43098   -41025   -40059   -40898   -42925 
  -42955   -42630   -47347   -50377   -45682   -40576   -40663   -43046 
  -42489   -39295   -37462   -37382   -38645   -39287   -37423   -38041 
  -44508   -52026   -53854   -49935   -47866   -48018   -44625   -39123 
  -35012   -35729   -40417   -42839   -44086   -44822   -42969   -41621 
  -41143   -41254   -42039   -42805   -45666   -49360   -50379   -47829 
  -44186   -41010   -36073   -34944   -42519   -46681   -42033   -41947 
  -48293   -47321   -39040   -35961   -39835   -44323   -46327   -46484 
  -47310   -47831   -44905   -41874   -41905   -39999   -37747   -41729 
  -45553   -43939   -42087   -41138   -39436   -39148   -42394   -46499 
  -45987   -42676   -45382   -50373   -46359   -41214   -42589   -41627 
  -39833   -42414   -43841   -42461   -41010   -40444   -39225   -38076 
  -39729   -41554   -44192   -46722   -42734   -40652   -47220   -49384 
  -42664   -38362   -40635   -44208   -46175   -45404   -42545   -42824 
  -43869   -40140   -38931   -42778   -43717   -42111   -40863   -39429 
