Origin Time       2024/04/02 04:24:00
Lat.              40.133
Long.             141.712
Depth. (km)       71
Mag.              6.0
Station Code      MYGH11
Station Lat.      38.5158
Station Long.     141.3421
Station Height(m) -202.1
Record Time       2024/04/02 04:25:05
Sampling Freq(Hz) 100Hz
Duration Time(s)  120
Dir.              2
Scale Factor      3923(gal)/8224838
Max. Acc. (gal)   3.261
Last Correction   2024/04/02 04:25:05
Memo.             
[...]
   25027    24642    24757    24925    24845    25008    25296    25188 
   24854    24794    25010    25197    25390    25656    25685    25429 
   25158    24678    24224    24679    25404    25069    24375    24594 
   25205    25208    24854    24941    25466    25678    25401    25220 
   25089    24613    24287    24478    24719    25020    25544    25667 
   25178    24854    25142    25396    25105    24914    25010    24796 
   24578    24823    25137    25265    25328    25234    25119    25201 
   24980    24426    24424    24871    24952    24844    25097    25413 
   25309    25026    24845    24651    24597    24823    25027    25153 
   25215    25068    24877    24854    24995    25122    25168    25207 
   25018    24722    24867    25249    25319    25134    24984    25008 
   25164    25042    24430    24057    24401    24806    24903    24993 
   25158    25339    25423    25324    25253    25288    25254    24941 
   24471    24398    24733    25039    25240    25099    24692    24730 
   25041    25087    25053    25010    25062    25307    25239    24925 
   24948    25184    25330    25193    24690    24359    24533    24834 
   25026    25049    24923    24879    25033    25251    25342    25357 
   25371    25317    25234    25184    25222    25182    24915    24869 
   25096    25020    24746    24814    25114    24964    24397    24225 
   24564    24991    25168    24946    24906    25274    25173    24495 
   24270    24671    24865    24721    24726    24900    25034    25066 
   25139    25280    25186    24983    25006    25185    25377    25359 
   25070    24861    24807    24750    24790    24954    25006    24838 
   24721    24869    24957    24761    24814    25257    25355    25064 
   24999    25087    25080    25116    25371    25803    25867    25366 
   25083    25297    25209    24667    24632    25068    24973    24640 
   24773    24899    24683    24705    25185    25585    25618    25442 
   25201    25162    25357    25294    24972    24910    24772    24152 
   23949    24624    25253    25447    25537    25301    24848    25056 
   25672    25600    24992    24659    24725    24879    24841    24807 
   25119    25374    25145    24779    24679    24853    24988    24711 
   24405    24641    24969    24943    24881    24837    24825    25093 
   25326    25042    24594    24702    25093    24957    24603    24749 
   25176    25328    25127    25203    25817    25909    25172    24640 
   24437    24263    24309    24478    24638    24791    24904    25064 
   25177    25132    25089    25014    24895    24894    24842    24826 
   25232    25608    25447    25434    25721    25465    24997    25024 
   25128    24946    24617    24439    24694    25135    25382    25339 
   24993    24750    24884    24938    24894    25099    25420    25612 
   25474    25257    25311    25189    24723    24522    24907    25513 
   25578    25074    24811    25010    25276    25150    24522    24196 
   24738    25402    25382    24842    24417    24514    24983    25362 
   25301    24775    24364    24548    24864    25018    25259    25320 
   25004    24799    24752    24437    24121    24260    24634    24787 
   24607    24570    24958    25255    25105    24883    24939    25058 
   25158    25351    25186    24784    24799    25042    25261    25304 
   24979    24723    24811    24964    25087    25132    25000    24861 
   24904    25029    25069    25099    25231    25348    25259    24815 
   24282    24295    24835    25265    25265    25114    25274    25425 
   25157    25184    25652    25578    25006    24831    25088    25114 
   24912    25004    25120    24992    25070    25168    24929    24821 
   24962    24995    24946    24983    24964    24814    24941    25282 
   25137    24682    24510    24490    24528    24725    24989    25266 
   25235    24761    24790    25509    25543    24814    24653    25213 
   25505    25023    24610    25064    25604    25529    25277    25162 
   25201    25347    25370    25066    24588    24536    24921    25041 
   24818    24719    25118    25743    25872    25602    25365    25099 
   24821    24637    24687    25027    25213    25112    25196    25355 
   25182    24964    25043    25108    24775    24456    24582    24567 
   24386    24818    25415    25355    25074    25273    25618    25231 
   24444    24341    24700    24736    24339    23878    24085    24979 
   25667    25564    24950    24752    25126    25340    25317    25103 
   24549    24354    24702    24652    24386    24725    25250    25272 
   24976    24930    25209    25425    25463    25353    25007    24727 
   24842    24915    24610    24417    24772    25461    25710    25216 
   24834    25026    25154    24921    24719    24734    24817    24835 
   24727    24868    25564    26007    25618    25078    24749    24360 
   24136    24382    24749    24885    25061    25367    25346    25146 
   25132    24818    24339    24486    24912    24996    25038    25285 
   25471    25623    25820    25697    25313    25242    25548    25690 
   25284    24628    24260    24425    24830    24757    24430    24729 
   25200    25154    25064    25290    25481    25274    24889    24835 
   25158    25380    25159    24792    24609    24657    25093    25623 
   25575    25033    24919    25353    25276    24806    24834    25030 
   24979    24895    24848    24771    24618    24555    24931    25351 
   25043    24597    24861    25218    25023    24853    25131    25259 
   25174    25496    25658    25007    24457    24833    25371    25083 
   24394    24205    24441    24645    24698    24804    25119    25209 
   24854    24629    24691    24781    25126    25564    25363    24582 
   24131    24460    24837    24726    24795    25205    25274    25077 
   25154    25353    25240    24984    24781    24690    24946    25127 
   24880    24916    25328    25443    25331    25299    25278    25234 
   25245    25401    25436    25120    24894    24862    24721    24718 
   25095    25377    25056    24561    24444    24606    24958    25344 
   25427    25150    24879    25018    25292    25321    25207    24831 
   24270    24312    25240    26030    25691    24921    24788    24788 
   24399    24474    25294    25744    25290    24819    24948    25130 
   25022    24840    24804    25189    25502    25076    24382    24187 
   24783    25324    24741    24074    24563    25240    25266    25100 
   24929    24821    24966    25118    25242    25510    25540    24902 
   24295    24590    25049    25181    25564    25512    24568    24302 
   25193    25623    25101    24649    24543    24522    24659    24892 
   25030    24965    24868    24946    24869    24709    25150    25685 
   25448    25168    25556    25851    25336    24775    24750    24513 
   24325    24777    24935    24903    25378    25598    25300    25142 
   25155    25026    25046    25493    25686    25224    24687    24555 
   24749    24833    24780    24995    25150    25022    25134    25159 
   24676    24560    25153    25328    24736    24478    24819    25008 
   24976    25076    25285    25274    25011    24744    24474    24285 
   24414    24879    25351    25559    25493    25065    24692    24833 
   25020    25047    25073    25031    24937    24649    24429    24773 
   25130    25011    24826    24841    25038    25173    25034    24907 
   24992    25124    25205    25263    25130    24684    24510    24993 
   25240    24895    24922    25081    24609    24433    24907    24979 
   24752    25068    25744    26006    25548    25115    25496    26079 
   25915    25197    24745    24837    24896    24745    24906    25073 
   24700    24413    24668    24889    24867    24999    25401    25706 
   25519    25159    24950    24705    24610    24710    24775    24958 
   25085    24985    25042    25076    24792    24921    25509    25280 
   24308    23996    24536    24939    24688    24371    24628    25099 
   25165    24987    25176    25555    25277    24649    24626    24873 
   24861    25000    25274    25108    24779    24880    25142    24991 
   24521    24549    25132    25245    24908    24891    25073    25259 
   25425    25277    25010    24969    24976    25053    25211    25134 
   25153    25488    25451    24930    24474    24426    24939    25494 
   25416    25153    25289    25381    25034    24969    25543    25741 
   25408    25236    25049    24849    24706    24401    24341    24642 
   24927    24962    24799    24845    25060    25305    25535    25326 
   24972    25061    25074    24619    24281    24506    25154    25693 
   25810    25776    25456    24754    24436    24622    24765    24849 
   24834    24449    24038    24144    24313    24352    24925    25432 
   25224    25177    25591    25972    26046    25640    25010    24514 
   24414    24966    25551    25552    25270    24841    24605    24952 
   24845    23847    23692    24821    25380    25220    25768    26373 
   25856    24945    24412    24336    24760    25177    24950    24305 
   24093    24514    24927    24957    24752    24732    25016    25251 
   25393    25483    25280    24976    25008    25123    24818    24498 
   24904    25446    25284    25253    25770    25643    24827    24479 
   24630    24552    24293    24494    24966    24745    24181    24406 
   24821    24769    24960    25309    25551    26013    26037    25348 
   25000    25046    24997    25278    25606    25051    24182    24192 
   24881    25317    25146    24884    25169    25419    24923    24575 
   25068    25617    25600    25405    25432    25150    24578    24846 
   25424    25042    24532    24710    25011    24938    24575    24530 
   25002    25363    25131    24873    25346    25618    25069    25038 
   25569    25276    24584    24691    24953    24665    24822    25500 
   25456    25034    25215    25359    24904    24570    24707    24965 
   25321    25749    25756    25299    25022    25083    24942    24468 
   24213    24472    24637    24266    24025    24468    25122    25350 
   25262    25293    25359    25438    25623    25494    25164    25273 
   25351    24806    24416    24451    24424    24683    25003    24776 
   24690    25049    25149    25057    25339    25662    25554    25347 
   25228    24985    24695    24409    24155    24414    25199    25506 
   24933    24389    24505    24964    25342    25424    25311    24995 
   24367    24077    24243    24217    24385    24873    25034    24949 
   24864    24821    24935    25204    25409    25343    25350    25284 
   24769    24619    24965    25101    25120    24972    24619    24521 
   24833    25346    25570    25312    25062    25176    25357    25077 
   24644    24718    24999    25061    25078    25232    25547    25753 
   25695    25542    25273    25045    24929    24700    24547    24559 
   24736    25014    24943    24873    25208    25434    25470    25540 
   25521    25209    24765    24734    24719    24312    24439    24992 
   24833    24255    24178    24507    24763    25043    25439    25589 
   25400    25083    24695    24460    24565    24927    25467    25419 
   24460    24059    24649    24838    24533    24714    25108    24916 
   24489    24661    25002    24783    24644    24817    24660    24628 
   25170    25353    24749    24385    24821    25196    24894    24660 
   25222    25760    25223    24528    24849    25340    25073    24764 
   25095    25539    25617    25466    25321    25319    25374    25705 
   26079    25683    25209    25624    26103    25733    25060    25008 
   25235    25034    24925    25155    24884    24287    24412    24991 
   25130    25185    25980    26518    25667    25030    25596    25829 
   25281    24848    24742    24794    24976    24966    24451    24081 
   24490    24786    24390    24386    24858    24775    24501    24653 
   24771    24818    25184    25392    24931    24281    24048    24274 
   24491    24331    24322    24864    25155    24781    24390    24425 
   24861    25188    24931    24678    24815    24850    24844    25088 
   25274    25168    24744    24090    23781    24181    24713    24877 
   25033    25362    25510    25413    25219    24966    24652    24165 
   23886    24335    24900    24980    24811    24621    24781    25397 
   25699    25489    25392    25273    24872    24648    24611    24274 
   23737    23556    23773    24058    24298    24244    23953    24046 
   24525    24921    25011    24759    24455    24339    24534    25130 
   25417    25114    25093    25317    25324    25381    25397    25317 
   25255    25007    24798    24709    24638    24757    24698    24707 
   25436    25948    25335    24167    23446    23737    24652    25528 
   26418    26912    26231    25362    25139    24813    24988    26130 
   26547    26218    26458    26347    25355    24779    24518    23846 
   23554    24011    24402    24642    24929    25211    26158    27211 
   26927    26076    25585    25158    24750    24505    24854    25635 
   26148    26716    27623    28208    27976    27176    26196    25498 
   25714    26420    26779    26832    26491    25663    24734    23896 
   23708    24880    26657    27693    27978    28324    28921    29307 
   29482    29729    29606    28694    27203    25708    24930    25184 
   26172    26974    26798    25872    24736    23645    22725    22171 
   22071    22173    22639    23884    25500    26998    28167    28154 
   26524    24711    24000    23274    21257    19057    18160    18476 
   19542    20915    21678    21546    21405    21701    21782    21618 
   22241    23638    24530    24810    25327    25644    25412    25184 
   24602    23881    23959    24062    23449    22910    23008    23672 
   24634    25497    26219    26482    25681    24617    24453    24611 
   24001    22897    22396    22617    22824    23197    23922    23976 
   23403    23429    24259    25640    26927    27163    26867    26423 
   25666    26150    28119    28780    27140    25316    24576    24339 
   24144    23880    23755    24123    24792    25609    26734    28084 
   28922    28954    28910    28779    28602    28926    28818    27724 
   26369    24881    23561    22654    21648    20700    20456    21273 
   22844    24241    25300    26064    25910    25253    25402    26225 
   26472    25749    24776    24730    25186    24267    22727    22792 
   24001    24287    23376    22707    22707    23550    25321    26055 
   24845    23249    22374    22594    23329    23604    23804    24418 
   25581    27437    29710    31712    31145    27283    24444    24583 
   24140    22451    21986    22280    22122    22173    22986    24513 
   26083    26705    26636    26635    26395    25693    24946    24322 
   23922    24071    25230    27148    28466    28093    26379    25201 
   25620    25974    25060    24383    25043    25735    25293    24378 
   24119    24507    24167    23321    24478    26933    27873    28229 
   29224    29943    29837    27954    25635    26516    28753    27942 
   25469    24576    25073    25694    26380    27552    29037    29902 
   29085    26505    22914    19677    18800    20467    22555    23163 
   22300    21809    22176    21813    21084    22042    24075    25031 
   25375    25632    24813    24246    24953    24456    21926    20410 
   21814    24356    25582    25049    24190    24714    26472    26964 
   24834    22632    22535    23210    23668    25033    27248    28043 
   26956    25477    23872    23167    24765    27025    27417    25967 
   25205    26249    27063    26698    26117    26142    26900    26260 
   23295    21454    22455    23749    23992    24884    27149    28271 
   26833    24883    24084    24090    23164    21589    22802    25922 
   26437    25114    25666    26619    24452    21805    22194    23317 
   22998    21895    21298    22569    24642    25635    26511    28386 
   30342    30905    29949    28858    28094    27687    27618    26658 
   24814    23269    23036    24518    25031    23252    23188    25779 
   26809    26060    26335    26977    26487    25290    24173    23728 
   24335    25798    27000    26887    25601    24166    23441    22817 
   21622    20553    20047    20484    21909    22698    22335    22185 
   22547    22609    22827    24756    27108    27411    26765    26289 
   25382    24815    24653    23382    22079    23009    24543    24077 
   22750    22769    24059    25308    25833    26121    27305    29101 
   29512    27996    26086    24904    23901    23400    25157    27418 
   27440    26676    26701    26773    26752    27120    26908    26299 
   27445    28971    28012    26373    26346    26125    24641    24204 
   24827    24715    25566    27756    27891    25836    24853    25867 
   26538    25159    23607    23591    23608    23116    23870    26094 
   27135    25358    23768    24707    25806    25219    23566    22212 
   22567    23908    24065    22234    19943    19861    21857    23423 
   24166    24429    23703    23758    25980    27149    25991    26090 
   27521    26955    24876    23927    24445    25045    24730    24447 
   25496    26445    25519    23641    22212    21652    21803    21883 
   21755    22337    23695    24867    24861    23438    22473    23853 
   25771    25733    25342    26311    26079    23846    22650    23026 
   23758    24495    24487    23800    23669    24626    26099    27287 
   28030    28466    28267    27421    26801    26572    25951    24835 
   23629    22720    22358    22535    23431    24478    24702    25246 
   27236    28726    28428    27815    27571    27036    26527    27170 
   28431    28363    27282    26739    26379    25652    24771    23820 
   23110    23313    24471    25078    24547    24170    24223    24152 
   24073    24318    24640    24933    25829    26800    26790    26318 
   25778    24927    24564    24445    23373    22230    21712    21568 
   22410    24088    25293    25478    26284    28282    28475    26605 
   26019    26353    25434    24248    23727    23745    24588    25172 
   25246    26177    26983    26442    25581    25296    25590    25590 
   24953    25168    26050    25656    24290    23120    22500    23168 
   24355    23965    22854    23341    25146    26100    25006    23634 
   23579    23697    23691    23727    23058    22242    22223    23199 
   24764    25790    25760    25105    25045    26374    27889    28350 
   27456    25736    24703    23947    22133    20802    21982    25250 
   28655    29628    26968    23662    23425    25199    26257    26464 
   26519    26649    26457    25425    24341    23677    23085    23253 
   24204    24871    25296    25770    25972    25929    26103    26410 
   26481    26692    26967    26931    27093    26773    25186    23982 
   24228    24896    25132    25259    25231    23850    21807    21698 
   23359    23618    22160    22462    24885    26538    26508    25543 
   25039    25504    25193    23992    23761    23893    23040    22782 
   24371    25506    24883    24783    26098    27444    27828    26871 
   25810    26086    26779    26308    24931    24541    25861    27446 
   27851    27058    25976    25178    24903    25039    25209    25243 
   24475    23392    23326    23525    23213    23255    24194    24664 
