Origin Time       2024/04/02 04:24:00
Lat.              40.133
Long.             141.712
Depth. (km)       71
Mag.              6.0
Station Code      MYGH08
Station Lat.      38.1133
Station Long.     140.8441
Station Height(m) 10
Record Time       2024/04/02 04:25:11
Sampling Freq(Hz) 100Hz
Duration Time(s)  147
Dir.              5
Scale Factor      7845(gal)/8223790
Max. Acc. (gal)   6.590
Last Correction   2024/04/02 04:25:12
Memo.             
[...]
      79     -151     -515     -753     -843     -897     -928     -835 
    -718     -646     -542     -580     -828    -1071    -1155     -969 
    -714     -757    -1026    -1209    -1159    -1031    -1028     -818 
    -191      -43     -841    -1397     -993     -446     -301     -380 
    -546     -677     -815     -951     -743     -500     -702     -876 
    -811     -778     -757     -876    -1146    -1189    -1044    -1057 
   -1090     -954     -958    -1258    -1507    -1443    -1174     -950 
    -811     -679     -608     -665     -800     -819     -629     -422 
    -334     -361     -517     -737     -780     -491     -186     -240 
    -483     -561     -522     -653     -832     -781     -720     -814 
    -787     -664     -718     -864     -965     -864     -452     -214 
    -395     -616     -837     -934     -652     -415     -417     -302 
    -193     -276     -344     -495     -912    -1233    -1131     -849 
    -765     -862     -777     -457     -326     -411     -518     -901 
   -1273     -950     -251      218      330      -28     -738    -1140 
    -845     -407     -413     -731     -978     -869     -641     -831 
   -1146    -1102    -1030     -954     -643     -614    -1028    -1277 
   -1177     -942     -719     -681     -831     -955     -924     -845 
    -886     -966     -920     -784     -571     -360     -492     -988 
   -1412    -1464    -1150     -750     -502     -483     -870    -1336 
   -1193     -699     -449     -368     -396     -596     -724     -726 
    -873    -1080    -1100    -1074    -1034     -961     -980     -896 
    -726     -776     -862     -754     -648     -700     -919    -1161 
   -1074     -650     -249      -75     -202     -495     -639     -463 
       0      234     -136     -565     -575     -386     -268     -383 
    -670     -710     -498     -576     -842     -780     -527     -286 
     -91     -280     -868    -1352    -1291     -788     -554     -793 
    -947     -935    -1105    -1293    -1067     -765     -916    -1027 
    -837     -812     -747     -444     -259     -113       58      -55 
    -286     -306     -295     -481     -677     -592     -449     -614 
    -886    -1035    -1134    -1190    -1201    -1069     -758     -575 
    -629     -814    -1071    -1186    -1067    -1001    -1146    -1135 
    -742     -430     -422     -423     -481     -661     -689     -441 
    -216     -330     -511     -614     -981    -1294    -1050     -684 
    -685     -943    -1304    -1622    -1656    -1341     -955     -932 
   -1260    -1460    -1336    -1039     -788     -776     -988    -1128 
    -785     -265     -282     -619     -706     -453     -182     -317 
    -707     -961    -1012     -787     -414     -307     -432     -407 
    -282     -318     -552     -780     -814     -773     -646     -425 
    -517     -877    -1101    -1057     -729     -465     -526     -627 
    -688     -714     -585     -534     -637     -623     -527     -484 
    -463     -471     -417     -341     -533     -904    -1136    -1151 
    -903     -575     -604     -832     -820     -735     -706     -515 
    -351     -433     -619     -851    -1055    -1059     -957     -884 
    -855     -966    -1061     -889     -612     -279      -55     -341 
    -668     -591     -612     -734     -502     -261     -442     -621 
    -507     -484     -664     -773     -643     -409     -382     -436 
    -398     -689    -1301    -1617    -1521    -1170     -783     -708 
    -792     -828     -996    -1221    -1248     -909     -417     -220 
    -291     -545     -915    -1031     -938     -828     -711     -970 
   -1582    -1750    -1144     -457     -480     -993    -1228    -1030 
    -747     -584     -596     -742     -649     -297     -299     -542 
    -591     -702     -796     -623     -498     -558     -607     -498 
    -265     -160     -330     -562     -463      -43      202       64 
    -162     -390     -816    -1097     -884     -654     -622     -633 
    -842    -1005     -882     -930    -1236    -1341    -1197    -1062 
    -963     -923    -1151    -1410    -1042     -325     -226     -604 
    -724     -592     -415     -203     -149     -405     -785     -927 
    -712     -446     -483     -819    -1051     -916     -746     -868 
   -1008     -882     -720     -706     -787    -1017    -1294    -1312 
   -1080    -1000    -1285    -1593    -1534    -1093     -619     -564 
    -773     -743     -494     -270     -175     -349     -788    -1205 
   -1177     -695     -405     -550     -710     -672     -502     -342 
    -328     -426     -643     -868     -838     -703     -642     -469 
    -230     -253     -608    -1073    -1259     -776      -59      -98 
    -692     -882     -700     -730     -865     -730     -652     -943 
   -1059     -751     -652     -961    -1093     -850     -679     -729 
    -896    -1067     -803     -214     -183     -661     -723     -322 
    -159     -438     -791     -877     -741     -638     -562     -386 
    -211     -149     -297     -778    -1277    -1371    -1279    -1032 
    -490     -417     -990    -1129     -673     -355     -418     -707 
    -893     -811     -583     -444     -675     -945     -707     -274 
     -99     -197     -425     -465     -292     -230     -360     -626 
    -904     -973     -868     -901    -1258    -1695    -1784    -1456 
   -1073     -850     -719     -677     -772    -1080    -1453    -1385 
   -1044     -963     -853     -664     -834    -1051     -959     -792 
    -670     -666     -886    -1163    -1324    -1286     -988     -619 
    -483     -791    -1275    -1204     -766     -819    -1205    -1333 
   -1075     -531     -156     -248     -510     -702     -654     -282 
     -75     -413     -924    -1062     -741     -346     -247     -483 
    -756     -827     -838     -741     -460     -288     -260     -330 
    -491     -600     -938    -1493    -1613    -1293    -1044    -1051 
   -1128     -972     -619     -367     -403     -845    -1417    -1509 
   -1074     -544     -162     -117     -383     -557     -502     -418 
    -454     -565     -423      -79      -43      -10      359      453 
     334      399      141     -321     -182      368      585      346 
      18     -176     -205      -86      -64     -297     -549     -615 
    -619     -643     -646     -706     -681     -454     -418     -768 
   -1058     -962     -680     -425     -295     -488     -811     -756 
    -446     -465     -765     -851     -789     -811     -874    -1206 
   -1884    -2330    -2241    -2004    -1853    -1786    -1883    -1957 
   -1876    -1833    -1914    -2107    -2118    -1842    -1798    -1792 
   -1394    -1170    -1422    -1744    -1948    -2012    -1846    -1559 
   -1453    -1578    -1656    -1645    -1800    -1891    -1528    -1181 
   -1051     -688     -530     -878     -895     -535     -500     -560 
    -445     -522     -544     -118      294      337      164       44 
     164      305      341      457      410       64       -5      317 
     453      325      108     -124      -52      206      237      207 
     214       76      -71     -160     -249     -118      290      572 
     519      376      178      -60       36      214     -195     -801 
    -882     -635     -591     -924    -1417    -1638    -1286     -664 
    -531     -884    -1115    -1067     -703     -322     -486     -843 
    -939     -945     -830     -687     -734     -711     -471     -338 
    -614    -1147    -1339    -1011     -747     -828     -999    -1105 
    -976     -625     -477     -747    -1078    -1085     -938     -841 
    -695     -661     -943    -1304    -1506    -1674    -1779    -1613 
   -1290    -1004     -861     -928    -1050    -1070     -978     -861 
    -869     -870     -788     -973    -1471    -1728    -1422     -940 
    -707     -637     -734    -1183    -1539    -1336     -878     -598 
    -710     -931     -897    -1008    -1313    -1248     -959     -726 
    -368      -82     -222     -598     -835     -845     -707     -495 
    -392     -561     -797     -837     -646     -326      -58       41 
     -87     -392     -648     -637     -365     -202     -270     -392 
    -618     -745     -581     -513     -816    -1244    -1263     -889 
    -639     -403     -148     -202     -261     -279     -541     -676 
    -600     -675     -673     -379     -237     -572     -951     -919 
    -735     -710     -781     -969    -1181    -1204    -1186    -1215 
   -1017     -611     -373     -384     -450     -540     -577     -453 
    -344     -460     -637     -531     -329     -495     -859    -1000 
    -859     -664     -711     -870     -891    -1007    -1125     -765 
    -310     -467     -845     -855     -828     -928     -827     -639 
    -472     -295     -287     -287      -59       25     -395     -936 
   -1179    -1351    -1336     -793     -333     -562    -1101    -1367 
   -1248    -1124    -1197    -1221    -1312    -1516    -1525    -1397 
   -1158     -899     -873     -874     -930    -1204    -1366    -1252 
    -988     -683     -498     -712    -1244    -1557    -1595    -1468 
   -1127     -999    -1050     -720     -213       40      -51     -438 
    -766     -592       25      369       54     -511    -1003    -1113 
    -677     -342     -453     -612     -785    -1030     -953     -567 
    -363     -409     -454     -402     -253     -229     -553     -924 
    -904     -533     -247     -301     -459     -450     -241       62 
     317      402      184      -32      120      238      -20     -332 
    -332     -244     -517     -885     -946     -985    -1182    -1360 
   -1435    -1262     -913     -807     -909     -885     -895    -1120 
   -1221    -1077    -1004     -986    -1001    -1113    -1055     -807 
    -467     -160     -364     -936    -1308    -1360    -1173    -1027 
   -1250    -1665    -1678    -1233    -1016    -1121    -1221    -1437 
   -1606    -1374     -899     -438     -191     -378     -850    -1333 
   -1813    -1956    -1367     -537     -166     -450     -984    -1062 
    -758     -517     -417     -599     -905     -889     -488      -76 
     -31     -220     -272       -4      363      371      186      261 
     477      557      463      278       40     -139      -67       10 
    -218     -405     -136      465      965      962      595      245 
       4       99      534      706      456      130      -86      -39 
     195      162     -206     -459     -521     -706     -923     -985 
   -1146    -1350    -1316    -1362    -1493    -1447    -1445    -1404 
   -1225    -1239    -1478    -1809    -2135    -2316    -2373    -2420 
   -2533    -2520    -2219    -2107    -2454    -2712    -2544    -2211 
   -1933    -1764    -1868    -2305    -2486    -2083    -1750    -1877 
   -2258    -2608    -2602    -2362    -2334    -2457    -2282    -1713 
   -1111     -849     -970     -997     -437      276      487      457 
     549      598      657      787      666      288      -40     -202 
     -75      248      282       17      -43       39      -63      -71 
      49     -199     -645     -804     -792     -823     -985    -1200 
   -1269    -1366    -1507    -1173     -446       16       56     -257 
    -764     -958     -959    -1321    -1852    -2142    -2116    -1744 
   -1174     -796     -839    -1005     -789     -137      589     1062 
    1344     1555     1375      776      341       85     -475     -949 
    -735     -209      -64     -537    -1324    -2015    -2357    -2218 
   -1817    -1421    -1132     -961     -573      241     1301     2562 
    3927     4963     5382     5152     4409     3717     3484     3352 
    2841     2012     1317      761     -294    -2112    -4349    -6372 
   -7318    -6917    -5740    -4526    -3920    -3977    -4152    -4137 
   -3716    -2608    -1043      402     1463     1957     1601      743 
     210       99     -103     -580    -1285    -2135    -2799    -3082 
   -3164    -3249    -3352    -3543    -3952    -4301    -4251    -3916 
   -3431    -2756    -1819     -850     -157      611     1561     2245 
    2855     3519     3711     3198     2428     2014     1819     1466 
    1332     1543     1381      548     -491    -1352    -1971    -2521 
   -3507    -4981    -6335    -7238    -7495    -6941    -6065    -5352 
   -4573    -3339    -1850     -919     -876     -733      584     2569 
    3738     3654     3242     3206     3412     3728     4117     4029 
    2984     1567      511     -546    -2038    -3372    -3836    -3530 
   -3192    -3429    -3967    -3871    -2779    -1339     -206      425 
     729     1132     1807     2539     2717     1965     1044      731 
     707      369     -202     -631    -1040    -1518    -1626    -1069 
     -51      940     1597     1911     2092     2573     3441     3905 
    3206     1853      977      859      641     -592    -2241    -2978 
   -2852    -2889    -3499    -4051    -4166    -4518    -4986    -4688 
   -4236    -4629    -5327    -5363    -4838    -4477    -4309    -3705 
   -2498    -1281     -598     -183      282      421      175      228 
     675      718      -12     -841     -778      220     1152     1374 
    1023      434       24      132      672     1026      770      314 
      28     -284     -739    -1364    -2195    -2984    -3389    -3381 
   -3302    -3445    -3585    -3514    -3501    -3446    -2965    -2245 
   -1377     -159     1026     1915     3017     4236     5017     5655 
    6184     5975     5125     4172     3136     1922      880      228 
    -580    -1598    -1914    -1714    -1948    -2427    -2916    -3823 
   -4698    -4554    -3726    -3442    -3828    -3998    -3696    -3171 
   -2342    -1420     -965     -805     -480     -122      238      756 
     988      510     -297     -931    -1417    -1760    -1753    -1490 
   -1066     -554     -402     -477     -280     -167     -360     -565 
    -581      184     1746     2943     3011     1991      561     -190 
    -230     -346     -550     -660     -962    -1150     -847     -675 
    -847     -692     -182      288      892     1634     1759      870 
    -229     -643     -395      -45     -280    -1350    -2512    -2907 
   -2681    -2386    -2220    -2342    -2779    -2965    -2475    -1669 
   -1062     -812     -868    -1375    -2521    -3643    -3905    -3684 
   -3577    -3457    -3238    -2679    -1513     -352      229      342 
     486     1101     1610     1494     1324     1192      781      303 
    -237     -899    -1371    -1649    -1991    -2366    -2691    -3036 
   -3210    -2890    -2101    -1023      102      951     1597     2289 
    2884     3063     2803     2304     1620      907      406     -238 
   -1460    -2911    -3898    -3751    -2596    -1783    -1726    -1628 
   -1676    -2153    -2419    -2419    -2598    -2640    -1953     -997 
    -614     -444      -16      303      477      441     -248    -1143 
   -1543    -1603    -1617    -1617    -1479    -1219    -1372    -2081 
   -2554    -2235    -1343     -321      421      583      346      355 
     901     1854     3018     3987     4530     4455     3457     2247 
    1864     1937     1414      136    -1393    -2544    -2648    -2035 
   -1687    -1657    -1910    -2459    -2413    -1360      -68      684 
     614       66     -452     -853     -946     -531      -47      190 
     588     1059      972      679      741      707      157     -765 
   -1664    -2039    -1860    -1663    -1857    -2250    -2475    -2452 
   -2134    -1744    -2118    -3388    -4187    -3643    -2562    -1962 
   -2176    -2836    -2844    -1467      283      739     -205    -1368 
   -1588     -880     -819    -2045    -3191    -3264    -2655    -2176 
   -2280    -2639    -2380    -1274       63      922      683     -159 
    -163      540      346    -1212    -2706    -2737    -1837    -1401 
   -1728    -2096    -1706     -576      116     -237     -626     -567 
    -619     -598     -402     -687    -1061     -527      487      762 
     216     -117      245      835     1151      928       70     -882 
   -1059     -522       -5      267      567     1140     1687     1675 
    1198      577      -40     -585    -1127    -1459    -1108     -283 
     132      175      561      731      113     -452     -306      476 
    1138      814       -4     -789    -1567    -1475     -253      853 
     999      232     -778    -1038     -700     -930    -1647    -2115 
   -2771    -3534    -3245    -2200    -1594    -1336    -1054     -788 
    -112      999     1922     2343     1830      500     -529     -984 
   -1343    -1668    -1984    -2272    -2535    -2953    -3276    -3281 
   -3308    -3249    -2666    -2072    -1942    -1485     -363      422 
     368       10      -85      224      909     1809     2158     1293 
    -149    -1121    -1350    -1197    -1170    -1351    -1425    -1281 
   -1290    -1993    -3029    -3322    -2899    -2671    -2416    -1278 
     139      774     1039     1323     1050      109     -989    -1428 
    -538      904     1588     1414      909      513      415      363 
     175     -324    -1202    -1887    -2214    -2614    -2964    -2744 
   -1802     -710     -155     -168     -661    -1360    -1525    -1235 
   -1408    -2203    -2938    -2883    -1942    -1038     -679     -311 
     170      268     -280    -1117    -1471    -1467    -1791    -2251 
   -2502    -2749    -2871    -2327    -1228     -449     -255     -143 
     -35       74      469      630       70     -463     -534     -519 
    -345       62      594     1395     1898     1506     1023     1152 
    1516     1498      730     -147     -383     -621    -1186    -1416 
   -1286    -1144     -911     -650     -935    -1759    -2188    -1690 
    -531      527      718      216      -29      383      697      407 
     252      500      668      851     1013      835      564      476 
     324     -436    -1668    -2436    -2313    -1618    -1109    -1474 
   -2073    -2070    -1800    -1286     -244      780     1340     1321 
     515     -696    -1480    -1755    -2242    -2902    -3014    -2907 
   -3002    -3067    -3233    -3341    -2916    -2265    -1736    -1178 
    -688     -459     -531    -1220    -2351    -2848    -2354    -1491 
    -780     -845    -1760    -2424    -2199    -1309       25     1204 
    1426      831      183     -322     -851    -1197    -1282    -1391 
   -1560    -1705    -1888    -2072    -2164    -2084    -1888    -1688 
   -1398     -849      152     1277     1734     1340      487     -135 
      44      638      823      442      -14     -349     -708     -784 
    -456     -248     -106      201      -21     -854    -1142     -518 
     221      556      627      859     1513     2015     1435      268 
    -129      333      864     1015      683      -54     -665     -371 
     305     -233    -1471    -1498     -672     -361     -382     -379 
    -768    -1333    -1260     -648     -556    -1480    -2516    -2594 
   -1863    -1009     -418     -118      184      558      727      688 
     527      -29     -846    -1085     -870    -1170    -1845    -2209 
   -2214    -2073    -1883    -1607    -1418    -1449    -1455    -1440 
   -1537    -1667    -1991    -2340    -2180    -1922    -2204    -2542 
   -2405    -2296    -2420    -1881     -697     -211     -622    -1074 
