Origin Time       2024/04/02 04:24:00
Lat.              40.133
Long.             141.712
Depth. (km)       71
Mag.              6.0
Station Code      MYGH08
Station Lat.      38.1133
Station Long.     140.8441
Station Height(m) 10
Record Time       2024/04/02 04:25:11
Sampling Freq(Hz) 100Hz
Duration Time(s)  147
Dir.              4
Scale Factor      7845(gal)/8223790
Max. Acc. (gal)   7.836
Last Correction   2024/04/02 04:25:12
Memo.             
[...]
   14067    14253    14219    14015    13605    13165    13051    13401 
   13855    13938    13540    13016    12935    13463    14231    14740 
   14705    14422    14291    14168    14123    14466    14810    14739 
   14477    14335    14400    14517    14480    14256    13936    13683 
   13428    13123    13181    13586    13855    13926    13833    13656 
   13666    13757    13726    13624    13617    13900    14247    14312 
   14180    13896    13570    13522    13803    14199    14322    13988 
   13733    13882    13983    13832    13702    13747    13992    14265 
   14233    14030    13961    13851    13686    13840    14246    14355 
   13880    13197    12857    12856    12918    13149    13576    13743 
   13587    13716    14075    14139    14197    14496    14557    14311 
   14025    13779    13845    14193    14261    13895    13423    13107 
   13192    13578    13919    14245    14331    13848    13339    13215 
   13231    13320    13570    13894    14048    13991    13946    13932 
   13953    14137    14247    13973    13455    13104    13251    13813 
   14235    14102    13647    13405    13655    14224    14557    14386 
   14137    14076    14017    14004    14189    14301    14096    13830 
   13795    13903    13933    13961    14149    14318    14278    14015 
   13678    13775    14320    14608    14450    14100    13699    13626 
   13983    14314    14415    14334    14053    13734    13586    13689 
   13842    13720    13508    13409    13177    13009    13347    13950 
   14289    14318    14274    14061    13745    13728    13876    13872 
   13845    13909    13957    13975    14034    14106    14015    13697 
   13489    13613    13743    13764    13913    14091    14049    13740 
   13421    13439    13709    13871    13764    13626    13849    14250 
   14305    14181    14212    14158    14015    14033    13930    13532 
   13231    13338    13655    13713    13470    13470    13849    14002 
   13786    13772    14152    14593    14611    14018    13446    13443 
   13732    13995    14177    14148    13859    13416    13011    12966 
   13294    13555    13567    13581    13693    13788    13883    13964 
   13851    13630    13632    13832    13954    14123    14584    14990 
   14910    14531    14183    13972    13971    14152    14305    14269 
   14084    13857    13675    13587    13536    13559    13751    14003 
   14188    14220    14095    14053    14210    14310    14042    13517 
   13325    13653    14062    14381    14586    14364    13790    13427 
   13551    14042    14520    14544    14233    13968    13767    13630 
   13637    13616    13483    13477    13683    13822    13779    13728 
   13595    13387    13421    13647    13882    14189    14365    14079 
   13581    13493    13905    14257    14238    13950    13500    13228 
   13435    13736    13736    13618    13521    13419    13522    13887 
   14152    14114    13934    13745    13559    13608    14042    14347 
   14139    13887    13860    13767    13656    13832    14116    14123 
   13972    14023    14247    14462    14592    14613    14571    14457 
   14224    14037    14119    14283    14156    13944    13944    13788 
   13319    12939    12866    13109    13506    13652    13437    13213 
   13277    13545    13871    14256    14507    14354    14088    14196 
   14508    14636    14558    14318    13973    13626    13431    13630 
   13984    13967    13705    13625    13687    13744    13919    14022 
   13802    13644    13828    14121    14196    13952    13718    13678 
   13610    13458    13340    13512    14030    14376    14224    13813 
   13468    13458    13724    13913    13792    13432    13336    13774 
   14149    14050    13807    13686    13648    13649    13734    13863 
   13923    13984    13994    13859    13775    13748    13703    13803 
   13999    14123    14131    13984    13755    13616    13625    13811 
   14133    14243    13922    13543    13481    13582    13585    13514 
   13468    13398    13297    13402    13844    14250    14207    13882 
   13745    13857    13925    13882    13865    13971    14044    13845 
   13581    13562    13776    14104    14207    13934    13817    14193 
   14648    14797    14593    14027    13475    13564    14193    14643 
   14601    14422    14299    14037    13752    13755    14000    14203 
   14295    14395    14374    14316    14508    14569    14202    13806 
   13691    13832    14013    14077    14123    14160    13994    13724 
   13737    13976    14033    13894    13814    13907    14106    14175 
   13981    13675    13512    13629    13878    14102    14202    13968 
   13563    13321    13300    13524    13718    13509    13139    12974 
   13022    13146    13232    13263    13275    13354    13593    13905 
   14231    14594    14737    14440    14029    13965    14230    14289 
   13882    13518    13547    13602    13455    13335    13506    13838 
   13898    13728    13778    14042    14099    13860    13725    13840 
   14046    14300    14354    14054    13787    13798    13907    14072 
   14349    14482    14215    13802    13662    13829    14091    14229 
   14149    13933    13709    13663    13925    14192    14207    14173 
   14080    13805    13651    13810    14042    14094    13979    13764 
   13379    13046    13157    13586    13926    14025    13941    13733 
   13564    13618    13725    13756    13792    13682    13452    13525 
   14021    14612    14832    14405    13679    13423    13783    14089 
   14029    13992    14076    13946    13635    13536    13764    14061 
   14180    14037    13683    13392    13481    13795    13941    13933 
   13846    13630    13521    13640    13826    14083    14315    14372 
   14457    14477    14216    14206    14555    14535    14223    14211 
   14382    14435    14297    14062    14026    14184    14207    13961 
   13653    13703    14062    14099    13670    13271    13271    13628 
   13938    13926    13807    13772    13614    13413    13691    14238 
   14211    13590    13014    12864    13093    13351    13559    13871 
   14034    13840    13621    13684    13956    14234    14324    14118 
   13807    13702    13890    14160    14107    13732    13576    13832 
   14119    14202    14166    14231    14361    14241    14058    14089 
   13918    13510    13406    13605    13698    13559    13466    13571 
   13721    13834    13689    13186    12910    13149    13468    13660 
   13826    13922    13909    13960    14180    14354    14365    14315 
   14214    14042    13971    14224    14624    14725    14412    13954 
   13710    13832    14254    14613    14503    14193    14041    13941 
   14060    14504    14625    14089    13629    13728    13942    13976 
   14008    13984    13707    13462    13630    14002    14169    14110 
   13899    13612    13494    13655    13918    14050    13887    13451 
   13007    12954    13294    13483    13363    13300    13459    13618 
   13493    13306    13313    13221    13042    13149    13489    13675 
   13583    13454    13393    13363    13414    13481    13497    13641 
   14015    14274    14079    13675    13362    13180    13122    12937 
   12665    12781    13076    13015    12841    13032    13427    13574 
   13567    13734    13980    14081    14119    14316    14677    14908 
   14736    14280    13867    13663    13738    13950    14002    13886 
   13749    13752    14014    14249    14126    13849    13751    13861 
   14088    14424    14899    15241    15190    15098    15183    15120 
   14831    14574    14509    14571    14616    14570    14396    14280 
   14404    14435    14193    14098    14219    14234    14253    14504 
   14754    14717    14625    14701    14659    14434    14328    14378 
   14534    14801    14983    14944    14712    14366    14089    13979 
   13945    13911    13902    14021    14162    14038    13838    13942 
   14179    14264    14131    13879    13788    13859    13863    13844 
   13919    14102    14241    14084    13753    13702    13890    13829 
   13544    13385    13342    13390    13572    13618    13308    12792 
   12370    12307    12557    12799    12788    12445    12056    12023 
   12224    12329    12386    12491    12436    12262    12418    12892 
   13252    13444    13636    13802    13788    13686    13666    13424 
   12999    12950    12980    12599    12266    12307    12447    12584 
   12762    12951    13205    13587    14033    14342    14377    14416 
   14786    15169    15053    14573    14292    14337    14440    14655 
   14958    14999    14947    15033    15025    15064    15341    15383 
   15034    14732    14586    14511    14563    14670    14713    14789 
   14860    14764    14639    14616    14615    14638    14634    14459 
   14071    13690    13792    14231    14243    13784    13335    13112 
   13343    13971    14419    14420    14204    13944    13792    13903 
   14152    14293    14246    14119    14049    14108    14297    14542 
   14791    14941    14877    14720    14492    14179    14027    14095 
   14243    14300    14056    13687    13520    13471    13173    12582 
   12231    12376    12658    12845    12804    12545    12513    12815 
   13077    13263    13576    14096    14636    14769    14503    14260 
   14188    14218    14365    14547    14530    14314    14095    13900 
   13765    13838    14006    13940    13641    13382    13224    13266 
   13582    13716    13612    13744    13855    13670    13570    13664 
   13856    14031    13994    13792    13563    13508    13608    13460 
   13305    13479    13464    13176    13077    13085    12996    13016 
   13215    13321    13270    13252    13194    13050    13122    13456 
   13880    14261    14258    13851    13551    13599    13786    13938 
   14094    14135    13932    13861    14077    14065    13747    13629 
   13778    13952    14254    14605    14646    14499    14422    14332 
   14226    14337    14712    14952    14904    14820    14662    14432 
   14341    14265    14287    14558    14638    14412    14169    13822 
   13547    13737    14165    14345    14164    13863    13667    13525 
   13379    13321    13447    13748    13940    13729    13250    13020 
   13456    14233    14665    14651    14496    14440    14509    14338 
   13878    13651    13672    13495    13105    12772    12777    13154 
   13427    13374    13329    13252    13026    13153    13806    14374 
   14472    14350    14289    14289    14327    14412    14422    14272 
   14112    14058    14026    14015    14211    14465    14258    13616 
   13128    13155    13605    14126    14442    14478    14400    14389 
   14289    14307    14754    14885    14243    13660    13689    13879 
   13902    13976    13923    13506    13363    13741    13905    13617 
   13347    13278    13321    13564    13938    14080    13934    13639 
   13240    12978    13007    13236    13614    14003    14246    14280 
   14076    13834    13906    14233    14412    14326    14218    14311 
   14596    14817    14750    14354    13734    13351    13466    13579 
   13428    13408    13605    13676    13610    13670    13736    13575 
   13248    12914    12827    13158    13644    13892    13869    13768 
   13602    13541    13825    14180    14369    14362    13930    13216 
   12772    12735    12976    13382    13549    13281    12934    12815 
   12922    13180    13556    13856    13722    13225    12904    13004 
   13171    13188    13304    13713    14337    14751    14821    15090 
   15499    15557    15346    15051    14952    15279    15627    15685 
   15666    15662    15512    15311    15260    15317    15425    15435 
   15079    14486    14149    14223    14404    14428    14099    13381 
   12891    13063    13512    13929    14307    14346    13832    13396 
   13668    14176    14442    14526    14200    13552    13366    13868 
   14443    14600    14349    14004    13895    13980    13960    13880 
   14027    14195    14021    13747    13752    13973    14164    14188 
   14031    13895    13971    13969    13660    13344    13158    12880 
   12563    12533    12683    12614    12310    12108    12106    11981 
   11830    12050    12333    12341    12410    12626    12611    12429 
   12291    12005    11722    11788    12008    12010    11662    11299 
   11410    11708    11742    11827    12069    12081    12079    12321 
   12460    12430    12398    12333    12321    12459    12654    12852 
   13081    13135    12907    12816    13139    13765    14573    15261 
   15669    16055    16526    16980    17508    18166    18820    19291 
   19425    19271    19168    19179    18982    18451    17755    17149 
   16733    16302    15784    15502    15601    15900    16413    17014 
   17329    17393    17259    16823    16255    15877    15886    16081 
   16081    15846    15319    14370    13328    12521    11804    11308 
   11300    11348    11038    10516    10042     9903    10012     9921 
    9568     9339     9610    10291    11092    12067    13257    14386 
   15280    16164    17301    18376    18967    19184    19151    18846 
   18202    17051    15857    15172    14346    12722    10829     9333 
    8311     7731     7645     7762     7649     7372     7341     7928 
    9201    10833    12444    13803    14932    16015    17015    17683 
   18058    18409    18449    17604    16163    14785    13701    13055 
   12613    11716    10320     9027     8251     7966     7715     6975 
    6035     5664     6151     7414     9043    10392    11349    12217 
   13100    14075    15391    17167    19060    20308    20324    19349 
   18234    17730    17888    18060    17899    17716    17653    17467 
   16939    16162    15508    15120    14602    13834    13549    14099 
   14895    15727    16799    17901    18576    18493    17780    16835 
   15827    14970    14489    14280    14293    14496    14548    14461 
   14683    15078    15033    14616    14551    15009    15225    14767 
   14131    13525    12602    11608    10998    10374     9590     9294 
    9360     9138     8769     8754     9281    10149    10933    11626 
   12604    13818    14793    15167    15114    15406    16162    16557 
   16421    16222    15936    15075    13676    12769    12947    13545 
   13882    13845    13468    12818    12272    12303    12992    14258 
   15785    16806    16856    16326    15790    15252    14632    14107 
   13680    13579    14008    14377    14436    14766    15325    15403 
   14766    13876    13301    13088    13043    12993    12550    11830 
   11365    11087    10906    11102    11705    12557    13198    13072 
   12464    12031    11820    11542    11115    10929    11379    12286 
   13624    15500    17024    17119    16060    14929    14291    14038 
   13984    13963    13805    13482    13072    13189    14602    16592 
   17554    17209    16418    15601    14769    14170    13991    14127 
   14401    14458    14310    14559    15006    14650    13390    12063 
   11279    11029    11007    10926    10557     9971     9732    10126 
   11090    12776    14527    15120    15124    16101    17817    18916 
   18968    18288    17285    16376    15768    15450    15223    14928 
   14507    13705    12696    12096    11916    11786    11578    11622 
   12476    13963    15133    15550    15484    15059    14391    13845 
   13630    13786    14293    15061    15816    15890    15016    14029 
   13729    13760    13466    12873    12388    12201    11996    11688 
   11763    12370    13576    15234    16382    16911    17563    18061 
   17913    17510    17278    16997    16374    15799    15610    15365 
   14885    14480    14061    13316    12374    11839    11807    11700 
   11449    11196    10687    10152    10265    11132    12256    13073 
   13182    12598    11796    11313    11481    12498    14127    15531 
   16040    15705    14835    13656    12706    12448    12519    12388 
   12062    11866    12159    12669    12891    13058    13521    14164 
   14608    14582    14358    14115    13693    13379    13500    13725 
   13663    13591    13895    14172    14022    13826    14008    14742 
   15770    16166    15465    14330    13487    13108    12942    12744 
   12671    13120    14239    15485    15984    15616    15041    14729 
   14590    14607    15160    15957    16050    15479    14916    14467 
   14291    14569    14673    14103    13412    13161    13297    13832 
   14532    14662    14266    13926    13782    14091    14611    14546 
   14177    13869    13263    12858    13566    14955    15903    15813 
   14534    12757    11619    10956    10174     9840    10227    10736 
   11276    11934    12307    12229    11735    10913    10331    10503 
   11419    12820    14231    15051    15164    15275    15932    16784 
   17311    17506    17605    17258    16096    14982    14742    14804 
   14416    13770    13400    13370    13300    12945    12606    12667 
   12874    12941    13207    13879    14619    15110    15201    14828 
   14278    14121    14675    15634    16287    16209    15755    15376 
   14982    14663    14569    14516    14636    14712    14094    13100 
   12521    12507    12946    13775    14655    15043    14893    14837 
   15142    15342    15117    14436    13558    13204    13691    14206 
   13720    12588    12060    12561    13771    14920    15255    14974 
   14631    14164    13207    12133    11809    12036    12075    11799 
   11384    11229    11735    12849    13868    14114    14013    13957 
   13626    13505    14076    14609    14612    14405    14337    14497 
   14763    15097    15668    16248    15961    14559    13269    13043 
   13306    13524    13706    13431    12576    11757    11607    12298 
   13027    12947    12618    12866    13340    13412    13269    13396 
   13883    14330    14331    14447    15133    15394    14485    12991 
   11808    11384    11574    12151    12798    12910    12573    12517 
   12953    13694    14432    14602    14285    14439    15218    15799 
   16248    16981    17251    16526    15492    14890    14835    14889 
   14593    14041    13630    13730    14303    14569    14008    13248 
   13043    13300    13709    14349    15017    14978    14058    12989 
   12368    12418    13147    13867    13770    12756    11468    11176 
   12033    12494    12145    12067    12451    12858    13366    14040 
   14581    14679    14389    14200    14466    15007    15392    15322 
   14870    14314    13894    13856    14058    14166    14384    14769 
   14990    15145    15373    15597    15682    15188    14357    14160 
   14877    16106    16924    16401    15006    13848    13204    12827 
   12756    13193    13725    13653    12987    12222    11782    11996 
   12823    13729    14185    14099    13969    14256    14493    14137 
   13605    13506    13765    13788    13475    13539    14044    14137 
   13603    12972    12487    11988    11550    11670    12448    13254 
   13528    13471    13657    13945    13888    13957    14393    14322 
   13730    13510    13375    12835    12388    12248    12409    13153 
   14156    14763    15130    15684    16033    15693    15097    14933 
   15319    15811    15948    15704    15163    14477    14089    14052 
   14081    14540    15452    15633    14700    13674    13209    13269 
