Origin Time       2024/04/02 04:24:00
Lat.              40.133
Long.             141.712
Depth. (km)       71
Mag.              6.0
Station Code      NIGH03
Station Lat.      38.1327
Station Long.     139.4289
Station Height(m) 6
Record Time       2024/04/02 04:25:22
Sampling Freq(Hz) 100Hz
Duration Time(s)  164
Dir.              4
Scale Factor      3920(gal)/6170801
Max. Acc. (gal)   0.737
Last Correction   2024/04/02 04:25:07
Memo.             
[...]
    6300     6269     6250     6256     6279     6302     6322     6338 
    6357     6381     6401     6413     6417     6423     6435     6447 
    6465     6508     6570     6635     6699     6752     6788     6807 
    6796     6737     6650     6563     6464     6358     6280     6223 
    6185     6169     6143     6100     6060     6007     5948     5915 
    5897     5894     5918     5945     5966     6001     6039     6059 
    6079     6107     6137     6174     6218     6266     6318     6357 
    6364     6357     6339     6285     6217     6159     6115     6096 
    6085     6063     6054     6063     6060     6040     6017     5990 
    5971     5961     5937     5928     5961     5995     6019     6057 
    6104     6158     6219     6262     6294     6337     6370     6368 
    6356     6358     6377     6422     6485     6540     6588     6624 
    6629     6628     6655     6706     6770     6831     6869     6901 
    6939     6965     6989     7042     7119     7204     7277     7316 
    7322     7313     7288     7253     7235     7232     7227     7225 
    7217     7191     7167     7132     7076     7037     7014     6969 
    6913     6865     6818     6777     6744     6710     6683     6671 
    6665     6669     6691     6723     6754     6779     6786     6773 
    6745     6690     6614     6547     6499     6462     6419     6363 
    6309     6272     6239     6187     6141     6125     6123     6125 
    6122     6100     6084     6084     6074     6073     6105     6144 
    6170     6176     6160     6151     6173     6211     6248     6295 
    6348     6382     6388     6385     6386     6393     6410     6433 
    6470     6530     6585     6603     6606     6622     6641     6651 
    6658     6672     6714     6777     6826     6849     6861     6860 
    6832     6776     6717     6679     6651     6612     6554     6479 
    6403     6336     6278     6235     6210     6204     6197     6158 
    6101     6060     6025     5990     5967     5959     5972     5995 
    6004     6009     6041     6089     6128     6159     6186     6212 
    6247     6273     6275     6279     6283     6266     6233     6199 
    6173     6155     6132     6104     6097     6110     6111     6098 
    6099     6123     6171     6235     6300     6368     6446     6501 
    6523     6544     6562     6572     6593     6620     6651     6703 
    6743     6737     6705     6661     6598     6534     6470     6397 
    6352     6347     6332     6310     6308     6302     6285     6274 
    6262     6266     6307     6347     6362     6387     6420     6433 
    6444     6467     6499     6551     6606     6633     6645     6660 
    6656     6631     6605     6581     6573     6572     6546     6510 
    6491     6468     6442     6421     6397     6393     6412     6417 
    6406     6410     6417     6414     6418     6420     6429     6463 
    6491     6495     6498     6505     6500     6479     6438     6381 
    6331     6298     6257     6210     6182     6167     6146     6108 
    6058     6014     5986     5961     5928     5905     5904     5898 
    5868     5834     5814     5797     5777     5772     5790     5821 
    5867     5912     5933     5948     5969     5983     6000     6039 
    6090     6137     6177     6198     6205     6217     6234     6261 
    6318     6397     6472     6528     6554     6553     6554     6558 
    6563     6602     6673     6743     6795     6825     6840     6853 
    6862     6864     6867     6877     6886     6886     6872     6858 
    6862     6876     6875     6864     6863     6859     6839     6818 
    6801     6781     6770     6765     6749     6737     6751     6762 
    6760     6755     6737     6717     6709     6693     6675     6666 
    6641     6588     6519     6442     6382     6352     6338     6340 
    6373     6416     6441     6455     6477     6502     6530     6573 
    6612     6635     6664     6688     6699     6724     6773     6827 
    6868     6887     6886     6861     6810     6753     6713     6687 
    6668     6646     6603     6545     6493     6442     6392     6371 
    6381     6394     6402     6412     6418     6412     6399     6380 
    6370     6392     6429     6454     6481     6524     6564     6584 
    6580     6553     6517     6471     6403     6323     6251     6189 
    6132     6089     6055     6011     5967     5922     5861     5805 
    5776     5767     5771     5797     5835     5868     5889     5885 
    5865     5861     5887     5943     6023     6105     6183     6252 
    6294     6317     6337     6356     6377     6396     6402     6403 
    6410     6417     6423     6442     6482     6529     6570     6607 
    6632     6650     6682     6721     6755     6797     6836     6846 
    6838     6830     6824     6830     6860     6896     6925     6946 
    6947     6913     6864     6817     6765     6711     6668     6626 
    6570     6496     6404     6315     6255     6206     6154     6107 
    6064     6017     5965     5904     5850     5813     5782     5744 
    5698     5650     5598     5520     5425     5348     5295     5270 
    5276     5289     5305     5342     5377     5391     5401     5426 
    5466     5514     5574     5638     5690     5740     5801     5857 
    5910     5975     6047     6120     6189     6248     6307     6358 
    6392     6415     6429     6439     6452     6479     6517     6551 
    6586     6635     6686     6727     6764     6804     6851     6893 
    6924     6952     6963     6955     6937     6891     6831     6789 
    6761     6744     6733     6723     6716     6706     6684     6648 
    6602     6568     6545     6513     6477     6441     6407     6382 
    6361     6332     6309     6302     6284     6245     6201     6153 
    6123     6127     6137     6152     6203     6275     6331     6362 
    6377     6398     6433     6475     6516     6563     6621     6662 
    6657     6626     6598     6581     6578     6594     6630     6685 
    6748     6798     6831     6863     6904     6947     6985     7016 
    7053     7095     7134     7175     7221     7264     7316     7372 
    7397     7394     7390     7382     7369     7363     7357     7348 
    7343     7327     7283     7212     7132     7067     7022     6992 
    6976     6963     6939     6900     6850     6798     6758     6723 
    6682     6635     6588     6547     6499     6440     6383     6335 
    6285     6227     6160     6083     6003     5928     5856     5788 
    5719     5649     5586     5529     5473     5427     5402     5393 
    5386     5384     5397     5423     5456     5483     5499     5518 
    5550     5586     5621     5662     5717     5786     5846     5891 
    5938     5997     6065     6139     6213     6284     6347     6401 
    6440     6465     6486     6515     6550     6572     6575     6567 
    6548     6507     6452     6403     6366     6336     6316     6297 
    6269     6242     6226     6221     6230     6259     6307     6360 
    6403     6431     6457     6483     6502     6523     6549     6573 
    6602     6631     6645     6654     6669     6681     6680     6669 
    6650     6621     6585     6550     6518     6483     6460     6445 
    6419     6382     6352     6332     6320     6316     6314     6307 
    6295     6283     6273     6268     6270     6284     6302     6314 
    6325     6339     6352     6378     6411     6434     6451     6462 
    6463     6456     6447     6454     6482     6517     6552     6574 
    6574     6557     6527     6490     6473     6485     6509     6525 
    6526     6511     6485     6445     6396     6351     6319     6297 
    6271     6237     6204     6177     6152     6135     6133     6143 
    6160     6176     6185     6183     6175     6171     6170     6175 
    6194     6229     6275     6328     6375     6401     6410     6414 
    6417     6419     6422     6430     6439     6448     6450     6443 
    6439     6437     6435     6439     6442     6445     6452     6459 
    6475     6501     6526     6545     6550     6541     6527     6510 
    6496     6495     6512     6553     6600     6624     6630     6630 
    6621     6611     6604     6598     6595     6597     6600     6599 
    6592     6581     6561     6529     6493     6460     6428     6402 
    6387     6385     6391     6408     6439     6471     6499     6528 
    6560     6596     6629     6659     6687     6717     6755     6800 
    6839     6875     6912     6938     6941     6929     6908     6881 
    6850     6818     6787     6755     6723     6692     6660     6625 
    6596     6576     6558     6536     6514     6490     6461     6432 
    6410     6389     6371     6353     6317     6261     6198     6130 
    6068     6015     5970     5933     5896     5850     5793     5732 
    5674     5631     5612     5610     5615     5629     5645     5658 
    5677     5700     5730     5774     5827     5881     5932     5980 
    6021     6053     6077     6100     6134     6181     6225     6258 
    6283     6301     6313     6331     6368     6422     6489     6564 
    6631     6685     6734     6775     6820     6880     6958     7052 
    7148     7227     7281     7311     7325     7329     7335     7346 
    7356     7360     7352     7328     7289     7239     7187     7129 
    7060     6989     6916     6834     6747     6666     6591     6525 
    6479     6454     6431     6401     6360     6312     6256     6194 
    6137     6098     6075     6051     6014     5967     5915     5858 
    5806     5759     5716     5684     5661     5635     5602     5576 
    5563     5556     5555     5563     5573     5585     5612     5655 
    5714     5792     5874     5947     6005     6053     6100     6152 
    6213     6279     6344     6411     6477     6529     6562     6590 
    6616     6639     6662     6678     6682     6676     6654     6630 
    6618     6609     6608     6631     6671     6724     6787     6844 
    6888     6918     6931     6933     6938     6950     6962     6966 
    6970     6970     6955     6927     6899     6873     6853     6838 
    6819     6795     6776     6749     6715     6682     6653     6624 
    6582     6529     6485     6450     6413     6377     6341     6297 
    6252     6208     6164     6122     6090     6072     6062     6059 
    6058     6051     6045     6046     6046     6041     6036     6032 
    6031     6026     6006     5980     5961     5938     5913     5899 
    5888     5872     5853     5828     5799     5779     5764     5754 
    5762     5782     5800     5809     5813     5824     5849     5878 
    5909     5937     5962     5980     5990     5999     6009     6026 
    6059     6108     6172     6247     6318     6376     6420     6455 
    6484     6509     6539     6572     6599     6623     6649     6669 
    6679     6693     6711     6727     6750     6782     6802     6806 
    6803     6798     6794     6787     6783     6790     6794     6785 
    6767     6743     6712     6678     6647     6629     6629     6638 
    6646     6644     6628     6604     6576     6539     6505     6481 
    6465     6452     6430     6400     6376     6366     6363     6369 
    6392     6426     6463     6504     6538     6556     6556     6542 
    6527     6516     6513     6529     6555     6577     6590     6575 
    6527     6467     6420     6392     6380     6379     6386     6386 
    6367     6334     6291     6243     6203     6173     6143     6117 
    6098     6094     6107     6147     6223     6319     6409     6481 
    6541     6584     6590     6564     6533     6516     6524     6552 
    6582     6604     6618     6632     6647     6649     6648     6649 
    6643     6620     6582     6537     6503     6490     6493     6509 
    6541     6587     6634     6664     6679     6701     6727     6748 
    6771     6787     6795     6807     6821     6827     6826     6817 
    6802     6771     6712     6635     6555     6477     6394     6320 
    6262     6210     6159     6110     6055     6003     5966     5940 
    5928     5938     5957     5975     5988     5988     5980     5976 
    5974     5971     5976     5993     6013     6035     6062     6085 
    6105     6127     6145     6150     6146     6136     6123     6109 
    6102     6105     6114     6133     6170     6216     6259     6292 
    6316     6332     6337     6336     6341     6351     6371     6395 
    6408     6414     6424     6437     6449     6470     6502     6535 
    6563     6588     6604     6607     6615     6636     6645     6639 
    6639     6645     6635     6616     6607     6615     6627     6634 
    6637     6633     6622     6613     6607     6597     6587     6577 
    6557     6529     6500     6471     6445     6421     6397     6381 
    6359     6323     6291     6266     6240     6229     6238     6252 
    6261     6263     6262     6259     6252     6252     6258     6263 
    6270     6285     6306     6325     6335     6335     6329     6326 
    6333     6346     6351     6353     6355     6346     6325     6305 
    6286     6265     6250     6241     6229     6215     6205     6204 
    6207     6224     6254     6283     6313     6354     6400     6448 
    6501     6556     6610     6667     6736     6810     6878     6939 
    7001     7059     7104     7142     7183     7230     7277     7325 
    7372     7408     7433     7460     7487     7508     7529     7548 
    7561     7566     7567     7565     7558     7549     7539     7515 
    7475     7425     7364     7298     7235     7173     7118     7072 
    7028     6986     6956     6934     6907     6874     6834     6786 
    6741     6691     6631     6574     6531     6493     6449     6394 
    6338     6282     6219     6152     6091     6044     6010     5977 
    5941     5909     5878     5848     5818     5790     5767     5750 
    5743     5751     5766     5790     5818     5836     5839     5832 
    5816     5791     5763     5737     5715     5695     5676     5651 
    5620     5599     5598     5610     5621     5624     5617     5602 
    5575     5543     5522     5516     5521     5537     5553     5558 
    5562     5570     5582     5604     5635     5675     5721     5763 
    5803     5845     5890     5939     5995     6052     6110     6172 
    6231     6274     6300     6315     6325     6335     6347     6363 
    6388     6421     6458     6486     6492     6480     6468     6458 
    6452     6449     6449     6456     6466     6463     6454     6455 
    6466     6477     6486     6498     6511     6519     6527     6543 
    6570     6601     6628     6650     6653     6638     6621     6602 
    6577     6556     6545     6534     6510     6474     6431     6386 
    6341     6293     6242     6202     6181     6166     6148     6129 
    6115     6104     6091     6074     6066     6064     6053     6037 
    6024     6010     6002     6013     6041     6077     6109     6133 
    6145     6136     6122     6118     6125     6144     6178     6211 
    6228     6228     6222     6218     6222     6238     6261     6287 
    6313     6336     6349     6354     6360     6373     6386     6395 
    6407     6422     6437     6445     6449     6464     6490     6526 
    6575     6634     6688     6739     6791     6837     6883     6941 
    7012     7080     7140     7194     7234     7257     7276     7296 
    7309     7320     7330     7332     7322     7299     7268     7237 
    7215     7209     7207     7192     7163     7122     7066     6997 
    6921     6848     6791     6753     6737     6734     6728     6723 
    6718     6703     6686     6673     6665     6662     6662     6659 
    6653     6642     6628     6615     6610     6612     6622     6630 
    6623     6608     6585     6546     6494     6436     6375     6316 
    6264     6218     6177     6142     6113     6084     6059     6036 
    6013     5987     5956     5927     5905     5888     5871     5855 
    5846     5842     5841     5845     5850     5846     5835     5825 
    5809     5794     5789     5788     5778     5762     5744     5719 
    5684     5653     5638     5639     5647     5651     5651     5646 
    5634     5621     5611     5604     5604     5618     5633     5639 
    5643     5648     5647     5644     5647     5665     5698     5745 
    5805     5869     5931     5988     6032     6070     6111     6144 
    6173     6209     6249     6290     6332     6378     6431     6489 
    6542     6583     6608     6623     6635     6656     6690     6737 
    6789     6841     6891     6933     6964     6996     7026     7052 
    7086     7122     7143     7153     7161     7166     7165     7160 
    7145     7117     7079     7036     6982     6917     6855     6798 
    6737     6676     6629     6592     6560     6532     6510     6499 
    6493     6490     6499     6514     6532     6560     6594     6619 
    6637     6658     6681     6696     6705     6713     6717     6712 
    6701     6690     6679     6665     6649     6628     6595     6558 
    6518     6470     6416     6372     6343     6326     6319     6324 
    6331     6328     6328     6336     6337     6333     6343     6364 
    6380     6397     6426     6455     6464     6465     6465     6461 
    6458     6453     6446     6439     6431     6425     6418     6407 
    6402     6400     6391     6378     6374     6380     6390     6409 
    6446     6492     6534     6564     6588     6606     6615     6629 
    6646     6658     6672     6684     6688     6685     6677     6668 
    6656     6639     6621     6608     6594     6576     6552     6527 
    6504     6484     6466     6457     6458     6467     6485     6511 
    6533     6554     6575     6590     6601     6610     6611     6605 
    6602     6614     6638     6663     6685     6702     6712     6713 
    6711     6708     6707     6712     6725     6736     6736     6723 
    6700     6665     6623     6585     6555     6534     6521     6515 
    6509     6497     6479     6455     6416     6369     6320     6268 
    6212     6159     6108     6060     6022     5993     5967     5944 
    5922     5896     5859     5818     5788     5768     5755     5755 
    5764     5768     5769     5775     5783     5797     5823     5853 
    5889     5919     5930     5934     5942     5951     5975     6018 
    6072     6127     6176     6206     6217     6222     6237     6255 
    6277     6323     6382     6436     6485     6527     6557     6573 
    6586     6600     6614     6622     6629     6640     6654     6666 
    6675     6683     6692     6702     6715     6721     6708     6689 
    6670     6642     6611     6586     6566     6555     6559     6575 
    6593     6606     6615     6623     6627     6628     6630     6635 
    6643     6658     6678     6696     6712     6732     6750     6763 
    6776     6791     6800     6796     6785     6781     6786     6794 
    6805     6822     6844     6862     6863     6843     6811     6775 
    6743     6710     6670     6635     6612     6592     6566     6525 
    6480     6447     6420     6392     6372     6350     6319     6286 
    6256     6232     6215     6208     6210     6212     6209     6208 
    6209     6205     6203     6209     6207     6193     6183     6185 
