Origin Time       2024/04/02 04:24:00
Lat.              40.133
Long.             141.712
Depth. (km)       71
Mag.              6.0
Station Code      NIGH10
Station Lat.      37.5438
Station Long.     139.3648
Station Height(m) 218
Record Time       2024/04/02 04:25:27
Sampling Freq(Hz) 100Hz
Duration Time(s)  120
Dir.              5
Scale Factor      3920(gal)/6170801
Max. Acc. (gal)   0.397
Last Correction   2024/04/02 04:25:12
Memo.             
[...]
  -16314   -16284   -16265   -16246   -16223   -16203   -16190   -16186 
  -16195   -16203   -16191   -16178   -16193   -16226   -16272   -16329 
  -16383   -16431   -16464   -16470   -16461   -16447   -16432   -16424 
  -16418   -16415   -16420   -16429   -16439   -16451   -16458   -16456 
  -16456   -16463   -16470   -16462   -16442   -16421   -16405   -16398 
  -16404   -16416   -16430   -16437   -16427   -16400   -16375   -16362 
  -16361   -16380   -16406   -16423   -16439   -16462   -16482   -16492 
  -16489   -16471   -16462   -16491   -16545   -16594   -16611   -16593 
  -16565   -16546   -16529   -16504   -16474   -16447   -16432   -16425 
  -16420   -16432   -16463   -16494   -16507   -16499   -16490   -16502 
  -16533   -16573   -16606   -16625   -16629   -16617   -16595   -16571 
  -16551   -16544   -16550   -16549   -16534   -16521   -16520   -16528 
  -16551   -16580   -16597   -16603   -16596   -16575   -16561   -16568 
  -16573   -16547   -16497   -16450   -16414   -16382   -16348   -16314 
  -16293   -16291   -16292   -16289   -16291   -16305   -16326   -16344 
  -16362   -16386   -16410   -16438   -16463   -16475   -16487   -16506 
  -16516   -16519   -16522   -16503   -16461   -16430   -16420   -16431 
  -16469   -16521   -16566   -16589   -16583   -16550   -16518   -16514 
  -16530   -16550   -16567   -16562   -16535   -16505   -16479   -16452 
  -16429   -16404   -16372   -16345   -16336   -16333   -16321   -16297 
  -16265   -16215   -16154   -16109   -16094   -16111   -16154   -16194 
  -16210   -16208   -16191   -16166   -16159   -16184   -16217   -16242 
  -16264   -16285   -16314   -16360   -16409   -16448   -16478   -16499 
  -16513   -16528   -16546   -16556   -16561   -16581   -16623   -16675 
  -16719   -16744   -16746   -16732   -16711   -16688   -16656   -16620 
  -16597   -16595   -16604   -16621   -16647   -16681   -16706   -16715 
  -16714   -16714   -16719   -16711   -16673   -16614   -16555   -16501 
  -16446   -16390   -16348   -16327   -16328   -16340   -16344   -16337 
  -16333   -16342   -16368   -16402   -16438   -16479   -16515   -16519 
  -16491   -16459   -16445   -16451   -16470   -16497   -16527   -16546 
  -16552   -16542   -16502   -16448   -16414   -16402   -16402   -16412 
  -16426   -16424   -16397   -16352   -16301   -16256   -16219   -16189 
  -16173   -16178   -16198   -16223   -16246   -16268   -16287   -16300 
  -16308   -16309   -16308   -16308   -16301   -16288   -16291   -16317 
  -16352   -16382   -16392   -16367   -16315   -16267   -16237   -16223 
  -16233   -16258   -16278   -16285   -16274   -16252   -16253   -16282 
  -16295   -16283   -16275   -16281   -16293   -16301   -16291   -16278 
  -16293   -16332   -16365   -16393   -16424   -16455   -16486   -16517 
  -16545   -16578   -16624   -16664   -16675   -16675   -16698   -16736 
  -16767   -16780   -16777   -16775   -16769   -16751   -16739   -16749 
  -16767   -16765   -16738   -16710   -16701   -16699   -16688   -16664 
  -16644   -16644   -16658   -16659   -16623   -16568   -16534   -16528 
  -16534   -16551   -16567   -16570   -16551   -16506   -16457   -16433 
  -16430   -16430   -16424   -16419   -16419   -16437   -16472   -16506 
  -16529   -16553   -16573   -16575   -16561   -16542   -16525   -16507 
  -16491   -16483   -16491   -16508   -16514   -16508   -16502   -16497 
  -16488   -16472   -16455   -16438   -16422   -16419   -16415   -16396 
  -16379   -16372   -16378   -16412   -16470   -16517   -16521   -16489 
  -16443   -16406   -16399   -16421   -16437   -16429   -16403   -16363 
  -16314   -16263   -16220   -16195   -16181   -16168   -16143   -16108 
  -16078   -16061   -16051   -16046   -16048   -16053   -16065   -16082 
  -16094   -16100   -16112   -16134   -16164   -16205   -16261   -16317 
  -16357   -16372   -16370   -16366   -16368   -16377   -16389   -16401 
  -16416   -16441   -16466   -16489   -16506   -16502   -16479   -16466 
  -16461   -16440   -16421   -16431   -16452   -16469   -16474   -16467 
  -16469   -16493   -16517   -16530   -16539   -16542   -16531   -16519 
  -16516   -16516   -16517   -16516   -16506   -16487   -16479   -16485 
  -16492   -16504   -16524   -16538   -16542   -16545   -16555   -16573 
  -16601   -16627   -16633   -16624   -16614   -16610   -16624   -16663 
  -16698   -16713   -16717   -16707   -16684   -16659   -16644   -16643 
  -16650   -16641   -16602   -16557   -16535   -16526   -16508   -16487 
  -16466   -16433   -16409   -16417   -16442   -16457   -16450   -16420 
  -16385   -16370   -16369   -16367   -16368   -16369   -16370   -16375 
  -16384   -16392   -16403   -16412   -16419   -16418   -16406   -16398 
  -16397   -16386   -16358   -16327   -16305   -16301   -16318   -16353 
  -16390   -16413   -16420   -16414   -16409   -16413   -16415   -16400 
  -16377   -16361   -16356   -16369   -16398   -16437   -16490   -16553 
  -16601   -16620   -16619   -16602   -16566   -16521   -16464   -16404 
  -16363   -16338   -16313   -16295   -16284   -16278   -16289   -16310 
  -16314   -16303   -16294   -16301   -16332   -16382   -16434   -16482 
  -16530   -16556   -16546   -16516   -16487   -16464   -16449   -16440 
  -16432   -16434   -16442   -16436   -16425   -16430   -16445   -16463 
  -16479   -16482   -16473   -16466   -16464   -16455   -16440   -16437 
  -16442   -16440   -16437   -16430   -16411   -16387   -16371   -16365 
  -16370   -16384   -16398   -16409   -16410   -16401   -16400   -16403 
  -16394   -16374   -16357   -16350   -16361   -16387   -16404   -16396 
  -16377   -16353   -16326   -16307   -16295   -16299   -16338   -16397 
  -16445   -16476   -16503   -16525   -16537   -16539   -16529   -16506 
  -16480   -16459   -16435   -16413   -16408   -16417   -16427   -16424 
  -16411   -16405   -16413   -16429   -16443   -16461   -16483   -16503 
  -16518   -16516   -16495   -16473   -16452   -16430   -16413   -16407 
  -16402   -16388   -16366   -16344   -16325   -16320   -16332   -16350 
  -16369   -16396   -16428   -16454   -16471   -16475   -16465   -16450 
  -16430   -16413   -16413   -16422   -16438   -16461   -16476   -16482 
  -16494   -16507   -16510   -16517   -16530   -16531   -16520   -16523 
  -16562   -16631   -16709   -16768   -16795   -16797   -16794   -16796 
  -16800   -16806   -16805   -16789   -16760   -16720   -16681   -16655 
  -16638   -16623   -16613   -16612   -16620   -16629   -16631   -16622 
  -16611   -16605   -16597   -16578   -16555   -16538   -16532   -16524 
  -16502   -16481   -16473   -16487   -16519   -16541   -16535   -16504 
  -16469   -16455   -16462   -16472   -16478   -16487   -16496   -16497 
  -16476   -16424   -16356   -16296   -16253   -16241   -16259   -16281 
  -16291   -16291   -16274   -16237   -16211   -16211   -16218   -16228 
  -16239   -16229   -16202   -16182   -16163   -16144   -16135   -16128 
  -16107   -16079   -16063   -16063   -16074   -16085   -16082   -16061 
  -16035   -16009   -15988   -15983   -16003   -16043   -16082   -16109 
  -16131   -16150   -16162   -16168   -16169   -16163   -16164   -16183 
  -16216   -16257   -16308   -16357   -16391   -16414   -16425   -16427 
  -16436   -16452   -16468   -16488   -16515   -16537   -16538   -16525 
  -16511   -16503   -16502   -16499   -16496   -16506   -16522   -16536 
  -16545   -16552   -16565   -16581   -16591   -16595   -16586   -16567 
  -16557   -16555   -16543   -16518   -16488   -16471   -16473   -16478 
  -16477   -16479   -16502   -16547   -16596   -16631   -16647   -16640 
  -16616   -16586   -16570   -16588   -16637   -16697   -16750   -16778 
  -16774   -16761   -16756   -16765   -16783   -16794   -16789   -16774 
  -16746   -16719   -16703   -16691   -16678   -16663   -16638   -16610 
  -16588   -16564   -16527   -16476   -16438   -16427   -16419   -16415 
  -16429   -16439   -16423   -16391   -16366   -16356   -16346   -16328 
  -16313   -16313   -16321   -16330   -16342   -16370   -16407   -16430 
  -16446   -16469   -16491   -16509   -16517   -16500   -16476   -16468 
  -16475   -16498   -16518   -16514   -16500   -16496   -16496   -16488 
  -16468   -16431   -16385   -16347   -16322   -16320   -16361   -16430 
  -16494   -16535   -16538   -16508   -16473   -16447   -16435   -16447 
  -16475   -16497   -16502   -16493   -16478   -16469   -16460   -16432 
  -16384   -16343   -16319   -16318   -16350   -16392   -16405   -16379 
  -16330   -16284   -16265   -16276   -16295   -16305   -16311   -16319 
  -16325   -16324   -16325   -16336   -16342   -16342   -16346   -16350 
  -16357   -16371   -16382   -16394   -16416   -16434   -16436   -16430 
  -16432   -16442   -16449   -16456   -16460   -16454   -16452   -16445 
  -16416   -16388   -16377   -16382   -16420   -16476   -16510   -16520 
  -16518   -16493   -16450   -16418   -16401   -16405   -16447   -16507 
  -16555   -16598   -16635   -16639   -16616   -16585   -16561   -16574 
  -16638   -16714   -16772   -16809   -16815   -16779   -16719   -16664 
  -16630   -16619   -16611   -16585   -16545   -16517   -16506   -16504 
  -16506   -16500   -16476   -16443   -16417   -16409   -16416   -16419 
  -16396   -16356   -16333   -16342   -16365   -16376   -16356   -16316 
  -16284   -16270   -16268   -16265   -16268   -16292   -16327   -16343 
  -16324   -16286   -16249   -16225   -16223   -16232   -16240   -16243 
  -16235   -16207   -16169   -16141   -16137   -16160   -16203   -16239 
  -16259   -16278   -16303   -16331   -16361   -16378   -16394   -16431 
  -16472   -16495   -16512   -16529   -16544   -16550   -16542   -16528 
  -16521   -16527   -16543   -16566   -16590   -16604   -16593   -16563 
  -16530   -16502   -16485   -16475   -16481   -16505   -16526   -16531 
  -16514   -16476   -16438   -16410   -16393   -16399   -16431   -16461 
  -16455   -16410   -16359   -16345   -16381   -16427   -16435   -16409 
  -16393   -16408   -16437   -16449   -16442   -16435   -16438   -16443 
  -16446   -16455   -16472   -16481   -16464   -16415   -16344   -16275 
  -16226   -16210   -16221   -16256   -16310   -16358   -16373   -16362 
  -16347   -16351   -16381   -16425   -16470   -16506   -16525   -16525 
  -16507   -16488   -16488   -16502   -16519   -16531   -16540   -16553 
  -16552   -16526   -16482   -16433   -16406   -16415   -16448   -16485 
  -16516   -16537   -16541   -16533   -16526   -16525   -16525   -16517 
  -16498   -16485   -16480   -16461   -16428   -16399   -16386   -16394 
  -16423   -16463   -16502   -16533   -16539   -16513   -16466   -16417 
  -16386   -16395   -16444   -16506   -16537   -16523   -16484   -16445 
  -16433   -16470   -16539   -16601   -16637   -16635   -16604   -16562 
  -16518   -16474   -16438   -16427   -16447   -16477   -16504   -16526 
  -16542   -16559   -16573   -16578   -16582   -16584   -16574   -16554 
  -16529   -16519   -16535   -16564   -16589   -16599   -16602   -16608 
  -16605   -16588   -16569   -16550   -16523   -16489   -16455   -16421 
  -16393   -16374   -16353   -16336   -16326   -16308   -16267   -16217 
  -16181   -16172   -16192   -16227   -16253   -16257   -16261   -16270 
  -16272   -16266   -16272   -16288   -16302   -16312   -16319   -16321 
  -16324   -16334   -16341   -16355   -16394   -16439   -16464   -16469 
  -16468   -16469   -16492   -16539   -16585   -16612   -16624   -16624 
  -16612   -16601   -16594   -16587   -16584   -16579   -16558   -16521 
  -16486   -16470   -16463   -16445   -16426   -16424   -16437   -16449 
  -16454   -16448   -16440   -16435   -16418   -16389   -16375   -16390 
  -16425   -16449   -16442   -16420   -16400   -16389   -16380   -16372 
  -16374   -16375   -16362   -16348   -16342   -16337   -16330   -16319 
  -16311   -16322   -16358   -16399   -16423   -16425   -16418   -16423 
  -16446   -16482   -16511   -16522   -16528   -16541   -16548   -16534 
  -16517   -16508   -16498   -16495   -16507   -16516   -16508   -16488 
  -16460   -16432   -16419   -16427   -16449   -16471   -16485   -16485 
  -16473   -16448   -16407   -16352   -16309   -16298   -16318   -16351 
  -16380   -16398   -16403   -16398   -16390   -16395   -16420   -16466 
  -16524   -16578   -16610   -16614   -16577   -16515   -16464   -16450 
  -16473   -16502   -16507   -16493   -16488   -16502   -16517   -16520 
  -16512   -16488   -16449   -16402   -16349   -16306   -16298   -16330 
  -16385   -16435   -16461   -16460   -16432   -16388   -16355   -16341 
  -16345   -16377   -16427   -16467   -16495   -16514   -16515   -16494 
  -16453   -16395   -16338   -16305   -16298   -16311   -16355   -16417 
  -16460   -16481   -16497   -16496   -16479   -16472   -16484   -16510 
  -16551   -16602   -16640   -16652   -16634   -16582   -16519   -16486 
  -16482   -16485   -16486   -16485   -16483   -16475   -16442   -16387 
  -16346   -16341   -16352   -16350   -16328   -16310   -16300   -16282 
  -16248   -16200   -16156   -16138   -16141   -16153   -16175   -16201 
  -16213   -16209   -16204   -16205   -16219   -16255   -16294   -16314 
  -16327   -16359   -16420   -16496   -16556   -16575   -16571   -16577 
  -16598   -16617   -16630   -16644   -16675   -16726   -16780   -16809 
  -16813   -16808   -16806   -16812   -16825   -16842   -16868   -16897 
  -16901   -16876   -16841   -16794   -16738   -16687   -16650   -16648 
  -16690   -16749   -16786   -16788   -16766   -16736   -16703   -16668 
  -16633   -16605   -16583   -16553   -16509   -16463   -16438   -16439 
  -16443   -16435   -16421   -16404   -16373   -16318   -16246   -16169 
  -16104   -16065   -16055   -16060   -16070   -16071   -16046   -15997 
  -15944   -15897   -15860   -15834   -15819   -15826   -15865   -15921 
  -15971   -15995   -15989   -15973   -15970   -15992   -16038   -16098 
  -16155   -16192   -16218   -16248   -16277   -16295   -16299   -16299 
  -16314   -16349   -16380   -16388   -16372   -16353   -16354   -16376 
  -16413   -16451   -16473   -16484   -16498   -16524   -16565   -16611 
  -16649   -16679   -16705   -16726   -16742   -16743   -16730   -16709 
  -16690   -16693   -16724   -16768   -16800   -16800   -16770   -16724 
  -16678   -16641   -16615   -16605   -16610   -16615   -16619   -16618 
  -16599   -16563   -16515   -16460   -16416   -16398   -16396   -16396 
  -16391   -16381   -16382   -16410   -16444   -16458   -16451   -16433 
  -16417   -16402   -16384   -16375   -16382   -16403   -16418   -16394 
  -16339   -16294   -16277   -16284   -16317   -16366   -16419   -16480 
  -16537   -16560   -16539   -16492   -16450   -16438   -16452   -16487 
  -16534   -16555   -16527   -16471   -16406   -16355   -16346   -16366 
  -16385   -16414   -16461   -16497   -16512   -16518   -16522   -16528 
  -16545   -16565   -16578   -16579   -16574   -16582   -16603   -16617 
  -16614   -16594   -16565   -16547   -16556   -16583   -16617   -16635 
  -16629   -16612   -16604   -16610   -16611   -16591   -16569   -16560 
  -16555   -16539   -16519   -16498   -16468   -16416   -16358   -16316 
  -16303   -16317   -16340   -16344   -16325   -16299   -16288   -16300 
  -16315   -16318   -16315   -16312   -16307   -16309   -16324   -16331 
  -16320   -16305   -16297   -16282   -16256   -16232   -16211   -16187 
  -16173   -16185   -16221   -16284   -16362   -16403   -16379   -16325 
  -16278   -16261   -16272   -16297   -16327   -16360   -16387   -16393 
  -16376   -16358   -16358   -16371   -16396   -16435   -16474   -16513 
  -16571   -16631   -16667   -16689   -16714   -16742   -16768   -16785 
  -16785   -16782   -16791   -16796   -16779   -16750   -16734   -16734 
  -16738   -16727   -16685   -16609   -16528   -16468   -16436   -16436 
  -16448   -16446   -16422   -16380   -16331   -16296   -16284   -16285 
  -16289   -16293   -16284   -16259   -16227   -16200   -16201   -16231 
  -16269   -16301   -16328   -16348   -16355   -16359   -16370   -16377 
  -16380   -16399   -16434   -16468   -16496   -16523   -16550   -16563 
  -16557   -16544   -16534   -16518   -16489   -16453   -16421   -16406 
  -16414   -16419   -16405   -16390   -16382   -16374   -16376   -16395 
  -16416   -16445   -16495   -16542   -16558   -16543   -16503   -16460 
  -16442   -16453   -16482   -16516   -16544   -16555   -16540   -16507 
  -16462   -16408   -16371   -16377   -16414   -16462   -16500   -16516 
  -16516   -16501   -16464   -16417   -16384   -16379   -16390   -16386 
  -16361   -16342   -16339   -16338   -16332   -16321   -16311   -16304 
  -16291   -16268   -16254   -16267   -16298   -16336   -16378   -16414 
  -16434   -16442   -16444   -16449   -16478   -16533   -16590   -16624 
  -16635   -16627   -16607   -16589   -16589   -16607   -16626   -16623 
  -16585   -16536   -16519   -16535   -16558   -16579   -16595   -16590 
  -16574   -16571   -16584   -16609   -16636   -16649   -16638   -16611 
  -16576   -16544   -16516   -16492   -16479   -16479   -16484   -16488 
  -16495   -16501   -16499   -16500   -16505   -16498   -16479   -16462 
  -16454   -16452   -16448   -16442   -16434   -16429   -16423   -16406 
  -16378   -16359   -16359   -16365   -16371   -16373   -16367   -16357 
  -16340   -16310   -16282   -16275   -16285   -16294   -16289   -16273 
  -16251   -16228   -16213   -16207   -16202   -16201   -16204   -16200 
  -16191   -16191   -16205   -16227   -16242   -16247   -16255   -16279 
  -16302   -16304   -16287   -16270   -16269   -16284   -16299   -16303 
  -16290   -16266   -16252   -16264   -16296   -16336   -16364   -16365 
  -16357   -16365   -16385   -16407   -16433   -16465   -16503   -16546 
  -16580   -16596   -16603   -16605   -16598   -16580   -16555   -16533 
  -16529   -16536   -16534   -16519   -16497   -16482   -16490   -16501 
  -16489   -16484   -16522   -16580   -16622   -16639   -16632   -16618 
  -16614   -16603   -16583   -16588   -16625   -16665   -16684   -16677 
  -16656   -16641   -16632   -16611   -16592   -16606   -16630   -16627 
  -16595   -16558   -16527   -16503   -16483   -16471   -16467   -16469 
  -16475   -16469   -16453   -16451   -16466   -16470   -16446   -16405 
  -16373   -16372   -16388   -16396   -16387   -16386   -16412   -16447 
  -16463   -16461   -16457   -16459   -16470   -16481   -16484   -16494 
  -16511   -16511   -16494   -16484   -16488   -16495   -16494   -16469 
  -16434   -16410   -16398   -16384   -16365   -16346   -16335   -16325 
  -16310   -16286   -16258   -16244   -16249   -16270   -16303   -16335 
  -16356   -16374   -16376   -16349   -16310   -16278   -16253   -16242 
  -16247   -16260   -16276   -16285   -16278   -16255   -16222   -16195 
  -16193   -16221   -16266   -16305   -16329   -16336   -16333   -16331 
  -16333   -16347   -16381   -16426   -16468   -16510   -16543   -16556 
  -16546   -16512   -16472   -16462   -16494   -16543   -16585   -16604 
  -16604   -16598   -16591   -16586   -16594   -16622   -16655   -16669 
  -16667   -16664   -16675   -16701   -16719   -16713   -16701   -16702 
  -16712   -16701   -16652   -16578   -16516   -16483   -16466   -16455 
  -16457   -16467   -16469   -16457   -16446   -16455   -16476   -16482 
  -16473   -16466   -16465   -16465   -16456   -16442   -16445   -16467 
  -16490   -16496   -16489   -16488   -16501   -16509   -16499   -16473 
  -16447   -16447   -16462   -16475   -16484   -16474   -16435   -16382 
  -16328   -16277   -16241   -16231   -16232   -16226   -16218   -16215 
  -16208   -16195   -16190   -16199   -16229   -16275   -16317   -16347 
  -16360   -16351   -16335   -16326   -16324   -16325   -16334   -16356 
