Origin Time       2024/04/02 04:24:00
Lat.              40.133
Long.             141.712
Depth. (km)       71
Mag.              6.0
Station Code      NMRH04
Station Lat.      43.3978
Station Long.     145.1224
Station Height(m) -186
Record Time       2024/04/02 04:25:38
Sampling Freq(Hz) 100Hz
Duration Time(s)  145
Dir.              1
Scale Factor      3923(gal)/8224838
Max. Acc. (gal)   1.318
Last Correction   2024/04/02 04:25:38
Memo.             
[...]
   -8857    -8824    -8680    -8568    -8572    -8577    -8594    -8730 
   -8924    -9046    -9031    -8856    -8707    -8749    -8811    -8788 
   -8742    -8729    -8768    -8768    -8722    -8743    -8739    -8596 
   -8510    -8640    -8776    -8772    -8785    -8837    -8800    -8727 
   -8700    -8710    -8749    -8803    -8835    -8806    -8650    -8505 
   -8546    -8606    -8542    -8552    -8646    -8721    -8853    -8961 
   -8950    -8958    -8974    -8907    -8846    -8850    -8807    -8680 
   -8583    -8577    -8625    -8677    -8761    -8866    -8876    -8761 
   -8658    -8699    -8803    -8816    -8780    -8719    -8668    -8688 
   -8660    -8653    -8812    -8939    -8897    -8826    -8831    -8889 
   -8949    -8972    -8923    -8862    -8856    -8791    -8638    -8537 
   -8541    -8607    -8661    -8679    -8742    -8834    -8862    -8795 
   -8658    -8565    -8613    -8750    -8876    -8922    -8850    -8766 
   -8788    -8799    -8741    -8729    -8718    -8646    -8657    -8792 
   -8853    -8866    -8961    -8957    -8822    -8708    -8588    -8505 
   -8538    -8623    -8664    -8665    -8769    -8945    -8923    -8729 
   -8688    -8780    -8787    -8808    -8907    -8885    -8768    -8734 
   -8748    -8691    -8606    -8588    -8613    -8676    -8791    -8818 
   -8772    -8802    -8823    -8745    -8688    -8750    -8816    -8792 
   -8756    -8727    -8692    -8748    -8865    -8892    -8872    -8897 
   -8839    -8688    -8680    -8775    -8792    -8808    -8847    -8807 
   -8719    -8687    -8684    -8649    -8650    -8704    -8729    -8779 
   -8833    -8748    -8606    -8536    -8541    -8637    -8741    -8745 
   -8742    -8766    -8711    -8617    -8591    -8664    -8777    -8762 
   -8671    -8748    -8919    -8978    -8899    -8723    -8635    -8714 
   -8802    -8872    -8911    -8885    -8849    -8812    -8806    -8823 
   -8777    -8704    -8715    -8795    -8803    -8723    -8715    -8758 
   -8679    -8522    -8451    -8409    -8413    -8586    -8787    -8908 
   -8926    -8792    -8731    -8785    -8707    -8591    -8581    -8640 
   -8760    -8876    -8953    -8977    -8873    -8738    -8691    -8675 
   -8661    -8702    -8793    -8820    -8791    -8835    -8846    -8719 
   -8654    -8683    -8661    -8694    -8816    -8864    -8841    -8776 
   -8662    -8621    -8675    -8730    -8756    -8796    -8833    -8847 
   -8920    -9007    -8962    -8849    -8812    -8834    -8883    -9003 
   -9040    -8862    -8696    -8652    -8646    -8729    -8824    -8820 
   -8797    -8752    -8638    -8635    -8766    -8789    -8722    -8668 
   -8599    -8637    -8758    -8785    -8780    -8838    -8847    -8734 
   -8665    -8695    -8685    -8685    -8749    -8802    -8806    -8796 
   -8831    -8878    -8845    -8714    -8627    -8710    -8815    -8814 
   -8750    -8683    -8703    -8807    -8858    -8756    -8626    -8637 
   -8665    -8694    -8775    -8731    -8644    -8699    -8750    -8714 
   -8700    -8761    -8810    -8730    -8580    -8559    -8665    -8731 
   -8758    -8784    -8773    -8802    -8849    -8815    -8800    -8872 
   -8877    -8834    -8938    -9065    -9018    -8892    -8738    -8604 
   -8613    -8661    -8665    -8703    -8726    -8689    -8626    -8572 
   -8640    -8761    -8762    -8704    -8698    -8729    -8737    -8676 
   -8576    -8523    -8542    -8613    -8733    -8830    -8857    -8864 
   -8868    -8807    -8696    -8688    -8743    -8696    -8715    -8865 
   -8901    -8842    -8831    -8893    -8945    -8819    -8614    -8554 
   -8599    -8653    -8726    -8772    -8748    -8710    -8675    -8623 
   -8648    -8823    -8966    -8895    -8820    -8868    -8843    -8722 
   -8615    -8603    -8685    -8702    -8664    -8756    -8926    -8993 
   -8927    -8833    -8779    -8718    -8677    -8748    -8837    -8841 
   -8834    -8833    -8820    -8857    -8943    -8996    -8947    -8820 
   -8714    -8685    -8689    -8623    -8532    -8553    -8637    -8696 
   -8800    -8901    -8878    -8731    -8521    -8426    -8549    -8640 
   -8600    -8634    -8668    -8642    -8739    -8835    -8865    -8969 
   -8930    -8711    -8656    -8737    -8748    -8750    -8873    -9030 
   -9050    -8945    -8850    -8850    -8843    -8743    -8719    -8781 
   -8652    -8425    -8482    -8687    -8712    -8733    -8784    -8634 
   -8483    -8550    -8721    -8857    -8788    -8523    -8352    -8398 
   -8527    -8688    -8884    -8972    -8927    -8947    -9024    -9042 
   -9078    -9103    -8953    -8781    -8737    -8706    -8689    -8675 
   -8661    -8761    -8837    -8806    -8788    -8788    -8784    -8721 
   -8644    -8640    -8669    -8735    -8787    -8779    -8745    -8688 
   -8688    -8694    -8642    -8676    -8761    -8775    -8699    -8638 
   -8729    -8842    -8862    -8888    -8905    -8873    -8856    -8815 
   -8706    -8657    -8726    -8748    -8683    -8656    -8688    -8712 
   -8661    -8625    -8679    -8711    -8714    -8758    -8803    -8775 
   -8721    -8727    -8715    -8594    -8484    -8563    -8780    -8932 
   -8977    -8922    -8788    -8785    -8899    -8910    -8877    -8878 
   -8856    -8808    -8739    -8679    -8648    -8618    -8594    -8544 
   -8544    -8715    -8922    -9009    -8966    -8839    -8808    -8843 
   -8746    -8683    -8716    -8665    -8657    -8770    -8834    -8846 
   -8793    -8642    -8544    -8549    -8637    -8808    -8919    -8899 
   -8857    -8796    -8662    -8564    -8625    -8739    -8766    -8793 
   -8824    -8788    -8834    -8927    -8853    -8749    -8753    -8731 
   -8640    -8606    -8677    -8752    -8779    -8758    -8652    -8568 
   -8633    -8739    -8764    -8760    -8838    -8984    -9053    -8970 
   -8823    -8715    -8672    -8627    -8623    -8707    -8764    -8793 
   -8789    -8648    -8576    -8722    -8818    -8784    -8770    -8730 
   -8661    -8648    -8648    -8758    -8968    -9001    -8900    -8843 
   -8784    -8731    -8734    -8777    -8773    -8656    -8573    -8688 
   -8841    -8791    -8642    -8608    -8672    -8688    -8611    -8587 
   -8698    -8799    -8858    -8926    -8932    -8869    -8772    -8718 
   -8769    -8820    -8826    -8865    -8935    -8920    -8737    -8587 
   -8642    -8708    -8723    -8838    -8943    -8887    -8797    -8779 
   -8765    -8760    -8792    -8831    -8806    -8689    -8583    -8580 
   -8703    -8873    -8918    -8861    -8889    -8888    -8680    -8517 
   -8591    -8730    -8857    -8954    -8893    -8796    -8829    -8831 
   -8739    -8699    -8683    -8621    -8559    -8559    -8692    -8861 
   -8857    -8703    -8572    -8588    -8681    -8691    -8623    -8618 
   -8741    -8830    -8773    -8765    -8820    -8793    -8803    -8919 
   -8972    -8896    -8833    -8818    -8761    -8731    -8735    -8694 
   -8665    -8667    -8698    -8757    -8723    -8640    -8757    -8980 
   -8974    -8784    -8603    -8541    -8637    -8649    -8569    -8683 
   -8849    -8911    -8945    -8883    -8737    -8633    -8633    -8707 
   -8723    -8737    -8858    -8889    -8822    -8893    -8935    -8837 
   -8865    -8965    -8924    -8810    -8671    -8529    -8419    -8413 
   -8523    -8615    -8699    -8738    -8649    -8618    -8654    -8610 
   -8577    -8595    -8568    -8513    -8533    -8691    -8891    -8953 
   -8893    -8874    -8915    -8968    -8993    -8938    -8854    -8769 
   -8661    -8587    -8598    -8685    -8808    -8955    -9043    -8976 
   -8889    -8891    -8897    -8864    -8802    -8671    -8556    -8644 
   -8808    -8850    -8829    -8789    -8784    -8820    -8834    -8889 
   -8935    -8853    -8754    -8730    -8723    -8748    -8792    -8742 
   -8653    -8685    -8775    -8788    -8742    -8677    -8592    -8548 
   -8623    -8704    -8734    -8803    -8802    -8660    -8610    -8706 
   -8780    -8789    -8765    -8779    -8838    -8808    -8727    -8683 
   -8610    -8599    -8704    -8733    -8731    -8861    -8892    -8733 
   -8703    -8783    -8715    -8654    -8733    -8784    -8745    -8656 
   -8587    -8610    -8629    -8626    -8714    -8737    -8662    -8752 
   -8888    -8854    -8834    -8911    -8914    -8826    -8777    -8766 
   -8734    -8707    -8714    -8742    -8765    -8758    -8754    -8762 
   -8804    -8881    -8873    -8806    -8837    -8911    -8866    -8730 
   -8688    -8694    -8572    -8475    -8525    -8606    -8725    -8865 
   -8891    -8797    -8746    -8795    -8784    -8762    -8897    -8926 
   -8781    -8800    -8824    -8677    -8658    -8726    -8677    -8671 
   -8750    -8742    -8652    -8680    -8861    -8942    -8834    -8715 
   -8662    -8657    -8737    -8819    -8780    -8714    -8677    -8613 
   -8608    -8715    -8816    -8804    -8677    -8576    -8580    -8606 
   -8654    -8775    -8826    -8770    -8783    -8823    -8819    -8860 
   -8937    -8927    -8781    -8689    -8738    -8708    -8614    -8633 
   -8752    -8842    -8901    -8995    -8950    -8735    -8606    -8613 
   -8712    -8806    -8737    -8637    -8652    -8696    -8737    -8811 
   -8873    -8868    -8846    -8788    -8658    -8625    -8745    -8806 
   -8757    -8769    -8873    -8926    -8851    -8753    -8768    -8846 
   -8799    -8677    -8662    -8637    -8540    -8623    -8815    -8881 
   -8905    -8810    -8650    -8787    -8964    -8869    -8816    -8812 
   -8635    -8509    -8568    -8569    -8561    -8768    -8937    -8862 
   -8806    -8810    -8711    -8611    -8654    -8770    -8839    -8884 
   -8889    -8802    -8748    -8752    -8714    -8700    -8783    -8838 
   -8752    -8679    -8721    -8684    -8602    -8706    -8849    -8841 
   -8905    -9028    -8958    -8928    -8978    -8803    -8629    -8640 
   -8694    -8761    -8699    -8557    -8590    -8650    -8615    -8627 
   -8665    -8712    -8819    -8822    -8691    -8606    -8638    -8792 
   -8928    -8934    -8918    -8864    -8773    -8807    -8853    -8738 
   -8646    -8722    -8706    -8546    -8592    -8756    -8742    -8766 
   -8919    -8919    -8795    -8721    -8712    -8800    -8854    -8758 
   -8677    -8648    -8594    -8591    -8710    -8872    -8895    -8816 
   -8841    -8868    -8812    -8837    -8915    -8893    -8800    -8775 
   -8811    -8807    -8806    -8823    -8761    -8662    -8634    -8742 
   -8900    -8901    -8820    -8776    -8695    -8665    -8676    -8583 
   -8565    -8737    -8833    -8814    -8897    -8984    -8893    -8743 
   -8606    -8449    -8333    -8352    -8537    -8683    -8648    -8677 
   -8846    -8884    -8807    -8742    -8588    -8510    -8642    -8738 
   -8743    -8737    -8669    -8615    -8700    -8920    -9101    -9035 
   -8775    -8546    -8491    -8586    -8723    -8847    -8889    -8830 
   -8788    -8768    -8746    -8856    -9094    -9178    -9000    -8853 
   -8850    -8757    -8580    -8494    -8511    -8654    -8905    -9107 
   -9208    -9236    -9100    -8834    -8648    -8602    -8618    -8649 
   -8680    -8688    -8676    -8695    -8750    -8711    -8565    -8521 
   -8590    -8587    -8594    -8662    -8505    -8198    -8220    -8461 
   -8618    -8814    -8939    -8868    -8835    -8795    -8621    -8452 
   -8321    -8220    -8260    -8522    -8883    -9097    -9126    -9089 
   -8988    -8818    -8667    -8559    -8515    -8621    -8802    -8881 
   -8931    -9067    -9099    -9008    -8972    -8856    -8671    -8599 
   -8641    -8893    -9208    -9285    -9219    -8941    -8434    -8214 
   -8413    -8687    -8931    -9081    -9040    -8866    -8684    -8684 
   -8829    -8884    -8988    -9243    -9278    -9055    -8966    -8958 
   -8826    -8780    -8723    -8347    -7951    -7758    -7750    -8206 
   -8957    -9390    -9343    -8959    -8429    -7990    -7859    -8143 
   -8634    -8981    -9158    -9267    -9158    -8887    -8681    -8421 
   -8052    -7759    -7618    -7734    -8218    -8872    -9343    -9495 
   -9393    -9196    -9096    -8999    -8691    -8429    -8587    -8874 
   -8835    -8698    -8822    -8961    -8953    -9058    -9186    -9136 
   -9100    -9128    -9104    -9061    -8919    -8599    -8275    -8152 
   -8295    -8646    -9015    -9288    -9578    -9921   -10204   -10291 
  -10003    -9375    -8703    -8144    -7551    -6924    -6686    -7025 
   -7776    -8770    -9556    -9752    -9580    -9347    -9004    -8569 
   -8352    -8473    -8689    -8772    -8811    -8895    -8776    -8503 
   -8434    -8550    -8775    -8935    -8730    -8455    -8487    -8640 
   -8653    -8430    -8047    -7716    -7565    -7622    -7819    -8193 
   -8910    -9745   -10211   -10231    -9981    -9567    -9162    -8949 
   -8920    -8938    -9024    -9391    -9852    -9911    -9606    -9248 
   -8905    -8581    -8121    -7438    -7057    -7504    -8494    -9209 
   -9171    -8833    -8815    -8942    -8885    -8743    -8688    -8737 
   -8726    -8600    -8564    -8533    -8313    -8259    -8604    -8892 
   -8708    -8213    -7874    -7861    -7920    -7971    -8044    -8079 
   -8224    -8584    -8868    -8753    -8576    -8764    -8928    -8742 
   -8392    -7962    -7812    -8322    -9127    -9792   -10177   -10231 
  -10223   -10386   -10513   -10336    -9798    -9163    -8764    -8476 
   -8160    -8027    -8187    -8473    -8613    -8618    -8672    -8646 
   -8498    -8444    -8480    -8505    -8667    -8957    -8861    -8326 
   -7979    -7921    -7959    -8170    -8426    -8630    -8985    -9521 
   -9942    -9958    -9552    -9119    -9076    -9252    -9428    -9840 
  -10345   -10350    -9667    -8448    -7075    -6154    -5989    -6363 
   -6882    -7469    -8187    -8746    -9031    -9354    -9560    -9251 
   -8812    -8707    -8834    -9105    -9354    -9536   -10049   -10666 
  -10793   -10602   -10305    -9707    -9000    -8588    -8486    -8464 
   -8328    -8257    -8483    -8472    -7954    -7589    -7516    -7512 
   -7770    -8114    -8132    -7862    -7749    -8139    -8676    -8829 
   -8707    -8711    -9170   -10157   -11003   -11119   -11059   -10998 
  -10203    -9086    -8583    -8463    -8437    -8592    -8766    -8789 
   -8584    -8206    -7900    -7834    -7954    -7973    -7726    -7422 
   -7204    -7092    -7298    -7928    -8625    -8839    -8634    -8641 
   -8931    -9239    -9637    -9764    -9227    -8452    -7875    -7738 
   -8046    -8262    -8397    -8822    -9142    -9184    -9356    -9625 
   -9722    -9634    -9356    -8878    -8479    -8361    -8029    -7245 
   -6964    -7886    -9328   -10172    -9998    -9270    -8698    -8513 
   -8658    -9317   -10322   -10870   -10804   -10604   -10196    -9281 
   -8190    -7441    -6940    -6554    -6727    -7450    -8028    -8309 
   -8554    -8696    -8680    -8649    -8765    -9216    -9737    -9641 
   -9031    -8559    -8426    -8552    -8444    -7967    -7828    -8033 
   -8461    -9622   -10939   -11392   -11202   -10859   -10276    -9359 
   -8414    -7852    -7645    -7341    -6813    -6415    -6454    -7164 
   -8317    -9038    -8970    -8479    -8001    -8091    -8807    -9495 
   -9764    -9610    -9182    -8903    -9201   -10014   -10654   -10601 
  -10089    -9632    -9536    -9718    -9787    -9378    -8662    -8305 
   -8386    -8384    -8155    -7749    -7227    -6920    -6855    -6781 
   -6976    -7543    -7792    -7796    -8394    -9413   -10127   -10519 
  -10781   -10786   -10540   -10200    -9763    -9157    -8527    -8429 
   -8911    -9196    -9112    -9026    -8873    -8637    -8499    -8473 
   -8378    -8071    -7689    -7427    -7423    -7765    -8395    -9139 
   -9564    -9309    -8788    -8683    -8958    -9054    -8712    -8357 
   -8338    -8176    -7604    -7176    -7173    -7419    -7599    -7474 
   -7488    -8033    -8800    -9486    -9868    -9795    -9628    -9956 
  -10750   -11164   -10808   -10210    -9734    -9414    -9143    -8785 
   -8380    -7668    -6704    -6389    -6804    -7177    -7510    -8224 
   -9123    -9691    -9869    -9890    -9732    -9279    -8619    -8167 
   -8476    -9348    -9929    -9921    -9548    -8976    -8548    -8529 
   -8676    -8576    -8230    -8081    -8299    -8714    -9200    -9279 
   -8621    -7889    -7808    -8343    -9058    -9522    -9450    -8919 
   -8629    -8970    -9207    -8814    -8317    -8209    -8163    -7670 
   -7252    -7800    -9112   -10363   -10790   -10177    -9406    -9019 
   -8653    -8588    -8965    -8981    -8517    -8060    -7832    -7888 
   -8000    -8229    -8868    -9470    -9445    -8928    -8499    -8509 
   -8739    -8823    -8564    -8182    -8183    -8483    -8800    -9184 
   -9406    -9400    -9320    -8965    -8698    -8958    -9103    -9000 
   -9310    -9699    -9454    -8743    -8139    -8021    -8283    -8499 
   -8621    -8770    -8930    -9150    -9351    -9310    -9066    -8625 
   -7832    -7107    -6921    -6993    -7342    -8144    -8807    -9142 
   -9248    -8789    -8208    -8247    -8734    -9246    -9552    -9664 
   -9535    -8946    -8282    -8247    -8873    -9498    -9571    -9383 
   -9566    -9931    -9849    -9495    -9243    -8654    -7731    -7402 
   -7862    -8206    -7948    -7461    -7072    -6868    -6889    -7177 
   -7919    -8830    -9335    -9501    -9652    -9958   -10343   -10326 
   -9834    -9309    -9090    -9297    -9413    -9163    -9216    -9320 
   -8698    -7929    -7570    -7470    -7767    -8483    -9420   -10222 
  -10285    -9738    -9097    -8272    -7456    -7136    -7044    -6836 
   -6817    -7248    -7959    -8768    -9452    -9863   -10320   -10828 
  -10912   -10755   -10602   -10145    -9396    -8738    -8473    -8648 
   -8818    -8694    -8618    -8668    -8541    -8276    -7994    -7801 
   -7947    -8197    -7983    -7333    -6983    -7541    -8610    -9327 
   -9508    -9540    -9671    -9764    -9656    -9467    -9306    -9181 
   -9026    -8766    -8918    -9547    -9614    -9157    -8943    -8642 
   -8145    -7875    -7636    -7412    -7805    -8694    -9057    -8721 
   -8455    -8330    -8014    -7865    -8108    -8402    -8692    -9121 
   -9397    -9197    -8860    -8833    -9004    -9309    -9621    -9450 
   -8926    -8615    -8573    -8626    -8727    -8851    -8835    -8537 
   -8154    -8077    -8459    -8976    -9147    -8918    -8556    -8301 
   -8330    -8545    -8563    -8479    -8688    -9013    -9058    -8807 
   -8656    -8955    -9396    -9535    -9470    -9393    -9331    -9327 
   -9254    -9026    -8970    -9132    -9057    -8692    -8403    -8299 
   -8247    -8104    -7924    -7878    -7981    -8194    -8410    -8418 
   -8257    -8212    -8255    -8214    -8364    -8864    -9293    -9489 
   -9671    -9811    -9883    -9786    -9086    -8112    -7796    -8206 
   -8675    -8567    -7970    -7593    -7514    -7758    -8687    -9663 
  -10029   -10158   -10142    -9784    -9278    -8658    -7970    -7578 
   -7669    -8128    -8603    -8795    -8896    -9059    -9074    -8951 
   -8868    -8884    -9011    -9147    -9121    -8969    -9093    -9541 
   -9641    -9244    -8982    -9062    -9275    -9445    -9259    -8671 
   -8047    -7604    -7373    -7273    -7145    -7227    -7859    -8668 
   -9157    -9390    -9351    -9008    -8891    -9020    -8868    -8849 
   -9271    -9390    -9127    -8914    -8687    -8627    -8856    -9059 
   -9285    -9572    -9570    -9216    -8726    -8217    -7992    -8263 
   -8756    -9121    -9050    -8600    -8398    -8523    -8660    -8818 
