Origin Time       2024/04/02 04:24:00
Lat.              40.133
Long.             141.712
Depth. (km)       71
Mag.              6.0
Station Code      NMRH05
Station Lat.      43.3900
Station Long.     144.8021
Station Height(m) -128
Record Time       2024/04/02 04:25:41
Sampling Freq(Hz) 100Hz
Duration Time(s)  120
Dir.              3
Scale Factor      2942(gal)/8224139
Max. Acc. (gal)   0.803
Last Correction   2024/04/02 04:25:41
Memo.             
[...]
 -207976  -207693  -207628  -207685  -207936  -208276  -208507  -208573 
 -208446  -208176  -208066  -208199  -208202  -208009  -207937  -208021 
 -208155  -208356  -208454  -208349  -208336  -208369  -208273  -208330 
 -208444  -208313  -208202  -208183  -207920  -207555  -207542  -207809 
 -208013  -208105  -208203  -208415  -208657  -208749  -208608  -208261 
 -207963  -207867  -207866  -207967  -208107  -208074  -207932  -207997 
 -208317  -208485  -208337  -208141  -208082  -208209  -208306  -208175 
 -208064  -208089  -208144  -208228  -208311  -208398  -208502  -208558 
 -208522  -208384  -208228  -208124  -208047  -207937  -207751  -207697 
 -208013  -208407  -208549  -208548  -208495  -208346  -208222  -208236 
 -208179  -207945  -207863  -208030  -208151  -208219  -208368  -208422 
 -208345  -208457  -208716  -208696  -208431  -208233  -208106  -207974 
 -207866  -207809  -207766  -207727  -207767  -207937  -208191  -208407 
 -208417  -208272  -208287  -208407  -208264  -208009  -208109  -208426 
 -208491  -208302  -208117  -208171  -208477  -208664  -208630  -208541 
 -208363  -208151  -207999  -207762  -207500  -207558  -207837  -207994 
 -208068  -208067  -207948  -208003  -208224  -208228  -208078  -208021 
 -208048  -208167  -208319  -208303  -208237  -208300  -208348  -208349 
 -208407  -208444  -208369  -208226  -208098  -208021  -208026  -208071 
 -207981  -207843  -207900  -207936  -207760  -207897  -208437  -208500 
 -208020  -207936  -208321  -208434  -208234  -208186  -208213  -208067 
 -208001  -208251  -208511  -208390  -208080  -208106  -208404  -208462 
 -208275  -208140  -208106  -208224  -208349  -208163  -207983  -208202 
 -208422  -208344  -208178  -208143  -208338  -208481  -208244  -207958 
 -207940  -208035  -208257  -208584  -208683  -208539  -208365  -208237 
 -208090  -207862  -207858  -208218  -208495  -208391  -208114  -208062 
 -208246  -208321  -208215  -207990  -207747  -207836  -208306  -208553 
 -208188  -207824  -207982  -208263  -208357  -208303  -208221  -208303 
 -208350  -208160  -207967  -207885  -207816  -207925  -208367  -208627 
 -208452  -208427  -208535  -208332  -208037  -207966  -208122  -208292 
 -208371  -208488  -208527  -208368  -208210  -208137  -208060  -207928 
 -207833  -207912  -207995  -207931  -207905  -208013  -208141  -208253 
 -208344  -208300  -208147  -208137  -208256  -208251  -208199  -208287 
 -208399  -208421  -208453  -208457  -208418  -208495  -208453  -208165 
 -208035  -208022  -207921  -207906  -207913  -207908  -208048  -208163 
 -208097  -208075  -208228  -208327  -208192  -207951  -207856  -207887 
 -207774  -207638  -207848  -208269  -208381  -208098  -208063  -208556 
 -208808  -208506  -208468  -208947  -209055  -208341  -207639  -207773 
 -208197  -208141  -207970  -207976  -207895  -207821  -207947  -208261 
 -208484  -208242  -207871  -207813  -207810  -207704  -207754  -208025 
 -208178  -208089  -208078  -208322  -208745  -209075  -209009  -208589 
 -208140  -208010  -208093  -207995  -207890  -207929  -207878  -207900 
 -208122  -208238  -208210  -208265  -208348  -208321  -208323  -208346 
 -208199  -207955  -207712  -207663  -207971  -208280  -208396  -208502 
 -208557  -208562  -208683  -208691  -208334  -208010  -208037  -208138 
 -208195  -208197  -208109  -208147  -208141  -207832  -207667  -208012 
 -208526  -208796  -208745  -208354  -207860  -207729  -207827  -207867 
 -208017  -208201  -208313  -208562  -208832  -208774  -208419  -208147 
 -208182  -208244  -208030  -207810  -207929  -208082  -207885  -207647 
 -207735  -208074  -208546  -208970  -209125  -208970  -208454  -207898 
 -207912  -208180  -208021  -207873  -208147  -208319  -208345  -208430 
 -208165  -207787  -207974  -208305  -208211  -208055  -208265  -208496 
 -208176  -207597  -207516  -207989  -208512  -208766  -208789  -208711 
 -208462  -208037  -207814  -207954  -208080  -208056  -208014  -207964 
 -207991  -208121  -208298  -208464  -208489  -208429  -208311  -208230 
 -208396  -208448  -208137  -207908  -207874  -207928  -208160  -208252 
 -208039  -207986  -207989  -207804  -207908  -208236  -208303  -208137 
 -207816  -207635  -207922  -208353  -208502  -208299  -208086  -208245 
 -208569  -208712  -208618  -208360  -208191  -208259  -208353  -208271 
 -208055  -207902  -207917  -208035  -208052  -207854  -207766  -208013 
 -208163  -208051  -208047  -208215  -208464  -208693  -208539  -208109 
 -208006  -208199  -208410  -208503  -208294  -208194  -208471  -208491 
 -208086  -207806  -207921  -208184  -208276  -208244  -208125  -208017 
 -208261  -208441  -207993  -207669  -207990  -208233  -208255  -208431 
 -208512  -208452  -208421  -208302  -208260  -208467  -208591  -208506 
 -208391  -208188  -207998  -208055  -208224  -208388  -208364  -207964 
 -207740  -208022  -208269  -208217  -208068  -208057  -208284  -208283 
 -207944  -208005  -208350  -208238  -207933  -208013  -208402  -208638 
 -208414  -208079  -208087  -208338  -208472  -208273  -208059  -208187 
 -208317  -208140  -207895  -207863  -208063  -208191  -208153  -208249 
 -208437  -208414  -208215  -208018  -207814  -207566  -207608  -208121 
 -208363  -207941  -207762  -208209  -208584  -208719  -208765  -208597 
 -208610  -208966  -208750  -207829  -207377  -207636  -207797  -207782 
 -208008  -208387  -208666  -208761  -208511  -207990  -207733  -207863 
 -207874  -207717  -207735  -207854  -208155  -208658  -208684  -208338 
 -208519  -208932  -208948  -208745  -208406  -208079  -208047  -208014 
 -207738  -207678  -208051  -208246  -208040  -208064  -208400  -208418 
 -208045  -207738  -207689  -207796  -207927  -208075  -208240  -208302 
 -208329  -208484  -208610  -208645  -208747  -208726  -208476  -208117 
 -207673  -207418  -207447  -207601  -207918  -208184  -208232  -208268 
 -208219  -208072  -208118  -208236  -208209  -208213  -208287  -208309 
 -208282  -208205  -208242  -208471  -208449  -208129  -208074  -208400 
 -208711  -208661  -208273  -207936  -207820  -207847  -208066  -208283 
 -208078  -207644  -207690  -208224  -208526  -208414  -208217  -208217 
 -208600  -208866  -208446  -207993  -208076  -208133  -207874  -207765 
 -208057  -208438  -208380  -207958  -207804  -207995  -208174  -208222 
 -208128  -208008  -207929  -207860  -208025  -208383  -208479  -208255 
 -208097  -208159  -208299  -208566  -208834  -208577  -207924  -207550 
 -207617  -207948  -208249  -208221  -208155  -208403  -208620  -208552 
 -208440  -208268  -208005  -207994  -208145  -208066  -207986  -208229 
 -208460  -208279  -207904  -207825  -208138  -208468  -208427  -208102 
 -207908  -208006  -208098  -207974  -207975  -208151  -208151  -208275 
 -208650  -208742  -208565  -208418  -208334  -208245  -208055  -208006 
 -208205  -208334  -208315  -208186  -208001  -207974  -208066  -208071 
 -208074  -208114  -207976  -207709  -207686  -208074  -208462  -208348 
 -208145  -208400  -208566  -208296  -208036  -208013  -208128  -208180 
 -208129  -208093  -208040  -208044  -208372  -208849  -208823  -208224 
 -207754  -207759  -207921  -207929  -207827  -207804  -207927  -208226 
 -208534  -208580  -208499  -208434  -208229  -207917  -207790  -207889 
 -208121  -208402  -208207  -207605  -207742  -208531  -208832  -208681 
 -208327  -207782  -207790  -208384  -208550  -208280  -208330  -208516 
 -208438  -208377  -208329  -208273  -208408  -208321  -207993  -207964 
 -208107  -208171  -208133  -207843  -207499  -207623  -208175  -208450 
 -208198  -207991  -208039  -207989  -207989  -208279  -208406  -208298 
 -208491  -208840  -208865  -208566  -208246  -208206  -208263  -208103 
 -207939  -207991  -208309  -208750  -208835  -208423  -207945  -207806 
 -207894  -207858  -207851  -208125  -208372  -208318  -208170  -208199 
 -208380  -208615  -208815  -208672  -208121  -207728  -207985  -208450 
 -208413  -207954  -207642  -207856  -208375  -208561  -208425  -208313 
 -208190  -208163  -208156  -207918  -207882  -208210  -208381  -208255 
 -208039  -208040  -208330  -208433  -208145  -207854  -208003  -208610 
 -208962  -208514  -207747  -207353  -207531  -208067  -208363  -208161 
 -207921  -207970  -208255  -208461  -208236  -207981  -208137  -208251 
 -208071  -207974  -208095  -208264  -208305  -208057  -207625  -207459 
 -207851  -208529  -208916  -208754  -208408  -208276  -208211  -207955 
 -207728  -207998  -208519  -208602  -208484  -208626  -208643  -208307 
 -207941  -207701  -207588  -207690  -207920  -208006  -207945  -208001 
 -208066  -207902  -207909  -208303  -208651  -208759  -208742  -208724 
 -208685  -208392  -207967  -207751  -207697  -207809  -208137  -208388 
 -208475  -208341  -207858  -207508  -207689  -208022  -208117  -208094 
 -208203  -208368  -208461  -208650  -208809  -208678  -208552  -208521 
 -208314  -208095  -207860  -207584  -207732  -208036  -208097  -208344 
 -208512  -208245  -208151  -208191  -208030  -208035  -208167  -208159 
 -208097  -208028  -208093  -208336  -208552  -208755  -208880  -208699 
 -208369  -208205  -208234  -208261  -208102  -207904  -207921  -207978 
 -207843  -207814  -208206  -208629  -208631  -208400  -208137  -207855 
 -207841  -208113  -208253  -208241  -208265  -208210  -208051  -208039 
 -208246  -208419  -208400  -208242  -208021  -207860  -207759  -207582 
 -207612  -208049  -208379  -208314  -208206  -208174  -208076  -208047 
 -208327  -208741  -208863  -208661  -208381  -208059  -207684  -207519 
 -207771  -208268  -208603  -208610  -208562  -208614  -208539  -208149 
 -207752  -207796  -207932  -207773  -207793  -208210  -208704  -209019 
 -209135  -209135  -208689  -207839  -207399  -207505  -207704  -207885 
 -208044  -208326  -208786  -208808  -208275  -208248  -208886  -208967 
 -208234  -207639  -207638  -207817  -207671  -207377  -207451  -208016 
 -208695  -208885  -208634  -208427  -208272  -208179  -208033  -207523 
 -207048  -207139  -207812  -208768  -209171  -208666  -208260  -208529 
 -208678  -208218  -207636  -207639  -208325  -208577  -207925  -207706 
 -208342  -208770  -208522  -208102  -208136  -208206  -207775  -207507 
 -207559  -207419  -207549  -208353  -208899  -208512  -208148  -208408 
 -208534  -208465  -208521  -208336  -208010  -207828  -207821  -208182 
 -208684  -208861  -208688  -208356  -208095  -208232  -208700  -208936 
 -208854  -208939  -209043  -208552  -207960  -208002  -207947  -207268 
 -206883  -207273  -207983  -208597  -208722  -208271  -207785  -207806 
 -208099  -208009  -207778  -207762  -207605  -207751  -208460  -208850 
 -208758  -208398  -207859  -208013  -208965  -209417  -208896  -208089 
 -207547  -207476  -207835  -208410  -208878  -208915  -208489  -207824 
 -207415  -207706  -208093  -207862  -207527  -207530  -207802  -208440 
 -209055  -209096  -208646  -208234  -208287  -208348  -207739  -207060 
 -207150  -207642  -208003  -208327  -208485  -208348  -208315  -208599 
 -208934  -208926  -208556  -208147  -207804  -207839  -208456  -208981 
 -209043  -208816  -208219  -207681  -207901  -208329  -208056  -207558 
 -207634  -207878  -207723  -207403  -207257  -207414  -207800  -208129 
 -208327  -208564  -208751  -208678  -208623  -208785  -208707  -208321 
 -208253  -208484  -208434  -208259  -208313  -208210  -207792  -207535 
 -207628  -207882  -208080  -208030  -207733  -207573  -207813  -207893 
 -207665  -208030  -208975  -209605  -209507  -208836  -208230  -207981 
 -207740  -207469  -207412  -207578  -207790  -208033  -208365  -208606 
 -208620  -208537  -208476  -208365  -208217  -208291  -208535  -208658 
 -208591  -208269  -207875  -207877  -207982  -207628  -207364  -207670 
 -208063  -208352  -208481  -208309  -208205  -208224  -208256  -208587 
 -208955  -208876  -208419  -207922  -207835  -208133  -208191  -207982 
 -208055  -208415  -208604  -208392  -208062  -208025  -208116  -207912 
 -207604  -207511  -207477  -207520  -207659  -207458  -207071  -207114 
 -207515  -208120  -208940  -209394  -209268  -209129  -209029  -208777 
 -208502  -208268  -208326  -208846  -209348  -209282  -208646  -208025 
 -207974  -208078  -207744  -207306  -207083  -206975  -207215  -207806 
 -208120  -208048  -208083  -208207  -208178  -208292  -208838  -209235 
 -208828  -208186  -207964  -207774  -207522  -207688  -208217  -208843 
 -209463  -209636  -209078  -208363  -208070  -207918  -207443  -206930 
 -207092  -207967  -208599  -208309  -207686  -207594  -207905  -207958 
 -207747  -207708  -207868  -208167  -208541  -208824  -209251  -209650 
 -209196  -208141  -207648  -207882  -208113  -208076  -208035  -208107 
 -208164  -208252  -208530  -208687  -208472  -208298  -208300  -208159 
 -207812  -207373  -207164  -207493  -208138  -208579  -208421  -207897 
 -207630  -207760  -208010  -208132  -208136  -208171  -208336  -208629 
 -208807  -208774  -208618  -208396  -208615  -209289  -209189  -208066 
 -207355  -207462  -207704  -208267  -208890  -208529  -207773  -207716 
 -207993  -208047  -207647  -206887  -206609  -207287  -208379  -209162 
 -209486  -209444  -209048  -208777  -208755  -208228  -207411  -207372 
 -207914  -208290  -208503  -208678  -208957  -209223  -208785  -207812 
 -207349  -207593  -207902  -207800  -207445  -207378  -207685  -207918 
 -208045  -208278  -208259  -208036  -208292  -208745  -208712  -208518 
 -208573  -208614  -208371  -208035  -207900  -207891  -207897  -208002 
 -208145  -208392  -208948  -209391  -209000  -207846  -206999  -207211 
 -207592  -207184  -206687  -206963  -207762  -208367  -208469  -208535 
 -208934  -209495  -210112  -210431  -209822  -208562  -207639  -207211 
 -206840  -206649  -206967  -207596  -208097  -208398  -208708  -208858 
 -208633  -208333  -208210  -208292  -208511  -208550  -208367  -208295 
 -208394  -208469  -208465  -208491  -208525  -208336  -207848  -207408 
 -207381  -207427  -207057  -206768  -207073  -207420  -207499  -208043 
 -209213  -209893  -209591  -209182  -209397  -209831  -209528  -208719 
 -208557  -208793  -208368  -207319  -206413  -206118  -206347  -206868 
 -207690  -208747  -209339  -209129  -208801  -208522  -208025  -207698 
 -207783  -208167  -208523  -208576  -208728  -209066  -209109  -208742 
 -208118  -207674  -207705  -207906  -208032  -208195  -208538  -208840 
 -208592  -208013  -208106  -208677  -208437  -207690  -207557  -207678 
 -207682  -207958  -208284  -208350  -208465  -208850  -209248  -209250 
 -208641  -207652  -206948  -206736  -206568  -206589  -207266  -208218 
 -208889  -209210  -209210  -208919  -208456  -208048  -207982  -208205 
 -208253  -208153  -208253  -208106  -207558  -207414  -207724  -208029 
 -208427  -208830  -209056  -209216  -209089  -208572  -208095  -207785 
 -207490  -207265  -207121  -207137  -207482  -207805  -207675  -207625 
 -208078  -208460  -208629  -208943  -209113  -208926  -208858  -208916 
 -208553  -207939  -207630  -207720  -207989  -208078  -208044  -208107 
 -207800  -207042  -206728  -207274  -208152  -208699  -208796  -208813 
 -208940  -209106  -209275  -209193  -208754  -208302  -207905  -207455 
 -207266  -207677  -208437  -208920  -208904  -208564  -208072  -207638 
 -207442  -207485  -207399  -207254  -207879  -208935  -209259  -208975 
 -208665  -208359  -207955  -207546  -207490  -207738  -207920  -208163 
 -208741  -209572  -210105  -209679  -208606  -207851  -207625  -207630 
 -207665  -207513  -207199  -206972  -207022  -207524  -208116  -208197 
 -208251  -208761  -209081  -208989  -208900  -208804  -208435  -207736 
 -207129  -206975  -207280  -207810  -208040  -207979  -208219  -208791 
 -209362  -209742  -209491  -208579  -208033  -208315  -208516  -208093 
 -207586  -207563  -207886  -208078  -208095  -208265  -208804  -209405 
 -209233  -208232  -207401  -207204  -207411  -207651  -207459  -207131 
 -207431  -208221  -208932  -209359  -209453  -209293  -208971  -208552 
 -208113  -207684  -207418  -207441  -207496  -207401  -207519  -207964 
 -208257  -208373  -208607  -208793  -208831  -208726  -208360  -208068 
 -208263  -208673  -208701  -208214  -207666  -207365  -207412  -208026 
 -208971  -209513  -209196  -208419  -207990  -207877  -207586  -207412 
 -207628  -207821  -207810  -207783  -207963  -208286  -208109  -207369 
 -207102  -207808  -208672  -209005  -209020  -208927  -208872  -208957 
 -208770  -208253  -207967  -207954  -207777  -207617  -207925  -208346 
 -208468  -208442  -208107  -207468  -207153  -207284  -207685  -208317 
 -208599  -208203  -207867  -208213  -208805  -208901  -208542  -208313 
 -208360  -208376  -208294  -208348  -208575  -208553  -208091  -207808 
 -207939  -207939  -207846  -207886  -207706  -207322  -207295  -207736 
 -208156  -208300  -208407  -208485  -208342  -208076  -207810  -207688 
 -207931  -208294  -208359  -208311  -208373  -208364  -208380  -208645 
 -208965  -209023  -208858  -208862  -208865  -208336  -207692  -207316 
 -206919  -206802  -207203  -207522  -207617  -207702  -207520  -207416 
 -208044  -208832  -209131  -208988  -208576  -208514  -208942  -209090 
 -208710  -208093  -207658  -207700  -207945  -208167  -208407  -208581 
 -208572  -208376  -208020  -207675  -207787  -208408  -208809  -208543 
 -208109  -207947  -207916  -207954  -207999  -207979  -208365  -209136 
 -209333  -208842  -208365  -208043  -207850  -207864  -207732  -207393 
 -207495  -208218  -208980  -209233  -208975  -208597  -208346  -208376 
 -208592  -208345  -207646  -207292  -207315  -207327  -207449  -207748 
 -207995  -207986  -207868  -208048  -208364  -208352  -208222  -208125 
 -207827  -207727  -208111  -208487  -208484  -208205  -208143  -208565 
 -209052  -209247  -209079  -208773  -208791  -209150  -209436  -209227 
 -208464  -207743  -207407  -207042  -206736  -206983  -207414  -207563 
 -207670  -207813  -207859  -208062  -208634  -209158  -209233  -209115 
 -208978  -208684  -208360  -207985  -207326  -206763  -206691  -206860 
 -207125  -207658  -208461  -209144  -209359  -209247  -209012  -208768 
 -208631  -208554  -208499  -208400  -208188  -208030  -208003  -207828 
 -207442  -207397  -207828  -208210  -208437  -208453  -208026  -207701 
 -208052  -208515  -208464  -208330  -208585  -208917  -208989  -208884 
 -208687  -208426  -208218  -208098  -208101  -208276  -208410  -208442 
 -208530  -208346  -207797  -207608  -207928  -208172  -208327  -208553 
 -208595  -208453  -208449  -208515  -208219  -207733  -207665  -207864 
 -207962  -208022  -207846  -207505  -207682  -208255  -208514  -208423 
 -208349  -208543  -208822  -208614  -207964  -207646  -207902  -208207 
 -208253  -208107  -207929  -208126  -208591  -208658  -208305  -207878 
 -207596  -207605  -207619  -207438  -207366  -207673  -208444  -209320 
 -209668  -209491  -209218  -208905  -208438  -207952  -207539  -207233 
 -207161  -207279  -207562  -207960  -208244  -208512  -208800  -208842 
 -208704  -208585  -208487  -208268  -207850  -207553  -207601  -207696 
 -207685  -207670  -207693  -208062  -208738  -208969  -208700  -208434 
 -208159  -207809  -207573  -207620  -207937  -208224  -208241  -208219 
 -208427  -208664  -208845  -208908  -208422  -207688  -207476  -207662 
 -207864  -207945  -207906  -208167  -208727  -208954  -208804  -208778 
 -209117  -209490  -209343  -208780  -208257  -207921  -207805  -207677 
 -207378  -207220  -207300  -207535  -208043  -208624  -208926  -208894 
 -208662  -208502  -208488  -208438  -208384  -208161  -207720  -207662 
