Origin Time       2024/04/02 04:24:00
Lat.              40.133
Long.             141.712
Depth. (km)       71
Mag.              6.0
Station Code      NMRH04
Station Lat.      43.3978
Station Long.     145.1224
Station Height(m) 30
Record Time       2024/04/02 04:25:38
Sampling Freq(Hz) 100Hz
Duration Time(s)  145
Dir.              5
Scale Factor      7845(gal)/8223790
Max. Acc. (gal)   5.055
Last Correction   2024/04/02 04:25:38
Memo.             
[...]
   -3090    -2995    -2889    -2810    -2551    -2362    -2655    -3149 
   -3211    -2772    -2548    -2965    -3298    -2961    -2566    -2629 
   -2860    -3029    -3129    -3167    -3241    -3233    -3068    -3071 
   -3288    -3276    -2941    -2720    -2718    -2627    -2521    -2641 
   -2748    -2612    -2432    -2398    -2594    -3084    -3424    -3082 
   -2454    -2351    -2813    -3075    -2752    -2470    -2700    -3002 
   -3072    -3061    -3019    -3067    -3211    -3203    -3184    -3349 
   -3280    -2779    -2398    -2512    -2776    -2718    -2307    -2030 
   -2407    -3090    -3250    -3042    -3065    -3134    -2998    -2839 
   -2835    -2934    -2866    -2691    -2768    -3002    -3096    -3051 
   -3056    -3132    -2960    -2546    -2446    -2743    -2951    -2920 
   -2822    -2918    -3218    -3164    -2586    -2255    -2687    -3350 
   -3431    -2828    -2262    -2430    -3061    -3285    -2980    -2822 
   -2961    -2943    -2755    -2690    -2760    -2902    -3024    -2961 
   -2841    -2988    -3226    -3102    -2876    -2999    -3144    -2932 
   -2654    -2617    -2713    -2824    -2943    -2982    -2899    -2712 
   -2554    -2536    -2571    -2741    -3079    -3241    -3202    -3202 
   -3148    -2998    -2906    -2841    -2683    -2525    -2640    -2980 
   -3098    -2988    -3013    -3034    -2847    -2610    -2327    -2124 
   -2394    -2862    -2883    -2573    -2448    -2660    -3094    -3474 
   -3445    -3060    -2774    -2779    -2856    -2791    -2643    -2614 
   -2849    -3257    -3385    -3011    -2623    -2640    -2839    -2910 
   -2866    -2866    -2978    -3091    -3107    -3113    -3183    -3202 
   -3014    -2694    -2605    -2743    -2644    -2484    -2749    -3114 
   -3127    -2851    -2548    -2621    -2992    -3105    -2916    -2725 
   -2748    -3018    -3030    -2590    -2450    -2924    -3334    -3339 
   -3200    -3028    -2934    -2998    -2853    -2481    -2409    -2556 
   -2516    -2513    -2763    -3014    -3067    -2929    -2847    -3072 
   -3311    -3287    -3190    -3105    -3025    -2964    -2867    -2806 
   -2695    -2317    -2120    -2662    -3330    -3283    -2867    -2706 
   -2772    -2903    -2979    -2943    -2883    -2754    -2640    -2833 
   -2959    -2712    -2736    -3028    -2959    -2767    -2681    -2677 
   -3059    -3396    -3152    -2905    -2867    -2667    -2562    -2569 
   -2408    -2450    -2783    -2956    -3028    -3221    -3292    -3148 
   -3049    -3029    -2963    -2905    -2847    -2802    -2952    -3034 
   -2871    -2965    -3225    -3088    -2856    -2893    -2910    -2851 
   -2905    -2870    -2608    -2505    -2759    -3060    -3083    -2725 
   -2332    -2525    -3161    -3326    -2944    -2740    -2709    -2633 
   -2714    -2818    -2893    -3156    -3298    -3117    -3063    -3041 
   -2614    -2346    -2677    -3056    -3167    -2983    -2604    -2501 
   -2741    -2994    -3211    -3234    -2801    -2396    -2679    -3206 
   -3149    -2628    -2365    -2581    -2825    -2887    -2856    -2758 
   -2771    -2894    -2986    -3218    -3331    -2975    -2745    -3051 
   -3254    -3053    -2787    -2602    -2608    -2752    -2789    -2918 
   -3217    -3360    -3289    -3038    -2755    -2713    -2795    -2776 
   -2706    -2720    -2907    -3010    -2809    -2651    -2601    -2485 
   -2646    -3053    -3117    -2875    -2748    -2860    -3181    -3476 
   -3397    -3024    -2701    -2659    -2883    -2975    -2654    -2315 
   -2505    -3032    -3083    -2515    -2390    -3302    -4009    -3483 
   -2674    -2556    -2822    -2906    -2573    -2228    -2439    -2911 
   -3180    -3268    -3132    -2883    -2776    -2569    -2284    -2286 
   -2444    -2772    -3152    -3099    -2971    -3079    -3102    -3208 
   -3307    -2945    -2481    -2232    -2169    -2616    -3265    -3352 
   -3080    -2959    -3010    -3111    -3148    -3215    -3357    -3204 
   -2702    -2529    -2957    -3138    -2627    -2257    -2493    -2736 
   -2679    -2705    -3036    -3289    -2979    -2466    -2601    -3257 
   -3496    -3059    -2497    -2238    -2295    -2527    -2727    -2767 
   -2852    -3094    -3229    -3327    -3354    -2889    -2436    -2728 
   -3233    -3237    -2824    -2455    -2590    -3167    -3491    -3237 
   -2772    -2401    -2224    -2305    -2542    -2736    -2845    -2987 
   -2991    -2760    -2843    -3292    -3395    -3136    -2963    -2924 
   -2960    -2781    -2259    -2243    -2929    -3180    -2863    -2812 
   -3001    -3067    -3103    -3267    -3430    -3312    -2875    -2479 
   -2524    -2891    -3210    -3210    -2851    -2708    -2930    -2925 
   -2803    -2793    -2709    -2674    -2749    -2895    -3038    -2995 
   -2936    -2963    -2802    -2579    -2718    -2916    -2573    -2231 
   -2770    -3566    -3356    -2376    -2015    -2625    -3306    -3318 
   -2934    -3026    -3472    -3496    -3225    -2965    -2749    -2681 
   -2550    -2327    -2455    -2862    -3017    -2810    -2496    -2443 
   -2748    -2909    -2884    -3033    -2959    -2628    -2700    -3025 
   -3127    -2862    -2401    -2485    -3187    -3520    -3149    -2670 
   -2511    -2689    -2978    -3072    -3173    -3561    -3721    -3342 
   -3056    -3350    -3773    -3553    -2698    -2092    -2316    -2836 
   -2762    -2187    -1972    -2336    -2710    -2830    -2952    -3067 
   -3015    -2986    -3127    -3318    -3422    -3269    -2938    -2795 
   -2812    -2694    -2466    -2332    -2436    -2739    -3075    -3321 
   -3346    -3164    -2917    -2801    -2986    -3087    -2706    -2343 
   -2447    -2764    -3017    -3196    -3312    -3298    -3064    -2620 
   -2282    -2315    -2425    -2440    -2636    -2937    -3055    -3111 
   -3129    -2986    -2857    -2706    -2435    -2463    -2758    -2744 
   -2583    -2809    -3391    -3842    -3713    -3080    -2586    -2709 
   -3057    -3048    -2853    -2790    -2781    -2797    -2741    -2446 
   -2196    -2226    -2358    -2567    -2860    -3079    -3188    -3156 
   -2879    -2694    -2984    -3319    -3284    -3049    -2658    -2322 
   -2524    -3069    -3314    -3183    -2974    -2729    -2694    -3115 
   -3411    -3130    -2821    -2911    -3044    -2729    -2164    -2231 
   -3103    -3577    -2976    -2312    -2435    -2868    -2955    -2667 
   -2447    -2640    -3111    -3477    -3402    -2967    -2650    -2635 
   -2747    -2728    -2481    -2457    -2956    -3414    -3424    -3240 
   -3015    -2930    -3078    -2999    -2663    -2529    -2485    -2551 
   -3067    -3483    -3253    -3006    -3165    -3173    -2717    -2317 
   -2451    -2916    -3183    -3030    -2754    -2697    -2866    -3152 
   -3334    -3036    -2351    -2093    -2610    -3015    -2735    -2455 
   -2651    -2987    -3210    -3144    -2756    -2558    -2812    -3049 
   -2971    -2798    -2763    -2894    -2926    -2640    -2354    -2463 
   -2956    -3410    -3442    -3335    -3217    -3009    -3045    -2924 
   -2347    -2177    -2447    -2660    -3002    -3260    -3152    -3009 
   -3052    -3260    -3402    -3076    -2550    -2621    -3173    -3353 
   -2955    -2497    -2462    -2717    -2926    -2970    -2739    -2610 
   -2933    -3240    -3369    -3469    -3226    -2706    -2519    -2802 
   -3003    -2737    -2448    -2593    -2916    -3072    -2964    -2795 
   -3017    -3450    -3430    -3015    -2613    -2366    -2473    -2751 
   -2755    -2713    -3002    -3248    -3080    -2909    -2991    -3091 
   -3114    -2875    -2502    -2473    -2551    -2590    -2898    -3032 
   -2772    -2835    -3181    -3152    -2835    -2612    -2612    -2802 
   -2848    -2538    -2353    -2652    -2955    -2909    -2849    -2998 
   -3177    -3279    -3321    -3262    -3299    -3457    -3137    -2528 
   -2428    -2623    -2779    -2994    -3003    -2764    -2644    -2776 
   -3002    -3037    -2716    -2246    -2161    -2605    -3011    -3059 
   -2928    -2814    -2901    -3099    -2990    -2532    -2342    -2778 
   -3156    -2945    -2798    -3042    -3161    -3109    -2986    -2691 
   -2590    -2835    -3065    -3148    -3049    -2901    -3059    -3225 
   -2898    -2501    -2500    -2675    -2832    -2802    -2543    -2485 
   -2775    -3088    -3186    -3015    -2937    -3276    -3551    -3261 
   -2693    -2398    -2374    -2339    -2496    -2897    -3129    -3204 
   -3257    -3194    -3123    -3071    -2930    -2739    -2489    -2316 
   -2517    -2847    -2817    -2768    -3040    -3100    -2704    -2278 
   -2293    -2887    -3329    -2868    -2145    -2201    -2948    -3468 
   -3375    -3149    -3055    -2990    -3110    -3392    -3411    -2987 
   -2451    -2334    -2829    -3315    -2999    -2351    -2374    -2901 
   -3231    -3160    -2867    -2712    -2687    -2596    -2689    -2938 
   -2932    -2781    -2695    -2725    -3021    -3385    -3433    -3223 
   -3040    -2920    -2821    -2828    -2941    -2988    -2797    -2471 
   -2440    -2860    -3285    -3167    -2708    -2713    -3181    -3343 
   -3061    -2798    -2848    -3183    -3403    -3134    -2695    -2579 
   -2651    -2721    -2953    -3246    -3171    -2590    -2215    -2791 
   -3591    -3373    -2478    -2180    -2614    -2829    -2447    -2201 
   -2679    -3261    -3096    -2473    -2258    -2710    -3210    -3028 
   -2463    -2409    -2898    -3180    -2987    -2891    -3141    -3262 
   -3109    -2874    -2585    -2355    -2347    -2731    -3505    -3850 
   -3188    -2519    -2716    -3169    -3234    -2895    -2371    -2380 
   -3140    -3584    -3273    -2956    -2833    -2759    -2930    -3061 
   -2810    -2625    -2704    -2716    -2727    -2866    -2924    -2835 
   -2756    -2633    -2459    -2612    -2967    -2972    -2828    -2821 
   -2725    -2801    -3277    -3542    -3315    -2890    -2589    -2808 
   -3110    -2941    -2882    -3055    -2926    -2787    -2953    -3098 
   -2876    -2261    -1942    -2671    -3545    -3321    -2637    -2490 
   -2952    -3576    -3438    -2691    -2555    -2808    -2659    -2597 
   -2916    -3160    -3264    -3179    -2857    -2801    -2968    -2929 
   -2852    -2764    -2664    -2624    -2382    -2207    -2459    -2868 
   -3327    -3661    -3429    -2844    -2613    -2971    -3380    -3203 
   -2664    -2524    -2668    -2504    -2407    -2853    -3307    -3415 
   -3407    -3307    -3127    -2890    -2690    -2889    -3132    -2641 
   -2054    -2322    -2758    -2683    -2609    -2826    -3169    -3254 
   -2700    -2069    -2038    -2389    -2906    -3268    -2948    -2488 
   -2619    -2918    -3044    -3159    -3244    -3304    -3275    -3191 
   -3200    -3037    -2778    -2775    -2779    -2735    -2948    -3260 
   -3318    -3063    -2671    -2458    -2625    -2783    -2581    -2416 
   -2365    -2273    -2625    -3258    -3527    -3618    -3466    -2818 
   -2427    -2745    -3210    -3393    -3150    -2749    -2760    -2895 
   -2817    -3025    -3368    -3258    -3080    -3261    -3403    -3015 
   -2401    -2380    -2813    -2884    -2710    -2648    -2628    -2783 
   -2959    -2826    -2590    -2332    -2096    -2293    -2820    -2997 
   -2736    -2505    -2343    -2328    -2751    -3090    -2934    -2937 
   -3391    -3682    -3261    -2319    -1705    -1740    -1803    -1737 
   -2200    -3292    -4286    -4557    -4116    -3505    -3191    -3179 
   -3114    -2590    -1931    -1777    -1899    -2222    -3099    -3823 
   -3780    -3545    -3426    -3345    -3307    -3117    -2849    -2722 
   -2520    -2243    -2130    -2029    -2107    -2755    -3403    -3460 
   -3361    -3526    -3785    -3875    -3751    -3519    -3145    -2551 
   -2123    -2334    -2808    -2978    -3019    -3072    -3005    -2889 
   -2760    -2814    -2987    -2658    -2103    -2176    -2589    -2905 
   -3343    -3684    -3662    -3357    -2629    -1922    -1945    -2203 
   -2043    -1918    -2254    -2887    -3570    -3761    -3177    -2539 
   -2401    -2648    -2921    -2768    -2334    -2269    -2909    -3865 
   -4230    -3765    -3034    -2392    -2002    -2123    -2810    -3464 
   -3400    -3179    -3728    -4583    -4641    -3892    -3111    -2443 
   -1736    -1304    -1259    -1640    -2569    -3484    -3935    -4218 
   -4376    -4183    -3527    -2498    -1840    -2235    -3049    -3199 
   -2770    -2446    -2569    -3055    -3349    -3321    -3207    -2668 
   -1779    -1385    -1648    -1849    -1594    -1409    -2022    -3177 
   -3705    -3381    -3438    -4442    -5356    -4839    -2895     -962 
    -102     -368    -1462    -2743    -3586    -3986    -4434    -5084 
   -5144    -4108    -2691    -1564     -795     -656    -1270    -2200 
   -3049    -3524    -3622    -3705    -3620    -3208    -2887    -2369 
   -1368     -974    -1769    -2797    -3296    -3591    -4391    -5540 
   -5968    -5310    -4247    -3419    -2817    -2114    -1381     -822 
    -525     -765    -1628    -3011    -4685    -5634    -5053    -3748 
   -3175    -3593    -3964    -3541    -2706    -1950    -1067      -62 
     334     -130     -770    -1394    -2671    -4507    -5746    -5906 
   -5564    -5152    -4394    -2759     -633      616      454     -540 
   -1568    -1782    -1657    -2770    -4669    -5377    -4595    -3608 
   -3451    -3966    -4055    -3376    -2717    -2218    -1424     -789 
    -837    -1144    -1287    -1432    -2122    -3685    -5432    -6165 
   -5570    -4494    -3723    -3246    -2833    -2633    -3121    -4113 
   -4588    -4357    -4247    -4415    -4031    -2477     -226     1645 
    2425     1769     -390    -3215    -5397    -6463    -6654    -6200 
   -5221    -3867    -2536    -1383     -225      561      491     -315 
   -1401    -2308    -3229    -4384    -5082    -4931    -4361    -3712 
   -3063    -2349    -1540     -901     -773    -1194    -1891    -2663 
   -3326    -3613    -3740    -4093    -4413    -4247    -3921    -4297 
   -5275    -5661    -4905    -3631    -2627    -2261    -2270    -2135 
   -2182    -2836    -3375    -3562    -4020    -4284    -3777    -2895 
   -1732     -330      681      816     -217    -2138    -3800    -4630 
   -4689    -3667    -2034    -1040     -878    -1198    -2025    -3087 
   -4036    -4750    -5105    -5386    -5702    -5340    -4085    -2465 
   -1032     -730    -1966    -3754    -4999    -5015    -3694    -2068 
    -908      -75      259      -99     -966    -2589    -4908    -6739 
   -7063    -6027    -4563    -3510    -2991    -2714    -2350    -1984 
   -1952    -2158    -2616    -3257    -3306    -2452    -1412     -768 
    -341       87      155     -467    -1750    -3424    -4781    -5262 
   -5155    -4997    -4873    -4715    -4638    -4457    -3505    -1779 
    -494     -661    -1833    -2479    -1902    -1463    -2088    -2722 
   -2705    -2164    -1220     -760    -1594    -3339    -5016    -5481 
   -4167    -2068     -526       36     -625    -2188    -3543    -4573 
   -5613    -6033    -5347    -3952    -2508    -1404     -780     -784 
   -1217    -1669    -2370    -3886    -5988    -7603    -7712    -6203 
   -3974    -2016    -1139    -1638    -2265    -1872    -1431    -2160 
   -3497    -3996    -3218    -2084    -1644    -1968    -2088    -1402 
    -584     -348     -531    -1055    -2293    -4201    -6115    -7171 
   -6986    -6118    -4972    -3264    -1347     -252     -386    -1094 
   -1212     -415      314      125     -769    -1698    -2559    -3823 
   -5263    -5960    -5942    -5954    -5913    -5324    -4338    -3472 
   -3014    -2778    -2519    -2662    -3499    -4197    -3901    -2473 
    -279     1509     1980     1432       31    -2193    -4229    -5278 
   -5540    -5308    -4723    -3516    -1559     -110     -184    -1101 
   -2351    -4071    -5670    -6592    -7273    -7944    -7956    -6608 
   -4051    -1609     -487     -322      -87      479      967      716 
    -371    -1289    -1547    -2110    -3461    -4874    -5776    -6056 
   -5575    -4220    -2296     -699      -89     -121     -287     -699 
   -1264    -1618    -1995    -2629    -3334    -4149    -5043    -5626 
   -5705    -5393    -4893    -4286    -3499    -2664    -2334    -2641 
   -2702    -2226    -2462    -3991    -5231    -4700    -3198    -2037 
   -1206     -675     -913    -1800    -2717    -3380    -4276    -5848 
   -6986    -6095    -3577    -1273     -170     -163     -689    -1210 
   -1877    -2983    -4193    -4934    -4500    -2728     -743      499 
    1000      791      106     -699    -1838    -3457    -4974    -5657 
   -5456    -4953    -4536    -4180    -3975    -4104    -4171    -3592 
   -2648    -2114    -2467    -3512    -4002    -2864    -1097     -642 
   -1580    -2467    -2570    -2393    -2860    -3977    -4730    -4888 
   -4945    -4704    -3904    -3022    -2685    -2797    -2277     -595 
     596     -503    -2849    -3933    -3358    -2691    -2463    -2093 
   -1817    -2110    -2741    -3310    -3599    -3960    -4811    -5306 
   -4617    -3370    -2389    -1980    -2039    -1992    -1703    -1470 
   -1169     -553      337     1077      908     -529    -2631    -4456 
   -5641    -6066    -5657    -4938    -4666    -4957    -4904    -3699 
   -2025    -1132    -1530    -2997    -4822    -5995    -5881    -5111 
   -4460    -3607    -2415    -1398     -754     -517     -697    -1077 
   -1563    -2249    -3140    -4172    -4939    -4757    -3580    -2007 
    -591      353      892     1170      997      116    -1545    -3762 
   -5751    -6696    -6864    -7001    -6755    -5613    -4067    -2709 
   -1935    -1755    -1464    -1009    -1167    -2027    -3051    -3909 
   -4275    -3869    -3149    -2579    -1900    -1293    -1239    -1371 
   -1563    -2474    -4124    -5683    -6461    -6255    -5482    -4831 
   -4159    -2901    -1640    -1075     -878     -993    -1610    -2415 
   -3138    -3412    -3032    -2448    -1877    -1115     -396     -325 
   -1012    -2246    -3848    -5219    -5796    -5551    -4803    -4287 
   -4244    -4156    -3932    -3622    -2897    -1854     -945     -562 
   -1125    -2288    -2948    -2826    -2535    -2408    -2485    -2756 
   -3005    -3165    -3370    -3281    -2529    -1690    -1381    -1363 
   -1460    -1760    -2087    -2635    -3829    -5028    -5273    -4869 
   -4464    -3909    -3111    -2452    -2200    -2234    -2185    -1976 
   -2093    -2855    -3669    -3813    -3627    -3554    -3292    -3078 
   -3585    -4496    -5157    -5437    -4911    -3163     -974      562 
    1036      519     -306     -805    -1186    -1594    -1939    -2675 
   -3979    -5267    -5964    -5764    -4741    -3410    -2349    -1819 
   -1665    -1659    -1772    -2011    -2246    -2367    -2525    -2830 
   -3176    -3524    -3850    -4083    -4086    -3703    -3049    -2254 
   -1347     -780    -1036    -1767    -2455    -3362    -4567    -5398 
   -5713    -5896    -5742    -4816    -3133    -1337     -436     -527 
    -714     -853    -1425    -1956    -1788    -1359    -1274    -1598 
   -2305    -3292    -4224    -4718    -4437    -3537    -2920    -3098 
   -3545    -3753    -3858    -4348    -5242    -5636    -5117    -4341 
   -3730    -3187    -2448    -1188      371     1277      850     -573 
   -1962    -2674    -3192    -3977    -4440    -4182    -3595    -2964 
   -2511    -2485    -2687    -2856    -2987    -3036    -3145    -3572 
   -3927    -3535    -2486    -1420     -815     -766    -1042    -1489 
