Origin Time       2024/04/02 04:24:00
Lat.              40.133
Long.             141.712
Depth. (km)       71
Mag.              6.0
Station Code      NMRH02
Station Lat.      43.6772
Station Long.     144.9618
Station Height(m) 165
Record Time       2024/04/02 04:25:51
Sampling Freq(Hz) 100Hz
Duration Time(s)  120
Dir.              4
Scale Factor      3920(gal)/6170801
Max. Acc. (gal)   7.131
Last Correction   2024/04/02 04:25:36
Memo.             
[...]
   -1269    -1519    -1758    -1916    -1974    -1877    -1590    -1207 
    -899     -771     -833    -1036    -1304    -1564    -1724    -1714 
   -1560    -1351    -1153    -1013     -972    -1037    -1172    -1345 
   -1549    -1735    -1828    -1814    -1729    -1587    -1402    -1240 
   -1202    -1298    -1416    -1475    -1442    -1261     -946     -649 
    -538     -667     -969    -1338    -1694    -1950    -1994    -1815 
   -1526    -1217     -947     -833     -957    -1243    -1541    -1789 
   -2009    -2153    -2117    -1885    -1550    -1187     -850     -630 
    -585     -693     -920    -1225    -1523    -1752    -1890    -1912 
   -1793    -1553    -1251     -950     -733     -707     -903    -1236 
   -1589    -1862    -1964    -1856    -1615    -1361    -1175    -1079 
   -1060    -1119    -1267    -1463    -1620    -1708    -1731    -1665 
   -1541    -1413    -1295    -1248    -1331    -1456    -1466    -1307 
   -1065     -878     -836     -940    -1153    -1457    -1809    -2120 
   -2296    -2237    -1898    -1363     -787     -316     -117     -293 
    -758    -1283    -1709    -2018    -2182    -2120    -1859    -1535 
   -1232     -988     -873     -943    -1171    -1443    -1638    -1744 
   -1797    -1771    -1662    -1514    -1333    -1154    -1044     -998 
    -991    -1034    -1142    -1298    -1424    -1443    -1364    -1265 
   -1194    -1105     -973     -891     -943    -1125    -1418    -1788 
   -2121    -2282    -2204    -1914    -1492    -1064     -760     -672 
    -828    -1165    -1515    -1695    -1643    -1421    -1133     -918 
    -906    -1099    -1406    -1729    -1925    -1856    -1542    -1139 
    -809     -667     -747    -1011    -1396    -1806    -2112    -2217 
   -2088    -1730    -1234     -816     -653     -762    -1070    -1493 
   -1922    -2224    -2287    -2054    -1570    -1009     -553     -309 
    -373     -778    -1411    -2070    -2525    -2582    -2247    -1741 
   -1251     -830     -550     -543     -823    -1250    -1670    -1984 
   -2137    -2140    -2017    -1751    -1353     -926     -616     -523 
    -649     -902    -1212    -1528    -1723    -1680    -1407    -1010 
    -652     -527     -757    -1265    -1848    -2324    -2551    -2460 
   -2101    -1583    -1019     -544     -296     -352     -673    -1131 
   -1618    -2057    -2337    -2357    -2132    -1762    -1360    -1036 
    -889     -954    -1161    -1387    -1537    -1567    -1477    -1326 
   -1190    -1119    -1149    -1302    -1512    -1649    -1639    -1489 
   -1231     -891     -552     -382     -523     -962    -1554    -2119 
   -2522    -2695    -2567    -2068    -1299     -553      -89       28 
    -157     -614    -1276    -1952    -2426    -2599    -2456    -2020 
   -1406     -822     -463     -424     -674    -1090    -1522    -1895 
   -2150    -2161    -1870    -1417     -974     -596     -350     -369 
    -659    -1080    -1542    -1995    -2300    -2301    -2005    -1587 
   -1284    -1234    -1375    -1508    -1514    -1415    -1231     -984 
    -811     -837    -1023    -1277    -1575    -1858    -1993    -1912 
   -1652    -1251     -776     -403     -287     -425     -727    -1130 
   -1555    -1876    -2013    -2011    -1936    -1794    -1603    -1439 
   -1377    -1427    -1527    -1579    -1491    -1233     -882     -595 
    -479     -558     -837    -1304    -1883    -2437    -2781    -2730 
   -2251    -1533     -800     -205       91      -26     -526    -1253 
   -1986    -2500    -2680    -2536    -2135    -1611    -1129     -805 
    -726     -933    -1306    -1629    -1768    -1712    -1511    -1245 
   -1009     -881     -922    -1127    -1362    -1466    -1412    -1301 
   -1217    -1182    -1209    -1322    -1549    -1862    -2101    -2084 
   -1801    -1347     -799     -279      -22     -215     -801    -1524 
   -2144    -2541    -2665    -2534    -2205    -1729    -1225     -895 
    -865    -1041    -1208    -1266    -1261    -1223    -1138    -1062 
   -1095    -1264    -1505    -1696    -1724    -1611    -1497    -1435 
   -1344    -1229    -1223    -1328    -1364    -1236    -1051     -931 
    -870     -841     -864     -959    -1136    -1406    -1726    -1993 
   -2159    -2231    -2183    -2019    -1788    -1504    -1183     -902 
    -743     -737     -847    -1007    -1186    -1399    -1660    -1938 
   -2110    -2005    -1570     -955     -390      -57      -66     -435 
   -1071    -1819    -2509    -2969    -3045    -2669    -1942    -1135 
    -562     -418     -669    -1145    -1698    -2171    -2351    -2124 
   -1583     -940     -392      -77      -30     -202     -567    -1119 
   -1718    -2145    -2274    -2124    -1789    -1352     -911     -621 
    -596     -844    -1294    -1786    -2129    -2229    -2095    -1779 
   -1383    -1081     -996    -1098    -1285    -1489    -1627    -1610 
   -1460    -1265    -1081     -954     -947    -1077    -1296    -1537 
   -1697    -1713    -1658    -1631    -1660    -1691    -1630    -1446 
   -1181     -903     -711     -700     -884    -1191    -1556    -1900 
   -2066    -1960    -1673    -1359    -1127    -1039    -1080    -1203 
   -1356    -1449    -1421    -1302    -1167    -1079    -1115    -1310 
   -1580    -1761    -1718    -1480    -1226    -1058     -967     -995 
   -1178    -1420    -1576    -1557    -1365    -1095     -863     -773 
    -939    -1387    -1920    -2222    -2182    -1918    -1569    -1230 
    -974     -846     -900    -1146    -1485    -1772    -1901    -1850 
   -1665    -1420    -1189    -1015     -933     -992    -1199    -1467 
   -1669    -1758    -1765    -1676    -1478    -1234    -1006     -834 
    -788     -932    -1238    -1570    -1771    -1807    -1716    -1499 
   -1223    -1036     -991    -1055    -1202    -1353    -1404    -1362 
   -1298    -1226    -1176    -1213    -1318    -1426    -1528    -1619 
   -1679    -1719    -1724    -1641    -1458    -1267    -1183    -1230 
   -1355    -1502    -1621    -1670    -1616    -1476    -1299    -1114 
    -975     -969    -1127    -1416    -1764    -2030    -2054    -1799 
   -1419    -1096     -893     -845     -973    -1204    -1432    -1570 
   -1567    -1463    -1366    -1355    -1438    -1560    -1649    -1653 
   -1574    -1426    -1224    -1034     -934     -943    -1054    -1272 
   -1560    -1813    -1937    -1917    -1787    -1574    -1300     -994 
    -717     -541     -495     -565     -767    -1108    -1497    -1817 
   -2033    -2141    -2081    -1798    -1372     -983     -763     -745 
    -884    -1117    -1411    -1731    -1972    -2010    -1826    -1516 
   -1235    -1114    -1170    -1321    -1493    -1669    -1811    -1819 
   -1615    -1266     -928     -765     -891    -1239    -1570    -1731 
   -1732    -1610    -1421    -1217     -989     -753     -642     -786 
   -1137    -1488    -1692    -1781    -1820    -1745    -1515    -1233 
    -998     -838     -800     -904    -1101    -1318    -1484    -1573 
   -1598    -1558    -1434    -1219    -1004     -967    -1160    -1445 
   -1681    -1844    -1920    -1831    -1568    -1279    -1111    -1114 
   -1277    -1546    -1780    -1845    -1740    -1535    -1278    -1033 
    -884     -895    -1106    -1472    -1820    -1998    -2007    -1870 
   -1557    -1178     -980    -1038    -1236    -1490    -1727    -1810 
   -1641    -1253     -794     -471     -446     -688    -1031    -1433 
   -1922    -2333    -2415    -2149    -1717    -1258     -851     -605 
    -590     -715     -876    -1100    -1427    -1751    -1917    -1883 
   -1720    -1511    -1313    -1179    -1156    -1222    -1298    -1330 
   -1283    -1163    -1068    -1068    -1142    -1271    -1452    -1653 
   -1818    -1860    -1745    -1551    -1375    -1230    -1125    -1114 
   -1175    -1222    -1214    -1204    -1279    -1440    -1627    -1808 
   -1913    -1842    -1617    -1354    -1122     -972     -993    -1188 
   -1396    -1460    -1372    -1197    -1011     -927    -1011    -1179 
   -1324    -1453    -1572    -1584    -1423    -1174     -986     -970 
   -1159    -1454    -1696    -1814    -1837    -1749    -1513    -1217 
   -1002     -891     -864     -978    -1252    -1564    -1812    -2005 
   -2123    -2106    -1951    -1705    -1408    -1088     -790     -602 
    -593     -750    -1021    -1372    -1748    -2023    -2118    -2084 
   -1967    -1753    -1488    -1244    -1067     -992     -988    -1005 
   -1071    -1209    -1335    -1327    -1184    -1062    -1126    -1409 
   -1791    -2084    -2186    -2086    -1815    -1455    -1078     -722 
    -492     -533     -853    -1291    -1664    -1841    -1774    -1555 
   -1335    -1176    -1086    -1055    -1092    -1254    -1530    -1811 
   -1999    -2027    -1855    -1561    -1252     -972     -794     -819 
   -1050    -1377    -1677    -1889    -1955    -1812    -1463    -1035 
    -757     -777    -1046    -1401    -1674    -1728    -1529    -1207 
    -945     -793     -708     -746    -1020    -1506    -2025    -2352 
   -2358    -2081    -1640    -1125     -668     -478     -646    -1040 
   -1465    -1786    -1928    -1855    -1591    -1237     -929     -807 
    -966    -1341    -1754    -2059    -2187    -2114    -1843    -1425 
   -1012     -785     -820    -1066    -1406    -1705    -1829    -1707 
   -1411    -1104     -872     -726     -701     -839    -1135    -1472 
   -1665    -1653    -1563    -1538    -1603    -1707    -1803    -1842 
   -1789    -1667    -1505    -1269     -950     -657     -533     -633 
    -936    -1362    -1792    -2102    -2173    -1972    -1634    -1311 
   -1069     -947     -954    -1051    -1190    -1282    -1222    -1028 
    -862     -869    -1097    -1517    -2009    -2375    -2459    -2245 
   -1823    -1320     -879     -643     -694    -1010    -1467    -1862 
   -2008    -1840    -1403     -847     -439     -415     -772    -1317 
   -1879    -2311    -2436    -2178    -1650    -1067     -623     -438 
    -508     -749    -1058    -1312    -1402    -1358    -1345    -1411 
   -1423    -1342    -1319    -1440    -1650    -1897    -2154    -2377 
   -2518    -2493    -2234    -1772    -1167     -516      -48       57 
    -152     -538    -1027    -1521    -1840    -1842    -1531    -1015 
    -472     -155     -243     -658    -1171    -1593    -1788    -1693 
   -1438    -1254    -1250    -1436    -1829    -2363    -2818    -2954 
   -2664    -2000    -1195     -583     -403     -675    -1241    -1888 
   -2428    -2729    -2696    -2291    -1553     -606      312      953 
    1205     1004      274     -880    -2097    -3025    -3557    -3711 
   -3461    -2847    -2070    -1341     -754     -345     -111       -2 
     -38     -316     -895    -1712    -2588    -3282    -3549    -3211 
   -2254     -867      605     1754     2279     2078     1181     -280 
   -1985    -3483    -4389    -4487    -3739    -2368     -838      383 
     997      879       54    -1273    -2701    -3783    -4241    -3984 
   -3017    -1578     -222      521      511     -114    -1148    -2299 
   -3200    -3520    -3095    -2020     -671      430      890      615 
    -281    -1526    -2706    -3446    -3547    -2922    -1666     -167 
    1025     1476     1065      -61    -1561    -2948    -3721    -3618 
   -2739    -1428      -97      865     1153      602     -703    -2303 
   -3575    -4094    -3758    -2704    -1327     -234      142     -222 
   -1105    -2156    -2895    -2879    -1971     -427     1272     2626 
    3168     2597      966    -1353    -3827    -5849    -6895    -6731 
   -5476    -3516    -1319      671     2037     2483     1993      773 
    -839    -2405    -3577    -4219    -4313    -3910    -3167    -2294 
   -1382     -401      531     1134     1208      719     -262    -1521 
   -2725    -3575    -3906    -3627    -2723    -1419     -133      758 
    1004      516     -568    -1883    -2928    -3350    -3108    -2280 
    -960      583     1890     2540     2346     1343     -288    -2202 
   -3868    -4713    -4455    -3247    -1504      184     1119      861 
    -460    -2291    -4051    -5268    -5539    -4702    -2984     -905 
     891     1884     1882      958     -523    -1865    -2565    -2699 
   -2460    -1823     -920     -213      -73     -502    -1287    -2134 
   -2741    -2884    -2526    -1840    -1043     -294      248      439 
     208     -375    -1124    -1860    -2374    -2426    -1980    -1267 
    -544       23      252      -17     -754    -1782    -2886    -3689 
   -3756    -2969    -1584      -30     1186     1520      606    -1436 
   -4021    -6300    -7316    -6448    -3897     -417     3250     6372 
    8089     7786     5462     1652    -2722    -6520    -8816    -9228 
   -7838    -5079    -1844      763     2069     1986      719    -1289 
   -3342    -4672    -4827    -3959    -2605    -1278     -360      -99 
    -499    -1293    -2061    -2414    -2191    -1445     -365      597 
     906      449     -439    -1321    -1791    -1646    -1115     -678 
    -657    -1132    -2084    -3303    -4289    -4524    -3840    -2504 
    -954      420     1151      752     -726    -2619    -4219    -4958 
   -4378    -2525      -95     2010     3067     2649      840    -1693 
   -4012    -5283    -5020    -3333     -899     1445     2985     3165 
    1798     -676    -3316    -5102    -5401    -4182    -1850      985 
    3437     4448     3486      948    -2221    -4949    -6194    -5360 
   -2718      837     4162     5924     5221     2238    -2181    -6963 
  -10604   -11639    -9662    -5345      204     5529     9050     9858 
    7984     4025     -952    -5544    -8713   -10091    -9574    -7399 
   -4433    -1757      -20      715      638      -26     -908    -1630 
   -2050    -2171    -2076    -1972    -2037    -2169    -2025    -1425 
    -468      757     2052     2787     2382      938    -1084    -3339 
   -5434    -6741    -6806    -5838    -4369    -2686     -956      626 
    1934     2780     2988     2599     1653       57    -2032    -4093 
   -5742    -6870    -7179    -6253    -4127    -1315     1474     3465 
    4227     3934     2813      954    -1212    -3103    -4464    -5246 
   -5373    -4869    -3942    -2719    -1202      504     2231     3621 
    4075     3346     1649     -818    -3778    -6496    -7999    -7761 
   -5908    -2899      510     3314     4709     4380     2516     -219 
   -2993    -5167    -6254    -5880    -4038    -1182     1898     4283 
    5189     4307     1904    -1385    -4619    -6780    -7349    -6390 
   -4211    -1354     1187     2482     2536     1811      522     -864 
   -1672    -1842    -1810    -1897    -2249    -2917    -3672    -4150 
   -4106    -3312    -1789      -39     1475     2591     3199     3181 
    2397      743    -1588    -4001    -5773    -6523    -6135    -4481 
   -1783     1217     3683     4923     4588     2779     -200    -3852 
   -7290    -9477    -9734    -8022    -4910    -1316     1830     3589 
    3247     1038    -2151    -5426    -7619    -7657    -5432    -1718 
    2262     5275     6459     5438     2512    -1451    -5370    -7952 
   -8295    -6676    -3942     -836     1891     3624     4069     3220 
    1394     -804    -2666    -3662    -3685    -2944    -1781     -619 
     225      727      837      396     -333     -943    -1477    -1986 
   -2385    -2888    -3753    -4814    -5587    -5713    -5179    -4048 
   -2310     -270     1321     1934     1682      824     -483    -1931 
   -3049    -3388    -2733    -1185      917     2928     4213     4617 
    4216     3047     1291     -742    -2696    -4219    -5149    -5488 
   -5199    -4309    -3105    -1897     -779       85      370      -11 
    -821    -1725    -2444    -2858    -3036    -3049    -2727    -1918 
    -903      -97      350      389      -41     -875    -1888    -2691 
   -2874    -2334    -1354     -302      555      885      353     -999 
   -2789    -4482    -5403    -5008    -3237     -493     2559     5078 
    6214     5462     2900     -816    -4710    -7934    -9955   -10463 
   -9388    -6992    -3848     -652     1972     3662     4402     4282 
    3295     1562     -505    -2462    -4083    -5189    -5480    -4853 
   -3660    -2282     -786      654     1527     1532      875      -85 
   -1125    -2155    -3112    -3826    -4078    -3821    -3202    -2369 
   -1478     -771     -370     -148       91      412      641      525 
      16     -789    -1754    -2608    -3023    -2837    -2088     -869 
     526     1511     1674      987     -502    -2614    -4864    -6675 
   -7591    -7263    -5586    -2930       89     2947     5036     5759 
    5048     3391     1447     -235    -1331    -1709    -1436     -924 
    -960    -2142    -4170    -6263    -7896    -8543    -7576    -5030 
   -1674     1742     4501     5742     5104     3010      231    -2409 
   -4267    -5087    -4898    -3864    -2340     -864      152      587 
     392     -345    -1219    -1932    -2510    -2913    -2963    -2587 
   -1849     -834      349     1430     2109     2256     1870     1032 
    -190    -1740    -3417    -4929    -6005    -6350    -5762    -4413 
   -2801    -1363     -314      172        0     -695    -1645    -2499 
   -2789    -2109     -427     1713     3519     4461     4274     2829 
     352    -2496    -4996    -6673    -7285    -6875    -5728    -4157 
   -2409     -687      830     2022     2875     3321     3088     1897 
    -167    -2616    -4858    -6390    -6813    -5925    -3871    -1187 
    1326     2895     3136     2131      164    -2360    -4860    -6684 
   -7316    -6580    -4701    -2190      308     2185     3020     2678 
    1388     -355    -1967    -2876    -2729    -1664     -204     1099 
    1811     1656      627     -980    -2700    -4075    -4688    -4245 
   -2910    -1304       48      953     1273      841     -236    -1510 
   -2585    -3371    -3933    -4233    -4102    -3490    -2570    -1496 
    -320      791     1569     1870     1709     1121      161     -960 
   -1945    -2626    -3030    -3283    -3379    -3072    -2184     -841 
     671     1993     2642     2217      678    -1640    -4160    -6201 
   -7168    -6721    -4869    -2089      735     2755     3524     2902 
    1025    -1531    -3946    -5521    -5890    -5048    -3200     -751 
    1592     3017     3026     1736     -251    -2245    -3703    -4267 
   -3837    -2563     -840      726     1572     1476      538     -930 
   -2394    -3357    -3774    -3848    -3587    -3018    -2505    -2399 
   -2632    -2903    -2940    -2478    -1272      606     2621     4131 
    4688     3974     1942     -926    -3830    -6086    -7167    -6656 
   -4535    -1402     1722     3810     4228     2863       45    -3439 
   -6516    -8283    -8329    -6721    -3897     -633     2111     3581 
    3480     1971     -376    -2757    -4450    -4981    -4228    -2523 
    -479     1377     2691     3192     2745     1448     -432    -2534 
   -4438    -5811    -6437    -6182    -5132    -3554    -1714       85 
    1503     2315     2445     1968     1117      132     -882    -1867 
   -2620    -2895    -2694    -2264    -1872    -1688    -1741    -1860 
   -1795    -1485    -1094     -733     -332      125      430      335 
    -293    -1434    -2876    -4234    -5073    -5054    -4116    -2481 
    -516     1313     2496     2637     1634     -222    -2307    -3945 
