Origin Time       2024/04/02 04:24:00
Lat.              40.133
Long.             141.712
Depth. (km)       71
Mag.              6.0
Station Code      NMRH01
Station Lat.      43.7850
Station Long.     145.0246
Station Height(m) -30.5
Record Time       2024/04/02 04:26:29
Sampling Freq(Hz) 100Hz
Duration Time(s)  120
Dir.              1
Scale Factor      2942(gal)/8224139
Max. Acc. (gal)   0.770
Last Correction   2024/04/02 04:26:29
Memo.             
[...]
  181371   181411   181438   181468   181500   181535   181576   181623 
  181647   181608   181530   181462   181431   181430   181410   181380 
  181407   181468   181475   181407   181323   181291   181288   181272 
  181253   181215   181186   181214   181246   181237   181222   181246 
  181344   181450   181453   181383   181310   181249   181252   181306 
  181313   181275   181284   181336   181353   181330   181334   181390 
  181404   181327   181268   181286   181332   181371   181353   181272 
  181232   181272   181344   181406   181433   181419   181379   181359 
  181394   181414   181345   181271   181288   181336   181353   181352 
  181333   181349   181437   181494   181461   181417   181408   181413 
  181400   181361   181314   181296   181344   181415   181411   181326 
  181288   181357   181430   181417   181364   181336   181323   181346 
  181414   181434   181379   181332   181337   181379   181388   181315 
  181229   181218   181268   181321   181330   181286   181255   181307 
  181396   181446   181426   181336   181282   181325   181340   181280 
  181246   181261   181276   181280   181309   181388   181461   181467 
  181450   181449   181440   181430   181404   181345   181315   181367 
  181450   181488   181458   181406   181402   181448   181456   181376 
  181290   181290   181330   181346   181357   181353   181313   181322 
  181396   181426   181404   181386   181381   181413   181430   181349 
  181240   181251   181368   181448   181445   181437   181452   181452 
  181426   181392   181334   181287   181340   181431   181422   181356 
  181337   181338   181319   181271   181222   181267   181387   181452 
  181425   181368   181356   181387   181402   181377   181350   181364 
  181410   181441   181440   181391   181314   181290   181341   181398 
  181407   181372   181327   181341   181404   181421   181371   181311 
  181260   181237   181283   181350   181338   181269   181283   181396 
  181449   181403   181364   181357   181368   181398   181391   181363 
  181394   181425   181414   181437   181458   181415   181371   181357 
  181367   181410   181417   181344   181261   181219   181191   181155 
  181140   181156   181179   181228   181299   181357   181380   181369 
  181327   181288   181336   181445   181487   181468   181450   181441 
  181471   181489   181426   181368   181333   181237   181182   181249 
  181272   181210   181218   181265   181256   181236   181202   181129 
  181122   181213   181279   181314   181371   181390   181356   181338 
  181333   181300   181271   181287   181353   181419   181425   181398 
  181388   181375   181360   181363   181345   181302   181283   181295 
  181303   181319   181359   181361   181317   181286   181287   181330 
  181418   181449   181357   181269   181283   181317   181337   181369 
  181350   181309   181364   181445   181440   181395   181375   181406 
  181458   181438   181341   181292   181367   181473   181452   181365 
  181400   181472   181399   181290   181313   181384   181396   181377 
  181349   181330   181346   181349   181314   181284   181276   181280 
  181317   181380   181395   181360   181354   181388   181411   181383 
  181309   181271   181360   181495   181535   181516   181537   181549 
  181506   181452   181406   181353   181336   181381   181430   181394 
  181300   181259   181265   181240   181240   181303   181323   181309 
  181310   181259   181179   181133   181106   181160   181278   181291 
  181232   181225   181232   181224   181219   181218   181268   181357 
  181395   181387   181398   181437   181452   181421   181386   181364 
  181376   181375   181305   181264   181323   181379   181381   181363 
  181352   181376   181413   181413   181373   181363   181402   181376 
  181264   181237   181303   181318   181303   181299   181295   181329 
  181388   181419   181425   181399   181325   181275   181299   181311 
  181292   181319   181371   181415   181489   181518   181437   181392 
  181437   181431   181387   181386   181394   181411   181461   181507 
  181518   181476   181387   181309   181276   181307   181375   181365 
  181309   181372   181494   181506   181448   181363   181246   181179 
  181183   181206   181257   181323   181349   181332   181300   181290 
  181337   181411   181418   181379   181391   181417   181386   181348 
  181338   181333   181346   181417   181481   181461   181419   181421 
  181437   181423   181398   181376   181337   181317   181356   181386 
  181377   181402   181450   181456   181434   181392   181295   181229 
  181241   181221   181203   181299   181381   181323   181214   181180 
  181276   181388   181364   181299   181329   181383   181408   181410 
  181379   181365   181421   181472   181460   181462   181522   181539 
  181484   181435   181388   181305   181218   181156   181159   181264 
  181350   181325   181295   181326   181386   181465   181480   181445 
  181484   181525   181468   181411   181406   181410   181422   181457 
  181496   181484   181392   181276   181241   181264   181228   181172 
  181190   181206   181153   181126   181218   181353   181400   181377 
  181371   181388   181407   181437   181458   181425   181372   181363 
  181361   181337   181295   181219   181198   181278   181294   181229 
  181261   181344   181352   181342   181345   181329   181318   181340 
  181381   181369   181290   181265   181294   181291   181284   181283 
  181268   181272   181276   181234   181184   181222   181318   181386 
  181434   181438   181390   181413   181484   181452   181388   181422 
  181458   181438   181421   181395   181367   181390   181438   181476 
  181472   181418   181371   181361   181354   181327   181268   181217 
  181228   181261   181271   181290   181326   181340   181309   181242 
  181215   181287   181381   181418   181391   181319   181292   181359 
  181407   181404   181445   181518   181529   181504   181492   181471 
  181440   181406   181390   181402   181387   181340   181299   181251 
  181224   181249   181261   181271   181342   181388   181336   181283 
  181314   181354   181332   181265   181236   181300   181399   181444 
  181437   181419   181400   181417   181456   181467   181465   181446 
  181388   181360   181395   181454   181483   181462   181442   181445 
  181441   181460   181508   181479   181363   181313   181346   181377 
  181386   181338   181259   181260   181323   181342   181313   181283 
  181300   181346   181338   181268   181211   181201   181224   181284 
  181332   181325   181341   181399   181413   181381   181396   181461 
  181476   181408   181344   181321   181322   181380   181442   181429 
  181426   181485   181502   181457   181449   181514   181564   181507 
  181423   181395   181395   181376   181350   181400   181467   181394 
  181311   181371   181406   181363   181360   181352   181311   181321 
  181384   181426   181418   181391   181365   181346   181326   181263 
  181209   181261   181349   181337   181268   181244   181273   181337 
  181379   181359   181364   181431   181429   181353   181348   181359 
  181273   181206   181244   181291   181309   181359   181427   181448 
  181435   181444   181449   181431   181402   181340   181300   181329 
  181334   181307   181290   181269   181296   181365   181354   181280 
  181224   181172   181170   181260   181336   181317   181271   181267 
  181292   181309   181288   181238   181199   181229   181290   181313 
  181338   181380   181386   181363   181319   181279   181336   181444 
  181437   181367   181392   181435   181403   181348   181302   181275 
  181265   181244   181215   181197   181215   181287   181342   181354 
  181363   181352   181348   181394   181427   181390   181360   181400 
  181440   181399   181346   181341   181345   181349   181356   181323 
  181290   181337   181415   181427   181369   181317   181319   181345 
  181346   181340   181361   181399   181431   181444   181413   181365 
  181334   181311   181290   181273   181276   181330   181406   181384 
  181282   181251   181272   181260   181265   181292   181300   181323 
  181344   181338   181337   181364   181388   181364   181341   181380 
  181407   181406   181414   181361   181269   181267   181325   181359 
  181349   181292   181245   181271   181315   181305   181259   181234 
  181260   181326   181384   181399   181359   181311   181365   181489 
  181519   181465   181435   181411   181418   181454   181388   181286 
  181299   181332   181275   181219   181234   181280   181264   181197 
  181207   181286   181318   181350   181408   181390   181318   181294 
  181302   181348   181431   181462   181444   181446   181442   181431 
  181440   181406   181350   181338   181295   181214   181178   181157 
  181168   181249   181336   181371   181349   181299   181315   181422 
  181525   181534   181472   181399   181377   181445   181521   181519 
  181504   181533   181553   181560   181552   181477   181363   181314 
  181344   181330   181255   181229   181248   181241   181267   181334 
  181352   181364   181427   181427   181327   181252   181275   181345 
  181336   181229   181225   181381   181476   181464   181472   181456 
  181365   181273   181275   181365   181417   181390   181381   181383 
  181365   181386   181437   181488   181506   181398   181272   181291 
  181334   181284   181263   181341   181444   181480   181435   181414 
  181480   181537   181477   181305   181138   181103   181159   181175 
  181155   181213   181360   181483   181523   181535   181570   181610 
  181584   181458   181311   181269   181313   181321   181321   181408 
  181477   181415   181317   181248   181186   181161   181215   181341 
  181456   181427   181330   181371   181496   181562   181608   181661 
  181668   181660   181634   181539   181369   181155   180974   180898 
  180894   180901   180921   180994   181129   181234   181242   181201 
  181203   181299   181386   181350   181263   181219   181219   181257 
  181306   181348   181446   181562   181546   181418   181290   181195 
  181194   181288   181396   181527   181704   181858   181993   182152 
  182233   182152   181975   181724   181410   181137   180945   180819 
  180773   180797   180897   181083   181269   181403   181506   181530 
  181476   181442   181414   181365   181345   181299   181228   181232 
  181260   181228   181174   181188   181334   181564   181730   181745 
  181646   181458   181234   181143   181246   181400   181492   181556 
  181629   181700   181746   181689   181511   181383   181317   181117 
  180868   180792   180881   181117   181449   181622   181568   181533 
  181518   181367   181129   180852   180623   180658   180902   181132 
  181336   181542   181708   181859   181965   181928   181839   181791 
  181757   181799   181894   181869   181703   181495   181268   181052 
  180914   180868   180864   180863   180937   181137   181248   181136 
  181043   181128   181271   181388   181426   181426   181545   181676 
  181600   181419   181269   181128   181045   181062   181071   180998 
  180900   180927   181199   181627   181997   182169   182102   181889 
  181680   181485   181228   180990   180860   180779   180748   180794 
  180897   181103   181400   181607   181562   181321   181246   181556 
  181786   181512   181143   181249   181691   181936   181803   181580 
  181562   181661   181597   181294   180955   180844   181005   181203 
  181213   181093   181013   181035   181165   181340   181434   181372 
  181224   181194   181307   181275   180981   180765   180955   181411 
  181768   181840   181720   181660   181753   181776   181531   181107 
  180820   181006   181568   181948   181907   181703   181564   181610 
  181819   181842   181539   181292   181319   181402   181295   181099 
  181084   181153   181099   181074   181057   180860   180702   180819 
  181032   181160   181172   181062   180970   181111   181404   181583 
  181705   181997   182277   182129   181680   181468   181530   181485 
  181283   181145   181198   181422   181564   181352   180947   180794 
  181014   181264   181344   181535   181931   182078   181751   181372 
  181377   181662   181884   181877   181668   181473   181515   181606 
  181457   181230   181251   181506   181689   181587   181300   181040 
  180874   180765   180662   180524   180419   180462   180636   180835 
  181040   181295   181548   181689   181739   181768   181784   181691 
  181407   181160   181203   181379   181477   181506   181460   181413 
  181475   181523   181456   181449   181633   181893   181998   181791 
  181399   181138   181093   181138   181294   181550   181792   182002 
  182032   181704   181296   181083   180906   180733   180759   180870 
  180770   180485   180364   180686   181318   181826   181977   181876 
  181708   181615   181650   181712   181711   181680   181546   181226 
  180968   181003   181136   181120   180970   180833   180918   181188 
  181286   181140   181032   181102   181361   181722   181899   181830 
  181827   182050   182305   182418   182364   182013   181340   180771 
  180674   180829   180927   180999   181113   181194   181217   181134 
  180920   180810   181037   181365   181403   181276   181415   181704 
  181637   181256   181109   181411   181859   182066   181830   181265 
  180921   181099   181290   181059   180794   181043   181680   182011 
  181730   181381   181498   181907   182143   181992   181591   181170 
  180850   180750   180814   180573   179848   179220   179201   179649 
  180181   180615   181018   181468   181963   182495   182849   182714 
  182194   181788   181722   181836   181973   181998   181811   181541 
  181398   181383   181386   181306   181099   180862   180742   180770 
  180759   180472   180156   180381   181095   181595   181500   181248 
  181375   181755   181963   181849   181622   181573   181600   181413 
  181028   180700   180667   180974   181410   181695   181650   181369 
  181180   181255   181549   182001   182486   182879   183189   183307 
  183082   182664   182233   181835   181498   181082   180466   179957 
  179894   180107   180289   180486   180841   181288   181620   181604 
  181284   181176   181550   181878   181724   181500   181607   181581 
  180997   180416   180490   181052   181699   182163   182204   181919 
  181573   181265   181163   181387   181705   181858   181917   182069 
  182194   182028   181674   181458   181367   181093   180523   179901 
  179564   179640   179950   180230   180436   180717   180997   180986 
  180839   181074   181680   182105   182063   181788   181693   181938 
  182272   182310   181882   181269   180976   181132   181442   181614 
  181580   181619   181969   182305   182291   182178   182160   181916 
  181236   180473   180202   180630   181241   181288   180814   180573 
  180859   181209   181237   181043   180962   181190   181500   181485 
  181168   180991   181080   181184   181240   181348   181487   181564 
  181565   181521   181457   181402   181338   181246   181203   181272 
  181480   181818   182164   182484   182777   182838   182625   182379 
  182039   181394   180747   180586   180891   181292   181454   181264 
  180962   180806   180705   180527   180461   180650   180828   180883 
  181190   181780   182067   181935   181955   182194   182225   182069 
  181857   181531   181365   181527   181591   181332   180993   180708 
  180578   180829   181302   181480   181388   181527   181896   181985 
  181612   181143   180909   180851   180901   181083   181198   181153 
  181160   181246   181282   181268   181137   180839   180662   180716 
  180709   180647   180765   181016   181279   181514   181661   181782 
  181992   182190   182225   182131   181904   181526   181155   180956 
  180971   181124   181313   181430   181421   181500   181705   181575 
  181001   180589   180762   181182   181333   181260   181371   181719 
  181948   181851   181633   181595   181738   181711   181256   180711 
  180684   181199   181647   181660   181603   181836   182101   182139 
  182079   181944   181688   181484   181418   181454   181484   181303 
  181078   181109   181175   181040   180960   181075   181118   180959 
  180746   180619   180665   180802   180856   180906   181083   181237 
  181238   181214   181321   181418   181403   181515   181745   181828 
  181909   182160   182189   181712   181214   181047   180963   180885 
  180894   180867   180890   181113   181318   181338   181236   181120 
  181217   181423   181253   180878   180827   180879   180758   180712 
  180747   180786   181137   181728   181969   181857   181878   181940 
  181691   181348   181325   181534   181562   181372   181323   181530 
  181781   181890   181808   181685   181714   181732   181479   181056 
  180667   180419   180532   180998   181346   181346   181315   181494 
  181722   181707   181434   181218   181195   181157   181009   180856 
  180846   181095   181557   181977   182197   182283   182189   181882 
  181658   181600   181398   181110   181125   181446   181750   181857 
  181842   181880   182009   182021   181739   181318   181005   180821 
  180782   180932   181128   181244   181317   181380   181531   181804 
  181958   181904   181811   181633   181272   180893   180662   180597 
  180628   180679   180841   181165   181400   181441   181427   181323 
  181171   181156   181084   180850   180821   181082   181329   181538 
  181832   182174   182349   182173   181820   181495   181055   180553 
  180324   180436   180682   180841   180886   180995   181159   181152 
  180997   180885   180908   181080   181279   181309   181249   181375 
  181651   181816   181836   181831   181866   181942   181847   181479 
  181299   181535   181669   181537   181530   181647   181710   181778 
  181728   181464   181332   181508   181668   181538   181255   181091 
  181141   181330   181507   181515   181411   181359   181313   181213 
  181125   181110   181157   181117   180855   180488   180292   180453 
  180862   181288   181626   181808   181865   181934   181959   181819 
  181561   181291   181251   181507   181649   181583   181660   181795 
  181724   181600   181475   181184   180874   180801   180852   180878 
  181093   181592   182040   182154   182039   181970   182000   181962 
  181796   181649   181664   181776   181786   181589   181237   180890 
  180763   180863   180947   180863   180733   180755   180929   181125 
  181269   181306   181242   181171   181191   181390   181637   181710 
  181691   181623   181364   181076   180968   180866   180648   180385 
  180153   180185   180621   181207   181607   181693   181708   181984 
  182244   182029   181592   181359   181264   181201   181176   181130 
  181161   181419   181755   181974   182059   182020   181815   181508 
  181363   181479   181633   181656   181676   181828   181970   181944 
  181838   181747   181672   181599   181403   180959   180493   180369 
  180527   180639   180670   180792   180966   181093   181211   181268 
  181164   181043   181055   181118   181224   181457   181676   181699 
  181629   181593   181510   181396   181437   181550   181485   181246 
  180956   180720   180725   181010   181342   181595   181846   182115 
  182326   182389   182190   181699   181105   180728   180658   180609 
