Origin Time       2024/04/02 04:24:00
Lat.              40.133
Long.             141.712
Depth. (km)       71
Mag.              6.0
Station Code      NMRH05
Station Lat.      43.3900
Station Long.     144.8021
Station Height(m) 92
Record Time       2024/04/02 04:25:41
Sampling Freq(Hz) 100Hz
Duration Time(s)  120
Dir.              6
Scale Factor      7845(gal)/8223790
Max. Acc. (gal)   2.946
Last Correction   2024/04/02 04:25:41
Memo.             
[...]
    2506     2415     2265     2188     2258     2484     2709     2720 
    2614     2529     2427     2373     2467     2605     2617     2497 
    2332     2122     1962     2101     2500     2829     2913     2778 
    2413     1885     1570     1809     2462     3111     3450     3354 
    2952     2573     2417     2374     2249     2057     1984     2120 
    2327     2415     2432     2520     2621     2565     2355     2208 
    2249     2443     2659     2673     2363     1896     1717     2069 
    2624     3026     3271     3294     2990     2655     2609     2712 
    2832     3009     2965     2479     1930     1732     1873     2185 
    2497     2644     2593     2442     2330     2365     2490     2516 
    2442     2415     2455     2525     2504     2228     1912     1999 
    2512     3088     3429     3325     2625     1671     1252     1630 
    2331     2921     3248     3157     2608     2019     1876     2030 
    2115     2189     2417     2647     2578     2315     2326     2648 
    2886     2887     2652     2262     2066     2182     2350     2508 
    2748     2994     3022     2605     1896     1588     2079     2830 
    3180     3006     2443     1852     1687     2003     2551     3038 
    3192     2893     2272     1703     1636     2133     2755     3141 
    3181     2862     2486     2328     2162     1868     1821     2330 
    3117     3515     3146     2343     1742     1629     1942     2550 
    3110     3244     3017     2709     2280     1687     1452     1956 
    2697     3099     3103     2751     2199     1818     1845     2118 
    2295     2409     2675     2916     2836     2498     2250     2349 
    2713     3099     3181     2720     2018     1621     1690     2064 
    2551     3024     3303     3226     2791     2214     1906     2060 
    2342     2521     2716     2751     2390     1984     1914     2088 
    2332     2531     2643     2748     2762     2577     2381     2335 
    2361     2431     2593     2737     2694     2490     2435     2728 
    2953     2674     2255     2268     2621     2849     2706     2311 
    1912     1597     1462     1830     2691     3427     3543     3134 
    2497     1948     1958     2636     3202     2875     1991     1493 
    1711     2317     3038     3612     3537     2710     1896     1879 
    2409     2720     2643     2284     1683     1281     1595     2459 
    3106     3086     2743     2489     2403     2484     2686     2818 
    2652     2273     2085     2238     2397     2296     2166     2281 
    2516     2778     3029     3003     2650     2247     2057     2181 
    2346     2235     2096     2261     2563     2752     2808     2687 
    2471     2415     2562     2809     3022     2941     2501     1977 
    1651     1709     2238     2943     3298     3133     2546     1794 
    1452     1795     2363     2664     2625     2427     2377     2592 
    2874     3033     2890     2407     2069     2320     2839     3088 
    2843     2047     1117      872     1580     2801     3832     3901 
    2943     1881     1362     1528     2462     3472     3630     3126 
    2452     1723     1363     1679     2255     2701     3026     3267 
    3397     3223     2434     1441     1132     1560     2336     3289 
    3829     3361     2295     1440     1179     1632     2633     3582 
    3793     3014     1807     1142     1408     2299     3202     3457 
    2938     2215     1895     2107     2492     2670     2766     3049 
    3268     3129     2668     1960     1363     1381     2039     3029 
    3813     3774     2930     1948     1410     1539     2172     2741 
    2806     2624     2498     2308     2104     2058     2199     2616 
    3129     3235     2768     2087     1765     2033     2544     2937 
    3003     2605     1976     1583     1641     2087     2706     3203 
    3335     2984     2309     1764     1706     2131     2729     3138 
    3132     2624     1926     1624     1979     2700     3149     2975 
    2633     2647     2779     2635     2328     2010     1772     1956 
    2527     2868     2709     2236     1674     1491     1972     2687 
    3271     3472     2936     2054     1561     1669     2371     3191 
    3357     2830     2142     1698     1725     2195     2832     3329 
    3418     3084     2687     2401     2041     1769     1988     2574 
    3092     3245     2830     2106     1733     1872     2135     2382 
    2745     3160     3238     2706     1934     1571     1740     2060 
    2313     2621     3011     3316     3408     3123     2489     2087 
    2280     2567     2513     2322     2123     1933     1979     2133 
    2070     2127     2556     2867     2884     2866     2740     2452 
    2162     1957     1968     2269     2690     2917     2818     2540 
    2265     2154     2311     2509     2542     2517     2431     2172 
    1949     2019     2308     2683     3024     3102     2925     2740 
    2520     2281     2408     2783     2820     2531     2328     2363 
    2539     2623     2532     2470     2458     2297     2087     2066 
    2220     2504     2793     2718     2193     1644     1605     2255 
    3106     3516     3387     2882     2191     1836     2288     3082 
    3277     2659     1790     1354     1595     2122     2502     2656 
    2616     2508     2544     2763     2882     2605     2101     1819 
    1992     2536     3118     3388     3061     2200     1568     1876 
    2810     3473     3392     2728     1865     1324     1530     2247 
    2898     3192     3030     2582     2247     2173     2203     2154 
    2076     2266     2762     3146     3076     2614     2100     1881 
    2099     2627     3117     3191     2752     2101     1737     1879 
    2332     2741     2731     2315     2042     2181     2535     2925 
    3175     3091     2678     2108     1561     1331     1686     2363 
    2897     3160     3044     2586     2243     2181     2165     2241 
    2650     3271     3639     3427     2752     2039     1614     1601 
    2081     2764     2998     2623     2215     2231     2451     2516 
    2439     2286     2141     2204     2521     2833     2814     2554 
    2392     2327     2165     1949     1890     2099     2546     3111 
    3555     3635     3291     2635     1841     1243     1273     1941 
    2766     3307     3442     3276     2866     2223     1607     1431 
    1956     2917     3495     3063     1977     1387     1810     2539 
    2920     2910     2605     2247     2138     2226     2230     2118 
    2138     2448     2911     3234     3242     2925     2357     1877 
    1908     2532     3330     3518     2817     1838     1232     1439 
    2546     3651     3723     2849     1705      859      870     1768 
    2871     3651     3767     3038     2068     1567     1544     1892 
    2424     2760     3028     3420     3402     2706     1949     1613 
    1763     2367     3057     3204     2579     1729     1431     1811 
    2376     2791     3038     2951     2438     2010     2166     2718 
    3202     3219     2566     1622     1171     1563     2435     3175 
    3330     2859     2227     1995     2278     2652     2647     2293 
    1938     1850     2268     3141     3672     3215     2311     1818 
    2022     2686     3144     2870     2169     1800     2205     3057 
    3470     3102     2457     1842     1316     1320     2025     2883 
    3360     3300     2817     2288     2014     1912     1885     2023 
    2374     2870     3334     3449     3022     2353     1854     1636 
    1742     2172     2641     2812     2650     2492     2593     2813 
    2871     2655     2280     1998     2115     2758     3511     3734 
    3179     2085     1086      845     1445     2443     3306     3591 
    3171     2470     2057     1944     1868     1985     2461     3017 
    3362     3424     3129     2490     1798     1405     1499     2045 
    2717     3109     3041     2575     2097     2049     2253     2335 
    2377     2502     2694     2951     3046     2783     2419     2177 
    2056     2153     2417     2651     2798     2743     2490     2420 
    2643     2666     2123     1368     1109     1638     2633     3493 
    3757     3410     2694     1899     1518     1705     1914     2006 
    2354     2766     2948     3127     3234     2853     2170     1817 
    2057     2674     3269     3547     3283     2307     1151      942 
    1865     2871     3186     2932     2515     2284     2371     2689 
    3021     2961     2475     2050     1821     1711     1881     2259 
    2586     2812     2866     2652     2350     2224     2273     2349 
    2369     2340     2535     3065     3345     2995     2432     1985 
    1733     1842     2247     2637     2828     2844     2686     2290 
    1822     1645     2033     2853     3634     4091     3951     2817 
    1179      237      403     1208     2181     3119     3936     4233 
    3630     2700     2234     2039     1798     1729     1883     2056 
    2317     2860     3416     3505     3019     2201     1507     1281 
    1426     1948     2971     3944     3964     3011     1950     1428 
    1482     1938     2539     2984     3133     3082     2914     2543 
    2138     2135     2528     2770     2538     2222     2350     2844 
    3237     3211     2687     1971     1760     2246     2693     2519 
    2045     1914     2261     2664     2875     2790     2149     1358 
    1356     2124     2779     2922     2980     3042     2683     2289 
    2490     2787     2586     2371     2675     2909     2555     2187 
    2058     1931     2074     2667     3329     3419     2647     1772 
    1699     2274     2862     3071     2614     1506      581      662 
    1371     2085     2872     3451     3280     2709     2425     2596 
    2975     3080     2689     2262     2342     2836     3146     2901 
    2435     2338     2787     3393     3420     2637     1702     1399 
    2064     3261     3819     2961     1395      596     1208     2581 
    3497     3152     1842      695      607     1652     3079     3797 
    3524     3068     2911     2793     2610     2357     1993     1804 
    1952     2158     2157     2182     2717     3581     3954     3335 
    2123     1313     1584     2839     4136     4194     2957     1626 
    1081     1432     2239     2704     2374     1674     1389     1725 
    2349     3092     3755     3848     3271     2354     1347      715 
    1186     2754     4348     4866     3912     2034      615      626 
    1642     2713     3333     3300     2893     2936     3530     3623 
    2716     1611     1067     1186     1925     2893     3364     3136 
    2685     2457     2430     2307     1860     1286     1208     1675 
    2010     1993     1958     2238     2982     3812     4082     3620 
    2821     2259     2303     2833     3326     3399     3138     2623 
    1840     1156      965     1175     1637     2338     2978     3134 
    2849     2388     1888     1818     2551     3426     3731     3543 
    2938     2259     2155     2435     2565     2443     2023     1571 
    1648     2304     3119     3553     3126     2138     1552     1721 
    2235     2785     3163     3076     2574     1972     1602     1819 
    2489     2978     2924     2405     1996     2404     3323     3740 
    3235     2151     1291     1316     2053     2901     3379     3203 
    2512     1769     1356     1375     1728     2312     2867     3087 
    3169     3391     3496     3044     2039     1004      521      919 
    1973     2901     3258     3138     2559     1887     1891     2644 
    3562     4274     4446     3742     2629     2089     2257     2447 
    2316     1996     1566     1287     1711     2964     4214     4257 
    2862     1183      544     1223     2458     3253     3195     2443 
    1514     1104     1244     1445     1723     2112     2332     2546 
    3003     3435     3642     3813     3920     3670     3079     2435 
    2087     2311     2878     3003     2238     1090      452      750 
    1665     2473     2727     2548     2533     3163     3979     4155 
    3489     2349     1402     1204     1709     2417     2783     2635 
    2268     2061     2074     2023     1891     2151     2867     3403 
    3438     3073     2277     1552     1829     2886     3591     3499 
    2914     2254     2014     2363     2722     2613     2311     2083 
    2010     2216     2520     2851     3329     3457     2755     1630 
     675      336      994     2160     2889     3172     3256     3059 
    2891     3002     3117     3067     2864     2585     2535     2693 
    2554     2270     2330     2281     1798     1503     1625     2011 
    2910     4089     4648     4207     3154     2012     1148      724 
     625      876     1695     2852     3835     4167     3385     1864 
     847      977     1782     2513     2805     2691     2377     2149 
    2259     2637     3055     3496     3727     3206     2262     1960 
    2490     3258     3982     4311     3677     2253      847      -25 
    -187      494     1856     3295     4074     3766     2632     1493 
    1165     1944     3294     4256     4098     2760     1131      209 
     334     1479     3136     4365     4623     4031     2945     1692 
     777      691     1308     1995     2417     2705     2639     1879 
    1204     1745     3211     4326     4503     4164     3739     3206 
    2704     2694     3017     3091     3169     3350     2727     1182 
    -230     -627       94     1239     2259     3094     3450     3129 
    2438     1763     1402     1645     2430     3052     3021     2759 
    2728     2755     2675     2675     2857     3057     3153     3052 
    2682     2361     2525     3084     3545     3631     3414     2956 
    2317     1676     1193      915      874     1201     1912     2590 
    2724     2420     2266     2567     3114     3543     3508     2899 
    2145     1795     1968     2357     2551     2494     2397     2413 
    2740     3258     3456     3211     2755     2289     2309     2974 
    3408     2968     2034     1260     1275     2161     2952     2934 
    2346     1440      702      932     2014     2987     3395     3458 
    3342     3233     3383     3596     3473     2805     1695      797 
     641      913     1152     1316     1560     2153     3233     4337 
    4630     3874     2693     1701     1312     1908     3138     4054 
    4097     3296     2127     1351     1467     2322     3146     3061 
    2035     1247     1482     2153     2698     3003     2741     2065 
    1680     1914     2516     2963     3026     2921     2748     2477 
    2133     1772     1547     1464     1480     1879     2701     3427 
    3708     3597     3152     2448     1718     1298     1452     1965 
    2358     2735     3377     3832     3705     3418     3364     3519 
    3812     3804     3087     2076     1232      766      939     1274 
    1051      695      870     1449     2115     2702     2949     2793 
    2625     2886     3601     4311     4374     3642     2585     1779 
    1745     2509     3144     2762     1626      777      909     1750 
    2592     2952     2660     2092     1872     2062     2378     2694 
    2836     2733     2560     2380     2280     2443     2884     3526 
    4047     3997     3426     2766     2361     2278     2177     1722 
    1220     1377     2150     2821     3149     3033     2238     1321 
    1100     1591     2359     2972     3157     2955     2567     2262 
    2317     2758     3330     3672     3523     2930     2250     2019 
    2398     2867     2737     1825      808      518     1089     2319 
    3611     3925     3088     1993     1271     1151     1732     2601 
    3292     3738     3708     3026     2214     1830     1935     2555 
    3524     4212     4121     3350     2459     1922     1730     1718 
    1898     2223     2454     2357     1946     1537     1471     1860 
    2506     2937     2856     2490     2195     2034     2068     2400 
    2810     3061     3132     2941     2700     2798     3006     2984 
    2910     2898     2789     2544     2126     1559     1321     1741 
    2523     3214     3343     2835     2293     2209     2683     3402 
    3491     2546     1275      515      631     1629     2737     2894 
    2249     1644     1418     1602     1964     2277     2718     3223 
    3546     3825     4024     3802     3331     2972     2543     1952 
    1648     1763     1854     1679     1447     1587     2362     3438 
    4194     4218     3442     2319     1543     1347     1576     2195 
    3011     3350     2872     2019     1300     1096     1587     2339 
    2820     3011     3056     2971     2845     2702     2392     2115 
    2305     2745     2879     2563     1962     1406     1246     1513 
    2056     2641     2937     2980     3088     3148     3052     3078 
    3134     2951     2717     2674     2778     2751     2400     1945 
    1806     2195     2810     3129     2971     2307     1410     1108 
    1696     2481     2872     2806     2366     1837     1599     1745 
    2072     2353     2558     2776     3041     3237     3357     3565 
    3538     2929     2374     2342     2336     2106     1744     1210 
     777      886     1595     2577     3387     3707     3526     3153 
    2818     2594     2619     2720     2535     2103     1780     1804 
    1918     1868     1987     2509     3238     3985     4371     3850 
    2635     1686     1618     2280     2998     3024     2232     1239 
     716      872     1516     2228     2700     3053     3352     3291 
    2965     2830     2853     2641     2127     1621     1505     1910 
    2556     3055     3171     2880     2562     2701     3208     3495 
    3217     2540     1603      519     -105      288     1418     2484 
    2965     2886     2586     2439     2583     2779     2830     2906 
    3258     3713     3605     2798     2088     2034     2512     3137 
    3456     3388     3260     3202     3025     2493     1683     1138 
    1263     1733     2019     2056     1944     1787     1957     2650 
    3480     3944     3828     3165     2323     1873     2011     2363 
    2513     2363     2079     1899     1907     2030     2180     2246 
    2253     2370     2536     2577     2656     2844     2843     2755 
    2906     2934     2434     1818     1543     1583     1885     2436 
    3086     3435     3169     2659     2353     2197     2230     2440 
    2508     2353     2069     1701     1499     1695     2205     2794 
    3262     3496     3408     3056     2623     2261     2180     2454 
    2772     2771     2331     1675     1320     1587     2331     3138 
    3553     3419     3015     2709     2728     2953     2968     2793 
    2760     2718     2371     1836     1351     1073     1162     1572 
    1891     1945     2006     2165     2359     2532     2546     2563 
    2859     3284     3670     4021     4183     4056     3707     3099 
    2365     1917     1918     2087     2065     1822     1514     1170 
     973     1336     2246     3056     3252     2943     2332     1637 
    1390     1726     2188     2587     2937     3072     2952     2828 
    2872     2947     2914     2725     2355     2133     2300     2590 
    2775     2705     2351     2222     2560     2830     2863     2943 
