Origin Time       2024/04/02 04:24:00
Lat.              40.133
Long.             141.712
Depth. (km)       71
Mag.              6.0
Station Code      OSMH01
Station Lat.      41.5977
Station Long.     140.4207
Station Height(m) -145
Record Time       2024/04/02 04:25:06
Sampling Freq(Hz) 100Hz
Duration Time(s)  160
Dir.              2
Scale Factor      2942(gal)/8224139
Max. Acc. (gal)   1.113
Last Correction   2024/04/02 04:25:07
Memo.             
[...]
  181175   180963   180697   180450   180388   180428   180441   180434 
  180388   180337   180362   180492   180704   180824   180724   180621 
  180715   180931   181171   181352   181350   181232   181294   181633 
  181984   182110   182016   181824   181726   181834   182004   182024 
  181892   181747   181645   181600   181635   181701   181732   181735 
  181661   181417   181026   180601   180327   180347   180527   180686 
  180851   181024   181051   180944   180945   181117   181257   181267 
  181251   181263   181233   181160   181121   181057   180858   180574 
  180387   180454   180685   180814   180827   180850   180952   181221 
  181550   181745   181826   181803   181685   181593   181458   181164 
  180879   180785   180881   181079   181148   180978   180794   180823 
  181006   181129   181148   181211   181336   181473   181693   181973 
  182120   182036   181847   181699   181637   181623   181553   181400 
  181353   181538   181791   181930   181978   181963   181831   181635 
  181465   181321   181171   180968   180733   180550   180419   180293 
  180171   180088   180058   180007   179878   179790   179934   180246 
  180357   180094   179803   179895   180299   180644   180775   180836 
  180927   181005   181039   180986   180852   180775   180858   181094 
  181373   181556   181599   181488   181210   180905   180715   180634 
  180603   180652   180882   181228   181476   181554   181542   181487 
  181336   181059   180855   180913   181117   181280   181346   181367 
  181471   181712   182038   182329   182391   182147   181764   181481 
  181379   181325   181192   181030   180932   180921   181048   181280 
  181402   181264   180982   180790   180841   181083   181292   181375 
  181469   181622   181653   181462   181140   180778   180415   180103 
  179961   180058   180279   180426   180495   180612   180765   180905 
  181063   181211   181229   181079   180904   180868   180982   181172 
  181379   181550   181664   181664   181561   181458   181375   181302 
  181286   181321   181396   181496   181550   181542   181523   181518 
  181467   181245   180889   180627   180528   180495   180543   180669 
  180731   180652   180540   180594   180848   181083   181151   181178 
  181306   181457   181538   181620   181737   181838   181904   181863 
  181715   181610   181596   181587   181499   181325   181132   180998 
  180983   181079   181132   181102   181129   181182   181149   181043 
  180894   180778   180746   180771   180913   181114   181202   181234 
  181332   181373   181213   180947   180843   180928   180956   180800 
  180542   180374   180466   180786   181121   181275   181264   181264 
  181303   181290   181259   181233   181128   181047   181205   181521 
  181741   181742   181581   181475   181523   181550   181464   181395 
  181460   181608   181657   181542   181479   181612   181784   181788 
  181610   181321   180985   180705   180596   180648   180751   180870 
  181016   181103   181107   181129   181209   181302   181373   181386 
  181372   181414   181529   181719   181930   181984   181838   181626 
  181387   181167   181098   181110   180983   180733   180574   180558 
  180573   180573   180581   180577   180477   180266   180106   180098 
  180075   179936   179848   179967   180312   180716   180917   180904 
  180855   180829   180743   180600   180501   180453   180472   180661 
  180967   181213   181361   181485   181556   181491   181357   181280 
  181256   181309   181471   181650   181804   181924   181872   181642 
  181460   181372   181210   181013   180960   180873   180544   180262 
  180322   180581   180801   180887   180821   180644   180489   180449 
  180523   180721   181056   181415   181680   181816   181776   181618 
  181491   181403   181380   181508   181674   181768   181877   181967 
  181876   181695   181633   181638   181597   181529   181367   181084 
  180891   180920   181016   181111   181323   181595   181674   181522 
  181300   181094   180910   180733   180509   180299   180212   180254 
  180432   180712   181013   181357   181708   181938   182012   181938 
  181749   181603   181604   181651   181630   181588   181603   181576 
  181395   181205   181160   181226   181291   181236   181074   181010 
  181110   181198   181143   180960   180778   180760   180855   180828 
  180701   180688   180820   181033   181244   181329   181249   181093 
  180967   180922   180991   181170   181311   181336   181346   181349 
  181255   181133   181149   181284   181372   181368   181344   181341 
  181398   181475   181404   181190   181010   180931   180862   180735 
  180643   180708   180814   180765   180616   180553   180619   180709 
  180781   180971   181294   181498   181484   181434   181469   181515 
  181487   181396   181298   181252   181278   181302   181322   181396 
  181394   181175   180851   180586   180435   180441   180578   180632 
  180488   180358   180411   180513   180515   180458   180512   180763 
  181033   181035   180758   180446   180296   180362   180524   180620 
  180706   180851   180906   180910   181111   181472   181737   181778 
  181657   181550   181556   181623   181710   181781   181809   181808 
  181716   181511   181399   181494   181610   181639   181616   181430 
  180958   180376   180061   180183   180567   180995   181350   181527 
  181475   181314   181257   181319   181309   181141   180922   180847 
  180949   181018   180974   180940   180948   180982   181003   180983 
  181056   181313   181557   181619   181591   181581   181576   181591 
  181562   181314   180873   180393   179936   179617   179583   179790 
  180095   180365   180509   180592   180729   180904   181003   180995 
  181002   181175   181433   181535   181488   181512   181645   181722 
  181699   181660   181651   181642   181626   181631   181653   181678 
  181689   181602   181440   181310   181263   181326   181440   181442 
  181271   180993   180721   180615   180746   180932   180917   180698 
  180481   180430   180535   180677   180858   181105   181282   181363 
  181471   181577   181616   181612   181521   181334   181184   181110 
  181087   181161   181318   181481   181620   181727   181764   181716 
  181673   181685   181620   181408   181222   181144   181075   181014 
  181006   180990   180936   180909   180939   180978   181018   181086 
  181117   181093   181152   181326   181444   181383   181217   181110 
  181156   181276   181295   181221   181214   181226   181056   180738 
  180538   180625   180941   181271   181450   181469   181341   181093 
  180814   180584   180495   180607   180846   181091   181230   181241 
  181310   181480   181503   181356   181248   181107   180874   180800 
  180937   181057   181076   181009   180854   180712   180713   180855 
  181082   181325   181473   181518   181550   181635   181710   181603 
  181332   181138   181128   181211   181298   181276   181125   180955 
  180804   180724   180843   181043   181040   180816   180571   180453 
  180436   180419   180350   180237   180184   180360   180643   180721 
  180659   180723   180910   181140   181361   181500   181573   181587 
  181438   181179   180981   180910   180975   181067   181048   181055 
  181210   181356   181453   181611   181780   181873   181847   181635 
  181332   181206   181342   181573   181724   181764   181786   181861 
  181982   182071   181924   181462   180958   180634   180400   180117 
  179829   179729   179936   180292   180582   180786   180902   180890 
  180835   180779   180647   180470   180362   180360   180481   180657 
  180738   180758   180885   181066   181056   180816   180615   180644 
  180812   181021   181284   181566   181820   182035   182147   182094 
  181938   181766   181583   181373   181144   180908   180709   180658 
  180846   181159   181333   181298   181257   181369   181579   181818 
  182083   182340   182541   182629   182547   182397   182378   182559 
  182834   182965   182784   182470   182305   182302   182294   182155 
  181894   181577   181190   180733   180319   180046   179911   179872 
  179863   179818   179766   179788   179902   180081   180327   180639 
  180972   181201   181233   181171   181219   181435   181684   181827 
  181820   181761   181789   181826   181732   181637   181656   181642 
  181538   181492   181516   181500   181414   181310   181265   181253 
  181184   181114   181153   181257   181317   181302   181259   181197 
  181080   180949   180844   180652   180409   180361   180490   180607 
  180736   180897   181044   181278   181612   181836   181836   181718 
  181614   181633   181785   181984   182129   182143   182007   181811 
  181639   181492   181280   180962   180644   180427   180314   180328 
  180493   180725   180874   180864   180763   180716   180793   180856 
  180840   180910   181075   181182   181229   181229   181129   180976 
  180852   180809   180860   180936   180952   180909   180898   181040 
  181326   181565   181614   181565   181581   181691   181791   181796 
  181742   181704   181668   181581   181442   181294   181159   181012 
  180746   180327   179895   179582   179413   179398   179494   179614 
  179757   179941   180135   180318   180477   180607   180715   180846 
  181071   181410   181800   182108   182256   182271   182152   181943 
  181758   181531   181106   180555   180081   179814   179820   180048 
  180316   180503   180554   180381   180045   179788   179680   179606 
  179566   179628   179788   180099   180561   180945   181095   181149 
  181201   181215   181232   181232   181105   180927   180935   181184 
  181444   181511   181456   181468   181639   181944   182232   182335 
  182297   182264   182214   182027   181684   181283   180955   180731 
  180501   180250   180166   180342   180640   180920   181134   181314 
  181499   181645   181674   181576   181380   181175   181095   181241 
  181599   182035   182390   182574   182565   182412   182178   181886 
  181539   181147   180755   180492   180474   180678   180917   181053 
  181144   181245   181349   181506   181707   181792   181591   181105 
  180512   180022   179707   179512   179436   179545   179803   180084 
  180337   180605   180881   181072   181056   180814   180549   180459 
  180554   180758   181053   181431   181845   182298   182815   183258 
  183459   183406   183131   182694   182185   181584   180846   180026 
  179226   178576   178241   178249   178428   178637   178895   179201 
  179528   179898   180323   180792   181233   181530   181589   181391 
  181094   180913   180790   180563   180331   180291   180424   180528 
  180441   180230   180096   180119   180283   180554   180806   180970 
  181148   181380   181558   181701   181877   182029   182065   181994 
  181932   181893   181700   181259   180713   180319   180238   180443 
  180756   181008   181171   181256   181256   181303   181479   181670 
  181889   182254   182730   183216   183633   183864   183865   183698 
  183401   183047   182831   182898   183178   183471   183618   183555 
  183257   182745   182061   181219   180399   179882   179729   179802 
  179982   180068   179838   179410   179130   179173   179572   180230 
  180871   181315   181562   181689   181858   182206   182641   182915 
  182985   183045   183123   183105   183037   182976   182845   182617 
  182326   181959   181533   181126   180763   180505   180497   180679 
  180819   180944   181222   181494   181521   181379   181209   181056 
  181016   181141   181344   181510   181529   181311   180844   180268 
  179860   179749   179841   180208   180982   181859   182421   182667 
  182794   182819   182702   182463   182110   181710   181387   181107 
  180756   180445   180423   180731   181093   181224   181182   181149 
  181128   181133   181249   181350   181228   180933   180666   180504 
  180495   180738   181238   181784   182069   181988   181722   181494 
  181394   181429   181526   181537   181469   181456   181489   181438 
  181219   180835   180454   180385   180712   181134   181377   181473 
  181533   181553   181461   181121   180477   179760   179320   179248 
  179442   179790   180146   180408   180639   180887   181101   181272 
  181359   181203   180760   180234   179876   179786   179875   180004 
  180127   180308   180570   180862   181155   181404   181564   181647 
  181695   181761   181834   181726   181359   180935   180631   180438 
  180300   180215   180234   180382   180574   180696   180661   180457 
  180215   180087   180126   180396   180878   181306   181446   181373 
  181253   181141   181024   180837   180570   180366   180376   180567 
  180786   180918   180982   181098   181349   181647   181847   181908 
  181836   181642   181427   181286   181106   180716   180106   179415 
  178830   178460   178251   178105   178048   178210   178669   179294 
  179871   180330   180724   181074   181334   181527   181753   181978 
  182120   182247   182498   182861   183188   183417   183560   183558 
  183396   183211   183057   182819   182495   182223   182043   181884 
  181710   181553   181390   181141   180875   180728   180685   180689 
  180793   181048   181365   181643   181862   182038   182158   182178 
  182121   182079   182108   182205   182279   182163   181834   181456 
  181152   180962   180924   180981   181059   181164   181255   181224 
  181066   180879   180731   180674   180771   180983   181126   180974 
  180470   179801   179219   178810   178463   178141   178019   178249 
  178733   179172   179356   179262   178973   178713   178727   179093 
  179710   180377   180841   180995   180967   180824   180517   180204 
  180131   180281   180531   180864   181226   181476   181618   181770 
  181943   182065   182081   182009   181974   182044   182131   182147 
  182148   182186   182158   181970   181650   181226   180754   180346 
  179980   179560   179109   178765   178657   178734   178852   179018 
  179290   179637   179971   180162   180249   180482   180910   181379 
  181903   182503   183012   183304   183420   183501   183627   183705 
  183586   183208   182652   182113   181656   181183   180698   180343 
  180169   180075   179996   179884   179608   179212   178910   178818 
  178987   179400   179882   180310   180723   181137   181516   181789 
  181872   181847   181835   181816   181872   182124   182466   182710 
  182860   182973   182954   182727   182445   182274   182224   182248 
  182394   182773   183308   183709   183782   183581   183277   182973 
  182677   182376   182031   181666   181357   181026   180582   180133 
  179794   179560   179487   179687   180090   180492   180836   181153 
  181403   181585   181807   182127   182461   182623   182549   182424 
  182434   182511   182453   182166   181726   181323   181076   180994 
  181080   181251   181298   181183   181040   180929   180858   180877 
  181012   181217   181407   181521   181576   181643   181782   181951 
  182044   182112   182198   182170   181980   181726   181446   181152 
  180885   180631   180365   180133   179998   179940   179928   180036 
  180242   180466   180793   181197   181462   181587   181716   181818 
  181780   181649   181568   181611   181732   181899   182120   182371 
  182665   182947   182915   182455   181849   181294   180835   180554 
  180366   180158   180102   180377   180800   180997   180841   180526 
  180265   180127   180123   180292   180636   181012   181252   181337 
  181359   181398   181464   181568   181724   181867   181920   181908 
  181900   181885   181832   181808   181878   182044   182287   182533 
  182802   183169   183496   183627   183654   183625   183351   182664 
  181623   180501   179598   179024   178698   178495   178390   178474 
  178726   179023   179373   179775   180053   180177   180349   180674 
  181130   181580   181738   181587   181507   181697   181916   181931 
  181804   181673   181527   181280   180945   180679   180574   180495 
  180307   180049   179803   179614   179494   179456   179509   179653 
  179945   180399   180856   181045   180927   180805   180828   180758 
  180486   180215   180064   179934   179774   179730   179880   180081 
  180233   180322   180295   180196   180198   180360   180604   180874 
  181190   181610   182132   182588   182731   182479   181938   181255 
  180573   180003   179585   179325   179244   179348   179587   179907 
  180262   180611   180944   181228   181403   181485   181533   181596 
  181689   181732   181685   181650   181689   181731   181764   181896 
  182150   182387   182507   182537   182447   182127   181669   181356 
  181276   181257   181202   181201   181278   181307   181259   181261 
  181390   181587   181807   181993   182038   181897   181623   181365 
  181283   181369   181522   181687   181782   181622   181062   180277 
  179672   179383   179232   179146   179186   179342   179527   179602 
  179558   179585   179757   179983   180265   180577   180766   180814 
  180905   181214   181720   182167   182293   182158   182078   182169 
  182241   182185   182094   182005   181801   181469   181171   180937 
  180709   180584   180621   180802   181126   181487   181755   181951 
  182055   182019   181942   181904   181855   181789   181720   181595 
  181461   181414   181446   181553   181697   181780   181789   181799 
  181827   181836   181766   181534   181168   180796   180489   180357 
  180432   180496   180373   180176   180069   180071   180085   180025 
  179868   179626   179354   179170   179123   179154   179232   179305 
  179280   179192   179212   179390   179651   179964   180245   180384 
  180466   180600   180674   180631   180619   180782   181168   181701 
  182117   182216   182056   181820   181705   181785   181863   181781 
  181641   181538   181454   181449   181600   181815   181866   181661 
  181356   181168   181192   181369   181507   181498   181441   181460 
  181579   181700   181633   181390   181214   181151   181091   181041 
  181009   181045   181278   181626   181865   181916   181838   181754 
  181799   181936   182001   181951   181912   181921   181901   181816 
  181759   181890   182181   182421   182513   182459   182294   182164 
  182115   182005   181762   181498   181302   181145   181117   181340 
  181630   181773   181870   182090   182383   182623   182726   182653 
  182538   182534   182557   182495   182398   182304   182214   182159 
  182098   181940   181707   181476   181246   181013   180837   180715 
  180526   180234   180002   179995   180156   180265   180237   180171 
  180141   180158   180237   180357   180495   180698   180954   181066 
  180967   180877   180909   180966   181014   181144   181448   181897 
  182378   182773   182929   182784   182487   182185   181893   181650 
  181543   181564   181552   181465   181492   181731   181980   182044 
  181934   181743   181593   181557   181510   181387   181322   181307 
  181219   181045   180812   180570   180424   180369   180318   180350 
  180588   180889   180989   180828   180520   180218   180044   180013 
  180075   180212   180388   180534   180661   180767   180720   180478 
  180198   180003   179892   179852   179856   179820   179710   179633 
  179690   179836   179955   180029   180134   180296   180388   180328 
