Origin Time       2024/04/02 04:24:00
Lat.              40.133
Long.             141.712
Depth. (km)       71
Mag.              6.0
Station Code      SBSH06
Station Lat.      42.8309
Station Long.     140.4831
Station Height(m) 39
Record Time       2024/04/02 04:25:22
Sampling Freq(Hz) 100Hz
Duration Time(s)  140
Dir.              4
Scale Factor      3920(gal)/6170801
Max. Acc. (gal)   0.778
Last Correction   2024/04/02 04:25:07
Memo.             
[...]
    5594     5551     5530     5539     5572     5610     5629     5613 
    5581     5550     5525     5510     5506     5512     5535     5575 
    5628     5687     5726     5734     5728     5707     5659     5603 
    5579     5597     5644     5711     5776     5817     5835     5841 
    5836     5831     5829     5816     5798     5785     5774     5765 
    5754     5727     5693     5664     5643     5634     5637     5635 
    5627     5627     5640     5663     5697     5737     5771     5788 
    5785     5759     5713     5664     5632     5627     5650     5696 
    5753     5801     5821     5803     5746     5671     5602     5548 
    5521     5521     5532     5542     5549     5543     5521     5498 
    5495     5524     5583     5649     5706     5748     5768     5769 
    5771     5793     5841     5899     5936     5932     5899     5852 
    5805     5764     5724     5681     5648     5647     5691     5768 
    5855     5926     5966     5986     5996     5999     6008     6026 
    6044     6047     6033     6010     5981     5946     5918     5911 
    5930     5964     5984     5981     5965     5953     5972     6032 
    6102     6146     6158     6145     6119     6095     6084     6085 
    6105     6141     6168     6174     6164     6155     6161     6177 
    6188     6188     6169     6140     6117     6097     6059     6009 
    5966     5943     5952     5992     6034     6061     6073     6074 
    6075     6088     6117     6148     6164     6152     6122     6088 
    6058     6037     6007     5950     5873     5798     5741     5702 
    5678     5673     5688     5714     5736     5732     5699     5648 
    5594     5564     5576     5622     5685     5743     5782     5807 
    5828     5858     5909     5976     6033     6062     6056     6019 
    5969     5922     5887     5874     5880     5899     5919     5920 
    5902     5896     5924     5982     6050     6100     6122     6129 
    6145     6177     6209     6222     6211     6192     6196     6230 
    6270     6295     6288     6238     6149     6040     5921     5795 
    5682     5606     5577     5591     5628     5665     5668     5618 
    5532     5453     5411     5402     5411     5410     5383     5352 
    5341     5340     5329     5300     5254     5206     5178     5178 
    5205     5250     5312     5393     5484     5574     5636     5652 
    5629     5582     5537     5525     5555     5619     5702     5784 
    5848     5894     5927     5957     5999     6046     6080     6094 
    6090     6071     6049     6039     6049     6074     6093     6087 
    6044     5966     5864     5741     5610     5490     5399     5352 
    5359     5420     5529     5680     5858     6038     6189     6287 
    6326     6320     6294     6280     6292     6310     6312     6284 
    6214     6093     5940     5778     5628     5503     5408     5346 
    5319     5322     5345     5378     5406     5424     5444     5485 
    5546     5601     5621     5597     5542     5475     5429     5424 
    5455     5518     5599     5660     5684     5677     5655     5641 
    5639     5636     5612     5550     5450     5336     5241     5192 
    5201     5262     5361     5480     5597     5697     5770     5814 
    5838     5855     5886     5946     6031     6143     6274     6395 
    6479     6525     6544     6547     6558     6585     6608     6612 
    6591     6536     6456     6372     6297     6239     6201     6171 
    6128     6066     5993     5913     5841     5801     5802     5843 
    5906     5971     6040     6113     6191     6279     6366     6437 
    6473     6460     6400     6313     6218     6130     6060     6016 
    6001     6000     5991     5968     5945     5919     5893     5885 
    5901     5927     5958     5994     6022     6033     6026     6009 
    5980     5942     5903     5876     5877     5893     5887     5837 
    5746     5645     5568     5539     5569     5640     5730     5818 
    5889     5935     5957     5962     5956     5934     5899     5858 
    5808     5747     5678     5615     5580     5594     5672     5805 
    5956     6079     6147     6157     6135     6114     6101     6078 
    6016     5901     5749     5603     5505     5463     5466     5507 
    5576     5659     5747     5817     5845     5826     5791     5780 
    5818     5897     5978     6015     6003     5971     5947     5944 
    5961     5971     5938     5861     5772     5698     5662     5662 
    5668     5648     5594     5513     5428     5366     5346     5374 
    5437     5520     5611     5690     5742     5770     5780     5783 
    5777     5756     5731     5726     5766     5857     5969     6045 
    6038     5935     5780     5648     5592     5635     5751     5883 
    5982     6042     6086     6128     6169     6200     6206     6177 
    6121     6064     6007     5937     5860     5793     5744     5722 
    5738     5793     5873     5951     6013     6060     6091     6117 
    6143     6145     6103     6016     5905     5814     5781     5805 
    5861     5911     5925     5883     5785     5660     5533     5411 
    5307     5238     5210     5233     5305     5408     5515     5600 
    5657     5695     5706     5675     5599     5497     5408     5364 
    5365     5408     5490     5602     5722     5823     5864     5817 
    5709     5587     5479     5400     5347     5323     5341     5418 
    5558     5745     5924     6051     6119     6144     6160     6205 
    6291     6398     6495     6557     6581     6585     6569     6516 
    6420     6293     6150     6016     5914     5847     5793     5739 
    5692     5666     5673     5708     5757     5806     5850     5890 
    5921     5949     5990     6039     6064     6044     5973     5866 
    5758     5695     5707     5788     5890     5951     5908     5733 
    5472     5231     5111     5155     5328     5550     5742     5879 
    5984     6080     6160     6200     6180     6095     5965     5830 
    5735     5707     5725     5742     5732     5702     5672     5675 
    5733     5829     5909     5925     5878     5794     5708     5653 
    5654     5721     5841     5964     6031     6018     5946     5868 
    5833     5848     5888     5919     5912     5863     5781     5664 
    5530     5404     5321     5323     5411     5530     5623     5654 
    5620     5554     5485     5427     5392     5389     5421     5505 
    5642     5802     5951     6069     6151     6202     6212     6161 
    6053     5909     5766     5661     5627     5673     5763     5848 
    5907     5925     5900     5858     5830     5830     5854     5878 
    5883     5886     5910     5961     6020     6065     6079     6057 
    6010     5969     5961     5974     5981     5962     5900     5795 
    5682     5607     5596     5656     5770     5899     6007     6097 
    6183     6268     6346     6399     6395     6320     6194     6056 
    5925     5816     5741     5698     5678     5681     5701     5720 
    5721     5704     5672     5633     5607     5606     5638     5703 
    5787     5881     5968     6033     6069     6077     6062     6042 
    6028     6022     6018     6009     6012     6043     6097     6156 
    6192     6183     6124     6020     5879     5721     5580     5495 
    5493     5567     5686     5807     5893     5925     5904     5845 
    5779     5729     5711     5735     5786     5831     5854     5872 
    5914     5991     6093     6192     6258     6286     6293     6286 
    6279     6304     6375     6485     6611     6707     6724     6643 
    6493     6334     6209     6128     6072     6013     5947     5897 
    5889     5922     5974     6010     5993     5913     5800     5702 
    5634     5577     5511     5432     5360     5332     5370     5480 
    5653     5853     6014     6086     6065     6004     5970     5992 
    6067     6174     6285     6372     6410     6384     6285     6131 
    5972     5865     5829     5828     5823     5804     5775     5757 
    5773     5817     5862     5883     5871     5822     5732     5610 
    5489     5402     5366     5377     5416     5464     5506     5544 
    5586     5631     5670     5684     5660     5615     5596     5624 
    5662     5671     5631     5533     5413     5314     5263     5263 
    5290     5315     5336     5345     5335     5324     5332     5365 
    5420     5475     5510     5523     5530     5555     5605     5656 
    5683     5685     5666     5626     5573     5514     5454     5410 
    5382     5362     5346     5343     5365     5422     5512     5609 
    5691     5755     5806     5839     5850     5839     5801     5749 
    5711     5710     5745     5795     5830     5844     5839     5802 
    5726     5621     5506     5415     5398     5475     5620     5800 
    6003     6222     6443     6644     6794     6872     6875     6819 
    6717     6577     6410     6240     6088     5982     5935     5924 
    5906     5847     5735     5586     5427     5283     5189     5172 
    5224     5324     5434     5514     5551     5585     5671     5842 
    6068     6287     6439     6484     6435     6354     6285     6253 
    6271     6327     6399     6471     6525     6538     6499     6420 
    6329     6245     6178     6119     6068     6028     5987     5938 
    5876     5800     5723     5663     5612     5559     5511     5482 
    5490     5541     5612     5669     5703     5733     5788     5878 
    5988     6104     6220     6326     6407     6442     6411     6313 
    6186     6078     6004     5964     5954     5962     5974     5976 
    5961     5916     5837     5747     5689     5682     5726     5799 
    5852     5833     5739     5612     5512     5487     5554     5677 
    5795     5873     5896     5858     5788     5726     5687     5682 
    5719     5772     5815     5848     5874     5894     5922     5967 
    6021     6058     6054     5996     5891     5760     5639     5550 
    5484     5431     5398     5388     5389     5393     5398     5404 
    5429     5498     5611     5727     5802     5830     5833     5844 
    5897     5988     6077     6130     6128     6078     6016     5977 
    5985     6032     6078     6095     6081     6057     6043     6050 
    6079     6118     6149     6156     6128     6054     5938     5802 
    5670     5554     5454     5362     5285     5237     5227     5244 
    5259     5253     5226     5196     5178     5179     5188     5194 
    5203     5233     5312     5446     5606     5752     5860     5918 
    5937     5935     5911     5854     5773     5704     5676     5691 
    5722     5737     5719     5685     5664     5664     5665     5659 
    5668     5716     5800     5884     5918     5884     5814     5764 
    5774     5852     5979     6113     6223     6305     6351     6355 
    6331     6304     6285     6283     6302     6328     6344     6353 
    6359     6364     6355     6311     6226     6114     6004     5928 
    5893     5882     5878     5876     5887     5927     5992     6042 
    6035     5970     5877     5779     5698     5657     5651     5653 
    5650     5642     5642     5665     5702     5714     5673     5582 
    5469     5376     5330     5338     5386     5463     5560     5657 
    5722     5737     5711     5686     5704     5777     5879     5977 
    6056     6120     6187     6284     6410     6530     6608     6628 
    6589     6523     6468     6430     6393     6347     6297     6261 
    6249     6249     6235     6185     6099     5991     5882     5810 
    5818     5924     6104     6294     6424     6456     6402     6311 
    6224     6163     6127     6093     6043     5972     5894     5823 
    5768     5729     5696     5663     5631     5601     5567     5517 
    5430     5305     5172     5084     5079     5142     5240     5345 
    5443     5536     5630     5717     5797     5879     5960     6025 
    6048     6013     5927     5830     5765     5744     5757     5777 
    5788     5796     5807     5817     5821     5816     5792     5756 
    5723     5708     5726     5778     5846     5910     5956     5988 
    6029     6092     6171     6240     6267     6248     6195     6114 
    6018     5924     5827     5710     5579     5457     5348     5264 
    5235     5270     5335     5391     5417     5414     5408     5430 
    5480     5541     5594     5625     5638     5643     5654     5685 
    5738     5808     5893     5972     6027     6055     6058     6051 
    6033     5973     5855     5723     5634     5626     5695     5794 
    5851     5826     5746     5664     5605     5573     5569     5586 
    5628     5708     5825     5959     6086     6194     6268     6304 
    6309     6275     6192     6069     5933     5827     5769     5733 
    5696     5656     5619     5602     5623     5679     5754     5826 
    5881     5906     5886     5816     5709     5596     5500     5413 
    5324     5245     5201     5206     5251     5300     5317     5289 
    5226     5151     5088     5051     5042     5042     5049     5062 
    5061     5047     5043     5066     5116     5188     5280     5392 
    5520     5657     5790     5915     6020     6089     6113     6096 
    6048     5978     5900     5824     5747     5673     5625     5617 
    5644     5689     5739     5797     5871     5965     6067     6163 
    6246     6329     6434     6573     6727     6857     6933     6958 
    6966     6983     7018     7056     7066     7028     6945     6842 
    6760     6715     6699     6699     6688     6640     6573     6525 
    6519     6560     6626     6669     6658     6607     6548     6508 
    6486     6452     6370     6235     6074     5931     5833     5789 
    5785     5788     5780     5777     5787     5800     5805     5794 
    5767     5730     5691     5676     5724     5835     5963     6051 
    6062     6006     5944     5925     5944     5968     5961     5896 
    5784     5660     5539     5416     5298     5215     5189     5219 
    5300     5416     5538     5659     5782     5886     5943     5947 
    5907     5852     5810     5793     5799     5808     5802     5784 
    5759     5739     5740     5757     5776     5787     5790     5794 
    5809     5839     5872     5896     5904     5907     5926     5960 
    5994     6017     6032     6043     6048     6048     6044     6025 
    5995     5957     5906     5845     5791     5751     5723     5692 
    5646     5573     5476     5375     5294     5245     5226     5240 
    5293     5387     5508     5638     5750     5826     5868     5881 
    5875     5869     5867     5852     5813     5737     5616     5464 
    5315     5211     5168     5182     5227     5277     5324     5372 
    5415     5459     5520     5605     5712     5829     5942     6035 
    6083     6068     5998     5892     5768     5655     5580     5552 
    5561     5590     5627     5654     5662     5664     5687     5736 
    5793     5834     5842     5824     5796     5771     5758     5761 
    5779     5816     5876     5943     5976     5945     5867     5777 
    5702     5660     5644     5627     5595     5540     5463     5394 
    5365     5392     5475     5594     5719     5828     5911     5969 
    6004     6010     5994     5969     5932     5869     5798     5754 
    5763     5827     5921     6012     6066     6071     6041     5987 
    5906     5810     5720     5658     5643     5667     5703     5733 
    5753     5762     5764     5769     5784     5805     5821     5812 
    5762     5690     5637     5635     5694     5791     5882     5932 
    5929     5883     5815     5756     5737     5767     5831     5904 
    5969     6021     6067     6114     6158     6188     6215     6250 
    6291     6327     6329     6288     6237     6215     6249     6342 
    6451     6524     6541     6511     6455     6411     6389     6368 
    6329     6270     6201     6130     6064     6015     5991     6007 
    6078     6193     6325     6436     6493     6506     6499     6486 
    6478     6482     6489     6500     6510     6504     6470     6398 
    6282     6126     5942     5745     5540     5352     5207     5115 
    5080     5089     5111     5125     5121     5089     5045     5017 
    5024     5065     5121     5179     5235     5285     5337     5407 
    5498     5606     5722     5819     5861     5836     5755     5649 
    5546     5466     5411     5366     5319     5282     5276     5315 
    5393     5486     5577     5664     5758     5870     6000     6135 
    6263     6363     6421     6447     6456     6457     6459     6462 
    6462     6446     6404     6349     6295     6249     6212     6189 
    6172     6135     6053     5928     5771     5618     5533     5544 
    5634     5759     5865     5916     5907     5862     5803     5736 
    5656     5578     5519     5481     5457     5439     5426     5428 
    5467     5548     5631     5666     5634     5560     5482     5442 
    5472     5567     5689     5814     5932     6023     6071     6074 
    6034     5974     5930     5916     5925     5939     5942     5922 
    5872     5795     5699     5589     5484     5416     5398     5421 
    5484     5582     5703     5842     5981     6088     6154     6203 
    6260     6341     6439     6520     6564     6581     6603     6659 
    6746     6829     6867     6841     6755     6626     6467     6294 
    6126     5988     5895     5833     5778     5720     5642     5537 
    5429     5338     5266     5216     5196     5212     5270     5349 
    5410     5435     5431     5410     5394     5391     5397     5402 
    5404     5400     5391     5380     5367     5365     5385     5426 
    5478     5529     5581     5636     5679     5704     5716     5724 
    5749     5809     5890     5958     5988     5976     5926     5854 
    5789     5743     5723     5729     5747     5758     5750     5716 
    5655     5585     5526     5486     5473     5491     5544     5630 
    5736     5836     5911     5949     5959     5959     5963     5978 
    6003     6031     6060     6088     6105     6097     6062     6007 
    5949     5915     5913     5931     5956     5974     5980     5981 
    5984     5985     5981     5975     5968     5966     5965     5950 
    5910     5844     5765     5697     5649     5625     5623     5627 
    5626     5621     5602     5571     5548     5555     5606     5687 
    5780     5873     5952     6015     6064     6092     6103     6112 
    6130     6150     6160     6142     6087     6017     5960     5932 
    5931     5943     5947     5940     5935     5939     5947     5942 
    5918     5883     5860     5871     5912     5961     5999     6006 
    5976     5915     5839     5767     5711     5671     5648     5637 
    5635     5643     5658     5678     5708     5747     5788     5830 
    5876     5927     5990     6064     6116     6125     6091     6028 
    5957     5899     5861     5833     5808     5798     5811     5832 
    5851     5862     5855     5837     5820     5814     5819     5832 
    5858     5895     5921     5912     5877     5837     5797     5755 
    5709     5660     5615     5589     5587     5599     5626     5665 
    5705     5733     5728     5686     5635     5617     5663     5770 
