Origin Time       2024/04/02 04:24:00
Lat.              40.133
Long.             141.712
Depth. (km)       71
Mag.              6.0
Station Code      SBSH02
Station Lat.      43.0527
Station Long.     140.5017
Station Height(m) -75
Record Time       2024/04/02 04:25:25
Sampling Freq(Hz) 100Hz
Duration Time(s)  120
Dir.              3
Scale Factor      2940(gal)/6170270
Max. Acc. (gal)   0.207
Last Correction   2024/04/02 04:25:10
Memo.             
[...]
   23353    23352    23355    23353    23350    23352    23353    23354 
   23355    23355    23355    23355    23354    23352    23353    23353 
   23354    23355    23353    23351    23353    23351    23349    23352 
   23352    23351    23351    23353    23355    23354    23351    23349 
   23350    23353    23355    23354    23350    23350    23352    23350 
   23350    23352    23352    23352    23350    23350    23350    23349 
   23350    23350    23349    23351    23352    23352    23353    23352 
   23351    23352    23352    23353    23353    23351    23353    23356 
   23353    23351    23352    23352    23351    23352    23353    23353 
   23354    23354    23354    23354    23352    23350    23350    23355 
   23356    23352    23351    23353    23352    23351    23354    23355 
   23352    23352    23352    23353    23353    23352    23354    23356 
   23355    23352    23353    23355    23354    23353    23355    23355 
   23353    23353    23352    23352    23355    23355    23352    23353 
   23354    23353    23353    23354    23354    23353    23352    23351 
   23352    23355    23355    23353    23354    23355    23353    23352 
   23354    23355    23354    23352    23351    23352    23351    23350 
   23353    23355    23353    23351    23350    23350    23352    23354 
   23354    23351    23351    23353    23354    23353    23355    23355 
   23351    23351    23352    23351    23354    23354    23351    23352 
   23353    23354    23359    23356    23351    23353    23354    23352 
   23353    23352    23350    23351    23354    23357    23355    23351 
   23353    23357    23356    23354    23352    23351    23352    23353 
   23354    23353    23354    23353    23351    23353    23356    23355 
   23354    23351    23351    23353    23355    23355    23352    23351 
   23354    23352    23349    23351    23353    23352    23352    23350 
   23351    23354    23353    23354    23355    23352    23350    23351 
   23350    23352    23352    23349    23352    23356    23351    23346 
   23347    23348    23351    23355    23354    23352    23352    23354 
   23353    23350    23349    23350    23352    23353    23351    23349 
   23351    23353    23350    23348    23350    23349    23348    23353 
   23356    23354    23350    23348    23348    23349    23351    23353 
   23354    23354    23352    23351    23350    23348    23349    23350 
   23351    23352    23354    23354    23352    23349    23350    23352 
   23355    23355    23352    23352    23353    23352    23351    23351 
   23352    23354    23354    23353    23352    23349    23351    23354 
   23352    23350    23354    23358    23355    23352    23354    23354 
   23351    23354    23357    23356    23353    23352    23351    23351 
   23350    23351    23355    23356    23353    23352    23353    23352 
   23352    23353    23355    23357    23355    23353    23352    23354 
   23356    23355    23353    23353    23352    23352    23353    23354 
   23356    23354    23354    23355    23354    23353    23355    23355 
   23355    23356    23356    23354    23353    23354    23353    23352 
   23353    23354    23355    23355    23355    23357    23358    23355 
   23354    23356    23355    23354    23356    23356    23353    23353 
   23354    23354    23353    23354    23355    23356    23355    23354 
   23353    23352    23352    23354    23356    23357    23356    23353 
   23352    23352    23353    23354    23355    23354    23352    23352 
   23353    23352    23351    23351    23350    23352    23355    23353 
   23350    23352    23354    23351    23351    23351    23348    23352 
   23355    23351    23351    23353    23350    23347    23348    23350 
   23351    23352    23351    23350    23350    23351    23352    23352 
   23349    23348    23349    23350    23354    23355    23353    23350 
   23349    23350    23350    23350    23353    23354    23352    23352 
   23351    23351    23353    23352    23350    23351    23352    23353 
   23354    23353    23352    23352    23353    23352    23351    23352 
   23353    23353    23355    23356    23351    23350    23355    23356 
   23353    23354    23355    23354    23355    23356    23354    23353 
   23354    23355    23355    23355    23355    23354    23351    23353 
   23355    23354    23353    23354    23354    23354    23357    23353 
   23349    23353    23354    23355    23358    23358    23358    23356 
   23351    23351    23354    23353    23353    23354    23354    23355 
   23354    23351    23350    23353    23355    23354    23355    23357 
   23356    23351    23350    23356    23356    23349    23348    23354 
   23358    23359    23358    23355    23350    23349    23352    23354 
   23353    23353    23354    23354    23351    23349    23350    23355 
   23357    23353    23350    23348    23351    23354    23352    23348 
   23348    23351    23353    23354    23353    23353    23351    23347 
   23348    23352    23354    23355    23353    23353    23354    23353 
   23351    23351    23351    23353    23356    23355    23352    23351 
   23351    23350    23353    23356    23353    23351    23353    23353 
   23353    23358    23359    23355    23351    23350    23352    23355 
   23355    23354    23355    23355    23354    23354    23353    23351 
   23352    23355    23355    23352    23350    23355    23357    23349 
   23344    23346    23351    23359    23361    23356    23357    23360 
   23355    23348    23350    23353    23352    23354    23355    23352 
   23353    23356    23354    23350    23350    23352    23354    23355 
   23353    23352    23354    23353    23349    23349    23350    23350 
   23353    23355    23354    23354    23353    23352    23351    23350 
   23350    23351    23353    23352    23351    23350    23351    23352 
   23352    23352    23349    23348    23350    23350    23350    23353 
   23352    23351    23354    23354    23351    23349    23349    23350 
   23351    23352    23351    23349    23350    23349    23347    23350 
   23353    23351    23351    23352    23351    23351    23352    23352 
   23351    23350    23348    23350    23353    23351    23352    23353 
   23350    23350    23351    23351    23353    23354    23352    23351 
   23351    23348    23349    23351    23352    23352    23353    23351 
   23353    23355    23350    23350    23355    23354    23351    23352 
   23353    23354    23354    23354    23353    23352    23353    23354 
   23354    23353    23352    23352    23353    23354    23355    23356 
   23354    23350    23353    23354    23353    23353    23353    23354 
   23355    23356    23354    23354    23352    23352    23354    23357 
   23356    23353    23354    23356    23355    23354    23354    23351 
   23352    23355    23354    23354    23355    23352    23352    23354 
   23355    23356    23356    23354    23352    23351    23353    23356 
   23356    23355    23355    23356    23356    23355    23353    23354 
   23356    23358    23357    23355    23355    23356    23356    23355 
   23355    23356    23358    23356    23354    23355    23355    23354 
   23355    23353    23352    23357    23357    23353    23354    23356 
   23355    23352    23352    23354    23353    23353    23352    23351 
   23353    23354    23354    23354    23355    23355    23355    23354 
   23351    23351    23352    23353    23354    23354    23353    23350 
   23351    23352    23352    23353    23352    23351    23353    23354 
   23354    23353    23352    23352    23354    23354    23352    23352 
   23353    23354    23353    23351    23351    23352    23353    23354 
   23353    23353    23355    23354    23354    23355    23354    23352 
   23352    23354    23355    23353    23353    23354    23353    23354 
   23355    23352    23352    23354    23355    23354    23353    23352 
   23351    23353    23353    23352    23353    23352    23352    23354 
   23354    23352    23352    23352    23352    23353    23353    23351 
   23351    23353    23353    23354    23354    23353    23354    23354 
   23352    23353    23356    23354    23353    23356    23355    23350 
   23349    23350    23353    23357    23357    23352    23350    23351 
   23352    23350    23353    23355    23350    23351    23356    23355 
   23353    23353    23353    23354    23353    23351    23353    23353 
   23353    23354    23353    23351    23351    23352    23353    23355 
   23355    23355    23355    23353    23352    23353    23351    23350 
   23352    23353    23352    23352    23352    23350    23350    23352 
   23352    23351    23352    23352    23351    23352    23354    23355 
   23353    23352    23352    23351    23351    23351    23349    23350 
   23353    23353    23353    23355    23354    23349    23347    23349 
   23350    23349    23351    23353    23353    23353    23352    23349 
   23348    23349    23348    23349    23350    23350    23351    23352 
   23348    23348    23350    23348    23347    23349    23350    23350 
   23351    23351    23350    23349    23348    23348    23350    23352 
   23352    23351    23350    23350    23351    23351    23351    23350 
   23349    23348    23349    23349    23349    23352    23354    23351 
   23347    23348    23350    23349    23351    23352    23351    23351 
   23351    23351    23353    23355    23353    23350    23348    23347 
   23351    23357    23354    23349    23349    23351    23352    23352 
   23351    23348    23347    23349    23350    23348    23345    23349 
   23354    23352    23349    23351    23351    23349    23352    23353 
   23350    23348    23349    23348    23346    23342    23338    23339 
   23339    23333    23328    23326    23324    23325    23327    23327 
   23326    23326    23329    23332    23335    23337    23338    23339 
   23340    23341    23344    23345    23343    23338    23335    23337 
   23338    23334    23333    23333    23331    23332    23333    23334 
   23336    23335    23336    23336    23335    23336    23338    23337 
   23337    23341    23338    23335    23342    23342    23329    23330 
   23340    23338    23329    23325    23323    23321    23319    23311 
   23302    23297    23291    23287    23287    23285    23284    23286 
   23284    23282    23283    23287    23292    23295    23301    23310 
   23318    23321    23325    23325    23326    23333    23338    23338 
   23341    23347    23351    23355    23358    23362    23366    23370 
   23376    23381    23385    23392    23396    23398    23399    23403 
   23407    23407    23406    23406    23403    23403    23410    23410 
   23400    23394    23392    23391    23389    23379    23370    23369 
   23369    23363    23358    23355    23356    23359    23359    23358 
   23359    23363    23367    23371    23376    23383    23392    23400 
   23409    23417    23422    23429    23437    23444    23448    23453 
   23454    23448    23442    23438    23431    23425    23424    23424 
   23425    23430    23439    23454    23471    23487    23505    23533 
   23559    23575    23587    23598    23594    23585    23574    23553 
   23527    23503    23476    23449    23422    23393    23366    23347 
   23334    23324    23319    23316    23313    23316    23322    23332 
   23348    23367    23391    23419    23444    23471    23500    23527 
   23552    23572    23581    23582    23574    23558    23536    23508 
   23478    23447    23415    23388    23365    23340    23321    23307 
   23293    23282    23271    23255    23241    23231    23221    23212 
   23208    23208    23212    23220    23229    23247    23270    23296 
   23326    23351    23367    23380    23386    23376    23359    23341 
   23319    23294    23267    23240    23217    23191    23159    23132 
   23118    23115    23120    23132    23149    23171    23194    23210 
   23223    23243    23265    23286    23308    23328    23345    23358 
   23365    23370    23370    23358    23341    23321    23303    23288 
   23270    23251    23235    23215    23190    23167    23147    23128 
   23112    23104    23104    23107    23104    23088    23068    23054 
   23045    23044    23055    23077    23107    23143    23182    23222 
   23263    23298    23326    23353    23376    23387    23385    23376 
   23364    23351    23338    23328    23322    23320    23320    23320 
   23321    23323    23325    23329    23336    23347    23357    23366 
   23381    23397    23411    23427    23446    23465    23485    23500 
   23503    23491    23464    23423    23371    23319    23268    23222 
   23190    23176    23176    23191    23216    23250    23290    23326 
   23358    23388    23411    23426    23438    23444    23450    23458 
   23461    23458    23457    23461    23465    23467    23472    23488 
   23508    23527    23544    23554    23563    23578    23593    23608 
   23624    23631    23629    23624    23620    23611    23596    23578 
   23554    23527    23498    23471    23446    23420    23397    23382 
   23371    23364    23362    23358    23354    23357    23370    23389 
   23412    23434    23455    23482    23507    23524    23537    23549 
   23565    23583    23604    23620    23627    23631    23633    23627 
   23608    23581    23553    23528    23504    23481    23457    23425 
   23387    23345    23300    23252    23203    23158    23123    23104 
   23097    23103    23121    23146    23177    23216    23256    23295 
   23336    23378    23417    23446    23460    23455    23425    23372 
   23308    23237    23162    23091    23025    22971    22934    22918 
   22920    22942    22975    23014    23065    23129    23196    23262 
   23328    23392    23448    23487    23506    23504    23486    23458 
   23425    23389    23352    23315    23277    23237    23200    23166 
   23136    23115    23099    23084    23071    23066    23069    23080 
   23100    23127    23169    23226    23288    23343    23390    23435 
   23487    23537    23576    23607    23632    23643    23639    23629 
   23610    23589    23570    23550    23527    23504    23477    23446 
   23415    23390    23364    23329    23286    23242    23207    23188 
   23180    23179    23189    23212    23246    23295    23358    23421 
   23478    23529    23569    23595    23610    23614    23604    23581 
   23542    23488    23423    23352    23281    23218    23164    23119 
   23083    23055    23037    23025    23020    23031    23057    23088 
   23119    23150    23185    23223    23262    23303    23351    23401 
   23448    23489    23524    23550    23563    23558    23534    23490 
   23430    23363    23293    23223    23162    23109    23074    23064 
   23071    23091    23126    23173    23223    23269    23311    23354 
   23394    23426    23456    23483    23500    23505    23501    23492 
   23484    23482    23487    23494    23500    23508    23520    23525 
   23524    23520    23511    23495    23475    23448    23411    23371 
   23336    23310    23297    23296    23301    23308    23316    23326 
   23340    23361    23387    23416    23444    23465    23479    23495 
   23515    23531    23538    23544    23550    23553    23550    23539 
   23522    23498    23470    23442    23413    23382    23353    23327 
   23309    23301    23302    23312    23328    23346    23369    23395 
   23420    23447    23480    23513    23539    23553    23548    23530 
   23503    23470    23433    23397    23359    23324    23299    23276 
   23252    23235    23227    23229    23238    23251    23268    23291 
   23318    23339    23351    23355    23352    23349    23350    23352 
   23352    23346    23335    23324    23308    23289    23277    23271 
   23268    23265    23259    23252    23244    23239    23240    23252 
   23267    23278    23286    23286    23279    23271    23261    23251 
   23251    23260    23271    23280    23285    23282    23277    23275 
   23277    23281    23287    23297    23311    23321    23329    23339 
   23350    23356    23357    23352    23345    23336    23323    23308 
   23292    23275    23262    23253    23254    23266    23284    23303 
   23324    23349    23375    23401    23424    23443    23458    23464 
   23456    23437    23411    23386    23361    23334    23307    23279 
   23248    23219    23196    23180    23173    23175    23181    23187 
   23194    23205    23222    23242    23264    23291    23321    23348 
   23367    23382    23397    23400    23391    23380    23366    23348 
   23339    23340    23344    23352    23361    23366    23377    23398 
   23428    23463    23499    23531    23557    23572    23576    23563 
   23537    23510    23484    23457    23429    23401    23378    23363 
   23353    23343    23331    23319    23313    23310    23310    23316 
   23319    23313    23302    23294    23288    23288    23300    23314 
   23320    23324    23331    23336    23341    23346    23352    23366 
   23387    23409    23431    23452    23467    23475    23476    23475 
   23473    23466    23452    23433    23415    23404    23399    23397 
   23398    23400    23402    23410    23419    23422    23424    23425 
   23427    23435    23442    23448    23457    23467    23480    23490 
   23490    23484    23470    23441    23407    23377    23343    23303 
   23266    23228    23192    23165    23146    23139    23146    23159 
   23175    23194    23214    23234    23255    23282    23315    23343 
   23367    23392    23412    23427    23435    23436    23434    23430 
   23422    23416    23410    23403    23397    23392    23391    23390 
   23393    23397    23397    23392    23388    23388    23392    23398 
   23398    23393    23386    23374    23359    23349    23344    23341 
   23341    23344    23344    23342    23336    23330    23329    23333 
   23338    23344    23353    23361    23362    23358    23360    23368 
   23376    23379    23379    23378    23374    23367    23361    23358 
   23358    23358    23352    23342    23331    23318    23304    23294 
   23286    23282    23281    23282    23290    23306    23326    23346 
   23362    23377    23394    23409    23424    23438    23451    23457 
   23458    23456    23450    23441    23425    23401    23377    23355 
   23335    23320    23309    23298    23288    23279    23272    23268 
   23262    23258    23261    23270    23276    23281    23283    23280 
   23281    23287    23295    23307    23317    23326    23340    23357 
   23369    23377    23384    23391    23395    23400    23401    23396 
   23387    23375    23355    23329    23301    23278    23263    23255 
   23251    23250    23250    23251    23256    23268    23286    23301 
   23315    23333    23348    23359    23370    23377    23379    23379 
   23376    23367    23354    23340    23326    23311    23299    23291 
   23283    23276    23273    23271    23267    23260    23252    23246 
   23241    23241    23250    23267    23288    23310    23329    23347 
   23364    23376    23384    23390    23391    23392    23395    23400 
   23406    23408    23406    23405    23408    23414    23420    23425 
   23432    23441    23445    23446    23441    23428    23410    23388 
   23361    23334    23310    23289    23270    23253    23242    23230 
   23217    23212    23217    23229    23248    23274    23302    23325 
   23344    23365    23386    23400    23406    23405    23404    23405 
