Origin Time       2024/04/02 04:24:00
Lat.              40.133
Long.             141.712
Depth. (km)       71
Mag.              6.0
Station Code      SBSH06
Station Lat.      42.8309
Station Long.     140.4831
Station Height(m) -91
Record Time       2024/04/02 04:25:22
Sampling Freq(Hz) 100Hz
Duration Time(s)  140
Dir.              2
Scale Factor      2940(gal)/6170270
Max. Acc. (gal)   0.396
Last Correction   2024/04/02 04:25:07
Memo.             
[...]
  168920   168940   168955   168965   168979   169003   169035   169071 
  169118   169177   169229   169272   169297   169297   169288   169285 
  169291   169295   169277   169233   169181   169145   169128   169124 
  169128   169133   169134   169128   169118   169105   169088   169078 
  169082   169099   169119   169136   169151   169159   169154   169145 
  169139   169132   169127   169127   169131   169135   169138   169151 
  169180   169211   169241   169276   169318   169360   169395   169432 
  169463   169479   169480   169463   169433   169399   169371   169344 
  169316   169297   169282   169280   169301   169319   169342   169393 
  169450   169500   169552   169598   169640   169676   169692   169705 
  169717   169725   169735   169735   169722   169715   169712   169711 
  169712   169703   169689   169687   169689   169688   169681   169670 
  169664   169669   169686   169706   169710   169698   169677   169641 
  169583   169499   169411   169341   169289   169257   169251   169264 
  169296   169336   169371   169407   169446   169476   169493   169505 
  169512   169510   169488   169454   169421   169402   169393   169377 
  169361   169365   169380   169389   169377   169344   169307   169278 
  169261   169253   169248   169241   169228   169209   169185   169158 
  169136   169124   169105   169076   169058   169044   169025   169022 
  169044   169068   169086   169110   169143   169176   169202   169224 
  169239   169247   169266   169307   169360   169409   169439   169442 
  169427   169409   169387   169347   169301   169263   169228   169183 
  169125   169054   168985   168927   168885   168877   168904   168943 
  168989   169035   169069   169094   169107   169103   169100   169112 
  169136   169175   169230   169288   169336   169375   169397   169390 
  169360   169323   169292   169274   169271   169280   169308   169360 
  169416   169461   169500   169527   169536   169526   169492   169438 
  169377   169310   169228   169140   169062   169001   168962   168949 
  168955   168973   168999   169027   169046   169061   169078   169095 
  169113   169127   169129   169136   169153   169161   169165   169167 
  169156   169148   169153   169150   169142   169136   169117   169092 
  169077   169072   169075   169088   169093   169073   169048   169038 
  169044   169069   169093   169095   169083   169062   169034   169006 
  168979   168954   168942   168952   168980   169021   169074   169123 
  169148   169154   169148   169137   169131   169141   169165   169183 
  169178   169154   169133   169134   169140   169133   169125   169129 
  169141   169167   169207   169242   169271   169290   169294   169301 
  169316   169325   169337   169367   169413   169464   169504   169525 
  169524   169508   169494   169484   169474   169462   169435   169395 
  169349   169305   169288   169300   169316   169339   169361   169373 
  169384   169386   169368   169345   169324   169311   169329   169378 
  169443   169512   169559   169574   169572   169562   169541   169526 
  169534   169558   169586   169610   169624   169617   169579   169519 
  169446   169358   169280   169243   169250   169287   169331   169358 
  169358   169336   169313   169299   169278   169244   169214   169208 
  169219   169229   169228   169216   169198   169177   169151   169126 
  169110   169116   169145   169161   169143   169107   169061   169015 
  168975   168942   168934   168967   169028   169084   169115   169116 
  169102   169089   169063   169011   168946   168885   168836   168812 
  168828   168887   168969   169046   169107   169155   169189   169200 
  169193   169182   169174   169187   169224   169274   169335   169393 
  169442   169483   169512   169529   169526   169501   169454   169393 
  169343   169319   169318   169339   169371   169406   169447   169483 
  169498   169495   169478   169460   169451   169453   169465   169490 
  169531   169577   169619   169664   169707   169750   169795   169824 
  169825   169794   169732   169661   169591   169514   169435   169368 
  169332   169338   169371   169406   169420   169416   169406   169390 
  169363   169328   169304   169295   169291   169295   169306   169317 
  169326   169324   169290   169219   169139   169069   169028   169030 
  169063   169112   169172   169234   169301   169376   169445   169499 
  169538   169571   169608   169647   169682   169694   169656   169581 
  169497   169417   169360   169341   169346   169352   169369   169397 
  169409   169409   169415   169423   169440   169474   169513   169539 
  169538   169520   169496   169468   169459   169479   169505   169518 
  169514   169512   169514   169508   169492   169476   169477   169496 
  169523   169542   169535   169510   169477   169437   169407   169388 
  169367   169362   169369   169380   169408   169425   169402   169365 
  169324   169263   169199   169146   169104   169079   169061   169043 
  169035   169042   169063   169074   169057   169030   169011   169000 
  168980   168939   168899   168884   168887   168892   168886   168868 
  168860   168874   168896   168914   168926   168932   168922   168895 
  168860   168812   168757   168723   168710   168717   168766   168856 
  168952   169017   169032   169005   168962   168922   168891   168864 
  168836   168808   168782   168749   168718   168704   168706   168721 
  168742   168744   168715   168665   168608   168551   168508   168496 
  168510   168556   168637   168729   168815   168894   168957   169010 
  169072   169134   169164   169159   169135   169094   169048   169014 
  169000   169009   169049   169104   169147   169177   169202   169225 
  169232   169217   169201   169188   169174   169176   169204   169242 
  169276   169302   169322   169345   169359   169342   169299   169250 
  169210   169189   169202   169247   169304   169356   169385   169388 
  169391   169403   169414   169425   169436   169440   169439   169436 
  169426   169410   169399   169397   169411   169452   169508   169547 
  169569   169579   169575   169565   169546   169515   169471   169408 
  169329   169246   169181   169153   169155   169167   169167   169151 
  169138   169128   169103   169073   169063   169084   169130   169185 
  169247   169320   169382   169428   169465   169483   169468   169444 
  169428   169399   169347   169285   169221   169174   169183   169246 
  169328   169407   169484   169551   169594   169609   169607   169604 
  169602   169586   169546   169491   169439   169395   169361   169339 
  169326   169332   169345   169332   169284   169213   169145   169097 
  169078   169097   169154   169240   169356   169485   169608   169718 
  169814   169890   169931   169924   169868   169780   169678   169585 
  169520   169488   169502   169550   169615   169693   169772   169837 
  169879   169889   169870   169849   169833   169807   169770   169730 
  169701   169692   169687   169654   169606   169562   169518   169463 
  169401   169339   169273   169207   169151   169108   169088   169089 
  169098   169115   169146   169185   169221   169247   169248   169225 
  169192   169149   169107   169086   169083   169095   169125   169159 
  169183   169199   169212   169215   169195   169154   169108   169064 
  169017   168968   168929   168904   168879   168844   168802   168754 
  168715   168706   168728   168773   168820   168857   168896   168933 
  168962   168996   169033   169063   169089   169116   169140   169155 
  169154   169143   169142   169152   169172   169198   169221   169237 
  169242   169233   169215   169206   169220   169264   169327   169387 
  169415   169412   169395   169366   169330   169306   169287   169256 
  169220   169200   169205   169227   169260   169302   169354   169419 
  169490   169543   169572   169597   169621   169625   169618   169615 
  169604   169587   169573   169566   169581   169621   169660   169678 
  169670   169625   169556   169486   169418   169352   169307   169292 
  169298   169320   169350   169368   169371   169365   169342   169305 
  169265   169240   169242   169262   169289   169320   169351   169365 
  169355   169329   169304   169285   169266   169242   169199   169148 
  169117   169112   169131   169158   169173   169176   169171   169164 
  169160   169159   169163   169158   169132   169089   169033   168968 
  168913   168871   168828   168780   168750   168751   168780   168830 
  168894   168962   169026   169076   169113   169130   169116   169088 
  169067   169059   169082   169138   169201   169243   169252   169234 
  169194   169129   169055   168983   168936   168940   168976   169027 
  169090   169134   169142   169138   169132   169121   169113   169103 
  169072   169024   168988   168975   168991   169040   169102   169161 
  169222   169290   169350   169396   169429   169446   169467   169503 
  169519   169503   169471   169432   169404   169414   169458   169522 
  169588   169626   169617   169568   169500   169434   169378   169328 
  169280   169246   169241   169253   169261   169261   169258   169245 
  169218   169181   169140   169120   169126   169140   169167   169207 
  169248   169278   169299   169317   169340   169376   169415   169441 
  169451   169446   169420   169361   169278   169197   169146   169137 
  169154   169173   169177   169170   169169   169158   169117   169070 
  169035   169011   169013   169041   169071   169107   169148   169180 
  169202   169217   169227   169234   169230   169214   169200   169192 
  169190   169188   169188   169196   169209   169228   169259   169300 
  169344   169389   169450   169519   169572   169604   169602   169560 
  169505   169456   169412   169364   169306   169249   169209   169187 
  169185   169190   169183   169171   169152   169117   169075   169043 
  169033   169041   169048   169054   169073   169113   169170   169245 
  169332   169409   169463   169495   169495   169459   169405   169340 
  169272   169211   169158   169127   169144   169209   169289   169352 
  169387   169395   169372   169331   169288   169251   169233   169228 
  169224   169221   169221   169214   169205   169210   169233   169271 
  169311   169341   169349   169327   169285   169246   169223   169220 
  169231   169253   169285   169319   169350   169369   169365   169324 
  169245   169159   169087   169024   168973   168930   168888   168862 
  168862   168892   168956   169040   169111   169157   169178   169179 
  169186   169211   169245   169281   169324   169366   169400   169428 
  169452   169463   169465   169472   169484   169497   169512   169517 
  169502   169475   169453   169433   169415   169410   169429   169470 
  169521   169557   169566   169548   169517   169487   169462   169429 
  169386   169338   169284   169227   169172   169130   169113   169111 
  169126   169158   169193   169233   169273   169314   169360   169397 
  169419   169440   169464   169480   169468   169416   169340   169273 
  169235   169225   169237   169252   169271   169285   169264   169226 
  169217   169243   169286   169333   169375   169423   169485   169539 
  169576   169620   169673   169713   169731   169719   169689   169660 
  169623   169578   169543   169524   169519   169526   169527   169512 
  169493   169481   169466   169437   169412   169420   169452   169476 
  169470   169430   169378   169340   169322   169311   169309   169319 
  169330   169345   169364   169366   169351   169339   169331   169327 
  169330   169329   169318   169312   169317   169324   169315   169296 
  169295   169309   169314   169298   169259   169202   169135   169075 
  169035   169014   169010   169016   169019   169009   168982   168950 
  168923   168908   168908   168912   168906   168884   168852   168833 
  168835   168855   168886   168919   168956   168996   169031   169058 
  169063   169040   169004   168970   168946   168945   168963   168985 
  168999   169008   169011   169007   168990   168962   168937   168917 
  168906   168903   168902   168899   168892   168889   168897   168892 
  168872   168865   168870   168880   168907   168937   168953   168958 
  168961   168965   168978   169011   169050   169082   169107   169121 
  169129   169147   169170   169189   169218   169254   169288   169320 
  169347   169360   169356   169351   169359   169372   169379   169386 
  169396   169406   169411   169419   169436   169451   169451   169437 
  169424   169432   169461   169483   169475   169454   169438   169423 
  169409   169402   169410   169435   169473   169516   169549   169552 
  169526   169480   169416   169341   169281   169258   169267   169290 
  169308   169316   169322   169324   169328   169351   169378   169375 
  169349   169321   169296   169265   169228   169201   169184   169166 
  169148   169124   169090   169049   169009   168979   168974   168987 
  169006   169023   169030   169031   169039   169054   169072   169091 
  169109   169131   169157   169167   169158   169148   169140   169123 
  169092   169043   168986   168940   168917   168913   168918   168928 
  168953   168998   169047   169090   169125   169156   169179   169185 
  169174   169156   169149   169146   169133   169115   169109   169128 
  169170   169222   169285   169362   169427   169465   169491   169511 
  169520   169527   169543   169567   169610   169662   169695   169709 
  169710   169699   169694   169694   169689   169690   169716   169769 
  169828   169886   169940   169980   170008   170037   170066   170087 
  170091   170070   170034   169984   169911   169822   169734   169652 
  169568   169481   169404   169355   169336   169328   169331   169347 
  169363   169383   169398   169395   169396   169421   169461   169505 
  169549   169583   169610   169628   169624   169602   169576   169542 
  169504   169474   169450   169436   169441   169451   169449   169425 
  169381   169325   169270   169221   169178   169146   169120   169094 
  169063   169037   169021   169012   169007   168998   168986   168979 
  168974   168965   168949   168923   168908   168922   168958   169002 
  169056   169124   169198   169259   169307   169345   169363   169367 
  169379   169393   169399   169402   169409   169409   169396   169367 
  169324   169283   169247   169208   169165   169113   169048   168988 
  168954   168956   168984   169021   169068   169121   169159   169172 
  169162   169130   169073   169012   168971   168947   168941   168956 
  168977   169000   169028   169047   169052   169054   169066   169082 
  169094   169097   169101   169107   169106   169095   169077   169055 
  169036   169024   169019   169018   169020   169019   169004   168987 
  168986   169000   169026   169056   169080   169107   169142   169184 
  169240   169295   169322   169313   169281   169241   169207   169184 
  169164   169163   169198   169251   169292   169303   169280   169236 
  169204   169191   169186   169193   169210   169213   169198   169171 
  169133   169091   169059   169040   169033   169036   169051   169079 
  169108   169135   169149   169151   169160   169184   169216   169256 
  169298   169341   169383   169420   169461   169502   169523   169533 
  169543   169535   169504   169468   169432   169383   169305   169201 
  169081   168957   168852   168778   168725   168696   168700   168725 
  168762   168815   168875   168911   168917   168917   168911   168893 
  168882   168879   168879   168899   168937   168982   169038   169105 
  169169   169221   169256   169266   169245   169212   169200   169214 
  169258   169323   169392   169479   169572   169641   169690   169716 
  169715   169700   169674   169657   169659   169653   169646   169655 
  169667   169678   169693   169700   169701   169706   169717   169733 
  169735   169711   169681   169663   169644   169631   169631   169640 
  169655   169662   169656   169647   169623   169592   169575   169562 
  169558   169573   169583   169586   169589   169592   169593   169583 
  169563   169535   169496   169448   169394   169328   169260   169195 
  169129   169071   169018   168961   168916   168893   168888   168896 
  168913   168941   168972   169009   169052   169087   169113   169130 
  169131   169123   169103   169070   169051   169052   169055   169056 
  169058   169060   169058   169062   169083   169113   169143   169176 
  169207   169227   169228   169208   169174   169141   169110   169078 
  169057   169061   169083   169116   169166   169231   169301   169356 
  169379   169370   169335   169283   169241   169223   169231   169261 
  169305   169360   169412   169436   169438   169438   169437   169435 
  169444   169459   169474   169484   169480   169462   169439   169420 
  169409   169390   169362   169340   169306   169249   169192   169144 
  169103   169076   169056   169044   169050   169064   169083   169115 
  169146   169161   169163   169164   169162   169151   169132   169109 
  169083   169060   169048   169037   169026   169014   168989   168962 
  168948   168944   168954   168974   168999   169038   169072   169090 
  169105   169112   169111   169121   169144   169168   169184   169184 
  169167   169143   169127   169121   169120   169118   169122   169140 
  169170   169212   169262   169305   169337   169371   169408   169440 
  169472   169510   169559   169609   169642   169663   169677   169676 
  169662   169648   169627   169587   169534   169482   169435   169399 
  169381   169376   169377   169386   169392   169390   169391   169396 
  169396   169390   169389   169391   169399   169418   169437   169452 
  169460   169457   169451   169449   169449   169452   169464   169477 
  169476   169462   169445   169434   169428   169425   169422   169414 
  169407   169410   169412   169404   169389   169367   169355   169357 
  169348   169325   169314   169319   169325   169315   169297   169285 
  169270   169252   169248   169248   169231   169191   169148   169106 
  169068   169046   169030   169004   168972   168944   168922   168913 
  168919   168928   168920   168900   168887   168883   168877   168873 
  168874   168880   168893   168907   168918   168927   168942   168960 
  168974   168979   168960   168922   168898   168888   168877   168868 
  168859   168845   168841   168848   168861   168894   168954   169025 
  169087   169132   169171   169210   169250   169286   169313   169329 
  169326   169307   169290   169273   169270   169291   169315   169340 
  169378   169414   169455   169505   169533   169541   169546   169541 
  169541   169560   169580   169596   169610   169605   169583   169552 
  169514   169477   169444   169414   169394   169374   169348   169331 
  169319   169314   169318   169325   169335   169349   169363   169384 
  169405   169419   169427   169424   169401   169367   169332   169306 
  169295   169292   169290   169288   169285   169288   169292   169282 
  169257   169227   169196   169161   169127   169095   169056   169020 
  168996   168984   168976   168968   168960   168963   168974   168982 
  168986   168992   168999   169010   169023   169033   169042   169046 
  169040   169034   169028   169020   169024   169035   169054   169094 
  169144   169192   169244   169287   169309   169319   169323   169324 
  169321   169313   169304   169295   169282   169259   169225   169191 
  169166   169152   169146   169143   169147   169160   169169   169183 
