Origin Time       2024/04/02 04:24:00
Lat.              40.133
Long.             141.712
Depth. (km)       71
Mag.              6.0
Station Code      SBSH06
Station Lat.      42.8309
Station Long.     140.4831
Station Height(m) 39
Record Time       2024/04/02 04:25:22
Sampling Freq(Hz) 100Hz
Duration Time(s)  140
Dir.              5
Scale Factor      3920(gal)/6170801
Max. Acc. (gal)   0.638
Last Correction   2024/04/02 04:25:07
Memo.             
[...]
  -10364   -10408   -10448   -10480   -10502   -10514   -10516   -10514 
  -10511   -10517   -10542   -10574   -10594   -10602   -10593   -10564 
  -10522   -10472   -10436   -10442   -10499   -10595   -10699   -10778 
  -10817   -10823   -10814   -10805   -10796   -10774   -10735   -10686 
  -10644   -10636   -10667   -10712   -10749   -10762   -10741   -10700 
  -10668   -10655   -10652   -10637   -10596   -10543   -10499   -10467 
  -10443   -10425   -10401   -10373   -10359   -10361   -10380   -10408 
  -10424   -10427   -10436   -10454   -10478   -10512   -10555   -10595 
  -10616   -10617   -10611   -10609   -10597   -10566   -10526   -10493 
  -10469   -10451   -10433   -10419   -10417   -10430   -10462   -10514 
  -10574   -10632   -10671   -10684   -10675   -10661   -10661   -10681 
  -10706   -10725   -10736   -10735   -10732   -10742   -10761   -10778 
  -10781   -10760   -10710   -10650   -10595   -10545   -10505   -10475 
  -10445   -10428   -10444   -10488   -10538   -10571   -10571   -10542 
  -10498   -10457   -10433   -10422   -10414   -10409   -10414   -10428 
  -10445   -10458   -10470   -10495   -10545   -10606   -10663   -10714 
  -10764   -10809   -10838   -10848   -10853   -10866   -10879   -10880 
  -10869   -10861   -10865   -10878   -10882   -10864   -10830   -10800 
  -10783   -10770   -10755   -10737   -10725   -10724   -10722   -10712 
  -10693   -10665   -10630   -10597   -10578   -10582   -10602   -10614 
  -10597   -10560   -10518   -10483   -10463   -10459   -10462   -10468 
  -10490   -10536   -10585   -10614   -10620   -10598   -10545   -10484 
  -10439   -10423   -10429   -10440   -10454   -10479   -10505   -10513 
  -10499   -10470   -10425   -10384   -10368   -10384   -10425   -10476 
  -10519   -10558   -10597   -10625   -10640   -10655   -10665   -10663 
  -10651   -10645   -10652   -10668   -10694   -10728   -10757   -10767 
  -10754   -10717   -10670   -10643   -10645   -10638   -10599   -10552 
  -10511   -10471   -10454   -10466   -10478   -10491   -10526   -10574 
  -10620   -10651   -10658   -10647   -10631   -10620   -10616   -10619 
  -10626   -10632   -10630   -10616   -10594   -10579   -10576   -10579 
  -10588   -10604   -10616   -10621   -10625   -10631   -10640   -10652 
  -10661   -10661   -10656   -10656   -10665   -10673   -10661   -10619 
  -10544   -10450   -10364   -10310   -10293   -10307   -10338   -10370 
  -10387   -10390   -10389   -10379   -10355   -10321   -10287   -10269 
  -10280   -10314   -10353   -10381   -10395   -10406   -10430   -10464 
  -10496   -10520   -10541   -10560   -10579   -10605   -10639   -10685 
  -10736   -10763   -10757   -10732   -10692   -10641   -10590   -10551 
  -10525   -10502   -10490   -10500   -10519   -10531   -10545   -10567 
  -10594   -10630   -10680   -10731   -10766   -10784   -10784   -10763 
  -10732   -10700   -10660   -10605   -10543   -10484   -10446   -10443 
  -10463   -10488   -10507   -10508   -10499   -10496   -10504   -10526 
  -10559   -10591   -10606   -10599   -10575   -10541   -10511   -10487 
  -10467   -10439   -10397   -10358   -10332   -10316   -10317   -10340 
  -10382   -10440   -10508   -10578   -10645   -10702   -10735   -10733 
  -10703   -10659   -10601   -10542   -10493   -10451   -10413   -10385 
  -10375   -10390   -10416   -10432   -10440   -10439   -10431   -10434 
  -10458   -10496   -10549   -10610   -10663   -10701   -10724   -10731 
  -10735   -10750   -10785   -10836   -10890   -10931   -10952   -10956 
  -10957   -10957   -10946   -10913   -10869   -10818   -10760   -10701 
  -10656   -10628   -10610   -10597   -10591   -10598   -10619   -10651 
  -10692   -10734   -10754   -10740   -10702   -10654   -10610   -10576 
  -10560   -10568   -10592   -10620   -10647   -10663   -10656   -10636 
  -10617   -10599   -10587   -10594   -10620   -10658   -10705   -10744 
  -10768   -10789   -10818   -10852   -10887   -10916   -10927   -10902 
  -10839   -10750   -10641   -10529   -10443   -10392   -10368   -10354 
  -10330   -10285   -10217   -10141   -10072   -10020    -9990    -9993 
  -10027   -10086   -10170   -10269   -10364   -10432   -10464   -10470 
  -10470   -10477   -10496   -10513   -10518   -10517   -10514   -10509 
  -10519   -10553   -10596   -10635   -10664   -10668   -10649   -10615 
  -10568   -10514   -10466   -10442   -10446   -10465   -10481   -10482 
  -10483   -10495   -10519   -10563   -10618   -10661   -10679   -10677 
  -10663   -10649   -10647   -10663   -10690   -10721   -10753   -10785 
  -10798   -10782   -10739   -10671   -10606   -10572   -10550   -10521 
  -10494   -10473   -10470   -10499   -10548   -10604   -10659   -10697 
  -10715   -10723   -10721   -10711   -10703   -10697   -10698   -10710 
  -10731   -10752   -10753   -10725   -10686   -10654   -10638   -10649 
  -10681   -10707   -10713   -10709   -10699   -10691   -10681   -10662 
  -10646   -10634   -10613   -10582   -10545   -10497   -10440   -10400 
  -10391   -10399   -10414   -10432   -10444   -10442   -10435   -10439 
  -10453   -10471   -10497   -10532   -10577   -10627   -10665   -10685 
  -10695   -10697   -10693   -10690   -10697   -10713   -10727   -10735 
  -10748   -10767   -10783   -10788   -10780   -10769   -10768   -10770 
  -10768   -10764   -10757   -10750   -10759   -10772   -10761   -10726 
  -10676   -10608   -10531   -10460   -10389   -10313   -10237   -10164 
  -10101   -10067   -10057   -10057   -10056   -10050   -10040   -10027 
  -10006    -9988    -9983    -9987    -9995   -10008   -10030   -10059 
  -10081   -10099   -10130   -10164   -10191   -10201   -10181   -10148 
  -10122   -10110   -10120   -10158   -10221   -10305   -10392   -10477 
  -10553   -10610   -10649   -10665   -10658   -10644   -10629   -10609 
  -10590   -10578   -10580   -10599   -10636   -10686   -10737   -10782 
  -10811   -10810   -10783   -10738   -10686   -10648   -10644   -10669 
  -10708   -10752   -10800   -10842   -10875   -10901   -10917   -10921 
  -10912   -10889   -10872   -10886   -10934   -11007   -11077   -11103 
  -11078   -11010   -10907   -10793   -10691   -10607   -10538   -10490 
  -10465   -10446   -10428   -10409   -10391   -10379   -10376   -10393 
  -10441   -10511   -10584   -10649   -10700   -10735   -10766   -10802 
  -10835   -10847   -10830   -10783   -10719   -10653   -10590   -10521 
  -10437   -10348   -10261   -10179   -10105   -10047   -10020   -10035 
  -10095   -10187   -10289   -10397   -10509   -10621   -10723   -10809 
  -10865   -10896   -10911   -10912   -10916   -10936   -10969   -11001 
  -11010   -10983   -10933   -10883   -10845   -10818   -10788   -10754 
  -10730   -10733   -10771   -10829   -10886   -10936   -10983   -11026 
  -11055   -11060   -11046   -11024   -10988   -10930   -10866   -10813 
  -10766   -10725   -10696   -10668   -10640   -10621   -10607   -10584 
  -10554   -10519   -10486   -10467   -10471   -10488   -10514   -10556 
  -10616   -10683   -10750   -10798   -10816   -10821   -10832   -10847 
  -10854   -10849   -10837   -10832   -10832   -10828   -10825   -10835 
  -10848   -10857   -10863   -10859   -10836   -10800   -10762   -10725 
  -10692   -10663   -10632   -10600   -10566   -10521   -10460   -10401 
  -10365   -10357   -10372   -10417   -10488   -10556   -10609   -10658 
  -10704   -10748   -10794   -10830   -10834   -10795   -10723   -10637 
  -10562   -10517   -10508   -10521   -10536   -10550   -10560   -10564 
  -10553   -10525   -10488   -10449   -10414   -10399   -10404   -10413 
  -10415   -10406   -10382   -10349   -10322   -10302   -10286   -10265 
  -10228   -10168   -10107   -10063   -10033   -10005    -9981    -9969 
   -9979   -10031   -10131   -10260   -10392   -10510   -10605   -10676 
  -10728   -10759   -10762   -10732   -10672   -10584   -10477   -10364 
  -10254   -10156   -10080   -10032   -10014   -10031   -10076   -10131 
  -10174   -10201   -10224   -10247   -10265   -10268   -10256   -10245 
  -10255   -10288   -10330   -10373   -10410   -10443   -10480   -10518 
  -10542   -10545   -10533   -10516   -10501   -10496   -10506   -10533 
  -10565   -10593   -10616   -10637   -10649   -10656   -10660   -10655 
  -10644   -10648   -10673   -10702   -10723   -10733   -10731   -10723 
  -10721   -10728   -10726   -10696   -10645   -10595   -10544   -10488 
  -10443   -10431   -10458   -10512   -10575   -10622   -10644   -10650 
  -10646   -10646   -10671   -10725   -10799   -10874   -10940   -10991 
  -11023   -11045   -11063   -11062   -11035   -10997   -10963   -10938 
  -10915   -10885   -10837   -10767   -10687   -10617   -10569   -10540 
  -10511   -10458   -10379   -10288   -10209   -10166   -10179   -10248 
  -10353   -10471   -10577   -10655   -10716   -10781   -10856   -10938 
  -11025   -11104   -11154   -11165   -11123   -11022   -10874   -10706 
  -10558   -10458   -10412   -10415   -10433   -10431   -10392   -10310 
  -10194   -10085   -10022   -10008   -10029   -10081   -10161   -10255 
  -10341   -10419   -10492   -10552   -10586   -10585   -10546   -10480 
  -10396   -10301   -10215   -10161   -10142   -10160   -10219   -10328 
  -10485   -10665   -10831   -10962   -11047   -11085   -11091   -11077 
  -11046   -11013   -10995   -10994   -11005   -11029   -11055   -11064 
  -11048   -11021   -11001   -11002   -11022   -11056   -11092   -11109 
  -11091   -11042   -10975   -10906   -10851   -10806   -10766   -10740 
  -10722   -10703   -10684   -10669   -10651   -10617   -10545   -10435 
  -10313   -10209   -10145   -10130   -10168   -10257   -10374   -10495 
  -10599   -10662   -10672   -10641   -10581   -10515   -10463   -10437 
  -10446   -10467   -10472   -10458   -10430   -10402   -10396   -10419 
  -10451   -10468   -10465   -10454   -10435   -10411   -10393   -10387 
  -10384   -10387   -10411   -10455   -10502   -10529   -10528   -10500 
  -10446   -10376   -10320   -10299   -10307   -10328   -10354   -10383 
  -10408   -10429   -10443   -10444   -10444   -10469   -10516   -10565 
  -10610   -10646   -10649   -10621   -10594   -10582   -10584   -10605 
  -10645   -10687   -10717   -10733   -10723   -10669   -10572   -10458 
  -10355   -10292   -10289   -10343   -10417   -10468   -10457   -10373 
  -10242   -10112   -10023    -9998   -10044   -10153   -10312   -10494 
  -10652   -10752   -10776   -10725   -10636   -10570   -10556   -10591 
  -10657   -10734   -10815   -10896   -10968   -11021   -11049   -11055 
  -11058   -11058   -11046   -11022   -10992   -10955   -10915   -10887 
  -10884   -10912   -10976   -11072   -11171   -11249   -11303   -11325 
  -11288   -11182   -11027   -10862   -10742   -10692   -10691   -10712 
  -10740   -10745   -10708   -10635   -10537   -10410   -10249   -10075 
   -9940    -9891    -9939   -10059   -10213   -10367   -10491   -10559 
  -10567   -10545   -10503   -10417   -10284   -10137   -10013    -9938 
   -9924    -9969   -10045   -10122   -10186   -10218   -10207   -10173 
  -10120   -10041    -9957    -9905    -9904    -9974   -10113   -10295 
  -10486   -10648   -10746   -10774   -10741   -10651   -10522   -10376 
  -10230   -10117   -10080   -10120   -10218   -10329   -10409   -10440 
  -10432   -10415   -10433   -10518   -10672   -10850   -10976   -11025 
  -11027   -11017   -11013   -11024   -11035   -11026   -10998   -10953 
  -10882   -10791   -10706   -10641   -10601   -10585   -10580   -10580 
  -10592   -10622   -10666   -10702   -10698   -10629   -10500   -10348 
  -10216   -10127   -10086   -10078   -10078   -10080   -10087   -10095 
  -10095   -10071   -10007    -9909    -9830    -9817    -9867    -9952 
  -10037   -10087   -10103   -10120   -10181   -10289   -10410   -10504 
  -10555   -10568   -10557   -10535   -10504   -10464   -10435   -10439 
  -10471   -10515   -10564   -10595   -10576   -10505   -10400   -10279 
  -10180   -10135   -10157   -10250   -10393   -10544   -10687   -10813 
  -10910   -10989   -11068   -11152   -11222   -11261   -11269   -11239 
  -11154   -11024   -10892   -10798   -10767   -10810   -10918   -11039 
  -11110   -11104   -11035   -10932   -10826   -10745   -10688   -10646 
  -10628   -10645   -10708   -10810   -10928   -11038   -11138   -11238 
  -11321   -11357   -11345   -11300   -11221   -11124   -11028   -10944 
  -10874   -10828   -10801   -10781   -10758   -10740   -10738   -10762 
  -10815   -10886   -10963   -11029   -11059   -11039   -10988   -10957 
  -10984   -11062   -11140   -11151   -11063   -10905   -10745   -10648 
  -10636   -10692   -10775   -10845   -10880   -10879   -10864   -10864 
  -10879   -10901   -10928   -10966   -11005   -11026   -11018   -10970 
  -10881   -10785   -10710   -10660   -10637   -10638   -10649   -10665 
  -10690   -10724   -10758   -10780   -10787   -10780   -10750   -10680 
  -10565   -10416   -10270   -10159   -10093   -10074   -10096   -10139 
  -10188   -10239   -10277   -10277   -10221   -10114    -9989    -9895 
   -9855    -9874    -9945   -10044   -10145   -10231   -10291   -10314 
  -10290   -10223   -10137   -10059   -10016   -10025   -10086   -10187 
  -10305   -10426   -10536   -10616   -10661   -10689   -10715   -10733 
  -10732   -10717   -10711   -10724   -10734   -10724   -10702   -10677 
  -10659   -10649   -10638   -10629   -10645   -10703   -10792   -10906 
  -11036   -11167   -11272   -11320   -11303   -11258   -11224   -11219 
  -11232   -11248   -11240   -11199   -11135   -11063   -10967   -10815 
  -10606   -10371   -10142    -9949    -9814    -9743    -9736    -9785 
   -9877   -10001   -10152   -10306   -10417   -10446   -10387   -10259 
  -10099    -9951    -9841    -9763    -9702    -9649    -9599    -9573 
   -9597    -9658    -9736    -9820    -9894    -9936    -9935    -9896 
   -9845    -9841    -9924   -10077   -10267   -10465   -10625   -10710 
  -10715   -10662   -10565   -10439   -10298   -10157   -10035    -9950 
   -9941   -10031   -10192   -10366   -10512   -10615   -10679   -10716 
  -10735   -10746   -10747   -10724   -10687   -10670   -10699   -10781 
  -10900   -11019   -11104   -11157   -11179   -11160   -11109   -11044 
  -10975   -10912   -10867   -10833   -10794   -10762   -10747   -10750 
  -10789   -10867   -10953   -11015   -11027   -10984   -10912   -10836 
  -10763   -10708   -10685   -10683   -10685   -10695   -10728   -10776 
  -10809   -10812   -10796   -10779   -10779   -10811   -10862   -10902 
  -10906   -10863   -10783   -10693   -10608   -10531   -10476   -10455 
  -10471   -10524   -10600   -10682   -10748   -10758   -10682   -10536 
  -10358   -10187   -10066   -10016   -10017   -10050   -10114   -10193 
  -10275   -10365   -10448   -10509   -10577   -10674   -10793   -10929 
  -11066   -11167   -11211   -11210   -11192   -11179   -11181   -11182 
  -11158   -11095   -10983   -10812   -10602   -10404   -10257   -10167 
  -10122   -10112   -10131   -10162   -10199   -10251   -10304   -10321 
  -10280   -10193   -10093   -10010    -9947    -9900    -9876    -9884 
   -9918    -9964   -10017   -10081   -10153   -10213   -10239   -10244 
  -10248   -10248   -10231   -10203   -10183   -10209   -10310   -10479 
  -10674   -10845   -10972   -11056   -11102   -11112   -11091   -11045 
  -10978   -10906   -10849   -10817   -10800   -10776   -10729   -10651 
  -10557   -10475   -10415   -10378   -10363   -10378   -10425   -10494 
  -10564   -10616   -10650   -10694   -10780   -10903   -11003   -11034 
  -10998   -10928   -10869   -10851   -10880   -10934   -10975   -10967 
  -10913   -10850   -10816   -10811   -10816   -10820   -10832   -10862 
  -10907   -10943   -10940   -10876   -10752   -10601   -10468   -10388 
  -10367   -10390   -10436   -10503   -10592   -10691   -10782   -10840 
  -10845   -10792   -10683   -10547   -10428   -10366   -10385   -10477 
  -10608   -10744   -10850   -10905   -10908   -10871   -10799   -10707 
  -10617   -10551   -10522   -10526   -10551   -10588   -10637   -10690 
  -10732   -10750   -10731   -10684   -10624   -10555   -10485   -10426 
  -10370   -10322   -10299   -10292   -10284   -10278   -10291   -10313 
  -10317   -10309   -10306   -10304   -10283   -10246   -10213   -10207 
  -10248   -10346   -10475   -10582   -10636   -10638   -10606   -10563 
  -10519   -10496   -10521   -10596   -10699   -10827   -10983   -11129 
  -11211   -11196   -11085   -10915   -10754   -10656   -10640   -10673 
  -10711   -10729   -10715   -10661   -10583   -10500   -10424   -10372 
  -10365   -10418   -10522   -10643   -10740   -10795   -10804   -10772 
  -10722   -10668   -10624   -10616   -10642   -10671   -10673   -10645 
  -10596   -10538   -10488   -10452   -10425   -10409   -10389   -10334 
  -10246   -10158   -10096   -10074   -10105   -10186   -10297   -10417 
  -10527   -10615   -10671   -10692   -10695   -10693   -10683   -10651 
  -10589   -10517   -10469   -10465   -10515   -10610   -10719   -10807 
  -10870   -10923   -10965   -10999   -11028   -11035   -11010   -10970 
  -10930   -10896   -10874   -10862   -10858   -10847   -10811   -10753 
  -10690   -10649   -10637   -10621   -10569   -10478   -10352   -10210 
  -10079    -9983    -9934    -9931    -9962   -10033   -10163   -10353 
  -10563   -10732   -10808   -10769   -10639   -10484   -10368   -10330 
  -10376   -10475   -10581   -10659   -10698   -10708   -10688   -10637 
  -10566   -10489   -10415   -10361   -10337   -10326   -10309   -10285 
  -10264   -10259   -10278   -10328   -10424   -10558   -10683   -10752 
  -10748   -10680   -10589   -10527   -10520   -10568   -10653   -10731 
  -10765   -10765   -10769   -10797   -10849   -10913   -10962   -10957 
  -10886   -10775   -10655   -10553   -10481   -10426   -10368   -10309 
  -10271   -10268   -10300   -10353   -10420   -10498   -10568   -10630 
  -10698   -10752   -10755   -10702   -10611   -10516   -10458   -10454 
  -10501   -10579   -10654   -10682   -10626   -10502   -10365   -10247 
  -10156   -10104   -10095   -10118   -10157   -10208   -10274   -10362 
  -10482   -10638   -10813   -10980   -11097   -11132   -11087   -10988 
  -10863   -10743   -10652   -10594   -10567   -10576   -10596   -10591 
  -10547   -10468   -10380   -10320   -10304   -10323   -10351   -10351 
  -10303   -10222   -10137   -10082   -10088   -10146   -10203   -10219 
  -10208   -10203   -10220   -10236   -10238   -10236   -10220   -10173 
  -10108   -10055   -10037   -10072   -10154   -10257   -10356   -10429 
  -10449   -10413   -10347   -10280   -10253   -10302   -10416   -10556 
  -10703   -10846   -10954   -11002   -10983   -10915   -10836   -10772 
  -10729   -10703   -10681   -10651   -10613   -10582   -10566   -10573 
  -10595   -10620   -10647   -10679   -10718   -10767   -10813   -10836 
  -10828   -10791   -10745   -10717   -10723   -10758   -10789   -10788 
  -10762   -10745   -10769   -10839   -10928   -11017   -11098   -11157 
  -11180   -11180   -11182   -11189   -11200   -11208   -11199   -11171 
  -11148   -11140   -11152   -11172   -11177   -11157   -11128   -11102 
  -11092   -11110   -11145   -11163   -11138   -11070   -10980   -10903 
  -10868   -10877   -10896   -10888   -10849   -10813   -10801   -10804 
  -10804   -10792   -10766   -10729   -10682   -10629   -10577   -10531 
  -10482   -10408   -10296   -10159   -10033    -9969    -9989   -10047 
  -10100   -10139   -10160   -10167   -10182   -10224   -10276   -10312 
  -10322   -10311   -10295   -10301   -10350   -10429   -10505   -10535 
  -10490   -10381   -10256   -10151   -10083   -10053   -10052   -10068 
