Origin Time       2024/04/02 04:24:00
Lat.              40.133
Long.             141.712
Depth. (km)       71
Mag.              6.0
Station Code      SBSH07
Station Lat.      42.7630
Station Long.     140.8084
Station Height(m) 128
Record Time       2024/04/02 04:25:20
Sampling Freq(Hz) 100Hz
Duration Time(s)  160
Dir.              3
Scale Factor      3923(gal)/8224838
Max. Acc. (gal)   0.807
Last Correction   2024/04/02 04:25:21
Memo.             
[...]
   20320    20264    20210    20197    20235    20298    20352    20383 
   20410    20441    20461    20461    20455    20451    20459    20484 
   20513    20526    20538    20561    20595    20641    20682    20691 
   20676    20668    20660    20636    20603    20563    20510    20452 
   20412    20403    20414    20422    20429    20445    20468    20486 
   20474    20440    20428    20449    20463    20457    20443    20426 
   20426    20445    20433    20370    20297    20244    20198    20159 
   20123    20075    20035    20012    19988    19957    19928    19916 
   19930    19961    19996    20029    20056    20065    20036    19982 
   19939    19931    19946    19975    20019    20067    20115    20154 
   20170    20179    20194    20210    20225    20240    20259    20278 
   20286    20287    20305    20351    20401    20437    20468    20501 
   20517    20506    20480    20471    20471    20478    20507    20537 
   20545    20551    20568    20603    20653    20687    20675    20633 
   20594    20555    20507    20483    20482    20479    20482    20493 
   20471    20407    20336    20281    20232    20183    20143    20115 
   20112    20136    20163    20179    20190    20200    20202    20187 
   20173    20177    20173    20144    20127    20142    20160    20159 
   20154    20158    20166    20183    20214    20239    20258    20283 
   20316    20353    20393    20436    20476    20487    20476    20482 
   20501    20517    20532    20556    20591    20615    20618    20607 
   20587    20553    20522    20503    20475    20440    20436    20466 
   20486    20491    20502    20506    20505    20513    20525    20517 
   20498    20484    20464    20425    20379    20349    20344    20348 
   20340    20317    20293    20258    20213    20179    20159    20133 
   20094    20054    20024    20009    20000    19982    19951    19917 
   19896    19896    19893    19862    19824    19809    19823    19858 
   19912    19977    20034    20063    20061    20036    20015    20013 
   20043    20092    20137    20166    20175    20169    20148    20117 
   20094    20089    20098    20125    20160    20186    20206    20243 
   20286    20322    20376    20467    20556    20613    20659    20695 
   20702    20696    20700    20696    20679    20677    20700    20726 
   20761    20808    20841    20854    20857    20842    20822    20815 
   20814    20808    20796    20780    20758    20733    20711    20700 
   20702    20711    20707    20682    20659    20646    20622    20576 
   20532    20494    20452    20407    20363    20328    20306    20290 
   20286    20287    20267    20221    20166    20121    20085    20034 
   19974    19935    19919    19915    19924    19943    19965    19993 
   20021    20046    20063    20079    20101    20117    20133    20170 
   20204    20212    20225    20256    20275    20275    20266    20247 
   20227    20206    20182    20169    20178    20205    20254    20317 
   20379    20436    20494    20549    20592    20623    20652    20676 
   20700    20726    20753    20769    20777    20777    20760    20734 
   20714    20698    20688    20690    20682    20664    20652    20642 
   20630    20628    20640    20650    20653    20652    20641    20618 
   20584    20536    20484    20439    20385    20340    20322    20306 
   20277    20255    20220    20148    20074    20035    20015    19998 
   19986    19971    19955    19942    19921    19912    19912    19904 
   19884    19870    19870    19872    19857    19835    19819    19816 
   19830    19849    19865    19878    19892    19901    19897    19888 
   19889    19893    19907    19946    19996    20028    20061    20113 
   20162    20186    20193    20193    20196    20213    20225    20212 
   20200    20205    20194    20162    20144    20144    20142    20133 
   20117    20094    20067    20034    19988    19942    19912    19903 
   19905    19935    19998    20063    20085    20052    19989    19935 
   19905    19892    19890    19927    20012    20101    20173    20232 
   20270    20295    20313    20310    20298    20304    20331    20366 
   20406    20460    20521    20572    20613    20630    20622    20615 
   20609    20582    20553    20547    20553    20565    20587    20619 
   20672    20740    20785    20796    20773    20723    20655    20586 
   20524    20474    20459    20494    20569    20665    20756    20814 
   20852    20891    20925    20937    20923    20899    20896    20927 
   20965    20989    21003    20996    20968    20925    20865    20791 
   20718    20663    20621    20587    20560    20536    20510    20493 
   20497    20530    20579    20611    20621    20609    20569    20502 
   20418    20331    20240    20150    20065    19986    19908    19843 
   19792    19730    19676    19661    19672    19691    19705    19696 
   19665    19639    19643    19680    19742    19823    19908    19980 
   20029    20039    19996    19932    19884    19847    19820    19819 
   19839    19865    19909    19981    20050    20105    20156    20189 
   20193    20183    20174    20175    20204    20267    20345    20407 
   20447    20484    20532    20565    20575    20567    20548    20536 
   20542    20536    20513    20507    20517    20515    20502    20472 
   20432    20397    20367    20329    20283    20241    20228    20240 
   20245    20254    20290    20347    20407    20467    20514    20537 
   20548    20569    20592    20592    20561    20503    20420    20333 
   20274    20240    20229    20237    20263    20308    20351    20368 
   20371    20378    20374    20356    20348    20343    20329    20326 
   20324    20297    20233    20154    20082    20031    20019    20039 
   20056    20055    20052    20066    20090    20112    20135    20170 
   20206    20228    20240    20248    20255    20267    20299    20367 
   20468    20572    20657    20717    20737    20710    20648    20569 
   20486    20406    20341    20293    20267    20268    20295    20343 
   20393    20421    20425    20406    20356    20295    20250    20221 
   20233    20279    20313    20321    20328    20353    20389    20406 
   20409    20416    20402    20360    20314    20268    20229    20220 
   20220    20198    20171    20167    20198    20250    20293    20312 
   20313    20314    20317    20309    20321    20386    20499    20618 
   20702    20746    20785    20829    20853    20853    20844    20826 
   20795    20748    20686    20622    20565    20499    20417    20348 
   20320    20326    20355    20391    20430    20471    20494    20483 
   20464    20470    20486    20502    20501    20461    20405    20368 
   20351    20343    20324    20279    20239    20233    20239    20228 
   20213    20223    20241    20227    20164    20085    20032    20032 
   20069    20109    20137    20155    20146    20088    20021    20019 
   20070    20135    20200    20266    20332    20374    20360    20304 
   20239    20179    20124    20089    20088    20104    20120    20123 
   20079    19986    19897    19842    19813    19816    19851    19905 
   19962    19998    20002    19994    20004    20044    20097    20137 
   20183    20256    20316    20313    20277    20262    20271    20298 
   20355    20440    20530    20605    20640    20630    20605    20599 
   20625    20661    20698    20729    20749    20767    20783    20767 
   20710    20661    20648    20645    20636    20619    20587    20521 
   20425    20321    20217    20119    20046    20001    19988    20009 
   20055    20110    20163    20194    20189    20173    20163    20143 
   20105    20077    20063    20058    20062    20065    20063    20047 
   19996    19931    19886    19857    19845    19861    19881    19878 
   19867    19872    19888    19909    19942    19990    20029    20043 
   20048    20062    20073    20078    20088    20105    20121    20140 
   20177    20243    20301    20313    20328    20383    20455    20548 
   20680    20815    20911    20960    20965    20934    20883    20833 
   20807    20825    20879    20933    20954    20954    20938    20895 
   20818    20725    20645    20587    20548    20518    20490    20475 
   20479    20486    20495    20526    20564    20596    20628    20644 
   20633    20602    20529    20402    20250    20104    19993    19942 
   19931    19934    19944    19940    19915    19890    19882    19896 
   19961    20054    20110    20140    20191    20252    20298    20332 
   20340    20329    20333    20363    20380    20364    20329    20281 
   20209    20132    20098    20110    20128    20144    20160    20163 
   20162    20173    20194    20229    20285    20352    20428    20507 
   20578    20638    20695    20742    20777    20785    20748    20692 
   20648    20609    20561    20502    20420    20309    20189    20085 
   20015    19993    20012    20039    20028    19965    19877    19824 
   19850    19946    20062    20166    20260    20347    20440    20553 
   20641    20650    20598    20537    20506    20513    20542    20572 
   20588    20569    20491    20380    20282    20191    20098    20028 
   19989    19974    19965    19946    19912    19876    19854    19842 
   19839    19861    19917    20011    20112    20191    20248    20304 
   20368    20437    20507    20555    20576    20607    20648    20664 
   20649    20625    20623    20657    20717    20798    20879    20919 
   20914    20885    20841    20796    20768    20745    20715    20699 
   20711    20729    20729    20715    20690    20649    20591    20524 
   20463    20432    20425    20413    20376    20316    20244    20189 
   20174    20177    20163    20143    20146    20177    20212    20247 
   20291    20339    20367    20374    20378    20393    20394    20359 
   20331    20340    20359    20359    20337    20316    20312    20322 
   20329    20325    20317    20308    20279    20227    20174    20142 
   20129    20129    20132    20143    20174    20220    20270    20309 
   20322    20313    20287    20235    20167    20119    20104    20096 
   20071    20040    20023    20031    20050    20047    20007    19942 
   19859    19766    19693    19681    19719    19755    19782    19824 
   19884    19953    20004    20017    20005    19994    20002    20028 
   20047    20063    20113    20194    20240    20225    20183    20154 
   20154    20174    20189    20212    20266    20332    20379    20390 
   20389    20418    20467    20475    20443    20409    20389    20368 
   20340    20329    20367    20440    20507    20553    20587    20609 
   20609    20599    20588    20578    20588    20626    20664    20698 
   20719    20722    20729    20727    20709    20702    20718    20722 
   20688    20613    20515    20441    20409    20402    20395    20403 
   20449    20502    20515    20493    20460    20421    20371    20324 
   20289    20268    20274    20310    20348    20359    20353    20353 
   20353    20336    20305    20297    20313    20326    20326    20322 
   20326    20345    20363    20366    20362    20379    20412    20432 
   20444    20464    20480    20475    20444    20394    20339    20290 
   20240    20187    20169    20210    20260    20260    20213    20144 
   20077    20017    19957    19911    19896    19888    19870    19858 
   19853    19847    19861    19905    19951    19970    19969    19958 
   19954    19975    20008    20019    20013    20007    20017    20047 
   20097    20167    20220    20221    20187    20151    20128    20117 
   20116    20133    20173    20221    20278    20347    20436    20549 
   20673    20779    20852    20915    20996    21072    21108    21108 
   21099    21100    21116    21136    21135    21101    21064    21046 
   21034    21008    20983    20968    20961    20938    20880    20803 
   20744    20721    20715    20714    20703    20653    20553    20434 
   20324    20217    20123    20065    20038    20036    20073    20109 
   20108    20089    20050    19970    19882    19830    19808    19816 
   19858    19907    19932    19923    19874    19813    19766    19726 
   19685    19661    19649    19633    19616    19607    19606    19616 
   19647    19695    19742    19786    19828    19858    19851    19803 
   19751    19720    19697    19674    19650    19622    19622    19662 
   19718    19786    19888    19997    20098    20196    20278    20347 
   20434    20547    20665    20784    20889    20964    21014    21041 
   21042    21041    21035    21018    21004    20996    20979    20952 
   20926    20910    20914    20946    20991    21033    21066    21085 
   21092    21103    21124    21149    21181    21216    21227    21204 
   21176    21151    21116    21073    21037    21006    20961    20907 
   20865    20830    20800    20791    20798    20779    20722    20657 
   20607    20569    20522    20456    20387    20316    20218    20096 
   19974    19857    19738    19642    19584    19546    19510    19477 
   19460    19448    19434    19402    19349    19299    19271    19265 
   19256    19217    19157    19117    19107    19111    19114    19110 
   19097    19082    19071    19053    19025    19018    19057    19132 
   19226    19332    19437    19550    19676    19816    19958    20082 
   20194    20298    20379    20441    20517    20621    20740    20857 
   20950    21001    21039    21105    21204    21328    21473    21618 
   21729    21799    21834    21837    21834    21852    21891    21940 
   21988    22009    21972    21887    21790    21694    21609    21543 
   21483    21406    21301    21170    21028    20868    20692    20526 
   20391    20308    20289    20309    20326    20321    20293    20237 
   20156    20065    19974    19890    19819    19747    19674    19612 
   19561    19498    19410    19321    19268    19241    19214    19179 
   19132    19067    19012    18974    18944    18924    18924    18944 
   18974    19009    19051    19091    19117    19122    19121    19143 
   19201    19278    19354    19437    19546    19677    19796    19896 
   20007    20123    20216    20289    20353    20410    20463    20533 
   20621    20691    20740    20784    20819    20830    20814    20791 
   20803    20866    20952    21028    21076    21115    21166    21215 
   21247    21270    21312    21373    21420    21447    21460    21466 
   21477    21502    21525    21533    21527    21501    21469    21456 
   21465    21462    21440    21406    21352    21282    21222    21177 
   21119    21038    20947    20846    20731    20625    20534    20455 
   20391    20347    20299    20239    20158    20043    19904    19769 
   19656    19560    19484    19446    19429    19404    19364    19305 
   19228    19151    19098    19066    19052    19055    19063    19075 
   19102    19144    19182    19201    19207    19219    19249    19273 
   19284    19299    19319    19333    19356    19411    19488    19577 
   19676    19781    19878    19943    19986    20029    20081    20158 
   20266    20386    20506    20617    20722    20826    20919    20991 
   21033    21057    21087    21142    21216    21292    21361    21423 
   21460    21463    21440    21408    21377    21331    21263    21199 
   21145    21096    21042    20974    20903    20842    20792    20772 
   20799    20839    20862    20879    20877    20848    20799    20737 
   20659    20583    20517    20453    20394    20332    20263    20196 
   20146    20113    20093    20077    20050    20027    20025    20020 
   19982    19948    19961    20004    20043    20071    20086    20078 
   20051    20017    19985    19951    19916    19890    19886    19905 
   19923    19916    19878    19818    19758    19720    19692    19650 
   19593    19539    19522    19533    19550    19589    19647    19697 
   19732    19766    19807    19859    19921    19984    20042    20108 
   20179    20251    20312    20363    20420    20479    20518    20520 
   20487    20440    20401    20387    20401    20421    20424    20420 
   20425    20436    20437    20434    20441    20459    20509    20583 
   20641    20690    20746    20780    20784    20798    20839    20888 
   20929    20970    21006    21027    21043    21050    21041    21038 
   21057    21062    21034    21007    21022    21069    21119    21138 
   21112    21065    21015    20970    20934    20889    20822    20741 
   20669    20609    20555    20505    20461    20432    20428    20424 
   20385    20326    20275    20210    20106    19969    19832    19712 
   19614    19543    19502    19471    19437    19394    19338    19291 
   19275    19279    19273    19260    19259    19279    19309    19334 
   19357    19383    19410    19438    19469    19491    19511    19552 
   19585    19570    19546    19562    19611    19665    19712    19758 
   19822    19909    20019    20128    20217    20286    20356    20434 
   20514    20578    20632    20690    20736    20765    20792    20819 
   20860    20910    20964    21024    21093    21163    21222    21257 
   21284    21313    21325    21317    21309    21301    21293    21285 
   21261    21215    21161    21101    21043    21004    20987    20966 
   20947    20938    20918    20875    20825    20780    20758    20763 
   20779    20792    20781    20738    20690    20652    20623    20574 
   20467    20333    20223    20144    20082    20023    19957    19890 
   19831    19786    19762    19750    19737    19705    19657    19606 
   19539    19454    19384    19341    19298    19249    19205    19188 
   19218    19287    19360    19410    19434    19444    19464    19499 
   19542    19585    19616    19637    19657    19674    19693    19714 
   19731    19768    19834    19913    20000    20081    20137    20179 
   20224    20294    20383    20471    20559    20649    20737    20810 
   20857    20898    20962    21039    21103    21147    21177    21188 
   21189    21189    21192    21195    21186    21166    21143    21120 
   21100    21077    21053    21041    21051    21081    21104    21107 
   21103    21097    21089    21074    21034    20968    20899    20848 
   20811    20761    20684    20590    20501    20425    20335    20216 
   20102    20032    19982    19917    19845    19777    19710    19653 
   19616    19585    19554    19542    19550    19564    19584    19616 
   19647    19676    19718    19773    19823    19861    19893    19915 
   19909    19882    19847    19819    19819    19843    19869    19885 
   19894    19903    19912    19934    19966    19996    20023    20062 
   20115    20162    20212    20268    20310    20336    20360    20366 
   20359    20374    20414    20449    20468    20494    20545    20605 
   20665    20740    20819    20877    20910    20931    20954    20974 
   20993    21016    21035    21037    21024    21001    20968    20925 
   20868    20799    20719    20649    20596    20560    20536    20517 
   20499    20505    20548    20605    20646    20690    20737    20765 
   20773    20773    20763    20737    20707    20663    20605    20542 
   20471    20387    20298    20205    20113    20024    19934    19849 
   19777    19714    19649    19585    19538    19514    19518    19545 
   19573    19585    19579    19565    19554    19554    19573    19593 
   19599    19593    19596    19629    19676    19711    19723    19738 
