Origin Time       2024/04/02 04:24:00
Lat.              40.133
Long.             141.712
Depth. (km)       71
Mag.              6.0
Station Code      SITH07
Station Lat.      35.9118
Station Long.     139.1485
Station Height(m) 340
Record Time       2024/04/02 04:26:09
Sampling Freq(Hz) 100Hz
Duration Time(s)  120
Dir.              5
Scale Factor      7845(gal)/8223790
Max. Acc. (gal)   0.539
Last Correction   2024/04/02 04:26:11
Memo.             
[...]
    5583     5667     5734     5746     5705     5640     5568     5513 
    5502     5529     5574     5624     5652     5643     5624     5620 
    5625     5626     5613     5601     5610     5633     5640     5628 
    5602     5570     5553     5562     5580     5594     5605     5610 
    5606     5583     5547     5516     5505     5509     5518     5528 
    5540     5557     5564     5547     5521     5520     5555     5610 
    5659     5667     5626     5566     5514     5485     5487     5522 
    5568     5594     5593     5584     5590     5603     5606     5584 
    5543     5509     5509     5543     5587     5617     5630     5626 
    5595     5553     5536     5552     5578     5594     5606     5613 
    5610     5601     5591     5594     5613     5622     5602     5578 
    5576     5591     5606     5621     5632     5624     5597     5572 
    5578     5611     5656     5690     5688     5641     5568     5513 
    5493     5486     5493     5536     5593     5629     5629     5584 
    5529     5501     5499     5513     5537     5568     5602     5613 
    5590     5568     5582     5616     5645     5668     5684     5678 
    5640     5584     5535     5522     5560     5621     5665     5667 
    5617     5540     5481     5472     5530     5616     5661     5647 
    5610     5584     5578     5587     5610     5638     5645     5618 
    5591     5587     5599     5621     5659     5692     5691     5667 
    5633     5595     5568     5556     5571     5614     5644     5616 
    5555     5514     5524     5571     5622     5661     5675     5652 
    5614     5584     5557     5540     5541     5549     5549     5555 
    5582     5598     5575     5549     5551     5572     5595     5613 
    5622     5613     5580     5543     5526     5539     5567     5605 
    5636     5640     5622     5598     5567     5548     5560     5595 
    5629     5628     5579     5521     5494     5491     5505     5549 
    5614     5655     5645     5610     5582     5560     5532     5514 
    5533     5564     5584     5606     5620     5617     5614     5618 
    5589     5521     5486     5516     5555     5576     5599     5622 
    5609     5568     5530     5505     5508     5548     5599     5633 
    5641     5620     5586     5583     5611     5647     5682     5699 
    5674     5616     5570     5556     5568     5609     5679     5740 
    5748     5707     5637     5567     5536     5560     5618     5657 
    5651     5621     5587     5545     5513     5528     5576     5606 
    5606     5597     5580     5557     5532     5536     5593     5663 
    5686     5659     5597     5536     5510     5526     5572     5618 
    5634     5626     5611     5579     5547     5544     5562     5576 
    5591     5609     5622     5624     5609     5579     5544     5521 
    5525     5552     5578     5590     5586     5570     5567     5578 
    5568     5553     5556     5560     5552     5543     5552     5584 
    5617     5622     5606     5589     5579     5566     5553     5563 
    5586     5595     5582     5559     5547     5552     5560     5579 
    5618     5655     5660     5634     5590     5540     5513     5530 
    5572     5590     5572     5553     5557     5571     5589     5611 
    5620     5599     5571     5556     5551     5548     5549     5549 
    5553     5555     5552     5555     5571     5597     5628     5657 
    5676     5674     5640     5583     5552     5582     5641     5694 
    5717     5691     5632     5586     5575     5584     5611     5656 
    5687     5683     5651     5599     5559     5564     5594     5613 
    5628     5647     5651     5625     5589     5579     5605     5628 
    5621     5586     5559     5560     5572     5583     5601     5602 
    5575     5549     5547     5555     5570     5591     5605     5603 
    5602     5601     5595     5579     5555     5545     5559     5576 
    5605     5630     5624     5595     5574     5552     5536     5541 
    5559     5570     5572     5580     5595     5609     5620     5624 
    5603     5552     5513     5526     5571     5602     5616     5629 
    5638     5625     5593     5572     5576     5589     5602     5622 
    5652     5670     5653     5622     5598     5566     5521     5479 
    5468     5494     5533     5562     5590     5629     5655     5638 
    5587     5529     5481     5471     5516     5572     5603     5614 
    5610     5574     5525     5512     5543     5575     5576     5572 
    5582     5602     5630     5652     5648     5617     5575     5548 
    5545     5568     5613     5657     5675     5665     5622     5568 
    5553     5587     5629     5649     5641     5622     5602     5579 
    5555     5556     5595     5640     5663     5656     5628     5598 
    5583     5572     5553     5533     5533     5560     5584     5576 
    5551     5540     5547     5566     5594     5613     5611     5603 
    5594     5584     5579     5582     5583     5579     5571     5556 
    5545     5559     5582     5593     5589     5574     5557     5552 
    5552     5564     5594     5618     5617     5607     5616     5640 
    5659     5655     5625     5583     5552     5559     5602     5648 
    5676     5692     5683     5628     5559     5528     5555     5598 
    5613     5602     5584     5560     5532     5518     5533     5559 
    5571     5576     5583     5574     5557     5559     5579     5613 
    5649     5665     5637     5572     5524     5501     5494     5521 
    5586     5640     5638     5601     5560     5517     5487     5510 
    5564     5580     5560     5541     5539     5555     5598     5665 
    5726     5725     5652     5559     5494     5471     5491     5559 
    5656     5729     5725     5649     5551     5483     5475     5530 
    5617     5680     5679     5625     5564     5530     5536     5578 
    5624     5645     5638     5618     5593     5571     5555     5539 
    5529     5547     5584     5609     5607     5601     5590     5570 
    5564     5584     5598     5593     5587     5574     5552     5548 
    5570     5610     5648     5664     5649     5610     5557     5506 
    5491     5535     5602     5648     5665     5672     5663     5638 
    5629     5633     5626     5618     5617     5607     5587     5587 
    5613     5629     5609     5579     5567     5559     5553     5574 
    5610     5630     5620     5593     5568     5549     5543     5552 
    5572     5611     5655     5663     5629     5587     5572     5590 
    5611     5620     5621     5614     5584     5549     5540     5559 
    5576     5575     5556     5539     5536     5557     5599     5632 
    5637     5618     5580     5548     5539     5549     5580     5626 
    5657     5663     5652     5629     5590     5548     5535     5551 
    5568     5574     5568     5568     5574     5563     5557     5580 
    5607     5613     5606     5603     5598     5576     5553     5553 
    5574     5593     5594     5571     5540     5514     5509     5529 
    5563     5591     5597     5586     5572     5545     5514     5522 
    5571     5626     5664     5680     5683     5656     5599     5551 
    5541     5580     5640     5667     5649     5603     5560     5557 
    5598     5640     5652     5625     5570     5522     5525     5589 
    5663     5702     5715     5698     5621     5520     5459     5459 
    5505     5583     5655     5675     5633     5564     5506     5485 
    5514     5589     5660     5674     5618     5536     5482     5489 
    5555     5643     5694     5676     5610     5540     5497     5495 
    5541     5625     5695     5695     5614     5512     5458     5482 
    5560     5644     5697     5706     5651     5545     5466     5467 
    5518     5572     5607     5614     5589     5560     5580     5649 
    5697     5692     5656     5603     5553     5530     5544     5584 
    5636     5659     5637     5606     5593     5589     5584     5589 
    5613     5645     5659     5645     5616     5594     5587     5583 
    5584     5598     5606     5602     5598     5589     5566     5549 
    5545     5552     5568     5578     5579     5574     5553     5539 
    5553     5595     5632     5632     5594     5556     5545     5555 
    5583     5625     5659     5659     5624     5579     5543     5536 
    5584     5656     5698     5686     5616     5529     5482     5497 
    5564     5645     5714     5759     5752     5694     5637     5614 
    5605     5583     5547     5518     5520     5547     5574     5583 
    5576     5566     5560     5562     5563     5557     5556     5556 
    5560     5575     5587     5582     5562     5541     5528     5530 
    5563     5620     5659     5637     5562     5493     5489     5547 
    5616     5640     5622     5593     5559     5520     5518     5578 
    5657     5692     5659     5571     5483     5456     5505     5595 
    5674     5695     5653     5582     5536     5543     5594     5671 
    5724     5691     5584     5493     5471     5520     5603     5680 
    5706     5660     5576     5517     5528     5594     5653     5683 
    5667     5579     5467     5422     5466     5547     5605     5614 
    5598     5570     5522     5479     5486     5543     5603     5628 
    5620     5601     5591     5584     5551     5489     5440     5436 
    5482     5579     5699     5783     5799     5748     5645     5540 
    5497     5529     5598     5653     5667     5630     5570     5529 
    5524     5549     5605     5682     5742     5755     5715     5643 
    5579     5557     5575     5610     5656     5695     5680     5601 
    5510     5462     5462     5505     5572     5624     5636     5610 
    5563     5522     5518     5548     5580     5606     5624     5618 
    5599     5591     5598     5616     5637     5647     5618     5562 
    5517     5494     5482     5489     5512     5532     5560     5599 
    5620     5609     5570     5525     5505     5510     5536     5584 
    5632     5648     5640     5634     5622     5589     5564     5587 
    5645     5695     5714     5686     5603     5510     5482     5536 
    5626     5694     5695     5622     5509     5417     5414     5508 
    5630     5728     5765     5729     5649     5564     5510     5522 
    5591     5659     5679     5634     5543     5468     5479     5556 
    5656     5748     5788     5748     5670     5616     5593     5570 
    5540     5498     5452     5439     5489     5575     5647     5686 
    5684     5643     5589     5548     5535     5563     5633     5690 
    5671     5587     5514     5503     5549     5629     5697     5690 
    5607     5506     5440     5452     5551     5667     5709     5629 
    5468     5335     5304     5391     5562     5737     5845     5844 
    5744     5609     5497     5466     5529     5622     5670     5648 
    5591     5555     5547     5544     5551     5556     5529     5489 
    5498     5563     5644     5698     5694     5636     5576     5555 
    5579     5630     5653     5610     5521     5416     5343     5375 
    5541     5764     5899     5875     5742     5584     5475     5475 
    5560     5656     5713     5709     5634     5513     5418     5413 
    5501     5616     5671     5629     5529     5440     5410     5452 
    5536     5628     5706     5767     5788     5749     5665     5576 
    5513     5491     5510     5547     5579     5611     5626     5609 
    5574     5548     5525     5495     5495     5568     5679     5764 
    5807     5799     5711     5557     5412     5354     5400     5506 
    5605     5640     5583     5478     5401     5400     5486     5620 
    5732     5761     5667     5470     5294     5251     5352     5556 
    5792     5956     5962     5807     5579     5432     5459     5622 
    5830     5984     5985     5803     5505     5209     5050     5146 
    5471     5827     6015     5962     5713     5404     5219     5274 
    5535     5846     6018     5949     5695     5402     5236     5312 
    5575     5836     5958     5938     5802     5598     5449     5441 
    5543     5694     5811     5811     5682     5483     5304     5216 
    5251     5408     5656     5908     6034     5954     5701     5378 
    5144     5147     5367     5653     5873     5940     5803     5518 
    5240     5115     5193     5431     5719     5910     5908     5728 
    5470     5275     5236     5356     5583     5806     5887     5784 
    5595     5435     5343     5340     5452     5638     5796     5873 
    5873     5794     5641     5470     5359     5340     5393     5525 
    5724     5876     5872     5726     5543     5402     5362     5467 
    5671     5854     5938     5910     5776     5562     5364     5293 
    5363     5524     5706     5821     5798     5647     5456     5343 
    5352     5466     5638     5769     5756     5630     5509     5462 
    5491     5567     5652     5683     5610     5478     5364     5316 
    5371     5528     5692     5763     5717     5609     5502     5456 
    5489     5571     5641     5661     5643     5621     5602     5571 
    5535     5514     5522     5530     5522     5509     5512     5566 
    5659     5734     5765     5714     5551     5375     5331     5429 
    5582     5699     5717     5617     5468     5375     5409     5572 
    5780     5902     5863     5717     5567     5476     5481     5570 
    5670     5703     5670     5589     5456     5324     5308     5471 
    5748     5996     6068     5896     5552     5196     5024     5167 
    5553     5926     6066     5953     5710     5474     5344     5366 
    5528     5756     5910     5879     5701     5514     5410     5393 
    5431     5490     5522     5518     5520     5535     5526     5506 
    5525     5591     5661     5715     5752     5744     5683     5589 
    5487     5424     5433     5508     5643     5818     5937     5894 
    5682     5416     5251     5259     5398     5589     5752     5829 
    5802     5668     5476     5378     5467     5680     5877     5950 
    5852     5630     5402     5287     5333     5495     5691     5845 
    5886     5810     5711     5649     5599     5544     5498     5481 
    5513     5601     5707     5794     5827     5763     5591     5377 
    5221     5213     5360     5580     5775     5871     5846     5718 
    5521     5344     5287     5381     5586     5802     5904     5837 
    5628     5373     5202     5205     5370     5589     5726     5734 
    5667     5597     5571     5599     5655     5690     5686     5659 
    5613     5539     5482     5508     5602     5706     5764     5767 
    5733     5684     5641     5620     5628     5656     5660     5589 
    5445     5300     5238     5319     5501     5645     5686     5680 
    5679     5661     5621     5605     5674     5800     5863     5769 
    5530     5256     5103     5146     5359     5640     5833     5834 
    5684     5498     5371     5347     5414     5517     5589     5622 
    5632     5620     5620     5640     5648     5636     5591     5491 
    5352     5239     5250     5417     5644     5800     5829     5737 
    5572     5393     5287     5325     5485     5686     5852     5940 
    5919     5772     5544     5333     5228     5266     5418     5611 
    5741     5768     5757     5764     5767     5711     5578     5412 
    5286     5262     5360     5564     5806     5971     5969     5805 
    5580     5427     5420     5562     5778     5934     5931     5763 
    5514     5331     5329     5508     5746     5913     5919     5737 
    5429     5155     5061     5170     5410     5668     5856     5921 
    5868     5764     5655     5536     5422     5367     5427     5594 
    5780     5904     5919     5783     5544     5362     5362     5494 
    5641     5738     5706     5489     5221     5131     5308     5674 
    6023     6145     5991     5692     5427     5286     5297     5463 
    5717     5888     5852     5632     5367     5206     5243     5449 
    5688     5852     5908     5854     5698     5481     5308     5293 
    5431     5618     5783     5895     5925     5850     5713     5628 
    5653     5711     5701     5599     5460     5354     5305     5309 
    5358     5482     5674     5836     5869     5773     5613     5449 
    5316     5224     5220     5347     5562     5769     5917     5975 
    5922     5787     5652     5551     5493     5517     5633     5759 
    5813     5765     5616     5383     5192     5208     5424     5675 
    5842     5894     5784     5525     5290     5247     5400     5649 
    5860     5918     5823     5667     5539     5485     5462     5441 
    5463     5549     5664     5768     5829     5834     5779     5652 
    5476     5360     5421     5614     5759     5732     5570     5395 
    5309     5316     5391     5541     5745     5887     5859     5690 
    5517     5463     5560     5711     5791     5784     5738     5661 
    5559     5467     5444     5491     5556     5611     5632     5575 
    5451     5348     5373     5533     5748     5918     5935     5748 
    5451     5224     5167     5297     5557     5821     5953     5880 
    5626     5314     5143     5255     5576     5854     5922     5805 
    5593     5370     5228     5221     5320     5444     5533     5556 
    5529     5509     5547     5607     5603     5530     5468     5475 
    5539     5583     5548     5458     5391     5401     5464     5559 
    5687     5815     5850     5778     5660     5539     5431     5381 
    5420     5497     5533     5503     5436     5391     5427     5563 
    5749     5856     5810     5687     5579     5497     5435     5398 
    5412     5525     5728     5944     6076     6049     5879     5644 
    5436     5366     5476     5709     5906     5910     5691     5386 
    5181     5202     5437     5748     5981     6045     5930     5715 
    5521     5437     5501     5653     5788     5819     5756     5663 
    5593     5571     5590     5616     5637     5682     5760     5848 
    5900     5880     5769     5605     5475     5424     5449     5536 
    5605     5576     5455     5328     5289     5373     5551     5752 
    5879     5856     5678     5435     5251     5202     5309     5522 
    5719     5800     5760     5632     5470     5354     5340     5436 
    5584     5717     5799     5798     5705     5584     5493     5424 
    5382     5417     5548     5683     5711     5629     5512     5447 
    5483     5599     5729     5800     5753     5589     5390     5274 
    5297     5447     5663     5822     5810     5645     5444     5313 
    5310     5443     5617     5694     5647     5567     5513     5478 
    5474     5516     5556     5555     5556     5621     5714     5755 
    5717     5617     5505     5464     5539     5703     5865     5918 
    5819     5636     5491     5470     5563     5697     5784     5780 
    5714     5633     5566     5518     5499     5533     5590     5611 
    5599     5613     5706     5852     5929     5829     5571     5292 
    5169     5279     5548     5813     5945     5915     5767     5557 
    5374     5301     5363     5524     5701     5791     5749     5605 
    5416     5254     5197     5289     5485     5678     5773     5751 
    5656     5557     5510     5543     5617     5645     5593     5509 
