Origin Time       2024/04/02 04:24:00
Lat.              40.133
Long.             141.712
Depth. (km)       71
Mag.              6.0
Station Code      SRCH07
Station Lat.      43.2300
Station Long.     141.8978
Station Height(m) 75
Record Time       2024/04/02 04:26:09
Sampling Freq(Hz) 100Hz
Duration Time(s)  120
Dir.              6
Scale Factor      7845(gal)/8223790
Max. Acc. (gal)   0.407
Last Correction   2024/04/02 04:26:09
Memo.             
[...]
    1105     1121     1124     1129     1152     1167     1129     1050 
     990     1001     1042     1054     1016      954      913      915 
     943      981     1032     1093     1139     1140     1101     1057 
    1032     1043     1081     1117     1123     1102     1066     1012 
     961      957     1009     1075     1113     1108     1071     1035 
    1021     1016      993      959      957     1005     1059     1070 
    1028      982      981     1011     1032     1047     1080     1124 
    1159     1170     1154     1121     1096     1082     1081     1097 
    1116     1119     1102     1080     1066     1069     1062     1063 
    1096     1147     1183     1194     1174     1123     1057      997 
     958      951      980     1015     1054     1113     1171     1193 
    1177     1139     1096     1059     1032     1024     1047     1107 
    1179     1227     1233     1208     1169     1132     1096     1046 
     989      946      932      935      943      946      935      926 
     955     1017     1080     1125     1146     1150     1148     1142 
    1132     1127     1125     1115     1090     1067     1035      981 
     943      945      959      966      965      970     1005     1071 
    1131     1140     1132     1152     1173     1162     1142     1125 
    1123     1147     1181     1194     1171     1112     1048      996 
     955      931      942      996     1074     1139     1156     1139 
    1121     1108     1102     1113     1124     1132     1161     1193 
    1181     1125     1071     1050     1048     1040     1011      976 
     970      992     1013     1028     1053     1090     1134     1152 
    1121     1069     1027     1007     1004     1019     1044     1058 
    1053     1044     1026     1005     1013     1043     1061     1057 
    1055     1077     1104     1111     1086     1046     1031     1043 
    1043     1020     1005     1024     1061     1077     1054     1004 
     962      955      985     1044     1107     1132     1124     1128 
    1155     1177     1181     1192     1215     1202     1140     1073 
    1039     1034     1044     1074     1120     1163     1182     1175 
    1148     1104     1046     1001     1003     1036     1061     1067 
    1069     1062     1035      986      949      942      963     1009 
    1063     1115     1152     1155     1123     1088     1069     1054 
    1035     1035     1067     1108     1131     1121     1077     1021 
     981      966      967      981     1019     1059     1067     1044 
    1011      973      953      961     1003     1066     1119     1152 
    1174     1189     1198     1192     1161     1108     1059     1027 
    1012     1015     1036     1074     1127     1182     1227     1250 
    1239     1198     1159     1138     1125     1117     1124     1127 
    1102     1066     1046     1028      986      924      878      892 
     958     1021     1044     1046     1061     1092     1109     1102 
    1094     1101     1116     1111     1067     1012      989     1003 
    1034     1070     1107     1134     1138     1127     1116     1098 
    1073     1063     1065     1053     1021     1000      997      985 
     942      893      891      953     1036     1109     1175     1229 
    1248     1224     1173     1148     1163     1181     1170     1120 
    1053     1009     1011     1040     1071     1098     1117     1120 
    1116     1111     1094     1071     1054     1058     1081     1100 
    1115     1134     1140     1123     1071      984      911      893 
     909      945      997     1061     1121     1154     1150     1127 
    1108     1098     1080     1040      996      970      982     1024 
    1069     1100     1120     1129     1127     1100     1067     1057 
    1066     1073     1051     1015     1007     1046     1108     1163 
    1183     1173     1147     1105     1057     1023     1011     1011 
    1015     1026     1042     1057     1069     1081     1089     1080 
    1043     1001      982      992     1028     1075     1107     1112 
    1097     1080     1084     1098     1093     1054      990      932 
     899      891      919      977     1047     1101     1120     1115 
    1098     1088     1093     1098     1092     1073     1050     1046 
    1078     1138     1216     1278     1290     1270     1252     1240 
    1224     1190     1128     1044      976      972     1028     1096 
    1128     1127     1113     1094     1062     1017      982      970 
     966      940      922      954     1021     1086     1139     1179 
    1201     1196     1179     1150     1097     1047     1024     1023 
    1048     1098     1150     1169     1148     1105     1040      963 
     905      893      945     1043     1139     1194     1208     1202 
    1194     1171     1132     1077     1013      977      993     1030 
    1048     1044     1042     1053     1054     1035     1023     1028 
    1047     1073     1097     1121     1152     1183     1204     1202 
    1183     1150     1108     1074     1054     1042     1040     1053 
    1075     1092     1075     1042     1011      972      918      862 
     819      803      823      869      919      981     1061     1124 
    1148     1139     1108     1070     1035      999      974      976 
     999     1035     1058     1046     1026     1039     1082     1108 
    1096     1065     1039     1023     1008      999      999      997 
    1007     1034     1061     1081     1100     1116     1131     1156 
    1188     1217     1221     1196     1173     1182     1217     1248 
    1243     1197     1127     1055     1007      977      962      963 
     965      959      950      930      924      970     1057     1143 
    1198     1219     1197     1144     1104     1096     1119     1173 
    1242     1287     1262     1156     1035      947      891      857 
     841      827      811      812      851      920      986     1031 
    1046     1046     1057     1086     1129     1178     1219     1251 
    1275     1290     1283     1224     1124     1038      985      959 
     950      946      947      945      932      923      919      934 
     984     1057     1132     1188     1219     1244     1287     1347 
    1390     1379     1316     1225     1135     1077     1069     1105 
    1162     1205     1224     1212     1165     1096     1017      949 
     930      954      982     1019     1070     1108     1101     1061 
    1031     1035     1069     1128     1182     1201     1193     1178 
    1156     1113     1047      980      949      980     1048     1098 
    1111     1113     1132     1161     1163     1131     1089     1047 
     999      954      939      982     1067     1154     1220     1242 
    1208     1138     1066     1013      973      927      882      861 
     880      930      988     1046     1102     1150     1174     1170 
    1132     1078     1036     1023     1032     1058     1085     1107 
    1131     1156     1156     1100      999      919      918      976 
    1046     1105     1152     1194     1219     1204     1147     1066 
     988      936      905      874      850      851      891      961 
    1036     1096     1129     1144     1144     1123     1067      980 
     885      831      842      905      988     1042     1058     1069 
    1090     1105     1094     1051      992      939      918      939 
     985     1035     1092     1166     1232     1247     1215     1173 
    1148     1144     1134     1090     1039     1019     1046     1101 
    1144     1161     1162     1161     1174     1204     1232     1250 
    1247     1205     1138     1062      996      958      957      972 
     981      990     1023     1070     1105     1111     1092     1073 
    1055     1026      997      981      977     1000     1040     1075 
    1097     1111     1129     1147     1139     1105     1063     1026 
    1004     1013     1043     1058     1050     1038     1020      990 
     966      962      990     1053     1121     1182     1236     1269 
    1269     1219     1129     1034      945      872      837      870 
     959     1053     1115     1140     1117     1057      994      966 
     965      962      961      990     1032     1061     1077     1097 
    1136     1190     1246     1291     1308     1271     1206     1161 
    1154     1138     1082     1015      969      973     1019     1062 
    1088     1112     1144     1175     1198     1205     1194     1169 
    1150     1142     1120     1080     1039     1015     1005      994 
     973      953      945      957      980     1003     1023     1038 
    1054     1070     1081     1093     1119     1155     1194     1213 
    1206     1185     1161     1140     1142     1163     1167     1134 
    1081     1027      959      892      862      888      951     1024 
    1094     1156     1204     1235     1251     1248     1228     1202 
    1170     1129     1096     1080     1085     1092     1081     1053 
    1009      973      950      936      931      934      928      908 
     877      845      827      831      853      878      913      973 
    1053     1147     1244     1300     1287     1252     1248     1264 
    1267     1266     1273     1266     1231     1158     1065      986 
     927      889      874      869      866      886      943     1034 
    1135     1210     1236     1220     1182     1132     1075     1036 
    1015      996      986      990     1007     1024     1031     1046 
    1065     1054     1019      988      982     1013     1065     1102 
    1116     1113     1115     1144     1193     1232     1251     1269 
    1283     1281     1264     1247     1219     1175     1125     1078 
    1050     1051     1086     1140     1188     1221     1223     1182 
    1116     1040      966      909      882      901      950      985 
     989      967      939      919      916      918      909      912 
     949      999     1036     1061     1058     1021      973      938 
     922      928      967     1034     1096     1125     1139     1158 
    1183     1201     1202     1185     1138     1066      988      923 
     886      880      891      907      907      873      834      814 
     818      854      924     1026     1136     1233     1317     1383 
    1428     1463     1482     1468     1420     1335     1223     1112 
    1039     1005      985      974      986     1013     1038     1044 
    1019      966      919      913      955     1017     1078     1125 
    1144     1142     1132     1138     1179     1259     1345     1390 
    1383     1348     1305     1258     1204     1117      989      859 
     762      707      695      727      792      866      934      973 
     986     1005     1057     1123     1173     1186     1179     1179 
    1174     1144     1088     1019      972      974     1012     1054 
    1071     1053     1019     1011     1044     1085     1093     1078 
    1080     1116     1171     1215     1227     1210     1178     1150 
    1135     1129     1121     1102     1090     1109     1142     1163 
    1162     1138     1107     1089     1086     1085     1067     1036 
     999      976      999     1043     1078     1101     1123     1138 
    1135     1109     1070     1036     1032     1057     1094     1139 
    1163     1151     1135     1139     1156     1177     1192     1215 
    1250     1269     1248     1201     1146     1086     1019      963 
     954      992     1035     1061     1074     1093     1117     1135 
    1125     1071      988      911      877      905      958      985 
     997     1012     1038     1073     1094     1096     1094     1093 
    1093     1090     1078     1065     1054     1046     1035     1021 
    1009     1005     1009     1015     1015     1000      973      965 
     997     1039     1054     1055     1053     1050     1057     1071 
    1085     1098     1117     1134     1120     1065      990      935 
     916      911      881      830      788      781      816      884 
     980     1086     1165     1201     1217     1240     1277     1309 
    1327     1324     1296     1263     1246     1228     1204     1179 
    1156     1140     1129     1111     1077     1027      988      977 
     985      992      997     1017     1065     1125     1173     1181 
    1148     1112     1096     1100     1116     1116     1092     1069 
    1053     1039     1008      955      901      857      805      738 
     675      652      672      720      783      845      912     1001 
    1094     1170     1217     1233     1236     1256     1287     1308 
    1309     1294     1264     1201     1097      974      869      801 
     761      738      739      770      832      909      984     1057 
    1129     1194     1248     1289     1317     1341     1366     1382 
    1371     1329     1277     1220     1159     1102     1047     1004 
     977      957      940      931      945      985     1035     1066 
    1074     1075     1094     1127     1156     1179     1208     1242 
    1273     1285     1264     1210     1148     1111     1100     1096 
    1070      996      892      801      753      742      751      780 
     832      900      986     1086     1183     1275     1351     1402 
    1421     1394     1331     1266     1210     1158     1104     1046 
     989      939      920      932      946      947      932      899 
     864      845      839      841      846      889      992     1124 
    1246     1333     1397     1455     1498     1497     1432     1328 
    1235     1175     1134     1086     1032      970      909      861 
     824      784      734      716      760      837      916      989 
    1047     1085     1092     1077     1057     1039     1031     1032 
    1040     1057     1088     1125     1155     1155     1129     1088 
    1053     1047     1053     1042     1026     1017     1032     1059 
    1082     1105     1117     1115     1111     1113     1120     1121 
    1116     1117     1136     1163     1185     1192     1182     1170 
    1161     1144     1112     1073     1039     1009      986      977 
     990     1039     1100     1136     1144     1144     1155     1190 
    1229     1255     1262     1237     1181     1109     1031      966 
     927      918      930      954      984     1004     1008      999 
     972      936      916      911      908      916      946     1000 
    1062     1120     1178     1248     1327     1377     1375     1347 
    1324     1308     1283     1232     1152     1054      951      868 
     815      796      811      841      873      907      938      959 
     986     1035     1096     1143     1173     1194     1213     1236 
    1256     1263     1266     1273     1281     1281     1262     1220 
    1162     1089     1038     1013      992      981      996     1026 
    1048     1054     1061     1084     1108     1119     1113     1107 
    1120     1144     1165     1175     1182     1183     1165     1115 
    1050      984      936      919      919      911      905      909 
     930      965      999     1016     1004      959      903      868 
     873      911      970     1039     1094     1131     1154     1175 
    1194     1210     1228     1235     1217     1173     1119     1077 
    1051     1016      954      884      837      834      874      932 
    1001     1069     1111     1115     1102     1105     1123     1128 
    1129     1142     1155     1166     1175     1175     1169     1151 
    1124     1089     1047      997      939      884      854      869 
     924      992     1051     1101     1131     1123     1082     1032 
    1005     1020     1070     1135     1198     1240     1270     1300 
    1306     1275     1213     1147     1101     1078     1080     1096 
    1107     1092     1043      969      895      835      799      795 
     822      874      946     1026     1100     1159     1196     1205 
    1188     1148     1093     1035      996      989     1000     1016 
    1030     1030     1007      976      976     1013     1050     1080 
    1120     1182     1244     1282     1287     1264     1223     1181 
    1147     1127     1120     1124     1142     1170     1192     1201 
    1204     1206     1223     1237     1231     1197     1135     1059 
     993      958      959      980     1000     1016     1024     1021 
    1013     1004      996      986      984     1000     1021     1028 
    1028     1035     1062     1101     1128     1146     1158     1156 
    1144     1134     1134     1144     1150     1136     1105     1067 
    1030      985      931      878      834      811      820      846 
     877      908      942      978     1001     1008     1008     1011 
    1023     1035     1042     1042     1030     1015     1012     1023 
    1042     1055     1062     1058     1036     1011      993      977 
     958      932      908      903      918      955     1013     1062 
    1086     1104     1123     1143     1158     1161     1158     1162 
    1186     1219     1236     1227     1193     1138     1074     1008 
     938      878      854      868      895      924      965     1008 
    1027     1030     1021     1013     1011     1019     1040     1062 
    1073     1081     1098     1140     1210     1271     1300     1301 
    1289     1278     1266     1246     1225     1197     1162     1129 
    1093     1053     1017      988      972      967      972      985 
    1016     1070     1132     1178     1208     1231     1256     1289 
    1317     1325     1302     1250     1193     1144     1101     1055 
    1009      969      943      934      942      958      973      988 
     988      965      942      946      997     1082     1165     1232 
    1279     1300     1305     1294     1271     1248     1235     1217 
    1188     1146     1112     1085     1061     1031      974      895 
     824      791      799      830      873      934     1000     1067 
    1134     1194     1235     1243     1229     1213     1209     1217 
    1215     1196     1181     1179     1186     1189     1177     1151 
    1128     1107     1075     1021      955      901      872      859 
     851      838      832      853      886      931      980     1028 
    1085     1136     1171     1188     1183     1166     1140     1104 
    1058     1007      966      955      953      954      980     1026 
    1069     1094     1109     1128     1152     1189     1225     1246 
    1233     1202     1173     1150     1125     1089     1040      985 
     928      882      854      843      843      851      870      888 
     905      926      958     1009     1067     1121     1175     1224 
    1270     1310     1332     1333     1320     1298     1278     1243 
    1194     1144     1098     1063     1043     1032     1039     1058 
    1082     1113     1138     1147     1152     1154     1159     1178 
    1201     1217     1219     1209     1198     1183     1167     1146 
    1123     1116     1120     1121     1111     1086     1066     1054 
    1043     1036     1026     1001      976      959      953      955 
     970      999     1042     1090     1138     1174     1194     1198 
    1194     1196     1200     1190     1170     1138     1097     1061 
    1027      996      980      974      977      980      978      977 
