Origin Time       2024/04/02 04:24:00
Lat.              40.133
Long.             141.712
Depth. (km)       71
Mag.              6.0
Station Code      SRCH07
Station Lat.      43.2300
Station Long.     141.8978
Station Height(m) 75
Record Time       2024/04/02 04:26:09
Sampling Freq(Hz) 100Hz
Duration Time(s)  120
Dir.              4
Scale Factor      7845(gal)/8223790
Max. Acc. (gal)   1.515
Last Correction   2024/04/02 04:26:09
Memo.             
[...]
    3553     3576     3599     3618     3628     3636     3654     3696 
    3757     3820     3871     3901     3913     3904     3873     3838 
    3797     3748     3701     3662     3640     3634     3631     3640 
    3672     3732     3820     3905     3951     3943     3890     3823 
    3762     3717     3689     3654     3607     3559     3516     3501 
    3535     3605     3692     3771     3816     3819     3784     3734 
    3692     3663     3653     3661     3681     3704     3727     3757 
    3796     3840     3890     3921     3921     3897     3859     3823 
    3790     3754     3716     3669     3619     3595     3592     3591 
    3580     3559     3545     3550     3588     3659     3736     3794 
    3843     3890     3928     3958     3981     4002     4017     4016 
    3996     3947     3871     3789     3716     3653     3592     3527 
    3476     3451     3461     3503     3565     3638     3708     3755 
    3784     3794     3793     3807     3834     3859     3865     3831 
    3775     3720     3673     3631     3588     3559     3558     3570 
    3573     3555     3530     3526     3549     3593     3653     3699 
    3727     3751     3770     3782     3786     3794     3820     3854 
    3871     3855     3801     3735     3678     3638     3624     3639 
    3659     3657     3622     3572     3535     3535     3576     3642 
    3716     3788     3847     3882     3886     3865     3847     3844 
    3850     3855     3839     3798     3766     3757     3765     3781 
    3789     3794     3805     3807     3792     3754     3699     3646 
    3605     3576     3551     3537     3537     3554     3591     3634 
    3661     3670     3670     3662     3655     3653     3651     3662 
    3681     3712     3754     3774     3765     3740     3708     3681 
    3663     3655     3658     3673     3694     3715     3721     3712 
    3685     3658     3653     3676     3724     3778     3825     3875 
    3924     3955     3964     3954     3928     3901     3874     3839 
    3785     3707     3631     3578     3555     3570     3613     3667 
    3713     3743     3759     3755     3734     3711     3699     3709 
    3732     3750     3767     3788     3796     3778     3742     3699 
    3662     3636     3615     3582     3542     3520     3527     3564 
    3624     3682     3730     3775     3821     3856     3867     3856 
    3844     3831     3808     3781     3753     3728     3720     3739 
    3782     3831     3878     3915     3924     3905     3862     3805 
    3765     3751     3748     3739     3716     3685     3661     3645 
    3638     3634     3620     3618     3628     3642     3649     3661 
    3692     3736     3782     3823     3838     3820     3777     3717 
    3665     3632     3609     3588     3557     3528     3527     3554 
    3605     3663     3709     3743     3751     3734     3707     3678 
    3674     3709     3759     3811     3844     3856     3867     3883 
    3893     3878     3831     3765     3699     3651     3638     3653 
    3692     3755     3812     3835     3823     3790     3766     3759 
    3780     3823     3863     3883     3890     3886     3866     3825 
    3784     3753     3720     3674     3608     3522     3437     3373 
    3339     3343     3379     3437     3515     3603     3690     3771 
    3832     3874     3889     3875     3842     3798     3769     3758 
    3751     3746     3743     3732     3720     3711     3707     3720 
    3744     3775     3807     3825     3823     3798     3767     3755 
    3759     3771     3778     3759     3721     3681     3650     3642 
    3650     3658     3661     3651     3640     3639     3651     3689 
    3744     3805     3869     3909     3915     3893     3856     3828 
    3819     3823     3832     3823     3790     3747     3701     3678 
    3682     3684     3669     3636     3595     3553     3507     3468 
    3453     3473     3531     3615     3697     3769     3823     3858 
    3874     3869     3856     3834     3796     3754     3705     3643 
    3577     3516     3466     3438     3438     3468     3519     3586 
    3662     3738     3813     3889     3947     3978     3978     3956 
    3940     3931     3920     3901     3871     3831     3781     3735 
    3716     3723     3735     3731     3700     3658     3632     3643 
    3693     3753     3797     3829     3840     3832     3819     3798 
    3790     3800     3813     3821     3815     3794     3765     3728 
    3696     3672     3655     3649     3640     3630     3619     3603 
    3591     3600     3628     3670     3707     3721     3721     3707 
    3674     3631     3588     3569     3585     3623     3663     3686 
    3686     3670     3650     3649     3676     3727     3775     3794 
    3786     3775     3777     3805     3855     3900     3928     3936 
    3929     3916     3900     3886     3879     3866     3840     3800 
    3750     3699     3658     3638     3631     3607     3566     3526 
    3504     3520     3573     3642     3713     3771     3820     3862 
    3886     3886     3862     3812     3742     3665     3596     3541 
    3505     3496     3495     3487     3477     3473     3487     3527 
    3584     3628     3655     3661     3662     3677     3713     3770 
    3832     3879     3896     3867     3813     3757     3703     3651 
    3607     3573     3554     3549     3547     3532     3512     3511 
    3532     3572     3628     3693     3763     3828     3869     3893 
    3919     3947     3982     4004     3994     3954     3882     3794 
    3707     3623     3553     3518     3526     3559     3588     3603 
    3599     3577     3569     3582     3603     3639     3688     3744 
    3812     3877     3929     3960     3974     3983     3981     3950 
    3886     3781     3661     3558     3484     3443     3437     3464 
    3519     3580     3623     3654     3676     3696     3713     3726 
    3731     3730     3735     3770     3824     3885     3936     3964 
    3978     3969     3917     3828     3723     3624     3545     3489 
    3466     3469     3497     3549     3611     3674     3727     3754 
    3757     3743     3723     3712     3717     3747     3805     3877 
    3944     3987     3991     3967     3932     3892     3843     3771 
    3674     3555     3434     3343     3292     3276     3299     3360 
    3451     3549     3627     3685     3724     3758     3805     3861 
    3909     3954     3990     4031     4075     4116     4144     4145 
    4101     4016     3901     3769     3635     3514     3422     3373 
    3372     3408     3464     3514     3547     3561     3580     3623 
    3693     3801     3946     4114     4282     4409     4472     4459 
    4374     4239     4074     3894     3720     3558     3408     3271 
    3150     3080     3090     3164     3272     3380     3474     3549 
    3596     3643     3707     3775     3846     3923     4016     4133 
    4260     4380     4465     4483     4425     4301     4126     3927 
    3720     3528     3376     3276     3227     3206     3194     3195 
    3210     3248     3323     3437     3574     3720     3854     3962 
    4016     4010     3974     3933     3913     3932     3975     4027 
    4066     4072     4032     3929     3770     3584     3404     3267 
    3204     3229     3322     3458     3624     3809     3977     4098 
    4149     4128     4058     3956     3846     3766     3735     3758 
    3824     3915     4012     4079     4090     4040     3917     3720 
    3480     3249     3082     2990     2960     2988     3064     3181 
    3345     3531     3699     3811     3848     3834     3802     3797 
    3862     4004     4190     4371     4488     4506     4426     4267 
    4068     3850     3623     3408     3231     3115     3067     3094 
    3204     3389     3623     3854     4014     4066     4006     3873 
    3720     3593     3518     3499     3534     3616     3727     3828 
    3888     3881     3815     3716     3601     3477     3365     3284 
    3267     3323     3434     3566     3701     3834     3969     4095 
    4191     4236     4230     4186     4108     4002     3889     3793 
    3755     3796     3889     3991     4054     4047     3975     3854 
    3692     3520     3362     3241     3181     3192     3272     3400 
    3551     3713     3875     4018     4122     4166     4149     4090 
    4017     3963     3928     3900     3888     3886     3878     3844 
    3775     3685     3591     3505     3437     3362     3275     3196 
    3154     3180     3279     3422     3588     3757     3923     4072 
    4172     4210     4189     4114     4010     3894     3788     3711 
    3666     3645     3630     3609     3592     3577     3557     3531 
    3500     3468     3446     3426     3389     3342     3315     3354 
    3473     3646     3819     3947     4012     4023     4001     3977 
    3963     3956     3955     3952     3944     3927     3902     3889 
    3889     3889     3890     3874     3815     3717     3612     3537 
    3511     3543     3623     3709     3761     3761     3711     3627 
    3539     3477     3480     3561     3699     3848     3960     4012 
    4021     4010     4005     4009     4001     3951     3835     3654 
    3442     3242     3087     3002     3010     3123     3312     3527 
    3732     3912     4062     4178     4243     4247     4180     4045 
    3874     3703     3574     3526     3573     3705     3888     4048 
    4136     4128     4037     3893     3727     3561     3414     3306 
    3262     3272     3314     3385     3483     3599     3715     3792 
    3794     3715     3582     3465     3414     3443     3534     3645 
    3743     3809     3838     3834     3802     3770     3751     3735 
    3709     3665     3601     3539     3491     3460     3457     3487 
    3537     3591     3622     3628     3623     3630     3680     3784 
    3928     4089     4229     4320     4337     4271     4145     3991 
    3835     3686     3538     3385     3240     3118     3055     3082 
    3213     3429     3673     3881     4010     4048     4020     3958 
    3886     3832     3804     3805     3839     3883     3923     3939 
    3917     3877     3828     3773     3721     3674     3627     3585 
    3541     3489     3443     3415     3420     3451     3492     3527 
    3545     3546     3561     3608     3694     3796     3877     3915 
    3885     3797     3677     3554     3461     3424     3456     3555 
    3724     3956     4210     4423     4557     4576     4456     4217 
    3901     3558     3245     3010     2882     2863     2922     3037 
    3190     3375     3601     3863     4135     4384     4576     4683 
    4693     4604     4437     4228     4016     3829     3676     3569 
    3512     3493     3501     3505     3478     3408     3304     3204 
    3138     3118     3157     3249     3381     3568     3796     4033 
    4236     4371     4428     4402     4303     4158     3983     3808 
    3669     3597     3607     3680     3792     3917     4012     4054 
    4048     3997     3905     3774     3612     3439     3272     3133 
    3053     3046     3113     3250     3431     3619     3778     3874 
    3897     3863     3801     3758     3761     3817     3900     3960 
    3981     3942     3848     3747     3662     3607     3585     3568 
    3531     3487     3453     3439     3439     3441     3439     3434 
    3449     3501     3593     3713     3854     4006     4160     4301 
    4425     4530     4595     4606     4556     4432     4244     4012 
    3755     3505     3287     3127     3044     3030     3075     3142 
    3194     3218     3217     3213     3223     3269     3377     3543 
    3731     3906     4031     4094     4128     4151     4175     4205 
    4226     4240     4241     4221     4164     4056     3904     3732 
    3568     3427     3316     3231     3165     3125     3129     3184 
    3276     3389     3511     3638     3770     3900     4008     4079 
    4109     4118     4129     4148     4172     4179     4143     4068 
    3964     3838     3704     3570     3456     3370     3319     3300 
    3296     3289     3276     3280     3337     3457     3640     3870 
    4113     4332     4498     4584     4583     4495     4338     4166 
    4012     3881     3775     3684     3600     3537     3485     3450 
    3437     3427     3411     3379     3329     3276     3245     3245 
    3265     3304     3377     3480     3607     3765     3939     4117 
    4286     4430     4529     4549     4465     4287     4047     3801 
    3597     3443     3341     3281     3248     3238     3244     3254 
    3273     3295     3322     3348     3361     3377     3412     3474 
    3568     3688     3839     4025     4234     4442     4603     4671 
    4631     4511     4351     4180     4009     3851     3720     3603 
    3493     3376     3225     3046     2880     2779     2762     2820 
    2949     3142     3393     3692     4006     4307     4568     4747 
    4818     4762     4603     4390     4158     3920     3697     3504 
    3345     3226     3142     3079     3028     2994     2991     3007 
    3044     3119     3237     3404     3618     3856     4105     4337 
    4530     4671     4752     4779     4757     4679     4548     4371 
    4159     3923     3666     3396     3126     2872     2664     2524 
    2474     2524     2652     2821     2991     3138     3279     3438 
    3634     3877     4145     4419     4698     4962     5182     5312 
    5312     5182     4928     4576     4166     3739     3338     2998 
    2747     2592     2519     2521     2597     2727     2883     3052 
    3211     3356     3487     3623     3786     3978     4191     4398 
    4546     4607     4575     4461     4303     4128     3946     3788 
    3667     3586     3547     3534     3538     3549     3557     3553 
    3531     3485     3426     3364     3321     3319     3385     3531 
    3727     3923     4085     4197     4256     4272     4248     4183 
    4077     3931     3773     3622     3492     3388     3312     3275 
    3283     3330     3402     3461     3485     3487     3480     3483 
    3516     3599     3738     3917     4113     4305     4467     4584 
    4645     4645     4587     4453     4244     3991     3717     3449 
    3211     3011     2866     2783     2764     2812     2910     3042 
    3206     3376     3532     3665     3759     3823     3854     3862 
    3873     3897     3942     4023     4133     4256     4356     4396 
    4359     4247     4081     3890     3705     3559     3461     3400 
    3368     3349     3337     3331     3334     3354     3399     3446 
    3488     3527     3564     3604     3659     3736     3825     3904 
    3958     3979     3952     3873     3750     3597     3449     3327 
    3252     3238     3280     3373     3510     3676     3854     4020 
    4155     4257     4317     4321     4256     4129     3960     3771 
    3593     3449     3339     3275     3260     3294     3361     3426 
    3458     3454     3418     3372     3348     3365     3450     3601 
    3790     3998     4199     4374     4514     4603     4622     4567 
    4446     4286     4105     3923     3747     3580     3426     3294 
    3183     3111     3087     3098     3137     3198     3285     3414 
    3585     3792     4018     4244     4448     4602     4671     4641 
    4519     4322     4068     3793     3543     3352     3235     3199 
    3213     3250     3295     3338     3381     3426     3472     3526 
    3592     3674     3778     3900     4041     4197     4341     4463 
    4536     4536     4471     4357     4197     4002     3794     3582 
    3383     3213     3078     2963     2882     2839     2837     2883 
    2964     3063     3175     3298     3450     3634     3829     4035 
    4237     4407     4525     4573     4554     4490     4392     4278 
    4156     4023     3877     3711     3523     3335     3173     3060 
    3007     2994     2995     3005     3026     3084     3187     3331 
    3512     3708     3906     4101     4290     4463     4592     4661 
    4665     4590     4441     4239     3996     3761     3586     3493 
    3472     3477     3472     3434     3358     3273     3206     3169 
    3183     3244     3346     3480     3613     3742     3875     4008 
    4132     4233     4297     4315     4286     4229     4179     4132 
    4075     4000     3901     3780     3638     3492     3364     3253 
    3167     3114     3099     3127     3198     3306     3443     3588 
    3723     3839     3932     4000     4048     4101     4172     4244 
    4299     4315     4272     4186     4072     3921     3740     3545 
    3350     3184     3057     2979     2955     2982     3060     3184 
    3350     3551     3761     3962     4149     4298     4403     4463 
    4473     4452     4398     4305     4180     4025     3854     3688 
    3546     3446     3397     3399     3435     3478     3508     3511 
    3484     3454     3438     3443     3484     3553     3642     3748 
    3851     3947     4032     4082     4081     4025     3929     3815 
    3701     3618     3576     3570     3593     3645     3723     3820 
    3920     4001     4047     4045     4005     3933     3852     3773 
    3681     3578     3474     3373     3300     3267     3273     3327 
    3414     3507     3588     3635     3640     3622     3609     3634 
    3707     3824     3966     4093     4174     4199     4172     4108 
    4009     3870     3700     3518     3356     3246     3207     3248 
    3349     3468     3576     3661     3721     3759     3774     3782 
    3805     3842     3890     3946     3993     4024     4033     4014 
    3962     3870     3746     3611     3488     3395     3335     3314 
    3331     3381     3457     3547     3623     3669     3684     3674 
    3659     3653     3673     3726     3804     3897     3993     4077 
    4132     4135     4071     3955     3805     3650     3507     3380 
    3285     3237     3253     3349     3499     3659     3798     3881 
    3894     3848     3762     3676     3615     3593     3612     3663 
    3747     3852     3958     4054     4129     4163     4155     4114 
    4056     3974     3862     3739     3615     3496     3407     3346 
    3296     3252     3206     3168     3164     3206     3302     3441 
    3609     3796     3973     4120     4234     4306     4332     4324 
    4287     4236     4174     4113     4071     4048     4037     4033 
    4016     3978     3910     3811     3678     3522     3364     3221 
    3105     3037     3028     3068     3153     3264     3383     3497 
    3592     3663     3715     3738     3735     3724     3716     3726 
    3755     3804     3866     3925     3963     3969     3935     3862 
    3759     3639     3515     3395     3298     3241     3234     3279 
    3358     3451     3546     3631     3708     3778     3847     3913 
    3963     4001     4037     4075     4116     4148     4159     4143 
    4097     4016     3905     3761     3593     3420     3261     3138 
    3049     2991     2979     3014     3102     3248     3435     3646 
    3861     4055     4217     4324     4379     4391     4365     4315 
    4249     4171     4098     4039     3985     3936     3889     3842 
