Origin Time       2024/04/02 04:24:00
Lat.              40.133
Long.             141.712
Depth. (km)       71
Mag.              6.0
Station Code      SRCH10
Station Lat.      42.9930
Station Long.     142.0085
Station Height(m) 195
Record Time       2024/04/02 04:25:23
Sampling Freq(Hz) 100Hz
Duration Time(s)  120
Dir.              4
Scale Factor      3920(gal)/6170801
Max. Acc. (gal)   0.536
Last Correction   2024/04/02 04:25:08
Memo.             
[...]
   60156    60161    60131    60081    60034    60018    60035    60059 
   60072    60070    60062    60065    60073    60075    60071    60061 
   60050    60042    60029    60008    59990    59970    59940    59907 
   59871    59838    59827    59859    59925    59985    60015    60020 
   60015    60018    60045    60079    60090    60076    60058    60045 
   60039    60047    60072    60103    60128    60140    60133    60103 
   60065    60037    60026    60022    60009    59985    59971    59977 
   59997    60016    60004    59959    59914    59904    59937    59986 
   59998    59965    59931    59938    59995    60071    60117    60110 
   60071    60050    60068    60095    60089    60043    59988    59952 
   59952    59979    60000    59995    59978    59979    60017    60082 
   60151    60202    60226    60229    60217    60201    60192    60177 
   60141    60093    60053    60027    60010    60001    59992    59980 
   59970    59969    59977    59996    60024    60056    60087    60104 
   60101    60086    60079    60097    60144    60197    60221    60188 
   60108    60022    59971    59966    59974    59975    59972    59969 
   59968    59966    59962    59955    59949    59945    59940    59925 
   59913    59924    59968    60026    60066    60075    60065    60057 
   60070    60100    60125    60123    60088    60035    59983    59941 
   59912    59898    59902    59921    59948    59985    60029    60069 
   60096    60108    60100    60079    60047    60005    59963    59931 
   59915    59917    59928    59943    59963    59986    60011    60043 
   60079    60100    60097    60072    60033    59997    59987    60017 
   60078    60136    60156    60135    60093    60057    60041    60034 
   60021    60002    59974    59941    59913    59899    59913    59964 
   60037    60101    60127    60126    60136    60193    60283    60348 
   60336    60250    60132    60047    60030    60059    60085    60069 
   60021    59979    59973    60000    60035    60054    60048    60018 
   59984    59961    59951    59940    59925    59915    59925    59956 
   60004    60053    60086    60103    60109    60099    60070    60035 
   60010    59998    59996    59998    59986    59950    59905    59879 
   59893    59947    60009    60046    60044    60010    59981    59986 
   60022    60069    60108    60135    60155    60163    60155    60130 
   60092    60047    60014    60010    60024    60029    60009    59980 
   59959    59958    59981    60018    60045    60052    60044    60033 
   60030    60034    60038    60042    60052    60063    60062    60046 
   60024    60002    59986    59978    59967    59947    59921    59911 
   59937    59983    60021    60038    60045    60061    60093    60130 
   60153    60147    60114    60063    60007    59963    59940    59933 
   59935    59940    59945    59953    59965    59974    59976    59972 
   59970    59990    60041    60108    60164    60191    60192    60187 
   60192    60206    60214    60201    60172    60139    60103    60060 
   60014    59970    59936    59918    59903    59872    59830    59800 
   59791    59802    59826    59849    59878    59930    60014    60115 
   60200    60236    60224    60198    60185    60183    60182    60168 
   60139    60105    60088    60097    60110    60098    60053    59991 
   59942    59926    59943    59966    59975    59967    59960    59970 
   59994    60016    60027    60035    60054    60082    60101    60088 
   60047    60005    59989    60010    60056    60086    60059    59979 
   59899    59872    59925    60033    60136    60182    60159    60099 
   60056    60060    60091    60117    60111    60063    59981    59888 
   59811    59778    59795    59844    59901    59942    59954    59944 
   59935    59947    59977    60001    60013    60016    60022    60045 
   60091    60152    60208    60229    60200    60134    60062    60014 
   60001    60013    60029    60037    60035    60025    60014    59999 
   59974    59946    59931    59931    59942    59952    59951    59948 
   59952    59974    60014    60054    60088    60122    60146    60150 
   60132    60094    60053    60025    60025    60051    60082    60089 
   60056    59995    59947    59945    59990    60064    60125    60143 
   60121    60090    60077    60095    60130    60152    60139    60095 
   60051    60036    60048    60068    60075    60058    60034    60019 
   60012    60004    59997    59994    60001    60012    60012    59987 
   59942    59904    59901    59933    59975    60000    60001    59998 
   60006    60022    60029    60024    60015    60022    60055    60100 
   60129    60119    60073    60010    59955    59928    59927    59935 
   59940    59941    59954    59988    60038    60082    60106    60110 
   60096    60069    60035    60008    59994    60000    60026    60064 
   60097    60115    60124    60129    60130    60119    60089    60042 
   59994    59971    59991    60039    60080    60096    60097    60099 
   60112    60129    60137    60135    60122    60097    60057    60012 
   59978    59967    59979    59989    59972    59930    59893    59885 
   59905    59938    59968    59980    59978    59979    59988    59998 
   60007    60024    60053    60085    60104    60098    60077    60061 
   60062    60070    60073    60065    60054    60062    60099    60143 
   60166    60155    60116    60080    60073    60093    60111    60103 
   60077    60057    60058    60073    60079    60064    60045    60050 
   60077    60097    60090    60063    60042    60049    60072    60083 
   60068    60040    60024    60029    60038    60030    60001    59967 
   59951    59955    59960    59962    59968    59979    60007    60058 
   60117    60152    60148    60121    60099    60092    60105    60134 
   60153    60135    60089    60041    60009    59990    59971    59948 
   59925    59912    59915    59924    59929    59935    59946    59959 
   59972    59987    60002    60017    60031    60031    60010    59975 
   59935    59907    59901    59922    59962    59996    60001    59978 
   59945    59927    59935    59962    59987    60001    60007    60004 
   59997    59985    59964    59938    59921    59929    59962    60004 
   60041    60066    60078    60083    60089    60098    60099    60089 
   60072    60046    60014    59989    59976    59967    59954    59935 
   59917    59913    59929    59957    59986    60008    60020    60019 
   60010    59997    59990    59998    60023    60070    60136    60201 
   60235    60230    60194    60153    60133    60130    60122    60093 
   60042    59975    59917    59891    59901    59932    59955    59951 
   59925    59894    59881    59896    59930    59960    59980    59998 
   60023    60049    60068    60074    60061    60039    60025    60032 
   60055    60086    60112    60124    60115    60097    60076    60051 
   60038    60057    60104    60152    60171    60150    60101    60054 
   60040    60056    60078    60083    60072    60061    60071    60099 
   60131    60151    60153    60134    60096    60057    60033    60036 
   60063    60094    60106    60088    60061    60058    60085    60122 
   60134    60111    60078    60061    60069    60093    60112    60112 
   60088    60046    59997    59958    59940    59927    59902    59872 
   59855    59868    59915    59979    60026    60037    60026    60023 
   60036    60053    60054    60037    60021    60026    60054    60090 
   60112    60110    60096    60092    60099    60100    60079    60037 
   59991    59967    59966    59970    59962    59942    59923    59918 
   59940    59991    60060    60125    60167    60185    60190    60187 
   60172    60139    60098    60061    60031    60002    59974    59950 
   59936    59943    59970    59999    60012    60003    59983    59969 
   59981    60022    60063    60081    60068    60031    59994    59984 
   60004    60032    60039    60007    59947    59894    59879    59902 
   59937    59955    59940    59903    59879    59886    59919    59960 
   60000    60037    60072    60103    60127    60136    60126    60105 
   60084    60065    60048    60029    60021    60030    60041    60034 
   60013    59992    59980    59989    60017    60045    60058    60057 
   60046    60037    60045    60073    60111    60145    60165    60163 
   60140    60110    60080    60050    60019    59995    59979    59964 
   59944    59924    59906    59901    59922    59969    60019    60058 
   60084    60096    60095    60086    60069    60046    60025    60017 
   60028    60044    60050    60044    60031    60006    59973    59956 
   59967    59995    60024    60041    60036    60008    59975    59963 
   59983    60017    60047    60061    60061    60060    60060    60064 
   60063    60051    60039    60035    60039    60051    60064    60060 
   60032    59984    59931    59897    59909    59967    60038    60080 
   60071    60018    59966    59964    60019    60091    60135    60134 
   60104    60064    60025    59999    59996    60010    60031    60055 
   60075    60073    60048    60013    59990    59995    60011    60016 
   60008    59997    59994    60002    60013    60026    60042    60056 
   60066    60073    60071    60061    60056    60073    60113    60154 
   60178    60187    60187    60182    60170    60150    60122    60084 
   60049    60020    59992    59957    59919    59893    59890    59900 
   59904    59897    59889    59886    59893    59921    59968    60018 
   60059    60080    60073    60048    60026    60013    60003    59992 
   59981    59981    60001    60039    60081    60114    60128    60124 
   60112    60093    60068    60046    60038    60050    60070    60081 
   60076    60065    60065    60090    60130    60170    60188    60168 
   60127    60095    60094    60109    60114    60091    60048    60010 
   59997    60014    60047    60068    60050    60003    59967    59970 
   60011    60065    60096    60081    60027    59960    59914    59897 
   59892    59882    59873    59886    59929    59989    60040    60051 
   60018    59973    59955    59980    60028    60057    60053    60042 
   60055    60095    60135    60144    60106    60040    59995    60007 
   60060    60103    60099    60044    59967    59911    59896    59912 
   59929    59925    59906    59887    59877    59884    59905    59929 
   59949    59961    59959    59948    59938    59943    59973    60023 
   60072    60106    60125    60134    60138    60136    60130    60120 
   60111    60105    60095    60078    60058    60039    60023    60014 
   60000    59976    59953    59945    59958    59979    59989    59987 
   59988    60007    60059    60134    60195    60210    60182    60143 
   60123    60128    60146    60158    60144    60107    60075    60065 
   60065    60062    60048    60023    59994    59980    59977    59974 
   59978    59994    60014    60026    60016    59979    59949    59955 
   59996    60057    60106    60127    60122    60110    60101    60092 
   60066    60022    59979    59962    59988    60040    60075    60072 
   60043    60014    60001    60005    60008    59993    59967    59948 
   59951    59980    60019    60049    60071    60097    60119    60124 
   60116    60104    60090    60078    60074    60074    60064    60043 
   60008    59967    59936    59927    59936    59950    59960    59974 
   60000    60028    60044    60041    60022    60000    59988    59983 
   59972    59952    59937    59939    59964    60006    60047    60071 
   60086    60112    60151    60180    60181    60150    60102    60059 
   60033    60029    60043    60068    60101    60133    60144    60123 
   60080    60036    59999    59964    59930    59908    59903    59913 
   59940    59966    59962    59926    59889    59878    59899    59940 
   59981    60011    60035    60068    60111    60147    60158    60136 
   60096    60059    60033    60018    60012    60009    60013    60032 
   60058    60075    60070    60042    60008    59986    59976    59967 
   59953    59947    59965    60009    60057    60073    60040    59978 
   59936    59956    60039    60140    60192    60165    60090    60033 
   60036    60083    60124    60118    60073    60030    60031    60071 
   60110    60112    60076    60029    59991    59966    59936    59891 
   59839    59805    59810    59852    59897    59927    59947    59970 
   60003    60052    60107    60149    60161    60147    60120    60103 
   60111    60139    60174    60202    60207    60183    60137    60077 
   60019    59966    59923    59893    59875    59871    59895    59950 
   60021    60080    60101    60085    60047    60013    60008    60033 
   60068    60092    60095    60071    60029    59978    59921    59871 
   59845    59838    59849    59872    59886    59882    59868    59871 
   59915    59990    60052    60070    60050    60027    60035    60075 
   60118    60132    60121    60111    60115    60121    60100    60033 
   59927    59819    59748    59729    59757    59816    59888    59962 
   60029    60075    60094    60091    60080    60068    60059    60065 
   60097    60153    60218    60263    60263    60214    60126    60016 
   59906    59802    59706    59625    59571    59555    59571    59609 
   59663    59727    59784    59833    59868    59883    59874    59861 
   59863    59873    59879    59868    59832    59788    59759    59745 
   59723    59667    59572    59473    59429    59479    59622    59828 
   60050    60260    60451    60621    60758    60848    60874    60832 
   60747    60648    60555    60484    60448    60443    60460    60484 
   60498    60485    60432    60337    60211    60070    59940    59845 
   59806    59833    59922    60048    60165    60229    60240    60222 
   60199    60189    60198    60217    60236    60256    60279    60293 
   60285    60251    60204    60151    60079    59978    59859    59757 
   59704    59709    59756    59817    59869    59909    59942    59978 
   60018    60053    60067    60048    60004    59941    59858    59777 
   59730    59740    59809    59911    60015    60093    60136    60159 
   60176    60189    60197    60195    60169    60119    60064    60035 
   60042    60076    60118    60143    60132    60108    60096    60103 
   60129    60164    60193    60216    60246    60287    60316    60309 
   60273    60218    60148    60067    59971    59863    59764    59710 
   59714    59761    59814    59849    59877    59918    59983    60059 
   60124    60158    60152    60120    60094    60097    60127    60155 
   60151    60111    60055    60005    59987    60009    60053    60084 
   60075    60026    59970    59951    59988    60075    60191    60303 
   60379    60407    60378    60294    60177    60049    59923    59812 
   59736    59713    59756    59859    59986    60090    60145    60159 
   60160    60170    60199    60228    60221    60158    60048    59921 
   59820    59782    59812    59884    59952    59976    59945    59877 
   59818    59800    59829    59894    59977    60056    60125    60176 
   60214    60250    60288    60316    60304    60222    60080    59924 
   59809    59771    59810    59887    59951    59965    59929    59874 
   59839    59849    59913    60016    60121    60189    60197    60150 
   60077    60020    60014    60057    60120    60184    60238    60273 
   60277    60245    60183    60110    60041    59980    59923    59858 
   59775    59676    59569    59472    59417    59425    59499    59634 
   59801    59958    60059    60077    60026    59953    59908    59927 
   60016    60158    60310    60423    60477    60480    60458    60426 
   60369    60255    60071    59833    59588    59390    59278    59267 
   59349    59484    59631    59777    59930    60096    60261    60385 
   60441    60439    60414    60405    60431    60479    60521    60524 
   60480    60403    60313    60228    60158    60095    60020    59922 
   59824    59764    59773    59848    59954    60046    60100    60118 
   60121    60133    60161    60195    60216    60212    60181    60121 
   60041    59960    59888    59826    59781    59764    59790    59864 
   59976    60106    60231    60320    60341    60277    60146    59999 
   59902    59886    59940    60018    60073    60085    60065    60047 
   60049    60060    60061    60051    60031    60007    59984    59969 
   59971    59996    60031    60064    60091    60114    60133    60145 
   60136    60109    60078    60064    60084    60123    60147    60144 
   60124    60105    60100    60104    60098    60062    59988    59885 
   59776    59698    59685    59742    59833    59922    59983    60008 
   59993    59948    59886    59818    59767    59757    59789    59840 
   59881    59884    59850    59819    59828    59888    59970    60024 
   60036    60037    60063    60126    60208    60262    60260    60214 
   60155    60122    60132    60182    60267    60363    60441    60470 
   60424    60315    60186    60081    60021    59991    59942    59846 
   59721    59608    59550    59566    59629    59697    59745    59771 
   59802    59875    59991    60118    60227    60302    60342    60360 
   60367    60359    60325    60257    60159    60042    59909    59760 
   59606    59460    59344    59277    59263    59284    59332    59408 
   59507    59623    59741    59838    59899    59920    59915    59920 
   59956    60023    60106    60183    60228    60237    60224    60198 
   60161    60121    60106    60137    60206    60288    60347    60359 
   60323    60261    60202    60163    60136    60109    60069    60010 
   59959    59954    60014    60119    60223    60278    60276    60248 
   60231    60239    60255    60254    60228    60180    60127    60076 
   60022    59967    59921    59897    59898    59910    59911    59891 
   59862    59847    59863    59900    59938    59962    59969    59962 
   59951    59943    59927    59887    59833    59789    59776    59806 
   59872    59948    60007    60028    60004    59937    59845    59758 
   59703    59689    59711    59761    59837    59937    60064    60207 
   60331    60395    60382    60309    60202    60093    60007    59948 
   59908    59884    59878    59897    59943    60005    60073    60147 
   60227    60317    60407    60465    60477    60457    60435    60440 
   60485    60556    60607    60608    60569    60517    60475    60445 
   60398    60301    60155    59994    59855    59765    59734    59749 
   59778    59791    59778    59749    59724    59732    59786    59879 
   59991    60092    60158    60177    60150    60104    60077    60094 
   60154    60238    60297    60292    60221    60119    60044    60033 
   60084    60156    60206    60220    60212    60198    60193    60197 
   60196    60181    60156    60125    60091    60046    59978    59884 
   59768    59645    59552    59530    59581    59677    59776    59846 
   59894    59943    60017    60118    60217    60274    60276    60237 
   60185    60148    60145    60177    60230    60274    60279    60233 
   60148    60050    59958    59885    59836    59819    59839    59886 
   59943    60007    60077    60146    60210    60261    60289    60294 
   60287    60286    60293    60286    60241    60157    60053    59969 
   59938    59969    60049    60154    60260    60346    60404    60434 
