Origin Time       2024/04/02 04:24:00
Lat.              40.133
Long.             141.712
Depth. (km)       71
Mag.              6.0
Station Code      TCGH12
Station Lat.      36.6959
Station Long.     139.9842
Station Height(m) 42
Record Time       2024/04/02 04:25:33
Sampling Freq(Hz) 100Hz
Duration Time(s)  197
Dir.              3
Scale Factor      2942(gal)/8224139
Max. Acc. (gal)   0.569
Last Correction   2024/04/02 04:25:34
Memo.             
[...]
   -3246    -3014    -2925    -2920    -2898    -2999    -3121    -3121 
   -3132    -3095    -2889    -2758    -2868    -2983    -2884    -2689 
   -2605    -2693    -2816    -2799    -2744    -2843    -2978    -3044 
   -3152    -3256    -3237    -3156    -3090    -3088    -3154    -3164 
   -3099    -3152    -3325    -3369    -3275    -3242    -3256    -3221 
   -3198    -3230    -3321    -3392    -3334    -3306    -3435    -3485 
   -3346    -3234    -3221    -3237    -3303    -3419    -3559    -3647 
   -3561    -3456    -3531    -3607    -3443    -3219    -3211    -3291 
   -3310    -3379    -3465    -3411    -3276    -3234    -3294    -3357 
   -3354    -3300    -3346    -3464    -3411    -3273    -3280    -3329 
   -3321    -3345    -3376    -3350    -3283    -3203    -3208    -3329 
   -3423    -3395    -3361    -3431    -3495    -3489    -3495    -3484 
   -3422    -3365    -3329    -3269    -3222    -3240    -3285    -3304 
   -3329    -3393    -3392    -3314    -3383    -3555    -3496    -3206 
   -3026    -2968    -2851    -2799    -2886    -3007    -3133    -3161 
   -3073    -3007    -2967    -2887    -2868    -2921    -2884    -2806 
   -2816    -2874    -2932    -2945    -2937    -3045    -3213    -3230 
   -3145    -3179    -3275    -3222    -3110    -3095    -3068    -3024 
   -3080    -3137    -3181    -3334    -3435    -3338    -3204    -3248 
   -3400    -3343    -3092    -2991    -3034    -3007    -3037    -3246 
   -3345    -3204    -3106    -3130    -3105    -3048    -3040    -3036 
   -3045    -3068    -3040    -3060    -3165    -3190    -3114    -3045 
   -3019    -3040    -3030    -2960    -2920    -2902    -2909    -2983 
   -2998    -3017    -3163    -3225    -3165    -3125    -3095    -3117 
   -3154    -3086    -3036    -3092    -3105    -3075    -3063    -3038 
   -3049    -3115    -3191    -3192    -3084    -3007    -3040    -3156 
   -3269    -3227    -3090    -3046    -3107    -3264    -3458    -3492 
   -3434    -3454    -3474    -3496    -3559    -3543    -3526    -3612 
   -3565    -3376    -3342    -3385    -3393    -3558    -3769    -3751 
   -3694    -3813    -3905    -3793    -3609    -3462    -3352    -3288 
   -3258    -3308    -3481    -3657    -3762    -3809    -3770    -3627 
   -3391    -3183    -3137    -3164    -3129    -3102    -3204    -3389 
   -3507    -3597    -3743    -3759    -3551    -3343    -3267    -3327 
   -3457    -3439    -3327    -3346    -3442    -3596    -3850    -3944 
   -3712    -3389    -3240    -3295    -3422    -3449    -3392    -3403 
   -3450    -3438    -3383    -3296    -3188    -3094    -3078    -3179 
   -3315    -3339    -3279    -3310    -3396    -3333    -3192    -3159 
   -3117    -3015    -3055    -3191    -3181    -3029    -2884    -2844 
   -2929    -2991    -2948    -2871    -2776    -2732    -2794    -2752 
   -2506    -2377    -2551    -2724    -2693    -2721    -2925    -3041 
   -2987    -2909    -2830    -2735    -2647    -2614    -2729    -2913 
   -2945    -2930    -3036    -3052    -2883    -2793    -2906    -3052 
   -3029    -2903    -2978    -3225    -3279    -3172    -3181    -3296 
   -3404    -3416    -3327    -3302    -3275    -3142    -3114    -3231 
   -3299    -3261    -3230    -3345    -3522    -3537    -3438    -3427 
   -3481    -3433    -3318    -3318    -3361    -3323    -3295    -3315 
   -3393    -3519    -3458    -3226    -3242    -3480    -3518    -3403 
   -3342    -3277    -3214    -3149    -3051    -3024    -3091    -3176 
   -3252    -3389    -3635    -3796    -3726    -3611    -3561    -3411 
   -3173    -3109    -3231    -3292    -3252    -3287    -3450    -3608 
   -3588    -3411    -3262    -3113    -2930    -2995    -3244    -3287 
   -3186    -3136    -3118    -3152    -3157    -3087    -3099    -3149 
   -3056    -2951    -3046    -3153    -3038    -2959    -3042    -2982 
   -2875    -2991    -3106    -3094    -3049    -2986    -3040    -3123 
   -3040    -3021    -3096    -3055    -2970    -2924    -2941    -2986 
   -2924    -2848    -2926    -3080    -3194    -3215    -3138    -3032 
   -2970    -2987    -3048    -3068    -3119    -3288    -3434    -3460 
   -3450    -3474    -3487    -3369    -3163    -3061    -3010    -2959 
   -3136    -3391    -3404    -3346    -3357    -3352    -3326    -3272 
   -3221    -3184    -3067    -2951    -3026    -3244    -3462    -3607 
   -3635    -3595    -3531    -3437    -3338    -3269    -3230    -3150 
   -3095    -3272    -3523    -3574    -3530    -3505    -3460    -3465 
   -3561    -3568    -3419    -3253    -3199    -3319    -3470    -3395 
   -3210    -3161    -3150    -3180    -3357    -3427    -3315    -3258 
   -3226    -3187    -3219    -3244    -3264    -3295    -3172    -3011 
   -3067    -3150    -3042    -2937    -3051    -3279    -3424    -3389 
   -3219    -3144    -3245    -3319    -3273    -3211    -3223    -3334 
   -3458    -3473    -3427    -3397    -3391    -3424    -3393    -3253 
   -3165    -3165    -3190    -3223    -3244    -3299    -3377    -3435 
   -3568    -3658    -3542    -3426    -3419    -3350    -3211    -3192 
   -3349    -3469    -3462    -3503    -3558    -3558    -3616    -3558 
   -3306    -3226    -3279    -3175    -3114    -3217    -3281    -3248 
   -3082    -2860    -2848    -2960    -2983    -2998    -2999    -2921 
   -2874    -2878    -2887    -2914    -2889    -2785    -2709    -2720 
   -2745    -2741    -2758    -2818    -2905    -2975    -2914    -2763 
   -2668    -2610    -2565    -2554    -2565    -2689    -2867    -2901 
   -2926    -2990    -2901    -2821    -2910    -2971    -2984    -3030 
   -3013    -3010    -3123    -3180    -3137    -3181    -3335    -3443 
   -3549    -3732    -3807    -3658    -3480    -3422    -3364    -3249 
   -3298    -3491    -3593    -3713    -3950    -4028    -3931    -3923 
   -3916    -3740    -3573    -3592    -3676    -3600    -3376    -3283 
   -3407    -3570    -3757    -3906    -3789    -3538    -3423    -3407 
   -3420    -3477    -3578    -3672    -3643    -3593    -3697    -3720 
   -3485    -3321    -3411    -3488    -3437    -3447    -3510    -3485 
   -3399    -3345    -3441    -3531    -3373    -3235    -3329    -3342 
   -3258    -3376    -3585    -3628    -3511    -3244    -3010    -3092 
   -3253    -3215    -3103    -3003    -2995    -3152    -3284    -3234 
   -3107    -2978    -2879    -2917    -3009    -3021    -3022    -3107 
   -3181    -2992    -2596    -2394    -2538    -2762    -2830    -2913 
   -3115    -3152    -2979    -2866    -2832    -2664    -2358    -2205 
   -2278    -2357    -2452    -2708    -3057    -3214    -3002    -2763 
   -2832    -3010    -3011    -2816    -2655    -2770    -3002    -3134 
   -3241    -3307    -3184    -3026    -3025    -3037    -2999    -3026 
   -3150    -3339    -3381    -3235    -3250    -3368    -3214    -3032 
   -3157    -3268    -3186    -3214    -3397    -3549    -3609    -3547 
   -3462    -3385    -3180    -3129    -3365    -3396    -3234    -3275 
   -3403    -3488    -3524    -3461    -3497    -3630    -3492    -3210 
   -3153    -3200    -3150    -3075    -2999    -2961    -3005    -3029 
   -3190    -3565    -3681    -3507    -3480    -3512    -3465    -3438 
   -3321    -3140    -3149    -3265    -3314    -3388    -3465    -3469 
   -3468    -3381    -3252    -3298    -3315    -3076    -2922    -2995 
   -2961    -2920    -3202    -3526    -3591    -3585    -3595    -3539 
   -3443    -3366    -3345    -3366    -3433    -3477    -3439    -3387 
   -3319    -3284    -3377    -3433    -3319    -3194    -3204    -3303 
   -3438    -3572    -3507    -3237    -3057    -3105    -3211    -3219 
   -3146    -3018    -2889    -3003    -3352    -3551    -3520    -3461 
   -3469    -3478    -3343    -3121    -2938    -2813    -2851    -3010 
   -3099    -3159    -3234    -3230    -3192    -3200    -3091    -2813 
   -2737    -2991    -3181    -3088    -2921    -2956    -3100    -3148 
   -3218    -3210    -2928    -2782    -2951    -3073    -3161    -3329 
   -3364    -3264    -3258    -3265    -3092    -2906    -2876    -2926 
   -2948    -2938    -3041    -3213    -3240    -3213    -3215    -3150 
   -3125    -3215    -3345    -3433    -3327    -3210    -3342    -3450 
   -3368    -3300    -3256    -3211    -3311    -3501    -3616    -3619 
   -3516    -3427    -3430    -3383    -3250    -3186    -3292    -3439 
   -3358    -3175    -3244    -3451    -3539    -3485    -3343    -3246 
   -3225    -3207    -3265    -3424    -3608    -3738    -3726    -3573 
   -3342    -3146    -3130    -3246    -3315    -3299    -3281    -3365 
   -3516    -3543    -3458    -3395    -3275    -3075    -2976    -3017 
   -3034    -3052    -3208    -3325    -3156    -2944    -3041    -3265 
   -3273    -3148    -3114    -3149    -3115    -3037    -3010    -2930 
   -2747    -2739    -2968    -3126    -3154    -3168    -3183    -3200 
   -3111    -2937    -2949    -3009    -2833    -2705    -2837    -2972 
   -2999    -3011    -3048    -3057    -2944    -2856    -2980    -3071 
   -2982    -3025    -3276    -3441    -3454    -3435    -3360    -3210 
   -3118    -3057    -2920    -2883    -3046    -3132    -3087    -3199 
   -3399    -3368    -3190    -3167    -3376    -3620    -3616    -3487 
   -3535    -3630    -3595    -3510    -3526    -3713    -3794    -3651 
   -3742    -4010    -3855    -3422    -3200    -3186    -3223    -3229 
   -3268    -3472    -3608    -3504    -3441    -3438    -3265    -3080 
   -3076    -3146    -3154    -3048    -2940    -3068    -3412    -3634 
   -3519    -3262    -3136    -3090    -2998    -2922    -2898    -2857 
   -2818    -2933    -3141    -3160    -3046    -3021    -3011    -2890 
   -2724    -2700    -2795    -2803    -2847    -3032    -3080    -3109 
   -3345    -3402    -3179    -3127    -3219    -3110    -2917    -3032 
   -3522    -3962    -3956    -3759    -3739    -3697    -3501    -3431 
   -3516    -3546    -3555    -3715    -3917    -3843    -3501    -3188 
   -3103    -3279    -3454    -3483    -3589    -3717    -3630    -3524 
   -3653    -3747    -3578    -3446    -3507    -3514    -3407    -3397 
   -3565    -3699    -3613    -3474    -3530    -3674    -3650    -3491 
   -3407    -3381    -3273    -3211    -3353    -3518    -3418    -3056 
   -2722    -2594    -2596    -2650    -2713    -2754    -2801    -2887 
   -2951    -2878    -2683    -2535    -2590    -2718    -2698    -2717 
   -2799    -2763    -2806    -2902    -2878    -2928    -2938    -2825 
   -2945    -3145    -3082    -2967    -2887    -2764    -2722    -2733 
   -2772    -2874    -2879    -2839    -2926    -2998    -2967    -3013 
   -3183    -3339    -3385    -3223    -2988    -3001    -3146    -3130 
   -3036    -3099    -3318    -3438    -3360    -3238    -3109    -3041 
   -3190    -3395    -3456    -3439    -3393    -3360    -3358    -3226 
   -2999    -2910    -2974    -3049    -3059    -3051    -3117    -3199 
   -3150    -3079    -3172    -3269    -3233    -3195    -3186    -3129 
   -3013    -2948    -3024    -3138    -3241    -3310    -3303    -3354 
   -3438    -3411    -3437    -3618    -3777    -3782    -3623    -3488 
   -3528    -3557    -3483    -3443    -3468    -3604    -3840    -4020 
   -4062    -3910    -3655    -3522    -3454    -3385    -3446    -3516 
   -3532    -3681    -3831    -3820    -3807    -3805    -3688    -3518 
   -3466    -3572    -3740    -3780    -3523    -3227    -3184    -3190 
   -3107    -3064    -3014    -2992    -3227    -3539    -3645    -3643 
   -3549    -3352    -3207    -2987    -2632    -2516    -2718    -2944 
   -3153    -3354    -3466    -3501    -3391    -3121    -2857    -2725 
   -2770    -2876    -2924    -2933    -2916    -2986    -3208    -3396 
   -3416    -3215    -2866    -2722    -2817    -2760    -2598    -2625 
   -2770    -2886    -3010    -3196    -3288    -3188    -3125    -3115 
   -3026    -3021    -3060    -3009    -3067    -3187    -3140    -3084 
   -3078    -2999    -2982    -3034    -3003    -2876    -2762    -2833 
   -2995    -2997    -2891    -2856    -2971    -3148    -3226    -3288 
   -3411    -3441    -3437    -3505    -3383    -3044    -2968    -3272 
   -3519    -3573    -3636    -3632    -3519    -3492    -3539    -3542 
   -3507    -3508    -3539    -3437    -3345    -3514    -3636    -3568 
   -3577    -3497    -3237    -3200    -3383    -3457    -3372    -3296 
   -3473    -3662    -3493    -3335    -3368    -3291    -3206    -3180 
   -3086    -3095    -3241    -3307    -3365    -3495    -3480    -3319 
   -3206    -3165    -3195    -3175    -2936    -2795    -3009    -3117 
   -2991    -3069    -3250    -3229    -3137    -3125    -3176    -3187 
   -3092    -3076    -3231    -3244    -3063    -3007    -2917    -2702 
   -2758    -3005    -3164    -3261    -3213    -3067    -3106    -3175 
   -3001    -2887    -3029    -3094    -3032    -3091    -3186    -3048 
   -2860    -2929    -3009    -2951    -2997    -3159    -3288    -3240 
   -2975    -2739    -2712    -2704    -2685    -2879    -3121    -3118 
   -2955    -2739    -2490    -2297    -2238    -2335    -2575    -2826 
   -2860    -2683    -2578    -2600    -2531    -2486    -2592    -2579 
   -2490    -2520    -2570    -2590    -2620    -2701    -2768    -2727 
   -2758    -2937    -2953    -2718    -2554    -2613    -2731    -2868 
   -3200    -3657    -3913    -3959    -4043    -4117    -4093    -4060 
   -4024    -3893    -3750    -3888    -4257    -4492    -4592    -4654 
   -4614    -4482    -4361    -4328    -4309    -4228    -4229    -4483 
   -4795    -4815    -4638    -4599    -4599    -4402    -4191    -4131 
   -4070    -3985    -3944    -3924    -3943    -3915    -3794    -3794 
   -3798    -3623    -3500    -3465    -3442    -3492    -3499    -3507 
   -3658    -3731    -3659    -3650    -3647    -3531    -3361    -3237 
   -3242    -3349    -3474    -3508    -3372    -3218    -3159    -3142 
   -3159    -3150    -3049    -2918    -2849    -2937    -3130    -3164 
   -3044    -2979    -2882    -2689    -2687    -2917    -3006    -2799 
   -2569    -2587    -2698    -2648    -2569    -2536    -2490    -2511 
   -2573    -2593    -2574    -2490    -2412    -2478    -2614    -2628 
   -2548    -2550    -2650    -2755    -2787    -2673    -2516    -2502 
   -2509    -2421    -2439    -2542    -2485    -2362    -2400    -2632 
   -2874    -2894    -2907    -3142    -3202    -2995    -2895    -2884 
   -2844    -2841    -2924    -3165    -3434    -3489    -3443    -3453 
   -3385    -3214    -3144    -3244    -3352    -3356    -3307    -3246 
   -3196    -3268    -3468    -3520    -3300    -3181    -3337    -3416 
   -3364    -3389    -3400    -3304    -3312    -3492    -3512    -3276 
   -3167    -3267    -3343    -3492    -3754    -3784    -3595    -3592 
   -3712    -3678    -3596    -3565    -3545    -3562    -3561    -3550 
   -3609    -3577    -3443    -3400    -3310    -3180    -3329    -3557 
   -3572    -3489    -3310    -3118    -3129    -3157    -3090    -3146 
   -3279    -3316    -3319    -3308    -3339    -3488    -3566    -3499 
   -3462    -3468    -3338    -3137    -3123    -3252    -3302    -3302 
   -3381    -3468    -3392    -3264    -3210    -3103    -3030    -3127 
   -3157    -3032    -3013    -3171    -3277    -3225    -3199    -3280 
   -3337    -3346    -3302    -3149    -2990    -2902    -2828    -2814 
   -2882    -2898    -2803    -2712    -2798    -3022    -3119    -3040 
   -3041    -3171    -3149    -2963    -2920    -3049    -3094    -3026 
   -3021    -3102    -3157    -3183    -3307    -3537    -3673    -3643 
   -3484    -3240    -3083    -3084    -3154    -3171    -3109    -3190 
   -3423    -3528    -3503    -3465    -3300    -3033    -2968    -3129 
   -3163    -3063    -3171    -3369    -3300    -3134    -3064    -2982 
   -2963    -3099    -3267    -3377    -3342    -3229    -3208    -3148 
   -3052    -3165    -3300    -3275    -3315    -3435    -3408    -3269 
   -3184    -3106    -3028    -3084    -3186    -3225    -3248    -3245 
   -3339    -3520    -3518    -3501    -3636    -3608    -3524    -3708 
   -3809    -3534    -3265    -3261    -3334    -3368    -3370    -3377 
   -3418    -3450    -3497    -3593    -3653    -3631    -3568    -3477 
   -3443    -3493    -3495    -3493    -3539    -3481    -3389    -3446 
   -3519    -3462    -3408    -3408    -3329    -3261    -3295    -3230 
   -3040    -2934    -2959    -2957    -2857    -2735    -2721    -2872 
   -2998    -2930    -2837    -2817    -2731    -2585    -2566    -2662 
   -2695    -2677    -2712    -2802    -2918    -3030    -3105    -3084 
   -2976    -2917    -3006    -3177    -3262    -3246    -3306    -3437 
   -3424    -3294    -3244    -3248    -3192    -3115    -3083    -3096 
   -3082    -2998    -2920    -2891    -2925    -2998    -2959    -2828 
   -2841    -3001    -3069    -2972    -2825    -2689    -2538    -2478 
   -2697    -3005    -3056    -2949    -2965    -3064    -3044    -2918 
   -2862    -2890    -2922    -3015    -3126    -3137    -3202    -3345 
   -3429    -3491    -3461    -3325    -3250    -3254    -3327    -3439 
   -3476    -3569    -3790    -3878    -3839    -3840    -3790    -3743 
   -3785    -3735    -3657    -3754    -3875    -3900    -3890    -3840 
   -3800    -3832    -3838    -3754    -3712    -3750    -3707    -3631 
   -3592    -3434    -3227    -3161    -3179    -3219    -3249    -3238 
   -3250    -3277    -3287    -3387    -3555    -3541    -3303    -3132 
   -3172    -3262    -3254    -3222    -3269    -3296    -3226    -3234 
   -3346    -3341    -3215    -3140    -3078    -2918    -2741    -2628 
   -2590    -2543    -2361    -2245    -2323    -2350    -2381    -2523 
   -2601    -2714    -2897    -2940    -2932    -2884    -2675    -2578 
   -2776    -2953    -2913    -2878    -2982    -3098    -3163    -3257 
   -3376    -3368    -3226    -3226    -3438    -3492    -3235    -3072 
   -3187    -3254    -3229    -3329    -3449    -3451    -3470    -3574 
   -3607    -3500    -3447    -3512    -3504    -3406    -3353    -3360 
   -3294    -3144    -3175    -3337    -3335    -3289    -3312    -3327 
   -3411    -3546    -3580    -3520    -3483    -3585    -3735    -3677 
   -3449    -3283    -3276    -3375    -3447    -3445    -3380    -3253 
   -3215    -3361    -3408    -3298    -3312    -3354    -3237    -3129 
   -3150    -3246    -3338    -3411    -3516    -3584    -3520    -3468 
   -3549    -3589    -3433    -3296    -3418    -3543    -3456    -3361 
   -3287    -3210    -3237    -3176    -3048    -3105    -3115    -2959 
   -2941    -2997    -2945    -2914    -2902    -2821    -2741    -2716 
   -2830    -3076    -3222    -3187    -3106    -3090    -3148    -3191 
   -3203    -3269    -3357    -3407    -3424    -3433    -3406    -3307 
   -3253    -3261    -3165    -3045    -3046    -3100    -3125    -3073 
   -3007    -3117    -3373    -3522    -3527    -3574    -3670    -3665 
   -3542    -3449    -3462    -3429    -3246    -3129    -3231    -3418 
   -3518    -3564    -3616    -3604    -3491    -3335    -3277    -3350 
   -3369    -3294    -3296    -3341    -3257    -3125    -3111    -3137 
   -3049    -2930    -2947    -3044    -3065    -3069    -3175    -3261 
   -3223    -3198    -3242    -3203    -3145    -3322    -3572    -3508 
   -3248    -3149    -3140    -2972    -2853    -3044    -3199    -3040 
   -2902    -2964    -3034    -3079    -3134    -3105    -2890    -2625 
