Origin Time       2024/04/02 04:24:00
Lat.              40.133
Long.             141.712
Depth. (km)       71
Mag.              6.0
Station Code      TCGH12
Station Lat.      36.6959
Station Long.     139.9842
Station Height(m) 42
Record Time       2024/04/02 04:25:33
Sampling Freq(Hz) 100Hz
Duration Time(s)  197
Dir.              2
Scale Factor      2942(gal)/8224139
Max. Acc. (gal)   0.502
Last Correction   2024/04/02 04:25:34
Memo.             
[...]
   39425    39441    39449    39429    39415    39456    39492    39479 
   39440    39391    39333    39285    39278    39322    39371    39417 
   39491    39544    39509    39449    39403    39328    39237    39194 
   39221    39270    39272    39248    39251    39272    39282    39267 
   39260    39282    39314    39349    39347    39279    39213    39235 
   39317    39363    39367    39380    39359    39272    39225    39275 
   39337    39341    39307    39271    39232    39195    39162    39140 
   39147    39143    39109    39101    39116    39118    39118    39121 
   39116    39105    39081    39064    39073    39055    39017    39066 
   39213    39344    39384    39360    39321    39287    39249    39224 
   39268    39357    39402    39415    39445    39484    39530    39567 
   39568    39569    39594    39565    39453    39378    39417    39487 
   39518    39542    39521    39393    39274    39258    39259    39228 
   39179    39113    39070    39091    39167    39249    39293    39307 
   39313    39295    39314    39430    39560    39637    39702    39746 
   39757    39784    39835    39820    39719    39646    39648    39685 
   39744    39775    39744    39675    39591    39540    39511    39469 
   39455    39463    39432    39337    39217    39170    39214    39280 
   39352    39393    39371    39336    39325    39343    39397    39471 
   39526    39552    39569    39591    39588    39532    39463    39428 
   39424    39436    39483    39564    39642    39695    39694    39637 
   39619    39652    39621    39567    39541    39501    39495    39521 
   39517    39536    39555    39509    39433    39332    39199    39110 
   39093    39144    39239    39278    39244    39248    39324    39386 
   39421    39448    39433    39375    39305    39255    39267    39317 
   39332    39329    39360    39394    39386    39336    39217    39054 
   38966    38961    38955    38969    39013    38994    38909    38880 
   38904    38897    38880    38897    38955    39036    39074    39058 
   39071    39117    39150    39197    39247    39253    39282    39361 
   39407    39413    39418    39407    39367    39326    39310    39329 
   39387    39474    39528    39506    39445    39405    39402    39429 
   39484    39545    39573    39561    39538    39523    39528    39533 
   39530    39540    39522    39463    39442    39453    39402    39325 
   39316    39316    39263    39263    39341    39395    39418    39445 
   39447    39411    39382    39375    39380    39391    39395    39403 
   39447    39483    39492    39507    39501    39464    39432    39415 
   39448    39519    39567    39559    39488    39390    39343    39386 
   39483    39568    39587    39549    39488    39418    39352    39320 
   39313    39306    39275    39224    39220    39274    39313    39337 
   39380    39405    39364    39312    39313    39328    39340    39393 
   39436    39418    39393    39403    39461    39532    39584    39644 
   39679    39665    39657    39631    39536    39448    39428    39420 
   39409    39445    39518    39550    39506    39440    39433    39503 
   39600    39644    39614    39561    39505    39452    39456    39507 
   39542    39542    39496    39451    39483    39536    39529    39487 
   39441    39391    39337    39302    39303    39318    39325    39280 
   39214    39217    39245    39259    39321    39401    39449    39506 
   39561    39588    39592    39541    39451    39374    39329    39343 
   39357    39321    39309    39337    39356    39367    39386    39448 
   39538    39599    39621    39594    39553    39564    39603    39644 
   39672    39640    39579    39544    39476    39399    39388    39391 
   39378    39424    39487    39476    39451    39475    39484    39453 
   39453    39483    39483    39447    39401    39393    39425    39453 
   39422    39343    39279    39235    39210    39241    39278    39262 
   39259    39291    39289    39259    39251    39244    39220    39199 
   39181    39137    39094    39123    39193    39217    39232    39274 
   39303    39306    39307    39322    39363    39432    39511    39599 
   39679    39734    39741    39685    39615    39610    39654    39630 
   39537    39483    39453    39415    39414    39417    39387    39360 
   39333    39305    39280    39237    39199    39195    39181    39129 
   39105    39147    39199    39232    39295    39360    39336    39253 
   39178    39154    39251    39409    39491    39510    39498    39448 
   39414    39386    39332    39340    39422    39465    39471    39491 
   39474    39391    39289    39193    39136    39140    39177    39221 
   39262    39280    39310    39344    39340    39361    39402    39352 
   39253    39201    39172    39151    39156    39183    39232    39313 
   39413    39471    39430    39368    39382    39401    39306    39182 
   39131    39069    38966    38904    38917    38985    39085    39221 
   39415    39604    39677    39630    39528    39456    39496    39606 
   39690    39741    39731    39627    39529    39542    39623    39654 
   39627    39611    39599    39580    39557    39471    39353    39297 
   39278    39297    39397    39498    39544    39590    39641    39668 
   39650    39546    39393    39253    39144    39086    39052    39025 
   39042    39087    39151    39255    39337    39345    39344    39380 
   39399    39368    39313    39231    39160    39151    39175    39212 
   39258    39270    39199    39066    38958    38939    38962    38956 
   38959    39025    39110    39174    39210    39164    39002    38812 
   38712    38688    38677    38692    38735    38762    38812    38923 
   39069    39204    39321    39456    39599    39673    39617    39474 
   39321    39168    39016    38885    38788    38749    38776    38866 
   39043    39210    39245    39217    39236    39274    39280    39297 
   39339    39332    39282    39285    39364    39496    39680    39873 
   39992    39972    39819    39631    39498    39421    39360    39294 
   39231    39201    39272    39449    39630    39810    40059    40300 
   40389    40319    40165    40028    39954    39889    39787    39676 
   39604    39611    39699    39818    39864    39789    39667    39557 
   39511    39555    39626    39656    39630    39540    39457    39463 
   39509    39555    39586    39577    39584    39595    39502    39317 
   39151    39087    39143    39263    39411    39560    39653    39703 
   39710    39637    39588    39636    39681    39694    39668    39515 
   39243    38978    38835    38824    38905    39067    39278    39496 
   39680    39762    39765    39735    39668    39586    39494    39407 
   39378    39378    39437    39569    39673    39742    39803    39776 
   39648    39507    39429    39374    39305    39302    39349    39351 
   39329    39321    39344    39420    39521    39629    39667    39567 
   39433    39316    39162    39015    38948    38943    38970    39024 
   39104    39204    39379    39638    39860    39922    39856    39731 
   39522    39274    39102    39001    38959    39006    39069    39133 
   39256    39379    39465    39499    39448    39348    39226    39093 
   39002    38944    38936    39063    39286    39518    39725    39829 
   39764    39555    39272    38970    38678    38473    38418    38458 
   38574    38778    39015    39236    39415    39552    39681    39785 
   39837    39861    39835    39780    39733    39594    39332    39125 
   39086    39121    39124    39109    39105    39116    39189    39275 
   39270    39218    39160    39110    39166    39334    39525    39695 
   39815    39903    40039    40171    40170    40042    39835    39561 
   39314    39162    39063    39004    38996    39060    39266    39568 
   39841    40026    40068    39896    39579    39225    38881    38659 
   38666    38848    39135    39468    39684    39680    39576    39514 
   39552    39699    39831    39818    39704    39599    39548    39583 
   39718    39856    39906    39920    39950    39957    39915    39762 
   39460    39150    38997    38990    39033    39101    39186    39244 
   39283    39397    39587    39737    39792    39737    39579    39411 
   39360    39448    39550    39571    39563    39480    39239    39044 
   39093    39274    39503    39779    39941    39884    39738    39638 
   39629    39706    39807    39858    39814    39704    39600    39530 
   39521    39540    39480    39324    39094    38832    38599    38356 
   38114    37997    38052    38307    38719    39098    39348    39483 
   39519    39484    39390    39278    39186    39058    38921    38946 
   39185    39465    39648    39754    39752    39588    39407    39332 
   39322    39307    39287    39325    39397    39451    39505    39550 
   39607    39695    39725    39640    39522    39537    39700    39827 
   39827    39733    39549    39363    39259    39214    39167    39071 
   38989    38993    39087    39267    39464    39579    39611    39575 
   39495    39411    39309    39181    39083    39087    39274    39565 
   39706    39684    39641    39482    39232    39156    39260    39398 
   39572    39742    39760    39613    39478    39486    39559    39575 
   39519    39391    39263    39266    39374    39506    39696    39896 
   39995    40022    40053    40076    40047    39938    39744    39537 
   39422    39453    39609    39757    39798    39776    39681    39521 
   39476    39584    39688    39749    39765    39708    39618    39540 
   39515    39530    39469    39339    39306    39502    39838    40080 
   40153    40104    39862    39486    39253    39208    39144    39046 
   39017    39037    39098    39198    39264    39317    39376    39370 
   39289    39213    39217    39313    39398    39417    39415    39401 
   39386    39395    39397    39344    39251    39177    39098    38958 
   38851    38881    38932    38884    38803    38801    38812    38739 
   38696    38786    38950    39154    39356    39468    39507    39445 
   39272    39163    39104    38924    38745    38708    38670    38546 
   38526    38735    38948    38961    38890    38836    38781    38784 
   38797    38746    38736    38776    38735    38643    38665    38789 
   38850    38873    38966    39028    38985    38912    38826    38676 
   38492    38407    38460    38546    38645    38816    38998    39105 
   39235    39459    39641    39650    39515    39326    39123    38894 
   38713    38692    38816    38997    39183    39371    39513    39553 
   39529    39461    39339    39286    39340    39361    39337    39314 
   39224    39077    39008    39089    39274    39488    39685    39785 
   39784    39791    39785    39735    39772    39884    39908    39834 
   39739    39619    39464    39310    39191    39120    39123    39217 
   39352    39442    39383    39195    39118    39251    39388    39463 
   39586    39710    39669    39517    39469    39541    39617    39706 
   39793    39822    39826    39799    39691    39560    39513    39513 
   39422    39239    39120    39159    39341    39687    40158    40549 
   40684    40579    40400    40273    40154    40032    39970    39896 
   39830    39883    39893    39703    39467    39340    39356    39476 
   39606    39680    39646    39483    39309    39235    39264    39465 
   39847    40207    40350    40288    40132    39918    39672    39537 
   39611    39825    40005    40026    39862    39534    39159    38939 
   38898    38985    39271    39669    39941    40086    40232    40294 
   40159    39942    39775    39650    39644    39791    39834    39675 
   39561    39555    39499    39417    39425    39533    39633    39677 
   39715    39772    39849    39941    39973    39843    39573    39282 
   39047    38932    38997    39163    39329    39502    39672    39756 
   39735    39652    39436    39070    38719    38458    38273    38310 
   38658    39117    39403    39465    39476    39511    39459    39313 
   39086    38716    38371    38272    38296    38313    38434    38649 
   38797    38840    38828    38782    38700    38597    38529    38523 
   38576    38654    38680    38578    38423    38372    38452    38676 
   39120    39634    39928    39950    39829    39654    39414    39208 
   39220    39287    39120    38828    38570    38322    38237    38469 
   38900    39360    39746    39978    40059    40046    39962    39757 
   39421    39162    39163    39276    39366    39440    39375    39136 
   38989    39067    39191    39220    39206    39164    39048    38983 
   39071    39194    39305    39533    39958    40385    40552    40582 
   40608    40443    40151    40038    40051    40015    39939    39841 
   39789    39873    40034    40186    40342    40504    40618    40643 
   40574    40429    40250    40059    39881    39826    39895    39907 
   39830    39849    40038    40203    40176    40124    40205    40254 
   40215    40177    40080    39919    39789    39729    39787    39899 
   39899    39775    39592    39349    39164    39179    39291    39403 
   39491    39429    39249    39185    39220    39216    39220    39237 
   39179    39060    38973    39004    39162    39310    39320    39186 
   38992    38863    38850    38866    38847    38830    38840    38898 
   39035    39181    39256    39328    39388    39286    39032    38778 
   38514    38217    38082    38173    38244    38292    38538    38870 
   39133    39418    39694    39823    39847    39839    39742    39532 
   39309    39137    38916    38564    38186    37980    38061    38350 
   38670    38952    39175    39260    39221    39097    38935    38878 
   38909    38927    39006    39144    39168    39004    38763    38715 
   38951    39202    39262    39197    39063    38846    38650    38645 
   38792    38959    39158    39411    39702    40065    40406    40525 
   40467    40421    40342    40140    39943    39803    39675    39661 
   39804    39938    39954    39889    39783    39668    39569    39507 
   39502    39559    39665    39771    39818    39788    39660    39452 
   39216    39051    39093    39199    39083    38784    38483    38286 
   38353    38700    39124    39453    39568    39472    39316    39247 
   39357    39609    39849    39947    39853    39631    39414    39313 
   39313    39229    38988    38730    38624    38727    38929    39143 
   39401    39680    39901    40051    40089    39970    39783    39683 
   39702    39745    39748    39727    39677    39563    39409    39289 
   39216    39158    39127    39213    39525    39954    40203    40204 
   40169    40171    40127    40061    40057    40041    39907    39719 
   39588    39501    39357    39170    38996    38793    38631    38635 
   38649    38488    38302    38287    38426    38628    38924    39347 
   39687    39768    39676    39468    39206    39001    38826    38751 
   38921    39191    39312    39272    39224    39241    39305    39370 
   39340    39213    39124    39116    39167    39271    39403    39609 
   39827    39861    39718    39533    39301    39009    38740    38653 
   38790    39048    39348    39594    39652    39565    39453    39430 
   39611    39816    39793    39703    39744    39785    39717    39633 
   39617    39529    39206    38877    38863    38993    39002    38994 
   39104    39297    39480    39569    39664    39931    40208    40219 
   40016    39792    39565    39298    39058    38948    38979    39024 
   38975    38948    39060    39197    39320    39528    39753    39923 
   40042    40042    39915    39715    39465    39263    39154    39073 
   39052    39178    39398    39592    39771    39964    40053    39985 
   39837    39572    39249    39060    38982    38985    39235    39703 
   40108    40327    40431    40446    40285    39937    39579    39356 
   39232    39160    39139    39193    39351    39549    39679    39708 
   39718    39795    39892    39911    39847    39718    39567    39457 
   39341    39152    38981    38934    39008    39132    39210    39256 
   39252    39098    38902    38835    38853    38850    38794    38751 
   38731    38631    38511    38507    38649    38952    39294    39536 
   39758    39969    40069    40176    40356    40394    40219    39996 
   39775    39571    39498    39519    39476    39351    39228    39109 
   38982    38897    38855    38799    38767    38878    39064    39137 
   39129    39150    39083    38969    39062    39307    39457    39498 
   39455    39287    39064    38911    38850    38789    38682    38601 
   38523    38402    38345    38458    38782    39283    39791    40108 
   40178    40099    39989    39874    39792    39800    39804    39723 
   39657    39625    39514    39293    38971    38596    38273    38071 
   37997    37989    37982    38007    38090    38290    38719    39202 
   39478    39633    39742    39671    39456    39280    39199    39197 
   39226    39193    39102    39054    39024    38981    39043    39226 
   39386    39449    39447    39472    39537    39579    39698    39877 
   39919    39901    39993    40134    40294    40473    40508    40321 
   40000    39654    39359    39140    39013    38961    38975    39160 
   39522    39891    40149    40301    40319    40113    39804    39633 
   39553    39505    39625    39785    39764    39683    39673    39667 
   39684    39837    40028    40073    40030    40024    40062    40185 
   40433    40684    40732    40493    40147    39895    39676    39486 
   39474    39559    39544    39417    39232    39040    38900    38835 
   38828    38843    38900    39047    39251    39496    39803    40047 
   40030    39742    39411    39214    39104    39000    38986    39116 
   39233    39212    39112    38996    38927    38970    39087    39247 
   39424    39532    39594    39714    39852    39891    39849    39761 
   39592    39367    39187    39125    39177    39258    39359    39534 
   39669    39640    39510    39372    39210    39012    38896    38954 
   39033    39081    39249    39523    39784    40055    40325    40470 
   40437    40277    40030    39735    39530    39511    39611    39827 
   40140    40285    40158    39955    39714    39434    39291    39272 
   39225    39131    38982    38728    38507    38518    38772    39128 
   39415    39530    39494    39357    39179    39054    38962    38870 
   38801    38655    38456    38398    38361    38178    38079    38191 
   38352    38558    38794    38948    39005    38901    38661    38510 
   38497    38511    38551    38612    38637    38659    38712    38711 
   38720    38865    39013    39023    38961    38875    38695    38507 
   38561    38807    39006    39181    39366    39501    39627    39735 
   39731    39637    39536    39447    39330    39198    39125    39118 
   39151    39267    39538    39897    40112    40107    40031    39891 
   39626    39436    39511    39723    39911    40062    40184    40244 
   40176    40007    39892    39876    39873    39861    39869    39892 
   39884    39806    39711    39668    39649    39633    39669    39816 
   40050    40251    40365    40409    40359    40224    40096    40038 
   40016    39943    39812    39704    39636    39637    39749    39897 
   40031    40165    40298    40417    40459    40417    40394    40390 
   40277    40074    39987    40036    40039    39962    39873    39757 
