Origin Time       2024/04/02 04:24:00
Lat.              40.133
Long.             141.712
Depth. (km)       71
Mag.              6.0
Station Code      TCGH14
Station Lat.      36.5509
Station Long.     139.6154
Station Height(m) 180
Record Time       2024/04/02 04:25:58
Sampling Freq(Hz) 100Hz
Duration Time(s)  120
Dir.              6
Scale Factor      7845(gal)/8223790
Max. Acc. (gal)   0.543
Last Correction   2024/04/02 04:25:59
Memo.             
[...]
     938      904      827      842      874      901      982      966 
     849      928     1098     1021      830      761      805      965 
    1125      985      646      623      997     1243     1127      920 
     731      604      710      893      945      961      967      940 
     958      958      862      791      916     1142     1119      832 
     668      784      989     1043      897      731      735      923 
    1090     1031      845      753      770      826      896      926 
     878      847      895      896      831      861      958      996 
    1003      976      839      753      891     1009      901      774 
     746      799      938      969      796      708      811      884 
     845      780      768      842      928      953      950      892 
     799      839      992     1012      854      729      803      954 
     957      832      807      928      963      837      760      842 
     955      904      716      668      823      954      988      996 
     978      919      805      695      761      920      892      788 
     853      951      928      855      807      838      918      907 
     822      811      824      792      818      891      872      822 
     864      928      900      785      710      807      978      973 
     849      839      877      834      807      832      830      812 
     791      795      959     1158     1066      800      735      882 
    1005      992      900      850      886      903      834      795 
     884      990     1003      957      880      849      912      903 
     849      972     1093      957      778      828      994     1034 
     912      799      837      981     1044      957      888      922 
     926      861      810      799      857      973     1024      972 
     935      940      915      874      878      932      919      824 
     827      913      962     1020     1020      880      839      982 
    1051      984      893      815      843      989      997      855 
     920     1127     1077      842      789      992     1185     1116 
     841      665      822     1150     1225      972      780      884 
    1054     1058      946      893      986     1003      781      668 
     891     1104     1011      811      800      935     1012      974 
     888      808      800      912      984      901      849      851 
     820      869      959      945      897      886      865      857 
     866      842      812      796      846      994      992      762 
     700      904     1062     1038      889      796      931     1097 
     984      679      584      857     1115     1028      819      815 
     984     1062      900      703      757      938      936      747 
     629      791     1035      963      681      611      850     1143 
    1201      973      668      544      720      985      986      774 
     722      888      943      783      697      846      999      942 
     816      803      799      691      588      625      791      926 
     926      919      985      936      733      654      792      896 
     814      668      654      796      897      842      749      778 
     980     1201     1193      949      762      776      827      818 
     805      880     1051     1102      961      897      945      907 
     832      853      961     1090     1119      985      811      726 
     742      873     1065     1123      977      838      851      908 
     882      788      746      823      949     1036     1009      866 
     762      764      818      922      980      901      815      768 
     685      666      793      911      912      851      799      842 
     972      999      835      643      688      931     1032      994 
    1016      973      847      823      857      920     1090     1146 
     951      827      905      992     1051     1047      947      954 
    1093     1108      940      807      872     1021     1009      882 
     926     1098     1134      984      822      904     1158     1143 
     893      803      885      978      976      843      777      873 
     930      896      958     1080     1023      781      643      815 
    1078     1067      846      710      727      846      974      977 
     886      850      884      961     1062     1112     1047      880 
     722      747      940     1019      897      842      980     1078 
     963      780      731      789      830      834      847      884 
     909      876      828      884      994     1011      959      942 
     903      803      734      739      780      847      895      857 
     826      872      923      938      931      972     1046      972 
     785      697      737      895     1102     1117      962      846 
     765      703      715      814      989     1109     1036      884 
     803      784      804      874     1007     1101     1015      955 
    1069     1084      976      851      666      675      934     1046 
     981      931      824      685      614      594      715      989 
    1146     1027      773      637      735      847      827      915 
    1069     1007      851      708      535      568      799      904 
     909      901      791      718      724      691      726      791 
     772      765      715      634      695      741      697      739 
     712      584      653      841      936      939      778      577 
     616      838     1009     1001      866      859     1008     1070 
    1013      967      962     1003     1067     1058      904      770 
     791      859      946      985      880      882     1089     1165 
    1034      864      756      765      745      719     1009     1324 
    1112      734      697      807      897     1024     1078     1105 
    1138      922      621      699      990     1030      865      884 
    1163     1287      953      558      580      835     1005     1028 
     967      961      986      913      847      943     1053      955 
     797      865     1042     1031      909      920      980      935 
     905      935      930      936      988     1024     1078     1135 
    1059      893      823      828      835      999     1324     1424 
    1051      616      616      841      951     1042     1152     1210 
    1165      927      742      851      954      874      857      936 
     965      916      820      818      901      850      799      990 
    1120      959      804      789      834      810      611      649 
    1067     1220      934      623      579      861     1042      832 
     681      793      889      973      963      673      525      719 
     882     1035     1154      905      579      522      562      726 
     945      862      730      799      726      670      901      965 
     853      924      940      799      793      827      746      801 
     919      776      549      557      795      953      793      544 
     560      812      931      749      608      723      862      927 
    1069     1206     1053      731      677      982     1283     1235 
     922      743      913     1109      908      541      468      679 
     982     1210     1215     1031      811      712      864     1070 
    1031      901      922     1061     1204     1132      893      897 
    1062     1026      909      943     1096     1183     1071      934 
     939      931      850      846      904      973     1059     1044 
     935      872      800      758      895     1053     1158     1301 
    1194      801      661      842     1031     1148     1048      804 
     841     1031      961      824      842      884      897      877 
     950     1109      934      556      560      726      692      665 
     718      851     1058      962      621      587      800      889 
     843      712      648      769      778      631      684      881 
     965      900      761      807      981      850      581      631 
     815      882      868      722      623      843     1023      785 
     517      603      815      891      942     1023      973      838 
     795      847      967     1075      973      710      614      847 
    1123     1138     1017      893      745      764     1051     1277 
    1134      822      741      874      947      903      897     1030 
    1132      984      791      884     1115     1162     1085     1128 
    1204     1001      719      824     1051      997      942      950 
     781      672      780      891      994     1117     1048      738 
     562      835     1155     1023      772      781      812      818 
     924      967      984     1123     1136      857      645      843 
    1182     1258     1116      905      693      631      766      982 
    1113     1046      888      864      992     1081     1047     1008 
     984      850      700      858     1252     1375     1098      804 
     777      976     1112     1031      932      945      909      747 
     592      652      980     1256     1138      831      769      893 
     854      729      787      908      969     1001      954      915 
     899      730      564      691      984     1121      976      768 
     808      972      940      818      785      760      689      665 
     792      953      899      751      716      737      837      959 
     932      915      993      931      827      908      934      742 
     648      904     1233     1156      784      622      643      595 
     672      913      988      959      942      746      619      760 
     807      795      904      872      772      741      526      432 
     815     1142     1071      911      885     1058     1206      989 
     631      562      812     1136     1212     1019      862      774 
     738      878      985      868      747      703      746      973 
    1031      708      549      780     1027     1082      951      805 
     850      920      826      723      753      927     1129     1136 
    1019      959      785      603      801     1075      939      608 
     529      777     1011      951      828      835      886      992 
    1086     1061     1016      945      780      746      899      934 
     810      756      837      931      811      569      629      935 
    1117     1134     1003      803      765      739      634      702 
     835      963     1156     1098      811      745      862      911 
     955     1001      970      935      857      787      903      986 
     940     1000     1108     1121     1104     1043      935      961 
    1074      963      730      750      972     1089     1054      980 
     897      846      811      764      884     1134     1120      834 
     657      730      918     1043     1050     1109     1215     1053 
     780      857     1035      900      766      927     1055      958 
     814      754      853     1039     1038      819      781      990 
     938      616      592      858     1027     1093     1101      955 
     783      718      702      843     1159     1236      973      789 
     788      778      739      715      824     1016      981      741 
     610      672      820      864      731      656      739      853 
     977     1042      936      699      533      710     1071     1146 
     978      885      822      692      619      702      909     1086 
    1040      835      758      938     1117     1032      866      868 
     934      972      970      849      757      918     1181     1259 
    1088      846      773      919     1139     1279     1250     1034 
     788      753      892      953      935      940      897      842 
     831      734      625      692      943     1246     1283      949 
     646      603      662      774      888      928      943      912 
     791      665      668      882     1117     1055      819      729 
     770      892     1039      981      711      517      561      760 
     922      912      789      720      823     1040     1054      773 
     656      881     1008      870      787      861      958     1013 
     967      922     1032     1098     1007      928      818      722 
     855     1047      982      733      657      907     1146     1062 
     862      824      899      989     1023      901      735      692 
     745      816      865      870      827      784      807      747 
     591      683     1021     1220     1151      920      684      602 
     715      935     1092     1054      869      722      738      849 
     893      865      893      953      880      758      795      935 
     982      905      864      873      799      679      654      764 
     951     1032      953      946     1092     1116      924      855 
    1036     1124     1023      946      913      849      750      720 
     888     1109     1167     1128     1043      869      756      822 
     932      985     1047     1162     1177      963      758      766 
     842      900      993     1038     1009     1020     1024      943 
     792      634      742     1105     1220     1086      957      699 
     518      679      888     1074     1305     1305     1084      868 
     724      866     1134     1061      886      904      931      973 
     951      747      693      811      751      708      928     1096 
     934      595      498      768      895      716      716      849 
     827      841      830      679      719      876      869      955 
    1023      720      523      743      993     1062      778      319 
     459     1042     1117      823      754      805      838      822 
     704      726      893      857      702      623      549      696 
    1075     1134      916      854      857      935     1088      908 
     608      707      936     1012     1105     1108      870      730 
     851      949      942      896      784      826     1105     1201 
     940      660      608      770      974     1036      982      982 
    1066     1058      923      876      969     1065     1140     1098 
     838      669      828      986      903      828      938     1061 
    1030      897      760      710      827      973      981      954 
     969      984     1024     1050     1026     1001      967     1004 
    1135     1111      951      908      916      857      741      675 
     900     1233     1190      899      734      702      830     1008 
     940      766      777     1017     1317     1216      766      653 
     834      935     1090     1161     1031     1028     1000      795 
     796      881      778      804      984     1050     1101      997 
     652      611      847      842      785      838      850      959 
     992      764      788     1094     1069      774      664      849 
    1144     1108      819      780      822      816      923      896 
     857     1039      936      608      695      880      785      818 
     943      853      834      904      814      811      957     1011 
     988      858      745      872      920      778      824      958 
     926      868      772      627      797     1124     1070      865 
     843      792      714      742      811      916      946      754 
     608      739      876      804      738      804      869      830 
     720      684      799      900      827      693      702      872 
    1003      908      703      642      720      793      899     1040 
    1059      916      746      692      792      907      891      824 
     897     1027     1026     1020     1036      969      959      990 
     965     1032     1111     1057     1027      989      842      783 
     835      891     1015     1097      990      869      812      783 
     865      978     1016     1057      994      812      791      886 
     919      986     1073     1027      896      859      989     1123 
    1053      832      689      743      936     1089     1066      984 
     999      965      789      716      845     1000     1030      884 
     756      876     1055     1003      842      815      915     1017 
    1038      984      923      878      868      895      922      911 
     853      826      839      820      793      780      803      905 
     932      830      870      967      797      653      814      953 
     947      903      766      684      793      878      866      893 
     927      884      808      819      893      889      853      861 
     870      893      888      832      886      986      884      735 
     804      908      934      957      841      683      761      888 
     916      970      935      768      707      796      880      876 
     816      812      893      980      985      884      834      936 
     962      814      745      858      978      997      958      966 
    1092     1163      996      778      801     1001     1057      882 
     823     1054     1151      854      634      842     1129     1086 
     810      683      891     1183     1159      843      638      710 
     869      945      912      849      831      855      895      926 
     915      891      920      954      870      724      675      747 
     920     1066      988      810      774      807      803      814 
     810      818      884      859      780      842      846      703 
     742      913      919      864      904      951      974      999 
     976      896      819      827      945     1078     1027      760 
     630      824     1062     1124     1021      849      758      811 
     924      981      901      788      826      955     1013      955 
     858      869      942      892      810      853      928      923 
     886      830      753      781      915      954      899      930 
     938      815      807      912      922      924      953      927 
     930      940      882      832      865      955      962      862 
     859      942      920      874      912      939      932      927 
     905      904      926      915      918      986     1016      932 
     889      978      974      834      818      909      928      886 
     814      796      900      974      939      850      764      807 
     947     1013     1031      967      785      769     1013     1165 
    1069      927      901      918      842      791      885      953 
     900      837      781      784      877      888      801      788 
     843      891      920      884      731      604      685      854 
     922      915      874      847      882      865      754      726 
     843      915      846      751      719      764      874      954 
     930      855      849      923      962      915      865      876 
     915      909      824      769      805      824      820      895 
     986      992      942      895      895      969     1040     1011 
     818      638      819     1169     1165      874      688      750 
     946     1038      981      935      961     1023     1038      989 
     943      908      913      970      996      959      899      889 
     951      935      831      819      869      886      958      992 
     880      812      805      760      804      888      865      811 
     769      733      749      797      818      834      885      876 
     800      849     1000     1044      986      915      861      909 
