Origin Time       2024/04/02 04:24:00
Lat.              40.133
Long.             141.712
Depth. (km)       71
Mag.              6.0
Station Code      TCGH15
Station Lat.      36.5595
Station Long.     139.8637
Station Height(m) -175
Record Time       2024/04/02 04:25:35
Sampling Freq(Hz) 100Hz
Duration Time(s)  139
Dir.              2
Scale Factor      3923(gal)/8224838
Max. Acc. (gal)   0.348
Last Correction   2024/04/02 04:25:35
Memo.             
[...]
   -3809    -3796    -3804    -3859    -3909    -3929    -3940    -3916 
   -3865    -3827    -3793    -3754    -3728    -3701    -3677    -3657 
   -3596    -3510    -3477    -3473    -3491    -3553    -3570    -3522 
   -3497    -3527    -3572    -3578    -3546    -3522    -3487    -3430 
   -3403    -3397    -3385    -3380    -3388    -3407    -3429    -3435 
   -3429    -3433    -3420    -3376    -3373    -3402    -3416    -3461 
   -3535    -3593    -3639    -3694    -3755    -3780    -3778    -3789 
   -3754    -3673    -3623    -3578    -3527    -3542    -3596    -3630 
   -3678    -3708    -3708    -3753    -3775    -3763    -3812    -3861 
   -3873    -3900    -3877    -3777    -3709    -3721    -3751    -3771 
   -3794    -3809    -3792    -3736    -3690    -3682    -3672    -3642 
   -3616    -3593    -3568    -3555    -3543    -3500    -3435    -3407 
   -3447    -3511    -3515    -3457    -3408    -3375    -3312    -3273 
   -3289    -3322    -3403    -3531    -3646    -3778    -3886    -3892 
   -3885    -3913    -3929    -3921    -3888    -3842    -3805    -3781 
   -3770    -3747    -3709    -3684    -3693    -3723    -3721    -3694 
   -3711    -3761    -3778    -3766    -3758    -3753    -3777    -3861 
   -3933    -3948    -3937    -3921    -3904    -3877    -3866    -3917 
   -3964    -3905    -3796    -3734    -3682    -3568    -3446    -3422 
   -3464    -3477    -3470    -3496    -3547    -3600    -3658    -3699 
   -3700    -3712    -3744    -3719    -3626    -3538    -3491    -3491 
   -3535    -3589    -3613    -3619    -3638    -3692    -3758    -3798 
   -3746    -3599    -3537    -3605    -3659    -3717    -3789    -3784 
   -3781    -3863    -3919    -3900    -3905    -3947    -3959    -3966 
   -3982    -3977    -3935    -3844    -3770    -3786    -3815    -3790 
   -3777    -3831    -3881    -3865    -3844    -3843    -3836    -3855 
   -3867    -3838    -3828    -3838    -3804    -3793    -3847    -3889 
   -3902    -3877    -3796    -3766    -3771    -3708    -3686    -3740 
   -3746    -3785    -3909    -3979    -3979    -4000    -4001    -3913 
   -3819    -3801    -3796    -3802    -3842    -3838    -3781    -3707 
   -3642    -3635    -3654    -3650    -3680    -3697    -3605    -3478 
   -3411    -3402    -3461    -3568    -3612    -3593    -3650    -3767 
   -3813    -3823    -3861    -3859    -3758    -3611    -3530    -3516 
   -3500    -3497    -3523    -3539    -3546    -3569    -3570    -3510 
   -3441    -3395    -3352    -3346    -3412    -3512    -3585    -3631 
   -3647    -3663    -3721    -3744    -3705    -3715    -3775    -3789 
   -3743    -3697    -3682    -3692    -3705    -3693    -3670    -3663 
   -3651    -3638    -3701    -3839    -3889    -3767    -3627    -3586 
   -3586    -3537    -3406    -3291    -3260    -3258    -3284    -3354 
   -3429    -3550    -3694    -3736    -3726    -3732    -3709    -3688 
   -3704    -3713    -3689    -3640    -3619    -3651    -3692    -3719 
   -3743    -3798    -3904    -3939    -3874    -3858    -3840    -3686 
   -3488    -3404    -3461    -3558    -3608    -3636    -3676    -3739 
   -3817    -3856    -3865    -3892    -3890    -3782    -3586    -3380 
   -3191    -3073    -3121    -3281    -3446    -3582    -3651    -3704 
   -3831    -3921    -3923    -3947    -3948    -3906    -3927    -3900 
   -3774    -3684    -3605    -3546    -3627    -3805    -3985    -4056 
   -3942    -3778    -3685    -3627    -3650    -3719    -3723    -3719 
   -3731    -3689    -3607    -3539    -3526    -3584    -3708    -3866 
   -3950    -3909    -3836    -3801    -3774    -3703    -3620    -3574 
   -3565    -3615    -3709    -3811    -3958    -4064    -4044    -4016 
   -3964    -3855    -3835    -3821    -3719    -3662    -3619    -3530 
   -3493    -3462    -3416    -3461    -3515    -3496    -3527    -3585 
   -3516    -3437    -3481    -3532    -3530    -3511    -3485    -3491 
   -3545    -3642    -3762    -3847    -3919    -4040    -4149    -4182 
   -4202    -4209    -4097    -3875    -3635    -3485    -3539    -3719 
   -3832    -3862    -3902    -3956    -3917    -3759    -3624    -3576 
   -3553    -3577    -3673    -3753    -3800    -3854    -3881    -3943 
   -4101    -4210    -4224    -4183    -4059    -3915    -3832    -3790 
   -3766    -3755    -3798    -3931    -4087    -4147    -4085    -3975 
   -3865    -3762    -3680    -3628    -3605    -3589    -3604    -3673 
   -3777    -3888    -3939    -3886    -3823    -3820    -3838    -3869 
   -3920    -3908    -3793    -3677    -3645    -3659    -3639    -3537 
   -3481    -3599    -3747    -3797    -3755    -3638    -3530    -3477 
   -3438    -3420    -3466    -3626    -3862    -4068    -4180    -4162 
   -4047    -3906    -3762    -3670    -3657    -3646    -3593    -3532 
   -3454    -3349    -3299    -3364    -3541    -3766    -3952    -4085 
   -4129    -4041    -3856    -3678    -3627    -3674    -3708    -3767 
   -3937    -4074    -4058    -4044    -3996    -3771    -3574    -3514 
   -3485    -3524    -3619    -3651    -3654    -3719    -3771    -3782 
   -3824    -3844    -3824    -3767    -3609    -3473    -3470    -3485 
   -3481    -3508    -3566    -3639    -3692    -3715    -3670    -3522 
   -3411    -3362    -3307    -3422    -3681    -3855    -3993    -4140 
   -4207    -4153    -3990    -3804    -3613    -3411    -3379    -3561 
   -3727    -3796    -3797    -3715    -3640    -3577    -3461    -3338 
   -3165    -3003    -3014    -3200    -3489    -3690    -3659    -3582 
   -3585    -3608    -3640    -3636    -3589    -3553    -3449    -3318 
   -3322    -3348    -3295    -3322    -3410    -3402    -3407    -3510 
   -3592    -3624    -3623    -3623    -3678    -3728    -3701    -3581 
   -3481    -3507    -3530    -3510    -3545    -3605    -3657    -3697 
   -3748    -3813    -3796    -3676    -3570    -3547    -3532    -3503 
   -3526    -3586    -3642    -3735    -3825    -3842    -3847    -3877 
   -3905    -4006    -4148    -4135    -4002    -3928    -3878    -3817 
   -3831    -3905    -3952    -3928    -3844    -3739    -3622    -3505 
   -3399    -3325    -3364    -3504    -3670    -3851    -3985    -4031 
   -4035    -3963    -3824    -3705    -3619    -3569    -3589    -3642 
   -3697    -3747    -3747    -3762    -3844    -3875    -3879    -3951 
   -3985    -3908    -3719    -3492    -3476    -3677    -3819    -3870 
   -3947    -3967    -3823    -3559    -3350    -3339    -3485    -3665 
   -3796    -3805    -3734    -3690    -3615    -3514    -3535    -3619 
   -3717    -3873    -3921    -3867    -3869    -3819    -3694    -3707 
   -3789    -3782    -3773    -3746    -3730    -3902    -4040    -3909 
   -3707    -3601    -3628    -3732    -3786    -3792    -3759    -3659 
   -3570    -3578    -3631    -3653    -3620    -3497    -3362    -3345 
   -3368    -3387    -3485    -3585    -3603    -3553    -3431    -3356 
   -3402    -3431    -3426    -3492    -3564    -3635    -3781    -3896 
   -3987    -4129    -4166    -4058    -3996    -4008    -3981    -3912 
   -3867    -3840    -3835    -3866    -3894    -3875    -3790    -3688 
   -3597    -3527    -3487    -3402    -3308    -3376    -3566    -3794 
   -4009    -4083    -4083    -4081    -3950    -3805    -3861    -4020 
   -4110    -4077    -4016    -4017    -3966    -3840    -3780    -3694 
   -3504    -3418    -3478    -3518    -3531    -3569    -3572    -3469 
   -3338    -3404    -3627    -3715    -3657    -3582    -3527    -3559 
   -3630    -3647    -3674    -3682    -3631    -3638    -3705    -3761 
   -3828    -3915    -3987    -4058    -4101    -4104    -4094    -4079 
   -4110    -4141    -4058    -3931    -3766    -3497    -3289    -3240 
   -3280    -3381    -3480    -3541    -3615    -3696    -3731    -3724 
   -3763    -3871    -3994    -4140    -4291    -4338    -4218    -3987 
   -3808    -3805    -3909    -3955    -3890    -3738    -3557    -3470 
   -3466    -3442    -3460    -3553    -3632    -3684    -3713    -3666 
   -3542    -3442    -3456    -3608    -3848    -4056    -4110    -3991 
   -3828    -3719    -3662    -3642    -3588    -3470    -3395    -3445 
   -3580    -3609    -3476    -3370    -3335    -3322    -3375    -3445 
   -3430    -3391    -3481    -3631    -3662    -3577    -3497    -3492 
   -3524    -3600    -3780    -3942    -3893    -3766    -3762    -3777 
   -3800    -3966    -4064    -3935    -3788    -3753    -3757    -3792 
   -3950    -4159    -4218    -4136    -3951    -3704    -3589    -3650 
   -3694    -3645    -3592    -3595    -3611    -3580    -3503    -3456 
   -3397    -3326    -3404    -3524    -3510    -3465    -3442    -3418 
   -3454    -3510    -3512    -3511    -3507    -3450    -3307    -3137 
   -3117    -3250    -3381    -3496    -3576    -3628    -3708    -3804 
   -3913    -3940    -3838    -3766    -3766    -3712    -3586    -3520 
   -3526    -3520    -3561    -3623    -3682    -3816    -3932    -3987 
   -4021    -3977    -3886    -3790    -3653    -3526    -3492    -3542 
   -3663    -3869    -4068    -4166    -4221    -4263    -4233    -4153 
   -4112    -4122    -4116    -4070    -4012    -3944    -3879    -3834 
   -3809    -3816    -3843    -3848    -3804    -3742    -3680    -3630 
   -3627    -3653    -3704    -3754    -3759    -3775    -3827    -3856 
   -3889    -3919    -3878    -3825    -3807    -3700    -3510    -3376 
   -3334    -3364    -3427    -3488    -3584    -3676    -3685    -3651 
   -3654    -3670    -3680    -3717    -3754    -3796    -3879    -3892 
   -3802    -3735    -3690    -3623    -3551    -3480    -3477    -3558 
   -3612    -3639    -3701    -3770    -3804    -3763    -3684    -3651 
   -3678    -3762    -3904    -4048    -4105    -4063    -3986    -3913 
   -3865    -3817    -3657    -3446    -3442    -3632    -3781    -3801 
   -3753    -3751    -3832    -3902    -3944    -3985    -3967    -3909 
   -3894    -3954    -4040    -4081    -4062    -4036    -4027    -3985 
   -3892    -3819    -3717    -3510    -3333    -3307    -3369    -3464 
   -3586    -3674    -3669    -3653    -3678    -3685    -3696    -3708 
   -3634    -3573    -3669    -3804    -3817    -3789    -3821    -3812 
   -3688    -3555    -3518    -3534    -3512    -3476    -3493    -3453 
   -3267    -3082    -3005    -3055    -3261    -3487    -3582    -3620 
   -3650    -3620    -3636    -3716    -3676    -3550    -3450    -3318 
   -3275    -3393    -3519    -3676    -3823    -3770    -3658    -3650 
   -3688    -3759    -3824    -3807    -3773    -3790    -3838    -3889 
   -3933    -3960    -3946    -3874    -3792    -3755    -3759    -3740 
   -3658    -3574    -3539    -3468    -3397    -3473    -3589    -3585 
   -3576    -3634    -3670    -3775    -3958    -3959    -3856    -3850 
   -3797    -3700    -3655    -3568    -3514    -3555    -3609    -3738 
   -3936    -4044    -4008    -3871    -3704    -3577    -3526    -3512 
   -3499    -3508    -3524    -3507    -3505    -3591    -3690    -3703 
   -3690    -3732    -3771    -3778    -3790    -3801    -3809    -3823 
   -3835    -3798    -3694    -3643    -3666    -3643    -3555    -3487 
   -3496    -3553    -3619    -3723    -3793    -3765    -3770    -3825 
   -3782    -3715    -3751    -3739    -3600    -3526    -3546    -3545 
   -3561    -3651    -3730    -3743    -3785    -3900    -3981    -3975 
   -3981    -4040    -4056    -4012    -3994    -4001    -3944    -3796 
   -3672    -3712    -3792    -3773    -3721    -3640    -3558    -3551 
   -3516    -3441    -3426    -3423    -3429    -3449    -3442    -3555 
   -3762    -3854    -3901    -3931    -3875    -3858    -3923    -3978 
   -4027    -4104    -4178    -4160    -4014    -3812    -3627    -3539 
   -3601    -3728    -3851    -3991    -4083    -4047    -3947    -3867 
   -3769    -3628    -3562    -3642    -3786    -3898    -3901    -3765 
   -3634    -3619    -3618    -3588    -3605    -3649    -3677    -3688 
   -3688    -3673    -3653    -3649    -3601    -3515    -3523    -3580 
   -3557    -3545    -3611    -3632    -3582    -3562    -3568    -3574 
   -3557    -3460    -3389    -3420    -3496    -3626    -3690    -3603 
   -3515    -3460    -3388    -3387    -3446    -3465    -3507    -3650 
   -3782    -3820    -3786    -3734    -3757    -3796    -3766    -3793 
   -3906    -3987    -4056    -4135    -4182    -4214    -4195    -4104 
   -4032    -4002    -4009    -4074    -4135    -4171    -4155    -4027 
   -3909    -3898    -3943    -3982    -3958    -3910    -3917    -3904 
   -3848    -3807    -3770    -3739    -3734    -3790    -3886    -3908 
   -3848    -3744    -3612    -3535    -3547    -3538    -3465    -3418 
   -3430    -3483    -3530    -3534    -3612    -3738    -3744    -3704 
   -3640    -3483    -3368    -3384    -3426    -3435    -3451    -3508 
   -3549    -3546    -3593    -3659    -3605    -3501    -3477    -3474 
   -3466    -3530    -3646    -3705    -3669    -3604    -3572    -3559 
   -3547    -3573    -3613    -3557    -3424    -3310    -3210    -3146 
   -3123    -3105    -3111    -3153    -3230    -3319    -3338    -3295 
   -3308    -3411    -3483    -3451    -3385    -3350    -3389    -3516 
   -3622    -3620    -3565    -3466    -3366    -3396    -3492    -3534 
   -3530    -3499    -3491    -3537    -3591    -3645    -3669    -3647 
   -3659    -3762    -3936    -4095    -4117    -4020    -3906    -3817 
   -3811    -3866    -3913    -3997    -4083    -4082    -4064    -4037 
   -3963    -3927    -3932    -3885    -3809    -3821    -3948    -4095 
   -4195    -4252    -4291    -4349    -4418    -4436    -4394    -4330 
   -4287    -4270    -4225    -4133    -4082    -4113    -4108    -4010 
   -3900    -3816    -3767    -3743    -3708    -3638    -3559    -3564 
   -3622    -3592    -3551    -3622    -3709    -3743    -3732    -3692 
   -3692    -3692    -3593    -3477    -3445    -3477    -3531    -3555 
   -3574    -3634    -3653    -3566    -3485    -3493    -3572    -3685 
   -3780    -3815    -3775    -3682    -3632    -3615    -3566    -3585 
   -3726    -3854    -3882    -3850    -3807    -3771    -3761    -3802 
   -3933    -4109    -4172    -4116    -4068    -4025    -3971    -3948 
   -3932    -3946    -3989    -3951    -3866    -3881    -3975    -4002 
   -3958    -3882    -3734    -3596    -3591    -3653    -3685    -3635 
   -3554    -3539    -3554    -3537    -3511    -3499    -3472    -3457 
   -3488    -3512    -3504    -3433    -3316    -3302    -3329    -3280 
   -3288    -3360    -3375    -3410    -3542    -3642    -3616    -3591 
   -3623    -3601    -3549    -3555    -3619    -3705    -3758    -3740 
   -3673    -3577    -3508    -3528    -3627    -3719    -3796    -3909 
   -4009    -4055    -4104    -4149    -4086    -3896    -3739    -3716 
   -3743    -3789    -3836    -3793    -3682    -3582    -3499    -3443 
   -3441    -3477    -3512    -3546    -3636    -3724    -3672    -3530 
   -3451    -3451    -3461    -3473    -3477    -3426    -3343    -3281 
   -3240    -3203    -3171    -3198    -3288    -3323    -3307    -3370 
   -3480    -3527    -3522    -3447    -3315    -3250    -3235    -3214 
   -3248    -3327    -3426    -3557    -3669    -3763    -3855    -3908 
   -3935    -3931    -3896    -3871    -3865    -3881    -3904    -3910 
   -3954    -4070    -4168    -4180    -4133    -4052    -3986    -3970 
   -3931    -3848    -3809    -3808    -3762    -3699    -3719    -3801 
   -3865    -3908    -3908    -3870    -3871    -3890    -3881    -3888 
   -3878    -3812    -3777    -3788    -3781    -3757    -3769    -3827 
   -3893    -3954    -3987    -3956    -3908    -3867    -3835    -3844 
   -3847    -3838    -3894    -3952    -3917    -3821    -3694    -3600 
   -3574    -3581    -3604    -3630    -3626    -3596    -3566    -3569 
   -3574    -3595    -3670    -3739    -3813    -3937    -3985    -3913 
   -3859    -3896    -3966    -3986    -3959    -3944    -3942    -3946 
   -3958    -3971    -3997    -3997    -3944    -3909    -3936    -3951 
   -3863    -3732    -3658    -3626    -3612    -3591    -3545    -3519 
   -3505    -3499    -3508    -3493    -3450    -3424    -3438    -3454 
   -3445    -3451    -3464    -3431    -3410    -3465    -3588    -3716 
   -3785    -3781    -3746    -3707    -3643    -3589    -3608    -3667 
   -3707    -3720    -3680    -3584    -3496    -3419    -3379    -3433 
   -3504    -3541    -3624    -3685    -3627    -3569    -3576    -3588 
   -3581    -3596    -3662    -3753    -3840    -3904    -3919    -3923 
   -3925    -3921    -3936    -3974    -3993    -3990    -4024    -4067 
   -4024    -3929    -3843    -3766    -3740    -3786    -3858    -3928 
   -3936    -3859    -3784    -3743    -3727    -3735    -3697    -3586 
   -3488    -3449    -3460    -3503    -3518    -3497    -3515    -3543 
   -3523    -3495    -3461    -3407    -3400    -3431    -3460    -3514 
   -3603    -3686    -3696    -3626    -3605    -3647    -3623    -3561 
   -3595    -3704    -3758    -3755    -3823    -3952    -4041    -4101 
   -4164    -4194    -4159    -4098    -4051    -4035    -4077    -4126 
   -4095    -4040    -4039    -4043    -4043    -4070    -4109    -4122 
   -4098    -4093    -4118    -4078    -3951    -3812    -3712    -3674 
   -3689    -3678    -3596    -3514    -3496    -3516    -3526    -3516 
   -3491    -3433    -3321    -3194    -3127    -3137    -3180    -3211 
   -3214    -3226    -3215    -3150    -3113    -3125    -3125    -3126 
   -3150    -3183    -3202    -3222    -3277    -3348    -3381    -3356 
   -3308    -3303    -3361    -3450    -3549    -3654    -3724    -3720 
   -3654    -3573    -3562    -3586    -3559    -3534    -3547    -3588 
   -3670    -3781    -3879    -3946    -4040    -4126    -4055    -3890 
   -3808    -3800    -3809    -3829    -3836    -3828    -3807    -3797 
   -3802    -3782    -3792    -3850    -3855    -3821    -3782    -3720 
   -3708    -3726    -3701    -3688    -3716    -3740    -3754    -3786 
   -3831    -3852    -3831    -3792    -3793    -3808    -3767    -3730 
   -3708    -3676    -3696    -3720    -3681    -3670    -3692    -3666 
   -3622    -3630    -3692    -3744    -3761    -3807    -3874    -3879 
   -3858    -3871    -3910    -3962    -3946    -3847    -3797    -3809 
   -3811    -3824    -3825    -3765    -3720    -3744    -3780    -3763 
   -3713    -3697    -3736    -3807    -3870    -3890    -3865    -3811 
   -3777    -3800    -3870    -3916    -3848    -3732    -3674    -3585 
   -3453    -3407    -3412    -3397    -3391    -3380    -3337    -3292 
   -3285    -3310    -3384    -3493    -3554    -3584    -3692    -3840 
   -3940    -3981    -3974    -3931    -3882    -3874    -3917    -3963 
   -4006    -4072    -4155    -4213    -4207    -4112    -3981    -3909 
   -3874    -3846    -3862    -3846    -3781    -3777    -3793    -3792 
   -3842    -3912    -3943    -3940    -3893    -3798    -3723    -3719 
   -3707    -3653    -3669    -3750    -3763    -3693    -3649    -3699 
   -3758    -3748    -3753    -3834    -3885    -3817    -3705    -3647 
   -3635    -3624    -3632    -3686    -3743    -3770    -3774    -3730 
   -3665    -3613    -3568    -3545    -3501    -3442    -3460    -3507 
   -3500    -3468    -3449    -3445    -3438    -3414    -3406    -3447 
   -3522    -3603    -3672    -3694    -3676    -3651    -3631    -3612 
   -3599    -3578    -3568    -3582    -3627    -3699    -3720    -3667 
