Origin Time       2024/04/02 04:24:00
Lat.              40.133
Long.             141.712
Depth. (km)       71
Mag.              6.0
Station Code      TCGH08
Station Lat.      36.8828
Station Long.     139.6459
Station Height(m) 702
Record Time       2024/04/02 04:26:38
Sampling Freq(Hz) 100Hz
Duration Time(s)  120
Dir.              6
Scale Factor      7845(gal)/8223790
Max. Acc. (gal)   0.234
Last Correction   2024/04/02 04:26:38
Memo.             
  -17543   -17497   -17501   -17537   -17544   -17564   -17599   -17583 
  -17556   -17579   -17601   -17601   -17621   -17620   -17566   -17520 
  -17504   -17481   -17450   -17443   -17454   -17455   -17477   -17521 
  -17517   -17478   -17456   -17423   -17378   -17406   -17475   -17496 
  -17525   -17591   -17599   -17548   -17513   -17487   -17448   -17428 
  -17451   -17505   -17577   -17617   -17587   -17555   -17585   -17602 
  -17571   -17563   -17574   -17545   -17509   -17502   -17498   -17475 
  -17455   -17455   -17485   -17536   -17558   -17545   -17543   -17562 
  -17598   -17640   -17652   -17608   -17548   -17536   -17562   -17577 
  -17578   -17560   -17517   -17501   -17527   -17547   -17560   -17578 
  -17571   -17547   -17540   -17558   -17582   -17612   -17621   -17566 
  -17497   -17473   -17469   -17471   -17497   -17521   -17528   -17537 
  -17536   -17514   -17524   -17558   -17551   -17537   -17583   -17641 
  -17640   -17595   -17579   -17586   -17559   -17525   -17539   -17552 
  -17514   -17491   -17516   -17529   -17518   -17502   -17478   -17483 
  -17533   -17552   -17508   -17497   -17560   -17597   -17552   -17529 
  -17560   -17559   -17527   -17523   -17527   -17510   -17498   -17493 
  -17513   -17559   -17583   -17589   -17610   -17601   -17536   -17508 
  -17540   -17559   -17554   -17575   -17624   -17635   -17582   -17524 
  -17514   -17523   -17498   -17485   -17535   -17581   -17575   -17566 
  -17558   -17550   -17555   -17528   -17496   -17533   -17571   -17532 
  -17500   -17516   -17516   -17510   -17537   -17544   -17516   -17521 
  -17550   -17560   -17597   -17636   -17591   -17529   -17541   -17545 
  -17502   -17509   -17531   -17473   -17419   -17442   -17479   -17508 
  -17551   -17593   -17631   -17653   -17616   -17537   -17487   -17473 
  -17473   -17502   -17566   -17598   -17564   -17566   -17655   -17697 
  -17641   -17608   -17591   -17516   -17458   -17500   -17564   -17572 
  -17562   -17558   -17543   -17567   -17639   -17670   -17651   -17614 
  -17563   -17545   -17571   -17579   -17559   -17532   -17502   -17509 
  -17548   -17559   -17532   -17493   -17458   -17454   -17504   -17535 
  -17474   -17405   -17428   -17477   -17473   -17451   -17478   -17547 
  -17579   -17563   -17555   -17513   -17417   -17371   -17433   -17504 
  -17487   -17440   -17437   -17436   -17425   -17466   -17535   -17583 
  -17598   -17559   -17482   -17460   -17512   -17555   -17563   -17555 
  -17518   -17485   -17485   -17502   -17533   -17559   -17558   -17548 
  -17533   -17516   -17533   -17564   -17554   -17510   -17491   -17528 
  -17554   -17523   -17504   -17521   -17520   -17527   -17579   -17626 
  -17637   -17648   -17652   -17620   -17583   -17582   -17567   -17516 
  -17487   -17493   -17517   -17577   -17624   -17601   -17601   -17672 
  -17686   -17608   -17566   -17571   -17535   -17502   -17545   -17591 
  -17581   -17567   -17563   -17551   -17560   -17574   -17524   -17464 
  -17485   -17529   -17550   -17618   -17683   -17637   -17571   -17545 
  -17517   -17523   -17554   -17547   -17533   -17550   -17540   -17504 
  -17470   -17439   -17454   -17533   -17570   -17525   -17537   -17629 
  -17655   -17598   -17594   -17631   -17606   -17554   -17528   -17494 
  -17459   -17483   -17520   -17521   -17556   -17617   -17605   -17552 
  -17555   -17594   -17605   -17602   -17621   -17652   -17667   -17639 
  -17595   -17605   -17631   -17601   -17555   -17514   -17452   -17405 
  -17401   -17412   -17433   -17481   -17541   -17594   -17629   -17658 
  -17680   -17658   -17593   -17589   -17658   -17666   -17590   -17556 
  -17563   -17520   -17477   -17505   -17509   -17436   -17404   -17429 
  -17396   -17343   -17388   -17417   -17346   -17363   -17498   -17540 
  -17512   -17552   -17581   -17544   -17564   -17616   -17559   -17486 
  -17521   -17545   -17500   -17496   -17501   -17429   -17417   -17523 
  -17560   -17501   -17494   -17527   -17532   -17555   -17589   -17563 
  -17518   -17513   -17512   -17518   -17564   -17597   -17613   -17641 
  -17643   -17635   -17683   -17743   -17771   -17787   -17749   -17624 
  -17536   -17560   -17585   -17564   -17566   -17582   -17555   -17505 
  -17490   -17506   -17498   -17478   -17486   -17504   -17509   -17516 
  -17552   -17595   -17574   -17489   -17456   -17513   -17524   -17454 
  -17439   -17493   -17513   -17518   -17563   -17591   -17556   -17490 
  -17437   -17404   -17378   -17394   -17467   -17509   -17455   -17398 
  -17443   -17529   -17545   -17547   -17595   -17613   -17559   -17513 
  -17494   -17470   -17470   -17486   -17479   -17482   -17508   -17496 
  -17447   -17454   -17518   -17544   -17531   -17556   -17597   -17582 
  -17543   -17521   -17521   -17544   -17562   -17555   -17564   -17577 
  -17551   -17544   -17568   -17550   -17523   -17539   -17536   -17529 
  -17594   -17658   -17641   -17620   -17610   -17564   -17539   -17594 
  -17670   -17689   -17658   -17631   -17613   -17564   -17508   -17504 
  -17501   -17475   -17502   -17537   -17494   -17454   -17500   -17559 
  -17574   -17562   -17540   -17535   -17577   -17621   -17609   -17591 
  -17597   -17572   -17531   -17513   -17500   -17486   -17490   -17493 
  -17490   -17496   -17490   -17479   -17504   -17545   -17564   -17574 
  -17587   -17606   -17640   -17652   -17601   -17513   -17450   -17432 
  -17442   -17456   -17494   -17559   -17568   -17496   -17482   -17579 
  -17626   -17585   -17599   -17659   -17648   -17599   -17551   -17500 
  -17504   -17554   -17589   -17629   -17647   -17593   -17540   -17528 
  -17473   -17439   -17540   -17628   -17597   -17604   -17672   -17637 
  -17548   -17548   -17550   -17496   -17527   -17609   -17571   -17497 
  -17525   -17572   -17589   -17644   -17706   -17675   -17593   -17564 
  -17581   -17572   -17547   -17523   -17490   -17473   -17491   -17514 
  -17521   -17496   -17421   -17375   -17455   -17568   -17593   -17593 
  -17599   -17540   -17469   -17467   -17473   -17474   -17498   -17496 
  -17487   -17531   -17571   -17582   -17581   -17527   -17442   -17416 
  -17432   -17424   -17439   -17529   -17608   -17582   -17521   -17535 
  -17598   -17637   -17652   -17639   -17587   -17541   -17498   -17425 
  -17379   -17443   -17585   -17675   -17641   -17577   -17589   -17626 
  -17604   -17568   -17571   -17545   -17501   -17500   -17475   -17419 
  -17454   -17547   -17555   -17523   -17544   -17594   -17625   -17616 
  -17563   -17543   -17581   -17578   -17528   -17524   -17566   -17563 
  -17508   -17466   -17447   -17452   -17500   -17535   -17506   -17486 
  -17518   -17528   -17473   -17408   -17396   -17442   -17501   -17505 
  -17473   -17460   -17454   -17409   -17365   -17385   -17433   -17446 
  -17448   -17490   -17555   -17591   -17571   -17525   -17505   -17527 
  -17578   -17618   -17602   -17539   -17473   -17450   -17475   -17497 
  -17500   -17550   -17624   -17618   -17548   -17541   -17620   -17676 
  -17670   -17645   -17629   -17651   -17703   -17701   -17624   -17550 
  -17545   -17595   -17649   -17675   -17662   -17641   -17644   -17639 
  -17609   -17578   -17552   -17554   -17621   -17676   -17631   -17544 
  -17510   -17513   -17491   -17467   -17489   -17528   -17558   -17605 
  -17641   -17640   -17625   -17594   -17558   -17555   -17601   -17676 
  -17739   -17725   -17629   -17512   -17440   -17456   -17517   -17550 
  -17545   -17524   -17490   -17486   -17536   -17568   -17537   -17497 
  -17466   -17427   -17397   -17382   -17389   -17425   -17464   -17506 
  -17566   -17594   -17577   -17587   -17625   -17621   -17602   -17606 
  -17564   -17485   -17469   -17490   -17487   -17510   -17583   -17614 
  -17583   -17581   -17602   -17583   -17570   -17585   -17566   -17528 
  -17533   -17555   -17550   -17521   -17487   -17491   -17558   -17593 
  -17527   -17463   -17506   -17590   -17614   -17610   -17625   -17625 
  -17599   -17577   -17535   -17496   -17494   -17464   -17409   -17405 
  -17413   -17394   -17400   -17447   -17493   -17497   -17483   -17485 
  -17459   -17425   -17455   -17509   -17524   -17537   -17562   -17531 
  -17481   -17516   -17564   -17555   -17560   -17533   -17428   -17410 
  -17491   -17478   -17420   -17483   -17591   -17624   -17622   -17613 
  -17579   -17566   -17585   -17585   -17570   -17577   -17560   -17513 
  -17494   -17490   -17485   -17514   -17556   -17564   -17543   -17494 
  -17440   -17446   -17481   -17458   -17448   -17516   -17535   -17509 
  -17567   -17614   -17572   -17533   -17521   -17498   -17498   -17525 
  -17509   -17437   -17424   -17487   -17505   -17482   -17528   -17558 
  -17508   -17508   -17572   -17586   -17590   -17633   -17633   -17582 
  -17563   -17558   -17512   -17490   -17539   -17577   -17570   -17563 
  -17554   -17555   -17599   -17601   -17552   -17578   -17648   -17632 
  -17570   -17574   -17626   -17655   -17636   -17599   -17586   -17590 
  -17570   -17527   -17505   -17529   -17560   -17552   -17533   -17562 
  -17620   -17621   -17544   -17470   -17440   -17433   -17446   -17474 
  -17500   -17529   -17554   -17559   -17575   -17636   -17699   -17707 
  -17679   -17655   -17613   -17551   -17482   -17415   -17396   -17423 
  -17454   -17490   -17520   -17537   -17562   -17581   -17575   -17556 
  -17554   -17581   -17614   -17616   -17590   -17581   -17581   -17575 
  -17541   -17452   -17393   -17460   -17555   -17575   -17598   -17660 
  -17663   -17613   -17608   -17613   -17601   -17649   -17685   -17595 
  -17510   -17535   -17559   -17550   -17610   -17666   -17599   -17529 
  -17532   -17509   -17487   -17543   -17599   -17590   -17554   -17540 
  -17547   -17550   -17541   -17545   -17572   -17598   -17605   -17599 
  -17605   -17628   -17633   -17599   -17564   -17532   -17497   -17505 
  -17516   -17462   -17433   -17489   -17504   -17451   -17429   -17462 
  -17527   -17574   -17543   -17498   -17532   -17587   -17621   -17656 
  -17641   -17570   -17539   -17555   -17535   -17498   -17482   -17460 
  -17443   -17443   -17431   -17435   -17500   -17545   -17509   -17474 
  -17504   -17521   -17502   -17518   -17562   -17574   -17577   -17577 
  -17529   -17478   -17509   -17585   -17599   -17574   -17563   -17544 
  -17540   -17589   -17602   -17544   -17517   -17535   -17508   -17479 
  -17518   -17535   -17502   -17531   -17581   -17554   -17518   -17547 
  -17574   -17577   -17598   -17595   -17540   -17544   -17629   -17633 
  -17531   -17485   -17489   -17440   -17413   -17433   -17408   -17375 
  -17402   -17447   -17497   -17552   -17547   -17482   -17467   -17506 
  -17510   -17502   -17525   -17513   -17463   -17479   -17558   -17597 
  -17597   -17620   -17639   -17602   -17550   -17510   -17456   -17423 
  -17436   -17440   -17466   -17551   -17597   -17585   -17586   -17581 
  -17545   -17528   -17548   -17581   -17601   -17609   -17626   -17637 
  -17609   -17570   -17575   -17609   -17605   -17570   -17559   -17558 
  -17539   -17510   -17489   -17509   -17535   -17493   -17446   -17502 
  -17612   -17632   -17577   -17558   -17550   -17506   -17514   -17568 
  -17585   -17620   -17682   -17649   -17559   -17529   -17517   -17493 
  -17514   -17540   -17524   -17533   -17567   -17567   -17574   -17589 
  -17556   -17524   -17533   -17520   -17475   -17508   -17583   -17558 
  -17514   -17578   -17620   -17582   -17591   -17631   -17613   -17589 
  -17583   -17575   -17571   -17586   -17601   -17599   -17579   -17536 
  -17481   -17451   -17440   -17456   -17518   -17545   -17486   -17455 
  -17491   -17520   -17529   -17518   -17478   -17485   -17554   -17593 
  -17597   -17622   -17640   -17624   -17632   -17656   -17629   -17605 
  -17645   -17671   -17644   -17631   -17653   -17648   -17599   -17568 
  -17556   -17525   -17498   -17506   -17501   -17467   -17487   -17563 
  -17574   -17523   -17535   -17589   -17566   -17506   -17508   -17533 
  -17525   -17509   -17528   -17559   -17554   -17523   -17532   -17559 
  -17551   -17547   -17532   -17416   -17298   -17316   -17362   -17356 
  -17400   -17483   -17500   -17485   -17508   -17558   -17617   -17643 
  -17598   -17525   -17467   -17444   -17455   -17466   -17451   -17410 
  -17378   -17383   -17404   -17425   -17482   -17555   -17593   -17614 
  -17632   -17597   -17518   -17470   -17470   -17481   -17525   -17591 
  -17577   -17524   -17556   -17602   -17578   -17567   -17610   -17621 
  -17552   -17482   -17478   -17525   -17587   -17591   -17536   -17540 
  -17578   -17525   -17455   -17482   -17532   -17517   -17481   -17473 
  -17473   -17463   -17483   -17544   -17575   -17544   -17506   -17527 
  -17583   -17598   -17587   -17590   -17551   -17504   -17544   -17602 
  -17570   -17517   -17508   -17493   -17490   -17558   -17616   -17601 
  -17574   -17583   -17624   -17663   -17663   -17641   -17618   -17595 
  -17598   -17609   -17593   -17591   -17598   -17564   -17537   -17554 
  -17558   -17547   -17555   -17559   -17551   -17541   -17535   -17529 
  -17523   -17539   -17574   -17554   -17487   -17474   -17518   -17564 
  -17594   -17606   -17599   -17595   -17599   -17595   -17602   -17637 
  -17671   -17666   -17635   -17609   -17564   -17494   -17487   -17517 
  -17477   -17432   -17475   -17517   -17494   -17483   -17533   -17567 
  -17537   -17514   -17544   -17601   -17663   -17707   -17707   -17664 
  -17620   -17598   -17589   -17571   -17531   -17489   -17498   -17541 
  -17543   -17504   -17494   -17508   -17504   -17525   -17598   -17621 
  -17536   -17479   -17531   -17593   -17606   -17613   -17635   -17645 
  -17625   -17575   -17510   -17443   -17394   -17379   -17383   -17390 
  -17419   -17478   -17529   -17535   -17510   -17490   -17475   -17458 
  -17423   -17390   -17423   -17486   -17469   -17390   -17363   -17377 
  -17365   -17347   -17375   -17419   -17433   -17424   -17409   -17432 
  -17502   -17558   -17579   -17589   -17581   -17571   -17563   -17562 
  -17581   -17572   -17533   -17517   -17509   -17491   -17501   -17525 
  -17525   -17524   -17537   -17541   -17551   -17568   -17559   -17550 
  -17586   -17617   -17617   -17651   -17694   -17645   -17583   -17613 
  -17648   -17628   -17635   -17655   -17659   -17694   -17712   -17658 
  -17621   -17613   -17578   -17589   -17653   -17644   -17590   -17578 
  -17529   -17443   -17473   -17590   -17620   -17579   -17601   -17629 
  -17571   -17524   -17550   -17552   -17512   -17517   -17582   -17609 
  -17560   -17520   -17540   -17552   -17513   -17473   -17451   -17410 
  -17373   -17398   -17481   -17541   -17543   -17545   -17559   -17564 
  -17578   -17577   -17547   -17532   -17535   -17552   -17604   -17629 
  -17566   -17493   -17497   -17520   -17516   -17537   -17574   -17570 
  -17552   -17540   -17524   -17532   -17564   -17574   -17548   -17533 
  -17540   -17537   -17525   -17513   -17479   -17451   -17483   -17527 
  -17529   -17539   -17560   -17558   -17554   -17594   -17653   -17666 
  -17648   -17647   -17633   -17610   -17609   -17570   -17501   -17525 
  -17622   -17647   -17617   -17617   -17598   -17531   -17517   -17544 
  -17509   -17470   -17491   -17473   -17428   -17497   -17590   -17535 
  -17424   -17406   -17424   -17408   -17436   -17516   -17540   -17520 
  -17551   -17597   -17564   -17510   -17524   -17518   -17439   -17416 
  -17482   -17506   -17469   -17444   -17460   -17482   -17481   -17490 
  -17535   -17532   -17474   -17462   -17497   -17505   -17524   -17563 
  -17521   -17466   -17540   -17608   -17537   -17483   -17520   -17525 
  -17506   -17532   -17545   -17533   -17560   -17572   -17524   -17533 
  -17604   -17618   -17581   -17562   -17563   -17578   -17602   -17618 
  -17617   -17598   -17575   -17571   -17571   -17541   -17498   -17490 
  -17529   -17577   -17599   -17620   -17644   -17621   -17563   -17559 
  -17593   -17590   -17570   -17586   -17595   -17567   -17555   -17589 
  -17612   -17581   -17527   -17494   -17486   -17483   -17493   -17525 
  -17545   -17525   -17517   -17548   -17556   -17550   -17572   -17579 
  -17560   -17563   -17579   -17568   -17540   -17540   -17562   -17567 
  -17570   -17587   -17602   -17616   -17622   -17622   -17618   -17601 
  -17558   -17517   -17509   -17512   -17517   -17533   -17551   -17556 
  -17543   -17517   -17513   -17544   -17579   -17593   -17591   -17587 
  -17604   -17616   -17582   -17545   -17547   -17537   -17525   -17559 
  -17554   -17489   -17474   -17501   -17497   -17506   -17551   -17571 
  -17545   -17518   -17539   -17590   -17616   -17618   -17633   -17625 
  -17562   -17523   -17548   -17536   -17447   -17393   -17416   -17437 
  -17433   -17440   -17459   -17482   -17527   -17567   -17567   -17554 
  -17535   -17500   -17491   -17510   -17493   -17474   -17473   -17424 
  -17377   -17421   -17490   -17501   -17537   -17610   -17608   -17571 
  -17609   -17625   -17556   -17520   -17552   -17579   -17590   -17614 
  -17629   -17618   -17602   -17582   -17570   -17577   -17555   -17498 
  -17510   -17583   -17598   -17579   -17597   -17612   -17609   -17636 
  -17674   -17659   -17605   -17575   -17564   -17547   -17543   -17555 
  -17552   -17532   -17524   -17563   -17618   -17610   -17556   -17556 
  -17608   -17617   -17572   -17529   -17506   -17486   -17482   -17508 
  -17540   -17550   -17531   -17494   -17489   -17521   -17516   -17473 
  -17456   -17460   -17470   -17504   -17540   -17533   -17505   -17509 
  -17523   -17525   -17550   -17564   -17523   -17466   -17439   -17440 
  -17446   -17450   -17470   -17490   -17483   -17475   -17486   -17482 
  -17439   -17406   -17429   -17442   -17420   -17425   -17436   -17429 
  -17459   -17493   -17494   -17520   -17560   -17550   -17529   -17568 
  -17612   -17605   -17577   -17545   -17514   -17531   -17567   -17568 
  -17594   -17662   -17676   -17633   -17614   -17609   -17566   -17543 
  -17586   -17617   -17606   -17629   -17664   -17635   -17594   -17589 
  -17563   -17531   -17547   -17574   -17571   -17564   -17568   -17541 
  -17491   -17494   -17529   -17514   -17504   -17567   -17635   -17618 
  -17535   -17467   -17455   -17460   -17454   -17467   -17501   -17508 
  -17494   -17496   -17489   -17471   -17489   -17510   -17502   -17523 
  -17578   -17605   -17608   -17609   -17598   -17590   -17617   -17639 
  -17595   -17528   -17490   -17467   -17467   -17487   -17479   -17439 
  -17416   -17440   -17478   -17490   -17517   -17568   -17589   -17564 
  -17536   -17540   -17572   -17575   -17562   -17590   -17620   -17609 
  -17597   -17614   -17629   -17618   -17613   -17610   -17572   -17531 
  -17523   -17531   -17535   -17528   -17529   -17543   -17551   -17568 
  -17599   -17604   -17582   -17567   -17545   -17512   -17510   -17547 
  -17579   -17579   -17552   -17540   -17564   -17581   -17560   -17548 
  -17552   -17543   -17544   -17574   -17586   -17586   -17602   -17597 
  -17563   -17560   -17582   -17564   -17521   -17513   -17502   -17452 
  -17439   -17496   -17544   -17572   -17604   -17590   -17540   -17533 
  -17550   -17523   -17494   -17504   -17509   -17510   -17532   -17556 
  -17555   -17518   -17479   -17482   -17483   -17458   -17470   -17521 
  -17555   -17550   -17510   -17486   -17493   -17466   -17437   -17477 
  -17518   -17517   -17513   -17494   -17483   -17544   -17617   -17628 
  -17616   -17621   -17614   -17590   -17591   -17614   -17604   -17564 
