Origin Time       2024/04/02 04:24:00
Lat.              40.133
Long.             141.712
Depth. (km)       71
Mag.              6.0
Station Code      TCGH17
Station Lat.      36.9853
Station Long.     139.6922
Station Height(m) 531.2
Record Time       2024/04/02 04:25:53
Sampling Freq(Hz) 100Hz
Duration Time(s)  120
Dir.              3
Scale Factor      2940(gal)/6170270
Max. Acc. (gal)   0.145
Last Correction   2024/04/02 04:25:38
Memo.             
[...]
   -5829    -5836    -5845    -5849    -5858    -5870    -5885    -5900 
   -5908    -5912    -5920    -5926    -5928    -5934    -5945    -5955 
   -5960    -5960    -5965    -5980    -5988    -5977    -5969    -5974 
   -5975    -5964    -5951    -5944    -5937    -5925    -5911    -5903 
   -5898    -5895    -5893    -5892    -5897    -5909    -5916    -5914 
   -5914    -5924    -5932    -5924    -5907    -5887    -5870    -5864 
   -5866    -5866    -5862    -5858    -5870    -5895    -5914    -5924 
   -5939    -5959    -5972    -5974    -5970    -5971    -5984    -5994 
   -5989    -5977    -5968    -5962    -5951    -5932    -5916    -5907 
   -5900    -5885    -5866    -5855    -5853    -5848    -5843    -5843 
   -5839    -5832    -5826    -5825    -5826    -5828    -5834    -5842 
   -5848    -5862    -5884    -5901    -5914    -5934    -5950    -5953 
   -5956    -5965    -5967    -5954    -5936    -5932    -5935    -5933 
   -5929    -5923    -5919    -5929    -5938    -5944    -5954    -5960 
   -5963    -5978    -5987    -5976    -5965    -5962    -5956    -5944 
   -5934    -5934    -5941    -5943    -5948    -5964    -5980    -5994 
   -6007    -6005    -5996    -6002    -6005    -5986    -5961    -5943 
   -5934    -5930    -5924    -5914    -5912    -5925    -5945    -5960 
   -5968    -5977    -5988    -5989    -5985    -5986    -5983    -5970 
   -5958    -5949    -5932    -5906    -5888    -5884    -5878    -5870 
   -5872    -5876    -5867    -5857    -5862    -5870    -5871    -5873 
   -5874    -5880    -5889    -5884    -5866    -5860    -5864    -5865 
   -5863    -5853    -5840    -5840    -5848    -5845    -5839    -5842 
   -5851    -5864    -5874    -5879    -5887    -5904    -5921    -5930 
   -5939    -5947    -5953    -5961    -5969    -5970    -5968    -5970 
   -5977    -5979    -5974    -5975    -5980    -5976    -5967    -5962 
   -5962    -5959    -5951    -5946    -5946    -5942    -5942    -5949 
   -5958    -5963    -5970    -5982    -5992    -5991    -5982    -5975 
   -5977    -5981    -5971    -5958    -5954    -5944    -5926    -5917 
   -5914    -5907    -5898    -5891    -5884    -5871    -5856    -5850 
   -5848    -5839    -5824    -5814    -5815    -5818    -5819    -5825 
   -5835    -5846    -5865    -5882    -5892    -5909    -5928    -5930 
   -5926    -5926    -5920    -5915    -5918    -5916    -5909    -5912 
   -5922    -5915    -5904    -5914    -5928    -5929    -5929    -5928 
   -5921    -5921    -5935    -5944    -5945    -5950    -5949    -5944 
   -5947    -5947    -5942    -5947    -5953    -5948    -5945    -5946 
   -5949    -5954    -5958    -5954    -5955    -5963    -5960    -5945 
   -5941    -5949    -5948    -5933    -5920    -5924    -5940    -5954 
   -5959    -5954    -5950    -5956    -5967    -5979    -5982    -5974 
   -5972    -5981    -5985    -5973    -5962    -5961    -5959    -5948 
   -5931    -5911    -5889    -5872    -5862    -5854    -5848    -5842 
   -5844    -5856    -5865    -5865    -5872    -5889    -5902    -5912 
   -5920    -5928    -5933    -5938    -5944    -5951    -5956    -5961 
   -5961    -5957    -5957    -5954    -5945    -5934    -5923    -5914 
   -5907    -5895    -5884    -5881    -5879    -5881    -5885    -5889 
   -5896    -5908    -5926    -5947    -5961    -5970    -5975    -5973 
   -5975    -5981    -5979    -5968    -5957    -5945    -5936    -5938 
   -5944    -5949    -5956    -5956    -5951    -5958    -5967    -5960 
   -5953    -5957    -5954    -5940    -5934    -5935    -5928    -5917 
   -5912    -5912    -5914    -5919    -5918    -5910    -5910    -5923 
   -5929    -5915    -5901    -5899    -5902    -5909    -5909    -5900 
   -5895    -5896    -5890    -5878    -5872    -5867    -5861    -5852 
   -5844    -5840    -5833    -5827    -5828    -5833    -5847    -5862 
   -5868    -5871    -5880    -5892    -5904    -5917    -5928    -5924 
   -5913    -5917    -5928    -5928    -5921    -5922    -5925    -5923 
   -5921    -5917    -5907    -5901    -5905    -5911    -5910    -5909 
   -5911    -5906    -5901    -5912    -5928    -5937    -5945    -5953 
   -5960    -5970    -5974    -5967    -5960    -5962    -5962    -5959 
   -5962    -5964    -5963    -5970    -5984    -5994    -6000    -6009 
   -6017    -6016    -6005    -5990    -5977    -5962    -5938    -5917 
   -5904    -5885    -5863    -5852    -5854    -5856    -5854    -5857 
   -5868    -5879    -5883    -5886    -5896    -5912    -5925    -5927 
   -5924    -5923    -5927    -5930    -5921    -5904    -5898    -5898 
   -5897    -5899    -5901    -5902    -5904    -5908    -5914    -5924 
   -5939    -5956    -5962    -5959    -5958    -5961    -5961    -5961 
   -5964    -5961    -5961    -5972    -5975    -5968    -5973    -5980 
   -5975    -5968    -5971    -5973    -5964    -5955    -5949    -5940 
   -5931    -5933    -5938    -5941    -5944    -5949    -5957    -5962 
   -5958    -5959    -5967    -5968    -5959    -5947    -5943    -5948 
   -5947    -5936    -5927    -5925    -5933    -5944    -5941    -5934 
   -5931    -5921    -5908    -5897    -5881    -5865    -5859    -5859 
   -5858    -5855    -5847    -5840    -5852    -5870    -5881    -5898 
   -5918    -5929    -5943    -5967    -5982    -5982    -5987    -5994 
   -5989    -5981    -5973    -5959    -5938    -5915    -5896    -5880 
   -5867    -5856    -5845    -5835    -5827    -5821    -5822    -5827 
   -5830    -5836    -5845    -5853    -5859    -5866    -5873    -5881 
   -5891    -5900    -5905    -5913    -5928    -5928    -5914    -5918 
   -5938    -5947    -5945    -5946    -5946    -5946    -5948    -5945 
   -5936    -5930    -5939    -5952    -5949    -5930    -5917    -5913 
   -5910    -5904    -5890    -5876    -5873    -5870    -5859    -5855 
   -5860    -5867    -5876    -5885    -5891    -5892    -5892    -5896 
   -5905    -5911    -5917    -5926    -5934    -5945    -5961    -5976 
   -5989    -6002    -6010    -6016    -6020    -6019    -6009    -5995 
   -5983    -5968    -5947    -5922    -5900    -5887    -5872    -5853 
   -5849    -5853    -5854    -5859    -5866    -5867    -5878    -5896 
   -5902    -5903    -5902    -5894    -5903    -5922    -5923    -5918 
   -5918    -5920    -5925    -5929    -5927    -5930    -5935    -5929 
   -5925    -5939    -5953    -5960    -5971    -5982    -5989    -6003 
   -6025    -6046    -6067    -6086    -6091    -6093    -6105    -6110 
   -6099    -6091    -6087    -6071    -6052    -6036    -6012    -5981 
   -5955    -5939    -5922    -5901    -5879    -5858    -5845    -5841 
   -5843    -5851    -5858    -5866    -5884    -5899    -5912    -5928 
   -5925    -5912    -5913    -5905    -5886    -5872    -5856    -5840 
   -5830    -5819    -5810    -5813    -5817    -5825    -5845    -5867 
   -5885    -5908    -5942    -5972    -5990    -6005    -6022    -6034 
   -6031    -6016    -5990    -5955    -5925    -5904    -5882    -5864 
   -5852    -5847    -5854    -5862    -5871    -5888    -5905    -5921 
   -5939    -5952    -5959    -5963    -5963    -5963    -5964    -5958 
   -5950    -5943    -5945    -5951    -5942    -5920    -5902    -5894 
   -5895    -5896    -5885    -5868    -5858    -5856    -5856    -5861 
   -5870    -5871    -5861    -5860    -5866    -5868    -5871    -5876 
   -5881    -5884    -5885    -5895    -5914    -5918    -5910    -5911 
   -5922    -5932    -5934    -5926    -5918    -5918    -5917    -5905 
   -5896    -5896    -5893    -5889    -5892    -5895    -5892    -5895 
   -5905    -5909    -5904    -5899    -5899    -5901    -5909    -5917 
   -5916    -5919    -5930    -5934    -5939    -5954    -5977    -5996 
   -6000    -5996    -5998    -6007    -6011    -6000    -5982    -5976 
   -5979    -5971    -5958    -5952    -5949    -5945    -5940    -5931 
   -5921    -5910    -5903    -5903    -5906    -5914    -5926    -5932 
   -5937    -5949    -5965    -5981    -5987    -5985    -5982    -5975 
   -5967    -5965    -5966    -5961    -5944    -5930    -5927    -5921 
   -5916    -5923    -5921    -5909    -5901    -5901    -5901    -5904 
   -5904    -5892    -5877    -5876    -5875    -5858    -5834    -5823 
   -5819    -5808    -5801    -5807    -5807    -5798    -5797    -5809 
   -5823    -5837    -5848    -5856    -5859    -5864    -5876    -5882 
   -5883    -5896    -5907    -5910    -5911    -5911    -5925    -5962 
   -5984    -5981    -5993    -6018    -6019    -6012    -6024    -6034 
   -6024    -6008    -6000    -6001    -5999    -5991    -5985    -5979 
   -5975    -5979    -5993    -6003    -5996    -5993    -6005    -6006 
   -5994    -5989    -5981    -5963    -5953    -5946    -5930    -5908 
   -5882    -5860    -5846    -5836    -5827    -5825    -5829    -5828 
   -5825    -5839    -5859    -5865    -5868    -5883    -5899    -5903 
   -5906    -5915    -5926    -5936    -5950    -5960    -5962    -5962 
   -5959    -5951    -5947    -5945    -5941    -5936    -5931    -5922 
   -5912    -5903    -5895    -5889    -5885    -5880    -5876    -5882 
   -5889    -5885    -5885    -5898    -5912    -5935    -5964    -5974 
   -5973    -5983    -5997    -6004    -6013    -6030    -6036    -6025 
   -6017    -6019    -6021    -6019    -6010    -5990    -5979    -5983 
   -5977    -5961    -5956    -5954    -5950    -5954    -5958    -5956 
   -5958    -5960    -5961    -5962    -5956    -5942    -5925    -5913 
   -5906    -5900    -5893    -5893    -5895    -5888    -5874    -5868 
   -5870    -5877    -5885    -5885    -5877    -5876    -5879    -5880 
   -5883    -5885    -5886    -5890    -5892    -5890    -5886    -5878 
   -5872    -5872    -5871    -5861    -5851    -5844    -5832    -5822 
   -5820    -5821    -5822    -5817    -5809    -5807    -5810    -5815 
   -5821    -5828    -5840    -5854    -5863    -5877    -5898    -5919 
   -5933    -5941    -5950    -5954    -5951    -5948    -5947    -5946 
   -5943    -5933    -5928    -5941    -5958    -5966    -5972    -5978 
   -5986    -5995    -5995    -5996    -6000    -5996    -5992    -5994 
   -5984    -5972    -5974    -5980    -5976    -5973    -5977    -5977 
   -5971    -5977    -5992    -5995    -5991    -5996    -6003    -5996 
   -5975    -5963    -5964    -5960    -5946    -5928    -5910    -5902 
   -5902    -5900    -5900    -5897    -5883    -5867    -5858    -5844 
   -5829    -5822    -5825    -5828    -5827    -5831    -5838    -5849 
   -5870    -5896    -5919    -5936    -5951    -5969    -5981    -5986 
   -5988    -5986    -5982    -5984    -5992    -5995    -5990    -5982 
   -5977    -5972    -5961    -5947    -5931    -5911    -5895    -5887 
   -5882    -5885    -5892    -5902    -5916    -5937    -5961    -5980 
   -5989    -5992    -5994    -6000    -5999    -5993    -5987    -5975 
   -5959    -5952    -5954    -5952    -5953    -5953    -5948    -5950 
   -5955    -5949    -5938    -5923    -5902    -5885    -5882    -5876 
   -5859    -5841    -5833    -5838    -5852    -5868    -5880    -5891 
   -5906    -5918    -5927    -5941    -5951    -5954    -5952    -5941 
   -5934    -5932    -5927    -5918    -5905    -5891    -5875    -5861 
   -5855    -5852    -5851    -5861    -5874    -5885    -5904    -5925 
   -5938    -5951    -5965    -5975    -5984    -5985    -5980    -5981 
   -5977    -5968    -5970    -5979    -5990    -5998    -5991    -5987 
   -5987    -5976    -5967    -5971    -5972    -5961    -5947    -5936 
   -5925    -5915    -5909    -5901    -5888    -5880    -5871    -5855 
   -5836    -5821    -5820    -5824    -5818    -5812    -5805    -5797 
   -5804    -5821    -5833    -5841    -5845    -5845    -5856    -5882 
   -5904    -5913    -5922    -5938    -5948    -5944    -5936    -5932 
   -5933    -5940    -5936    -5922    -5912    -5905    -5898    -5891 
   -5881    -5882    -5892    -5894    -5888    -5882    -5880    -5881 
   -5884    -5896    -5916    -5925    -5920    -5922    -5928    -5930 
   -5932    -5936    -5936    -5932    -5923    -5921    -5929    -5929 
   -5923    -5929    -5937    -5942    -5947    -5952    -5966    -5975 
   -5971    -5980    -6002    -6007    -6004    -6007    -6004    -5998 
   -5995    -5994    -5994    -5990    -5977    -5972    -5975    -5971 
   -5965    -5965    -5957    -5953    -5957    -5958    -5954    -5952 
   -5949    -5948    -5949    -5944    -5934    -5929    -5929    -5924 
   -5915    -5904    -5892    -5878    -5869    -5867    -5864    -5864 
   -5876    -5878    -5861    -5856    -5866    -5871    -5871    -5866 
   -5855    -5857    -5875    -5890    -5895    -5894    -5892    -5900 
   -5912    -5917    -5917    -5919    -5924    -5931    -5933    -5929 
   -5917    -5907    -5911    -5918    -5920    -5920    -5917    -5915 
   -5919    -5921    -5921    -5933    -5950    -5956    -5949    -5952 
   -5970    -5982    -5978    -5969    -5956    -5942    -5933    -5923 
   -5911    -5904    -5898    -5889    -5879    -5868    -5858    -5849 
   -5843    -5837    -5827    -5817    -5817    -5820    -5811    -5804 
   -5811    -5812    -5805    -5805    -5803    -5794    -5795    -5799 
   -5792    -5782    -5780    -5781    -5787    -5799    -5814    -5830 
   -5836    -5835    -5843    -5861    -5870    -5875    -5895    -5915 
   -5924    -5935    -5948    -5957    -5968    -5986    -5997    -6001 
   -6007    -6010    -6003    -6003    -6019    -6032    -6031    -6038 
   -6059    -6073    -6085    -6105    -6121    -6134    -6155    -6175 
   -6184    -6191    -6203    -6218    -6228    -6223    -6216    -6219 
   -6214    -6197    -6186    -6178    -6165    -6145    -6123    -6102 
   -6074    -6041    -6017    -5998    -5978    -5959    -5939    -5909 
   -5884    -5884    -5892    -5891    -5893    -5900    -5903    -5903 
   -5911    -5916    -5912    -5914    -5915    -5902    -5890    -5883 
   -5863    -5839    -5824    -5817    -5805    -5784    -5767    -5763 
   -5758    -5741    -5722    -5713    -5712    -5709    -5694    -5682 
   -5691    -5707    -5712    -5723    -5746    -5765    -5784    -5808 
   -5829    -5852    -5872    -5879    -5888    -5898    -5895    -5892 
   -5897    -5895    -5889    -5889    -5887    -5881    -5882    -5880 
   -5872    -5861    -5845    -5839    -5849    -5853    -5855    -5865 
   -5868    -5868    -5883    -5904    -5910    -5910    -5920    -5921 
   -5902    -5876    -5857    -5841    -5828    -5813    -5801    -5799 
   -5800    -5801    -5810    -5834    -5866    -5899    -5934    -5965 
   -5994    -6027    -6050    -6064    -6079    -6090    -6094    -6093 
   -6085    -6078    -6076    -6068    -6049    -6030    -6017    -6009 
   -6006    -5999    -5988    -5982    -5985    -5994    -6013    -6032 
   -6043    -6047    -6052    -6066    -6069    -6061    -6054    -6042 
   -6016    -5984    -5964    -5948    -5925    -5903    -5886    -5871 
   -5865    -5861    -5851    -5848    -5862    -5875    -5880    -5899 
   -5927    -5942    -5957    -5988    -6018    -6035    -6044    -6052 
   -6059    -6062    -6057    -6043    -6022    -6000    -5978    -5950 
   -5916    -5889    -5868    -5844    -5823    -5806    -5787    -5772 
   -5768    -5759    -5747    -5740    -5734    -5728    -5730    -5732 
   -5722    -5710    -5715    -5725    -5721    -5719    -5736    -5757 
   -5770    -5785    -5807    -5824    -5837    -5860    -5877    -5883 
   -5899    -5920    -5934    -5946    -5964    -5987    -6009    -6028 
   -6049    -6075    -6098    -6119    -6139    -6146    -6147    -6155 
   -6164    -6167    -6168    -6159    -6134    -6107    -6088    -6073 
   -6046    -6008    -5979    -5954    -5914    -5873    -5849    -5837 
   -5822    -5807    -5797    -5786    -5780    -5793    -5810    -5826 
   -5849    -5873    -5894    -5910    -5916    -5919    -5924    -5923 
   -5917    -5914    -5906    -5901    -5903    -5893    -5889    -5906 
   -5916    -5916    -5933    -5958    -5973    -5980    -5987    -6003 
   -6020    -6026    -6024    -6019    -6019    -6020    -6015    -6009 
   -5999    -5982    -5969    -5962    -5954    -5939    -5925    -5914 
   -5899    -5884    -5871    -5854    -5840    -5831    -5829    -5832 
   -5829    -5829    -5847    -5862    -5869    -5886    -5906    -5917 
   -5928    -5941    -5943    -5944    -5951    -5944    -5925    -5916 
   -5914    -5904    -5888    -5878    -5874    -5862    -5853    -5861 
   -5876    -5887    -5894    -5900    -5911    -5925    -5937    -5952 
   -5969    -5981    -5985    -5990    -5995    -5995    -6000    -6002 
   -5989    -5969    -5954    -5944    -5938    -5931    -5920    -5911 
   -5915    -5930    -5941    -5946    -5953    -5961    -5957    -5945 
   -5939    -5933    -5916    -5893    -5874    -5859    -5849    -5850 
   -5856    -5851    -5846    -5858    -5873    -5891    -5914    -5923 
   -5917    -5915    -5914    -5909    -5908    -5900    -5876    -5848 
   -5827    -5817    -5818    -5819    -5814    -5804    -5796    -5797 
   -5806    -5811    -5809    -5803    -5802    -5809    -5818    -5825 
   -5833    -5842    -5850    -5864    -5880    -5887    -5888    -5890 
   -5892    -5888    -5881    -5875    -5873    -5872    -5870    -5872 
   -5876    -5888    -5908    -5918    -5924    -5946    -5972    -5987 
   -6003    -6026    -6040    -6043    -6045    -6042    -6042    -6052 
   -6057    -6047    -6039    -6033    -6019    -6013    -6023    -6029 
   -6031    -6037    -6047    -6056    -6065    -6081    -6101    -6111 
   -6112    -6111    -6112    -6118    -6123    -6122    -6114    -6099 
   -6079    -6056    -6029    -6000    -5974    -5953    -5941    -5934 
   -5916    -5896    -5894    -5899    -5898    -5905    -5914    -5913 
   -5912    -5908    -5901    -5897    -5897    -5900    -5905    -5914 
   -5922    -5919    -5909    -5912    -5921    -5917    -5902    -5892 
   -5886    -5881    -5876    -5864    -5849    -5841    -5839    -5840 
   -5851    -5863    -5860    -5855    -5854    -5848    -5847    -5862 
   -5879    -5882    -5875    -5866    -5860    -5854    -5845    -5838 
   -5833    -5823    -5811    -5801    -5791    -5789    -5798    -5802 
   -5802    -5806    -5809    -5817    -5832    -5848    -5859    -5867 
   -5875    -5884    -5894    -5899    -5902    -5909    -5915    -5909 
   -5904    -5913    -5924    -5930    -5940    -5946    -5948    -5955 
   -5969    -5986    -5999    -6011    -6022    -6031    -6040    -6048 
   -6047    -6039    -6034    -6030    -6020    -6021    -6041    -6061 
   -6070    -6070    -6067    -6069    -6074    -6075    -6075    -6076 
   -6066    -6049    -6025    -5995    -5971    -5955    -5935    -5921 
   -5917    -5907    -5887    -5873    -5876    -5881    -5882    -5888 
   -5894    -5890    -5897    -5911    -5915    -5919    -5928    -5932 
   -5933    -5933    -5934    -5938    -5936    -5925    -5910    -5899 
   -5894    -5890    -5877    -5867    -5866    -5858    -5844    -5833 
   -5820    -5806    -5805    -5809    -5803    -5795    -5791    -5773 
   -5753    -5752    -5755    -5747    -5739    -5735    -5732    -5729 
   -5720    -5710    -5716    -5732    -5742    -5754    -5765    -5771 
   -5786    -5803    -5809    -5816    -5838    -5851    -5849    -5856 
   -5874    -5886    -5889    -5892    -5905    -5915    -5918    -5924 
   -5936    -5945    -5951    -5961    -5978    -5991    -5991    -5996 
