Origin Time       2024/04/02 04:24:00
Lat.              40.133
Long.             141.712
Depth. (km)       71
Mag.              6.0
Station Code      TCGH13
Station Lat.      36.7342
Station Long.     140.1781
Station Height(m) -5
Record Time       2024/04/02 04:25:32
Sampling Freq(Hz) 100Hz
Duration Time(s)  123
Dir.              2
Scale Factor      2942(gal)/8224139
Max. Acc. (gal)   0.384
Last Correction   2024/04/02 04:25:32
Memo.             
[...]
  218560   218532   218543   218525   218523   218562   218569   218593 
  218651   218631   218592   218643   218694   218632   218529   218494 
  218506   218482   218407   218340   218354   218438   218502   218548 
  218633   218685   218643   218616   218677   218737   218722   218683 
  218690   218705   218739   218841   218907   218862   218808   218825 
  218870   218876   218839   218759   218683   218675   218685   218701 
  218779   218828   218795   218809   218882   218886   218828   218802 
  218783   218702   218593   218544   218590   218651   218655   218660 
  218679   218673   218650   218587   218528   218548   218582   218594 
  218637   218664   218625   218610   218652   218660   218623   218637 
  218681   218682   218708   218756   218717   218612   218562   218589 
  218628   218602   218521   218481   218500   218535   218586   218650 
  218714   218797   218824   218722   218614   218581   218563   218558 
  218581   218585   218582   218641   218690   218623   218554   218581 
  218636   218625   218544   218513   218559   218582   218610   218658 
  218627   218543   218527   218531   218484   218511   218632   218695 
  218701   218682   218624   218594   218623   218651   218651   218667 
  218687   218674   218667   218659   218629   218652   218713   218741 
  218755   218735   218670   218641   218647   218623   218640   218690 
  218687   218667   218637   218602   218594   218582   218554   218520 
  218489   218488   218488   218443   218390   218412   218485   218523 
  218555   218620   218674   218681   218674   218690   218701   218673 
  218659   218652   218569   218489   218497   218533   218613   218698 
  218710   218693   218675   218664   218667   218644   218648   218727 
  218774   218745   218724   218744   218782   218817   218822   218782 
  218727   218705   218690   218652   218586   218509   218482   218505 
  218546   218609   218624   218586   218581   218558   218527   218567 
  218663   218764   218744   218604   218548   218587   218637   218708 
  218745   218756   218794   218818   218816   218787   218713   218667 
  218647   218565   218494   218508   218573   218674   218721   218666 
  218620   218617   218636   218639   218556   218479   218497   218517 
  218508   218497   218496   218539   218621   218689   218691   218636 
  218575   218524   218506   218554   218613   218633   218682   218763 
  218763   218689   218616   218570   218548   218559   218624   218667 
  218625   218598   218623   218635   218596   218535   218544   218570 
  218535   218528   218547   218554   218600   218660   218670   218651 
  218656   218666   218675   218694   218667   218592   218585   218652 
  218671   218652   218677   218740   218779   218764   218743   218694 
  218627   218646   218725   218785   218770   218670   218613   218646 
  218651   218637   218675   218709   218655   218555   218502   218535 
  218573   218543   218552   218593   218573   218597   218632   218562 
  218512   218520   218543   218592   218601   218587   218629   218655 
  218620   218590   218601   218610   218582   218578   218604   218577 
  218573   218625   218651   218718   218828   218837   218787   218760 
  218713   218644   218587   218523   218485   218528   218581   218598 
  218641   218686   218686   218675   218663   218632   218633   218673 
  218663   218639   218687   218732   218731   218709   218652   218656 
  218708   218660   218620   218664   218682   218720   218799   218810 
  218786   218760   218705   218678   218643   218556   218533   218581 
  218632   218693   218689   218614   218621   218663   218590   218489 
  218504   218550   218559   218616   218700   218739   218722   218651 
  218575   218529   218515   218554   218610   218648   218627   218578 
  218610   218663   218662   218689   218706   218652   218639   218698 
  218728   218705   218659   218594   218556   218592   218640   218632 
  218651   218708   218683   218620   218589   218569   218596   218631 
  218597   218583   218625   218658   218681   218698   218689   218617 
  218536   218565   218648   218667   218655   218673   218704   218705 
  218655   218610   218592   218548   218502   218471   218448   218436 
  218423   218463   218529   218488   218423   218452   218466   218421 
  218457   218579   218614   218554   218535   218517   218443   218371 
  218346   218388   218463   218529   218593   218632   218654   218662 
  218628   218629   218685   218708   218727   218740   218705   218691 
  218691   218654   218636   218628   218593   218593   218612   218590 
  218587   218620   218586   218548   218612   218621   218528   218504 
  218533   218519   218509   218517   218508   218523   218558   218560 
  218589   218698   218778   218728   218654   218646   218640   218621 
  218600   218577   218589   218612   218594   218589   218629   218670 
  218727   218820   218849   218837   218905   218929   218882   218906 
  218894   218829   218860   218903   218925   218994   218995   218878 
  218790   218793   218783   218716   218671   218664   218636   218616 
  218641   218666   218682   218748   218853   218898   218851   218805 
  218772   218685   218601   218587   218587   218547   218494   218506 
  218540   218473   218393   218390   218400   218467   218614   218705 
  218714   218712   218671   218555   218446   218447   218459   218400 
  218413   218496   218529   218535   218486   218465   218598   218698 
  218675   218722   218798   218781   218743   218735   218744   218748 
  218739   218722   218710   218697   218670   218662   218675   218652 
  218644   218690   218708   218677   218614   218602   218727   218826 
  218803   218787   218791   218763   218770   218818   218844   218839 
  218820   218786   218716   218596   218519   218539   218542   218523 
  218562   218644   218698   218659   218579   218566   218562   218477 
  218394   218370   218373   218412   218394   218296   218308   218465 
  218569   218523   218444   218411   218370   218377   218389   218239 
  218052   218047   218197   218421   218609   218636   218617   218682 
  218704   218646   218598   218506   218436   218497   218573   218628 
  218721   218790   218799   218817   218918   219030   219056   219019 
  218878   218662   218536   218489   218477   218539   218674   218855 
  218987   218991   218909   218795   218717   218720   218733   218721 
  218705   218652   218581   218556   218609   218694   218774   218895 
  218970   218903   218841   218771   218586   218454   218520   218623 
  218654   218716   218768   218733   218732   218727   218598   218494 
  218465   218392   218301   218253   218253   218297   218362   218443 
  218539   218590   218601   218627   218667   218701   218705   218674 
  218575   218413   218339   218400   218439   218475   218589   218667 
  218687   218736   218770   218762   218721   218602   218482   218416 
  218338   218335   218466   218559   218583   218620   218574   218444 
  218365   218343   218382   218494   218602   218644   218675   218759 
  218794   218705   218652   218718   218748   218641   218529   218562 
  218668   218698   218685   218710   218741   218759   218779   218759 
  218635   218470   218443   218515   218505   218521   218695   218852 
  218887   218889   218868   218825   218851   218924   218898   218745 
  218597   218509   218442   218470   218625   218781   218860   218894 
  218911   218911   218936   218991   218959   218845   218758   218675 
  218581   218521   218454   218385   218416   218560   218716   218775 
  218732   218667   218606   218524   218471   218492   218513   218512 
  218544   218592   218619   218628   218582   218493   218442   218435 
  218411   218401   218486   218566   218542   218560   218629   218592 
  218513   218458   218389   218396   218501   218609   218721   218814 
  218810   218700   218536   218427   218461   218633   218794   218799 
  218728   218675   218648   218690   218741   218737   218764   218848 
  218918   218937   218878   218717   218554   218575   218787   219005 
  219103   219073   219001   218938   218871   218799   218706   218641 
  218687   218785   218801   218756   218774   218785   218748   218778 
  218828   218848   218817   218621   218394   218353   218358   218234 
  218123   218187   218330   218425   218481   218488   218442   218425 
  218388   218339   218376   218353   218272   218290   218277   218184 
  218139   218146   218208   218309   218322   218293   218371   218466 
  218447   218398   218438   218528   218494   218363   218373   218481 
  218551   218589   218594   218643   218659   218521   218427   218438 
  218401   218355   218388   218486   218485   218430   218596   218736 
  218643   218674   218754   218652   218674   218836   218903   218967 
  219051   219117   219175   219144   219017   218898   218894   218944 
  218913   218893   218933   218948   218944   218889   218791   218860 
  219090   219184   219073   218987   218972   218832   218594   218587 
  218867   219071   219056   218959   218902   219029   219176   219046 
  218864   218867   218822   218650   218600   218724   218797   218714 
  218682   218817   218894   218829   218816   218902   218967   218972 
  218963   218943   218933   218907   218760   218587   218550   218578 
  218583   218551   218478   218478   218547   218484   218354   218349 
  218435   218508   218493   218475   218475   218304   218133   218251 
  218457   218488   218438   218408   218304   218203   218266   218293 
  218158   218116   218226   218285   218293   218316   218308   218312 
  218405   218492   218439   218312   218245   218251   218322   218407 
  218458   218525   218616   218710   218762   218751   218830   218953 
  218903   218828   218768   218436   218056   218002   218112   218313 
  218691   219049   219179   219076   218866   218736   218801   218947 
  218959   218837   218718   218614   218544   218521   218450   218390 
  218500   218767   219032   219052   218798   218520   218405   218405 
  218381   218442   218621   218694   218764   218914   218907   218816 
  218763   218745   218907   219056   218921   218683   218475   218328 
  218308   218320   218313   218401   218604   218682   218578   218492 
  218386   218305   218390   218469   218496   218543   218536   218500 
  218496   218560   218701   218813   218848   218821   218799   218790 
  218624   218407   218408   218471   218490   218682   218880   218799 
  218687   218678   218670   218872   219134   219134   219110   219119 
  219028   218941   218859   218821   218868   218829   218790   218862 
  218875   218876   218938   218781   218446   218393   218608   218701 
  218640   218601   218573   218646   218856   218868   218701   218693 
  218782   218856   219009   219153   219045   218778   218650   218671 
  218741   218752   218629   218573   218697   218775   218683   218571 
  218566   218566   218539   218659   218814   218764   218614   218475 
  218381   218362   218251   218153   218309   218377   218247   218357 
  218508   218280   217983   217945   218006   218043   217972   217773 
  217794   218052   218112   218027   218104   218303   218490   218668 
  218787   218693   218448   218307   218326   218439   218506   218382 
  218224   218305   218662   219022   219103   218978   218864   218832 
  218756   218574   218540   218704   218735   218633   218675   218835 
  218843   218691   218635   218612   218425   218309   218353   218286 
  218285   218569   218771   218708   218650   218695   218677   218543 
  218478   218551   218566   218548   218766   218972   218812   218554 
  218448   218455   218554   218608   218538   218479   218502   218533 
  218508   218447   218470   218651   218872   218938   218899   218932 
  219013   219088   219156   219194   219179   219105   219109   219168 
  219064   218978   219041   219048   219106   219238   219169   219028 
  218932   218710   218581   218774   219011   219017   218790   218509 
  218397   218502   218674   218714   218579   218496   218637   218798 
  218781   218687   218619   218662   218863   218953   218749   218508 
  218424   218343   218261   218436   218621   218374   218184   218396 
  218457   218295   218309   218550   218851   219002   218921   218691 
  218502   218544   218667   218721   218883   218984   218821   218794 
  218957   218828   218600   218698   218851   218828   218718   218538 
  218354   218199   218134   218350   218650   218731   218763   218829 
  218772   218706   218702   218691   218809   219064   219165   218980 
  218778   218678   218450   218242   218366   218571   218637   218706 
  218783   218729   218550   218373   218308   218404   218535   218467 
  218382   218555   218655   218458   218295   218370   218574   218729 
  218708   218547   218381   218284   218259   218203   218018   217960 
  218216   218359   218242   218226   218255   218165   218205   218455 
  218644   218639   218554   218542   218601   218539   218381   218380 
  218501   218516   218452   218532   218679   218592   218299   218116 
  218172   218309   218374   218404   218465   218520   218558   218586 
  218528   218500   218776   219126   219171   219069   218906   218601 
  218354   218280   218326   218425   218488   218556   218654   218759 
  218920   218924   218716   218721   218961   219130   219233   219161 
  218843   218614   218627   218706   218756   218843   219001   219122 
  219140   219084   218921   218721   218709   218874   219021   219269 
  219642   219704   219433   219238   219003   218593   218440   218558 
  218535   218479   218558   218629   218705   218698   218536   218608 
  218951   219118   219082   219057   219052   218936   218640   218373 
  218301   218353   218574   218905   218937   218662   218470   218251 
  217935   218008   218357   218486   218538   218635   218694   218650 
  218322   218035   218176   218335   218311   218388   218439   218224 
  217898   217750   217802   217803   217768   217858   218026   218238 
  218377   218263   218153   218246   218316   218353   218436   218515 
  218658   218698   218516   218407   218454   218560   218673   218781 
  218978   219036   218763   218452   218253   218284   218648   218924 
  218957   219179   219484   219407   219187   219191   219231   219175 
  219065   219034   219238   219377   219218   219003   218857   218793 
  218862   219011   219084   218905   218605   218444   218413   218471 
  218700   219073   219353   219354   219229   219049   218813   218798 
  218855   218598   218358   218405   218461   218447   218513   218592 
  218578   218617   218712   218693   218662   218689   218678   218614 
  218425   218241   218292   218443   218467   218339   218313   218589 
  218878   218947   218857   218655   218474   218404   218392   218434 
  218489   218525   218620   218764   218799   218636   218461   218432 
  218470   218497   218442   218265   218174   218280   218370   218381 
  218425   218575   218913   219203   219136   218990   218955   218805 
  218614   218532   218434   218312   218470   218848   218867   218567 
  218447   218439   218442   218571   218693   218758   218806   218740 
  218613   218548   218529   218501   218465   218430   218466   218700 
  218949   218924   218733   218505   218205   218070   218261   218550 
  218782   218853   218739   218640   218629   218667   218679   218578 
  218506   218601   218731   218695   218515   218455   218573   218666 
  218708   218640   218486   218494   218529   218386   218305   218315 
  218255   218347   218602   218721   218760   218771   218682   218651 
  218662   218633   218671   218686   218648   218694   218743   218739 
  218766   218809   218790   218718   218694   218652   218529   218425 
  218369   218394   218447   218355   218370   218650   218871   219010 
  219040   218833   218716   218650   218401   218307   218362   218344 
  218521   218872   218995   218816   218569   218501   218565   218579 
  218554   218533   218559   218647   218632   218428   218305   218396 
  218457   218555   218799   218870   218789   218830   218849   218783 
  218729   218668   218764   218945   218884   218755   218744   218716 
  218697   218724   218751   218794   218805   218787   218810   218864 
  218897   218936   219007   218956   218793   218787   218897   218921 
  218876   218762   218667   218689   218664   218610   218660   218647 
  218477   218373   218438   218533   218617   218736   218826   218787 
  218535   218188   218031   218108   218268   218416   218613   218836 
  218848   218768   218820   218752   218550   218520   218633   218736 
  218778   218694   218586   218562   218531   218562   218727   218752 
  218596   218565   218646   218685   218710   218725   218756   218752 
  218655   218606   218512   218219   218076   218338   218631   218651 
  218529   218397   218378   218477   218484   218396   218371   218462 
  218516   218397   218344   218465   218531   218575   218720   218816 
  218744   218621   218590   218567   218424   218365   218475   218479 
  218381   218351   218311   218251   218226   218181   218211   218361 
  218424   218440   218628   218771   218689   218641   218637   218554 
  218579   218700   218744   218766   218725   218559   218531   218748 
  218874   218762   218702   218829   218932   218845   218678   218681 
  218909   219107   219148   219160   219152   219057   218944   218789 
  218575   218486   218587   218698   218767   218790   218619   218419 
  218390   218342   218274   218268   218263   218278   218247   218290 
  218515   218601   218461   218385   218497   218606   218569   218550 
  218589   218601   218643   218625   218548   218605   218614   218443 
  218424   218655   218814   218786   218752   218770   218752   218781 
  218937   218979   218818   218802   218971   219006   218902   218745 
  218559   218575   218862   219122   219215   219210   219080   218921 
  218828   218654   218474   218506   218565   218536   218563   218571 
  218562   218678   218786   218720   218569   218579   218862   219138 
  219117   218883   218695   218636   218587   218493   218440   218508 
  218632   218706   218767   218779   218589   218405   218482   218515 
  218377   218349   218392   218417   218513   218601   218597   218528 
  218474   218494   218562   218639   218668   218652   218644   218583 
  218506   218505   218531   218565   218596   218581   218508   218493 
  218633   218741   218708   218637   218509   218335   218340   218586 
  218751   218656   218593   218643   218551   218397   218428   218600 
  218756   218853   218886   218808   218670   218643   218770   218868 
  218884   218859   218682   218457   218366   218297   218290   218419 
  218497   218616   218895   218997   218845   218754   218721   218686 
  218783   218925   218913   218845   218851   218907   218975   218938 
  218728   218573   218667   218821   218841   218764   218667   218651 
  218793   218910   218778   218606   218651   218705   218717   218836 
  218887   218828   218829   218848   218729   218488   218388   218430 
  218390   218465   218677   218714   218706   218795   218733   218539 
  218447   218419   218417   218494   218521   218539   218639   218582 
  218446   218498   218585   218598   218613   218647   218597   218354 
  218174   218191   218228   218313   218378   218370   218450   218535 
