Origin Time       2024/04/02 04:24:00
Lat.              40.133
Long.             141.712
Depth. (km)       71
Mag.              6.0
Station Code      TCGH09
Station Lat.      36.8625
Station Long.     139.8364
Station Height(m) 461
Record Time       2024/04/02 04:25:59
Sampling Freq(Hz) 100Hz
Duration Time(s)  120
Dir.              2
Scale Factor      2942(gal)/8224139
Max. Acc. (gal)   0.299
Last Correction   2024/04/02 04:26:00
Memo.             
[...]
 -221077  -221001  -220901  -220850  -220855  -220854  -220820  -220770 
 -220752  -220780  -220819  -220845  -220847  -220842  -220843  -220835 
 -220816  -220811  -220838  -220854  -220822  -220779  -220746  -220706 
 -220669  -220648  -220633  -220634  -220639  -220644  -220664  -220673 
 -220642  -220608  -220591  -220580  -220579  -220587  -220577  -220571 
 -220596  -220618  -220621  -220623  -220614  -220619  -220677  -220735 
 -220750  -220745  -220739  -220716  -220685  -220696  -220749  -220766 
 -220761  -220776  -220806  -220853  -220916  -220953  -220962  -220970 
 -220969  -220949  -220928  -220919  -220924  -220946  -220961  -220961 
 -220954  -220938  -220914  -220907  -220945  -221012  -221059  -221059 
 -221034  -221053  -221121  -221173  -221206  -221250  -221266  -221266 
 -221294  -221337  -221382  -221443  -221514  -221574  -221583  -221503 
 -221374  -221294  -221265  -221250  -221265  -221267  -221212  -221167 
 -221196  -221235  -221212  -221158  -221123  -221086  -221067  -221103 
 -221177  -221225  -221209  -221159  -221111  -221050  -220978  -220939 
 -220930  -220920  -220923  -220922  -220887  -220833  -220800  -220808 
 -220843  -220892  -220945  -220974  -220973  -220972  -220990  -221004 
 -220989  -220973  -220955  -220935  -220946  -220974  -220986  -220977 
 -220951  -220907  -220858  -220857  -220891  -220876  -220818  -220774 
 -220738  -220716  -220723  -220703  -220668  -220681  -220738  -220822 
 -220909  -220959  -220978  -221008  -221051  -221053  -221038  -221078 
 -221097  -221032  -220976  -220962  -220938  -220915  -220904  -220904 
 -220930  -220954  -220941  -220912  -220888  -220891  -220915  -220896 
 -220818  -220737  -220696  -220696  -220706  -220712  -220726  -220743 
 -220754  -220745  -220737  -220758  -220766  -220761  -220800  -220846 
 -220869  -220915  -220981  -221019  -221054  -221105  -221151  -221192 
 -221202  -221154  -221073  -221008  -220978  -220978  -220990  -221005 
 -221019  -221031  -221049  -221076  -221086  -221088  -221136  -221208 
 -221213  -221174  -221158  -221138  -221085  -221036  -221016  -220996 
 -220968  -220965  -220977  -220954  -220920  -220922  -220926  -220907 
 -220919  -220963  -220999  -221053  -221135  -221188  -221197  -221190 
 -221200  -221247  -221323  -221374  -221377  -221364  -221366  -221351 
 -221304  -221254  -221220  -221197  -221196  -221201  -221192  -221185 
 -221167  -221097  -221040  -221032  -221012  -220973  -220973  -221034 
 -221111  -221138  -221112  -221058  -220995  -220965  -220972  -220972 
 -220924  -220849  -220826  -220884  -220946  -220972  -220990  -221020 
 -221067  -221121  -221131  -221093  -221054  -221013  -220981  -220941 
 -220870  -220834  -220864  -220903  -220927  -220957  -220977  -220973 
 -220947  -220918  -220892  -220874  -220887  -220918  -220936  -220968 
 -221026  -221080  -221130  -221148  -221107  -221053  -221009  -220945 
 -220891  -220876  -220846  -220822  -220854  -220873  -220857  -220873 
 -220897  -220931  -221028  -221115  -221107  -221084  -221074  -220992 
 -220912  -220926  -220949  -220957  -221009  -221096  -221184  -221225 
 -221197  -221159  -221135  -221103  -221104  -221142  -221144  -221101 
 -221047  -220973  -220893  -220842  -220823  -220835  -220892  -220962 
 -220957  -220866  -220788  -220762  -220753  -220753  -220784  -220878 
 -221005  -221085  -221116  -221130  -221124  -221109  -221092  -221059 
 -221000  -220918  -220872  -220908  -220957  -220972  -220980  -220969 
 -220935  -220904  -220860  -220811  -220797  -220820  -220838  -220835 
 -220841  -220882  -220938  -220963  -220976  -221009  -221027  -221003 
 -220965  -220951  -220958  -220968  -220997  -221044  -221067  -221066 
 -221026  -220945  -220897  -220878  -220841  -220814  -220827  -220835 
 -220801  -220770  -220795  -220843  -220874  -220895  -220930  -220989 
 -221058  -221121  -221169  -221170  -221121  -221063  -221011  -220990 
 -221019  -221007  -220936  -220889  -220865  -220835  -220807  -220781 
 -220787  -220810  -220814  -220806  -220788  -220741  -220693  -220715 
 -220791  -220824  -220833  -220891  -220962  -220995  -221032  -221089 
 -221109  -221104  -221107  -221109  -221111  -221084  -221034  -221028 
 -221071  -221104  -221084  -221012  -220931  -220866  -220815  -220774 
 -220731  -220726  -220804  -220877  -220847  -220787  -220780  -220800 
 -220827  -220873  -220928  -220981  -221004  -221016  -221050  -221080 
 -221101  -221103  -221059  -221035  -221070  -221105  -221104  -221078 
 -221046  -220999  -220899  -220797  -220781  -220783  -220719  -220661 
 -220649  -220631  -220645  -220726  -220807  -220870  -220931  -220939 
 -220920  -220965  -221038  -221062  -221049  -221067  -221155  -221240 
 -221260  -221308  -221386  -221374  -221308  -221279  -221271  -221285 
 -221310  -221308  -221308  -221317  -221300  -221266  -221239  -221186 
 -221125  -221127  -221170  -221158  -221098  -221061  -221044  -221034 
 -221012  -220982  -220989  -221009  -220977  -220939  -220939  -220935 
 -220900  -220873  -220891  -220928  -220941  -220943  -220950  -220949 
 -220961  -220981  -220986  -220984  -220963  -220923  -220870  -220823 
 -220787  -220723  -220644  -220669  -220789  -220845  -220831  -220822 
 -220787  -220727  -220693  -220683  -220693  -220688  -220631  -220600 
 -220604  -220595  -220592  -220592  -220596  -220652  -220729  -220754 
 -220734  -220727  -220749  -220758  -220761  -220770  -220774  -220792 
 -220846  -220931  -220990  -220972  -220903  -220853  -220843  -220845 
 -220845  -220865  -220881  -220850  -220785  -220758  -220806  -220896 
 -220972  -220977  -220934  -220907  -220893  -220897  -220957  -221047 
 -221100  -221074  -221023  -221023  -221062  -221109  -221171  -221159 
 -221038  -220958  -220990  -221016  -221003  -221016  -221038  -221023 
 -221005  -220997  -220970  -220954  -220968  -220970  -220982  -221046 
 -221112  -221144  -221200  -221290  -221314  -221231  -221146  -221140 
 -221184  -221232  -221278  -221300  -221282  -221260  -221274  -221344 
 -221424  -221425  -221366  -221360  -221387  -221348  -221289  -221275 
 -221296  -221364  -221463  -221529  -221533  -221478  -221417  -221416 
 -221429  -221394  -221328  -221277  -221281  -221310  -221297  -221246 
 -221206  -221185  -221182  -221196  -221208  -221213  -221196  -221128 
 -221054  -221020  -221005  -221003  -221031  -221059  -221058  -221047 
 -221028  -221000  -220972  -220958  -220995  -221039  -220999  -220943 
 -220959  -220946  -220853  -220785  -220796  -220841  -220891  -220949 
 -220990  -220984  -220953  -220954  -221023  -221113  -221134  -221074 
 -221043  -221077  -221081  -221062  -221094  -221124  -221084  -220995 
 -220908  -220866  -220854  -220837  -220828  -220827  -220815  -220781 
 -220739  -220733  -220750  -220737  -220700  -220693  -220716  -220707 
 -220660  -220623  -220588  -220552  -220553  -220603  -220699  -220812 
 -220884  -220920  -220963  -220978  -220932  -220880  -220860  -220868 
 -220905  -220961  -221004  -220972  -220834  -220672  -220577  -220561 
 -220607  -220637  -220590  -220531  -220534  -220577  -220604  -220599 
 -220627  -220710  -220804  -220899  -220968  -220996  -221046  -221127 
 -221138  -221069  -221043  -221109  -221173  -221184  -221178  -221157 
 -221112  -221078  -221054  -221044  -221076  -221115  -221120  -221098 
 -221043  -220954  -220850  -220762  -220741  -220772  -220796  -220839 
 -220927  -220992  -220970  -220908  -220895  -220959  -221042  -221069 
 -221061  -221076  -221111  -221128  -221131  -221120  -221078  -221038 
 -221038  -221058  -221094  -221165  -221201  -221154  -221063  -220973 
 -220911  -220876  -220843  -220830  -220843  -220855  -220876  -220909 
 -220930  -220936  -220930  -220881  -220779  -220673  -220642  -220668 
 -220661  -220658  -220706  -220749  -220781  -220808  -220796  -220765 
 -220741  -220743  -220761  -220729  -220687  -220718  -220787  -220865 
 -220943  -220978  -221013  -221086  -221104  -221034  -220968  -220949 
 -220968  -220982  -220941  -220908  -220954  -221008  -221046  -221132 
 -221209  -221200  -221155  -221143  -221140  -221105  -221088  -221086 
 -221011  -220915  -220900  -220943  -221049  -221193  -221274  -221287 
 -221297  -221281  -221219  -221165  -221147  -221159  -221194  -221236 
 -221274  -221292  -221282  -221270  -221263  -221246  -221223  -221189 
 -221136  -221112  -221139  -221179  -221198  -221194  -221208  -221285 
 -221351  -221309  -221224  -221201  -221208  -221212  -221223  -221217 
 -221192  -221148  -221081  -221051  -221074  -221065  -221024  -221043 
 -221108  -221132  -221101  -221050  -221000  -220935  -220878  -220900 
 -220962  -220974  -220990  -221028  -221001  -220936  -220919  -220911 
 -220891  -220884  -220869  -220854  -220845  -220830  -220853  -220881 
 -220841  -220795  -220807  -220803  -220758  -220729  -220700  -220675 
 -220706  -220737  -220716  -220738  -220808  -220860  -220912  -220968 
 -220978  -220942  -220864  -220789  -220789  -220849  -220904  -220935 
 -220951  -220950  -220931  -220918  -220887  -220814  -220770  -220762 
 -220719  -220677  -220693  -220739  -220799  -220862  -220892  -220895 
 -220908  -220915  -220918  -220946  -220993  -221039  -221065  -221051 
 -221040  -221081  -221131  -221124  -221090  -221076  -221047  -221007 
 -220982  -220953  -220926  -220918  -220892  -220862  -220855  -220855 
 -220850  -220827  -220792  -220781  -220795  -220797  -220792  -220812 
 -220853  -220870  -220835  -220797  -220808  -220789  -220743  -220774 
 -220851  -220915  -220963  -220958  -220897  -220851  -220831  -220819 
 -220839  -220891  -220919  -220922  -220905  -220824  -220699  -220621 
 -220599  -220556  -220531  -220595  -220672  -220698  -220742  -220834 
 -220889  -220912  -220957  -221003  -221023  -221042  -221071  -221100 
 -221109  -221108  -221112  -221130  -221178  -221229  -221219  -221159 
 -221105  -221063  -221020  -220958  -220892  -220877  -220943  -221055 
 -221135  -221166  -221169  -221154  -221166  -221206  -221206  -221166 
 -221140  -221148  -221197  -221251  -221252  -221220  -221206  -221258 
 -221335  -221347  -221344  -221385  -221387  -221381  -221425  -221459 
 -221471  -221491  -221479  -221455  -221472  -221509  -221525  -221516 
 -221489  -221464  -221437  -221412  -221416  -221435  -221435  -221410 
 -221401  -221425  -221409  -221308  -221197  -221136  -221136  -221169 
 -221144  -221059  -221008  -220977  -220943  -220931  -220923  -220945 
 -220996  -221009  -220995  -220990  -220996  -221012  -221024  -221050 
 -221088  -221070  -221007  -220962  -220918  -220853  -220795  -220727 
 -220658  -220615  -220554  -220483  -220465  -220500  -220530  -220502 
 -220446  -220415  -220365  -220276  -220239  -220280  -220332  -220384 
 -220479  -220546  -220531  -220510  -220544  -220599  -220623  -220644 
 -220681  -220693  -220703  -220761  -220823  -220858  -220900  -220970 
 -221034  -221035  -220976  -220930  -220949  -220976  -220965  -220947 
 -220939  -220934  -220946  -220985  -221004  -220997  -221061  -221161 
 -221194  -221181  -221138  -221067  -221035  -221015  -220969  -220953 
 -220986  -221034  -221076  -221082  -221050  -221017  -221000  -221011 
 -221057  -221090  -221094  -221101  -221132  -221188  -221217  -221209 
 -221196  -221157  -221107  -221084  -221057  -221044  -221070  -221039 
 -220930  -220849  -220806  -220772  -220789  -220853  -220926  -220989 
 -220997  -220953  -220919  -220915  -220957  -221061  -221169  -221236 
 -221244  -221170  -221092  -221081  -221080  -221066  -221062  -221047 
 -221012  -221012  -221067  -221089  -221035  -220989  -220997  -221043 
 -221084  -221074  -221032  -220993  -220999  -221063  -221088  -221026 
 -220969  -220941  -220901  -220850  -220814  -220837  -220928  -221003 
 -221013  -221007  -220982  -220938  -220918  -220926  -220954  -220996 
 -220978  -220888  -220816  -220804  -220804  -220779  -220749  -220758 
 -220783  -220776  -220762  -220766  -220795  -220843  -220861  -220823 
 -220799  -220812  -220815  -220824  -220864  -220858  -220773  -220688 
 -220699  -220791  -220874  -220931  -220976  -220990  -220978  -220935 
 -220841  -220758  -220772  -220850  -220923  -220970  -220976  -220945 
 -220904  -220855  -220834  -220893  -220981  -221012  -221017  -221043 
 -221074  -221108  -221132  -221161  -221233  -221332  -221398  -221427 
 -221437  -221436  -221439  -221439  -221385  -221290  -221228  -221225 
 -221260  -221273  -221233  -221165  -221098  -221061  -221066  -221109 
 -221151  -221166  -221196  -221243  -221263  -221277  -221289  -221252 
 -221201  -221162  -221113  -221097  -221144  -221174  -221117  -221026 
 -220976  -220959  -220963  -220984  -220966  -220912  -220880  -220860 
 -220828  -220824  -220855  -220904  -220988  -221076  -221089  -221036 
 -221023  -221097  -221186  -221206  -221175  -221121  -221028  -220931 
 -220896  -220905  -220896  -220866  -220847  -220833  -220824  -220845 
 -220818  -220698  -220595  -220558  -220509  -220460  -220464  -220494 
 -220531  -220572  -220579  -220558  -220537  -220503  -220459  -220433 
 -220422  -220384  -220320  -220294  -220314  -220338  -220368  -220395 
 -220368  -220332  -220364  -220409  -220384  -220325  -220302  -220340 
 -220410  -220471  -220517  -220557  -220590  -220638  -220729  -220843 
 -220953  -221000  -220988  -220992  -221007  -221011  -221036  -221076 
 -221116  -221177  -221229  -221282  -221364  -221418  -221417  -221424 
 -221435  -221443  -221494  -221514  -221460  -221444  -221483  -221490 
 -221467  -221460  -221529  -221670  -221780  -221813  -221787  -221733 
 -221683  -221647  -221624  -221605  -221574  -221516  -221432  -221354 
 -221277  -221189  -221165  -221229  -221298  -221351  -221409  -221409 
 -221346  -221298  -221298  -221337  -221373  -221358  -221310  -221258 
 -221205  -221163  -221120  -221077  -221043  -220973  -220873  -220823 
 -220837  -220861  -220876  -220864  -220833  -220792  -220739  -220730 
 -220795  -220876  -220934  -220959  -220911  -220800  -220710  -220699 
 -220747  -220806  -220870  -220938  -220980  -221003  -220997  -220977 
 -220995  -221023  -221049  -221109  -221154  -221143  -221131  -221140 
 -221117  -221042  -220969  -220934  -220922  -220903  -220868  -220845 
 -220843  -220819  -220762  -220707  -220668  -220669  -220707  -220719 
 -220703  -220726  -220793  -220833  -220822  -220800  -220793  -220810 
 -220820  -220781  -220711  -220657  -220653  -220719  -220795  -220837 
 -220860  -220847  -220788  -220722  -220653  -220571  -220504  -220463 
 -220463  -220530  -220630  -220704  -220745  -220769  -220769  -220739 
 -220722  -220752  -220776  -220769  -220780  -220797  -220796  -220843 
 -220928  -220981  -221026  -221074  -221074  -221024  -220962  -220916 
 -220932  -221017  -221094  -221123  -221152  -221205  -221243  -221255 
 -221267  -221262  -221247  -221243  -221186  -221059  -220946  -220901 
 -220896  -220889  -220899  -220935  -220950  -220942  -220942  -220907 
 -220862  -220853  -220835  -220820  -220880  -220984  -221071  -221132 
 -221186  -221206  -221188  -221198  -221260  -221327  -221344  -221333 
 -221360  -221409  -221445  -221505  -221556  -221512  -221410  -221343 
 -221332  -221358  -221358  -221306  -221282  -221309  -221321  -221282 
 -221239  -221252  -221282  -221255  -221193  -221132  -221090  -221093 
 -221071  -220992  -220969  -221013  -221032  -221036  -221054  -221085 
 -221135  -221167  -221163  -221174  -221200  -221201  -221181  -221147 
 -221119  -221121  -221117  -221070  -221031  -221039  -221032  -220962 
 -220873  -220842  -220892  -220962  -220992  -220966  -220919  -220876 
 -220814  -220737  -220725  -220797  -220895  -220988  -221030  -220988 
 -220931  -220903  -220887  -220885  -220873  -220815  -220754  -220719 
 -220700  -220712  -220760  -220804  -220843  -220892  -220938  -220954 
 -220932  -220919  -220957  -220993  -220997  -221026  -221082  -221134 
 -221143  -221077  -220970  -220877  -220785  -220703  -220664  -220646 
 -220606  -220554  -220545  -220572  -220591  -220607  -220626  -220638 
 -220666  -220692  -220652  -220598  -220607  -220649  -220669  -220681 
 -220741  -220808  -220792  -220733  -220703  -220683  -220676  -220689 
 -220700  -220693  -220679  -220710  -220795  -220868  -220926  -220969 
 -220957  -220922  -220926  -220946  -220957  -220953  -220914  -220865 
 -220850  -220853  -220885  -220980  -221062  -221077  -221078  -221100 
 -221112  -221089  -221054  -221040  -221044  -221065  -221109  -221148 
 -221186  -221233  -221252  -221246  -221259  -221281  -221258  -221211 
 -221179  -221148  -221112  -221086  -221069  -221057  -221070  -221090 
 -221061  -220990  -220932  -220889  -220858  -220822  -220757  -220725 
 -220761  -220806  -220827  -220855  -220911  -220969  -220996  -220997 
 -221012  -221034  -221020  -220986  -220965  -220961  -220992  -221063 
 -221144  -221209  -221255  -221271  -221223  -221109  -221016  -221017 
 -221055  -221066  -221085  -221120  -221103  -221022  -220928  -220861 
 -220858  -220916  -220978  -221020  -221040  -221017  -220961  -220903 
 -220874  -220900  -220958  -220981  -220947  -220893  -220861  -220861 
 -220861  -220841  -220810  -220785  -220810  -220869  -220884  -220858 
 -220839  -220796  -220761  -220818  -220918  -220988  -221031  -221040 
 -221015  -220986  -220980  -220995  -221031  -221062  -221039  -220973 
 -220926  -220918  -220928  -220986  -221070  -221100  -221081  -221067 
 -221069  -221125  -221238  -221300  -221287  -221289  -221331  -221375 
 -221417  -221448  -221444  -221397  -221358  -221362  -221358  -221328 
 -221323  -221325  -221324  -221327  -221304  -221275  -221277  -221275 
 -221256  -221240  -221219  -221194  -221193  -221201  -221184  -221146 
 -221112  -221084  -221069  -221059  -221035  -221019  -221011  -220981 
 -220943  -220896  -220827  -220749  -220679  -220637  -220619  -220600 
 -220612  -220642  -220639  -220638  -220657  -220648  -220627  -220649 
 -220673  -220660  -220668  -220696  -220695  -220702  -220733  -220742 
 -220747  -220761  -220761  -220756  -220734  -220664  -220615  -220646 
 -220695  -220711  -220723  -220750  -220764  -220745  -220726  -220757 
 -220831  -220889  -220892  -220847  -220804  -220777  -220743  -220716 
 -220720  -220738  -220758  -220781  -220776  -220733  -220706  -220735 
 -220804  -220877  -220920  -220916  -220895  -220895  -220915  -220932 
 -220947  -220962  -220984  -221027  -221084  -221120  -221127  -221084 
 -221000  -220935  -220891  -220869  -220888  -220895  -220882  -220909 
 -220943  -220934  -220932  -220992  -221081  -221124  -221109  -221089 
 -221098  -221125  -221163  -221204  -221212  -221213  -221255  -221314 
 -221354  -221390  -221441  -221476  -221470  -221449  -221413  -221344 
 -221304  -221296  -221275  -221252  -221240  -221246  -221259  -221240 
 -221186  -221125  -221077  -221047  -221031  -221051  -221115  -221150 
 -221125  -221081  -221039  -221011  -220993  -220957  -220927  -220970 
 -221044  -221066  -221051  -221043  -221030  -221013  -221019  -221030 
 -221028  -221023  -221035  -221053  -221051  -221057  -221085  -221119 
 -221152  -221188  -221188  -221135  -221073  -221043  -221032  -220988 
 -220914  -220889  -220927  -220966  -221017  -221084  -221100  -221067 
 -221039  -221004  -220976  -220959  -220915  -220880  -220901  -220918 
 -220889  -220860  -220841  -220841  -220881  -220928  -220942  -220946 
