Origin Time       2024/04/02 04:24:00
Lat.              40.133
Long.             141.712
Depth. (km)       71
Mag.              6.0
Station Code      TCGH15
Station Lat.      36.5595
Station Long.     139.8637
Station Height(m) 125
Record Time       2024/04/02 04:25:35
Sampling Freq(Hz) 100Hz
Duration Time(s)  139
Dir.              6
Scale Factor      7845(gal)/8223790
Max. Acc. (gal)   0.886
Last Correction   2024/04/02 04:25:35
Memo.             
[...]
    2883     2995     2978     2890     2785     2709     2762     2882 
    2928     2907     2810     2581     2366     2346     2474     2647 
    2845     3009     2975     2724     2497     2469     2559     2667 
    2795     2905     2898     2790     2681     2586     2467     2427 
    2589     2822     2899     2821     2714     2605     2492     2439 
    2452     2505     2602     2689     2708     2660     2560     2500 
    2540     2632     2787     2960     2937     2754     2648     2639 
    2668     2759     2812     2733     2604     2560     2625     2695 
    2725     2724     2670     2606     2601     2627     2637     2623 
    2601     2586     2586     2637     2718     2756     2704     2573 
    2481     2529     2667     2853     3032     3092     3056     2988 
    2876     2808     2851     2906     2934     2955     2937     2910 
    2928     2937     2886     2849     2859     2809     2721     2745 
    2828     2833     2793     2747     2679     2637     2710     2887 
    3021     3026     2943     2799     2625     2493     2457     2569 
    2813     3014     3051     2955     2772     2582     2485     2474 
    2569     2791     2984     2971     2820     2675     2533     2440 
    2489     2592     2659     2718     2749     2743     2731     2687 
    2565     2397     2301     2350     2461     2525     2531     2529 
    2590     2679     2674     2546     2381     2281     2313     2447 
    2641     2828     2870     2739     2554     2420     2393     2466 
    2604     2771     2872     2867     2814     2718     2552     2419 
    2392     2443     2597     2864     3099     3188     3122     2911 
    2646     2508     2521     2619     2803     3006     3105     3065 
    2884     2651     2525     2524     2589     2714     2855     2925 
    2870     2724     2604     2532     2508     2633     2868     3011 
    2991     2847     2660     2547     2559     2689     2867     2974 
    2986     2955     2878     2782     2722     2695     2710     2830 
    2964     2911     2747     2687     2674     2639     2725     2920 
    3041     3003     2860     2764     2759     2754     2787     2895 
    2959     2918     2803     2667     2577     2555     2606     2732 
    2839     2818     2755     2793     2862     2810     2689     2620 
    2612     2650     2735     2830     2867     2820     2747     2698 
    2693     2725     2758     2763     2720     2641     2627     2691 
    2727     2708     2668     2601     2558     2578     2590     2555 
    2551     2606     2627     2579     2558     2544     2481     2462 
    2550     2654     2725     2767     2763     2685     2551     2496 
    2628     2857     3025     3056     2956     2752     2520     2386 
    2390     2461     2590     2735     2768     2710     2640     2562 
    2492     2428     2398     2450     2531     2619     2743     2830 
    2836     2762     2597     2458     2465     2571     2717     2848 
    2867     2789     2735     2758     2789     2791     2809     2816 
    2801     2853     2902     2843     2798     2820     2790     2729 
    2759     2851     2894     2876     2839     2775     2706     2704 
    2756     2814     2863     2880     2857     2802     2717     2639 
    2570     2535     2598     2729     2852     2956     2983     2853 
    2620     2439     2397     2474     2620     2779     2890     2875 
    2733     2577     2475     2434     2506     2708     2886     2925 
    2857     2736     2619     2577     2620     2731     2870     2933 
    2878     2802     2779     2771     2747     2748     2747     2656 
    2529     2511     2623     2818     3018     3086     2983     2806 
    2631     2535     2601     2749     2821     2806     2781     2736 
    2717     2821     2932     2909     2821     2741     2727     2849 
    3033     3114     3057     2938     2793     2655     2621     2722 
    2871     2974     2957     2832     2702     2671     2747     2856 
    2902     2860     2743     2592     2532     2573     2585     2575 
    2594     2614     2646     2685     2677     2609     2488     2408 
    2439     2493     2543     2627     2664     2579     2412     2272 
    2270     2425     2660     2843     2867     2755     2609     2516 
    2486     2466     2475     2571     2678     2683     2581     2470 
    2488     2643     2822     2882     2772     2674     2712     2764 
    2781     2783     2700     2585     2612     2747     2809     2775 
    2749     2675     2535     2548     2758     2903     2894     2817 
    2701     2566     2511     2655     2910     3030     3007     2967 
    2879     2764     2729     2745     2718     2675     2717     2833 
    2917     2943     2914     2835     2786     2805     2809     2779 
    2778     2810     2798     2751     2793     2879     2871     2837 
    2884     2926     2879     2814     2782     2745     2712     2712 
    2691     2660     2687     2752     2832     2906     2891     2752 
    2552     2421     2494     2716     2945     3119     3096     2820 
    2497     2327     2344     2448     2535     2681     2898     2998 
    2910     2670     2385     2281     2384     2565     2768     2922 
    2961     2859     2621     2389     2253     2223     2349     2521 
    2589     2627     2727     2778     2625     2347     2200     2259 
    2439     2667     2793     2739     2608     2481     2428     2489 
    2623     2805     2932     2911     2816     2717     2646     2633 
    2650     2679     2717     2739     2775     2829     2845     2812 
    2789     2844     2930     2947     2945     2964     2909     2817 
    2813     2911     3033     3056     2934     2783     2714     2721 
    2802     2959     3088     3087     3007     2887     2682     2513 
    2506     2597     2779     3033     3129     3002     2825     2662 
    2540     2538     2608     2668     2716     2797     2894     2924 
    2857     2759     2706     2717     2745     2795     2847     2848 
    2851     2808     2571     2317     2308     2496     2759     2937 
    2844     2582     2417     2409     2459     2519     2637     2794 
    2835     2712     2529     2384     2343     2444     2648     2830 
    2879     2803     2662     2478     2349     2398     2566     2694 
    2749     2782     2782     2702     2602     2544     2500     2465 
    2466     2529     2656     2766     2791     2741     2608     2448 
    2382     2469     2650     2786     2778     2641     2474     2420 
    2566     2781     2895     2911     2868     2732     2548     2496 
    2639     2860     3060     3148     3021     2797     2686     2674 
    2678     2725     2808     2825     2774     2782     2868     2897 
    2828     2736     2640     2582     2658     2874     3064     3061 
    2943     2847     2727     2597     2623     2783     2894     2898 
    2839     2712     2548     2493     2597     2762     2906     2955 
    2864     2764     2771     2822     2841     2798     2729     2728 
    2758     2755     2809     2878     2836     2745     2710     2706 
    2686     2683     2741     2801     2805     2775     2745     2721 
    2701     2745     2849     2839     2694     2570     2475     2435 
    2560     2764     2871     2848     2776     2731     2656     2525 
    2482     2579     2691     2758     2801     2817     2791     2751 
    2694     2605     2585     2675     2736     2725     2740     2768 
    2756     2748     2787     2817     2778     2717     2693     2671 
    2659     2689     2695     2635     2573     2565     2613     2705 
    2787     2786     2732     2700     2682     2675     2698     2693 
    2621     2563     2556     2555     2578     2695     2833     2848 
    2782     2729     2648     2550     2592     2760     2864     2857 
    2790     2660     2542     2542     2633     2745     2883     3011 
    3003     2841     2686     2629     2596     2578     2677     2835 
    2871     2793     2775     2829     2812     2739     2732     2748 
    2659     2532     2552     2662     2677     2632     2582     2543 
    2601     2660     2623     2685     2894     2992     2929     2866 
    2789     2597     2413     2374     2405     2469     2623     2802 
    2897     2901     2868     2809     2713     2614     2533     2469 
    2454     2521     2668     2857     3002     3045     3007     2907 
    2774     2679     2651     2662     2700     2756     2833     2924 
    2951     2841     2605     2362     2299     2440     2647     2843 
    2999     3044     2941     2766     2648     2639     2745     2980 
    3199     3210     3038     2806     2624     2582     2648     2766 
    2917     3002     2948     2822     2710     2671     2718     2801 
    2849     2829     2766     2724     2713     2735     2790     2813 
    2794     2812     2822     2733     2606     2516     2452     2465 
    2567     2646     2632     2551     2473     2500     2629     2782 
    2875     2828     2663     2551     2593     2729     2824     2751 
    2515     2251     2158     2346     2662     2876     2952     2853 
    2567     2323     2344     2574     2791     2866     2832     2697 
    2466     2328     2434     2683     2875     2909     2825     2713 
    2627     2597     2613     2647     2731     2867     2930     2874 
    2849     2887     2836     2735     2760     2864     2920     2968 
    2991     2874     2632     2386     2263     2297     2382     2501 
    2720     2943     3036     3015     2971     2943     2882     2754 
    2655     2646     2679     2745     2872     2987     2968     2837 
    2737     2690     2624     2582     2605     2629     2624     2644 
    2732     2826     2829     2724     2593     2544     2533     2502 
    2616     2909     3049     2891     2713     2654     2629     2658 
    2762     2843     2801     2612     2389     2301     2365     2501 
    2701     2909     2960     2843     2754     2791     2913     3041 
    3037     2886     2728     2644     2650     2714     2795     2871 
    2918     2917     2868     2763     2640     2610     2701     2805 
    2856     2884     2872     2781     2650     2536     2451     2431 
    2521     2705     2862     2899     2918     2965     2883     2678 
    2555     2512     2454     2469     2610     2791     2975     3087 
    2984     2713     2485     2420     2515     2733     2949     2978 
    2837     2701     2606     2508     2496     2689     2911     2921 
    2749     2505     2270     2199     2349     2605     2818     2882 
    2836     2754     2640     2548     2527     2592     2709     2803 
    2871     2901     2810     2679     2643     2677     2754     2880 
    2961     2936     2864     2787     2717     2655     2666     2806 
    2909     2851     2776     2745     2675     2627     2678     2745 
    2733     2681     2636     2583     2501     2409     2400     2532 
    2687     2729     2674     2548     2420     2439     2575     2683 
    2766     2876     3006     3092     3053     2825     2425     2097 
    2169     2598     3018     3113     2902     2635     2427     2307 
    2384     2640     2903     3073     3082     2879     2567     2338 
    2319     2489     2732     2905     2878     2770     2786     2795 
    2668     2565     2577     2679     2855     3036     3125     3045 
    2824     2563     2338     2274     2394     2524     2608     2700 
    2754     2722     2628     2520     2473     2521     2636     2786 
    2945     3057     3045     2917     2768     2689     2740     2905 
    3044     3041     2882     2660     2620     2863     3123     3171 
    3038     2829     2620     2461     2442     2639     2839     2814 
    2714     2682     2656     2668     2748     2782     2770     2840 
    2952     2903     2667     2409     2222     2228     2535     2901 
    2997     2791     2423     2108     2089     2371     2737     3014 
    3095     2938     2683     2508     2439     2439     2502     2639 
    2857     3121     3345     3375     3071     2601     2324     2340 
    2562     2884     3110     3102     2909     2682     2579     2567 
    2523     2559     2775     3014     3111     3060     2945     2866 
    2870     2941     2961     2887     2812     2733     2629     2600 
    2664     2782     2916     2970     2843     2539     2257     2166 
    2228     2475     2943     3302     3271     2925     2500     2247 
    2262     2473     2775     2968     2924     2745     2505     2242 
    2147     2358     2751     3063     3127     2944     2609     2335 
    2361     2644     2951     3144     3187     3080     2830     2531 
    2420     2539     2681     2787     2860     2889     2982     3013 
    2771     2486     2419     2527     2751     2994     3098     2960 
    2637     2351     2230     2254     2423     2632     2748     2806 
    2867     2868     2801     2816     2918     2857     2633     2559 
    2687     2787     2758     2685     2698     2798     2906     2987 
    2956     2767     2520     2320     2243     2335     2536     2718 
    2790     2759     2694     2624     2563     2556     2633     2729 
    2779     2835     2932     2983     2910     2755     2641     2659 
    2754     2867     3006     3049     2907     2668     2438     2389 
    2586     2813     2889     2820     2667     2521     2384     2277 
    2358     2543     2558     2412     2336     2393     2427     2369 
    2334     2389     2586     2999     3451     3645     3505     3082 
    2533     2174     2134     2270     2489     2758     2914     2813 
    2589     2446     2428     2547     2752     2872     2794     2547 
    2282     2218     2416     2760     3113     3298     3218     2983 
    2786     2745     2820     2932     3099     3196     3046     2832 
    2759     2767     2853     2990     2963     2766     2655     2740 
    2937     3099     3046     2785     2575     2577     2709     2878 
    3006     2997     2918     2897     2902     2876     2837     2847 
    2949     3040     3028     2965     2826     2620     2540     2639 
    2728     2704     2567     2358     2269     2404     2520     2511 
    2555     2616     2662     2812     2907     2812     2647     2462 
    2313     2338     2513     2704     2758     2632     2425     2230 
    2218     2488     2806     2909     2781     2567     2469     2542 
    2697     2857     2887     2679     2420     2417     2728     3067 
    3153     3021     2778     2486     2335     2401     2575     2851 
    3110     3111     2914     2731     2583     2434     2346     2390 
    2494     2569     2644     2716     2700     2578     2393     2270 
    2344     2575     2849     3051     3038     2870     2722     2682 
    2782     2952     3072     3164     3190     3005     2639     2286 
    2118     2249     2689     3171     3322     3136     2906     2778 
    2744     2875     3194     3501     3562     3397     3106     2712 
    2419     2454     2717     2934     2929     2744     2628     2655 
    2659     2671     2832     2986     2932     2782     2651     2454 
    2258     2269     2407     2511     2671     2870     2898     2724 
    2477     2307     2317     2450     2574     2663     2739     2803 
    2833     2825     2789     2704     2633     2650     2701     2754 
    2843     2916     2847     2589     2263     2123     2280     2543 
    2678     2698     2682     2560     2361     2307     2440     2585 
    2693     2847     2951     2830     2562     2331     2188     2215 
    2488     2886     3269     3446     3214     2724     2285     2058 
    2146     2515     2959     3288     3393     3253     2910     2482 
    2185     2120     2196     2388     2694     2909     2870     2724 
    2643     2536     2396     2470     2764     3015     3103     3011 
    2803     2655     2652     2781     2922     2909     2768     2639 
    2529     2450     2524     2762     2933     2906     2816     2739 
    2660     2736     2960     3001     2843     2743     2710     2735 
    2880     3072     3164     3060     2820     2609     2520     2589 
    2736     2849     2879     2743     2592     2663     2768     2728 
    2704     2709     2694     2754     2845     2894     2936     2961 
    2911     2794     2697     2681     2724     2785     2848     2914 
    2924     2772     2544     2438     2440     2490     2646     2779 
    2702     2516     2380     2293     2270     2386     2609     2813 
    2937     2953     2840     2681     2596     2586     2673     2897 
    3134     3180     2998     2741     2515     2330     2344     2655 
    2995     3161     3184     3036     2786     2654     2689     2806 
    2951     3100     3240     3307     3240     2971     2586     2396 
    2520     2812     3152     3357     3244     2880     2539     2459 
    2593     2731     2779     2689     2496     2389     2403     2442 
    2492     2497     2434     2431     2540     2693     2806     2828 
    2774     2671     2542     2430     2357     2369     2504     2700 
    2884     2982     2963     2902     2779     2577     2423     2381 
    2471     2697     2920     3002     2889     2648     2508     2538 
    2613     2720     2855     2916     2855     2678     2432     2259 
    2293     2474     2652     2797     2913     2916     2795     2663 
    2610     2641     2658     2623     2646     2731     2820     2948 
    3038     2952     2712     2478     2428     2614     2883     3014 
    2991     2968     2906     2685     2467     2412     2417     2378 
    2326     2331     2405     2467     2455     2389     2365     2454 
    2571     2660     2794     2898     2832     2671     2540     2513 
    2646     2841     2941     2929     2886     2837     2781     2799 
    2967     3137     3177     3119     2934     2700     2644     2756 
    2832     2822     2798     2826     2884     2956     3090     3173 
    3056     2887     2833     2802     2741     2686     2608     2455 
    2311     2349     2562     2795     2992     3056     2868     2547 
    2277     2146     2185     2390     2694     2882     2816     2659 
    2527     2350     2220     2285     2479     2714     2997     3231 
    3238     3053     2853     2659     2513     2573     2786     2967 
    3072     3105     2991     2727     2496     2442     2494     2627 
    2891     3177     3333     3334     3183     2907     2637     2467 
    2419     2540     2766     2938     3025     2980     2747     2492 
    2346     2216     2162     2280     2454     2620     2725     2695 
    2654     2668     2658     2677     2771     2847     2849     2775 
    2712     2754     2808     2843     2920     2909     2787     2745 
    2698     2481     2280     2272     2385     2577     2805     2932 
    2863     2693     2554     2382     2231     2369     2722     3005 
    3141     3121     2960     2763     2559     2394     2434     2693 
    2913     2902     2808     2763     2706     2668     2701     2772 
    2879     2984     3053     3072     2949     2718     2605     2706 
    2839     2855     2857     2898     2905     2938     3040     3091 
    2982     2731     2498     2380     2331     2367     2520     2725 
    2825     2708     2540     2538     2600     2577     2482     2388 
