Origin Time       2024/04/02 04:24:00
Lat.              40.133
Long.             141.712
Depth. (km)       71
Mag.              6.0
Station Code      TCGH08
Station Lat.      36.8828
Station Long.     139.6459
Station Height(m) 702
Record Time       2024/04/02 04:26:38
Sampling Freq(Hz) 100Hz
Duration Time(s)  120
Dir.              5
Scale Factor      7845(gal)/8223790
Max. Acc. (gal)   0.370
Last Correction   2024/04/02 04:26:38
Memo.             
   -2199    -2169    -2166    -2150    -2091    -2035    -2034    -2079 
   -2139    -2197    -2222    -2181    -2095    -2007    -1946    -1934 
   -1979    -2041    -2096    -2151    -2199    -2205    -2180    -2147 
   -2106    -2058    -2037    -2060    -2107    -2155    -2185    -2195 
   -2199    -2201    -2177    -2138    -2133    -2147    -2138    -2119 
   -2127    -2149    -2155    -2142    -2122    -2115    -2126    -2138 
   -2138    -2138    -2142    -2150    -2176    -2227    -2285    -2309 
   -2286    -2250    -2226    -2205    -2187    -2195    -2235    -2262 
   -2247    -2222    -2218    -2232    -2257    -2268    -2241    -2184 
   -2120    -2068    -2035    -2018    -2014    -2027    -2058    -2085 
   -2089    -2091    -2116    -2158    -2196    -2215    -2211    -2195 
   -2185    -2185    -2170    -2139    -2134    -2170    -2218    -2258 
   -2304    -2346    -2365    -2354    -2312    -2261    -2232    -2211 
   -2170    -2130    -2141    -2180    -2195    -2196    -2211    -2223 
   -2218    -2211    -2211    -2201    -2173    -2147    -2130    -2092 
   -2038    -1993    -1972    -1980    -1999    -1988    -1956    -1969 
   -2031    -2056    -2020    -2003    -2026    -2029    -2002    -2012 
   -2079    -2123    -2111    -2088    -2073    -2047    -2027    -2043 
   -2085    -2119    -2124    -2106    -2076    -2064    -2066    -2081 
   -2122    -2155    -2142    -2120    -2127    -2128    -2114    -2112 
   -2141    -2178    -2201    -2204    -2224    -2263    -2273    -2249 
   -2242    -2259    -2246    -2191    -2141    -2123    -2131    -2158 
   -2192    -2223    -2269    -2339    -2392    -2382    -2315    -2215 
   -2112    -2060    -2079    -2137    -2208    -2278    -2308    -2272 
   -2195    -2126    -2099    -2118    -2165    -2218    -2253    -2230 
   -2134    -2029    -1992    -2026    -2093    -2166    -2223    -2226 
   -2169    -2096    -2014    -1929    -1907    -1985    -2112    -2215 
   -2258    -2258    -2232    -2168    -2077    -2025    -2031    -2077 
   -2139    -2174    -2170    -2143    -2111    -2076    -2052    -2054 
   -2084    -2123    -2170    -2219    -2226    -2188    -2154    -2115 
   -2037    -1969    -1960    -1965    -1981    -2058    -2165    -2219 
   -2205    -2185    -2192    -2209    -2223    -2234    -2227    -2195 
   -2169    -2189    -2255    -2316    -2343    -2353    -2338    -2277 
   -2182    -2096    -2069    -2116    -2185    -2234    -2253    -2249 
   -2226    -2192    -2154    -2123    -2089    -2047    -2020    -2026 
   -2057    -2111    -2172    -2207    -2214    -2192    -2150    -2111 
   -2058    -2002    -1996    -2037    -2057    -2058    -2089    -2154 
   -2222    -2282    -2320    -2305    -2239    -2154    -2070    -2008 
   -1999    -2047    -2138    -2245    -2326    -2358    -2342    -2292 
   -2222    -2172    -2177    -2207    -2203    -2181    -2188    -2214 
   -2219    -2212    -2201    -2161    -2107    -2070    -2052    -2074 
   -2139    -2168    -2128    -2058    -1981    -1923    -1931    -2018 
   -2139    -2226    -2251    -2239    -2200    -2141    -2097    -2091 
   -2096    -2092    -2073    -2041    -2007    -2010    -2079    -2180 
   -2239    -2238    -2219    -2188    -2101    -1984    -1918    -1922 
   -1953    -2000    -2047    -2064    -2062    -2079    -2104    -2127 
   -2145    -2134    -2087    -2035    -2012    -2019    -2050    -2110 
   -2214    -2313    -2334    -2297    -2272    -2254    -2224    -2197 
   -2184    -2172    -2149    -2111    -2072    -2058    -2089    -2147 
   -2191    -2199    -2191    -2180    -2174    -2173    -2162    -2154 
   -2157    -2143    -2124    -2141    -2172    -2191    -2239    -2323 
   -2365    -2332    -2251    -2127    -1989    -1925    -1952    -2004 
   -2066    -2164    -2234    -2234    -2214    -2192    -2155    -2127 
   -2120    -2112    -2097    -2111    -2166    -2216    -2235    -2246 
   -2255    -2274    -2323    -2380    -2385    -2340    -2312    -2316 
   -2296    -2241    -2188    -2150    -2126    -2130    -2135    -2110 
   -2091    -2108    -2128    -2119    -2101    -2100    -2116    -2155 
   -2218    -2269    -2266    -2218    -2170    -2149    -2122    -2091 
   -2089    -2101    -2092    -2092    -2139    -2211    -2254    -2247 
   -2199    -2124    -2037    -1977    -1987    -2030    -2050    -2080 
   -2150    -2218    -2247    -2249    -2216    -2142    -2057    -1993 
   -1973    -2014    -2097    -2181    -2255    -2312    -2328    -2322 
   -2320    -2301    -2250    -2208    -2204    -2200    -2187    -2199 
   -2236    -2241    -2196    -2149    -2122    -2110    -2134    -2172 
   -2174    -2169    -2177    -2162    -2145    -2173    -2223    -2251 
   -2251    -2215    -2155    -2104    -2081    -2097    -2173    -2269 
   -2296    -2255    -2203    -2160    -2146    -2155    -2137    -2066 
   -1960    -1837    -1761    -1791    -1900    -2007    -2079    -2119 
   -2124    -2104    -2091    -2106    -2137    -2162    -2195    -2232 
   -2243    -2223    -2196    -2176    -2157    -2127    -2072    -1988 
   -1911    -1898    -1960    -2053    -2127    -2168    -2178    -2184 
   -2178    -2133    -2058    -2014    -2043    -2130    -2207    -2251 
   -2277    -2273    -2232    -2193    -2174    -2164    -2158    -2154 
   -2131    -2093    -2064    -2053    -2072    -2123    -2166    -2172 
   -2168    -2170    -2187    -2205    -2192    -2150    -2137    -2150 
   -2141    -2128    -2174    -2258    -2299    -2272    -2228    -2204 
   -2189    -2177    -2178    -2204    -2236    -2242    -2205    -2137 
   -2056    -2006    -2023    -2079    -2137    -2215    -2293    -2301 
   -2232    -2145    -2074    -2039    -2072    -2164    -2230    -2222 
   -2181    -2134    -2070    -2050    -2115    -2214    -2286    -2327 
   -2322    -2251    -2157    -2104    -2091    -2058    -2025    -2031 
   -2041    -2026    -2026    -2066    -2143    -2223    -2265    -2288 
   -2303    -2261    -2150    -2039    -1995    -2031    -2118    -2223 
   -2342    -2451    -2486    -2434    -2343    -2238    -2133    -2064 
   -2035    -2019    -2012    -2027    -2043    -2049    -2083    -2150 
   -2181    -2145    -2089    -2066    -2062    -2046    -2012    -1983 
   -1995    -2056    -2110    -2153    -2219    -2295    -2336    -2315 
   -2232    -2157    -2133    -2133    -2143    -2162    -2151    -2091 
   -2014    -1944    -1900    -1931    -2042    -2157    -2201    -2165 
   -2095    -2057    -2068    -2083    -2100    -2176    -2286    -2343 
   -2316    -2255    -2197    -2135    -2056    -1989    -1985    -2043 
   -2127    -2195    -2218    -2196    -2157    -2104    -2046    -2026 
   -2081    -2187    -2282    -2332    -2344    -2351    -2349    -2292 
   -2199    -2139    -2111    -2097    -2110    -2133    -2137    -2110 
   -2047    -1983    -1958    -2003    -2112    -2223    -2270    -2245 
   -2160    -2043    -1960    -1941    -1998    -2131    -2276    -2322 
   -2265    -2188    -2131    -2074    -2003    -1958    -1998    -2114 
   -2223    -2268    -2241    -2160    -2065    -1992    -1954    -1980 
   -2073    -2192    -2273    -2277    -2203    -2108    -2062    -2073 
   -2119    -2187    -2241    -2278    -2320    -2331    -2270    -2176 
   -2119    -2131    -2207    -2303    -2366    -2367    -2295    -2174 
   -2064    -2004    -2026    -2118    -2214    -2249    -2228    -2188 
   -2146    -2115    -2114    -2139    -2185    -2250    -2299    -2286 
   -2228    -2173    -2135    -2127    -2157    -2193    -2203    -2189 
   -2173    -2161    -2158    -2162    -2161    -2142    -2110    -2088 
   -2083    -2087    -2111    -2161    -2215    -2259    -2274    -2245 
   -2184    -2127    -2081    -2025    -1981    -1996    -2047    -2092 
   -2147    -2216    -2245    -2218    -2170    -2119    -2073    -2066 
   -2100    -2151    -2204    -2218    -2180    -2143    -2149    -2168 
   -2162    -2145    -2139    -2134    -2106    -2057    -2025    -2034 
   -2064    -2091    -2116    -2138    -2133    -2092    -2058    -2073 
   -2111    -2149    -2205    -2255    -2251    -2207    -2153    -2095 
   -2068    -2084    -2103    -2099    -2106    -2133    -2155    -2161 
   -2135    -2070    -2018    -2030    -2083    -2107    -2110    -2137 
   -2176    -2173    -2126    -2091    -2126    -2224    -2331    -2419 
   -2463    -2436    -2350    -2230    -2108    -2034    -2025    -2070 
   -2151    -2231    -2261    -2242    -2216    -2182    -2112    -2034 
   -2006    -2030    -2062    -2099    -2165    -2249    -2320    -2355 
   -2340    -2281    -2215    -2172    -2153    -2151    -2160    -2157 
   -2124    -2073    -2035    -2019    -2004    -2006    -2027    -2029 
   -2033    -2068    -2106    -2130    -2157    -2181    -2181    -2168 
   -2169    -2174    -2165    -2143    -2115    -2088    -2069    -2054 
   -2041    -2052    -2089    -2119    -2127    -2145    -2168    -2170 
   -2142    -2110    -2093    -2091    -2103    -2139    -2204    -2289 
   -2351    -2339    -2263    -2185    -2131    -2091    -2065    -2058 
   -2058    -2060    -2064    -2073    -2114    -2193    -2258    -2266 
   -2239    -2223    -2224    -2227    -2227    -2242    -2253    -2209 
   -2126    -2073    -2054    -2038    -2046    -2076    -2074    -2052 
   -2039    -2020    -2002    -2018    -2061    -2089    -2073    -2034 
   -2010    -2022    -2092    -2182    -2207    -2180    -2182    -2205 
   -2207    -2201    -2216    -2239    -2218    -2137    -2049    -2016 
   -2052    -2119    -2154    -2147    -2154    -2196    -2215    -2195 
   -2191    -2218    -2235    -2239    -2242    -2223    -2201    -2220 
   -2246    -2218    -2150    -2107    -2120    -2184    -2254    -2277 
   -2241    -2169    -2072    -1987    -1992    -2091    -2211    -2299 
   -2323    -2282    -2249    -2270    -2299    -2312    -2320    -2313 
   -2277    -2205    -2126    -2116    -2191    -2249    -2231    -2189 
   -2168    -2162    -2151    -2119    -2079    -2062    -2081    -2122 
   -2173    -2216    -2226    -2207    -2174    -2127    -2093    -2128 
   -2203    -2231    -2200    -2164    -2145    -2131    -2133    -2177 
   -2255    -2303    -2278    -2211    -2137    -2074    -2058    -2100 
   -2149    -2182    -2219    -2219    -2149    -2062    -2011    -1995 
   -2035    -2124    -2212    -2274    -2296    -2273    -2239    -2196 
   -2110    -2007    -1957    -1985    -2070    -2176    -2239    -2224 
   -2189    -2192    -2197    -2157    -2100    -2084    -2101    -2100 
   -2057    -2003    -1983    -1996    -2020    -2056    -2091    -2085 
   -2031    -1961    -1919    -1938    -1995    -2049    -2074    -2074 
   -2057    -2030    -2002    -1985    -1998    -2030    -2054    -2041 
   -2011    -2004    -2031    -2076    -2115    -2131    -2131    -2128 
   -2122    -2103    -2103    -2142    -2170    -2157    -2145    -2130 
   -2084    -2070    -2134    -2208    -2242    -2268    -2289    -2273 
   -2241    -2223    -2226    -2254    -2285    -2272    -2239    -2235 
   -2218    -2164    -2134    -2170    -2227    -2257    -2266    -2266 
   -2263    -2273    -2297    -2328    -2371    -2416    -2415    -2349 
   -2255    -2177    -2131    -2139    -2199    -2258    -2293    -2300 
   -2269    -2224    -2189    -2153    -2142    -2169    -2184    -2165 
   -2160    -2191    -2201    -2172    -2154    -2162    -2154    -2119 
   -2087    -2064    -2035    -1998    -1960    -1927    -1929    -1987 
   -2069    -2131    -2147    -2103    -2019    -1948    -1934    -1998 
   -2111    -2214    -2269    -2290    -2274    -2201    -2106    -2049 
   -2060    -2134    -2224    -2255    -2219    -2166    -2128    -2108 
   -2119    -2162    -2224    -2307    -2373    -2342    -2207    -2076 
   -2020    -2030    -2089    -2172    -2214    -2212    -2197    -2157 
   -2101    -2092    -2143    -2197    -2230    -2261    -2290    -2281 
   -2208    -2107    -2037    -2000    -1985    -2008    -2050    -2072 
   -2072    -2073    -2084    -2085    -2085    -2101    -2110    -2107 
   -2122    -2116    -2035    -1931    -1904    -1972    -2095    -2238 
   -2331    -2324    -2250    -2146    -2039    -1971    -1976    -2042 
   -2081    -2068    -2062    -2088    -2122    -2181    -2268    -2336 
   -2370    -2359    -2263    -2087    -1926    -1864    -1912    -2041 
   -2184    -2278    -2299    -2239    -2111    -1989    -1939    -1942 
   -1977    -2062    -2178    -2241    -2209    -2143    -2103    -2079 
   -2052    -2026    -2049    -2146    -2259    -2315    -2323    -2313 
   -2272    -2169    -2037    -1956    -1941    -1938    -1952    -2007 
   -2069    -2112    -2161    -2211    -2232    -2245    -2284    -2346 
   -2388    -2382    -2326    -2230    -2139    -2114    -2165    -2259 
   -2367    -2452    -2469    -2413    -2331    -2262    -2204    -2149 
   -2108    -2100    -2138    -2197    -2250    -2284    -2300    -2301 
   -2273    -2193    -2104    -2074    -2122    -2226    -2336    -2389 
   -2362    -2278    -2174    -2081    -2043    -2070    -2116    -2142 
   -2130    -2108    -2130    -2174    -2178    -2126    -2064    -2027 
   -2010    -2003    -2023    -2077    -2135    -2178    -2182    -2130 
   -2060    -2015    -2004    -2022    -2050    -2085    -2130    -2151 
   -2124    -2072    -2042    -2033    -2018    -2014    -2050    -2126 
   -2218    -2281    -2296    -2286    -2258    -2189    -2103    -2037 
   -1998    -2015    -2100    -2170    -2161    -2111    -2069    -2030 
   -1998    -2004    -2049    -2114    -2195    -2270    -2324    -2351 
   -2350    -2344    -2374    -2396    -2346    -2258    -2177    -2119 
   -2115    -2174    -2242    -2257    -2204    -2108    -2030    -2007 
   -2041    -2112    -2188    -2228    -2231    -2224    -2214    -2174 
   -2089    -2010    -2015    -2099    -2188    -2257    -2307    -2297 
   -2204    -2074    -1987    -1985    -2060    -2147    -2192    -2204 
   -2193    -2153    -2115    -2114    -2142    -2172    -2189    -2199 
   -2211    -2216    -2209    -2184    -2147    -2127    -2116    -2112 
   -2126    -2124    -2108    -2131    -2191    -2231    -2246    -2255 
   -2231    -2149    -2050    -1966    -1896    -1872    -1915    -2016 
   -2158    -2304    -2396    -2409    -2373    -2312    -2245    -2205 
   -2191    -2168    -2168    -2201    -2204    -2176    -2181    -2226 
   -2254    -2269    -2292    -2289    -2232    -2155    -2089    -2046 
   -2042    -2095    -2184    -2246    -2247    -2228    -2215    -2174 
   -2101    -2052    -2039    -2029    -2018    -2020    -2015    -2011 
   -2046    -2107    -2154    -2189    -2211    -2214    -2211    -2188 
   -2127    -2058    -2023    -2015    -2030    -2073    -2116    -2122 
   -2074    -2010    -1979    -1993    -2027    -2054    -2064    -2079 
   -2115    -2153    -2189    -2228    -2251    -2250    -2235    -2208 
   -2170    -2146    -2145    -2134    -2123    -2145    -2172    -2169 
   -2158    -2127    -2062    -2008    -2008    -2033    -2068    -2116 
   -2149    -2150    -2142    -2139    -2133    -2101    -2060    -2045 
   -2066    -2114    -2181    -2236    -2254    -2241    -2193    -2127 
   -2111    -2168    -2228    -2238    -2216    -2178    -2107    -2025 
   -2003    -2070    -2185    -2292    -2344    -2297    -2176    -2072 
   -2023    -1996    -1980    -2000    -2061    -2115    -2134    -2161 
   -2226    -2269    -2253    -2197    -2120    -2041    -1999    -2008 
   -2045    -2091    -2147    -2191    -2191    -2168    -2127    -2033 
   -1923    -1864    -1867    -1917    -1995    -2077    -2157    -2222 
   -2254    -2241    -2201    -2160    -2123    -2077    -2033    -2043 
   -2100    -2145    -2160    -2158    -2137    -2120    -2137    -2174 
   -2212    -2220    -2192    -2180    -2219    -2262    -2285    -2308 
   -2322    -2305    -2270    -2236    -2204    -2181    -2177    -2177 
   -2168    -2168    -2196    -2242    -2281    -2273    -2211    -2137 
   -2089    -2077    -2093    -2134    -2207    -2288    -2305    -2253 
   -2200    -2170    -2160    -2181    -2205    -2214    -2230    -2246 
   -2245    -2238    -2230    -2211    -2180    -2161    -2178    -2215 
   -2246    -2263    -2259    -2234    -2200    -2173    -2164    -2170 
   -2177    -2184    -2201    -2211    -2192    -2151    -2108    -2081 
   -2073    -2060    -2058    -2084    -2122    -2157    -2189    -2216 
   -2230    -2220    -2199    -2161    -2085    -2007    -1969    -1961 
   -1961    -1981    -2038    -2104    -2124    -2108    -2099    -2096 
   -2096    -2110    -2120    -2099    -2058    -2050    -2079    -2091 
   -2091    -2133    -2208    -2249    -2224    -2168    -2112    -2073 
   -2052    -2047    -2060    -2092    -2134    -2162    -2168    -2160 
   -2146    -2145    -2150    -2151    -2168    -2185    -2170    -2142 
   -2146    -2170    -2176    -2170    -2174    -2166    -2160    -2199 
   -2258    -2286    -2282    -2266    -2255    -2257    -2255    -2249 
   -2232    -2177    -2077    -1999    -1992    -2041    -2120    -2208 
   -2270    -2293    -2274    -2220    -2168    -2139    -2137    -2154 
   -2162    -2126    -2080    -2081    -2138    -2215    -2286    -2339 
   -2327    -2211    -2057    -1962    -1945    -1973    -2038    -2134 
   -2236    -2311    -2317    -2251    -2155    -2066    -2004    -2000 
   -2058    -2138    -2193    -2219    -2230    -2227    -2222    -2211 
   -2178    -2134    -2112    -2119    -2137    -2165    -2189    -2184 
   -2142    -2080    -2025    -2002    -2029    -2103    -2207    -2293 
   -2324    -2305    -2249    -2174    -2120    -2114    -2143    -2187 
   -2226    -2247    -2245    -2215    -2154    -2070    -2012    -2025 
   -2070    -2100    -2103    -2099    -2091    -2079    -2066    -2081 
   -2123    -2150    -2137    -2091    -2045    -2019    -2003    -2006 
   -2065    -2169    -2258    -2295    -2270    -2182    -2061    -1972 
   -1954    -1988    -2052    -2128    -2181    -2189    -2161    -2115 
   -2077    -2080    -2114    -2158    -2223    -2290    -2312    -2276 
   -2211    -2153    -2111    -2058    -2012    -2034    -2100    -2133 
   -2114    -2077    -2052    -2047    -2062    -2077    -2080    -2095 
   -2134    -2166    -2193    -2223    -2222    -2170    -2110    -2087 
   -2116    -2177    -2236    -2261    -2241    -2188    -2123    -2066 
   -2045    -2077    -2134    -2181    -2218    -2249    -2247    -2211 
   -2178    -2169    -2165    -2158    -2169    -2187    -2181    -2170 
   -2182    -2214    -2247    -2257    -2257    -2270    -2276    -2253 
   -2235    -2227    -2200    -2151    -2093    -2042    -2049    -2123 
   -2208    -2257    -2272    -2258    -2209    -2146    -2100    -2081 
   -2062    -2035    -2030    -2070    -2145    -2215    -2249    -2220 
   -2141    -2057    -2010    -2014    -2056    -2099    -2126    -2137 
   -2139    -2151    -2196    -2255    -2293    -2307    -2292    -2238 
   -2166    -2100    -2037    -1991    -2000    -2060    -2127    -2168 
   -2172    -2158    -2150    -2149    -2142    -2110    -2079    -2089 
   -2104    -2084    -2065    -2070    -2079    -2100    -2154    -2216 
   -2247    -2245    -2231    -2207    -2165    -2116    -2083    -2070 
   -2069    -2072    -2088    -2122    -2162    -2205    -2236    -2245 
   -2254    -2270    -2270    -2266    -2282    -2304    -2304    -2270 
