Origin Time       2024/04/02 04:24:00
Lat.              40.133
Long.             141.712
Depth. (km)       71
Mag.              6.0
Station Code      TCGH17
Station Lat.      36.9853
Station Long.     139.6922
Station Height(m) 635
Record Time       2024/04/02 04:25:53
Sampling Freq(Hz) 100Hz
Duration Time(s)  120
Dir.              4
Scale Factor      3920(gal)/6170801
Max. Acc. (gal)   0.149
Last Correction   2024/04/02 04:25:38
Memo.             
[...]
   29988    30012    30012    29994    30000    30001    29996    29998 
   29996    30007    30014    29998    29994    30002    30001    29991 
   29973    29960    29970    29980    29973    29974    29974    29956 
   29953    29966    29959    29951    29952    29928    29902    29908 
   29914    29898    29893    29900    29889    29878    29888    29891 
   29883    29885    29895    29901    29904    29900    29888    29886 
   29893    29890    29884    29889    29898    29892    29882    29883 
   29881    29875    29866    29863    29874    29887    29890    29881 
   29875    29879    29886    29891    29899    29909    29923    29935 
   29944    29947    29949    29967    29980    29984    29996    29988 
   29970    29973    29969    29953    29954    29955    29945    29949 
   29962    29963    29948    29918    29901    29910    29904    29883 
   29881    29883    29877    29858    29835    29841    29867    29866 
   29860    29888    29906    29894    29899    29918    29906    29890 
   29909    29926    29918    29920    29930    29938    29945    29942 
   29939    29946    29945    29946    29964    29969    29958    29967 
   29972    29954    29961    29985    29986    29989    29990    29970 
   29981    30003    29985    29977    29994    29992    29987    29996 
   29998    29994    30010    30019    29989    29975    29996    30003 
   29988    29974    29970    29980    29979    29963    29966    29979 
   29971    29968    29981    29978    29965    29968    29977    29972 
   29953    29929    29920    29929    29918    29883    29864    29861 
   29862    29876    29887    29882    29882    29884    29883    29891 
   29896    29880    29868    29877    29882    29878    29880    29879 
   29879    29877    29873    29882    29899    29903    29891    29885 
   29905    29919    29903    29898    29920    29925    29907    29900 
   29897    29885    29902    29926    29907    29900    29925    29936 
   29949    29968    29964    29961    29985    30008    30016    30027 
   30024    30000    29991    29994    29983    29972    29966    29964 
   29968    29969    29971    29969    29971    29978    29974    29982 
   29990    29968    29952    29955    29963    29959    29943    29945 
   29965    29985    29988    29968    29961    29966    29954    29948 
   29954    29950    29938    29929    29932    29937    29939    29933 
   29912    29901    29913    29926    29926    29925    29936    29960 
   29977    29981    29986    29998    29997    29979    29977    30002 
   30013    29998    29992    29990    29974    29962    29955    29951 
   29959    29957    29956    29972    29973    29974    29996    29999 
   29978    29968    29977    29979    29949    29923    29922    29911 
   29898    29905    29904    29884    29870    29864    29853    29850 
   29869    29882    29877    29880    29892    29908    29930    29934 
   29917    29916    29923    29924    29936    29947    29951    29961 
   29964    29959    29958    29960    29970    29970    29955    29951 
   29963    29970    29977    29979    29978    29973    29967    29975 
   29988    29988    29986    29991    29987    29965    29961    29985 
   29984    29958    29957    29972    29969    29957    29957    29962 
   29960    29954    29954    29956    29952    29956    29962    29948 
   29931    29924    29927    29926    29918    29913    29900    29892 
   29908    29922    29915    29895    29885    29903    29924    29924 
   29914    29905    29899    29897    29893    29889    29891    29901 
   29905    29898    29895    29907    29915    29902    29884    29888 
   29911    29916    29912    29919    29919    29916    29926    29928 
   29921    29928    29931    29912    29908    29930    29948    29948 
   29935    29932    29954    29971    29978    29985    29975    29970 
   29987    29985    29966    29958    29953    29951    29948    29947 
   29964    29986    29984    29972    29971    29979    29990    29991 
   29979    29982    30000    29997    29977    29975    29976    29950 
   29930    29932    29935    29934    29922    29899    29896    29896 
   29873    29872    29910    29920    29889    29892    29931    29944 
   29935    29929    29919    29914    29915    29912    29925    29933 
   29908    29889    29894    29895    29890    29883    29867    29858 
   29866    29873    29886    29900    29900    29907    29921    29925 
   29926    29930    29942    29950    29950    29966    29986    29981 
   29969    29962    29969    29976    29964    29959    29976    29982 
   29977    29979    29977    29973    29966    29952    29954    29971 
   29977    29971    29962    29953    29948    29949    29948    29933 
   29920    29923    29923    29926    29944    29949    29936    29927 
   29922    29927    29944    29952    29955    29969    29973    29960 
   29957    29953    29939    29938    29939    29932    29937    29948 
   29947    29944    29946    29945    29945    29956    29969    29970 
   29959    29953    29950    29936    29927    29934    29929    29903 
   29890    29899    29908    29910    29900    29895    29906    29913 
   29918    29921    29912    29912    29925    29920    29909    29913 
   29917    29903    29890    29905    29925    29922    29919    29922 
   29932    29945    29931    29911    29926    29942    29937    29951 
   29981    29977    29960    29978    29983    29962    29961    29957 
   29931    29921    29923    29930    29938    29930    29917    29908 
   29896    29896    29906    29914    29913    29898    29889    29904 
   29920    29920    29912    29900    29898    29919    29935    29936 
   29936    29937    29935    29942    29957    29975    29980    29967 
   29961    29970    29983    29987    29975    29965    29974    29981 
   29980    29989    29992    29969    29951    29961    29979    29983 
   29980    29978    29971    29973    29986    29987    29990    29992 
   29982    29991    30002    29985    29968    29977    29993    29990 
   29973    29966    29953    29934    29934    29939    29931    29913 
   29895    29896    29912    29913    29897    29888    29888    29890 
   29904    29918    29908    29896    29902    29905    29896    29889 
   29886    29895    29920    29928    29910    29907    29922    29923 
   29914    29916    29932    29943    29938    29931    29935    29940 
   29937    29934    29947    29965    29959    29936    29949    29982 
   29977    29957    29960    29957    29934    29927    29944    29951 
   29953    29964    29962    29954    29963    29976    29986    29996 
   29988    29963    29963    29988    29989    29968    29959    29961 
   29963    29968    29967    29956    29951    29962    29969    29962 
   29959    29958    29948    29939    29945    29957    29955    29938 
   29920    29909    29916    29922    29923    29927    29916    29910 
   29927    29927    29916    29925    29941    29950    29966    29979 
   29977    29973    29980    29981    29963    29953    29964    29967 
   29960    29959    29961    29961    29947    29933    29938    29933 
   29915    29909    29911    29905    29898    29900    29898    29890 
   29894    29891    29881    29885    29883    29873    29880    29890 
   29899    29905    29885    29865    29879    29890    29880    29878 
   29882    29885    29886    29889    29907    29900    29872    29877 
   29900    29912    29913    29911    29917    29920    29921    29937 
   29939    29922    29921    29927    29924    29941    29967    29958 
   29939    29946    29959    29963    29963    29964    29962    29960 
   29965    29969    29965    29954    29936    29931    29942    29943 
   29945    29945    29932    29942    29973    29978    29971    29974 
   29971    29977    29996    29997    29994    30002    29992    29982 
   29991    29989    29968    29950    29949    29958    29953    29940 
   29936    29928    29922    29939    29953    29943    29936    29942 
   29945    29958    29985    29991    29981    29975    29966    29953 
   29951    29960    29960    29951    29959    29970    29970    29974 
   29969    29961    29966    29953    29934    29947    29952    29929 
   29919    29925    29915    29901    29913    29928    29916    29905 
   29902    29895    29892    29884    29878    29883    29880    29867 
   29858    29864    29876    29886    29904    29918    29910    29911 
   29933    29935    29913    29910    29926    29921    29899    29902 
   29924    29929    29916    29903    29909    29931    29941    29931 
   29931    29942    29936    29925    29931    29937    29934    29936 
   29950    29967    29971    29959    29954    29968    29978    29969 
   29971    29979    29967    29961    29983    29995    29981    29986 
   29999    29986    29988    30007    30012    30015    30003    29983 
   29987    29992    29979    29971    29987    30010    30010    29993 
   29991    29997    29991    29976    29970    29978    29979    29965 
   29958    29956    29941    29945    29957    29939    29939    29962 
   29962    29953    29955    29948    29939    29958    29987    29978 
   29950    29949    29957    29953    29951    29947    29929    29922 
   29938    29945    29933    29919    29915    29926    29925    29909 
   29925    29954    29948    29944    29968    29988    29989    29976 
   29962    29968    29978    29957    29931    29943    29949    29930 
   29950    29986    29976    29967    29983    29987    29998    30022 
   30016    29996    29989    29975    29954    29956    29978    29989 
   29985    29988    29997    29996    29986    29980    29992    29992 
   29970    29974    29981    29964    29962    29965    29955    29944 
   29931    29940    29958    29940    29919    29914    29903    29895 
   29893    29891    29891    29886    29887    29897    29898    29904 
   29914    29905    29904    29906    29891    29884    29868    29851 
   29861    29859    29851    29852    29843    29852    29874    29877 
   29876    29877    29871    29873    29871    29859    29851    29844 
   29831    29831    29845    29858    29860    29865    29882    29879 
   29869    29883    29886    29871    29866    29856    29840    29850 
   29866    29857    29850    29867    29873    29859    29845    29842 
   29841    29848    29866    29860    29841    29837    29827    29818 
   29826    29830    29826    29828    29840    29855    29877    29887 
   29863    29865    29908    29937    29957    29981    29987    29978 
   29981    29997    30009    30014    30022    30038    30051    30063 
   30078    30080    30067    30058    30066    30092    30118    30116 
   30106    30117    30127    30124    30129    30143    30146    30128 
   30103    30109    30120    30105    30087    30068    30054    30059 
   30064    30060    30058    30063    30058    30031    30026    30054 
   30057    30036    30039    30051    30039    30026    30028    30023 
   30011    29999    29982    29986    30019    30035    30020    30001 
   29985    29982    29968    29933    29913    29903    29896    29898 
   29884    29871    29872    29865    29851    29846    29856    29862 
   29836    29809    29804    29803    29798    29788    29787    29809 
   29820    29805    29787    29766    29763    29783    29788    29784 
   29795    29799    29802    29802    29787    29791    29817    29822 
   29816    29820    29835    29855    29867    29858    29840    29840 
   29838    29825    29840    29857    29832    29814    29822    29811 
   29807    29840    29860    29864    29888    29904    29893    29887 
   29893    29901    29914    29925    29922    29932    29952    29939 
   29923    29932    29927    29915    29920    29928    29958    30006 
   29999    29952    29948    29981    30001    30010    30026    30049 
   30062    30067    30081    30082    30054    30032    30032    30034 
   30027    30028    30047    30057    30038    30031    30064    30078 
   30054    30054    30066    30056    30055    30077    30096    30098 
   30102    30112    30109    30103    30098    30074    30054    30044 
   30021    30012    30014    29993    29982    30006    30030    30032 
   30022    30010    29985    29971    29987    29996    29983    29965 
   29947    29938    29951    29972    29969    29949    29939    29944 
   29957    29964    29961    29964    29963    29951    29944    29947 
   29943    29934    29920    29894    29881    29895    29900    29886 
   29878    29884    29894    29895    29879    29871    29874    29864 
   29849    29856    29880    29879    29840    29821    29843    29862 
   29852    29841    29848    29854    29855    29853    29836    29824 
   29833    29844    29837    29839    29848    29828    29805    29804 
   29796    29778    29775    29792    29811    29826    29840    29854 
   29853    29818    29792    29815    29843    29834    29810    29814 
   29837    29838    29828    29837    29851    29850    29851    29861 
   29866    29873    29883    29886    29899    29917    29915    29910 
   29925    29930    29917    29924    29933    29906    29885    29910 
   29926    29909    29904    29912    29909    29914    29930    29955 
   29983    29977    29970    30001    30026    30028    30024    30011 
   30008    30034    30056    30066    30095    30120    30112    30103 
   30121    30144    30151    30155    30161    30155    30137    30129 
   30138    30151    30156    30159    30157    30140    30130    30153 
   30175    30161    30132    30116    30112    30111    30111    30111 
   30098    30059    30032    30028    30021    30015    30002    29974 
   29970    29994    29999    29955    29911    29923    29947    29952 
   29959    29949    29937    29951    29931    29878    29856    29847 
   29833    29841    29861    29869    29861    29848    29848    29850 
   29850    29854    29853    29857    29873    29880    29878    29867 
   29847    29843    29852    29859    29869    29869    29856    29848 
   29842    29839    29844    29838    29836    29862    29885    29892 
   29887    29872    29864    29863    29859    29874    29895    29893 
   29900    29932    29934    29913    29921    29931    29929    29951 
   29974    29965    29962    29978    29974    29961    29965    29949 
   29939    29965    29967    29952    29964    29959    29935    29933 
   29932    29925    29939    29966    29976    29966    29949    29926 
   29915    29924    29916    29889    29893    29909    29915    29938 
   29946    29901    29860    29857    29873    29889    29887    29868 
   29858    29860    29848    29837    29839    29826    29823    29854 
   29885    29896    29884    29864    29866    29877    29877    29889 
   29922    29961    29983    29971    29951    29964    29978    29962 
   29959    29985    29991    29966    29954    29978    29998    29982 
   29974    29990    29994    29981    29972    29973    29982    29980 
   29964    29971    29998    30006    30020    30042    30032    30029 
   30048    30036    30010    30012    30012    29989    29982    29998 
   30003    29991    29978    29976    29989    29996    29981    29968 
   29973    29984    29991    29990    29970    29950    29963    29988 
   29976    29947    29948    29957    29950    29949    29957    29972 
   29989    29967    29928    29926    29922    29911    29923    29925 
   29922    29932    29936    29948    29948    29918    29905    29922 
   29944    29960    29961    29965    29976    29963    29944    29941 
   29943    29960    29985    29990    29990    29992    29992    29990 
   29975    29972    29994    29987    29953    29941    29938    29927 
   29908    29889    29896    29916    29933    29961    29978    29955 
   29933    29927    29907    29878    29865    29876    29896    29897 
   29888    29889    29891    29881    29871    29872    29869    29847 
   29824    29828    29856    29873    29848    29808    29806    29834 
   29856    29860    29848    29857    29878    29867    29859    29881 
   29878    29849    29844    29867    29900    29919    29925    29941 
   29953    29960    29984    29998    29981    29961    29970    30003 
   30023    30018    30017    30018    29993    29959    29960    29992 
   30009    30014    30025    30022    30009    30014    30015    30003 
   30010    30021    29998    29971    29971    29974    29974    29965 
   29939    29928    29940    29953    29929    29877    29861    29876 
   29884    29894    29895    29889    29881    29858    29855    29894 
   29932    29942    29923    29895    29891    29895    29897    29928 
   29958    29943    29917    29915    29916    29908    29894    29897 
   29920    29925    29924    29937    29943    29946    29936    29926 
   29939    29945    29945    29957    29968    29972    29964    29961 
   29983    30007    30003    29988    29978    29959    29919    29900 
   29936    29950    29932    29959    29984    29962    29947    29929 
   29895    29898    29918    29910    29885    29872    29892    29929 
   29946    29950    29944    29920    29900    29898    29912    29925 
   29912    29900    29912    29926    29932    29935    29938    29933 
   29922    29935    29966    29978    29980    29983    29982    29985 
   30008    30044    30038    29999    29999    30017    29993    29979 
   30004    30013    30000    29995    29987    29967    29938    29909 
   29916    29946    29946    29929    29943    29963    29948    29942 
   29952    29924    29894    29899    29893    29896    29919    29900 
   29868    29889    29917    29905    29887    29890    29901    29903 
   29896    29919    29968    29976    29938    29921    29938    29947 
   29946    29959    29980    29981    29956    29936    29948    29981 
   29982    29955    29965    29994    29992    29999    30034    30037 
   29999    29989    30000    29985    29967    29961    29955    29960 
   29966    29962    29963    29960    29924    29889    29902    29911 
   29895    29893    29898    29902    29903    29889    29876    29879 
   29896    29900    29887    29905    29920    29891    29872    29879 
   29875    29882    29907    29916    29935    29964    29959    29951 
   29969    29994    30001    29971    29950    29953    29939    29921 
   29925    29936    29944    29966    30002    30023    30026    30034 
   30027    30019    30033    30014    29962    29946    29950    29935 
   29926    29944    29964    29949    29924    29939    29965    29958 
   29936    29927    29941    29942    29925    29932    29935    29917 
   29931    29958    29959    29977    30022    30052    30051    30018 
   29969    29959    30002    30020    30004    30004    30018    30038 
   30035    30008    30021    30038    29996    29959    29974    29985 
   29962    29955    29968    29946    29927    29943    29923    29883 
   29880    29868    29860    29876    29852    29813    29813    29812 
   29812    29821    29824    29835    29844    29839    29840    29845 
   29857    29866    29852    29835    29833    29852    29873    29859 
   29848    29866    29847    29824    29845    29853    29837    29834 
   29851    29877    29875    29867    29894    29908    29889    29906 
   29949    29967    29982    30013    30020    29999    29997    30011 
   30005    29988    29977    29965    29967    29989    29994    29994 
