Origin Time       2024/04/02 04:24:00
Lat.              40.133
Long.             141.712
Depth. (km)       71
Mag.              6.0
Station Code      TCGH15
Station Lat.      36.5595
Station Long.     139.8637
Station Height(m) -175
Record Time       2024/04/02 04:25:35
Sampling Freq(Hz) 100Hz
Duration Time(s)  139
Dir.              1
Scale Factor      3923(gal)/8224838
Max. Acc. (gal)   0.324
Last Correction   2024/04/02 04:25:35
Memo.             
[...]
   -2299    -2340    -2370    -2397    -2363    -2332    -2378    -2389 
   -2361    -2392    -2417    -2403    -2397    -2397    -2428    -2486 
   -2473    -2412    -2396    -2424    -2467    -2488    -2451    -2409 
   -2390    -2370    -2369    -2404    -2408    -2362    -2328    -2311 
   -2308    -2359    -2425    -2446    -2432    -2407    -2382    -2386 
   -2412    -2409    -2366    -2359    -2419    -2455    -2463    -2485 
   -2438    -2363    -2371    -2376    -2328    -2315    -2332    -2320 
   -2305    -2338    -2389    -2390    -2340    -2293    -2272    -2273 
   -2305    -2347    -2349    -2344    -2365    -2361    -2353    -2366 
   -2346    -2308    -2330    -2377    -2384    -2389    -2420    -2430 
   -2436    -2462    -2431    -2384    -2442    -2524    -2512    -2461 
   -2452    -2479    -2501    -2484    -2442    -2432    -2427    -2405 
   -2428    -2463    -2478    -2512    -2525    -2513    -2523    -2521 
   -2506    -2519    -2539    -2538    -2500    -2459    -2461    -2454 
   -2430    -2451    -2463    -2417    -2389    -2388    -2378    -2365 
   -2335    -2307    -2316    -2340    -2363    -2378    -2385    -2398 
   -2394    -2351    -2343    -2398    -2452    -2482    -2506    -2519 
   -2502    -2479    -2481    -2479    -2436    -2396    -2405    -2415 
   -2396    -2365    -2335    -2301    -2254    -2220    -2211    -2193 
   -2165    -2168    -2188    -2205    -2254    -2299    -2258    -2223 
   -2278    -2292    -2232    -2222    -2257    -2280    -2300    -2336 
   -2386    -2439    -2479    -2466    -2405    -2373    -2371    -2343 
   -2326    -2365    -2419    -2471    -2502    -2470    -2423    -2419 
   -2439    -2443    -2409    -2384    -2405    -2413    -2403    -2435 
   -2454    -2401    -2374    -2439    -2496    -2505    -2511    -2494 
   -2479    -2492    -2490    -2505    -2551    -2554    -2543    -2594 
   -2629    -2585    -2538    -2515    -2465    -2450    -2504    -2536 
   -2515    -2492    -2469    -2443    -2443    -2482    -2546    -2610 
   -2632    -2619    -2617    -2619    -2597    -2547    -2486    -2496 
   -2567    -2583    -2528    -2489    -2494    -2490    -2455    -2435 
   -2427    -2388    -2351    -2336    -2296    -2270    -2297    -2300 
   -2277    -2269    -2238    -2201    -2218    -2259    -2278    -2277 
   -2269    -2272    -2297    -2316    -2307    -2323    -2377    -2413 
   -2428    -2443    -2443    -2434    -2428    -2421    -2420    -2423 
   -2438    -2467    -2475    -2458    -2446    -2425    -2393    -2381 
   -2380    -2382    -2412    -2424    -2389    -2376    -2381    -2350 
   -2317    -2316    -2319    -2335    -2365    -2374    -2374    -2386 
   -2384    -2385    -2394    -2388    -2394    -2428    -2425    -2411 
   -2438    -2461    -2455    -2458    -2471    -2484    -2479    -2462 
   -2462    -2458    -2420    -2396    -2409    -2419    -2416    -2424 
   -2425    -2394    -2351    -2320    -2295    -2258    -2219    -2195 
   -2203    -2235    -2242    -2220    -2224    -2234    -2212    -2222 
   -2288    -2351    -2389    -2409    -2397    -2361    -2347    -2370 
   -2385    -2361    -2347    -2373    -2398    -2440    -2523    -2562 
   -2539    -2519    -2500    -2490    -2540    -2575    -2535    -2502 
   -2502    -2485    -2473    -2484    -2481    -2444    -2432    -2467 
   -2477    -2451    -2450    -2452    -2432    -2430    -2467    -2520 
   -2558    -2575    -2571    -2569    -2585    -2598    -2605    -2623 
   -2616    -2589    -2598    -2602    -2556    -2548    -2583    -2575 
   -2555    -2544    -2501    -2454    -2439    -2421    -2385    -2346 
   -2324    -2324    -2324    -2311    -2289    -2227    -2147    -2161 
   -2234    -2259    -2280    -2317    -2330    -2384    -2477    -2490 
   -2457    -2471    -2506    -2509    -2459    -2389    -2366    -2382 
   -2390    -2393    -2382    -2332    -2270    -2239    -2239    -2250 
   -2254    -2255    -2257    -2222    -2185    -2219    -2273    -2288 
   -2311    -2336    -2324    -2322    -2351    -2366    -2377    -2398 
   -2415    -2438    -2435    -2392    -2369    -2373    -2374    -2389 
   -2417    -2447    -2469    -2444    -2420    -2450    -2455    -2419 
   -2417    -2435    -2446    -2459    -2444    -2439    -2479    -2494 
   -2465    -2450    -2462    -2482    -2505    -2524    -2513    -2455 
   -2397    -2398    -2454    -2493    -2494    -2475    -2434    -2404 
   -2435    -2450    -2411    -2394    -2376    -2320    -2307    -2311 
   -2299    -2316    -2319    -2296    -2286    -2278    -2301    -2357 
   -2350    -2323    -2378    -2438    -2451    -2493    -2519    -2488 
   -2486    -2490    -2466    -2488    -2532    -2546    -2550    -2516 
   -2474    -2489    -2479    -2415    -2371    -2340    -2307    -2308 
   -2332    -2343    -2344    -2355    -2366    -2362    -2366    -2378 
   -2389    -2396    -2408    -2470    -2544    -2533    -2479    -2450 
   -2430    -2434    -2467    -2485    -2484    -2482    -2489    -2523 
   -2540    -2515    -2528    -2583    -2592    -2551    -2479    -2405 
   -2389    -2385    -2359    -2389    -2431    -2434    -2452    -2427 
   -2355    -2377    -2411    -2397    -2457    -2504    -2469    -2459 
   -2454    -2443    -2457    -2427    -2409    -2436    -2405    -2371 
   -2400    -2408    -2403    -2400    -2388    -2396    -2370    -2309 
   -2317    -2353    -2349    -2309    -2232    -2205    -2290    -2378 
   -2390    -2354    -2296    -2261    -2286    -2324    -2322    -2331 
   -2367    -2355    -2330    -2354    -2380    -2407    -2447    -2424 
   -2388    -2425    -2438    -2392    -2377    -2358    -2315    -2303 
   -2309    -2324    -2354    -2376    -2412    -2451    -2448    -2425 
   -2400    -2371    -2369    -2381    -2371    -2362    -2392    -2420 
   -2438    -2490    -2520    -2479    -2451    -2467    -2475    -2463 
   -2434    -2398    -2385    -2398    -2438    -2479    -2497    -2509 
   -2521    -2523    -2519    -2485    -2454    -2488    -2506    -2467 
   -2467    -2494    -2494    -2501    -2497    -2448    -2424    -2466 
   -2501    -2474    -2452    -2474    -2482    -2467    -2448    -2435 
   -2436    -2401    -2339    -2328    -2334    -2335    -2367    -2365 
   -2370    -2452    -2463    -2397    -2407    -2415    -2358    -2328 
   -2304    -2266    -2285    -2315    -2309    -2319    -2328    -2336 
   -2362    -2363    -2343    -2335    -2317    -2309    -2327    -2330 
   -2331    -2380    -2419    -2415    -2377    -2320    -2313    -2346 
   -2335    -2319    -2311    -2282    -2299    -2343    -2332    -2312 
   -2335    -2357    -2336    -2312    -2336    -2361    -2335    -2315 
   -2326    -2355    -2427    -2465    -2435    -2458    -2506    -2506 
   -2542    -2579    -2527    -2481    -2479    -2477    -2489    -2482 
   -2438    -2434    -2455    -2455    -2474    -2500    -2498    -2521 
   -2578    -2594    -2574    -2590    -2631    -2636    -2612    -2573 
   -2517    -2471    -2454    -2455    -2459    -2475    -2504    -2511 
   -2509    -2513    -2471    -2435    -2477    -2513    -2504    -2493 
   -2486    -2492    -2524    -2547    -2513    -2454    -2423    -2417 
   -2417    -2411    -2381    -2358    -2353    -2335    -2342    -2376 
   -2386    -2392    -2369    -2311    -2305    -2316    -2277    -2266 
   -2292    -2300    -2304    -2284    -2258    -2300    -2354    -2382 
   -2430    -2461    -2465    -2470    -2443    -2438    -2486    -2485 
   -2461    -2490    -2515    -2500    -2467    -2432    -2417    -2397 
   -2367    -2365    -2363    -2373    -2432    -2446    -2388    -2357 
   -2334    -2281    -2270    -2305    -2351    -2408    -2425    -2401 
   -2377    -2351    -2344    -2342    -2316    -2332    -2374    -2386 
   -2394    -2390    -2373    -2412    -2470    -2475    -2438    -2388 
   -2359    -2346    -2305    -2270    -2245    -2227    -2293    -2386 
   -2385    -2339    -2319    -2322    -2353    -2407    -2454    -2471 
   -2465    -2457    -2430    -2362    -2313    -2303    -2317    -2378 
   -2448    -2489    -2479    -2409    -2374    -2424    -2458    -2462 
   -2469    -2430    -2396    -2444    -2496    -2505    -2519    -2517 
   -2502    -2497    -2486    -2470    -2448    -2424    -2413    -2412 
   -2416    -2401    -2374    -2390    -2454    -2527    -2555    -2517 
   -2511    -2566    -2570    -2525    -2519    -2506    -2463    -2439 
   -2417    -2385    -2371    -2370    -2382    -2388    -2344    -2284 
   -2254    -2247    -2245    -2219    -2199    -2247    -2330    -2382 
   -2424    -2496    -2566    -2578    -2547    -2531    -2505    -2425 
   -2342    -2308    -2313    -2353    -2412    -2425    -2438    -2513 
   -2551    -2488    -2451    -2477    -2467    -2434    -2450    -2470 
   -2423    -2349    -2309    -2295    -2297    -2326    -2349    -2386 
   -2440    -2412    -2335    -2315    -2313    -2307    -2313    -2308 
   -2323    -2361    -2366    -2361    -2355    -2355    -2415    -2470 
   -2458    -2479    -2533    -2516    -2459    -2403    -2324    -2282 
   -2307    -2361    -2452    -2512    -2432    -2328    -2300    -2278 
   -2290    -2376    -2416    -2392    -2385    -2382    -2380    -2408 
   -2408    -2362    -2312    -2274    -2304    -2388    -2408    -2407 
   -2447    -2477    -2479    -2413    -2277    -2193    -2151    -2103 
   -2110    -2137    -2158    -2243    -2328    -2347    -2353    -2346 
   -2319    -2307    -2313    -2361    -2407    -2362    -2313    -2316 
   -2278    -2247    -2259    -2234    -2250    -2394    -2531    -2533 
   -2448    -2378    -2344    -2313    -2324    -2386    -2419    -2427 
   -2479    -2519    -2502    -2519    -2587    -2625    -2585    -2543 
   -2573    -2594    -2529    -2475    -2474    -2473    -2475    -2519 
   -2623    -2724    -2705    -2616    -2566    -2496    -2416    -2446 
   -2560    -2704    -2867    -2961    -2953    -2891    -2801    -2748 
   -2744    -2724    -2674    -2562    -2423    -2370    -2384    -2451 
   -2583    -2652    -2647    -2674    -2701    -2720    -2735    -2647 
   -2524    -2469    -2373    -2250    -2255    -2319    -2349    -2390 
   -2424    -2435    -2448    -2400    -2280    -2169    -2106    -2124 
   -2250    -2380    -2436    -2513    -2624    -2628    -2550    -2524 
   -2508    -2432    -2384    -2407    -2419    -2377    -2293    -2215 
   -2164    -2057    -1906    -1871    -1939    -2014    -2107    -2176 
   -2197    -2255    -2309    -2313    -2346    -2378    -2330    -2289 
   -2349    -2427    -2417    -2373    -2367    -2332    -2238    -2151 
   -2087    -2046    -2092    -2193    -2277    -2381    -2474    -2502 
   -2519    -2501    -2413    -2324    -2253    -2209    -2253    -2338 
   -2358    -2317    -2304    -2349    -2373    -2324    -2238    -2143 
   -2068    -2031    -2033    -2087    -2176    -2270    -2408    -2546 
   -2604    -2621    -2616    -2575    -2562    -2587    -2612    -2605 
   -2556    -2521    -2473    -2339    -2262    -2335    -2366    -2346 
   -2427    -2486    -2423    -2346    -2258    -2143    -2115    -2187 
   -2269    -2305    -2316    -2346    -2378    -2397    -2411    -2423 
   -2497    -2597    -2593    -2552    -2565    -2539    -2521    -2573 
   -2554    -2496    -2520    -2519    -2457    -2419    -2380    -2343 
   -2359    -2421    -2498    -2508    -2415    -2342    -2355    -2367 
   -2335    -2324    -2378    -2454    -2486    -2505    -2625    -2798 
   -2818    -2728    -2714    -2745    -2722    -2654    -2562    -2524 
   -2552    -2542    -2559    -2668    -2682    -2578    -2523    -2516 
   -2515    -2512    -2500    -2548    -2655    -2690    -2666    -2662 
   -2640    -2587    -2562    -2548    -2527    -2538    -2592    -2623 
   -2635    -2741    -2913    -2941    -2835    -2779    -2702    -2489 
   -2339    -2369    -2392    -2297    -2180    -2160    -2223    -2272 
   -2316    -2389    -2412    -2357    -2272    -2185    -2191    -2309 
   -2404    -2465    -2516    -2457    -2330    -2236    -2110    -2011 
   -2092    -2253    -2366    -2462    -2470    -2331    -2226    -2218 
   -2162    -2107    -2150    -2228    -2313    -2407    -2469    -2484 
   -2451    -2404    -2373    -2331    -2273    -2231    -2195    -2189 
   -2242    -2280    -2278    -2268    -2277    -2382    -2567    -2670 
   -2641    -2532    -2390    -2293    -2300    -2400    -2527    -2608 
   -2633    -2605    -2531    -2466    -2386    -2284    -2293    -2431 
   -2550    -2624    -2671    -2631    -2515    -2398    -2322    -2257 
   -2207    -2261    -2346    -2307    -2273    -2354    -2419    -2409 
   -2382    -2347    -2327    -2339    -2343    -2299    -2209    -2108 
   -2027    -2033    -2142    -2289    -2407    -2462    -2485    -2521 
   -2505    -2425    -2398    -2436    -2430    -2353    -2255    -2182 
   -2168    -2134    -2073    -2147    -2343    -2506    -2629    -2720 
   -2747    -2714    -2601    -2436    -2307    -2211    -2151    -2227 
   -2376    -2435    -2474    -2583    -2601    -2442    -2236    -2108 
   -2104    -2211    -2277    -2182    -1983    -1804    -1779    -1872 
   -1939    -1976    -2008    -2023    -2085    -2133    -1983    -1788 
   -1798    -1871    -1918    -2056    -2205    -2339    -2502    -2567 
   -2551    -2550    -2484    -2343    -2172    -2015    -1972    -1993 
   -2023    -2164    -2385    -2558    -2666    -2693    -2681    -2709 
   -2710    -2667    -2670    -2654    -2546    -2427    -2404    -2547 
   -2786    -2968    -3065    -3090    -3001    -2795    -2550    -2411 
   -2438    -2592    -2822    -2998    -3034    -3001    -2910    -2754 
   -2616    -2532    -2492    -2513    -2528    -2446    -2332    -2289 
   -2305    -2300    -2270    -2350    -2536    -2594    -2519    -2488 
   -2459    -2417    -2411    -2334    -2250    -2344    -2511    -2574 
   -2571    -2598    -2679    -2741    -2644    -2371    -2139    -2093 
   -2181    -2315    -2427    -2455    -2421    -2405    -2382    -2343 
   -2369    -2393    -2363    -2405    -2481    -2517    -2644    -2809 
   -2822    -2751    -2722    -2756    -2840    -2868    -2760    -2636 
   -2624    -2670    -2678    -2620    -2528    -2438    -2367    -2336 
   -2311    -2270    -2290    -2346    -2296    -2200    -2239    -2425 
   -2601    -2628    -2536    -2440    -2355    -2309    -2343    -2335 
   -2263    -2330    -2458    -2404    -2227    -2062    -1953    -1965 
   -2003    -1949    -1942    -2072    -2249    -2431    -2620    -2798 
   -2918    -2916    -2812    -2677    -2502    -2316    -2192    -2128 
   -2138    -2212    -2258    -2320    -2481    -2623    -2700    -2739 
   -2667    -2560    -2558    -2562    -2555    -2651    -2775    -2862 
   -2911    -2909    -2948    -2945    -2735    -2544    -2504    -2407 
   -2281    -2245    -2257    -2365    -2506    -2439    -2208    -2081 
   -2049    -2042    -2138    -2277    -2354    -2339    -2188    -2033 
   -1996    -1961    -1939    -2054    -2232    -2394    -2494    -2452 
   -2354    -2270    -2084    -1899    -1869    -1865    -1910    -2119 
   -2289    -2331    -2385    -2415    -2369    -2332    -2312    -2263 
   -2205    -2155    -2155    -2232    -2357    -2493    -2569    -2531 
   -2455    -2417    -2366    -2231    -2128    -2200    -2309    -2305 
   -2309    -2358    -2365    -2419    -2479    -2377    -2270    -2300 
   -2336    -2386    -2469    -2502    -2558    -2574    -2412    -2239 
   -2192    -2201    -2207    -2131    -2065    -2143    -2259    -2349 
   -2431    -2397    -2282    -2274    -2386    -2524    -2570    -2497 
   -2466    -2496    -2432    -2324    -2281    -2251    -2290    -2450 
   -2536    -2482    -2465    -2457    -2355    -2289    -2313    -2357 
   -2481    -2656    -2704    -2663    -2640    -2629    -2675    -2735 
   -2695    -2620    -2554    -2459    -2419    -2430    -2381    -2326 
   -2349    -2382    -2432    -2565    -2717    -2795    -2781    -2700 
   -2614    -2567    -2577    -2646    -2727    -2801    -2880    -2862 
   -2664    -2454    -2349    -2257    -2222    -2344    -2485    -2552 
   -2613    -2650    -2633    -2579    -2524    -2505    -2455    -2386 
   -2419    -2493    -2520    -2546    -2555    -2516    -2474    -2444 
   -2430    -2403    -2344    -2330    -2367    -2421    -2489    -2497 
   -2398    -2311    -2313    -2319    -2276    -2231    -2189    -2211 
   -2409    -2658    -2702    -2555    -2470    -2513    -2525    -2478 
   -2479    -2538    -2569    -2594    -2695    -2803    -2812    -2749 
   -2640    -2477    -2366    -2380    -2438    -2515    -2631    -2689 
   -2624    -2515    -2431    -2370    -2347    -2382    -2384    -2335 
   -2330    -2303    -2204    -2142    -2149    -2208    -2249    -2197 
   -2170    -2246    -2304    -2313    -2328    -2312    -2262    -2241 
   -2220    -2204    -2239    -2272    -2243    -2214    -2236    -2276 
   -2268    -2235    -2259    -2290    -2276    -2315    -2358    -2280 
   -2216    -2242    -2219    -2139    -2110    -2137    -2157    -2173 
   -2203    -2191    -2145    -2134    -2162    -2165    -2154    -2224 
   -2307    -2289    -2245    -2255    -2292    -2296    -2250    -2234 
   -2254    -2236    -2236    -2301    -2380    -2465    -2488    -2415 
   -2347    -2232    -2007    -1892    -1942    -2000    -2126    -2300 
   -2361    -2376    -2459    -2585    -2714    -2789    -2754    -2583 
   -2324    -2165    -2165    -2166    -2187    -2289    -2347    -2374 
   -2444    -2446    -2382    -2359    -2340    -2307    -2316    -2363 
   -2425    -2481    -2502    -2516    -2516    -2465    -2430    -2497 
   -2629    -2722    -2735    -2698    -2674    -2675    -2616    -2508 
   -2488    -2524    -2513    -2486    -2498    -2565    -2620    -2598 
   -2620    -2701    -2590    -2342    -2222    -2173    -2151    -2234 
   -2288    -2285    -2343    -2409    -2425    -2427    -2407    -2394 
   -2427    -2470    -2523    -2547    -2497    -2474    -2506    -2478 
   -2446    -2516    -2581    -2592    -2631    -2691    -2713    -2698 
   -2686    -2655    -2562    -2478    -2501    -2586    -2673    -2776 
   -2853    -2832    -2791    -2825    -2883    -2945    -3010    -2997 
   -2894    -2790    -2739    -2771    -2833    -2828    -2764    -2727 
   -2758    -2813    -2812    -2755    -2712    -2677    -2600    -2521 
   -2521    -2533    -2477    -2430    -2444    -2417    -2269    -2111 
   -2069    -2110    -2155    -2131    -2043    -2058    -2192    -2242 
   -2207    -2211    -2191    -2066    -1930    -1845    -1792    -1790 
   -1815    -1842    -1902    -1903    -1829    -1887    -2031    -2124 
   -2277    -2423    -2463    -2496    -2440    -2295    -2259    -2293 
   -2296    -2353    -2513    -2652    -2650    -2631    -2710    -2728 
   -2690    -2751    -2803    -2790    -2817    -2785    -2658    -2589 
   -2551    -2482    -2444    -2384    -2316    -2393    -2525    -2536 
   -2474    -2405    -2308    -2236    -2249    -2303    -2342    -2297 
   -2174    -2100    -2122    -2223    -2338    -2328    -2232    -2181 
   -2143    -2141    -2232    -2311    -2313    -2296    -2290    -2326 
   -2342    -2278    -2238    -2239    -2182    -2134    -2189    -2292 
   -2342    -2278    -2170    -2131    -2126    -2100    -2112    -2184 
   -2242    -2211    -2160    -2189    -2236    -2230    -2176    -2074 
