Origin Time       2024/04/02 04:24:00
Lat.              40.133
Long.             141.712
Depth. (km)       71
Mag.              6.0
Station Code      TCGH06
Station Lat.      36.4458
Station Long.     139.9509
Station Height(m) -1577.98
Record Time       2024/04/02 04:26:20
Sampling Freq(Hz) 100Hz
Duration Time(s)  120
Dir.              1
Scale Factor      7845(gal)/6170801
Max. Acc. (gal)   0.367
Last Correction   2024/04/02 04:26:05
Memo.             
[...]
   -6157    -6169    -6152    -6160    -6178    -6163    -6157    -6189 
   -6211    -6205    -6207    -6220    -6211    -6177    -6176    -6198 
   -6186    -6181    -6205    -6213    -6199    -6192    -6190    -6174 
   -6156    -6160    -6171    -6157    -6133    -6133    -6148    -6159 
   -6167    -6172    -6170    -6160    -6143    -6135    -6148    -6158 
   -6135    -6124    -6146    -6154    -6146    -6146    -6148    -6143 
   -6130    -6130    -6153    -6165    -6147    -6141    -6153    -6157 
   -6168    -6176    -6172    -6166    -6158    -6145    -6130    -6127 
   -6144    -6149    -6142    -6156    -6164    -6152    -6164    -6179 
   -6169    -6175    -6175    -6165    -6191    -6222    -6222    -6212 
   -6194    -6188    -6213    -6218    -6196    -6195    -6199    -6193 
   -6190    -6183    -6183    -6201    -6200    -6178    -6163    -6168 
   -6178    -6178    -6183    -6194    -6198    -6219    -6245    -6230 
   -6202    -6198    -6207    -6223    -6240    -6232    -6201    -6176 
   -6175    -6199    -6208    -6181    -6169    -6177    -6174    -6177 
   -6192    -6206    -6206    -6182    -6165    -6180    -6200    -6200 
   -6194    -6198    -6189    -6163    -6146    -6137    -6143    -6165 
   -6170    -6160    -6172    -6188    -6176    -6171    -6198    -6202 
   -6185    -6203    -6212    -6194    -6191    -6191    -6183    -6179 
   -6182    -6189    -6179    -6168    -6181    -6191    -6192    -6196 
   -6194    -6184    -6173    -6164    -6147    -6144    -6169    -6182 
   -6180    -6180    -6167    -6145    -6135    -6132    -6129    -6139 
   -6161    -6159    -6131    -6128    -6161    -6187    -6193    -6186 
   -6184    -6198    -6209    -6203    -6195    -6188    -6180    -6178 
   -6176    -6172    -6177    -6179    -6171    -6164    -6169    -6167 
   -6140    -6133    -6161    -6171    -6164    -6162    -6156    -6165 
   -6178    -6183    -6204    -6212    -6195    -6198    -6210    -6204 
   -6193    -6189    -6185    -6185    -6205    -6231    -6247    -6266 
   -6262    -6219    -6190    -6199    -6211    -6200    -6181    -6186 
   -6181    -6148    -6154    -6185    -6177    -6166    -6182    -6178 
   -6148    -6136    -6150    -6153    -6133    -6125    -6138    -6138 
   -6132    -6150    -6182    -6182    -6145    -6123    -6137    -6156 
   -6159    -6148    -6141    -6146    -6162    -6194    -6211    -6196 
   -6194    -6204    -6197    -6203    -6236    -6253    -6245    -6234 
   -6233    -6235    -6223    -6213    -6207    -6179    -6176    -6199 
   -6171    -6137    -6152    -6166    -6159    -6150    -6146    -6152 
   -6148    -6137    -6141    -6152    -6158    -6152    -6159    -6182 
   -6190    -6191    -6207    -6222    -6221    -6208    -6183    -6174 
   -6191    -6198    -6186    -6181    -6174    -6157    -6140    -6133 
   -6147    -6157    -6146    -6152    -6168    -6159    -6144    -6139 
   -6141    -6144    -6139    -6142    -6159    -6164    -6148    -6149 
   -6176    -6179    -6165    -6172    -6186    -6182    -6175    -6186 
   -6200    -6178    -6161    -6182    -6181    -6173    -6203    -6208 
   -6191    -6211    -6218    -6192    -6189    -6195    -6187    -6196 
   -6216    -6221    -6211    -6207    -6214    -6220    -6226    -6230 
   -6225    -6234    -6241    -6228    -6217    -6213    -6218    -6218 
   -6205    -6205    -6216    -6218    -6215    -6233    -6253    -6226 
   -6188    -6198    -6219    -6210    -6209    -6221    -6222    -6216 
   -6201    -6187    -6181    -6171    -6179    -6189    -6165    -6149 
   -6142    -6132    -6152    -6167    -6141    -6136    -6158    -6158 
   -6155    -6159    -6152    -6155    -6163    -6139    -6113    -6126 
   -6151    -6164    -6173    -6177    -6176    -6164    -6142    -6151 
   -6172    -6164    -6157    -6151    -6119    -6125    -6161    -6154 
   -6142    -6151    -6130    -6107    -6127    -6142    -6123    -6116 
   -6123    -6101    -6070    -6077    -6107    -6119    -6111    -6123 
   -6158    -6166    -6151    -6155    -6167    -6167    -6181    -6190 
   -6168    -6167    -6194    -6210    -6209    -6205    -6210    -6209 
   -6192    -6189    -6191    -6189    -6203    -6214    -6211    -6206 
   -6195    -6189    -6186    -6187    -6212    -6234    -6231    -6226 
   -6235    -6235    -6230    -6239    -6246    -6247    -6260    -6260 
   -6238    -6241    -6249    -6212    -6182    -6185    -6176    -6170 
   -6191    -6201    -6206    -6208    -6183    -6166    -6172    -6166 
   -6158    -6169    -6186    -6184    -6172    -6180    -6190    -6191 
   -6203    -6201    -6178    -6182    -6195    -6178    -6168    -6189 
   -6206    -6196    -6174    -6172    -6175    -6165    -6168    -6169 
   -6165    -6174    -6169    -6155    -6152    -6138    -6127    -6140 
   -6149    -6151    -6163    -6167    -6159    -6150    -6140    -6143 
   -6167    -6183    -6178    -6159    -6141    -6146    -6165    -6163 
   -6160    -6192    -6229    -6224    -6194    -6183    -6174    -6148 
   -6141    -6167    -6184    -6191    -6196    -6191    -6202    -6215 
   -6204    -6203    -6203    -6180    -6180    -6201    -6206    -6197 
   -6178    -6162    -6151    -6139    -6147    -6171    -6187    -6192 
   -6181    -6166    -6163    -6160    -6160    -6165    -6168    -6178 
   -6167    -6150    -6172    -6199    -6207    -6209    -6208    -6215 
   -6204    -6175    -6189    -6220    -6195    -6161    -6184    -6207 
   -6182    -6155    -6164    -6185    -6170    -6130    -6128    -6154 
   -6153    -6145    -6150    -6133    -6112    -6122    -6149    -6161 
   -6165    -6182    -6187    -6178    -6194    -6194    -6161    -6162 
   -6182    -6169    -6135    -6112    -6118    -6137    -6163    -6203 
   -6205    -6170    -6168    -6189    -6182    -6170    -6189    -6203 
   -6183    -6173    -6188    -6208    -6217    -6204    -6196    -6197 
   -6184    -6187    -6205    -6201    -6191    -6194    -6200    -6212 
   -6228    -6230    -6223    -6237    -6247    -6221    -6207    -6211 
   -6203    -6197    -6192    -6181    -6177    -6178    -6182    -6177 
   -6161    -6164    -6177    -6175    -6179    -6188    -6180    -6179 
   -6195    -6195    -6173    -6160    -6180    -6205    -6200    -6190 
   -6201    -6201    -6185    -6174    -6176    -6184    -6185    -6180 
   -6183    -6185    -6166    -6138    -6134    -6140    -6121    -6111 
   -6140    -6152    -6141    -6158    -6182    -6175    -6167    -6168 
   -6175    -6195    -6200    -6184    -6185    -6194    -6190    -6197 
   -6208    -6190    -6156    -6147    -6169    -6181    -6160    -6134 
   -6127    -6124    -6132    -6166    -6188    -6178    -6169    -6172 
   -6174    -6177    -6193    -6211    -6210    -6199    -6201    -6199 
   -6201    -6217    -6212    -6202    -6219    -6223    -6210    -6216 
   -6223    -6203    -6182    -6170    -6157    -6151    -6169    -6188 
   -6184    -6180    -6189    -6187    -6169    -6157    -6163    -6171 
   -6159    -6147    -6153    -6154    -6160    -6184    -6195    -6192 
   -6189    -6190    -6196    -6188    -6171    -6177    -6191    -6191 
   -6182    -6164    -6169    -6193    -6188    -6164    -6159    -6162 
   -6168    -6181    -6195    -6213    -6213    -6171    -6143    -6156 
   -6158    -6153    -6159    -6148    -6146    -6172    -6172    -6139 
   -6134    -6154    -6145    -6126    -6130    -6135    -6146    -6182 
   -6200    -6186    -6181    -6192    -6193    -6191    -6210    -6232 
   -6216    -6183    -6185    -6190    -6189    -6213    -6207    -6169 
   -6169    -6172    -6165    -6179    -6182    -6177    -6201    -6218 
   -6200    -6185    -6184    -6185    -6207    -6223    -6201    -6184 
   -6177    -6156    -6156    -6172    -6174    -6181    -6189    -6188 
   -6197    -6218    -6227    -6230    -6238    -6221    -6195    -6206 
   -6213    -6183    -6163    -6166    -6168    -6161    -6165    -6187 
   -6198    -6186    -6171    -6174    -6193    -6217    -6243    -6260 
   -6255    -6221    -6186    -6178    -6177    -6166    -6164    -6176 
   -6170    -6144    -6140    -6150    -6166    -6192    -6195    -6179 
   -6184    -6199    -6197    -6177    -6166    -6172    -6164    -6141 
   -6132    -6134    -6135    -6139    -6147    -6142    -6124    -6114 
   -6110    -6100    -6100    -6114    -6124    -6130    -6134    -6126 
   -6130    -6164    -6193    -6201    -6203    -6200    -6204    -6207 
   -6183    -6151    -6147    -6169    -6187    -6178    -6161    -6164 
   -6164    -6149    -6162    -6206    -6235    -6243    -6221    -6173 
   -6142    -6143    -6171    -6205    -6205    -6210    -6229    -6220 
   -6221    -6250    -6264    -6262    -6256    -6244    -6226    -6205 
   -6182    -6161    -6160    -6176    -6194    -6234    -6271    -6256 
   -6214    -6175    -6152    -6161    -6179    -6198    -6230    -6238 
   -6213    -6197    -6185    -6157    -6131    -6139    -6162    -6162 
   -6165    -6191    -6201    -6196    -6208    -6214    -6191    -6161 
   -6130    -6113    -6120    -6128    -6130    -6134    -6142    -6163 
   -6157    -6143    -6176    -6192    -6167    -6174    -6172    -6129 
   -6122    -6145    -6149    -6162    -6177    -6188    -6236    -6278 
   -6273    -6253    -6230    -6207    -6175    -6141    -6128    -6118 
   -6127    -6161    -6162    -6150    -6170    -6191    -6208    -6235 
   -6267    -6266    -6207    -6140    -6101    -6067    -6061    -6085 
   -6129    -6198    -6240    -6250    -6278    -6290    -6240    -6164 
   -6108    -6092    -6118    -6159    -6185    -6195    -6182    -6173 
   -6220    -6271    -6250    -6209    -6222    -6238    -6212    -6175 
   -6139    -6107    -6099    -6112    -6143    -6192    -6242    -6271 
   -6260    -6222    -6192    -6166    -6148    -6172    -6211    -6215 
   -6185    -6172    -6213    -6245    -6222    -6219    -6235    -6193 
   -6128    -6110    -6118    -6134    -6163    -6176    -6167    -6164 
   -6159    -6131    -6097    -6092    -6116    -6138    -6140    -6146 
   -6159    -6129    -6088    -6100    -6124    -6134    -6153    -6171 
   -6187    -6191    -6178    -6174    -6190    -6169    -6100    -6098 
   -6168    -6202    -6199    -6175    -6123    -6128    -6186    -6189 
   -6165    -6193    -6210    -6180    -6161    -6171    -6175    -6170 
   -6187    -6178    -6131    -6124    -6135    -6159    -6216    -6226 
   -6179    -6161    -6178    -6198    -6217    -6230    -6223    -6206 
   -6203    -6210    -6233    -6265    -6264    -6232    -6191    -6139 
   -6111    -6136    -6195    -6236    -6205    -6152    -6161    -6207 
   -6225    -6215    -6216    -6218    -6173    -6123    -6164    -6269 
   -6318    -6278    -6198    -6151    -6154    -6141    -6130    -6168 
   -6197    -6197    -6193    -6186    -6195    -6194    -6150    -6128 
   -6171    -6238    -6274    -6245    -6194    -6183    -6150    -6106 
   -6162    -6260    -6270    -6219    -6182    -6150    -6141    -6182 
   -6221    -6236    -6213    -6118    -6054    -6112    -6165    -6148 
   -6148    -6179    -6209    -6212    -6188    -6186    -6198    -6176 
   -6149    -6156    -6177    -6185    -6189    -6175    -6179    -6250 
   -6293    -6257    -6210    -6135    -6075    -6097    -6105    -6107 
   -6190    -6251    -6220    -6210    -6212    -6119    -6058    -6123 
   -6145    -6121    -6139    -6118    -6092    -6140    -6177    -6151 
   -6117    -6140    -6219    -6255    -6204    -6153    -6144    -6145 
   -6173    -6215    -6232    -6229    -6203    -6190    -6175    -6085 
   -5996    -6009    -6083    -6137    -6160    -6215    -6271    -6265 
   -6244    -6210    -6189    -6221    -6202    -6165    -6211    -6235 
   -6203    -6213    -6229    -6187    -6150    -6137    -6119    -6156 
   -6195    -6156    -6150    -6193    -6184    -6175    -6205    -6213 
   -6219    -6257    -6242    -6124    -6029    -6055    -6100    -6075 
   -6073    -6124    -6129    -6128    -6205    -6271    -6229    -6152 
   -6141    -6158    -6138    -6107    -6110    -6128    -6113    -6097 
   -6118    -6149    -6201    -6300    -6348    -6289    -6254    -6260 
   -6223    -6198    -6191    -6156    -6148    -6157    -6143    -6183 
   -6282    -6312    -6278    -6270    -6239    -6197    -6219    -6213 
   -6139    -6108    -6158    -6196    -6161    -6155    -6212    -6221 
   -6200    -6218    -6222    -6188    -6126    -6064    -6068    -6121 
   -6173    -6225    -6244    -6233    -6212    -6185    -6199    -6230 
   -6231    -6238    -6225    -6199    -6228    -6220    -6144    -6150 
   -6206    -6204    -6205    -6207    -6172    -6172    -6187    -6154 
   -6168    -6242    -6292    -6318    -6301    -6239    -6191    -6198 
   -6245    -6231    -6173    -6205    -6247    -6165    -6068    -6081 
   -6140    -6162    -6166    -6190    -6202    -6172    -6172    -6227 
   -6225    -6135    -6063    -6088    -6166    -6170    -6106    -6116 
   -6160    -6110    -6063    -6105    -6186    -6269    -6278    -6198 
   -6147    -6147    -6118    -6102    -6196    -6319    -6312    -6245 
   -6274    -6293    -6218    -6179    -6150    -6076    -6073    -6137 
   -6185    -6240    -6278    -6250    -6219    -6206    -6160    -6125 
   -6178    -6276    -6307    -6230    -6143    -6112    -6082    -6114 
   -6231    -6239    -6195    -6291    -6360    -6320    -6360    -6403 
   -6325    -6246    -6215    -6235    -6249    -6156    -6090    -6107 
   -6109    -6170    -6240    -6196    -6146    -6146    -6131    -6102 
   -6015    -5890    -5909    -6065    -6198    -6299    -6346    -6300 
   -6254    -6218    -6162    -6114    -6084    -6129    -6212    -6209 
   -6170    -6164    -6168    -6144    -6082    -6062    -6071    -6065 
   -6111    -6151    -6148    -6171    -6187    -6171    -6118    -6063 
   -6094    -6144    -6123    -6071    -6021    -6034    -6103    -6141 
   -6200    -6245    -6168    -6113    -6159    -6174    -6161    -6178 
   -6182    -6189    -6209    -6199    -6203    -6248    -6247    -6246 
   -6310    -6284    -6174    -6159    -6139    -6018    -5982    -6056 
   -6038    -5991    -6111    -6263    -6282    -6276    -6261    -6172 
   -6121    -6130    -6124    -6162    -6228    -6193    -6089    -6003 
   -5978    -6064    -6212    -6324    -6339    -6298    -6308    -6277 
   -6132    -6038    -6022    -6026    -6098    -6193    -6225    -6227 
   -6244    -6272    -6327    -6407    -6424    -6333    -6238    -6224 
   -6226    -6147    -6048    -6032    -6031    -6033    -6153    -6284 
   -6314    -6344    -6365    -6311    -6275    -6289    -6218    -6064 
   -6040    -6180    -6257    -6193    -6145    -6158    -6142    -6093 
   -6051    -6043    -6115    -6219    -6200    -6084    -6076    -6136 
   -6110    -6096    -6160    -6218    -6269    -6272    -6191    -6148 
   -6161    -6143    -6128    -6169    -6255    -6313    -6280    -6241 
   -6223    -6164    -6126    -6125    -6123    -6177    -6280    -6356 
   -6371    -6319    -6241    -6173    -6151    -6163    -6128    -6092 
   -6106    -6092    -6106    -6184    -6178    -6100    -6076    -6087 
   -6124    -6188    -6187    -6158    -6170    -6162    -6210    -6302 
   -6285    -6275    -6279    -6178    -6156    -6226    -6209    -6229 
   -6333    -6311    -6198    -6175    -6166    -6086    -6084    -6157 
   -6153    -6164    -6227    -6204    -6191    -6277    -6291    -6201 
   -6166    -6179    -6157    -6171    -6270    -6352    -6387    -6416 
   -6388    -6297    -6245    -6252    -6266    -6255    -6186    -6119 
   -6133    -6131    -6061    -6041    -6102    -6189    -6231    -6174 
   -6098    -6066    -6032    -6024    -6099    -6199    -6223    -6196 
   -6200    -6208    -6176    -6129    -6132    -6179    -6171    -6126 
   -6137    -6187    -6213    -6192    -6183    -6240    -6234    -6146 
   -6190    -6308    -6286    -6242    -6264    -6245    -6212    -6205 
   -6183    -6194    -6213    -6163    -6116    -6110    -6095    -6083 
   -6099    -6120    -6177    -6255    -6233    -6143    -6121    -6158 
   -6199    -6207    -6231    -6318    -6320    -6181    -6071    -6042 
   -6017    -6000    -6049    -6120    -6101    -6038    -6079    -6167 
   -6183    -6183    -6211    -6190    -6127    -6133    -6164    -6108 
   -6056    -6096    -6125    -6063    -5963    -5925    -5970    -6007 
   -6079    -6229    -6278    -6195    -6160    -6162    -6121    -6111 
   -6158    -6148    -6063    -6014    -6039    -6116    -6186    -6186 
   -6189    -6227    -6202    -6144    -6134    -6151    -6168    -6139 
   -6089    -6115    -6155    -6160    -6177    -6185    -6210    -6238 
   -6206    -6206    -6248    -6226    -6193    -6207    -6224    -6231 
   -6245    -6259    -6233    -6192    -6202    -6243    -6275    -6274 
   -6231    -6236    -6275    -6218    -6102    -6046    -6063    -6140 
   -6229    -6275    -6306    -6317    -6255    -6177    -6181    -6226 
   -6220    -6199    -6213    -6194    -6145    -6169    -6209    -6174 
   -6142    -6175    -6215    -6203    -6157    -6129    -6125    -6152 
   -6185    -6139    -6081    -6144    -6222    -6176    -6124    -6139 
   -6140    -6162    -6239    -6273    -6261    -6254    -6276    -6325 
   -6295    -6211    -6203    -6214    -6189    -6160    -6102    -6075 
   -6161    -6252    -6271    -6298    -6311    -6256    -6224    -6241 
   -6230    -6202    -6160    -6080    -6039    -6094    -6161    -6194 
   -6196    -6165    -6179    -6240    -6246    -6247    -6278    -6247 
   -6201    -6225    -6259    -6254    -6248    -6214    -6149    -6178 
   -6241    -6166    -6089    -6139    -6163    -6122    -6131    -6147 
   -6161    -6227    -6245    -6223    -6259    -6273    -6261    -6265 
   -6247    -6251    -6293    -6270    -6165    -6092    -6100    -6097 
   -6051    -6080    -6172    -6160    -6083    -6070    -6102    -6153 
   -6206    -6242    -6269    -6315    -6374    -6373    -6363    -6397 
   -6388    -6310    -6227    -6172    -6141    -6137    -6143    -6130 
   -6109    -6094    -6110    -6122    -6094    -6124    -6180    -6136 
   -6095    -6151    -6235    -6283    -6285    -6271    -6253    -6242 
   -6267    -6270    -6232    -6226    -6234    -6201    -6163    -6153 
   -6133    -6110    -6131    -6125    -6067    -6097    -6173    -6119 
   -6032    -6066    -6118    -6082    -6035    -6040    -6056    -6065 
   -6102    -6206    -6316    -6265    -6101    -6050    -6088    -6092 
   -6122    -6184    -6181    -6170    -6194    -6156    -6073    -6061 
   -6117    -6153    -6141    -6160    -6235    -6248    -6181    -6167 
   -6221    -6246    -6275    -6340    -6308    -6252    -6327    -6354 
   -6235    -6179    -6208    -6168    -6102    -6095    -6094    -6089 
   -6144    -6209    -6173    -6101    -6133    -6181    -6124    -6055 
   -6050    -6080    -6097    -6069    -6074    -6114    -6074    -6039 
   -6087    -6120    -6128    -6141    -6129    -6123    -6152    -6155 
   -6092    -6031    -6053    -6102    -6098    -6101    -6168    -6200 
   -6140    -6098    -6101    -6076    -6082    -6150    -6181    -6191 
   -6254    -6285    -6236    -6165    -6107    -6099    -6145    -6210 
   -6235    -6232    -6314    -6401    -6331    -6239    -6257    -6275 
   -6255    -6241    -6239    -6267    -6303    -6274    -6220    -6241 
   -6305    -6327    -6284    -6193    -6130    -6120    -6111    -6095 
