Origin Time       2024/04/02 04:24:00
Lat.              40.133
Long.             141.712
Depth. (km)       71
Mag.              6.0
Station Code      TKCH04
Station Lat.      43.1739
Station Long.     142.9176
Station Height(m) 48
Record Time       2024/04/02 04:25:27
Sampling Freq(Hz) 100Hz
Duration Time(s)  120
Dir.              3
Scale Factor      2942(gal)/8224139
Max. Acc. (gal)   0.383
Last Correction   2024/04/02 04:25:28
Memo.             
[...]
   50593    50558    50622    50710    50707    50687    50750    50920 
   51043    50989    50858    50712    50550    50419    50322    50259 
   50264    50353    50467    50552    50674    50814    50859    50819 
   50720    50608    50549    50518    50491    50464    50465    50608 
   50793    50874    50974    51065    50950    50727    50598    50554 
   50545    50572    50599    50666    50815    50835    50738    50832 
   50989    50935    50838    50799    50652    50431    50318    50348 
   50511    50733    50828    50822    50863    50874    50812    50814 
   50796    50696    50666    50670    50577    50518    50584    50620 
   50549    50511    50588    50676    50722    50797    50793    50643 
   50606    50673    50658    50731    50897    50927    50843    50745 
   50639    50576    50604    50697    50730    50696    50711    50730 
   50711    50739    50788    50766    50711    50746    50809    50727 
   50629    50681    50745    50741    50788    50816    50697    50642 
   50766    50791    50700    50730    50781    50760    50757    50758 
   50743    50720    50676    50658    50614    50502    50487    50533 
   50476    50480    50635    50715    50642    50630    50739    50791 
   50751    50647    50503    50484    50561    50562    50587    50733 
   50873    50893    50820    50754    50769    50819    50826    50781 
   50733    50723    50722    50750    50828    50818    50747    50768 
   50785    50730    50666    50584    50565    50627    50630    50625 
   50654    50629    50684    50897    50997    50878    50841    50978 
   50985    50811    50718    50718    50715    50765    50862    50905 
   50893    50870    50741    50502    50464    50706    50841    50727 
   50657    50673    50560    50441    50484    50544    50562    50568 
   50483    50368    50372    50487    50637    50774    50877    50908 
   50819    50699    50652    50607    50521    50471    50511    50619 
   50657    50552    50544    50778    50993    50982    50904    50896 
   50800    50556    50441    50523    50581    50610    50692    50746 
   50723    50669    50634    50657    50735    50801    50768    50637 
   50526    50479    50463    50535    50726    50880    50869    50800 
   50812    50834    50766    50695    50728    50785    50770    50710 
   50647    50679    50811    50886    50877    50850    50811    50795 
   50770    50692    50635    50639    50687    50739    50797    50928 
   51040    51013    50930    50828    50695    50631    50661    50720 
   50834    50920    50788    50544    50499    50646    50788    50911 
   50993    50912    50697    50556    50530    50517    50647    50895 
   50850    50577    50473    50464    50414    50469    50631    50700 
   50607    50527    50550    50599    50669    50804    50973    51011 
   50839    50637    50480    50415    50490    50550    50538    50545 
   50565    50565    50645    50880    51073    51093    51048    50928 
   50689    50472    50427    50535    50631    50657    50715    50838 
   50938    50938    50832    50743    50751    50761    50760    50793 
   50770    50661    50584    50596    50639    50635    50589    50577 
   50626    50650    50564    50477    50535    50649    50696    50683 
   50638    50612    50629    50626    50562    50499    50546    50650 
   50637    50568    50603    50719    50836    50922    50896    50791 
   50720    50603    50506    50611    50656    50575    50697    50880 
   50915    50932    50928    50873    50818    50757    50683    50610 
   50646    50807    50904    50904    50881    50774    50637    50598 
   50610    50625    50660    50719    50751    50684    50649    50776 
   50876    50823    50745    50683    50615    50580    50531    50446 
   50341    50314    50463    50588    50583    50635    50735    50738 
   50650    50606    50677    50728    50637    50560    50642    50757 
   50797    50815    50859    50917    50954    50978    50954    50863 
   50809    50797    50755    50747    50812    50843    50772    50691 
   50685    50722    50777    50859    50928    50900    50728    50504 
   50400    50411    50446    50562    50688    50688    50652    50650 
   50701    50843    50958    50886    50660    50463    50384    50346 
   50282    50328    50530    50672    50753    50905    50988    50908 
   50815    50847    50903    50777    50604    50619    50757    50872 
   50853    50703    50634    50703    50760    50716    50612    50657 
   50869    50978    50980    50988    51004    51040    50971    50789 
   50665    50556    50492    50568    50637    50627    50630    50754 
   51017    51178    51121    50994    50749    50458    50445    50580 
   50588    50579    50556    50430    50369    50454    50589    50697 
   50772    50834    50733    50452    50337    50471    50596    50673 
   50743    50697    50579    50600    50728    50772    50800    50855 
   50716    50418    50342    50562    50781    50903    50986    50930 
   50781    50737    50737    50739    50816    50843    50727    50602 
   50525    50461    50496    50733    51027    51096    50936    50830 
   50932    51007    50859    50727    50684    50558    50417    50356 
   50388    50506    50658    50772    50723    50600    50583    50668 
   50795    50751    50546    50548    50642    50527    50458    50538 
   50558    50568    50584    50511    50430    50415    50573    50830 
   50831    50693    50712    50791    50897    50940    50718    50483 
   50492    50545    50548    50630    50773    50795    50645    50583 
   50733    50857    50842    50796    50746    50746    50876    50930 
   50780    50745    50905    50917    50730    50656    50774    50801 
   50755    50922    51054    50915    50796    50772    50706    50681 
   50697    50599    50472    50557    50762    50782    50703    50727 
   50716    50691    50776    50707    50490    50499    50608    50571 
   50585    50731    50735    50611    50634    50685    50572    50457 
   50421    50426    50500    50581    50647    50739    50845    50926 
   50791    50460    50348    50444    50498    50626    50792    50827 
   50746    50633    50739    51000    51028    50896    50741    50565 
   50484    50463    50545    50770    50890    50927    51003    50997 
   50912    50770    50673    50781    50909    50865    50803    50854 
   50911    50866    50796    50847    50965    50930    50768    50662 
   50545    50396    50442    50603    50629    50652    50741    50746 
   50733    50727    50662    50623    50656    50638    50485    50391 
   50544    50726    50753    50747    50772    50777    50768    50758 
   50749    50700    50527    50288    50255    50504    50714    50780 
   50935    50978    50704    50523    50572    50526    50465    50625 
   50808    50807    50716    50643    50738    51004    51000    50711 
   50674    50781    50634    50450    50456    50569    50693    50845 
   51100    51250    51162    51105    51032    50834    50735    50665 
   50481    50400    50525    50595    50441    50303    50448    50739 
   50957    51036    50939    50754    50665    50683    50666    50538 
   50421    50363    50278    50364    50656    50751    50733    50938 
   51003    50715    50581    50620    50441    50299    50472    50693 
   50795    50823    50822    50828    50811    50773    50781    50805 
   50801    50760    50657    50487    50410    50569    50787    50908 
   50978    50901    50712    50639    50643    50565    50429    50396 
   50569    50749    50809    50936    51078    51063    50951    50769 
   50600    50646    50785    50701    50541    50577    50576    50356 
   50213    50441    50949    51259    51216    51081    50912    50723 
   50557    50396    50363    50445    50461    50491    50670    50836 
   50836    50803    50881    50985    50969    50872    50818    50803 
   50687    50457    50284    50276    50448    50737    51021    51193 
   51160    50981    50853    50792    50684    50591    50525    50481 
   50593    50681    50587    50635    50872    50950    50869    50868 
   50870    50760    50643    50579    50542    50548    50504    50433 
   50566    50831    50923    50899    50932    51001    51034    50920 
   50683    50533    50507    50566    50683    50742    50731    50703 
   50635    50591    50662    50787    50889    50993    50980    50738 
   50510    50517    50568    50572    50669    50746    50710    50742 
   50781    50716    50777    50994    51065    50857    50596    50483 
   50463    50504    50518    50423    50348    50325    50364    50446 
   50471    50610    50843    50823    50703    50712    50634    50572 
   50610    50533    50568    50784    50889    50857    50670    50515 
   50639    50792    50863    50949    50924    50865    50835    50683 
   50514    50472    50554    50749    50893    50892    50897    51007 
   51044    50889    50747    50785    50834    50712    50522    50421 
   50384    50404    50531    50697    50762    50707    50689    50834 
   50998    51003    50859    50720    50708    50730    50653    50569 
   50539    50545    50685    50890    50857    50631    50502    50523 
   50588    50657    50784    50877    50765    50666    50722    50635 
   50467    50444    50457    50508    50630    50747    50820    50865 
   50978    51009    50819    50670    50562    50325    50313    50634 
   50714    50444    50376    50600    50716    50766    50922    50911 
   50760    50727    50692    50627    50643    50607    50502    50557 
   50755    50851    50854    50878    50847    50741    50683    50754 
   50826    50795    50780    50753    50689    50735    50746    50616 
   50635    50809    50865    50874    50912    50822    50793    50985 
   51021    50715    50531    50711    50826    50781    50874    50919 
   50739    50573    50535    50522    50498    50587    50773    50770 
   50653    50711    50696    50476    50388    50457    50521    50571 
   50611    50612    50508    50419    50476    50545    50616    50742 
   50795    50715    50603    50573    50612    50631    50649    50664 
   50706    50859    51005    51008    50908    50797    50812    50870 
   50830    50805    50820    50795    50699    50522    50515    50735 
   50747    50608    50722    50900    50922    50873    50784    50742 
   50708    50575    50480    50458    50488    50647    50804    50896 
   51051    51004    50619    50444    50649    50795    50677    50395 
   50166    50207    50410    50531    50591    50687    50846    50980 
   50939    50888    50862    50581    50264    50314    50606    50808 
   50737    50554    50565    50612    50503    50504    50683    50782 
   50722    50608    50565    50619    50734    50762    50668    50687 
   50782    50742    50695    50787    50963    51086    51004    50832 
   50762    50646    50375    50230    50418    50638    50691    50811 
   50957    50876    50726    50654    50539    50453    50554    50666 
   50599    50488    50529    50650    50727    50882    51075    51015 
   50809    50658    50496    50369    50337    50436    50696    50896 
   50940    51012    51005    50846    50866    51028    51012    50888 
   50777    50707    50707    50743    50761    50715    50735    50892 
   50920    50819    50841    50827    50696    50657    50610    50490 
   50538    50750    50870    50880    50831    50660    50504    50531 
   50573    50522    50618    50831    50769    50588    50622    50697 
   50727    50807    50803    50591    50359    50276    50225    50215 
   50483    50822    50886    50904    50994    51013    51048    51008 
   50834    50757    50693    50525    50506    50700    50870    50980 
   51082    50997    50670    50357    50236    50318    50500    50654 
   50761    50854    50892    50814    50766    50857    50814    50561 
   50485    50608    50697    50830    50942    50890    50822    50792 
   50724    50614    50583    50742    50897    50892    50819    50696 
   50552    50525    50610    50715    50741    50622    50548    50683 
   50911    51169    51310    51100    50809    50793    50820    50693 
   50571    50518    50583    50788    50878    50739    50665    50745 
   50735    50608    50525    50522    50485    50377    50383    50565 
   50755    50980    51309    51426    51084    50666    50523    50476 
   50425    50458    50512    50537    50573    50618    50673    50785 
   50965    50993    50750    50544    50422    50186    50137    50348 
   50361    50294    50502    50730    50757    50814    50978    51016 
   50913    50940    51085    50984    50629    50437    50480    50456 
   50367    50417    50587    50726    50793    50963    51224    51228 
   51015    50872    50757    50649    50616    50566    50517    50569 
   50695    50737    50598    50463    50479    50538    50623    50692 
   50697    50737    50758    50673    50464    50190    50215    50638 
   50931    50863    50836    50985    51025    50936    50900    50900 
   50846    50781    50735    50571    50310    50167    50074    49944 
   50021    50342    50627    50874    51085    51052    50897    50820 
   50715    50514    50387    50448    50533    50600    50845    51159 
   51318    51501    51749    51694    51286    50838    50496    50260 
   50056    49939    50174    50630    50917    51012    51065    51135 
   51194    51163    50998    50711    50521    50506    50350    50056 
   49933    49956    50079    50296    50484    50801    51370    51771 
   51727    51472    51287    51062    50542    50010    49897    50136 
   50458    50687    50787    50788    50666    50517    50569    50796 
   50753    50337    50180    50508    50854    50993    50946    50685 
   50391    50279    50368    50633    50943    51104    51098    51108 
   51214    51208    50903    50446    50126    50052    50099    50197 
   50496    51036    51441    51490    51389    51282    51270    51389 
   51376    51094    50670    50302    50103    49985    49998    50282 
   50526    50558    50683    50954    51028    50823    50707    50765 
   50665    50414    50276    50259    50225    50272    50481    50660 
   50823    51147    51358    51212    50976    50701    50341    50302 
   50560    50585    50392    50291    50198    50075    50207    50560 
   50824    50899    50800    50576    50441    50612    50870    50892 
   50728    50533    50499    50777    51173    51490    51664    51483 
   51058    50742    50523    50411    50484    50542    50481    50403 
   50388    50539    50831    51042    51067    51021    51019    50986 
   50830    50660    50576    50565    50517    50371    50334    50398 
   50359    50352    50445    50515    50588    50695    50764    50715 
   50641    50649    50635    50612    50587    50502    50593    50857 
   50907    50774    50726    50826    51058    51170    50980    50730 
   50522    50317    50349    50625    50745    50647    50602    50591 
   50581    50734    50934    51059    51220    51397    51548    51692 
   51678    51401    51032    50731    50506    50392    50452    50622 
   50793    50873    50811    50801    50928    50958    50940    51042 
   51047    50787    50495    50323    50072    49905    50114    50248 
   50082    50137    50431    50595    50778    51094    51146    50923 
   50909    51031    50988    50969    50868    50440    50157    50230 
   50252    50183    50244    50456    50661    50701    50669    50683 
   50791    50951    50930    50811    50930    51178    51213    50994 
   50827    50922    51017    50936    50872    50792    50669    50629 
   50546    50442    50465    50430    50259    50224    50352    50477 
   50643    50830    50966    51117    51167    50947    50566    50232 
   49993    49850    49909    50190    50487    50633    50773    51031 
   51112    50938    50795    50710    50517    50210    50002    50045 
   50171    50145    50053    50139    50356    50534    50769    51081 
   51143    50920    50861    50973    50812    50433    50295    50483 
   50614    50518    50499    50652    50808    51025    51313    51437 
   51217    50762    50390    50284    50409    50569    50573    50502 
   50538    50641    50696    50761    50868    50888    50812    50823 
   50951    51031    50971    50809    50719    50835    50931    50784 
   50527    50271    50175    50437    50749    50770    50731    50776 
   50777    50788    50809    50753    50629    50387    50085    49886 
   49813    49941    50233    50467    50714    50971    51013    50986 
   50950    50773    50657    50658    50657    50750    50946    51090 
   51078    50984    50923    50822    50719    50731    50739    50769 
   50895    50876    50788    51020    51348    51441    51502    51525 
   51295    50954    50695    50546    50434    50282    50157    50222 
   50566    51016    51310    51401    51320    51139    51043    51096 
   51057    50768    50491    50456    50512    50460    50441    50615 
   50706    50653    50865    51131    50912    50510    50306    50198 
   50174    50147    50066    50174    50430    50653    50846    51034 
   51270    51422    51349    51236    51163    50938    50517    50261 
   50430    50696    50792    50801    50791    50838    50832    50566 
   50342    50471    50654    50724    50808    50808    50765    50870 
   51058    51120    50939    50630    50442    50535    50780    50858 
   50795    50785    50778    50760    50742    50615    50388    50275 
   50367    50488    50542    50708    51015    51196    51183    51171 
   51232    51219    51050    50843    50669    50534    50485    50452 
   50326    50238    50422    50876    51225    51205    51047    50946 
   50804    50646    50549    50452    50415    50515    50654    50819 
   50974    50935    50735    50645    50685    50654    50627    50745 
   50747    50580    50541    50600    50585    50549    50544    50492 
   50431    50548    50800    50965    51017    51019    50970    50893 
   50808    50718    50685    50745    50831    50892    50843    50602 
   50323    50309    50519    50676    50731    50778    50865    50951 
   50938    50886    50853    50718    50603    50641    50642    50592 
   50625    50706    50853    51015    51069    51065    50993    50835 
   50692    50566    50457    50404    50413    50453    50384    50318 
   50512    50727    50716    50701    50734    50684    50619    50580 
   50436    50280    50333    50413    50444    50670    50868    50720 
   50485    50506    50737    50847    50688    50533    50515    50404 
   50284    50345    50303    50129    50136    50238    50310    50479 
   50741    50895    50793    50623    50606    50638    50653    50633 
   50525    50469    50508    50554    50672    50851    50947    50866 
   50683    50631    50799    51003    51027    50920    50859    50773 
   50657    50629    50530    50377    50502    50741    50818    50967 
   51178    51197    51116    51012    50911    50809    50654    50581 
   50643    50646    50529    50492    50672    50827    50762    50665 
   50539    50264    50110    50302    50538    50522    50368    50210 
   50120    50269    50533    50643    50665    50665    50542    50386 
   50422    50569    50669    50849    51030    51058    51046    50955 
