Origin Time       2024/04/02 04:24:00
Lat.              40.133
Long.             141.712
Depth. (km)       71
Mag.              6.0
Station Code      TKCH01
Station Lat.      43.4683
Station Long.     143.6830
Station Height(m) 251
Record Time       2024/04/02 04:25:35
Sampling Freq(Hz) 100Hz
Duration Time(s)  127
Dir.              4
Scale Factor      7845(gal)/8223790
Max. Acc. (gal)   1.441
Last Correction   2024/04/02 04:25:36
Memo.             
[...]
  -16267   -16260   -16221   -16178   -16175   -16201   -16236   -16301 
  -16403   -16452   -16366   -16194   -16063   -16054   -16158   -16317 
  -16468   -16548   -16513   -16413   -16335   -16302   -16317   -16362 
  -16393   -16386   -16336   -16268   -16255   -16285   -16281   -16237 
  -16224   -16259   -16282   -16240   -16163   -16131   -16163   -16228 
  -16285   -16297   -16241   -16143   -16067   -16073   -16166   -16285 
  -16340   -16314   -16287   -16326   -16397   -16417   -16374   -16305 
  -16244   -16222   -16259   -16333   -16391   -16382   -16324   -16276 
  -16268   -16278   -16301   -16347   -16393   -16413   -16405   -16390 
  -16374   -16339   -16274   -16201   -16160   -16164   -16200   -16247 
  -16283   -16286   -16240   -16173   -16137   -16170   -16293   -16452 
  -16514   -16445   -16344   -16285   -16267   -16283   -16322   -16363 
  -16384   -16367   -16321   -16286   -16260   -16214   -16167   -16144 
  -16140   -16185   -16286   -16375   -16403   -16380   -16329   -16268 
  -16210   -16166   -16147   -16135   -16100   -16073   -16098   -16167 
  -16239   -16263   -16213   -16144   -16132   -16189   -16276   -16349 
  -16357   -16290   -16201   -16147   -16143   -16182   -16244   -16301 
  -16351   -16390   -16402   -16401   -16402   -16393   -16362   -16320 
  -16278   -16233   -16210   -16214   -16206   -16175   -16148   -16124 
  -16102   -16116   -16167   -16228   -16285   -16321   -16290   -16182 
  -16067   -16029   -16089   -16227   -16403   -16534   -16551   -16472 
  -16389   -16355   -16355   -16326   -16248   -16202   -16272   -16417 
  -16505   -16474   -16383   -16312   -16279   -16281   -16298   -16299 
  -16266   -16212   -16190   -16244   -16322   -16339   -16291   -16244 
  -16240   -16294   -16371   -16387   -16320   -16254   -16252   -16279 
  -16262   -16201   -16163   -16182   -16222   -16251   -16271   -16278 
  -16251   -16208   -16198   -16245   -16326   -16390   -16393   -16332 
  -16254   -16197   -16168   -16170   -16190   -16201   -16204   -16231 
  -16275   -16293   -16286   -16282   -16301   -16339   -16357   -16326 
  -16274   -16274   -16347   -16440   -16487   -16465   -16397   -16310 
  -16216   -16143   -16140   -16209   -16302   -16376   -16424   -16444 
  -16410   -16318   -16224   -16167   -16154   -16182   -16244   -16326 
  -16397   -16405   -16348   -16268   -16206   -16190   -16227   -16274 
  -16295   -16303   -16312   -16322   -16328   -16321   -16293   -16259 
  -16263   -16299   -16328   -16340   -16324   -16247   -16146   -16077 
  -16065   -16124   -16235   -16333   -16384   -16393   -16340   -16240 
  -16191   -16243   -16325   -16367   -16363   -16312   -16225   -16166 
  -16181   -16244   -16287   -16262   -16183   -16135   -16167   -16243 
  -16290   -16302   -16298   -16263   -16181   -16075   -15996   -15993 
  -16093   -16260   -16387   -16409   -16366   -16308   -16278   -16287 
  -16301   -16316   -16359   -16387   -16353   -16291   -16237   -16177 
  -16109   -16092   -16158   -16260   -16356   -16460   -16567   -16615 
  -16559   -16418   -16258   -16179   -16233   -16337   -16363   -16285 
  -16195   -16177   -16212   -16247   -16274   -16303   -16349   -16397 
  -16375   -16267   -16158   -16114   -16137   -16191   -16258   -16345 
  -16421   -16421   -16345   -16251   -16189   -16173   -16181   -16182 
  -16183   -16208   -16259   -16317   -16345   -16317   -16251   -16200 
  -16195   -16220   -16229   -16210   -16187   -16206   -16260   -16301 
  -16344   -16420   -16457   -16389   -16283   -16245   -16271   -16293 
  -16274   -16224   -16175   -16173   -16220   -16274   -16305   -16306 
  -16295   -16294   -16293   -16295   -16320   -16343   -16347   -16374 
  -16438   -16483   -16468   -16410   -16360   -16351   -16355   -16341 
  -16343   -16367   -16353   -16293   -16240   -16222   -16209   -16183 
  -16152   -16124   -16102   -16113   -16171   -16217   -16201   -16152 
  -16116   -16114   -16150   -16202   -16245   -16259   -16239   -16191 
  -16162   -16200   -16299   -16449   -16598   -16634   -16499   -16272 
  -16093   -16047   -16117   -16225   -16301   -16318   -16297   -16249 
  -16197   -16183   -16248   -16352   -16434   -16501   -16530   -16457 
  -16310   -16217   -16221   -16249   -16247   -16214   -16185   -16189 
  -16227   -16241   -16224   -16248   -16316   -16357   -16367   -16374 
  -16376   -16360   -16316   -16259   -16240   -16255   -16249   -16231 
  -16237   -16276   -16329   -16367   -16378   -16364   -16305   -16201 
  -16128   -16148   -16235   -16305   -16297   -16225   -16151   -16096 
  -16056   -16070   -16163   -16279   -16332   -16291   -16212   -16158 
  -16129   -16119   -16166   -16293   -16416   -16430   -16318   -16139 
  -16016   -16046   -16187   -16326   -16394   -16384   -16353   -16372 
  -16430   -16455   -16432   -16394   -16344   -16285   -16249   -16239 
  -16212   -16152   -16067   -16006   -16038   -16155   -16293   -16393 
  -16424   -16391   -16352   -16353   -16398   -16449   -16461   -16403 
  -16309   -16245   -16213   -16209   -16275   -16371   -16425   -16426 
  -16393   -16349   -16317   -16298   -16283   -16263   -16231   -16212 
  -16229   -16279   -16341   -16374   -16337   -16227   -16123   -16129 
  -16233   -16316   -16318   -16268   -16209   -16166   -16120   -16071 
  -16070   -16140   -16243   -16337   -16391   -16366   -16258   -16129 
  -16048   -16043   -16113   -16233   -16363   -16453   -16447   -16357 
  -16289   -16301   -16356   -16378   -16341   -16313   -16340   -16384 
  -16422   -16463   -16461   -16355   -16159   -15993   -15965   -16071 
  -16227   -16335   -16363   -16382   -16470   -16559   -16546   -16456 
  -16357   -16313   -16349   -16405   -16410   -16376   -16313   -16212 
  -16154   -16224   -16372   -16467   -16432   -16310   -16210   -16175 
  -16173   -16202   -16291   -16390   -16386   -16258   -16117   -16086 
  -16159   -16236   -16267   -16268   -16247   -16222   -16220   -16233 
  -16228   -16170   -16078   -16038   -16108   -16232   -16312   -16316 
  -16281   -16259   -16274   -16299   -16314   -16308   -16251   -16137 
  -16052   -16082   -16206   -16332   -16382   -16345   -16297   -16313 
  -16340   -16290   -16193   -16124   -16098   -16090   -16092   -16113 
  -16178   -16275   -16357   -16395   -16387   -16348   -16316   -16313 
  -16301   -16259   -16245   -16287   -16333   -16330   -16281   -16224 
  -16228   -16308   -16398   -16456   -16488   -16463   -16351   -16193 
  -16052   -15993   -16042   -16167   -16308   -16395   -16407   -16405 
  -16433   -16438   -16356   -16232   -16162   -16164   -16187   -16209 
  -16233   -16237   -16218   -16204   -16195   -16218   -16318   -16438 
  -16487   -16502   -16498   -16389   -16183   -16031   -16016   -16092 
  -16163   -16183   -16181   -16221   -16312   -16384   -16375   -16293 
  -16212   -16193   -16231   -16275   -16274   -16247   -16240   -16249 
  -16278   -16357   -16472   -16542   -16526   -16455   -16395   -16363 
  -16302   -16212   -16159   -16185   -16256   -16305   -16299   -16249 
  -16200   -16214   -16332   -16476   -16515   -16401   -16231   -16162 
  -16210   -16267   -16274   -16278   -16308   -16347   -16376   -16403 
  -16430   -16440   -16407   -16339   -16264   -16216   -16204   -16212 
  -16208   -16167   -16127   -16170   -16287   -16382   -16406   -16390 
  -16353   -16285   -16193   -16124   -16106   -16124   -16137   -16151 
  -16213   -16326   -16418   -16406   -16303   -16191   -16148   -16193 
  -16263   -16283   -16259   -16241   -16258   -16301   -16324   -16281 
  -16209   -16204   -16283   -16387   -16452   -16421   -16293   -16146 
  -16073   -16098   -16193   -16297   -16372   -16418   -16426   -16382 
  -16287   -16190   -16144   -16140   -16154   -16216   -16320   -16386 
  -16375   -16326   -16299   -16316   -16353   -16370   -16357   -16330 
  -16278   -16202   -16159   -16171   -16214   -16262   -16276   -16229 
  -16140   -16059   -16044   -16112   -16190   -16240   -16289   -16318 
  -16270   -16173   -16137   -16204   -16297   -16348   -16352   -16309 
  -16248   -16232   -16293   -16411   -16507   -16509   -16448   -16386 
  -16326   -16267   -16213   -16191   -16220   -16263   -16272   -16233 
  -16189   -16182   -16193   -16217   -16309   -16455   -16532   -16452 
  -16266   -16109   -16054   -16073   -16147   -16264   -16367   -16384 
  -16313   -16222   -16200   -16276   -16401   -16457   -16372   -16213 
  -16132   -16167   -16228   -16256   -16283   -16325   -16349   -16340 
  -16326   -16329   -16324   -16295   -16271   -16274   -16309   -16339 
  -16324   -16251   -16128   -16011   -15998   -16109   -16225   -16245 
  -16220   -16243   -16303   -16333   -16295   -16244   -16259   -16313 
  -16345   -16378   -16424   -16432   -16407   -16389   -16383   -16384 
  -16370   -16345   -16348   -16363   -16345   -16287   -16204   -16128 
  -16090   -16104   -16147   -16170   -16162   -16195   -16303   -16409 
  -16455   -16472   -16503   -16548   -16599   -16600   -16490   -16303 
  -16156   -16114   -16162   -16258   -16341   -16376   -16380   -16367 
  -16339   -16317   -16285   -16220   -16151   -16120   -16152   -16245 
  -16344   -16375   -16322   -16256   -16249   -16294   -16374   -16475 
  -16524   -16437   -16256   -16100   -16033   -16016   -15998   -16009 
  -16093   -16208   -16266   -16248   -16232   -16274   -16344   -16371 
  -16322   -16236   -16181   -16195   -16272   -16379   -16447   -16413 
  -16298   -16174   -16078   -16027   -16059   -16185   -16344   -16455 
  -16472   -16414   -16345   -16317   -16305   -16272   -16245   -16255 
  -16294   -16325   -16308   -16233   -16160   -16136   -16136   -16143 
  -16171   -16189   -16137   -16074   -16074   -16106   -16102   -16040 
  -15975   -16017   -16167   -16308   -16366   -16357   -16336   -16308 
  -16236   -16154   -16159   -16251   -16356   -16429   -16444   -16380 
  -16274   -16164   -16067   -15989   -15921   -15850   -15828   -15938 
  -16160   -16360   -16441   -16437   -16451   -16557   -16735   -16868 
  -16835   -16641   -16367   -16085   -15876   -15835   -15942   -16062 
  -16136   -16185   -16205   -16240   -16375   -16594   -16811   -16973 
  -17003   -16848   -16594   -16371   -16208   -16071   -15935   -15823 
  -15812   -15948   -16167   -16341   -16374   -16290   -16232   -16310 
  -16519   -16750   -16838   -16688   -16407   -16197   -16163   -16240 
  -16274   -16251   -16308   -16507   -16735   -16808   -16634   -16302 
  -15977   -15781   -15797   -16011   -16249   -16341   -16270   -16156 
  -16117   -16155   -16213   -16281   -16378   -16484   -16560   -16588 
  -16598   -16590   -16528   -16390   -16208   -16050   -15969   -15965 
  -16025   -16112   -16143   -16098   -16070   -16175   -16445   -16722 
  -16752   -16460   -16060   -15866   -16021   -16379   -16611   -16497 
  -16120   -15739   -15570   -15704   -16058   -16417   -16605   -16595 
  -16460   -16278   -16113   -16001   -15943   -15962   -16071   -16227 
  -16379   -16475   -16465   -16398   -16378   -16460   -16653   -16858 
  -16879   -16603   -16131   -15707   -15557   -15695   -15934   -16096 
  -16155   -16244   -16491   -16833   -17082   -17088   -16795   -16321 
  -15913   -15722   -15681   -15689   -15772   -15974   -16239   -16482 
  -16648   -16661   -16491   -16274   -16191   -16299   -16502   -16641 
  -16603   -16379   -16074   -15828   -15705   -15727   -15903   -16156 
  -16345   -16401   -16357   -16347   -16486   -16711   -16814   -16680 
  -16395   -16163   -16100   -16156   -16247   -16326   -16371   -16357 
  -16289   -16189   -16052   -15844   -15608   -15448   -15417   -15545 
  -15897   -16413   -16858   -17026   -16866   -16524   -16222   -16079 
  -16078   -16218   -16548   -16980   -17211   -17015   -16515   -15993 
  -15570   -15287   -15286   -15688   -16283   -16660   -16626   -16328 
  -16047   -15966   -16075   -16283   -16546   -16804   -16920   -16740 
  -16256   -15703   -15364   -15419   -15890   -16586   -17207   -17543 
  -17520   -17170   -16632   -16085   -15677   -15480   -15460   -15533 
  -15670   -15905   -16298   -16838   -17309   -17382   -16953   -16278 
  -15735   -15535   -15626   -15838   -16087   -16352   -16518   -16513 
  -16447   -16479   -16664   -16930   -17122   -17115   -16985   -16875 
  -16704   -16271   -15603   -15022   -14898   -15323   -16027   -16602 
  -16829   -16748   -16526   -16287   -16060   -15854   -15700   -15635 
  -15661   -15739   -15834   -15989   -16320   -16783   -17132   -17204 
  -17054   -16819   -16642   -16528   -16303   -15890   -15457   -15252 
  -15399   -15838   -16317   -16618   -16719   -16665   -16459   -16179 
  -15955   -15901   -16128   -16610   -17111   -17365   -17227   -16760 
  -16241   -15959   -16006   -16291   -16557   -16538   -16212   -15830 
  -15650   -15738   -15989   -16205   -16168   -15813   -15346   -15137 
  -15427   -16078   -16698   -17026   -17149   -17284   -17456   -17514 
  -17301   -16796   -16190   -15768   -15647   -15732   -15885   -16042 
  -16170   -16244   -16243   -16175   -16125   -16129   -16096   -15935 
  -15716   -15626   -15777   -16110   -16467   -16663   -16565   -16254 
  -16015   -16063   -16294   -16456   -16443   -16321   -16182   -16093 
  -16160   -16438   -16731   -16710   -16340   -15938   -15778   -15876 
  -16112   -16402   -16684   -16850   -16815   -16614   -16328   -16011 
  -15759   -15736   -16023   -16452   -16711   -16632   -16347   -16119 
  -16078   -16175   -16317   -16533   -16888   -17246   -17293   -16861 
  -16077   -15255   -14764   -14872   -15531   -16383   -17038   -17297 
  -17131   -16677   -16216   -15970   -15965   -16063   -16085   -15996 
  -15947   -16070   -16348   -16721   -17135   -17460   -17475   -17076 
  -16424   -15823   -15523   -15577   -15790   -15873   -15736   -15566 
  -15554   -15692   -15835   -15898   -15927   -16020   -16221   -16451 
  -16615   -16704   -16713   -16615   -16440   -16268   -16170   -16117 
  -16056   -16048   -16178   -16387   -16495   -16352   -15979   -15612 
  -15520   -15773   -16214   -16629   -16897   -17015   -17019   -16877 
  -16567   -16233   -16069   -16056   -16028   -15913   -15805   -15816 
  -15992   -16262   -16505   -16648   -16626   -16426   -16174   -16028 
  -15985   -15935   -15882   -15959   -16217   -16519   -16691   -16640 
  -16413   -16218   -16297   -16700   -17212   -17529   -17481   -17103 
  -16588   -16106   -15726   -15495   -15421   -15426   -15491   -15719 
  -16148   -16607   -16835   -16792   -16738   -16907   -17155   -17086 
  -16517   -15692   -15055   -14889   -15198   -15797   -16398   -16731 
  -16744   -16611   -16532   -16629   -16858   -16987   -16854   -16525 
  -16120   -15753   -15587   -15705   -16015   -16330   -16536   -16613 
  -16637   -16683   -16695   -16568   -16343   -16116   -15916   -15741 
  -15627   -15658   -15888   -16220   -16470   -16578   -16644   -16740 
  -16779   -16642   -16370   -16090   -15870   -15714   -15601   -15574 
  -15718   -15989   -16216   -16324   -16378   -16437   -16472   -16455 
  -16413   -16410   -16494   -16664   -16815   -16771   -16497   -16204 
  -16166   -16449   -16794   -16837   -16510   -16093   -15880   -15908 
  -15992   -15939   -15763   -15664   -15785   -16058   -16301   -16403 
  -16383   -16328   -16320   -16406   -16573   -16756   -16876   -16877 
  -16753   -16557   -16359   -16231   -16217   -16274   -16283   -16160 
  -15939   -15747   -15720   -15894   -16150   -16336   -16413   -16417 
  -16355   -16183   -15889   -15569   -15431   -15600   -15967   -16344 
  -16659   -16902   -17034   -17035   -16965   -16902   -16814   -16565 
  -16097   -15550   -15164   -15059   -15203   -15502   -15877   -16232 
  -16437   -16464   -16438   -16459   -16452   -16325   -16132   -16066 
  -16286   -16723   -17086   -17104   -16695   -16024   -15450   -15279 
  -15514   -15920   -16262   -16452   -16565   -16692   -16783   -16708 
  -16413   -16033   -15869   -16144   -16726   -17165   -17081   -16519 
  -15885   -15565   -15651   -15946   -16162   -16206   -16245   -16468 
  -16838   -17134   -17135   -16762   -16178   -15714   -15619   -15893 
  -16320   -16602   -16586   -16352   -16059   -15796   -15607   -15527 
  -15549   -15682   -15967   -16360   -16686   -16746   -16521   -16240 
  -16221   -16563   -17077   -17473   -17564   -17317   -16794   -16162 
  -15619   -15303   -15277   -15496   -15774   -15944   -16008   -16117 
  -16389   -16730   -16900   -16757   -16449   -16240   -16212   -16260 
  -16282   -16229   -16148   -16129   -16182   -16258   -16329   -16398 
  -16501   -16636   -16688   -16565   -16312   -16039   -15838   -15763 
  -15830   -15997   -16204   -16426   -16641   -16761   -16681   -16425 
  -16209   -16214   -16380   -16529   -16596   -16633   -16623   -16488 
  -16249   -16011   -15820   -15680   -15615   -15634   -15709   -15799 
  -15858   -15925   -16096   -16356   -16590   -16744   -16845   -16883 
  -16838   -16767   -16695   -16591   -16528   -16572   -16607   -16488 
  -16271   -16141   -16206   -16391   -16545   -16602   -16582   -16467 
  -16271   -16147   -16220   -16405   -16479   -16322   -16044   -15885 
  -15935   -16090   -16275   -16479   -16605   -16534   -16343   -16173 
  -16024   -15838   -15637   -15495   -15493   -15658   -15913   -16206 
  -16548   -16868   -17004   -16853   -16470   -16051   -15811   -15797 
  -15919   -16104   -16295   -16390   -16339   -16243   -16239   -16359 
  -16546   -16722   -16758   -16557   -16160   -15749   -15531   -15579 
  -15750   -15908   -16062   -16214   -16278   -16217   -16135   -16173 
  -16356   -16565   -16664   -16618   -16441   -16168   -15913   -15830 
  -15959   -16202   -16445   -16659   -16876   -17093   -17211   -17155 
  -16964   -16744   -16603   -16534   -16389   -16094   -15758   -15553 
  -15577   -15777   -15971   -16019   -15928   -15807   -15781   -15931 
  -16248   -16617   -16846   -16815   -16557   -16194   -15834   -15593 
  -15589   -15819   -16159   -16506   -16738   -16707   -16430   -16093 
  -15884   -15885   -15998   -16079   -16105   -16098   -16054   -16031 
  -16112   -16333   -16659   -16935   -17003   -16860   -16615   -16413 
  -16355   -16426   -16536   -16610   -16609   -16506   -16313   -16081 
  -15882   -15797   -15832   -15909   -15957   -15975   -15990   -16005 
  -16038   -16156   -16406   -16729   -17004   -17088   -16889   -16502 
  -16155   -16016   -16123   -16397   -16669   -16807   -16780   -16642 
  -16524   -16532   -16603   -16609   -16503   -16320   -16132   -15997 
  -15924   -15900   -15889   -15874   -15917   -16060   -16235   -16318 
  -16271   -16204   -16258   -16437   -16618   -16698   -16687   -16665 
  -16686   -16714   -16669   -16498   -16191   -15832   -15607   -15681 
  -16020   -16413   -16633   -16591   -16370   -16156   -16069   -16082 
  -16075   -15951   -15770   -15726   -15920   -16282   -16625   -16780 
  -16715   -16526   -16313   -16106   -15924   -15784   -15658   -15514 
  -15375   -15323   -15439   -15769   -16244   -16652   -16834   -16822 
  -16683   -16441   -16156   -15915   -15781   -15822   -16024   -16272 
  -16470   -16571   -16551   -16448   -16406   -16494   -16592   -16557 
  -16380   -16201   -16131   -16167   -16221   -16177   -15992   -15765 
  -15664   -15815   -16187   -16573   -16791   -16853   -16838   -16738 
  -16517   -16233   -16008   -15896   -15851   -15836   -15870   -15971 
