Origin Time       2024/04/02 04:24:00
Lat.              40.133
Long.             141.712
Depth. (km)       71
Mag.              6.0
Station Code      TKCH01
Station Lat.      43.4683
Station Long.     143.6830
Station Height(m) 128.5
Record Time       2024/04/02 04:25:35
Sampling Freq(Hz) 100Hz
Duration Time(s)  127
Dir.              1
Scale Factor      2942(gal)/8224139
Max. Acc. (gal)   0.596
Last Correction   2024/04/02 04:25:36
Memo.             
[...]
  109246   109229   109201   109198   109275   109358   109429   109524 
  109580   109563   109530   109549   109591   109556   109466   109451 
  109483   109435   109328   109260   109217   109171   109154   109183 
  109204   109167   109151   109208   109289   109337   109331   109300 
  109302   109343   109382   109393   109362   109275   109166   109142 
  109212   109246   109208   109192   109239   109301   109340   109375 
  109468   109597   109611   109486   109399   109445   109512   109514 
  109493   109456   109408   109402   109401   109366   109350   109343 
  109341   109358   109382   109395   109352   109308   109390   109513 
  109493   109383   109324   109256   109186   109239   109347   109382 
  109393   109437   109499   109557   109580   109588   109628   109636 
  109570   109509   109518   109568   109583   109559   109539   109501 
  109459   109462   109458   109399   109327   109282   109273   109294 
  109350   109387   109352   109273   109193   109135   109140   109188 
  109210   109217   109277   109379   109429   109441   109482   109512 
  109521   109552   109583   109543   109449   109379   109260   109092 
  109027   109046   109071   109111   109167   109259   109310   109285 
  109287   109306   109248   109186   109220   109294   109321   109300 
  109281   109279   109290   109318   109348   109377   109413   109440 
  109471   109509   109502   109460   109460   109462   109394   109354 
  109379   109383   109341   109324   109382   109428   109374   109314 
  109312   109275   109188   109169   109286   109402   109383   109324 
  109344   109390   109359   109246   109206   109324   109439   109460 
  109479   109510   109431   109278   109266   109372   109390   109363 
  109410   109449   109425   109410   109398   109359   109312   109255 
  109217   109185   109125   109085   109066   109051   109069   109115 
  109183   109274   109366   109435   109453   109447   109455   109468 
  109451   109394   109348   109343   109318   109262   109252   109317 
  109394   109452   109463   109409   109370   109399   109458   109505 
  109495   109394   109296   109318   109401   109409   109370   109370 
  109367   109352   109404   109435   109370   109368   109464   109480 
  109433   109424   109379   109283   109212   109135   109039   109009 
  109089   109263   109441   109518   109517   109521   109557   109599 
  109626   109636   109574   109472   109431   109391   109335   109368 
  109431   109391   109320   109314   109393   109509   109547   109499 
  109424   109317   109255   109269   109239   109231   109350   109435 
  109417   109402   109351   109262   109224   109227   109228   109225 
  109242   109281   109314   109327   109367   109464   109503   109401 
  109304   109305   109301   109270   109312   109404   109444   109426 
  109417   109453   109482   109417   109305   109283   109312   109256 
  109212   109262   109279   109255   109283   109337   109350   109318 
  109312   109347   109397   109429   109389   109345   109360   109367 
  109355   109350   109350   109347   109312   109279   109277   109256 
  109223   109237   109313   109401   109426   109378   109336   109333 
  109324   109300   109274   109269   109296   109333   109370   109385 
  109401   109482   109563   109548   109507   109503   109475   109367 
  109232   109177   109227   109310   109413   109521   109505   109386 
  109354   109359   109301   109286   109323   109327   109335   109332 
  109254   109217   109291   109332   109308   109308   109331   109355 
  109355   109327   109324   109359   109389   109390   109381   109404 
  109443   109405   109306   109294   109398   109483   109433   109320 
  109286   109281   109237   109233   109254   109277   109360   109431 
  109416   109410   109489   109593   109642   109591   109441   109301 
  109262   109259   109208   109166   109225   109313   109329   109325 
  109345   109389   109468   109520   109464   109382   109328   109259 
  109269   109378   109451   109480   109476   109409   109341   109321 
  109308   109296   109354   109474   109503   109390   109313   109371 
  109448   109462   109393   109302   109316   109378   109417   109455 
  109445   109413   109413   109410   109382   109356   109414   109517 
  109520   109502   109541   109502   109405   109397   109412   109340 
  109294   109360   109439   109513   109521   109393   109332   109383 
  109333   109224   109150   109090   109093   109152   109173   109151 
  109193   109304   109324   109293   109390   109485   109425   109335 
  109336   109404   109408   109323   109287   109318   109339   109379 
  109393   109312   109273   109314   109314   109309   109327   109304 
  109320   109416   109480   109499   109510   109459   109356   109264 
  109189   109189   109262   109304   109340   109421   109431   109344 
  109298   109312   109324   109332   109335   109325   109314   109328 
  109401   109501   109576   109615   109579   109498   109507   109555 
  109478   109377   109348   109308   109285   109287   109224   109190 
  109252   109297   109341   109391   109345   109279   109247   109169 
  109107   109146   109190   109169   109125   109104   109127   109174 
  109188   109205   109312   109447   109443   109323   109274   109320 
  109347   109358   109363   109286   109156   109100   109125   109178 
  109235   109248   109255   109341   109448   109491   109470   109409 
  109412   109520   109564   109497   109422   109378   109394   109440 
  109413   109370   109374   109348   109290   109291   109378   109478 
  109502   109493   109548   109640   109701   109713   109725   109738 
  109665   109518   109428   109424   109445   109468   109437   109351 
  109335   109339   109252   109223   109285   109259   109202   109247 
  109350   109436   109431   109404   109513   109588   109447   109335 
  109391   109445   109462   109487   109475   109402   109354   109393 
  109436   109418   109409   109409   109378   109386   109399   109374 
  109409   109443   109317   109121   109011   109005   109036   109084 
  109186   109301   109381   109412   109385   109352   109306   109244 
  109271   109381   109506   109593   109548   109379   109254   109285 
  109370   109370   109312   109298   109356   109414   109383   109264 
  109166   109174   109237   109281   109313   109345   109360   109362 
  109375   109402   109420   109416   109409   109395   109344   109263 
  109256   109383   109503   109510   109439   109329   109264   109279 
  109314   109355   109363   109297   109224   109206   109233   109264 
  109235   109178   109225   109328   109339   109332   109391   109368 
  109269   109266   109289   109229   109181   109210   109283   109332 
  109352   109377   109389   109405   109399   109305   109210   109170 
  109159   109255   109350   109297   109269   109331   109343   109344 
  109414   109498   109528   109497   109455   109456   109478   109490 
  109491   109478   109464   109443   109404   109377   109352   109329 
  109305   109223   109120   109098   109155   109235   109318   109391 
  109402   109377   109406   109486   109489   109393   109372   109441 
  109422   109355   109358   109371   109347   109309   109273   109269 
  109304   109339   109391   109479   109534   109559   109617   109645 
  109617   109605   109544   109386   109285   109304   109337   109337 
  109290   109209   109198   109269   109310   109350   109455   109474 
  109377   109356   109393   109352   109266   109233   109321   109428 
  109441   109440   109458   109447   109412   109385   109381   109374 
  109351   109343   109374   109409   109418   109471   109559   109536 
  109436   109417   109424   109356   109281   109243   109189   109117 
  109065   109043   109132   109304   109356   109291   109285   109340 
  109417   109495   109480   109372   109329   109404   109476   109429 
  109317   109274   109300   109329   109331   109278   109254   109345 
  109441   109476   109548   109611   109603   109583   109528   109377 
  109225   109212   109290   109286   109206   109200   109242   109239 
  109244   109300   109308   109304   109383   109435   109404   109363 
  109308   109316   109382   109363   109290   109256   109323   109449 
  109494   109466   109453   109467   109482   109456   109378   109270 
  109177   109142   109155   109186   109224   109220   109186   109229 
  109287   109223   109159   109190   109202   109175   109189   109264 
  109302   109260   109275   109360   109379   109372   109435   109475 
  109401   109296   109262   109259   109237   109248   109274   109275 
  109312   109383   109444   109476   109399   109260   109232   109277 
  109279   109279   109282   109281   109348   109429   109397   109313 
  109293   109323   109351   109364   109386   109398   109383   109448 
  109621   109669   109510   109367   109378   109456   109445   109308 
  109167   109088   109038   109015   109055   109161   109254   109354 
  109485   109552   109591   109678   109696   109614   109572   109586 
  109560   109547   109644   109744   109718   109588   109401   109223 
  109159   109202   109271   109356   109495   109663   109736   109622 
  109421   109329   109348   109329   109278   109273   109340   109464 
  109590   109698   109791   109819   109787   109742   109722   109732 
  109698   109567   109362   109173   109119   109158   109220   109378 
  109591   109750   109831   109792   109675   109638   109672   109595 
  109417   109279   109120   108907   108787   108723   108630   108626 
  108737   108874   109090   109379   109598   109718   109788   109775 
  109702   109630   109557   109431   109231   109001   108747   108608 
  108783   109053   109134   109112   109125   109154   109138   109128 
  109206   109314   109391   109431   109412   109386   109378   109331 
  109248   109189   109165   109143   109108   109093   109129   109208 
  109279   109314   109331   109335   109374   109491   109575   109493 
  109283   109108   109020   108988   109088   109267   109340   109390 
  109518   109549   109364   109123   109066   109236   109391   109310 
  109020   108799   108918   109269   109641   110019   110219   110069 
  109782   109529   109286   109154   109205   109298   109347   109395 
  109416   109435   109567   109674   109663   109680   109651   109453 
  109259   109146   109039   108976   109000   109155   109476   109777 
  109815   109636   109421   109204   109011   109009   109113   108999 
  108757   108769   109027   109304   109570   109826   109995   110095 
  110143   110062   109871   109625   109277   108931   108884   109171 
  109449   109453   109347   109340   109347   109256   109067   108834 
  108724   108861   109167   109495   109769   110002   110208   110223 
  109910   109479   109161   108928   108711   108585   108641   108787 
  108974   109225   109440   109571   109719   109929   110041   109980 
  109954   110065   110161   110065   109799   109512   109142   108810 
  108965   109418   109529   109339   109247   109197   108967   108665 
  108529   108575   108687   108908   109355   109919   110281   110157 
  109611   109058   108868   109113   109514   109732   109721   109532 
  109252   109075   109015   109074   109381   109809   110101   110219 
  110187   109996   109757   109599   109405   109051   108715   108569 
  108552   108637   108904   109232   109409   109428   109281   108982 
  108820   109089   109665   110089   110110   109942   109876   109879 
  109721   109428   109266   109255   109210   109125   109042   108885 
  108699   108614   108571   108556   108724   109051   109347   109493 
  109482   109424   109368   109308   109337   109471   109490   109290 
  109116   109224   109595   109992   110201   110228   110128   109885 
  109543   109220   108932   108594   108353   108461   108737   108869 
  109026   109425   109796   109904   109836   109695   109602   109475 
  109055   108557   108413   108608   108984   109447   109790   109836 
  109590   109224   108992   108988   109108   109274   109459   109610 
  109726   109841   110010   110247   110361   110168   109749   109300 
  109032   109062   109146   109031   108916   109077   109455   109837 
  109937   109606   109062   108746   108874   109094   108981   108720 
  108697   108835   108945   109156   109412   109409   109274   109229 
  109136   108969   108930   109200   109726   110139   110208   110004 
  109626   109331   109296   109301   109281   109414   109628   109902 
  110331   110574   110336   109908   109495   108986   108577   108610 
  108959   109210   109152   108930   108843   108992   109231   109359 
  109188   108850   108812   109116   109340   109471   109833   110268 
  110407   110270   110027   109763   109506   109289   109213   109277 
  109264   109015   108711   108720   109062   109424   109718   109984 
  109995   109640   109208   108913   108750   108762   108969   109190 
  109294   109418   109598   109620   109487   109414   109483   109574 
  109482   109208   108984   108913   108839   108657   108552   108669 
  108899   109115   109281   109441   109668   109917   110042   109962 
  109750   109552   109462   109491   109620   109829   110062   110115 
  109852   109490   109221   109032   109004   109136   109198   109158 
  109212   109414   109657   109798   109659   109255   108835   108500 
  108249   108174   108278   108602   109182   109737   110019   110137 
  110344   110735   111022   110866   110332   109753   109348   109192 
  109200   109150   108943   108723   108661   108862   109309   109709 
  109798   109730   109740   109830   109988   110135   110008   109513 
  108923   108585   108553   108626   108706   108854   109032   109134 
  109192   109348   109648   109898   109949   109896   109788   109518 
  109063   108606   108396   108541   108903   109233   109406   109543 
  109768   109926   109876   109707   109489   109305   109258   109258 
  109186   109061   108926   108882   108950   108927   108778   108722 
  108743   108642   108549   108718   109015   109206   109246   109178 
  109205   109391   109487   109452   109524   109633   109499   109290 
  109412   109765   109933   109730   109382   109262   109332   109290 
  109202   109335   109621   109736   109570   109372   109362   109503 
  109737   109989   110135   110092   109884   109602   109202   108692 
  108371   108430   108703   108912   108919   108839   108900   109201 
  109570   109749   109709   109548   109414   109374   109308   109282 
  109433   109579   109656   109822   110019   110057   109877   109695 
  109692   109636   109360   109098   109011   109042   109101   109078 
  108986   108994   109093   109129   109177   109251   109166   109023 
  109023   109139   109343   109529   109532   109390   109260   109262 
  109323   109354   109447   109566   109540   109413   109335   109378 
  109506   109561   109544   109644   109753   109655   109521   109539 
  109679   109786   109611   109293   109219   109328   109395   109409 
  109399   109404   109327   109063   108773   108585   108480   108576 
  109046   109823   110515   110763   110670   110465   110193   109937 
  109657   109220   108882   108880   108982   109055   109140   109067 
  108841   108853   109243   109683   109952   110107   110184   110097 
  109894   109749   109567   109244   109019   108928   108835   108868 
  109054   109182   109237   109370   109534   109533   109340   109166 
  109150   109204   109254   109372   109582   109755   109822   109907 
  110062   110041   109678   109228   108930   108751   108679   108708 
  108712   108660   108689   108862   109108   109306   109397   109404 
  109433   109630   109869   109811   109487   109223   109117   109042 
  108924   108864   108895   108931   109088   109426   109620   109468 
  109223   109127   109217   109393   109408   109293   109391   109637 
  109760   109838   109907   109845   109710   109547   109260   108912 
  108722   108750   108913   109212   109479   109471   109393   109584 
  109865   109841   109543   109302   109215   109204   109233   109225 
  109217   109363   109572   109652   109656   109688   109687   109622 
  109549   109486   109437   109387   109250   108985   108747   108707 
  108762   108722   108646   108656   108729   108791   108828   108927 
  109065   109170   109354   109610   109721   109629   109431   109200 
  109035   109031   109111   109112   109051   109097   109348   109624 
  109710   109750   109819   109753   109610   109478   109281   109035 
  108884   109011   109313   109331   109061   108982   109140   109301 
  109548   109895   110107   110106   109949   109684   109416   109210 
  109053   109026   109161   109258   109215   109178   109240   109360 
  109502   109580   109537   109472   109449   109374   109246   109242 
  109424   109655   109867   110166   110508   110646   110485   110162 
  109827   109552   109270   108899   108573   108491   108643   108842 
  108870   108803   108892   109077   109192   109206   109096   109000 
  109086   109304   109610   109875   109871   109686   109513   109379 
  109382   109568   109706   109638   109509   109421   109309   109171 
  109069   109040   109080   109205   109475   109753   109837   109798 
  109803   109814   109738   109576   109316   109038   108984   109174 
  109337   109289   109152   109167   109305   109308   109204   109254 
  109422   109548   109679   109775   109626   109267   108984   108891 
  108908   109016   109197   109378   109522   109564   109501   109525 
  109757   110050   110173   110038   109771   109578   109483   109377 
  109183   108982   108978   109198   109394   109441   109408   109282 
  109102   109021   109032   108985   108822   108665   108638   108684 
  108719   108816   109001   109169   109275   109360   109429   109460 
  109447   109363   109232   109206   109401   109701   109868   109796 
  109582   109335   109120   109030   108993   108824   108558   108419 
  108523   108832   109205   109372   109271   109217   109367   109502 
  109485   109402   109320   109229   109196   109258   109320   109302 
  109229   109163   109178   109274   109360   109460   109620   109750 
  109871   110019   110034   109942   109972   110026   109921   109772 
  109637   109399   109054   108780   108760   108951   109215   109495 
  109759   109926   109937   109844   109745   109684   109669   109638 
  109537   109398   109266   109202   109219   109233   109221   109267 
  109389   109571   109807   109999   110110   110172   110085   109929 
  109923   109945   109822   109749   109822   109849   109756   109633 
  109516   109335   109065   108908   109030   109244   109320   109320 
  109370   109371   109215   108993   108876   108905   108931   108823 
  108687   108658   108729   108850   109004   109224   109536   109894 
  110211   110343   110222   109910   109485   109089   108884   108880 
  108974   109039   109017   109020   109131   109289   109476   109625 
  109512   109209   109019   108953   108976   109144   109309   109332 
  109273   109205   109174   109144   109059   109075   109289   109510 
  109618   109661   109641   109572   109512   109476   109475   109485 
  109425   109256   109051   108904   108837   108893   109096   109262 
