Origin Time       2024/04/02 04:24:00
Lat.              40.133
Long.             141.712
Depth. (km)       71
Mag.              6.0
Station Code      TKCH10
Station Lat.      43.3337
Station Long.     142.9448
Station Height(m) 265
Record Time       2024/04/02 04:26:06
Sampling Freq(Hz) 100Hz
Duration Time(s)  120
Dir.              3
Scale Factor      2940(gal)/6170270
Max. Acc. (gal)   0.189
Last Correction   2024/04/02 04:25:51
Memo.             
[...]
  -40561   -40582   -40647   -40672   -40640   -40614   -40606   -40588 
  -40580   -40605   -40624   -40621   -40634   -40644   -40624   -40607 
  -40604   -40577   -40554   -40566   -40579   -40584   -40556   -40484 
  -40452   -40478   -40473   -40431   -40432   -40481   -40516   -40521 
  -40528   -40556   -40602   -40632   -40612   -40575   -40563   -40551 
  -40543   -40575   -40587   -40533   -40482   -40481   -40509   -40543 
  -40527   -40450   -40419   -40478   -40528   -40536   -40573   -40636 
  -40672   -40678   -40669   -40646   -40643   -40698   -40744   -40697 
  -40629   -40622   -40627   -40605   -40569   -40508   -40452   -40444 
  -40459   -40479   -40485   -40445   -40410   -40424   -40437   -40458 
  -40498   -40505   -40510   -40554   -40579   -40567   -40571   -40586 
  -40596   -40628   -40646   -40614   -40605   -40637   -40608   -40512 
  -40489   -40549   -40540   -40480   -40498   -40559   -40575   -40571 
  -40593   -40613   -40605   -40616   -40662   -40707   -40728   -40704 
  -40650   -40610   -40587   -40577   -40584   -40575   -40531   -40509 
  -40522   -40520   -40511   -40545   -40593   -40613   -40629   -40660 
  -40698   -40727   -40704   -40630   -40589   -40634   -40689   -40674 
  -40641   -40634   -40592   -40513   -40497   -40552   -40579   -40564 
  -40547   -40528   -40524   -40538   -40529   -40506   -40513   -40529 
  -40536   -40549   -40538   -40513   -40526   -40547   -40544   -40541 
  -40534   -40540   -40570   -40561   -40520   -40532   -40576   -40556 
  -40506   -40543   -40613   -40601   -40582   -40619   -40636   -40594 
  -40524   -40474   -40470   -40495   -40505   -40476   -40446   -40450 
  -40473   -40495   -40491   -40474   -40494   -40546   -40592   -40624 
  -40653   -40669   -40655   -40622   -40606   -40618   -40608   -40567 
  -40554   -40566   -40562   -40565   -40600   -40631   -40613   -40570 
  -40533   -40516   -40523   -40503   -40446   -40433   -40455   -40454 
  -40449   -40463   -40475   -40476   -40496   -40554   -40613   -40634 
  -40633   -40640   -40655   -40666   -40651   -40621   -40615   -40626 
  -40624   -40616   -40623   -40632   -40617   -40595   -40606   -40622 
  -40579   -40525   -40544   -40572   -40561   -40594   -40636   -40596 
  -40551   -40555   -40559   -40552   -40541   -40518   -40521   -40565 
  -40563   -40492   -40463   -40515   -40567   -40562   -40545   -40557 
  -40549   -40517   -40524   -40547   -40539   -40520   -40513   -40520 
  -40548   -40596   -40633   -40647   -40668   -40677   -40671   -40670 
  -40625   -40554   -40567   -40615   -40587   -40545   -40563   -40594 
  -40585   -40553   -40547   -40571   -40595   -40612   -40599   -40543 
  -40527   -40599   -40650   -40614   -40564   -40561   -40596   -40631 
  -40628   -40573   -40519   -40512   -40511   -40501   -40517   -40541 
  -40552   -40578   -40597   -40566   -40533   -40539   -40550   -40558 
  -40566   -40554   -40531   -40531   -40554   -40565   -40545   -40503 
  -40492   -40545   -40582   -40550   -40550   -40611   -40635   -40603 
  -40575   -40559   -40531   -40497   -40489   -40486   -40453   -40437 
  -40467   -40488   -40508   -40557   -40592   -40580   -40536   -40516 
  -40540   -40568   -40579   -40548   -40514   -40547   -40565   -40525 
  -40526   -40569   -40576   -40565   -40580   -40586   -40566   -40557 
  -40551   -40552   -40590   -40604   -40565   -40555   -40590   -40614 
  -40623   -40621   -40615   -40608   -40580   -40545   -40544   -40593 
  -40625   -40596   -40573   -40561   -40538   -40586   -40687   -40692 
  -40599   -40589   -40673   -40683   -40607   -40540   -40494   -40474 
  -40497   -40526   -40515   -40486   -40489   -40510   -40521   -40524 
  -40512   -40489   -40496   -40555   -40599   -40584   -40581   -40611 
  -40633   -40636   -40610   -40565   -40571   -40633   -40651   -40631 
  -40619   -40572   -40546   -40608   -40638   -40573   -40531   -40596 
  -40672   -40646   -40586   -40578   -40572   -40517   -40476   -40525 
  -40595   -40572   -40512   -40503   -40511   -40498   -40505   -40509 
  -40462   -40465   -40545   -40561   -40511   -40526   -40608   -40635 
  -40591   -40604   -40663   -40660   -40641   -40658   -40650   -40631 
  -40657   -40676   -40638   -40585   -40552   -40514   -40456   -40409 
  -40406   -40445   -40502   -40549   -40582   -40607   -40608   -40593 
  -40600   -40623   -40646   -40668   -40660   -40601   -40536   -40528 
  -40535   -40489   -40460   -40488   -40493   -40474   -40482   -40480 
  -40450   -40456   -40516   -40549   -40530   -40534   -40570   -40586 
  -40584   -40609   -40654   -40663   -40636   -40606   -40589   -40588 
  -40600   -40608   -40593   -40570   -40580   -40619   -40644   -40626 
  -40575   -40568   -40637   -40684   -40648   -40597   -40590   -40587 
  -40568   -40561   -40533   -40481   -40482   -40531   -40555   -40550 
  -40552   -40547   -40517   -40508   -40532   -40537   -40533   -40583 
  -40664   -40673   -40629   -40617   -40631   -40635   -40615   -40577 
  -40539   -40504   -40505   -40552   -40591   -40588   -40547   -40523 
  -40565   -40590   -40549   -40523   -40525   -40496   -40465   -40492 
  -40545   -40569   -40575   -40577   -40561   -40560   -40597   -40615 
  -40610   -40618   -40611   -40589   -40600   -40613   -40594   -40578 
  -40566   -40556   -40559   -40532   -40502   -40517   -40526   -40499 
  -40474   -40470   -40474   -40494   -40536   -40549   -40523   -40550 
  -40637   -40679   -40656   -40648   -40675   -40689   -40660   -40605 
  -40561   -40559   -40577   -40591   -40610   -40613   -40598   -40586 
  -40552   -40528   -40572   -40625   -40635   -40637   -40619   -40583 
  -40586   -40599   -40566   -40547   -40578   -40605   -40592   -40577 
  -40595   -40592   -40537   -40532   -40610   -40641   -40590   -40583 
  -40644   -40672   -40655   -40645   -40646   -40637   -40612   -40578 
  -40544   -40529   -40543   -40561   -40549   -40509   -40491   -40517 
  -40536   -40508   -40455   -40424   -40442   -40477   -40479   -40446 
  -40421   -40432   -40444   -40449   -40480   -40497   -40491   -40526 
  -40582   -40587   -40543   -40525   -40563   -40581   -40554   -40522 
  -40490   -40486   -40516   -40535   -40527   -40483   -40447   -40498 
  -40566   -40559   -40546   -40583   -40606   -40602   -40614   -40618 
  -40612   -40663   -40740   -40749   -40695   -40626   -40577   -40607 
  -40664   -40621   -40535   -40519   -40527   -40510   -40485   -40465 
  -40490   -40541   -40571   -40602   -40653   -40700   -40719   -40675 
  -40590   -40538   -40548   -40572   -40570   -40543   -40498   -40455 
  -40451   -40469   -40457   -40447   -40483   -40513   -40525   -40558 
  -40590   -40598   -40596   -40597   -40599   -40601   -40576   -40525 
  -40522   -40573   -40600   -40601   -40621   -40633   -40597   -40567 
  -40590   -40616   -40599   -40557   -40519   -40490   -40480   -40509 
  -40544   -40535   -40536   -40606   -40667   -40640   -40596   -40587 
  -40561   -40533   -40550   -40556   -40527   -40522   -40518   -40460 
  -40412   -40425   -40430   -40430   -40493   -40580   -40617   -40611 
  -40604   -40611   -40618   -40605   -40583   -40589   -40628   -40651 
  -40661   -40684   -40668   -40590   -40553   -40565   -40550   -40545 
  -40561   -40531   -40481   -40496   -40547   -40549   -40541   -40588 
  -40628   -40619   -40633   -40672   -40656   -40589   -40540   -40507 
  -40440   -40385   -40416   -40464   -40446   -40422   -40470   -40531 
  -40545   -40562   -40594   -40600   -40615   -40659   -40670   -40650 
  -40652   -40677   -40691   -40681   -40671   -40702   -40775   -40815 
  -40784   -40751   -40752   -40757   -40750   -40707   -40640   -40604 
  -40584   -40533   -40498   -40506   -40497   -40480   -40522   -40582 
  -40588   -40545   -40491   -40460   -40464   -40473   -40470   -40462 
  -40452   -40426   -40380   -40366   -40416   -40457   -40468   -40539 
  -40635   -40628   -40576   -40602   -40666   -40697   -40709   -40717 
  -40706   -40665   -40630   -40612   -40576   -40548   -40568   -40585 
  -40552   -40524   -40557   -40601   -40591   -40559   -40567   -40608 
  -40614   -40573   -40534   -40527   -40546   -40550   -40497   -40443 
  -40470   -40549   -40587   -40551   -40526   -40585   -40661   -40677 
  -40677   -40694   -40698   -40674   -40640   -40608   -40576   -40571 
  -40612   -40632   -40612   -40623   -40635   -40565   -40468   -40454 
  -40492   -40519   -40557   -40602   -40604   -40569   -40520   -40482 
  -40466   -40455   -40462   -40483   -40476   -40452   -40449   -40444 
  -40423   -40416   -40424   -40426   -40418   -40406   -40414   -40444 
  -40461   -40475   -40480   -40452   -40442   -40460   -40444   -40415 
  -40429   -40465   -40492   -40512   -40533   -40547   -40544   -40535 
  -40551   -40586   -40601   -40607   -40637   -40669   -40655   -40598 
  -40547   -40554   -40622   -40695   -40732   -40751   -40765   -40745 
  -40728   -40764   -40785   -40728   -40656   -40590   -40502   -40461 
  -40484   -40472   -40444   -40478   -40506   -40454   -40403   -40415 
  -40420   -40374   -40334   -40344   -40401   -40447   -40422   -40386 
  -40416   -40457   -40464   -40482   -40527   -40588   -40670   -40764 
  -40837   -40866   -40847   -40798   -40736   -40669   -40657   -40722 
  -40755   -40722   -40685   -40640   -40568   -40525   -40522   -40507 
  -40486   -40483   -40464   -40418   -40400   -40415   -40420   -40436 
  -40484   -40533   -40592   -40675   -40710   -40671   -40634   -40632 
  -40658   -40705   -40732   -40725   -40712   -40725   -40769   -40792 
  -40769   -40740   -40728   -40713   -40684   -40645   -40591   -40526 
  -40473   -40440   -40411   -40377   -40380   -40428   -40451   -40420 
  -40384   -40409   -40474   -40483   -40444   -40461   -40531   -40597 
  -40659   -40733   -40802   -40843   -40845   -40794   -40714   -40667 
  -40650   -40599   -40513   -40472   -40498   -40505   -40480   -40471 
  -40460   -40455   -40490   -40517   -40504   -40520   -40579   -40613 
  -40610   -40590   -40562   -40548   -40540   -40523   -40551   -40647 
  -40712   -40693   -40671   -40674   -40638   -40569   -40526   -40509 
  -40511   -40559   -40607   -40599   -40576   -40585   -40597   -40590 
  -40616   -40690   -40723   -40691   -40656   -40620   -40556   -40486 
  -40429   -40399   -40415   -40428   -40395   -40396   -40484   -40582 
  -40642   -40673   -40685   -40700   -40698   -40667   -40644   -40626 
  -40586   -40546   -40529   -40529   -40530   -40515   -40488   -40462 
  -40419   -40361   -40322   -40329   -40397   -40476   -40478   -40417 
  -40368   -40360   -40386   -40434   -40516   -40623   -40694   -40728 
  -40767   -40769   -40692   -40596   -40544   -40541   -40567   -40571 
  -40556   -40551   -40512   -40460   -40478   -40530   -40538   -40531 
  -40572   -40631   -40656   -40672   -40676   -40628   -40569   -40572 
  -40632   -40677   -40689   -40715   -40726   -40686   -40652   -40621 
  -40561   -40546   -40569   -40555   -40554   -40585   -40572   -40526 
  -40519   -40542   -40570   -40600   -40599   -40582   -40610   -40657 
  -40666   -40648   -40620   -40568   -40521   -40490   -40439   -40384 
  -40380   -40414   -40439   -40444   -40435   -40401   -40376   -40409 
  -40474   -40530   -40611   -40712   -40751   -40730   -40709   -40686 
  -40657   -40645   -40662   -40692   -40702   -40681   -40667   -40654 
  -40577   -40473   -40427   -40405   -40395   -40445   -40521   -40574 
  -40608   -40615   -40607   -40639   -40696   -40741   -40802   -40866 
  -40873   -40831   -40777   -40743   -40717   -40662   -40617   -40628 
  -40632   -40594   -40576   -40566   -40508   -40459   -40472   -40512 
  -40555   -40583   -40581   -40574   -40541   -40466   -40448   -40501 
  -40501   -40467   -40483   -40486   -40465   -40498   -40531   -40514 
  -40533   -40597   -40628   -40628   -40635   -40642   -40641   -40633 
  -40601   -40540   -40511   -40537   -40530   -40468   -40416   -40388 
  -40380   -40397   -40429   -40475   -40548   -40624   -40644   -40619 
  -40615   -40623   -40584   -40540   -40555   -40577   -40562   -40560 
  -40596   -40630   -40613   -40555   -40517   -40536   -40585   -40628 
  -40659   -40664   -40627   -40603   -40614   -40609   -40605   -40658 
  -40708   -40702   -40698   -40689   -40641   -40595   -40565   -40534 
  -40525   -40518   -40478   -40448   -40456   -40464   -40458   -40465 
  -40496   -40549   -40609   -40656   -40675   -40670   -40664   -40664 
  -40650   -40625   -40605   -40589   -40575   -40566   -40553   -40530 
  -40506   -40476   -40433   -40394   -40385   -40404   -40422   -40429 
  -40469   -40546   -40584   -40583   -40595   -40605   -40612   -40642 
  -40667   -40645   -40614   -40627   -40648   -40629   -40597   -40581 
  -40560   -40530   -40527   -40554   -40589   -40603   -40586   -40560 
  -40501   -40402   -40358   -40399   -40445   -40456   -40464   -40487 
  -40521   -40546   -40538   -40531   -40555   -40586   -40615   -40633 
  -40621   -40575   -40514   -40473   -40457   -40423   -40362   -40327 
  -40333   -40348   -40384   -40454   -40515   -40543   -40552   -40549 
  -40568   -40636   -40697   -40693   -40653   -40626   -40609   -40586 
  -40541   -40482   -40465   -40505   -40547   -40569   -40580   -40587 
  -40631   -40720   -40789   -40803   -40791   -40802   -40833   -40835 
  -40800   -40756   -40734   -40739   -40717   -40654   -40621   -40621 
  -40599   -40566   -40536   -40490   -40432   -40370   -40309   -40243 
  -40180   -40168   -40209   -40221   -40198   -40220   -40259   -40246 
  -40254   -40328   -40393   -40439   -40482   -40501   -40516   -40558 
  -40591   -40590   -40587   -40622   -40685   -40727   -40731   -40731 
  -40749   -40778   -40799   -40777   -40707   -40629   -40566   -40517 
  -40474   -40413   -40330   -40272   -40249   -40242   -40255   -40259 
  -40252   -40297   -40396   -40477   -40526   -40602   -40677   -40680 
  -40672   -40711   -40745   -40763   -40780   -40756   -40694   -40650 
  -40626   -40594   -40564   -40564   -40578   -40567   -40547   -40560 
  -40576   -40555   -40556   -40619   -40697   -40757   -40777   -40755 
  -40752   -40801   -40857   -40887   -40896   -40881   -40849   -40827 
  -40821   -40795   -40743   -40698   -40675   -40657   -40613   -40520 
  -40431   -40411   -40422   -40419   -40414   -40408   -40425   -40484 
  -40539   -40560   -40570   -40594   -40633   -40660   -40664   -40657 
  -40642   -40621   -40608   -40588   -40549   -40533   -40539   -40530 
  -40502   -40465   -40430   -40402   -40365   -40338   -40331   -40317 
  -40332   -40400   -40442   -40432   -40425   -40429   -40440   -40501 
  -40598   -40666   -40706   -40732   -40721   -40676   -40655   -40659 
  -40637   -40619   -40661   -40709   -40698   -40655   -40608   -40580 
  -40572   -40558   -40566   -40613   -40635   -40612   -40587   -40579 
  -40554   -40477   -40376   -40327   -40334   -40353   -40384   -40411 
  -40410   -40425   -40478   -40535   -40591   -40641   -40664   -40679 
  -40700   -40725   -40735   -40718   -40682   -40639   -40615   -40600 
  -40555   -40513   -40532   -40614   -40705   -40735   -40710   -40695 
  -40696   -40668   -40592   -40515   -40491   -40498   -40479   -40433 
  -40407   -40415   -40424   -40406   -40386   -40409   -40458   -40482 
  -40502   -40545   -40566   -40553   -40554   -40587   -40621   -40638 
  -40628   -40585   -40530   -40489   -40471   -40508   -40595   -40658 
  -40678   -40701   -40715   -40699   -40709   -40761   -40771   -40746 
  -40746   -40719   -40637   -40571   -40532   -40497   -40503   -40532 
  -40510   -40474   -40481   -40493   -40496   -40513   -40516   -40500 
  -40509   -40524   -40500   -40474   -40497   -40532   -40539   -40546 
  -40570   -40607   -40658   -40709   -40747   -40771   -40773   -40757 
  -40763   -40795   -40808   -40773   -40711   -40671   -40666   -40669 
  -40674   -40678   -40658   -40630   -40623   -40601   -40534   -40472 
  -40448   -40450   -40457   -40436   -40388   -40369   -40378   -40371 
  -40368   -40399   -40436   -40456   -40476   -40501   -40512   -40530 
  -40597   -40684   -40734   -40733   -40705   -40691   -40690   -40676 
  -40645   -40616   -40604   -40591   -40541   -40481   -40444   -40414 
  -40405   -40441   -40460   -40430   -40394   -40377   -40379   -40381 
  -40356   -40357   -40426   -40490   -40494   -40487   -40489   -40465 
  -40456   -40511   -40571   -40593   -40617   -40648   -40654   -40629 
  -40594   -40574   -40566   -40559   -40565   -40571   -40549   -40508 
  -40478   -40474   -40502   -40538   -40550   -40545   -40563   -40620 
  -40687   -40726   -40738   -40750   -40766   -40761   -40759   -40782 
  -40769   -40724   -40711   -40698   -40650   -40609   -40585   -40555 
  -40535   -40524   -40502   -40487   -40468   -40411   -40351   -40326 
  -40308   -40296   -40324   -40364   -40376   -40405   -40475   -40533 
  -40566   -40591   -40609   -40626   -40636   -40623   -40608   -40622 
  -40645   -40649   -40640   -40622   -40595   -40566   -40518   -40452 
  -40390   -40345   -40312   -40266   -40223   -40223   -40225   -40190 
  -40181   -40252   -40358   -40438   -40496   -40567   -40646   -40698 
  -40724   -40733   -40722   -40730   -40776   -40809   -40795   -40775 
  -40774   -40769   -40753   -40747   -40740   -40717   -40698   -40682 
  -40666   -40671   -40682   -40675   -40667   -40679   -40704   -40710 
  -40698   -40692   -40694   -40710   -40739   -40752   -40748   -40735 
  -40694   -40646   -40616   -40607   -40612   -40594   -40547   -40526 
  -40543   -40561   -40550   -40520   -40514   -40535   -40545   -40536 
  -40529   -40530   -40537   -40551   -40564   -40581   -40603   -40612 
  -40609   -40602   -40581   -40562   -40561   -40540   -40498   -40486 
  -40498   -40482   -40445   -40432   -40423   -40406   -40434   -40479 
  -40472   -40460   -40489   -40520   -40533   -40548   -40572   -40592 
  -40609   -40645   -40706   -40750   -40777   -40819   -40845   -40845 
  -40850   -40840   -40795   -40752   -40717   -40653   -40569   -40517 
  -40501   -40485   -40466   -40442   -40397   -40380   -40427   -40475 
  -40485   -40499   -40537   -40566   -40568   -40559   -40553   -40539 
  -40513   -40493   -40487   -40464   -40427   -40435   -40472   -40460 
  -40426   -40449   -40505   -40536   -40533   -40507   -40483   -40490 
  -40516   -40538   -40552   -40543   -40529   -40526   -40508   -40478 
  -40455   -40440   -40454   -40482   -40472   -40434   -40410   -40413 
  -40451   -40505   -40542   -40585   -40648   -40674   -40669   -40705 
  -40756   -40775   -40788   -40805   -40792   -40744   -40696   -40667 
  -40641   -40609   -40579   -40543   -40504   -40489   -40492   -40485 
  -40492   -40535   -40569   -40551   -40533   -40568   -40615   -40644 
  -40676   -40697   -40694   -40690   -40682   -40651   -40620   -40609 
  -40590   -40559   -40558   -40567   -40526   -40467   -40447   -40450 
  -40459   -40474   -40481   -40470   -40462   -40464   -40452   -40435 
  -40437   -40438   -40428   -40425   -40423   -40394   -40354   -40342 
  -40355   -40381   -40444   -40524   -40581   -40616   -40631   -40633 
  -40644   -40657   -40677   -40719   -40756   -40760   -40753   -40739 
  -40683   -40615   -40594   -40606   -40607   -40597   -40585   -40578 
  -40571   -40562   -40546   -40540   -40564   -40579   -40571   -40583 
