Origin Time       2024/04/02 04:24:00
Lat.              40.133
Long.             141.712
Depth. (km)       71
Mag.              6.0
Station Code      TKCH05
Station Lat.      43.1211
Station Long.     143.6181
Station Height(m) 65
Record Time       2024/04/02 04:25:27
Sampling Freq(Hz) 100Hz
Duration Time(s)  124
Dir.              6
Scale Factor      7845(gal)/8223790
Max. Acc. (gal)   2.108
Last Correction   2024/04/02 04:25:27
Memo.             
[...]
    9200     9049     8953     8938     8985     9018     8992     9038 
    9132     9085     8977     9011     9202     9406     9320     8972 
    8905     9139     9105     8830     8714     8781     8937     9215 
    9543     9645     9346     8928     8766     8839     8955     9028 
    9050     9057     9073     9046     8950     8884     8932     9008 
    9067     9185     9234     9096     9024     9197     9398     9445 
    9401     9319     9100     8797     8707     8833     8928     9030 
    9097     8993     8989     9189     9228     9055     8972     9055 
    9115     9054     9094     9305     9300     9043     8981     9066 
    9019     9158     9560     9622     9231     8842     8645     8698 
    8957     9132     9279     9579     9614     9159     8775     8743 
    8783     8822     8974     9197     9364     9331     9096     8891 
    8958     9229     9323     9127     8976     9063     9217     9290 
    9262     9088     8869     8816     8807     8675     8679     8934 
    9170     9325     9425     9348     9197     9157     9059     8783 
    8683     8972     9273     9346     9350     9248     8932     8710 
    8850     9043     9015     9011     9166     9240     9174     9123 
    9105     9089     9074     9034     9043     9159     9235     9117 
    8893     8862     9124     9346     9273     9108     9132     9239 
    9154     8954     8866     8943     9134     9277     9246     9109 
    8992     8977     9036     9107     9215     9282     9180     8972 
    8773     8708     8880     9135     9297     9412     9367     9000 
    8684     8857     9247     9381     9331     9355     9335     9069 
    8793     8792     8918     9062     9342     9570     9433     9080 
    8884     8893     8985     9155     9254     9144     9080     9074 
    8808     8538     8750     9232     9424     9197     8955     8954 
    8881     8696     8877     9382     9582     9375     9225     9146 
    8896     8727     8783     8814     8854     9000     9200     9441 
    9443     9040     8730     8748     8791     8860     9124     9414 
    9433     9109     8737     8704     9022     9302     9279     9158 
    9101     8996     8957     9109     9267     9320     9205     8974 
    8955     9170     9271     9154     8969     8904     9026     9121 
    9005     8892     9036     9262     9288     9165     9090     9132 
    9201     9235     9182     9004     8908     9012     9015     8810 
    8730     8922     9104     9067     9020     9142     9275     9366 
    9458     9400     9189     9047     8981     8860     8723     8761 
    9047     9367     9447     9316     9212     9175     9076     8926 
    8868     8973     9196     9360     9333     9153     8928     8779 
    8714     8735     8995     9319     9229     8850     8726     8892 
    9053     9184     9386     9639     9740     9437     8941     8688 
    8649     8699     8942     9274     9474     9425     9082     8715 
    8708     8912     8877     8741     8980     9377     9333     8976 
    8850     8973     9066     9198     9393     9325     9003     8818 
    8903     9094     9247     9366     9494     9454     9099     8792 
    8914     9154     9170     9294     9678     9721     9177     8658 
    8611     8788     8916     9061     9275     9429     9404     9198 
    8922     8775     8920     9180     9223     9088     8986     8947 
    8982     9092     9116     9054     9067     8995     8683     8518 
    8829     9296     9439     9282     9111     8954     8904     9089 
    9286     9425     9558     9377     9015     8993     9066     8878 
    8796     9104     9464     9406     9047     8900     8974     9063 
    9221     9270     9059     8899     8958     9074     9142     9192 
    9143     8888     8733     8931     9124     9120     9177     9254 
    9142     8939     8861     8935     9085     9278     9370     9194 
    8923     8850     8922     8892     8789     8866     9120     9278 
    9211     9050     9000     9070     9184     9347     9344     8985 
    8688     8775     8869     8785     8904     9274     9373     9046 
    8857     9136     9421     9340     9180     9174     9185     9201 
    9305     9273     8896     8475     8527     9054     9385     9128 
    8762     8853     9159     9055     8791     9084     9521     9309 
    8915     8999     9205     9177     9101     9066     9049     9080 
    9078     8930     8715     8757     9143     9401     9198     8964 
    9157     9466     9382     9103     9059     9050     8815     8671 
    8799     8966     9185     9513     9572     9273     9070     9003 
    8787     8635     8860     9288     9524     9364     9057     9038 
    9227     9174     8981     9000     9001     8839     8922     9297 
    9413     9012     8706     9009     9331     9216     9157     9225 
    9066     8820     8734     8796     8958     9182     9381     9383 
    9265     9265     9285     9124     8856     8749     9077     9652 
    9823     9337     8735     8683     9057     9126     8835     8843 
    9193     9316     9094     8877     8864     9004     9180     9186 
    8985     8911     9050     9112     9212     9401     9240     8831 
    8652     8700     8846     9042     9225     9385     9367     9180 
    9069     8977     8887     9011     9175     9208     9248     9250 
    9188     9093     8818     8613     8857     9178     9208     9269 
    9508     9587     9336     8981     8850     8896     8932     9138 
    9370     9138     8737     8671     8721     8695     8880     9410 
    9857     9661     8970     8603     8915     9306     9231     9101 
    9416     9664     9267     8688     8623     8966     9198     9271 
    9406     9350     8961     8733     8826     8835     8752     8954 
    9329     9269     8837     8731     8978     9154     9215     9201 
    9116     8972     8745     8708     9070     9359     9232     9140 
    9194     8949     8621     8718     9003     9099     9193     9447 
    9529     9197     8804     8699     8758     8903     9128     9254 
    9289     9317     9207     8978     8891     9067     9355     9456 
    9220     8885     8816     9046     9274     9181     8860     8816 
    9058     9113     9067     9192     9186     9038     9201     9439 
    9281     9026     8949     8926     9032     9266     9389     9391 
    9238     8762     8405     8723     9251     9319     9263     9513 
    9643     9336     9051     9051     8927     8602     8579     8891 
    9123     9180     9086     8865     8754     8815     8945     9267 
    9612     9472     8966     8662     8725     8900     9061     9359 
    9718     9751     9427     9040     8739     8707     9066     9479 
    9630     9551     9239     8851     8679     8592     8561     8923 
    9444     9454     8905     8482     8681     9055     9081     9131 
    9471     9666     9433     9001     8783     8896     9047     9080 
    9104     9119     9028     8897     8883     8966     9130     9379 
    9468     9316     9181     9094     8924     8846     9039     9213 
    9043     8818     8966     9275     9269     9127     9325     9572 
    9344     8941     8826     8916     9101     9269     9163     8951 
    8899     8804     8731     8928     9080     9085     9270     9371 
    9103     8843     8835     8996     9207     9175     8916     8862 
    8997     8991     8953     9055     9112     9019     8942     8964 
    8972     9003     9161     9225     8982     8725     8854     9225 
    9377     9192     9000     9080     9177     8880     8577     8830 
    9173     9248     9524     9806     9508     8939     8526     8384 
    8804     9555     9818     9481     9175     9134     9104     9015 
    9018     9223     9420     9229     8862     8851     9088     9236 
    9335     9358     9186     9080     9139     8957     8648     8795 
    9178     9255     9185     9189     9077     8901     8966     9069 
    8945     8957     9247     9286     8954     8785     8938     9085 
    9128     9192     9229     9066     8741     8629     8891     9181 
    9294     9335     9285     9124     8966     8869     8822     8870 
    9031     9077     8920     9026     9556     9809     9414     8999 
    9058     9313     9294     8939     8702     8893     9084     8992 
    9000     9135     9105     9011     8938     8922     9096     9244 
    9132     8958     8939     9065     9236     9356     9304     9024 
    8820     8941     9115     9150     9207     9225     9047     8954 
    9239     9408     8911     8391     8590     8997     9101     9256 
    9529     9445     8912     8507     8711     9136     9192     9049 
    9148     9393     9375     9135     9063     9074     8927     8926 
    9246     9464     9317     8969     8594     8425     8749     9274 
    9455     9397     9409     9420     9304     9031     8793     8850 
    9081     9296     9390     9100     8626     8629     9024     9293 
    9421     9433     9288     9224     9109     8673     8382     8673 
    9244     9560     9402     9053     8789     8588     8645     9142 
    9657     9684     9328     8973     8695     8492     8584     9063 
    9586     9593     9077     8764     8992     9231     9221     9316 
    9543     9417     8775     8260     8540     9189     9425     9400 
    9448     9279     8930     8887     9058     9142     9232     9351 
    9346     9115     8765     8730     9062     9196     9055     9163 
    9494     9539     9174     8583     8109     8299     9082     9525 
    9213     8861     9058     9427     9410     9158     9097     9151 
    9043     8896     8951     9046     9008     9080     9282     9321 
    9289     9305     9250     9078     8769     8668     9011     9171 
    8943     8827     8749     8648     8870     9205     9397     9676 
    9740     9286     9081     9429     9494     9139     8968     8905 
    8730     8742     8961     9090     9090     9001     8942     9042 
    9073     8937     8899     8997     9175     9416     9443     9261 
    9201     9171     9059     9109     9174     8899     8456     8290 
    8654     9346     9730     9570     9244     8922     8646     8737 
    9130     9271     8973     8692     8846     9185     9151     8791 
    8889     9656    10053     9529     8914     8797     8884     8814 
    8714     9028     9506     9356     8795     8526     8614     9009 
    9348     9144     8965     9293     9456     9132     8823     8865 
    9154     9244     8938     8698     8795     9004     9242     9401 
    9185     8837     8916     9229     9250     9096     9136     9347 
    9382     9184     9196     9337     9121     8905     8991     8861 
    8580     8800     9336     9370     8903     8716     9081     9572 
    9634     9190     9013     9439     9724     9486     8961     8503 
    8599     8941     8741     8387     8610     9167     9572     9564 
    9177     8905     9004     9138     9104     9015     9022     9216 
    9389     9265     8942     8626     8496     8623     8749     8842 
    9157     9418     9374     9494     9833     9674     9105     8945 
    9142     9173     9197     9262     9038     8739     8580     8388 
    8468     9011     9425     9431     9439     9666     9765     9350 
    8611     8210     8476     8973     9115     9067     9232     9351 
    9207     9126     9221     9248     9209     9250     9180     8947 
    8989     9331     9452     9250     8926     8498     8193     8397 
    8945     9209     9013     8973     9464     9918     9738     9265 
    9123     9184     9085     8970     9000     9282     9791     9764 
    8846     8097     8151     8275     8145     8379     9073     9636 
    9825     9753     9555     9387     9317     9448     9659     9448 
    8920     8533     8087     7703     8202     9454    10247    10099 
    9701     9620     9699     9491     8820     8345     8777     9486 
    9391     8634     8270     8614     8804     8579     8769     9513 
   10010     9771     9085     8669     8823     9151     9277     9105 
    8718     8498     8540     8492     8645     9352     9813     9537 
    9166     8919     8843     9413    10103     9867     9142     8827 
    8702     8401     8298     8823     9724    10204     9846     9138 
    8623     8239     8041     8490     9483    10160     9859     8870 
    8144     8145     8629     9431    10235    10153     9032     8086 
    8063     8459     8799     9031     9148     9383     9929    10185 
    9427     8446     8607     9382     9512     9356     9553     9628 
    9323     9023     8878     8849     8901     8784     8360     8120 
    8446     8904     9297     9796     9857     9175     8561     8502 
    8703     9066     9471     9410     8992     8910     8992     8725 
    8586     9047     9644     9945    10088    10107     9852     9450 
    8939     8081     7269     7419     8511     9567     9964     9795 
    9387     9015     8691     8498     8905     9849    10419    10145 
    9452     8926     8696     8471     8256     8415     8814     9019 
    9072     9153     9342     9614     9620     9263     9085     9329 
    9513     9197     8664     8286     7817     7454     8005     8977 
    9231     9282     9979    10559    10237     9632     9363     9082 
    8652     8642     8976     8777     8086     7861     8397     9398 
   10493    10974    10451     9371     8418     8136     8613     9243 
    9489     9448     9093     8110     7007     6871     7989     9612 
   10617    10486     9786     9259     9140     9354     9628     9869 
   10120     9849     8542     7200     7244     8086     8394     8521 
    9200     9987    10241     9934     9386     8827     8569     8965 
    9574     9693     9371     8810     8303     8417     8992     9494 
    9944    10203     9826     9111     8874     9120     9256     9186 
    9045     8912     8878     8661     8175     7986     8405     9143 
    9659     9576     9270     9331     9510     9340     9170     9454 
    9734     9386     8808     8610     8607     8808     9246     9078 
    8267     8024     8403     8488     8553     9393    10621    11249 
   10870     9637     8160     7321     7403     7978     8645     9274 
    9764     9910     9649     9317     9313     9607     9828     9786 
    9703     9644     9273     8453     7555     7357     8272     9298 
    9401     9375     9891     9961     9316     9051     9451     9736 
    9417     8565     7614     7263     7601     8077     8718     9667 
   10308    10459    10582    10497     9819     9096     9049     9340 
    8976     7967     7543     8052     8482     8532     8768     9157 
    9412     9576     9575     9396     9283     9182     8741     8147 
    8326     9436    10187    10021     9784     9610     8947     8170 
    7970     8275     8789     9454     9883     9559     8792     8519 
    9055     9633     9517     9009     8726     8657     8579     8707 
    9359    10164    10339     9752     8989     8513     8320     8289 
    8614     9393     9919     9520     8721     8341     8411     8737 
    9180     9498     9536     9251     8849     8800     9227     9661 
    9690     9514     9379     9012     8314     7816     8005     8754 
    9467     9734     9659     9508     9501     9694     9740     9285 
    8584     8244     8546     9117     9283     9069     9130     9382 
    9186     8760     8885     9451     9567     9076     8692     8604 
    8405     8268     8700     9319     9359     8953     8788     9043 
    9306     9252     9074     9112     9375     9603     9433     8854 
    8584     9124     9703     9431     8781     8619     8943     9366 
    9684     9823     9742     9517     9304     8941     8380     8278 
    8931     9626     9790     9682     9586     9288     8792     8637 
    8896     8996     8756     8529     8429     8349     8457     8857 
    9213     9261     9327     9714     9865     9240     8446     8371 
    8978     9585     9753     9636     9351     8973     8843     8858 
    8887     9375     9950     9720     8977     8405     8036     7900 
    8218     8889     9571    10006    10006     9667     9223     8753 
    8729     9360     9720     9221     8418     7977     8171     8742 
    9288     9772     9963     9614     9256     9232     9157     9018 
    9030     8974     8780     8646     8614     8731     9151     9715 
    9869     9431     8969     8897     9032     9105     8964     8725 
    8715     8945     9317     9657     9502     9046     9045     9362 
    9355     8976     8521     8213     8160     8282     8451     8784 
    9383     9841     9815     9626     9514     9337     9248     9398 
    9474     9290     8889     8340     8064     8357     8808     9011 
    9054     9198     9462     9540     9423     9397     9358     9204 
    9165     9169     8904     8498     8441     8780     9067     9323 
    9883    10409    10300     9601     8829     8521     8846     9213 
    9061     8714     8514     8309     8214     8464     8872     9219 
    9406     9425     9397     9185     8803     8799     9054     8804 
    8333     8498     9104     9505     9622     9541     9246     8881 
    8792     9042     9267     9305     9404     9751    10201    10269 
    9556     8498     8082     8575     9235     9398     9196     9013 
    8856     8615     8482     8573     8638     8552     8621     9016 
    9409     9506     9501     9560     9509     9259     8910     8495 
    8149     8156     8631     9443    10112     9980     9135     8483 
    8472     8818     9265     9667     9826     9553     8880     8324 
    8210     8224     8419     9126     9910    10207     9967     9340 
    8783     8766     9167     9493     9363     8808     8303     8299 
    8812     9400     9556     9381     9270     9140     8900     8899 
    9200     9445     9517     9502     9315     8883     8486     8479 
    8830     9370     9833     9657     8927     8536     8692     8872 
    8839     8692     8671     8741     8553     8426     8991     9887 
   10328    10197     9775     9290     8900     8641     8553     8780 
    9142     9244     9069     8807     8644     8775     9150     9553 
    9832     9872     9715     9528     9343     8992     8492     8352 
    8833     9432     9641     9448     9144     9035     9059     8893 
    8533     8367     8509     8629     8727     9126     9620     9684 
    9246     8715     8527     8623     8608     8579     8930     9505 
    9829     9711     9262     8807     8741     9170     9765    10012 
    9672     9046     8634     8537     8564     8606     8626     8711 
    8884     8808     8494     8540     9045     9528     9832    10080 
   10184     9892     9321     9035     9192     9213     8846     8479 
    8229     7990     8127     8905     9744     9942     9594     9220 
    9124     9296     9472     9512     9543     9462     9123     8843 
    8808     8810     8768     8733     8665     8629     8829     9197 
    9319     9131     9051     9135     9235     9548     9914     9722 
    9024     8510     8476     8650     8823     9086     9495     9744 
    9478     8980     8780     8833     8947     9150     9350     9477 
    9381     8743     7909     7932     8977     9776     9574     9030 
