Origin Time       2024/04/02 04:24:00
Lat.              40.133
Long.             141.712
Depth. (km)       71
Mag.              6.0
Station Code      TKCH10
Station Lat.      43.3337
Station Long.     142.9448
Station Height(m) 365
Record Time       2024/04/02 04:26:06
Sampling Freq(Hz) 100Hz
Duration Time(s)  120
Dir.              6
Scale Factor      3920(gal)/6170801
Max. Acc. (gal)   0.296
Last Correction   2024/04/02 04:25:51
Memo.             
[...]
  -12215   -12089   -11957   -11945   -12096   -12234   -12168   -12043 
  -12054   -12134   -12239   -12342   -12320   -12287   -12323   -12216 
  -12061   -12124   -12259   -12348   -12444   -12367   -12114   -12069 
  -12231   -12184   -11974   -12024   -12285   -12334   -12165   -12108 
  -12210   -12268   -12239   -12287   -12406   -12415   -12332   -12250 
  -12215   -12275   -12309   -12232   -12183   -12226   -12277   -12244 
  -12100   -11975   -12005   -12124   -12210   -12307   -12441   -12433 
  -12248   -12122   -12159   -12310   -12503   -12511   -12286   -12128 
  -12190   -12255   -12152   -12093   -12240   -12318   -12188   -12106 
  -12179   -12279   -12290   -12187   -12100   -12156   -12247   -12229 
  -12156   -12143   -12155   -12140   -12163   -12221   -12247   -12250 
  -12208   -12152   -12148   -12149   -12211   -12338   -12280   -12086 
  -12071   -12193   -12206   -12168   -12321   -12516   -12392   -12099 
  -12006   -12107   -12192   -12128   -12007   -12055   -12223   -12264 
  -12174   -12127   -12149   -12152   -12144   -12186   -12265   -12297 
  -12247   -12235   -12333   -12413   -12392   -12285   -12143   -12128 
  -12214   -12164   -12093   -12213   -12307   -12235   -12195   -12238 
  -12287   -12269   -12107   -11956   -12041   -12224   -12240   -12143 
  -12104   -12095   -12083   -12128   -12234   -12319   -12293   -12215 
  -12238   -12323   -12314   -12209   -12129   -12178   -12309   -12327 
  -12218   -12199   -12290   -12307   -12267   -12305   -12355   -12280 
  -12129   -12098   -12195   -12187   -12120   -12200   -12270   -12225 
  -12251   -12257   -12132   -12153   -12327   -12350   -12212   -12059 
  -11964   -12022   -12245   -12384   -12247   -12116   -12245   -12353 
  -12235   -12122   -12178   -12226   -12154   -12105   -12128   -12152 
  -12173   -12190   -12253   -12360   -12385   -12319   -12274   -12272 
  -12245   -12215   -12216   -12180   -12160   -12279   -12381   -12284 
  -12127   -12105   -12218   -12315   -12262   -12152   -12140   -12209 
  -12284   -12240   -12041   -12005   -12270   -12481   -12428   -12243 
  -12110   -12167   -12319   -12284   -12049   -11933   -12063   -12227 
  -12304   -12315   -12250   -12202   -12242   -12225   -12107   -12055 
  -12110   -12195   -12287   -12344   -12305   -12205   -12144   -12156 
  -12214   -12239   -12159   -12126   -12250   -12292   -12155   -12132 
  -12290   -12350   -12244   -12154   -12131   -12096   -12052   -12105 
  -12197   -12160   -12106   -12149   -12176   -12259   -12391   -12341 
  -12177   -12056   -12018   -12134   -12296   -12338   -12236   -12126 
  -12159   -12182   -12149   -12267   -12347   -12207   -12115   -12159 
  -12211   -12224   -12157   -12090   -12182   -12373   -12424   -12273 
  -12139   -12183   -12287   -12281   -12209   -12249   -12321   -12223 
  -12097   -12145   -12311   -12397   -12266   -12121   -12104   -12090 
  -12222   -12509   -12531   -12245   -12079   -12163   -12245   -12207 
  -12083   -11962   -12033   -12256   -12361   -12275   -12130   -12052 
  -12081   -12185   -12287   -12287   -12182   -12123   -12234   -12344 
  -12255   -12146   -12194   -12337   -12431   -12325   -12119   -12090 
  -12253   -12369   -12308   -12160   -12022   -12040   -12306   -12501 
  -12338   -12094   -12146   -12332   -12274   -12108   -12148   -12246 
  -12149   -11963   -12036   -12354   -12464   -12294   -12154   -12083 
  -12044   -12119   -12171   -12081   -12122   -12330   -12324   -12160 
  -12192   -12362   -12384   -12228   -12178   -12288   -12293   -12250 
  -12310   -12324   -12260   -12218   -12201   -12189   -12139   -12081 
  -12060   -12036   -12061   -12172   -12269   -12306   -12293   -12269 
  -12268   -12231   -12192   -12237   -12290   -12327   -12363   -12292 
  -12129   -12063   -12151   -12203   -12132   -12114   -12141   -12059 
  -12039   -12160   -12186   -12116   -12126   -12224   -12294   -12235 
  -12166   -12220   -12282   -12277   -12297   -12332   -12314   -12274 
  -12228   -12166   -12175   -12295   -12365   -12287   -12188   -12168 
  -12214   -12293   -12284   -12144   -12089   -12227   -12344   -12296 
  -12193   -12142   -12113   -12115   -12193   -12207   -12111   -12122 
  -12284   -12382   -12323   -12222   -12112   -11988   -12061   -12322 
  -12394   -12287   -12329   -12454   -12373   -12125   -11981   -12090 
  -12316   -12367   -12210   -12088   -12061   -12108   -12275   -12438 
  -12426   -12227   -12047   -12119   -12251   -12185   -12104   -12119 
  -12078   -12044   -12150   -12301   -12386   -12370   -12240   -12110 
  -12136   -12233   -12224   -12228   -12344   -12359   -12240   -12159 
  -12129   -12167   -12266   -12265   -12214   -12220   -12139   -12046 
  -12122   -12175   -12121   -12104   -12089   -12071   -12169   -12319 
  -12314   -12197   -12259   -12515   -12610   -12421   -12186   -12097 
  -12183   -12287   -12230   -12160   -12192   -12204   -12208   -12233 
  -12205   -12185   -12205   -12146   -12122   -12289   -12428   -12389 
  -12311   -12200   -12065   -12107   -12258   -12272   -12245   -12285 
  -12255   -12161   -12195   -12346   -12325   -12066   -11965   -12202 
  -12401   -12309   -12211   -12314   -12382   -12302   -12216   -12194 
  -12245   -12278   -12181   -12054   -12055   -12196   -12304   -12226 
  -12099   -12093   -12135   -12137   -12108   -12055   -12043   -12137 
  -12229   -12199   -12090   -12010   -12046   -12173   -12292   -12368 
  -12334   -12189   -12183   -12358   -12365   -12148   -12033   -12110 
  -12220   -12271   -12212   -12072   -12003   -12028   -12107   -12226 
  -12215   -12136   -12249   -12317   -12165   -12134   -12293   -12419 
  -12464   -12427   -12254   -12090   -12207   -12450   -12483   -12364 
  -12141   -11915   -12047   -12349   -12330   -12140   -12043   -12018 
  -12116   -12214   -12209   -12318   -12472   -12409   -12258   -12188 
  -12228   -12348   -12354   -12154   -11958   -11982   -12139   -12245 
  -12265   -12171   -12044   -12055   -12128   -12136   -12133   -12178 
  -12234   -12291   -12369   -12359   -12237   -12153   -12104   -12110 
  -12239   -12288   -12191   -12215   -12319   -12279   -12202   -12217 
  -12233   -12184   -12165   -12258   -12333   -12249   -12110   -12061 
  -12090   -12154   -12285   -12390   -12321   -12223   -12268   -12310 
  -12237   -12169   -12144   -12099   -12108   -12194   -12174   -12092 
  -12125   -12147   -12067   -12076   -12205   -12256   -12217   -12266 
  -12360   -12298   -12131   -12088   -12219   -12318   -12219   -12096 
  -12166   -12322   -12381   -12378   -12406   -12384   -12226   -12094 
  -12095   -12154   -12275   -12347   -12168   -11933   -11967   -12171 
  -12260   -12273   -12378   -12411   -12268   -12221   -12306   -12266 
  -12124   -12078   -12093   -11990   -11881   -12000   -12180   -12177 
  -12130   -12206   -12292   -12300   -12321   -12347   -12307   -12333 
  -12425   -12364   -12256   -12300   -12357   -12311   -12218   -12114 
  -12091   -12277   -12535   -12576   -12433   -12314   -12310   -12376 
  -12320   -12184   -12179   -12179   -12065   -12029   -12110   -12117 
  -12060   -12120   -12275   -12350   -12291   -12191   -12180   -12258 
  -12233   -12048   -11951   -12042   -12112   -12070   -12100   -12239 
  -12206   -12013   -12057   -12319   -12392   -12265   -12255   -12401 
  -12482   -12381   -12182   -12069   -12082   -12119   -12149   -12168 
  -12201   -12285   -12333   -12295   -12284   -12371   -12422   -12295 
  -12160   -12219   -12337   -12320   -12195   -12086   -12112   -12269 
  -12323   -12112   -11886   -11953   -12210   -12318   -12166   -12023 
  -12137   -12338   -12383   -12371   -12402   -12364   -12255   -12187 
  -12219   -12326   -12396   -12376   -12245   -12036   -11978   -12077 
  -12041   -11966   -12102   -12292   -12393   -12473   -12486   -12378 
  -12208   -12052   -12012   -12076   -12091   -12045   -12012   -12022 
  -12112   -12211   -12214   -12182   -12177   -12164   -12122   -12060 
  -12001   -11997   -12038   -12031   -11994   -11990   -12039   -12205 
  -12380   -12348   -12196   -12100   -12071   -12125   -12248   -12363 
  -12412   -12319   -12153   -12129   -12223   -12208   -12101   -12088 
  -12200   -12318   -12303   -12203   -12254   -12435   -12473   -12382 
  -12416   -12509   -12419   -12238   -12164   -12167   -12190   -12246 
  -12295   -12297   -12292   -12222   -11984   -11830   -11989   -12113 
  -11965   -11867   -11989   -12082   -12014   -11993   -12176   -12391 
  -12376   -12129   -11966   -12102   -12288   -12269   -12173   -12216 
  -12399   -12490   -12447   -12470   -12526   -12503   -12434   -12306 
  -12192   -12195   -12182   -12049   -11987   -12118   -12215   -12141 
  -12118   -12211   -12230   -12213   -12283   -12311   -12231   -12165 
  -12126   -12110   -12149   -12126   -12065   -12185   -12415   -12490 
  -12431   -12408   -12398   -12384   -12390   -12343   -12241   -12146 
  -12140   -12303   -12433   -12350   -12236   -12240   -12294   -12311 
  -12241   -12102   -12001   -12044   -12162   -12144   -11978   -11941 
  -12104   -12207   -12145   -12098   -12204   -12327   -12230   -12047 
  -12119   -12340   -12380   -12329   -12410   -12533   -12539   -12421 
  -12247   -12159   -12241   -12293   -12128   -11914   -11905   -12058 
  -12146   -12180   -12246   -12230   -12155   -12204   -12313   -12298 
  -12196   -12155   -12172   -12185   -12191   -12235   -12363   -12435 
  -12328   -12256   -12364   -12416   -12297   -12201   -12146   -12065 
  -12053   -12067   -12011   -11996   -12072   -12159   -12241   -12370 
  -12517   -12527   -12375   -12263   -12278   -12277   -12218   -12204 
  -12246   -12246   -12133   -11996   -12026   -12232   -12322   -12151 
  -12022   -12126   -12215   -12152   -12096   -12168   -12296   -12295 
  -12176   -12183   -12323   -12365   -12264   -12175   -12172   -12194 
  -12176   -12107   -12088   -12184   -12216   -12096   -12024   -12092 
  -12127   -11990   -11834   -11900   -12111   -12215   -12217   -12290 
  -12437   -12465   -12354   -12362   -12524   -12573   -12428   -12218 
  -12075   -12040   -12001   -11943   -11941   -11953   -11997   -12160 
  -12344   -12393   -12365   -12409   -12456   -12389   -12292   -12206 
  -12095   -12021   -12029   -12108   -12238   -12384   -12536   -12592 
  -12491   -12393   -12307   -12173   -12125   -12072   -11923   -11949 
  -12149   -12228   -12223   -12278   -12317   -12322   -12340   -12273 
  -12169   -12210   -12293   -12247   -12141   -12098   -12104   -12116 
  -12191   -12266   -12205   -12104   -12072   -12085   -12162   -12212 
  -12120   -12074   -12236   -12398   -12365   -12252   -12212   -12230 
  -12296   -12338   -12279   -12217   -12166   -12123   -12202   -12313 
  -12333   -12295   -12164   -12007   -12062   -12245   -12236   -12107 
  -12113   -12211   -12264   -12243   -12178   -12179   -12326   -12464 
  -12485   -12553   -12651   -12570   -12368   -12252   -12321   -12393 
  -12217   -12005   -12042   -12152   -12196   -12246   -12236   -12161 
  -12146   -12163   -12199   -12298   -12312   -12214   -12175   -12119 
  -11997   -12083   -12325   -12377   -12256   -12112   -12000   -12042 
  -12202   -12245   -12150   -12119   -12167   -12153   -12117   -12150 
  -12214   -12295   -12354   -12277   -12142   -12180   -12367   -12450 
  -12359   -12195   -12066   -12052   -12122   -12176   -12203   -12249 
  -12238   -12052   -11865   -11949   -12138   -12120   -12036   -12092 
  -12195   -12267   -12305   -12309   -12321   -12271   -12157   -12151 
  -12291   -12439   -12489   -12491   -12470   -12341   -12216   -12211 
  -12224   -12260   -12320   -12272   -12209   -12291   -12370   -12328 
  -12239   -12102   -12007   -12056   -12070   -11985   -11993   -12115 
  -12203   -12220   -12222   -12231   -12257   -12309   -12344   -12280 
  -12174   -12171   -12225   -12204   -12176   -12238   -12322   -12317 
  -12205   -12108   -12152   -12250   -12237   -12128   -12049   -12069 
  -12156   -12194   -12157   -12210   -12362   -12357   -12200   -12141 
  -12179   -12244   -12362   -12395   -12261   -12134   -12143   -12200 
  -12185   -12128   -12148   -12212   -12213   -12192   -12177   -12135 
  -12110   -12139   -12196   -12186   -12077   -12034   -12144   -12283 
  -12284   -12147   -12081   -12181   -12277   -12217   -12116   -12139 
  -12226   -12271   -12257   -12219   -12199   -12179   -12190   -12245 
  -12169   -11943   -11853   -11995   -12138   -12168   -12172   -12182 
  -12230   -12297   -12277   -12244   -12298   -12330   -12270   -12191 
  -12197   -12269   -12239   -12062   -11920   -11991   -12218   -12374 
  -12373   -12321   -12289   -12320   -12433   -12523   -12513   -12447 
  -12414   -12420   -12380   -12333   -12341   -12346   -12347   -12285 
  -12142   -12128   -12210   -12142   -11973   -11867   -11861   -11926 
  -12000   -12084   -12122   -12000   -11859   -11897   -11994   -12023 
  -12016   -11942   -11855   -11947   -12171   -12295   -12313   -12325 
  -12310   -12303   -12374   -12417   -12310   -12147   -12127   -12292 
  -12447   -12418   -12337   -12375   -12448   -12438   -12323   -12133 
  -12009   -12033   -12065   -12010   -11913   -11816   -11808   -11924 
  -12045   -12114   -12077   -11974   -12040   -12195   -12159   -12107 
  -12304   -12553   -12600   -12482   -12355   -12307   -12355   -12427 
  -12395   -12296   -12196   -12028   -11915   -12057   -12332   -12438 
  -12258   -12071   -12185   -12358   -12277   -12180   -12269   -12374 
  -12421   -12417   -12383   -12488   -12677   -12645   -12429   -12314 
  -12338   -12389   -12427   -12410   -12302   -12136   -11985   -11964 
  -12104   -12181   -12050   -11940   -12002   -12088   -12134   -12201 
  -12291   -12403   -12510   -12489   -12307   -12140   -12140   -12263 
  -12378   -12424   -12402   -12308   -12185   -12153   -12212   -12245 
  -12227   -12178   -12065   -11901   -11772   -11800   -11976   -12111 
  -12161   -12127   -11984   -11958   -12114   -12193   -12174   -12187 
  -12190   -12183   -12250   -12313   -12247   -12163   -12217   -12329 
  -12377   -12409   -12477   -12487   -12397   -12350   -12376   -12327 
  -12177   -12023   -11959   -11997   -12036   -12107   -12269   -12355 
  -12247   -12097   -12095   -12184   -12174   -12068   -12012   -12036 
  -12100   -12161   -12178   -12171   -12177   -12224   -12342   -12473 
  -12514   -12448   -12354   -12342   -12395   -12376   -12259   -12111 
  -11995   -12029   -12176   -12227   -12150   -12101   -12163   -12258 
  -12256   -12189   -12238   -12384   -12389   -12182   -11990   -12045 
  -12259   -12349   -12254   -12166   -12182   -12158   -12051   -12041 
  -12155   -12189   -12059   -11988   -12158   -12345   -12347   -12290 
  -12282   -12274   -12197   -12098   -12093   -12166   -12190   -12156 
  -12204   -12339   -12356   -12293   -12331   -12367   -12343   -12384 
  -12433   -12372   -12312   -12320   -12260   -12174   -12181   -12148 
  -12066   -12102   -12180   -12141   -12075   -12096   -12136   -12156 
  -12196   -12222   -12219   -12238   -12222   -12119   -12069   -12157 
  -12250   -12275   -12296   -12346   -12419   -12463   -12434   -12407 
  -12402   -12319   -12210   -12238   -12359   -12381   -12240   -12053 
  -12041   -12233   -12392   -12407   -12315   -12154   -12057   -12109 
  -12200   -12205   -12134   -12074   -12098   -12202   -12228   -12114 
  -12052   -12092   -12088   -12025   -11964   -11944   -12016   -12176 
  -12338   -12381   -12334   -12350   -12416   -12434   -12393   -12306 
  -12251   -12294   -12342   -12281   -12185   -12188   -12211   -12147 
  -12095   -12098   -12078   -12074   -12127   -12145   -12060   -11932 
  -11913   -12052   -12124   -12009   -11983   -12169   -12263   -12148 
  -12071   -12122   -12184   -12234   -12281   -12312   -12345   -12357 
  -12322   -12274   -12238   -12248   -12285   -12256   -12166   -12089 
  -12050   -12035   -12039   -12068   -12126   -12244   -12368   -12358 
  -12265   -12239   -12302   -12404   -12428   -12342   -12320   -12369 
  -12341   -12311   -12358   -12360   -12328   -12369   -12389   -12324 
  -12246   -12129   -12036   -12084   -12096   -12004   -12044   -12145 
  -12077   -11976   -11998   -12085   -12188   -12245   -12160   -12025 
  -12051   -12186   -12246   -12257   -12250   -12215   -12249   -12317 
  -12303   -12288   -12312   -12283   -12224   -12170   -12082   -12017 
  -12031   -12047   -12030   -12026   -12047   -12040   -11961   -11930 
  -12082   -12245   -12196   -12062   -12072   -12195   -12253   -12209 
  -12193   -12225   -12215   -12202   -12215   -12209   -12278   -12444 
  -12508   -12445   -12414   -12413   -12387   -12356   -12314   -12247 
  -12193   -12202   -12265   -12348   -12427   -12436   -12363   -12298 
  -12309   -12365   -12377   -12325   -12295   -12317   -12333   -12331 
  -12326   -12310   -12278   -12210   -12136   -12157   -12248   -12291 
  -12211   -12053   -12014   -12146   -12258   -12244   -12177   -12176 
  -12264   -12320   -12293   -12276   -12287   -12262   -12189   -12112 
  -12091   -12143   -12211   -12256   -12261   -12193   -12144   -12201 
  -12230   -12178   -12151   -12132   -12105   -12115   -12142   -12121 
  -12064   -12127   -12269   -12271   -12191   -12171   -12170   -12168 
  -12205   -12266   -12295   -12251   -12203   -12258   -12376   -12470 
  -12502   -12463   -12429   -12426   -12379   -12278   -12194   -12165 
  -12137   -12082   -12098   -12177   -12188   -12144   -12130   -12119 
  -12125   -12225   -12283   -12185   -12131   -12215   -12278   -12257 
  -12182   -12103   -12081   -12076   -12079   -12131   -12121   -12020 
  -12043   -12199   -12214   -12058   -11966   -12028   -12149   -12228 
  -12232   -12243   -12326   -12353   -12261   -12182   -12176   -12217 
  -12264   -12240   -12169   -12085   -11995   -12019   -12117   -12112 
  -12051   -12017   -12043   -12173   -12248   -12188   -12210   -12342 
  -12368   -12304   -12323   -12370   -12347   -12314   -12328   -12393 
  -12440   -12377   -12290   -12273   -12259   -12224   -12202   -12217 
  -12275   -12252   -12084   -11976   -12073   -12206   -12190   -12124 
  -12170   -12247   -12266   -12318   -12394   -12404   -12352   -12271 
  -12231   -12269   -12288   -12211   -12127   -12169   -12251   -12190 
  -12086   -12099   -12131   -12092   -12057   -12078   -12131   -12171 
  -12143   -12083   -12123   -12229   -12229   -12153   -12134   -12163 
  -12167   -12134   -12114   -12101   -12069   -12077   -12114   -12159 
  -12213   -12207   -12209   -12311   -12376   -12351   -12372   -12439 
  -12454   -12431   -12363   -12217   -12123   -12182   -12264   -12275 
  -12229   -12146   -12121   -12184   -12189   -12138   -12182   -12302 
  -12340   -12254   -12189   -12229   -12279   -12257   -12197   -12160 
  -12177   -12227   -12234   -12151   -12090   -12155   -12219   -12206 
  -12231   -12305   -12332   -12267   -12167   -12176   -12276   -12299 
  -12249   -12219   -12210   -12239   -12296   -12286   -12219   -12218 
  -12256   -12248   -12224   -12207   -12200   -12208   -12209   -12226 
  -12257   -12256   -12250   -12268   -12268   -12237   -12202   -12195 
  -12247   -12281   -12190   -12112   -12194   -12251   -12182   -12182 
  -12264   -12257   -12201   -12192   -12209   -12256   -12317   -12311 
  -12240   -12191   -12199   -12235   -12258   -12231   -12181   -12204 
