Origin Time       2024/04/02 04:24:00
Lat.              40.133
Long.             141.712
Depth. (km)       71
Mag.              6.0
Station Code      TKCH08
Station Lat.      42.4865
Station Long.     143.1520
Station Height(m) 360
Record Time       2024/04/02 04:25:18
Sampling Freq(Hz) 100Hz
Duration Time(s)  122
Dir.              5
Scale Factor      7845(gal)/8223790
Max. Acc. (gal)   8.409
Last Correction   2024/04/02 04:25:01
Memo.             
[...]
   -6470    -6214    -5795    -5536    -5683    -6056    -6342    -6502 
   -6600    -6608    -6489    -6208    -5787    -5414    -5302    -5464 
   -5765    -6065    -6268    -6384    -6493    -6575    -6548    -6403 
   -6234    -6151    -6122    -6053    -5972    -5945    -5957    -5933 
   -5813    -5724    -5846    -6111    -6278    -6239    -6054    -5908 
   -5973    -6215    -6443    -6519    -6446    -6351    -6332    -6339 
   -6277    -6093    -5778    -5506    -5503    -5695    -5861    -5991 
   -6200    -6517    -6809    -6879    -6631    -6157    -5661    -5271 
   -5030    -5019    -5238    -5518    -5776    -6073    -6386    -6578 
   -6520    -6210    -5829    -5626    -5733    -6075    -6412    -6604 
   -6728    -6856    -6937    -6883    -6577    -6070    -5682    -5572 
   -5607    -5630    -5602    -5590    -5718    -5927    -5991    -5850 
   -5732    -5838    -6118    -6349    -6384    -6242    -6083    -6077 
   -6226    -6315    -6220    -6103    -6137    -6259    -6319    -6234 
   -6062    -5967    -6039    -6201    -6291    -6193    -5956    -5802 
   -5921    -6191    -6292    -6134    -5908    -5841    -6037    -6373 
   -6561    -6471    -6259    -6110    -6052    -5991    -5794    -5451 
   -5167    -5186    -5459    -5691    -5748    -5830    -6119    -6532 
   -6878    -6971    -6739    -6347    -6019    -5780    -5607    -5563 
   -5651    -5803    -5995    -6174    -6249    -6192    -6037    -5834 
   -5695    -5749    -6004    -6327    -6585    -6739    -6774    -6686 
   -6520    -6357    -6273    -6286    -6296    -6197    -5999    -5721 
   -5416    -5286    -5524    -6004    -6394    -6501    -6340    -6061 
   -5849    -5794    -5841    -5899    -5994    -6232    -6573    -6801 
   -6718    -6304    -5815    -5587    -5672    -5860    -5962    -5969 
   -6011    -6134    -6168    -5953    -5594    -5323    -5271    -5451 
   -5773    -6042    -6156    -6224    -6372    -6531    -6583    -6505 
   -6326    -6106    -5996    -6042    -6072    -5996    -5957    -6107 
   -6420    -6696    -6675    -6342    -6031    -6037    -6273    -6451 
   -6362    -6023    -5686    -5579    -5709    -5903    -6015    -6080 
   -6237    -6502    -6678    -6539    -6114    -5649    -5362    -5319 
   -5436    -5632    -5922    -6258    -6561    -6748    -6683    -6369 
   -5937    -5489    -5150    -5051    -5286    -5827    -6401    -6737 
   -6787    -6656    -6516    -6438    -6309    -6080    -5854    -5699 
   -5624    -5622    -5648    -5643    -5643    -5694    -5798    -6027 
   -6384    -6664    -6697    -6540    -6362    -6250    -6180    -6089 
   -5979    -5921    -5956    -6061    -6207    -6335    -6380    -6374 
   -6403    -6480    -6493    -6313    -5991    -5726    -5625    -5638 
   -5718    -5809    -5819    -5767    -5800    -5985    -6208    -6270 
   -6073    -5799    -5767    -6048    -6409    -6566    -6440    -6259 
   -6215    -6215    -6102    -5860    -5589    -5464    -5630    -5995 
   -6281    -6374    -6313    -6127    -5952    -5971    -6079    -6048 
   -5910    -5853    -5961    -6226    -6586    -6844    -6785    -6424 
   -6002    -5755    -5687    -5672    -5705    -5817    -5962    -6139 
   -6357    -6492    -6389    -6115    -5881    -5805    -5864    -5938 
   -5921    -5832    -5829    -6041    -6308    -6308    -6038    -5792 
   -5738    -5791    -5836    -5873    -5937    -5998    -6041    -6072 
   -6089    -6081    -6077    -6162    -6305    -6380    -6385    -6312 
   -6079    -5806    -5702    -5760    -5915    -6224    -6624    -6820 
   -6670    -6354    -6022    -5728    -5580    -5628    -5826    -6157 
   -6586    -6937    -6936    -6527    -5999    -5688    -5686    -5778 
   -5753    -5737    -5906    -6119    -6166    -6039    -5821    -5625 
   -5621    -5852    -6161    -6392    -6453    -6362    -6307    -6401 
   -6454    -6205    -5783    -5563    -5643    -5850    -6070    -6197 
   -6220    -6299    -6416    -6318    -5919    -5464    -5269    -5416 
   -5748    -6061    -6269    -6426    -6543    -6542    -6385    -6073 
   -5738    -5649    -5838    -6058    -6150    -6115    -5988    -5869 
   -5887    -6014    -6153    -6285    -6407    -6485    -6498    -6439 
   -6335    -6218    -6102    -6039    -6027    -6000    -5964    -5968 
   -6037    -6129    -6150    -6095    -6041    -6007    -5946    -5840 
   -5778    -5863    -6070    -6297    -6423    -6444    -6517    -6673 
   -6716    -6525    -6193    -5865    -5686    -5726    -5890    -5996 
   -5940    -5706    -5416    -5297    -5387    -5525    -5687    -5983 
   -6378    -6666    -6660    -6369    -5950    -5614    -5512    -5607 
   -5798    -6023    -6253    -6474    -6597    -6497    -6232    -6007 
   -5973    -6124    -6295    -6353    -6351    -6374    -6354    -6214 
   -6004    -5799    -5701    -5849    -6158    -6354    -6313    -6134 
   -6003    -5980    -5945    -5841    -5819    -5948    -6031    -5954 
   -5846    -5791    -5763    -5815    -5969    -6146    -6353    -6621 
   -6798    -6683    -6330    -5942    -5657    -5606    -5806    -5987 
   -6021    -6110    -6327    -6524    -6627    -6583    -6340    -6038 
   -5879    -5803    -5668    -5583    -5775    -6235    -6723    -6997 
   -6875    -6292    -5513    -4939    -4741    -4905    -5352    -5935 
   -6543    -7055    -7200    -6795    -6029    -5271    -4845    -4919 
   -5385    -5911    -6265    -6415    -6426    -6405    -6431    -6435 
   -6281    -5975    -5722    -5688    -5838    -6039    -6196    -6265 
   -6299    -6438    -6687    -6824    -6754    -6606    -6469    -6386 
   -6436    -6529    -6461    -6210    -5946    -5787    -5709    -5647 
   -5537    -5379    -5332    -5556    -5976    -6377    -6598    -6573 
   -6409    -6350    -6358    -6139    -5688    -5310    -5177    -5232 
   -5340    -5441    -5628    -5968    -6339    -6532    -6428    -6111 
   -5794    -5656    -5765    -5999    -6147    -6129    -5989    -5800 
   -5683    -5733    -5887    -6000    -6076    -6219    -6438    -6612 
   -6601    -6396    -6165    -6089    -6187    -6308    -6393    -6561 
   -6745    -6698    -6426    -6164    -6025    -5931    -5842    -5880 
   -6137    -6515    -6812    -6848    -6605    -6228    -5890    -5744 
   -5788    -5813    -5734    -5769    -6043    -6340    -6385    -6160 
   -5876    -5773    -5871    -5938    -5841    -5721    -5749    -5888 
   -5972    -5883    -5617    -5328    -5281    -5568    -5992    -6259 
   -6277    -6215    -6250    -6313    -6181    -5764    -5297    -5144 
   -5437    -6000    -6561    -6903    -6914    -6731    -6605    -6525 
   -6291    -5890    -5529    -5485    -5805    -6187    -6407    -6457 
   -6380    -6312    -6277    -6124    -5868    -5657    -5656    -5953 
   -6327    -6401    -6183    -6021    -6076    -6205    -6282    -6350 
   -6455    -6509    -6407    -6141    -5761    -5455    -5425    -5647 
   -6006    -6415    -6659    -6585    -6305    -5996    -5783    -5759 
   -5940    -6201    -6347    -6304    -6183    -6077    -6000    -6015 
   -6174    -6303    -6180    -5940    -5848    -5915    -5977    -5894 
   -5722    -5698    -5826    -5832    -5671    -5563    -5562    -5622 
   -5836    -6214    -6604    -6925    -7076    -6886    -6389    -5796 
   -5304    -5109    -5348    -5869    -6295    -6405    -6315    -6204 
   -6103    -5964    -5753    -5603    -5773    -6296    -6870    -7159 
   -7024    -6544    -5989    -5667    -5672    -5841    -5989    -6065 
   -6166    -6374    -6536    -6409    -6019    -5648    -5499    -5556 
   -5798    -6223    -6651    -6812    -6682    -6463    -6220    -5900 
   -5632    -5564    -5601    -5622    -5728    -6002    -6316    -6502 
   -6467    -6220    -6018    -6041    -5999    -5713    -5470    -5512 
   -5817    -6242    -6515    -6446    -6124    -5821    -5706    -5699 
   -5691    -5737    -5906    -6115    -6215    -6187    -6097    -6050 
   -6095    -6131    -6124    -6183    -6303    -6413    -6515    -6610 
   -6643    -6496    -6220    -5994    -5796    -5567    -5416    -5449 
   -5706    -6157    -6590    -6778    -6731    -6539    -6223    -5898 
   -5703    -5616    -5595    -5722    -6058    -6494    -6778    -6791 
   -6639    -6365    -5926    -5443    -5150    -5208    -5532    -5837 
   -5973    -6022    -6087    -6156    -6161    -6052    -5872    -5771 
   -5815    -5935    -6119    -6353    -6447    -6266    -5977    -5861 
   -6023    -6373    -6702    -6756    -6440    -5952    -5591    -5532 
   -5705    -5922    -6108    -6326    -6604    -6777    -6551    -5890 
   -5163    -4847    -5093    -5616    -6065    -6382    -6664    -6933 
   -7115    -7038    -6593    -5931    -5350    -5142    -5476    -6023 
   -6156    -5892    -5807    -6073    -6386    -6525    -6509    -6492 
   -6555    -6507    -6170    -5706    -5394    -5385    -5686    -6165 
   -6604    -6855    -6840    -6516    -6056    -5736    -5621    -5674 
   -5788    -5725    -5502    -5437    -5648    -5953    -6131    -6045 
   -5844    -5864    -6112    -6251    -6143    -5996    -6089    -6457 
   -6763    -6651    -6258    -6049    -6096    -6007    -5682    -5570 
   -5949    -6512    -6779    -6596    -6205    -5871    -5606    -5404 
   -5428    -5791    -6254    -6407    -6258    -6203    -6300    -6249 
   -5960    -5686    -5706    -6035    -6451    -6650    -6426    -5994 
   -5821    -6004    -6247    -6301    -6139    -5967    -6054    -6392 
   -6681    -6647    -6219    -5617    -5275    -5424    -5894    -6386 
   -6704    -6825    -6817    -6623    -6204    -5705    -5298    -5103 
   -5190    -5548    -5989    -6230    -6141    -5803    -5406    -5215 
   -5377    -5788    -6253    -6643    -6910    -6976    -6799    -6462 
   -6057    -5684    -5552    -5788    -6176    -6377    -6366    -6319 
   -6274    -6177    -6065    -6027    -6022    -5980    -5964    -5995 
   -6043    -6150    -6226    -6153    -6019    -5968    -6068    -6237 
   -6319    -6309    -6216    -6006    -5780    -5652    -5580    -5535 
   -5566    -5602    -5517    -5458    -5599    -5830    -6066    -6388 
   -6760    -7038    -7098    -6930    -6627    -6295    -6119    -6189 
   -6245    -6045    -5775    -5745    -5937    -6053    -5922    -5629 
   -5363    -5364    -5701    -6114    -6393    -6552    -6535    -6266 
   -5940    -5821    -5913    -6103    -6338    -6515    -6504    -6282 
   -5938    -5625    -5566    -5829    -6120    -6207    -6232    -6285 
   -6242    -6122    -6077    -6126    -6173    -6192    -6224    -6262 
   -6262    -6218    -6141    -6018    -5902    -5929    -5996    -5856 
   -5634    -5628    -5837    -6102    -6230    -6062    -5717    -5524 
   -5605    -5755    -5783    -5738    -5779    -6073    -6698    -7356 
   -7511    -7033    -6334    -5848    -5668    -5660    -5709    -5746 
   -5753    -5829    -5989    -6023    -5819    -5595    -5603    -5899 
   -6316    -6519    -6394    -6199    -6093    -6076    -6180    -6328 
   -6381    -6330    -6219    -6107    -6025    -5883    -5599    -5359 
   -5514    -6100    -6712    -7026    -7030    -6853    -6682    -6585 
   -6407    -6046    -5715    -5634    -5678    -5683    -5714    -5773 
   -5790    -5891    -6168    -6353    -6228    -5946    -5622    -5258 
   -5066    -5231    -5649    -6161    -6629    -6897    -6959    -6885 
   -6615    -6135    -5690    -5503    -5563    -5780    -6034    -6137 
   -6004    -5728    -5520    -5574    -5873    -6277    -6612    -6696 
   -6551    -6390    -6328    -6300    -6151    -5894    -5799    -6019 
   -6349    -6501    -6377    -6056    -5683    -5393    -5194    -4955 
   -4615    -4365    -4499    -5127    -6104    -7157    -7942    -8186 
   -7897    -7225    -6312    -5320    -4450    -4082    -4604    -5794 
   -6810    -7091    -6814    -6467    -6309    -6284    -6235    -6151 
   -6264    -6756    -7344    -7470    -6951    -6114    -5418    -5117 
   -5154    -5417    -5927    -6590    -7078    -7096    -6551    -5582 
   -4642    -4252    -4556    -5286    -6122    -6813    -7202    -7312 
   -7183    -6847    -6615    -6704    -6821    -6586    -5972    -5193 
   -4542    -4303    -4491    -4800    -5053    -5405    -5922    -6407 
   -6669    -6656    -6528    -6650    -7163    -7720    -7898    -7608 
   -7049    -6509    -6106    -5765    -5509    -5379    -5243    -4950 
   -4556    -4299    -4355    -4671    -5163    -5800    -6462    -6999 
   -7306    -7250    -6751    -5952    -5319    -5379    -6181    -7227 
   -7977    -8182    -7794    -6862    -5665    -4645    -4031    -3893 
   -4337    -5209    -5946    -6087    -5742    -5437    -5667    -6563 
   -7815    -8968    -9679    -9710    -9046    -7847    -6286    -4642 
   -3407    -3102    -3825    -5090    -6257    -6907    -6907    -6444 
   -5807    -5113    -4479    -4251    -4785    -6130    -7978    -9666 
  -10322    -9494    -7496    -5066    -3026    -1844    -1401    -1571 
   -2509    -4114    -5827    -7146    -7906    -8125    -7993    -7882 
   -8002    -8131    -7950    -7542    -7254    -7194    -7117    -6710 
   -5871    -4733    -3495    -2439    -1941    -2219    -3308    -5040 
   -7009    -8649    -9316    -8723    -7225    -5366    -3703    -2874 
   -3284    -4826    -6874    -8608    -9460    -9242    -8097    -6434 
   -4884    -4179    -4666    -6014    -7514    -8446    -8376    -7437 
   -6208    -5171    -4421    -3964    -3991    -4676    -5902    -7329 
   -8629    -9541    -9895    -9576    -8374    -6115    -3018      191 
    2435     2745      888    -2636    -6956   -10974   -13637   -14257 
  -12626    -9271    -5520    -2836    -1973    -2833    -4954    -7618 
   -9799   -10642    -9798    -7491    -4707    -2801    -2367    -2983 
   -4043    -5154    -5933    -6245    -6362    -6551    -6882    -7263 
   -7387    -6983    -6110    -5034    -4131    -3883    -4540    -5844 
   -7310    -8461    -8850    -8294    -7029    -5497    -4268    -3998 
   -4942    -6596    -8016    -8402    -7535    -5894    -4137    -2652 
   -1804    -2037    -3423    -5518    -7645    -9188    -9775    -9398 
   -8490    -7649    -7113    -6697    -6258    -5922    -5790    -5795 
   -5948    -6363    -7052    -7824    -8216    -7584    -5633    -2979 
    -893     -355    -1551    -4074    -7130    -9757   -11118   -10671 
   -8465    -5418    -2916    -1890    -2457    -4224    -6455    -8256 
   -9024    -8602    -7204    -5505    -4414    -4484    -5437    -6523 
   -7358    -7863    -7717    -6795    -5591    -4722    -4514    -5019 
   -5998    -6964    -7395    -7014    -6103    -5333    -5043    -5030 
   -5163    -5566    -6106    -6377    -6203    -5707    -5042    -4413 
   -4140    -4383    -4943    -5489    -5884    -6231    -6686    -7334 
   -8127    -8854    -9202    -8869    -7832    -6594    -5780    -5566 
   -5776    -6265    -6859    -7275    -7330    -7030    -6434    -5586 
   -4664    -4093    -4271    -4972    -5501    -5591    -5497    -5327 
   -5012    -4729    -4806    -5282    -5995    -6874    -7707    -8017 
   -7420    -5896    -3985    -2605    -2234    -2717    -3878    -5556 
   -7321    -8592    -8996    -8527    -7485    -6280    -5252    -4708 
   -4932    -5886    -7169    -8426    -9412    -9736    -9146    -7923 
   -6501    -5177    -4286    -3931    -3842    -3832    -3786    -3584 
   -3537    -4120    -5289    -6724    -8135    -8986    -8807    -7776 
   -6446    -5215    -4342    -3979    -4116    -4837    -6197    -7790 
   -8965    -9274    -8599    -7379    -6378    -5904    -5780    -5783 
   -5645    -5246    -4877    -4868    -5239    -5849    -6579    -7380 
   -8074    -8253    -7726    -6674    -5370    -4267    -3817    -4014 
   -4642    -5574    -6562    -7322    -7824    -7971    -7541    -6713 
   -5846    -4973    -4170    -3794    -4187    -5383    -6914    -8035 
   -8314    -7790    -6713    -5401    -4384    -4206    -4938    -6180 
   -7291    -7608    -6891    -5589    -4499    -4140    -4461    -5058 
   -5618    -6212    -6909    -7321    -7106    -6559    -6237    -6259 
   -6404    -6619    -6924    -7088    -6879    -6381    -5880    -5485 
   -5080    -4675    -4568    -5044    -6007    -7078    -7974    -8519 
   -8591    -8182    -7294    -6084    -5107    -4780    -5004    -5489 
   -5995    -6415    -6770    -6964    -6770    -6077    -4884    -3406 
   -2169    -1621    -1964    -3210    -5000    -6799    -8199    -8816 
   -8379    -7065    -5513    -4372    -4008    -4503    -5638    -7034 
   -8383    -9346    -9560    -8978    -7917    -6791    -5917    -5333 
   -4842    -4453    -4441    -4800    -5289    -5873    -6620    -7492 
   -8321    -8777    -8658    -7970    -6673    -4972    -3618    -3262 
   -3924    -5223    -6620    -7588    -7871    -7362    -6110    -4698 
   -3921    -4048    -4889    -6127    -7164    -7331    -6469    -5011 
   -3719    -3241    -3600    -4476    -5702    -6906    -7456    -7094 
   -6095    -5016    -4421    -4594    -5441    -6513    -7210    -7223 
   -6677    -5933    -5312    -4892    -4712    -4942    -5610    -6509 
   -7461    -8286    -8761    -8905    -8729    -7993    -6755    -5476 
   -4542    -4098    -4067    -4251    -4549    -5022    -5652    -6246 
   -6691    -7048    -7396    -7819    -8201    -8156    -7547    -6671 
   -5792    -5067    -4754    -5105    -6058    -7279    -8433    -9229 
   -9339    -8507    -6849    -4982    -3522    -2637    -2439    -3057 
   -4152    -5190    -5944    -6312    -6223    -5734    -5007    -4395 
   -4378    -5098    -6249    -7452    -8442    -8872    -8449    -7411 
   -6357    -5576    -5085    -4935    -5023    -5103    -5111    -5062 
   -4887    -4642    -4635    -5059    -5695    -6145    -6242    -6264 
   -6558    -7028    -7395    -7531    -7314    -6790    -6250    -5859 
   -5690    -5826    -6183    -6511    -6588    -6494    -6465    -6493 
   -6528    -6666    -6864    -6990    -7020    -6966    -6797    -6436 
   -5814    -5070    -4519    -4295    -4356    -4761    -5536    -6486 
   -7308    -7668    -7275    -6141    -4623    -3169    -2141    -1884 
   -2646    -4214    -6022    -7678    -8889    -9236    -8719    -7911 
   -7277    -6824    -6357    -5799    -5351    -5269    -5481    -5730 
   -5883    -5917    -5937    -6008    -5953    -5629    -5223    -5154 
   -5756    -6914    -8155    -9019    -9267    -8961    -8289    -7334 
   -6208    -5254    -4838    -5031    -5622    -6340    -6933    -7128 
   -6682    -5695    -4631    -3894    -3631    -3790    -4172    -4598 
   -5027    -5440    -5733    -5952    -6338    -6971    -7659    -8120 
   -8027    -7265    -6096    -4916    -4091    -3851    -4153    -4703 
   -5140    -5240    -5003    -4656    -4618    -5135    -6000    -6829 
   -7377    -7473    -7082    -6444    -5923    -5765    -5971    -6346 
   -6748    -7157    -7555    -7757    -7543    -6972    -6308    -5680 
   -5142    -4878    -5024    -5537    -6388    -7402    -8141    -8360 
   -8236    -8062    -8023    -8174    -8407    -8565    -8672    -8835 
   -8891    -8494    -7614    -6519    -5410    -4387    -3522    -2889 
   -2614    -2833    -3541    -4538    -5553    -6355    -6825    -7041 
   -7227    -7504    -7774    -7866    -7700    -7230    -6393    -5243 
   -4013    -2995    -2477    -2574    -3109    -3817    -4510    -5044 
   -5358    -5502    -5489    -5301    -5078    -5046    -5389    -6147 
