Origin Time       2024/04/02 04:24:00
Lat.              40.133
Long.             141.712
Depth. (km)       71
Mag.              6.0
Station Code      TKCH01
Station Lat.      43.4683
Station Long.     143.6830
Station Height(m) 251
Record Time       2024/04/02 04:25:35
Sampling Freq(Hz) 100Hz
Duration Time(s)  127
Dir.              6
Scale Factor      7845(gal)/8223790
Max. Acc. (gal)   0.634
Last Correction   2024/04/02 04:25:36
Memo.             
[...]
    9346     9324     9298     9266     9254     9269     9342     9439 
    9448     9437     9464     9425     9362     9364     9327     9254 
    9281     9336     9329     9332     9350     9378     9417     9396 
    9335     9335     9344     9305     9289     9319     9340     9340 
    9333     9321     9354     9428     9428     9396     9456     9483 
    9401     9340     9305     9254     9254     9310     9401     9477 
    9472     9450     9464     9479     9463     9405     9389     9463 
    9509     9478     9450     9456     9463     9410     9340     9360 
    9425     9406     9306     9242     9290     9351     9319     9255 
    9225     9263     9382     9450     9406     9410     9460     9424 
    9358     9317     9277     9275     9296     9305     9355     9416 
    9400     9308     9240     9220     9189     9215     9319     9360 
    9347     9396     9481     9495     9409     9363     9417     9360 
    9192     9185     9352     9475     9479     9432     9416     9435 
    9400     9347     9379     9427     9427     9464     9512     9435 
    9302     9302     9397     9443     9471     9508     9467     9390 
    9382     9383     9346     9319     9285     9266     9319     9378 
    9402     9428     9413     9327     9271     9300     9279     9170 
    9148     9252     9324     9328     9333     9335     9351     9398 
    9400     9402     9458     9425     9324     9373     9477     9445 
    9413     9467     9494     9444     9366     9354     9418     9450 
    9404     9360     9378     9406     9363     9281     9281     9383 
    9433     9363     9327     9389     9371     9240     9234     9359 
    9406     9351     9288     9285     9355     9378     9324     9360 
    9445     9387     9297     9377     9510     9517     9445     9389 
    9350     9348     9366     9363     9373     9385     9378     9401 
    9379     9259     9196     9238     9319     9427     9486     9464 
    9416     9343     9308     9333     9316     9289     9306     9310 
    9371     9505     9510     9404     9381     9406     9412     9428 
    9420     9387     9390     9383     9362     9393     9397     9317 
    9265     9270     9265     9254     9285     9364     9424     9367 
    9273     9321     9425     9414     9401     9470     9478     9383 
    9320     9340     9393     9435     9417     9321     9240     9271 
    9350     9358     9360     9424     9444     9414     9410     9409 
    9414     9441     9428     9354     9283     9283     9342     9387 
    9408     9413     9393     9409     9478     9516     9493     9431 
    9359     9325     9333     9332     9305     9363     9505     9537 
    9479     9445     9401     9359     9340     9329     9412     9498 
    9417     9320     9346     9346     9261     9232     9310     9414 
    9427     9301     9224     9336     9440     9385     9308     9304 
    9274     9228     9274     9373     9409     9369     9321     9306 
    9289     9279     9285     9290     9327     9350     9294     9231 
    9202     9185     9182     9207     9251     9286     9304     9367 
    9470     9497     9448     9420     9413     9412     9429     9441 
    9452     9489     9520     9489     9412     9359     9367     9383 
    9356     9340     9394     9463     9497     9491     9424     9336 
    9321     9405     9482     9477     9479     9558     9595     9521 
    9431     9340     9220     9201     9306     9355     9339     9348 
    9369     9343     9289     9271     9269     9262     9306     9363 
    9385     9382     9350     9331     9344     9325     9281     9273 
    9304     9323     9329     9364     9373     9327     9328     9369 
    9333     9308     9420     9535     9498     9401     9343     9316 
    9321     9335     9337     9385     9447     9443     9420     9396 
    9337     9329     9371     9366     9375     9431     9447     9428 
    9428     9429     9427     9444     9467     9459     9472     9524 
    9522     9468     9408     9346     9333     9337     9296     9310 
    9366     9344     9316     9358     9404     9389     9337     9315 
    9325     9342     9356     9381     9385     9321     9273     9294 
    9333     9379     9386     9351     9394     9468     9454     9424 
    9428     9382     9270     9190     9207     9273     9329     9340 
    9320     9358     9452     9493     9424     9337     9321     9329 
    9306     9321     9393     9393     9336     9378     9428     9351 
    9294     9320     9335     9351     9364     9354     9364     9400 
    9450     9493     9470     9406     9336     9293     9343     9390 
    9350     9344     9350     9277     9306     9425     9402     9336 
    9406     9526     9567     9471     9329     9298     9319     9315 
    9337     9390     9452     9464     9379     9331     9379     9397 
    9356     9306     9290     9348     9378     9339     9339     9333 
    9320     9408     9462     9379     9310     9327     9394     9462 
    9452     9406     9405     9405     9369     9336     9344     9350 
    9278     9208     9259     9323     9317     9340     9374     9364 
    9347     9358     9401     9404     9344     9356     9412     9404 
    9445     9547     9537     9433     9331     9281     9333     9381 
    9348     9352     9401     9400     9362     9336     9329     9339 
    9344     9364     9435     9509     9521     9445     9358     9383 
    9417     9360     9333     9337     9342     9396     9366     9246 
    9219     9273     9367     9463     9410     9308     9354     9396 
    9344     9374     9432     9351     9224     9209     9277     9339 
    9362     9356     9382     9445     9440     9389     9420     9447 
    9356     9302     9351     9310     9181     9184     9321     9400 
    9363     9358     9429     9458     9432     9425     9414     9390 
    9421     9437     9343     9297     9377     9381     9328     9378 
    9450     9486     9501     9458     9443     9470     9391     9331 
    9423     9444     9329     9286     9308     9286     9271     9306 
    9389     9468     9481     9472     9481     9460     9398     9336 
    9335     9378     9339     9255     9301     9382     9329     9247 
    9239     9267     9309     9335     9336     9359     9370     9323 
    9336     9443     9441     9317     9292     9332     9333     9383 
    9448     9445     9421     9369     9337     9404     9417     9347 
    9379     9456     9420     9335     9309     9343     9394     9406 
    9400     9398     9379     9382     9398     9366     9312     9324 
    9421     9481     9460     9486     9524     9467     9440     9456 
    9385     9309     9308     9319     9344     9387     9386     9354 
    9304     9238     9252     9342     9347     9247     9171     9205 
    9292     9324     9310     9308     9352     9447     9495     9466 
    9420     9352     9281     9271     9304     9367     9447     9481 
    9490     9490     9455     9454     9459     9312     9150     9204 
    9306     9293     9309     9394     9447     9474     9462     9383 
    9329     9390     9463     9413     9373     9470     9520     9404 
    9319     9335     9332     9342     9405     9432     9435     9444 
    9425     9408     9386     9336     9321     9364     9429     9479 
    9466     9408     9358     9309     9289     9288     9261     9309 
    9429     9443     9386     9327     9228     9196     9235     9227 
    9229     9293     9381     9468     9444     9302     9235     9271 
    9285     9289     9337     9369     9313     9270     9387     9555 
    9564     9478     9441     9452     9433     9348     9288     9355 
    9439     9398     9336     9347     9362     9358     9370     9381 
    9370     9360     9339     9269     9236     9290     9321     9313 
    9340     9416     9535     9603     9567     9531     9506     9418 
    9364     9408     9436     9432     9447     9464     9499     9506 
    9413     9290     9216     9186     9209     9263     9309     9363 
    9398     9360     9327     9371     9410     9369     9320     9344 
    9393     9371     9274     9235     9304     9369     9370     9316 
    9315     9433     9505     9463     9413     9350     9242     9163 
    9177     9252     9302     9301     9316     9391     9482     9474 
    9358     9304     9331     9288     9254     9339     9447     9506 
    9522     9501     9454     9402     9375     9359     9351     9373 
    9360     9270     9207     9283     9444     9501     9462     9460 
    9444     9400     9413     9400     9347     9335     9313     9315 
    9412     9452     9390     9425     9572     9585     9432     9386 
    9470     9448     9327     9281     9354     9445     9466     9452 
    9443     9378     9278     9243     9292     9312     9262     9266 
    9378     9425     9310     9236     9321     9348     9278     9290 
    9344     9358     9367     9352     9278     9259     9355     9414 
    9390     9363     9294     9225     9294     9386     9366     9310 
    9278     9304     9400     9471     9487     9462     9370     9305 
    9366     9439     9398     9327     9362     9471     9495     9424 
    9418     9460     9445     9445     9441     9367     9321     9320 
    9306     9315     9342     9390     9462     9479     9444     9439 
    9458     9467     9497     9532     9510     9425     9352     9367 
    9396     9332     9250     9255     9315     9290     9186     9158 
    9186     9215     9278     9317     9317     9340     9367     9425 
    9509     9479     9374     9333     9339     9352     9360     9327 
    9273     9239     9290     9394     9379     9317     9355     9377 
    9393     9467     9450     9393     9471     9559     9502     9369 
    9293     9320     9398     9435     9381     9308     9312     9331 
    9328     9373     9409     9386     9375     9337     9277     9297 
    9316     9296     9378     9483     9475     9445     9421     9370 
    9366     9412     9410     9350     9328     9389     9454     9451 
    9416     9402     9362     9262     9208     9246     9269     9274 
    9339     9405     9425     9402     9316     9266     9342     9425 
    9429     9416     9416     9417     9409     9386     9360     9331 
    9306     9327     9378     9445     9482     9400     9294     9315 
    9367     9317     9250     9323     9491     9587     9543     9409 
    9331     9348     9316     9240     9267     9320     9296     9283 
    9331     9374     9377     9374     9456     9564     9537     9478 
    9517     9510     9404     9315     9289     9302     9289     9263 
    9332     9428     9417     9401     9447     9401     9259     9147 
    9094     9144     9266     9296     9325     9477     9521     9439 
    9462     9512     9433     9283     9140     9085     9181     9348 
    9462     9490     9494     9539     9549     9464     9432     9487 
    9455     9358     9323     9315     9319     9344     9329     9310 
    9381     9478     9466     9404     9425     9447     9359     9263 
    9273     9332     9355     9378     9427     9432     9398     9429 
    9516     9517     9433     9337     9196     9103     9155     9236 
    9300     9385     9459     9474     9417     9364     9375     9383 
    9333     9282     9327     9431     9464     9464     9486     9475 
    9454     9436     9386     9367     9354     9256     9207     9266 
    9275     9250     9297     9319     9301     9404     9528     9454 
    9288     9188     9158     9238     9347     9369     9385     9435 
    9433     9375     9317     9294     9333     9393     9401     9398 
    9401     9379     9398     9491     9580     9595     9552     9506 
    9483     9474     9414     9240     9135     9243     9363     9381 
    9398     9410     9400     9406     9369     9290     9281     9316 
    9342     9390     9495     9570     9499     9413     9433     9394 
    9290     9273     9251     9181     9185     9238     9262     9267 
    9244     9211     9256     9354     9391     9379     9391     9421 
    9416     9363     9296     9279     9332     9425     9512     9501 
    9412     9416     9477     9441     9366     9302     9259     9292 
    9298     9181     9082     9142     9300     9462     9574     9575 
    9491     9490     9625     9697     9624     9591     9586     9509 
    9506     9545     9423     9232     9140     9115     9116     9166 
    9216     9198     9171     9238     9370     9451     9433     9413 
    9494     9621     9666     9575     9414     9293     9155     8930 
    8797     8900     9139     9416     9639     9666     9532     9412 
    9309     9197     9188     9296     9455     9629     9755     9725 
    9555     9363     9244     9259     9363     9421     9387     9340 
    9344     9310     9204     9192     9286     9337     9379     9494 
    9628     9757     9852     9799     9606     9350     9085     8923 
    8915     9057     9301     9489     9548     9536     9471     9398 
    9369     9283     9148     9153     9270     9356     9417     9413 
    9313     9259     9279     9261     9277     9460     9660     9697 
    9621     9506     9325     9059     8811     8757     8901     9053 
    9162     9331     9501     9517     9408     9332     9328     9332 
    9406     9624     9819     9834     9761     9684     9552     9355 
    9171     9108     9177     9220     9140     9065     9057     9099 
    9223     9397     9560     9736     9930    10034     9941     9722 
    9510     9342     9252     9296     9364     9343     9336     9443 
    9609     9703     9574     9306     9174     9144     9128     9262 
    9428     9400     9277     9175     9108     9117     9159     9242 
    9445     9651     9730     9733     9652     9497     9325     9147 
    9034     9028     9115     9283     9427     9466     9460     9429 
    9373     9290     9197     9175     9262     9373     9482     9614 
    9676     9591     9431     9290     9198     9150     9175     9252 
    9289     9306     9352     9352     9336     9406     9491     9549 
    9622     9610     9440     9255     9131     9011     8934     8968 
    9100     9301     9472     9533     9564     9620     9589     9418 
    9269     9304     9441     9489     9460     9509     9614     9653 
    9595     9482     9377     9312     9242     9169     9150     9130 
    9086     9116     9221     9320     9396     9435     9416     9325 
    9205     9177     9281     9390     9408     9406     9490     9621 
    9670     9617     9575     9559     9494     9383     9256     9196 
    9227     9209     9177     9327     9520     9518     9444     9445 
    9455     9423     9329     9228     9263     9382     9391     9323 
    9320     9375     9468     9587     9616     9518     9367     9244 
    9211     9281     9363     9313     9184     9181     9262     9267 
    9231     9270     9406     9529     9570     9578     9535     9448 
    9397     9348     9278     9224     9158     9070     9043     9154 
    9354     9517     9590     9586     9570     9606     9597     9462 
    9336     9288     9234     9173     9162     9170     9153     9186 
    9340     9517     9625     9647     9574     9485     9464     9417 
    9305     9236     9161     9040     8986     9027     9157     9320 
    9402     9448     9508     9568     9666     9713     9657     9613 
    9559     9439     9367     9394     9439     9435     9370     9288 
    9246     9234     9236     9300     9374     9352     9323     9367 
    9408     9429     9410     9339     9350     9444     9472     9450 
    9459     9493     9514     9498     9429     9346     9359     9460 
    9518     9536     9531     9396     9182     9090     9175     9275 
    9250     9236     9339     9382     9304     9283     9391     9491 
    9493     9445     9381     9297     9182     9046     8980     9046 
    9186     9316     9366     9374     9410     9421     9398     9414 
    9437     9402     9356     9333     9333     9425     9533     9508 
    9428     9406     9432     9498     9508     9373     9248     9273 
    9391     9531     9626     9640     9629     9617     9548     9377 
    9182     9134     9169     9101     9035     9136     9293     9356 
    9359     9382     9413     9406     9360     9312     9292     9316 
    9370     9455     9593     9660     9562     9494     9541     9525 
    9429     9393     9396     9352     9281     9236     9221     9200 
    9185     9215     9255     9267     9266     9274     9343     9477 
    9531     9471     9439     9467     9510     9543     9504     9400 
    9333     9288     9213     9211     9320     9443     9517     9574 
    9653     9676     9553     9374     9198     9053     9057     9182 
    9263     9286     9310     9337     9363     9363     9348     9373 
    9418     9432     9417     9385     9356     9356     9315     9209 
    9182     9301     9440     9528     9597     9603     9544     9532 
    9521     9387     9221     9130     9077     9024     8966     8927 
    8991     9163     9335     9471     9624     9730     9697     9591 
    9470     9306     9186     9190     9252     9336     9431     9501 
    9578     9639     9629     9602     9574     9467     9296     9190 
    9212     9292     9386     9505     9630     9687     9579     9367 
    9232     9228     9243     9216     9224     9329     9497     9616 
    9620     9574     9513     9401     9262     9146     9089     9116 
    9192     9270     9373     9464     9468     9448     9498     9590 
    9656     9626     9525     9478     9445     9290     9107     9042 
    9031     9039     9111     9181     9225     9289     9320     9290 
    9273     9288     9313     9340     9369     9381     9333     9285 
    9347     9456     9452     9382     9362     9352     9292     9234 
    9235     9302     9394     9439     9441     9462     9477     9464 
    9472     9490     9498     9506     9490     9466     9486     9521 
    9535     9524     9479     9451     9443     9391     9332     9285 
    9196     9103     9069     9131     9302     9437     9437     9386 
    9320     9265     9285     9292     9212     9163     9184     9200 
    9202     9201     9201     9244     9294     9277     9266     9320 
    9332     9290     9347     9472     9474     9363     9278     9234 
    9196     9188     9213     9211     9185     9200     9208     9190 
    9232     9297     9370     9544     9764     9872     9821     9671 
    9545     9504     9471     9428     9437     9497     9551     9567 
    9543     9518     9526     9533     9535     9531     9490     9468 
    9529     9610     9622     9591     9613     9655     9616     9547 
    9517     9495     9458     9364     9215     9143     9216     9348 
    9432     9452     9498     9551     9489     9336     9225     9188 
    9162     9131     9111     9096     9120     9231     9336     9348 
    9352     9374     9315     9227     9259     9373     9433     9402 
    9296     9171     9099     9077     9097     9170     9269     9344 
    9389     9386     9327     9243     9165     9139     9213     9342 
    9468     9587     9661     9668     9648     9629     9607     9595 
    9580     9533     9470     9374     9255     9232     9325     9412 
