Origin Time       2024/04/02 04:24:00
Lat.              40.133
Long.             141.712
Depth. (km)       71
Mag.              6.0
Station Code      TKCH01
Station Lat.      43.4683
Station Long.     143.6830
Station Height(m) 128.5
Record Time       2024/04/02 04:25:35
Sampling Freq(Hz) 100Hz
Duration Time(s)  127
Dir.              2
Scale Factor      2942(gal)/8224139
Max. Acc. (gal)   0.551
Last Correction   2024/04/02 04:25:36
Memo.             
[...]
   92635    92716    92824    92877    92901    92956    92985    92950 
   92916    92901    92869    92848    92897    92967    92981    92977 
   92996    92982    92880    92720    92619    92643    92753    92827 
   92805    92769    92758    92739    92730    92726    92709    92730 
   92778    92804    92828    92866    92867    92816    92813    92866 
   92869    92855    92873    92880    92875    92867    92867    92869 
   92823    92786    92819    92874    92927    92970    92988    92981 
   92969    92923    92824    92759    92799    92873    92873    92801 
   92719    92684    92728    92799    92857    92946    93040    93087 
   93090    93048    93031    93051    93015    92961    92935    92886 
   92886    92931    92905    92836    92788    92831    92959    92993 
   92967    92996    92981    92942    92929    92853    92778    92794 
   92842    92890    92905    92866    92867    92936    93013    93047 
   93039    93035    93012    92979    92975    92946    92911    92907 
   92832    92730    92773    92919    93010    93032    93055    93083 
   93071    93019    92970    92932    92886    92831    92770    92740 
   92793    92894    92935    92882    92840    92867    92911    92908 
   92888    92890    92859    92813    92846    92894    92913    92907 
   92836    92784    92812    92854    92880    92889    92863    92836 
   92859    92913    92940    92921    92907    92912    92878    92862 
   92934    92979    92943    92904    92892    92884    92897    92923 
   92884    92851    92989    93137    93064    92948    92947    92886 
   92732    92622    92596    92669    92797    92855    92831    92817 
   92840    92870    92885    92915    92967    92962    92890    92842 
   92858    92907    92958    92974    92916    92881    92925    92916 
   92817    92742    92715    92728    92794    92894    92946    92909 
   92884    92898    92911    92943    92958    92954    92983    92948 
   92813    92716    92718    92780    92827    92819    92828    92855 
   92830    92801    92804    92786    92776    92784    92742    92681 
   92700    92767    92797    92772    92715    92696    92743    92820 
   92874    92897    92952    93009    92969    92935    93010    93064 
   93016    92948    92931    92969    92982    92923    92866    92847 
   92866    92970    93050    93005    92961    92942    92869    92816 
   92842    92907    93006    93035    92908    92819    92886    92969 
   92979    92932    92880    92890    92934    92967    92955    92894 
   92878    92908    92889    92823    92769    92788    92862    92921 
   92977    93035    93037    93013    93020    93006    92990    93016 
   93017    93010    93060    93062    93002    93042    93132    93075 
   92944    92913    92924    92934    92965    92938    92915    92997 
   93050    93012    93024    93096    93083    92979    92884    92792 
   92720    92732    92766    92723    92658    92718    92835    92858 
   92846    92842    92799    92794    92844    92840    92805    92805 
   92861    92970    93066    93128    93182    93174    93106    93012 
   92870    92747    92723    92735    92705    92651    92635    92657 
   92655    92646    92688    92797    92923    92911    92796    92794 
   92853    92808    92697    92665    92757    92817    92788    92790 
   92854    92917    92961    92942    92830    92762    92827    92855 
   92793    92772    92800    92823    92797    92730    92709    92746 
   92722    92649    92661    92705    92700    92751    92848    92844 
   92805    92821    92853    92888    92881    92830    92839    92858 
   92877    93031    93205    93167    93033    93023    93073    93060 
   93054    93141    93233    93191    93059    92958    92898    92828 
   92772    92790    92870    92929    92911    92873    92844    92799 
   92799    92842    92821    92778    92804    92839    92869    92958 
   93023    92993    92997    93114    93208    93187    93150    93132 
   93066    92975    92908    92843    92770    92754    92842    92901 
   92840    92813    92862    92892    92900    92862    92805    92792 
   92780    92736    92689    92685    92765    92846    92821    92766 
   92743    92730    92801    92948    93035    93093    93127    93104 
   93109    93140    93136    93078    92978    92874    92792    92826 
   92931    92885    92747    92692    92686    92713    92776    92839 
   92892    92908    92881    92846    92828    92920    93039    92969 
   92846    92890    92958    92913    92881    92928    92947    92880 
   92831    92840    92839    92878    92951    92901    92796    92799 
   92805    92750    92772    92848    92867    92892    92993    93125 
   93201    93193    93136    93032    92911    92877    92905    92919 
   92939    92942    92869    92817    92831    92812    92801    92871 
   92934    92947    92982    93023    92994    92925    92838    92723 
   92678    92749    92804    92761    92711    92745    92823    92847 
   92840    92869    92861    92844    92951    93019    92913    92847 
   92877    92801    92693    92724    92782    92781    92740    92634 
   92570    92676    92842    92905    92898    92915    92934    92946 
   92998    93006    92898    92803    92776    92769    92788    92792 
   92807    92905    92970    92943    92970    93046    93029    92921 
   92830    92820    92862    92877    92882    92932    92973    92942 
   92902    92934    93000    93060    93075    93004    92898    92826 
   92796    92784    92726    92643    92661    92784    92877    92866 
   92776    92734    92846    92974    92998    92971    92934    92912 
   92936    93002    93079    93114    93079    92981    92901    92892 
   92862    92830    92870    92905    92966    93071    93055    92934 
   92853    92811    92777    92765    92758    92776    92869    92936 
   92873    92785    92812    92857    92808    92786    92839    92886 
   92973    93058    93048    93037    93028    92948    92916    92977 
   93012    93000    92967    92900    92823    92759    92774    92857 
   92866    92805    92749    92730    92784    92811    92742    92697 
   92750    92842    92854    92782    92777    92851    92881    92870 
   92890    92916    92959    93035    93036    92967    92946    92925 
   92889    92936    93047    93098    93037    92924    92893    92973 
   93063    93083    93019    92975    92996    92931    92799    92766 
   92812    92873    92975    93059    93074    93104    93152    93178 
   93174    93131    93093    93113    93151    93123    93021    92956 
   92894    92757    92686    92691    92631    92624    92727    92776 
   92747    92693    92664    92755    92869    92893    92959    93116 
   93220    93177    93070    92993    92902    92823    92800    92755 
   92639    92512    92504    92624    92746    92817    92843    92797 
   92738    92757    92821    92859    92882    92942    93029    93067 
   93005    92919    92861    92796    92747    92711    92657    92673 
   92794    92913    92978    92951    92851    92811    92804    92718 
   92649    92684    92770    92888    93033    93118    93098    93058 
   93008    92916    92827    92793    92838    92866    92843    92902 
   92997    92997    92970    92993    93060    93094    93010    92877 
   92807    92807    92846    92878    92874    92875    92946    93028 
   92992    92880    92831    92820    92801    92789    92796    92854 
   92877    92820    92867    93020    93101    93098    93037    92909 
   92826    92843    92885    92912    92931    92898    92836    92800 
   92727    92645    92654    92692    92705    92745    92809    92835 
   92784    92723    92740    92842    92956    93002    93013    93059 
   93086    93070    93043    93002    92932    92793    92650    92631 
   92646    92600    92616    92770    92988    93101    93015    92826 
   92649    92651    92898    93097    93120    93193    93299    93244 
   93123    93097    93058    92944    92888    92877    92799    92666 
   92535    92400    92271    92232    92280    92376    92587    92858 
   92965    92928    92978    93171    93367    93375    93164    93000 
   93025    93062    92920    92616    92383    92406    92522    92593 
   92727    92865    92894    92970    93164    93306    93353    93376 
   93317    93193    93133    93077    92920    92739    92585    92460 
   92416    92480    92581    92713    92966    93285    93440    93378 
   93239    93062    92811    92585    92519    92566    92610    92673 
   92853    93127    93361    93399    93222    93012    92924    92928 
   92921    92912    92986    93158    93328    93320    93190    93154 
   93086    92830    92570    92516    92677    92870    92897    92843 
   92889    92975    92952    92850    92765    92705    92734    92920 
   93081    93000    92801    92689    92707    92820    92893    92854 
   92767    92558    92286    92335    92766    93199    93405    93453 
   93483    93480    93313    92951    92560    92375    92512    92859 
   93137    93195    93214    93382    93545    93334    92654    91972 
   91716    91801    91978    92188    92545    93028    93370    93379 
   93183    92992    92750    92323    91899    91755    91905    92288 
   92923    93630    94014    93970    93779    93536    93171    92832 
   92641    92591    92699    92824    92832    92886    93069    93131 
   92875    92489    92318    92410    92537    92600    92731    93059 
   93498    93741    93611    93249    92838    92464    92152    91868 
   91724    91972    92542    92982    93128    93283    93672    94076 
   94123    93810    93401    93081    92927    92855    92623    92215 
   92067    92379    92669    92627    92674    93162    93820    94232 
   94243    93919    93486    93097    92715    92361    92134    92064 
   92155    92396    92612    92646    92704    92866    92838    92612 
   92504    92665    93010    93258    93117    92678    92308    92196 
   92350    92635    92788    92774    92812    93073    93552    93957 
   93985    93723    93418    93106    92785    92573    92422    92199 
   92095    92281    92558    92846    93143    93175    92965    92871 
   92975    93220    93479    93457    93163    92936    92898    92902 
   92877    92869    92846    92689    92462    92373    92493    92794 
   93108    93094    92862    92850    93052    93212    93249    93083 
   92686    92337    92218    92165    92202    92492    92836    93055 
   93324    93745    94144    94254    93953    93447    92990    92608 
   92206    91894    91949    92298    92520    92495    92412    92479 
   92776    93118    93302    93314    93152    92900    92747    92776 
   92892    92848    92632    92550    92584    92470    92321    92531 
   93167    93708    93819    93811    93835    93534    92789    92053 
   91827    92094    92411    92473    92375    92321    92437    92696 
   92917    93070    93305    93618    93822    93835    93714    93479 
   93191    92965    92746    92389    92026    91944    92163    92502 
   92772    93013    93472    93962    93883    93217    92584    92249 
   92071    92141    92483    92836    93152    93460    93545    93353 
   93243    93417    93598    93540    93279    92936    92732    92796 
   92889    92740    92427    92248    92329    92531    92777    93097 
   93303    93251    93148    93100    92985    92755    92441    92209 
   92207    92291    92389    92680    93106    93403    93515    93463 
   93237    93012    92889    92801    92781    92839    92851    92813 
   92774    92665    92618    92885    93263    93405    93356    93247 
   93154    93120    92977    92709    92709    93097    93333    93060 
   92718    92730    92911    92907    92686    92476    92307    92064 
   91897    92025    92364    92701    92977    93175    93274    93312 
   93262    93117    92997    92967    93033    93217    93590    94095 
   94324    94088    93725    93505    93347    93048    92580    92252 
   92260    92311    92156    91999    92029    92097    92103    92138 
   92207    92302    92484    92672    92757    92728    92572    92454 
   92612    92951    93243    93503    93768    93872    93656    93109 
   92391    91808    91592    91713    92033    92425    92801    93121 
   93352    93555    93729    93609    93224    93028    93024    92824 
   92541    92448    92402    92360    92529    92866    93144    93212 
   93058    92869    92830    92880    92882    92838    92832    92885 
   92902    92884    92961    93105    93209    93367    93591    93658 
   93545    93413    93317    93278    93285    93216    92986    92666 
   92394    92244    92252    92418    92639    92816    92923    92902 
   92704    92449    92330    92412    92570    92695    92854    93052 
   93145    93112    93132    93334    93613    93710    93465    93016 
   92708    92676    92693    92618    92605    92704    92747    92654 
   92481    92360    92406    92600    92848    93081    93239    93247 
   93112    92970    92885    92797    92731    92709    92693    92723 
   92762    92681    92585    92647    92871    93170    93264    92961 
   92627    92597    92653    92638    92596    92538    92557    92701 
   92896    93021    93004    92985    93139    93379    93545    93684 
   93823    93722    93363    93104    93024    92920    92724    92460 
   92279    92387    92739    93158    93483    93560    93409    93156 
   92878    92600    92213    91713    91362    91346    91665    92155 
   92550    92701    92649    92600    92759    93097    93464    93694 
   93749    93810    93860    93594    93039    92623    92587    92759 
   92901    92958    93006    93109    93251    93318    93144    92758 
   92412    92246    92225    92272    92337    92465    92650    92776 
   92851    92940    92912    92685    92485    92496    92664    92889 
   93067    93129    93137    93154    93144    93199    93440    93704 
   93839    93852    93717    93534    93415    93337    93316    93244 
   93078    93010    93010    92896    92750    92705    92684    92572 
   92407    92426    92851    93506    93939    93996    93847    93598 
   93229    92808    92520    92469    92493    92383    92202    92138 
   92183    92213    92225    92300    92469    92713    92959    93104 
   93178    93267    93337    93388    93449    93390    93189    93074 
   93070    92890    92651    92755    92948    92809    92615    92674 
   92812    92828    92691    92520    92475    92445    92281    92125 
   92092    92119    92156    92205    92340    92572    92863    93226 
   93555    93718    93698    93468    93201    93187    93305    93229 
   93017    92902    92898    92904    92862    92770    92696    92734 
   92828    92855    92854    92935    93063    93100    92900    92542 
   92380    92527    92711    92766    92736    92681    92730    92934 
   93069    93010    92928    92909    92986    93170    93217    93039 
   92917    92873    92685    92429    92362    92558    92871    93128 
   93262    93267    93208    93120    93016    93002    93082    93074 
   92890    92626    92423    92318    92198    92072    92082    92253 
   92534    92844    93060    93156    93236    93351    93430    93403 
   93285    93129    92952    92699    92460    92483    92750    93032 
   93209    93264    93349    93580    93690    93456    93102    92878 
   92821    92948    93190    93341    93283    93021    92740    92730 
   92943    93100    93177    93278    93372    93320    93096    92894 
   92799    92654    92475    92415    92416    92404    92488    92627 
   92680    92724    92804    92851    92952    93132    93289    93444 
   93602    93673    93621    93495    93422    93357    93172    92942 
   92774    92703    92786    92943    93029    93086    93167    93232 
   93290    93309    93187    92977    92759    92492    92267    92230 
   92314    92427    92551    92653    92759    92936    93172    93383 
   93513    93611    93673    93599    93371    93069    92827    92699 
   92560    92371    92176    91905    91675    91723    91956    92164 
   92323    92549    92921    93330    93614    93745    93696    93521 
   93379    93186    92826    92541    92507    92626    92735    92676 
   92456    92264    92184    92119    91993    91905    91917    91984 
   92171    92439    92607    92718    92897    92986    92869    92739 
   92716    92742    92803    92857    92871    92963    93121    93267 
   93437    93476    93210    92835    92511    92215    92065    92145 
   92290    92341    92365    92443    92446    92288    92129    92146 
   92302    92457    92570    92650    92645    92534    92431    92480 
   92697    92925    92969    92871    92836    92881    92898    92898 
   92946    92989    92931    92840    92859    92996    93116    93132 
   93177    93309    93375    93379    93363    93240    93100    93066 
   93056    92994    92938    92942    92988    93048    93100    93096 
   93032    92978    92963    92923    92885    92956    93054    93087 
   93162    93322    93507    93629    93592    93448    93291    93109 
   93008    93143    93372    93455    93409    93267    92904    92437 
   92172    92118    92094    92072    92130    92333    92678    93051 
   93294    93399    93479    93571    93675    93768    93730    93548 
   93379    93275    93158    92982    92790    92693    92705    92664 
   92530    92493    92618    92746    92788    92738    92669    92765 
   93024    93233    93310    93302    93272    93271    93276    93332 
   93484    93569    93445    93249    93154    93144    93133    93082 
   93043    93086    93145    93131    93066    92975    92863    92827 
   92929    93054    93114    93127    93100    93109    93214    93364 
   93505    93571    93498    93262    92932    92632    92426    92329 
   92291    92260    92267    92385    92635    92894    93012    92965 
   92863    92840    92889    92948    92961    92812    92585    92495 
   92514    92573    92722    92877    92901    92794    92659    92584 
   92550    92496    92407    92318    92261    92207    92165    92252 
   92449    92632    92821    92988    93012    93013    93105    93168 
   93210    93293    93316    93275    93266    93240    93082    92839 
   92661    92557    92443    92361    92377    92465    92643    92935 
   93191    93239    93137    93043    93012    92993    92931    92844 
   92751    92659    92682    92859    93081    93283    93407    93395 
   93297    93123    92853    92616    92516    92456    92395    92387 
   92384    92361    92375    92398    92445    92645    92973    93214 
   93324    93417    93460    93384    93224    93013    92830    92766 
   92827    92952    93044    93040    92983    92857    92597    92330 
   92195    92137    92067    92025    92068    92160    92287    92493 
   92736    92893    92916    92855    92804    92784    92759    92755 
   92800    92835    92815    92793    92857    92977    93037    93047 
   93094    93129    93105    93155    93275    93302    93272    93252 
   93183    93085    93025    93000    92950    92851    92773    92735 
   92639    92507    92520    92686    92831    92897    92921    92948 
   93005    92992    92912    92909    92919    92800    92643    92587 
