Origin Time       2024/04/02 04:24:00
Lat.              40.133
Long.             141.712
Depth. (km)       71
Mag.              6.0
Station Code      YMNH09
Station Lat.      35.4327
Station Long.     138.3325
Station Height(m) 393
Record Time       2024/04/02 04:26:20
Sampling Freq(Hz) 100Hz
Duration Time(s)  120
Dir.              4
Scale Factor      7845(gal)/8223790
Max. Acc. (gal)   0.105
Last Correction   2024/04/02 04:26:21
Memo.             
[...]
   14126    14143    14164    14181    14184    14173    14157    14149 
   14152    14157    14160    14164    14170    14177    14180    14183 
   14181    14173    14162    14149    14143    14156    14169    14177 
   14187    14191    14184    14177    14173    14164    14158    14166 
   14185    14203    14207    14197    14181    14169    14168    14175 
   14184    14184    14172    14152    14131    14112    14111    14123 
   14138    14148    14148    14141    14134    14134    14142    14154 
   14166    14173    14169    14160    14154    14153    14156    14158 
   14161    14164    14161    14157    14157    14160    14157    14153 
   14153    14149    14145    14142    14135    14131    14134    14143 
   14154    14160    14156    14143    14130    14122    14119    14126 
   14141    14153    14160    14168    14169    14158    14145    14138 
   14135    14137    14146    14156    14158    14158    14153    14138 
   14126    14123    14130    14143    14160    14169    14169    14160 
   14153    14157    14162    14165    14175    14188    14195    14196 
   14189    14177    14173    14172    14172    14169    14164    14152 
   14138    14127    14122    14121    14125    14135    14148    14154 
   14157    14156    14152    14146    14141    14137    14134    14135 
   14143    14152    14153    14154    14156    14152    14146    14149 
   14158    14168    14172    14173    14172    14160    14142    14130 
   14123    14121    14122    14133    14145    14149    14152    14153 
   14152    14154    14160    14158    14154    14148    14138    14134 
   14138    14149    14164    14170    14172    14173    14170    14161 
   14150    14143    14143    14148    14153    14161    14165    14172 
   14173    14158    14137    14126    14131    14143    14158    14173 
   14179    14172    14160    14148    14135    14137    14150    14168 
   14180    14180    14168    14154    14149    14149    14152    14152 
   14152    14149    14146    14152    14160    14161    14157    14150 
   14141    14135    14138    14145    14153    14158    14156    14150 
   14142    14134    14134    14141    14146    14156    14162    14158 
   14150    14143    14135    14129    14131    14138    14148    14161 
   14165    14158    14146    14133    14126    14131    14139    14149 
   14154    14152    14141    14127    14123    14131    14143    14161 
   14179    14183    14173    14161    14150    14150    14160    14169 
   14179    14181    14173    14160    14139    14125    14127    14141 
   14149    14156    14158    14150    14141    14142    14154    14166 
   14169    14165    14160    14154    14160    14169    14180    14187 
   14181    14164    14145    14137    14142    14156    14172    14185 
   14181    14164    14146    14137    14139    14153    14164    14158 
   14150    14143    14139    14138    14142    14145    14149    14150 
   14148    14143    14148    14156    14165    14176    14181    14177 
   14165    14149    14139    14143    14161    14184    14196    14192 
   14176    14157    14138    14127    14133    14143    14156    14166 
   14169    14170    14168    14161    14154    14146    14139    14139 
   14139    14135    14134    14142    14150    14154    14164    14168 
   14158    14145    14133    14123    14123    14139    14156    14157 
   14152    14143    14133    14123    14122    14127    14134    14148 
   14161    14162    14150    14142    14138    14137    14146    14160 
   14172    14173    14164    14156    14160    14168    14175    14170 
   14156    14139    14131    14131    14137    14146    14160    14169 
   14169    14161    14149    14134    14127    14134    14142    14153 
   14158    14156    14156    14158    14156    14154    14154    14153 
   14154    14154    14153    14150    14148    14146    14139    14133 
   14139    14149    14152    14146    14138    14141    14154    14169 
   14180    14181    14172    14156    14142    14138    14145    14153 
   14161    14160    14152    14149    14150    14150    14156    14158 
   14153    14141    14133    14134    14141    14150    14158    14162 
   14160    14152    14135    14123    14129    14143    14157    14166 
   14170    14161    14148    14138    14129    14126    14135    14148 
   14157    14164    14161    14152    14146    14149    14150    14149 
   14145    14145    14150    14146    14137    14142    14153    14154 
   14157    14156    14142    14127    14116    14116    14127    14135 
   14146    14158    14162    14161    14160    14154    14150    14149 
   14153    14165    14176    14177    14165    14152    14145    14145 
   14148    14158    14172    14179    14175    14162    14149    14141 
   14135    14134    14139    14150    14164    14172    14170    14166 
   14157    14150    14150    14156    14166    14173    14162    14141 
   14123    14122    14133    14148    14156    14160    14161    14160 
   14157    14161    14164    14161    14158    14154    14143    14138 
   14139    14141    14149    14154    14149    14145    14142    14139 
   14141    14146    14157    14165    14164    14160    14158    14156 
   14160    14166    14170    14172    14170    14161    14150    14142 
   14135    14138    14148    14160    14165    14157    14142    14131 
   14127    14130    14142    14156    14162    14158    14149    14145 
   14149    14160    14169    14173    14170    14161    14150    14148 
   14153    14164    14173    14173    14160    14146    14141    14146 
   14156    14164    14168    14162    14150    14142    14142    14149 
   14157    14161    14161    14156    14142    14133    14130    14134 
   14148    14158    14161    14162    14162    14161    14156    14146 
   14138    14138    14146    14157    14166    14162    14153    14146 
   14142    14143    14153    14156    14156    14154    14150    14153 
   14161    14166    14168    14162    14153    14149    14152    14162 
   14173    14176    14172    14166    14162    14161    14157    14157 
   14166    14173    14165    14156    14148    14139    14135    14137 
   14143    14150    14149    14142    14138    14137    14133    14129 
   14131    14139    14146    14150    14153    14152    14142    14137 
   14141    14150    14161    14168    14164    14152    14137    14126 
   14127    14142    14157    14165    14172    14170    14164    14156 
   14149    14145    14141    14138    14138    14142    14149    14156 
   14161    14160    14154    14146    14138    14135    14129    14126 
   14139    14152    14158    14166    14170    14166    14157    14152 
   14154    14161    14160    14156    14149    14139    14126    14121 
   14126    14135    14142    14148    14148    14143    14142    14143 
   14150    14158    14160    14162    14165    14161    14158    14160 
   14161    14164    14169    14166    14161    14152    14145    14146 
   14149    14148    14153    14162    14165    14164    14158    14154 
   14152    14153    14161    14166    14164    14156    14141    14126 
   14121    14127    14146    14166    14181    14192    14191    14181 
   14175    14172    14175    14177    14166    14150    14139    14133 
   14139    14154    14156    14148    14134    14119    14115    14126 
   14141    14154    14162    14161    14153    14145    14141    14139 
   14145    14160    14177    14185    14187    14180    14166    14157 
   14153    14152    14153    14150    14145    14137    14130    14130 
   14135    14142    14152    14160    14164    14162    14156    14148 
   14146    14152    14161    14169    14166    14153    14135    14131 
   14142    14154    14166    14176    14172    14160    14153    14154 
   14162    14172    14179    14177    14165    14150    14138    14134 
   14139    14146    14141    14129    14119    14110    14111    14122 
   14130    14135    14141    14148    14161    14173    14183    14195 
   14200    14191    14172    14146    14127    14121    14123    14142 
   14160    14158    14149    14146    14153    14153    14139    14122 
   14115    14122    14138    14157    14169    14168    14166    14168 
   14168    14166    14176    14185    14187    14181    14179    14177 
   14172    14164    14156    14148    14142    14139    14137    14138 
   14149    14161    14165    14164    14156    14146    14142    14149 
   14157    14160    14157    14162    14176    14191    14200    14192 
   14170    14150    14134    14127    14141    14164    14183    14185 
   14170    14143    14119    14104    14102    14114    14133    14148 
   14156    14158    14149    14131    14118    14112    14114    14123 
   14141    14154    14166    14189    14210    14211    14196    14172 
   14145    14126    14126    14142    14164    14181    14183    14169 
   14148    14122    14106    14115    14135    14148    14153    14150 
   14142    14142    14152    14166    14183    14197    14199    14181 
   14158    14139    14125    14122    14129    14135    14137    14127 
   14112    14110    14111    14122    14146    14168    14180    14191 
   14191    14189    14188    14184    14181    14170    14149    14129 
   14106    14080    14064    14062    14071    14077    14079    14080 
   14087    14098    14111    14129    14152    14179    14199    14206 
   14204    14193    14175    14154    14130    14112    14116    14134 
   14157    14173    14179    14173    14162    14153    14148    14146 
   14156    14164    14160    14142    14125    14119    14127    14153 
   14191    14222    14233    14216    14189    14166    14154    14156 
   14169    14187    14196    14191    14181    14173    14170    14166 
   14157    14143    14131    14123    14121    14126    14138    14157 
   14176    14180    14166    14145    14125    14118    14137    14176 
   14204    14203    14183    14157    14146    14161    14185    14197 
   14193    14176    14149    14130    14127    14148    14179    14195 
   14192    14176    14146    14122    14118    14127    14153    14183 
   14200    14206    14192    14172    14164    14164    14168    14173 
   14168    14153    14145    14141    14139    14143    14152    14161 
   14156    14133    14108    14092    14083    14085    14103    14129 
   14152    14169    14169    14150    14130    14121    14123    14133 
   14141    14141    14139    14145    14158    14169    14169    14157 
   14139    14127    14134    14154    14172    14187    14192    14177 
   14154    14143    14145    14158    14176    14187    14188    14183 
   14175    14169    14161    14153    14145    14130    14112    14103 
   14102    14108    14122    14135    14142    14141    14133    14131 
   14141    14153    14162    14166    14168    14165    14161    14160 
   14161    14164    14162    14153    14141    14134    14134    14149 
   14175    14199    14210    14195    14168    14146    14135    14131 
   14145    14166    14184    14197    14202    14200    14200    14200 
   14202    14199    14191    14176    14148    14121    14114    14129 
   14154    14179    14181    14161    14139    14122    14112    14119 
   14135    14152    14164    14169    14165    14154    14143    14145 
   14156    14170    14183    14183    14170    14156    14142    14131 
   14118    14103    14092    14083    14087    14103    14126    14157 
   14180    14181    14170    14157    14145    14139    14133    14127 
   14130    14145    14166    14189    14208    14218    14214    14189 
   14153    14122    14111    14119    14135    14146    14145    14126 
   14100    14083    14084    14103    14137    14169    14193    14197 
   14192    14188    14185    14189    14197    14204    14208    14206 
   14197    14191    14183    14169    14154    14142    14139    14145 
   14148    14142    14133    14122    14111    14104    14103    14106 
   14110    14111    14112    14115    14127    14142    14154    14165 
   14173    14173    14168    14156    14143    14141    14142    14138 
   14139    14141    14138    14137    14134    14135    14139    14139 
   14138    14137    14134    14138    14145    14149    14152    14146 
   14137    14134    14138    14145    14156    14170    14188    14203 
   14218    14235    14246    14243    14231    14211    14181    14157 
   14148    14149    14157    14160    14157    14154    14150    14152 
   14156    14157    14149    14137    14125    14116    14111    14118 
   14135    14152    14164    14164    14152    14148    14152    14149 
   14146    14145    14143    14142    14139    14142    14150    14152 
   14148    14139    14138    14145    14154    14153    14152    14154 
   14154    14157    14172    14195    14216    14227    14229    14218 
   14196    14173    14160    14156    14154    14146    14139    14137 
   14143    14161    14180    14191    14185    14156    14125    14108 
   14102    14108    14130    14157    14188    14204    14196    14177 
   14158    14143    14142    14149    14154    14164    14169    14176 
   14180    14175    14166    14161    14160    14170    14181    14180 
   14172    14152    14127    14108    14096    14095    14104    14123 
   14156    14191    14212    14223    14219    14199    14180    14177 
   14196    14218    14226    14216    14187    14146    14110    14091 
   14087    14098    14121    14141    14141    14126    14110    14095 
   14087    14098    14119    14131    14139    14141    14131    14123 
   14127    14134    14143    14152    14150    14142    14133    14129 
   14129    14125    14110    14085    14058    14042    14049    14076 
   14110    14138    14146    14134    14123    14125    14131    14137 
   14146    14149    14141    14135    14137    14141    14148    14162 
   14181    14195    14196    14193    14191    14181    14168    14152 
   14130    14112    14102    14107    14122    14130    14133    14126 
   14115    14123    14143    14160    14169    14172    14161    14146 
   14139    14142    14152    14169    14195    14220    14229    14211 
   14170    14131    14111    14111    14123    14135    14134    14115 
   14088    14071    14073    14094    14123    14161    14188    14193 
   14189    14181    14176    14180    14185    14191    14204    14218 
   14223    14223    14207    14172    14135    14112    14106    14112 
   14129    14146    14161    14165    14160    14150    14142    14139 
   14143    14152    14157    14157    14157    14161    14165    14169 
   14172    14170    14165    14150    14126    14103    14088    14083 
   14091    14107    14123    14141    14161    14180    14188    14185 
   14172    14154    14134    14114    14100    14102    14115    14130 
   14129    14111    14081    14054    14046    14068    14104    14139 
   14168    14173    14158    14139    14133    14141    14160    14183 
   14200    14206    14197    14177    14150    14125    14111    14108 
   14115    14137    14160    14176    14187    14183    14168    14156 
   14153    14162    14176    14180    14180    14185    14197    14208 
   14214    14214    14212    14206    14193    14189    14183    14169 
   14154    14135    14116    14110    14112    14121    14133    14145 
   14152    14149    14143    14145    14154    14172    14192    14206 
   14210    14197    14177    14162    14158    14166    14176    14175 
   14160    14141    14121    14108    14112    14129    14150    14172 
   14189    14197    14188    14169    14153    14143    14139    14139 
   14146    14154    14157    14150    14141    14130    14126    14137 
   14149    14160    14173    14177    14170    14168    14173    14184 
   14199    14210    14210    14202    14191    14181    14179    14185 
   14191    14185    14172    14149    14130    14126    14134    14146 
   14164    14180    14189    14195    14193    14188    14188    14189 
   14195    14199    14195    14185    14176    14166    14157    14149 
   14145    14150    14162    14168    14161    14149    14134    14123 
   14119    14125    14142    14164    14185    14197    14188    14165 
   14139    14123    14115    14116    14123    14123    14119    14125 
   14138    14150    14164    14177    14185    14184    14176    14168 
   14168    14169    14166    14156    14148    14149    14157    14173 
   14191    14199    14193    14184    14172    14165    14162    14161 
   14169    14179    14187    14189    14183    14169    14156    14143 
   14129    14112    14100    14094    14094    14104    14125    14141 
   14148    14153    14158    14158    14152    14143    14141    14143 
   14148    14146    14137    14122    14116    14125    14131    14133 
   14126    14106    14080    14056    14045    14058    14079    14098 
   14111    14111    14103    14102    14111    14129    14152    14170 
   14176    14165    14149    14141    14139    14142    14145    14145 
   14141    14133    14127    14133    14143    14149    14148    14139 
   14138    14150    14168    14184    14189    14185    14177    14168 
   14165    14172    14181    14184    14177    14173    14168    14165 
   14176    14184    14181    14175    14161    14149    14146    14149 
   14146    14138    14135    14138    14143    14152    14162    14166 
   14162    14152    14142    14142    14160    14187    14204    14211 
   14204    14185    14164    14148    14143    14143    14146    14150 
   14146    14139    14134    14133    14137    14145    14153    14156 
   14152    14146    14142    14141    14145    14153    14164    14173 
   14177    14175    14168    14161    14152    14139    14134    14135 
   14142    14157    14172    14179    14179    14173    14162    14142 
   14122    14111    14114    14129    14152    14170    14177    14173 
   14154    14129    14116    14122    14139    14154    14160    14164 
   14160    14146    14141    14143    14146    14154    14161    14157 
   14150    14145    14139    14135    14138    14149    14169    14187 
   14188    14176    14157    14139    14130    14127    14129    14131 
   14135    14141    14149    14154    14156    14156    14152    14142 
   14134    14133    14142    14161    14187    14204    14212    14212 
   14206    14199    14192    14180    14172    14172    14169    14168 
   14173    14184    14195    14188    14170    14146    14115    14092 
   14087    14091    14102    14119    14137    14152    14161    14158 
   14150    14146    14146    14149    14149    14148    14149    14152 
   14156    14158    14154    14145    14135    14130    14127    14127 
   14129    14129    14123    14122    14130    14141    14152    14161 
   14164    14165    14164    14158    14152    14146    14141    14134 
   14129    14125    14125    14130    14134    14134    14133    14133 
   14129    14123    14115    14112    14111    14110    14111    14115 
   14112    14107    14107    14119    14133    14141    14146    14150 
   14148    14143    14141    14142    14149    14157    14153    14141 
   14135    14138    14142    14146    14154    14158    14157    14152 
   14150    14152    14156    14161    14164    14168    14175    14181 
   14187    14193    14191    14179    14172    14177    14185    14187 
   14188    14191    14191    14195    14204    14204    14196    14187 
   14184    14188    14192    14193    14193    14188    14180    14173 
   14162    14156    14156    14166    14187    14204    14212    14216 
