Origin Time       2024/04/02 04:24:00
Lat.              40.133
Long.             141.712
Depth. (km)       71
Mag.              6.0
Station Code      YMNH09
Station Lat.      35.4327
Station Long.     138.3325
Station Height(m) 393
Record Time       2024/04/02 04:26:20
Sampling Freq(Hz) 100Hz
Duration Time(s)  120
Dir.              5
Scale Factor      7845(gal)/8223790
Max. Acc. (gal)   0.099
Last Correction   2024/04/02 04:26:21
Memo.             
[...]
  -14501   -14496   -14484   -14481   -14490   -14508   -14523   -14531 
  -14534   -14534   -14521   -14501   -14486   -14481   -14480   -14486 
  -14499   -14504   -14500   -14499   -14503   -14512   -14527   -14532 
  -14527   -14520   -14517   -14512   -14505   -14512   -14527   -14532 
  -14530   -14519   -14508   -14509   -14520   -14531   -14542   -14550 
  -14553   -14546   -14539   -14536   -14528   -14519   -14516   -14517 
  -14523   -14530   -14526   -14517   -14509   -14505   -14509   -14516 
  -14517   -14517   -14520   -14524   -14523   -14517   -14517   -14513 
  -14508   -14503   -14496   -14489   -14486   -14489   -14493   -14493 
  -14488   -14484   -14490   -14497   -14503   -14508   -14509   -14511 
  -14511   -14501   -14496   -14493   -14489   -14478   -14472   -14476 
  -14489   -14504   -14511   -14509   -14507   -14503   -14499   -14501 
  -14508   -14511   -14508   -14504   -14501   -14504   -14511   -14515 
  -14511   -14496   -14482   -14480   -14484   -14493   -14504   -14509 
  -14511   -14507   -14500   -14499   -14501   -14508   -14515   -14517 
  -14516   -14512   -14511   -14515   -14521   -14515   -14507   -14508 
  -14515   -14526   -14535   -14534   -14530   -14523   -14519   -14521 
  -14527   -14531   -14536   -14543   -14553   -14561   -14559   -14550 
  -14530   -14512   -14513   -14523   -14527   -14530   -14527   -14516 
  -14505   -14501   -14500   -14497   -14494   -14493   -14490   -14485 
  -14488   -14490   -14488   -14486   -14481   -14473   -14476   -14484 
  -14485   -14490   -14499   -14505   -14507   -14508   -14511   -14511 
  -14503   -14497   -14501   -14508   -14513   -14515   -14507   -14497 
  -14492   -14499   -14509   -14520   -14528   -14526   -14508   -14493 
  -14478   -14467   -14473   -14488   -14500   -14504   -14504   -14503 
  -14500   -14497   -14499   -14507   -14517   -14521   -14521   -14531 
  -14538   -14532   -14530   -14530   -14532   -14542   -14540   -14534 
  -14530   -14526   -14521   -14520   -14519   -14521   -14530   -14534 
  -14535   -14531   -14526   -14520   -14513   -14504   -14503   -14504 
  -14504   -14504   -14507   -14513   -14512   -14505   -14508   -14511 
  -14508   -14509   -14512   -14517   -14521   -14517   -14515   -14513 
  -14511   -14512   -14519   -14517   -14513   -14507   -14497   -14494 
  -14493   -14490   -14486   -14481   -14482   -14489   -14496   -14503 
  -14503   -14492   -14484   -14477   -14467   -14470   -14488   -14509 
  -14519   -14517   -14509   -14494   -14485   -14493   -14507   -14519 
  -14527   -14520   -14504   -14500   -14508   -14517   -14523   -14519 
  -14503   -14490   -14489   -14494   -14505   -14519   -14526   -14531 
  -14528   -14519   -14511   -14508   -14512   -14520   -14524   -14528 
  -14534   -14535   -14532   -14532   -14534   -14534   -14534   -14531 
  -14524   -14511   -14501   -14500   -14505   -14516   -14524   -14520 
  -14501   -14481   -14470   -14470   -14480   -14499   -14513   -14516 
  -14512   -14505   -14497   -14494   -14504   -14515   -14520   -14521 
  -14524   -14526   -14527   -14528   -14520   -14511   -14501   -14490 
  -14484   -14492   -14505   -14521   -14530   -14526   -14511   -14493 
  -14488   -14496   -14507   -14519   -14528   -14523   -14509   -14500 
  -14490   -14486   -14490   -14496   -14497   -14492   -14485   -14485 
  -14492   -14501   -14517   -14532   -14542   -14538   -14523   -14512 
  -14507   -14503   -14504   -14508   -14508   -14505   -14500   -14493 
  -14490   -14496   -14507   -14512   -14509   -14508   -14508   -14507 
  -14513   -14524   -14528   -14523   -14508   -14500   -14503   -14507 
  -14513   -14524   -14535   -14535   -14526   -14509   -14493   -14484 
  -14485   -14494   -14507   -14515   -14517   -14515   -14512   -14508 
  -14508   -14517   -14530   -14534   -14531   -14526   -14523   -14523 
  -14524   -14528   -14527   -14526   -14526   -14528   -14532   -14536 
  -14539   -14538   -14531   -14517   -14504   -14499   -14501   -14503 
  -14501   -14501   -14499   -14490   -14488   -14497   -14507   -14511 
  -14512   -14512   -14516   -14516   -14511   -14503   -14494   -14490 
  -14496   -14511   -14524   -14521   -14501   -14481   -14470   -14472 
  -14478   -14492   -14501   -14500   -14493   -14492   -14493   -14493 
  -14497   -14505   -14508   -14504   -14501   -14497   -14490   -14486 
  -14488   -14494   -14499   -14503   -14511   -14520   -14527   -14530 
  -14528   -14521   -14508   -14493   -14488   -14493   -14501   -14515 
  -14528   -14531   -14523   -14511   -14501   -14500   -14508   -14516 
  -14521   -14526   -14521   -14511   -14504   -14500   -14501   -14508 
  -14515   -14521   -14530   -14530   -14523   -14520   -14523   -14526 
  -14527   -14527   -14527   -14532   -14532   -14526   -14515   -14501 
  -14496   -14504   -14511   -14515   -14519   -14517   -14508   -14499 
  -14497   -14501   -14507   -14513   -14523   -14530   -14527   -14523 
  -14520   -14521   -14521   -14515   -14504   -14497   -14494   -14494 
  -14501   -14509   -14508   -14505   -14507   -14505   -14507   -14516 
  -14521   -14524   -14528   -14527   -14523   -14527   -14531   -14532 
  -14538   -14540   -14535   -14527   -14526   -14520   -14511   -14507 
  -14505   -14508   -14511   -14507   -14499   -14488   -14477   -14474 
  -14488   -14503   -14513   -14526   -14528   -14515   -14497   -14484 
  -14482   -14492   -14504   -14515   -14523   -14521   -14512   -14501 
  -14493   -14490   -14488   -14485   -14488   -14494   -14504   -14512 
  -14516   -14517   -14517   -14509   -14501   -14496   -14490   -14494 
  -14505   -14516   -14521   -14516   -14505   -14497   -14493   -14497 
  -14512   -14527   -14532   -14528   -14521   -14509   -14499   -14499 
  -14504   -14503   -14503   -14504   -14500   -14494   -14490   -14486 
  -14486   -14493   -14497   -14500   -14503   -14501   -14505   -14513 
  -14512   -14501   -14499   -14504   -14508   -14511   -14520   -14524 
  -14520   -14516   -14512   -14507   -14505   -14496   -14485   -14484 
  -14492   -14505   -14516   -14523   -14523   -14512   -14493   -14484 
  -14485   -14492   -14509   -14520   -14520   -14517   -14515   -14509 
  -14504   -14501   -14504   -14508   -14504   -14500   -14500   -14500 
  -14503   -14508   -14515   -14521   -14519   -14511   -14509   -14513 
  -14519   -14526   -14534   -14535   -14528   -14521   -14521   -14530 
  -14538   -14534   -14524   -14511   -14496   -14493   -14497   -14500 
  -14505   -14513   -14513   -14504   -14496   -14494   -14499   -14504 
  -14513   -14528   -14538   -14534   -14526   -14519   -14515   -14516 
  -14521   -14517   -14516   -14515   -14511   -14503   -14496   -14500 
  -14508   -14515   -14517   -14517   -14516   -14515   -14513   -14516 
  -14523   -14530   -14534   -14536   -14534   -14528   -14519   -14513 
  -14520   -14526   -14523   -14523   -14527   -14530   -14528   -14523 
  -14512   -14499   -14489   -14490   -14500   -14505   -14501   -14494 
  -14493   -14497   -14494   -14489   -14492   -14494   -14497   -14503 
  -14504   -14509   -14512   -14501   -14488   -14481   -14482   -14493 
  -14501   -14501   -14496   -14492   -14492   -14497   -14499   -14493 
  -14486   -14484   -14485   -14492   -14500   -14507   -14511   -14512 
  -14508   -14505   -14504   -14501   -14497   -14492   -14490   -14499 
  -14509   -14517   -14526   -14528   -14523   -14516   -14505   -14499 
  -14497   -14499   -14508   -14520   -14530   -14532   -14524   -14508 
  -14493   -14488   -14490   -14500   -14505   -14501   -14503   -14508 
  -14508   -14504   -14501   -14499   -14504   -14513   -14520   -14524 
  -14520   -14511   -14501   -14499   -14503   -14501   -14492   -14486 
  -14488   -14493   -14499   -14499   -14503   -14507   -14508   -14511 
  -14509   -14505   -14507   -14507   -14507   -14519   -14531   -14536 
  -14536   -14528   -14513   -14501   -14497   -14505   -14521   -14532 
  -14531   -14523   -14511   -14503   -14501   -14505   -14515   -14526 
  -14532   -14531   -14526   -14523   -14521   -14520   -14526   -14530 
  -14520   -14513   -14516   -14523   -14530   -14535   -14538   -14538 
  -14535   -14531   -14524   -14513   -14507   -14511   -14521   -14530 
  -14528   -14520   -14511   -14501   -14500   -14509   -14520   -14524 
  -14520   -14513   -14507   -14503   -14507   -14521   -14534   -14534 
  -14523   -14511   -14501   -14504   -14513   -14524   -14526   -14513 
  -14499   -14499   -14511   -14520   -14521   -14517   -14513   -14507 
  -14503   -14508   -14516   -14524   -14532   -14524   -14503   -14486 
  -14480   -14488   -14505   -14520   -14528   -14528   -14516   -14500 
  -14489   -14488   -14496   -14508   -14521   -14527   -14523   -14517 
  -14517   -14521   -14527   -14519   -14511   -14509   -14500   -14494 
  -14503   -14505   -14501   -14497   -14490   -14494   -14507   -14513 
  -14513   -14509   -14504   -14501   -14501   -14503   -14507   -14513 
  -14516   -14511   -14507   -14504   -14496   -14494   -14501   -14503 
  -14503   -14505   -14505   -14504   -14503   -14508   -14519   -14521 
  -14520   -14519   -14512   -14504   -14505   -14509   -14513   -14512 
  -14501   -14492   -14492   -14504   -14521   -14531   -14532   -14526 
  -14513   -14508   -14512   -14519   -14531   -14550   -14561   -14561 
  -14553   -14540   -14530   -14526   -14527   -14531   -14532   -14521 
  -14501   -14478   -14470   -14476   -14482   -14484   -14484   -14486 
  -14489   -14496   -14509   -14528   -14544   -14559   -14571   -14567 
  -14550   -14532   -14519   -14509   -14509   -14511   -14504   -14489 
  -14472   -14455   -14447   -14453   -14465   -14480   -14496   -14507 
  -14512   -14524   -14531   -14538   -14551   -14559   -14553   -14535 
  -14516   -14508   -14505   -14504   -14497   -14486   -14477   -14470 
  -14466   -14466   -14465   -14462   -14467   -14478   -14489   -14500 
  -14509   -14509   -14503   -14507   -14513   -14521   -14532   -14539 
  -14539   -14531   -14513   -14494   -14476   -14462   -14453   -14449 
  -14455   -14469   -14480   -14493   -14513   -14534   -14547   -14554 
  -14548   -14538   -14530   -14528   -14536   -14544   -14550   -14551 
  -14548   -14536   -14521   -14507   -14501   -14497   -14485   -14473 
  -14467   -14463   -14459   -14462   -14472   -14485   -14504   -14528 
  -14551   -14569   -14584   -14593   -14597   -14593   -14580   -14569 
  -14557   -14544   -14532   -14519   -14503   -14492   -14481   -14467 
  -14459   -14457   -14455   -14453   -14449   -14453   -14459   -14466 
  -14472   -14482   -14492   -14499   -14511   -14526   -14535   -14538 
  -14530   -14507   -14480   -14465   -14465   -14473   -14480   -14481 
  -14480   -14484   -14494   -14505   -14517   -14519   -14509   -14501 
  -14503   -14515   -14530   -14530   -14520   -14508   -14493   -14490 
  -14501   -14521   -14544   -14550   -14530   -14503   -14485   -14485 
  -14503   -14528   -14550   -14557   -14544   -14526   -14503   -14486 
  -14489   -14501   -14513   -14520   -14513   -14501   -14493   -14496 
  -14513   -14530   -14539   -14543   -14538   -14523   -14505   -14493 
  -14493   -14499   -14508   -14523   -14532   -14528   -14520   -14520 
  -14527   -14535   -14539   -14540   -14542   -14546   -14558   -14573 
  -14575   -14562   -14532   -14490   -14454   -14439   -14454   -14489 
  -14521   -14535   -14532   -14516   -14496   -14478   -14474   -14489 
  -14513   -14535   -14538   -14524   -14508   -14494   -14485   -14486 
  -14496   -14509   -14520   -14520   -14513   -14508   -14508   -14515 
  -14520   -14517   -14503   -14481   -14469   -14476   -14489   -14500 
  -14508   -14508   -14497   -14484   -14478   -14480   -14486   -14499 
  -14512   -14520   -14511   -14486   -14457   -14442   -14455   -14484 
  -14511   -14536   -14555   -14558   -14554   -14551   -14550   -14554 
  -14557   -14557   -14553   -14543   -14534   -14528   -14530   -14532 
  -14524   -14505   -14481   -14453   -14431   -14431   -14445   -14465 
  -14489   -14509   -14523   -14531   -14536   -14542   -14553   -14566 
  -14575   -14575   -14566   -14548   -14527   -14508   -14493   -14482 
  -14478   -14477   -14477   -14478   -14488   -14501   -14517   -14527 
  -14528   -14519   -14508   -14503   -14504   -14516   -14526   -14517 
  -14505   -14497   -14486   -14482   -14493   -14507   -14516   -14516 
  -14513   -14517   -14530   -14544   -14557   -14555   -14539   -14520 
  -14515   -14530   -14551   -14563   -14561   -14543   -14521   -14501 
  -14485   -14477   -14488   -14512   -14535   -14548   -14544   -14521 
  -14494   -14474   -14470   -14482   -14501   -14517   -14530   -14543 
  -14555   -14557   -14548   -14534   -14519   -14501   -14477   -14458 
  -14451   -14454   -14463   -14477   -14481   -14474   -14467   -14462 
  -14455   -14457   -14469   -14492   -14511   -14511   -14503   -14501 
  -14504   -14513   -14527   -14520   -14489   -14455   -14440   -14450 
  -14472   -14494   -14517   -14532   -14534   -14524   -14508   -14493 
  -14488   -14494   -14512   -14534   -14546   -14543   -14520   -14492 
  -14476   -14478   -14484   -14484   -14484   -14484   -14485   -14497 
  -14521   -14546   -14558   -14548   -14521   -14488   -14454   -14434 
  -14438   -14455   -14477   -14496   -14508   -14519   -14531   -14538 
  -14542   -14543   -14544   -14554   -14561   -14554   -14548   -14547 
  -14540   -14531   -14509   -14476   -14450   -14449   -14470   -14501 
  -14534   -14557   -14558   -14544   -14527   -14503   -14489   -14501 
  -14527   -14551   -14575   -14597   -14609   -14613   -14608   -14589 
  -14559   -14535   -14527   -14528   -14534   -14540   -14535   -14527 
  -14523   -14516   -14515   -14516   -14504   -14488   -14480   -14474 
  -14477   -14489   -14507   -14535   -14557   -14553   -14527   -14497 
  -14480   -14478   -14488   -14501   -14512   -14515   -14508   -14496 
  -14484   -14474   -14473   -14478   -14484   -14494   -14501   -14489 
  -14462   -14439   -14431   -14438   -14447   -14454   -14455   -14458 
  -14467   -14481   -14504   -14535   -14561   -14575   -14574   -14555 
  -14532   -14516   -14500   -14481   -14470   -14469   -14474   -14481 
  -14490   -14499   -14500   -14494   -14488   -14482   -14477   -14484 
  -14507   -14536   -14561   -14574   -14573   -14559   -14540   -14532 
  -14534   -14534   -14531   -14526   -14512   -14494   -14482   -14476 
  -14472   -14473   -14482   -14500   -14520   -14536   -14542   -14542 
  -14542   -14535   -14526   -14521   -14524   -14524   -14524   -14513 
  -14493   -14478   -14480   -14488   -14500   -14515   -14523   -14527 
  -14528   -14521   -14504   -14485   -14476   -14474   -14477   -14481 
  -14482   -14472   -14470   -14488   -14515   -14539   -14558   -14562 
  -14548   -14523   -14494   -14472   -14458   -14459   -14470   -14480 
  -14489   -14500   -14509   -14517   -14526   -14527   -14516   -14496 
  -14476   -14462   -14467   -14493   -14524   -14543   -14544   -14534 
  -14521   -14517   -14520   -14526   -14534   -14538   -14536   -14534 
  -14527   -14521   -14527   -14539   -14548   -14548   -14544   -14538 
  -14527   -14516   -14505   -14499   -14503   -14509   -14508   -14499 
  -14484   -14461   -14442   -14434   -14442   -14469   -14508   -14547 
  -14566   -14563   -14548   -14532   -14523   -14527   -14535   -14536 
  -14536   -14536   -14539   -14547   -14554   -14551   -14540   -14526 
  -14515   -14513   -14520   -14530   -14540   -14544   -14547   -14553 
  -14557   -14554   -14540   -14515   -14485   -14463   -14458   -14472 
  -14504   -14539   -14554   -14548   -14538   -14530   -14524   -14524 
  -14528   -14532   -14532   -14528   -14532   -14539   -14542   -14540 
  -14528   -14501   -14480   -14472   -14472   -14476   -14482   -14484 
  -14477   -14467   -14459   -14453   -14454   -14463   -14469   -14467 
  -14472   -14482   -14493   -14503   -14504   -14505   -14511   -14516 
  -14521   -14526   -14516   -14499   -14493   -14511   -14540   -14563 
  -14570   -14561   -14536   -14513   -14507   -14511   -14528   -14550 
  -14561   -14554   -14538   -14517   -14499   -14482   -14476   -14477 
  -14481   -14490   -14497   -14489   -14476   -14473   -14470   -14469 
  -14472   -14470   -14472   -14485   -14508   -14528   -14531   -14520 
  -14504   -14493   -14501   -14520   -14535   -14531   -14511   -14484 
  -14462   -14451   -14458   -14481   -14512   -14536   -14538   -14521 
  -14508   -14503   -14507   -14521   -14535   -14536   -14519   -14486 
  -14461   -14450   -14455   -14477   -14509   -14543   -14566   -14569 
  -14550   -14523   -14500   -14489   -14484   -14484   -14496   -14513 
  -14528   -14532   -14523   -14507   -14497   -14500   -14515   -14534 
  -14540   -14535   -14527   -14511   -14486   -14459   -14440   -14439 
  -14449   -14463   -14490   -14513   -14517   -14508   -14499   -14488 
  -14488   -14500   -14513   -14520   -14528   -14531   -14523   -14513 
  -14511   -14511   -14507   -14492   -14476   -14465   -14458   -14450 
  -14447   -14459   -14484   -14509   -14526   -14531   -14526   -14513 
  -14503   -14500   -14508   -14528   -14544   -14538   -14519   -14503 
  -14494   -14504   -14527   -14555   -14573   -14562   -14527   -14494 
  -14476   -14473   -14490   -14512   -14523   -14521   -14512   -14499 
  -14496   -14501   -14505   -14509   -14511   -14512   -14515   -14521 
  -14535   -14546   -14540   -14534   -14528   -14523   -14521   -14520 
  -14505   -14484   -14465   -14458   -14465   -14484   -14505   -14519 
  -14519   -14505   -14490   -14486   -14494   -14503   -14508   -14512 
  -14513   -14517   -14530   -14539   -14536   -14526   -14513   -14501 
  -14494   -14499   -14513   -14524   -14524   -14516   -14500   -14473 
  -14457   -14459   -14472   -14493   -14516   -14528   -14526   -14517 
  -14512   -14509   -14496   -14480   -14476   -14485   -14504   -14536 
  -14565   -14573   -14567   -14557   -14539   -14527   -14527   -14535 
  -14546   -14557   -14573   -14588   -14590   -14584   -14569   -14544 
  -14524   -14511   -14501   -14497   -14503   -14509   -14517   -14526 
  -14530   -14528   -14523   -14513   -14496   -14486   -14490   -14504 
  -14527   -14551   -14562   -14559   -14544   -14523   -14508   -14504 
  -14500   -14503   -14515   -14527   -14531   -14530   -14517   -14496 
  -14473   -14461   -14463   -14477   -14492   -14505   -14519   -14532 
  -14547   -14562   -14570   -14569   -14557   -14535   -14511   -14492 
  -14484   -14486   -14500   -14513   -14523   -14527   -14520   -14505 
  -14488   -14480   -14485   -14505   -14535   -14561   -14565   -14555 
  -14542   -14527   -14519   -14528   -14547   -14563   -14570   -14558 
  -14534   -14503   -14477   -14467   -14477   -14493   -14509   -14521 
  -14520   -14509   -14499   -14488   -14478   -14476   -14486   -14511 
  -14543   -14573   -14589   -14589   -14567   -14532   -14504   -14497 
  -14500   -14501   -14497   -14493   -14489   -14481   -14481   -14494 
  -14511   -14520   -14531   -14539   -14539   -14534   -14524   -14511 
  -14499   -14494   -14496   -14503   -14515   -14528   -14538   -14532 
  -14511   -14482   -14462   -14458   -14463   -14480   -14504   -14517 
  -14517   -14508   -14488   -14467   -14459   -14451   -14445   -14446 
  -14447   -14445   -14445   -14450   -14455   -14451   -14434   -14416 
  -14413   -14434   -14459   -14480   -14490   -14494   -14496   -14503 
