Origin Time       2024/04/02 04:24:00
Lat.              40.133
Long.             141.712
Depth. (km)       71
Mag.              6.0
Station Code      YMTH11
Station Lat.      38.7132
Station Long.     140.5544
Station Height(m) 253
Record Time       2024/04/02 04:25:28
Sampling Freq(Hz) 100Hz
Duration Time(s)  120
Dir.              4
Scale Factor      3920(gal)/6170801
Max. Acc. (gal)   1.776
Last Correction   2024/04/02 04:25:13
Memo.             
[...]
   10849    10841    10909    11002    11069    10995    10845    10770 
   10738    10627    10413    10188    10022     9904     9805     9731 
    9677     9606     9566     9637     9835    10121    10328    10335 
   10359    10538    10722    10901    11033    11046    11141    11302 
   11282    11146    11070    11075    11065    10895    10600    10478 
   10618    10769    10816    10819    10762    10640    10479    10229 
    9956     9970    10376    10867    11065    10852    10552    10609 
   11009    11384    11492    11358    11169    11140    11281    11391 
   11403    11349    11238    11188    11209    11100    10875    10738 
   10692    10613    10512    10504    10635    10810    11001    11272 
   11503    11579    11599    11532    11289    11035    10962    11085 
   11272    11282    11013    10621    10309    10261    10411    10484 
   10605    10944    11182    11166    11138    11182    11220    11282 
   11397    11474    11474    11456    11384    11125    10761    10551 
   10575    10717    10783    10577    10202    10036    10187    10404 
   10442    10256    10038     9999    10085    10095     9995     9954 
   10114    10427    10720    10838    10876    11103    11518    11794 
   11697    11335    11026    11044    11294    11380    11158    10777 
   10450    10419    10661    10780    10524    10215    10265    10605 
   10879    10798    10424    10186    10385    10843    11098    10929 
   10620    10495    10527    10599    10697    10816    10926    11031 
   11106    11019    10797    10715    10845    10871    10534    10007 
    9661     9662     9870     9941     9727     9538     9751    10271 
   10705    10957    11232    11556    11699    11567    11325    11210 
   11335    11496    11410    11152    10992    11025    11147    11234 
   11314    11483    11613    11448    11041    10601    10208    10057 
   10214    10285     9997     9568     9302     9295     9513     9942 
   10526    11084    11455    11522    11337    11173    11193    11286 
   11331    11365    11399    11249    10858    10447    10210    10248 
   10588    10970    11037    10859    10784    10890    10993    10933 
   10681    10416    10304    10245    10091     9865     9697     9692 
    9784     9775     9689     9805    10217    10638    10815    10870 
   10969    11032    11022    11023    11073    11224    11485    11703 
   11754    11695    11654    11593    11304    10852    10678    10922 
   11301    11555    11521    11271    11123    11220    11403    11426 
   11263    11165    11275    11412    11428    11386    11357    11440 
   11621    11641    11452    11284    11206    11154    11047    10863 
   10739    10729    10672    10491    10348    10339    10333    10222 
   10085    10046    10044     9931     9761     9677     9768    10007 
   10254    10436    10546    10640    10800    10901    10783    10582 
   10533    10616    10640    10533    10451    10623    11003    11269 
   11220    10956    10799    10948    11146    11046    10751    10489 
   10287    10278    10482    10584    10548    10636    10896    11284 
   11692    11854    11765    11643    11536    11497    11526    11458 
   11339    11355    11459    11601    11751    11710    11505    11368 
   11248    11076    10957    10895    10890    10960    10918    10697 
   10488    10398    10433    10500    10471    10358    10152     9878 
    9768     9931    10161    10261    10242    10029     9640     9397 
    9354     9301     9240     9184     9145     9253     9433     9460 
    9283     9107     9239     9705    10104    10120     9878     9636 
    9604     9823    10000     9967     9904     9918     9925     9790 
    9481     9199     9157     9320     9569     9827    10005    10169 
   10415    10666    10914    11152    11287    11429    11709    11934 
   11876    11738    11887    12257    12426    12162    11699    11400 
   11310    11250    11052    10745    10639    10881    11178    11182 
   10965    10912    11117    11352    11485    11452    11334    11375 
   11524    11484    11232    11095    11260    11526    11756    11967 
   12076    12170    12357    12427    12283    12115    12011    11924 
   11904    12001    12091    12084    12009    11918    11829    11762 
   11806    11858    11689    11368    11132    11098    11260    11386 
   11193    10810    10503    10272    10228    10478    10741    10850 
   10893    10880    10841    10814    10777    10806    10935    11058 
   11101    11024    10807    10491    10048     9492     9156     9207 
    9243     8975     8578     8331     8476     8877     9059     8930 
    8815     8884     9021     9119     9276     9597     9965    10241 
   10399    10421    10349    10212     9939     9605     9434     9480 
    9604     9696     9764     9877    10049    10178    10254    10427 
   10719    11029    11278    11320    11192    11184    11380    11543 
   11501    11267    10910    10620    10553    10659    10884    11155 
   11329    11328    11148    10895    10701    10616    10641    10644 
   10496    10284    10146    10148    10288    10561    10960    11400 
   11790    12033    12039    11835    11523    11277    11183    11202 
   11335    11489    11511    11385    11156    10861    10635    10596 
   10620    10566    10471    10331    10257    10489    10877    11204 
   11551    11808    11825    11783    11831    11936    12009    11923 
   11597    11100    10601    10315    10343    10608    10954    11200 
   11250    11204    11181    11116    11007    11080    11352    11488 
   11335    11155    11151    11294    11515    11540    11139    10681 
   10515    10384    10084     9888    10012    10287    10460    10367 
   10036     9849    10153    10691    10786    10353    10029    10064 
   10233    10378    10353    10194    10068     9913     9682     9697 
   10295    11269    11968    11952    11471    11081    11072    11355 
   11503    11301    11159    11348    11497    11312    10996    10848 
   10980    11227    11238    10793    10099     9657     9642     9813 
   10042    10353    10703    11091    11487    11675    11594    11455 
   11359    11217    10914    10477    10106     9868     9589     9099 
    8534     8345     8798     9608    10271    10613    10799    10967 
   11159    11293    11150    10780    10561    10698    11090    11491 
   11682    11677    11732    12022    12371    12491    12351    12036 
   11616    11245    11045    10951    10951    11153    11290    10997 
   10482    10185    10412    11133    11721    11634    11027    10441 
   10331    10646    10988    11245    11498    11541    11226    10827 
   10578    10493    10592    10737    10724    10580    10475    10494 
   10621    10854    11014    10872    10631    10590    10675    10660 
   10468    10227    10126    10210    10321    10281    10268    10507 
   10760    10811    10708    10439    10222    10484    11149    11655 
   11707    11505    11312    11208    11081    10779    10476    10573 
   11083    11597    11875    12002    12130    12251    12091    11513 
   10803    10282    10027     9854     9494     8995     8624     8500 
    8596     8792     8938     9036     9154     9228     9282     9573 
   10043    10341    10439    10485    10528    10624    10660    10459 
   10227    10317    10655    10808    10558    10169     9966     9987 
   10166    10461    10712    10760    10720    10750    10781    10750 
   10762    10885    10962    10900    10835    10737    10522    10374 
   10460    10751    11074    11277    11354    11324    11276    11285 
   11293    11276    11203    11085    10970    10807    10674    10724 
   10871    10916    10878    10982    11181    11168    10918    10581 
   10275    10332    10804    11116    11023    10942    11097    11332 
   11453    11311    10997    10798    10878    11193    11377    11147 
   10850    10940    11447    12062    12308    12055    11620    11283 
   11140    11134    11154    11203    11348    11527    11621    11670 
   11788    11925    11840    11397    10861    10558    10594    10870 
   11019    10768    10348    10164    10300    10485    10453    10179 
    9866     9710     9683     9652     9578     9550     9674     9978 
   10385    10650    10566    10318    10228    10316    10549    10987 
   11460    11793    12015    11964    11500    10979    10843    10989 
   11007    10827    10681    10629    10510    10149     9528     9074 
    9303    10083    10851    11228    11213    11129    11184    11226 
   11146    11143    11405    11635    11357    10676    10177    10179 
   10561    10998    11053    10635    10196     9883     9464     9074 
    9074     9584    10274    10575    10434    10243    10163    10166 
   10176    10080     9996    10232    10741    11013    10882    10736 
   10795    10929    10880    10534    10246    10419    10873    11074 
   10814    10463    10458    10808    11177    11289    11272    11335 
   11491    11757    12024    12202    12321    12228    12010    12032 
   12167    12011    11435    10516     9708     9616     9971     9941 
    9536     9345     9530     9925    10379    10695    10763    10792 
   11019    11406    11752    11842    11583    11121    10739    10594 
   10565    10517    10625    11072    11489    11488    11317    11280 
   11385    11520    11434    11166    11134    11408    11567    11352 
   10979    10767    10783    10888    10907    10759    10511    10417 
   10649    10964    11098    11099    11016    10872    10818    10888 
   10927    10846    10712    10602    10503    10495    10784    11306 
   11761    12038    12063    11735    11343    11250    11282    11145 
   10921    10865    10972    10865    10422     9985     9718     9612 
    9593     9504     9456     9600     9842    10109    10377    10557 
   10654    10712    10652    10495    10299    10126    10142    10212 
   10030     9589     9043     8653     8585     8677     8889     9281 
    9677     9976    10144    10088     9966     9991    10114    10221 
   10224    10141    10086    10020     9932     9988    10251    10665 
   11135    11496    11628    11582    11520    11607    11885    12192 
   12386    12386    12044    11496    11121    11019    11013    10936 
   10775    10638    10630    10623    10340     9909     9873    10437 
   11070    11153    10770    10319     9992     9983    10295    10590 
   10766    11017    11216    11127    11053    11243    11360    11231 
   11002    10760    10817    11403    12069    12323    12208    11989 
   11856    11763    11580    11432    11403    11241    10866    10464 
   10076     9918    10283    10838    11150    11246    11101    10692 
   10360    10338    10459    10517    10521    10593    10774    10948 
   11023    11084    11330    11772    12051    11944    11764    11890 
   12321    12648    12379    11651    11216    11329    11544    11516 
   11211    10849    10725    10715    10488    10091     9862    10019 
   10365    10464    10260    10189    10442    10725    10808    10653 
   10491    10623    10919    11173    11458    11869    12235    12116 
   11419    10689    10338    10201     9987     9620     9232     9051 
    9165     9353     9356     9214     9197     9529    10113    10669 
   11031    11060    10808    10571    10416    10273    10265    10399 
   10478    10445    10356    10218    10153    10341    10668    10926 
   11057    10947    10697    10679    10938    11121    10990    10729 
   10642    10780    11002    11109    10994    10801    10703    10535 
   10121     9769     9829    10275    10819    11052    10859    10603 
   10613    10913    11341    11557    11419    11097    10607    10066 
    9850     9914     9982    10048    10015     9654     9122     8762 
    8682     8846     9125     9358     9522     9657     9763     9735 
    9491     9335     9638    10231    10685    10751    10438    10098 
   10110    10300    10208     9936    10010    10562    11211    11563 
   11564    11391    11389    11892    12613    12969    12951    12887 
   12892    12833    12651    12526    12468    12310    12127    11940 
   11598    11337    11449    11660    11668    11614    11809    12452 
   13231    13400    12764    11946    11525    11512    11624    11583 
   11355    11227    11309    11443    11616    11828    12056    12317 
   12448    12295    12092    12088    12154    12235    12374    12307 
   11926    11578    11526    11561    11259    10581     9946     9655 
    9522     9271     8882     8458     8252     8439     8784     9096 
    9531    10070    10590    11261    12008    12356    12139    11504 
   10641     9915     9696     9974    10310    10324    10079     9748 
    9461     9482     9841    10158    10318    10465    10366     9931 
    9573     9498     9601     9798     9987    10082    10129    10130 
    9950     9581     9208     8989     8903     8849     8825     8785 
    8687     8775     9169     9621     9993    10324    10593    10755 
   10759    10508    10021     9631     9670    10001    10263    10316 
   10248    10154    10053     9974     9911     9828     9845    10087 
   10339    10430    10596    10960    11249    11197    10901    10744 
   10840    11002    11207    11401    11342    11061    10833    10781 
   10962    11262    11315    11060    10706    10334    10245    10828 
   11802    12509    12794    12870    12866    12934    13212    13521 
   13550    13200    12520    11732    11226    11132    11063    10640 
   10083     9825     9881     9984     9901     9685     9828    10496 
   11032    10964    10605    10454    10725    11172    11277    10932 
   10418     9969     9820     9992    10179    10131     9913     9891 
   10257    10812    11448    12052    12375    12479    12486    12336 
   12214    12326    12572    12808    12861    12484    11718    11029 
   10910    11385    11955    12119    11819    11317    10977    11003 
   11330    11748    12037    12177    12191    12038    11837    11690 
   11647    11908    12468    12794    12325    11248    10353    10174 
   10557    10914    10921    10792    10741    10768    10719    10421 
   10108    10110    10278    10428    10552    10472    10279    10421 
   10840    11150    11364    11488    11321    10992    10725    10510 
   10399    10392    10275     9946     9457     8962     8681     8605 
    8575     8477     8329     8365     8671     8997     9092     8988 
    8933     9051     9259     9507     9713     9643     9387     9321 
    9437     9577     9700     9722     9763     9918     9922     9598 
    9071     8630     8554     8759     8942     9097     9342     9631 
   10013    10538    11016    11337    11650    11981    12086    12062 
   12218    12301    12066    11683    11148    10550    10265    10388 
   10694    10944    10990    10877    10726    10609    10787    11340 
   11759    11732    11558    11440    11299    11056    10714    10389 
   10142     9903     9651     9478     9520     9713     9795     9708 
    9826    10437    11131    11438    11397    11199    11162    11396 
   11581    11604    11541    11252    10688    10113     9919    10274 
   10833    11146    11238    11325    11467    11633    11734    11724 
   11670    11714    11912    12078    12072    11957    11864    12006 
   12395    12627    12357    11810    11375    11047    10936    11392 
   12103    12361    12134    11761    11308    10972    11019    11109 
   10855    10610    10673    10779    10895    11272    11849    12284 
   12227    11697    11105    10710    10514    10512    10603    10692 
   10932    11279    11375    11270    11306    11446    11492    11476 
   11507    11547    11465    11119    10579    10272    10352    10419 
   10322    10274    10293    10278    10164     9926     9697     9657 
    9870    10174    10309    10287    10318    10378    10370    10493 
   10773    10828    10587    10249     9804     9374     9123     8933 
    8827     8935     9208     9658    10257    10792    11119    11118 
   10745    10268     9986     9931    10033    10250    10518    10771 
   10866    10630    10169     9861     9947    10333    10755    10930 
   10781    10544    10451    10524    10631    10619    10522    10519 
   10606    10661    10794    11175    11666    11954    11797    11200 
   10594    10453    10681    10798    10496     9972     9687     9635 
    9595     9758    10271    10883    11254    11195    10873    10710 
   10849    11066    11244    11444    11577    11426    10935    10350 
   10072    10248    10624    10875    10906    10823    10774    10820 
   10843    10766    10811    11204    11756    11955    11624    11139 
   10875    10974    11224    11203    11022    11050    11186    11201 
   11035    10812    10780    10873    10766    10343     9806     9470 
    9405     9510     9750    10059    10347    10479    10315    10228 
   10700    11428    11834    11861    11855    12106    12461    12560 
   12383    12089    11762    11536    11367    11084    10924    11100 
   11199    10816    10147     9640     9546     9863    10178     9973 
    9505     9344     9415     9503     9645     9795    10019    10475 
   10887    10863    10564    10586    11230    12052    12506    12515 
   12213    11806    11625    11731    11766    11574    11403    11418 
   11551    11642    11537    11281    11139    11294    11517    11421 
   11067    10800    10795    11123    11654    12027    12120    12147 
   12205    12102    11757    11412    11232    11101    10930    10720 
   10458    10311    10391    10426    10333    10277    10145     9845 
    9644     9713     9912    10071    10032     9777     9570     9602 
    9713     9644     9433     9344     9435     9521     9568     9773 
   10121    10336    10282     9965     9574     9535     9904    10223 
   10288    10387    10680    10922    10874    10645    10583    10820 
   11123    11201    10930    10628    10828    11334    11351    10751 
   10166    10072    10532    11116    11164    10810    10780    11180 
   11496    11376    11024    10943    11293    11731    11903    11891 
   12025    12294    12257    11704    11057    10766    10705    10563 
   10318    10090    10067    10301    10533    10657    10736    10767 
   10822    10818    10693    10737    10990    11136    11025    10650 
   10194    10104    10520    11031    11296    11378    11443    11487 
   11437    11338    11285    11292    11292    11262    11239    11239 
   11315    11461    11513    11388    11147    10893    10776    10820 
   10766    10450    10076     9881     9917    10081    10139    10060 
   10103    10294    10421    10491    10508    10396    10356    10504 
   10597    10487    10145     9582     9078     8946     9199     9627 
    9954     9994     9774     9538     9584    10010    10565    10909 
   10999    10918    10657    10379    10361    10589    10765    10726 
   10559    10392    10467    10934    11397    11448    11278    11205 
   11251    11334    11366    11266    11095    11073    11355    11687 
   11585    11006    10310     9832     9754     9971    10176    10124 
    9754     9341     9353     9884    10423    10459    10185    10122 
   10363    10664    10853    10951    11064    11313    11696    12000 
