Origin Time       2024/04/02 04:24:00
Lat.              40.133
Long.             141.712
Depth. (km)       71
Mag.              6.0
Station Code      YMTH05
Station Lat.      37.9883
Station Long.     139.8017
Station Height(m) 280
Record Time       2024/04/02 04:25:19
Sampling Freq(Hz) 100Hz
Duration Time(s)  120
Dir.              4
Scale Factor      3920(gal)/6170801
Max. Acc. (gal)   0.453
Last Correction   2024/04/02 04:25:04
Memo.             
[...]
   19692    19770    19852    19926    19982    20005    19996    19998 
   20032    20064    20072    20069    20063    20048    20018    19979 
   19948    19930    19912    19886    19849    19810    19782    19762 
   19746    19734    19726    19720    19718    19720    19719    19717 
   19724    19743    19755    19753    19748    19743    19744    19758 
   19785    19813    19832    19836    19828    19818    19804    19779 
   19751    19732    19718    19697    19658    19617    19603    19610 
   19614    19621    19636    19643    19638    19623    19608    19608 
   19636    19694    19755    19795    19826    19866    19904    19926 
   19946    19969    19989    20014    20026    20006    19978    19961 
   19951    19968    20010    20042    20064    20087    20103    20111 
   20116    20116    20108    20084    20029    19958    19895    19847 
   19809    19789    19793    19807    19817    19818    19804    19778 
   19744    19713    19686    19647    19593    19548    19522    19506 
   19499    19514    19548    19586    19619    19645    19659    19663 
   19669    19669    19647    19619    19607    19611    19634    19688 
   19758    19812    19842    19852    19835    19792    19741    19707 
   19700    19708    19722    19734    19737    19731    19714    19694 
   19680    19680    19691    19694    19681    19658    19631    19603 
   19572    19532    19497    19483    19477    19476    19488    19502 
   19510    19510    19499    19486    19483    19496    19533    19596 
   19671    19732    19768    19789    19803    19803    19783    19756 
   19747    19752    19758    19774    19807    19848    19888    19927 
   19952    19952    19938    19920    19902    19886    19869    19848 
   19833    19839    19861    19884    19908    19947    19984    19997 
   19984    19955    19923    19905    19895    19883    19879    19880 
   19861    19823    19794    19780    19763    19750    19754    19770 
   19787    19795    19799    19816    19852    19888    19908    19903 
   19875    19839    19812    19801    19814    19853    19906    19950 
   19972    19973    19956    19931    19921    19937    19966    19991 
   20009    20012    19991    19956    19927    19912    19914    19923 
   19932    19941    19931    19897    19859    19827    19803    19791 
   19780    19752    19713    19685    19675    19682    19701    19729 
   19755    19771    19775    19762    19732    19701    19680    19668 
   19649    19620    19587    19553    19522    19514    19542    19589 
   19623    19645    19666    19682    19678    19659    19647    19655 
   19674    19695    19707    19703    19698    19709    19715    19703 
   19694    19692    19679    19645    19606    19578    19556    19528 
   19494    19459    19433    19417    19395    19367    19352    19362 
   19397    19440    19476    19505    19539    19574    19604    19636 
   19677    19724    19768    19806    19835    19845    19840    19844 
   19874    19917    19958    19994    20006    19984    19950    19920 
   19890    19867    19867    19881    19884    19862    19820    19779 
   19761    19768    19794    19832    19861    19877    19890    19905 
   19931    19987    20066    20140    20191    20216    20209    20174 
   20130    20100    20087    20076    20046    20004    19970    19956 
   19968    19998    20032    20069    20104    20111    20087    20059 
   20045    20039    20034    20029    20016    19992    19957    19917 
   19883    19872    19892    19922    19936    19942    19957    19977 
   19990    19994    19992    19990    19986    19965    19926    19894 
   19877    19857    19843    19836    19812    19771    19741    19724 
   19721    19733    19749    19768    19791    19795    19764    19721 
   19683    19650    19623    19610    19611    19613    19608    19592 
   19575    19576    19595    19618    19640    19657    19660    19648 
   19624    19600    19588    19595    19619    19640    19642    19631 
   19617    19608    19610    19613    19603    19581    19556    19513 
   19448    19397    19380    19389    19404    19407    19391    19368 
   19341    19314    19315    19364    19435    19502    19555    19588 
   19609    19625    19638    19658    19694    19727    19742    19729 
   19692    19656    19648    19668    19700    19722    19720    19701 
   19666    19614    19573    19574    19605    19641    19679    19722 
   19774    19830    19885    19933    19968    19983    19976    19956 
   19929    19911    19920    19947    19970    19981    19977    19958 
   19938    19923    19918    19936    19967    19974    19950    19921 
   19906    19906    19925    19968    20013    20030    20019    19994 
   19966    19961    19985    20006    20009    20004    19989    19956 
   19908    19869    19860    19870    19876    19864    19837    19807 
   19789    19790    19811    19847    19889    19920    19911    19860 
   19809    19782    19764    19751    19759    19778    19784    19773 
   19750    19725    19714    19730    19764    19799    19828    19847 
   19851    19837    19819    19818    19834    19855    19884    19911 
   19917    19902    19872    19825    19777    19755    19755    19756 
   19762    19775    19778    19767    19750    19726    19700    19684 
   19676    19664    19651    19634    19600    19545    19487    19445 
   19419    19410    19412    19418    19416    19403    19394    19412 
   19454    19499    19546    19607    19679    19753    19811    19841 
   19855    19861    19847    19809    19762    19714    19678    19663 
   19665    19684    19719    19758    19783    19791    19796    19794 
   19780    19768    19762    19757    19767    19803    19851    19898 
   19944    19989    20017    20018    20012    20016    20021    20025 
   20035    20037    20020    20002    19995    19990    19987    19995 
   20009    20013    20004    19990    19977    19964    19957    19962 
   19962    19940    19915    19888    19842    19795    19772    19769 
   19770    19770    19763    19738    19709    19684    19650    19603 
   19563    19544    19539    19537    19537    19539    19535    19522 
   19504    19480    19446    19418    19411    19416    19425    19440 
   19462    19488    19513    19529    19544    19559    19569    19576 
   19577    19576    19589    19607    19636    19692    19770    19847 
   19911    19963    19998    20005    19995    19985    19972    19971 
   19985    19991    19991    19999    20013    20026    20045    20072 
   20106    20129    20130    20115    20084    20022    19939    19861 
   19805    19772    19757    19744    19725    19710    19704    19705 
   19711    19727    19748    19763    19773    19780    19774    19766 
   19768    19768    19768    19784    19806    19814    19805    19774 
   19721    19658    19595    19543    19515    19510    19517    19552 
   19627    19715    19785    19840    19889    19929    19957    19979 
   19992    19977    19939    19890    19822    19742    19680    19649 
   19646    19661    19683    19705    19722    19728    19730    19733 
   19734    19729    19713    19686    19664    19653    19654    19672 
   19703    19734    19770    19805    19835    19868    19911    19957 
   20004    20038    20040    20015    19975    19924    19883    19856 
   19834    19831    19844    19850    19854    19865    19877    19890 
   19902    19910    19924    19952    19987    20019    20042    20043 
   20019    19966    19882    19778    19686    19621    19582    19553 
   19527    19516    19535    19567    19590    19599    19596    19582 
   19546    19486    19427    19398    19414    19461    19506    19539 
   19563    19572    19563    19534    19492    19470    19486    19514 
   19535    19560    19607    19670    19727    19769    19796    19806 
   19802    19786    19759    19739    19741    19761    19787    19811 
   19826    19834    19841    19857    19893    19953    20031    20107 
   20161    20193    20200    20173    20133    20100    20075    20068 
   20088    20103    20097    20080    20041    19979    19911    19835 
   19756    19699    19672    19667    19689    19739    19800    19863 
   19910    19925    19918    19901    19861    19801    19742    19702 
   19675    19662    19662    19666    19665    19658    19640    19614 
   19590    19562    19533    19523    19536    19554    19566    19575 
   19587    19594    19596    19600    19612    19637    19675    19704 
   19713    19717    19730    19754    19788    19828    19880    19949 
   20018    20073    20113    20125    20105    20069    20041    20036 
   20046    20066    20096    20129    20157    20168    20152    20113 
   20063    20010    19957    19906    19862    19842    19848    19861 
   19869    19878    19889    19895    19895    19897    19900    19901 
   19903    19905    19889    19851    19819    19798    19767    19732 
   19700    19671    19649    19629    19598    19572    19560    19530 
   19470    19404    19343    19290    19260    19268    19320    19413 
   19520    19613    19689    19746    19773    19780    19777    19756 
   19725    19693    19643    19573    19513    19481    19467    19450 
   19424    19416    19427    19422    19400    19385    19388    19412 
   19461    19519    19578    19649    19722    19780    19821    19859 
   19896    19927    19952    19976    20002    20031    20056    20067 
   20072    20085    20098    20093    20063    20009    19945    19881 
   19814    19757    19733    19737    19755    19787    19828    19867 
   19886    19887    19876    19863    19860    19869    19881    19894 
   19908    19906    19879    19831    19786    19759    19754    19784 
   19853    19927    19985    20026    20048    20044    20020    19991 
   19969    19955    19946    19940    19936    19924    19907    19903 
   19915    19928    19933    19936    19929    19900    19860    19811 
   19744    19672    19621    19577    19521    19471    19449    19437 
   19415    19392    19382    19383    19396    19410    19414    19422 
   19458    19518    19585    19648    19691    19716    19744    19767 
   19763    19735    19699    19677    19668    19649    19610    19577 
   19570    19588    19627    19680    19735    19792    19851    19893 
   19907    19898    19873    19845    19828    19822    19820    19819 
   19827    19861    19914    19959    19985    19999    20000    19980 
   19951    19939    19946    19963    19993    20032    20053    20049 
   20034    20006    19965    19936    19908    19846    19750    19648 
   19549    19468    19437    19461    19517    19583    19648    19696 
   19717    19720    19726    19748    19782    19822    19860    19882 
   19879    19867    19860    19854    19844    19836    19824    19799 
   19780    19794    19829    19869    19904    19912    19875    19812 
   19750    19711    19710    19746    19805    19858    19881    19875 
   19861    19851    19841    19843    19876    19915    19928    19908 
   19867    19829    19813    19809    19795    19779    19768    19741 
   19696    19658    19644    19649    19665    19695    19726    19742 
   19739    19738    19754    19776    19787    19779    19753    19721 
   19691    19661    19645    19662    19705    19749    19782    19809 
   19834    19858    19887    19919    19947    19967    19978    19980 
   19969    19952    19945    19954    19974    19994    19984    19946 
   19903    19857    19802    19748    19700    19676    19687    19716 
   19742    19769    19794    19800    19781    19740    19684    19630 
   19587    19558    19550    19554    19559    19559    19557    19553 
   19545    19531    19513    19498    19481    19456    19452    19489 
   19555    19628    19693    19746    19789    19808    19790    19757 
   19732    19725    19720    19699    19665    19633    19606    19582 
   19563    19553    19559    19579    19596    19610    19636    19678 
   19726    19768    19796    19811    19824    19837    19840    19838 
   19853    19886    19922    19954    19965    19943    19916    19906 
   19893    19864    19833    19801    19777    19784    19811    19830 
   19854    19905    19955    19983    20003    20022    20033    20028 
   20008    19976    19943    19910    19876    19852    19861    19910 
   19966    19997    20001    19990    19965    19927    19884    19857 
   19861    19886    19918    19946    19975    20013    20045    20053 
   20042    20020    19995    19970    19933    19899    19904    19939 
   19962    19951    19916    19876    19846    19813    19776    19757 
   19767    19783    19783    19768    19742    19703    19652    19593 
   19529    19462    19403    19358    19333    19341    19380    19430 
   19468    19476    19451    19410    19362    19297    19222    19163 
   19130    19125    19147    19188    19257    19352    19438    19503 
   19559    19609    19655    19711    19772    19818    19849    19885 
   19922    19943    19952    19971    20015    20069    20117    20150 
   20162    20169    20201    20249    20297    20343    20371    20366 
   20340    20304    20261    20239    20244    20259    20276    20283 
   20251    20183    20099    20015    19948    19908    19884    19855 
   19812    19769    19735    19696    19645    19591    19551    19531 
   19529    19546    19583    19642    19719    19775    19790    19780 
   19753    19690    19609    19540    19494    19477    19468    19430 
   19351    19249    19156    19096    19069    19064    19091    19151 
   19225    19291    19345    19396    19470    19575    19679    19765 
   19837    19892    19920    19915    19891    19879    19884    19891 
   19897    19895    19874    19845    19826    19808    19782    19764 
   19770    19798    19837    19871    19903    19942    19991    20034 
   20055    20058    20044    20019    19998    19982    19963    19951 
   19967    19998    20013    20000    19962    19900    19828    19771 
   19746    19756    19800    19870    19943    19992    20018    20025 
   20013    19991    19967    19955    19966    19995    20026    20042 
   20048    20051    20037    20001    19957    19905    19837    19777 
   19746    19739    19741    19750    19769    19784    19782    19759 
   19710    19651    19603    19560    19516    19481    19459    19450 
   19459    19491    19537    19574    19591    19580    19539    19485 
   19430    19380    19352    19361    19410    19480    19543    19596 
   19650    19702    19729    19732    19720    19699    19673    19644 
   19607    19577    19573    19585    19590    19586    19596    19624 
   19667    19726    19789    19844    19888    19908    19894    19850 
   19792    19738    19707    19713    19751    19804    19858    19909 
   19943    19938    19898    19853    19829    19828    19837    19849 
   19863    19888    19913    19916    19904    19896    19891    19885 
   19878    19866    19863    19887    19929    19964    19991    20019 
   20030    20011    19971    19920    19874    19846    19844    19866 
   19890    19901    19900    19887    19864    19836    19800    19762 
   19738    19722    19710    19721    19750    19787    19844    19906 
   19944    19958    19953    19929    19906    19895    19890    19893 
   19906    19908    19883    19835    19776    19709    19633    19562 
   19513    19492    19488    19495    19527    19593    19669    19730 
   19778    19817    19846    19865    19873    19877    19892    19918 
   19939    19931    19881    19801    19707    19615    19535    19475 
   19441    19427    19434    19454    19457    19451    19462    19477 
   19486    19511    19553    19593    19628    19656    19682    19718 
   19744    19728    19685    19644    19605    19557    19507    19472 
   19472    19512    19560    19582    19595    19632    19677    19697 
   19700    19709    19735    19772    19797    19794    19776    19768 
   19783    19823    19875    19923    19960    19984    19981    19948 
   19901    19869    19868    19897    19941    19978    19994    19990 
   19970    19950    19942    19950    19965    19970    19960    19949 
   19940    19932    19929    19934    19954    19976    19978    19950 
   19897    19837    19791    19767    19756    19756    19770    19783 
   19783    19777    19774    19778    19798    19841    19887    19915 
   19931    19950    19972    19990    19996    19987    19982    19998 
   20014    19996    19956    19927    19912    19899    19893    19905 
   19933    19965    19980    19969    19945    19919    19891    19870 
   19871    19897    19925    19933    19914    19871    19812    19755 
   19711    19678    19646    19609    19574    19549    19527    19509 
   19514    19538    19563    19583    19602    19604    19583    19557 
   19541    19538    19548    19571    19593    19611    19636    19662 
   19666    19650    19637    19626    19610    19599    19602    19608 
   19608    19607    19600    19576    19544    19522    19509    19503 
   19511    19528    19538    19546    19564    19589    19616    19654 
   19714    19784    19843    19888    19921    19926    19898    19860 
   19818    19766    19728    19736    19791    19878    19981    20086 
   20172    20225    20244    20228    20172    20096    20032    19984 
   19948    19934    19924    19892    19852    19817    19786    19765 
   19763    19774    19791    19805    19809    19805    19799    19799 
   19828    19909    20012    20088    20131    20144    20113    20053 
   20000    19968    19957    19968    19986    19981    19957    19941 
   19929    19897    19835    19741    19635    19538    19450    19391 
   19386    19427    19500    19587    19654    19680    19677    19662 
   19642    19628    19634    19661    19685    19687    19685    19704 
   19744    19792    19841    19886    19920    19924    19890    19838 
   19790    19760    19763    19784    19801    19819    19832    19824 
   19813    19810    19800    19782    19769    19763    19770    19797 
   19814    19810    19795    19769    19726    19678    19630    19596 
   19589    19589    19564    19514    19450    19379    19315    19276 
   19276    19324    19412    19516    19613    19688    19737    19763 
   19764    19741    19707    19674    19639    19610    19604    19610 
   19607    19596    19577    19552    19539    19550    19600    19701 
   19828    19936    20001    20022    20020    20019    20028    20055 
   20102    20151    20184    20181    20137    20075    20027    20005 
   20003    20016    20020    19989    19934    19885    19858    19862 
   19895    19933    19948    19934    19893    19827    19764    19746 
   19771    19812    19861    19916    19959    19977    19974    19969 
   19979    19990    19975    19918    19837    19767    19730    19726 
   19751    19785    19792    19761    19709    19651    19603    19588 
   19615    19660    19691    19696    19683    19669    19672    19709 
   19771    19826    19850    19840    19793    19717    19646    19608 
   19604    19634    19694    19770    19839    19890    19928    19956 
   19964    19945    19894    19814    19734    19692    19703    19760 
   19840    19911    19951    19955    19927    19882    19850    19850 
   19886    19945    20002    20034    20031    19997    19944    19882 
