Origin Time       2024/04/02 04:24:00
Lat.              40.133
Long.             141.712
Depth. (km)       71
Mag.              6.0
Station Code      YMTH12
Station Lat.      38.6357
Station Long.     140.0055
Station Height(m) 320
Record Time       2024/04/02 04:25:10
Sampling Freq(Hz) 100Hz
Duration Time(s)  152
Dir.              6
Scale Factor      3920(gal)/6170801
Max. Acc. (gal)   1.231
Last Correction   2024/04/02 04:24:55
Memo.             
[...]
   -8591    -8590    -8508    -8441    -8403    -8361    -8334    -8337 
   -8327    -8266    -8168    -8048    -7874    -7645    -7469    -7426 
   -7459    -7516    -7637    -7824    -8022    -8205    -8345    -8378 
   -8310    -8253    -8283    -8319    -8223    -8002    -7788    -7654 
   -7599    -7607    -7626    -7641    -7706    -7809    -7863    -7861 
   -7875    -7905    -7903    -7887    -7942    -8057    -8155    -8255 
   -8414    -8582    -8670    -8635    -8500    -8321    -8136    -7962 
   -7784    -7591    -7438    -7375    -7368    -7366    -7375    -7427 
   -7520    -7630    -7757    -7924    -8104    -8226    -8286    -8316 
   -8281    -8143    -7945    -7748    -7593    -7528    -7600    -7769 
   -7911    -7968    -7976    -7983    -8033    -8146    -8275    -8362 
   -8407    -8428    -8433    -8423    -8369    -8248    -8101    -7976 
   -7892    -7875    -7923    -8004    -8093    -8162    -8185    -8162 
   -8081    -7971    -7935    -8020    -8146    -8233    -8265    -8239 
   -8144    -7998    -7857    -7791    -7807    -7845    -7861    -7864 
   -7883    -7927    -7976    -7983    -7935    -7865    -7793    -7698 
   -7587    -7516    -7534    -7624    -7730    -7816    -7856    -7840 
   -7810    -7803    -7792    -7762    -7761    -7798    -7846    -7950 
   -8130    -8272    -8283    -8200    -8065    -7895    -7752    -7698 
   -7725    -7782    -7815    -7772    -7615    -7404    -7282    -7308 
   -7428    -7582    -7729    -7821    -7840    -7838    -7860    -7907 
   -7990    -8125    -8258    -8337    -8391    -8429    -8392    -8271 
   -8155    -8109    -8106    -8117    -8151    -8175    -8136    -8061 
   -8037    -8098    -8166    -8144    -8060    -8036    -8092    -8144 
   -8145    -8077    -7940    -7805    -7766    -7820    -7883    -7927 
   -7995    -8082    -8156    -8240    -8341    -8404    -8406    -8396 
   -8405    -8394    -8328    -8230    -8147    -8097    -8052    -8008 
   -7989    -7975    -7948    -7946    -7962    -7925    -7831    -7792 
   -7866    -7966    -8023    -8048    -8027    -7956    -7853    -7718 
   -7609    -7636    -7787    -7920    -7953    -7932    -7899    -7856 
   -7852    -7923    -8034    -8158    -8260    -8258    -8142    -7992 
   -7859    -7776    -7778    -7815    -7808    -7762    -7719    -7665 
   -7574    -7476    -7431    -7464    -7553    -7660    -7770    -7886 
   -7984    -8033    -8054    -8098    -8174    -8238    -8249    -8211 
   -8121    -7959    -7767    -7652    -7639    -7654    -7637    -7601 
   -7577    -7573    -7608    -7715    -7862    -7964    -7996    -8001 
   -7998    -7955    -7876    -7835    -7866    -7922    -7977    -8054 
   -8154    -8260    -8333    -8334    -8281    -8188    -8065    -7978 
   -7956    -7976    -8032    -8084    -8049    -7927    -7828    -7830 
   -7891    -7948    -7998    -8053    -8095    -8109    -8114    -8154 
   -8262    -8392    -8439    -8366    -8299    -8342    -8392    -8342 
   -8247    -8153    -8025    -7891    -7824    -7815    -7829    -7871 
   -7913    -7897    -7835    -7831    -7936    -8071    -8151    -8193 
   -8219    -8190    -8091    -7958    -7832    -7746    -7739    -7816 
   -7911    -7965    -7979    -7947    -7867    -7800    -7782    -7768 
   -7730    -7704    -7740    -7840    -7935    -7981    -8013    -8048 
   -8028    -7945    -7885    -7892    -7931    -7973    -7997    -7965 
   -7889    -7829    -7813    -7865    -7989    -8119    -8204    -8241 
   -8238    -8228    -8238    -8228    -8186    -8147    -8112    -8056 
   -7961    -7838    -7750    -7731    -7758    -7833    -7939    -7999 
   -7990    -7956    -7900    -7838    -7819    -7840    -7856    -7861 
   -7861    -7845    -7820    -7809    -7825    -7865    -7915    -7962 
   -7989    -7996    -7999    -8000    -8014    -8068    -8146    -8204 
   -8204    -8124    -7977    -7808    -7655    -7506    -7338    -7199 
   -7175    -7299    -7528    -7767    -7941    -8047    -8075    -8001 
   -7879    -7805    -7825    -7912    -7998    -8038    -8058    -8096 
   -8148    -8203    -8267    -8333    -8377    -8399    -8417    -8436 
   -8444    -8429    -8385    -8285    -8122    -7948    -7800    -7660 
   -7540    -7493    -7521    -7583    -7691    -7866    -8048    -8173 
   -8239    -8265    -8264    -8234    -8185    -8151    -8139    -8137 
   -8119    -8056    -7981    -7946    -7925    -7876    -7806    -7742 
   -7703    -7680    -7651    -7621    -7615    -7654    -7734    -7814 
   -7874    -7932    -7973    -7984    -7995    -7996    -7936    -7859 
   -7863    -7916    -7898    -7788    -7686    -7653    -7666    -7710 
   -7774    -7818    -7834    -7839    -7813    -7763    -7764    -7833 
   -7897    -7944    -8007    -8068    -8119    -8176    -8222    -8251 
   -8303    -8378    -8433    -8441    -8387    -8294    -8222    -8188 
   -8146    -8062    -7937    -7789    -7691    -7682    -7690    -7691 
   -7768    -7929    -8099    -8254    -8397    -8506    -8531    -8466 
   -8386    -8334    -8300    -8310    -8379    -8456    -8509    -8525 
   -8462    -8306    -8132    -8014    -7956    -7958    -8013    -8069 
   -8105    -8133    -8149    -8152    -8129    -8048    -7940    -7860 
   -7794    -7711    -7645    -7641    -7686    -7720    -7700    -7635 
   -7554    -7493    -7484    -7540    -7646    -7770    -7869    -7906 
   -7880    -7825    -7789    -7802    -7850    -7885    -7893    -7894 
   -7898    -7899    -7902    -7905    -7868    -7768    -7670    -7637 
   -7653    -7687    -7714    -7708    -7682    -7671    -7678    -7691 
   -7720    -7787    -7893    -7988    -8035    -8034    -7998    -7966 
   -7976    -7996    -7977    -7938    -7915    -7905    -7901    -7906 
   -7911    -7908    -7923    -7968    -8009    -8024    -8008    -7932 
   -7807    -7695    -7622    -7572    -7535    -7502    -7463    -7421 
   -7375    -7353    -7407    -7531    -7666    -7773    -7845    -7922 
   -8059    -8241    -8407    -8509    -8545    -8543    -8519    -8488 
   -8480    -8499    -8477    -8397    -8339    -8326    -8302    -8240 
   -8156    -8091    -8076    -8096    -8151    -8227    -8277    -8296 
   -8291    -8257    -8242    -8282    -8320    -8288    -8212    -8172 
   -8205    -8273    -8333    -8354    -8310    -8216    -8112    -8005 
   -7897    -7819    -7800    -7835    -7862    -7847    -7833    -7842 
   -7856    -7904    -8014    -8135    -8211    -8241    -8247    -8243 
   -8246    -8275    -8320    -8323    -8266    -8203    -8164    -8130 
   -8114    -8129    -8124    -8044    -7923    -7809    -7695    -7617 
   -7632    -7690    -7708    -7689    -7639    -7538    -7441    -7421 
   -7468    -7538    -7639    -7767    -7841    -7801    -7693    -7608 
   -7591    -7644    -7738    -7836    -7916    -7976    -7986    -7919 
   -7816    -7721    -7665    -7681    -7742    -7799    -7867    -7944 
   -7972    -7938    -7906    -7925    -7967    -7969    -7917    -7864 
   -7858    -7911    -8028    -8173    -8251    -8232    -8178    -8094 
   -7966    -7876    -7875    -7918    -7979    -8068    -8171    -8241 
   -8247    -8242    -8272    -8311    -8318    -8243    -8072    -7882 
   -7739    -7654    -7614    -7573    -7539    -7565    -7621    -7623 
   -7519    -7361    -7274    -7304    -7387    -7475    -7559    -7643 
   -7711    -7709    -7658    -7658    -7744    -7864    -7986    -8139 
   -8338    -8518    -8636    -8727    -8804    -8828    -8803    -8751 
   -8645    -8511    -8421    -8367    -8272    -8111    -7938    -7842 
   -7834    -7832    -7831    -7921    -8080    -8177    -8185    -8187 
   -8198    -8177    -8119    -8043    -7943    -7830    -7763    -7765 
   -7768    -7751    -7774    -7830    -7865    -7883    -7915    -7986 
   -8087    -8160    -8176    -8191    -8225    -8185    -8011    -7835 
   -7781    -7762    -7697    -7653    -7638    -7595    -7557    -7580 
   -7637    -7682    -7715    -7738    -7729    -7705    -7689    -7684 
   -7701    -7741    -7795    -7888    -8051    -8212    -8291    -8317 
   -8353    -8367    -8296    -8167    -8071    -8021    -7984    -7980 
   -8040    -8121    -8131    -8065    -8009    -7954    -7858    -7822 
   -7884    -7925    -7942    -8012    -8060    -8015    -7977    -8011 
   -8056    -8090    -8128    -8139    -8097    -8005    -7903    -7867 
   -7884    -7874    -7872    -7919    -7940    -7924    -7951    -8019 
   -8064    -8075    -8060    -8018    -7934    -7816    -7775    -7881 
   -8058    -8221    -8371    -8507    -8557    -8479    -8359    -8275 
   -8187    -8053    -7909    -7766    -7604    -7484    -7493    -7574 
   -7631    -7660    -7666    -7640    -7634    -7689    -7789    -7925 
   -8102    -8280    -8387    -8385    -8343    -8344    -8348    -8279 
   -8135    -7964    -7801    -7667    -7621    -7706    -7849    -7952 
   -8005    -8010    -7957    -7931    -8025    -8191    -8307    -8318 
   -8213    -8005    -7799    -7726    -7791    -7876    -7907    -7885 
   -7825    -7755    -7719    -7737    -7772    -7791    -7789    -7756 
   -7720    -7747    -7815    -7887    -8027    -8225    -8314    -8236 
   -8102    -7987    -7874    -7728    -7584    -7540    -7603    -7682 
   -7744    -7800    -7851    -7901    -7938    -7952    -7949    -7884 
   -7761    -7677    -7650    -7633    -7642    -7718    -7852    -7986 
   -8055    -8074    -8099    -8119    -8115    -8136    -8175    -8149 
   -8071    -8020    -8005    -7978    -7921    -7840    -7755    -7709 
   -7702    -7687    -7664    -7694    -7789    -7883    -7944    -8013 
   -8100    -8168    -8226    -8299    -8348    -8341    -8299    -8267 
   -8276    -8302    -8320    -8357    -8406    -8396    -8312    -8214 
   -8119    -8002    -7926    -7957    -8057    -8145    -8161    -8095 
   -8025    -8020    -8067    -8111    -8114    -8092    -8091    -8108 
   -8106    -8094    -8076    -8045    -8029    -8023    -7977    -7897 
   -7834    -7816    -7832    -7844    -7809    -7717    -7611    -7563 
   -7595    -7682    -7818    -8013    -8213    -8324    -8360    -8400 
   -8421    -8363    -8252    -8143    -8055    -8016    -8033    -8061 
   -8062    -8011    -7904    -7764    -7638    -7562    -7541    -7601 
   -7786    -8024    -8175    -8197    -8157    -8127    -8112    -8056 
   -7950    -7829    -7720    -7656    -7669    -7713    -7724    -7711 
   -7705    -7690    -7694    -7773    -7878    -7934    -7950    -7927 
   -7860    -7831    -7869    -7924    -7982    -8026    -8009    -7916 
   -7778    -7666    -7636    -7714    -7878    -8029    -8095    -8104 
   -8089    -8061    -8045    -8042    -8053    -8085    -8078    -7992 
   -7889    -7830    -7827    -7880    -7935    -7951    -7967    -7990 
   -8025    -8145    -8338    -8485    -8525    -8460    -8335    -8219 
   -8107    -7974    -7855    -7775    -7743    -7797    -7911    -7974 
   -7950    -7900    -7862    -7844    -7881    -7977    -8077    -8126 
   -8119    -8119    -8153    -8182    -8187    -8156    -8040    -7863 
   -7715    -7615    -7527    -7468    -7467    -7519    -7613    -7708 
   -7749    -7751    -7769    -7815    -7866    -7893    -7877    -7866 
   -7916    -7984    -8020    -8050    -8089    -8133    -8179    -8174 
   -8089    -7961    -7805    -7630    -7477    -7383    -7348    -7347 
   -7359    -7377    -7410    -7470    -7569    -7692    -7801    -7897 
   -8004    -8122    -8236    -8305    -8289    -8233    -8203    -8154 
   -8056    -7987    -7970    -7959    -7984    -8046    -8066    -8042 
   -7986    -7885    -7823    -7881    -8003    -8110    -8194    -8290 
   -8411    -8525    -8584    -8563    -8461    -8306    -8166    -8115 
   -8155    -8175    -8113    -8052    -8056    -8094    -8165    -8270 
   -8351    -8362    -8295    -8172    -8047    -7977    -7971    -7967 
   -7913    -7838    -7781    -7715    -7653    -7691    -7856    -8053 
   -8189    -8240    -8221    -8173    -8163    -8224    -8293    -8280 
   -8194    -8089    -7985    -7898    -7846    -7817    -7785    -7747 
   -7733    -7776    -7843    -7894    -7958    -8043    -8095    -8102 
   -8076    -8001    -7898    -7800    -7718    -7665    -7625    -7573 
   -7514    -7434    -7345    -7335    -7422    -7519    -7579    -7607 
   -7623    -7645    -7669    -7706    -7808    -7976    -8129    -8212 
   -8243    -8238    -8185    -8099    -8012    -7935    -7904    -7940 
   -7983    -7977    -7926    -7859    -7819    -7815    -7792    -7713 
   -7610    -7522    -7449    -7348    -7175    -6986    -6893    -6908 
   -6985    -7134    -7334    -7490    -7584    -7703    -7841    -7920 
   -7989    -8124    -8270    -8386    -8517    -8661    -8794    -8917 
   -9017    -9093    -9190    -9304    -9380    -9416    -9409    -9334 
   -9212    -9091    -8955    -8751    -8506    -8307    -8161    -8042 
   -7996    -8054    -8148    -8211    -8275    -8383    -8512    -8616 
   -8685    -8758    -8857    -8954    -9050    -9141    -9177    -9164 
   -9147    -9086    -8941    -8739    -8498    -8223    -7967    -7779 
   -7638    -7496    -7373    -7302    -7254    -7193    -7133    -7078 
   -7002    -6907    -6832    -6808    -6827    -6873    -6916    -6902 
   -6827    -6753    -6713    -6699    -6712    -6730    -6704    -6649 
   -6593    -6519    -6434    -6366    -6304    -6242    -6200    -6228 
   -6343    -6463    -6544    -6634    -6722    -6798    -6935    -7143 
   -7366    -7593    -7829    -8037    -8195    -8351    -8548    -8751 
   -8934    -9125    -9316    -9473    -9611    -9752    -9860    -9901 
   -9897    -9853    -9726    -9546    -9390    -9250    -9082    -8899 
   -8720    -8552    -8396    -8224    -8041    -7889    -7777    -7685 
   -7619    -7620    -7746    -7982    -8211    -8336    -8373    -8373 
   -8366    -8402    -8508    -8628    -8708    -8774    -8848    -8891 
   -8832    -8646    -8373    -8073    -7820    -7675    -7629    -7655 
   -7725    -7784    -7808    -7824    -7838    -7857    -7908    -7937 
   -7861    -7727    -7629    -7556    -7492    -7496    -7593    -7745 
   -7910    -8031    -8073    -8055    -8043    -8103    -8222    -8316 
   -8333    -8255    -8112    -7999    -7953    -7920    -7875    -7820 
   -7703    -7520    -7391    -7355    -7305    -7206    -7126    -7100 
   -7108    -7082    -6989    -6904    -6889    -6918    -7001    -7137 
   -7236    -7243    -7217    -7207    -7182    -7105    -7040    -7092 
   -7266    -7496    -7725    -7891    -7959    -8000    -8116    -8292 
   -8446    -8518    -8493    -8418    -8350    -8275    -8213    -8218 
   -8243    -8261    -8310    -8379    -8422    -8428    -8425    -8473 
   -8570    -8627    -8603    -8553    -8532    -8536    -8530    -8510 
   -8479    -8416    -8321    -8231    -8161    -8102    -8066    -8077 
   -8128    -8173    -8186    -8228    -8335    -8435    -8467    -8483 
   -8557    -8670    -8745    -8773    -8816    -8899    -8985    -9040 
   -9040    -8970    -8854    -8735    -8595    -8420    -8250    -8095 
   -7923    -7769    -7686    -7631    -7546    -7435    -7320    -7226 
   -7190    -7202    -7213    -7220    -7239    -7249    -7235    -7223 
   -7235    -7293    -7385    -7481    -7567    -7629    -7664    -7721 
   -7808    -7872    -7904    -7930    -7934    -7884    -7769    -7614 
   -7462    -7327    -7210    -7113    -7024    -6932    -6861    -6829 
   -6818    -6823    -6867    -6945    -7039    -7145    -7268    -7373 
   -7425    -7444    -7467    -7510    -7588    -7690    -7818    -7988 
   -8178    -8340    -8463    -8564    -8664    -8782    -8910    -8984 
   -8961    -8871    -8757    -8641    -8545    -8469    -8411    -8395 
   -8413    -8398    -8327    -8274    -8278    -8275    -8222    -8179 
   -8168    -8136    -8089    -8089    -8139    -8178    -8192    -8192 
   -8160    -8099    -8047    -8025    -8042    -8096    -8165    -8226 
   -8268    -8276    -8272    -8308    -8391    -8482    -8556    -8636 
   -8750    -8866    -8916    -8877    -8788    -8666    -8519    -8391 
   -8298    -8201    -8103    -8038    -7997    -7965    -7932    -7873 
   -7781    -7662    -7516    -7373    -7243    -7087    -6936    -6857 
   -6830    -6799    -6764    -6761    -6792    -6802    -6772    -6767 
   -6827    -6912    -6991    -7101    -7294    -7560    -7833    -8056 
   -8211    -8326    -8448    -8552    -8569    -8503    -8411    -8332 
   -8274    -8225    -8184    -8175    -8195    -8218    -8223    -8206 
   -8188    -8183    -8170    -8137    -8113    -8105    -8102    -8137 
   -8199    -8223    -8190    -8128    -8044    -7944    -7872    -7861 
   -7886    -7900    -7903    -7897    -7892    -7919    -7996    -8124 
   -8290    -8432    -8500    -8500    -8462    -8425    -8434    -8493 
   -8566    -8614    -8604    -8549    -8510    -8525    -8563    -8553 
   -8464    -8303    -8101    -7901    -7714    -7528    -7368    -7251 
   -7141    -7039    -6974    -6966    -7043    -7208    -7390    -7528 
   -7628    -7733    -7883    -8068    -8245    -8399    -8509    -8512 
   -8401    -8227    -8002    -7753    -7550    -7385    -7217    -7091 
   -7062    -7121    -7240    -7348    -7389    -7395    -7425    -7495 
   -7597    -7723    -7909    -8164    -8404    -8547    -8574    -8511 
   -8414    -8328    -8259    -8190    -8095    -7990    -7911    -7860 
   -7847    -7900    -7984    -8064    -8161    -8296    -8441    -8544 
   -8591    -8615    -8615    -8553    -8438    -8317    -8223    -8165 
   -8139    -8160    -8218    -8252    -8233    -8190    -8146    -8119 
   -8149    -8249    -8372    -8454    -8485    -8500    -8507    -8469 
   -8363    -8219    -8096    -8024    -7989    -7974    -7967    -7951 
   -7918    -7871    -7805    -7722    -7653    -7606    -7563    -7525 
   -7488    -7430    -7359    -7303    -7284    -7331    -7417    -7456 
   -7427    -7367    -7283    -7184    -7116    -7113    -7171    -7258 
   -7361    -7468    -7558    -7627    -7708    -7824    -7970    -8140 
   -8326    -8482    -8566    -8573    -8541    -8523    -8551    -8614 
   -8666    -8647    -8513    -8283    -8058    -7918    -7848    -7796 
   -7748    -7716    -7730    -7800    -7888    -7965    -8044    -8141 
   -8239    -8289    -8272    -8222    -8161    -8090    -8036    -8013 
   -8003    -7981    -7932    -7876    -7855    -7886    -7959    -8060 
   -8187    -8329    -8444    -8500    -8496    -8468    -8462    -8452 
   -8399    -8347    -8343    -8354    -8341    -8308    -8271    -8239 
   -8192    -8117    -8031    -7966    -7949    -7982    -8032    -8080 
   -8125    -8144    -8124    -8098    -8091    -8109    -8170    -8267 
   -8362    -8415    -8409    -8367    -8320    -8237    -8084    -7897 
   -7709    -7520    -7369    -7295    -7250    -7167    -7059    -6948 
   -6831    -6725    -6634    -6555    -6534    -6608    -6746    -6888 
   -6995    -7077    -7153    -7249    -7388    -7539    -7640    -7664 
   -7622    -7561    -7523    -7504    -7469    -7408    -7362    -7394 
   -7528    -7736    -7941    -8081    -8168    -8239    -8294    -8341 
   -8405    -8482    -8559    -8641    -8702    -8678    -8564    -8439 
   -8340    -8249    -8178    -8129    -8046    -7934    -7882    -7915 
   -7991    -8099    -8234    -8346    -8422    -8500    -8617    -8780 
   -8951    -9081    -9165    -9202    -9184    -9135    -9104    -9111 
