Origin Time       2024/04/02 04:24:00
Lat.              40.133
Long.             141.712
Depth. (km)       71
Mag.              6.0
Station Code      YMTH08
Station Lat.      38.9701
Station Long.     140.0333
Station Height(m) 8.7
Record Time       2024/04/02 04:25:08
Sampling Freq(Hz) 100Hz
Duration Time(s)  189
Dir.              2
Scale Factor      2942(gal)/8224139
Max. Acc. (gal)   1.170
Last Correction   2024/04/02 04:25:08
Memo.             
[...]
  166035   166124   166276   166477   166684   166823   166876   166870 
  166831   166762   166648   166490   166364   166332   166364   166414 
  166487   166564   166626   166688   166758   166822   166874   166911 
  166923   166916   166882   166807   166734   166693   166657   166614 
  166564   166534   166550   166567   166561   166588   166681   166816 
  166950   167027   167053   167061   167027   166915   166752   166588 
  166434   166288   166162   166066   166013   165993   165986   166005 
  166050   166104   166166   166203   166174   166097   166041   166089 
  166268   166504   166691   166819   166942   167065   167158   167215 
  167238   167232   167206   167154   167093   167044   166996   166900 
  166735   166529   166314   166108   165950   165906   166017   166234 
  166459   166606   166654   166607   166498   166406   166396   166480 
  166630   166800   166936   167011   167034   167042   167035   166968 
  166795   166569   166426   166413   166496   166646   166808   166887 
  166841   166725   166611   166530   166467   166396   166313   166237 
  166197   166220   166303   166402   166459   166433   166353   166274 
  166186   166089   166024   166044   166182   166383   166544   166615 
  166631   166644   166699   166785   166827   166822   166808   166772 
  166718   166669   166627   166577   166495   166394   166318   166310 
  166388   166515   166635   166704   166703   166677   166668   166684 
  166714   166722   166672   166580   166503   166468   166473   166473 
  166399   166274   166179   166136   166170   166310   166500   166660 
  166756   166772   166715   166619   166538   166540   166631   166746 
  166860   166972   167032   167017   166984   166957   166891   166768 
  166646   166588   166599   166671   166781   166876   166896   166824 
  166684   166522   166399   166342   166318   166295   166297   166342 
  166413   166488   166533   166507   166436   166413   166484   166572 
  166575   166480   166344   166253   166239   166260   166307   166361 
  166407   166475   166565   166652   166742   166857   166972   167043 
  167067   167034   166923   166750   166563   166463   166502   166627 
  166745   166765   166661   166468   166263   166136   166110   166164 
  166283   166396   166429   166423   166460   166533   166615   166702 
  166741   166714   166693   166752   166881   167024   167112   167154 
  167182   167169   167069   166900   166762   166734   166795   166884 
  166945   166918   166797   166638   166495   166448   166510   166579 
  166576   166495   166356   166225   166167   166190   166249   166286 
  166267   166226   166230   166264   166268   166245   166209   166160 
  166137   166190   166321   166486   166639   166762   166860   166955 
  167059   167163   167286   167405   167470   167487   167463   167387 
  167282   167159   167044   166996   166980   166931   166838   166704 
  166552   166407   166282   166213   166221   166241   166206   166112 
  165997   165912   165893   165950   166072   166221   166338   166406 
  166441   166442   166426   166411   166388   166340   166297   166306 
  166379   166487   166572   166587   166560   166529   166496   166491 
  166546   166652   166765   166824   166792   166683   166523   166403 
  166417   166533   166689   166870   167030   167140   167175   167109 
  166995   166920   166918   166927   166896   166849   166800   166754 
  166729   166677   166536   166320   166090   165909   165827   165844 
  165910   165967   165970   165943   165959   166075   166306   166592 
  166815   166946   167005   166980   166912   166897   166949   166996 
  166965   166828   166645   166507   166437   166387   166326   166251 
  166172   166118   166098   166114   166183   166303   166433   166506 
  166480   166342   166137   165954   165867   165890   166001   166174 
  166382   166598   166804   166996   167178   167355   167510   167657 
  167761   167745   167622   167463   167285   167096   166882   166615 
  166303   165978   165711   165542   165438   165346   165242   165140 
  165098   165141   165268   165503   165840   166212   166557   166834 
  167012   167131   167292   167509   167698   167805   167825   167775 
  167670   167514   167316   167076   166803   166553   166386   166306 
  166247   166163   166075   165979   165854   165719   165596   165473 
  165321   165142   165010   164994   165100   165256   165423   165674 
  166063   166549   167058   167505   167829   168029   168131   168154 
  168077   167895   167661   167424   167208   167074   167074   167165 
  167202   167078   166830   166545   166256   165996   165821   165754 
  165748   165774   165827   165900   165977   166009   165963   165875 
  165801   165798   165921   166125   166342   166568   166815   167062 
  167277   167451   167593   167687   167726   167702   167580   167390 
  167216   167088   167007   166976   166941   166872   166806   166747 
  166685   166676   166764   166865   166855   166765   166691   166617 
  166527   166482   166510   166579   166654   166718   166780   166862 
  166962   167038   167055   166997   166882   166768   166677   166588 
  166510   166510   166595   166679   166683   166580   166407   166234 
  166121   166091   166129   166185   166209   166197   166213   166306 
  166465   166633   166726   166706   166595   166455   166341   166276 
  166226   166143   166045   165997   166012   166090   166229   166406 
  166565   166653   166656   166604   166571   166602   166692   166837 
  167030   167205   167297   167302   167256   167206   167165   167098 
  166957   166773   166641   166590   166619   166747   166935   167108 
  167225   167285   167282   167213   167082   166861   166554   166225 
  165921   165655   165478   165438   165497   165573   165616   165632 
  165669   165780   165964   166202   166502   166828   167103   167231 
  167177   167027   166914   166861   166823   166781   166765   166784 
  166808   166826   166887   167001   167085   167057   166922   166738 
  166575   166469   166422   166437   166526   166660   166773   166843 
  166895   166934   166915   166830   166719   166629   166588   166599 
  166631   166652   166638   166573   166491   166450   166460   166500 
  166557   166619   166685   166761   166846   166873   166770   166572 
  166340   166091   165858   165690   165618   165596   165570   165518 
  165429   165311   165235   165268   165397   165551   165685   165817 
  165971   166109   166171   166149   166099   166064   166071   166155 
  166325   166545   166765   166953   167135   167324   167447   167451 
  167367   167232   167073   166876   166611   166326   166090   165928 
  165832   165775   165755   165762   165744   165719   165727   165751 
  165797   165877   165982   166085   166131   166108   166071   166070 
  166120   166199   166274   166355   166452   166542   166627   166735 
  166888   167085   167331   167584   167794   167953   168056   168075 
  168038   167976   167864   167714   167566   167422   167308   167238 
  167209   167251   167370   167528   167686   167838   167991   168062 
  167968   167737   167455   167173   166945   166837   166880   167043 
  167274   167535   167779   167961   168039   168010   167934   167877 
  167853   167861   167888   167892   167846   167779   167733   167725 
  167734   167721   167663   167572   167471   167383   167323   167267 
  167177   167039   166870   166673   166445   166239   166082   165940 
  165802   165682   165584   165545   165593   165699   165794   165859 
  165894   165869   165777   165663   165539   165372   165154   164920 
  164677   164438   164258   164187   164236   164376   164551   164704 
  164802   164866   164907   164906   164856   164727   164525   164316 
  164099   163865   163656   163512   163460   163476   163534   163632 
  163730   163811   163891   163975   164070   164193   164351   164540 
  164782   165100   165474   165869   166239   166538   166754   166874 
  166915   166936   166995   167098   167211   167308   167406   167521 
  167649   167776   167875   167949   168018   168102   168226   168407 
  168592   168691   168681   168565   168340   168042   167705   167395 
  167229   167242   167374   167568   167769   167941   168072   168177 
  168304   168467   168658   168855   169013   169103   169156   169202 
  169258   169304   169280   169150   168928   168647   168367   168149 
  167980   167813   167637   167475   167316   167135   166941   166773 
  166675   166645   166656   166685   166729   166772   166818   166911 
  167096   167358   167621   167826   167989   168133   168222   168226 
  168129   167926   167638   167294   166911   166518   166163   165867 
  165632   165468   165381   165365   165423   165538   165667   165782 
  165877   165964   166050   166113   166120   166050   165909   165731 
  165572   165488   165496   165561   165632   165696   165747   165785 
  165821   165863   165890   165915   165962   165997   165959   165838 
  165699   165619   165607   165616   165596   165526   165419   165322 
  165271   165262   165261   165218   165125   165036   164987   165007 
  165126   165326   165565   165824   166091   166351   166579   166766 
  166916   167011   167034   167030   167062   167154   167260   167352 
  167452   167559   167630   167633   167593   167557   167563   167613 
  167697   167814   167927   167976   167968   167942   167906   167864 
  167825   167786   167730   167649   167570   167532   167526   167530 
  167557   167626   167745   167911   168072   168164   168156   168060 
  167908   167728   167539   167375   167244   167128   167028   166984 
  166985   166966   166874   166695   166437   166156   165924   165742 
  165572   165419   165285   165113   164911   164762   164701   164736 
  164821   164882   164909   164932   164964   165001   165040   165087 
  165156   165261   165397   165528   165604   165605   165574   165577 
  165658   165804   165951   166047   166099   166155   166236   166322 
  166351   166284   166120   165882   165653   165512   165465   165437 
  165357   165231   165114   165021   164967   164982   165064   165200 
  165365   165518   165650   165771   165900   166035   166140   166199 
  166226   166222   166198   166155   166109   166125   166234   166422 
  166704   167074   167483   167883   168195   168351   168388   168369 
  168319   168238   168106   167908   167661   167395   167155   166966 
  166800   166615   166410   166212   166060   165987   165983   166014 
  166067   166144   166233   166305   166355   166398   166446   166531 
  166692   166912   167124   167260   167290   167244   167198   167182 
  167158   167097   167011   166909   166792   166662   166536   166401 
  166260   166132   166012   165889   165770   165666   165624   165692 
  165835   165971   166081   166178   166286   166441   166639   166853 
  167073   167278   167443   167575   167694   167811   167960   168134 
  168277   168347   168362   168362   168365   168347   168312   168280 
  168238   168185   168139   168089   168016   167950   167931   167965 
  168021   168081   168164   168232   168239   168210   168196   168205 
  168227   168266   168328   168389   168409   168357   168250   168127 
  168000   167891   167823   167810   167854   167911   167903   167784 
  167559   167265   166942   166596   166234   165874   165528   165221 
  164952   164706   164489   164297   164146   164060   164019   164007 
  164042   164130   164250   164393   164560   164783   165063   165329 
  165520   165632   165703   165759   165782   165740   165642   165534 
  165453   165393   165346   165318   165277   165183   165029   164845 
  164677   164555   164488   164493   164582   164747   164949   165118 
  165211   165218   165145   165018   164871   164731   164624   164577 
  164604   164695   164848   165076   165379   165731   166105   166457 
  166761   167007   167192   167331   167431   167478   167468   167421 
  167397   167440   167567   167765   168000   168246   168451   168578 
  168652   168700   168723   168704   168624   168507   168378   168231 
  168041   167783   167447   167049   166661   166382   166259   166282 
  166394   166545   166710   166885   167117   167420   167738   168023 
  168249   168367   168328   168087   167628   167001   166303   165658 
  165179   164895   164791   164837   164971   165130   165279   165380 
  165460   165564   165686   165808   165936   166091   166280   166500 
  166742   166980   167177   167313   167401   167460   167487   167463 
  167364   167151   166831   166490   166212   166040   166024   166179 
  166450   166776   167117   167427   167663   167791   167771   167591 
  167287   166899   166455   166001   165588   165267   165092   165067 
  165122   165194   165281   165391   165492   165557   165595   165669 
  165838   166113   166457   166803   167103   167348   167560   167733 
  167821   167813   167734   167614   167479   167331   167189   167115 
  167123   167201   167325   167474   167653   167836   167968   168011 
  167961   167849   167698   167497   167285   167154   167193   167413 
  167746   168123   168489   168805   169022   169106   169083   168966 
  168745   168458   168129   167775   167444   167179   167019   166935 
  166862   166783   166693   166587   166483   166421   166411   166422 
  166415   166357   166239   166060   165828   165576   165346   165138 
  164934   164731   164519   164272   163973   163679   163462   163343 
  163305   163341   163480   163725   164046   164424   164845   165277 
  165650   165897   166013   166035   166013   165993   165981   165975 
  165979   166024   166148   166337   166552   166743   166857   166895 
  166889   166891   166938   167019   167113   167209   167282   167312 
  167278   167173   167016   166841   166677   166537   166423   166344 
  166293   166230   166102   165897   165670   165491   165404   165418 
  165507   165635   165777   165921   166066   166185   166244   166240 
  166172   166060   165950   165847   165759   165705   165721   165828 
  166000   166187   166383   166588   166801   167026   167247   167448 
  167644   167852   168073   168315   168562   168764   168886   168913 
  168836   168670   168448   168189   167902   167611   167374   167236 
  167208   167250   167310   167366   167412   167412   167329   167202 
  167107   167081   167113   167131   167065   166919   166742   166608 
  166554   166534   166488   166425   166367   166309   166270   166279 
  166329   166399   166488   166573   166621   166614   166537   166383 
  166171   165935   165686   165410   165125   164893   164737   164639 
  164589   164562   164544   164562   164652   164810   164983   165123 
  165238   165360   165500   165650   165794   165906   165966   165987 
  165990   165986   166012   166095   166233   166384   166521   166644 
  166731   166757   166729   166649   166502   166329   166206   166171 
  166212   166322   166506   166750   167011   167235   167400   167520 
  167633   167753   167823   167795   167680   167509   167309   167097 
  166878   166671   166523   166459   166444   166446   166473   166522 
  166573   166658   166843   167158   167574   168019   168407   168664 
  168783   168822   168835   168799   168691   168538   168388   168278 
  168211   168180   168195   168254   168335   168419   168489   168525 
  168512   168415   168210   167933   167636   167344   167084   166862 
  166676   166519   166372   166206   166048   165958   165974   166067 
  166149   166166   166116   166008   165836   165659   165592   165700 
  165962   166307   166635   166870   167004   167050   166997   166861 
  166676   166449   166201   165981   165815   165690   165589   165501 
  165434   165385   165337   165296   165303   165353   165423   165523 
  165651   165785   165904   165974   165975   165908   165780   165615 
  165451   165312   165194   165075   164986   164979   165088   165312 
  165620   165960   166276   166511   166644   166702   166722   166725 
  166704   166692   166718   166768   166819   166866   166919   166978 
  167050   167139   167209   167225   167177   167074   166982   166932 
  166907   166912   166958   167027   167082   167097   167053   166943 
  166806   166685   166580   166471   166375   166337   166374   166436 
  166477   166498   166490   166455   166425   166421   166455   166523 
  166592   166608   166564   166495   166434   166398   166390   166399 
  166409   166405   166382   166365   166386   166459   166580   166741 
  166927   167076   167136   167158   167217   167341   167522   167711 
  167861   167960   168019   168062   168112   168177   168237   168234 
  168131   167952   167748   167548   167335   167076   166801   166581 
  166449   166384   166338   166271   166168   166047   165950   165886 
  165812   165743   165730   165750   165770   165780   165773   165744 
  165711   165719   165790   165929   166136   166399   166652   166797 
  166846   166869   166882   166884   166885   166896   166891   166831 
  166710   166557   166448   166444   166550   166752   166980   167143 
  167220   167219   167140   167003   166824   166646   166523   166469 
  166452   166440   166438   166472   166537   166619   166711   166816 
  166945   167061   167115   167089   166966   166742   166460   166155 
  165856   165600   165399   165269   165200   165149   165094   165028 
  164959   164941   165021   165188   165422   165693   165929   166031 
  165937   165688   165395   165153   164986   164882   164853   164874 
  164901   164951   165030   165115   165196   165284   165368   165423 
  165470   165565   165717   165865   165933   165886   165738   165574 
  165487   165497   165604   165780   165966   166124   166266   166422 
  166618   166862   167159   167482   167773   168014   168242   168488 
  168745   169009   169253   169437   169533   169554   169504   169371 
  169172   168955   168747   168546   168336   168119   167877   167606 
  167324   167038   166788   166635   166571   166548   166561   166635 
  166800   167073   167425   167763   168008   168157   168222   168247 
  168289   168338   168361   168367   168369   168374   168374   168345 
  168262   168114   167910   167688   167517   167420   167348   167225 
  167031   166808   166607   166434   166249   166014   165723   165402 
  165122   164941   164835   164744   164648   164586   164596   164685 
  164825   164930   164945   164899   164844   164816   164822   164870 
  164947   164990   164951   164867   164806   164790   164799   164797 
  164774   164747   164739   164772   164844   164934   165017   165055 
  165036   164986   164911   164847   164860   164968   165140   165334 
  165505   165650   165808   166000   166182   166306   166396   166476 
  166561   166683   166812   166897   166909   166842   166752   166688 
  166641   166621   166646   166702   166765   166830   166908   167000 
  167084   167144   167184   167196   167162   167066   166899   166658 
  166367   166105   165943   165878   165901   166021   166220   166432 
  166631   166857   167132   167448   167791   168106   168327   168426 
  168403   168288   168112   167942   167886   167973   168116   168220 
  168259   168269   168291   168343   168404   168457   168505   168523 
  168477   168373   168207   167977   167728   167498   167292   167088 
