Origin Time       2024/04/02 04:24:00
Lat.              40.133
Long.             141.712
Depth. (km)       71
Mag.              6.0
Station Code      YMTH11
Station Lat.      38.7132
Station Long.     140.5544
Station Height(m) 144
Record Time       2024/04/02 04:25:28
Sampling Freq(Hz) 100Hz
Duration Time(s)  120
Dir.              2
Scale Factor      2940(gal)/6170270
Max. Acc. (gal)   1.085
Last Correction   2024/04/02 04:25:13
Memo.             
[...]
   10029    10059    10058    10057    10059    10057    10068    10072 
   10029     9985    10028    10124    10183    10146     9993     9771 
    9565     9427     9402     9541     9699     9698     9695     9848 
    9990     9977     9924     9877     9767     9663     9608     9608 
    9744     9957    10073    10077    10048    10018     9958     9855 
    9820     9893     9952     9958     9912     9853     9876     9908 
    9863     9798     9701     9561     9464     9380     9282     9338 
    9517     9591     9604     9686     9771     9802     9800     9823 
    9918    10012    10038    10024    10033    10055    10037    10029 
   10047    10075    10134    10130    10008     9851     9699     9557 
    9514     9592     9660     9682     9713     9739     9763     9785 
    9769     9732     9738     9784     9811     9846     9869     9785 
    9712     9747     9802     9866     9938     9967     9968     9924 
    9844     9820     9847     9886     9952     9975     9894     9830 
    9890     9940     9875     9843     9921     9927     9759     9555 
    9431     9379     9369     9363     9340     9316     9282     9279 
    9364     9400     9312     9310     9441     9514     9541     9591 
    9590     9577     9624     9687     9768     9865     9909     9927 
    9994    10014     9920     9879     9953     9998     9979     9968 
    9969     9940     9857     9779     9778     9787     9739     9657 
    9556     9510     9532     9517     9514     9586     9660     9712 
    9763     9820     9875     9957    10039    10025     9938     9866 
    9846     9869     9860     9812     9826     9913    10032    10135 
   10122     9991     9820     9624     9437     9353     9346     9354 
    9441     9578     9675     9792     9906     9892     9795     9724 
    9720     9767     9800     9798     9784     9827     9961    10086 
   10162    10221    10221    10147    10052     9936     9809     9774 
    9834     9865     9825     9801     9848     9875     9855     9891 
    9973    10048    10110    10087     9988     9957     9992     9973 
    9959     9997     9997    10045    10178    10194    10112    10091 
   10072     9965     9856     9782     9730     9806     9955     9991 
    9993    10084    10162    10186    10229    10257    10224    10212 
   10254    10221    10159    10188    10219    10232    10224    10167 
   10127    10094    10023     9942     9863     9779     9754     9804 
    9825     9785     9715     9602     9457     9359     9349     9339 
    9323     9366     9418     9412     9390     9423     9474     9527 
    9630     9695     9662     9642     9707     9804     9929    10054 
   10067    10023    10013     9986     9912     9819     9758     9733 
    9716     9700     9622     9480     9343     9250     9260     9366 
    9476     9565     9628     9706     9841     9935     9939     9915 
    9874     9835     9908    10093    10208    10220    10228    10237 
   10248    10234    10156    10070    10034    10060    10114    10140 
   10103     9986     9817     9706     9750     9812     9731     9658 
    9679     9685     9690     9726     9781     9860     9914     9910 
    9878     9858     9836     9793     9807     9849     9813     9828 
    9929     9924     9871     9872     9855     9835     9791     9737 
    9721     9636     9549     9545     9487     9388     9386     9491 
    9630     9718     9731     9727     9727     9721     9715     9651 
    9546     9514     9525     9510     9536     9623     9694     9735 
    9763     9735     9664     9583     9421     9253     9252     9336 
    9371     9424     9541     9638     9666     9676     9711     9747 
    9806     9911     9955     9884     9827     9862     9879     9813 
    9778     9824     9865     9888     9929     9951     9947     9994 
   10076    10082    10013     9929     9898     9973    10007     9906 
    9814     9783     9778     9836     9913     9959    10026    10098 
   10136    10146    10132    10104    10078    10025     9882     9738 
    9689     9694     9770     9873     9904     9926     9944     9945 
   10033    10122    10047     9933     9897     9842     9783     9821 
    9919     9996    10049    10082    10114    10154    10174    10237 
   10332    10307    10180    10019     9869     9817     9828     9871 
    9916     9866     9757     9647     9541     9487     9469     9510 
    9636     9689     9624     9608     9682     9727     9704     9696 
    9726     9778     9884     9976    10004    10020    10046    10159 
   10292    10248    10161    10169    10169    10094     9958     9872 
    9849     9798     9765     9720     9676     9774     9869     9758 
    9579     9573     9726     9861     9961    10091    10176    10117 
    9980     9884     9850     9847     9825     9800     9822     9827 
    9781     9791     9861     9923     9971     9982     9936     9830 
    9730     9675     9599     9559     9600     9624     9609     9550 
    9479     9498     9555     9559     9615     9810     9978     9935 
    9758     9621     9569     9550     9508     9514     9645     9766 
    9722     9620     9588     9540     9473     9498     9596     9688 
    9724     9722     9782     9869     9845     9763     9727     9739 
    9787     9834     9844     9839     9858     9896     9924     9928 
    9914     9928     9916     9840     9828     9920    10042    10121 
   10090     9996     9881     9716     9619     9689     9759     9734 
    9756     9816     9789     9740     9705     9654     9674     9743 
    9746     9782     9878     9862     9811     9867     9938     9977 
    9962     9859     9806     9808     9711     9626     9682     9788 
    9876     9934     9991    10033    10036    10026    10028    10076 
   10109    10039     9845     9633     9562     9549     9548     9641 
    9731     9780     9790     9729     9710     9693     9604     9565 
    9600     9713     9932    10155    10253    10201    10059     9934 
    9835     9726     9651     9539     9350     9273     9352     9471 
    9605     9692     9677     9634     9623     9680     9849    10094 
   10262    10237    10141    10078     9973     9855     9847     9911 
    9943     9993    10051    10021    10040    10139    10057     9828 
    9740     9783     9774     9702     9670     9695     9741     9840 
    9926     9891     9832     9806     9789     9870    10056    10280 
   10441    10437    10361    10346    10324    10239    10207    10230 
   10210    10191    10170    10119    10078    10038     9964     9943 
    9982     9980     9998    10076    10121    10086     9967     9854 
    9805     9756     9728     9760     9790     9855     9949     9979 
   10040    10108    10017     9894     9901     9901     9831     9784 
    9762     9770     9778     9724     9690     9666     9567     9491 
    9470     9492     9599     9646     9602     9698     9851     9860 
    9822     9769     9631     9423     9199     9074     9092     9170 
    9268     9370     9484     9625     9746     9833     9849     9740 
    9606     9539     9488     9459     9519     9615     9669     9739 
    9860     9899     9811     9723     9611     9452     9406     9437 
    9448     9530     9609     9575     9585     9694     9799     9941 
   10160    10277    10182    10056    10059    10134    10150    10096 
   10092    10153    10208    10246    10216    10157    10144    10099 
    9981     9870     9855     9897     9864     9818     9880     9927 
    9886     9872     9842     9750     9671     9607     9596     9666 
    9702     9690     9779     9939    10026    10057    10024     9916 
    9833     9829     9870     9919     9993    10037    10011    10021 
   10050     9974     9827     9696     9625     9605     9593     9604 
    9627     9613     9594     9645     9765     9805     9714     9627 
    9588     9558     9534     9538     9572     9628     9680     9703 
    9757     9852     9920     9938     9836     9690     9658     9593 
    9455     9433     9491     9552     9603     9641     9723     9808 
    9800     9705     9590     9515     9476     9477     9488     9481 
    9510     9570     9597     9601     9696     9871     9980    10022 
   10039    10040    10051    10019     9974    10054    10210    10287 
   10350    10407    10360    10268    10116     9932     9900    10017 
   10075    10022    10007     9990     9883     9804     9818     9799 
    9678     9598     9639     9736     9844    10001    10211    10372 
   10429    10403    10393    10473    10564    10542    10414    10315 
   10250    10173    10141    10130    10082     9996     9868     9773 
    9790     9820     9773     9750     9787     9770     9709     9709 
    9701     9605     9577     9688     9778     9792     9787     9771 
    9713     9654     9662     9644     9598     9672     9796     9849 
    9835     9753     9655     9618     9653     9744     9824     9843 
    9818     9790     9791     9782     9783     9825     9837     9796 
    9723     9613     9491     9392     9303     9246     9292     9338 
    9242     9153     9208     9290     9394     9506     9535     9568 
    9639     9681     9711     9792     9878     9820     9684     9622 
    9609     9602     9586     9556     9503     9398     9355     9433 
    9529     9624     9710     9757     9816     9885     9964    10063 
   10069     9995    10011    10105    10156    10136    10092    10095 
   10132    10125    10070     9989     9896     9832     9829     9857 
    9775     9626     9617     9644     9626     9711     9846     9965 
   10137    10271    10324    10371    10347    10270    10277    10321 
   10274    10172    10096    10061    10129    10219    10175    10048 
    9988    10045    10113    10072     9923     9783     9718     9657 
    9623     9693     9826     9966    10038    10030    10052    10026 
    9882     9751     9683     9679     9732     9793     9812     9832 
    9938     9985     9864     9793     9887     9966     9920     9803 
    9704     9677     9722     9759     9719     9737     9835     9844 
    9808     9810     9814     9809     9793     9796     9800     9775 
    9746     9734     9754     9767     9761     9749     9724     9712 
    9760     9842     9862     9854     9812     9675     9618     9712 
    9817     9875     9843     9756     9701     9653     9650     9710 
    9705     9683     9665     9565     9570     9647     9572     9527 
    9579     9559     9500     9484     9543     9670     9708     9558 
    9366     9272     9284     9373     9455     9472     9454     9456 
    9534     9723     9933    10058    10132    10122     9963     9818 
    9810     9866     9952    10049    10078    10033    10017    10046 
   10043    10032    10068    10140    10212    10289    10340    10341 
   10297    10146     9999     9965     9927     9967    10120    10205 
   10189    10086     9967     9912     9883     9945    10112    10213 
   10250    10303    10320    10251    10088     9928     9871     9801 
    9631     9489     9454     9448     9448     9482     9466     9355 
    9277     9313     9362     9374     9419     9399     9246     9151 
    9154     9146     9099     9042     9034     9010     8937     8896 
    8830     8728     8696     8713     8705     8649     8614     8679 
    8753     8775     8845     8946     8965     8953     9042     9167 
    9169     9097     9100     9165     9227     9288     9352     9422 
    9497     9585     9677     9800    10027    10226    10260    10309 
   10375    10313    10342    10496    10615    10817    11080    11281 
   11461    11569    11531    11413    11294    11220    11200    11167 
   11116    11119    11106    11073    11166    11343    11518    11630 
   11635    11702    11774    11618    11447    11438    11392    11300 
   11300    11363    11461    11578    11637    11687    11789    11746 
   11494    11325    11265    11055    10829    10747    10618    10519 
   10548    10463    10317    10267    10200    10090    10000     9937 
    9861     9702     9466     9252     9156     9164     9143     9050 
    8997     8989     8936     8857     8748     8612     8524     8453 
    8385     8411     8562     8729     8769     8680     8564     8451 
    8310     8223     8230     8239     8232     8192     8058     7869 
    7702     7630     7647     7645     7663     7732     7819     8035 
    8357     8597     8720     8806     8879     8863     8785     8734 
    8685     8660     8698     8797     8959     9091     9147     9116 
    9015     8981     8989     8943     8951     9111     9344     9550 
    9809    10115    10275    10304    10371    10513    10615    10606 
   10563    10543    10543    10556    10548    10508    10452    10422 
   10491    10662    10886    11090    11218    11304    11405    11475 
   11435    11403    11492    11624    11759    11859    11941    12052 
   12056    11947    11916    11960    11938    11742    11410    11133 
   10943    10766    10642    10622    10593    10547    10651    10823 
   10969    11086    11101    11046    11050    11155    11182    11091 
   11015    10880    10702    10609    10529    10322    10010     9837 
    9837     9760     9594     9344     9001     8832     8840     8775 
    8684     8731     8847     8855     8788     8816     8937     8949 
    8828     8771     8857     9001     9003     8848     8714     8546 
    8327     8222     8168     8024     7846     7693     7570     7547 
    7682     7866     8019     8228     8448     8618     8831     9008 
    9015     8966     9041     9157     9166     9105     8971     8807 
    8733     8703     8681     8732     8852     8963     9047     9141 
    9172     9146     9186     9330     9581     9839     9990    10074 
   10096    10123    10219    10314    10421    10509    10517    10528 
   10645    10832    10918    10940    11046    11102    11122    11243 
   11273    11149    11085    11044    10854    10640    10524    10448 
   10467    10617    10803    10905    10888    10868    10865    10773 
   10604    10473    10501    10667    10727    10588    10507    10600 
   10727    10918    11208    11370    11337    11231    11101    11014 
   10929    10718    10485    10273    10021     9889     9899     9908 
    9922     9809     9478     9202     9154     9148     9053     8935 
    8874     8882     8895     8887     8913     8966     8949     8938 
    9022     9042     9047     9153     9148     8972     8797     8714 
    8737     8836     8906     8853     8779     8801     8786     8730 
    8812     8864     8723     8634     8660     8700     8812     8909 
    8876     8798     8763     8765     8717     8607     8485     8392 
    8344     8265     8191     8257     8476     8692     8762     8846 
    9039     9265     9544     9739     9794     9879     9940     9912 
    9884     9918     9996     9995     9901     9883     9941     9927 
    9858     9855     9987    10189    10352    10397    10289    10198 
   10227    10244    10205    10215    10335    10489    10673    10952 
   11110    10948    10691    10568    10605    10742    10839    10937 
   11074    11096    10985    10945    11118    11297    11251    11273 
   11534    11636    11524    11496    11570    11665    11699    11637 
   11626    11765    11876    11818    11650    11430    11254    11045 
   10770    10627    10623    10690    10736    10647    10531    10511 
   10534    10544    10543    10499    10476    10544    10613    10612 
   10502    10294    10123    10026     9911     9773     9645     9505 
    9370     9257     9139     9070     8980     8832     8889     9076 
    9094     9079     9194     9293     9269     9264     9337     9293 
    9092     8922     8873     8842     8729     8599     8584     8639 
    8676     8642     8514     8383     8242     8118     8095     8074 
    8076     8239     8464     8615     8762     8971     9188     9333 
    9267     8975     8802     8882     8857     8664     8505     8368 
    8304     8406     8633     8910     9042     8880     8683     8712 
    8831     8877     8913     9029     9208     9336     9315     9285 
    9358     9355     9194     9073     9148     9315     9527     9850 
   10133    10175    10009     9826     9742     9676     9569     9570 
    9681     9736     9853    10100    10311    10561    10870    11027 
   11037    10984    10895    10849    10925    11083    11178    11207 
   11216    11215    11189    11021    10853    10907    11088    11221 
   11238    11251    11357    11466    11503    11467    11432    11484 
   11540    11486    11439    11471    11408    11161    10855    10599 
   10303     9988     9882     9895     9903    10017    10086    10041 
   10085    10103     9902     9553     9222     9038     9028     9188 
    9411     9604     9774     9831     9773     9608     9303     9067 
    8955     8861     8899     8982     8957     8982     8996     8917 
    8900     8841     8741     8763     8810     8956     9239     9411 
    9412     9266     9073     9000     8985     8997     9078     9080 
    8921     8763     8779     8907     9004     9065     9171     9367 
    9553     9609     9629     9703     9733     9692     9732     9863 
    9850     9668     9541     9616     9815     9895     9812     9772 
    9817     9846     9874     9929    10015    10098    10137    10213 
   10362    10513    10550    10418    10260    10156    10060     9984 
    9958     9938     9904     9912     9952    10027    10129    10184 
   10232    10323    10424    10528    10570    10492    10413    10401 
   10422    10510    10609    10618    10620    10606    10520    10441 
   10298    10222    10424    10590    10612    10660    10641    10540 
   10442    10307    10135    10113    10290    10438    10496    10555 
   10565    10508    10477    10465    10359    10102     9734     9438 
    9420     9576     9757     9934     9973     9896     9802     9675 
    9586     9568     9625     9743     9805     9785     9759     9710 
    9623     9589     9556     9373     9184     9209     9316     9335 
    9329     9329     9295     9233     9160     9159     9286     9430 
    9502     9508     9523     9651     9789     9790     9711     9638 
    9625     9636     9539     9384     9284     9247     9337     9521 
    9651     9675     9625     9600     9590     9501     9451     9557 
    9707     9813     9958    10140    10180    10078     9906     9647 
    9500     9514     9508     9571     9770     9918     9897     9798 
    9717     9556     9325     9263     9428     9700     9928     9993 
    9964     9898     9755     9550     9355     9250     9226     9335 
    9702    10138    10308    10185     9992     9881     9810     9783 
    9770     9617     9362     9200     9171     9210     9342     9563 
    9747     9786     9680     9529     9449     9520     9681     9826 
   10014    10288    10484    10504    10428    10228    10018     9911 
    9777     9783    10002    10209    10440    10685    10808    10853 
   10828    10672    10490    10411    10376    10316    10291    10370 
   10472    10545    10611    10564    10443    10362    10267    10195 
   10197    10214    10214    10185    10176    10222    10245    10252 
