Origin Time       2024/04/02 04:24:00
Lat.              40.133
Long.             141.712
Depth. (km)       71
Mag.              6.0
Station Code      YMTH05
Station Lat.      37.9883
Station Long.     139.8017
Station Height(m) 280
Record Time       2024/04/02 04:25:19
Sampling Freq(Hz) 100Hz
Duration Time(s)  120
Dir.              6
Scale Factor      3920(gal)/6170801
Max. Acc. (gal)   0.313
Last Correction   2024/04/02 04:25:04
Memo.             
[...]
  -27266   -27284   -27295   -27285   -27273   -27295   -27322   -27314 
  -27321   -27370   -27379   -27345   -27341   -27338   -27293   -27253 
  -27236   -27220   -27230   -27257   -27249   -27204   -27160   -27128 
  -27096   -27066   -27072   -27120   -27172   -27214   -27237   -27245 
  -27259   -27271   -27281   -27304   -27309   -27271   -27215   -27142 
  -27062   -27023   -27021   -27011   -27003   -27031   -27081   -27134 
  -27178   -27196   -27205   -27207   -27173   -27133   -27128   -27120 
  -27104   -27090   -27040   -26994   -27016   -27050   -27068   -27145 
  -27262   -27320   -27322   -27340   -27382   -27419   -27458   -27499 
  -27516   -27516   -27513   -27478   -27422   -27399   -27367   -27276 
  -27195   -27169   -27147   -27118   -27087   -27042   -27011   -27036 
  -27090   -27123   -27147   -27187   -27205   -27205   -27244   -27286 
  -27294   -27330   -27374   -27333   -27282   -27295   -27277   -27215 
  -27206   -27220   -27193   -27187   -27224   -27220   -27148   -27083 
  -27066   -27078   -27100   -27135   -27160   -27157   -27173   -27216 
  -27240   -27259   -27276   -27242   -27175   -27123   -27077   -27043 
  -27047   -27045   -27018   -27043   -27131   -27207   -27235   -27211 
  -27152   -27105   -27095   -27080   -27051   -27063   -27119   -27139 
  -27127   -27139   -27140   -27109   -27128   -27197   -27236   -27280 
  -27369   -27417   -27394   -27393   -27431   -27438   -27433   -27459 
  -27468   -27437   -27422   -27438   -27446   -27438   -27422   -27403 
  -27391   -27380   -27353   -27306   -27256   -27222   -27194   -27155 
  -27124   -27114   -27094   -27061   -27050   -27054   -27060   -27090 
  -27122   -27127   -27141   -27177   -27180   -27142   -27117   -27134 
  -27179   -27230   -27260   -27268   -27268   -27257   -27242   -27249 
  -27265   -27261   -27268   -27297   -27312   -27307   -27309   -27301 
  -27265   -27242   -27252   -27238   -27186   -27143   -27113   -27099 
  -27127   -27149   -27120   -27101   -27130   -27145   -27128   -27114 
  -27103   -27088   -27088   -27112   -27148   -27189   -27240   -27287 
  -27308   -27315   -27312   -27293   -27275   -27271   -27265   -27241 
  -27218   -27240   -27300   -27312   -27248   -27161   -27076   -27003 
  -26966   -26955   -26946   -26948   -26968   -26996   -27025   -27063 
  -27112   -27148   -27176   -27222   -27248   -27245   -27282   -27349 
  -27375   -27369   -27368   -27366   -27353   -27335   -27316   -27297 
  -27278   -27263   -27250   -27227   -27192   -27167   -27168   -27182 
  -27190   -27201   -27227   -27269   -27300   -27311   -27321   -27325 
  -27304   -27278   -27251   -27219   -27208   -27223   -27218   -27192 
  -27191   -27205   -27197   -27173   -27153   -27147   -27169   -27219 
  -27270   -27289   -27283   -27279   -27268   -27231   -27173   -27109 
  -27083   -27102   -27116   -27124   -27159   -27192   -27196   -27181 
  -27171   -27198   -27239   -27257   -27288   -27337   -27352   -27346 
  -27334   -27285   -27228   -27201   -27183   -27182   -27206   -27198 
  -27154   -27133   -27134   -27124   -27108   -27096   -27111   -27153 
  -27165   -27139   -27154   -27227   -27278   -27274   -27270   -27291 
  -27286   -27248   -27227   -27220   -27204   -27193   -27173   -27131 
  -27122   -27154   -27173   -27175   -27179   -27174   -27177   -27213 
  -27249   -27269   -27287   -27283   -27262   -27262   -27262   -27228 
  -27195   -27192   -27214   -27242   -27238   -27201   -27170   -27168 
  -27180   -27163   -27122   -27125   -27171   -27193   -27198   -27229 
  -27269   -27295   -27304   -27287   -27253   -27229   -27213   -27207 
  -27225   -27262   -27299   -27305   -27276   -27267   -27270   -27225 
  -27185   -27212   -27249   -27262   -27280   -27288   -27292   -27301 
  -27270   -27215   -27209   -27224   -27205   -27196   -27220   -27223 
  -27220   -27255   -27271   -27243   -27234   -27222   -27152   -27086 
  -27082   -27082   -27054   -27042   -27050   -27054   -27067   -27081 
  -27065   -27042   -27053   -27102   -27159   -27197   -27220   -27235 
  -27246   -27267   -27287   -27281   -27269   -27259   -27227   -27202 
  -27232   -27281   -27313   -27336   -27351   -27351   -27326   -27281 
  -27257   -27247   -27206   -27158   -27139   -27116   -27087   -27083 
  -27084   -27068   -27057   -27059   -27071   -27099   -27139   -27194 
  -27266   -27320   -27344   -27371   -27392   -27377   -27337   -27293 
  -27261   -27257   -27273   -27292   -27309   -27321   -27330   -27317 
  -27252   -27177   -27158   -27174   -27180   -27179   -27180   -27185 
  -27198   -27209   -27215   -27219   -27200   -27174   -27179   -27179 
  -27159   -27178   -27220   -27223   -27214   -27224   -27221   -27205 
  -27202   -27174   -27107   -27082   -27122   -27139   -27122   -27122 
  -27130   -27138   -27155   -27162   -27157   -27149   -27138   -27145 
  -27184   -27216   -27210   -27191   -27178   -27175   -27199   -27238 
  -27236   -27193   -27173   -27179   -27166   -27154   -27192   -27237 
  -27237   -27238   -27259   -27247   -27231   -27260   -27289   -27313 
  -27349   -27356   -27340   -27334   -27316   -27302   -27324   -27330 
  -27293   -27279   -27305   -27311   -27286   -27250   -27208   -27185 
  -27216   -27258   -27255   -27255   -27284   -27261   -27199   -27190 
  -27193   -27160   -27178   -27231   -27219   -27196   -27208   -27169 
  -27094   -27074   -27081   -27067   -27077   -27133   -27178   -27179 
  -27191   -27230   -27219   -27185   -27218   -27257   -27229   -27210 
  -27235   -27231   -27204   -27215   -27233   -27213   -27208   -27251 
  -27288   -27306   -27324   -27323   -27304   -27305   -27322   -27333 
  -27327   -27309   -27303   -27303   -27290   -27295   -27332   -27363 
  -27376   -27376   -27332   -27265   -27241   -27219   -27157   -27140 
  -27195   -27237   -27246   -27244   -27217   -27180   -27158   -27156 
  -27187   -27231   -27251   -27252   -27251   -27230   -27161   -27073 
  -27038   -27049   -27049   -27039   -27040   -27050   -27056   -27052 
  -27056   -27084   -27117   -27152   -27186   -27201   -27216   -27256 
  -27296   -27313   -27312   -27292   -27244   -27179   -27117   -27070 
  -27041   -27028   -27023   -27026   -27039   -27050   -27060   -27079 
  -27098   -27114   -27145   -27162   -27137   -27125   -27139   -27133 
  -27120   -27121   -27117   -27110   -27112   -27124   -27152   -27200 
  -27244   -27260   -27252   -27245   -27257   -27271   -27266   -27244 
  -27214   -27193   -27196   -27197   -27163   -27112   -27067   -27022 
  -26982   -26964   -26949   -26927   -26929   -26945   -26938   -26949 
  -27019   -27081   -27086   -27102   -27144   -27155   -27160   -27206 
  -27243   -27246   -27272   -27308   -27298   -27272   -27252   -27209 
  -27170   -27167   -27173   -27191   -27239   -27259   -27228   -27220 
  -27245   -27250   -27256   -27305   -27358   -27379   -27389   -27406 
  -27405   -27377   -27369   -27385   -27369   -27353   -27386   -27410 
  -27394   -27366   -27345   -27352   -27388   -27412   -27398   -27391 
  -27420   -27430   -27402   -27391   -27406   -27417   -27420   -27401 
  -27350   -27298   -27259   -27212   -27201   -27264   -27354   -27430 
  -27493   -27534   -27553   -27549   -27522   -27492   -27441   -27329 
  -27211   -27155   -27119   -27062   -27024   -27031   -27074   -27129 
  -27168   -27197   -27216   -27178   -27093   -27042   -27020   -27001 
  -27013   -27039   -27049   -27060   -27080   -27117   -27179   -27224 
  -27232   -27263   -27351   -27431   -27476   -27531   -27571   -27546 
  -27491   -27438   -27377   -27321   -27259   -27160   -27066   -27023 
  -26979   -26930   -26928   -26927   -26894   -26911   -26979   -27000 
  -26998   -27029   -27051   -27047   -27045   -27044   -27042   -27042 
  -27041   -27048   -27056   -27056   -27063   -27086   -27144   -27239 
  -27317   -27362   -27404   -27426   -27411   -27390   -27382   -27373 
  -27340   -27291   -27273   -27267   -27204   -27114   -27055   -26997 
  -26954   -26975   -26987   -26944   -26944   -26989   -27000   -27011 
  -27055   -27092   -27136   -27208   -27263   -27270   -27275   -27295 
  -27291   -27267   -27269   -27269   -27230   -27200   -27207   -27209 
  -27226   -27289   -27333   -27330   -27317   -27287   -27250   -27236 
  -27226   -27220   -27230   -27221   -27202   -27206   -27210   -27197 
  -27191   -27199   -27218   -27242   -27264   -27291   -27297   -27269 
  -27259   -27285   -27311   -27331   -27340   -27322   -27293   -27281 
  -27269   -27228   -27192   -27208   -27224   -27199   -27167   -27147 
  -27158   -27211   -27262   -27290   -27332   -27368   -27352   -27331 
  -27360   -27382   -27365   -27360   -27358   -27326   -27312   -27330 
  -27322   -27275   -27207   -27117   -27033   -26991   -26972   -26959 
  -26961   -26965   -26977   -27016   -27062   -27104   -27177   -27257 
  -27305   -27372   -27466   -27512   -27516   -27532   -27536   -27502 
  -27443   -27369   -27298   -27259   -27239   -27210   -27190   -27168 
  -27101   -27015   -26963   -26933   -26903   -26897   -26897   -26872 
  -26850   -26840   -26831   -26857   -26922   -26971   -26988   -26988 
  -26989   -27021   -27076   -27118   -27165   -27236   -27308   -27378 
  -27456   -27525   -27556   -27547   -27530   -27508   -27470   -27455 
  -27463   -27428   -27365   -27340   -27309   -27226   -27149   -27108 
  -27084   -27091   -27095   -27040   -26964   -26907   -26856   -26846 
  -26904   -26965   -26988   -27030   -27114   -27187   -27236   -27293 
  -27358   -27402   -27419   -27438   -27465   -27464   -27438   -27418 
  -27386   -27333   -27303   -27284   -27243   -27217   -27219   -27205 
  -27153   -27093   -27079   -27128   -27184   -27196   -27205   -27253 
  -27284   -27256   -27216   -27192   -27161   -27137   -27150   -27172 
  -27173   -27164   -27142   -27110   -27115   -27150   -27155   -27144 
  -27158   -27176   -27185   -27207   -27224   -27221   -27216   -27201 
  -27180   -27180   -27187   -27188   -27188   -27164   -27138   -27143 
  -27144   -27131   -27138   -27144   -27149   -27182   -27201   -27191 
  -27209   -27238   -27244   -27256   -27265   -27246   -27244   -27271 
  -27295   -27310   -27325   -27336   -27344   -27354   -27348   -27298 
  -27222   -27167   -27126   -27093   -27098   -27139   -27187   -27224 
  -27228   -27210   -27228   -27257   -27237   -27213   -27217   -27175 
  -27091   -27055   -27050   -27010   -26965   -26957   -26957   -26955 
  -26985   -27043   -27085   -27116   -27154   -27163   -27134   -27106 
  -27100   -27110   -27127   -27157   -27180   -27173   -27164   -27169 
  -27159   -27142   -27158   -27190   -27208   -27220   -27226   -27216 
  -27205   -27213   -27228   -27221   -27206   -27241   -27308   -27347 
  -27385   -27437   -27439   -27413   -27414   -27386   -27326   -27317 
  -27322   -27292   -27283   -27293   -27270   -27238   -27198   -27130 
  -27094   -27099   -27081   -27081   -27159   -27224   -27233   -27279 
  -27351   -27359   -27357   -27402   -27432   -27443   -27468   -27450 
  -27388   -27369   -27367   -27309   -27249   -27229   -27200   -27169 
  -27171   -27166   -27162   -27193   -27219   -27222   -27243   -27278 
  -27310   -27353   -27383   -27386   -27376   -27311   -27190   -27121 
  -27111   -27056   -26962   -26904   -26880   -26869   -26891   -26931 
  -26984   -27074   -27149   -27164   -27181   -27214   -27216   -27225 
  -27266   -27276   -27252   -27245   -27247   -27241   -27231   -27209 
  -27192   -27211   -27259   -27299   -27312   -27309   -27312   -27319 
  -27321   -27354   -27419   -27454   -27464   -27493   -27489   -27419 
  -27352   -27307   -27254   -27215   -27187   -27147   -27129   -27138 
  -27145   -27167   -27193   -27176   -27156   -27171   -27170   -27143 
  -27145   -27176   -27198   -27219   -27223   -27175   -27112   -27065 
  -26997   -26918   -26870   -26827   -26790   -26806   -26859   -26919 
  -27008   -27102   -27156   -27191   -27233   -27275   -27293   -27279 
  -27259   -27251   -27237   -27203   -27167   -27156   -27169   -27170 
  -27158   -27164   -27200   -27251   -27312   -27379   -27417   -27432 
  -27479   -27549   -27591   -27608   -27619   -27618   -27585   -27509 
  -27418   -27329   -27220   -27100   -27003   -26944   -26932   -26946 
  -26957   -26988   -27042   -27074   -27101   -27151   -27182   -27201 
  -27239   -27254   -27236   -27235   -27246   -27217   -27157   -27114 
  -27089   -27048   -26997   -26951   -26903   -26864   -26845   -26834 
  -26819   -26819   -26867   -26944   -27012   -27085   -27177   -27261 
  -27316   -27338   -27339   -27340   -27329   -27277   -27213   -27181 
  -27167   -27130   -27082   -27064   -27073   -27086   -27131   -27227 
  -27323   -27380   -27438   -27512   -27562   -27586   -27610   -27604 
  -27568   -27554   -27528   -27453   -27393   -27364   -27316   -27278 
  -27266   -27229   -27174   -27158   -27163   -27150   -27149   -27201 
  -27252   -27245   -27243   -27280   -27274   -27207   -27152   -27107 
  -27013   -26898   -26832   -26823   -26841   -26887   -26966   -27054 
  -27133   -27197   -27249   -27294   -27314   -27327   -27378   -27428 
  -27419   -27395   -27384   -27348   -27298   -27257   -27205   -27141 
  -27088   -27047   -27018   -27005   -26995   -26975   -26976   -27026 
  -27082   -27106   -27153   -27249   -27309   -27304   -27311   -27326 
  -27296   -27254   -27220   -27168   -27131   -27112   -27059   -27014 
  -27030   -27059   -27088   -27154   -27235   -27312   -27385   -27441 
  -27485   -27534   -27599   -27672   -27701   -27681   -27665   -27629 
  -27575   -27578   -27604   -27581   -27558   -27549   -27518   -27506 
  -27504   -27423   -27315   -27260   -27196   -27096   -27045   -27032 
  -26990   -26951   -26953   -26948   -26902   -26855   -26844   -26847 
  -26847   -26871   -26909   -26920   -26933   -26976   -27007   -27017 
  -27041   -27068   -27097   -27132   -27145   -27156   -27200   -27208 
  -27170   -27180   -27216   -27207   -27192   -27191   -27170   -27161 
  -27183   -27186   -27174   -27199   -27234   -27231   -27231   -27266 
  -27298   -27311   -27323   -27338   -27361   -27412   -27487   -27535 
  -27527   -27488   -27433   -27358   -27292   -27266   -27271   -27271 
  -27241   -27199   -27184   -27185   -27178   -27163   -27140   -27131 
  -27159   -27196   -27234   -27270   -27281   -27285   -27310   -27329 
  -27334   -27352   -27351   -27302   -27254   -27231   -27212   -27206 
  -27213   -27201   -27196   -27205   -27172   -27094   -27034   -27017 
  -27005   -26973   -26931   -26898   -26891   -26910   -26915   -26892 
  -26874   -26883   -26914   -26940   -26970   -27042   -27135   -27213 
  -27289   -27343   -27337   -27324   -27356   -27376   -27356   -27342 
  -27338   -27341   -27381   -27414   -27402   -27387   -27386   -27377 
  -27344   -27285   -27240   -27232   -27211   -27183   -27217   -27278 
  -27320   -27358   -27362   -27321   -27280   -27242   -27200   -27154 
  -27083   -27038   -27063   -27083   -27078   -27093   -27098   -27069 
  -27042   -27023   -26998   -26983   -26994   -27007   -27013   -27037 
  -27082   -27122   -27140   -27147   -27153   -27153   -27133   -27105 
  -27095   -27104   -27132   -27192   -27276   -27348   -27406   -27474 
  -27521   -27522   -27521   -27519   -27471   -27423   -27428   -27417 
  -27364   -27346   -27361   -27336   -27292   -27286   -27284   -27248 
  -27210   -27186   -27161   -27151   -27170   -27198   -27222   -27246 
  -27254   -27229   -27194   -27182   -27186   -27178   -27151   -27107 
  -27058   -27034   -27049   -27078   -27112   -27158   -27178   -27145 
  -27110   -27101   -27099   -27106   -27124   -27143   -27169   -27195 
  -27193   -27165   -27140   -27125   -27109   -27097   -27118   -27153 
  -27155   -27145   -27167   -27183   -27158   -27137   -27152   -27165 
  -27166   -27183   -27209   -27226   -27245   -27268   -27293   -27314 
  -27306   -27262   -27224   -27227   -27244   -27236   -27218   -27220 
  -27219   -27193   -27166   -27146   -27109   -27082   -27097   -27111 
  -27110   -27132   -27172   -27198   -27229   -27277   -27304   -27298 
  -27303   -27333   -27368   -27384   -27376   -27372   -27372   -27358 
  -27367   -27402   -27388   -27322   -27287   -27268   -27195   -27099 
  -27049   -27035   -27016   -26996   -27000   -27014   -27029   -27072 
  -27139   -27180   -27186   -27193   -27202   -27204   -27219   -27249 
  -27281   -27287   -27275   -27297   -27327   -27298   -27258   -27255 
  -27261   -27268   -27273   -27250   -27209   -27202   -27234   -27257 
  -27259   -27266   -27252   -27204   -27158   -27120   -27085   -27078 
  -27103   -27142   -27188   -27240   -27308   -27383   -27407   -27364 
  -27331   -27340   -27337   -27316   -27323   -27351   -27355   -27340 
  -27358   -27393   -27380   -27344   -27345   -27335   -27270   -27199 
  -27152   -27122   -27129   -27161   -27179   -27190   -27199   -27180 
  -27170   -27209   -27265   -27297   -27309   -27315   -27307   -27275 
  -27238   -27200   -27164   -27178   -27222   -27228   -27231   -27259 
  -27259   -27242   -27254   -27270   -27280   -27303   -27310   -27302 
  -27327   -27382   -27421   -27437   -27469   -27522   -27536   -27488 
  -27438   -27412   -27380   -27343   -27322   -27312   -27304   -27302 
  -27313   -27308   -27269   -27226   -27196   -27147   -27076   -27037 
  -27050   -27057   -27018   -26991   -27021   -27067   -27088   -27095 
  -27109   -27132   -27137   -27113   -27104   -27137   -27169   -27171 
  -27169   -27166   -27159   -27163   -27175   -27182   -27194   -27209 
  -27201   -27174   -27164   -27181   -27203   -27204   -27176   -27147 
  -27145   -27153   -27134   -27116   -27137   -27127   -27043   -26967 
  -26948   -26945   -26948   -26983   -27035   -27066   -27089   -27135 
  -27176   -27202   -27227   -27224   -27201   -27201   -27187   -27157 
  -27183   -27240   -27262   -27283   -27327   -27356   -27373   -27392 
  -27398   -27388   -27366   -27317   -27255   -27221   -27201   -27163 
  -27125   -27122   -27129   -27095   -27032   -26985   -26956   -26919 
  -26883   -26851   -26817   -26804   -26815   -26812   -26803   -26843 
  -26912   -26956   -26996   -27056   -27105   -27125   -27107   -27061 
  -27046   -27062   -27041   -27022   -27071   -27118   -27127   -27144 
  -27147   -27117   -27104   -27107   -27130   -27213   -27299   -27329 
  -27358   -27392   -27377   -27345   -27329   -27314   -27296   -27284 
  -27281   -27289   -27299   -27308   -27318   -27334   -27347   -27332 
  -27285   -27260   -27290   -27304   -27276   -27288   -27343   -27379 
  -27426   -27475   -27454   -27406   -27413   -27419   -27349   -27241 
  -27172   -27144   -27118   -27087   -27069   -27073   -27093   -27123 
  -27142   -27147   -27196   -27285   -27327   -27341   -27394   -27434 
  -27438   -27449   -27455   -27442   -27442   -27457   -27444   -27374 
  -27308   -27296   -27258   -27172   -27135   -27141   -27135   -27145 
  -27208   -27299   -27376   -27416   -27433   -27433   -27401   -27348 
  -27315   -27311   -27301   -27259   -27209   -27178   -27161   -27165 
  -27186   -27192   -27197   -27235   -27266   -27275   -27312   -27354 
  -27361   -27379   -27434   -27460   -27430   -27395   -27357   -27290 
  -27223   -27188   -27176   -27155   -27115   -27069   -27024   -26984 
  -26980   -27016   -27063   -27120   -27190   -27240   -27251   -27248 
