Origin Time       2024/04/02 04:24:00
Lat.              40.133
Long.             141.712
Depth. (km)       71
Mag.              6.0
Station Code      YMTH12
Station Lat.      38.6357
Station Long.     140.0055
Station Height(m) 117
Record Time       2024/04/02 04:25:10
Sampling Freq(Hz) 100Hz
Duration Time(s)  152
Dir.              1
Scale Factor      3920(gal)/6170801
Max. Acc. (gal)   0.809
Last Correction   2024/04/02 04:24:55
Memo.             
[...]
   12186    12191    12199    12208    12210    12191    12157    12111 
   12051    11997    11972    11976    11994    11999    11977    11947 
   11936    11951    11984    12015    12033    12050    12074    12097 
   12120    12146    12171    12191    12198    12197    12189    12169 
   12138    12109    12110    12148    12199    12225    12204    12140 
   12057    11977    11915    11879    11868    11879    11900    11913 
   11906    11880    11857    11854    11875    11910    11948    11986 
   12015    12023    12004    11974    11946    11937    11959    12004 
   12059    12110    12145    12158    12162    12170    12179    12175 
   12152    12110    12062    12025    11989    11945    11914    11911 
   11944    12010    12074    12100    12079    12032    11986    11962 
   11970    12009    12045    12045    12018    12000    12000    12005 
   12023    12081    12188    12317    12428    12497    12516    12499 
   12466    12423    12357    12260    12140    12014    11897    11802 
   11739    11698    11673    11681    11731    11790    11822    11828 
   11823    11814    11802    11792    11796    11825    11875    11930 
   11978    12019    12064    12096    12085    12030    11978    11969 
   12007    12065    12109    12120    12116    12128    12176    12248 
   12305    12322    12313    12294    12263    12214    12152    12095 
   12066    12061    12065    12052    12020    11992    11985    11997 
   12011    12003    11987    12001    12061    12147    12217    12228 
   12172    12083    12005    11967    11979    12031    12091    12128 
   12122    12076    12011    11959    11935    11930    11923    11897 
   11872    11881    11926    11992    12066    12142    12203    12223 
   12207    12183    12156    12123    12103    12096    12088    12065 
   12030    11999    11987    12003    12043    12087    12118    12128 
   12118    12093    12041    11955    11863    11800    11784    11805 
   11830    11852    11893    11959    12017    12033    12024    12043 
   12092    12130    12134    12117    12090    12047    11987    11923 
   11874    11861    11879    11906    11919    11924    11943    11982 
   12023    12057    12098    12146    12174    12165    12127    12088 
   12071    12082    12102    12115    12132    12164    12182    12174 
   12159    12159    12187    12230    12261    12270    12279    12290 
   12289    12258    12189    12095    11996    11905    11827    11762 
   11709    11688    11705    11744    11786    11826    11865    11892 
   11888    11855    11828    11843    11896    11960    12011    12042 
   12062    12088    12126    12161    12187    12212    12232    12237 
   12230    12203    12147    12080    12041    12058    12130    12222 
   12272    12248    12180    12132    12127    12143    12171    12210 
   12250    12277    12278    12245    12189    12139    12112    12092 
   12045    11964    11880    11816    11769    11729    11690    11649 
   11610    11601    11642    11727    11825    11902    11947    11964 
   11963    11954    11940    11924    11933    11983    12050    12102 
   12137    12164    12190    12221    12255    12277    12278    12256 
   12217    12150    12063    11985    11935    11902    11880    11864 
   11838    11803    11773    11740    11706    11695    11729    11805 
   11896    11972    12020    12037    12044    12072    12128    12182 
   12202    12189    12170    12166    12185    12221    12252    12257 
   12237    12200    12144    12079    12036    12042    12093    12157 
   12215    12237    12203    12135    12066    12006    11947    11889 
   11844    11817    11810    11831    11884    11968    12087    12214 
   12305    12347    12356    12334    12287    12248    12235    12249 
   12277    12281    12227    12133    12033    11955    11915    11914 
   11936    11951    11945    11924    11910    11925    11965    11992 
   11984    11977    11997    12020    12039    12081    12158    12246 
   12327    12381    12391    12366    12325    12279    12244    12236 
   12245    12248    12241    12234    12222    12192    12139    12069 
   11999    11940    11893    11856    11821    11782    11747    11731 
   11738    11767    11826    11906    11971    11995    11983    11960 
   11953    11978    12042    12134    12228    12286    12280    12215 
   12132    12065    12012    11958    11909    11882    11865    11845 
   11829    11824    11829    11833    11838    11850    11863    11852 
   11819    11801    11821    11870    11920    11948    11951    11937 
   11912    11898    11913    11939    11952    11960    11979    12006 
   12024    12032    12049    12078    12088    12048    11979    11923 
   11891    11886    11910    11959    12004    12021    12014    12007 
   12007    12010    12017    12030    12046    12057    12072    12103 
   12142    12153    12114    12055    12021    12021    12034    12049 
   12073    12105    12125    12113    12077    12045    12041    12075 
   12150    12260    12382    12471    12488    12444    12376    12311 
   12263    12230    12203    12190    12196    12211    12218    12205 
   12179    12163    12166    12181    12181    12131    12028    11917 
   11845    11816    11811    11819    11840    11866    11890    11911 
   11933    11955    11977    12013    12074    12137    12175    12188 
   12181    12149    12088    12013    11967    11987    12052    12123 
   12188    12236    12246    12213    12148    12076    12020    11993 
   12001    12025    12033    12013    11975    11943    11934    11952 
   11992    12041    12094    12137    12144    12120    12092    12072 
   12058    12054    12068    12106    12155    12193    12195    12152 
   12097    12076    12090    12094    12076    12054    12038    12034 
   12042    12052    12063    12073    12068    12043    12012    11990 
   11974    11951    11923    11903    11901    11925    11973    12025 
   12067    12100    12120    12130    12136    12128    12099    12078 
   12089    12121    12138    12118    12070    12025    11998    12003 
   12060    12149    12210    12203    12143    12079    12050    12047 
   12043    12031    12024    12026    12029    12026    12037    12082 
   12136    12142    12081    11991    11926    11890    11848    11776 
   11688    11613    11573    11577    11610    11652    11694    11748 
   11824    11909    11986    12041    12071    12088    12102    12113 
   12122    12128    12127    12135    12160    12199    12225    12214 
   12179    12137    12094    12065    12054    12047    12028    12004 
   11985    11956    11906    11851    11789    11706    11624    11566 
   11530    11512    11523    11567    11639    11726    11819    11913 
   11999    12063    12097    12107    12103    12098    12105    12125 
   12135    12129    12112    12077    12027    11981    11954    11933 
   11891    11823    11752    11709    11717    11773    11842    11889 
   11905    11895    11883    11893    11928    11969    11995    12000 
   12006    12037    12098    12180    12272    12354    12404    12417 
   12410    12391    12346    12265    12170    12100    12060    12029 
   12003    11997    12012    12026    12025    12008    11994    12008 
   12058    12117    12158    12187    12233    12294    12352    12397 
   12423    12434    12435    12423    12400    12370    12331    12288 
   12254    12237    12226    12222    12221    12193    12122    12034 
   11941    11844    11751    11669    11610    11575    11557    11568 
   11617    11699    11809    11943    12088    12218    12310    12346 
   12329    12284    12258    12278    12324    12372    12423    12468 
   12479    12459    12434    12413    12383    12336    12267    12169 
   12061    11973    11911    11855    11792    11727    11680    11667 
   11679    11693    11714    11755    11801    11833    11865    11912 
   11983    12089    12206    12290    12327    12338    12346    12364 
   12400    12451    12501    12538    12555    12553    12544    12538 
   12536    12522    12469    12369    12236    12108    12017    11968 
   11943    11926    11917    11913    11906    11893    11880    11872 
   11863    11843    11803    11751    11698    11647    11598    11562 
   11563    11607    11666    11708    11723    11734    11766    11817 
   11867    11893    11896    11899    11915    11948    12001    12063 
   12111    12129    12119    12097    12071    12049    12037    12019 
   11990    11966    11956    11955    11967    11977    11963    11918 
   11857    11798    11741    11676    11603    11531    11479    11464 
   11491    11556    11644    11736    11838    11955    12058    12124 
   12168    12217    12287    12377    12471    12572    12679    12776 
   12868    12956    13033    13103    13169    13231    13279    13298 
   13282    13226    13122    12971    12799    12635    12480    12306 
   12104    11895    11684    11472    11271    11112    11026    11009 
   11036    11080    11115    11131    11140    11160    11190    11223 
   11268    11345    11459    11606    11770    11930    12072    12196 
   12306    12385    12412    12398    12380    12369    12355    12336 
   12312    12273    12211    12126    12023    11917    11839    11812 
   11826    11851    11867    11871    11851    11809    11767    11755 
   11799    11886    11985    12078    12163    12222    12234    12203 
   12150    12095    12042    11990    11950    11940    11957    11986 
   12013    12016    11990    11945    11883    11814    11753    11704 
   11678    11681    11723    11799    11899    12011    12114    12179 
   12205    12213    12217    12204    12167    12128    12110    12112 
   12121    12128    12131    12128    12122    12119    12127    12158 
   12208    12259    12297    12321    12337    12346    12340    12318 
   12294    12277    12259    12229    12181    12104    12001    11891 
   11785    11698    11642    11613    11595    11575    11547    11505 
   11449    11396    11384    11429    11501    11573    11635    11684 
   11732    11806    11910    12024    12138    12258    12384    12500 
   12581    12628    12647    12643    12631    12627    12641    12674 
   12700    12689    12631    12541    12437    12331    12244    12192 
   12164    12145    12140    12142    12141    12129    12097    12048 
   11992    11930    11871    11835    11829    11850    11883    11915 
   11937    11941    11938    11951    11978    11996    11988    11958 
   11920    11879    11828    11778    11755    11784    11867    11974 
   12070    12144    12206    12269    12334    12369    12340    12256 
   12155    12069    12012    11973    11935    11896    11862    11833 
   11801    11775    11766    11781    11811    11841    11864    11892 
   11923    11945    11962    11979    11987    11980    11967    11966 
   11977    11991    12006    12011    11998    11970    11945    11934 
   11935    11942    11958    11983    12009    12026    12044    12081 
   12137    12201    12257    12293    12309    12322    12344    12378 
   12405    12398    12355    12307    12278    12250    12188    12092 
   12011    11989    12024    12085    12147    12200    12245    12295 
   12343    12368    12364    12332    12279    12212    12131    12043 
   11965    11910    11886    11889    11890    11883    11882    11888 
   11892    11894    11887    11868    11851    11845    11846    11854 
   11867    11863    11835    11794    11749    11706    11682    11711 
   11801    11924    12046    12136    12200    12272    12356    12434 
   12507    12573    12629    12684    12725    12731    12718    12713 
   12718    12722    12699    12625    12503    12361    12244    12178 
   12152    12150    12174    12215    12243    12231    12173    12088 
   12008    11951    11916    11907    11922    11955    12002    12042 
   12062    12067    12066    12052    12015    11966    11923    11896 
   11884    11878    11873    11864    11836    11780    11702    11613 
   11524    11445    11380    11323    11266    11213    11178    11159 
   11155    11170    11195    11227    11269    11311    11346    11397 
   11475    11563    11647    11737    11839    11951    12061    12162 
   12259    12362    12456    12522    12558    12571    12577    12588 
   12595    12586    12559    12514    12450    12385    12342    12310 
   12267    12214    12167    12139    12138    12153    12167    12176 
   12168    12141    12112    12094    12081    12038    11953    11860 
   11797    11773    11781    11789    11776    11749    11721    11710 
   11728    11766    11801    11815    11818    11818    11810    11805 
   11834    11908    12008    12111    12207    12283    12319    12306 
   12254    12174    12062    11921    11772    11638    11537    11480 
   11461    11470    11504    11562    11627    11681    11721    11743 
   11733    11696    11655    11637    11639    11628    11588    11548 
   11540    11566    11615    11681    11759    11835    11907    11975 
   12044    12123    12206    12277    12341    12404    12459    12492 
   12492    12476    12474    12492    12512    12520    12523    12532 
   12551    12570    12562    12514    12451    12406    12385    12375 
   12365    12360    12364    12361    12341    12302    12265    12254 
   12275    12312    12354    12407    12476    12551    12625    12696 
   12756    12808    12867    12936    13015    13104    13197    13271 
   13314    13314    13262    13162    13034    12895    12752    12612 
   12468    12312    12152    12011    11886    11766    11670    11613 
   11579    11552    11524    11498    11488    11500    11524    11563 
   11623    11690    11752    11805    11844    11870    11891    11912 
   11927    11932    11931    11937    11952    11960    11959    11949 
   11922    11869    11792    11708    11644    11599    11556    11518 
   11493    11491    11509    11535    11567    11618    11704    11829 
   11991    12170    12328    12447    12514    12526    12493    12419 
   12321    12228    12153    12097    12062    12065    12103    12146 
   12172    12182    12179    12167    12151    12119    12053    11954 
   11830    11697    11565    11432    11304    11201    11138    11120 
   11147    11207    11282    11351    11399    11429    11451    11474 
   11501    11521    11523    11514    11506    11493    11477    11472 
   11482    11503    11532    11562    11602    11677    11788    11911 
   12032    12141    12238    12336    12429    12505    12559    12584 
   12576    12540    12495    12452    12417    12406    12412    12409 
   12394    12383    12372    12351    12321    12299    12305    12330 
   12347    12342    12322    12299    12279    12266    12258    12258 
   12283    12342    12411    12456    12471    12470    12465    12456 
   12431    12376    12295    12209    12133    12066    11999    11921 
   11812    11673    11534    11418    11338    11304    11303    11321 
   11369    11456    11552    11620    11655    11676    11685    11684 
   11691    11715    11749    11787    11829    11881    11934    11976 
   11999    11991    11940    11860    11783    11735    11721    11737 
   11758    11762    11747    11726    11703    11676    11648    11635 
   11655    11714    11785    11832    11846    11857    11894    11946 
   12000    12063    12132    12195    12250    12307    12362    12398 
   12417    12444    12489    12547    12599    12645    12701    12769 
   12829    12861    12866    12856    12832    12791    12745    12710 
   12696    12696    12673    12613    12540    12481    12428    12365 
   12281    12178    12087    12018    11957    11910    11887    11890 
   11920    11969    12034    12116    12204    12276    12313    12321 
   12321    12329    12347    12367    12368    12345    12312    12281 
   12252    12222    12192    12148    12069    11951    11831    11750 
   11707    11664    11596    11509    11420    11346    11294    11265 
   11266    11301    11355    11408    11455    11501    11563    11662 
   11795    11936    12065    12173    12261    12344    12430    12515 
   12599    12679    12751    12813    12851    12841    12782    12704 
   12624    12535    12433    12330    12242    12170    12115    12079 
   12063    12058    12042    12001    11942    11878    11814    11750 
   11697    11657    11614    11569    11530    11514    11544    11613 
   11701    11781    11832    11840    11816    11788    11773    11752 
   11700    11609    11488    11355    11241    11168    11144    11172 
   11254    11375    11497    11589    11655    11728    11838    11987 
   12154    12310    12443    12555    12636    12689    12740    12806 
   12889    12980    13052    13093    13109    13107    13096    13090 
   13086    13061    13007    12926    12830    12745    12688    12665 
   12667    12665    12649    12604    12516    12396    12261    12124 
   11996    11874    11766    11683    11616    11553    11485    11415 
   11358    11315    11281    11249    11225    11230    11261    11313 
   11392    11493    11600    11706    11810    11913    12006    12077 
   12117    12133    12130    12106    12062    12002    11921    11825 
   11739    11680    11662    11690    11750    11818    11893    11973 
   12048    12114    12173    12217    12238    12238    12219    12187 
   12152    12124    12096    12056    11987    11887    11786    11716 
   11676    11645    11611    11582    11570    11575    11588    11601 
   11602    11587    11565    11549    11538    11532    11537    11553 
   11581    11615    11643    11663    11685    11710    11755    11831 
   11919    11993    12047    12098    12165    12245    12340    12448 
   12550    12622    12643    12612    12557    12512    12491    12491 
   12514    12557    12608    12664    12719    12757    12775    12765 
   12722    12669    12620    12572    12512    12430    12342    12269 
   12213    12164    12107    12036    11970    11924    11893    11875 
   11875    11894    11924    11958    11986    11999    12003    12013 
   12039    12072    12095    12100    12114    12157    12210    12245 
   12252    12236    12209    12169    12126    12097    12068    12029 
   11995    11974    11962    11949    11924    11893    11870    11850 
   11834    11829    11833    11837    11835    11828    11825    11820 
   11795    11748    11684    11602    11510    11421    11344    11287 
   11250    11231    11227    11237    11266    11312    11377    11466 
   11567    11675    11788    11882    11940    11968    11981    12003 
   12040    12073    12091    12090    12062    12012    11957    11923 
   11935    11993    12076    12153    12223    12297    12376    12455 
   12531    12603    12670    12738    12809    12873    12912    12914 
   12886    12844    12780    12676    12538    12403    12289    12194 
   12114    12045    11987    11931    11857    11767    11688    11626 
   11587    11579    11591    11600    11599    11596    11599    11620 
   11660    11708    11763    11828    11895    11960    12018    12053 
   12061    12069    12104    12167    12251    12340    12418    12472 
   12503    12516    12523    12525    12516    12488    12441    12388 
   12350    12332    12324    12316    12311    12323    12362    12420 
