Origin Time       2024/04/02 04:24:00
Lat.              40.133
Long.             141.712
Depth. (km)       71
Mag.              6.0
Station Code      YMTH02
Station Lat.      38.2693
Station Long.     140.2583
Station Height(m) -20
Record Time       2024/04/02 04:25:20
Sampling Freq(Hz) 100Hz
Duration Time(s)  120
Dir.              3
Scale Factor      2942(gal)/8224139
Max. Acc. (gal)   0.963
Last Correction   2024/04/02 04:25:21
Memo.             
[...]
  -63289   -63358   -63346   -63231   -63039   -62873   -62796   -62764 
  -62785   -62878   -62941   -62904   -62789   -62646   -62568   -62571 
  -62640   -62803   -63032   -63235   -63315   -63250   -63139   -63107 
  -63126   -63115   -63090   -63112   -63171   -63211   -63229   -63231 
  -63194   -63177   -63105   -62868   -62610   -62469   -62434   -62445 
  -62409   -62337   -62286   -62214   -62154   -62159   -62168   -62132 
  -62078   -62006   -61906   -61816   -61763   -61744   -61750   -61747 
  -61701   -61609   -61545   -61555   -61595   -61655   -61750   -61866 
  -62019   -62155   -62205   -62205   -62251   -62368   -62480   -62580 
  -62708   -62837   -62961   -63078   -63153   -63198   -63216   -63185 
  -63121   -63058   -63034   -63005   -62931   -62927   -63023   -63086 
  -63088   -63081   -63105   -63175   -63285   -63416   -63518   -63582 
  -63580   -63464   -63321   -63212   -63089   -62972   -62892   -62829 
  -62722   -62500   -62213   -61979   -61823   -61707   -61659   -61705 
  -61790   -61835   -61804   -61755   -61796   -61906   -62000   -62093 
  -62185   -62174   -61998   -61743   -61593   -61604   -61639   -61609 
  -61526   -61473   -61500   -61493   -61468   -61545   -61638   -61705 
  -61828   -61970   -62058   -62093   -62125   -62152   -62141   -62145 
  -62143   -62058   -61987   -62020   -62120   -62210   -62229   -62216 
  -62221   -62210   -62185   -62166   -62132   -62129   -62212   -62349 
  -62530   -62729   -62849   -62873   -62823   -62702   -62590   -62548 
  -62546   -62567   -62621   -62712   -62773   -62741   -62696   -62722 
  -62781   -62812   -62827   -62901   -62988   -62974   -62928   -62907 
  -62862   -62862   -62920   -62953   -63007   -63113   -63198   -63252 
  -63273   -63216   -63104   -63028   -63030   -63080   -63136   -63132 
  -63050   -62954   -62884   -62853   -62841   -62764   -62629   -62494 
  -62371   -62279   -62212   -62190   -62217   -62212   -62178   -62156 
  -62140   -62187   -62318   -62428   -62417   -62291   -62104   -61904 
  -61790   -61785   -61776   -61703   -61599   -61480   -61360   -61271 
  -61257   -61348   -61538   -61794   -62036   -62179   -62209   -62185 
  -62191   -62259   -62345   -62401   -62384   -62329   -62294   -62290 
  -62347   -62459   -62521   -62490   -62444   -62442   -62492   -62595 
  -62749   -62947   -63111   -63140   -63089   -63046   -63016   -63034 
  -63097   -63170   -63231   -63220   -63154   -63066   -62927   -62823 
  -62814   -62843   -62907   -62957   -62931   -62870   -62781   -62634 
  -62468   -62306   -62132   -61927   -61739   -61643   -61624   -61627 
  -61599   -61520   -61479   -61516   -61596   -61695   -61789   -61888 
  -61966   -61939   -61848   -61751   -61628   -61555   -61591   -61684 
  -61803   -61890   -61836   -61616   -61373   -61241   -61190   -61171 
  -61215   -61348   -61533   -61680   -61738   -61749   -61771   -61823 
  -61875   -61902   -61892   -61828   -61723   -61628   -61572   -61547 
  -61538   -61499   -61466   -61489   -61557   -61678   -61839   -62010 
  -62149   -62195   -62178   -62168   -62164   -62155   -62197   -62286 
  -62332   -62337   -62337   -62302   -62272   -62298   -62363   -62494 
  -62730   -62988   -63150   -63219   -63244   -63169   -63004   -62851 
  -62726   -62652   -62644   -62691   -62806   -62893   -62953   -63111 
  -63302   -63447   -63563   -63609   -63556   -63468   -63396   -63290 
  -63148   -63045   -62989   -62966   -63003   -63076   -63103   -63094 
  -63117   -63165   -63212   -63235   -63208   -63096   -62870   -62610 
  -62415   -62286   -62256   -62380   -62564   -62718   -62808   -62789 
  -62741   -62742   -62716   -62642   -62627   -62706   -62770   -62735 
  -62654   -62600   -62602   -62677   -62820   -62942   -62988   -63035 
  -63113   -63181   -63265   -63366   -63400   -63350   -63293   -63273 
  -63248   -63200   -63174   -63219   -63297   -63308   -63201   -63004 
  -62806   -62680   -62592   -62510   -62471   -62468   -62417   -62316 
  -62229   -62162   -62104   -62075   -62063   -62008   -61893   -61758 
  -61568   -61273   -61006   -60922   -60960   -61007   -61059   -61137 
  -61242   -61373   -61503   -61576   -61589   -61558   -61473   -61379 
  -61338   -61334   -61315   -61288   -61304   -61346   -61327   -61254 
  -61249   -61365   -61547   -61743   -61915   -62058   -62198   -62338 
  -62500   -62688   -62839   -62928   -62976   -62926   -62750   -62525 
  -62322   -62212   -62279   -62521   -62787   -62965   -63076   -63135 
  -63151   -63163   -63217   -63332   -63431   -63406   -63277   -63078 
  -62765   -62392   -62094   -61898   -61767   -61696   -61655   -61581 
  -61542   -61647   -61838   -62081   -62376   -62665   -62907   -63020 
  -62999   -62965   -62970   -62981   -62943   -62838   -62700   -62537 
  -62333   -62129   -62010   -62010   -62105   -62233   -62299   -62301 
  -62294   -62295   -62333   -62421   -62496   -62527   -62553   -62561 
  -62502   -62395   -62264   -62159   -62129   -62070   -61990   -62004 
  -62025   -62013   -62023   -62073   -62217   -62417   -62577   -62727 
  -62856   -62872   -62764   -62611   -62488   -62453   -62549   -62718 
  -62826   -62796   -62673   -62565   -62530   -62536   -62534   -62534 
  -62560   -62587   -62567   -62529   -62548   -62626   -62702   -62746 
  -62758   -62710   -62598   -62448   -62314   -62218   -62094   -61916 
  -61704   -61489   -61334   -61253   -61234   -61257   -61283   -61357 
  -61469   -61514   -61474   -61411   -61375   -61402   -61466   -61527 
  -61565   -61581   -61603   -61635   -61743   -61965   -62166   -62237 
  -62221   -62163   -62074   -62012   -62032   -62095   -62154   -62212 
  -62276   -62357   -62442   -62526   -62630   -62743   -62803   -62816 
  -62856   -62930   -62986   -62955   -62841   -62699   -62572   -62510 
  -62556   -62699   -62895   -63055   -63108   -63088   -63050   -63007 
  -62973   -62939   -62896   -62849   -62766   -62665   -62644   -62715 
  -62820   -62922   -62989   -63011   -63026   -63070   -63147   -63251 
  -63406   -63589   -63695   -63679   -63614   -63555   -63462   -63304 
  -63146   -63027   -62927   -62837   -62754   -62687   -62660   -62658 
  -62626   -62572   -62567   -62625   -62679   -62703   -62750   -62837 
  -62897   -62876   -62802   -62735   -62691   -62656   -62613   -62544 
  -62478   -62422   -62336   -62216   -62102   -61997   -61885   -61771 
  -61673   -61593   -61528   -61466   -61387   -61261   -61129   -61082 
  -61123   -61206   -61308   -61408   -61489   -61562   -61608   -61582 
  -61476   -61322   -61169   -61098   -61119   -61153   -61153   -61156 
  -61179   -61202   -61222   -61276   -61356   -61410   -61431   -61452 
  -61480   -61520   -61564   -61609   -61689   -61825   -61981   -62105 
  -62221   -62361   -62518   -62676   -62804   -62870   -62881   -62835 
  -62750   -62681   -62662   -62668   -62613   -62461   -62317   -62260 
  -62256   -62314   -62440   -62563   -62683   -62802   -62858   -62874 
  -62907   -62947   -62984   -63034   -63104   -63166   -63213   -63261 
  -63300   -63293   -63244   -63204   -63188   -63167   -63143   -63117 
  -63067   -62996   -62961   -62991   -63059   -63150   -63270   -63433 
  -63618   -63783   -63895   -63941   -63956   -63988   -64006   -63942 
  -63811   -63676   -63529   -63342   -63167   -63036   -62941   -62905 
  -62926   -62976   -63086   -63248   -63382   -63491   -63599   -63622 
  -63505   -63329   -63174   -63007   -62797   -62614   -62548   -62584 
  -62638   -62683   -62735   -62793   -62827   -62807   -62737   -62629 
  -62482   -62283   -62055   -61838   -61614   -61384   -61237   -61161 
  -61076   -61005   -60941   -60853   -60808   -60809   -60777   -60737 
  -60747   -60794   -60879   -61002   -61179   -61385   -61507   -61512 
  -61481   -61452   -61439   -61449   -61464   -61501   -61595   -61646 
  -61568   -61442   -61330   -61218   -61160   -61236   -61376   -61429 
  -61375   -61298   -61236   -61164   -61068   -60970   -60863   -60793 
  -60812   -60883   -61017   -61218   -61408   -61564   -61704   -61821 
  -61894   -61923   -61936   -61965   -62006   -62056   -62122   -62236 
  -62421   -62680   -62981   -63229   -63371   -63433   -63428   -63363 
  -63294   -63263   -63267   -63323   -63423   -63491   -63462   -63369 
  -63275   -63201   -63163   -63169   -63169   -63103   -62980   -62856 
  -62777   -62765   -62799   -62837   -62876   -62954   -63053   -63105 
  -63084   -63049   -63051   -63015   -62903   -62791   -62660   -62491 
  -62413   -62496   -62652   -62768   -62822   -62884   -62976   -63013 
  -62955   -62831   -62673   -62490   -62287   -62121   -62066   -62127 
  -62280   -62515   -62741   -62845   -62846   -62838   -62846   -62831 
  -62779   -62716   -62662   -62629   -62640   -62696   -62739   -62733 
  -62738   -62785   -62796   -62748   -62691   -62622   -62579   -62662 
  -62808   -62896   -62950   -62969   -62899   -62785   -62700   -62660 
  -62688   -62787   -62861   -62831   -62707   -62554   -62434   -62340 
  -62252   -62201   -62174   -62131   -62118   -62159   -62185   -62143 
  -62023   -61894   -61858   -61848   -61807   -61781   -61740   -61650 
  -61574   -61564   -61645   -61820   -62066   -62318   -62480   -62515 
  -62455   -62337   -62187   -62067   -62033   -62043   -62059   -62133 
  -62279   -62419   -62500   -62529   -62550   -62557   -62500   -62449 
  -62475   -62554   -62671   -62770   -62842   -62974   -63188   -63402 
  -63574   -63664   -63598   -63305   -62826   -62302   -61863   -61543 
  -61335   -61222   -61160   -61105   -61074   -61137   -61294   -61477 
  -61672   -61869   -62005   -62086   -62189   -62325   -62484   -62675 
  -62842   -62922   -62916   -62819   -62646   -62463   -62263   -62041 
  -61859   -61696   -61511   -61335   -61221   -61222   -61338   -61520 
  -61734   -61933   -62102   -62243   -62336   -62424   -62486   -62429 
  -62301   -62220   -62176   -62162   -62216   -62302   -62336   -62309 
  -62278   -62241   -62194   -62214   -62314   -62425   -62505   -62548 
  -62567   -62571   -62613   -62714   -62812   -62885   -62945   -62977 
  -62984   -62984   -63008   -63073   -63224   -63470   -63683   -63794 
  -63840   -63856   -63836   -63726   -63514   -63274   -63070   -62910 
  -62742   -62588   -62529   -62521   -62488   -62464   -62486   -62513 
  -62540   -62633   -62775   -62900   -62958   -62858   -62617   -62336 
  -62025   -61692   -61377   -61079   -60840   -60710   -60659   -60690 
  -60798   -60925   -61047   -61130   -61142   -61106   -61071   -61094 
  -61187   -61299   -61399   -61484   -61547   -61626   -61749   -61847 
  -61885   -61933   -62056   -62233   -62418   -62559   -62604   -62564 
  -62452   -62233   -61920   -61591   -61330   -61229   -61335   -61600 
  -61911   -62199   -62465   -62696   -62857   -62978   -63131   -63331 
  -63551   -63768   -63954   -64053   -64096   -64165   -64189   -64103 
  -63922   -63618   -63204   -62765   -62363   -62000   -61641   -61311 
  -61094   -61024   -61105   -61311   -61551   -61778   -61994   -62175 
  -62263   -62248   -62193   -62127   -62027   -61919   -61823   -61722 
  -61639   -61622   -61672   -61762   -61915   -62104   -62210   -62225 
  -62247   -62324   -62421   -62510   -62621   -62757   -62887   -62985 
  -63043   -63065   -63081   -63128   -63175   -63192   -63182   -63162 
  -63163   -63198   -63228   -63228   -63180   -63119   -63123   -63208 
  -63262   -63120   -62899   -62839   -62803   -62718   -62820   -63032 
  -63216   -63418   -63533   -63491   -63363   -63247   -63224   -63259 
  -63310   -63323   -63243   -63143   -62992   -62746   -62491   -62225 
  -62105   -62239   -62347   -62438   -62646   -62772   -62820   -62854 
  -62757   -62622   -62568   -62569   -62567   -62448   -62256   -62149 
  -62033   -61850   -61827   -61915   -61919   -61951   -62063   -62201 
  -62375   -62579   -62845   -63101   -63178   -63132   -63032   -62811 
  -62584   -62438   -62279   -62095   -61939   -61821   -61696   -61626 
  -61770   -62021   -62271   -62580   -62862   -63012   -63045   -62968 
  -62851   -62742   -62610   -62456   -62272   -62089   -61959   -61859 
  -61769   -61742   -61808   -61975   -62222   -62445   -62583   -62648 
  -62626   -62514   -62388   -62314   -62233   -62109   -62013   -61993 
  -62063   -62216   -62380   -62514   -62617   -62707   -62806   -62892 
  -62947   -63035   -63174   -63282   -63329   -63351   -63336   -63266 
  -63147   -63032   -63018   -63097   -63142   -63159   -63296   -63494 
  -63576   -63560   -63545   -63516   -63418   -63289   -63165   -63008 
  -62816   -62596   -62348   -62152   -62047   -61933   -61789   -61678 
  -61619   -61585   -61566   -61597   -61726   -61884   -61963   -61975 
  -61977   -61917   -61765   -61589   -61438   -61298   -61173   -61074 
  -61003   -60990   -61025   -61048   -61032   -60974   -60914   -60912 
  -60917   -60853   -60771   -60754   -60789   -60852   -61003   -61229 
  -61400   -61503   -61588   -61616   -61570   -61477   -61318   -61092 
  -60871   -60713   -60606   -60497   -60338   -60157   -60049   -60064 
  -60177   -60350   -60558   -60802   -61080   -61319   -61481   -61642 
  -61782   -61771   -61686   -61657   -61650   -61638   -61645   -61682 
  -61751   -61804   -61785   -61749   -61776   -61838   -61915   -62016 
  -62071   -62073   -62118   -62193   -62243   -62330   -62449   -62529 
  -62607   -62703   -62739   -62716   -62722   -62791   -62887   -62992 
  -63108   -63238   -63427   -63688   -63967   -64241   -64512   -64758 
  -64945   -65051   -65080   -65024   -64875   -64708   -64633   -64670 
  -64720   -64710   -64654   -64625   -64705   -64886   -65051   -65082 
  -64971   -64791   -64558   -64226   -63841   -63489   -63207   -63023 
  -62958   -62986   -63077   -63154   -63148   -63132   -63188   -63263 
  -63313   -63387   -63467   -63448   -63340   -63273   -63283   -63321 
  -63367   -63393   -63370   -63321   -63265   -63243   -63320   -63439 
  -63512   -63598   -63679   -63636   -63481   -63285   -63112   -63034 
  -62991   -62930   -62866   -62722   -62506   -62267   -61990   -61770 
  -61662   -61599   -61566   -61549   -61514   -61464   -61419   -61429 
  -61484   -61516   -61542   -61614   -61653   -61603   -61520   -61434 
  -61314   -61096   -60771   -60467   -60253   -60102   -60045   -60064 
  -60107   -60183   -60268   -60339   -60463   -60637   -60793   -60929 
  -61102   -61275   -61389   -61483   -61553   -61554   -61535   -61554 
  -61607   -61699   -61838   -62016   -62217   -62402   -62584   -62822 
  -63061   -63223   -63321   -63352   -63271   -63080   -62843   -62606 
  -62384   -62236   -62160   -62121   -62128   -62197   -62298   -62392 
  -62452   -62459   -62444   -62455   -62490   -62525   -62560   -62565 
  -62518   -62480   -62499   -62536   -62554   -62572   -62603   -62646 
  -62687   -62699   -62721   -62757   -62745   -62688   -62629   -62550 
  -62486   -62487   -62536   -62613   -62733   -62897   -63077   -63235 
  -63348   -63452   -63555   -63599   -63533   -63363   -63119   -62860 
  -62657   -62518   -62419   -62386   -62429   -62544   -62741   -62972 
  -63143   -63248   -63331   -63383   -63373   -63270   -63067   -62789 
  -62483   -62224   -62051   -61948   -61927   -61959   -61927   -61769 
  -61568   -61403   -61273   -61175   -61160   -61252   -61393   -61539 
  -61704   -61906   -62098   -62220   -62294   -62364   -62464   -62608 
  -62750   -62810   -62756   -62634   -62507   -62399   -62321   -62268 
  -62241   -62274   -62372   -62499   -62618   -62703   -62808   -62970 
  -63144   -63294   -63406   -63439   -63405   -63371   -63331   -63225 
  -63046   -62829   -62635   -62536   -62521   -62459   -62271   -62044 
  -61900   -61839   -61835   -61921   -62075   -62201   -62305   -62446 
  -62594   -62662   -62623   -62486   -62279   -62070   -61902   -61755 
  -61628   -61580   -61584   -61566   -61546   -61527   -61481   -61450 
  -61445   -61410   -61349   -61311   -61275   -61215   -61182   -61204 
  -61250   -61310   -61399   -61528   -61680   -61816   -61908   -61889 
  -61715   -61485   -61333   -61218   -61074   -60967   -60906   -60790 
  -60662   -60644   -60700   -60758   -60859   -61053   -61360   -61722 
  -62023   -62268   -62495   -62625   -62633   -62618   -62613   -62559 
  -62453   -62343   -62266   -62229   -62201   -62197   -62260   -62347 
  -62374   -62382   -62452   -62614   -62861   -63135   -63360   -63525 
  -63647   -63761   -63910   -64091   -64247   -64318   -64288   -64165 
  -63956   -63718   -63537   -63420   -63300   -63153   -62991   -62826 
  -62745   -62802   -62904   -63003   -63150   -63319   -63428   -63464 
  -63445   -63400   -63413   -63518   -63652   -63752   -63799   -63799 
  -63779   -63753   -63703   -63629   -63524   -63375   -63231   -63128 
  -63031   -62943   -62892   -62829   -62710   -62602   -62583   -62623 
  -62634   -62571   -62471   -62417   -62425   -62442   -62476   -62527 
  -62536   -62490   -62441   -62424   -62449   -62536   -62687   -62864 
  -63024   -63174   -63315   -63398   -63393   -63313   -63192   -63051 
  -62922   -62823   -62754   -62731   -62746   -62760   -62783   -62834 
  -62883   -62883   -62846   -62850   -62912   -62938   -62853   -62708 
  -62591   -62503   -62405   -62321   -62311   -62351   -62367   -62344 
  -62297   -62237   -62205   -62166   -62086   -62041   -62093   -62195 
  -62301   -62368   -62365   -62299   -62206   -62124   -62075   -62064 
  -62102   -62201   -62307   -62376   -62421   -62463   -62473   -62434 
  -62394   -62370   -62289   -62133   -61954   -61786   -61662   -61572 
  -61474   -61357   -61241   -61150   -61090   -61034   -60956   -60876 
  -60845   -60826   -60745   -60631   -60567   -60546   -60459   -60307 
  -60173   -60062   -59981   -59992   -60120   -60359   -60644   -60874 
  -61020   -61118   -61150   -61115   -61109   -61133   -61134   -61126 
  -61055   -60914   -60835   -60797   -60748   -60794   -60947   -61109 
  -61280   -61507   -61784   -62071   -62341   -62565   -62752   -62954 
  -63150   -63293   -63389   -63417   -63371   -63300   -63213   -63153 
  -63177   -63247   -63292   -63263   -63180   -63115   -63018   -62823 
  -62696   -62772   -62920   -63042   -63182   -63300   -63351   -63413 
  -63474   -63525   -63659   -63803   -63802   -63706   -63599   -63452 
  -63251   -63053   -62954   -62951   -62915   -62787   -62619   -62463 
  -62325   -62237   -62239   -62338   -62536   -62741   -62861   -62927 
  -62947   -62868   -62739   -62662   -62661   -62733   -62864   -62984 
  -63050   -63074   -63096   -63159   -63204   -63169   -63089   -63028 
  -63046   -63111   -63182   -63278   -63379   -63468   -63531   -63563 
  -63617   -63630   -63543   -63413   -63250   -63074   -62928   -62764 
  -62590   -62484   -62428   -62391   -62356   -62259   -62152   -62095 
  -62006   -61913   -61925   -61982   -62004   -62036   -62113   -62209 
  -62343   -62498   -62580   -62579   -62568   -62591   -62614   -62573 
  -62483   -62368   -62210   -62037   -61869   -61700   -61596   -61620 
  -61647   -61520   -61415   -61443   -61439   -61466   -61584   -61636 
  -61672   -61786   -61916   -62020   -62074   -62097   -62145   -62172 
  -62149   -62104   -62004   -61840   -61692   -61624   -61612   -61641 
  -61785   -62041   -62313   -62567   -62775   -62884   -62919   -62958 
  -63046   -63107   -63103   -63070   -62935   -62730   -62586   -62487 
