Origin Time       2024/04/02 04:24:00
Lat.              40.133
Long.             141.712
Depth. (km)       71
Mag.              6.0
Station Code      YMTH15
Station Lat.      38.4257
Station Long.     140.1249
Station Height(m) 305
Record Time       2024/04/02 04:25:12
Sampling Freq(Hz) 100Hz
Duration Time(s)  144
Dir.              4
Scale Factor      7845(gal)/8223790
Max. Acc. (gal)   1.933
Last Correction   2024/04/02 04:25:12
Memo.             
[...]
  -14327   -14318   -14343   -14432   -14574   -14724   -14855   -14936 
  -14947   -14928   -14904   -14870   -14835   -14809   -14790   -14762 
  -14720   -14651   -14570   -14528   -14544   -14604   -14697   -14779 
  -14785   -14689   -14550   -14465   -14465   -14538   -14666   -14808 
  -14901   -14916   -14864   -14786   -14702   -14640   -14634   -14673 
  -14716   -14725   -14677   -14575   -14447   -14318   -14224   -14187 
  -14187   -14169   -14087   -13950   -13801   -13690   -13671   -13744 
  -13872   -14013   -14103   -14107   -14037   -13938   -13860   -13848 
  -13919   -14050   -14188   -14278   -14288   -14231   -14153   -14095 
  -14065   -14048   -14008   -13934   -13846   -13765   -13706   -13668 
  -13645   -13635   -13629   -13622   -13618   -13635   -13678   -13729 
  -13768   -13779   -13760   -13726   -13698   -13680   -13671   -13676 
  -13695   -13714   -13726   -13722   -13707   -13690   -13672   -13668 
  -13687   -13717   -13745   -13763   -13782   -13811   -13853   -13891 
  -13909   -13896   -13857   -13807   -13774   -13782   -13830   -13898 
  -13946   -13971   -14003   -14068   -14164   -14269   -14359   -14428 
  -14461   -14442   -14407   -14408   -14446   -14486   -14504   -14503 
  -14504   -14524   -14581   -14677   -14789   -14905   -15017   -15090 
  -15120   -15138   -15169   -15196   -15205   -15196   -15167   -15126 
  -15082   -15041   -15028   -15045   -15064   -15040   -14953   -14829 
  -14705   -14608   -14531   -14463   -14405   -14354   -14293   -14216 
  -14142   -14096   -14084   -14085   -14083   -14073   -14058   -14057 
  -14087   -14141   -14203   -14239   -14231   -14200   -14160   -14114 
  -14062   -13991   -13913   -13859   -13833   -13832   -13829   -13803 
  -13744   -13652   -13548   -13478   -13486   -13572   -13683   -13775 
  -13837   -13869   -13864   -13821   -13759   -13711   -13699   -13726 
  -13792   -13873   -13940   -13976   -13973   -13926   -13852   -13776 
  -13728   -13711   -13716   -13730   -13752   -13775   -13786   -13778 
  -13753   -13716   -13672   -13640   -13625   -13636   -13684   -13771 
  -13879   -13996   -14112   -14230   -14347   -14447   -14527   -14593 
  -14655   -14725   -14800   -14877   -14962   -15047   -15120   -15160 
  -15153   -15120   -15071   -15029   -15021   -15036   -15040   -15020 
  -14966   -14883   -14809   -14769   -14775   -14817   -14837   -14783 
  -14671   -14530   -14389   -14285   -14237   -14237   -14257   -14251 
  -14202   -14112   -14000   -13905   -13853   -13844   -13861   -13868 
  -13841   -13799   -13756   -13721   -13703   -13686   -13656   -13622 
  -13594   -13566   -13545   -13533   -13520   -13501   -13493   -13510 
  -13555   -13621   -13697   -13771   -13837   -13898   -13968   -14058 
  -14164   -14273   -14376   -14445   -14461   -14431   -14381   -14342 
  -14320   -14322   -14357   -14411   -14455   -14485   -14516   -14557 
  -14615   -14689   -14756   -14814   -14883   -14970   -15053   -15115 
  -15149   -15145   -15098   -15013   -14889   -14717   -14520   -14350 
  -14235   -14168   -14152   -14170   -14170   -14129   -14052   -13946 
  -13844   -13761   -13717   -13713   -13730   -13738   -13709   -13632 
  -13525   -13412   -13321   -13285   -13304   -13356   -13402   -13409 
  -13360   -13273   -13173   -13088   -13038   -13043   -13127   -13261 
  -13389   -13473   -13510   -13517   -13520   -13552   -13622   -13716 
  -13821   -13922   -14017   -14121   -14235   -14346   -14443   -14516 
  -14565   -14598   -14644   -14717   -14810   -14921   -15040   -15130 
  -15174   -15183   -15184   -15202   -15245   -15311   -15411   -15537 
  -15661   -15768   -15865   -15948   -16001   -16011   -15962   -15858 
  -15716   -15570   -15444   -15334   -15226   -15102   -14944   -14742 
  -14504   -14261   -14030   -13814   -13624   -13471   -13354   -13286 
  -13286   -13332   -13401   -13470   -13516   -13531   -13512   -13462 
  -13390   -13315   -13255   -13219   -13193   -13171   -13170   -13201 
  -13266   -13358   -13454   -13547   -13624   -13667   -13659   -13591 
  -13478   -13366   -13302   -13329   -13467   -13676   -13891   -14053 
  -14134   -14152   -14146   -14157   -14211   -14305   -14415   -14505 
  -14555   -14578   -14589   -14588   -14573   -14535   -14469   -14370 
  -14249   -14154   -14107   -14081   -14069   -14064   -14050   -14041 
  -14057   -14098   -14158   -14229   -14280   -14299   -14295   -14293 
  -14299   -14291   -14273   -14273   -14289   -14314   -14345   -14373 
  -14409   -14474   -14536   -14580   -14592   -14531   -14400   -14238 
  -14084   -13988   -13983   -14054   -14158   -14256   -14319   -14322 
  -14256   -14129   -13965   -13821   -13738   -13751   -13876   -14087 
  -14338   -14585   -14786   -14906   -14941   -14922   -14877   -14820 
  -14763   -14725   -14698   -14658   -14597   -14512   -14395   -14256 
  -14114   -13977   -13856   -13757   -13667   -13572   -13459   -13325 
  -13197   -13108   -13089   -13159   -13300   -13471   -13621   -13722 
  -13787   -13842   -13892   -13936   -13976   -14025   -14089   -14168 
  -14257   -14342   -14397   -14382   -14295   -14179   -14095   -14114 
  -14251   -14457   -14673   -14871   -15018   -15088   -15095   -15072 
  -15037   -14990   -14933   -14864   -14797   -14758   -14748   -14746 
  -14709   -14605   -14446   -14272   -14110   -13990   -13938   -13954 
  -13992   -14011   -13999   -13957   -13906   -13896   -13956   -14060 
  -14183   -14299   -14377   -14396   -14346   -14242   -14116   -13968 
  -13792   -13626   -13493   -13405   -13382   -13431   -13551   -13728 
  -13918   -14080   -14185   -14218   -14200   -14169   -14161   -14195 
  -14270   -14381   -14526   -14683   -14832   -14966   -15076   -15130 
  -15107   -15043   -14976   -14939   -14955   -14993   -14997   -14937 
  -14812   -14681   -14597   -14563   -14567   -14566   -14508   -14374 
  -14179   -13976   -13829   -13749   -13713   -13663   -13566   -13427 
  -13258   -13080   -12927   -12849   -12872   -12989   -13157   -13313 
  -13413   -13446   -13431   -13416   -13437   -13487   -13527   -13510 
  -13414   -13239   -13027   -12837   -12723   -12712   -12807   -13003 
  -13281   -13622   -14002   -14374   -14694   -14926   -15060   -15105 
  -15106   -15138   -15242   -15398   -15558   -15657   -15668   -15623 
  -15569   -15537   -15529   -15529   -15506   -15438   -15322   -15186 
  -15063   -14979   -14933   -14894   -14845   -14802   -14785   -14797 
  -14837   -14894   -14952   -15012   -15029   -14971   -14859   -14709 
  -14531   -14366   -14239   -14156   -14153   -14210   -14250   -14246 
  -14207   -14133   -14030   -13903   -13755   -13595   -13423   -13244 
  -13089   -12969   -12869   -12754   -12606   -12456   -12347   -12299 
  -12332   -12442   -12625   -12852   -13082   -13281   -13435   -13539 
  -13582   -13564   -13524   -13490   -13468   -13479   -13544   -13653 
  -13795   -13956   -14119   -14265   -14393   -14535   -14708   -14899 
  -15099   -15291   -15431   -15480   -15433   -15309   -15153   -15020 
  -14945   -14962   -15074   -15236   -15391   -15500   -15539   -15506 
  -15425   -15322   -15215   -15113   -15010   -14898   -14764   -14619 
  -14480   -14374   -14320   -14320   -14350   -14376   -14373   -14355 
  -14339   -14312   -14257   -14172   -14053   -13913   -13782   -13675 
  -13602   -13549   -13482   -13381   -13243   -13078   -12907   -12758 
  -12660   -12634   -12688   -12823   -13011   -13212   -13408   -13598 
  -13784   -13969   -14142   -14283   -14378   -14427   -14432   -14399 
  -14353   -14314   -14264   -14203   -14156   -14121   -14087   -14075 
  -14104   -14183   -14303   -14443   -14569   -14632   -14581   -14413 
  -14183   -13933   -13717   -13603   -13628   -13775   -14006   -14272 
  -14528   -14739   -14875   -14933   -14928   -14870   -14778   -14666 
  -14561   -14507   -14512   -14540   -14550   -14485   -14334   -14135 
  -13933   -13772   -13695   -13687   -13699   -13701   -13678   -13632 
  -13589   -13589   -13662   -13822   -14054   -14297   -14500   -14644 
  -14708   -14673   -14571   -14466   -14376   -14296   -14226   -14153 
  -14068   -13998   -13969   -13977   -14022   -14092   -14148   -14152 
  -14107   -14054   -14052   -14130   -14273   -14434   -14577   -14683 
  -14754   -14801   -14820   -14808   -14770   -14688   -14538   -14355 
  -14206   -14152   -14189   -14265   -14342   -14413   -14476   -14534 
  -14588   -14642   -14696   -14743   -14801   -14854   -14859   -14809 
  -14700   -14504   -14247   -13992   -13775   -13610   -13500   -13435 
  -13431   -13497   -13605   -13721   -13830   -13919   -13981   -14027 
  -14081   -14166   -14288   -14420   -14530   -14619   -14696   -14752 
  -14769   -14723   -14594   -14393   -14142   -13867   -13618   -13440 
  -13332   -13289   -13320   -13431   -13597   -13775   -13925   -14027 
  -14081   -14085   -14056   -14025   -14013   -14022   -14045   -14060 
  -14053   -14019   -13956   -13863   -13744   -13617   -13529   -13520 
  -13582   -13676   -13776   -13859   -13911   -13957   -14029   -14143 
  -14301   -14486   -14673   -14810   -14868   -14864   -14825   -14754 
  -14646   -14504   -14357   -14238   -14181   -14192   -14247   -14343 
  -14469   -14590   -14675   -14706   -14710   -14736   -14789   -14836 
  -14870   -14890   -14858   -14746   -14561   -14342   -14150   -14029 
  -13972   -13960   -13976   -13992   -13990   -13960   -13900   -13818 
  -13738   -13697   -13732   -13863   -14071   -14291   -14451   -14520 
  -14485   -14357   -14187   -14008   -13838   -13702   -13605   -13528 
  -13483   -13490   -13562   -13709   -13909   -14092   -14188   -14173 
  -14076   -13940   -13811   -13725   -13686   -13662   -13624   -13568 
  -13517   -13500   -13537   -13639   -13791   -13964   -14131   -14274 
  -14384   -14446   -14457   -14431   -14386   -14324   -14274   -14272 
  -14314   -14388   -14494   -14617   -14736   -14841   -14904   -14889 
  -14823   -14739   -14646   -14578   -14563   -14574   -14574   -14557 
  -14539   -14548   -14565   -14563   -14557   -14557   -14569   -14598 
  -14623   -14617   -14581   -14532   -14488   -14476   -14508   -14561 
  -14607   -14620   -14577   -14473   -14349   -14231   -14114   -13998 
  -13899   -13817   -13751   -13713   -13720   -13786   -13895   -14017 
  -14121   -14185   -14219   -14245   -14295   -14392   -14524   -14659 
  -14755   -14764   -14678   -14527   -14346   -14189   -14096   -14068 
  -14094   -14156   -14215   -14260   -14305   -14351   -14392   -14415 
  -14416   -14424   -14472   -14524   -14557   -14575   -14569   -14517 
  -14432   -14349   -14283   -14226   -14172   -14123   -14076   -14029 
  -14000   -13992   -13977   -13940   -13880   -13806   -13733   -13683 
  -13680   -13726   -13791   -13830   -13810   -13743   -13657   -13564 
  -13478   -13416   -13390   -13390   -13401   -13406   -13400   -13386 
  -13387   -13428   -13544   -13755   -14026   -14304   -14546   -14713 
  -14785   -14756   -14634   -14434   -14184   -13914   -13663   -13479 
  -13374   -13319   -13298   -13298   -13305   -13333   -13394   -13508 
  -13683   -13900   -14129   -14368   -14602   -14798   -14936   -15024 
  -15078   -15125   -15156   -15157   -15152   -15167   -15206   -15256 
  -15290   -15298   -15269   -15183   -15028   -14825   -14624   -14459 
  -14326   -14226   -14183   -14196   -14229   -14233   -14175   -14057 
  -13917   -13806   -13771   -13815   -13894   -13957   -13984   -13967 
  -13913   -13873   -13890   -13963   -14067   -14166   -14238   -14273 
  -14268   -14211   -14104   -13972   -13855   -13787   -13752   -13722 
  -13693   -13666   -13656   -13671   -13690   -13710   -13745   -13792 
  -13838   -13864   -13878   -13896   -13933   -13975   -14015   -14046 
  -14052   -14034   -14004   -13973   -13964   -13983   -14014   -14040 
  -14054   -14065   -14084   -14126   -14191   -14274   -14374   -14474 
  -14561   -14620   -14654   -14683   -14715   -14736   -14766   -14821 
  -14891   -14941   -14922   -14820   -14677   -14539   -14418   -14343 
  -14350   -14409   -14469   -14513   -14521   -14478   -14420   -14407 
  -14450   -14524   -14580   -14566   -14481   -14362   -14239   -14141 
  -14089   -14061   -14042   -14034   -14025   -14011   -14011   -14034 
  -14084   -14138   -14158   -14110   -13996   -13848   -13702   -13597 
  -13560   -13586   -13649   -13729   -13813   -13891   -13938   -13932 
  -13892   -13859   -13836   -13818   -13828   -13890   -14007   -14161 
  -14320   -14449   -14520   -14542   -14539   -14555   -14612   -14683 
  -14729   -14736   -14709   -14648   -14570   -14490   -14418   -14357 
  -14318   -14311   -14361   -14469   -14604   -14751   -14909   -15036 
  -15101   -15107   -15047   -14912   -14728   -14528   -14354   -14229 
  -14130   -14038   -13952   -13849   -13726   -13594   -13460   -13351 
  -13292   -13277   -13298   -13351   -13427   -13521   -13629   -13738 
  -13829   -13899   -13965   -14065   -14210   -14374   -14513   -14585 
  -14580   -14516   -14407   -14276   -14154   -14050   -13957   -13886 
  -13860   -13895   -13990   -14122   -14257   -14374   -14474   -14554 
  -14607   -14646   -14702   -14779   -14847   -14894   -14926   -14941 
  -14940   -14944   -14964   -14974   -14960   -14959   -14964   -14949 
  -14928   -14916   -14904   -14902   -14913   -14909   -14886   -14850 
  -14783   -14693   -14607   -14558   -14536   -14503   -14423   -14284 
  -14083   -13848   -13625   -13435   -13271   -13107   -12943   -12792 
  -12644   -12499   -12371   -12260   -12178   -12164   -12243   -12394 
  -12573   -12749   -12897   -12996   -13047   -13081   -13113   -13143 
  -13149   -13117   -13085   -13104   -13196   -13355   -13567   -13799 
  -14010   -14173   -14304   -14416   -14517   -14623   -14729   -14840 
  -14970   -15125   -15286   -15421   -15526   -15615   -15693   -15763 
  -15831   -15880   -15888   -15855   -15801   -15743   -15677   -15603 
  -15543   -15496   -15438   -15353   -15238   -15097   -14909   -14679 
  -14446   -14241   -14060   -13894   -13753   -13651   -13564   -13468 
  -13352   -13232   -13124   -13035   -12977   -12970   -13008   -13046 
  -13058   -13062   -13092   -13161   -13242   -13308   -13351   -13362 
  -13327   -13267   -13224   -13198   -13157   -13081   -12987   -12907 
  -12879   -12941   -13103   -13335   -13583   -13821   -14037   -14235 
  -14428   -14623   -14814   -14998   -15153   -15244   -15267   -15246 
  -15205   -15149   -15079   -14989   -14882   -14771   -14659   -14555 
  -14485   -14463   -14472   -14485   -14497   -14497   -14482   -14446 
  -14408   -14413   -14490   -14596   -14667   -14659   -14570   -14430 
  -14280   -14160   -14102   -14110   -14162   -14243   -14332   -14411 
  -14489   -14573   -14650   -14706   -14731   -14719   -14671   -14589 
  -14489   -14382   -14277   -14188   -14118   -14072   -14060   -14038 
  -13975   -13900   -13845   -13819   -13826   -13852   -13909   -14011 
  -14143   -14295   -14457   -14612   -14736   -14802   -14824   -14817 
  -14806   -14801   -14770   -14702   -14619   -14535   -14458   -14354 
  -14204   -14033   -13851   -13675   -13558   -13533   -13598   -13714 
  -13818   -13859   -13833   -13767   -13706   -13698   -13748   -13819 
  -13882   -13919   -13918   -13880   -13838   -13825   -13848   -13892 
  -13921   -13909   -13859   -13786   -13722   -13683   -13670   -13699 
  -13797   -13959   -14158   -14357   -14526   -14648   -14712   -14739 
  -14773   -14829   -14908   -14987   -15040   -15070   -15095   -15132 
  -15184   -15257   -15330   -15384   -15417   -15438   -15460   -15476 
  -15472   -15445   -15407   -15358   -15295   -15218   -15122   -14987 
  -14791   -14563   -14364   -14212   -14102   -14026   -13967   -13892 
  -13774   -13617   -13460   -13348   -13320   -13373   -13455   -13512 
  -13505   -13420   -13266   -13070   -12887   -12776   -12769   -12856 
  -12989   -13117   -13203   -13227   -13209   -13189   -13207   -13277 
  -13377   -13462   -13525   -13566   -13586   -13609   -13667   -13770 
  -13891   -14002   -14099   -14191   -14276   -14350   -14435   -14548 
  -14663   -14732   -14744   -14708   -14624   -14521   -14428   -14364 
  -14343   -14366   -14413   -14453   -14451   -14422   -14380   -14332 
  -14308   -14315   -14343   -14376   -14376   -14354   -14331   -14285 
  -14231   -14192   -14150   -14092   -14033   -13975   -13925   -13905 
  -13918   -13941   -13963   -13980   -13986   -13981   -13981   -13986 
  -13979   -13944   -13876   -13764   -13620   -13481   -13389   -13358 
  -13386   -13466   -13560   -13635   -13678   -13693   -13703   -13728 
  -13763   -13798   -13830   -13865   -13887   -13879   -13848   -13824 
  -13830   -13891   -14006   -14145   -14269   -14349   -14369   -14347 
  -14324   -14347   -14424   -14517   -14598   -14671   -14735   -14800 
  -14894   -15029   -15206   -15403   -15577   -15689   -15719   -15678 
  -15604   -15549   -15529   -15516   -15483   -15408   -15284   -15115 
  -14910   -14693   -14484   -14303   -14160   -14048   -13961   -13915 
  -13915   -13929   -13942   -13988   -14076   -14177   -14270   -14354 
  -14411   -14420   -14370   -14260   -14122   -14010   -13930   -13865 
  -13819   -13786   -13784   -13853   -13988   -14157   -14338   -14509 
  -14642   -14720   -14742   -14715   -14670   -14629   -14588   -14535 
  -14484   -14436   -14366   -14268   -14161   -14073   -14031   -14054 
  -14119   -14192   -14261   -14315   -14337   -14305   -14220   -14119 
  -14023   -13937   -13883   -13863   -13869   -13891   -13905   -13899 
  -13868   -13811   -13751   -13707   -13701   -13740   -13792   -13815 
  -13775   -13667   -13520   -13387   -13328   -13355   -13425   -13487 
  -13513   -13490   -13448   -13429   -13450   -13508   -13586   -13645 
  -13644   -13581   -13502   -13463   -13495   -13598   -13743   -13903 
  -14065   -14199   -14291   -14374   -14486   -14625   -14767   -14895 
  -14976   -14994   -14983   -14972   -14968   -14976   -14985   -14975 
  -14945   -14882   -14785   -14704   -14654   -14620   -14605   -14611 
  -14628   -14663   -14713   -14774   -14844   -14912   -14963   -15002 
  -15028   -15016   -14962   -14874   -14752   -14629   -14530   -14439 
  -14362   -14277   -14149   -13992   -13838   -13690   -13543   -13400 
  -13266   -13135   -13022   -12938   -12884   -12873   -12907   -12969 
  -13053   -13166   -13313   -13489   -13686   -13892   -14079   -14216 
  -14305   -14349   -14368   -14393   -14431   -14480   -14553   -14620 
  -14669   -14717   -14769   -14810   -14835   -14839   -14833   -14823 
  -14790   -14731   -14656   -14567   -14486   -14462   -14507   -14573 
  -14613   -14601   -14546   -14455   -14342   -14254   -14214   -14179 
  -14123   -14061   -13991   -13921   -13882   -13900   -13968   -14061 
  -14148   -14191   -14181   -14129   -14052   -13972   -13898   -13822 
  -13725   -13606   -13486   -13381   -13290   -13215   -13149   -13086 
  -13031   -13003   -13019   -13078   -13163   -13271   -13408   -13558 
  -13711   -13869   -14025   -14156   -14253   -14312   -14343   -14365 
  -14404   -14446   -14473   -14486   -14481   -14451   -14435   -14472 
  -14565   -14679   -14782   -14860   -14906   -14914   -14887   -14832 
  -14762   -14678   -14593   -14535   -14519   -14524   -14531   -14524 
  -14503   -14477   -14446   -14405   -14373   -14355   -14347   -14353 
