Origin Time       2024/04/02 04:24:00
Lat.              40.133
Long.             141.712
Depth. (km)       71
Mag.              6.0
Station Code      YMTH06
Station Lat.      37.9633
Station Long.     140.1836
Station Height(m) 233
Record Time       2024/04/02 04:25:18
Sampling Freq(Hz) 100Hz
Duration Time(s)  124
Dir.              4
Scale Factor      7845(gal)/8223790
Max. Acc. (gal)   2.252
Last Correction   2024/04/02 04:25:18
Memo.             
[...]
     122      120      175      295      413      504      560      465 
     218       20      -51     -162     -392     -616     -774     -850 
    -787     -703     -712     -687     -611     -556     -427     -224 
     -47       97      222      294      253      130       45      -36 
    -233     -450     -569     -669     -839    -1047    -1201    -1221 
   -1136    -1047     -994     -982     -986     -911     -712     -498 
    -419     -477     -544     -557     -537     -476     -411     -422 
    -483     -521     -544     -542     -436     -237      -43       78 
     113       97       89      143      251      329      288       81 
    -220     -441     -542     -623     -773     -973    -1093    -1043 
    -895     -750     -591     -372     -126      135      386      531 
     600      680      724      668      511      302       91     -121 
    -314     -461     -616     -810     -953     -936     -768     -550 
    -378     -268     -187      -85       72      278      475      630 
     715      680      554      450      378      275      160       41 
     -89     -205     -298     -328     -228      -62        1      -55 
     -93      -55       32      130       95     -114     -253     -194 
     -97      -22       -2     -143     -334     -407     -417     -398 
    -307     -205     -186     -252     -324     -342     -376     -453 
    -490     -508     -599     -726     -820     -855     -859     -923 
   -1039    -1125    -1163    -1140    -1048     -943     -859     -792 
    -718     -604     -500     -480     -537     -610     -618     -535 
    -461     -454     -507     -621     -691     -602     -459     -361 
    -305     -318     -375     -382     -290      -91      102      122 
     -20     -152     -137      -35       -1      -47      -87     -106 
    -132     -197     -301     -341     -224      -64      -82     -256 
    -387     -402     -311     -137        8       36       -1      -29 
      25      157      221      160      110      195      421      668 
     751      568      268      103       78       33      -75     -221 
    -357     -386     -346     -352     -302     -144      -35        4 
      40       17      -59     -121     -180     -237     -322     -486 
    -681     -820     -838     -764     -730     -801     -909     -989 
    -972     -843     -715     -656     -625     -575     -461     -263 
     -71       -6      -49      -74      -22       39       59       21 
     -66     -184     -297     -356     -351     -297     -209     -149 
    -180     -252     -305     -322     -286     -237     -230     -256 
    -270     -252     -232     -218     -209     -263     -363     -402 
    -418     -475     -541     -603     -685     -747     -730     -669 
    -630     -576     -479     -402     -340     -241     -168     -149 
     -67       48       86      112      209      356      515      600 
     580      569      595      604      616      591      414      136 
     -87     -230     -342     -457     -604     -791     -955    -1021 
    -989     -923     -854     -801     -799     -796     -722     -588 
    -453     -369     -326     -294     -294     -303     -302     -373 
    -454     -402     -252      -95      -20      -94     -237     -373 
    -537     -672     -703     -649     -575     -595     -789     -966 
    -873     -650     -557     -554     -535     -499     -411     -225 
     -47      -51     -168     -210     -171      -75       58       67 
     -54     -101      -27      109      263      282      121      -16 
     -18       14      -12      -95     -179     -228     -283     -371 
    -430     -407     -299     -162      -27      128      252      318 
     407      506      521      498      481      441      423      444 
     403      245        6     -230     -363     -344     -272     -342 
    -553     -669     -608     -521     -448     -387     -395     -427 
    -432     -475     -534     -541     -487     -349     -170      -81 
    -106     -199     -306     -303     -168      -68     -118     -270 
    -442     -558     -585     -592     -641     -695     -731     -792 
    -888     -953     -932     -855     -764     -695     -672     -606 
    -433     -236      -95      -51      -98     -159     -222     -329 
    -460     -600     -745     -855     -949    -1021     -982     -832 
    -704     -588     -422     -280     -180        2      237      400 
     494      488      357      261      278      259      145       33 
     -37      -25      102      222      249      264      290      216 
      10     -170     -220     -186     -135     -156     -260     -306 
    -294     -302     -278     -207     -135      -52        2      -18 
     -62      -63      -97     -217     -305     -261     -153      -86 
     -82     -101     -126     -172     -270     -445     -608     -670 
    -720     -832     -958    -1080    -1136    -1089    -1051    -1053 
    -982     -842     -675     -495     -390     -379     -394     -411 
    -368     -176       79      187       87      -24       -8       83 
     182      260      280      265      292      332      252       81 
     -10        6       45       86       85       10      -81     -166 
    -274     -345     -322     -298     -365     -450     -471     -468 
    -480     -486     -454     -351     -201     -108     -103     -148 
    -213     -245     -238     -259     -325     -414     -495     -550 
    -591     -621     -652     -673     -633     -534     -411     -286 
    -222     -256     -313     -315     -247     -172     -228     -430 
    -657     -819     -876     -799     -635     -500     -459     -445 
    -400     -376     -384     -345     -202      -32       20      -90 
    -303     -515     -639     -662     -668     -708     -691     -579 
    -460     -367     -295     -268     -252     -176      -37      141 
     342      488      465      292      132       27     -112     -243 
    -248     -170     -135     -128     -116     -168     -244     -233 
    -176     -120      -45        8       39      112      184      186 
      98      -54     -139      -60       83      166      129      -24 
    -184     -228     -132       -2       -9     -129     -178     -174 
    -190     -153     -132     -222     -275     -244     -247     -290 
    -355     -430     -448     -411     -399     -457     -580     -708 
    -777     -774     -680     -510     -394     -378     -369     -317 
    -216     -105      -68     -108     -176     -263     -315     -334 
    -380     -426     -483     -629     -762     -719     -523     -317 
    -228     -251     -257     -224     -221     -206     -167     -157 
    -110      -14       -9      -87     -141     -180     -193     -136 
     -16       78       43      -41      -68      -90     -145     -203 
    -283     -432     -607     -697     -729     -818     -930     -955 
    -924     -916     -893     -796     -648     -483     -348     -251 
    -141      -31       83      236      344      336      290      299 
     379      437      376      276      282      361      383      340 
     297      187      -41     -189      -98       79      151       78 
     -64     -140     -101      -74     -179     -344     -430     -429 
    -379     -318     -332     -457     -600     -653     -638     -702 
    -841     -924     -992    -1119    -1217    -1163     -984     -830 
    -765     -770     -800     -795     -781     -760     -676     -571 
    -526     -561     -643     -688     -693     -780     -965    -1136 
   -1185    -1071     -877     -777     -834     -896     -819     -623 
    -407     -241     -132      -66      -99     -191     -210     -175 
    -112       33      164      176      141      125      187      364 
     540      611      615      576      499      438      444      430 
     283      101       47       98      156      194      210      211 
     201      176      190      272      341      333      290      222 
      72      -71      -45       79      164      191      137        1 
    -105     -114     -105     -147     -221     -256     -174      -40 
     -14      -62      -59      -32      -17       -8      -28     -110 
    -263     -421     -535     -630     -676     -733     -899    -1065 
   -1116    -1109    -1119    -1175    -1301    -1433    -1460    -1377 
   -1251    -1117    -1004     -896     -819     -846     -926     -977 
    -992     -967     -935     -881     -774     -699     -642     -518 
    -419     -388     -329     -237     -148      -45       12      -39 
    -106      -68       37      102       97      108      176      274 
     430      610      656      535      402      352      338      332 
     372      423      365      202       93      162      414      693 
     816      823      837      822      785      826      922      934 
     773      531      376      328      290      209       62     -121 
    -241     -260     -220     -197     -232     -245     -180     -132 
    -175     -283     -418     -511     -521     -515     -558     -637 
    -718     -811     -949    -1094    -1159    -1144    -1125    -1174 
   -1314    -1474    -1575    -1621    -1640    -1637    -1593    -1489 
   -1348    -1210    -1075     -967     -958    -1023    -1043     -954 
    -757     -525     -378     -338     -360     -403     -407     -351 
    -319     -373     -423     -395     -369     -380     -319     -191 
    -128     -110      -55       25      103      172      180       67 
     -99     -225     -346     -492     -623     -731     -787     -780 
    -753     -642     -413     -159      109      368      514      587 
     692      810      908      950      891      795      741      672 
     562      469      415      433      514      567      594      639 
     672      639      568      587      719      824      820      683 
     432      224      151      153      183      206      120     -116 
    -336     -413     -436     -456     -442     -438     -484     -552 
    -596     -558     -519     -596     -730     -922    -1198    -1428 
   -1617    -1902    -2196    -2367    -2436    -2438    -2423    -2412 
   -2313    -2064    -1748    -1517    -1425    -1360    -1185     -872 
    -500     -194      -52      -75     -166     -197     -136      -87 
    -133     -292     -540     -738     -762     -660     -556     -480 
    -382     -201       81      368      562      683      764      803 
     832      851      796      712      711      738      714      680 
     666      656      654      631      544      380      190       64 
       6      -48     -102     -166     -264     -342     -309     -171 
      -2      121      147       83      -29     -162     -298     -467 
    -676     -822     -864     -877     -896     -899     -814     -583 
    -291      -45      128      205      234      379      643      918 
    1135     1193     1073      915      824      812      787      519 
     -58     -693    -1134    -1390    -1556    -1671    -1755    -1788 
   -1679    -1412    -1140     -965     -832     -724     -560     -211 
     125      198       12     -286     -460     -446     -449     -531 
    -629     -749     -886    -1036    -1231    -1487    -1752    -1919 
   -1979    -2052    -2176    -2235    -2092    -1756    -1352    -1026 
    -828     -631     -305      145      619      934      973      857 
     774      751      768      815      831      777      681      583 
     521      535      545      403      166       10       -9       67 
     189      324      486      669      795      824      866     1024 
    1159     1089      818      438      106      -12       44       99 
      70      -74     -321     -542     -594     -494     -321     -140 
     -83     -207     -395     -541     -642     -697     -665     -596 
    -589     -581     -513     -433     -295      -75       41      -72 
    -309     -496     -589     -672     -831    -1055    -1300    -1491 
   -1568    -1541    -1429    -1296    -1205    -1070     -850     -673 
    -615     -615     -619     -648     -710     -714     -639     -567 
    -510     -452     -421     -465     -588     -712     -804     -946 
   -1200    -1506    -1740    -1783    -1626    -1335     -969     -565 
    -124      342      731      969     1139     1278     1321     1321 
    1350     1320     1147      922      757      652      606      600 
     523      357      186       20     -145     -297     -456     -572 
    -540     -391     -209       -1      256      523      681      747 
     847      922      805      529      226      -81     -426     -808 
   -1182    -1435    -1510    -1422    -1161     -805     -537     -421 
    -432     -544     -629     -503     -175      132      220       76 
    -160     -345     -361     -198      -22      -21     -189     -353 
    -369     -240      -75      -43     -232     -508     -650     -569 
    -322      -93      -95     -359     -683     -861     -803     -556 
    -337     -360     -600     -881    -1085    -1105     -868     -502 
    -234      -75      101      288      500      764      916      877 
     764      633      534      500      384      117     -156     -311 
    -337     -284     -228     -237     -306     -338     -272     -151 
     -62      -89     -206     -280     -270     -226     -112       71 
     133       35      -44      -67      -56       51      164      135 
     -35     -291     -534     -660     -784    -1027    -1251    -1362 
   -1497    -1701    -1853    -1952    -2115    -2343    -2531    -2623 
   -2575    -2326    -1948    -1575    -1243     -959     -741     -619 
    -621     -662     -631     -500     -306     -129      -16       55 
     178      442      739      918      982      970      889      695 
     348       17     -148     -218     -206      -79       39       27 
     -33        5      255      695     1101     1331     1490     1595 
    1559     1489     1521     1557     1382      974      552      247 
      41      -62     -128     -271     -476     -650     -719     -660 
    -569     -598     -757     -893     -873     -716     -519     -415 
    -500     -670     -754     -735     -697     -722     -866    -1051 
   -1135    -1075     -827     -434     -122        5       -4     -179 
    -529     -859     -970     -950     -989    -1071    -1139    -1165 
   -1015     -675     -351     -237     -369     -562     -568     -365 
    -153     -108     -176     -225     -271     -321     -267     -121 
     -14       41      160      365      531      546      425      225 
      24      -70      -37       -1      -55     -176     -278     -278 
    -143       72      280      382      352      328      351      255 
      35     -183     -433     -691     -793     -730     -594     -398 
    -186        0      240      545      799      924      909      800 
     703      658      549      276      -18     -117      -63      -58 
    -202     -529     -940    -1308    -1638    -1906    -2046    -2056 
   -1941    -1759    -1630    -1578    -1483    -1235     -889     -626 
    -541     -571     -637     -699     -654     -446     -198      -33 
      14      -55     -126      -44      102      103      -58     -206 
    -226     -191     -145      -49      -31     -207     -379     -306 
     -72      125      153       24      -68       28      251      434 
     508      542      584      603      594      558      469      360 
     278      176       82       47      -49     -276     -577     -905 
   -1113    -1102    -1009     -946     -912     -899     -862     -735 
    -550     -426     -357     -272     -160       28      334      565 
     486      224      101      190      348      467      481      376 
     233      109       18      -52     -202     -498     -831    -1075 
   -1239    -1424    -1671    -1883    -1979    -1972    -1837    -1563 
   -1287    -1131    -1008     -795     -521     -288     -190     -288 
    -513     -687     -664     -491     -417     -565     -785     -876 
    -754     -508     -360     -406     -502     -515     -449     -305 
    -125      -49      -45       62      292      506      562      461 
     396      519      706      789      776      687      496      255 
      51      -75      -95      -43      -52     -147     -207     -175 
     -22      244      503      654      731      777      795      886 
    1075     1121      849      425       81     -144     -263     -342 
    -507     -700     -787     -729     -564     -448     -476     -556 
    -603     -639     -756     -999    -1231    -1316    -1318    -1308 
   -1239    -1075     -859     -625     -351      -55      186      345 
     410      398      372      378      384      318      193      116 
      95       55      -18      -98     -124      -58       51      124 
      87      -31     -132     -203     -276     -369     -521     -765 
   -1040    -1197    -1244    -1320    -1412    -1433    -1335    -1078 
    -727     -425     -301     -406     -598     -652     -542     -437 
    -438     -518     -615     -662     -616     -511     -460     -525 
    -585     -480     -217       63      206      136      -98     -318 
    -348     -226     -103      -24       21       67      221      476 
     687      743      596      317      125      168      382      552 
     496      197     -201     -476     -521     -477     -571     -810 
   -1031    -1116    -1028     -781     -421      -33      195      166 
      13     -118     -203     -244     -257     -298     -427     -599 
    -627     -471     -252      -70      -91     -373     -642     -654 
    -496     -364     -356     -499     -742     -963    -1113    -1183 
   -1139    -1046     -985     -865     -638     -405     -221     -109 
     -31      103      282      446      581      584      430      291 
     276      348      373      234       62      109      368      599 
     656      537      282       36       -6      110      194      211 
     236      206       49     -133     -263     -375     -459     -492 
    -517     -503     -426     -315     -195      -95       -5      110 
     172       52     -224     -503     -626     -529     -352     -303 
    -418     -600     -716     -716     -734     -888    -1097    -1247 
   -1344    -1421    -1460    -1458    -1404    -1323    -1333    -1459 
   -1495    -1302    -1007     -730     -480     -302     -171       21 
     211      256      160      -22     -220     -278     -149       39 
     178      225      147        6       -8      205      522      749 
     788      661      548      662      942     1075      912      616 
     403      326      375      472      382       25     -318     -477 
    -606     -787     -889     -857     -862    -1028    -1169    -1100 
    -880     -571     -207       68      172      141       47        2 
      51       66      -60     -283     -480     -558     -567     -642 
    -803     -926     -935     -816     -552     -271     -210     -341 
    -403     -361     -429     -608     -702     -711     -745     -708 
    -535     -360     -214      -58       74      201      321      372 
     363      317      240      197      234      279      190       -6 
    -132     -152     -121       28      268      399      351      217 
      79      -40     -113      -95      -16        4     -126     -321 
