Origin Time       2024/04/02 04:24:00
Lat.              40.133
Long.             141.712
Depth. (km)       71
Mag.              6.0
Station Code      YMTH06
Station Lat.      37.9633
Station Long.     140.1836
Station Height(m) 233
Record Time       2024/04/02 04:25:18
Sampling Freq(Hz) 100Hz
Duration Time(s)  124
Dir.              5
Scale Factor      7845(gal)/8223790
Max. Acc. (gal)   2.420
Last Correction   2024/04/02 04:25:18
Memo.             
[...]
    -870    -1090    -1182    -1088     -923     -739     -561     -472 
    -429     -318     -179     -116     -180     -336     -463     -535 
    -615     -677     -693     -729     -810     -907     -982     -997 
    -984    -1031    -1150    -1256    -1246    -1081     -837     -616 
    -459     -364     -279     -121       66      197      263      255 
     187      117       68       66       97       76      -13     -144 
    -268     -341     -405     -522     -650     -718     -741     -770 
    -785     -757     -722     -689     -662     -648     -616     -568 
    -554     -603     -668     -665     -565     -415     -288     -232 
    -222     -245     -328     -427     -498     -557     -606     -657 
    -738     -819     -881     -878     -735     -475     -178       99 
     324      495      637      718      723      742      803      818 
     781      738      680      580      387      136      -66     -251 
    -479     -695     -868    -1004    -1089    -1113    -1066    -1024 
   -1055    -1073    -1027     -972     -947    -1015    -1194    -1358 
   -1405    -1371    -1313    -1263    -1217    -1131    -1038    -1015 
    -993     -835     -587     -387     -247     -116       -4       83 
     136      110        9     -114     -229     -341     -445     -494 
    -476     -453     -434     -414     -411     -400     -363     -303 
    -206      -85        8       32        0       -8       45       45 
    -122     -391     -660     -884    -1016    -1055    -1058    -1038 
    -953     -764     -434       -9      382      689      927     1100 
    1183     1124      947      773      680      626      500      205 
    -243     -714    -1125    -1479    -1810    -2135    -2403    -2581 
   -2679    -2632    -2438    -2231    -2002    -1651    -1221     -747 
    -256      143      409      599      772      896      881      714 
     480      243       17     -155     -241     -307     -407     -535 
    -702     -878     -993    -1032    -1021     -966     -888     -801 
    -665     -459     -218       28      213      303      380      442 
     446      402      275       99      -22     -112     -216     -287 
    -233      -54      135      267      373      475      569      657 
     723      757      781      804      814      765      621      364 
      -5     -399     -718     -980    -1263    -1599    -1923    -2131 
   -2209    -2236    -2280    -2319    -2281    -2187    -2062    -1892 
   -1679    -1371    -1001     -750     -606     -386      -52      261 
     445      495      446      365      336      314      202        0 
    -252     -487     -616     -693     -843    -1034    -1235    -1506 
   -1782    -1965    -2061    -2008    -1780    -1480    -1144     -745 
    -352      -22      264      522      696      715      629      500 
     305       62     -160     -340     -464     -540     -575     -530 
    -365     -128       60      137      159      133       55       36 
     118      237      390      534      587      544      414      240 
      78     -109     -369     -695    -1035    -1289    -1347    -1183 
    -857     -486     -164       87      302      502      622      592 
     461      288       94      -64     -184     -325     -492     -635 
    -699     -658     -568     -565     -693     -857     -958    -1001 
   -1058    -1094    -1017     -854     -684     -554     -506     -540 
    -621     -731     -878    -1101    -1406    -1722    -1939    -2000 
   -1935    -1841    -1795    -1772    -1664    -1414    -1085     -758 
    -465     -195       41      243      473      789     1124     1321 
    1314     1189     1065     1003      961      854      658      427 
     233      117      101      117       59     -129     -436     -696 
    -746     -661     -614     -656     -765     -895     -982    -1000 
    -959     -868     -772     -757     -814     -872     -907     -946 
    -967     -899     -772     -642     -473     -264      -76       41 
      71       37      -40     -201     -419     -618     -795     -984 
   -1185    -1347    -1390    -1332    -1216    -1071     -945     -843 
    -729     -550     -264      108      487      754      849      876 
     993     1200     1351     1363     1264     1063      770      477 
     265      101     -101     -315     -449     -500     -529     -557 
    -591     -657     -788     -919     -980    -1004     -973     -857 
    -734     -626     -529     -480     -445     -390     -398     -522 
    -712     -922    -1123    -1298    -1448    -1566    -1668    -1783 
   -1826    -1706    -1524    -1421    -1385    -1317    -1135     -818 
    -440     -121       94      283      460      583      641      626 
     577      503      351      143     -112     -427     -665     -734 
    -761     -832     -936    -1113    -1320    -1382    -1233     -949 
    -592     -276      -89       74      314      556      704      704 
     544      309      122       49       74       98       39      -72 
    -159     -272     -504     -807    -1131    -1470    -1740    -1879 
   -1881    -1678    -1275     -815     -379       54      436      679 
     805      891      912      792      541      255      -32     -317 
    -564     -776     -959    -1102    -1260    -1495    -1707    -1779 
   -1738    -1610    -1367    -1061     -751     -471     -247      -18 
     257      456      513      544      622      735      849      900 
     838      676      494      365      261      103     -145     -461 
    -776    -1009    -1115    -1150    -1158    -1090     -962     -823 
    -691     -641     -695     -765     -834     -900     -869     -720 
    -523     -314     -102       32       55       66      117      132 
      31     -198     -500     -812    -1062    -1190    -1216    -1221 
   -1225    -1201    -1190    -1246    -1321    -1370    -1339    -1185 
    -965     -704     -342       64      411      631      670      577 
     452      338      276      274      217      -13     -346     -626 
    -811     -909     -869     -774     -805     -928    -1024    -1139 
   -1254    -1246    -1131     -954     -650     -240      155      448 
     623      729      803      861      927      982      993      981 
     984      950      793      533      260       51     -124     -380 
    -737    -1086    -1367    -1597    -1792    -1923    -1912    -1757 
   -1547    -1354    -1163     -963     -765     -577     -433     -332 
    -247     -174      -81       36      116       79     -114     -380 
    -548     -552     -546     -747    -1090    -1332    -1417    -1356 
   -1143     -882     -621     -307       36      373      703      982 
    1151     1178     1080      905      680      438      251      143 
      83       -2     -176     -388     -562     -720     -926    -1127 
   -1264    -1433    -1664    -1768    -1641    -1453    -1305    -1073 
    -757     -486     -222      121      479      747      892      955 
     972      908      800      727      606      341      -75     -653 
   -1269    -1710    -1975    -2168    -2312    -2407    -2478    -2524 
   -2488    -2281    -1883    -1398     -924     -483      -82      303 
     684     1009     1251     1389     1399     1298     1115      877 
     618      342       72     -163     -396     -641     -837     -961 
   -1030    -1129    -1371    -1651    -1736    -1559    -1219     -873 
    -665     -611     -634     -654     -633     -587     -546     -522 
    -519     -538     -565     -567     -548     -587     -761    -1054 
   -1316    -1413    -1406    -1410    -1405    -1347    -1247    -1088 
    -846     -569     -356     -305     -434     -604     -656     -552 
    -342      -66      245      546      768      876      955     1101 
    1237     1189      905      508      114     -224     -477     -664 
    -788     -812     -727     -561     -359     -167      -40      -28 
     -58        1      106      187      278      388      546      796 
    1050     1194     1208     1102      904      622      255     -143 
    -469     -672     -757     -741     -711     -799     -949    -1003 
    -988    -1051    -1236    -1451    -1566    -1551    -1466    -1325 
   -1125     -911     -710     -498     -290     -105       63      195 
     251      245      234      216      135      -44     -317     -648 
   -1005    -1354    -1626    -1830    -2010    -2165    -2288    -2362 
   -2374    -2320    -2170    -1890    -1467     -934     -411       -9 
     282      552      876     1132     1139      928      631      352 
     191      106        2     -109     -244     -448     -637     -685 
    -598     -499     -523     -699     -904     -978     -862     -591 
    -268       -5      162      272      357      438      529      598 
     623      599      486      317      117      -93     -206     -243 
    -402     -738    -1085    -1270    -1252    -1067     -758     -406 
    -136       29      175      311      407      479      456      255 
     -20     -253     -402     -403     -329     -357     -521     -741 
    -957    -1074    -1016     -838     -681     -649     -743     -864 
    -888     -795     -703     -714     -808     -945    -1092    -1189 
   -1247    -1323    -1404    -1489    -1575    -1625    -1601    -1435 
   -1116     -766     -518     -380     -272      -79      263      665 
     978     1143     1123      913      646      444      330      326 
     378      351      195      -39     -256     -376     -414     -438 
    -484     -502     -395     -164       82      259      303      209 
     109      118      171      203      209      124      -66     -202 
    -193     -182     -314     -573     -881    -1177    -1395    -1486 
   -1490    -1505    -1528    -1444    -1233    -1035     -961    -1011 
   -1084    -1088    -1057    -1020     -953     -904     -926     -966 
    -989    -1009    -1007    -1020    -1170    -1433    -1660    -1865 
   -2134    -2353    -2388    -2222    -1853    -1354     -822     -291 
     155      383      357      222      167      205      216      176 
     136      113      112      144      214      275      260      205 
     167       99      -10      -62        4      148      307      481 
     688      899     1134     1414     1618     1645     1525     1286 
    1036      905      816      614      284      -39     -182      -78 
     144      253      144      -48     -182     -257     -359     -548 
    -841    -1158    -1294    -1159     -953     -896     -965    -1027 
    -999     -918     -939    -1123    -1320    -1391    -1370    -1308 
   -1174     -974     -757     -526     -310     -160      -62      -24 
    -144     -468     -901    -1314    -1587    -1657    -1622    -1583 
   -1549    -1534    -1470    -1263     -940     -633     -514     -630 
    -777     -723     -502     -332     -298     -344     -425     -479 
    -450     -392     -333     -279     -341     -531     -719     -857 
    -951    -1030    -1117    -1159    -1098     -946     -679     -251 
     260      668      866      947     1019     1030      897      616 
     230     -129     -290     -253     -228     -361     -552     -594 
    -457     -279     -110       -2      -41     -157     -210     -148 
      21      264      519      656      621      568      596      599 
     467      171     -256     -696    -1020    -1197    -1273    -1316 
   -1348    -1297    -1098     -793     -423      -40      206      234 
     140       -2     -187     -318     -341     -369     -473     -634 
    -796     -854     -805     -830    -1062    -1374    -1528    -1490 
   -1409    -1374    -1351    -1294    -1161     -923     -626     -318 
     -16      182      230      195       89     -103     -330     -507 
    -553     -441     -284     -255     -365     -522     -619     -581 
    -498     -535     -656     -711     -661     -510     -310     -195 
    -139       22      249      351      302      225      224      302 
     344      264       87     -157     -419     -611     -738     -874 
   -1030    -1170    -1266    -1266    -1169    -1066     -981     -838 
    -629     -333       66      419      595      616      577      557 
     523      415      271      117      -47     -182     -234     -168 
     -67      -74     -125      -99      -40       16       39       -5 
     -63      -90      -90      -48        2      -36     -203     -407 
    -525     -589     -756     -997    -1158    -1209    -1169    -1057 
    -953     -897     -858     -719     -472     -325     -317     -291 
    -279     -425     -699     -934    -1036    -1047     -990     -850 
    -707     -660     -675     -641     -502     -342     -243     -191 
    -224     -359     -507     -589     -537     -348     -160      -94 
    -148     -297     -479     -625     -773     -985    -1229    -1414 
   -1441    -1325    -1170     -970     -695     -460     -364     -283 
    -126      -25      -45     -143     -315     -496     -595     -618 
    -544     -367     -221     -244     -411     -537     -491     -355 
    -290     -365     -592     -880    -1053    -1104    -1132    -1057 
    -818     -564     -328        1      286      322      214      166 
     228      386      568      664      697      745      816      919 
     992      978      919      845      768      672      527      373 
     279      245      245      291      321      183      -71     -287 
    -533     -913    -1329    -1680    -1973    -2251    -2571    -2866 
   -2945    -2787    -2528    -2189    -1730    -1255     -880     -608 
    -442     -375     -367     -407     -484     -548     -554     -541 
    -630     -810     -903     -872     -868     -996    -1204    -1348 
   -1374    -1327    -1274    -1227    -1104     -877     -602     -314 
     -86       12      -41     -232     -450     -583     -616     -534 
    -342     -136       40      213      359      444      494      499 
     413      228        0     -179     -252     -216     -112      -72 
    -144     -180     -136      -44      160      414      553      595 
     610      676      934     1300     1440     1215      776      309 
     -28     -198     -353     -553     -683     -714     -711     -727 
    -807     -903     -920     -896     -909     -951    -1012    -1084 
   -1112    -1044     -911     -770     -660     -623     -697     -831 
    -904     -882     -774     -576     -386     -355     -475     -625 
    -707     -712     -716     -792     -940    -1123    -1317    -1485 
   -1551    -1509    -1483    -1521    -1512    -1395    -1201     -989 
    -845     -783     -720     -545     -248       62      286      388 
     433      534      653      684      676      662      573      429 
     276       89      -89     -159     -121      -49      -12      -28 
     -64      -63      -20      -43     -172     -305     -340     -282 
    -211     -171     -130     -109     -148     -209     -260     -376 
    -610     -858    -1020    -1098    -1075     -958     -870     -849 
    -743     -500     -253     -108      -58      -64     -124     -275 
    -479     -652     -764     -788     -707     -595     -558     -645 
    -869    -1206    -1555    -1756    -1703    -1512    -1340    -1132 
    -814     -441      -82      194      373      511      616      691 
     773      835      804      642      423      356      511      711 
     781      692      503      286       72      -95     -206     -329 
    -479     -580     -558     -421     -274     -240     -332     -430 
    -387     -233     -179     -301     -467     -561     -557     -477 
    -349     -206      -67       52       99       76       54       49 
      70       83      -17     -276     -565     -726     -757     -756 
    -804     -909    -1000    -1055    -1108    -1167    -1263    -1397 
   -1529    -1676    -1822    -1890    -1927    -2022    -2108    -2050 
   -1833    -1591    -1443    -1377    -1354    -1399    -1518    -1607 
   -1580    -1456    -1264     -984     -650     -368     -132      122 
     383      600      737      756      669      565      473      317 
     105      -49     -109      -39      195      448      544      511 
     503      594      704      774      835      881      905      963 
     999      911      761      622      442      238       60     -175 
    -504     -861    -1210    -1495    -1656    -1691    -1595    -1432 
   -1327    -1285    -1220    -1078     -807     -390       35      247 
     184      -39     -313     -565     -689     -629     -475     -363 
    -349     -449     -660     -931    -1156    -1304    -1413    -1489 
   -1566    -1656    -1669    -1549    -1335    -1059     -741     -398 
     -90       83      105       24      -94     -201     -268     -251 
    -152      -36       85      195      213      147       95       29 
    -151     -400     -548     -523     -403     -286     -238     -263 
    -255     -120       76      189      102     -139     -383     -523 
    -469     -225       -5       17      -93     -159      -54      160 
     310      279       41     -286     -434     -290      -29      166 
     261      282      279      352      479      523      461      340 
     149      -72     -226     -291     -353     -491     -691     -877 
   -1017    -1154    -1354    -1606    -1802    -1872    -1783    -1594 
   -1452    -1370    -1256    -1098     -909     -743     -673     -668 
    -654     -608     -527     -418     -274      -81       98      151 
      59      -89     -274     -525     -808    -1065    -1239    -1275 
   -1189    -1094    -1031     -932     -807     -730     -702     -685 
    -660     -595     -476     -314     -117       95      288      452 
     608      708      653      472      268       41     -268     -650 
   -1019    -1256    -1297    -1202    -1102    -1035     -954     -854 
    -753     -557     -201      141      333      503      738      945 
    1063     1084      965      741      506      287       33     -298 
    -634     -853     -982    -1116    -1240    -1301    -1293    -1213 
   -1073     -953     -893     -835     -761     -688     -633     -634 
    -714     -805     -756     -525     -361     -426     -542     -580 
    -561     -468     -368     -373     -410     -379     -307     -216 
     -91       45      174      236      224      191      124      -22 
    -202     -348     -487     -641     -710     -665     -610     -584 
    -603     -727     -923    -1062    -1062     -958     -845     -783 
    -742     -627     -421     -205      -31       74       87       93 
     199      332      376      352      280      168       71       16 
     -83     -317     -616     -882    -1097    -1250    -1324    -1347 
   -1359    -1391    -1436    -1426    -1320    -1186    -1101    -1071 
   -1082    -1081     -990     -773     -465     -184        5      144 
     275      417      525      534      488      540      731      904 
     935      878      824      772      679      542      360      124 
    -126     -328     -472     -584     -619     -553     -484     -468 
    -448     -383     -263     -130     -108     -303     -670     -938 
    -939     -853     -878    -1069    -1420    -1799    -2015    -2022 
   -1935    -1899    -1985    -2205    -2436    -2409    -1985    -1377 
    -927     -707     -545     -310       40      418      638      656 
