Origin Time       2024/04/02 04:24:00
Lat.              40.133
Long.             141.712
Depth. (km)       71
Mag.              6.0
Station Code      YMTH14
Station Lat.      38.3860
Station Long.     139.9916
Station Height(m) 465
Record Time       2024/04/02 04:25:13
Sampling Freq(Hz) 100Hz
Duration Time(s)  159
Dir.              4
Scale Factor      7845(gal)/8223790
Max. Acc. (gal)   1.928
Last Correction   2024/04/02 04:24:56
Memo.             
[...]
  -56829   -56934   -57042   -57144   -57222   -57275   -57288   -57250 
  -57173   -57078   -56995   -56943   -56898   -56836   -56770   -56698 
  -56600   -56484   -56392   -56331   -56312   -56357   -56457   -56596 
  -56713   -56741   -56722   -56712   -56686   -56655   -56659   -56658 
  -56620   -56593   -56598   -56598   -56550   -56454   -56334   -56200 
  -56076   -55976   -55908   -55883   -55876   -55872   -55900   -55977 
  -56056   -56080   -56060   -56025   -55995   -55966   -55927   -55891 
  -55879   -55887   -55917   -55993   -56119   -56241   -56332   -56419 
  -56505   -56571   -56606   -56590   -56515   -56424   -56354   -56308 
  -56285   -56274   -56276   -56293   -56312   -56338   -56384   -56390 
  -56344   -56335   -56373   -56397   -56423   -56452   -56438   -56403 
  -56409   -56440   -56465   -56470   -56436   -56384   -56353   -56339 
  -56336   -56370   -56446   -56538   -56652   -56809   -56961   -57040 
  -57048   -57022   -56952   -56847   -56764   -56706   -56631   -56556 
  -56509   -56498   -56525   -56577   -56624   -56660   -56697   -56729 
  -56752   -56764   -56768   -56760   -56725   -56660   -56594   -56524 
  -56440   -56380   -56373   -56407   -56465   -56527   -56583   -56619 
  -56616   -56609   -56629   -56654   -56675   -56713   -56766   -56816 
  -56862   -56907   -56936   -56940   -56936   -56897   -56812   -56735 
  -56671   -56602   -56550   -56519   -56481   -56430   -56369   -56289 
  -56188   -56088   -56002   -55923   -55869   -55853   -55865   -55921 
  -56022   -56131   -56246   -56388   -56519   -56619   -56721   -56849 
  -56967   -57040   -57076   -57084   -57064   -57056   -57103   -57200 
  -57327   -57466   -57613   -57775   -57923   -58028   -58109   -58172 
  -58185   -58148   -58077   -57967   -57842   -57719   -57585   -57449 
  -57331   -57262   -57233   -57180   -57090   -57002   -56902   -56740 
  -56535   -56354   -56209   -56084   -56002   -55952   -55885   -55819 
  -55779   -55745   -55719   -55715   -55715   -55694   -55633   -55524 
  -55377   -55217   -55084   -55008   -54992   -55024   -55096   -55192 
  -55304   -55418   -55518   -55607   -55686   -55738   -55773   -55818 
  -55881   -55945   -55993   -56006   -55981   -55942   -55906   -55875 
  -55852   -55846   -55880   -55964   -56081   -56205   -56316   -56404 
  -56481   -56554   -56616   -56650   -56671   -56712   -56747   -56771 
  -56817   -56876   -56918   -56956   -56998   -57014   -57001   -56970 
  -56925   -56887   -56863   -56818   -56768   -56718   -56633   -56528 
  -56431   -56311   -56166   -56037   -55929   -55864   -55884   -55976 
  -56095   -56223   -56351   -56446   -56508   -56573   -56612   -56600 
  -56582   -56559   -56520   -56513   -56543   -56581   -56637   -56690 
  -56717   -56743   -56793   -56848   -56895   -56953   -57014   -57037 
  -57032   -57014   -56948   -56824   -56694   -56569   -56432   -56305 
  -56197   -56088   -55977   -55860   -55740   -55641   -55578   -55559 
  -55609   -55714   -55849   -56008   -56170   -56299   -56389   -56466 
  -56552   -56639   -56712   -56776   -56818   -56814   -56756   -56658 
  -56577   -56546   -56538   -56551   -56574   -56590   -56627   -56675 
  -56698   -56735   -56791   -56830   -56887   -57001   -57140   -57267 
  -57356   -57397   -57407   -57384   -57327   -57264   -57245   -57267 
  -57279   -57292   -57312   -57288   -57198   -57038   -56817   -56590 
  -56405   -56289   -56261   -56307   -56439   -56660   -56903   -57100 
  -57240   -57316   -57334   -57326   -57312   -57287   -57254   -57199 
  -57105   -56970   -56797   -56629   -56520   -56488   -56516   -56577 
  -56654   -56760   -56880   -56984   -57078   -57138   -57127   -57061 
  -56967   -56857   -56758   -56679   -56609   -56538   -56463   -56343 
  -56150   -55919   -55687   -55487   -55358   -55320   -55395   -55574 
  -55836   -56151   -56428   -56598   -56690   -56748   -56793   -56835 
  -56864   -56863   -56847   -56798   -56654   -56431   -56207   -56007 
  -55841   -55741   -55702   -55711   -55767   -55833   -55869   -55858 
  -55818   -55787   -55810   -55918   -56095   -56290   -56454   -56547 
  -56536   -56407   -56174   -55887   -55586   -55289   -55048   -54913 
  -54885   -54958   -55117   -55296   -55475   -55667   -55842   -55993 
  -56137   -56272   -56427   -56620   -56825   -57029   -57233   -57411 
  -57538   -57595   -57565   -57434   -57227   -57006   -56797   -56624 
  -56523   -56489   -56488   -56505   -56519   -56527   -56546   -56548 
  -56535   -56533   -56546   -56571   -56635   -56735   -56843   -56952 
  -57072   -57181   -57275   -57366   -57446   -57507   -57559   -57581 
  -57554   -57489   -57384   -57256   -57160   -57102   -57038   -56963 
  -56882   -56776   -56652   -56538   -56432   -56316   -56188   -56061 
  -55966   -55935   -55961   -56011   -56053   -56074   -56101   -56157 
  -56232   -56320   -56424   -56538   -56636   -56686   -56694   -56675 
  -56614   -56535   -56485   -56479   -56513   -56585   -56658   -56670 
  -56587   -56435   -56257   -56068   -55891   -55782   -55759   -55794 
  -55863   -55950   -56034   -56089   -56119   -56135   -56127   -56061 
  -55933   -55784   -55661   -55590   -55575   -55576   -55563   -55556 
  -55570   -55618   -55718   -55852   -56006   -56187   -56370   -56515 
  -56608   -56655   -56633   -56556   -56497   -56493   -56528   -56592 
  -56656   -56690   -56694   -56690   -56682   -56686   -56729   -56782 
  -56805   -56806   -56779   -56713   -56632   -56533   -56444   -56403 
  -56389   -56393   -56432   -56484   -56531   -56598   -56678   -56712 
  -56697   -56690   -56712   -56774   -56907   -57113   -57323   -57501 
  -57655   -57771   -57847   -57906   -57928   -57889   -57843   -57828 
  -57796   -57730   -57676   -57616   -57507   -57376   -57277   -57234 
  -57235   -57245   -57254   -57256   -57222   -57146   -57051   -56943 
  -56835   -56747   -56683   -56632   -56582   -56558   -56600   -56687 
  -56783   -56860   -56894   -56867   -56786   -56682   -56590   -56505 
  -56419   -56338   -56270   -56216   -56189   -56192   -56197   -56187 
  -56155   -56112   -56079   -56077   -56114   -56176   -56238   -56292 
  -56359   -56434   -56469   -56448   -56381   -56268   -56138   -56035 
  -55953   -55885   -55868   -55887   -55894   -55880   -55840   -55764 
  -55663   -55563   -55497   -55479   -55487   -55491   -55489   -55495 
  -55522   -55570   -55628   -55688   -55760   -55858   -55987   -56138 
  -56274   -56347   -56385   -56434   -56477   -56538   -56636   -56701 
  -56690   -56631   -56529   -56412   -56304   -56188   -56030   -55845 
  -55686   -55567   -55491   -55507   -55606   -55713   -55810   -55888 
  -55921   -55931   -55949   -55957   -55965   -55989   -56026   -56099 
  -56214   -56309   -56374   -56451   -56538   -56608   -56659   -56716 
  -56797   -56884   -56968   -57080   -57233   -57418   -57605   -57758 
  -57856   -57867   -57808   -57723   -57612   -57491   -57380   -57245 
  -57078   -56917   -56783   -56682   -56637   -56652   -56705   -56778 
  -56876   -56991   -57084   -57145   -57180   -57198   -57208   -57190 
  -57099   -56951   -56789   -56644   -56538   -56488   -56504   -56546 
  -56554   -56529   -56517   -56539   -56593   -56659   -56724   -56791 
  -56848   -56884   -56918   -56922   -56866   -56783   -56714   -56627 
  -56508   -56413   -56369   -56351   -56340   -56312   -56284   -56301 
  -56354   -56405   -56457   -56493   -56481   -56442   -56378   -56278 
  -56181   -56131   -56106   -56093   -56088   -56103   -56141   -56174 
  -56211   -56258   -56303   -56369   -56471   -56586   -56708   -56818 
  -56863   -56826   -56720   -56551   -56371   -56214   -56072   -55950 
  -55860   -55796   -55768   -55779   -55799   -55831   -55895   -55968 
  -56016   -56056   -56088   -56110   -56160   -56269   -56404   -56528 
  -56639   -56721   -56752   -56755   -56748   -56731   -56728   -56755 
  -56797   -56824   -56828   -56814   -56781   -56710   -56636   -56612 
  -56628   -56648   -56663   -56668   -56674   -56712   -56787   -56860 
  -56916   -56961   -56982   -56952   -56880   -56793   -56718   -56667 
  -56640   -56647   -56694   -56764   -56825   -56836   -56803   -56772 
  -56735   -56673   -56590   -56486   -56373   -56282   -56204   -56137 
  -56107   -56115   -56137   -56189   -56299   -56424   -56523   -56610 
  -56691   -56718   -56677   -56608   -56535   -56443   -56355   -56304 
  -56278   -56263   -56257   -56270   -56290   -56299   -56293   -56309 
  -56377   -56485   -56612   -56758   -56882   -56930   -56911   -56860 
  -56783   -56702   -56644   -56590   -56524   -56450   -56361   -56253 
  -56141   -56041   -55966   -55944   -55971   -56042   -56166   -56317 
  -56443   -56535   -56590   -56590   -56559   -56539   -56542   -56583 
  -56670   -56775   -56870   -56914   -56901   -56829   -56687   -56492 
  -56297   -56122   -55988   -55933   -55975   -56077   -56174   -56224 
  -56235   -56203   -56108   -55988   -55895   -55844   -55844   -55917 
  -56049   -56189   -56308   -56405   -56469   -56485   -56475   -56462 
  -56444   -56442   -56470   -56517   -56583   -56681   -56783   -56862 
  -56914   -56952   -56986   -57011   -57015   -57009   -56999   -56976 
  -56928   -56848   -56744   -56623   -56475   -56308   -56158   -56061 
  -56018   -56023   -56103   -56258   -56448   -56659   -56902   -57154 
  -57379   -57527   -57573   -57547   -57478   -57365   -57230   -57113 
  -57040   -57007   -56992   -56994   -57018   -57036   -57044   -57063 
  -57068   -57051   -57037   -57049   -57105   -57202   -57285   -57338 
  -57395   -57442   -57439   -57387   -57303   -57192   -57056   -56913 
  -56783   -56650   -56505   -56370   -56253   -56169   -56124   -56118 
  -56162   -56235   -56319   -56436   -56551   -56613   -56619   -56571 
  -56484   -56376   -56249   -56115   -55996   -55864   -55709   -55570 
  -55482   -55451   -55462   -55498   -55547   -55586   -55602   -55618 
  -55667   -55733   -55806   -55927   -56115   -56327   -56543   -56768 
  -56976   -57118   -57187   -57184   -57109   -56988   -56860   -56733 
  -56605   -56496   -56430   -56407   -56398   -56384   -56347   -56289 
  -56223   -56185   -56181   -56192   -56238   -56340   -56471   -56613 
  -56771   -56925   -57051   -57142   -57191   -57191   -57167   -57127 
  -57051   -56934   -56776   -56559   -56328   -56138   -55977   -55849 
  -55780   -55771   -55800   -55848   -55926   -56049   -56155   -56181 
  -56134   -56034   -55904   -55782   -55686   -55626   -55622   -55659 
  -55702   -55764   -55848   -55918   -55972   -56031   -56095   -56187 
  -56330   -56496   -56641   -56758   -56821   -56814   -56772   -56702 
  -56560   -56388   -56277   -56226   -56211   -56262   -56358   -56428 
  -56455   -56474   -56504   -56525   -56548   -56592   -56648   -56693 
  -56718   -56748   -56768   -56736   -56678   -56637   -56623   -56635 
  -56670   -56714   -56768   -56816   -56828   -56829   -56835   -56829 
  -56837   -56872   -56911   -56933   -56911   -56841   -56768   -56716 
  -56654   -56583   -56542   -56528   -56521   -56548   -56604   -56640 
  -56662   -56702   -56744   -56772   -56798   -56817   -56809   -56779 
  -56759   -56749   -56721   -56690   -56698   -56735   -56794   -56883 
  -56988   -57103   -57214   -57277   -57256   -57161   -57038   -56916 
  -56798   -56713   -56660   -56609   -56574   -56571   -56556   -56497 
  -56432   -56409   -56413   -56439   -56511   -56609   -56690   -56763 
  -56835   -56864   -56837   -56790   -56731   -56648   -56565   -56497 
  -56442   -56378   -56286   -56166   -56045   -55938   -55845   -55757 
  -55679   -55617   -55544   -55455   -55410   -55431   -55482   -55564 
  -55672   -55757   -55807   -55852   -55890   -55903   -55907   -55927 
  -55966   -56011   -56054   -56092   -56122   -56147   -56170   -56193 
  -56242   -56344   -56474   -56583   -56673   -56744   -56778   -56778 
  -56767   -56760   -56767   -56801   -56875   -56965   -57034   -57083 
  -57117   -57115   -57087   -57037   -56970   -56891   -56799   -56737 
  -56749   -56803   -56867   -56948   -57017   -57053   -57092   -57119 
  -57090   -57030   -56949   -56829   -56682   -56529   -56405   -56311 
  -56196   -56089   -56030   -55999   -56002   -56047   -56116   -56189 
  -56261   -56339   -56424   -56478   -56484   -56465   -56463   -56490 
  -56538   -56604   -56660   -56701   -56760   -56835   -56898   -56943 
  -56957   -56959   -56988   -57030   -57049   -57037   -57003   -56952 
  -56880   -56791   -56705   -56617   -56538   -56494   -56488   -56521 
  -56608   -56724   -56817   -56845   -56795   -56685   -56574   -56477 
  -56362   -56236   -56107   -55968   -55829   -55696   -55563   -55444 
  -55360   -55314   -55297   -55294   -55316   -55362   -55412   -55475 
  -55576   -55703   -55840   -55996   -56168   -56331   -56479   -56600 
  -56695   -56759   -56772   -56748   -56718   -56678   -56637   -56625 
  -56621   -56602   -56601   -56616   -56620   -56643   -56709   -56789 
  -56837   -56843   -56828   -56781   -56697   -56594   -56474   -56344 
  -56218   -56111   -56056   -56052   -56073   -56124   -56197   -56277 
  -56376   -56488   -56579   -56632   -56658   -56668   -56681   -56729 
  -56799   -56837   -56833   -56798   -56729   -56658   -56612   -56577 
  -56531   -56496   -56475   -56442   -56398   -56377   -56363   -56349 
  -56362   -56434   -56570   -56755   -56982   -57229   -57431   -57570 
  -57676   -57744   -57784   -57824   -57881   -57954   -58048   -58163 
  -58297   -58419   -58499   -58534   -58526   -58463   -58369   -58255 
  -58109   -57948   -57796   -57654   -57500   -57322   -57144   -56971 
  -56787   -56614   -56481   -56380   -56293   -56216   -56146   -56081 
  -56012   -55927   -55845   -55779   -55717   -55676   -55687   -55721 
  -55749   -55790   -55831   -55848   -55858   -55863   -55826   -55776 
  -55755   -55768   -55810   -55863   -55912   -55949   -55944   -55894 
  -55796   -55652   -55493   -55366   -55279   -55229   -55227   -55237 
  -55219   -55177   -55135   -55085   -55032   -55008   -55028   -55104 
  -55239   -55386   -55520   -55645   -55749   -55830   -55912   -55989 
  -56045   -56081   -56116   -56160   -56196   -56207   -56209   -56236 
  -56286   -56358   -56471   -56610   -56725   -56826   -56925   -56986 
  -57011   -57028   -57010   -56940   -56843   -56754   -56678   -56614 
  -56569   -56535   -56509   -56478   -56417   -56346   -56286   -56245 
  -56257   -56326   -56407   -56485   -56573   -56667   -56749   -56816 
  -56870   -56905   -56920   -56916   -56876   -56797   -56701   -56628 
  -56574   -56512   -56470   -56482   -56540   -56627   -56732   -56833 
  -56916   -56979   -57040   -57086   -57091   -57076   -57088   -57140 
  -57198   -57271   -57377   -57480   -57569   -57669   -57746   -57766 
  -57771   -57802   -57811   -57755   -57676   -57592   -57466   -57296 
  -57117   -56925   -56725   -56547   -56413   -56319   -56257   -56224 
  -56199   -56146   -56060   -55965   -55903   -55900   -55953   -56038 
  -56120   -56181   -56220   -56228   -56205   -56177   -56169   -56170 
  -56173   -56196   -56224   -56227   -56215   -56199   -56177   -56185 
  -56249   -56343   -56451   -56558   -56656   -56762   -56884   -57022 
  -57167   -57315   -57462   -57595   -57689   -57717   -57673   -57586 
  -57485   -57365   -57226   -57091   -56971   -56844   -56705   -56589 
  -56515   -56451   -56373   -56297   -56227   -56150   -56085   -56047 
  -56008   -55965   -55939   -55941   -55954   -55964   -55987   -56026 
  -56058   -56106   -56196   -56312   -56434   -56546   -56629   -56673 
  -56686   -56686   -56682   -56667   -56644   -56631   -56604   -56544 
  -56492   -56446   -56381   -56326   -56301   -56278   -56243   -56222 
  -56212   -56188   -56155   -56133   -56124   -56130   -56138   -56135 
  -56116   -56101   -56120   -56160   -56176   -56166   -56154   -56155 
  -56180   -56222   -56282   -56359   -56431   -56484   -56508   -56512 
  -56520   -56529   -56546   -56597   -56682   -56756   -56783   -56771 
  -56735   -56664   -56560   -56442   -56322   -56215   -56130   -56079 
  -56060   -56046   -56052   -56080   -56081   -56050   -56016   -55952 
  -55861   -55811   -55792   -55744   -55694   -55676   -55651   -55614 
  -55615   -55663   -55753   -55892   -56049   -56207   -56361   -56475 
  -56556   -56636   -56702   -56745   -56782   -56803   -56801   -56805 
  -56820   -56806   -56755   -56693   -56631   -56575   -56547   -56543 
  -56551   -56585   -56647   -56712   -56758   -56760   -56695   -56592 
  -56509   -56461   -56430   -56407   -56370   -56320   -56276   -56242 
  -56242   -56280   -56315   -56334   -56367   -56421   -56458   -56474 
  -56478   -56465   -56474   -56538   -56624   -56736   -56882   -57029 
  -57152   -57254   -57342   -57411   -57470   -57538   -57609   -57673 
  -57708   -57716   -57717   -57707   -57661   -57592   -57512   -57423 
  -57350   -57291   -57219   -57148   -57094   -57032   -56959   -56898 
  -56862   -56863   -56902   -56951   -57005   -57065   -57115   -57138 
  -57144   -57127   -57086   -57018   -56910   -56766   -56633   -56515 
  -56392   -56312   -56307   -56342   -56405   -56497   -56569   -56585 
  -56552   -56482   -56382   -56259   -56124   -55992   -55869   -55744 
  -55607   -55489   -55417   -55406   -55447   -55522   -55629   -55752 
  -55875   -56004   -56127   -56199   -56205   -56174   -56145   -56143 
  -56169   -56203   -56228   -56249   -56269   -56296   -56320   -56312 
  -56269   -56201   -56118   -56046   -56014   -56014   -56042   -56100 
  -56161   -56203   -56231   -56257   -56289   -56340   -56404   -56493 
  -56619   -56751   -56875   -57007   -57137   -57252   -57357   -57449 
  -57507   -57508   -57468   -57410   -57334   -57231   -57095   -56947 
  -56832   -56778   -56770   -56789   -56805   -56787   -56751   -56725 
  -56705   -56668   -56647   -56658   -56687   -56751   -56859   -56955 
  -56986   -56956   -56895   -56820   -56741   -56667   -56598   -56538 
  -56486   -56448   -56434   -56435   -56457   -56513   -56589   -56666 
  -56745   -56810   -56857   -56891   -56889   -56843   -56781   -56700 
  -56566   -56400   -56257   -56130   -55980   -55827   -55687   -55534 
  -55379   -55251   -55132   -55024   -54957   -54919   -54918   -54957 
  -54989   -55000   -55027   -55062   -55088   -55121   -55170   -55220 
  -55290   -55379   -55448   -55482   -55486   -55463   -55435   -55426 
  -55433   -55464   -55545   -55652   -55734   -55783   -55814   -55831 
  -55837   -55850   -55876   -55903   -55946   -56029   -56157   -56293 
  -56407   -56502   -56587   -56674   -56797   -56951   -57123   -57322 
  -57527   -57709   -57874   -58028   -58153   -58224   -58245   -58253 
  -58248   -58218   -58179   -58137   -58067   -57973   -57902   -57854 
  -57782   -57703   -57643   -57595   -57553   -57504   -57429   -57318 
  -57169   -56999   -56832   -56677   -56558   -56496   -56479   -56494 
  -56543   -56627   -56714   -56776   -56805   -56795   -56749   -56712 
  -56695   -56668   -56640   -56647   -56671   -56682   -56674   -56673 
  -56687   -56695   -56687   -56685   -56662   -56582   -56471   -56374 
  -56312   -56307   -56357   -56431   -56515   -56609   -56712   -56794 
  -56830   -56828   -56833   -56863   -56907   -56980   -57083   -57192 
  -57291   -57380   -57457   -57518   -57543   -57507   -57415   -57276 
