Origin Time       2024/04/02 04:24:00
Lat.              40.133
Long.             141.712
Depth. (km)       71
Mag.              6.0
Station Code      YMTH02
Station Lat.      38.2693
Station Long.     140.2583
Station Height(m) 130
Record Time       2024/04/02 04:25:20
Sampling Freq(Hz) 100Hz
Duration Time(s)  120
Dir.              5
Scale Factor      7845(gal)/8223790
Max. Acc. (gal)   3.945
Last Correction   2024/04/02 04:25:21
Memo.             
[...]
   -4635    -4575    -4480    -4372    -4295    -4295    -4351    -4407 
   -4448    -4483    -4526    -4579    -4608    -4595    -4545    -4459 
   -4330    -4182    -4047    -3954    -3925    -3955    -4000    -4023 
   -4035    -4083    -4189    -4324    -4432    -4479    -4482    -4453 
   -4405    -4342    -4266    -4206    -4203    -4251    -4306    -4329 
   -4307    -4257    -4222    -4230    -4264    -4315    -4419    -4592 
   -4807    -5019    -5166    -5206    -5144    -5015    -4841    -4652 
   -4455    -4255    -4075    -3936    -3839    -3790    -3800    -3858 
   -3943    -4021    -4078    -4112    -4125    -4117    -4077    -3996 
   -3893    -3793    -3711    -3673    -3704    -3804    -3974    -4207 
   -4457    -4664    -4793    -4830    -4774    -4650    -4495    -4333 
   -4194    -4104    -4066    -4072    -4112    -4174    -4243    -4291 
   -4309    -4315    -4338    -4383    -4436    -4487    -4525    -4544 
   -4541    -4504    -4432    -4345    -4267    -4209    -4189    -4237 
   -4374    -4576    -4780    -4942    -5040    -5066    -5028    -4945 
   -4838    -4735    -4666    -4654    -4692    -4726    -4738    -4742 
   -4735    -4734    -4743    -4731    -4665    -4545    -4396    -4284 
   -4260    -4320    -4422    -4530    -4619    -4679    -4714    -4729 
   -4712    -4660    -4584    -4506    -4433    -4359    -4275    -4199 
   -4164    -4186    -4240    -4305    -4384    -4480    -4552    -4575 
   -4544    -4464    -4360    -4245    -4113    -3990    -3905    -3861 
   -3838    -3832    -3848    -3883    -3943    -4025    -4104    -4172 
   -4249    -4328    -4390    -4418    -4410    -4372    -4318    -4272 
   -4248    -4252    -4275    -4286    -4266    -4213    -4162    -4153 
   -4201    -4282    -4361    -4421    -4456    -4463    -4444    -4401 
   -4341    -4286    -4252    -4245    -4276    -4365    -4503    -4649 
   -4760    -4810    -4801    -4749    -4656    -4536    -4405    -4268 
   -4135    -4025    -3951    -3917    -3950    -4048    -4172    -4280 
   -4347    -4352    -4306    -4259    -4257    -4322    -4449    -4611 
   -4777    -4915    -4993    -5011    -4976    -4887    -4743    -4557 
   -4368    -4222    -4137    -4108    -4114    -4155    -4222    -4290 
   -4340    -4375    -4411    -4465    -4546    -4635    -4680    -4648 
   -4558    -4449    -4341    -4236    -4141    -4083    -4089    -4152 
   -4252    -4364    -4464    -4530    -4575    -4612    -4630    -4608 
   -4554    -4469    -4364    -4261    -4176    -4117    -4093    -4094 
   -4106    -4117    -4139    -4199    -4309    -4471    -4662    -4831 
   -4927    -4938    -4887    -4814    -4758    -4730    -4712    -4700 
   -4685    -4654    -4603    -4552    -4523    -4531    -4569    -4622 
   -4665    -4668    -4621    -4509    -4341    -4178    -4048    -3944 
   -3870    -3851    -3894    -3986    -4114    -4260    -4361    -4382 
   -4325    -4244    -4210    -4264    -4401    -4580    -4739    -4818 
   -4806    -4753    -4726    -4742    -4776    -4801    -4806    -4774 
   -4730    -4695    -4654    -4610    -4585    -4604    -4666    -4720 
   -4704    -4621    -4510    -4407    -4326    -4264    -4234    -4237 
   -4256    -4267    -4237    -4162    -4067    -3983    -3946    -3985 
   -4095    -4236    -4368    -4475    -4542    -4550    -4482    -4338 
   -4159    -4010    -3947    -3964    -3986    -3969    -3937    -3935 
   -3983    -4051    -4106    -4149    -4175    -4167    -4118    -4052 
   -4035    -4113    -4286    -4507    -4719    -4872    -4942    -4935 
   -4868    -4738    -4571    -4422    -4330    -4299    -4307    -4329 
   -4352    -4371    -4376    -4359    -4317    -4261    -4240    -4287 
   -4386    -4453    -4403    -4240    -4036    -3844    -3705    -3640 
   -3650    -3709    -3786    -3859    -3921    -3991    -4113    -4313 
   -4558    -4779    -4916    -4963    -4957    -4934    -4922    -4916 
   -4897    -4862    -4818    -4765    -4714    -4657    -4558    -4392 
   -4178    -3948    -3731    -3566    -3480    -3474    -3523    -3589 
   -3640    -3661    -3676    -3744    -3902    -4113    -4310    -4465 
   -4581    -4664    -4722    -4769    -4823    -4888    -4942    -4961 
   -4923    -4828    -4706    -4607    -4561    -4526    -4464    -4395 
   -4344    -4297    -4236    -4175    -4129    -4099    -4074    -4050 
   -4048    -4081    -4152    -4263    -4374    -4459    -4549    -4666 
   -4815    -4982    -5148    -5302    -5414    -5441    -5371    -5221 
   -5040    -4889    -4793    -4733    -4677    -4625    -4587    -4569 
   -4580    -4612    -4623    -4576    -4459    -4294    -4143    -4040 
   -3979    -3959    -3993    -4072    -4185    -4315    -4429    -4504 
   -4529    -4511    -4480    -4457    -4463    -4527    -4644    -4770 
   -4884    -4980    -5062    -5116    -5115    -5055    -4965    -4873 
   -4795    -4731    -4665    -4571    -4426    -4218    -3969    -3730 
   -3537    -3410    -3375    -3419    -3523    -3672    -3820    -3929 
   -3986    -3987    -3966    -3958    -3956    -3946    -3921    -3893 
   -3901    -3967    -4087    -4253    -4437    -4599    -4731    -4850 
   -4959    -5051    -5111    -5113    -5019    -4815    -4565    -4356 
   -4240    -4212    -4205    -4167    -4108    -4067    -4059    -4072 
   -4083    -4051    -3978    -3902    -3847    -3813    -3792    -3793 
   -3836    -3929    -4047    -4135    -4155    -4125    -4079    -4056 
   -4082    -4158    -4261    -4378    -4483    -4546    -4563    -4540 
   -4504    -4488    -4509    -4550    -4577    -4575    -4546    -4510 
   -4486    -4472    -4475    -4515    -4599    -4699    -4795    -4873 
   -4923    -4942    -4931    -4892    -4841    -4799    -4769    -4723 
   -4630    -4498    -4364    -4266    -4212    -4206    -4249    -4321 
   -4391    -4437    -4446    -4422    -4379    -4348    -4353    -4367 
   -4351    -4279    -4151    -4016    -3948    -3997    -4166    -4392 
   -4596    -4730    -4793    -4823    -4858    -4880    -4878    -4865 
   -4842    -4837    -4868    -4934    -5030    -5124    -5177    -5154 
   -5049    -4887    -4699    -4523    -4380    -4256    -4152    -4082 
   -4062    -4108    -4212    -4321    -4398    -4446    -4453    -4405 
   -4315    -4213    -4126    -4098    -4143    -4224    -4287    -4299 
   -4264    -4205    -4141    -4082    -4031    -4005    -3998    -4001 
   -4002    -3969    -3893    -3815    -3758    -3736    -3748    -3761 
   -3750    -3720    -3692    -3689    -3709    -3748    -3794    -3831 
   -3863    -3912    -3994    -4110    -4237    -4351    -4448    -4529 
   -4580    -4580    -4527    -4461    -4413    -4379    -4344    -4310 
   -4297    -4332    -4409    -4488    -4556    -4600    -4615    -4611 
   -4590    -4568    -4565    -4585    -4634    -4695    -4716    -4683 
   -4614    -4544    -4495    -4457    -4413    -4344    -4256    -4190 
   -4175    -4222    -4301    -4348    -4326    -4224    -4063    -3919 
   -3858    -3908    -4074    -4313    -4560    -4793    -5005    -5188 
   -5336    -5449    -5525    -5575    -5602    -5610    -5602    -5564 
   -5487    -5354    -5147    -4892    -4617    -4333    -4060    -3798 
   -3568    -3414    -3334    -3289    -3252    -3231    -3258    -3334 
   -3460    -3631    -3812    -3974    -4120    -4275    -4475    -4735 
   -5030    -5310    -5525    -5629    -5628    -5566    -5482    -5395 
   -5310    -5223    -5124    -5017    -4911    -4796    -4649    -4476 
   -4311    -4168    -4023    -3862    -3723    -3655    -3678    -3770 
   -3875    -3933    -3921    -3858    -3771    -3680    -3631    -3680 
   -3825    -4021    -4224    -4401    -4536    -4637    -4729    -4826 
   -4930    -5027    -5088    -5096    -5058    -4990    -4901    -4816 
   -4753    -4696    -4619    -4515    -4384    -4252    -4148    -4071 
   -4009    -3927    -3819    -3724    -3667    -3642    -3631    -3627 
   -3638    -3676    -3736    -3825    -3964    -4171    -4426    -4683 
   -4891    -5020    -5061    -5035    -4970    -4895    -4854    -4895 
   -5013    -5162    -5275    -5310    -5263    -5151    -5020    -4916 
   -4862    -4837    -4807    -4760    -4706    -4656    -4612    -4577 
   -4545    -4515    -4495    -4488    -4479    -4436    -4356    -4283 
   -4244    -4244    -4267    -4274    -4243    -4187    -4128    -4104 
   -4137    -4201    -4257    -4271    -4220    -4122    -4028    -3966 
   -3940    -3943    -3958    -3981    -3994    -3978    -3942    -3920 
   -3952    -4056    -4206    -4344    -4423    -4430    -4367    -4247 
   -4098    -3946    -3812    -3728    -3700    -3701    -3711    -3734 
   -3802    -3931    -4070    -4139    -4093    -3958    -3824    -3773 
   -3804    -3866    -3936    -4031    -4147    -4263    -4341    -4338 
   -4248    -4112    -3993    -3917    -3878    -3855    -3839    -3838 
   -3855    -3893    -3946    -3996    -4001    -3947    -3865    -3813 
   -3827    -3889    -3967    -4036    -4086    -4125    -4163    -4217 
   -4302    -4415    -4568    -4766    -4990    -5189    -5305    -5323 
   -5242    -5081    -4903    -4765    -4671    -4595    -4523    -4463 
   -4449    -4517    -4645    -4783    -4876    -4873    -4757    -4572 
   -4392    -4270    -4226    -4251    -4284    -4280    -4244    -4189 
   -4129    -4085    -4052    -4004    -3910    -3767    -3616    -3511 
   -3487    -3549    -3662    -3780    -3877    -3952    -4016    -4083 
   -4175    -4306    -4482    -4688    -4881    -5013    -5076    -5081 
   -5059    -5050    -5085    -5192    -5379    -5593    -5788    -5964 
   -6100    -6161    -6142    -6041    -5883    -5725    -5598    -5503 
   -5422    -5332    -5228    -5117    -5027    -4982    -4984    -5017 
   -5058    -5070    -5043    -4996    -4989    -5067    -5212    -5355 
   -5437    -5418    -5309    -5170    -5073    -5057    -5103    -5167 
   -5227    -5285    -5351    -5417    -5459    -5447    -5360    -5211 
   -5032    -4850    -4687    -4556    -4452    -4379    -4333    -4297 
   -4256    -4199    -4121    -4040    -3978    -3936    -3897    -3838 
   -3761    -3705    -3677    -3657    -3631    -3592    -3527    -3431 
   -3307    -3168    -3021    -2878    -2748    -2650    -2616    -2675 
   -2839    -3092    -3407    -3731    -3993    -4143    -4217    -4260 
   -4298    -4351    -4417    -4480    -4518    -4511    -4438    -4290 
   -4064    -3788    -3515    -3307    -3179    -3114    -3094    -3117 
   -3188    -3307    -3443    -3551    -3623    -3705    -3842    -4024 
   -4214    -4380    -4507    -4608    -4710    -4823    -4959    -5104 
   -5211    -5232    -5147    -4968    -4742    -4521    -4320    -4149 
   -4028    -3960    -3939    -3950    -3967    -3989    -4035    -4106 
   -4194    -4284    -4361    -4417    -4464    -4503    -4510    -4477 
   -4402    -4284    -4144    -4001    -3878    -3789    -3740    -3726 
   -3739    -3792    -3877    -3990    -4125    -4268    -4417    -4573 
   -4727    -4866    -4980    -5070    -5144    -5221    -5316    -5410 
   -5466    -5454    -5381    -5283    -5177    -5047    -4888    -4706 
   -4479    -4197    -3885    -3609    -3441    -3411    -3492    -3626 
   -3748    -3825    -3874    -3915    -3939    -3933    -3902    -3856 
   -3807    -3763    -3735    -3712    -3699    -3726    -3792    -3873 
   -3956    -4027    -4082    -4122    -4149    -4183    -4229    -4261 
   -4270    -4261    -4257    -4266    -4259    -4201    -4094    -3970 
   -3862    -3794    -3771    -3781    -3805    -3852    -3936    -4072 
   -4278    -4549    -4858    -5163    -5408    -5544    -5562    -5491 
   -5393    -5329    -5335    -5400    -5491    -5578    -5599    -5505 
   -5300    -5026    -4722    -4432    -4228    -4160    -4213    -4345 
   -4502    -4627    -4704    -4746    -4784    -4837    -4878    -4901 
   -4942    -5031    -5162    -5301    -5413    -5487    -5529    -5530 
   -5482    -5382    -5244    -5070    -4854    -4607    -4355    -4105 
   -3874    -3674    -3497    -3337    -3206    -3117    -3069    -3059 
   -3088    -3171    -3321    -3526    -3744    -3921    -4032    -4091 
   -4144    -4251    -4438    -4676    -4903    -5074    -5194    -5293 
   -5390    -5471    -5516    -5539    -5556    -5574    -5606    -5661 
   -5763    -5942    -6199    -6494    -6779    -6994    -7084    -7024 
   -6794    -6393    -5864    -5267    -4658    -4072    -3527    -3041 
   -2647    -2411    -2417    -2710    -3275    -4055    -4962    -5891 
   -6740    -7420    -7847    -7954    -7747    -7295    -6640    -5823 
   -4942    -4129    -3497    -3087    -2856    -2712    -2577    -2428 
   -2280    -2128    -1938    -1705    -1458    -1235    -1069     -978 
    -982    -1104    -1355    -1732    -2196    -2694    -3179    -3596 
   -3894    -4075    -4156    -4143    -4028    -3815    -3527    -3188 
   -2837    -2533    -2344    -2320    -2458    -2722    -3079    -3472 
   -3835    -4124    -4336    -4494    -4637    -4797    -4982    -5162 
   -5336    -5499    -5603    -5591    -5447    -5186    -4845    -4490 
   -4203    -4033    -3978    -4023    -4143    -4311    -4513    -4742 
   -4980    -5184    -5320    -5383    -5395    -5385    -5379    -5402 
   -5440    -5439    -5336    -5077    -4644    -4087    -3493    -2956 
   -2535    -2218    -1993    -1869    -1834    -1872    -2000    -2228 
   -2554    -2955    -3393    -3827    -4237    -4634    -5013    -5371 
   -5707    -6030    -6370    -6789    -7285    -7790    -8205    -8457 
   -8523    -8397    -8090    -7649    -7098    -6461    -5787    -5147 
   -4603    -4202    -3936    -3767    -3670    -3616    -3569    -3499 
   -3385    -3235    -3109    -3056    -3073    -3119    -3150    -3150 
   -3171    -3285    -3530    -3877    -4251    -4557    -4737    -4777 
   -4711    -4615    -4568    -4607    -4720    -4855    -4958    -5000 
   -4976    -4911    -4841    -4769    -4693    -4603    -4480    -4310 
   -4129    -4006    -4001    -4122    -4325    -4530    -4656    -4660 
   -4595    -4529    -4484    -4455    -4457    -4518    -4619    -4725 
   -4818    -4876    -4858    -4725    -4475    -4174    -3920    -3807 
   -3878    -4112    -4449    -4814    -5136    -5395    -5609    -5783 
   -5921    -6021    -6060    -6021    -5914    -5786    -5697    -5683 
   -5734    -5790    -5752    -5532    -5100    -4513    -3871    -3273 
   -2778    -2407    -2161    -2019    -1976    -2034    -2158    -2307 
   -2465    -2639    -2847    -3106    -3407    -3730    -4056    -4407 
   -4797    -5188    -5508    -5699    -5744    -5674    -5562    -5478 
   -5445    -5427    -5348    -5138    -4768    -4288    -3765    -3273 
   -2924    -2771    -2813    -3019    -3312    -3580    -3740    -3766 
   -3709    -3665    -3709    -3870    -4135    -4464    -4776    -4962 
   -4963    -4770    -4444    -4124    -3935    -3905    -4004    -4176 
   -4375    -4560    -4707    -4823    -4947    -5123    -5368    -5665 
   -5931    -6104    -6176    -6166    -6096    -5988    -5871    -5768 
   -5670    -5544    -5381    -5184    -4970    -4747    -4496    -4199 
   -3839    -3404    -2929    -2463    -2038    -1694    -1452    -1287 
   -1171    -1119    -1152    -1308    -1620    -2073    -2597    -3121 
   -3599    -4009    -4338    -4572    -4714    -4770    -4754    -4691 
   -4606    -4519    -4469    -4510    -4683    -4974    -5289    -5545 
   -5714    -5783    -5756    -5637    -5395    -5013    -4527    -3998 
   -3483    -3041    -2740    -2619    -2686    -2924    -3291    -3708 
   -4094    -4409    -4653    -4833    -4946    -4996    -4977    -4878 
   -4726    -4577    -4441    -4305    -4179    -4077    -4024    -4062 
   -4167    -4284    -4379    -4429    -4440    -4434    -4399    -4320 
   -4232    -4201    -4282    -4482    -4750    -5027    -5294    -5551 
   -5773    -5907    -5911    -5764    -5454    -5026    -4600    -4291 
   -4159    -4207    -4391    -4657    -4954    -5233    -5462    -5622 
   -5707    -5726    -5711    -5699    -5686    -5616    -5458    -5250 
   -5035    -4847    -4720    -4668    -4685    -4754    -4855    -4968 
   -5058    -5080    -4977    -4712    -4311    -3843    -3392    -3049 
   -2863    -2839    -2961    -3199    -3488    -3767    -4013    -4240 
   -4472    -4725    -4974    -5174    -5319    -5448    -5579    -5698 
   -5796    -5868    -5921    -5988    -6048    -6012    -5823    -5475 
   -5030    -4584    -4191    -3856    -3569    -3310    -3084    -2916 
   -2837    -2918    -3190    -3576    -3940    -4160    -4186    -4070 
   -3885    -3682    -3524    -3457    -3497    -3627    -3801    -3973 
   -4110    -4201    -4260    -4325    -4391    -4436    -4437    -4371 
   -4212    -3986    -3766    -3596    -3504    -3500    -3580    -3716 
   -3873    -4031    -4195    -4380    -4596    -4828    -5019    -5103 
   -5050    -4864    -4568    -4209    -3869    -3645    -3576    -3618 
   -3667    -3615    -3422    -3140    -2851    -2623    -2488    -2447 
   -2504    -2673    -2948    -3306    -3712    -4122    -4504    -4847 
   -5142    -5378    -5560    -5707    -5813    -5849    -5776    -5532 
   -5112    -4611    -4151    -3796    -3558    -3433    -3419    -3516 
   -3681    -3847    -3981    -4091    -4180    -4247    -4295    -4334 
   -4364    -4376    -4355    -4299    -4241    -4221    -4282    -4452 
   -4726    -5054    -5354    -5548    -5609    -5549    -5401    -5185 
   -4908    -4618    -4394    -4287    -4278    -4302    -4321    -4371 
   -4494    -4683    -4876    -4995    -4985    -4838    -4590    -4288 
   -3983    -3713    -3515    -3415    -3407    -3484    -3607    -3724 
   -3843    -3987    -4176    -4442    -4779    -5147    -5483    -5709 
   -5767    -5667    -5494    -5354    -5323    -5394    -5482    -5476 
   -5341    -5138    -4938    -4807    -4796    -4891    -5034    -5175 
   -5273    -5312    -5305    -5251    -5174    -5113    -5074    -5067 
   -5098    -5140    -5170    -5188    -5179    -5119    -5009    -4865 
   -4695    -4533    -4429    -4409    -4457    -4541    -4630    -4679 
   -4633    -4482    -4256    -4000    -3743    -3507    -3300    -3117 
   -2925    -2716    -2512    -2350    -2297    -2420    -2714    -3090 
   -3454    -3766    -4016    -4183    -4249    -4218    -4136    -4093 
   -4147    -4276    -4419    -4513    -4554    -4608    -4738    -4976 
   -5292    -5603    -5821    -5891    -5800    -5599    -5390    -5255 
   -5225    -5286    -5400    -5521    -5616    -5638    -5559    -5398 
   -5204    -5000    -4822    -4689    -4592    -4526    -4499    -4498 
   -4492    -4455    -4364    -4222    -4067    -3939    -3834    -3736 
   -3635    -3532    -3456    -3411    -3372    -3323    -3280    -3265 
   -3294    -3337    -3335    -3271    -3179    -3087    -2974    -2814 
   -2637    -2516    -2515    -2608    -2741    -2893    -3048    -3194 
   -3316    -3406    -3464    -3481    -3435    -3318    -3130    -2894 
   -2670    -2538    -2558    -2754    -3111    -3581    -4068    -4465 
   -4722    -4850    -4881    -4851    -4810    -4800    -4843    -4945 
   -5103    -5279    -5445    -5589    -5695    -5768    -5829    -5856 
   -5822    -5719    -5537    -5304    -5109    -5022    -5055    -5190 
   -5371    -5539    -5659    -5732    -5780    -5806    -5790    -5728 
   -5610    -5449    -5271    -5111    -5020    -5022    -5107    -5240 
