Origin Time       2025/03/30 21:30:00
Lat.              38.535
Long.             142.295
Depth. (km)       44
Mag.              4.3
Station Code      IWT009
Station Lat.      39.0190
Station Long.     141.4053
Station Height(m) 148
Record Time       2025/03/30 21:31:12
Sampling Freq(Hz) 100Hz
Duration Time(s)  69
Dir.              E-W
Scale Factor      7845(gal)/8223790
Max. Acc. (gal)   5.754
Last Correction   2025/03/30 21:31:11
Memo.             
[...]
    4920     4926     4934     4927     4918     4931     4935     4919 
    4927     4943     4923     4903     4924     4946     4930     4914 
    4920     4932     4930     4922     4932     4932     4916     4923 
    4935     4928     4922     4919     4931     4934     4922     4926 
    4928     4918     4922     4934     4931     4928     4924     4918 
    4928     4935     4919     4922     4939     4931     4918     4924 
    4930     4927     4926     4926     4931     4934     4922     4915 
    4924     4938     4932     4920     4926     4922     4916     4941 
    4946     4912     4909     4938     4936     4918     4922     4936 
    4926     4919     4934     4934     4922     4922     4930     4932 
    4926     4919     4924     4931     4928     4928     4932     4920 
    4915     4934     4936     4916     4922     4938     4936     4924 
    4919     4920     4922     4932     4936     4924     4928     4928 
    4914     4928     4942     4922     4920     4941     4926     4908 
    4932     4943     4922     4916     4923     4926     4932     4934 
    4924     4920     4926     4934     4923     4916     4939     4942 
    4915     4912     4934     4934     4923     4920     4920     4931 
    4945     4928     4914     4931     4932     4922     4932     4927 
    4919     4935     4927     4914     4938     4942     4915     4915 
    4928     4931     4930     4924     4928     4927     4914     4927 
    4943     4922     4908     4922     4938     4942     4927     4914 
    4926     4935     4923     4922     4934     4931     4918     4919 
    4938     4938     4919     4914     4927     4932     4928     4928 
    4931     4930     4926     4922     4930     4934     4923     4924 
    4936     4931     4918     4922     4941     4941     4916     4916 
    4939     4935     4920     4922     4927     4932     4930     4918 
    4928     4936     4922     4924     4932     4915     4916     4938 
    4936     4924     4916     4919     4938     4932     4911     4924 
    4938     4927     4928     4922     4912     4936     4941     4912 
    4916     4941     4936     4918     4918     4928     4927     4924 
    4930     4927     4919     4927     4934     4926     4922     4922 
    4926     4934     4930     4920     4922     4931     4934     4923 
    4923     4936     4932     4920     4942     4962     4936     4918 
    4928     4915     4874     4854     4868     4885     4905     4930 
    4966     5035     5080     5034     4954     4918     4927     4935 
    4888     4781     4692     4731     4935     5194     5333     5278 
    5077     4788     4496     4349     4444     4750     5093     5277 
    5270     5197     5211     5298     5200     4758     4193     3971 
    4460     5302     5587     5148     4864     5236     5440     4668 
    3770     4166     5645     6466     5533     3950     3709     4837 
    5456     4781     4101     4903     6696     7150     5248     2713 
    1938     3739     6353     7310     6273     4610     3627     3863 
    4860     5486     5282     4946     5103     5687     5898     4938 
    3604     3294     4023     4984     5598     5838     5950     5760 
    5008     4017     3678     4473     5485     5611     4827     4047 
    4511     5913     6467     5481     3948     3315     4167     5525 
    6002     5572     4957     4452     4480     4963     4920     4407 
    4463     5255     5779     5225     4357     4271     4830     5451 
    5609     5167     4816     4943     5062     4796     4483     4531 
    4801     5103     5254     4903     4328     4266     4841     5663 
    6116     5679     4749     4320     4637     4919     4608     4237 
    4429     4959     5344     5545     5671     5517     4970     4368 
    4144     4299     4615     5003     5310     5447     5293     4837 
    4545     4607     4822     5150     5462     5441     4909     4441 
    4791     5259     4996     4576     4468     4618     4969     5082 
    4922     4908     5017     5101     5074     4958     4926     4932 
    4992     5259     5422     4978     4187     3898     4469     5425 
    5896     5530     4887     4500     4436     4675     5081     5219 
    4862     4584     4919     5513     5668     5036     4145     4006 
    4699     5366     5544     5313     4980     4931     4989     4849 
    4648     4495     4585     5015     5305     5067     4704     4801 
    5208     5422     5144     4522     4301     4699     5121     5319 
    5298     4989     4600     4541     4957     5431     5379     4730 
    4236     4537     5049     5178     5107     4932     4843     4903 
    4850     4850     4999     4999     4851     4704     4792     5269 
    5552     5112     4407     4349     5054     5536     5256     4652 
    4282     4561     5167     5375     5162     4774     4418     4521 
    5058     5470     5425     4945     4479     4608     5013     5113 
    5131     5078     4769     4660     4853     5020     5059     4914 
    4864     5023     5124     5219     5124     4625     4275     4471 
    4855     5069     5177     5327     5471     5285     4634     4257 
    4684     5208     5179     4838     4617     4715     5016     5293 
    5374     5039     4441     4197     4550     5225     5744     5474 
    4552     4175     4857     5628     5490     4766     4468     4683 
    4889     4980     5020     5016     4845     4644     4849     5143 
    5013     4820     4954     5236     5229     4726     4267     4477 
    5208     5729     5317     4376     4266     5047     5489     5201 
    4652     4413     4785     5198     5097     4893     5008     5250 
    5271     4882     4356     4268     4708     5227     5363     5086 
    4889     4970     4985     4854     4762     4768     4924     5204 
    5227     4860     4592     4749     5109     5219     4928     4707 
    4872     5044     4869     4615     4683     5043     5354     5248 
    4899     4815     4934     4881     4633     4594     4974     5190 
    4976     4943     5248     5379     4981     4369     4315     4824 
    5150     4988     4679     4722     5135     5452     5452     5139 
    4658     4418     4536     4904     5343     5289     4799     4739 
    4957     4783     4658     4958     5239     5196     4854     4568 
    4743     5138     5173     4878     4807     4907     4753     4677 
    5115     5482     5097     4564     4665     4999     5139     5115 
    4807     4521     4723     5127     5231     5000     4714     4803 
    5219     5233     4669     4266     4619     5281     5389     5173 
    5161     5027     4714     4563     4629     4881     5105     5078 
    4945     4842     4766     4722     4760     5001     5306     5344 
    5111     4870     4868     4922     4722     4638     4888     4957 
    4656     4490     5053     5890     5732     4757     4301     4565 
    4974     5144     4914     4681     4777     4907     4878     4823 
    4932     5267     5501     5173     4483     4202     4696     5360 
    5306     4803     4810     5206     5235     4838     4540     4622 
    4899     5058     4968     4865     4930     4899     4826     5067 
    5347     5173     4703     4463     4749     5347     5427     4545 
    3817     4425     5575     5934     5629     5152     4563     4234 
    4452     4986     5370     5080     4413     4264     4873     5586 
    5630     5163     4846     4793     4849     4963     5005     4703 
    4392     4650     5121     5400     5224     4455     4168     4977 
    5848     5833     4949     4128     4155     4762     5358     5359 
    4847     4712     5109     5341     5046     4429     4113     4607 
    5493     5790     5194     4433     4418     4974     5082     4793 
    5070     5724     5607     4646     3970     4153     4760     5208 
    5132     4760     4830     5359     5563     5200     4617     4278 
    4627     5298     5363     4747     4274     4490     5112     5668 
    5684     4920     4322     4618     5125     5293     4858     4051 
    4102     5347     6513     6119     4195     3010     4002     5709 
    6303     5644     4818     4496     4320     4234     4594     5235 
    5711     5764     5404     4669     3909     3877     4614     5482 
    5921     5499     4558     4016     4315     5354     6111     5583 
    4473     3867     4079     4909     5601     5779     5518     4865 
    4268     4122     4459     5057     5466     5516     5262     4869 
    4486     4206     4510     5497     6177     5616     4310     3707 
    4347     5475     5956     5242     4288     4247     4716     5023 
    5120     4909     4715     5100     5652     5555     4743     3935 
    4059     5022     5618     5410     4911     4553     4623     5117 
    5725     5737     4718     3628     3670     4880     6124     6089 
    4900     3874     4095     5231     5775     5364     4799     4573 
    4962     5447     5124     4336     4063     4550     5339     5734 
    5312     4649     4648     5124     5167     4484     4031     4596 
    5460     5772     5458     4816     4580     4943     5039     4506 
    4136     4644     5651     5952     5028     3998     4194     5386 
    6110     5385     4051     3790     4720     5571     5690     5211 
    4596     4428     4739     5124     4988     4287     4233     5225 
    6085     6068     5285     4374     4014     4336     5015     5277 
    4806     4382     4675     5395     5694     5344     4926     4687 
    4529     4468     4618     5123     5665     5614     4873     4090 
    4070     4780     5381     5503     5391     5174     4789     4388 
    4483     5051     5267     4882     4621     4914     5350     5248 
    4606     4360     4841     5236     5131     4766     4681     5275 
    5827     5405     4320     3762     4288     5032     5175     5194 
    5508     5498     4905     4394     4384     4831     5456     5670 
    5228     4506     3936     4016     4943     5863     5817     5013 
    4243     4144     4916     5734     5659     4943     4477     4766 
    5247     4926     4185     4243     5190     6022     5680     4233 
    3453     4519     5992     6049     4876     3883     4233     5584 
    6130     5169     4168     4263     4872     4990     4618     4619 
    5217     5749     5594     4685     4004     4449     5202     5220 
    4927     5061     5533     5672     4963     4079     4043     4477 
    4731     5008     5367     5603     5512     5070     4725     4550 
    4244     4199     4993     5941     5725     4642     4247     4811 
    5431     5525     5049     4503     4401     4626     4884     4839 
    4482     4587     5370     5957     5741     4881     4267     4398 
    4502     4612     5329     5788     5309     4563     4405     5022 
    5486     5063     4471     4467     4881     5228     5146     4699 
    4438     4754     5235     5286     5090     5077     5216     5179 
    4584     3866     4253     5584     6276     5761     4596     3505 
    3538     4881     6134     6205     5344     4502     4463     4819 
    4704     4367     4480     4985     5397     5400     5273     5351 
    5212     4676     4274     4263     4531     4911     5432     5992 
    5895     4804     3495     3238     4537     6345     6786     5281 
    3653     3599     4626     5493     5557     5219     5015     4766 
    4588     4585     4627     5026     5683     5876     5119     4059 
    3796     4329     5243     5918     5498     4426     3975     4654 
    5869     6285     5242     3808     3653     4814     5625     5347 
    4961     4977     4974     4846     4734     4726     4953     5097 
    4815     4661     4981     5082     4874     5074     5575     5651 
    4955     3991     3909     4652     5100     5151     5151     5155 
    5235     5327     5397     5080     4168     3719     4341     5020 
    5120     5131     5437     5925     5985     5050     3840     3666 
    4369     5073     5663     5790     5211     4614     4253     4160 
    4610     5161     5382     5336     5046     4796     4868     5036 
    4922     4606     4810     5713     6003     4729     3291     3499 
    4957     6165     6237     5185     3917     3561     4629     6280 
    6747     5590     4031     3262     3794     4990     5537     5281 
    5127     5463     5575     4749     3743     3906     5305     6285 
    5525     4314     4182     4642     4914     4989     5306     5398 
    4382     3491     4234     5895     6662     5699     4558     4801 
    5575     5665     4924     4090     4166     4962     5476     5317 
    4787     4517     4870     5216     4758     3947     3797     4463 
    5051     4870     4656     5221     6134     6581     6058     4954 
    3978     3379     3881     5680     7013     6241     4282     3576 
    4561     5344     5020     4274     3593     3071     3053     4045 
    5730     6829     6863     6454     5402     3375     2130     3802 
    7692    10343     9228     5605     2440     1494     2593     3924 
    4367     4553     5104     5981     6489     5911     4783     4083 
    3867     3554     3173     3537     4928     6771     8205     8421 
    6947     4167     1794     1260     2309     4618     7523     8838 
    7060     3188      220      363     2736     5691     8399     9853 
    9364     6797     2782      -63     1001     5024     8306     8463 
    6011     3420     2565     3281     4872     6945     8538     7738 
    3588     -985    -1105     3936     9556    10825     7337     3495 
    3121     5300     6210     4072     1768     2002     3573     5224 
    6477     6339     5873     6552     7009     5929     3658     1138 
     587     3461     7493     9032     7315     5109     4653     4374 
    2997     2905     4692     5637     5335     5256     5732     6521 
    6598     5233     3443     2355     2655     4453     6423     7603 
    7632     5250     1588      893     4307     8122     8452     5189 
    1999     1655     3219     5371     7678     8974     8410     5891 
    2120     -364      693     4712     8417     8383     4946     2096 
    2794     5775     7614     7483     6801     5151     1950      282 
    3283     8425     9961     6197     1459      918     4854     8544 
    8050     4507     1609     1516     3740     6466     8112     7577 
    5344     3431     2528     2315     3275     5571     8078     8775 
    6389     2423      545     2872     6852     8047     6049     4058 
    3543     3526     3753     4900     6670     7649     6863     5012 
    3881     4355     5170     4600     3056     2234     3269     6295 
    9273     9483     6654     2440     -256      963     4648     7438 
    7890     6647     5023     3762     3161     3476     4702     6270 
    6687     5119     3226     3206     4853     6197     6420     5967 
    4916     3794     3526     3977     4541     5043     5448     5440 
    4984     4691     4847     5182     5509     5913     5976     4777 
    3231     3426     5098     6407     6139     4333     2839     3535 
    5845     7438     6756     4425     2511     2798     5088     7137 
    7095     5436     3719     2774     3339     5389     6720     6018 
    4928     4981     5540     5371     4513     3982     4126     4347 
    4325     4334     4662     5594     6987     7406     5663     3306 
    2851     4162     5130     4860     4417     5098     6420     6682 
    5778     4614     3411     2894     3535     4488     5165     5590 
    6006     6520     6501     5499     4252     3711     3931     4178 
    3954     3971     4953     6100     6363     5796     5050     4434 
    3998     4148     4905     5455     5235     4482     4201     5136 
    6261     6064     4627     3495     3983     5166     5182     4455 
    4577     5616     6471     6259     4839     3130     2775     4446 
    6623     6960     4995     3268     4260     6266     6038     4070 
    3083     4145     5942     6408     5479     4669     4480     4630 
    4789     4594     4268     4556     5571     6296     5940     5159 
    4715     4340     3881     3828     4540     5657     6115     5238 
    4067     4244     5367     5695     5150     4800     4891     4846 
    4189     3935     5216     6578     6421     5521     4791     4232 
    3873     3591     3495     4351     6114     7283     6701     4912 
    3593     3781     4472     4333     4029     4918     6605     7200 
    5829     3835     3006     3819     5227     5676     4887     4249 
    5030     6423     6542     5098     3537     3037     3603     4660 
    5467     5613     5273     4680     4638     5788     6914     6264 
    3944     2428     3519     5559     6274     5250     3550     3383 
    5339     7137     6705     4588     3462     4591     6006     5576 
    3734     2809     4104     6374     7635     6925     4868     3099 
    2700     3717     5152     5772     5603     5077     4604     5090 
    6124     6143     4710     2940     2559     4018     5827     6415 
    5767     5227     5518     5563     4450     3491     4267     5788 
    6116     5070     3751     3461     4618     6114     6571     5377 
    3495     3153     4773     6200     5903     4750     4526     5436 
    5872     5023     3761     3199     4126     6195     7348     6010 
    3566     2732     3948     5598     6187     5521     5030     5363 
    5344     4479     3302     2909     4599     7430     8361     6030 
    2882     2151     3677     5292     5872     5528     5217     5487 
    5333     4182     3601     4664     5992     6332     5671     4137 
    2830     3191     4972     6898     7604     6369     4097     2245 
    1875     3473     5983     7670     7654     6247     4919     4082 
    3053     2910     4317     5618     5547     4612     4615     5952 
    6428     5216     3838     3566     4477     5373     5285     4648 
    4348     5022     6237     6596     5599     4283     3859     4168 
    4401     4637     5067     5497     5769     5301     4132     3680 
    4568     5818     6432     5961     4465     2937     2839     4488 
    6498     7372     6866     5512     3910     2836     3115     4502 
    5518     5530     5312     5337     5335     5017     4482     4143 
    4372     4996     5379     5359     5306     5225     4896     4527 
    4581     5227     5929     5582     4012     2960     3888     5618 
    6307     6031     5368     4372     3846     4464     5243     5061 
    4681     5410     6303     5611     4033     3397     4275     5670 
    5672     4136     3283     4240     5867     6781     6694     6003 
    4977     3839     3184     3719     5089     5737     4885     3680 
    3959     5717     6724     5984     4860     4477     4698     4666 
    3979     3805     5077     6481     6389     5028     3701     3464 
    4294     5161     5524     5614     5271     4606     4491     4945 
    5400     5688     5537     5169     4914     4283     3735     4382 
    5524     5682     4877     4214     4294     4757     5201     5682 
    5701     4978     4592     4787     4811     4851     5127     5283 
    5136     4720     4407     4608     5140     5421     5066     4321 
    3994     4599     5553     5880     5435     4750     4383     4494 
    4652     4569     4737     5512     6075     5621     4774     4363 
