Origin Time       2025/03/30 21:30:00
Lat.              38.535
Long.             142.295
Depth. (km)       44
Mag.              4.3
Station Code      IWT013
Station Lat.      39.3290
Station Long.     141.5638
Station Height(m) 298
Record Time       2025/03/30 21:31:26
Sampling Freq(Hz) 100Hz
Duration Time(s)  60
Dir.              N-S
Scale Factor      7845(gal)/8223790
Max. Acc. (gal)   2.808
Last Correction   2025/03/30 21:31:25
Memo.             
[...]
    -625     -625     -625     -625     -623     -626     -627     -625 
    -625     -626     -626     -626     -625     -623     -625     -623 
    -623     -626     -625     -623     -627     -626     -623     -623 
    -626     -627     -626     -623     -623     -623     -623     -627 
    -627     -625     -626     -629     -627     -626     -625     -625 
    -626     -626     -626     -626     -626     -627     -626     -627 
    -630     -626     -623     -626     -625     -623     -626     -627 
    -627     -629     -629     -627     -627     -626     -623     -625 
    -625     -626     -626     -625     -625     -623     -623     -625 
    -625     -625     -625     -625     -626     -626     -623     -622 
    -625     -623     -622     -625     -627     -625     -622     -622 
    -622     -626     -629     -629     -626     -625     -623     -625 
    -626     -626     -623     -623     -626     -626     -626     -627 
    -627     -626     -627     -627     -625     -625     -625     -625 
    -626     -627     -629     -626     -623     -625     -627     -625 
    -627     -630     -627     -627     -630     -630     -629     -629 
    -630     -631     -630     -629     -629     -630     -629     -623 
    -619     -618     -619     -623     -626     -633     -639     -648 
    -654     -662     -670     -672     -666     -669     -677     -668 
    -645     -627     -606     -568     -535     -496     -432     -386 
    -411     -459     -484     -534     -630     -727     -796     -843 
    -853     -831     -787     -699     -653     -691     -656     -554 
    -510     -460     -406     -396     -378     -396     -490     -610 
    -766     -891     -940     -996     -989     -885     -807     -706 
    -561     -548     -589     -483     -295     -214     -360     -598 
    -621     -498     -499     -618     -781     -911     -876     -760 
    -741     -834     -915     -781     -481     -346     -417     -417 
    -305     -325     -507     -634     -703     -770     -737     -727 
    -868     -904     -807     -792     -712     -506     -472     -604 
    -692     -706     -544     -332     -454     -699     -610     -325 
    -237     -491     -815     -870     -758     -704     -776     -919 
    -826     -448     -267     -444     -604     -592     -531     -492 
    -583     -831     -996     -888     -668     -584     -584     -522 
    -496     -583     -643     -595     -569     -684     -784     -653 
    -441     -376     -411     -492     -584     -623     -762     -977 
    -972     -850     -799     -729     -719     -716     -531     -388 
    -413     -409     -390     -450     -544     -548     -430     -403 
    -550     -666     -687     -704     -727     -819     -999    -1058 
    -881     -606     -434     -479     -554     -480     -449     -503 
    -515     -627     -785     -750     -658     -658     -656     -642 
    -649     -637     -612     -622     -691     -727     -631     -537 
    -556     -591     -607     -642     -654     -631     -649     -716 
    -720     -649     -606     -594     -569     -552     -526     -490 
    -460     -471     -577     -654     -603     -634     -758     -749 
    -675     -645     -622     -618     -634     -711     -789     -707 
    -552     -503     -576     -680     -646     -526     -538     -599 
    -604     -692     -826     -855     -823     -799     -729     -585 
    -527     -569     -499     -369     -378     -469     -565     -637 
    -623     -630     -703     -715     -741     -828     -769     -612 
    -607     -643     -556     -475     -475     -491     -492     -472 
    -496     -573     -662     -769     -793     -716     -661     -623 
    -639     -751     -801     -724     -602     -504     -552     -706 
    -774     -687     -502     -433     -568     -697     -749     -739 
    -635     -587     -611     -568     -548     -588     -573     -538 
    -576     -664     -680     -575     -531     -627     -649     -599 
    -626     -638     -626     -675     -695     -657     -610     -604 
    -715     -795     -692     -577     -600     -672     -695     -626 
    -507     -473     -522     -540     -525     -534     -576     -676 
    -777     -764     -718     -731     -726     -650     -595     -653 
    -704     -641     -585     -503     -380     -449     -637     -683 
    -639     -615     -579     -579     -658     -680     -621     -650 
    -745     -718     -600     -571     -596     -618     -741     -815 
    -664     -596     -720     -746     -692     -699     -661     -552 
    -450     -368     -356     -414     -422     -426     -594     -838 
    -881     -729     -704     -834     -814     -680     -634     -587 
    -508     -496     -553     -591     -554     -533     -618     -711 
    -685     -603     -625     -691     -697     -727     -735     -634 
    -526     -486     -504     -517     -490     -596     -780     -796 
    -778     -830     -816     -784     -746     -633     -518     -442 
    -477     -580     -537     -491     -560     -554     -542     -580 
    -554     -584     -681     -687     -643     -580     -480     -499 
    -650     -716     -629     -517     -572     -792     -897     -807 
    -675     -600     -665     -754     -665     -526     -484     -510 
    -638     -750     -696     -592     -567     -641     -735     -749 
    -774     -805     -719     -675     -726     -631     -413     -299 
    -309     -306     -305     -457     -656     -711     -764     -857 
    -828     -749     -724     -696     -658     -657     -638     -554 
    -488     -504     -534     -549     -611     -677     -615     -508 
    -544     -599     -553     -577     -704     -839     -939     -923 
    -859     -839     -746     -626     -637     -669     -603     -508 
    -446     -432     -438     -459     -499     -490     -442     -475 
    -530     -569     -699     -799     -773     -765     -770     -741 
    -727     -623     -445     -457     -611     -634     -611     -693 
    -737     -654     -580     -604     -627     -575     -573     -635 
    -607     -580     -656     -680     -623     -588     -580     -573 
    -552     -535     -596     -723     -776     -700     -684     -770 
    -777     -753     -733     -541     -369     -471     -591     -540 
    -473     -480     -541     -670     -799     -777     -662     -653 
    -685     -600     -537     -621     -672     -623     -600     -630 
    -718     -839     -824     -683     -649     -680     -549     -386 
    -433     -522     -513     -600     -715     -695     -730     -787 
    -683     -619     -666     -645     -608     -614     -553     -432 
    -454     -672     -795     -720     -626     -552     -545     -580 
    -494     -419     -515     -602     -625     -753     -942     -984 
    -845     -703     -639     -545     -422     -427     -565     -634 
    -527     -456     -573     -700     -726     -700     -579     -413 
    -388     -517     -653     -741     -787     -746     -697     -791 
    -884     -807     -691     -641     -612     -554     -471     -450 
    -475     -475     -537     -596     -529     -483     -564     -676 
    -684     -577     -537     -627     -719     -760     -768     -796 
    -873     -862     -706     -525     -382     -338     -418     -480 
    -562     -711     -731     -706     -816     -859     -734     -565 
    -395     -336     -448     -596     -723     -845     -905     -864 
    -707     -561     -569     -576     -492     -471     -492     -553 
    -715     -762     -611     -508     -549     -676     -756     -638 
    -513     -562     -638     -685     -724     -688     -642     -626 
    -606     -650     -679     -629     -621     -627     -603     -611 
    -649     -681     -669     -668     -722     -699     -635     -650 
    -646     -604     -568     -523     -569     -715     -830     -801 
    -610     -473     -454     -360     -324     -471     -600     -688 
    -773     -769     -729     -684     -595     -523     -495     -549 
    -715     -792     -653     -503     -531     -654     -675     -565 
    -492     -544     -656     -729     -679     -571     -553     -596 
    -604     -618     -637     -623     -683     -800     -803     -687 
    -552     -430     -363     -432     -637     -778     -715     -652 
    -743     -818     -796     -727     -592     -526     -575     -576 
    -584     -629     -646     -754     -828     -672     -494     -411 
    -422     -580     -697     -662     -641     -683     -738     -723 
    -615     -602     -683     -649     -621     -685     -633     -527 
    -517     -522     -561     -572     -496     -556     -695     -749 
    -827     -747     -467     -400     -507     -585     -688     -673 
    -587     -604     -594     -610     -747     -799     -803     -876 
    -897     -850     -754     -604     -515     -441     -346     -372 
    -476     -550     -634     -683     -688     -766     -849     -760 
    -610     -592     -599     -511     -448     -499     -607     -710 
    -793     -776     -654     -594     -571     -472     -410     -429 
    -453     -562     -773     -822     -607     -426     -495     -646 
    -710     -715     -702     -687     -699     -703     -669     -672 
    -734     -722     -599     -527     -542     -530     -537     -638 
    -707     -675     -660     -688     -726     -760     -708     -625 
    -648     -677     -612     -558     -599     -641     -569     -477 
    -450     -457     -529     -622     -679     -697     -608     -540 
    -653     -708     -622     -637     -692     -668     -681     -673 
    -573     -531     -575     -643     -751     -815     -730     -576 
    -504     -511     -480     -442     -538     -687     -697     -662 
    -695     -730     -807     -857     -710     -562     -602     -670 
    -685     -631     -500     -449     -521     -588     -626     -633 
    -603     -592     -599     -638     -718     -757     -770     -737 
    -635     -621     -589     -387     -288     -395     -507     -595 
    -637     -683     -801     -804     -670     -598     -558     -534 
    -665     -819     -765     -618     -553     -549     -554     -548 
    -527     -527     -564     -622     -648     -692     -816     -846 
    -749     -724     -691     -546     -446     -437     -490     -604 
    -638     -562     -589     -760     -874     -876     -835     -708 
    -542     -581     -741     -679     -503     -553     -679     -588 
    -476     -557     -650     -669     -634     -538     -523     -527 
    -463     -548     -673     -619     -562     -544     -521     -531 
    -495     -504     -616     -661     -707     -808     -783     -710 
    -745     -777     -741     -670     -585     -548     -639     -818 
    -870     -706     -558     -545     -484     -353     -272     -264 
    -423     -743     -969     -940     -774     -781     -980     -938 
    -631     -476     -503     -534     -546     -542     -511     -445 
    -402     -413     -322     -211     -345     -558     -681     -827 
    -888     -820     -783     -754     -743     -720     -595     -571 
    -666     -715     -819     -857     -711     -704     -804     -734 
    -635     -673     -708     -622     -558     -588     -500     -363 
    -432     -585     -665     -646     -481     -355     -448     -649 
    -792     -762     -650     -734     -930     -905     -742     -679 
    -608     -413     -284     -309     -349     -467     -680     -708 
    -612     -723     -808     -594     -415     -475     -503     -402 
    -386     -549     -679     -676     -746     -874     -853     -780 
    -758     -697     -670     -703     -703     -751     -837     -785 
    -673     -672     -741     -766     -715     -630     -545     -445 
    -376     -375     -407     -446     -479     -514     -575     -635 
    -707     -888    -1034     -900     -741     -797     -787     -656 
    -616     -572     -473     -386     -263     -207     -257     -283 
    -319     -463     -754    -1061    -1069     -869     -832     -862 
    -684     -429     -270     -205     -310     -515     -637     -696 
    -683     -627     -687     -683     -502     -432     -508     -639 
    -926    -1233    -1304    -1105     -792     -595     -529     -490 
    -504     -464     -340     -426     -700     -812     -712     -560 
    -492     -615     -765     -692     -533     -471     -475     -564 
    -669     -696     -723     -756     -768     -773     -702     -619 
    -637     -610     -487     -410     -367     -399     -615     -777 
    -715     -621     -592     -649     -741     -684     -534     -486 
    -549     -664     -747     -828     -880     -734     -575     -579 
    -504     -345     -311     -421     -633     -818     -957    -1237 
   -1447    -1313    -1078     -824     -468     -232     -135      -33 
      41      114      163      162      164       10     -363     -704 
    -832     -688     -438     -383     -552     -845    -1247    -1688 
   -2108    -2380    -2331    -2077    -1791    -1433     -999     -523 
     -13      346      361      210      140      136      182      195 
     101      251      762     1148     1262     1169      643     -183 
   -1001    -1769    -2347    -2694    -3021    -3237    -3095    -2612 
   -1965    -1313     -616      140      634      714      691      815 
    1077     1282     1231      973      599      109     -426     -957 
   -1478    -2018    -2637    -3219    -3539    -3569    -3303    -2691 
   -1937    -1217     -465      103      278      449      868     1251 
    1441     1377     1038      679      410      168      -16     -211 
    -552    -1094    -1707    -2088    -2064    -1601     -749      135 
     594      656      673      518      -14     -507     -838    -1389 
   -1850    -1679    -1174     -811     -502     -230     -379     -924 
   -1548    -2340    -2999    -2829    -2041    -1204     -531     -253 
    -141      333     1040     1449     1318      891      506       33 
    -720    -1501    -1971    -2062    -1929    -1706    -1413    -1251 
   -1348    -1387    -1183     -807     -322      -13      109      471 
    1054     1509     1692     1594     1417     1244      754     -194 
   -1424    -2538    -3084    -3262    -3420    -3321    -2901    -2401 
   -1819    -1120     -409      229      692      891      957     1084 
    1117      886      595      380      147     -168     -561    -1028 
   -1534    -1881    -1949    -2069    -2471    -2760    -2477    -1668 
    -778     -124      472     1154     1540     1370      834      106 
    -549     -842     -989    -1302    -1595    -1570    -1213     -773 
    -602     -733     -864     -757     -352      -21     -263     -707 
    -823     -803     -720     -587     -722    -1053    -1312    -1347 
   -1205    -1293    -1501    -1339    -1020     -700     -157      307 
     399      452      712     1005     1043      711      346      329 
     419      260     -179     -924    -1753    -2259    -2551    -2880 
   -2982    -2552    -1887    -1406     -904     -263       90      267 
     656      861      519      -39     -423     -571     -739    -1132 
   -1532    -1699    -1586    -1093     -351      117      145      174 
     322      175     -357     -899    -1293    -1594    -1444     -768 
    -432     -603     -414      -43     -209     -513     -621     -940 
   -1325    -1256     -859     -507     -275     -148     -153     -167 
      -1      136      -47     -245     -237     -396     -828    -1285 
   -1760    -2165    -2184    -1869    -1602    -1355     -886     -472 
    -329     -105      207      295      324      318       21     -263 
    -211     -120     -255     -521     -726     -827     -940    -1058 
   -1081    -1051    -1080    -1177    -1129     -830     -490     -234 
     -32      229      621      737      279     -346     -857    -1360 
   -1798    -2054    -2069    -1837    -1522    -1080     -456      -85 
     -45       74      290      399      333      178       32     -229 
    -556     -780    -1105    -1549    -1719    -1626    -1624    -1661 
   -1517    -1386    -1424    -1340    -1051     -769     -487     -148 
     279      823     1107      924      726      541        4     -571 
    -804     -866     -895     -949    -1107    -1335    -1472    -1347 
   -1161    -1113     -877     -437     -230     -391     -675     -685 
    -453     -414     -527     -427     -132      -54     -390     -687 
    -680     -681     -824    -1092    -1490    -1591    -1062     -406 
    -178     -240     -371     -506     -475     -483     -864    -1233 
   -1074     -533      -45      193      126     -278     -738     -961 
   -1023    -1070    -1219    -1300     -869     -180       62     -148 
    -369     -506     -785    -1057     -954     -832     -924     -596 
      45      261      147     -122     -565     -878    -1082    -1310 
   -1386    -1219     -772     -360     -345     -352     -222     -317 
    -535     -710     -865     -842     -621     -353     -276     -514 
    -699     -662     -673     -730     -823     -996     -957     -756 
    -754     -854     -961    -1035     -756     -373     -411     -504 
    -240      112      245       52     -309     -494     -508     -557 
    -703     -866     -846     -762     -901    -1085    -1100    -1067 
   -1100    -1059     -768     -391     -133      -39     -346     -864 
    -931     -810     -994    -1069     -924     -770     -336      116 
      39     -265     -391     -477     -683     -868     -880     -814 
    -742     -626     -500     -417     -518     -882    -1104     -919 
    -737     -726     -673     -630     -567     -380     -292     -352 
    -363     -390     -456     -438     -467     -608     -718     -828 
    -953     -969     -990    -1062     -922     -649     -573     -653 
    -704     -670     -604     -697     -893     -864     -618     -502 
    -542     -422     -175     -122     -152      -54      -16     -143 
    -356     -672     -931     -943     -931     -955     -758     -602 
    -669     -558     -422     -623     -780     -738     -874    -1156 
   -1302    -1267     -996     -477      -49        6     -120     -166 
    -159     -234     -494     -882    -1127    -1067     -820     -567 
    -503     -697     -872     -774     -608     -652     -866    -1134 
   -1327    -1123     -584     -376     -542     -452     -171      -44 
      76      152       16     -133     -230     -344     -479     -874 
   -1417    -1363     -707     -413     -757    -1067    -1020     -842 
    -746     -869    -1098    -1102     -936     -915     -877     -611 
    -483     -633     -585     -311     -303     -541     -665     -557 
    -309     -310     -729     -966     -687     -368     -292     -270 
    -211     -186     -238     -341     -365     -465     -934    -1329 
   -1190    -1030    -1084     -935     -641     -375     -145     -175 
    -287     -160     -114     -353     -577     -641     -615     -584 
    -631     -734     -888    -1100    -1102     -770     -592     -793 
    -942     -854     -697     -615     -688     -797     -780     -662 
    -643     -808     -818     -585     -510     -630     -739     -707 
    -448     -256     -336     -406     -345     -307     -365     -449 
