Origin Time       2025/03/30 21:30:00
Lat.              38.535
Long.             142.295
Depth. (km)       44
Mag.              4.3
Station Code      IWT007
Station Lat.      39.2699
Station Long.     141.8567
Station Height(m) 9
Record Time       2025/03/30 21:31:11
Sampling Freq(Hz) 100Hz
Duration Time(s)  62
Dir.              U-D
Scale Factor      7845(gal)/8223790
Max. Acc. (gal)   4.451
Last Correction   2025/03/30 21:31:10
Memo.             
[...]
  -12290   -12293   -12297   -12297   -12293   -12290   -12291   -12297 
  -12297   -12290   -12293   -12301   -12297   -12293   -12294   -12294 
  -12293   -12295   -12295   -12294   -12297   -12290   -12287   -12295 
  -12301   -12295   -12294   -12295   -12293   -12294   -12297   -12293 
  -12290   -12294   -12293   -12294   -12299   -12294   -12290   -12297 
  -12297   -12290   -12290   -12294   -12295   -12297   -12297   -12295 
  -12299   -12297   -12293   -12291   -12290   -12291   -12295   -12295 
  -12291   -12293   -12294   -12294   -12297   -12298   -12291   -12286 
  -12291   -12295   -12294   -12293   -12291   -12293   -12295   -12294 
  -12290   -12290   -12298   -12297   -12289   -12286   -12290   -12294 
  -12295   -12291   -12290   -12294   -12294   -12293   -12293   -12290 
  -12290   -12294   -12294   -12290   -12290   -12294   -12294   -12297 
  -12299   -12291   -12287   -12297   -12301   -12290   -12285   -12291 
  -12295   -12297   -12299   -12298   -12291   -12290   -12297   -12298 
  -12291   -12291   -12294   -12291   -12293   -12298   -12297   -12293 
  -12294   -12299   -12298   -12294   -12295   -12294   -12294   -12297 
  -12298   -12295   -12293   -12294   -12298   -12295   -12294   -12299 
  -12295   -12289   -12294   -12295   -12290   -12295   -12299   -12293 
  -12291   -12301   -12303   -12298   -12294   -12290   -12293   -12297 
  -12293   -12290   -12294   -12297   -12293   -12294   -12299   -12302 
  -12294   -12287   -12290   -12291   -12290   -12294   -12298   -12295 
  -12294   -12291   -12294   -12297   -12294   -12290   -12291   -12291 
  -12291   -12295   -12293   -12290   -12295   -12297   -12291   -12290 
  -12293   -12294   -12295   -12294   -12291   -12291   -12293   -12298 
  -12302   -12298   -12290   -12287   -12291   -12295   -12293   -12291 
  -12294   -12297   -12297   -12293   -12294   -12301   -12295   -12286 
  -12291   -12299   -12295   -12293   -12294   -12294   -12297   -12299 
  -12295   -12293   -12294   -12293   -12291   -12294   -12297   -12295 
  -12291   -12290   -12294   -12299   -12295   -12291   -12297   -12298 
  -12293   -12291   -12294   -12293   -12289   -12294   -12297   -12297 
  -12299   -12297   -12290   -12293   -12295   -12294   -12295   -12294 
  -12291   -12293   -12297   -12299   -12294   -12289   -12294   -12298 
  -12295   -12291   -12291   -12291   -12297   -12299   -12298   -12293 
  -12293   -12295   -12293   -12290   -12295   -12297   -12289   -12287 
  -12294   -12299   -12291   -12287   -12295   -12301   -12293   -12291 
  -12295   -12298   -12294   -12289   -12291   -12299   -12298   -12293 
  -12291   -12293   -12295   -12299   -12297   -12290   -12290   -12297 
  -12298   -12294   -12293   -12295   -12294   -12295   -12299   -12297 
  -12291   -12290   -12294   -12299   -12295   -12289   -12295   -12305 
  -12298   -12293   -12297   -12295   -12291   -12295   -12298   -12291 
  -12290   -12298   -12301   -12293   -12291   -12298   -12301   -12295 
  -12289   -12285   -12289   -12297   -12298   -12290   -12293   -12301 
  -12298   -12289   -12291   -12298   -12298   -12293   -12293   -12295 
  -12294   -12293   -12295   -12297   -12295   -12295   -12294   -12294 
  -12294   -12291   -12291   -12293   -12294   -12297   -12293   -12290 
  -12294   -12297   -12295   -12295   -12294   -12293   -12293   -12293 
  -12294   -12290   -12290   -12293   -12295   -12295   -12291   -12289 
  -12293   -12297   -12295   -12291   -12291   -12293   -12291   -12290 
  -12293   -12294   -12294   -12291   -12293   -12295   -12295   -12295 
  -12294   -12291   -12293   -12295   -12293   -12293   -12294   -12294 
  -12290   -12290   -12295   -12298   -12291   -12287   -12295   -12298 
  -12291   -12291   -12293   -12289   -12294   -12297   -12291   -12294 
  -12298   -12290   -12289   -12297   -12297   -12293   -12291   -12290 
  -12290   -12295   -12298   -12298   -12297   -12297   -12298   -12297 
  -12293   -12294   -12297   -12297   -12295   -12297   -12297   -12293 
  -12291   -12295   -12299   -12298   -12294   -12291   -12291   -12297 
  -12298   -12294   -12293   -12295   -12295   -12293   -12294   -12293 
  -12294   -12299   -12297   -12291   -12293   -12299   -12298   -12289 
  -12290   -12299   -12299   -12293   -12293   -12294   -12290   -12291 
  -12298   -12301   -12297   -12287   -12289   -12298   -12298   -12291 
  -12289   -12295   -12299   -12294   -12289   -12290   -12293   -12295 
  -12297   -12295   -12291   -12291   -12295   -12298   -12299   -12295 
  -12291   -12290   -12293   -12297   -12297   -12295   -12294   -12294 
  -12294   -12294   -12295   -12297   -12294   -12290   -12291   -12295 
  -12295   -12295   -12295   -12298   -12297   -12293   -12290   -12291 
  -12294   -12298   -12295   -12291   -12294   -12295   -12294   -12294 
  -12295   -12295   -12290   -12289   -12297   -12299   -12295   -12293 
  -12295   -12294   -12290   -12291   -12295   -12295   -12298   -12297 
  -12291   -12293   -12294   -12291   -12294   -12294   -12293   -12298 
  -12301   -12297   -12295   -12294   -12291   -12293   -12295   -12294 
  -12293   -12291   -12293   -12295   -12298   -12295   -12293   -12291 
  -12293   -12295   -12297   -12293   -12289   -12290   -12290   -12297 
  -12299   -12294   -12291   -12297   -12297   -12291   -12290   -12291 
  -12291   -12295   -12302   -12301   -12293   -12286   -12290   -12298 
  -12301   -12295   -12293   -12295   -12295   -12291   -12290   -12295 
  -12298   -12295   -12293   -12295   -12295   -12294   -12294   -12294 
  -12290   -12287   -12293   -12301   -12299   -12294   -12295   -12295 
  -12297   -12297   -12289   -12289   -12297   -12299   -12298   -12294 
  -12291   -12297   -12301   -12294   -12290   -12291   -12294   -12293 
  -12295   -12297   -12293   -12290   -12295   -12301   -12294   -12289 
  -12291   -12295   -12297   -12293   -12289   -12294   -12298   -12295 
  -12291   -12291   -12295   -12297   -12295   -12291   -12290   -12294 
  -12297   -12293   -12291   -12293   -12297   -12299   -12297   -12291 
  -12291   -12294   -12297   -12298   -12297   -12291   -12291   -12297 
  -12297   -12294   -12294   -12294   -12294   -12297   -12299   -12297 
  -12291   -12290   -12293   -12295   -12294   -12291   -12295   -12297 
  -12289   -12287   -12297   -12298   -12294   -12293   -12294   -12291 
  -12291   -12295   -12297   -12294   -12294   -12295   -12295   -12294 
  -12291   -12291   -12294   -12293   -12290   -12294   -12295   -12291 
  -12293   -12297   -12295   -12291   -12291   -12295   -12298   -12295 
  -12293   -12294   -12294   -12291   -12294   -12301   -12301   -12293 
  -12287   -12289   -12291   -12294   -12295   -12294   -12294   -12295 
  -12294   -12294   -12295   -12293   -12291   -12294   -12295   -12297 
  -12294   -12293   -12294   -12298   -12297   -12291   -12293   -12297 
  -12294   -12297   -12298   -12295   -12295   -12297   -12294   -12294 
  -12299   -12298   -12293   -12295   -12298   -12295   -12295   -12294 
  -12291   -12290   -12293   -12298   -12302   -12301   -12297   -12294 
  -12293   -12293   -12294   -12298   -12297   -12294   -12294   -12291 
  -12294   -12299   -12295   -12291   -12297   -12299   -12294   -12291 
  -12294   -12294   -12291   -12291   -12297   -12301   -12298   -12290 
  -12291   -12293   -12293   -12294   -12297   -12295   -12290   -12291 
  -12295   -12294   -12294   -12294   -12291   -12293   -12297   -12291 
  -12293   -12301   -12299   -12290   -12291   -12295   -12294   -12291 
  -12293   -12301   -12301   -12293   -12291   -12295   -12295   -12293 
  -12289   -12291   -12298   -12299   -12295   -12294   -12293   -12294 
  -12294   -12294   -12294   -12295   -12295   -12295   -12295   -12295 
  -12293   -12290   -12293   -12294   -12294   -12295   -12294   -12290 
  -12290   -12294   -12295   -12295   -12295   -12294   -12290   -12291 
  -12294   -12294   -12294   -12297   -12298   -12293   -12291   -12294 
  -12295   -12294   -12293   -12294   -12297   -12295   -12295   -12294 
  -12294   -12294   -12294   -12294   -12291   -12291   -12297   -12295 
  -12291   -12295   -12295   -12291   -12294   -12298   -12295   -12291 
  -12289   -12290   -12297   -12298   -12295   -12295   -12294   -12290 
  -12291   -12295   -12301   -12298   -12293   -12290   -12294   -12298 
  -12293   -12290   -12294   -12294   -12291   -12295   -12297   -12295 
  -12293   -12291   -12297   -12298   -12293   -12291   -12294   -12297 
  -12294   -12290   -12293   -12295   -12294   -12295   -12298   -12295 
  -12291   -12289   -12291   -12294   -12295   -12297   -12293   -12289 
  -12294   -12297   -12295   -12298   -12297   -12289   -12287   -12294 
  -12301   -12298   -12291   -12287   -12293   -12297   -12294   -12291 
  -12291   -12293   -12294   -12294   -12293   -12294   -12294   -12293 
  -12294   -12297   -12295   -12291   -12291   -12297   -12298   -12293 
  -12290   -12294   -12295   -12294   -12295   -12294   -12293   -12294 
  -12293   -12293   -12298   -12297   -12291   -12295   -12297   -12295 
  -12297   -12297   -12294   -12293   -12293   -12295   -12297   -12295 
  -12293   -12294   -12297   -12295   -12293   -12291   -12293   -12298 
  -12301   -12294   -12289   -12294   -12294   -12289   -12294   -12301 
  -12293   -12290   -12295   -12297   -12295   -12294   -12294   -12297 
  -12299   -12295   -12291   -12295   -12298   -12294   -12293   -12294 
  -12297   -12294   -12291   -12293   -12294   -12295   -12297   -12297 
  -12295   -12293   -12293   -12294   -12293   -12294   -12298   -12294 
  -12291   -12294   -12295   -12293   -12291   -12291   -12291   -12295 
  -12298   -12294   -12290   -12294   -12297   -12293   -12293   -12297 
  -12295   -12291   -12293   -12294   -12293   -12294   -12295   -12291 
  -12293   -12295   -12298   -12298   -12291   -12291   -12297   -12295 
  -12290   -12291   -12294   -12297   -12298   -12294   -12293   -12295 
  -12294   -12291   -12294   -12294   -12291   -12295   -12299   -12295 
  -12293   -12294   -12294   -12293   -12293   -12295   -12298   -12298 
  -12297   -12291   -12289   -12294   -12297   -12295   -12294   -12294 
  -12291   -12293   -12295   -12294   -12294   -12293   -12293   -12297 
  -12294   -12290   -12294   -12298   -12297   -12294   -12290   -12293 
  -12295   -12290   -12290   -12295   -12295   -12294   -12295   -12293 
  -12291   -12298   -12301   -12293   -12290   -12291   -12291   -12297 
  -12298   -12294   -12290   -12290   -12294   -12299   -12299   -12291 
  -12286   -12291   -12294   -12291   -12291   -12295   -12295   -12295 
  -12294   -12294   -12298   -12299   -12291   -12290   -12294   -12291 
  -12290   -12293   -12293   -12294   -12295   -12294   -12293   -12293 
  -12293   -12293   -12291   -12294   -12295   -12291   -12291   -12295 
  -12298   -12293   -12289   -12294   -12295   -12291   -12295   -12297 
  -12287   -12286   -12297   -12301   -12295   -12295   -12298   -12293 
  -12291   -12294   -12293   -12290   -12294   -12297   -12293   -12293 
  -12297   -12298   -12294   -12293   -12294   -12297   -12294   -12291 
  -12291   -12297   -12298   -12295   -12294   -12297   -12294   -12290 
  -12293   -12297   -12302   -12298   -12291   -12293   -12295   -12297 
  -12297   -12293   -12290   -12293   -12298   -12299   -12295   -12293 
  -12293   -12294   -12298   -12301   -12301   -12293   -12289   -12297 
  -12301   -12295   -12294   -12295   -12295   -12298   -12297   -12290 
  -12291   -12295   -12298   -12295   -12291   -12293   -12295   -12294 
  -12294   -12290   -12287   -12298   -12302   -12291   -12289   -12297 
  -12295   -12290   -12291   -12297   -12301   -12298   -12293   -12297 
  -12298   -12293   -12295   -12299   -12290   -12286   -12297   -12299 
  -12295   -12294   -12290   -12293   -12302   -12297   -12286   -12293 
  -12299   -12294   -12294   -12299   -12295   -12291   -12293   -12293 
  -12294   -12297   -12295   -12290   -12290   -12293   -12297   -12299 
  -12298   -12294   -12293   -12297   -12297   -12295   -12294   -12291 
  -12291   -12293   -12298   -12301   -12297   -12293   -12295   -12295 
  -12291   -12294   -12299   -12295   -12289   -12294   -12302   -12299 
  -12295   -12295   -12294   -12297   -12297   -12294   -12294   -12290 
  -12289   -12295   -12299   -12293   -12291   -12295   -12297   -12298 
  -12298   -12294   -12291   -12291   -12293   -12295   -12295   -12293 
  -12293   -12295   -12298   -12298   -12297   -12295   -12293   -12293 
  -12293   -12293   -12297   -12299   -12293   -12287   -12294   -12301 
  -12297   -12294   -12294   -12295   -12298   -12298   -12293   -12291 
  -12295   -12297   -12297   -12295   -12290   -12290   -12298   -12299 
  -12294   -12297   -12295   -12291   -12291   -12297   -12298   -12294 
  -12293   -12297   -12297   -12293   -12294   -12294   -12295   -12298 
  -12295   -12294   -12295   -12291   -12290   -12294   -12297   -12297 
  -12297   -12298   -12298   -12297   -12293   -12290   -12295   -12298 
  -12291   -12290   -12294   -12298   -12299   -12291   -12286   -12298 
  -12306   -12297   -12291   -12294   -12293   -12293   -12298   -12299 
  -12297   -12295   -12298   -12299   -12302   -12302   -12302   -12303 
  -12302   -12302   -12297   -12290   -12291   -12299   -12316   -12336 
  -12345   -12348   -12334   -12258   -12162   -12112   -11997   -11955 
  -12278   -12451   -12263   -12649   -13038   -12347   -12151   -12640 
  -12064   -12248   -13821   -13136   -10891   -10658   -11649   -12491 
  -12961   -12136   -11354   -12052   -12518   -12141   -11391   -10782 
  -13198   -16960   -15608   -10692    -8311   -10223   -14859   -15219 
   -9467    -9146   -15321   -15925   -11943   -10166    -9339   -10316 
  -13073   -13092   -12163   -12955   -13285   -13726   -14046   -12299 
  -10692   -10481   -11722   -14195   -13637   -10453   -10619   -13311 
  -13972   -12255   -10077   -10548   -14693   -16610   -13068   -10282 
   -9852    -8591   -10655   -15512   -14486   -10993   -13481   -16082 
  -12788    -9352    -9934   -12087   -13081   -12583   -11388   -10989 
  -13441   -15666   -12757    -9560   -11716   -13620   -12171   -12256 
  -12474   -10864   -11929   -13551   -12042   -11685   -12827   -11934 
  -11554   -13776   -14615   -12112   -10265   -11610   -13003   -12156 
  -11492   -12091   -12303   -12484   -12787   -12144   -12370   -13501 
  -11974   -10199   -12784   -15263   -12648    -9884   -11468   -12868 
  -11599   -12059   -14450   -14123   -11018    -9528   -11618   -13898 
  -12776   -10882   -12019   -13586   -12719   -12233   -13400   -13522 
  -12133   -11151   -11736   -12447   -11357   -10690   -12170   -13051 
  -12768   -12918   -12302   -10902   -11464   -13778   -14446   -12599 
  -11225   -12171   -12964   -11790   -11758   -13587   -13215   -11214 
  -10889   -11319   -11708   -12756   -13072   -11790   -11138   -12530 
  -14068   -13450   -11515   -11520   -13165   -13119   -12087   -12314 
  -12784   -12249   -11519   -11661   -12237   -12405   -12073   -11438 
  -11545   -12793   -13470   -12766   -11546   -11014   -12449   -14269 
  -13539   -11661   -11512   -12094   -11931   -12572   -13664   -12278 
  -10531   -11804   -13113   -12467   -12236   -12410   -12058   -12186 
  -12453   -12114   -12320   -12889   -12375   -11762   -12005   -12216 
  -12576   -13011   -12484   -11793   -12098   -12395   -12015   -12536 
  -13370   -12117   -10735   -11900   -13386   -12812   -11828   -12166 
  -12425   -11754   -11546   -12035   -12877   -13838   -13134   -11515 
  -11684   -12085   -11466   -12106   -13386   -12896   -11583   -11408 
  -12621   -13647   -12521   -10767   -11838   -14291   -13633   -10836 
  -10424   -11975   -12749   -13031   -12660   -11315   -11595   -13633 
  -13597   -11461   -11133   -12641   -12895   -12303   -12453   -12195 
  -11848   -12534   -12583   -12116   -12731   -12904   -11927   -11537 
  -12097   -12553   -11929   -11263   -12499   -13838   -12503   -10648 
  -11788   -14157   -13410   -10628   -10951   -13683   -13590   -11534 
  -11376   -12283   -12858   -13234   -12984   -12148   -11134   -11148 
  -12854   -13374   -11608   -11431   -13050   -12316   -10444   -11479 
  -13770   -13840   -12330   -11488   -11932   -12804   -13028   -12603 
  -12164   -11877   -12048   -12741   -12648   -11745   -12171   -13019 
  -12066   -11315   -12004   -12285   -12306   -12680   -12330   -11808 
  -12444   -12991   -12398   -11855   -11920   -12378   -13135   -13250 
  -12229   -11136   -11128   -12208   -13198   -13127   -12193   -11564 
  -12202   -12953   -12376   -11591   -11759   -12232   -12812   -13243 
  -12263   -11300   -12549   -13454   -12017   -11115   -11959   -12688 
  -12825   -12444   -11637   -12028   -13398   -13015   -11457   -11483 
  -12341   -12393   -12503   -12656   -11967   -11974   -12826   -12102 
  -11388   -12965   -13436   -11588   -11425   -13015   -13099   -11782 
  -11242   -12150   -13076   -12707   -12071   -12393   -12663   -12031 
  -11774   -12428   -12526   -11904   -12086   -12638   -12172   -11928 
  -12521   -12528   -12279   -12286   -12123   -12568   -13263   -12636 
  -11632   -11632   -12163   -12857   -12768   -11292   -10972   -13003 
  -13640   -11713   -11566   -13311   -12862   -11488   -11874   -12244 
  -12155   -12880   -12982   -11901   -11433   -12083   -12907   -12939 
  -12181   -11539   -11745   -12680   -13076   -12519   -12307   -12247 
  -11497   -11670   -13213   -13483   -12079   -11499   -11952   -11917 
  -12020   -12935   -13355   -12474   -11248   -11416   -12664   -12839 
  -12380   -12405   -12163   -12175   -12564   -12108   -12000   -12877 
  -12762   -11811   -11596   -12090   -12754   -12745   -12085   -12136 
  -12488   -12235   -12293   -12579   -12318   -12232   -12307   -11919 
  -11812   -12348   -12636   -12340   -12091   -12262   -12537   -12514 
  -12333   -12424   -12371   -11931   -11950   -12326   -12349   -12394 
  -12580   -12426   -12226   -12359   -12351   -12117   -12198   -12221 
  -11952   -12289   -12576   -11746   -11753   -13362   -13699   -12006 
  -11009   -12096   -13370   -12538   -10929   -11620   -13242   -12814 
  -11858   -12073   -12429   -12505   -12433   -12602   -13001   -12055 
  -10760   -11902   -13477   -13012   -12409   -12132   -11492   -12010 
  -12868   -12066   -11489   -12699   -13351   -11901   -10723   -11993 
  -13603   -13099   -12110   -12399   -12715   -12249   -11913   -12036 
  -12209   -12232   -12347   -12664   -12356   -11583   -11917   -12958 
  -12939   -12070   -11709   -12008   -12151   -12164   -12586   -12745 
  -12255   -11970   -12062   -12376   -12876   -13099   -12852   -12094 
  -11164   -11254   -12542   -13151   -12133   -11283   -11920   -12947 
  -13088   -12569   -12171   -11996   -12218   -12769   -12437   -11619 
  -12032   -12669   -12150   -11827   -12506   -13016   -12702   -12109 
  -11851   -12035   -12340   -12457   -12384   -12086   -11828   -12270 
  -12780   -12177   -11627   -12584   -13277   -12303   -11789   -12460 
  -12452   -12085   -12475   -12658   -12083   -11832   -12249   -12384 
  -12403   -12892   -12725   -11711   -11489   -11935   -12175   -12820 
  -13078   -12055   -11767   -12420   -12177   -12209   -13130   -12858 
  -11658   -11419   -12263   -13197   -13034   -11816   -11352   -12326 
  -12779   -11936   -11946   -12901   -12842   -12062   -11435   -11514 
  -12749   -13235   -12213   -12154   -12641   -11769   -11570   -12987 
