Origin Time       2025/03/30 21:30:00
Lat.              38.535
Long.             142.295
Depth. (km)       44
Mag.              4.3
Station Code      IWT008
Station Lat.      39.0815
Station Long.     141.7093
Station Height(m) 24
Record Time       2025/03/30 21:31:19
Sampling Freq(Hz) 100Hz
Duration Time(s)  60
Dir.              U-D
Scale Factor      7845(gal)/8223790
Max. Acc. (gal)   1.946
Last Correction   2025/03/30 21:31:18
Memo.             
[...]
  -40655   -40653   -40652   -40652   -40652   -40652   -40652   -40653 
  -40652   -40651   -40651   -40652   -40653   -40655   -40652   -40652 
  -40653   -40652   -40655   -40656   -40653   -40652   -40652   -40653 
  -40652   -40651   -40653   -40655   -40655   -40655   -40653   -40652 
  -40652   -40651   -40652   -40652   -40652   -40653   -40655   -40652 
  -40651   -40651   -40652   -40653   -40651   -40648   -40653   -40655 
  -40652   -40649   -40652   -40653   -40653   -40651   -40649   -40652 
  -40652   -40651   -40653   -40653   -40651   -40649   -40652   -40651 
  -40649   -40651   -40652   -40652   -40652   -40651   -40652   -40652 
  -40651   -40653   -40655   -40651   -40651   -40653   -40653   -40653 
  -40653   -40651   -40651   -40653   -40652   -40651   -40651   -40653 
  -40653   -40652   -40653   -40655   -40653   -40648   -40651   -40653 
  -40652   -40652   -40655   -40653   -40653   -40655   -40653   -40653 
  -40655   -40653   -40652   -40653   -40655   -40653   -40653   -40653 
  -40652   -40652   -40655   -40653   -40652   -40653   -40652   -40651 
  -40652   -40653   -40652   -40653   -40652   -40651   -40653   -40653 
  -40652   -40653   -40655   -40655   -40653   -40653   -40655   -40655 
  -40652   -40649   -40651   -40652   -40653   -40653   -40653   -40652 
  -40652   -40653   -40653   -40653   -40652   -40652   -40653   -40652 
  -40652   -40653   -40653   -40651   -40649   -40652   -40652   -40651 
  -40649   -40651   -40652   -40651   -40652   -40653   -40651   -40651 
  -40653   -40653   -40652   -40652   -40651   -40653   -40655   -40651 
  -40649   -40651   -40651   -40652   -40652   -40651   -40649   -40651 
  -40652   -40653   -40653   -40652   -40649   -40649   -40649   -40649 
  -40651   -40653   -40651   -40649   -40651   -40653   -40653   -40653 
  -40653   -40651   -40651   -40653   -40652   -40649   -40651   -40655 
  -40653   -40651   -40652   -40653   -40651   -40652   -40652   -40651 
  -40651   -40652   -40651   -40653   -40653   -40652   -40649   -40649 
  -40652   -40652   -40651   -40652   -40652   -40651   -40652   -40653 
  -40651   -40651   -40652   -40652   -40652   -40652   -40651   -40651 
  -40649   -40651   -40651   -40652   -40653   -40653   -40653   -40653 
  -40652   -40651   -40652   -40653   -40651   -40647   -40649   -40652 
  -40651   -40651   -40649   -40649   -40651   -40655   -40653   -40651 
  -40651   -40651   -40651   -40651   -40652   -40651   -40649   -40649 
  -40651   -40653   -40653   -40652   -40649   -40651   -40653   -40651 
  -40652   -40655   -40652   -40649   -40648   -40652   -40653   -40652 
  -40652   -40651   -40652   -40653   -40652   -40652   -40653   -40652 
  -40652   -40652   -40652   -40653   -40655   -40652   -40651   -40651 
  -40652   -40653   -40652   -40649   -40651   -40652   -40651   -40653 
  -40653   -40649   -40651   -40653   -40651   -40648   -40649   -40652 
  -40653   -40653   -40651   -40649   -40649   -40651   -40652   -40653 
  -40655   -40651   -40647   -40649   -40653   -40652   -40653   -40652 
  -40649   -40648   -40652   -40653   -40652   -40653   -40653   -40651 
  -40652   -40653   -40651   -40649   -40653   -40653   -40651   -40653 
  -40653   -40652   -40655   -40653   -40651   -40653   -40653   -40653 
  -40655   -40655   -40651   -40649   -40651   -40655   -40655   -40651 
  -40649   -40652   -40656   -40655   -40651   -40649   -40651   -40652 
  -40652   -40652   -40651   -40652   -40652   -40652   -40652   -40652 
  -40652   -40652   -40651   -40651   -40651   -40653   -40653   -40651 
  -40651   -40652   -40652   -40652   -40653   -40652   -40649   -40652 
  -40653   -40649   -40651   -40653   -40652   -40649   -40651   -40651 
  -40651   -40651   -40651   -40651   -40652   -40653   -40652   -40651 
  -40652   -40651   -40649   -40651   -40651   -40652   -40653   -40652 
  -40652   -40652   -40652   -40652   -40653   -40653   -40653   -40655 
  -40653   -40652   -40656   -40655   -40649   -40651   -40653   -40652 
  -40651   -40651   -40652   -40652   -40652   -40652   -40653   -40652 
  -40652   -40655   -40655   -40653   -40651   -40652   -40653   -40652 
  -40652   -40653   -40653   -40653   -40651   -40649   -40652   -40655 
  -40655   -40652   -40652   -40652   -40651   -40652   -40652   -40651 
  -40651   -40656   -40663   -40662   -40663   -40672   -40680   -40682 
  -40684   -40679   -40649   -40617   -40610   -40601   -40562   -40514 
  -40514   -40558   -40540   -40522   -40725   -40973   -40915   -40729 
  -40716   -40826   -40909   -40668   -40243   -40375   -40801   -40748 
  -40605   -40737   -40845   -40755   -40440   -40262   -40686   -41046 
  -40431   -39880   -40643   -41598   -41296   -40171   -39750   -40540 
  -41324   -41081   -40408   -40282   -40597   -40879   -40795   -40263 
  -40221   -40953   -41165   -40660   -40468   -40705   -40860   -40621 
  -40258   -40305   -40230   -39968   -40787   -41855   -41238   -39885 
  -40059   -41477   -41635   -40275   -39831   -40845   -41396   -40780 
  -40188   -39999   -40058   -40890   -41598   -40925   -40155   -40668 
  -41347   -40828   -40142   -40500   -40679   -40331   -40822   -41435 
  -40887   -40143   -40115   -40400   -40621   -40755   -40944   -40941 
  -40559   -40254   -40219   -40633   -41145   -40964   -40716   -40702 
  -40544   -40753   -40998   -40662   -40251   -40298   -40797   -40905 
  -40455   -40483   -40844   -40794   -40506   -40146   -40014   -40536 
  -40990   -40879   -40852   -40855   -40720   -40668   -40629   -40853 
  -40728   -39812   -39862   -41116   -41594   -40914   -40296   -40500 
  -41019   -40988   -40444   -40117   -40408   -40933   -41053   -40556 
  -40332   -40965   -41227   -40493   -39937   -40437   -41081   -40728 
  -40247   -40598   -41026   -40884   -40626   -40641   -40587   -40425 
  -40597   -40838   -40643   -40343   -40371   -40765   -41353   -41278 
  -40263   -39869   -40736   -41115   -40541   -40383   -40574   -40540 
  -40703   -40844   -40659   -40601   -40566   -40598   -41015   -40857 
  -39888   -39981   -41224   -41432   -40552   -40316   -40829   -41035 
  -40643   -40257   -40474   -40861   -40747   -40568   -40629   -40533 
  -40463   -40637   -40643   -40433   -40522   -40975   -41246   -40946 
  -40332   -40123   -40761   -41384   -41004   -40409   -40383   -40587 
  -40799   -40909   -40923   -40865   -40485   -39974   -39951   -40613 
  -41148   -40748   -40223   -40529   -40963   -40783   -40435   -40450 
  -40672   -40845   -41021   -40998   -40775   -40686   -40522   -40263 
  -40324   -40610   -40664   -40547   -40787   -41027   -40552   -40012 
  -40386   -41099   -40973   -40238   -40051   -40821   -41532   -41110 
  -40306   -40360   -40757   -40520   -40354   -40950   -41200   -40624 
  -40261   -40620   -40944   -40502   -40105   -40583   -41114   -40960 
  -40633   -40711   -40988   -40822   -40217   -39978   -40504   -41293 
  -41253   -40284   -40000   -40805   -41189   -40705   -40293   -40436 
  -40707   -40743   -40674   -40560   -40521   -40682   -40918   -40888 
  -40463   -40439   -40937   -40824   -40196   -40201   -40914   -41212 
  -40571   -40188   -40755   -40998   -40444   -40288   -40721   -40945 
  -40837   -40497   -40267   -40602   -41014   -40922   -40513   -40305 
  -40598   -41031   -40911   -40188   -40088   -40979   -41251   -40710 
  -40544   -40609   -40559   -40545   -40535   -40641   -40833   -40775 
  -40556   -40504   -40637   -40896   -40944   -40563   -40333   -40605 
  -40894   -40755   -40352   -40265   -40729   -41265   -41148   -40450 
  -40161   -40393   -40491   -40548   -40738   -40891   -40840   -40609 
  -40528   -40682   -40815   -40643   -40379   -40635   -40938   -40520 
  -40159   -40552   -41031   -40942   -40510   -40518   -40910   -40834 
  -40597   -40734   -40617   -40279   -40427   -40684   -40660   -40678 
  -40706   -40664   -40736   -40745   -40644   -40753   -40899   -40716 
  -40431   -40454   -40716   -40745   -40514   -40483   -40660   -40765 
  -40759   -40706   -40662   -40544   -40435   -40662   -40926   -40674 
  -40371   -40625   -40915   -40813   -40630   -40562   -40617   -40632 
  -40585   -40697   -40794   -40603   -40320   -40571   -41122   -40956 
  -40374   -40220   -40489   -40872   -41008   -40821   -40524   -40355 
  -40536   -40815   -40851   -40744   -40640   -40605   -40652   -40608 
  -40501   -40599   -40740   -40703   -40720   -40694   -40497   -40486 
  -40628   -40679   -40690   -40675   -40590   -40544   -40775   -40979 
  -40728   -40528   -40678   -40663   -40464   -40516   -40706   -40716 
  -40691   -40729   -40699   -40632   -40558   -40564   -40724   -40764 
  -40575   -40521   -40741   -40788   -40529   -40474   -40703   -40763 
  -40589   -40528   -40726   -40818   -40621   -40514   -40610   -40709 
  -40729   -40689   -40679   -40756   -40845   -40714   -40328   -40078 
  -40402   -41076   -41192   -40659   -40363   -40593   -40811   -40616 
  -40466   -40809   -40964   -40558   -40328   -40560   -40792   -40774 
  -40591   -40537   -40806   -40992   -40718   -40382   -40487   -40811 
  -40725   -40354   -40390   -40733   -40891   -40832   -40703   -40576 
  -40537   -40594   -40537   -40560   -40869   -40959   -40678   -40383 
  -40319   -40591   -40971   -41042   -40606   -40240   -40628   -41027 
  -40699   -40517   -40798   -40640   -40292   -40479   -40736   -40694 
  -40656   -40747   -40732   -40549   -40576   -40807   -40900   -40671 
  -40365   -40613   -40981   -40772   -40502   -40498   -40525   -40624 
  -40828   -40702   -40328   -40516   -40984   -40882   -40487   -40479 
  -40818   -40871   -40555   -40563   -40844   -40707   -40352   -40381 
  -40662   -40771   -40737   -40768   -40652   -40381   -40506   -40961 
  -40998   -40548   -40311   -40653   -41015   -40790   -40427   -40508 
  -40711   -40768   -40667   -40363   -40339   -40783   -41072   -40833 
  -40360   -40278   -40675   -40996   -40876   -40408   -40225   -40649 
  -41048   -40905   -40545   -40585   -40838   -40593   -40174   -40455 
  -41056   -41067   -40549   -40190   -40544   -41073   -40842   -40392 
  -40375   -40609   -40919   -40864   -40506   -40544   -40826   -40807 
  -40563   -40462   -40551   -40656   -40738   -40606   -40320   -40494 
  -40959   -40976   -40632   -40466   -40641   -40767   -40626   -40578 
  -40757   -41031   -40948   -40408   -40289   -40636   -40784   -40811 
  -40690   -40443   -40448   -40554   -40593   -40824   -41045   -40760 
  -40338   -40470   -40867   -40836   -40435   -40333   -40703   -40986 
  -40869   -40606   -40462   -40400   -40450   -40795   -41053   -40683 
  -40203   -40408   -40954   -40991   -40477   -40196   -40594   -40990 
  -40851   -40568   -40425   -40659   -41048   -40817   -40369   -40471 
  -40838   -40954   -40649   -40373   -40475   -40632   -40795   -40848 
  -40624   -40562   -40697   -40637   -40518   -40585   -40590   -40532 
  -40756   -40946   -40747   -40524   -40587   -40716   -40675   -40616 
  -40549   -40450   -40640   -40859   -40647   -40416   -40532   -40868 
  -40944   -40574   -40423   -40602   -40645   -40703   -40818   -40733 
  -40640   -40664   -40629   -40670   -40755   -40632   -40524   -40598 
  -40670   -40663   -40616   -40614   -40717   -40772   -40614   -40462 
  -40639   -40927   -40803   -40429   -40544   -41004   -40887   -40436 
  -40467   -40555   -40535   -40832   -40891   -40470   -40286   -40602 
  -40917   -40733   -40386   -40450   -40884   -41099   -40582   -40136 
  -40601   -41195   -41033   -40375   -40162   -40612   -40894   -40643 
  -40366   -40412   -40662   -40938   -40987   -40626   -40339   -40637 
  -40925   -40682   -40486   -40597   -40717   -40748   -40699   -40522 
  -40436   -40818   -40999   -40371   -40024   -40643   -41195   -40851 
  -40362   -40527   -40830   -40774   -40513   -40424   -40725   -40973 
  -40761   -40478   -40544   -40736   -40772   -40767   -40690   -40410 
  -40275   -40590   -40918   -40813   -40609   -40645   -40753   -40805 
  -40767   -40620   -40544   -40759   -40899   -40562   -40360   -40664 
  -40878   -40761   -40517   -40466   -40616   -40585   -40574   -40595 
  -40382   -40518   -40913   -40865   -40738   -40716   -40531   -40579 
  -40882   -40775   -40450   -40548   -40765   -40636   -40514   -40706 
  -40787   -40559   -40490   -40620   -40662   -40691   -40680   -40706 
  -40737   -40467   -40464   -40926   -40829   -40332   -40562   -41146 
  -40988   -40400   -40319   -40585   -40624   -40633   -40806   -40753 
  -40462   -40398   -40720   -40961   -40633   -40293   -40585   -40894 
  -40678   -40360   -40504   -41031   -41095   -40589   -40420   -40705 
  -40936   -40810   -40582   -40636   -40555   -40394   -40645   -40875 
  -40743   -40589   -40675   -40765   -40620   -40505   -40527   -40535 
  -40516   -40490   -40679   -40959   -40833   -40552   -40498   -40514 
  -40652   -40844   -40757   -40633   -40628   -40522   -40524   -40674 
  -40668   -40612   -40720   -40782   -40521   -40336   -40583   -40568 
  -40239   -40540   -41000   -40836   -40643   -40720   -40756   -40587 
  -40444   -40702   -40813   -40329   -40055   -40439   -40798   -40653 
  -40518   -40605   -40429   -40154   -40089   -40270   -40599   -40593 
  -40668   -41257   -41297   -40717   -40575   -40878   -41146   -41206 
  -41188   -41330   -41503   -41280   -40571   -40181   -40679   -40957 
  -40151   -39798   -40736   -41116   -40597   -40906   -41623   -41227 
  -40304   -40085   -40367   -40664   -40921   -40689   -40690   -42020 
  -42692   -41295   -39941   -39723   -39977   -40270   -40150   -39993 
  -40116   -40154   -40774   -41735   -41035   -39503   -39987   -41303 
  -40680   -39463   -39870   -41123   -41627   -41091   -40436   -40375 
  -40279   -39796   -39842   -40932   -41739   -40761   -39621   -40608 
  -42053   -41396   -39949   -40425   -41670   -41035   -39806   -39937 
  -40527   -40730   -40686   -40420   -40277   -40549   -40772   -40761 
  -40822   -40493   -39602   -39621   -40976   -41629   -40707   -39884 
  -40316   -41104   -41116   -40559   -40466   -41158   -41391   -40605 
  -40026   -40279   -40959   -41243   -40937   -40992   -40968   -39964 
  -39515   -40608   -41409   -40860   -40378   -40733   -41127   -41214 
  -40991   -40373   -40047   -40602   -41380   -41570   -41119   -40606 
  -40624   -40919   -40869   -40587   -40439   -40080   -39526   -39800 
  -40740   -40921   -40502   -40694   -41156   -41015   -40652   -40714 
  -41000   -40890   -40273   -39780   -40026   -40865   -41393   -40918 
  -40115   -40054   -40541   -40817   -40770   -40560   -40450   -40828 
  -41162   -40737   -40369   -40722   -40860   -40433   -40532   -41087 
  -40829   -40282   -40410   -40606   -40621   -40616   -40506   -40632 
  -40892   -40776   -40505   -40544   -40824   -40824   -40454   -40440 
  -40779   -40753   -40718   -41052   -40930   -40319   -40271   -40655 
  -40759   -40834   -40941   -40676   -40266   -40339   -40892   -41107 
  -40743   -40487   -40541   -40597   -40641   -40664   -40528   -40443 
  -40528   -40504   -40478   -40725   -40961   -40856   -40733   -40853 
  -40919   -40811   -40599   -40441   -40552   -40772   -40768   -40684 
  -40929   -41035   -40455   -40061   -40413   -40532   -40319   -40632 
  -41002   -40806   -40431   -40281   -40608   -41073   -40891   -40282 
  -40393   -41196   -41153   -40304   -40304   -40980   -41061   -40628 
  -40464   -40614   -40531   -40251   -40274   -40652   -40929   -40726 
  -40414   -40483   -40782   -41088   -41156   -40740   -40293   -40269 
  -40477   -40882   -41284   -41011   -40506   -40779   -41157   -40666 
  -40028   -40304   -40930   -40711   -40200   -40375   -40678   -40603 
  -40537   -40498   -40308   -40323   -40468   -40443   -40693   -41202 
  -41162   -40612   -40375   -40605   -40782   -40720   -40683   -40726 
  -40664   -40613   -40632   -40725   -40988   -40946   -40525   -40468 
  -40609   -40494   -40598   -40868   -40725   -40513   -40749   -41010 
  -40821   -40512   -40447   -40695   -40914   -40535   -40150   -40501 
  -40880   -40740   -40603   -40784   -40811   -40446   -40352   -40761 
  -40903   -40510   -40220   -40516   -40967   -40861   -40625   -40879 
  -41034   -40668   -40408   -40514   -40668   -40896   -41052   -40887 
  -40490   -40027   -40109   -40726   -40981   -40832   -40560   -40367 
  -40628   -40846   -40537   -40464   -40828   -40849   -40655   -40632 
  -40667   -40791   -40687   -40344   -40563   -40973   -40660   -40157 
  -40069   -40387   -40936   -41037   -40531   -40234   -40618   -41083 
  -41084   -40807   -40302   -40082   -40775   -41323   -40878   -40410 
  -40423   -40687   -41104   -41057   -40610   -40427   -40571   -40942 
  -40903   -40386   -40393   -40630   -40452   -40423   -40655   -40684 
  -40567   -40605   -40826   -40922   -40725   -40595   -40698   -40760 
  -40693   -40551   -40486   -40666   -40919   -40950   -40621   -40400 
  -40703   -40848   -40570   -40516   -40517   -40304   -40513   -41077 
  -40930   -40223   -40278   -40950   -40898   -40348   -40486   -40872 
  -40741   -40581   -40602   -40625   -40629   -40624   -40913   -41214 
  -40923   -40431   -40373   -40701   -40829   -40477   -40207   -40478 
  -40849   -40714   -40259   -40274   -40879   -41152   -40838   -40572 
  -40491   -40618   -40959   -40913   -40481   -40460   -40694   -40628 
  -40589   -40675   -40612   -40582   -40578   -40468   -40464   -40576 
  -40709   -40740   -40582   -40613   -40853   -40806   -40626   -40691 
  -40717   -40562   -40649   -40964   -40888   -40452   -40315   -40428 
  -40500   -40733   -40905   -40678   -40559   -40736   -40741   -40765 
  -40979   -40898   -40556   -40405   -40518   -40625   -40522   -40466 
  -40594   -40622   -40637   -40720   -40651   -40594   -40701   -40841 
  -40888   -40774   -40689   -40687   -40608   -40570   -40664   -40749 
  -40695   -40593   -40632   -40636   -40545   -40589   -40587   -40393 
  -40412   -40743   -40852   -40791   -40907   -40832   -40601   -40558 
  -40545   -40606   -40706   -40682   -40747   -40824   -40575   -40356 
  -40464   -40554   -40605   -40710   -40721   -40586   -40463   -40656 
  -40907   -40801   -40540   -40317   -40350   -40864   -41226   -40849 
  -40335   -40421   -40828   -40772   -40429   -40533   -40844   -40938 
  -40852   -40709   -40728   -40533   -40155   -40473   -40956   -40768 
  -40527   -40559   -40678   -40824   -40713   -40528   -40570   -40578 
  -40652   -40886   -40886   -40630   -40478   -40581   -40736   -40782 
  -40764   -40672   -40522   -40440   -40579   -40809   -40683   -40478 
  -40691   -40778   -40582   -40574   -40590   -40574   -40676   -40774 
  -40788   -40713   -40706   -40809   -40752   -40525   -40382   -40473 
  -40651   -40765   -40824   -40730   -40583   -40559   -40591   -40512 
  -40390   -40610   -40867   -40682   -40533   -40641   -40664   -40625 
  -40644   -40656   -40728   -40760   -40618   -40680   -40810   -40633 
  -40570   -40656   -40614   -40630   -40767   -40811   -40589   -40393 
  -40520   -40647   -40706   -40848   -40753   -40439   -40489   -40838 
  -40925   -40868   -40872   -40717   -40555   -40483   -40402   -40556 
  -40772   -40710   -40618   -40671   -40671   -40554   -40574   -40707 
  -40578   -40494   -40757   -40732   -40450   -40543   -40797   -40917 
  -40921   -40707   -40444   -40487   -40678   -40599   -40383   -40456 
