Origin Time       2025/03/30 21:30:00
Lat.              38.535
Long.             142.295
Depth. (km)       44
Mag.              4.3
Station Code      IWT012
Station Lat.      39.3206
Station Long.     141.1388
Station Height(m) 62
Record Time       2025/03/30 21:31:31
Sampling Freq(Hz) 100Hz
Duration Time(s)  62
Dir.              N-S
Scale Factor      7845(gal)/8223790
Max. Acc. (gal)   4.761
Last Correction   2025/03/30 21:31:30
Memo.             
[...]
   -1968    -2025    -2084    -2211    -2469    -2654    -2548    -2334 
   -2311    -2509    -2760    -2857    -2778    -2686    -2647    -2581 
   -2447    -2290    -2096    -1914    -1973    -2245    -2423    -2435 
   -2439    -2538    -2744    -2856    -2650    -2419    -2525    -2759 
   -2801    -2547    -2127    -1961    -2137    -2258    -2147    -2015 
   -2138    -2543    -2895    -2895    -2747    -2874    -3157    -3102 
   -2641    -2153    -2033    -2232    -2276    -2114    -2069    -2142 
   -2315    -2559    -2631    -2577    -2589    -2627    -2625    -2486 
   -2272    -2281    -2489    -2610    -2543    -2316    -2160    -2334 
   -2620    -2675    -2583    -2528    -2593    -2744    -2709    -2462 
   -2323    -2300    -2234    -2079    -1883    -1984    -2457    -2816 
   -2857    -2700    -2470    -2479    -2705    -2701    -2458    -2315 
   -2380    -2493    -2401    -2165    -2119    -2242    -2315    -2361 
   -2440    -2524    -2590    -2628    -2678    -2745    -2725    -2589 
   -2459    -2459    -2471    -2261    -1995    -2039    -2297    -2475 
   -2544    -2532    -2500    -2617    -2739    -2586    -2332    -2236 
   -2367    -2573    -2556    -2400    -2354    -2469    -2767    -2941 
   -2683    -2384    -2435    -2593    -2489    -2155    -1935    -2043 
   -2361    -2613    -2606    -2451    -2463    -2660    -2747    -2600 
   -2413    -2405    -2477    -2461    -2392    -2288    -2204    -2334 
   -2660    -2837    -2647    -2346    -2228    -2253    -2290    -2273 
   -2265    -2340    -2444    -2563    -2650    -2633    -2600    -2550 
   -2400    -2285    -2332    -2403    -2455    -2555    -2579    -2511 
   -2452    -2371    -2315    -2336    -2320    -2324    -2482    -2677 
   -2787    -2785    -2644    -2434    -2268    -2251    -2400    -2546 
   -2559    -2546    -2563    -2473    -2300    -2230    -2262    -2331 
   -2413    -2446    -2369    -2258    -2320    -2555    -2704    -2698 
   -2648    -2585    -2527    -2493    -2425    -2353    -2416    -2532 
   -2524    -2525    -2570    -2473    -2320    -2270    -2272    -2288 
   -2309    -2339    -2427    -2511    -2489    -2423    -2432    -2528 
   -2636    -2724    -2798    -2766    -2635    -2574    -2538    -2392 
   -2226    -2101    -1999    -1972    -2073    -2261    -2396    -2440 
   -2529    -2731    -2907    -2886    -2718    -2659    -2733    -2700 
   -2412    -1995    -1809    -2026    -2285    -2293    -2261    -2405 
   -2668    -2878    -2890    -2766    -2677    -2597    -2505    -2494 
   -2434    -2270    -2192    -2166    -2143    -2234    -2351    -2427 
   -2596    -2857    -3019    -2911    -2571    -2286    -2269    -2338 
   -2245    -2096    -2103    -2295    -2569    -2724    -2704    -2629 
   -2556    -2502    -2432    -2344    -2385    -2559    -2659    -2504 
   -2187    -2007    -2029    -2130    -2269    -2413    -2586    -2782 
   -2837    -2705    -2601    -2613    -2569    -2407    -2263    -2231 
   -2304    -2447    -2566    -2575    -2494    -2421    -2378    -2354 
   -2408    -2469    -2461    -2508    -2581    -2558    -2505    -2467 
   -2500    -2593    -2562    -2415    -2336    -2390    -2504    -2527 
   -2444    -2401    -2384    -2327    -2316    -2369    -2446    -2567 
   -2627    -2569    -2563    -2643    -2644    -2482    -2258    -2174 
   -2269    -2385    -2411    -2346    -2276    -2266    -2359    -2587 
   -2755    -2659    -2521    -2578    -2702    -2681    -2467    -2241 
   -2158    -2155    -2114    -2039    -2095    -2381    -2705    -2845 
   -2818    -2787    -2839    -2879    -2776    -2546    -2330    -2214 
   -2189    -2191    -2158    -2161    -2281    -2463    -2635    -2710 
   -2705    -2791    -2874    -2678    -2351    -2216    -2232    -2220 
   -2155    -2089    -2119    -2246    -2401    -2616    -2825    -2893 
   -2867    -2789    -2627    -2485    -2442    -2384    -2204    -2052 
   -2081    -2169    -2215    -2299    -2465    -2679    -2829    -2787 
   -2571    -2336    -2173    -2091    -2146    -2293    -2389    -2486 
   -2643    -2752    -2778    -2737    -2704    -2717    -2647    -2538 
   -2463    -2303    -2116    -2000    -1966    -2084    -2232    -2370 
   -2592    -2747    -2852    -3015    -2990    -2739    -2493    -2328 
   -2282    -2285    -2232    -2174    -2164    -2266    -2404    -2388 
   -2378    -2550    -2677    -2709    -2845    -2956    -2902    -2782 
   -2558    -2236    -2079    -2111    -2110    -2057    -2099    -2250 
   -2409    -2498    -2517    -2493    -2451    -2434    -2461    -2481 
   -2434    -2374    -2388    -2532    -2763    -2835    -2668    -2554 
   -2589    -2533    -2300    -2074    -2066    -2285    -2458    -2407 
   -2295    -2288    -2392    -2592    -2798    -2876    -2864    -2840 
   -2673    -2349    -2139    -2155    -2250    -2354    -2474    -2592 
   -2673    -2706    -2733    -2682    -2419    -2076    -1949    -2079 
   -2238    -2309    -2334    -2386    -2616    -2963    -2992    -2679 
   -2511    -2531    -2470    -2357    -2278    -2216    -2178    -2185 
   -2204    -2199    -2293    -2601    -2844    -2768    -2574    -2419 
   -2317    -2403    -2571    -2563    -2398    -2313    -2408    -2500 
   -2504    -2581    -2695    -2660    -2523    -2436    -2448    -2508 
   -2439    -2149    -1888    -1966    -2290    -2504    -2520    -2558 
   -2689    -2781    -2817    -2864    -2826    -2613    -2389    -2299 
   -2250    -2228    -2309    -2359    -2351    -2455    -2578    -2525 
   -2363    -2296    -2428    -2636    -2678    -2554    -2455    -2411 
   -2381    -2392    -2376    -2300    -2222    -2160    -2262    -2512 
   -2636    -2646    -2625    -2546    -2539    -2616    -2658    -2643 
   -2551    -2467    -2420    -2258    -2052    -1946    -1964    -2174 
   -2461    -2536    -2486    -2550    -2658    -2704    -2654    -2492 
   -2425    -2605    -2841    -2911    -2783    -2585    -2451    -2411 
   -2371    -2218    -2068    -2077    -2126    -2162    -2308    -2490 
   -2596    -2702    -2785    -2727    -2540    -2309    -2207    -2330 
   -2524    -2640    -2614    -2467    -2376    -2428    -2506    -2482 
   -2382    -2378    -2508    -2598    -2571    -2469    -2366    -2320 
   -2276    -2278    -2404    -2492    -2454    -2397    -2370    -2380 
   -2373    -2331    -2404    -2608    -2790    -2898    -2859    -2720 
   -2659    -2610    -2455    -2255    -2092    -2007    -1988    -2018 
   -2207    -2565    -2828    -2835    -2689    -2535    -2571    -2740 
   -2635    -2284    -2099    -2150    -2268    -2305    -2278    -2366 
   -2520    -2604    -2690    -2778    -2833    -2859    -2725    -2500 
   -2367    -2222    -2029    -1912    -1900    -2054    -2365    -2609 
   -2658    -2617    -2623    -2748    -2924    -2893    -2543    -2166 
   -2077    -2243    -2389    -2299    -2128    -2241    -2683    -3121 
   -3179    -2817    -2351    -2116    -2124    -2118    -1984    -1954 
   -2218    -2546    -2691    -2737    -2749    -2759    -2805    -2694 
   -2436    -2301    -2282    -2305    -2344    -2347    -2371    -2396 
   -2389    -2478    -2637    -2748    -2764    -2632    -2515    -2542 
   -2467    -2231    -2111    -2223    -2366    -2347    -2247    -2164 
   -2158    -2359    -2604    -2613    -2577    -2751    -2916    -2875 
   -2708    -2470    -2330    -2420    -2504    -2371    -2166    -2097 
   -2160    -2300    -2438    -2401    -2359    -2517    -2619    -2498 
   -2365    -2431    -2697    -2891    -2737    -2349    -2143    -2253 
   -2380    -2369    -2323    -2288    -2274    -2344    -2527    -2706 
   -2713    -2637    -2654    -2647    -2575    -2594    -2695    -2705 
   -2529    -2292    -2165    -2165    -2266    -2409    -2531    -2647 
   -2713    -2635    -2462    -2371    -2384    -2411    -2425    -2362 
   -2296    -2371    -2416    -2397    -2517    -2664    -2710    -2741 
   -2693    -2554    -2401    -2204    -2076    -2114    -2195    -2274 
   -2344    -2361    -2332    -2253    -2185    -2222    -2357    -2567 
   -2756    -2775    -2598    -2411    -2465    -2710    -2724    -2354 
   -1969    -1834    -1903    -2124    -2365    -2517    -2705    -3022 
   -3300    -3325    -3134    -2934    -2809    -2689    -2459    -2123 
   -1865    -1826    -1914    -1976    -2010    -2111    -2311    -2543 
   -2762    -2972    -3076    -2979    -2795    -2714    -2809    -2863 
   -2606    -2266    -2224    -2332    -2305    -2191    -2120    -2184 
   -2278    -2120    -1784    -1667    -1892    -2246    -2447    -2389 
   -2411    -2844    -3403    -3619    -3341    -2783    -2373    -2215 
   -2074    -1853    -1587    -1399    -1522    -2003    -2596    -3030 
   -3187    -3142    -3144    -3202    -3030    -2682    -2465    -2397 
   -2392    -2334    -2095    -1846    -1838    -2039    -2301    -2575 
   -2855    -3022    -3009    -2971    -2986    -2934    -2725    -2358 
   -2016    -1930    -2093    -2349    -2519    -2566    -2560    -2492 
   -2359    -2162    -1937    -1857    -1930    -2128    -2492    -2809 
   -2936    -2982    -2963    -2889    -2864    -2830    -2556    -2145 
   -1979    -1971    -1811    -1597    -1521    -1692    -2096    -2452 
   -2619    -2793    -3092    -3397    -3426    -2976    -2393    -2222 
   -2412    -2547    -2462    -2282    -2204    -2323    -2484    -2465 
   -2377    -2443    -2585    -2652    -2648    -2573    -2457    -2398 
   -2385    -2328    -2289    -2397    -2668    -3002    -3127    -2899 
   -2559    -2381    -2423    -2527    -2501    -2377    -2297    -2272 
   -2289    -2332    -2308    -2232    -2197    -2157    -2126    -2142 
   -2101    -2060    -2138    -2228    -2311    -2446    -2605    -2898 
   -3281    -3433    -3262    -2868    -2390    -2023    -1848    -1868 
   -1911    -1765    -1617    -1703    -1942    -2223    -2506    -2781 
   -3024    -3159    -3130    -3007    -2932    -2895    -2859    -2871 
   -2786    -2502    -2250    -2141    -2092    -2077    -2112    -2269 
   -2506    -2682    -2817    -2941    -2959    -2867    -2732    -2558 
   -2369    -2246    -2181    -2046    -1871    -1850    -2085    -2484 
   -2851    -3080    -3204    -3235    -3130    -2899    -2650    -2436 
   -2188    -1935    -1748    -1552    -1405    -1464    -1633    -1719 
   -1728    -1885    -2344    -2843    -3046    -2975    -2880    -2911 
   -2916    -2710    -2440    -2362    -2482    -2663    -2787    -2783 
   -2720    -2733    -2806    -2849    -2690    -2245    -1833    -1748 
   -1860    -1935    -1948    -2029    -2123    -2168    -2400    -2872 
   -3393    -3848    -4066    -3935    -3551    -3021    -2513    -2182 
   -1968    -1815    -1784    -1854    -1972    -2142    -2277    -2296 
   -2350    -2502    -2562    -2457    -2290    -2057    -1841    -1911 
   -2066    -1858    -1518    -1641    -2326    -3153    -3688    -3859 
   -3859    -3790    -3582    -3233    -2794    -2236    -1667    -1193 
    -766     -538     -700    -1093    -1547    -2095    -2664    -3130 
   -3472    -3576    -3393    -3156    -3011    -2860    -2646    -2408 
   -2269    -2349    -2536    -2640    -2617    -2582    -2650    -2701 
   -2656    -2577    -2481    -2438    -2390    -2224    -2153    -2288 
   -2396    -2454    -2605    -2803    -2986    -3159    -3329    -3435 
   -3396    -3244    -2913    -2340    -1826    -1618    -1691    -1865 
   -1840    -1672    -1733    -2012    -2224    -2151    -1868    -1772 
   -2037    -2486    -2926    -3177    -3181    -3001    -2656    -2254 
   -1944    -1852    -2054    -2284    -2234    -2049    -1884    -1711 
   -1614    -1632    -1687    -1707    -1652    -1602    -1729    -2047 
   -2427    -2868    -3416    -3910    -4274    -4514    -4511    -4330 
   -4089    -3688    -3036    -2247    -1665    -1547    -1706    -1830 
   -1740    -1436    -1262    -1485    -1946    -2438    -2810    -3107 
   -3615    -4241    -4530    -4301    -3735    -3082    -2506    -2087 
   -1737    -1468    -1514    -1723    -1695    -1482    -1341    -1522 
   -2232    -3168    -3748    -3730    -3175    -2386    -1645     -930 
    -299       52       78     -203     -795    -1717    -2818    -3811 
   -4572    -4993    -4920    -4461    -3955    -3645    -3474    -3233 
   -2685    -1713     -611       85      114     -445    -1398    -2543 
   -3651    -4338    -4359    -3843    -3125    -2687    -2828    -3343 
   -3766    -3609    -2759    -1652     -695     -135     -311    -1243 
   -2524    -3902    -5117    -5699    -5541    -4777    -3584    -2412 
   -1432     -506      260      830     1228     1186      490     -679 
   -1952    -3267    -4693    -5856    -6313    -6079    -5228    -3778 
   -1915      -24     1372     1902     1588      696     -599    -2326 
   -4421    -6357    -7299    -6880    -5575    -4086    -2740    -1445 
     -95      927     1085      341     -942    -2313    -3511    -4564 
   -5292    -5348    -4754    -3707    -2512    -1624    -1147     -753 
    -383     -564    -1642    -3229    -4656    -5416    -5337    -4568 
   -3338    -1977     -801       32      313       36     -584    -1497 
   -2430    -3028    -3546    -4247    -4734    -4541    -3762    -2933 
   -2447    -2034    -1152      167     1348     1696      819     -888 
   -2718    -4232    -5184    -5643    -5792    -5532    -4915    -4382 
   -4160    -3908    -3229    -2327    -1672    -1275     -689      392 
    1680     2416     1903      203    -1611    -2820    -3885    -5209 
   -6535    -7418    -7446    -6621    -5313    -3816    -2338     -990 
     130      864     1125      901      359     -162     -679    -1574 
   -2913    -4218    -4908    -4761    -4089    -3469    -3075    -2538 
   -1715    -1109    -1206    -1776    -2076    -1715    -1128    -1011 
   -1497    -2211    -2914    -3561    -4052    -4384    -4618    -4626 
   -4035    -2673    -1185     -427     -557    -1142    -1545    -1634 
   -1935    -2631    -3385    -3986    -4422    -4811    -5097    -4881 
   -4062    -3014    -1969     -947      -72      403      156     -805 
   -1975    -2907    -3434    -3677    -3981    -4183    -3774    -2893 
   -2181    -1796    -1395     -947     -820    -1125    -1547    -1810 
   -1937    -2110    -2417    -2582    -2269    -1709    -1517    -1875 
   -2367    -2556    -2489    -2745    -3472    -3921    -3680    -3076 
   -2619    -2764    -3302    -3458    -2967    -2259    -1880    -1907 
   -1887    -1549    -1270    -1580    -2531    -3620    -4249    -4294 
   -4178    -4234    -4233    -3904    -3342    -2613    -1745     -893 
    -206       85      -76     -486    -1054    -1715    -2461    -3460 
   -4645    -5652    -5988    -5351    -4055    -2554    -1040      249 
    1185     1780     1795     1027     -352    -2058    -3667    -4722 
   -5244    -5471    -5424    -4904    -3734    -2336    -1398    -1127 
   -1317    -1455    -1399    -1736    -2600    -3508    -4144    -4311 
   -4141    -3960    -3630    -2832    -1549     -184      656      830 
     499     -434    -1779    -2964    -3871    -4631    -5185    -5404 
   -5115    -4287    -3117    -1942    -1175     -799     -544     -661 
   -1316    -1896    -1848    -1493    -1610    -2358    -3092    -3369 
   -3219    -2890    -2760    -2779    -2616    -2434    -2535    -2862 
   -3231    -3354    -2982    -2380    -1966    -1772    -1602    -1321 
   -1147    -1479    -2212    -2820    -3126    -3334    -3484    -3605 
   -3879    -4113    -3815    -3034    -2428    -2195    -1845    -1258 
    -801     -723    -1134    -1833    -2517    -3296    -4121    -4487 
   -4141    -3227    -2195    -1750    -1906    -1953    -1752    -1722 
   -2166    -2822    -2882    -2355    -2119    -2367    -2708    -2809 
   -2486    -2111    -2211    -2574    -2498    -1777    -1046     -874 
   -1138    -1490    -1826    -2290    -2813    -2964    -2616    -2172 
   -2006    -2150    -2474    -2920    -3391    -3701    -3913    -4149 
   -4221    -3924    -3269    -2436    -1717    -1169     -734     -618 
    -888    -1320    -1833    -2365    -2745    -3038    -3489    -4067 
   -4398    -4305    -4010    -3686    -3369    -3188    -3075    -2740 
   -2280    -2085    -2150    -2150    -1942    -1678    -1470    -1232 
    -907     -580     -538     -930    -1409    -1721    -2057    -2528 
   -3055    -3539    -3831    -3834    -3650    -3468    -3330    -3142 
   -2701    -1772     -630        2     -179     -954    -1881    -2485 
   -2833    -3306    -3794    -4032    -3859    -3217    -2502    -2076 
   -1915    -2074    -2404    -2575    -2558    -2465    -2484    -2690 
   -2847    -2844    -2793    -2844    -3299    -4028    -4245    -3758 
   -3195    -2956    -2921    -2655    -2022    -1432    -1116    -1031 
   -1008     -849     -895    -1560    -2523    -3172    -3294    -3115 
   -2882    -2727    -2758    -2673    -2209    -1814    -1817    -2012 
   -2153    -2030    -1638    -1325    -1350    -1752    -2371    -2764 
   -2787    -2789    -2968    -3221    -3241    -2848    -2457    -2425 
   -2458    -2200    -1780    -1602    -1883    -2497    -3059    -3195 
   -2913    -2629    -2697    -2901    -2920    -2928    -3098    -3271 
   -3369    -3418    -3326    -3032    -2640    -2262    -1995    -2058 
   -2440    -2641    -2362    -1829    -1366    -1298    -1757    -2378 
   -2776    -2926    -2933    -2814    -2494    -2019    -1653    -1499 
   -1460    -1622    -1998    -2320    -2505    -2666    -2835    -3030 
   -3227    -3311    -3362    -3613    -3943    -3897    -3273    -2232 
   -1008       21      484      460      116     -700    -1960    -3181 
   -3904    -4172    -4457    -4916    -5190    -4968    -4240    -3225 
   -2262    -1570    -1147     -823     -523     -533     -928    -1301 
   -1502    -1825    -2384    -2920    -3195    -3268    -3231    -3084 
   -2921    -2845    -2848    -2882    -2905    -2976    -3195    -3474 
   -3476    -2882    -1950    -1246     -939     -912    -1063    -1398 
   -1934    -2488    -2999    -3574    -4098    -4364    -4240    -3782 
   -3198    -2475    -1653    -1021     -708     -646     -730     -888 
   -1328    -2165    -3053    -3770    -4221    -4239    -4105    -3958 
   -3325    -2377    -1745    -1474    -1566    -1922    -2068    -2045 
   -2168    -2421    -2694    -2694    -2330    -1966    -1676    -1437 
   -1512    -1867    -2273    -2628    -2930    -3345    -3744    -3775 
   -3627    -3601    -3565    -3434    -3132    -2481    -1674    -1077 
    -793     -734     -765     -913    -1225    -1510    -1691    -1892 
   -2201    -2704    -3383    -3994    -4305    -4314    -4178    -3962 
   -3557    -2816    -1831    -1128    -1074    -1312    -1399    -1426 
   -1709    -2319    -3001    -3472    -3642    -3580    -3524    -3532 
   -3262    -2636    -2100    -1908    -1849    -1725    -1659    -1827 
   -2134    -2350    -2374    -2262    -2185    -2324    -2674    -2978 
   -3042    -3053    -3253    -3478    -3306    -2602    -1826    -1478 
   -1476    -1482    -1274     -977    -1062    -1633    -2255    -2647 
   -2947    -3342    -3657    -3564    -3105    -2619    -2439    -2577 
   -2602    -2320    -2052    -1991    -2093    -2269    -2349    -2394 
   -2635    -2995    -3257    -3285    -3083    -2883    -2755    -2516 
   -2182    -1849    -1564    -1455    -1491    -1644    -2050    -2682 
