Origin Time       2025/03/30 21:30:00
Lat.              38.535
Long.             142.295
Depth. (km)       44
Mag.              4.3
Station Code      IWT012
Station Lat.      39.3206
Station Long.     141.1388
Station Height(m) 62
Record Time       2025/03/30 21:31:31
Sampling Freq(Hz) 100Hz
Duration Time(s)  62
Dir.              U-D
Scale Factor      7845(gal)/8223790
Max. Acc. (gal)   1.328
Last Correction   2025/03/30 21:31:30
Memo.             
[...]
    5293     5444     5540     5417     5287     5354     5474     5378 
    5167     5094     5124     5169     5225     5321     5503     5641 
    5636     5599     5506     5319     5193     5177     5185     5182 
    5233     5402     5514     5414     5319     5335     5274     5271 
    5437     5422     5263     5308     5429     5451     5451     5413 
    5328     5350     5505     5567     5424     5277     5254     5308 
    5340     5224     5111     5208     5331     5390     5463     5447 
    5378     5400     5478     5470     5313     5223     5368     5543 
    5594     5509     5239     5067     5225     5332     5259     5325 
    5440     5428     5459     5513     5377     5166     5152     5273 
    5358     5481     5602     5478     5246     5250     5335     5309 
    5406     5560     5497     5389     5332     5208     5165     5231 
    5269     5401     5583     5587     5491     5356     5154     5076 
    5125     5150     5302     5559     5601     5491     5425     5354 
    5313     5282     5165     5242     5544     5583     5390     5401 
    5462     5308     5167     5169     5173     5166     5271     5448 
    5466     5358     5387     5510     5553     5522     5428     5352 
    5418     5479     5364     5197     5112     5109     5204     5393 
    5597     5672     5497     5243     5201     5275     5267     5227 
    5252     5401     5563     5568     5479     5402     5366     5390 
    5390     5290     5200     5238     5368     5447     5393     5267 
    5189     5259     5437     5508     5454     5412     5355     5341 
    5425     5397     5221     5170     5324     5491     5525     5428 
    5356     5422     5514     5510     5346     5077     4951     5027 
    5165     5290     5416     5580     5628     5456     5385     5518 
    5508     5317     5312     5506     5544     5443     5358     5139 
    4961     5147     5362     5275     5215     5395     5524     5421 
    5275     5269     5356     5401     5466     5655     5688     5424 
    5274     5319     5251     5217     5347     5378     5260     5169 
    5150     5221     5410     5549     5502     5427     5475     5537 
    5455     5290     5163     5123     5213     5402     5570     5551 
    5401     5408     5418     5235     5148     5182     5181     5344 
    5603     5578     5317     5192     5274     5406     5501     5490 
    5427     5447     5462     5374     5219     5069     5098     5282 
    5404     5454     5470     5466     5460     5386     5286     5262 
    5336     5449     5429     5314     5298     5331     5362     5431 
    5421     5328     5316     5350     5271     5209     5363     5489 
    5366     5293     5379     5417     5476     5452     5184     5109 
    5367     5502     5489     5443     5312     5285     5370     5379 
    5422     5505     5525     5486     5340     5224     5197     5088 
    5042     5247     5454     5506     5566     5605     5530     5452 
    5408     5364     5371     5358     5279     5228     5171     5113 
    5193     5348     5456     5447     5314     5321     5499     5517 
    5332     5142     5123     5329     5512     5505     5427     5354 
    5385     5532     5470     5188     5165     5408     5502     5375 
    5211     5166     5240     5310     5386     5478     5518     5508 
    5478     5468     5404     5236     5120     5132     5252     5451 
    5532     5391     5283     5371     5506     5553     5427     5166 
    5077     5250     5371     5328     5286     5323     5432     5555 
    5580     5505     5422     5323     5221     5255     5332     5358 
    5398     5383     5313     5278     5293     5366     5412     5433 
    5467     5370     5209     5196     5297     5348     5332     5368 
    5395     5294     5310     5536     5616     5521     5470     5323 
    5108     5184     5408     5418     5329     5306     5301     5292 
    5306     5312     5243     5267     5505     5655     5551     5418 
    5431     5483     5363     5189     5188     5263     5319     5359 
    5313     5259     5355     5439     5360     5316     5358     5374 
    5391     5382     5316     5368     5606     5740     5545     5273 
    5194     5190     5113     5057     5090     5240     5508     5655 
    5533     5408     5436     5475     5441     5331     5188     5173 
    5341     5518     5563     5448     5297     5321     5381     5260 
    5165     5170     5136     5190     5379     5476     5448     5439 
    5510     5617     5626     5506     5352     5243     5223     5219 
    5123     5055     5178     5370     5467     5520     5533     5420 
    5308     5355     5459     5482     5417     5336     5294     5240 
    5228     5366     5432     5297     5211     5244     5274     5271 
    5304     5425     5521     5563     5634     5614     5445     5309 
    5255     5184     5175     5328     5445     5332     5157     5242 
    5518     5651     5593     5456     5316     5289     5337     5255 
    5089     5085     5202     5355     5539     5572     5532     5568 
    5552     5535     5530     5435     5367     5275     5067     4947 
    4953     4957     4997     5175     5448     5576     5555     5620 
    5636     5517     5505     5482     5301     5225     5283     5258 
    5286     5487     5487     5205     5189     5479     5509     5359 
    5378     5393     5356     5339     5216     5173     5293     5333 
    5355     5445     5521     5564     5524     5343     5175     5239 
    5397     5336     5232     5379     5541     5526     5454     5287 
    5125     5236     5433     5398     5212     5120     5219     5404 
    5476     5387     5319     5374     5439     5485     5445     5267 
    5185     5271     5331     5378     5448     5485     5487     5439 
    5440     5460     5281     5103     5166     5251     5265     5383 
    5543     5555     5524     5472     5281     5220     5421     5491 
    5358     5313     5359     5355     5366     5374     5254     5217 
    5398     5476     5420     5443     5425     5306     5301     5402 
    5355     5152     5030     5081     5278     5486     5498     5393 
    5401     5481     5506     5441     5269     5138     5250     5517 
    5637     5505     5304     5217     5309     5377     5239     5201 
    5335     5343     5375     5495     5425     5339     5489     5607 
    5475     5296     5221     5175     5190     5281     5356     5422 
    5435     5397     5416     5459     5431     5368     5404     5536 
    5611     5528     5269     5047     5096     5205     5125     4974 
    4972     5262     5698     5853     5633     5350     5219     5281 
    5490     5607     5460     5270     5292     5378     5327     5181 
    5050     5070     5319     5541     5536     5460     5391     5374 
    5447     5435     5381     5370     5293     5274     5358     5385 
    5336     5321     5472     5584     5362     5155     5233     5281 
    5289     5397     5427     5417     5502     5560     5516     5383 
    5274     5340     5427     5323     5188     5173     5269     5447 
    5547     5420     5171     5108     5298     5459     5533     5559 
    5391     5232     5371     5539     5348     4984     4927     5217 
    5536     5663     5548     5289     5063     5077     5325     5479 
    5466     5436     5363     5405     5595     5557     5293     5186 
    5337     5518     5466     5244     5086     5082     5262     5375 
    5274     5331     5549     5607     5617     5563     5351     5333 
    5505     5459     5302     5186     5081     5131     5202     5179 
    5309     5539     5643     5624     5549     5420     5205     5113 
    5270     5414     5486     5493     5279     5132     5259     5329 
    5250     5247     5341     5449     5544     5559     5467     5420 
    5487     5506     5364     5193     5185     5292     5287     5221 
    5266     5277     5220     5294     5409     5456     5437     5346 
    5366     5493     5431     5198     5146     5337     5385     5275 
    5404     5614     5583     5481     5459     5440     5444     5445 
    5319     5116     5057     5163     5193     5182     5418     5638 
    5587     5610     5616     5337     5189     5366     5489     5356 
    5161     5136     5273     5452     5576     5544     5405     5304 
    5282     5228     5127     5151     5250     5244     5310     5537 
    5572     5370     5301     5379     5395     5385     5404     5416 
    5432     5436     5363     5204     5071     5116     5275     5344 
    5367     5402     5362     5382     5528     5552     5420     5301 
    5266     5351     5458     5374     5225     5290     5431     5391 
    5296     5343     5427     5431     5478     5544     5468     5306 
    5250     5400     5584     5556     5421     5336     5255     5223 
    5248     5162     4992     5022     5329     5547     5472     5424 
    5551     5679     5686     5483     5238     5196     5197     5120 
    5138     5266     5347     5364     5410     5418     5329     5316 
    5421     5439     5386     5400     5410     5351     5256     5209 
    5308     5435     5439     5427     5445     5386     5300     5356 
    5501     5479     5374     5398     5370     5286     5290     5244 
    5175     5124     5061     5231     5611     5819     5755     5571 
    5429     5395     5377     5287     5186     5177     5200     5188 
    5302     5497     5455     5270     5287     5494     5652     5582 
    5301     5081     5071     5158     5208     5242     5355     5464 
    5502     5582     5640     5563     5425     5328     5296     5256 
    5151     5050     4946     4811     4919     5379     5709     5674 
    5595     5595     5544     5439     5302     5151     5186     5543 
    5907     5941     5782     5648     5420     5096     5005     5090 
    5044     4966     5023     5179     5362     5470     5489     5524 
    5672     5877     5815     5425     5155     5097     5005     4957 
    5036     5178     5378     5625     5729     5535     5319     5225 
    5035     4928     5080     5331     5674     5845     5579     5255 
    5175     5201     5238     5313     5414     5493     5633     5790 
    5683     5346     5082     4992     5050     5192     5271     5258 
    5269     5328     5340     5378     5551     5636     5535     5460 
    5409     5341     5267     5066     4985     5227     5364     5269 
    5271     5352     5466     5738     5994     5929     5659     5551 
    5595     5553     5390     5131     4920     4923     5022     5097 
    5144     5130     5086     5182     5451     5587     5470     5340 
    5247     5220     5406     5611     5624     5572     5520     5459 
    5439     5356     5258     5316     5363     5202     4934     4743 
    4847     5283     5736     5825     5574     5343     5363     5557 
    5610     5337     5113     5248     5460     5516     5478     5444 
    5530     5721     5869     5865     5583     5184     5055     5197 
    5283     5161     5022     5121     5248     5127     4986     4985 
    5038     5170     5279     5271     5300     5344     5275     5260 
    5391     5475     5512     5665     5857     5921     5842     5738 
    5691     5607     5526     5579     5539     5224     4873     4641 
    4507     4495     4545     4645     4916     5352     5796     6134 
    6311     6296     6192     6054     5744     5305     4930     4707 
    4699     4864     5147     5556     5899     5935     5742     5487 
    5092     4645     4456     4442     4430     4576     4968     5452 
    5869     6111     6147     6161     6288     6251     5930     5607 
    5410     5265     5049     4727     4618     5009     5676     6212 
    6411     6185     5632     5100     4819     4650     4428     4232 
    4295     4765     5436     5838     5884     5906     5895     5715 
    5544     5320     4932     4811     5115     5363     5427     5470 
    5391     5250     5174     4989     4835     5082     5521     5772 
    5729     5389     4949     4685     4723     5009     5316     5514 
    5701     5852     5786     5595     5562     5707     5887     5923 
    5657     5324     5251     5255     5244     5479     5817     5933 
    5803     5429     4958     4753     4845     4993     5212     5537 
    5752     5783     5710     5394     4872     4641     4853     5134 
    5356     5514     5472     5233     4977     4907     4989     5046 
    5093     5204     5406     5759     6169     6372     6212     5868 
    5562     5297     5135     5165     5266     5347     5395     5348 
    5269     5325     5468     5575     5606     5359     4752     4164 
    3986     4311     4959     5582     6075     6467     6602     6409 
    5930     5260     4754     4747     5103     5440     5553     5385 
    5024     4823     4927     4985     4777     4585     4722     5165 
    5724     6147     6238     6093     5890     5656     5526     5549 
    5532     5366     5096     5000     5289     5556     5441     5235 
    5292     5495     5516     5368     5219     5023     4914     5053 
    5254     5435     5692     5904     5922     5826     5745     5583 
    5228     4918     4864     5035     5401     5710     5656     5381 
    5196     5144     5055     4795     4457     4399     4873     5501 
    5779     5802     5795     5799     5934     6127     6039     5611 
    5158     4962     4961     4899     4658     4311     4110     4282 
    4761     5416     6168     6720     6750     6363     5933     5597 
    5292     5074     5076     5260     5337     5132     4918     4959 
    5120     5279     5505     5768     5987     6115     5984     5486 
    4954     4765     4820     4986     5314     5694     5913     5876 
    5724     5597     5277     4699     4247     4131     4333     4780 
    5215     5540     5853     6115     6311     6377     6093     5575 
    5240     5197     5246     5248     5193     5259     5475     5443 
    5034     4579     4411     4687     5190     5553     5707     5769 
    5876     6037     6008     5663     5244     4988     4954     5120 
    5317     5479     5775     6073     5934     5347     4806     4598 
    4630     4780     4961     5197     5522     5815     5987     6016 
    5904     5663     5319     5019     4855     4776     4884     5286 
    5775     6041     5967     5644     5265     5030     4949     4858 
    4849     5053     5301     5491     5566     5495     5524     5794 
    6102     6199     5913     5335     4897     4827     4909     4973 
    4989     4961     5038     5124     5051     5123     5418     5574 
    5505     5370     5306     5359     5354     5190     5104     5246 
    5459     5570     5520     5422     5374     5328     5374     5520 
    5556     5447     5350     5402     5562     5601     5455     5283 
    5179     5143     5163     5219     5370     5663     5898     5821 
    5501     5325     5451     5557     5478     5368     5279     5269 
    5416     5471     5281     5135     5193     5327     5377     5271 
    5225     5385     5498     5439     5382     5444     5509     5373 
    5089     4828     4653     4747     5130     5389     5331     5239 
    5355     5574     5698     5668     5525     5429     5495     5540 
    5364     5098     4999     5140     5374     5471     5440     5449 
    5475     5495     5568     5594     5557     5633     5826     5876 
    5603     5184     4945     5030     5278     5413     5522     5759 
    5883     5740     5467     5185     5020     5036     5090     5084 
    5090     5108     4999     4808     4672     4561     4529     4791 
    5255     5525     5444     5208     5116     5325     5667     5880 
    5869     5742     5640     5529     5428     5406     5494     5751 
    6026     6073     5910     5684     5529     5360     5055     4882 
    4986     5166     5451     5815     6026     6034     5773     5341 
    5116     5098     5040     5000     5151     5368     5383     5229 
    5089     5022     5112     5275     5217     4947     4818     5019 
    5310     5416     5320     5198     5336     5622     5629     5362 
    5132     5131     5343     5525     5544     5549     5633     5584 
    5259     4903     4826     5057     5333     5452     5536     5663 
    5746     5792     5749     5625     5589     5616     5632     5672 
    5593     5258     4895     4789     4887     5001     5104     5166 
    5208     5340     5445     5385     5293     5252     5269     5452 
    5656     5634     5609     5782     5883     5795     5624     5375 
    5128     5026     5105     5233     5278     5347     5437     5381 
    5252     5093     4892     4919     5233     5545     5761     5888 
    5845     5665     5410     5085     4780     4644     4765     5074 
    5354     5503     5586     5638     5714     5779     5593     5190 
    4972     5135     5490     5664     5522     5362     5324     5277 
    5233     5173     5125     5286     5543     5724     5798     5574 
    5085     4722     4711     4968     5298     5587     5746     5767 
    5813     5833     5574     5186     4922     4692     4542     4638 
    4869     5128     5417     5601     5653     5701     5713     5721 
    5800     5772     5601     5493     5418     5306     5260     5289 
    5289     5281     5378     5556     5674     5644     5535     5518 
    5568     5560     5583     5597     5475     5344     5216     5016 
    4885     4849     4800     4824     5009     5263     5499     5655 
    5609     5420     5274     5215     5227     5283     5286     5258 
    5324     5459     5535     5467     5233     5023     5112     5397 
    5570     5537     5387     5271     5282     5292     5232     5198 
    5173     5140     5289     5559     5570     5395     5418     5566 
    5625     5620     5628     5741     5902     5940     5823     5559 
    5289     5190     5073     4888     4901     5015     5035     5069 
    5120     5051     4995     5225     5593     5732     5722     5772 
    5745     5568     5441     5452     5495     5463     5339     5174 
    5053     5027     5076     5206     5354     5360     5254     5194 
    5239     5301     5298     5263     5184     5089     5163     5383 
    5526     5524     5540     5699     5798     5680     5498     5304 
    5120     5047     5011     5051     5360     5692     5713     5657 
    5661     5528     5359     5266     5250     5363     5414     5377 
    5448     5564     5617     5562     5414     5263     5067     4850 
    4799     4931     5131     5346     5505     5512     5428     5449 
    5621     5725     5644     5476     5250     5047     5007     5016 
    5032     5175     5340     5459     5643     5753     5540     5125 
    4841     4841     5090     5439     5684     5757     5745     5692 
    5528     5302     5228     5359     5514     5548     5495     5425 
    5360     5321     5310     5368     5509     5544     5352     5086 
    4981     5061     5161     5221     5304     5474     5626     5576 
    5374     5186     5139     5277     5401     5383     5381     5402 
    5351     5363     5440     5368     5255     5266     5323     5440 
    5583     5586     5443     5247     5081     4980     4945     5036 
    5251     5491     5701     5844     5894     5849     5706     5485 
