Origin Time       2025/03/30 21:30:00
Lat.              38.535
Long.             142.295
Depth. (km)       44
Mag.              4.3
Station Code      IWT006
Station Lat.      39.4850
Station Long.     141.9748
Station Height(m) 17
Record Time       2025/03/30 21:31:27
Sampling Freq(Hz) 100Hz
Duration Time(s)  60
Dir.              N-S
Scale Factor      7845(gal)/8223790
Max. Acc. (gal)   1.488
Last Correction   2025/03/30 21:31:26
Memo.             
[...]
    -306     -437     -484     -544     -510     -287     -336     -526 
    -419     -264     -287     -423     -499     -349     -202     -264 
    -450     -562     -454     -378     -515     -591     -538     -507 
    -461     -427     -472     -449     -359     -361     -382     -317 
    -236     -194     -307     -488     -540     -573     -519     -297 
    -261     -406     -427     -392     -376     -364     -444     -692 
    -876     -602     -216     -346     -637     -475     -156     -210 
    -403     -298     -194     -390     -469     -286     -189     -337 
    -642     -719     -473     -438     -580     -484     -329     -345 
    -463     -506     -365     -314     -472     -579     -634     -568 
    -261     -162     -388     -453     -325     -275     -311     -375 
    -375     -345     -476     -567     -403     -340     -502     -626 
    -606     -403     -229     -368     -587     -498     -282     -348 
    -550     -558     -411     -291     -355     -453     -279      -93 
    -321     -666     -619     -352     -314     -433     -467     -471 
    -449     -349     -251     -268     -437     -525     -449     -572 
    -777     -618     -400     -508     -618     -456     -228     -126 
     -66      -83     -286     -418     -342     -278     -356     -658 
    -885     -550     -197     -469     -743     -549     -322     -294 
    -387     -456     -427     -503     -510     -255     -290     -677 
    -699     -241      124      -14     -454     -581     -286     -229 
    -672     -930     -623     -317     -387     -448     -317     -291 
    -344     -344     -504     -669     -477     -187     -157     -415 
    -737     -685     -345     -264     -369     -305     -245     -400 
    -491     -280     -206     -650     -994     -634     -117      -94 
    -357     -488     -421     -348     -382     -452     -587     -642 
    -392     -236     -503     -739     -560     -190      -54     -310 
    -623     -499      -94     -102     -554     -768     -587     -356 
    -201     -251     -477     -541     -459     -494     -642     -743 
    -596     -228      -71     -270     -467     -475     -348     -257 
    -400     -496     -275     -160     -315     -365     -409     -677 
    -801     -635     -542     -538     -452     -367     -278     -195 
    -255     -325     -318     -402     -402     -224     -243     -410 
    -477     -510     -517     -594     -776     -812     -614     -328 
    -211     -303     -279     -174     -225     -283     -324     -456 
    -491     -473     -583     -575     -407     -357     -437     -506 
    -409     -275     -459     -634     -446     -345     -457     -480 
    -506     -453     -209     -140     -317     -490     -533     -427 
    -348     -380     -449     -446     -303     -311     -602     -745 
    -558     -303     -216     -305     -406     -444     -452     -436 
    -429     -456     -465     -445     -432     -390     -336     -345 
    -345     -369     -450     -326     -187     -357     -538     -603 
    -546     -367     -502     -743     -576     -463     -610     -554 
    -249        2     -112     -427     -378     -114     -222     -576 
    -630     -392     -368     -527     -483     -364     -356     -415 
    -560     -704     -610     -284     -157     -419     -637     -467 
    -180     -191     -379     -448     -463     -427     -364     -479 
    -587     -502     -467     -471     -324     -236     -388     -464 
    -278     -203     -379     -557     -653     -557     -324     -303 
    -499     -653     -664     -494     -252     -237     -454     -515 
    -356     -220     -166     -319     -549     -441     -263     -372 
    -610     -774     -548     -159     -338     -669     -513     -292 
    -298     -378     -452     -454     -440     -480     -522     -438 
    -260     -311     -533     -446     -153      -70     -265     -565 
    -633     -463     -425     -522     -596     -615     -498     -446 
    -544     -351      -27     -171     -445     -367     -224     -245 
    -398     -595     -630     -527     -491     -565     -614     -427 
    -156     -218     -502     -561     -355     -198     -305     -476 
    -423     -301     -356     -491     -541     -540     -611     -719 
    -627     -361     -259     -375     -453     -333     -144     -135 
    -301     -373     -214     -226     -626     -789     -567     -514 
    -575     -560     -641     -630     -407     -267     -220     -178 
    -216     -236     -187     -224     -332     -403     -521     -673 
    -638     -454     -380     -464     -606     -598     -391     -356 
    -533     -565     -469     -322     -114     -106     -332     -446 
    -427     -533     -658     -513     -248     -257     -410     -313 
    -190     -399     -642     -556     -367     -425     -533     -388 
    -332     -576     -685     -545     -450     -434     -360     -265 
    -302     -340     -182     -156     -452     -608     -434     -259 
    -349     -553     -525     -442     -625     -727     -517     -334 
    -295     -297     -475     -739     -722     -391      -55      -68 
    -325     -298     -132     -282     -477     -449     -486     -660 
    -581     -259     -284     -638     -712     -585     -553     -445 
    -256      -82      -24     -317     -639     -608     -557     -591 
    -430     -267     -376     -484     -364     -278     -301     -313 
    -441     -527     -360     -288     -477     -604     -546     -459 
    -396     -380     -494     -562     -414     -251     -243     -395 
    -529     -369     -216     -390     -495     -423     -472     -468 
    -388     -548     -676     -427     -156     -253     -549     -602 
    -298     -175     -561     -832     -577     -310     -337     -371 
    -298     -264     -230     -139     -210     -506     -630     -422 
    -311     -513     -684     -653     -629     -618     -425     -172 
    -152     -310     -379     -337     -382     -545     -657     -569 
    -340     -187     -132     -126     -388     -772     -731     -386 
    -307     -452     -427     -253     -237     -483     -778     -849 
    -572     -264     -334     -405     -168     -122     -310     -413 
    -544     -584     -398     -237     -164     -299     -684     -724 
    -387     -332     -515     -612     -626     -422     -187     -398 
    -776     -738     -403     -137      -44     -187     -414     -355 
    -234     -480     -695     -500     -259     -203     -319     -562 
    -587     -400     -463     -596     -465     -330     -365     -419 
    -360     -244     -321     -552     -552     -237      -67     -342 
    -538     -379     -457     -693     -625     -602     -753     -726 
    -511     -232      -89     -143     -171     -263     -367     -228 
    -234     -494     -492     -351     -425     -577     -666     -774 
    -904     -824     -449     -205     -324     -329      -22       66 
    -249     -492     -426     -252     -159     -295     -653     -854 
    -619     -338     -530     -903     -784     -203      256      174 
    -294     -558     -460     -357     -502     -857     -985     -562 
     -83     -186     -704     -895     -492      -49        5     -178 
    -267     -148      -36     -187     -637     -970     -734     -322 
    -357     -662     -733     -442     -140     -207     -567     -751 
    -433      -12      -94     -391     -378     -313     -502     -635 
    -545     -465     -471     -475     -328      -63     -170     -560 
    -584     -453     -560     -693     -691     -484     -275     -376 
    -557     -540     -438     -473     -548     -325       20       94 
     -28     -261     -500     -572     -660     -685     -422     -265 
    -448     -739     -843     -484     -120     -284     -491     -444 
    -436     -407     -302     -268     -356     -585     -666     -346 
     -41      -49     -148     -272     -494     -615     -407     -179 
    -411     -718     -602     -477     -691     -976     -957     -576 
    -276     -249     -216     -170     -172      -91      -64     -216 
    -386     -523     -577     -484     -469     -492     -318     -328 
    -680     -823     -665     -475     -334     -409     -577     -527 
    -328     -163     -129     -207     -241     -252     -363     -496 
    -486     -274      -94     -274     -653     -735     -595     -687 
    -870     -776     -498     -344     -345     -210       12      -74 
    -305     -306     -245     -287     -353     -504     -768     -900 
    -787     -650     -498     -255     -143      -76       45     -155 
    -579     -673     -488     -396     -459     -534     -540     -503 
    -468     -430     -353     -234     -140     -272     -515     -363 
     -76     -337     -783     -801     -515     -284     -352     -534 
    -499     -427     -533     -630     -506     -252     -259     -460 
    -373     -170     -201     -365     -498     -440     -324     -484 
    -688     -615     -490     -530     -603     -515     -319     -205 
    -213     -301     -449     -531     -356       10      132     -299 
    -864     -927     -611     -373     -244     -186     -338     -554 
    -562     -517     -541     -440     -378     -541     -530     -211 
     -58     -256     -491     -476     -360     -468     -680     -689 
    -529     -363     -303     -414     -491     -282       -2       21 
    -201     -579     -800     -557     -307     -496     -731     -720 
    -615     -444     -275     -264     -255     -105      -81     -352 
    -695     -762     -496     -299     -373     -391     -240     -236 
    -531     -824     -734     -498     -549     -581     -315     -187 
    -274     -241     -209     -217     -210     -407     -561     -353 
    -103      -95     -317     -648     -804     -707     -600     -576 
    -380      -36     -114     -634     -916     -719     -325     -172 
    -411     -576     -413     -240     -290     -507     -760     -861 
    -666     -409     -369     -399     -348     -305     -319     -355 
    -260      -68      -21      -54     -109     -297     -552     -866 
    -981     -716     -666     -878     -820     -621     -340        6 
     112      319      737      494     -423    -1039    -1086     -980 
   -1059    -1282    -1131     -477        6        0     -112     -180 
    -232     -139      -49      -54       -1      -91     -386     -525 
    -499     -534     -702     -788     -465     -213     -488     -724 
    -811    -1134    -1296     -882     -249       48        8       48 
     221      240        4     -307     -549     -847    -1017     -731 
    -441     -521     -502     -306     -332     -378     -105      236 
     236      -78     -221        9       87     -418    -1096    -1464 
   -1675    -1749    -1431     -990     -793     -702     -526     -172 
     402      913     1044      936      918      927      643     -105 
   -1134    -1749    -1601    -1449    -1690    -1493     -672     -244 
    -654    -1279    -1304     -595      -41     -214     -472     -260 
     247      708      850      643      195     -355     -646     -504 
    -382     -708    -1027     -666     -193     -529    -1123     -966 
    -311      -39     -394     -972    -1198     -951     -756     -915 
    -996     -529      261      700      627      440      337      341 
     388      101     -595     -940     -479       -5     -352     -997 
   -1097     -993    -1291    -1718    -1900    -1819    -1429     -737 
      44      587      823      907      931     1035      988      457 
    -278     -831     -972     -853    -1098    -1497    -1377    -1044 
    -859     -733     -637     -243      295      178     -263     -284 
    -248     -382     -395     -280       18      206     -406    -1366 
   -1544     -977     -459     -364     -444     -193      345      583 
     426      298      170     -433    -1278    -1534    -1262    -1132 
   -1115     -730      -14      148     -639    -1088     -413       48 
    -510     -953     -399      306       62     -373      244     1031 
     864      164     -827    -1802    -1765     -973     -735    -1117 
    -982      -79      584      361     -409     -889     -777     -784 
    -990     -622       18       98     -222     -225      319      712 
     380     -220     -758    -1236    -1345    -1131     -935     -803 
    -658     -437     -168       10      109      309      477       18 
    -916    -1310    -1057     -778     -639     -652     -537      -87 
     257      267      -68     -486     -438     -399     -974    -1582 
   -1718    -1247     -122      869      896      144     -618     -576 
     195      384     -604    -1572    -1339     -378      -71     -580 
    -697      -72      410      220     -456    -1036     -970     -402 
     -48     -306     -749     -691     -178       85     -295     -869 
    -891     -475     -419     -598     -461     -442     -589     -348 
    -141     -392     -554     -426     -199      195      441      251 
    -106     -756    -1552    -1611    -1017     -594     -546     -677 
    -531     -178     -411     -842     -388      391      666      687 
     259     -622     -988     -905     -942     -889     -842     -746 
    -230      282      406      139     -457     -807     -596     -292 
    -309     -473     -352     -361    -1036    -1447    -1021     -463 
       9      236       -8      -83      206      282       85     -361 
   -1278    -1977    -1449     -152      441      -31     -508     -355 
     -31      -37     -402     -638     -423     -445    -1105    -1576 
   -1300     -602     -126     -179      -90      515      835      642 
     318     -363    -1225    -1601    -1320     -461       94     -626 
   -1377     -679      275      105     -612     -885     -461      -70 
    -510    -1194    -1071     -143      799      834     -152     -958 
    -656       24     -163    -1039    -1290     -772     -321       17 
     -47     -877    -1070       -8      611      190     -450    -1016 
   -1236    -1011     -693     -403     -283     -333     -182       90 
     305      403      -16     -561     -444     -291     -734    -1179 
   -1256    -1171    -1017     -719     -449     -515     -527       67 
     818      958      190    -1050    -1437     -503      440      371 
    -432     -984     -589        5     -136     -687    -1069    -1062 
    -697     -402     -542     -949    -1003     -510     -149     -205 
    -315     -476     -494        2      452      314      -72     -369 
    -301      -56     -336     -737     -511      -40       67     -549 
   -1574    -1788     -878     -149     -666    -1624    -1464     -255 
     774     1088      864      444      -97     -878    -1324     -936 
    -446     -526     -716     -357      225      328       18     -465 
    -989     -996     -464     -144     -425    -1098    -1591    -1382 
    -646      -27       66     -256     -332      278      710       83 
    -864    -1055     -515      -20     -203     -548     -174      216 
    -330    -1042    -1109     -936     -801     -438       25      -59 
    -704    -1032     -814     -599     -476     -306     -140       24 
     155      112     -216     -530     -341      141      267     -135 
    -581     -612     -534     -881    -1219     -800     -207     -540 
   -1428    -1676    -1077     -379     -151     -121      237      754 
     905      529     -141     -594     -662     -649     -584     -656 
    -904     -637     -162     -446     -951     -893     -544     -403 
    -731     -999     -656     -351     -396     -365     -279       45 
     604      499     -214     -465     -174      -62     -325     -710 
   -1047    -1092     -742     -301       79      128     -427     -819 
    -445      -68     -341    -1040    -1421     -905     -256     -344 
    -630     -527     -122      252      274      118     -117     -450 
    -365     -149     -603    -1086     -855     -297       64     -365 
   -1525    -1883     -822       60     -221     -714     -469      279 
     454     -448    -1300    -1134     -427      302      723      525 
     183       39     -220     -511     -723     -989     -999     -596 
    -299     -560    -1212    -1525    -1132     -643     -414     -117 
     141      164      176      197       82     -171     -398     -313 
    -175     -351     -399     -210     -330     -642     -749     -648 
    -618     -942    -1188    -1000     -870     -855     -702     -672 
    -542       62      687      797      267     -341     -371     -256 
    -398     -480     -515     -504     -292     -171     -318     -437 
    -560     -916    -1135    -1094    -1102     -754      -58      -56 
    -688     -846     -345       81      -94     -565     -618     -124 
     202     -129     -298      294      635      205     -384     -893 
   -1081     -835     -714    -1019    -1471    -1390     -463      220 
    -202     -719     -368      268      417       -9     -714    -1040 
    -611      -17      108     -170     -642     -957     -621      -55 
    -132     -558     -519      -49      252     -126     -930    -1167 
    -677     -233     -172     -410     -711     -633     -417     -754 
   -1254     -996     -155      440      503      221     -162     -554 
    -884     -708     -126     -122     -589     -394      257      175 
    -830    -1638    -1233     -386     -488     -884     -498     -193 
    -550     -765     -450        0      160      141      253      189 
    -145     -140     -108     -874    -1597    -1129     -313     -112 
    -139     -203     -561    -1093    -1343     -997     -518     -324 
    -157     -130     -313     -261     -164     -252     -247     -220 
    -149      112      218      -43     -615    -1146     -928     -392 
    -575     -851     -585     -502     -558     -340     -433     -903 
    -897     -233      243      -28     -383     -209       -9     -121 
    -207     -280     -546     -823    -1027    -1055     -581        1 
      12     -230     -305     -496     -773     -793     -602     -206 
     153     -105     -407     -109     -221     -927     -984     -391 
      76      118     -352     -832     -892     -842     -739     -472 
    -268     -199     -156        2      225      -44     -710     -876 
    -704     -808     -791     -383      -31     -108     -472     -623 
    -487     -429     -602     -708     -379      -45     -297     -648 
    -585     -345      -94      -71     -414     -484      -91      -40 
    -473     -687     -641     -777     -811     -515     -419     -622 
    -750     -676     -494     -326      -83       67     -103      -13 
     403      126     -729    -1021     -684     -525     -913    -1260 
    -901     -324     -186     -348     -517     -373      106      346 
     172     -209     -710     -769     -202       63     -392     -888 
    -785     -179      164     -205     -754     -931     -757     -449 
    -453     -832     -951     -689     -414      -70      206      -71 
    -560     -432      149      256     -394    -1008     -849     -402 
    -469     -792     -855     -706     -334       79       55     -292 
    -457     -313     -184     -360     -654     -801     -729     -445 
    -292     -525     -679     -433     -121       -5      -83     -122 
