Origin Time       2025/03/30 21:30:00
Lat.              38.535
Long.             142.295
Depth. (km)       44
Mag.              4.3
Station Code      IWT004
Station Lat.      39.7356
Station Long.     141.9671
Station Height(m) 9
Record Time       2025/03/30 21:31:32
Sampling Freq(Hz) 100Hz
Duration Time(s)  60
Dir.              N-S
Scale Factor      7845(gal)/8223790
Max. Acc. (gal)   1.684
Last Correction   2025/03/30 21:31:31
Memo.             
[...]
   -4276    -4369    -4432    -4334    -4058    -3680    -3476    -3626 
   -3924    -4114    -4144    -4032    -3846    -3680    -3626    -3816 
   -4248    -4590    -4541    -4255    -3997    -3844    -3827    -3877 
   -3932    -4051    -4143    -4098    -4036    -4017    -3989    -4008 
   -4089    -4101    -4018    -3986    -4102    -4210    -4091    -3808 
   -3592    -3550    -3634    -3728    -3793    -3915    -4094    -4203 
   -4201    -4194    -4272    -4365    -4352    -4236    -4108    -4072 
   -4160    -4220    -4128    -3964    -3798    -3678    -3684    -3786 
   -3935    -4117    -4201    -4141    -4082    -4013    -3916    -3937 
   -4017    -3966    -3836    -3801    -3947    -4124    -4027    -3727 
   -3653    -3843    -3996    -4071    -4217    -4402    -4472    -4336 
   -4091    -3977    -4068    -4190    -4189    -4070    -3898    -3759 
   -3730    -3815    -3948    -4055    -4082    -4039    -3994    -3977 
   -3994    -4040    -4055    -4021    -3942    -3812    -3758    -3898 
   -4113    -4213    -4197    -4167    -4131    -4051    -3997    -4047 
   -4113    -4060    -3908    -3823    -3896    -3948    -3823    -3690 
   -3735    -3919    -4153    -4293    -4259    -4159    -4062    -3975 
   -3975    -4110    -4303    -4411    -4325    -4078    -3856    -3781 
   -3765    -3786    -3892    -3936    -3855    -3820    -3898    -4058 
   -4202    -4205    -4156    -4133    -4037    -3970    -4066    -4163 
   -4152    -4083    -3954    -3812    -3728    -3720    -3861    -4097 
   -4190    -4089    -3986    -4018    -4081    -4013    -3892    -3871 
   -3944    -4044    -4089    -4048    -4016    -4024    -4016    -3979 
   -3963    -4071    -4279    -4395    -4329    -4160    -3977    -3858 
   -3825    -3805    -3800    -3851    -3897    -3906    -3973    -4114 
   -4175    -4079    -3986    -4024    -4072    -3996    -3886    -3879 
   -3947    -3981    -3964    -3990    -4113    -4221    -4190    -4086 
   -4012    -3997    -4090    -4205    -4153    -4014    -3958    -3993 
   -4071    -4064    -3943    -3866    -3851    -3801    -3757    -3801 
   -3916    -4009    -4018    -3986    -4004    -4075    -4113    -4075 
   -4032    -4031    -4054    -4122    -4203    -4202    -4170    -4174 
   -4153    -4094    -4014    -3932    -3933    -3964    -3820    -3597 
   -3603    -3827    -4023    -4109    -4118    -4070    -4058    -4128 
   -4175    -4198    -4241    -4226    -4174    -4136    -4047    -3963 
   -3970    -3969    -3881    -3747    -3640    -3672    -3844    -3987 
   -4002    -3975    -3978    -4031    -4151    -4272    -4322    -4337 
   -4298    -4151    -3982    -3897    -3927    -4031    -4071    -3983 
   -3879    -3820    -3773    -3780    -3865    -3931    -3916    -3881 
   -3932    -4058    -4139    -4164    -4183    -4183    -4193    -4225 
   -4195    -4137    -4141    -4145    -4132    -4140    -4066    -3871 
   -3709    -3640    -3635    -3697    -3777    -3828    -3877    -3906 
   -3925    -4008    -4163    -4322    -4374    -4284    -4156    -4082 
   -4074    -4090    -4056    -3975    -3897    -3847    -3873    -3924 
   -3935    -4001    -4098    -4093    -4036    -3997    -3969    -4044 
   -4190    -4191    -4062    -3978    -3943    -3900    -3870    -3890 
   -4006    -4189    -4257    -4122    -3959    -3931    -3979    -4017 
   -4001    -3901    -3785    -3778    -3900    -4033    -4070    -4043 
   -4077    -4213    -4332    -4307    -4194    -4091    -3975    -3834 
   -3758    -3796    -3867    -3912    -3920    -3910    -3946    -3997 
   -4028    -4125    -4221    -4156    -4058    -4071    -4137    -4209 
   -4216    -4072    -3900    -3793    -3740    -3838    -4033    -4087 
   -4004    -3962    -4008    -4048    -4001    -3943    -3977    -4043 
   -4090    -4136    -4159    -4158    -4105    -3987    -3925    -3951 
   -3966    -3942    -3908    -3883    -3867    -3855    -3937    -4118 
   -4207    -4153    -4108    -4120    -4117    -4062    -3983    -3936 
   -3927    -3946    -3966    -3950    -3942    -3962    -3977    -4012 
   -4055    -4051    -4033    -4037    -4072    -4140    -4151    -4077 
   -4028    -4031    -3990    -3892    -3829    -3890    -4025    -4099 
   -4060    -3998    -3996    -4002    -3991    -3983    -3979    -3996 
   -4025    -4016    -3989    -3946    -3863    -3866    -4021    -4156 
   -4191    -4175    -4098    -3994    -3929    -3924    -4006    -4122 
   -4151    -4068    -3933    -3840    -3879    -3994    -4082    -4139 
   -4159    -4097    -3955    -3856    -3889    -4000    -4105    -4151 
   -4126    -4064    -4008    -3951    -3877    -3842    -3905    -4002 
   -4064    -4113    -4155    -4135    -4032    -3915    -3904    -4004 
   -4068    -4004    -3920    -3950    -4037    -4067    -4041    -4048 
   -4095    -4081    -3987    -3917    -3916    -3983    -4085    -4155 
   -4135    -4001    -3838    -3790    -3883    -3998    -4040    -4086 
   -4182    -4201    -4062    -3892    -3838    -3883    -3937    -4002 
   -4098    -4153    -4136    -4113    -4101    -4048    -3935    -3838 
   -3890    -4059    -4120    -4021    -3935    -3933    -3974    -4004 
   -4000    -4032    -4114    -4158    -4171    -4168    -4062    -3881 
   -3798    -3871    -3974    -3986    -3954    -3973    -4005    -4000 
   -4021    -4074    -4086    -4062    -4028    -3982    -3979    -4032 
   -4064    -4072    -4109    -4132    -4094    -4031    -3955    -3871 
   -3854    -3912    -3982    -4035    -4041    -4006    -4010    -4067 
   -4078    -4050    -4066    -4050    -3946    -3900    -3981    -4083 
   -4136    -4135    -4097    -4039    -3940    -3819    -3771    -3840 
   -3978    -4141    -4279    -4305    -4179    -3966    -3790    -3754 
   -3808    -3859    -3940    -4077    -4168    -4149    -4063    -3975 
   -3952    -3991    -4018    -4039    -4108    -4162    -4122    -4032 
   -3982    -3983    -3967    -3966    -4031    -4054    -3964    -3892 
   -3932    -4002    -4006    -3985    -4006    -4020    -3998    -3998 
   -4005    -4009    -4064    -4144    -4166    -4101    -4010    -4009 
   -4060    -4052    -3994    -3928    -3889    -3929    -4014    -4068 
   -4071    -4023    -3936    -3886    -3935    -4017    -4052    -4043 
   -4060    -4141    -4176    -4097    -4029    -4035    -4001    -3904 
   -3856    -3906    -4005    -4064    -4021    -3939    -3888    -3811 
   -3763    -3909    -4170    -4311    -4299    -4230    -4106    -3931 
   -3838    -3910    -4066    -4163    -4141    -4056    -3952    -3828 
   -3786    -3897    -4016    -4009    -3927    -3869    -3867    -3858 
   -3836    -3931    -4144    -4294    -4288    -4206    -4149    -4148 
   -4158    -4153    -4144    -4110    -4060    -4045    -4045    -4008 
   -3917    -3823    -3816    -3854    -3809    -3742    -3800    -3928 
   -4027    -4094    -4109    -4075    -4068    -4085    -4082    -4079 
   -4095    -4128    -4162    -4143    -4063    -3973    -3905    -3902 
   -3970    -4041    -4054    -4002    -3940    -3904    -3889    -3905 
   -3966    -4044    -4132    -4212    -4224    -4155    -4059    -3994 
   -3958    -3882    -3797    -3811    -3890    -3931    -3982    -4109 
   -4202    -4163    -4025    -3908    -3929    -4043    -4094    -4098 
   -4116    -4089    -4024    -4005    -4027    -4048    -4050    -3998 
   -3929    -3904    -3924    -3997    -4083    -4075    -3969    -3904 
   -3954    -4054    -4102    -4079    -4054    -4058    -4032    -3948 
   -3909    -3962    -3996    -3962    -3948    -3996    -4075    -4113 
   -4074    -4033    -3996    -3921    -3925    -4018    -4050    -3989 
   -3921    -3910    -3971    -4031    -4062    -4109    -4159    -4158 
   -4075    -3954    -3910    -3940    -3929    -3919    -4028    -4198 
   -4259    -4160    -4010    -3933    -3952    -3990    -4013    -4070 
   -4124    -4116    -4078    -4014    -3912    -3816    -3784    -3855 
   -3951    -3917    -3821    -3838    -3931    -3977    -4005    -4116 
   -4283    -4363    -4286    -4185    -4203    -4294    -4333    -4261 
   -4075    -3859    -3730    -3684    -3680    -3734    -3790    -3785 
   -3785    -3828    -3877    -3948    -4067    -4214    -4315    -4305 
   -4202    -4085    -4050    -4095    -4050    -3908    -3854    -3919 
   -4005    -4050    -4025    -4017    -4052    -4005    -3902    -3900 
   -3977    -4059    -4133    -4152    -4164    -4207    -4163    -4048 
   -3993    -3987    -3994    -4028    -4036    -3987    -3931    -3888 
   -3856    -3840    -3829    -3856    -3936    -4005    -4043    -4072 
   -4077    -4086    -4126    -4156    -4160    -4141    -4101    -4027 
   -3897    -3789    -3817    -3925    -3974    -3937    -3917    -3977 
   -4028    -3997    -3955    -3982    -4048    -4113    -4171    -4217 
   -4275    -4287    -4152    -3977    -3869    -3739    -3655    -3758 
   -3940    -4064    -4109    -4090    -4087    -4109    -4064    -4002 
   -3998    -4023    -4075    -4151    -4180    -4136    -4052    -3964 
   -3888    -3888    -3975    -4059    -4112    -4162    -4132    -3987 
   -3862    -3834    -3851    -3877    -3935    -4005    -4023    -4031 
   -4085    -4116    -4136    -4212    -4261    -4221    -4109    -3974 
   -3915    -3954    -3986    -3942    -3828    -3705    -3667    -3701 
   -3746    -3828    -3966    -4090    -4160    -4203    -4236    -4252 
   -4241    -4205    -4160    -4124    -4099    -4101    -4113    -4064 
   -3916    -3747    -3649    -3628    -3682    -3829    -4014    -4148 
   -4206    -4185    -4098    -4072    -4151    -4195    -4163    -4117 
   -4063    -4041    -4091    -4110    -4016    -3894    -3862    -3901 
   -3913    -3855    -3819    -3893    -3996    -4023    -3989    -3933 
   -3904    -3935    -3986    -4047    -4153    -4268    -4338    -4371 
   -4386    -4355    -4249    -4102    -3958    -3815    -3669    -3576 
   -3573    -3634    -3738    -3889    -4029    -4056    -3987    -3963 
   -3990    -3954    -3898    -3948    -4121    -4332    -4426    -4315 
   -4075    -3873    -3836    -3940    -4070    -4164    -4207    -4187 
   -4113    -4021    -3916    -3812    -3800    -3912    -4040    -4105 
   -4136    -4152    -4126    -4056    -3979    -3931    -3906    -3916 
   -3977    -4063    -4145    -4174    -4114    -4005    -3867    -3700 
   -3623    -3708    -3844    -3959    -4059    -4090    -4045    -4025 
   -4066    -4122    -4158    -4135    -4109    -4175    -4291    -4382 
   -4399    -4271    -4064    -3898    -3755    -3680    -3724    -3775 
   -3828    -3928    -3966    -3929    -3924    -3956    -4037    -4147 
   -4183    -4143    -4094    -4064    -4079    -4129    -4145    -4082 
   -3996    -3939    -3867    -3813    -3852    -3909    -3948    -4010 
   -4045    -4028    -3991    -3940    -3936    -3981    -3989    -3971 
   -3979    -4040    -4172    -4278    -4261    -4159    -4051    -4009 
   -4032    -4031    -4035    -4095    -4098    -3978    -3831    -3786 
   -3900    -4058    -4124    -4128    -4089    -4013    -3967    -3946 
   -3929    -3963    -4009    -4012    -3985    -3931    -3866    -3842 
   -3877    -3929    -3960    -3960    -3954    -3987    -4048    -4081 
   -4108    -4145    -4094    -3994    -4010    -4117    -4180    -4186 
   -4147    -4083    -4050    -4060    -4082    -4060    -3990    -3951 
   -3973    -3975    -3923    -3855    -3820    -3848    -3905    -3962 
   -4028    -4083    -4131    -4203    -4276    -4272    -4151    -4039 
   -4085    -4167    -4086    -3900    -3773    -3731    -3728    -3761 
   -3869    -4043    -4164    -4170    -4164    -4193    -4170    -4058 
   -3931    -3894    -3923    -3910    -3902    -3960    -4058    -4182 
   -4222    -4087    -3935    -3856    -3798    -3793    -3820    -3804 
   -3788    -3820    -3890    -3983    -4059    -4078    -4056    -4058 
   -4109    -4114    -4052    -4054    -4133    -4193    -4218    -4210 
   -4174    -4145    -4112    -4039    -3948    -3897    -3902    -3919 
   -3920    -3893    -3797    -3693    -3658    -3685    -3840    -4137 
   -4413    -4596    -4687    -4646    -4510    -4344    -4164    -3962 
   -3755    -3615    -3564    -3566    -3607    -3663    -3693    -3715 
   -3739    -3767    -3869    -4054    -4214    -4282    -4267    -4214 
   -4244    -4398    -4530    -4580    -4572    -4438    -4180    -3951 
   -3824    -3723    -3616    -3554    -3586    -3673    -3685    -3650 
   -3728    -3915    -4095    -4210    -4307    -4449    -4565    -4612 
   -4642    -4594    -4374    -4066    -3854    -3797    -3761    -3700 
   -3719    -3782    -3774    -3693    -3549    -3362    -3244    -3250 
   -3353    -3558    -3823    -4024    -4174    -4382    -4631    -4818 
   -4891    -4857    -4785    -4747    -4700    -4557    -4298    -3929 
   -3492    -3118    -2936    -2957    -3122    -3360    -3615    -3823 
   -3963    -4086    -4245    -4511    -4826    -4984    -4970    -4882 
   -4671    -4374    -4122    -3897    -3643    -3388    -3187    -3105 
   -3156    -3258    -3314    -3331    -3415    -3635    -3977    -4388 
   -4774    -4954    -4845    -4633    -4498    -4376    -4220    -4125 
   -4189    -4406    -4584    -4450    -4018    -3550    -3154    -2816 
   -2651    -2839    -3375    -4071    -4688    -5049    -5113    -4954 
   -4684    -4448    -4375    -4477    -4631    -4693    -4619    -4432 
   -4087    -3551    -2991    -2650    -2606    -2778    -3088    -3476 
   -3777    -3807    -3589    -3321    -3159    -3204    -3572    -4261 
   -5063    -5655    -5778    -5495    -5108    -4784    -4499    -4280 
   -4186    -4128    -3963    -3670    -3350    -3126    -2990    -2895 
   -2929    -3164    -3528    -3893    -4167    -4311    -4294    -4203 
   -4239    -4434    -4693    -4927    -5000    -4845    -4569    -4249 
   -3888    -3584    -3454    -3488    -3591    -3680    -3712    -3666 
   -3611    -3684    -3933    -4272    -4571    -4756    -4818    -4688 
   -4337    -3908    -3577    -3411    -3434    -3643    -3924    -4099 
   -4124    -4118    -4125    -4054    -3890    -3736    -3650    -3632 
   -3667    -3704    -3774    -3971    -4244    -4449    -4502    -4364 
   -4085    -3762    -3485    -3412    -3663    -4133    -4645    -5050 
   -5231    -5154    -4810    -4293    -3811    -3395    -3042    -2945 
   -3175    -3524    -3778    -3852    -3840    -3917    -4109    -4306 
   -4433    -4448    -4357    -4217    -3985    -3627    -3291    -3217 
   -3561    -4203    -4797    -5144    -5279    -5196    -4793    -4141 
   -3555    -3289    -3327    -3512    -3774    -4067    -4156    -3878 
   -3503    -3381    -3499    -3642    -3746    -3873    -4040    -4149 
   -4104    -3956    -3842    -3839    -4012    -4317    -4542    -4563 
   -4488    -4417    -4271    -4036    -3909    -4016    -4213    -4280 
   -4172    -3974    -3788    -3707    -3724    -3757    -3786    -3882 
   -4043    -4095    -3902    -3592    -3376    -3408    -3704    -4062 
   -4367    -4693    -4923    -4860    -4545    -4093    -3615    -3295 
   -3231    -3403    -3697    -3978    -4217    -4438    -4542    -4423 
   -4220    -4172    -4272    -4283    -4083    -3796    -3663    -3786 
   -3993    -4058    -4002    -4002    -4114    -4218    -4201    -4116 
   -4077    -4060    -4002    -3892    -3753    -3618    -3520    -3511 
   -3561    -3555    -3574    -3843    -4359    -4861    -5031    -4800 
   -4446    -4189    -4004    -3900    -3873    -3865    -3896    -3946 
   -3921    -3842    -3782    -3746    -3757    -3890    -4136    -4344 
   -4376    -4210    -3952    -3775    -3769    -3873    -4020    -4199 
   -4314    -4260    -4079    -3844    -3619    -3464    -3438    -3643 
   -3983    -4191    -4260    -4379    -4498    -4442    -4255    -4106 
   -4059    -4016    -3906    -3793    -3778    -3828    -3823    -3715 
   -3631    -3726    -3959    -4216    -4480    -4691    -4720    -4556 
   -4305    -4113    -4014    -3893    -3727    -3651    -3723    -3863 
   -3960    -3929    -3797    -3681    -3613    -3516    -3399    -3399 
   -3608    -3915    -4163    -4368    -4604    -4827    -4949    -4897 
   -4669    -4391    -4149    -3952    -3863    -3859    -3865    -3974 
   -4190    -4299    -4164    -3835    -3464    -3204    -3103    -3176 
   -3414    -3657    -3784    -3905    -4132    -4414    -4596    -4595 
   -4504    -4406    -4314    -4293    -4337    -4386    -4410    -4365 
   -4224    -3986    -3717    -3578    -3573    -3554    -3496    -3474 
   -3480    -3429    -3315    -3292    -3527    -3979    -4415    -4679 
   -4750    -4656    -4484    -4340    -4234    -4186    -4293    -4513 
   -4617    -4425    -3993    -3604    -3484    -3538    -3547    -3474 
   -3478    -3690    -3990    -4144    -4120    -4066    -4112    -4286 
   -4483    -4575    -4534    -4437    -4352    -4243    -4050    -3897 
   -3947    -4093    -4063    -3811    -3511    -3277    -3163    -3238 
   -3457    -3703    -3951    -4176    -4321    -4374    -4365    -4342 
   -4307    -4252    -4206    -4172    -4171    -4243    -4320    -4282 
   -4077    -3793    -3604    -3572    -3631    -3699    -3740    -3762 
   -3798    -3913    -4087    -4206    -4222    -4213    -4241    -4317 
   -4423    -4514    -4511    -4321    -3923    -3499    -3291    -3358 
   -3626    -3925    -4062    -4031    -3970    -3975    -4062    -4114 
   -4021    -3861    -3813    -3985    -4320    -4621    -4706    -4561 
   -4334    -4159    -4064    -4018    -3975    -3927    -3854    -3689 
   -3499    -3484    -3628    -3744    -3753    -3662    -3526    -3501 
   -3715    -4099    -4479    -4704    -4722    -4630    -4617    -4649 
   -4561    -4374    -4158    -3909    -3690    -3547    -3423    -3287 
   -3217    -3303    -3519    -3751    -3935    -4064    -4151    -4210 
   -4291    -4455    -4617    -4665    -4696    -4715    -4509    -4120 
   -3785    -3592    -3538    -3491    -3356    -3315    -3457    -3649 
   -3846    -4043    -4245    -4529    -4834    -4985    -4904    -4658 
   -4369    -4125    -3967    -3906    -3908    -3956    -4004    -3890 
   -3580    -3248    -3032    -3003    -3186    -3462    -3761    -4128 
   -4487    -4680    -4677    -4552    -4407    -4309    -4202    -4052 
   -3936    -3929    -4010    -4085    -4090    -4039    -3921    -3731 
   -3549    -3499    -3646    -3920    -4120    -4136    -4036    -3960 
   -3993    -4082    -4156    -4278    -4473    -4625    -4665    -4626 
   -4488    -4237    -3909    -3586    -3369    -3254    -3179    -3148 
   -3208    -3404    -3721    -4095    -4399    -4506    -4463    -4405 
   -4348    -4315    -4396    -4557    -4650    -4618    -4479    -4257 
   -4012    -3771    -3535    -3389    -3414    -3528    -3603    -3615 
   -3616    -3647    -3715    -3788    -3878    -4010    -4145    -4276 
   -4418    -4495    -4445    -4314    -4195    -4185    -4282    -4357 
   -4325    -4202    -4041    -3902    -3790    -3685    -3642    -3694 
   -3781    -3844    -3924    -4099    -4325    -4401    -4243    -4039 
   -3959    -3951    -3951    -4004    -4081    -4075    -3978    -3843 
   -3699    -3572    -3547    -3692    -3948    -4175    -4311    -4422 
   -4510    -4459    -4272    -4099    -4066    -4135    -4099    -3896 
   -3742    -3758    -3781    -3682    -3555    -3558    -3677    -3767 
   -3802    -3885    -4031    -4205    -4379    -4448    -4357    -4232 
