Origin Time       2025/03/30 21:30:00
Lat.              38.535
Long.             142.295
Depth. (km)       44
Mag.              4.3
Station Code      IWT020
Station Lat.      39.7844
Station Long.     141.3296
Station Height(m) 695
Record Time       2025/03/30 21:31:41
Sampling Freq(Hz) 100Hz
Duration Time(s)  60
Dir.              U-D
Scale Factor      7845(gal)/8223790
Max. Acc. (gal)   0.647
Last Correction   2025/03/30 21:31:41
Memo.             
[...]
  -43825   -43949   -44055   -44026   -43915   -43860   -43897   -43924 
  -43876   -43831   -43857   -43912   -43957   -43984   -43978   -43942 
  -43889   -43852   -43842   -43849   -43870   -43897   -43896   -43861 
  -43833   -43845   -43892   -43929   -43900   -43850   -43852   -43888 
  -43910   -43924   -43957   -43989   -43999   -44026   -44096   -44130 
  -44051   -43934   -43865   -43800   -43733   -43769   -43904   -43981 
  -43931   -43846   -43815   -43825   -43830   -43841   -43866   -43870 
  -43842   -43853   -43939   -44014   -43995   -43929   -43884   -43862 
  -43837   -43825   -43854   -43876   -43875   -43927   -44004   -43995 
  -43916   -43883   -43930   -43991   -44030   -44066   -44070   -43995 
  -43879   -43834   -43865   -43877   -43858   -43853   -43853   -43818 
  -43776   -43798   -43852   -43866   -43864   -43887   -43924   -43942 
  -43923   -43906   -43930   -43987   -44019   -43987   -43935   -43950 
  -44003   -43985   -43911   -43850   -43814   -43802   -43794   -43785 
  -43822   -43872   -43892   -43918   -43915   -43838   -43794   -43880 
  -44000   -44001   -43931   -43931   -43995   -44028   -44007   -43927 
  -43846   -43850   -43919   -43935   -43857   -43807   -43881   -43978 
  -43973   -43902   -43857   -43877   -43926   -43943   -43910   -43864 
  -43876   -43931   -43941   -43896   -43868   -43876   -43857   -43792 
  -43781   -43862   -43941   -43958   -43954   -43965   -43978   -43984 
  -43996   -43987   -43892   -43754   -43710   -43795   -43910   -43968 
  -44003   -44032   -43993   -43900   -43838   -43842   -43888   -43916 
  -43897   -43877   -43926   -44030   -44097   -44059   -43939   -43822 
  -43781   -43795   -43789   -43783   -43826   -43875   -43873   -43899 
  -43980   -43995   -43926   -43929   -44035   -44072   -43966   -43869 
  -43869   -43907   -43927   -43893   -43822   -43753   -43738   -43819 
  -43922   -43927   -43857   -43822   -43904   -44053   -44093   -43973 
  -43829   -43802   -43892   -43968   -43972   -43983   -44016   -44001 
  -43906   -43826   -43842   -43876   -43848   -43803   -43783   -43803 
  -43885   -43997   -44057   -44011   -43915   -43850   -43829   -43854 
  -43930   -44007   -43997   -43892   -43834   -43899   -43937   -43880 
  -43854   -43897   -43904   -43850   -43842   -43906   -43914   -43865 
  -43896   -43992   -44023   -43973   -43923   -43914   -43891   -43831 
  -43802   -43835   -43904   -43956   -43978   -43999   -43999   -43949 
  -43884   -43835   -43806   -43784   -43791   -43883   -43981   -43949 
  -43877   -43902   -43957   -43929   -43875   -43904   -43946   -43875 
  -43800   -43895   -44054   -44041   -43877   -43794   -43846   -43907 
  -43906   -43912   -43966   -43997   -43970   -43943   -43942   -43951 
  -43949   -43903   -43838   -43833   -43908   -43993   -44003   -43922 
  -43819   -43754   -43767   -43843   -43914   -43933   -43915   -43897 
  -43891   -43891   -43906   -43935   -43978   -44016   -43989   -43929 
  -43914   -43933   -43931   -43885   -43816   -43804   -43879   -43946 
  -43926   -43846   -43785   -43779   -43827   -43908   -43974   -43977 
  -43938   -43934   -43960   -43935   -43857   -43823   -43899   -44011 
  -44045   -43980   -43888   -43856   -43892   -43916   -43899   -43872 
  -43848   -43833   -43843   -43868   -43896   -43916   -43919   -43908 
  -43895   -43915   -43949   -43920   -43866   -43860   -43883   -43924 
  -43972   -43977   -43927   -43888   -43924   -43976   -43949   -43891 
  -43885   -43907   -43887   -43843   -43857   -43949   -44027   -43992 
  -43870   -43784   -43795   -43861   -43916   -43929   -43895   -43845 
  -43861   -43976   -44053   -43965   -43848   -43881   -43996   -44008 
  -43922   -43868   -43889   -43938   -43977   -43966   -43881   -43784 
  -43769   -43841   -43910   -43888   -43804   -43780   -43864   -43966 
  -43973   -43895   -43864   -43926   -43984   -43972   -43931   -43931 
  -43969   -43966   -43908   -43865   -43845   -43819   -43822   -43884 
  -43930   -43880   -43819   -43848   -43896   -43916   -43966   -44041 
  -44047   -43973   -43908   -43903   -43908   -43872   -43815   -43800 
  -43861   -43945   -43970   -43934   -43877   -43834   -43838   -43908 
  -43981   -44007   -44016   -44007   -43954   -43911   -43918   -43929 
  -43879   -43826   -43881   -43987   -43996   -43899   -43796   -43760 
  -43771   -43807   -43884   -43941   -43923   -43888   -43899   -43938 
  -43980   -44031   -44070   -44032   -43916   -43835   -43853   -43907 
  -43935   -43915   -43822   -43721   -43717   -43785   -43833   -43854 
  -43895   -43927   -43908   -43900   -43953   -43989   -43943   -43895 
  -43937   -44034   -44055   -43961   -43887   -43910   -43937   -43923 
  -43918   -43934   -43919   -43861   -43838   -43892   -43939   -43897 
  -43806   -43784   -43862   -43906   -43852   -43815   -43887   -43996 
  -44019   -43949   -43884   -43848   -43819   -43819   -43842   -43887 
  -43958   -44039   -44096   -44076   -43965   -43865   -43843   -43864 
  -43884   -43906   -43942   -43976   -43956   -43895   -43872   -43916 
  -43977   -43972   -43892   -43826   -43830   -43873   -43879   -43812 
  -43761   -43810   -43908   -43961   -43953   -43929   -43926   -43939 
  -43935   -43904   -43870   -43872   -43907   -43947   -43976   -43988 
  -43974   -43947   -43934   -43918   -43884   -43875   -43891   -43868 
  -43807   -43773   -43795   -43835   -43854   -43868   -43931   -44007 
  -43991   -43912   -43897   -43929   -43895   -43826   -43811   -43854 
  -43902   -43924   -43942   -43969   -43995   -43995   -43926   -43822 
  -43795   -43869   -43954   -43968   -43922   -43895   -43938   -44015 
  -44034   -43968   -43906   -43877   -43849   -43849   -43877   -43885 
  -43904   -43984   -44026   -43926   -43798   -43804   -43903   -43964 
  -43945   -43897   -43865   -43866   -43899   -43931   -43950   -43947 
  -43896   -43845   -43868   -43918   -43914   -43858   -43830   -43869 
  -43916   -43934   -43937   -43906   -43827   -43758   -43741   -43752 
  -43795   -43902   -44045   -44128   -44084   -43965   -43884   -43889 
  -43908   -43877   -43864   -43918   -43942   -43891   -43880   -43966 
  -44022   -43943   -43860   -43892   -43933   -43872   -43814   -43838 
  -43861   -43845   -43881   -43984   -44037   -44003   -43961   -43931 
  -43879   -43821   -43823   -43903   -43946   -43889   -43868   -43949 
  -44010   -43981   -43942   -43939   -43891   -43783   -43754   -43835 
  -43880   -43839   -43852   -43966   -44028   -43968   -43926   -43969 
  -43999   -43942   -43842   -43810   -43858   -43892   -43891   -43876 
  -43853   -43843   -43841   -43838   -43868   -43910   -43912   -43893 
  -43912   -43983   -44042   -44050   -44005   -43915   -43839   -43827 
  -43861   -43904   -43939   -43987   -44037   -44024   -43918   -43784 
  -43726   -43771   -43853   -43899   -43897   -43900   -43920   -43943 
  -44011   -44095   -44080   -43958   -43841   -43823   -43877   -43881 
  -43810   -43737   -43713   -43772   -43877   -43929   -43897   -43841 
  -43845   -43933   -44011   -44014   -43995   -43985   -43968   -43970 
  -43980   -43949   -43916   -43935   -43980   -43984   -43938   -43892 
  -43864   -43826   -43776   -43730   -43730   -43808   -43918   -43984 
  -43984   -43951   -43923   -43914   -43893   -43839   -43787   -43785 
  -43849   -43945   -44007   -44014   -43996   -43970   -43926   -43861 
  -43826   -43868   -43958   -44023   -44032   -44001   -43951   -43933 
  -43968   -43983   -43880   -43718   -43656   -43713   -43806   -43889 
  -43923   -43902   -43907   -43968   -44007   -43984   -43934   -43889 
  -43870   -43887   -43927   -43973   -44000   -44010   -43993   -43931 
  -43857   -43825   -43827   -43842   -43873   -43897   -43896   -43876 
  -43849   -43833   -43853   -43887   -43875   -43833   -43861   -43957 
  -44007   -43999   -44012   -44035   -44005   -43945   -43919   -43941 
  -43956   -43926   -43872   -43843   -43872   -43934   -43956   -43897 
  -43802   -43723   -43707   -43783   -43881   -43888   -43821   -43814 
  -43908   -44004   -44003   -43933   -43912   -43984   -44055   -44042 
  -43984   -43953   -43950   -43949   -43931   -43864   -43772   -43760 
  -43849   -43912   -43884   -43857   -43868   -43839   -43806   -43870 
  -43976   -44000   -43973   -43974   -43999   -43983   -43926   -43927 
  -43988   -43983   -43879   -43804   -43845   -43889   -43835   -43757 
  -43748   -43808   -43885   -43939   -43965   -43946   -43900   -43876 
  -43892   -43931   -43966   -43988   -43984   -43960   -43961   -43974 
  -43960   -43912   -43843   -43800   -43845   -43927   -43939   -43889 
  -43868   -43916   -43951   -43903   -43841   -43826   -43834   -43862 
  -43902   -43892   -43852   -43865   -43933   -43969   -43965   -43988 
  -44022   -43991   -43916   -43884   -43895   -43885   -43877   -43908 
  -43923   -43873   -43821   -43845   -43902   -43884   -43814   -43806 
  -43900   -44023   -44082   -44034   -43942   -43895   -43897   -43926 
  -43927   -43881   -43858   -43872   -43860   -43825   -43810   -43842 
  -43862   -43819   -43819   -43912   -43993   -44004   -43972   -43943 
  -43961   -44008   -44046   -44043   -44003   -43985   -43980   -43938 
  -43881   -43833   -43794   -43760   -43734   -43754   -43812   -43822 
  -43787   -43787   -43841   -43907   -43964   -44026   -44077   -44057 
  -43968   -43887   -43881   -43942   -43999   -44023   -44000   -43914 
  -43848   -43893   -43969   -43924   -43776   -43672   -43659   -43691 
  -43779   -43910   -43981   -43945   -43865   -43839   -43888   -43953 
  -44003   -44049   -44055   -43968   -43845   -43800   -43842   -43896 
  -43903   -43887   -43887   -43927   -43993   -44027   -44030   -44035 
  -44011   -43954   -43916   -43911   -43884   -43826   -43830   -43907 
  -43923   -43869   -43880   -43991   -44082   -44064   -43981   -43930 
  -43924   -43941   -43945   -43910   -43857   -43835   -43846   -43877 
  -43899   -43868   -43798   -43749   -43765   -43815   -43860   -43911 
  -43947   -43910   -43829   -43779   -43796   -43845   -43843   -43823 
  -43877   -43976   -44004   -43951   -43958   -44050   -44046   -43918 
  -43887   -44015   -44107   -44053   -43937   -43856   -43841   -43883 
  -43923   -43872   -43783   -43804   -43896   -43885   -43742   -43632 
  -43649   -43730   -43825   -43910   -43941   -43956   -44026   -44115 
  -44111   -44011   -43985   -44109   -44190   -44082   -43916   -43860 
  -43877   -43861   -43827   -43808   -43776   -43753   -43787   -43822 
  -43808   -43806   -43856   -43895   -43889   -43902   -43966   -44005 
  -43969   -43937   -43941   -43899   -43818   -43806   -43865   -43904 
  -43903   -43914   -43960   -44007   -44041   -44050   -44016   -43960 
  -43897   -43846   -43877   -43957   -43949   -43861   -43846   -43941 
  -44012   -43992   -43943   -43876   -43762   -43683   -43691   -43727 
  -43757   -43807   -43891   -43954   -43945   -43935   -43997   -44047 
  -43985   -43885   -43875   -43938   -43978   -43977   -43951   -43903 
  -43879   -43945   -44062   -44100   -44011   -43893   -43810   -43741 
  -43671   -43599   -43596   -43718   -43887   -43995   -44000   -43924 
  -43807   -43703   -43707   -43826   -43942   -44022   -44146   -44302 
  -44383   -44352   -44223   -44028   -43887   -43869   -43899   -43895 
  -43879   -43895   -43892   -43808   -43722   -43717   -43738   -43723 
  -43694   -43671   -43623   -43607   -43726   -43950   -44163   -44281 
  -44270   -44189   -44149   -44151   -44118   -44032   -43915   -43787 
  -43722   -43764   -43811   -43740   -43607   -43575   -43641   -43692 
  -43686   -43663   -43694   -43810   -43962   -44107   -44242   -44343 
  -44343   -44190   -43988   -43884   -43885   -43902   -43910   -43935 
  -43996   -44069   -44136   -44188   -44158   -44026   -43919   -43942 
  -44007   -43949   -43746   -43534   -43416   -43367   -43353   -43401 
  -43501   -43583   -43629   -43708   -43838   -43968   -44091   -44201 
  -44270   -44308   -44356   -44402   -44396   -44344   -44253   -44134 
  -44046   -43983   -43900   -43826   -43792   -43746   -43622   -43449 
  -43306   -43237   -43274   -43428   -43676   -43947   -44132   -44203 
  -44196   -44155   -44119   -44109   -44162   -44280   -44365   -44307 
  -44066   -43756   -43600   -43680   -43810   -43779   -43646   -43632 
  -43769   -43877   -43866   -43845   -43893   -43981   -44057   -44084 
  -44020   -43876   -43779   -43846   -43966   -43977   -43915   -43911 
  -43977   -44010   -44004   -44037   -44051   -44020   -44016   -44027 
  -43991   -43866   -43680   -43563   -43592   -43710   -43788   -43760 
  -43710   -43726   -43738   -43696   -43692   -43758   -43803   -43834 
  -43962   -44170   -44305   -44348   -44416   -44481   -44400   -44190 
  -43988   -43875   -43833   -43788   -43734   -43726   -43731   -43718 
  -43737   -43812   -43879   -43857   -43757   -43700   -43748   -43773 
  -43692   -43654   -43807   -44015   -44074   -44027   -44055   -44174 
  -44216   -44073   -43845   -43710   -43768   -43931   -44038   -44069 
  -44069   -44055   -44092   -44157   -44128   -43995   -43819   -43592 
  -43353   -43287   -43514   -43850   -44001   -43951   -43896   -43911 
  -43924   -43910   -43891   -43875   -43885   -43946   -44001   -44010 
  -43992   -43973   -43968   -43995   -44055   -44093   -44058   -43993 
  -43942   -43858   -43733   -43673   -43745   -43848   -43861   -43789 
  -43714   -43707   -43792   -43938   -44024   -43980   -43945   -44070 
  -44325   -44539   -44583   -44473   -44244   -43942   -43708   -43638 
  -43656   -43621   -43480   -43366   -43403   -43513   -43557   -43510 
  -43488   -43609   -43823   -44011   -44130   -44235   -44343   -44429 
  -44474   -44429   -44312   -44217   -44134   -43951   -43683   -43490 
  -43488   -43636   -43804   -43895   -43920   -43950   -43958   -43884 
  -43754   -43660   -43677   -43768   -43821   -43789   -43760   -43841 
  -43965   -44004   -43999   -44035   -44093   -44113   -44093   -44086 
  -44091   -44053   -43972   -43892   -43858   -43881   -43908   -43897 
  -43862   -43837   -43807   -43750   -43700   -43690   -43713   -43742 
  -43729   -43692   -43721   -43846   -43977   -44014   -43999   -44028 
  -44136   -44259   -44290   -44236   -44185   -44143   -44062   -43947 
  -43880   -43877   -43856   -43791   -43741   -43703   -43681   -43722 
  -43762   -43704   -43595   -43583   -43690   -43777   -43765   -43772 
  -43904   -44069   -44118   -44059   -44019   -44073   -44212   -44356 
  -44397   -44305   -44177   -44118   -44085   -43953   -43753   -43617 
  -43557   -43542   -43591   -43665   -43652   -43572   -43573   -43660 
  -43711   -43723   -43773   -43896   -44064   -44166   -44153   -44119 
  -44205   -44398   -44479   -44321   -44085   -43939   -43846   -43706 
  -43576   -43600   -43746   -43841   -43799   -43715   -43708   -43753 
  -43769   -43750   -43731   -43753   -43853   -44026   -44182   -44190 
  -44042   -43903   -43895   -43937   -43923   -43908   -44030   -44253 
  -44352   -44223   -43969   -43773   -43725   -43722   -43702   -43725 
  -43771   -43767   -43726   -43721   -43785   -43884   -43980   -44020 
  -43966   -43884   -43856   -43857   -43858   -43868   -43903   -43961 
  -44015   -44062   -44100   -44101   -44073   -44031   -43995   -43996 
  -44023   -44050   -44045   -43972   -43868   -43814   -43821   -43829 
  -43762   -43622   -43505   -43515   -43614   -43664   -43664   -43718 
  -43799   -43834   -43895   -44059   -44221   -44228   -44126   -44068 
  -44042   -43981   -43931   -43935   -43991   -44076   -44140   -44123 
  -43991   -43835   -43783   -43826   -43833   -43773   -43768   -43831 
  -43837   -43803   -43838   -43906   -43897   -43860   -43893   -43950 
  -43941   -43887   -43845   -43827   -43827   -43845   -43885   -43934 
  -43980   -44057   -44158   -44193   -44095   -43951   -43885   -43866 
  -43808   -43744   -43775   -43864   -43880   -43806   -43713   -43656 
  -43683   -43811   -43951   -43969   -43885   -43868   -43974   -44080 
  -44092   -44072   -44126   -44238   -44270   -44150   -43964   -43830 
  -43749   -43668   -43621   -43668   -43761   -43803   -43798   -43799 
  -43781   -43722   -43695   -43745   -43812   -43866   -43972   -44142 
  -44232   -44145   -44026   -44047   -44123   -44092   -44001   -43969 
  -43991   -43987   -43929   -43883   -43881   -43868   -43814   -43735 
  -43677   -43664   -43687   -43760   -43872   -43933   -43933   -43957 
  -44007   -44028   -44016   -43996   -43993   -43966   -43900   -43866 
  -43891   -43884   -43773   -43642   -43626   -43710   -43795   -43822 
  -43783   -43752   -43827   -43995   -44145   -44197   -44213   -44285 
  -44373   -44344   -44166   -43981   -43946   -44000   -43957   -43807 
  -43708   -43727   -43749   -43637   -43478   -43464   -43560   -43629 
  -43641   -43626   -43665   -43769   -43862   -43950   -44054   -44128 
  -44185   -44248   -44254   -44177   -44105   -44123   -44172   -44122 
  -44014   -43964   -43938   -43879   -43833   -43807   -43767   -43703 
  -43610   -43560   -43659   -43842   -43961   -43995   -44059   -44178 
  -44193   -44045   -43911   -43896   -43922   -43915   -43891   -43876 
  -43850   -43807   -43800   -43822   -43760   -43627   -43592   -43677 
  -43717   -43664   -43652   -43699   -43746   -43865   -44111   -44374 
  -44533   -44548   -44427   -44215   -44015   -43884   -43775   -43668 
  -43634   -43713   -43837   -43910   -43924   -43929   -43933   -43933 
  -43935   -43912   -43857   -43818   -43808   -43800   -43810   -43876 
  -43972   -44008   -43992   -44020   -44062   -44018   -43906   -43835 
  -43815   -43791   -43803   -43881   -43933   -43873   -43794   -43843 
  -43964   -43946   -43810   -43785   -43934   -44047   -44007   -43945 
  -43956   -43935   -43852   -43806   -43835   -43870   -43872   -43922 
  -44054   -44119   -44023   -43891   -43852   -43877   -43869   -43803 
  -43717   -43646   -43617   -43661   -43749   -43816   -43889   -44008 
  -44107   -44111   -44076   -44113   -44215   -44278   -44284   -44270 
  -44226   -44109   -43969   -43887   -43806   -43672   -43567   -43564 
  -43646   -43725   -43733   -43734   -43789   -43819   -43780   -43764 
  -43845   -43964   -44011   -44000   -44007   -44014   -43970   -43907 
  -43893   -43929   -43927   -43868   -43843   -43854   -43791   -43683 
  -43687   -43846   -44020   -44055   -43995   -43951   -43920   -43885 
  -43919   -44022   -44080   -44057   -44026   -43984   -43883   -43761 
  -43717   -43767   -43826   -43808   -43746   -43760   -43899   -44080 
  -44162   -44100   -44001   -43993   -44057   -44099   -44076   -44034 
  -44012   -43981   -43933   -43899   -43872   -43848   -43860   -43895 
  -43862   -43734   -43609   -43606   -43722   -43827   -43830   -43784 
  -43802   -43930   -44093   -44127   -44015   -43883   -43800   -43762 
  -43746   -43748   -43784   -43837   -43858   -43870   -43941   -44035 
  -44046   -43996   -43996   -44045   -44043   -43991   -43972   -43976 
  -43949   -43919   -43914   -43888   -43839   -43831   -43868   -43919 
  -44007   -44115   -44157   -44082   -43962   -43892   -43895   -43923 
  -43915   -43842   -43769   -43775   -43826   -43816   -43717   -43625 
  -43605   -43627   -43657   -43719   -43830   -43935   -44005   -44070 
  -44142   -44188   -44158   -44096   -44089   -44118   -44100   -44005 
