Origin Time       2025/03/30 21:30:00
Lat.              38.535
Long.             142.295
Depth. (km)       44
Mag.              4.3
Station Code      IWT009
Station Lat.      39.0190
Station Long.     141.4053
Station Height(m) 148
Record Time       2025/03/30 21:31:12
Sampling Freq(Hz) 100Hz
Duration Time(s)  69
Dir.              U-D
Scale Factor      7845(gal)/8223790
Max. Acc. (gal)   3.091
Last Correction   2025/03/30 21:31:11
Memo.             
[...]
  -26631   -26634   -26628   -26622   -26631   -26634   -26617   -26630 
  -26639   -26617   -26626   -26632   -26624   -26632   -26628   -26627 
  -26631   -26622   -26634   -26638   -26619   -26628   -26634   -26622 
  -26628   -26636   -26623   -26619   -26640   -26635   -26613   -26628 
  -26636   -26624   -26628   -26628   -26624   -26630   -26627   -26626 
  -26626   -26628   -26635   -26624   -26623   -26634   -26623   -26627 
  -26639   -26615   -26612   -26647   -26638   -26608   -26631   -26646 
  -26612   -26617   -26647   -26628   -26615   -26631   -26628   -26628 
  -26632   -26623   -26628   -26635   -26626   -26623   -26627   -26627 
  -26628   -26635   -26627   -26619   -26628   -26635   -26626   -26624 
  -26631   -26631   -26623   -26630   -26636   -26619   -26624   -26638 
  -26617   -26626   -26646   -26615   -26612   -26647   -26632   -26608 
  -26627   -26636   -26622   -26624   -26635   -26623   -26623   -26635 
  -26624   -26624   -26635   -26627   -26620   -26631   -26635   -26628 
  -26616   -26624   -26639   -26627   -26619   -26627   -26623   -26626 
  -26640   -26624   -26613   -26638   -26631   -26613   -26639   -26632 
  -26608   -26636   -26639   -26612   -26631   -26640   -26617   -26622 
  -26640   -26631   -26616   -26627   -26639   -26628   -26620   -26631 
  -26636   -26626   -26623   -26630   -26630   -26630   -26628   -26623 
  -26627   -26635   -26630   -26622   -26628   -26632   -26623   -26622 
  -26634   -26632   -26620   -26626   -26632   -26628   -26627   -26626 
  -26626   -26634   -26627   -26617   -26631   -26634   -26616   -26626 
  -26638   -26624   -26619   -26628   -26628   -26630   -26626   -26623 
  -26639   -26632   -26613   -26630   -26638   -26626   -26624   -26623 
  -26626   -26632   -26623   -26623   -26636   -26626   -26622   -26638 
  -26631   -26622   -26626   -26624   -26631   -26630   -26617   -26628 
  -26632   -26620   -26636   -26634   -26612   -26634   -26643   -26616 
  -26622   -26638   -26624   -26622   -26634   -26634   -26623   -26622 
  -26631   -26628   -26619   -26631   -26638   -26617   -26617   -26635 
  -26631   -26624   -26627   -26624   -26624   -26635   -26635   -26626 
  -26632   -26647   -26640   -26626   -26632   -26636   -26607   -26578 
  -26599   -26615   -26595   -26595   -26644   -26689   -26689   -26650 
  -26612   -26639   -26719   -26732   -26616   -26474   -26445   -26562 
  -26744   -26829   -26740   -26628   -26659   -26697   -26541   -26349 
  -26410   -26644   -26703   -26565   -26541   -26667   -26835   -27032 
  -26944   -26349   -25882   -26310   -27163   -27206   -26353   -25872 
  -26578   -27561   -27186   -25613   -25212   -27036   -28601   -27529 
  -25247   -24865   -26986   -28629   -27137   -24497   -24625   -27689 
  -29863   -28205   -24614   -23495   -26032   -28876   -28767   -26389 
  -24626   -25307   -27440   -28312   -27114   -25475   -25231   -26604 
  -27999   -28070   -26887   -25551   -25392   -26399   -27183   -26932 
  -26280   -26347   -27137   -27426   -26666   -25767   -25933   -27101 
  -27747   -26717   -25154   -25574   -27778   -28602   -26902   -24950 
  -25095   -26824   -27976   -27648   -26299   -25475   -26404   -27756 
  -27488   -25955   -25262   -26183   -27391   -27614   -26631   -25508 
  -25890   -27356   -27750   -26555   -25548   -26150   -27531   -27819 
  -26596   -25462   -25859   -27124   -27569   -26774   -25906   -25967 
  -26572   -26951   -27085   -26975   -26395   -26075   -26711   -27344 
  -27006   -26187   -25922   -26420   -26940   -26916   -26519   -26412 
  -26738   -26921   -26821   -26658   -26384   -26163   -26546   -27148 
  -26900   -26195   -26164   -26763   -27004   -26551   -26333   -26630 
  -26736   -26651   -26755   -26971   -27022   -26640   -25992   -25814 
  -26609   -27639   -27364   -25949   -25442   -26551   -27688   -27334 
  -26196   -25911   -26393   -26820   -27095   -27032   -26518   -26063 
  -26308   -26948   -26924   -26407   -26435   -26909   -26947   -26472 
  -26258   -26573   -26956   -26894   -26370   -26169   -26747   -27225 
  -26727   -25998   -26180   -27044   -27494   -26863   -25853   -25763 
  -26752   -27629   -27345   -26223   -25446   -26083   -27594   -27865 
  -26391   -25127   -25828   -27691   -28220   -26761   -25254   -25554 
  -27132   -27781   -26851   -25840   -25940   -26777   -27249   -27043 
  -26574   -26133   -26223   -26958   -27319   -26747   -26113   -26235 
  -26725   -26900   -26686   -26373   -26306   -26653   -27047   -26863 
  -26252   -26161   -26910   -27417   -26797   -25883   -25860   -26824 
  -27652   -27139   -25875   -25535   -26632   -27723   -27259   -26019 
  -25745   -26603   -27448   -27290   -26326   -25747   -26299   -27162 
  -27035   -26357   -26329   -26806   -27054   -26777   -26265   -26111 
  -26539   -27166   -27120   -26311   -25978   -26670   -27390   -27141 
  -26303   -25936   -26401   -27059   -26850   -26107   -26272   -27133 
  -27317   -26630   -26002   -26175   -26944   -27341   -26763   -25922 
  -25999   -27000   -27507   -26774   -26030   -26122   -26427   -26723 
  -27128   -27136   -26446   -25853   -26331   -27270   -27310   -26547 
  -26046   -26300   -26844   -27014   -26757   -26374   -26357   -26800 
  -26935   -26514   -26204   -26431   -26948   -27081   -26626   -26249 
  -26423   -26779   -26887   -26777   -26581   -26439   -26431   -26530 
  -26819   -27006   -26585   -26061   -26265   -26928   -27220   -26798 
  -26181   -26277   -26995   -27199   -26566   -26059   -26330   -26935 
  -27075   -26549   -26037   -26291   -27016   -27166   -26557   -26192 
  -26504   -26802   -26843   -26812   -26549   -26372   -26620   -26833 
  -26676   -26389   -26443   -26874   -27105   -26663   -26044   -26215 
  -26889   -27095   -26701   -26222   -26326   -26862   -27012   -26682 
  -26353   -26370   -26642   -26797   -26801   -26736   -26630   -26554 
  -26496   -26601   -26781   -26640   -26384   -26482   -26809   -26812 
  -26527   -26554   -26728   -26599   -26503   -26707   -26852   -26703 
  -26482   -26408   -26590   -26958   -26932   -26335   -26090   -26708 
  -27151   -26692   -26316   -26541   -26659   -26646   -26732   -26690 
  -26519   -26400   -26574   -26843   -26750   -26527   -26489   -26604 
  -26765   -26802   -26746   -26581   -26249   -26273   -26936   -27252 
  -26595   -25913   -26280   -27305   -27386   -26370   -25926   -26330 
  -26786   -27031   -26829   -26410   -26399   -26796   -26935   -26526 
  -26262   -26547   -26858   -26846   -26719   -26545   -26277   -26281 
  -26730   -27103   -26889   -26393   -26352   -26698   -26847   -26711 
  -26651   -26684   -26369   -26072   -26547   -27229   -27176   -26545 
  -26091   -26288   -26852   -27176   -27001   -26450   -26055   -26246 
  -26829   -27172   -26788   -26215   -26271   -26665   -26813   -26724 
  -26638   -26689   -26817   -26619   -26146   -26288   -27040   -27259 
  -26586   -26005   -26311   -26893   -26964   -26721   -26545   -26523 
  -26519   -26415   -26554   -27094   -27207   -26365   -25694   -26384 
  -27511   -27329   -26176   -25789   -26412   -27125   -27292   -26690 
  -26082   -26265   -26805   -27093   -26819   -26203   -26129   -26639 
  -26913   -26890   -26862   -26523   -26211   -26549   -26919   -26893 
  -26685   -26470   -26476   -26437   -26465   -26848   -26933   -26608 
  -26380   -26385   -26628   -26869   -26927   -26797   -26550   -26460 
  -26549   -26674   -26708   -26632   -26558   -26458   -26612   -26966 
  -26703   -26106   -26320   -27041   -27056   -26462   -26318   -26716 
  -26927   -26677   -26349   -26296   -26611   -27072   -27039   -26406 
  -26100   -26620   -27093   -26698   -26048   -26190   -27055   -27487 
  -26827   -25853   -25768   -26788   -27558   -27043   -26214   -26057 
  -26487   -27018   -26979   -26572   -26491   -26693   -26705   -26368 
  -26476   -27054   -26782   -26099   -26383   -27109   -27079   -26289 
  -25875   -26446   -27267   -27508   -26767   -25679   -25824   -27109 
  -27703   -26761   -25452   -25637   -27207   -28112   -27311   -25790 
  -25371   -26585   -27637   -27110   -26002   -25749   -26512   -27438 
  -27459   -26512   -25753   -26145   -27075   -27282   -26790   -26202 
  -25995   -26588   -27279   -27157   -26435   -25963   -26335   -26952 
  -26967   -26604   -26488   -26715   -26690   -26343   -26396   -26804 
  -26928   -26561   -26165   -26553   -27287   -27082   -26372   -26277 
  -26488   -26642   -26862   -26717   -26102   -25984   -26970   -27936 
  -27301   -25677   -25336   -26601   -27518   -27163   -26460   -26171 
  -26349   -26778   -26902   -26620   -26512   -26716   -26848   -26522 
  -26100   -26393   -27113   -27415   -26779   -25677   -25805   -27164 
  -27761   -26927   -25834   -25841   -26816   -27400   -26944   -26119 
  -26075   -26673   -26811   -26541   -26582   -26882   -26896   -26611 
  -26503   -26662   -26720   -26507   -26484   -26757   -26735   -26488 
  -26474   -26703   -26925   -26785   -26415   -26362   -26619   -26669 
  -26387   -26482   -27143   -27162   -26369   -26231   -26742   -26705 
  -26407   -26532   -26792   -26820   -26622   -26439   -26543   -26860 
  -26847   -26333   -26022   -26377   -27126   -27469   -26914   -26150 
  -25936   -26532   -27365   -27009   -25751   -25645   -27098   -27986 
  -26877   -25465   -25833   -27378   -27870   -26550   -25427   -26055 
  -27272   -27621   -26843   -25894   -25972   -26601   -26923   -27031 
  -26798   -26306   -26165   -26613   -27274   -27338   -26468   -25583 
  -25951   -27171   -27660   -26923   -25860   -25817   -26843   -27433 
  -26848   -26003   -26090   -26916   -27321   -26792   -26050   -26181 
  -26874   -27103   -26653   -26129   -26443   -27187   -27095   -26392 
  -26096   -26418   -26948   -27071   -26634   -26238   -26222   -26473 
  -26982   -27255   -26703   -26025   -26222   -26950   -27218   -26842 
  -26380   -26161   -26383   -27021   -27249   -26588   -25899   -26149 
  -26985   -27260   -26635   -26003   -26304   -27056   -27059   -26458 
  -26273   -26661   -27029   -26887   -26281   -26059   -26750   -27295 
  -26854   -26133   -25959   -26566   -27303   -27067   -26203   -26065 
  -26725   -27233   -27051   -26249   -25790   -26585   -27652   -27346 
  -26044   -25600   -26379   -27168   -27363   -26886   -25987   -25852 
  -26865   -27503   -26817   -25975   -26102   -26709   -27048   -26943 
  -26438   -26180   -26689   -27099   -26766   -26379   -26354   -26572 
  -26858   -26896   -26584   -26053   -26055   -27070   -27595   -26800 
  -26138   -26208   -26514   -27005   -27202   -26528   -25945   -26485 
  -27028   -26701   -26450   -26599   -26721   -26784   -26708   -26485 
  -26343   -26488   -26950   -27225   -26782   -26057   -25938   -26597 
  -27328   -27287   -26384   -25585   -26026   -27457   -27970   -26619 
  -25344   -26007   -27386   -27492   -26518   -25824   -25995   -26754 
  -27454   -27268   -26223   -25745   -26512   -27286   -27025   -26285 
  -26142   -26709   -27137   -26860   -26343   -26322   -26696   -26851 
  -26635   -26512   -26578   -26568   -26757   -26910   -26464   -26171 
  -26573   -26824   -26588   -26619   -26836   -26528   -26403   -26854 
  -26843   -26473   -26503   -26708   -26716   -26514   -26404   -26638 
  -27031   -27081   -26620   -26172   -26046   -26362   -27041   -27216 
  -26546   -26061   -26512   -27168   -27049   -26342   -26019   -26531 
  -27087   -26981   -26557   -26173   -26030   -26535   -27365   -27460 
  -26580   -25635   -25748   -27063   -28063   -27240   -25477   -25245 
  -27059   -28432   -27484   -25691   -25207   -26113   -27264   -27480 
  -26676   -25994   -26254   -27059   -27291   -26709   -26206   -26360 
  -26765   -26771   -26569   -26412   -26288   -26680   -27224   -26981 
  -26395   -26082   -26096   -26816   -27492   -26932   -25956   -25859 
  -26735   -27681   -27414   -26005   -25269   -26449   -27880   -27310 
  -25834   -25820   -26954   -27236   -26492   -26277   -26757   -26990 
  -26800   -26291   -25848   -26268   -27372   -27612   -26326   -25355 
  -26302   -27841   -27797   -26377   -25590   -26157   -27086   -27479 
  -26986   -25905   -25482   -26406   -27504   -27411   -26314   -25791 
  -26680   -27459   -26805   -25722   -25921   -27292   -27819   -26750 
  -25498   -25581   -26936   -27653   -26981   -26222   -26133   -26596 
  -27029   -26913   -26424   -26148   -26646   -26995   -26325   -26057 
  -26581   -26574   -26310   -26509   -26627   -26536   -26724   -26936 
  -26937   -26850   -26376   -25995   -26685   -27684   -27487   -26306 
  -25753   -26563   -27631   -27542   -26488   -26033   -26611   -26873 
  -26262   -26050   -26948   -27581   -26896   -25984   -26029   -26670 
  -27102   -27251   -27110   -26360   -25667   -26245   -27691   -28015 
  -26601   -25743   -26875   -28007   -27121   -25375   -25482   -27058 
  -27252   -26087   -25145   -24765   -25682   -27712   -28617   -27405 
  -25822   -25855   -27198   -27904   -26916   -25519   -25685   -26779 
  -26850   -26152   -26013   -26671   -27225   -26728   -25952   -26231 
  -26985   -27105   -26689   -25980   -25346   -25910   -27731   -28655 
  -27319   -25550   -25554   -26873   -28015   -28259   -27103   -25432 
  -25213   -26403   -27573   -27625   -26121   -24663   -25320   -27309 
  -28223   -27205   -25627   -25581   -27162   -28244   -27521   -25856 
  -25299   -26557   -27787   -27537   -26617   -26095   -25818   -25635 
  -26134   -27414   -28263   -27194   -25011   -24640   -26971   -29281 
  -28591   -25390   -23388   -25024   -28069   -29139   -27884   -25677 
  -24858   -26685   -28301   -27365   -25617   -25046   -25906   -27214 
  -27429   -26832   -26829   -27114   -26858   -26157   -25821   -26561 
  -27383   -27004   -26217   -26161   -26376   -26491   -27022   -27571 
  -27063   -25606   -25118   -26765   -28256   -27657   -26524   -25952 
  -25400   -25852   -27885   -28804   -26721   -24185   -24742   -27531 
  -28675   -27477   -25786   -24983   -26257   -27896   -26970   -25193 
  -25709   -27735   -28216   -26088   -24096   -25213   -28136   -29278 
  -27654   -25421   -24938   -26362   -27814   -27662   -26551   -26149 
  -26391   -26401   -26481   -26974   -27302   -26912   -25952   -25401 
  -26401   -28163   -28031   -25910   -25054   -26476   -27656   -27286 
  -26508   -26130   -26165   -26635   -26927   -26616   -26335   -26536 
  -26963   -27292   -27238   -26380   -25270   -25577   -27274   -28031 
  -26863   -25655   -26057   -27086   -27071   -26505   -26531   -26755 
  -26651   -26565   -26638   -26433   -26241   -26689   -27018   -26906 
  -26939   -26357   -25504   -26246   -27638   -27635   -26681   -26046 
  -25945   -26314   -27286   -27639   -26468   -25685   -26331   -26924 
  -26797   -26644   -26796   -26886   -26700   -26514   -26659   -26843 
  -26636   -26624   -26832   -26468   -26133   -26376   -26549   -26615 
  -26865   -26909   -26388   -26015   -26547   -26929   -26385   -26179 
  -26649   -26727   -26592   -26790   -26859   -26681   -26431   -26288 
  -26709   -27261   -27028   -26163   -25829   -26658   -27595   -27364 
  -26046   -25097   -26036   -27878   -28081   -26535   -25552   -26292 
  -27444   -27306   -26312   -26310   -27060   -26798   -26141   -26357 
  -26613   -26781   -27292   -27067   -26077   -25799   -26589   -27344 
  -27167   -26272   -25728   -26717   -28112   -27477   -25830   -25825 
  -26865   -26852   -26045   -25953   -26531   -26968   -27051   -26692 
  -26319   -26663   -27171   -26767   -25949   -26011   -26804   -27052 
  -26427   -25921   -26478   -27507   -27432   -26148   -25357   -26396 
  -28084   -27866   -26088   -25348   -26279   -27581   -27707   -26381 
  -25394   -25984   -27256   -27726   -26743   -25461   -25636   -27163 
  -28171   -27170   -25238   -24966   -26790   -28236   -27299   -25600 
  -25536   -26674   -27688   -27627   -26315   -25396   -26064   -27237 
  -27464   -26770   -26099   -26096   -26634   -26858   -26406   -26121 
  -26599   -27117   -26940   -26395   -26104   -26650   -27575   -27197 
  -25937   -26045   -27144   -27210   -26590   -26541   -26592   -26391 
  -26504   -26778   -26813   -26751   -26526   -26049   -26102   -27226 
  -28038   -27126   -25726   -25789   -26981   -27472   -26651   -25658 
  -25778   -27005   -27715   -26824   -25809   -26254   -27348   -27510 
  -26604   -25718   -25818   -26943   -27648   -26730   -25617   -26060 
  -27326   -27538   -26427   -25681   -26225   -27261   -27639   -26956 
  -26041   -25783   -26349   -27190   -27236   -26511   -26046   -26144 
  -26565   -26940   -26781   -26468   -26796   -27139   -26493   -25809 
  -26248   -27133   -27318   -26447   -25612   -26271   -27496   -27395 
  -26549   -26325   -26534   -26690   -26655   -26590   -26698   -26590 
  -26416   -26636   -26904   -26932   -26835   -26505   -26009   -26121 
  -26856   -27132   -26815   -26433   -26291   -26593   -26848   -26728 
  -26599   -26670   -26874   -26573   -25940   -26212   -26912   -27213 
  -27400   -26796   -25477   -25492   -27157   -28193   -27189   -25374 
  -25060   -26887   -28379   -27379   -25751   -25683   -26362   -26941 
  -27222   -26647   -25982   -26451   -27449   -27384   -26169   -25652 
  -26503   -27267   -27211   -26651   -25994   -25933   -26740   -27569 
  -27291   -26280   -25717   -25999   -27066   -27734   -26981   -25994 
  -26026   -26824   -27306   -26794   -26148   -26411   -27059   -26967 
  -26341   -26285   -26694   -26717   -26527   -26667   -26748   -26330 
  -26277   -27070   -27345   -26488   -25840   -26219   -26905   -27056 
  -26640   -26435   -26720   -26681   -26433   -26484   -26406   -26411 
  -26827   -27183   -26851   -25988   -26208   -27337   -27234   -26346 
  -26149   -26387   -26574   -26665   -26850   -27029   -26739   -26164 
  -26019   -26608   -27178   -26842   -26169   -26059   -26520   -27271 
  -27495   -26663   -25857   -26211   -27221   -27348   -26325   -25969 
  -26890   -27338   -26657   -26028   -26225   -26890   -27229   -26924 
  -26307   -25853   -26046   -26900   -27318   -26573   -25922   -26449 
  -27157   -27210   -26740   -26067   -26230   -27271   -27427   -26387 
  -25732   -26169   -26998   -27241   -26622   -26071   -26352   -26940 
  -27086   -26534   -26033   -26636   -27496   -27101   -26079   -25990 
  -26866   -27380   -26640   -25791   -26347   -27110   -26763   -26343 
  -26364   -26646   -27132   -26929   -26133   -26077   -26933   -27476 
  -26759   -25914   -26447   -27256   -27075   -26500   -25898   -25753 
  -26721   -27456   -26767   -26060   -26410   -27097   -27302   -26670 
  -26049   -26647   -27368   -26730   -25826   -26040   -26914   -27301 
  -26708   -26056   -26331   -26854   -26928   -26842   -26572   -26311 
  -26553   -26986   -26920   -26318   -26152   -26765   -27025   -26472 
  -26038   -26412   -27014   -26966   -26388   -26121   -26593   -27141 
  -27191   -27033   -26676   -26075   -25964   -26697   -27160   -26620 
  -26161   -26387   -26596   -26608   -26763   -26913   -26686   -26468 
  -26784   -26970   -26559   -26412   -26801   -26910   -26434   -25947 
  -26275   -27252   -27399   -26404   -25817   -26245   -27029   -27517 
  -27056   -26129   -26084   -26829   -27113   -26593   -26161   -26387 
  -26797   -26937   -26743   -26258   -26086   -26777   -27364   -26643 
  -25774   -26488   -27616   -27075   -25704   -25798   -27166   -27630 
