Origin Time       2025/03/30 21:30:00
Lat.              38.535
Long.             142.295
Depth. (km)       44
Mag.              4.3
Station Code      IWT021
Station Lat.      39.9203
Station Long.     141.0822
Station Height(m) 283
Record Time       2025/03/30 21:31:47
Sampling Freq(Hz) 100Hz
Duration Time(s)  60
Dir.              E-W
Scale Factor      7845(gal)/8223790
Max. Acc. (gal)   1.212
Last Correction   2025/03/30 21:31:46
Memo.             
[...]
    9822     9844     9871     9909     9957     9996    10018    10026 
   10019    10000     9984     9984    10006    10026    10018     9985 
    9933     9865     9809     9794     9829     9900    10002    10100 
   10153    10137    10073    10004     9963     9942     9933     9936 
    9948     9941     9906     9876     9876     9895     9937     9996 
   10031    10021     9992     9975     9975     9996    10031    10050 
   10023     9948     9856     9802     9798     9814     9842     9880 
    9904     9914     9934     9950     9942     9931     9953    10002 
   10048    10075    10076    10053    10010     9952     9895     9848 
    9811     9803     9850     9933     9996    10029    10049    10073 
   10076    10031     9960     9898     9873     9906     9988    10072 
   10107    10091    10057    10041    10045    10044    10010     9949 
    9887     9853     9869     9922     9975    10015    10049    10068 
   10065    10046    10010     9948     9872     9811     9807     9890 
   10008    10088    10107    10072     9985     9867     9761     9706 
    9714     9803     9958    10107    10208    10257    10231    10119 
    9956     9791     9661     9601     9633     9755     9903    10014 
   10066    10073    10056    10021     9971     9927     9890     9867 
    9883     9936     9979     9994     9988     9960     9929     9940 
   10002    10076    10111    10088    10030     9973     9934     9919 
    9944     9994    10025    10027    10015     9990     9953     9923 
    9917     9926     9930     9937     9976    10041    10096    10112 
   10080    10014     9937     9882     9864     9873     9890     9903 
    9911     9913     9909     9902     9909     9941     9985    10002 
    9967     9903     9842     9802     9801     9848     9926     9999 
   10048    10076    10079    10065    10060    10064    10052     9996 
    9904     9822     9776     9776     9821     9892     9972    10044 
   10092    10115    10116    10093    10039     9958     9872     9822 
    9836     9917    10035    10134    10164    10125    10048     9971 
    9918     9890     9871     9846     9832     9842     9888     9971 
   10072    10161    10210    10204    10139    10038     9926     9814 
    9730     9698     9711     9751     9809     9891     9990    10075 
   10107    10089    10058    10026     9987     9942     9902     9886 
    9895     9919     9945     9954     9948     9945     9957     9964 
    9958     9956     9964     9957     9903     9832     9802     9833 
    9906     9980    10025    10038    10026     9991     9958     9946 
    9948     9964     9999    10033    10038    10017     9994     9984 
   10000    10041    10075    10072    10031     9958     9873     9822 
    9830     9886     9960    10034    10092    10115    10088    10021 
    9941     9868     9811     9795     9852     9958    10054    10107 
   10111    10050     9950     9873     9850     9867     9888     9907 
    9946    10000    10033    10030     9996     9946     9884     9826 
    9811     9849     9894     9906     9895     9887     9894     9917 
    9942     9957     9950     9923     9907     9930     9992    10080 
   10162    10191    10146    10053     9958     9895     9860     9840 
    9832     9848     9884     9934     9991    10052    10095    10108 
   10102    10071    10000     9903     9833     9828     9887     9991 
   10102    10164    10142    10049     9926     9830     9787     9784 
    9805     9842     9895     9958    10029    10084    10103    10085 
   10050    10010     9969     9938     9918     9904     9884     9856 
    9849     9879     9915     9948     9975     9985     9976     9952 
    9938     9952     9972     9972     9964     9964     9967     9958 
    9949     9946     9930     9904     9911     9958    10018    10064 
   10081    10069    10035     9992     9952     9930     9934     9958 
   10000    10042    10057    10030     9980     9940     9923     9938 
    9979    10030    10081    10106    10080    10011     9918     9828 
    9775     9784     9845     9921     9961     9957     9946     9961 
    9998    10031    10025     9958     9860     9778     9744     9760 
    9809     9869     9954    10056    10127    10137    10076     9976 
    9894     9864     9882     9906     9898     9857     9832     9859 
    9927    10010    10080    10118    10111    10076    10034     9999 
    9981     9983     9992     9994     9972     9926     9882     9876 
    9923     9995    10041    10037    10000     9977     9990    10025 
   10072    10118    10143    10135    10088    10014     9944     9906 
    9903     9914     9913     9880     9837     9823     9852     9906 
    9961    10003    10025    10018     9977     9914     9855     9826 
    9853     9922     9996    10054    10068    10021     9948     9886 
    9849     9846     9855     9846     9826     9813     9815     9829 
    9859     9904     9957    10007    10045    10041     9990     9941 
    9930     9953     9995    10031    10054    10087    10139    10188 
   10189    10110     9958     9796     9694     9678     9734     9829 
    9934    10029    10104    10166    10199    10199    10183    10164 
   10157    10161    10150    10088     9972     9828     9703     9651 
    9679     9757     9857     9967    10069    10138    10150    10118 
   10065    10007     9941     9868     9809     9792     9821     9875 
    9933     9972     9977     9954     9906     9841     9774     9734 
    9747     9791     9838     9891     9958    10033    10103    10156 
   10191    10210    10191    10119    10012     9899     9803     9753 
    9755     9774     9776     9776     9810     9888     9999    10122 
   10227    10287    10288    10227    10118     9998     9896     9829 
    9813     9838     9888     9948    10007    10052    10071    10052 
    9999     9934     9887     9899     9967    10046    10104    10123 
   10106    10073    10046    10022     9976     9898     9799     9709 
    9676     9706     9764     9853     9956    10025    10035     9998 
    9952     9945     9960     9964     9953     9940     9923     9918 
    9930     9945     9940     9910     9865     9837     9845     9886 
    9953    10017    10033    10011     9988     9980     9992    10019 
   10053    10093    10131    10146    10138    10095     9996     9864 
    9765     9751     9813     9910    10007    10099    10174    10211 
   10188    10114    10002     9886     9822     9836     9892     9949 
    9992    10023    10025     9988     9944     9913     9886     9868 
    9882     9931     9992    10031    10035    10012     9969     9921 
    9890     9888     9894     9880     9867     9879     9913     9968 
   10050    10123    10133    10071     9977     9890     9828     9801 
    9813     9852     9886     9887     9865     9855     9865     9899 
    9960    10018    10035    10018     9983     9944     9919     9919 
    9950    10000    10033    10034    10017     9985     9938     9895 
    9882     9891     9882     9856     9859     9926    10021    10077 
   10065    10008     9963     9968    10018    10077    10114    10110 
   10079    10053    10044    10039    10042    10037     9996     9923 
    9821     9711     9644     9652     9732     9873    10050    10212 
   10304    10288    10177    10008     9829     9699     9675     9771 
    9950    10145    10285    10324    10258    10123     9979     9876 
    9821     9790     9783     9807     9842     9872     9883     9882 
    9899     9942     9988    10014    10010     9987     9965     9946 
    9921     9911     9945     9991    10003     9985     9958     9929 
    9900     9896     9933     9983    10010    10012     9994     9950 
    9890     9829     9780     9752     9769     9852     9976    10091 
   10169    10201    10187    10123    10015     9896     9802     9751 
    9767     9849     9950    10039    10111    10145    10125    10068 
    9995     9917     9873     9880     9888     9867     9819     9774 
    9764     9809     9900    10011    10100    10145    10143    10093 
   10008     9923     9867     9852     9884     9954    10029    10080 
   10119    10149    10161    10147    10108    10038     9952     9865 
    9794     9748     9745     9790     9868     9953    10022    10057 
   10049    10025    10017    10027    10044    10057    10038     9975 
    9894     9841     9841     9899     9990    10073    10115    10093 
   10015     9913     9818     9757     9744     9776     9845     9957 
   10093    10206    10250    10210    10100     9975     9892     9855 
    9823     9788     9752     9736     9776     9873     9990    10073 
   10087    10022     9903     9784     9722     9753     9868     9999 
   10083    10093    10068    10049    10046    10050    10062    10075 
   10052     9983     9892     9811     9755     9726     9748     9822 
    9931    10065    10191    10257    10239    10153    10026     9904 
    9838     9840     9894     9968    10026    10048    10017     9942 
    9884     9899     9979    10073    10129    10133    10100    10058 
   10018     9975     9914     9836     9776     9772     9818     9871 
    9917     9964    10004    10004     9956     9890     9849     9846 
    9868     9902     9937     9981    10057    10156    10215    10188 
   10083     9938     9792     9687     9649     9684     9776     9891 
    9981    10023    10030    10021    10019    10030    10026     9995 
    9960     9934     9917     9913     9941    10002    10068    10108 
   10115    10084    10017     9929     9860     9837     9860     9902 
    9945     9988    10023    10019     9972     9919     9894     9896 
    9933    10004    10076    10110    10083     9999     9896     9823 
    9813     9857     9936    10027    10115    10174    10189    10146 
   10050     9944     9865     9832     9829     9841     9865     9914 
    9983    10041    10076    10098    10103    10080    10033     9977 
    9930     9906     9903     9898     9891     9903     9940     9972 
    9967     9930     9887     9852     9819     9778     9747     9776 
    9869     9972    10050    10098    10100    10065    10018     9968 
    9922     9865     9787     9736     9771     9891    10049    10185 
   10255    10242    10145     9999     9863     9775     9745     9776 
    9845     9903     9922     9906     9882     9873     9860     9834 
    9836     9896    10006    10116    10197    10231    10188    10087 
    9990     9931     9899     9877     9871     9882     9907     9953 
   10008    10039    10038    10004     9961     9938     9945     9972 
   10031    10119    10193    10218    10196    10154    10107    10048 
    9967     9895     9840     9784     9745     9764     9840     9948 
   10062    10156    10203    10208    10193    10164    10115    10064 
   10033    10025    10026    10017     9968     9876     9786     9740 
    9738     9765     9810     9848     9872     9900     9921     9915 
    9896     9880     9871     9883     9936    10014    10066    10066 
   10045    10010     9934     9819     9697     9589     9528     9543 
    9626     9749     9892    10031    10122    10141    10115    10076 
   10045    10022    10006    10007    10023    10030    10019    10002 
    9980     9940     9871     9796     9755     9757     9792     9859 
    9958    10077    10206    10343    10450    10489    10459    10359 
   10184     9960     9724     9509     9373     9375     9528     9772 
   10030    10238    10351    10351    10265    10150    10052     9985 
    9946     9927     9929     9936     9937     9954    10012    10089 
   10114    10037     9865     9660     9505     9466     9570     9780 
   10002    10156    10226    10228    10184    10112    10025     9953 
    9915     9914     9936     9972    10021    10066    10069    10018 
    9929     9825     9730     9676     9684     9751     9871    10038 
   10219    10363    10403    10295    10085     9850     9652     9545 
    9562     9668     9786     9875     9940    10006    10087    10165 
   10208    10196    10120     9990     9837     9709     9643     9668 
    9772     9918    10092    10293    10501    10652    10669    10512 
   10192     9788     9439     9266     9304     9475     9668     9810 
    9898     9965    10060    10199    10327    10343    10206     9969 
    9759     9671     9713     9813     9907     9988    10072    10138 
   10133    10015     9825     9649     9563     9610     9779    10000 
   10212    10385    10500    10520    10420    10214     9953     9711 
    9552     9502     9545     9637     9745     9844     9896     9882 
    9834     9791     9753     9718     9714     9796    10011    10326 
   10611    10754    10725    10544    10289    10054     9857     9666 
    9514     9487     9624     9872    10100    10181    10079     9869 
    9682     9598     9616     9710     9857    10018    10147    10223 
   10255    10285    10365    10496    10604    10597    10443    10193 
    9953     9809     9753     9693     9555     9373     9239     9242 
    9413     9707    10044    10361    10605    10741    10756    10650 
   10422    10071     9634     9216     8949     8953     9274     9806 
   10301    10520    10399    10075     9740     9498     9381     9385 
    9489     9683     9934    10149    10242    10211    10142    10095 
   10029     9884     9634     9313     9046     8999     9252     9776 
   10422    10967    11230    11163    10856    10447    10038     9715 
    9537     9513     9612     9778     9957    10089    10104     9981 
    9817     9772     9938    10270    10632    10882    10941    10820 
   10566    10260     9985     9802     9726     9740     9794     9842 
    9852     9807     9748     9747     9809     9879     9906     9872 
    9794     9703     9670     9753     9937    10114    10164    10053 
    9845     9630     9468     9373     9344     9391     9540     9805 
   10161    10504    10694    10646    10378    10018     9718     9560 
    9529     9540     9510     9439     9412     9526     9799    10134 
   10359    10382    10245    10046     9894     9853     9936    10107 
   10296    10428    10476    10453    10384    10273    10125     9971 
    9845     9748     9706     9768     9910    10035    10076    10035 
    9969     9933     9956    10029    10108    10154    10143    10089 
   10037    10037    10081    10115    10077     9965     9826     9729 
    9737     9887    10154    10450    10633    10544    10116     9479 
    8935     8752     8972     9455     9981    10358    10508    10485 
   10392    10280    10129     9937     9753     9643     9621     9664 
    9732     9784     9787     9744     9683     9616     9556     9548 
    9633     9821    10056    10238    10328    10359    10349    10287 
   10179    10035     9859     9672     9522     9455     9494     9644 
    9871    10100    10289    10447    10589    10713    10789    10754 
   10570    10265     9902     9549     9255     9063     9026     9174 
    9483     9880    10282    10602    10782    10832    10808    10741 
   10624    10457    10268    10080     9899     9732     9568     9420 
    9340     9346     9389     9418     9433     9494     9647     9869 
   10099    10284    10404    10449    10407    10287    10130     9984 
    9892     9895     9973    10042    10008     9848     9606     9373 
    9227     9200     9282     9458     9720    10079    10503    10845 
   10918    10677    10258     9855     9594     9512     9568     9699 
    9853    10006    10172    10372    10530    10520    10288     9894 
    9481     9220     9235     9521     9904    10162    10191    10066 
    9957     9973    10111    10284    10385    10341    10145     9894 
    9698     9621     9667     9799     9977    10187    10380    10474 
   10415    10204     9911     9620     9391     9244     9193     9274 
    9478     9757    10085    10426    10685    10763    10623    10305 
    9926     9628     9490     9470     9487     9563     9768    10089 
   10428    10662    10710    10579    10336    10041     9738     9487 
    9364     9414     9607     9883    10169    10381    10455    10388 
   10215     9995     9792     9641     9556     9532     9553     9617 
    9711     9815     9948    10156    10432    10694    10832    10770 
   10515    10169     9857     9643     9532     9517     9595     9742 
    9907    10035    10096    10093    10060    10021     9981     9925 
    9841     9742     9656     9625     9693     9872    10133    10386 
   10528    10516    10378    10160     9903     9651     9445     9342 
    9360     9486     9686     9900    10054    10103    10061    10004 
    9994    10037    10080    10031     9861     9641     9475     9450 
    9597     9872    10184    10419    10474    10319    10004     9640 
    9356     9279     9458     9823    10224    10515    10633    10601 
   10466    10264    10012     9730     9475     9336     9391     9637 
    9971    10287    10544    10706    10737    10623    10390    10116 
    9891     9740     9618     9508     9437     9448     9595     9903 
   10293    10616    10736    10640    10424    10193     9998     9828 
    9664     9521     9460     9547     9771    10042    10253    10327 
   10254    10091     9903     9753     9698     9717     9744     9751 
    9748     9753     9787     9860     9965    10075    10149    10170 
   10143    10098    10075    10068    10018     9884     9698     9531 
    9464     9531     9676     9823     9925     9967     9960     9942 
    9963    10046    10145    10173    10107     9998     9907     9875 
    9911     9981    10025     9990     9882     9776     9734     9763 
    9826     9869     9861     9842     9873     9960    10065    10161 
   10233    10273    10278    10257    10211    10126    10034     9992 
   10008    10046    10076    10085    10095    10106    10081    10000 
    9875     9742     9657     9652     9695     9733     9745     9764 
    9842    10004    10197    10350    10422    10411    10347    10270 
   10191    10111    10045    10014    10029    10081    10147    10179 
   10122     9975     9776     9559     9352     9211     9211     9402 
    9753    10152    10465    10601    10542    10357    10153     9981 
    9836     9717     9640     9628     9697     9852    10058    10249 
   10350    10295    10052     9686     9342     9165     9216     9456 
    9780    10079    10258    10278    10166    10011     9890     9815 
    9765     9715     9664     9640     9707     9886    10131    10374 
   10519    10478    10258     9952     9678     9536     9559     9695 
    9877    10044    10142    10164    10125    10017     9837     9637 
    9513     9544     9737    10039    10369    10621    10721    10652 
   10465    10241    10060     9977    10015    10141    10269    10316 
   10254    10102     9894     9702     9583     9532     9525     9572 
    9711     9948    10216    10458    10636    10704    10597    10284 
    9828     9382     9088     9019     9177     9491     9845    10118 
   10238    10196    10052     9898     9796     9757     9759     9775 
    9813     9876     9946    10022    10098    10168    10223    10235 
   10180    10052     9825     9514     9231     9113     9262     9671 
