Origin Time       2025/03/30 21:30:00
Lat.              38.535
Long.             142.295
Depth. (km)       44
Mag.              4.3
Station Code      IWT021
Station Lat.      39.9203
Station Long.     141.0822
Station Height(m) 283
Record Time       2025/03/30 21:31:47
Sampling Freq(Hz) 100Hz
Duration Time(s)  60
Dir.              U-D
Scale Factor      7845(gal)/8223790
Max. Acc. (gal)   0.480
Last Correction   2025/03/30 21:31:46
Memo.             
[...]
  -45814   -45797   -45746   -45731   -45808   -45924   -45998   -45982 
  -45893   -45801   -45748   -45750   -45769   -45752   -45715   -45694 
  -45713   -45789   -45877   -45883   -45816   -45754   -45733   -45774 
  -45836   -45846   -45829   -45841   -45841   -45821   -45821   -45850 
  -45867   -45839   -45781   -45754   -45775   -45802   -45808   -45813 
  -45814   -45779   -45725   -45688   -45688   -45742   -45813   -45846 
  -45855   -45848   -45816   -45773   -45720   -45673   -45659   -45675 
  -45728   -45797   -45833   -45841   -45819   -45760   -45723   -45732 
  -45778   -45832   -45837   -45819   -45816   -45801   -45781   -45777 
  -45790   -45810   -45805   -45762   -45719   -45725   -45782   -45835 
  -45844   -45823   -45789   -45767   -45785   -45825   -45843   -45839 
  -45848   -45851   -45827   -45800   -45775   -45746   -45720   -45706 
  -45723   -45759   -45786   -45801   -45809   -45802   -45785   -45774 
  -45779   -45800   -45817   -45812   -45790   -45783   -45778   -45746 
  -45702   -45685   -45705   -45740   -45765   -45763   -45762   -45800 
  -45864   -45913   -45929   -45908   -45866   -45819   -45782   -45773 
  -45771   -45771   -45760   -45733   -45716   -45719   -45721   -45735 
  -45785   -45844   -45850   -45810   -45783   -45779   -45796   -45841 
  -45863   -45839   -45819   -45802   -45781   -45766   -45747   -45725 
  -45711   -45705   -45732   -45778   -45817   -45827   -45773   -45701 
  -45690   -45746   -45839   -45900   -45890   -45831   -45759   -45735 
  -45765   -45801   -45850   -45893   -45886   -45850   -45802   -45758 
  -45769   -45823   -45855   -45835   -45779   -45731   -45719   -45740 
  -45777   -45801   -45804   -45790   -45754   -45733   -45774   -45833 
  -45844   -45804   -45747   -45727   -45754   -45769   -45771   -45787 
  -45775   -45736   -45696   -45670   -45698   -45747   -45759   -45756 
  -45743   -45720   -45729   -45766   -45805   -45833   -45833   -45820 
  -45839   -45885   -45912   -45905   -45848   -45756   -45717   -45763 
  -45843   -45910   -45910   -45854   -45829   -45817   -45793   -45778 
  -45747   -45720   -45733   -45760   -45797   -45824   -45828   -45840 
  -45837   -45806   -45782   -45754   -45742   -45771   -45805   -45819 
  -45814   -45775   -45705   -45655   -45654   -45667   -45679   -45719 
  -45758   -45762   -45762   -45762   -45758   -45781   -45806   -45812 
  -45827   -45848   -45854   -45852   -45847   -45829   -45802   -45792 
  -45794   -45797   -45809   -45809   -45794   -45802   -45806   -45794 
  -45800   -45805   -45802   -45806   -45814   -45824   -45850   -45870 
  -45852   -45816   -45806   -45831   -45852   -45844   -45798   -45750 
  -45752   -45770   -45744   -45698   -45681   -45702   -45773   -45855 
  -45889   -45860   -45805   -45770   -45766   -45775   -45789   -45797 
  -45800   -45814   -45804   -45755   -45724   -45712   -45696   -45704 
  -45746   -45793   -45823   -45804   -45767   -45765   -45770   -45759 
  -45751   -45727   -45704   -45702   -45696   -45697   -45705   -45689 
  -45673   -45689   -45723   -45765   -45790   -45798   -45808   -45824 
  -45855   -45891   -45883   -45821   -45767   -45759   -45797   -45868 
  -45922   -45908   -45846   -45796   -45805   -45856   -45887   -45875 
  -45844   -45837   -45868   -45914   -45929   -45902   -45870   -45859 
  -45866   -45881   -45871   -45813   -45743   -45709   -45724   -45755 
  -45773   -45773   -45752   -45731   -45746   -45773   -45792   -45819 
  -45844   -45850   -45820   -45744   -45658   -45616   -45636   -45685 
  -45731   -45740   -45708   -45674   -45663   -45678   -45732   -45790 
  -45783   -45739   -45712   -45704   -45748   -45824   -45860   -45871 
  -45863   -45806   -45738   -45697   -45681   -45682   -45697   -45716 
  -45740   -45777   -45831   -45873   -45867   -45816   -45762   -45751 
  -45802   -45883   -45910   -45871   -45836   -45820   -45808   -45821 
  -45829   -45800   -45771   -45743   -45712   -45729   -45794   -45850 
  -45868   -45867   -45866   -45873   -45883   -45859   -45820   -45832 
  -45856   -45837   -45806   -45781   -45773   -45792   -45796   -45758 
  -45709   -45697   -45743   -45812   -45863   -45881   -45866   -45831 
  -45790   -45765   -45758   -45751   -45739   -45731   -45740   -45775 
  -45801   -45760   -45681   -45639   -45674   -45756   -45841   -45886 
  -45855   -45790   -45744   -45719   -45724   -45765   -45806   -45827 
  -45824   -45796   -45770   -45744   -45706   -45692   -45708   -45742 
  -45775   -45777   -45762   -45771   -45778   -45802   -45850   -45863 
  -45848   -45829   -45816   -45864   -45922   -45906   -45856   -45813 
  -45778   -45781   -45790   -45759   -45719   -45698   -45704   -45738 
  -45774   -45789   -45786   -45779   -45785   -45823   -45885   -45924 
  -45886   -45787   -45689   -45666   -45754   -45873   -45940   -45940 
  -45859   -45782   -45785   -45810   -45828   -45831   -45789   -45748 
  -45728   -45706   -45713   -45739   -45735   -45712   -45694   -45706 
  -45748   -45762   -45735   -45717   -45740   -45766   -45771   -45798 
  -45831   -45840   -45854   -45837   -45810   -45836   -45850   -45816 
  -45782   -45751   -45744   -45755   -45733   -45721   -45750   -45796 
  -45832   -45827   -45805   -45817   -45825   -45785   -45750   -45773 
  -45828   -45850   -45824   -45814   -45855   -45885   -45874   -45839 
  -45782   -45746   -45729   -45697   -45689   -45717   -45742   -45785 
  -45835   -45836   -45810   -45787   -45773   -45786   -45806   -45812 
  -45808   -45771   -45724   -45732   -45773   -45790   -45789   -45775 
  -45747   -45728   -45743   -45770   -45792   -45806   -45809   -45814 
  -45825   -45817   -45797   -45797   -45814   -45819   -45804   -45786 
  -45774   -45762   -45756   -45752   -45746   -45758   -45771   -45751 
  -45729   -45721   -45724   -45754   -45783   -45796   -45831   -45877 
  -45890   -45879   -45837   -45774   -45752   -45777   -45817   -45874 
  -45895   -45858   -45819   -45796   -45777   -45759   -45725   -45704 
  -45717   -45750   -45790   -45819   -45819   -45806   -45805   -45819 
  -45839   -45867   -45883   -45883   -45897   -45887   -45821   -45755 
  -45708   -45692   -45720   -45740   -45739   -45742   -45723   -45682 
  -45638   -45625   -45673   -45728   -45747   -45742   -45733   -45736 
  -45765   -45806   -45841   -45881   -45912   -45904   -45870   -45820 
  -45775   -45766   -45773   -45778   -45782   -45785   -45804   -45835 
  -45854   -45840   -45774   -45704   -45696   -45721   -45751   -45787 
  -45804   -45819   -45848   -45843   -45827   -45858   -45898   -45894 
  -45843   -45781   -45754   -45744   -45729   -45715   -45708   -45727 
  -45762   -45787   -45802   -45783   -45743   -45719   -45697   -45724 
  -45812   -45873   -45897   -45913   -45881   -45812   -45767   -45735 
  -45731   -45792   -45836   -45820   -45790   -45739   -45705   -45738 
  -45789   -45844   -45901   -45900   -45832   -45752   -45698   -45689 
  -45715   -45731   -45733   -45755   -45771   -45756   -45760   -45785 
  -45787   -45800   -45828   -45819   -45782   -45754   -45735   -45775 
  -45859   -45886   -45858   -45808   -45756   -45758   -45792   -45806 
  -45783   -45719   -45674   -45717   -45809   -45886   -45914   -45881 
  -45804   -45748   -45731   -45729   -45769   -45812   -45806   -45789 
  -45790   -45800   -45833   -45860   -45840   -45824   -45814   -45769 
  -45721   -45698   -45692   -45720   -45756   -45763   -45760   -45781 
  -45820   -45846   -45855   -45848   -45802   -45748   -45736   -45767 
  -45840   -45908   -45898   -45819   -45739   -45705   -45724   -45781 
  -45832   -45843   -45824   -45771   -45698   -45648   -45640   -45684 
  -45752   -45802   -45819   -45783   -45739   -45758   -45809   -45832 
  -45829   -45805   -45783   -45793   -45777   -45738   -45739   -45746 
  -45739   -45762   -45792   -45824   -45862   -45860   -45829   -45828 
  -45856   -45873   -45855   -45832   -45836   -45877   -45906   -45877 
  -45820   -45760   -45719   -45739   -45806   -45843   -45824   -45786 
  -45766   -45779   -45828   -45873   -45856   -45789   -45743   -45755 
  -45816   -45875   -45854   -45763   -45682   -45647   -45662   -45690 
  -45671   -45628   -45608   -45616   -45655   -45713   -45747   -45770 
  -45787   -45779   -45777   -45787   -45773   -45756   -45767   -45777 
  -45785   -45793   -45800   -45829   -45863   -45878   -45890   -45891 
  -45870   -45832   -45809   -45825   -45837   -45821   -45802   -45802 
  -45828   -45837   -45793   -45767   -45793   -45814   -45819   -45813 
  -45812   -45833   -45863   -45856   -45833   -45839   -45836   -45802 
  -45778   -45763   -45763   -45789   -45793   -45782   -45779   -45770 
  -45744   -45712   -45696   -45692   -45685   -45700   -45746   -45786 
  -45794   -45765   -45723   -45711   -45748   -45808   -45839   -45843 
  -45840   -45802   -45751   -45738   -45752   -45755   -45747   -45754 
  -45773   -45808   -45854   -45847   -45805   -45805   -45824   -45824 
  -45829   -45854   -45870   -45856   -45832   -45816   -45804   -45817 
  -45836   -45819   -45816   -45843   -45843   -45814   -45767   -45727 
  -45735   -45762   -45778   -45766   -45697   -45644   -45688   -45767 
  -45820   -45840   -45802   -45748   -45748   -45765   -45774   -45790 
  -45783   -45775   -45794   -45808   -45805   -45790   -45755   -45733 
  -45748   -45774   -45806   -45837   -45832   -45806   -45806   -45817 
  -45825   -45843   -45855   -45866   -45868   -45831   -45792   -45806 
  -45839   -45860   -45863   -45839   -45806   -45782   -45762   -45755 
  -45771   -45808   -45829   -45813   -45785   -45760   -45759   -45782 
  -45773   -45725   -45674   -45642   -45674   -45755   -45805   -45804 
  -45755   -45697   -45692   -45717   -45720   -45713   -45713   -45712 
  -45715   -45736   -45774   -45835   -45890   -45871   -45794   -45736 
  -45700   -45701   -45766   -45835   -45832   -45765   -45690   -45681 
  -45739   -45794   -45804   -45775   -45743   -45755   -45798   -45827 
  -45848   -45871   -45871   -45851   -45836   -45829   -45828   -45831 
  -45825   -45817   -45835   -45864   -45870   -45859   -45848   -45835 
  -45816   -45802   -45801   -45824   -45858   -45863   -45858   -45832 
  -45758   -45706   -45692   -45674   -45694   -45721   -45712   -45752 
  -45827   -45856   -45860   -45837   -45792   -45783   -45805   -45832 
  -45873   -45883   -45843   -45802   -45777   -45773   -45790   -45812 
  -45833   -45856   -45875   -45859   -45797   -45743   -45728   -45747 
  -45787   -45796   -45751   -45693   -45652   -45666   -45723   -45782 
  -45841   -45889   -45916   -45920   -45867   -45770   -45693   -45652 
  -45646   -45671   -45697   -45696   -45679   -45670   -45686   -45716 
  -45732   -45733   -45727   -45735   -45779   -45823   -45829   -45810 
  -45782   -45752   -45742   -45770   -45802   -45794   -45763   -45731 
  -45720   -45774   -45866   -45914   -45887   -45809   -45743   -45744 
  -45810   -45885   -45904   -45868   -45829   -45814   -45837   -45867 
  -45854   -45797   -45724   -45662   -45661   -45728   -45801   -45833 
  -45827   -45808   -45805   -45852   -45949   -46055   -46110   -46071 
  -45917   -45723   -45619   -45624   -45694   -45790   -45804   -45708 
  -45620   -45581   -45605   -45721   -45840   -45889   -45877   -45804 
  -45738   -45766   -45833   -45852   -45833   -45792   -45731   -45698 
  -45716   -45767   -45850   -45914   -45882   -45782   -45708   -45690 
  -45711   -45742   -45759   -45775   -45802   -45802   -45755   -45706 
  -45698   -45700   -45720   -45805   -45921   -45999   -45963   -45778 
  -45558   -45446   -45461   -45557   -45693   -45800   -45848   -45877 
  -45881   -45844   -45808   -45778   -45738   -45727   -45786   -45881 
  -45937   -45914   -45846   -45816   -45879   -45987   -46037   -45983 
  -45856   -45709   -45609   -45613   -45689   -45748   -45732   -45659 
  -45644   -45742   -45881   -46025   -46137   -46145   -46087   -46013 
  -45916   -45855   -45858   -45848   -45796   -45700   -45553   -45431 
  -45415   -45508   -45650   -45743   -45765   -45775   -45792   -45800 
  -45802   -45762   -45679   -45608   -45613   -45732   -45901   -46026 
  -46102   -46094   -45925   -45646   -45404   -45353   -45534   -45790 
  -45959   -46001   -45918   -45794   -45733   -45746   -45797   -45851 
  -45871   -45881   -45890   -45833   -45689   -45547   -45509   -45620 
  -45829   -46005   -46051   -45987   -45887   -45821   -45846   -45933 
  -45993   -45990   -45948   -45898   -45883   -45894   -45875   -45802 
  -45701   -45608   -45551   -45549   -45589   -45638   -45689   -45711 
  -45675   -45673   -45759   -45867   -45958   -45991   -45936   -45875 
  -45867   -45854   -45828   -45789   -45708   -45636   -45625   -45663 
  -45708   -45697   -45624   -45546   -45511   -45522   -45589   -45701 
  -45798   -45843   -45823   -45773   -45754   -45770   -45814   -45878 
  -45922   -45955   -45983   -45951   -45843   -45704   -45576   -45515 
  -45592   -45743   -45827   -45817   -45754   -45678   -45702   -45860 
  -46045   -46148   -46090   -45905   -45733   -45671   -45739   -45878 
  -45972   -45982   -45913   -45770   -45650   -45646   -45739   -45870 
  -45956   -45948   -45900   -45890   -45947   -46026   -46055   -46001 
  -45877   -45723   -45592   -45553   -45638   -45758   -45787   -45723 
  -45630   -45593   -45669   -45814   -45943   -45986   -45924   -45814 
  -45756   -45805   -45917   -45986   -45956   -45837   -45675   -45524 
  -45388   -45285   -45284   -45412   -45636   -45864   -45971   -45932 
  -45810   -45692   -45678   -45771   -45879   -45925   -45866   -45759 
  -45731   -45797   -45879   -45918   -45874   -45763   -45654   -45596 
  -45608   -45679   -45785   -45877   -45906   -45886   -45837   -45779 
  -45747   -45763   -45804   -45835   -45819   -45767   -45733   -45773 
  -45871   -45941   -45952   -45944   -45895   -45817   -45778   -45782 
  -45837   -45955   -46032   -45989   -45873   -45751   -45673   -45654 
  -45659   -45675   -45727   -45810   -45856   -45806   -45689   -45567 
  -45492   -45504   -45592   -45681   -45756   -45848   -45924   -45979 
  -46017   -45993   -45929   -45894   -45873   -45854   -45841   -45816 
  -45808   -45856   -45895   -45854   -45742   -45623   -45558   -45582 
  -45689   -45790   -45816   -45774   -45690   -45640   -45655   -45679 
  -45728   -45798   -45827   -45833   -45840   -45844   -45891   -45979 
  -46021   -45975   -45839   -45643   -45504   -45524   -45679   -45863 
  -45949   -45875   -45693   -45544   -45546   -45663   -45786   -45825 
  -45758   -45693   -45721   -45782   -45810   -45810   -45805   -45810 
  -45816   -45836   -45904   -46028   -46174   -46234   -46153   -46002 
  -45839   -45704   -45636   -45624   -45654   -45724   -45759   -45735 
  -45731   -45762   -45792   -45812   -45785   -45708   -45652   -45648 
  -45693   -45762   -45821   -45860   -45866   -45835   -45785   -45736 
  -45700   -45675   -45661   -45669   -45692   -45719   -45742   -45758 
  -45782   -45831   -45894   -45920   -45881   -45835   -45814   -45813 
  -45859   -45916   -45940   -45979   -46009   -45975   -45916   -45832 
  -45706   -45582   -45512   -45540   -45682   -45841   -45882   -45798 
  -45686   -45612   -45611   -45692   -45802   -45900   -45954   -45909 
  -45786   -45678   -45624   -45632   -45677   -45712   -45754   -45796 
  -45820   -45843   -45824   -45733   -45632   -45565   -45557   -45639 
  -45778   -45924   -46041   -46090   -46062   -45981   -45893   -45854 
  -45850   -45855   -45867   -45866   -45852   -45832   -45790   -45742 
  -45720   -45739   -45789   -45867   -45960   -46018   -45994   -45889 
  -45751   -45665   -45661   -45705   -45750   -45748   -45700   -45666 
  -45686   -45740   -45782   -45766   -45688   -45639   -45650   -45670 
  -45702   -45758   -45810   -45854   -45873   -45852   -45798   -45702 
  -45609   -45580   -45611   -45661   -45697   -45686   -45639   -45621 
  -45651   -45735   -45883   -46016   -46062   -46048   -45990   -45936 
  -45951   -45983   -45986   -45948   -45844   -45738   -45706   -45724 
  -45748   -45746   -45721   -45711   -45717   -45732   -45744   -45760 
  -45800   -45828   -45827   -45852   -45910   -45958   -45981   -45943 
  -45827   -45702   -45631   -45621   -45688   -45800   -45868   -45873 
  -45839   -45752   -45648   -45607   -45632   -45684   -45743   -45802 
  -45867   -45909   -45909   -45898   -45910   -45937   -45933   -45862 
  -45782   -45747   -45759   -45816   -45860   -45839   -45794   -45747 
  -45701   -45701   -45732   -45748   -45755   -45738   -45693   -45692 
  -45756   -45852   -45940   -45956   -45891   -45798   -45719   -45688 
  -45705   -45717   -45682   -45609   -45563   -45598   -45685   -45763 
  -45783   -45747   -45705   -45677   -45670   -45712   -45769   -45792 
  -45787   -45810   -45900   -46022   -46094   -46043   -45898   -45758 
  -45669   -45644   -45678   -45716   -45740   -45763   -45779   -45796 
  -45796   -45787   -45833   -45916   -45982   -46013   -45959   -45829 
  -45729   -45711   -45755   -45832   -45893   -45924   -45944   -45949 
  -45921   -45858   -45771   -45696   -45647   -45644   -45692   -45750 
  -45783   -45777   -45736   -45696   -45650   -45590   -45574   -45630 
  -45713   -45805   -45885   -45883   -45808   -45727   -45701   -45758 
  -45841   -45889   -45885   -45837   -45793   -45766   -45729   -45709 
  -45732   -45785   -45859   -45924   -45956   -45968   -45972   -45963 
  -45929   -45875   -45817   -45762   -45724   -45725   -45758   -45798 
  -45806   -45739   -45625   -45540   -45523   -45567   -45631   -45657 
  -45648   -45634   -45646   -45713   -45814   -45922   -45993   -45963 
  -45850   -45715   -45627   -45663   -45806   -45947   -46008   -45983 
  -45881   -45743   -45635   -45600   -45648   -45746   -45844   -45933 
  -46008   -46051   -46055   -46030   -46008   -45995   -45971   -45918 
  -45833   -45731   -45673   -45688   -45752   -45819   -45812   -45724 
  -45619   -45544   -45538   -45605   -45720   -45806   -45797   -45732 
  -45655   -45592   -45608   -45688   -45754   -45775   -45727   -45647 
  -45609   -45630   -45709   -45817   -45895   -45909   -45858   -45781 
  -45732   -45733   -45777   -45819   -45832   -45814   -45775   -45782 
  -45862   -45952   -46014   -46022   -45985   -45956   -45947   -45931 
  -45900   -45847   -45792   -45748   -45732   -45781   -45870   -45924 
  -45913   -45844   -45740   -45673   -45671   -45689   -45716   -45740 
  -45717   -45671   -45667   -45713   -45782   -45833   -45844   -45846 
  -45863   -45870   -45824   -45725   -45609   -45517   -45503   -45571 
  -45651   -45713   -45762   -45769   -45751   -45733   -45689   -45669 
  -45746   -45877   -46006   -46093   -46086   -46024   -45982   -45967 
  -45970   -45994   -45989   -45940   -45878   -45798   -45721   -45694 
  -45690   -45684   -45693   -45697   -45694   -45709   -45732   -45752 
  -45785   -45819   -45814   -45763   -45727   -45738   -45779   -45817 
  -45801   -45766   -45771   -45790   -45794   -45767   -45705   -45652 
  -45615   -45559   -45509   -45497   -45561   -45693   -45816   -45871 
  -45855   -45809   -45785   -45800   -45836   -45893   -45951   -45952 
  -45890   -45814   -45766   -45760   -45800   -45860   -45914   -45939 
  -45925   -45891   -45878   -45902   -45933   -45925   -45870   -45775 
