Origin Time       2025/03/30 21:30:00
Lat.              38.535
Long.             142.295
Depth. (km)       44
Mag.              4.3
Station Code      IWT009
Station Lat.      39.0190
Station Long.     141.4053
Station Height(m) 148
Record Time       2025/03/30 21:31:12
Sampling Freq(Hz) 100Hz
Duration Time(s)  69
Dir.              N-S
Scale Factor      7845(gal)/8223790
Max. Acc. (gal)   8.493
Last Correction   2025/03/30 21:31:11
Memo.             
[...]
     -17      -17       -4       -6      -17      -16       -9      -12 
     -13      -14      -12       -8      -13      -13       -9      -18 
     -16       -2      -10      -17      -13      -12       -9      -12 
     -17      -12       -9      -21      -21       -8       -8      -10 
      -8      -20      -16       -6      -18      -13        0      -16 
     -22       -8      -12      -20      -14       -9      -12      -14 
     -14      -12      -13      -24      -10       -2      -25      -13 
       1      -20      -16       -5      -13      -20      -18      -10 
      -6      -18      -18       -8      -17      -22       -8      -10 
     -20      -10      -10      -20      -18      -13      -14      -12 
      -9      -16      -18      -17      -13       -9      -14      -12 
      -8      -17      -17      -12      -13      -12      -17      -14 
      -2      -12      -24      -16      -12      -21      -14        5 
     -13      -36      -13       -4      -20      -14       -6      -10 
     -13      -13      -14      -13       -9       -8       -8      -17 
     -20       -8      -10      -17       -8      -12      -22      -16 
      -6      -10      -21      -14       -1      -16      -17       -5 
     -16      -17        1       -9      -25       -9       -5      -17 
     -14      -13      -21      -14       -4       -8      -18      -18 
     -13      -16      -16       -2       -6      -24      -12       -5 
     -21      -16       -4      -14      -16        0      -12      -31 
     -13       -4      -18      -13      -10      -24      -10       -6 
     -27      -13        0      -20      -18       -5      -14      -18 
     -14      -12       -8      -18      -17       -1      -17      -22 
      -1      -12      -18       -4      -14      -20       -8      -12 
     -14       -6       -8      -16      -18      -12       -8      -14 
     -14      -10      -14      -16       -9      -13      -17      -10 
     -14      -18      -10      -14      -13       -5      -17      -21 
      -8      -12      -17      -10      -13      -13      -12      -16 
      -9      -10      -17       -9       -9      -18      -14       -9 
      -9      -12      -21      -17       -5      -16      -14       -2 
     -14      -18       -8      -20      -14        1      -16      -18 
      -8      -25      -16        1      -18      -18       -4      -20 
     -22       -8      -10      -16      -16      -10      -12      -18 
     -10       -4      -20      -17        0      -13      -20       -6 
      -9      -14      -14      -16      -18      -14       -5      -12 
     -25      -16       -8      -20      -21      -16      -29      -29 
      -8        5       12       22       27       24       10      -27 
     -71      -85      -85      -75      -25       18        5      -24 
     -27       37      175      217       20     -255     -413     -402 
    -128      284      449      337      190        6     -213     -249 
     -63       44     -193     -523     -413       95      579      884 
     743     -145    -1173    -1196     -148      818      831      156 
    -252      -48     -106     -718     -583      602     1146      309 
    -807     -920      295     1215       90    -1698    -1620      472 
    2511     2130     -676    -2818    -1995      498     2219     1976 
     -10    -1873    -1800     -186     1304     1281     -280    -1618 
   -1174      571     1962     1837      321    -1404    -2160    -1653 
    -170     1664     2355      963    -1181    -2201    -1281     1055 
    2596     1350    -1660    -3076    -1244     1587     2490     1381 
    -388    -1964    -2073     -263     1382     1337      467     -298 
    -576     -126      519      581       47     -691    -1366    -1246 
     214     1686     1555      102    -1417    -1683     -205     1514 
    1633      265    -1108    -1339     -353      911     1278      322 
   -1336    -2164     -831     1552     2326     1026     -598    -1391 
   -1158     -108      918     1026       48    -1291    -1532       25 
    1753     1591       49    -1027    -1356    -1040      487     2007 
    1486     -527    -1877    -1443       24     1069     1221      472 
    -939    -1598     -618      978     1706      824     -865    -1624 
    -751      959     1761      580    -1217    -1590     -598      369 
     895     1078      394     -874    -1321     -400      908     1167 
     187     -734     -804     -357      305      903      697     -407 
   -1277     -947      360     1389      924     -379     -903     -683 
    -410      135      835     1054      442     -854    -1701    -1031 
     488     1424     1279      332     -796    -1098     -337      500 
     504     -286     -783     -114      884      903      -62     -903 
    -777     -153       43       16      452      700       16     -481 
     -68      220       24     -164     -251     -166      116      336 
     303       45     -333     -700     -588      357     1247      756 
    -784    -1466     -353     1005      978       64     -638     -711 
    -243      220      340      209      -51     -148      103      391 
     270     -253     -642     -533     -171      261      831      916 
     -62    -1094    -1069     -210      712      799      133     -133 
      56       36     -249     -658     -781     -221      602     1046 
     876      197     -400     -630     -966     -997       33     1024 
     857      240     -194     -495     -438       32      332      -83 
    -626     -137      927     1047      186     -658    -1092     -961 
    -102      963      993     -299    -1139     -326      850     1057 
     446     -392    -1017    -1035     -297      715     1197      760 
    -344    -1220    -1067      -89      953     1231      367     -697 
    -967     -648       45      857      930       79     -901    -1067 
     -43     1104      985      -31     -745     -873     -557      -49 
     319      716      912      313     -476     -716     -623     -245 
     286      382      135      140      287       39     -446     -588 
    -442     -255      241      854      861      340     -203     -697 
    -963     -657       44      700      966      481     -372     -638 
    -272      144      226      -27      -97       35     -132     -319 
     -52      288      108     -361     -399       28      527      776 
     388     -314     -643     -708     -442      453     1047      388 
    -652     -816     -286      137      317      379      141     -253 
    -338     -220       20      637      785     -332    -1236     -569 
     519      787      508       62     -413     -681     -638     -109 
     584      565       22      -97       81     -105     -388      -67 
     479      283     -340     -414     -128      -18       35       83 
      41      -95     -102      387      665      -25     -757     -716 
    -191      425      604      263       48      -60     -444     -638 
    -193      427      519       33     -330     -112      153      -93 
    -317       18      248     -109     -315      118      633      483 
    -198     -606     -602     -410      166      757      652     -114 
    -920     -865      101      850      924      548     -342    -1146 
    -826      202      720      611      214     -425     -915     -756 
      -1      849     1162      511     -658    -1142     -514      399 
     777      496     -211     -811     -594      232      758      780 
     282     -882    -1597     -618      955     1151      209     -144 
     280      130     -772    -1107     -357      579      753      284 
      25        6     -251     -302      148      345      -98     -700 
    -862     -140      916      969      133     -549     -818     -467 
     342      866      696      -87     -668     -463       29      415 
     310     -513    -1053     -410      811     1282      453     -685 
    -992     -592       21      723      973      214     -702     -589 
     -48     -124     -109      571      726      -44     -680     -673 
     -99      454      207     -268     -120      233      305       37 
    -311      -68      514      229     -815    -1071      -31     1104 
    1325      356    -1148    -1470     -342      845     1244      400 
   -1017    -1350     -467      602     1169      904       -4     -864 
    -811      -70       17     -297      319     1235      849     -788 
   -1869     -990      905     1706      720     -765    -1289     -683 
     461     1233      854     -318    -1239    -1043       94      800 
     827      992      492    -1181    -2166    -1281      538     1875 
    1702      179    -1215    -1304     -442      426      847      510 
    -240     -496     -251       39      270      355      124     -446 
    -868     -549      387     1152      963       12     -777     -837 
    -275       13     -483     -541      670     1674     1112     -307 
   -1351    -1385     -349      801      878       75     -415     -189 
      32      -75      -82      135      334      261     -214     -834 
    -892       32     1183     1485      610     -986    -1912    -1200 
     464     1892     2031      464    -1802    -2979    -1752     1155 
    2997     2092     -476    -2389    -1973      213     1840     1614 
     186    -1102    -1344     -702      255      999      873      -63 
    -805     -580      218      629      392     -199     -791     -824 
    -118      749     1063      475     -594     -895      -20      500 
    -236     -783      -64      853      839      133     -596     -901 
    -490      388      877      484     -272     -665     -325      487 
     630     -337    -1304    -1144      268     1664     1464       41 
   -1050    -1066     -182      693      615     -144     -545     -322 
      17      201      413      710      270    -1258    -1972     -450 
    1668     2253      923    -1028    -1702     -994      -99      650 
     876      135     -754     -768      205     1206      874     -442 
   -1007     -361      508      383     -741     -930      440     1232 
     325     -819     -720      121      437      290      272       99 
    -394     -533     -149       37     -110        6      422      427 
    -171     -487      -33      151     -457     -626      143      892 
    1183      795     -615    -1891    -1389      378     1490     1011 
    -491    -1571     -918     1046     2079      997     -793    -1561 
   -1050       22      687      540      162      -32     -338     -558 
    -190      280      361      245     -170     -513      -37      608 
     607      120     -635    -1032     -465      453     1008      870 
    -157    -1108     -935     -282      310     1174     1410     -102 
   -1845    -1649      -98     1131     1570      985     -491    -1548 
   -1175      311     1555     1108     -530    -1328     -714       76 
     292      355      445      151     -322     -483     -490     -414 
     -63      614     1312      853     -670    -1146     -433      145 
     677      681     -265     -756     -533     -583     -267      814 
    1163      301     -421     -452     -315     -140       59       95 
      54       -6      -16      149      147      -74      -28      130 
      54      -90     -292     -592     -348      656     1016     -163 
   -1217     -646      391      604      517      548      207     -495 
    -950     -666      282      843      351     -438     -872     -596 
     688     1748      973    -1066    -2227    -1317      587     1682 
    1444      384     -850    -1412     -692      464      954      978 
     529     -684    -1615    -1224     -171      568     1053      967 
     -70     -754     -376      117      338      170     -426     -475 
     380      866      302     -487     -884     -670      234      936 
     638     -162     -834     -870       79      973      796      187 
    -264     -480     -230       64      -99     -253     -133      -97 
       1      344      438      141     -143     -544    -1228    -1150 
     638     2506     2108       41    -1620    -2070    -1377     -121 
     955     1548     1275       36    -1177    -1352     -612      315 
     781      604      201     -213     -672     -622      160      788 
     770      270     -502     -842     -550      -97      438      618 
      49     -535     -468       -1      373      704      886       20 
   -1545    -1601      113     1028      454      218      502      284 
    -201     -445     -409     -225      -16      256      159     -658 
   -1115     -163     1142     1192      356     -207     -625     -796 
      82     1035      483     -946    -1510     -526      886     1115 
     184     -554     -751     -919     -145     1749     2061     -126 
   -2143    -1906     -298      346       48      491     1075      658 
      -1     -152     -197     -666    -1123     -573     1027     2497 
    2439      710    -1150    -1819    -1502     -581      484      387 
    -950    -1664     -387     2249     3790     2407     -881    -3640 
   -4095    -1794     2003     4425     3087     -769    -3175    -1950 
    1200     3010     2332      244    -2411    -4607    -4433    -1652 
    1323     2268     1279      116      292     1776     3564     3889 
     517    -5512    -8476    -4237     3746     7789     4833    -1526 
   -6134    -5775     -939     4372     6411     4066     -892    -4388 
   -3898    -1125      932     1019     -249     -862      611     3191 
    5016     4386      -29    -6097    -8916    -6218      608     7318 
    8224     2381    -4521    -7028    -4754     -356     3825     6134 
    5227     1497    -2535    -4018    -1842     1656     2308     -851 
   -4719    -5802    -2197     4460     8208     5154    -1193    -5192 
   -5005    -1929     1520     3233     2617      182    -2601    -3492 
   -1092     2921     4708     2559    -1298    -3302    -2563    -1212 
    -418      353     1008     1285     1063      -58    -1401    -1472 
     160     2199     2493      665    -1360    -2397    -2582    -1534 
     587     2269     2562     1528     -144    -1649    -2620    -1745 
    1418     3477     1966     -413     -865     -588    -1015     -911 
     587     1543      419     -954     -845     -407     -329      380 
    1358      992     -857    -2278    -1593      560     2481     2600 
    -221    -3580    -2789     1620     3875     1193    -2686    -3261 
   -1175      639     1138      561       29      476     1043      884 
     379     -333    -1355    -2135    -1910     -438     1665     3007 
    2378      441     -959    -1258     -865     -201      113     -225 
    -861     -801      186      622      378     1078     2130     1524 
    -661    -2845    -3620    -2070     1148     3438     2844      471 
   -1067     -870     -122      -49     -602    -1212    -1641    -1107 
     812     2346     2035      669     -943    -2138    -1791     -498 
      85      167      955     2320     2724      889    -2165    -3595 
   -2199      553     2948     3547     1300    -2438    -4206    -1856 
    2524     4202     1603    -2184    -3904    -2767      137     2930 
    3724     1518    -2138    -3875    -2095     1629     4225     3389 
    -461    -4086    -4187     -610     3312     3928      823    -3137 
   -4174     -911     3065     3349      587    -2058    -2991    -1432 
    1533     2366      272    -1279     -669      360      770      679 
      52     -891    -1459     -980      328     1167      346    -1036 
    -423     1630     2154     1016     -261    -1854    -3202    -2095 
    1192     3321     2378      -66    -1803    -2214    -1271      923 
    2934     2187    -1374    -3511    -1555     1514     2357     1092 
    -724    -1343     -319      942     1624     1290     -567    -2371 
   -1979      -51     1406     1641      625    -1333    -2675    -1494 
    1528     3102     1745     -433    -1345    -1313     -997       35 
    1271     1206      -25    -1215    -1684     -870      614     1017 
     361      -24      283      846      687     -433    -1219     -792 
     -36      -71     -437     -298      226     1055     1772     1229 
    -791    -2810    -2698     -252     1840     1664      583      626 
    1093      -10    -1884    -2192     -760     1035     1976     1475 
    -113    -1614    -1737     -353      976      920      326      295 
      54    -1061    -1996    -1453      577     2443     2276      406 
   -1259    -1703     -904      511     1327     1209      630     -386 
   -1359    -1503    -1170     -633      599     1841     1464     -202 
    -891      -93      357       36       49      247       81     -108 
    -486    -1314    -1344      325     2191     2203      234    -2018 
   -2594     -789     1806     2585     1027    -1057    -1981    -1498 
    -402      642     1516     1903     1244     -283    -1688    -2146 
   -1395       56     1333     1919     1116    -1019    -2326    -1097 
    1491     3028     2218     -633    -3690    -4170    -1115     2932 
    4480     2328    -1526    -3661    -2415      680     2396     1113 
   -1306    -1958     -299     1702     1910       87    -1946    -2058 
     120     2525     2664      388    -2079    -2590    -1183      594 
    1644     1428     -101    -1769    -1818      -18     1672     1665 
     510     -643    -1382    -1213      494     2548     2401     -483 
   -3581    -3427      436     3742     2889     -526    -3069    -2832 
    -182     2124     2182      808     -982    -2189    -1432      473 
    1405     1198      317    -1206    -1734       13     2130     2443 
     912    -1602    -3345    -2315      811     2907     2128     -508 
   -2520    -1880      835     2492     1455     -653    -2085    -2170 
    -387     2365     3346     1316    -1722    -3159    -2041      592 
    2322     1802       -4    -1652    -2073     -581     1593     2002 
     519     -773    -1077    -1026     -576      564     1474      739 
   -1165    -1742     -247     1054     1013      633      126     -645 
   -1107     -733      479     1242      699       22     -346     -931 
   -1136     -432      591     1156     1078      386     -669     -969 
     -45      826      542     -518     -978     -247      257     -499 
    -976      307     1718     1115     -379     -835     -720     -656 
     -86      785      936      120     -604     -349        9     -402 
    -734     -251      542      966      753       81     -587     -970 
   -1124     -714      662     1885     1393     -468    -1845    -1294 
     714     2173     1530     -789    -2478    -2039     -425     1232 
    2413     2045       67    -1680    -1929    -1061      282     1501 
    1609      452     -792    -1108     -399      552      662       58 
     -90      240     -336    -1760    -1784       97     1576     1439 
     426     -395     -121      612      367     -604    -1273    -1412 
   -1001      216     1773     2242     1100     -614    -1472     -850 
      70      -94     -552     -248      259      596      854      349 
    -967    -1642     -791      757     1590     1188      336     -225 
    -884    -1609    -1115      592     1617     1134      202     -425 
   -1031    -1243     -380      502      314     -137       18      708 
    1359     1040     -214    -1135    -1242     -909     -357       40 
