Origin Time       2025/03/30 21:30:00
Lat.              38.535
Long.             142.295
Depth. (km)       44
Mag.              4.3
Station Code      IWT004
Station Lat.      39.7356
Station Long.     141.9671
Station Height(m) 9
Record Time       2025/03/30 21:31:32
Sampling Freq(Hz) 100Hz
Duration Time(s)  60
Dir.              E-W
Scale Factor      7845(gal)/8223790
Max. Acc. (gal)   2.130
Last Correction   2025/03/30 21:31:31
Memo.             
[...]
   -2934    -2974    -3167    -3276    -3164    -3136    -3199    -3033 
   -2763    -2682    -2824    -3132    -3379    -3366    -3223    -3122 
   -3088    -3026    -2880    -2836    -3003    -3287    -3542    -3541 
   -3265    -2997    -2914    -2905    -2833    -2829    -2952    -3029 
   -3059    -3129    -3227    -3343    -3381    -3172    -2830    -2721 
   -2918    -3179    -3356    -3395    -3307    -3279    -3376    -3406 
   -3279    -3177    -3188    -3129    -2943    -2813    -2789    -2841 
   -3064    -3350    -3397    -3127    -2772    -2644    -2812    -3061 
   -3198    -3218    -3276    -3343    -3219    -3056    -3117    -3226 
   -3138    -3001    -2998    -3102    -3241    -3269    -3106    -2951 
   -2968    -3026    -2907    -2708    -2824    -3250    -3553    -3618 
   -3561    -3354    -3060    -2822    -2718    -2826    -3111    -3327 
   -3310    -3213    -3202    -3169    -3033    -2967    -3090    -3200 
   -3145    -3078    -3088    -3061    -3017    -3078    -3218    -3307 
   -3222    -2945    -2619    -2540    -2872    -3291    -3411    -3295 
   -3176    -3159    -3183    -3177    -3184    -3160    -3073    -3076 
   -3183    -3203    -3082    -3005    -3114    -3240    -3190    -3024 
   -2893    -2971    -3229    -3385    -3352    -3258    -3103    -2879 
   -2725    -2799    -3117    -3406    -3385    -3176    -3069    -3119 
   -3194    -3167    -3013    -2828    -2843    -3163    -3402    -3171 
   -2782    -2764    -3078    -3271    -3165    -3026    -3018    -3091 
   -3231    -3277    -3179    -3227    -3376    -3295    -3117    -3133 
   -3244    -3208    -3098    -3129    -3207    -3117    -2903    -2716 
   -2731    -3033    -3338    -3330    -3144    -3053    -3051    -3059 
   -3079    -3111    -3154    -3171    -3125    -3088    -3130    -3204 
   -3086    -2748    -2655    -2992    -3298    -3271    -3130    -3169 
   -3319    -3314    -3118    -2894    -2824    -2983    -3195    -3295 
   -3299    -3227    -3090    -2972    -2956    -3061    -3179    -3183 
   -3076    -3013    -3177    -3435    -3485    -3348    -3187    -3111 
   -3173    -3213    -3068    -2882    -2826    -2884    -2932    -2907 
   -2938    -3076    -3154    -3141    -3103    -3086    -3213    -3349 
   -3260    -3072    -2964    -2970    -3049    -3100    -3094    -3055 
   -3064    -3160    -3194    -3172    -3264    -3333    -3258    -3208 
   -3217    -3167    -3098    -3111    -3115    -2978    -2832    -2795 
   -2814    -2938    -3134    -3180    -3092    -3069    -3114    -3127 
   -3165    -3314    -3489    -3534    -3416    -3261    -3156    -3069 
   -2971    -2887    -2897    -2986    -2992    -2916    -2859    -2851 
   -2963    -3159    -3235    -3154    -3109    -3180    -3195    -3145 
   -3231    -3356    -3283    -3069    -2924    -2947    -3069    -3180 
   -3253    -3262    -3215    -3123    -2965    -2878    -2986    -3154 
   -3231    -3192    -3067    -2940    -2901    -2979    -3117    -3269 
   -3368    -3230    -2938    -2840    -2982    -3149    -3257    -3337 
   -3360    -3300    -3252    -3200    -3042    -2948    -3080    -3190 
   -3083    -2976    -3045    -3194    -3288    -3222    -3001    -2818 
   -2790    -2882    -3090    -3360    -3495    -3326    -3032    -2932 
   -2937    -2860    -2855    -3026    -3311    -3568    -3491    -3056 
   -2751    -2880    -3127    -3091    -2910    -2897    -3013    -3152 
   -3287    -3273    -3092    -2971    -3053    -3203    -3258    -3279 
   -3364    -3442    -3418    -3273    -3110    -3063    -3042    -2886 
   -2727    -2790    -3076    -3334    -3312    -3068    -2884    -2941 
   -3130    -3160    -3007    -2940    -3044    -3196    -3304    -3321 
   -3211    -3057    -3041    -3076    -3018    -3029    -3134    -3134 
   -3049    -2959    -2875    -2889    -3048    -3242    -3273    -3140 
   -3127    -3262    -3288    -3210    -3095    -2956    -3040    -3353 
   -3497    -3333    -3111    -3028    -2991    -2884    -2936    -3288 
   -3558    -3438    -3099    -2875    -2916    -2999    -2905    -2824 
   -2910    -3044    -3161    -3321    -3468    -3430    -3186    -2928 
   -2798    -2835    -2984    -3030    -2949    -3018    -3250    -3318 
   -3152    -3029    -3067    -3086    -3017    -3040    -3191    -3275 
   -3225    -3154    -3186    -3312    -3350    -3180    -2971    -2934 
   -3048    -3144    -3179    -3188    -3119    -2997    -2936    -2972 
   -3103    -3258    -3311    -3245    -3138    -3065    -3026    -2965 
   -2945    -3032    -3100    -3100    -3123    -3149    -3103    -3065 
   -3109    -3176    -3186    -3126    -3049    -3028    -3132    -3307 
   -3323    -3184    -3098    -3013    -2872    -2835    -2979    -3165 
   -3198    -3113    -3069    -3082    -3090    -3042    -3018    -3177 
   -3403    -3456    -3295    -3046    -2899    -2891    -2906    -2928 
   -3019    -3186    -3323    -3294    -3187    -3156    -3175    -3176 
   -3157    -3164    -3191    -3181    -3167    -3152    -3098    -3046 
   -3021    -2988    -2978    -3068    -3230    -3269    -3136    -3006 
   -2967    -2972    -2991    -3044    -3154    -3260    -3248    -3123 
   -3003    -2948    -2959    -3028    -3080    -3087    -3111    -3148 
   -3136    -3114    -3115    -3083    -3044    -3092    -3215    -3303 
   -3295    -3221    -3121    -3060    -3094    -3126    -3064    -2991 
   -2997    -3069    -3191    -3306    -3289    -3118    -2952    -2936 
   -3037    -3156    -3240    -3304    -3366    -3349    -3208    -3032 
   -2887    -2798    -2791    -2862    -2987    -3144    -3258    -3223 
   -3075    -3055    -3161    -3096    -2924    -2975    -3237    -3412 
   -3357    -3168    -2959    -2806    -2814    -2984    -3233    -3431 
   -3439    -3302    -3213    -3218    -3172    -3003    -2864    -2905 
   -3073    -3206    -3169    -3052    -3087    -3218    -3181    -2991 
   -2886    -2974    -3132    -3218    -3225    -3175    -3073    -2971 
   -2961    -3071    -3156    -3152    -3165    -3150    -3049    -3065 
   -3218    -3233    -3069    -3011    -3194    -3362    -3329    -3180 
   -2933    -2671    -2656    -2879    -3102    -3222    -3288    -3299 
   -3208    -3125    -3168    -3196    -3150    -3219    -3376    -3397 
   -3256    -3072    -2933    -2887    -2930    -2987    -2974    -2952 
   -3024    -3087    -3053    -3041    -3118    -3186    -3148    -3071 
   -3087    -3222    -3376    -3366    -3198    -3132    -3231    -3291 
   -3190    -2982    -2808    -2802    -2944    -3042    -3026    -3107 
   -3315    -3339    -3099    -2860    -2837    -2987    -3137    -3219 
   -3253    -3261    -3252    -3206    -3161    -3161    -3154    -3098 
   -3041    -3083    -3199    -3218    -3126    -3037    -2960    -2862 
   -2732    -2724    -3025    -3411    -3522    -3395    -3256    -3122 
   -2875    -2698    -2884    -3240    -3385    -3299    -3148    -3088 
   -3169    -3252    -3199    -3042    -2945    -2984    -3072    -3165 
   -3280    -3329    -3213    -3005    -2925    -3026    -3111    -3095 
   -3092    -3181    -3258    -3177    -3036    -3003    -3042    -3086 
   -3088    -3014    -2979    -3059    -3126    -3119    -3132    -3183 
   -3159    -3057    -3045    -3137    -3136    -2976    -2887    -3041 
   -3276    -3349    -3226    -3067    -3019    -3056    -3087    -3129 
   -3230    -3338    -3330    -3187    -3075    -3110    -3145    -3063 
   -3001    -3034    -3046    -2978    -2911    -2951    -3065    -3129 
   -3114    -3122    -3202    -3264    -3258    -3265    -3318    -3308 
   -3202    -3082    -2982    -2910    -2936    -3028    -3030    -2957 
   -3001    -3140    -3145    -2995    -2901    -2933    -2999    -3045 
   -3082    -3195    -3470    -3704    -3586    -3213    -2928    -2875 
   -2895    -2901    -3067    -3342    -3411    -3241    -3078    -3094 
   -3157    -2997    -2741    -2752    -3032    -3291    -3321    -3200 
   -3133    -3057    -2872    -2795    -3009    -3350    -3503    -3416 
   -3357    -3387    -3303    -3053    -2798    -2733    -2851    -2957 
   -2999    -3026    -3087    -3150    -3067    -2951    -3009    -3069 
   -3055    -3111    -3192    -3188    -3167    -3240    -3310    -3244 
   -3167    -3161    -3172    -3225    -3248    -3184    -3156    -3191 
   -3177    -3105    -3038    -2964    -2808    -2717    -2909    -3177 
   -3248    -3154    -2976    -2862    -2928    -3079    -3214    -3265 
   -3284    -3345    -3299    -3194    -3272    -3433    -3446    -3298 
   -3122    -3022    -2959    -2901    -2891    -2933    -2941    -2868 
   -2848    -2933    -2988    -2995    -3022    -3111    -3244    -3316 
   -3321    -3306    -3250    -3177    -3136    -3148    -3231    -3292 
   -3196    -2998    -2901    -2987    -3115    -3134    -3033    -2882 
   -2818    -2898    -3017    -3072    -3060    -3051    -3073    -3159 
   -3352    -3468    -3373    -3302    -3361    -3360    -3225    -3073 
   -2970    -2911    -2932    -3029    -3123    -3110    -2974    -2849 
   -2837    -2979    -3234    -3361    -3269    -3199    -3196    -3080 
   -2913    -2872    -2987    -3168    -3343    -3485    -3470    -3287 
   -3099    -2918    -2770    -2786    -2909    -3028    -3148    -3272 
   -3330    -3237    -3073    -2970    -2918    -2921    -3014    -3179 
   -3364    -3450    -3380    -3287    -3221    -3106    -2980    -2938 
   -2998    -3076    -3099    -3106    -3075    -2988    -2970    -2987 
   -2930    -2898    -2970    -3063    -3153    -3276    -3350    -3291 
   -3195    -3187    -3202    -3159    -3056    -2910    -2818    -2902 
   -3088    -3202    -3240    -3295    -3304    -3238    -3230    -3226 
   -3099    -3001    -3055    -3118    -3068    -3013    -3086    -3192 
   -3187    -3079    -2956    -2932    -3098    -3337    -3426    -3310 
   -3106    -2983    -2970    -2952    -2918    -2928    -2987    -3072 
   -3172    -3261    -3237    -3102    -3038    -3026    -2941    -2917 
   -3049    -3211    -3321    -3403    -3415    -3256    -3038    -2959 
   -2932    -2879    -2986    -3222    -3316    -3267    -3277    -3311 
   -3206    -3013    -2895    -2882    -2971    -3157    -3279    -3173 
   -2986    -2924    -2936    -2925    -2925    -2990    -3125    -3291 
   -3424    -3480    -3454    -3322    -3095    -2987    -3125    -3249 
   -3113    -2868    -2789    -2907    -3071    -3159    -3152    -3088 
   -3042    -3026    -2979    -2945    -2971    -2986    -3015    -3121 
   -3264    -3389    -3466    -3489    -3400    -3168    -2956    -2883 
   -2880    -2902    -2940    -2994    -3087    -3187    -3207    -3127 
   -3084    -3176    -3285    -3339    -3342    -3267    -3150    -2995 
   -2844    -2843    -2916    -2975    -3060    -3072    -3025    -3084 
   -3222    -3299    -3225    -3102    -3111    -3172    -3206    -3264 
   -3279    -3260    -3279    -3199    -2943    -2706    -2739    -3042 
   -3288    -3265    -3111    -2964    -2922    -3029    -3144    -3191 
   -3202    -3184    -3183    -3156    -3056    -2999    -3045    -3114 
   -3149    -3121    -3042    -3005    -3098    -3289    -3408    -3302 
   -3083    -3005    -3075    -3138    -3176    -3218    -3202    -3040 
   -2795    -2725    -2880    -3038    -3142    -3221    -3198    -3145 
   -3169    -3204    -3154    -3053    -3048    -3138    -3200    -3218 
   -3160    -3064    -3091    -3190    -3210    -3154    -3103    -3102 
   -3121    -3154    -3229    -3233    -3115    -2983    -2902    -2941 
   -3076    -3075    -2899    -2805    -2914    -3055    -3049    -2995 
   -3068    -3207    -3285    -3295    -3257    -3225    -3227    -3177 
   -3051    -2978    -3028    -3119    -3152    -3156    -3214    -3264 
   -3150    -2944    -2890    -2972    -2965    -2851    -2845    -3098 
   -3465    -3716    -3831    -3767    -3488    -3179    -2978    -2938 
   -3075    -3176    -3109    -2991    -2917    -2926    -2995    -3021 
   -3045    -3113    -3145    -3129    -3154    -3295    -3411    -3289 
   -3080    -3078    -3168    -3122    -3038    -3109    -3346    -3561 
   -3534    -3310    -3105    -2991    -2859    -2687    -2658    -2779 
   -2816    -2766    -2790    -2914    -3130    -3304    -3198    -2907 
   -2743    -2717    -2624    -2475    -2497    -2714    -2913    -3019 
   -3071    -3103    -3153    -3126    -3009    -2984    -3119    -3342 
   -3547    -3631    -3667    -3703    -3557    -3142    -2741    -2717 
   -3001    -3288    -3501    -3659    -3713    -3612    -3352    -3040 
   -2808    -2716    -2762    -2932    -3253    -3657    -3925    -3936 
   -3784    -3573    -3380    -3326    -3346    -3306    -3285    -3372 
   -3472    -3435    -3206    -2835    -2339    -1854    -1572    -1398 
   -1298    -1462    -1871    -2349    -2732    -2953    -3083    -3136 
   -3187    -3395    -3730    -4082    -4407    -4635    -4676    -4498 
   -4178    -3834    -3523    -3303    -3150    -2924    -2623    -2323 
   -2000    -1644    -1368    -1374    -1733    -2351    -3134    -3854 
   -4268    -4456    -4545    -4509    -4445    -4484    -4506    -4342 
   -3942    -3353    -2836    -2698    -2937    -3191    -3129    -2828 
   -2474    -2091    -1726    -1391    -1123    -1124    -1447    -1918 
   -2471    -3154    -3878    -4391    -4579    -4537    -4321    -3960 
   -3539    -3133    -2876    -2852    -2886    -2782    -2592    -2529 
   -2716    -3064    -3414    -3565    -3338    -2840    -2411    -2245 
   -2273    -2389    -2697    -3234    -3813    -4330    -4810    -5197 
   -5343    -5031    -4180    -3080    -2297    -2174    -2371    -2432 
   -2473    -2662    -2785    -2646    -2409    -2411    -2705    -3094 
   -3458    -3692    -3677    -3373    -2893    -2527    -2444    -2589 
   -2905    -3294    -3616    -3792    -3673    -3106    -2224    -1460 
   -1209    -1518    -2205    -3034    -3627    -3809    -3852    -3889 
   -3786    -3547    -3287    -3107    -3029    -3044    -3149    -3213 
   -3222    -3393    -3712    -3923    -3890    -3744    -3672    -3645 
   -3520    -3253    -2864    -2524    -2478    -2701    -2862    -2733 
   -2570    -2805    -3435    -4104    -4553    -4649    -4334    -3678 
   -2833    -2060    -1626    -1543    -1617    -1771    -2097    -2587 
   -2951    -2936    -2759    -2879    -3368    -3877    -4163    -4222 
   -3990    -3461    -2907    -2613    -2560    -2529    -2454    -2543 
   -2856    -3072    -2918    -2539    -2443    -2925    -3627    -4156 
   -4507    -4712    -4737    -4482    -3931    -3377    -3014    -2736 
   -2540    -2597    -2945    -3258    -3198    -2898    -2654    -2515 
   -2484    -2652    -3026    -3389    -3477    -3181    -2617    -2158 
   -2168    -2623    -3253    -3802    -4013    -3765    -3253    -2809 
   -2598    -2540    -2562    -2805    -3333    -3901    -4094    -3665 
   -2860    -2150    -1719    -1556    -1706    -2281    -3142    -3858 
   -4153    -4070    -3777    -3514    -3480    -3696    -3958    -4024 
   -3896    -3708    -3408    -2943    -2482    -2139    -1938    -2047 
   -2562    -3199    -3543    -3577    -3599    -3650    -3591    -3410 
   -3194    -3146    -3311    -3360    -3137    -2820    -2567    -2439 
   -2428    -2565    -2890    -3269    -3568    -3767    -3831    -3757 
   -3469    -2859    -2212    -1985    -2290    -2867    -3338    -3519 
   -3379    -2991    -2656    -2606    -2806    -3076    -3211    -3254 
   -3379    -3518    -3557    -3484    -3303    -3122    -3052    -3092 
   -3215    -3365    -3476    -3431    -3079    -2524    -2133    -2116 
   -2457    -3069    -3736    -4174    -4294    -4225    -4099    -3890 
   -3497    -2899    -2227    -1834    -1957    -2393    -2845    -3241 
   -3557    -3719    -3663    -3439    -3159    -2860    -2655    -2754 
   -3057    -3122    -2808    -2470    -2362    -2421    -2490    -2485 
   -2546    -2774    -2982    -3001    -2959    -3215    -3840    -4419 
   -4723    -4845    -4662    -4023    -3144    -2463    -2215    -2268 
   -2417    -2602    -2851    -3134    -3316    -3262    -3037    -2941 
   -3122    -3319    -3387    -3481    -3566    -3418    -3049    -2725 
   -2647    -2749    -2913    -3106    -3234    -3210    -3030    -2779 
   -2739    -3078    -3539    -3757    -3619    -3315    -3040    -2776 
   -2529    -2466    -2720    -3105    -3249    -3171    -3140    -3222 
   -3325    -3295    -3098    -2905    -2851    -2937    -3025    -3033 
   -3084    -3150    -3102    -3022    -3065    -3279    -3484    -3404 
   -3150    -3064    -3137    -3179    -3173    -3199    -3322    -3487 
   -3582    -3604    -3546    -3412    -3231    -2943    -2663    -2608 
   -2659    -2619    -2581    -2771    -3099    -3235    -3183    -3150 
   -3130    -3024    -2798    -2582    -2636    -2987    -3296    -3300 
   -3140    -3059    -3048    -3088    -3365    -3820    -4051    -3866 
   -3447    -3024    -2646    -2276    -2095    -2309    -2841    -3441 
   -3739    -3566    -3280    -3229    -3235    -3045    -2866    -3017 
   -3387    -3693    -3904    -4021    -3916    -3522    -2902    -2261 
   -1918    -2008    -2336    -2717    -3148    -3607    -3908    -3871 
   -3551    -3154    -2863    -2727    -2666    -2724    -2961    -3188 
   -3222    -3079    -2849    -2601    -2440    -2562    -2930    -3211 
   -3241    -3163    -3175    -3289    -3350    -3318    -3280    -3357 
   -3568    -3653    -3449    -3172    -3007    -2944    -2928    -2933 
   -3002    -3169    -3333    -3377    -3299    -3169    -3032    -2836 
   -2664    -2798    -3163    -3369    -3329    -3244    -3269    -3400 
   -3526    -3539    -3389    -3183    -3009    -2781    -2606    -2683 
   -2836    -2821    -2725    -2763    -2995    -3264    -3381    -3295 
   -3100    -3019    -3083    -3195    -3433    -3651    -3530    -3190 
   -2906    -2693    -2438    -2180    -2204    -2583    -3029    -3373 
   -3574    -3672    -3770    -3855    -3885    -3836    -3707    -3609 
   -3528    -3385    -3244    -3069    -2767    -2377    -2007    -1850 
   -2060    -2498    -2903    -3153    -3285    -3400    -3468    -3387 
   -3246    -3171    -3103    -3045    -3136    -3353    -3539    -3640 
   -3666    -3526    -3169    -2835    -2756    -2791    -2728    -2631 
   -2614    -2708    -2857    -2899    -2762    -2601    -2614    -2820 
   -3076    -3356    -3677    -3886    -3877    -3774    -3743    -3808 
   -3893    -3929    -3867    -3649    -3271    -2879    -2670    -2631 
   -2596    -2481    -2367    -2409    -2593    -2766    -2870    -2965 
   -3130    -3322    -3388    -3330    -3213    -2978    -2662    -2447 
   -2411    -2486    -2640    -2907    -3258    -3559    -3686    -3623 
   -3458    -3338    -3391    -3555    -3666    -3622    -3391    -3098 
   -2930    -2961    -3187    -3408    -3354    -3107    -2960    -2991 
   -3026    -2952    -2906    -3057    -3345    -3591    -3650    -3468 
   -3195    -3011    -2868    -2663    -2474    -2471    -2666    -2948 
   -3240    -3399    -3288    -2982    -2666    -2498    -2511    -2616 
   -2762    -2956    -3149    -3250    -3248    -3234    -3322    -3487 
   -3499    -3254    -2990    -2956    -3111    -3258    -3349    -3458 
   -3539    -3461    -3279    -3210    -3300    -3350    -3199    -2945 
   -2853    -3025    -3250    -3321    -3267    -3235    -3254    -3237 
   -3262    -3457    -3655    -3634    -3376    -3011    -2650    -2270 
