Origin Time       2025/03/30 21:30:00
Lat.              38.535
Long.             142.295
Depth. (km)       44
Mag.              4.3
Station Code      IWT006
Station Lat.      39.4850
Station Long.     141.9748
Station Height(m) 17
Record Time       2025/03/30 21:31:27
Sampling Freq(Hz) 100Hz
Duration Time(s)  60
Dir.              E-W
Scale Factor      7845(gal)/8223790
Max. Acc. (gal)   2.222
Last Correction   2025/03/30 21:31:26
Memo.             
[...]
    2220     2222     2224     2222     2220     2223     2222     2220 
    2222     2219     2216     2220     2226     2224     2218     2218 
    2226     2230     2230     2226     2222     2226     2235     2236 
    2222     2211     2220     2232     2216     2197     2211     2230 
    2216     2205     2226     2241     2230     2212     2208     2211 
    2223     2238     2239     2227     2214     2222     2259     2277 
    2239     2189     2172     2177     2195     2234     2273     2257 
    2188     2174     2246     2290     2238     2154     2130     2176 
    2239     2281     2266     2215     2224     2292     2313     2226 
    2122     2134     2203     2195     2177     2282     2338     2184 
    2124     2272     2305     2195     2173     2219     2200     2212 
    2316     2358     2292     2207     2208     2263     2184     2033 
    2029     2150     2258     2303     2335     2313     2180     2126 
    2205     2236     2193     2199     2284     2340     2335     2299 
    2296     2357     2265     2004     1880     1981     2199     2284 
    2146     2170     2420     2474     2284     2212     2295     2243 
    2182     2284     2261     2149     2212     2246     2128     2172 
    2353     2280     2056     2052     2208     2284     2247     2180 
    2120     2145     2242     2293     2366     2493     2371     2038 
    2043     2286     2255     2218     2385     2365     2118     2023 
    2211     2286     2093     2012     2168     2376     2397     2196 
    2022     2008     2238     2520     2434     2154     2049     2142 
    2328     2409     2278     2081     2149     2397     2307     2154 
    2290     2173     1868     1972     2319     2370     2172     2227 
    2369     2273     2285     2366     2286     2192     2111     2073 
    2114     2209     2353     2405     2365     2274     2158     2145 
    2214     2259     2145     2010     2216     2428     2305     2141 
    2088     2120     2088     2041     2342     2602     2305     2003 
    2208     2463     2295     2066     2192     2281     2062     2137 
    2536     2446     2049     2120     2380     2295     2157     2149 
    1922     1830     2336     2585     2138     1980     2253     2313 
    2328     2407     2257     2060     2172     2369     2309     2358 
    2538     2286     1907     1969     2211     2123     1914     2127 
    2478     2459     2212     2127     2270     2289     2185     2193 
    2251     2398     2454     2149     1890     2123     2444     2351 
    2251     2361     2201     1979     2172     2384     2235     2054 
    2081     2160     2115     2068     2307     2482     2170     2000 
    2408     2689     2380     2041     1984     1996     2142     2293 
    2284     2208     2046     2165     2521     2521     2366     2307 
    2228     2192     2164     2066     2039     2250     2342     2062 
    2079     2520     2525     1991     1823     2079     2026     2118 
    2610     2502     2030     2188     2602     2425     1953     1995 
    2315     2430     2508     2506     2145     1705     1858     2245 
    2118     2060     2366     2416     2290     2258     2165     2057 
    2223     2458     2269     2165     2535     2581     2197     2079 
    2251     2295     2091     2011     2088     2010     1946     2047 
    2272     2462     2313     2143     2285     2382     2272     2216 
    2235     2103     2110     2481     2604     2303     2084     2091 
    2199     2253     2138     1888     1845     2292     2621     2282 
    1900     2092     2470     2463     2297     2339     2234     2081 
    2416     2636     2281     2073     2199     2069     1749     1890 
    2340     2346     2080     2145     2342     2332     2272     2290 
    2220     2116     2253     2454     2405     2245     2153     2197 
    2389     2351     2111     2127     2154     2112     2327     2448 
    2135     1795     1856     2046     2235     2554     2496     2141 
    2184     2367     2335     2288     2188     1964     2037     2521 
    2706     2411     2253     2215     1989     1896     2007     2033 
    2131     2281     2231     2212     2322     2299     2150     2155 
    2354     2403     2258     2185     2197     2249     2392     2500 
    2313     2093     2147     2137     2052     2083     2070     2123 
    2286     2378     2343     2215     2161     2064     1864     1993 
    2374     2570     2515     2288     2203     2398     2492     2377 
    2281     2270     2150     1989     2169     2292     1987     1867 
    1999     1998     1992     2122     2239     2191     2339     2712 
    2640     2303     2216     2393     2610     2454     2226     2300 
    2130     1748     1737     2025     2246     2230     2141     2087 
    1972     2023     2320     2520     2424     2204     2276     2612 
    2655     2322     2147     2228     2093     1872     2111     2461 
    2254     1883     2041     2397     2347     2176     2238     2191 
    2016     2107     2326     2450     2508     2380     2083     1906 
    2012     2316     2565     2411     1944     1864     2249     2378 
    2222     2205     2231     2207     2373     2592     2392     2007 
    1981     2139     2249     2299     2127     1998     2192     2340 
    2312     2319     2278     2124     2053     2254     2430     2165 
    1984     2346     2559     2332     2176     2128     2077     2189 
    2307     2150     2030     2263     2393     2139     2016     2261 
    2413     2227     2060     2110     2196     2390     2619     2455 
    2147     2223     2249     1872     1767     2168     2436     2361 
    2209     2119     2185     2366     2384     2151     2020     2197 
    2293     2181     2154     2220     2349     2474     2461     2342 
    2134     2019     2134     2305     2241     1923     1961     2363 
    2367     2145     2222     2326     2185     2170     2371     2231 
    1921     2160     2536     2339     2093     2263     2230     2025 
    2322     2606     2313     2107     2323     2353     2074     2062 
    2201     2066     1984     2189     2407     2361     2099     2045 
    2222     2286     2245     2168     2181     2421     2612     2440 
    2065     1934     2122     2300     2359     2296     2099     1998 
    2092     2222     2253     2149     2037     2170     2520     2629 
    2272     1968     2134     2281     2120     2119     2301     2328 
    2246     2250     2428     2533     2344     2208     2288     2227 
    1999     1914     1995     2072     2168     2297     2224     2002 
    2064     2343     2398     2266     2247     2394     2538     2567 
    2516     2309     1939     1834     2162     2419     2358     2176 
    1995     1900     1877     1899     2085     2276     2239     2254 
    2505     2644     2539     2342     2106     2061     2245     2235 
    2138     2312     2416     2211     2096     2077     1825     1794 
    2386     2754     2376     2139     2385     2349     2061     2088 
    2189     2108     2138     2262     2250     2263     2362     2317 
    2120     1931     1942     2273     2579     2517     2344     2259 
    2161     2193     2299     2187     2074     2106     2174     2378 
    2461     2227     2138     2286     2200     1948     1979     2108 
    2073     2174     2376     2367     2268     2293     2423     2457 
    2281     2088     2155     2319     2216     2096     2269     2332 
    2095     2068     2303     2250     2039     2174     2308     2033 
    1946     2297     2340     2118     2281     2466     2367     2434 
    2463     2138     2099     2421     2238     1726     1900     2473 
    2490     2143     2010     2056     2142     2235     2290     2393 
    2430     2114     1880     2247     2575     2277     2006     2216 
    2349     2230     2268     2498     2596     2296     1984     2080 
    2130     1989     2081     2083     1772     2010     2747     2737 
    2247     2288     2366     2072     2020     2161     1923     1750 
    2262     2795     2721     2497     2404     2172     1902     1998 
    2249     2149     1921     1989     2218     2327     2366     2363 
    2142     1941     2043     2195     2254     2400     2594     2548 
    2436     2525     2362     2070     2153     2112     1884     1983 
    2058     1958     2158     2497     2417     2045     1995     2265 
    2313     2249     2285     2196     2297     2666     2528     1942 
    1799     2224     2488     2303     2151     2170     2232     2376 
    2330     1981     1757     2020     2531     2459     1863     1879 
    2496     2789     2658     2389     1977     1669     2045     2639 
    2376     1844     2089     2540     2502     2257     2149     2177 
    2259     2251     2008     1834     1981     2124     2184     2265 
    2169     2138     2412     2570     2430     2282     2323     2400 
    2299     2143     2084     2238     2558     2436     1825     1574 
    1861     2199     2390     2482     2386     1981     1768     2147 
    2505     2439     2272     2311     2474     2448     2351     2413 
    2498     2434     2215     2018     1841     1684     1769     1975 
    2114     2160     2137     2235     2488     2740     2795     2504 
    2065     1898     2128     2398     2358     2119     2042     2242 
    2357     2205     2066     2042     2114     2278     2386     2230 
    1906     2006     2451     2404     2053     2046     2184     2235 
    2338     2493     2548     2432     2231     2073     2027     2025 
    2076     2266     2370     2247     2162     2274     2353     2223 
    2145     2227     2266     2185     2147     2289     2261     2099 
    2236     2245     2033     2118     2347     2500     2446     2062 
    1848     2127     2419     2432     2347     2197     2091     2232 
    2536     2635     2191     1606     1568     1993     2347     2301 
    2189     2292     2278     2307     2570     2610     2281     1906 
    1931     2312     2424     2305     2421     2590     2376     2023 
    2060     2101     1750     1694     2031     2053     2026     2381 
    2571     2413     2478     2668     2490     2290     2303     2147 
    2062     2257     2235     1984     1958     2091     2053     2133 
    2396     2241     2000     2411     2836     2365     1659     1842 
    2343     2293     2269     2465     2313     2016     2080     2331 
    2350     2187     2029     1910     2031     2425     2677     2598 
    2494     2447     2226     1962     1907     1979     2035     2027 
    2110     2384     2539     2458     2439     2470     2324     2054 
    1831     1786     1914     2037     2073     2122     2336     2606 
    2660     2575     2469     2323     2292     2258     2046     2023 
    2255     2245     2020     2011     2112     2056     2085     2293 
    2243     2022     2143     2400     2285     1995     1950     2239 
    2745     2982     2608     2227     2353     2439     2035     1678 
    1728     1771     1842     2242     2479     2330     2339     2547 
    2423     2074     2126     2370     2220     2066     2370     2655 
    2500     2269     2249     2161     1995     2115     2315     2114 
    1861     2073     2370     2409     2421     2349     2027     1865 
    2137     2366     2262     2200     2320     2308     2227     2382 
    2448     2251     2214     2170     1879     1763     1872     1910 
    2043     2327     2349     2135     2120     2262     2285     2241 
    2268     2286     2265     2357     2511     2501     2369     2447 
    2620     2362     1944     1985     2172     2031     1818     1831 
    1952     2112     2361     2448     2330     2354     2386     2220 
    2249     2440     2378     2208     2258     2461     2434     2188 
    2088     2147     2214     2211     2242     2354     2250     2087 
    2162     2250     2346     2465     2344     2123     1985     1853 
    1814     2035     2420     2525     2189     1772     1597     1961 
    2702     2972     2554     2212     2366     2477     2312     2354 
    2479     2281     2058     2147     2366     2328     2030     1860 
    1937     2079     2058     1825     1719     1957     2278     2469 
    2539     2481     2398     2339     2188     2128     2150     2083 
    2255     2629     2879     3088     3134     2916     2509     1861 
    1252      988      897      897     1216     1771     2184     2554 
    2978     2991     2605     2398     2490     2749     3176     3341 
    2845     2307     2255     2219     2038     2111     2124     1522 
     855      955     1497     1869     2160     2454     2592     2473 
    2292     2412     2658     2612     2242     1834     1850     2297 
    2685     2814     2899     3044     2852     2223     1858     1960 
    1830     1340     1196     1655     2316     2705     2631     2374 
    2170     1945     1551     1152     1344     2080     2610     2704 
    2691     2829     3075     3424     3676     3464     3136     2840 
    2169     1339      897      899      835      638      913     1499 
    1876     2089     2218     2327     2505     2844     3420     3933 
    3954     3441     2748     2362     2394     2304     1672     1074 
    1198     1543     1518     1736     2376     2502     1948     1417 
    1372     1722     1799     1557     1902     2845     3507     3685 
    3734     3663     3360     3069     2921     2552     1717      677 
     -43     -106      245      776     1845     3206     3751     3451 
    3338     3603     3574     2943     1933     1163     1248     1667 
    1710     1985     2743     3167     3063     2735     1858      425 
     -10     1171     1966     1840     2548     3882     4395     4116 
    3522     2933     2614     2142     1117      238      249      765 
    1621     2980     3689     3018     2158     1996     2053     1876 
    1880     2168     2107     1895     2168     2700     2917     2602 
    2218     2340     2776     2787     2054     1318     1386     1976 
    2475     2647     2500     2489     2866     3014     2475     1532 
     873      993     1368     1453     1749     2485     3164     3650 
    3851     3395     2631     2331     2479     2500     2087     1579 
    1381     1139      723      827     1668     2736     3304     2956 
    2272     1981     2056     2143     2110     2317     2863     3055 
    2577     2064     2120     2635     3179     3231     2382     1219 
     835     1101     1198     1204     1368     1649     2303     3096 
    3160     2623     2652     3327     3438     2702     1991     1853 
    2300     2813     2640     2049     1999     2470     2589     2158 
    1483      627      351     1282     2235     2223     2145     2841 
    3497     3341     3041     2805     2263     2057     2320     2216 
    1867     1887     2043     1742     1196     1368     2270     2840 
    2799     2520     2143     1917     2027     2265     2492     3145 
    4060     3871     2466     1378     1051      766      619      919 
    1094     1459     2836     3958     3453     2496     2343     2358 
    2212     2589     3098     3013     2724     2443     2100     1910 
    1852     1725     1487     1459     1756     1891     1776     1827 
    2155     2554     2791     2652     2168     1911     2192     2504 
    2548     2617     2932     3154     2805     2361     2448     2374 
    1422      336      337     1417     2308     2263     1998     2365 
    3169     3630     3361     2724     2242     1902     1620     1707 
    1880     1745     1993     2637     2759     2556     2439     2039 
    1518     1472     1761     1957     2250     2748     2970     2740 
    2570     2740     2770     2624     2555     1891     1039     1314 
    1968     1912     1756     2104     2492     2446     2502     2924 
    3063     2727     2185     1744     1628     1668     1780     2003 
    2122     2139     2448     2882     2824     2462     2168     1831 
    1757     2362     3096     3113     2674     2521     2641     2637 
    2259     1586      766       55      178     1287     2381     2608 
    2528     3109     3883     3908     3126     1960     1274     1698 
    2447     2475     2126     2119     2284     2320     2454     2617 
    2138     1308     1321     1915     1933     1661     2012     2592 
    2583     2362     2560     2895     2848     2555     2455     2239 
    1718     1769     2390     2635     2621     2694     2361     1676 
    1555     2054     2239     1771     1462     1737     1887     1977 
    2662     3225     2909     2293     2061     2218     2440     2477 
    2220     1938     2128     2519     2573     2484     2280     1723 
    1216     1301     1884     2400     2651     2868     2917     2592 
    2154     1884     1791     1888     2259     2768     2970     2560 
    1968     1817     1880     1795     1885     2181     2135     1871 
    2304     3296     3527     2759     2061     1985     2108     1856 
    1293     1156     1637     1980     2103     2535     2907     2766 
    2651     2975     3018     2365     1960     2085     1830     1360 
    1582     2293     2808     2824     2268     1557     1572     2430 
    2884     2147     1240     1279     2064     2826     3134     2893 
    2247     1875     2143     2447     2382     2031     1675     1877 
    2439     2616     2532     2550     2554     2602     2640     2273 
    1906     2123     2247     1822     1566     1798     1900     1610 
    1664     2228     2616     2883     2870     2157     1771     2234 
    2701     3011     3092     2496     1792     1871     2292     2099 
    1694     1939     2349     2301     2023     1811     1876     2101 
    2219     2168     1969     2123     2686     2677     2111     2019 
    2413     2432     1877     1602     2106     2682     2722     2613 
    2675     2520     2157     2205     2555     2376     1613     1343 
    1919     2203     1898     1991     2448     2571     2500     2543 
    2539     2313     2060     2047     2061     1892     1880     2165 
    2519     2793     2849     2658     2357     2214     2255     2008 
    1537     1537     1918     2034     1827     1722     1960     2330 
    2566     2762     2937     2790     2554     2768     2921     2363 
    1729     1725     2004     2150     2204     2104     1864     1737 
    1717     1736     1996     2295     2099     1875     2369     2847 
    2527     2303     2839     3227     2828     2423     2532     2324 
    1669     1765     2357     2091     1350     1215     1485     1768 
    2199     2423     2176     2100     2397     2573     2652     2739 
    2562     2394     2579     2709     2624     2558     2392     2138 
    2053     2096     2085     1798     1294     1255     1742     1961 
    2060     2573     2772     2114     1668     2363     3318     3295 
    2593     2138     2062     2223     2529     2608     2323     2093 
    2170     2173     1899     1692     1614     1698     1921     1564 
     961     1467     2548     2928     2921     3006     3005     2957 
    3109     3142     2459     1849     2336     2760     2043     1325 
    1416     1606     1680     2076     2398     2083     1597     1605 
    2054     2378     2285     2149     2289     2566     2862     3127 
