Origin Time       2025/03/30 21:30:00
Lat.              38.535
Long.             142.295
Depth. (km)       44
Mag.              4.3
Station Code      IWT005
Station Lat.      39.6478
Station Long.     141.9465
Station Height(m) 6
Record Time       2025/03/30 21:31:31
Sampling Freq(Hz) 100Hz
Duration Time(s)  60
Dir.              E-W
Scale Factor      7845(gal)/8223790
Max. Acc. (gal)   0.651
Last Correction   2025/03/30 21:31:30
Memo.             
[...]
    2385     2386     2370     2362     2330     2295     2274     2276 
    2303     2336     2353     2328     2323     2361     2334     2254 
    2281     2378     2353     2238     2226     2289     2293     2270 
    2270     2292     2343     2389     2396     2369     2312     2274 
    2269     2268     2299     2350     2358     2316     2286     2307 
    2327     2305     2219     2114     2122     2241     2349     2390 
    2384     2362     2320     2255     2261     2354     2404     2362 
    2304     2253     2222     2274     2332     2296     2266     2319 
    2377     2370     2339     2343     2323     2239     2209     2285 
    2346     2316     2281     2320     2373     2396     2412     2390 
    2307     2247     2277     2347     2381     2388     2386     2343 
    2293     2289     2309     2335     2343     2323     2312     2343 
    2390     2374     2273     2208     2242     2278     2278     2307 
    2361     2370     2334     2284     2259     2317     2431     2455 
    2334     2201     2157     2168     2211     2254     2263     2258 
    2288     2367     2405     2353     2281     2245     2254     2265 
    2255     2284     2326     2330     2339     2354     2342     2304 
    2285     2324     2366     2357     2330     2315     2301     2300 
    2328     2339     2299     2257     2263     2300     2322     2340 
    2373     2370     2315     2296     2346     2396     2416     2415 
    2381     2303     2223     2227     2312     2373     2346     2289 
    2297     2362     2396     2366     2328     2292     2205     2155 
    2242     2357     2381     2354     2346     2357     2354     2322 
    2259     2193     2170     2220     2295     2296     2250     2265 
    2343     2381     2332     2274     2251     2247     2269     2301 
    2324     2381     2455     2427     2290     2211     2243     2277 
    2269     2284     2334     2358     2328     2303     2342     2405 
    2425     2392     2349     2317     2282     2270     2315     2373 
    2385     2355     2336     2328     2309     2312     2332     2315 
    2257     2212     2227     2288     2330     2336     2322     2313 
    2303     2235     2162     2208     2316     2335     2289     2317 
    2388     2367     2311     2323     2361     2362     2330     2295 
    2289     2313     2342     2343     2313     2280     2259     2250 
    2261     2296     2320     2311     2317     2367     2381     2320 
    2281     2316     2340     2312     2295     2312     2305     2282 
    2316     2358     2334     2307     2327     2336     2305     2266 
    2263     2301     2335     2354     2381     2401     2388     2363 
    2349     2331     2307     2270     2242     2249     2265     2255 
    2254     2301     2378     2415     2378     2308     2250     2230 
    2255     2292     2290     2272     2289     2312     2316     2316 
    2307     2293     2281     2236     2189     2254     2393     2424 
    2346     2300     2300     2300     2320     2342     2313     2254 
    2239     2274     2331     2397     2407     2342     2303     2327 
    2335     2311     2327     2346     2300     2253     2282     2336 
    2335     2296     2299     2361     2396     2342     2295     2340 
    2381     2334     2301     2350     2394     2367     2319     2304 
    2300     2285     2292     2299     2266     2251     2288     2315 
    2328     2357     2358     2330     2331     2353     2347     2319 
    2305     2308     2293     2250     2224     2243     2245     2196 
    2170     2216     2295     2361     2392     2384     2363     2350 
    2336     2293     2245     2258     2305     2308     2282     2297 
    2343     2362     2334     2303     2315     2359     2374     2322 
    2255     2261     2307     2313     2300     2312     2353     2370 
    2326     2272     2274     2290     2278     2292     2328     2324 
    2305     2330     2359     2363     2344     2297     2257     2245 
    2250     2281     2316     2342     2384     2404     2380     2373 
    2396     2388     2338     2296     2288     2319     2365     2349 
    2270     2212     2215     2235     2232     2245     2322     2389 
    2384     2373     2416     2444     2407     2339     2290     2263 
    2238     2222     2230     2235     2241     2286     2343     2355 
    2330     2292     2276     2280     2262     2250     2292     2339 
    2354     2358     2346     2311     2285     2265     2232     2220 
    2238     2265     2308     2335     2330     2344     2371     2363 
    2343     2331     2309     2270     2245     2276     2330     2336 
    2340     2376     2359     2305     2312     2353     2347     2317 
    2317     2336     2365     2427     2473     2438     2359     2297 
    2272     2270     2270     2277     2284     2292     2344     2405 
    2400     2335     2273     2226     2168     2151     2238     2338 
    2340     2300     2328     2385     2359     2285     2230     2208 
    2246     2297     2297     2278     2301     2354     2361     2304 
    2261     2293     2342     2319     2263     2273     2347     2411 
    2416     2373     2320     2286     2278     2286     2296     2299 
    2307     2316     2303     2280     2303     2335     2304     2262 
    2274     2295     2292     2300     2316     2328     2351     2371 
    2376     2365     2323     2289     2312     2326     2280     2249 
    2286     2338     2351     2349     2347     2344     2339     2313 
    2273     2261     2293     2334     2338     2326     2347     2380 
    2378     2338     2299     2290     2273     2232     2254     2342 
    2361     2295     2270     2312     2335     2332     2324     2305 
    2297     2320     2358     2365     2313     2246     2235     2288 
    2334     2312     2259     2231     2222     2226     2272     2340 
    2377     2370     2369     2397     2405     2365     2313     2274 
    2253     2278     2335     2350     2319     2296     2297     2289 
    2274     2281     2292     2286     2282     2316     2382     2394 
    2347     2334     2338     2282     2232     2281     2370     2392 
    2350     2297     2258     2257     2313     2351     2297     2251 
    2311     2378     2374     2367     2373     2322     2254     2249 
    2253     2220     2212     2266     2350     2385     2347     2307 
    2308     2316     2316     2319     2309     2307     2332     2346 
    2322     2309     2336     2344     2303     2285     2323     2315 
    2236     2228     2312     2331     2293     2316     2346     2334 
    2349     2377     2362     2332     2311     2266     2224     2242 
    2297     2334     2359     2373     2351     2303     2270     2276 
    2292     2293     2272     2250     2281     2322     2320     2311 
    2308     2284     2255     2268     2317     2363     2386     2382 
    2350     2332     2358     2351     2284     2259     2316     2366 
    2366     2363     2389     2407     2370     2297     2251     2241 
    2230     2246     2301     2343     2371     2389     2342     2250 
    2203     2226     2258     2265     2293     2330     2304     2277 
    2335     2397     2374     2339     2332     2301     2251     2246 
    2282     2315     2308     2272     2259     2292     2320     2311 
    2305     2319     2319     2316     2340     2365     2382     2405 
    2396     2331     2274     2259     2251     2258     2317     2376 
    2353     2296     2289     2313     2292     2250     2262     2288 
    2273     2268     2303     2335     2339     2349     2361     2322 
    2251     2246     2320     2397     2430     2413     2349     2297 
    2304     2315     2297     2270     2278     2342     2392     2369 
    2300     2265     2296     2304     2247     2220     2258     2300 
    2322     2336     2355     2355     2320     2272     2243     2261 
    2316     2353     2330     2269     2226     2236     2295     2339 
    2340     2334     2311     2265     2247     2281     2327     2362 
    2376     2340     2289     2313     2421     2485     2411     2300 
    2282     2309     2326     2367     2392     2328     2230     2201 
    2261     2342     2382     2353     2280     2227     2218     2236 
    2278     2328     2347     2332     2328     2350     2378     2401 
    2389     2326     2270     2268     2293     2301     2296     2313 
    2331     2316     2311     2320     2296     2246     2223     2239 
    2285     2336     2350     2308     2269     2311     2390     2393 
    2317     2278     2308     2326     2289     2254     2278     2323 
    2305     2239     2218     2262     2319     2312     2253     2228 
    2273     2332     2392     2452     2463     2405     2339     2305 
    2304     2317     2319     2313     2297     2288     2342     2392 
    2334     2261     2292     2339     2323     2338     2409     2413 
    2332     2276     2289     2295     2261     2269     2326     2344 
    2323     2320     2334     2326     2286     2242     2245     2270 
    2265     2251     2257     2250     2232     2253     2311     2344 
    2338     2331     2342     2354     2344     2330     2324     2295 
    2261     2269     2274     2257     2265     2301     2324     2316 
    2308     2331     2350     2340     2342     2362     2382     2384 
    2349     2303     2301     2343     2367     2361     2357     2326 
    2254     2241     2303     2309     2241     2224     2276     2278 
    2262     2350     2450     2434     2386     2388     2386     2377 
    2394     2390     2319     2251     2243     2255     2261     2273 
    2284     2272     2251     2262     2285     2289     2289     2301 
    2332     2355     2332     2285     2245     2223     2231     2288 
    2373     2405     2350     2288     2288     2327     2342     2316 
    2274     2235     2230     2253     2273     2289     2330     2359 
    2338     2311     2331     2370     2393     2416     2423     2370 
    2304     2308     2342     2327     2288     2242     2215     2258 
    2326     2338     2303     2269     2281     2343     2408     2404 
    2330     2280     2312     2363     2374     2351     2331     2311 
    2276     2265     2293     2309     2289     2254     2235     2226 
    2209     2230     2297     2342     2336     2304     2284     2289 
    2292     2273     2253     2251     2266     2280     2320     2411 
    2457     2389     2305     2311     2369     2393     2358     2293 
    2263     2305     2366     2369     2332     2335     2359     2340 
    2300     2272     2253     2261     2311     2355     2374     2363 
    2305     2262     2305     2354     2327     2301     2347     2384 
    2342     2284     2278     2304     2349     2400     2390     2296 
    2239     2281     2281     2234     2278     2362     2338     2246 
    2232     2305     2324     2262     2231     2272     2319     2324 
    2308     2307     2313     2320     2347     2380     2380     2358 
    2326     2282     2254     2266     2304     2305     2277     2303 
    2367     2365     2313     2331     2397     2405     2363     2344 
    2332     2303     2296     2334     2369     2363     2342     2340 
    2357     2362     2349     2309     2246     2227     2274     2300 
    2263     2235     2246     2253     2239     2234     2250     2261 
    2246     2224     2200     2195     2250     2305     2278     2223 
    2227     2245     2228     2215     2216     2230     2255     2274 
    2274     2273     2286     2305     2307     2288     2263     2263 
    2315     2382     2431     2458     2479     2498     2505     2493 
    2454     2407     2393     2411     2439     2463     2452     2415 
    2404     2430     2438     2404     2363     2327     2261     2182 
    2161     2205     2266     2357     2484     2562     2558     2513 
    2432     2305     2199     2196     2246     2247     2226     2249 
    2312     2361     2350     2293     2258     2253     2214     2153 
    2145     2180     2201     2235     2305     2362     2359     2319 
    2295     2290     2269     2241     2247     2303     2371     2388 
    2320     2250     2261     2301     2296     2241     2153     2065 
    2038     2068     2114     2160     2220     2336     2505     2617 
    2605     2543     2509     2501     2469     2390     2308     2274 
    2285     2301     2300     2311     2347     2331     2205     2095 
    2120     2172     2142     2157     2301     2469     2532     2498 
    2478     2502     2502     2486     2509     2521     2447     2307 
    2187     2128     2101     2108     2184     2282     2327     2323 
    2282     2164     1992     1883     1877     1933     1999     2038 
    2057     2162     2400     2646     2782     2821     2778     2648 
    2528     2506     2501     2394     2246     2193     2243     2290 
    2299     2257     2119     1980     1981     2023     2015     2107 
    2346     2585     2766     2905     2967     2936     2866     2794 
    2691     2543     2419     2396     2434     2412     2261     2023 
    1796     1657     1641     1749     1891     1946     1929     1972 
    2162     2412     2524     2488     2486     2531     2497     2428 
    2427     2443     2394     2278     2127     1983     1933     2045 
    2269     2484     2578     2508     2381     2330     2323     2280 
    2188     2068     1948     1857     1848     2027     2365     2640 
    2771     2889     2995     2933     2697     2489     2393     2296 
    2155     2083     2115     2161     2185     2218     2258     2311 
    2362     2381     2384     2389     2412     2440     2430     2401 
    2444     2573     2702     2733     2610     2357     2064     1846 
    1783     1833     1921     2033     2099     2068     2081     2196 
    2231     2141     2141     2340     2546     2562     2448     2342 
    2304     2374     2486     2459     2263     2101     2110     2195 
    2247     2297     2370     2380     2315     2270     2263     2214 
    2126     2091     2142     2265     2396     2461     2477     2511 
    2586     2636     2578     2512     2563     2635     2625     2579 
    2533     2459     2317     2111     1956     1971     2066     2029 
    1868     1811     1950     2134     2226     2305     2482     2654 
    2710     2736     2794     2837     2825     2766     2664     2512 
    2367     2286     2235     2160     2100     2110     2119     2057 
    1983     1925     1891     1961     2142     2331     2439     2457 
    2408     2305     2219     2224     2246     2231     2285     2435 
    2573     2582     2420     2203     2114     2177     2269     2281 
    2177     1989     1875     1958     2141     2238     2230     2242 
    2324     2350     2254     2208     2324     2446     2458     2465 
    2544     2581     2469     2316     2286     2344     2301     2138 
    2061     2176     2369     2547     2709     2806     2783     2671 
    2550     2473     2444     2446     2448     2424     2381     2357 
    2343     2292     2214     2146     2095     2076     2097     2114 
    2153     2289     2467     2521     2401     2235     2162     2174 
    2253     2382     2439     2342     2226     2224     2255     2187 
    2080     2062     2061     1956     1876     1991     2223     2403 
    2436     2326     2219     2254     2366     2396     2311     2215 
    2228     2350     2475     2543     2570     2546     2434     2243 
    2052     2018     2189     2388     2494     2575     2636     2646 
    2625     2520     2288     2093     2061     2127     2205     2299 
    2419     2536     2610     2627     2623     2617     2527     2328 
    2169     2189     2344     2458     2471     2447     2384     2313 
    2315     2319     2245     2153     2126     2138     2137     2150 
    2195     2200     2192     2247     2316     2315     2255     2203 
    2169     2126     2115     2165     2204     2204     2193     2193 
    2218     2259     2289     2282     2277     2327     2373     2324 
    2204     2126     2184     2328     2394     2351     2312     2346 
    2431     2486     2457     2398     2400     2439     2427     2382 
    2398     2461     2484     2471     2475     2477     2419     2305 
    2199     2135     2128     2155     2138     2100     2166     2304 
    2411     2493     2531     2467     2386     2366     2382     2398 
    2397     2369     2303     2199     2108     2073     2079     2069 
    2035     2058     2165     2311     2485     2641     2674     2610 
    2604     2644     2598     2475     2366     2299     2320     2465 
    2601     2589     2479     2346     2131     1876     1815     1998 
    2180     2215     2203     2235     2296     2343     2370     2412 
    2467     2465     2405     2365     2335     2289     2241     2211 
    2234     2292     2278     2149     2030     2037     2115     2180 
    2207     2185     2153     2157     2182     2212     2292     2417 
    2461     2338     2177     2146     2192     2177     2147     2176 
    2222     2259     2308     2376     2474     2569     2582     2508 
    2454     2477     2531     2610     2708     2718     2590     2430 
    2373     2382     2330     2223     2138     2057     2000     2087 
    2263     2358     2425     2573     2648     2555     2455     2457 
    2450     2380     2340     2349     2320     2257     2218     2207 
    2223     2281     2335     2274     2120     2054     2115     2157 
    2130     2135     2184     2220     2295     2423     2447     2315 
    2207     2241     2278     2207     2146     2189     2234     2204 
    2168     2178     2184     2181     2223     2277     2309     2322 
    2295     2272     2339     2481     2555     2477     2361     2336 
    2367     2385     2389     2397     2419     2469     2559     2604 
    2489     2289     2205     2284     2394     2430     2396     2344 
    2335     2393     2463     2463     2417     2425     2506     2567 
    2551     2481     2357     2209     2142     2158     2128     2054 
    2033     2038     2050     2099     2126     2124     2170     2255 
    2303     2288     2284     2343     2404     2403     2365     2351 
    2350     2342     2365     2377     2311     2242     2232     2189 
    2096     2115     2231     2249     2218     2316     2482     2556 
    2538     2471     2366     2268     2220     2172     2093     2062 
    2157     2331     2404     2358     2367     2411     2353     2274 
    2319     2417     2443     2425     2434     2446     2430     2389 
    2336     2284     2274     2338     2407     2401     2336     2288 
    2278     2280     2280     2250     2201     2203     2255     2299 
    2331     2401     2500     2524     2420     2276     2177     2106 
    2033     2020     2110     2204     2215     2204     2266     2365 
    2423     2470     2560     2652     2660     2559     2416     2320 
    2307     2340     2346     2317     2296     2280     2292     2346 
    2362     2309     2273     2303     2354     2369     2365     2349 
    2292     2209     2191     2281     2361     2317     2245     2265 
    2312     2266     2151     2100     2135     2180     2207     2234 
    2231     2193     2185     2230     2254     2199     2104     2081 
