Origin Time       2025/03/30 21:30:00
Lat.              38.535
Long.             142.295
Depth. (km)       44
Mag.              4.3
Station Code      IWT026
Station Lat.      39.2569
Station Long.     141.0983
Station Height(m) 76
Record Time       2025/03/30 21:31:33
Sampling Freq(Hz) 100Hz
Duration Time(s)  60
Dir.              E-W
Scale Factor      7845(gal)/8223790
Max. Acc. (gal)   4.177
Last Correction   2025/03/30 21:31:32
Memo.             
[...]
      36     -314     -244       59      365      652      884     1048 
    1167     1186     1186     1355     1514     1394     1174     1043 
     803      338     -117     -272      -28      388      688      947 
    1260     1394     1255     1053      911      805      835     1109 
    1320     1053      526      274      301      342      463      756 
     988     1011     1042     1173     1139      951      857      718 
     487      514      815     1059      959      471      117      471 
    1204     1513     1223      793      577      552      560      550 
     668      954     1219     1309     1139      757      434      361 
     552      846      950      870      966     1258     1275      924 
     723      808      751      519      475      654      830      880 
     830      807      897      994      936      793      749      787 
     805      811      777      715      777      934      954      819 
     712      738      822      816      714      638      623      622 
     726     1009     1173      989      675      460      480      778 
    1071     1123     1065     1001      849      687      688      753 
     753      760      739      594      446      517      795     1032 
    1078     1011      940      803      484      191      291      693 
     984     1086     1189     1328     1405     1310      955      438 
     137      319      716      886      815      765      823      924 
    1013     1000      859      760      787      847      891      850 
     712      716      880      880      715      670      804      986 
     988      699      450      550      796      905      881      842 
     801      679      602      761     1032     1138     1007      812 
     723      703      646      594      688      959     1239     1312 
    1078      660      360      330      441      615      885     1182 
    1402     1421     1082      568      329      453      648      688 
     604      529      495      556      792     1080     1300     1444 
    1378     1094      841      757      827      824      535      257 
     364      677      882      904      780      716      877     1085 
    1159     1143      986      693      598      847     1019      761 
     373      309      572      888     1065     1048      911      814 
     822      785      571      337      410      826     1159     1074 
     814      745      832      955     1105     1132      972      889 
     870      639      382      372      477      580      675      828 
    1159     1366     1097      746      718      760      739      826 
     916      911      947      986      853      599      364      228 
     338      692      957      957      935     1094     1252     1237 
    1142     1012      814      638      508      405      433      581 
     645      581      572      749     1077     1420     1571     1404 
    1003      552      286      340      481      508      646      926 
     949      695      626      847     1046     1100     1035      839 
     639      616      812     1093     1166      980      853      855 
     706      426      310      433      737     1053     1104      903 
     723      708      808      955     1107     1142     1039      950 
     876      707      444      220      268      615     1004     1274 
    1355     1178      931      818      703      529      548      796 
     990     1044     1038      992      967      907      625      319 
     330      519      720      984     1078      897      826      958 
     996      886      700      484      492      757      878      828 
     958     1136     1074      861      581      305      291      592 
     935     1162     1242     1150      994      876      769      675 
     567      371      187      267      654     1120     1444     1520 
    1347     1046      743      484      294      238      376      621 
     839     1027     1169     1143      935      743      727      854 
     993     1004      810      565      530      645      681      664 
     629      623      839     1173     1345     1335     1167      918 
     764      707      594      453      527      796      969      981 
     870      672      600      677      653      552      557      695 
    1039     1451     1462     1054      662      413      261      400 
     816     1075     1019      969      984      788      433      260 
     414      737     1007     1174     1263     1182      923      719 
     700      729      727      749      764      710      637      672 
     832      992     1034      935      832      913     1023      904 
     688      576      604      781      942      958     1001     1061 
     909      683      685      854      934      870      774      689 
     631      688      795      774      726      877     1092     1047 
     778      558      486      515      600      777     1116     1391 
    1259      888      687      595      422      328      504      893 
    1233     1260      954      519      255      402      811     1107 
    1175     1069      838      675      675      665      571      573 
     738      904      993      996      847      693      801     1074 
    1154      895      425      118      341      841     1053     1003 
    1058     1217     1217      976      702      616      764      989 
    1036      804      490      344      388      480      534      618 
     827     1026     1039     1031     1148     1227     1197     1092 
     839      625      630      619      448      313      361      576 
     839     1016     1112     1188     1163      942      621      418 
     495      735      880      972     1062      940      719      658 
     646      600      675      870     1024     1039      942      818 
     760      769      729      672      750      915     1008      996 
     922      824      758      778      820      818      884     1011 
     973      770      629      631      781     1031     1142      977 
     707      481      364      487      777      961     1050     1183 
    1237     1092      889      815      842      738      492      414 
     573      689      665      716      946     1117     1024      832 
     757      724      670      710      843      889      815      783 
     753      538      307      367      635      850     1020     1264 
    1474     1493     1282      876      521      446      517      529 
     475      429      488      679      857      899      846      819 
     911     1043     1092     1121     1151     1004      706      494 
     463      596      815      919      768      515      479      706 
     911     1007     1123     1186     1069      891      778      669 
     498      341      365      603      853     1001     1109     1146 
    1074      959      796      607      550      699      912      996 
     891      739      662      567      444      513      830     1177 
    1341     1279     1086      870      746      746      684      486 
     426      573      677      724      797      862     1024     1301 
    1377     1070      693      603      699      729      768     1012 
    1317     1279      812      260      -58        2      391      785 
     936      932     1004     1224     1372     1251      966      719 
     603      607      685      768      761      641      533      552 
     587      630      942     1325     1271      963      818      784 
     811      861      785      681      708      795      800      600 
     315      359      811     1185     1111      785      607      745 
    1084     1343     1352     1190      930      569      245      176 
     403      739     1035     1252     1281     1070      857      832 
     874      805      616      375      216      305      607      891 
    1038     1108     1158     1154     1085     1051     1024      843 
     623      604      662      614      573      656      792      849 
     739      575      615      849      940      788      676      753 
     830      842      926     1035     1071     1089     1035      892 
     881      930      730      450      422      511      565      672 
     792      823      858      978     1108     1210     1275     1155 
     827      526      386      414      648      943     1096     1066 
     853      534      386      541      760      807      785      855 
     936      901      754      600      600      754      916     1101 
    1343     1412     1189      866      623      511      504      506 
     483      453      475      646      881     1005      978      807 
     633      761     1085     1123      858      719      785      797 
     761      837      895      743      567      670      939     1015 
     936      912      841      665      598      681      783      837 
     850      946     1113     1011      635      410      413      473 
     714     1236     1663     1609     1296     1044      756      427 
     348      486      542      480      436      496      685      865 
     949     1038     1097      993      850      847      881      797 
     706      804      982      955      807      772      784      672 
     511      523      677      757      784      940     1194     1286 
    1082      820      780      811      675      534      608      820 
    1015     1093      946      554      207      220      506      819 
    1040     1175     1308     1312     1057      824      738      568 
     417      507      687      703      575      546      672      805 
     942     1042     1027     1000     1028     1001      891      822 
     807      734      583      423      438      733     1051     1194 
    1248     1215      994      679      537      637      745      720 
     591      391      325      616     1082     1313     1196      966 
     838      772      733      766      843      969     1140     1163 
     905      577      494      561      457      334      486      749 
     959     1074      962      801      849      981     1048      976 
     730      580      710      838      735      688      936     1136 
    1000      793      669      475      400      772     1312     1463 
    1198      963      926      899      783      579      318      182 
     341      727     1053     1097     1071     1305     1506     1193 
     646      438      618      896      988      808      622      573 
     472      380      518      716      727      631      680      958 
    1192     1177     1048      907      805      814      770      538 
     356      460      751     1062     1210     1015      746      858 
    1179     1281     1142      854      534      345      248      218 
     375      618      747      826     1024     1316     1494     1441 
    1270     1051      710      349      193      230      357      564 
     784      895      939     1024     1104     1086      891      592 
     513      731      950     1054     1101      996      722      517 
     530      669      780      812      824      801      700      600 
     592      658      757      935     1135     1105      930      919 
     934      772      588      457      340      473      989     1385 
    1204      776      608      733      940     1011      884      757 
     706      608      648      993     1225     1085      990     1119 
    1112      855      587      500      634      805      824      746 
     718      834      994      924      592      272      233      523 
     880     1107     1270     1323     1165      876      584      453 
     584      754      693      565      602      625      496      415 
     600     1078     1459     1320      970      828      677      423 
     337      483      841     1325     1521     1198      764      702 
     981     1188     1102      857      602      456      438      372 
     301      454      820     1220     1439     1356     1138      903 
     649      529      612      733      819      874      847      841 
    1013     1194     1131      924      774      733      699      513 
     324      395      599      738      850      911      849      697 
     480      326      349      303       74       21      373      923 
    1335     1494     1632     1900     1996     1634     1011      519 
     423      823     1532     2043     1966     1390      660       33 
    -378     -508     -353     -162     -195     -174      314     1016 
    1410     1593     2049     2839     3493     3489     2668     1377 
      21    -1193    -1923    -1850    -1127      -79      959     1599 
    1818     1783     1385      696      156       -8      140      450 
     560      120     -612     -868     -162     1282     2886     4048 
    4305     3554     2050      324     -963    -1487    -1345     -677 
     280     1116     1517     1354      745      130     -189     -101 
     729     2107     2978     2768     1698       62    -1607    -2551 
   -2328     -977      837     2074     2293     1944     1611     1536 
    1676     1761     1545     1229     1290     1740     1903     1247 
      64     -899    -1035     -290      718     1316     1336     1127 
    1169     1406     1264      522     -426    -1066     -994      -74 
    1193     2115     2728     3279     3492     3267     2783     1925 
     575     -972    -2143    -2411    -1714     -531      500     1009 
    1085     1088     1177     1171      940      521      -39     -567 
    -880     -927     -484      645     2181     3736     4934     5186 
    4267     2593      666    -1090    -2282    -2748    -2551    -1718 
    -325     1179     2280     2880     3017     2731     2466     2582 
    2639     1929      332    -1567    -2790    -2663    -1503     -120 
    1039     1838     2362     2889     3395     3564     3165     2110 
     762     -126     -361     -410     -463     -333     -174     -318 
    -654     -677       40     1327     2309     2328     1594      649 
    -103     -450     -502     -518     -518     -313      184      893 
    1669     2370     2829     2790     2124     1162      334     -109 
    -102       49      112      279      580      857     1105     1202 
    1042      812      764     1019     1470     1695     1459     1031 
     745      679      789     1061     1514     1917     1749     1062 
     499      230       98      209      376      315      448     1120 
    1791     1856     1395      936      822      872      915     1058 
    1144      881      403      -43     -396     -450      -45      504 
     935     1237     1040      156     -572     -290      753     1656 
    1744      955      -29     -288      276      986     1439     1665 
    1674     1382      905      730     1115     1620     1696     1231 
     518      -13      -93      351     1062     1474     1256      716 
     442      585      710      507      301      549     1242     1969 
    2285     2006     1390      924      916     1229     1302      712 
    -349    -1414    -2084    -2064    -1254      129     1447     2106 
    2182     2052     1902     1881     1952     1684      884      -18 
    -603     -947    -1092     -727      143     1050     1672     1931 
    1949     1998     2061     2016     2011     1942     1417      494 
    -267     -514     -471     -449     -230      450     1275     1845 
    2107     2027     1579     1004      611      615     1007     1420 
    1601     1634     1363      556     -294     -472      -13      569 
     889      672     -125     -788     -336     1084     2301     2581 
    2026     1096      353      129      230      202      -81     -287 
      -1      895     1961     2546     2477     1922      992      -56 
    -753     -828     -380      369     1244     2012     2307     1957 
    1202      352     -261     -211      471     1174     1528     1803 
    2274     2558     2119     1185      425       99       49       18 
    -170     -367     -294     -133      -98      238     1090     1833 
    2074     2047     1853     1441      862      126     -581     -999 
   -1061     -568      561     1688     2246     2172     1405      427 
      16       86      218      301      330      469      800     1161 
    1377     1220      696      302      407      899     1417     1560 
    1181      648      449      521      626      818     1093     1297 
    1179      751      588      935     1309     1377     1140      723 
     341      140      303      750      974      903      882      947 
    1100     1476     1927     2153     1939     1166      221     -117 
     328     1012     1398     1217      544      -43      -55      292 
     572      599      378      237      542     1196     1941     2444 
    2170     1124      162     -124      -74      -90        0      409 
    1007     1417     1341     1107     1175     1271     1074      758 
     257     -407     -589     -113      483     1166     2080     2625 
    2461     2074     1750     1279      444     -610    -1296    -1183 
    -510      321     1309     2384     2841     2126      722     -379 
    -672     -314      280      723      766      683      990     1603 
    2011     1966     1576     1170      927      643      136     -477 
    -931     -923     -337      588     1467     1985     2058     1787 
    1302      846      697      819      922      853      608      321 
     311      677     1105     1279     1031      484       85      -16 
      41      317      757     1071     1236     1370     1395     1355 
    1502     1760     1626      897       17     -452     -288      359 
    1070     1359     1121      776      666      758      982     1198 
    1152      783      230     -135       86      761     1387     1780 
    1976     1821     1387     1192     1304     1266     1059      880 
     502      -83     -479     -581     -399      186      936     1491 
    1796     1759     1302      708      140     -378     -298      804 
    2188     2731     2266     1414      598     -129     -572     -457 
      31      521      958     1363     1657     1791     1713     1424 
    1051      703      398      149       -9     -207     -580     -804 
    -361      641     1536     1910     1908     1826     1815     1911 
    1975     1744     1055       52     -676     -626      -40      523 
     957     1256     1152      668      105     -332     -353       41 
     352      368      334      459      882     1620     2289     2493 
    2430     2334     1836      886      244      322      668      791 
     688      594      592      491      163     -140      -89      279 
     573      571      488      568      800     1147     1607     1996 
    2037     1722     1287      889      650      695      872      912 
     772      546      378      322      324      430      581      618 
     673      799      854      942     1166     1375     1345      957 
     517      553     1067     1490     1487     1166      594       16 
     -87      197      452      600      588      429      542     1039 
    1406     1391     1181      845      442      287      575     1053 
    1294     1162      872      672      599      549      522      568 
     572      477      414      472      753     1248     1707     1995 
    2029     1628     1012      621      477      418      406      480 
