Origin Time       2025/03/30 21:30:00
Lat.              38.535
Long.             142.295
Depth. (km)       44
Mag.              4.3
Station Code      IWT005
Station Lat.      39.6478
Station Long.     141.9465
Station Height(m) 6
Record Time       2025/03/30 21:31:31
Sampling Freq(Hz) 100Hz
Duration Time(s)  60
Dir.              N-S
Scale Factor      7845(gal)/8223790
Max. Acc. (gal)   0.855
Last Correction   2025/03/30 21:31:30
Memo.             
[...]
      -4       10     -105      -45      109       48      -31       70 
     122       14      -51       18       25      -95     -101       12 
      47       49       68        9      -82      -40       70       47 
     -27       -9        2      -58      -87      -21       45       43 
      43       22      -68      -68       55       70      -33      -72 
     -64      -44       49      136       76      -76     -109        0 
      36      -27      -43       10       32        0       20       18 
     -78      -87        5       32      -41      -78       45      147 
      91       39        6      -39       -6       54       52      -17 
    -120     -139      -72      -27       58      160      103      -27 
     -21       64       75       24       12       52       58        4 
      -2       49       47        2      -36      -52      -70     -156 
    -179      -29       93       45      -16       54      141       87 
     -49      -97      -51      -71     -125      -76       13       48 
      75      128      105      -29      -99      -41      -20      -94 
    -116      -14       91      105       76       71       37      -48 
     -71      -32      -32      -29      -12      -37      -40       -2 
     -18      -68      -55       29      103      114      108      116 
      98       25      -39      -22       22       12      -47      -55 
      21       35      -62      -63       81      112      -55     -151 
     -72      -55     -120      -76       49      120      117      124 
     155      129       79       62        4      -76     -105      -91 
     -70      -71      -74      -47      -17       25       54       17 
     -10        1      -27     -109     -122      -29       55       56 
      20       10       43       90       87        8      -74     -125 
    -156      -95        2      -29     -103        5      159      106 
     -14        5       91       94       41       43       31      -37 
       2       97       18     -116      -95      -16      -16      -55 
     -37       27       76      117      136       67      -31      -51 
     -43      -60      -89     -118      -45      140      198       81 
       9       13      -17      -85     -151     -175      -91       63 
     132       85       89      213      230       40      -99      -91 
    -124     -197     -135       24       48      -49      -28       85 
      97       12      -44      -49      -62      -75      -43       18 
      59       63       62       72       58       -6      -51      -13 
      33       -1      -37       -1       10      -66     -101      -48 
     -64     -133      -99      -17       49      128      143       90 
      85      101       66       -1      -60      -78      -79      -85 
     -41      -16      -43      -12       44       48       39       -2 
     -83     -103      -33       35       32       36      116      145 
      91       87       94       -5      -98      -52       10      -59 
    -157     -106       43       71      -16      -12       59       59 
      33       21      -16      -27       21       55       28      -27 
     -56      -55      -40        0       20      -20       -2       81 
      87       43       20        5        0      -36      -98     -117 
     -89      -27       24       12       -6       35       82       51 
     -13      -36      -51      -82      -89      -35       59       90 
      41       40       74       33      -49     -109     -121     -106 
    -117     -112       -9      118      116       36       33       79 
      91       74       51       39        9      -21        8       29 
     -43      -76       13       67       17      -62      -97      -27 
      76       67        5       12       58       58      -13      -52 
      18       60       18       21       58       52       31       -4 
     -76     -144     -132      -45       -6      -58      -70       22 
      85       39      -12        2       45       55       33       41 
      32      -28       12      126       82      -54      -63       -8 
     -13      -59      -71      -67     -126     -143      -21       40 
       5       21       41       16       -9      -18       -5       -1 
      21       49       -1       -8       58       13      -67      -58 
     -36      -10       21      -21      -68      -24       21       58 
      97       56       14       41       44       25        8       -2 
      17        8      -37      -35       -4       25       56       47 
       0      -35      -25       25       44      -25      -63       20 
      93       39      -54      -59       -1       18      -24      -86 
     -85       21      124       95       12       20       67       31 
     -32      -29       -8      -17      -28      -12       -1      -24 
     -43      -62     -121     -128      -64      -40      -49      -24 
      40      128      167      103       37       45       29      -78 
    -124      -21       56       20       17       76       43      -59 
     -55      -20      -76      -97      -16       20       -4       66 
     197      179       62       31       39      -39     -147     -156 
     -94      -58      -12       56       68       22      -36      -72 
     -58      -13       18       29       28       41       62       21 
     -48      -51       -9       -5      -39      -43       18       89 
      85      -18     -136     -117      -33      -51      -55       62 
     145      101       72      155      172       39      -33      -21 
     -83     -139      -97      -63      -44       33       93       28 
     -70      -43       49       29      -47      -20       43       33 
      25       81       67      -32      -41       29       33      -18 
     -56      -66      -51      -31      -21      -22      -12       29 
      60       22      -36        4       93       45     -109     -136 
      -2       64       -6      -49        2       33       29       64 
      68      -10      -37        4        9      -18      -14       25 
      31       -9      -29      -48      -64       -8       44       -1 
     -62      -36        8      -29      -71      -27       66      118 
      76      -16      -44       39       99        1      -98      -33 
      60       91       93       54        5      -32      -48      -22 
     -52     -124      -55       78       74       -6      -17       27 
      24      -18      -39      -81     -128      -76       36       86 
      76      103      139       82      -12      -56      -54      -29 
     -13       -5       16       29       47       76       60       -2 
     -43      -41      -47      -95     -110      -44      -17      -66 
     -81      -36       18       55       51       37       66       97 
      86       48        1      -22      -33      -76     -110      -85 
     -47       -8       60      108       52      -67      -95      -21 
       0      -47      -28       71      135      122      109      118 
     113       99       60      -37     -105      -43       25      -29 
    -136     -157      -87      -39      -52      -87     -106      -27 
     101      130       76       10        2       44       28      -28 
     -41        1       95      133       40      -48      -62      -76 
    -117     -174     -180      -94       -2       47       72       58 
      43       83      129      120      103      135      128       10 
     -49       55       97      -39     -143     -149     -170     -189 
    -129       -5       71       21      -12       79      136       89 
      48       39       25      -28      -97      -48       86      135 
      58      -52      -99      -75      -68      -85      -70      -49 
     -54      -37       -4      -14      -54      -51        5       41 
      20       62      145      106       39       36      -12      -36 
      14      -14     -102      -81       39       71      -75     -171 
     -62        6      -48       -9      103      130       93       76 
      87       82       81      103       76        2        1       16 
     -40      -32       24      -18      -79      -75      -67      -81 
    -103     -114      -72        9       76      101      110      166 
     237      156      -52     -126      -63      -72     -140     -128 
     -67      -37      -22      -18      -37      -66      -83      -21 
     103      157      135      112       71      -12      -85     -110 
     -94      -37        2       -4        4       44       56      -24 
    -122     -116      -31       -2      -59      -58       66      145 
     116       99      102       90       85       68       51       13 
     -63      -89      -27       20       -8      -49      -51      -76 
    -125      -90      -20       -5       13       54       87      103 
      81       67       83       52      -39     -106      -81      -29 
     -43      -49        6       36        1      -13       29       47 
      -8      -40        1       33       31       49       52       -4 
     -39      -22      -32      -59      -49       -8       -1      -41 
     -32       -5      -47      -67      -39      -21        1        2 
     -41      -45       55      122       36      -21       90      166 
      52      -89      -89        0       51       48       54       22 
     -63      -62       25       20      -74      -85       -8        9 
     -40      -36        0        8       33       58       25        2 
      44       87       82       82       76      -14      -78      -47 
     -85     -140      -54       55       76       45       32       60 
      32      -56      -89      -44       13        5      -28       22 
     108      117       60      -14      -81     -121     -113      -81 
     -89     -102      -52       41      110      128      105       20 
     -68      -39       22      -22      -78      -40       22       48 
      32      -36      -99      -59       56      105       43       -9 
      56      148      102      -17      -52      -43      -74      -85 
     -24       17        6       86      237      224       76        6 
      -5      -28      -40      -72     -140     -159      -83       -8 
     -16      -40      -12       44       54      -31     -145     -163 
     -78      -36      -75      -44       54       98      137      167 
      93       -6      -37      -31      -45      -94     -109      -71 
     -66      -52       36      106       87       36       14        8 
     -17      -36      -55      -75      -21       64       78       56 
      51       27       -1       37      103       78       -9       -5 
      64       41      -56      -82      -18       22        4       -5 
      14        2      -35      -45      -41      -39      -28      -41 
     -60       -9       85      141      151      147      133       70 
     -27      -71      -58      -58      -91     -128     -145     -112 
     -47      -51      -76      -54      -60      -99     -108      -79 
     -44      -45       -9       98      135       85       99      178 
     189      116       37      -37     -114     -130      -79      -44 
     -25       55      120       63      -12       -4       32       22 
     -41     -103     -106      -22       85      102       67       89 
     175      243      222      153       87       62       74       40 
     -14        4        1     -137     -298     -344     -333     -340 
    -271      -70      141      248      337      469      460      253 
      99       58      -58     -225     -259     -176     -163     -209 
    -162     -126     -263     -398     -387     -369     -399     -292 
      32      399      607      648      622      558      414      174 
     -85     -297     -476     -568     -508     -375     -226      -48 
     113      184      197      253      292      195       47      -29 
     -27       -8      -32      -41       74      247      305      226 
     118       21     -112     -314     -494     -526     -437     -288 
     -24      306      523      616      631      564      445      253 
     -18     -261     -372     -390     -434     -490     -399     -220 
    -160     -145      -24      139      232      236      179       85 
     -51     -170     -184     -144     -145     -147      -67       37 
      48      -14      -18       52       78       55       78      124 
     166      282      396      348      210      129        1     -267 
    -449     -336     -148      -83       37      299      469      375 
     152       51       13     -218     -531     -542     -236       13 
      97      257      465      429      167      -17      -54     -141 
    -244     -199     -153     -168      -31      171      133     -102 
    -260     -292     -373     -479     -418     -261     -179      -89 
     120      399      638      702      606      475      301       39 
    -282     -585     -729     -665     -469     -168      184      422 
     449      388      340      217      -13     -210     -290     -284 
    -199        9      278      479      585      633      596      375 
     -62     -499     -726     -768     -706     -580     -355       32 
     446      629      573      513      460      238      -85     -229 
    -126      -63     -170     -133      155      332      203      -18 
    -126     -179     -319     -465     -503     -473     -353     -112 
     139      256      159      -43     -116     -125     -236     -251 
     -20      252      426      545      587      533      499      508 
     402       49     -421     -760     -896     -892     -768     -634 
    -544     -373     -116       87      176      295      569      773 
     696      554      544      548      460      298      113      -22 
     -93     -189     -330     -376     -324     -310     -322     -283 
    -217     -249     -324     -190       62      118       48      105 
     238      205       28      -36       47       99       64       22 
     -17      -66      -51        1       24       64       86       22 
     -13       18       70      135      217      386      503      328 
      99       82       45     -128     -256     -301     -373     -479 
    -499     -344      -94       91      187      221      184       93 
      -6      -58      -67      -83      -72      -27       -6       21 
      91       94        4      -39      -14      -25      -59      -78 
     -93      -90      -72      -85     -118      -95       -4       29 
     -27      -35        0      -71     -180      -91      176      375 
     402      396      411      328      168       81        1     -151 
    -213      -91       54       63      -51     -148     -136      -94 
    -157     -321     -430     -357     -205     -175     -189      -40 
     174      310      432      537      522      402      241       58 
    -126     -263     -321     -297     -184       -8      145      222 
     222       85     -156     -275     -189      -70        8      128 
     310      448      436      276       31     -197     -256     -189 
    -205     -284     -210      -49      -43     -153     -189      -98 
       8       58       76       35      -67     -172     -303     -373 
    -302     -251     -243     -108      140      332      396      400 
     333      135      -83     -211     -257     -186      -22      108 
     213      333      406      298       33     -112     -102     -197 
    -328     -233       27      206      251      271      265      194 
      97      -20     -139     -153      -45       12      -41       -2 
     166      247      190       44     -163     -274     -253     -237 
    -210     -120      -31       58      201      260       67     -186 
    -194      -90     -116     -157     -109      -67      -43       28 
      87       90      114      153       91      -10       -5       37 
      12       -1       20       24       14       28       95       75 
    -124     -261     -237     -233     -282     -259      -95      163 
     403      508      433      297      193       52      -99     -136 
     -93     -110     -170     -130       -6       29      -37      -91 
     -98     -101     -139     -118       66      234      184       98 
     156      155       21       12      102       25     -139     -140 
     -60      -85     -155     -187     -186     -102       48      132 
      93       29       18       37       63       35      -99     -240 
    -276     -225      -98       59      148      147       93      -13 
    -126     -102       76      228      260      279      317      284 
     224      199       91     -175     -432     -490     -418     -372 
    -238       32      157       37      -12      162      295      236 
     184      244      280      225      141      135      201      206 
      51     -202     -391     -460     -480     -490     -475     -426 
    -344     -210       10      253      394      411      410      446 
     388      164      -43      -72       22       78       36       28 
      56      -31     -180     -244     -249     -252     -224     -180 
    -156     -106      -22       29       49       99      213      344 
     413      403      355      295      191       52      -40     -159 
    -369     -502     -440     -288     -203     -216     -194      -72 
      18       10      -29      -13       40       29      -13       31 
     159      257      283      260      163       44       27       52 
      37       36       27      -28      -91     -159     -230     -283 
    -315     -310     -232      -78       87      210      265      264 
     251      248      234      178       81      -45     -201     -245 
    -101       51       90       62       -4      -66      -97     -141 
    -171     -117      -78      -86       -5      162      251      187 
     118      205      284      187       29      -41      -45     -118 
    -295     -360     -238     -141     -140      -94       74      232 
     202       89      124      249      197        5      -16       85 
      44      -45      -37      -33      -97     -159     -190     -194 
    -159      -87      -48     -105     -178     -179     -133      -41 
      66      112      156      248      305      297      236      110 
     -33     -128     -156     -175     -237     -279     -139      141 
     259      120      -13        6        9      -72      -66       -8 
     -51      -98      -63      -25      -13      -22       -8       40 
       5      -83      -28      140      217      193      180      194 
     167      103       89       86      -20     -147     -168     -147 
    -140     -121      -87      -39       24       56       55       82 
     117       93       43       47       87       75        9      -47 
     -37       58       90      -32     -144     -172     -217     -280 
    -307     -267     -153      -20       98      183      193      125 
      58       54       27     -114     -229     -157        8       79 
      24      -12       56      122      128      159      182      110 
       5      -21      -10      -55     -102      -78      -33       16 
      93      164      179      133       86       27      -75     -130 
    -120     -133     -144      -87       28      132      133       70 
      22      -28      -91     -145     -143      -89      -52       -2 
     108      183      156       86       -2     -157     -353     -452 
