Origin Time       2025/03/30 21:30:00
Lat.              38.535
Long.             142.295
Depth. (km)       44
Mag.              4.3
Station Code      IWT007
Station Lat.      39.2699
Station Long.     141.8567
Station Height(m) 9
Record Time       2025/03/30 21:31:11
Sampling Freq(Hz) 100Hz
Duration Time(s)  62
Dir.              N-S
Scale Factor      7845(gal)/8223790
Max. Acc. (gal)   10.690
Last Correction   2025/03/30 21:31:10
Memo.             
[...]
   -7977    -7983    -7981    -7975    -7981    -7982    -7983    -7983 
   -7975    -7981    -7982    -7975    -7981    -7981    -7978    -7986 
   -7982    -7979    -7982    -7977    -7975    -7979    -7982    -7987 
   -7987    -7982    -7982    -7983    -7978    -7974    -7982    -7986 
   -7979    -7982    -7982    -7975    -7969    -7973    -7985    -7987 
   -7981    -7982    -7979    -7978    -7983    -7978    -7973    -7978 
   -7986    -7987    -7982    -7977    -7977    -7978    -7975    -7981 
   -7987    -7982    -7978    -7979    -7978    -7979    -7982    -7979 
   -7982    -7982    -7978    -7985    -7985    -7974    -7974    -7981 
   -7987    -7985    -7979    -7977    -7974    -7978    -7986    -7985 
   -7979    -7977    -7978    -7983    -7978    -7973    -7978    -7982 
   -7975    -7973    -7982    -7985    -7983    -7986    -7978    -7977 
   -7985    -7981    -7978    -7982    -7978    -7977    -7977    -7977 
   -7983    -7986    -7981    -7981    -7986    -7978    -7971    -7982 
   -7985    -7975    -7974    -7975    -7974    -7982    -7990    -7985 
   -7978    -7975    -7977    -7977    -7979    -7981    -7983    -7990 
   -7987    -7974    -7971    -7981    -7987    -7983    -7979    -7981 
   -7978    -7975    -7985    -7989    -7975    -7963    -7975    -7998 
   -7990    -7969    -7966    -7981    -7987    -7981    -7977    -7974 
   -7975    -7986    -7982    -7975    -7983    -7983    -7977    -7982 
   -7985    -7981    -7982    -7987    -7979    -7971    -7986    -7986 
   -7970    -7975    -7983    -7985    -7985    -7978    -7982    -7989 
   -7977    -7967    -7979    -7986    -7979    -7974    -7979    -7985 
   -7982    -7979    -7981    -7981    -7981    -7985    -7985    -7975 
   -7970    -7979    -7990    -7987    -7970    -7969    -7989    -7986 
   -7974    -7975    -7977    -7979    -7982    -7977    -7977    -7987 
   -7989    -7978    -7973    -7978    -7985    -7985    -7974    -7971 
   -7982    -7982    -7979    -7985    -7978    -7977    -7985    -7983 
   -7979    -7979    -7981    -7979    -7975    -7977    -7978    -7981 
   -7985    -7978    -7977    -7983    -7987    -7986    -7982    -7979 
   -7979    -7983    -7989    -7978    -7973    -7985    -7985    -7977 
   -7981    -7986    -7979    -7977    -7985    -7987    -7975    -7977 
   -7982    -7981    -7986    -7986    -7977    -7977    -7979    -7985 
   -7986    -7982    -7982    -7982    -7979    -7975    -7977    -7986 
   -7986    -7983    -7983    -7977    -7977    -7981    -7979    -7979 
   -7979    -7979    -7983    -7982    -7975    -7977    -7985    -7986 
   -7978    -7977    -7983    -7983    -7979    -7979    -7986    -7986 
   -7977    -7977    -7982    -7981    -7975    -7978    -7985    -7981 
   -7977    -7981    -7981    -7986    -7987    -7979    -7978    -7979 
   -7977    -7974    -7978    -7985    -7983    -7978    -7979    -7982 
   -7981    -7977    -7977    -7983    -7985    -7979    -7977    -7974 
   -7981    -7987    -7985    -7982    -7979    -7979    -7983    -7981 
   -7977    -7979    -7983    -7985    -7985    -7982    -7978    -7978 
   -7990    -7998    -7989    -7979    -7986    -8001    -7998    -7985 
   -7989    -7990    -7983    -7985    -7982    -7982    -7997    -8019 
   -8025    -8002    -7950    -7857    -7730    -7654    -7666    -7774 
   -7997    -8229    -8432    -8610    -8476    -8027    -7824    -8029 
   -8351    -8699    -8683    -7893    -7152    -7179    -7334    -7414 
   -7541    -7518    -7796    -7781    -6805    -6548    -7497    -8762 
  -10341   -10816    -9204    -7722    -7578    -7361    -6918    -7113 
   -8093   -10389   -12005    -9769    -6494    -5125    -4048    -4062 
   -5825    -7674   -10292   -12592   -11466    -8073    -5568    -5063 
   -6292    -7759    -7796    -8156   -10538   -12189   -11172    -7580 
   -3819    -4774    -8479    -9564    -9032    -9115    -9524    -8938 
   -6710    -4417    -4224    -6367    -8669   -10473   -11465    -9390 
   -5962    -5157    -6700    -7307    -6363    -7086   -10145   -12714 
  -12515    -9541    -5869    -4301    -7024   -10675    -9798    -6723 
   -6076    -7285    -8112    -7797    -6552    -5634    -6569    -8610 
   -9683    -8658    -7458    -8857   -10058    -8752    -7840    -7588 
   -7425    -8660    -9485    -8596    -7929    -7469    -6543    -6092 
   -5958    -6643    -8999   -10708    -9994    -7858    -5834    -5773 
   -7971   -10195   -10060    -7574    -6123    -7697    -9842    -9883 
   -7835    -6110    -6520    -8016    -9369    -9765    -8063    -6064 
   -6814    -8372    -7681    -6660    -7079    -7804    -8170    -7983 
   -7956    -8656    -8753    -8187    -8129    -8760   -10042   -10505 
   -8633    -6786    -7003    -7542    -7318    -7087    -7315    -7507 
   -7061    -6824    -7267    -7160    -6470    -7057    -9094   -10679 
  -10936    -9838    -8043    -7071    -7275    -8158    -9175    -9127 
   -7844    -7333    -7863    -7543    -6748    -6374    -6405    -7069 
   -7456    -7730    -8976    -9840    -9193    -8249    -8293    -8660 
   -8086    -7416    -7422    -7273    -7685    -9001    -9146    -7944 
   -7200    -7295    -7403    -7514    -8653    -9485    -8062    -6528 
   -7051    -8750    -9837    -8919    -7078    -6361    -7010    -8155 
   -8314    -7722    -7881    -7736    -6947    -7823    -9698    -9684 
   -8507    -8062    -7705    -7550    -8414    -8604    -7300    -6741 
   -7380    -7820    -8375    -8499    -7411    -7222    -8113    -7838 
   -7349    -8035    -8510    -8338    -8189    -8224    -8797    -9528 
   -9383    -7665    -5368    -5660    -8652   -10200    -9054    -7423 
   -6373    -6593    -7924    -8434    -7948    -7406    -7415    -8727 
   -9649    -8614    -7609    -7684    -7609    -7377    -8039    -9043 
   -8985    -8320    -7700    -7280    -8005    -8829    -8116    -7362 
   -7458    -7279    -7257    -8032    -8379    -7558    -6849    -7534 
   -8306    -7993    -7913    -8078    -8355    -9363    -9306    -8388 
   -8413    -8324    -8321    -8927    -8301    -6952    -6853    -7570 
   -8037    -7319    -5776    -6286    -8326    -8110    -7037    -7819 
   -8336    -8077    -8932    -9783    -9382    -8631    -8440    -8901 
   -8735    -7612    -7275    -7889    -8097    -7954    -8095    -7468 
   -5794    -5942    -7994    -8673    -8569    -8451    -6906    -6669 
   -8911    -9261    -7439    -7088    -8363    -9342    -9193    -8540 
   -8472    -8009    -6500    -6673    -8509    -8575    -7902    -8552 
   -8459    -7561    -7832    -7956    -7044    -6914    -8148    -9382 
   -9223    -7827    -6602    -6451    -7373    -8532    -8885    -8395 
   -7786    -7672    -8347    -8991    -8297    -7511    -8031    -8154 
   -7707    -8302    -8591    -7361    -6694    -7744    -8749    -8213 
   -7021    -6994    -7911    -8468    -8845    -8992    -8237    -7339 
   -7719    -8888    -8660    -7426    -7786    -8750    -7869    -6855 
   -7705    -8293    -7196    -6754    -7672    -7862    -7647    -8494 
   -9235    -8538    -7616    -7990    -8665    -8536    -8357    -8541 
   -8779    -8402    -7283    -7041    -7978    -8132    -7215    -6632 
   -6932    -7971    -8862    -8469    -7487    -7155    -7425    -8140 
   -9090    -8916    -7431    -7187    -8737    -9575    -8874    -7545 
   -6993    -7998    -8642    -8078    -8079    -8305    -7717    -7285 
   -7198    -7206    -7894    -8770    -8667    -7402    -6214    -7142 
   -9359    -9344    -7574    -7449    -8478    -8681    -8652    -8453 
   -7377    -6824    -7469    -8244    -9016    -8903    -7477    -7065 
   -8044    -8330    -7763    -7541    -7703    -7558    -7697    -8552 
   -8496    -7947    -8681    -8704    -7481    -7771    -8318    -7469 
   -7560    -8549    -8344    -7392    -6659    -7095    -8849    -9193 
   -7758    -7416    -7780    -7751    -8548    -8976    -7488    -6910 
   -8675    -9583    -8888    -8437    -7538    -6251    -6646    -8193 
   -8808    -8287    -7477    -7130    -7699    -8572    -8587    -7713 
   -7032    -7302    -8199    -8557    -8330    -8492    -8553    -8286 
   -8448    -8425    -7890    -7688    -7857    -7977    -7724    -7076 
   -7168    -8249    -8567    -8148    -8253    -7946    -7218    -7450 
   -7774    -7774    -8131    -8002    -7888    -8523    -8603    -8680 
   -8911    -7700    -6920    -7924    -8552    -8245    -7643    -7311 
   -7778    -8201    -8160    -7865    -7469    -8004    -9089    -8595 
   -6960    -6820    -8117    -8634    -7778    -7002    -7703    -8955 
   -9062    -8283    -7519    -7430    -8104    -8353    -8047    -8137 
   -8224    -8159    -8320    -7839    -7006    -7495    -8614    -8252 
   -7072    -7392    -8584    -8484    -7746    -7913    -8298    -8047 
   -7778    -7828    -7805    -7842    -8252    -8608    -8245    -7462 
   -7483    -8202    -8136    -7560    -7707    -8149    -8268    -8305 
   -8024    -7160    -7123    -8544    -9088    -8154    -7912    -8208 
   -7790    -7807    -8379    -7777    -7167    -7985    -8347    -7800 
   -7778    -8235    -8352    -7620    -7061    -7897    -8770    -8502 
   -8058    -7862    -7800    -8016    -7982    -7828    -8274    -8653 
   -8314    -7892    -7919    -8055    -8016    -7751    -7246    -7442 
   -8449    -8653    -8054    -7811    -7773    -7578    -7265    -6982 
   -7338    -8492    -9227    -8588    -7603    -7654    -8303    -8488 
   -8378    -8251    -7712    -7530    -8436    -8746    -7987    -7842 
   -7695    -7253    -8032    -8279    -7149    -7474    -8421    -8195 
   -8255    -7985    -6886    -7022    -7848    -8193    -9116    -9518 
   -7662    -6585    -8163    -8553    -7330    -7877    -9161    -9076 
   -8398    -7908    -7717    -7754    -7852    -8013    -7766    -6951 
   -6675    -7592    -8761    -8622    -7406    -7377    -8434    -8534 
   -8213    -8202    -7851    -7757    -8127    -8307    -8484    -8469 
   -7805    -7229    -8114    -9256    -8316    -7319    -7584    -6829 
   -6336    -7935    -9308    -9057    -8206    -7534    -7419    -7771 
   -8036    -8576    -8783    -7244    -6608    -8735    -9753    -8353 
   -7447    -7318    -7388    -8388    -8787    -7516    -6859    -7392 
   -7970    -8654    -8738    -7911    -7550    -7506    -7095    -7805 
   -9333    -9007    -7493    -7209    -8039    -8912    -8978    -7975 
   -7020    -7558    -8966    -8615    -6760    -6534    -8090    -9089 
   -8536    -7582    -7634    -7861    -7539    -7796    -8326    -8010 
   -7716    -8313    -8490    -7531    -7692    -9363    -9101    -7371 
   -7512    -7834    -7192    -8062    -9121    -8141    -7034    -7495 
   -8355    -7821    -6802    -7817    -9143    -7973    -7202    -8151 
   -7759    -7659    -9487    -9248    -7221    -7314    -8187    -8067 
   -8171    -8156    -7790    -8214    -8473    -7657    -7510    -8210 
   -7608    -6496    -7395    -8843    -8604    -7938    -7855    -8009 
   -8094    -7750    -7807    -8380    -7966    -7491    -8356    -8752 
   -8187    -8240    -8135    -7315    -7299    -8198    -8550    -8037 
   -7986    -8321    -7393    -6392    -7530    -8851    -8206    -8001 
   -9143    -8587    -7206    -7643    -7539    -6529    -7699    -9340 
   -9080    -8499    -8299    -8251    -8305    -7489    -6824    -8016 
   -8644    -7161    -7001    -8695    -8802    -7809    -7897    -7705 
   -6714    -7150    -8877    -9826    -9259    -7204    -5784    -7373 
   -9262    -8430    -7283    -8168    -9302    -8494    -7230    -7869 
   -8463    -7418    -7400    -8587    -8307    -7404    -7618    -7896 
   -8086    -8718    -7817    -6131    -7713   -10212    -8984    -6926 
   -7430    -8537    -8249    -7117    -6733    -7831    -9135    -9175 
   -8158    -7115    -7226    -8471    -8672    -7457    -7006    -7406 
   -8262    -9589    -8985    -7191    -7758    -8511    -7219    -6882 
   -8156    -8993    -9266    -8683    -6633    -5154    -6286    -8754 
  -10100    -9229    -7604    -7557    -8440    -8507    -8151    -8137 
   -8055    -7416    -7250    -8505    -9566    -8729    -7018    -6513 
   -7283    -7859    -8067    -7857    -7067    -7476    -8452    -7520 
   -7056    -8642    -8978    -8226    -9109    -9687    -7986    -7219 
   -8765    -8495    -6131    -6365    -8621    -9223    -8754    -8058 
   -6959    -6845    -7010    -6459    -7213    -9408   -10400    -8753 
   -6864    -7491    -8164    -7384    -8052    -9227    -8174    -7558 
   -9123    -9282    -7686    -7415    -7535    -7056    -7479    -8085 
   -7511    -6916    -8093    -9711    -8772    -6628    -6484    -7738 
   -8746    -9134    -9081    -8783    -7526    -6322    -7244    -8671 
   -8596    -7832    -7484    -8521    -9829    -8699    -6346    -6081 
   -8051    -9867    -9549    -7878    -7384    -8415    -8583    -6646 
   -5247    -6868    -9213    -9536    -8120    -6089    -5961    -8776 
  -10531    -9734    -9198    -7456    -3404    -3095    -8772   -13275 
  -12144    -9327    -7970    -6916    -6745    -7240    -5293    -3724 
   -8353   -14575   -13090    -6274    -3190    -5579    -8808    -8094 
   -4379    -4294    -9155   -12573   -11013    -8345    -8382    -8209 
   -4816    -3588    -9441   -15219   -12874    -7041    -5559    -8101 
   -9855    -9472    -9423    -8985    -5543    -1921    -2358    -5983 
   -9836   -11385    -7857    -1290    -1274   -10779   -16734   -10655 
   -2731    -3150    -9747   -14929   -13919   -10395   -10889   -14041 
  -12710    -4436     3226      838    -9101   -14793   -11179    -5151 
   -4456    -5838    -3557    -2578    -5956    -8013    -8422    -9991 
  -10978   -10258    -8991    -8388    -8418    -8183    -7523    -7003 
   -9855   -16252   -16749    -8573    -2975    -5100    -9296   -10586 
   -8082    -5161    -4452    -3333    -1628    -3447    -6840    -6754 
   -6264    -9414   -12772   -12930    -9736    -5225    -4294    -8095 
  -12247   -13348   -11659    -9729    -8766    -9000   -10017    -8208 
   -4407    -3913    -4738    -5112    -8019    -9776    -8113    -7211 
   -5867    -4421    -7658   -11537   -11342   -11124   -10989    -6442 
   -1336    -3414   -10112   -11958    -8426    -6077    -6112    -7735 
  -10424    -9980    -6577    -5460    -7111   -10129   -13231   -13194 
  -10872    -9200    -7335    -4608    -2660    -3325    -6443    -9429 
   -9509    -6316    -3869    -5373    -8823   -11996   -12845    -9369 
   -4634    -3670    -7898   -13647   -14096    -9184    -6127    -7261 
   -8927    -8162    -5837    -5667    -8162    -9126    -6648    -4222 
   -5613    -9733   -11658    -9740    -7515    -6331    -4683    -3488 
   -4446    -7083   -10251   -12525   -11323    -8856   -11416   -14072 
   -8869    -4141    -6444    -8502    -7758    -6909    -6299    -7759 
  -10008    -8032    -4050    -3766    -5566    -7568   -11438   -12496 
   -6326     -849    -3504    -9472   -12355   -12106   -11191    -9949 
   -7383    -7161   -11661   -12461    -5859    -3049    -7928   -10736 
   -8633    -6436    -5340    -5227    -6237    -7114    -7472    -7369 
   -7103    -8460   -10858   -11013    -8630    -6153    -5472    -6477 
   -7176    -8417   -10997    -9952    -6532    -8468   -11252    -8221 
   -6010    -7850    -8958    -9756   -10571    -8606    -6979    -8525 
   -8463    -5178    -4075    -7118   -10897   -11516    -6625     -425 
   -1507    -8974   -13402   -11433    -6929    -4513    -5864    -8074 
   -9454   -10848   -10288    -7942    -8101   -10582   -11645   -10737 
   -9158    -7098    -5316    -6150    -8938    -8398    -4391    -3457 
   -6016    -7672    -7638    -6544    -6934    -8896    -7180    -5301 
   -9211   -11659    -8914    -7533    -8618    -9715   -10480   -10534 
  -10623    -9975    -7554    -6728    -7904    -7160    -5802    -7283 
   -9196    -7871    -5113    -4878    -6743    -7172    -5711    -5236 
   -7175   -10006   -11090    -9490    -7699    -8124   -10000   -11281 
  -10484    -8928    -8937    -9343    -8775    -7735    -7153    -7404 
   -6493    -5545    -7601    -8487    -5606    -3693    -4423    -6562 
   -9504   -11186   -10488    -8027    -5728    -6747    -9840    -9969 
   -7523    -6918    -8360   -10014   -11512   -11445    -9107    -6400 
   -5435    -6636    -7916    -8202    -8756    -8603    -6841    -5967 
   -7276    -8949    -8058    -4179    -2847    -7280   -11236    -9633 
   -6242    -5837    -7763   -10500   -13933   -13629    -7527    -4675 
   -8451   -10149    -8830    -9161    -8167    -5368    -6231    -8746 
   -7153    -4869    -6237    -6988    -5421    -6242    -8407    -7557 
   -6358    -8357   -11167   -11503    -9834    -9043    -9829    -9721 
   -7981    -7141    -7982    -8426    -8046    -8039    -7773    -6054 
   -4831    -5941    -7186    -7901    -9109    -8750    -7033    -7596 
   -9968   -10088    -7851    -7029    -7924    -8383    -8352    -7892 
   -7578    -8684    -9578    -7902    -5147    -5024    -8179   -10489 
   -8623    -6095    -7267    -9008    -8760    -9007    -8638    -7075 
   -8151   -10287    -9224    -6824    -6520    -7989    -8695    -7919 
   -7296    -6897    -6601    -7668    -8749    -7742    -6018    -6257 
   -8266    -9479    -9967   -10219    -8055    -6034    -8156   -10042 
   -8171    -7149    -9131   -10052    -8905    -8166    -6961    -5545 
   -6511    -7406    -6716    -7344    -8024    -7217    -7515    -8735 
   -8885    -8282    -8012    -8500    -8125    -6743    -7778   -10381 
  -10160    -8002    -7177    -8027    -9236    -9009    -7072    -5737 
   -6150    -7074    -8040    -8361    -7225    -6974    -8657    -9532 
   -8754    -8158    -8240    -7628    -6775    -7758    -8829    -8156 
   -8995   -10488    -8237    -6562    -8721    -8683    -6647    -7294 
   -7177    -5251    -6446    -9602   -10582    -9221    -6833    -5665 
   -7357    -9703    -9614    -7902    -7349    -7719    -8124    -9317 
   -9181    -6779    -6732    -8870    -8598    -7746    -8380    -7581 
   -5636    -6176    -9101   -10189    -7755    -6145    -7858    -8931 
   -7774    -7172    -7784    -8972    -9256    -7805    -7925    -9405 
   -7979    -5954    -6939    -8195    -8151    -8548    -8187    -6670 
   -7646   -10018    -9605    -8368    -8174    -7257    -6559    -7472 
   -9283   -10427    -8665    -5763    -5836    -7245    -7221    -7751 
   -8787    -7647    -6276    -7231    -8418    -9204   -11059   -11160 
   -7577    -5031    -6970   -10154   -10289    -7970    -6041    -5464 
   -7180    -9613    -8488    -5849    -6570    -8625    -8824    -8407 
   -8070    -7389    -7825    -9312    -9016    -7329    -7179    -8094 
   -8664    -9178    -9188    -8135    -6619    -5629    -5953    -7676 
   -9740    -9876    -7334    -5548    -7294    -9749    -9941    -9100 
   -8251    -7427    -7728    -8290    -7395    -7175    -8833    -8743 
   -6705    -7022    -8673    -7940    -6594    -7581    -9761   -10044 
   -7983    -6412    -6691    -8020    -8673    -7411    -7242    -9296 
   -8951    -7214    -8557    -8996    -6037    -5664    -8896   -10297 
   -8484    -6696    -6924    -7844    -8602    -9321    -8352    -6408 
   -7015    -8793    -8665    -8814    -9514    -7701    -6046    -7894 
   -9714    -8734    -6866    -5931    -7144    -9324    -9045    -7254 
   -6312    -6061    -7673    -9894    -8974    -6762    -7056    -8610 
