Origin Time       2025/03/30 21:30:00
Lat.              38.535
Long.             142.295
Depth. (km)       44
Mag.              4.3
Station Code      IWT020
Station Lat.      39.7844
Station Long.     141.3296
Station Height(m) 695
Record Time       2025/03/30 21:31:41
Sampling Freq(Hz) 100Hz
Duration Time(s)  60
Dir.              N-S
Scale Factor      7845(gal)/8223790
Max. Acc. (gal)   1.130
Last Correction   2025/03/30 21:31:41
Memo.             
[...]
  -12514   -12540   -12549   -12555   -12563   -12555   -12518   -12476 
  -12445   -12411   -12379   -12379   -12422   -12459   -12459   -12461 
  -12491   -12505   -12478   -12436   -12405   -12397   -12428   -12478 
  -12501   -12490   -12479   -12490   -12506   -12510   -12505   -12503 
  -12518   -12549   -12564   -12538   -12506   -12518   -12559   -12579 
  -12568   -12540   -12522   -12536   -12575   -12614   -12638   -12630 
  -12591   -12565   -12573   -12568   -12546   -12555   -12577   -12556 
  -12519   -12523   -12557   -12590   -12626   -12646   -12625   -12572 
  -12525   -12491   -12467   -12463   -12478   -12490   -12490   -12484 
  -12474   -12467   -12471   -12464   -12436   -12418   -12413   -12406 
  -12418   -12457   -12483   -12480   -12467   -12437   -12390   -12366 
  -12407   -12483   -12525   -12533   -12545   -12572   -12590   -12577 
  -12556   -12564   -12610   -12664   -12681   -12630   -12529   -12445 
  -12429   -12467   -12513   -12559   -12607   -12660   -12721   -12775 
  -12777   -12725   -12669   -12631   -12573   -12503   -12468   -12463 
  -12449   -12429   -12434   -12463   -12482   -12452   -12387   -12340 
  -12339   -12363   -12406   -12468   -12515   -12541   -12575   -12617 
  -12633   -12600   -12529   -12453   -12399   -12361   -12321   -12290 
  -12299   -12343   -12387   -12421   -12469   -12544   -12600   -12634 
  -12679   -12722   -12742   -12742   -12726   -12703   -12685   -12668 
  -12642   -12606   -12560   -12511   -12472   -12451   -12452   -12486 
  -12530   -12553   -12560   -12576   -12600   -12629   -12658   -12665 
  -12634   -12567   -12482   -12402   -12344   -12322   -12348   -12398 
  -12432   -12440   -12442   -12463   -12496   -12509   -12480   -12447 
  -12440   -12457   -12475   -12479   -12487   -12505   -12506   -12487 
  -12478   -12488   -12496   -12502   -12523   -12545   -12549   -12536 
  -12519   -12533   -12600   -12680   -12712   -12683   -12602   -12501 
  -12432   -12405   -12380   -12361   -12384   -12440   -12502   -12569 
  -12627   -12667   -12704   -12742   -12749   -12711   -12657   -12607 
  -12549   -12490   -12460   -12457   -12463   -12495   -12548   -12586 
  -12600   -12579   -12505   -12433   -12414   -12402   -12370   -12363 
  -12388   -12417   -12456   -12509   -12544   -12548   -12544   -12532 
  -12495   -12460   -12449   -12448   -12451   -12483   -12522   -12544 
  -12580   -12627   -12625   -12555   -12475   -12436   -12432   -12447 
  -12491   -12560   -12617   -12653   -12663   -12625   -12561   -12521 
  -12510   -12514   -12522   -12499   -12444   -12424   -12455   -12491 
  -12540   -12641   -12746   -12779   -12750   -12710   -12636   -12502 
  -12359   -12278   -12256   -12259   -12305   -12422   -12541   -12569 
  -12518   -12459   -12422   -12415   -12433   -12464   -12502   -12541 
  -12576   -12618   -12654   -12658   -12657   -12680   -12688   -12646 
  -12590   -12550   -12505   -12440   -12405   -12437   -12502   -12534 
  -12533   -12549   -12584   -12604   -12609   -12599   -12577   -12540 
  -12483   -12442   -12456   -12492   -12521   -12518   -12472   -12413 
  -12374   -12357   -12379   -12438   -12492   -12511   -12528   -12559 
  -12579   -12596   -12638   -12684   -12695   -12654   -12575   -12496 
  -12437   -12393   -12364   -12349   -12361   -12407   -12456   -12475 
  -12479   -12505   -12568   -12663   -12752   -12788   -12785   -12777 
  -12749   -12677   -12568   -12456   -12384   -12374   -12405   -12430 
  -12407   -12353   -12322   -12341   -12395   -12444   -12465   -12479 
  -12507   -12549   -12596   -12622   -12598   -12545   -12505   -12465 
  -12428   -12410   -12406   -12401   -12402   -12429   -12506   -12634 
  -12765   -12850   -12869   -12827   -12753   -12672   -12595   -12522 
  -12456   -12405   -12393   -12422   -12468   -12494   -12483   -12457 
  -12444   -12449   -12468   -12499   -12541   -12580   -12604   -12623 
  -12630   -12607   -12572   -12555   -12528   -12463   -12399   -12397 
  -12424   -12437   -12434   -12414   -12387   -12390   -12415   -12425 
  -12426   -12448   -12471   -12488   -12513   -12536   -12529   -12513 
  -12509   -12515   -12519   -12523   -12552   -12611   -12667   -12687 
  -12664   -12618   -12590   -12586   -12592   -12622   -12687   -12739 
  -12742   -12702   -12615   -12496   -12421   -12429   -12461   -12479 
  -12510   -12552   -12571   -12577   -12579   -12567   -12549   -12538 
  -12540   -12552   -12576   -12613   -12637   -12614   -12546   -12445 
  -12310   -12198   -12171   -12209   -12272   -12348   -12403   -12426 
  -12428   -12407   -12383   -12380   -12390   -12395   -12409   -12433 
  -12460   -12488   -12538   -12590   -12591   -12546   -12510   -12491 
  -12495   -12546   -12619   -12642   -12619   -12619   -12641   -12640 
  -12629   -12648   -12706   -12779   -12829   -12841   -12850   -12864 
  -12830   -12737   -12645   -12599   -12579   -12561   -12540   -12509 
  -12472   -12430   -12384   -12337   -12289   -12255   -12248   -12272 
  -12336   -12422   -12503   -12569   -12619   -12614   -12549   -12482 
  -12422   -12336   -12251   -12222   -12244   -12293   -12360   -12429 
  -12453   -12425   -12393   -12382   -12378   -12403   -12488   -12594 
  -12671   -12722   -12749   -12745   -12737   -12753   -12769   -12750 
  -12702   -12661   -12633   -12594   -12546   -12525   -12536   -12548 
  -12529   -12495   -12498   -12550   -12607   -12618   -12573   -12521 
  -12502   -12506   -12506   -12491   -12474   -12490   -12536   -12577 
  -12595   -12567   -12494   -12413   -12353   -12341   -12366   -12388 
  -12407   -12432   -12457   -12483   -12515   -12541   -12538   -12514 
  -12490   -12463   -12449   -12474   -12507   -12530   -12553   -12571 
  -12584   -12586   -12550   -12509   -12490   -12468   -12440   -12441 
  -12488   -12555   -12623   -12681   -12719   -12742   -12745   -12708 
  -12642   -12572   -12501   -12463   -12468   -12460   -12422   -12413 
  -12453   -12505   -12542   -12576   -12603   -12599   -12573   -12548 
  -12519   -12486   -12453   -12438   -12468   -12517   -12533   -12533 
  -12544   -12545   -12541   -12548   -12557   -12555   -12529   -12467 
  -12366   -12278   -12270   -12321   -12390   -12453   -12490   -12491 
  -12501   -12561   -12641   -12677   -12672   -12652   -12618   -12567 
  -12522   -12506   -12498   -12474   -12451   -12434   -12413   -12407 
  -12432   -12467   -12494   -12495   -12463   -12441   -12480   -12569 
  -12661   -12715   -12727   -12708   -12676   -12652   -12640   -12623 
  -12582   -12513   -12452   -12432   -12417   -12379   -12355   -12395 
  -12471   -12519   -12564   -12646   -12700   -12664   -12586   -12521 
  -12468   -12445   -12475   -12517   -12521   -12521   -12553   -12564 
  -12514   -12426   -12328   -12251   -12255   -12374   -12542   -12672 
  -12765   -12869   -12960   -12985   -12947   -12884   -12806   -12688 
  -12528   -12368   -12249   -12177   -12168   -12229   -12299   -12317 
  -12297   -12275   -12245   -12212   -12217   -12264   -12333   -12436 
  -12555   -12631   -12646   -12640   -12649   -12652   -12607   -12534 
  -12475   -12405   -12306   -12231   -12199   -12185   -12194   -12263 
  -12405   -12602   -12806   -12930   -12943   -12916   -12899   -12868 
  -12839   -12849   -12858   -12819   -12766   -12734   -12710   -12675 
  -12669   -12714   -12757   -12761   -12710   -12594   -12463   -12402 
  -12430   -12471   -12445   -12355   -12256   -12174   -12077   -11962 
  -11890   -11909   -11990   -12093   -12206   -12328   -12452   -12575 
  -12695   -12793   -12850   -12888   -12942   -13022   -13099   -13109 
  -13015   -12849   -12650   -12426   -12181   -11959   -11793   -11686 
  -11659   -11753   -11948   -12197   -12483   -12758   -12941   -13019 
  -13031   -13003   -12972   -12969   -12972   -12946   -12906   -12861 
  -12783   -12654   -12538   -12510   -12546   -12545   -12445   -12267 
  -12078   -11971   -11996   -12114   -12287   -12496   -12695   -12818 
  -12838   -12742   -12568   -12434   -12407   -12436   -12467   -12529 
  -12646   -12775   -12858   -12869   -12816   -12745   -12691   -12630 
  -12510   -12324   -12101   -11888   -11767   -11817   -12004   -12216 
  -12409   -12594   -12729   -12748   -12652   -12491   -12324   -12206 
  -12159   -12202   -12353   -12564   -12761   -12920   -13012   -12995 
  -12879   -12731   -12595   -12444   -12274   -12156   -12156   -12264 
  -12413   -12557   -12676   -12787   -12934   -13073   -13095   -12991 
  -12858   -12752   -12671   -12633   -12618   -12595   -12588   -12610 
  -12595   -12499   -12356   -12226   -12155   -12159   -12232   -12352 
  -12501   -12658   -12792   -12839   -12756   -12560   -12333   -12159 
  -12074   -12060   -12102   -12190   -12316   -12448   -12540   -12579 
  -12598   -12614   -12599   -12501   -12347   -12256   -12297   -12394 
  -12456   -12474   -12471   -12468   -12499   -12613   -12806   -12955 
  -12947   -12806   -12634   -12506   -12447   -12469   -12564   -12649 
  -12664   -12625   -12557   -12488   -12456   -12452   -12456   -12474 
  -12515   -12577   -12658   -12760   -12853   -12869   -12812   -12754 
  -12698   -12592   -12453   -12344   -12271   -12217   -12210   -12264 
  -12333   -12386   -12438   -12496   -12563   -12654   -12752   -12795 
  -12761   -12673   -12587   -12550   -12538   -12503   -12440   -12372 
  -12307   -12244   -12172   -12108   -12114   -12202   -12280   -12317 
  -12359   -12432   -12540   -12668   -12783   -12854   -12887   -12879 
  -12819   -12715   -12613   -12530   -12464   -12436   -12456   -12505 
  -12586   -12684   -12725   -12702   -12685   -12683   -12619   -12467 
  -12307   -12217   -12189   -12194   -12220   -12244   -12243   -12195 
  -12104   -12006   -11982   -12085   -12289   -12568   -12916   -13275 
  -13520   -13560   -13410   -13163   -12910   -12690   -12502   -12316 
  -12129   -12000   -11970   -12032   -12155   -12317   -12475   -12580 
  -12625   -12664   -12733   -12812   -12895   -12995   -13115   -13211 
  -13225   -13151   -12992   -12764   -12530   -12361   -12280   -12264 
  -12271   -12283   -12289   -12258   -12154   -12006   -11920   -11961 
  -12069   -12137   -12145   -12160   -12190   -12194   -12168   -12156 
  -12187   -12278   -12399   -12492   -12545   -12598   -12631   -12622 
  -12602   -12602   -12594   -12545   -12465   -12413   -12461   -12629 
  -12841   -13001   -13069   -13028   -12900   -12756   -12645   -12603 
  -12664   -12829   -13045   -13225   -13304   -13270   -13153   -12985 
  -12783   -12560   -12353   -12204   -12121   -12079   -12066   -12077 
  -12096   -12131   -12232   -12434   -12696   -12923   -13016   -12935 
  -12734   -12509   -12275   -12023   -11785   -11601   -11489   -11461 
  -11530   -11711   -11986   -12285   -12540   -12738   -12910   -13046 
  -13072   -12964   -12816   -12704   -12631   -12615   -12649   -12661 
  -12606   -12514   -12414   -12321   -12270   -12307   -12457   -12679 
  -12897   -13072   -13182   -13211   -13161   -13054   -12904   -12719 
  -12514   -12352   -12298   -12325   -12382   -12449   -12476   -12426 
  -12384   -12442   -12552   -12627   -12665   -12675   -12656   -12646 
  -12654   -12636   -12588   -12526   -12430   -12324   -12279   -12336 
  -12420   -12441   -12414   -12421   -12469   -12479   -12402   -12279 
  -12171   -12090   -12016   -11963   -11985   -12090   -12222   -12318 
  -12361   -12368   -12357   -12375   -12479   -12663   -12841   -12947 
  -13007   -13065   -13103   -13057   -12907   -12733   -12638   -12645 
  -12664   -12629   -12559   -12476   -12393   -12326   -12279   -12244 
  -12249   -12334   -12483   -12630   -12756   -12870   -12962   -13020 
  -13034   -12965   -12838   -12734   -12688   -12653   -12586   -12501 
  -12424   -12352   -12287   -12217   -12145   -12110   -12125   -12152 
  -12174   -12193   -12239   -12357   -12538   -12711   -12808   -12804 
  -12698   -12532   -12374   -12256   -12199   -12222   -12280   -12321 
  -12372   -12499   -12672   -12779   -12769   -12696   -12614   -12564 
  -12565   -12569   -12518   -12428   -12336   -12263   -12217   -12208 
  -12233   -12289   -12320   -12289   -12268   -12351   -12522   -12730 
  -12958   -13166   -13296   -13360   -13397   -13365   -13221   -13032 
  -12877   -12758   -12622   -12424   -12199   -12037   -11979   -12006 
  -12086   -12204   -12348   -12499   -12626   -12742   -12870   -12968 
  -12972   -12854   -12650   -12452   -12321   -12221   -12110   -12033 
  -12040   -12082   -12075   -12012   -11950   -11985   -12150   -12361 
  -12513   -12575   -12560   -12486   -12387   -12329   -12352   -12421 
  -12478   -12488   -12453   -12394   -12371   -12420   -12478   -12486 
  -12488   -12544   -12636   -12734   -12854   -13011   -13157   -13197 
  -13115   -13027   -13020   -13036   -12993   -12892   -12780   -12706 
  -12694   -12754   -12862   -12938   -12892   -12722   -12519   -12387 
  -12348   -12384   -12449   -12478   -12445   -12386   -12328   -12287 
  -12274   -12276   -12274   -12255   -12220   -12172   -12136   -12132 
  -12135   -12109   -12048   -11959   -11886   -11878   -11932   -12012 
  -12112   -12251   -12417   -12536   -12530   -12406   -12268   -12221 
  -12275   -12388   -12544   -12722   -12880   -12987   -13059   -13135 
  -13209   -13225   -13178   -13147   -13155   -13153   -13104   -13036 
  -13022   -13081   -13119   -13031   -12834   -12600   -12394   -12255 
  -12170   -12113   -12143   -12344   -12694   -13054   -13297   -13366 
  -13261   -13019   -12700   -12345   -11978   -11654   -11435   -11337 
  -11353   -11457   -11577   -11669   -11780   -11940   -12082   -12152 
  -12197   -12264   -12353   -12449   -12541   -12626   -12700   -12753 
  -12792   -12819   -12780   -12633   -12467   -12382   -12349   -12329 
  -12370   -12478   -12611   -12776   -12968   -13127   -13240   -13347 
  -13405   -13336   -13169   -13008   -12891   -12789   -12680   -12549 
  -12422   -12372   -12436   -12568   -12665   -12669   -12591   -12474 
  -12386   -12390   -12460   -12505   -12482   -12432   -12407   -12402 
  -12387   -12347   -12282   -12197   -12125   -12109   -12141   -12171 
  -12198   -12267   -12375   -12478   -12536   -12552   -12563   -12541 
  -12444   -12320   -12248   -12228   -12245   -12343   -12503   -12613 
  -12606   -12536   -12486   -12505   -12575   -12656   -12726   -12764 
  -12757   -12729   -12721   -12753   -12825   -12927   -13035   -13108 
  -13100   -12991   -12793   -12533   -12249   -12024   -11931   -11965 
  -12063   -12170   -12270   -12380   -12515   -12665   -12783   -12820 
  -12812   -12837   -12879   -12861   -12772   -12657   -12550   -12440 
  -12291   -12120   -12001   -11969   -11992   -12051   -12145   -12249 
  -12341   -12434   -12550   -12687   -12793   -12819   -12793   -12798 
  -12823   -12795   -12711   -12644   -12621   -12604   -12564   -12515 
  -12491   -12480   -12451   -12405   -12363   -12337   -12360   -12463 
  -12580   -12626   -12595   -12528   -12456   -12406   -12382   -12366 
  -12368   -12402   -12474   -12565   -12650   -12708   -12734   -12735 
  -12710   -12658   -12598   -12541   -12487   -12437   -12391   -12349 
  -12340   -12397   -12496   -12573   -12598   -12588   -12588   -12644 
  -12729   -12793   -12826   -12822   -12766   -12653   -12478   -12286 
  -12167   -12151   -12197   -12260   -12301   -12317   -12351   -12411 
  -12484   -12556   -12592   -12582   -12567   -12564   -12541   -12506 
  -12514   -12568   -12613   -12634   -12663   -12698   -12711   -12688 
  -12626   -12526   -12440   -12425   -12442   -12406   -12326   -12276 
  -12282   -12312   -12332   -12329   -12312   -12309   -12339   -12383 
  -12434   -12498   -12572   -12650   -12750   -12883   -12996   -13015 
  -12927   -12811   -12754   -12762   -12764   -12706   -12604   -12510 
  -12441   -12399   -12393   -12401   -12397   -12397   -12417   -12422 
  -12401   -12414   -12502   -12634   -12777   -12903   -12955   -12900 
  -12753   -12561   -12370   -12198   -12073   -12016   -11992   -11959 
  -11944   -11989   -12102   -12266   -12421   -12511   -12548   -12586 
  -12640   -12700   -12787   -12906   -12995   -12996   -12924   -12823 
  -12707   -12577   -12467   -12421   -12456   -12518   -12544   -12544 
  -12538   -12536   -12534   -12521   -12509   -12534   -12583   -12630 
  -12685   -12733   -12752   -12752   -12733   -12653   -12498   -12321 
  -12191   -12140   -12147   -12186   -12251   -12318   -12371   -12415 
  -12457   -12475   -12452   -12387   -12297   -12231   -12213   -12231 
  -12278   -12363   -12452   -12509   -12541   -12580   -12654   -12762 
  -12876   -12955   -12985   -12966   -12914   -12852   -12808   -12773 
  -12710   -12631   -12584   -12564   -12528   -12471   -12421   -12401 
  -12411   -12442   -12476   -12521   -12603   -12730   -12861   -12941 
  -12939   -12873   -12757   -12592   -12410   -12276   -12182   -12082 
  -11996   -11977   -12024   -12086   -12109   -12070   -11998   -11962 
  -12005   -12108   -12239   -12410   -12603   -12758   -12847   -12868 
  -12819   -12725   -12633   -12567   -12540   -12550   -12587   -12621 
  -12631   -12627   -12630   -12642   -12676   -12727   -12765   -12768 
  -12754   -12772   -12834   -12889   -12895   -12874   -12854   -12811 
  -12737   -12646   -12544   -12452   -12401   -12398   -12405   -12387 
  -12337   -12266   -12198   -12171   -12199   -12240   -12272   -12314 
  -12363   -12403   -12426   -12420   -12370   -12301   -12272   -12329 
  -12449   -12568   -12637   -12660   -12660   -12644   -12626   -12596 
  -12544   -12503   -12510   -12555   -12609   -12631   -12607   -12563 
  -12534   -12533   -12538   -12523   -12496   -12501   -12557   -12627 
  -12650   -12614   -12567   -12541   -12521   -12495   -12492   -12517 
  -12532   -12532   -12532   -12526   -12511   -12518   -12568   -12634 
  -12681   -12700   -12685   -12638   -12575   -12507   -12442   -12403 
  -12403   -12430   -12469   -12511   -12553   -12599   -12627   -12603 
  -12525   -12429   -12340   -12279   -12289   -12355   -12411   -12432 
  -12440   -12468   -12523   -12591   -12648   -12684   -12668   -12584 
  -12478   -12395   -12378   -12438   -12519   -12565   -12599   -12641 
  -12653   -12611   -12529   -12426   -12334   -12305   -12347   -12415 
  -12484   -12571   -12672   -12731   -12721   -12667   -12611   -12573 
  -12561   -12560   -12532   -12475   -12425   -12391   -12370   -12382 
  -12425   -12478   -12523   -12553   -12567   -12573   -12584   -12598 
  -12611   -12606   -12582   -12557   -12540   -12528   -12532   -12556 
  -12586   -12618   -12654   -12675   -12676   -12691   -12739   -12810 
  -12864   -12856   -12787   -12676   -12530   -12372   -12248   -12160 
  -12077   -12000   -11975   -12016   -12087   -12167   -12252   -12356 
  -12479   -12568   -12594   -12580   -12552   -12510   -12476   -12463 
  -12449   -12420   -12402   -12415   -12441   -12455   -12464   -12491 
  -12544   -12609   -12663   -12706   -12753   -12795   -12819   -12818 
  -12785   -12741   -12718   -12717   -12718   -12723   -12741   -12768 
  -12798   -12820   -12819   -12788   -12738   -12676   -12607   -12540 
  -12469   -12397   -12339   -12318   -12329   -12324   -12291   -12289 
  -12330   -12368   -12382   -12380   -12383   -12395   -12384   -12316 
  -12213   -12141   -12125   -12143   -12174   -12206   -12210   -12187 
