Origin Time       2025/03/30 21:30:00
Lat.              38.535
Long.             142.295
Depth. (km)       44
Mag.              4.3
Station Code      IWT012
Station Lat.      39.3206
Station Long.     141.1388
Station Height(m) 62
Record Time       2025/03/30 21:31:31
Sampling Freq(Hz) 100Hz
Duration Time(s)  62
Dir.              E-W
Scale Factor      7845(gal)/8223790
Max. Acc. (gal)   4.657
Last Correction   2025/03/30 21:31:30
Memo.             
[...]
    1559     1642     1530     1483     1587     1574     1321     1009 
     949     1177     1224      857      530      745     1314     1644 
    1640     1588     1610     1660     1525     1239     1086     1038 
    1012     1081     1161     1178     1171     1189     1291     1424 
    1422     1290     1286     1570     1792     1467      822      552 
     803     1163     1310     1293     1273     1263     1317     1464 
    1556     1545     1528     1514     1410     1173      839      585 
     637      950     1310     1547     1534     1385     1290     1302 
    1433     1506     1324     1008      846      996     1237     1229 
    1088     1171     1476     1637     1478     1246     1178     1250 
    1386     1483     1366     1001      688      733     1019     1246 
    1327     1345     1444     1624     1675     1530     1364     1389 
    1564     1468     1011      688      772      996      997      943 
    1247     1680     1765     1545     1371     1362     1377     1408 
    1449     1327     1092      916      858      958     1131     1271 
    1316     1236     1201     1324     1517     1659     1617     1418 
    1175      974      986     1163     1212     1038      781      743 
    1011     1273     1382     1410     1386     1441     1582     1613 
    1493     1318     1194     1170     1135     1040     1031     1123 
    1181     1174     1158     1144     1156     1283     1470     1539 
    1549     1564     1482     1327     1178     1165     1302     1325 
    1112      805      573      629      977     1314     1532     1722 
    1840     1880     1819     1582     1289     1024      796      716 
     720      747      924     1166     1340     1507     1649     1756 
    1918     2007     1860     1507     1071      765      673      656 
     664      684      702      872     1154     1310     1447     1719 
    2004     2168     2106     1831     1497     1154      783      436 
     275      360      526      727     1082     1470     1665     1813 
    2062     2208     2074     1714     1306      984      703      457 
     328      414      796     1270     1522     1642     1856     2022 
    1942     1669     1389     1304     1317     1136      834      618 
     553      692      899      963      970     1131     1557     2142 
    2505     2393     1937     1416     1015      805      703      530 
     387      564      972     1254     1387     1618     1892     1934 
    1748     1552     1448     1327     1038      666      452      450 
     627     1007     1383     1566     1707     1849     1872     1799 
    1656     1455     1269     1151     1078      970      839      760 
     699      661      780     1059     1381     1686     1873     1869 
    1723     1499     1252     1066      980      893      803      907 
    1213     1435     1391     1215     1094     1081     1197     1336 
    1320     1263     1340     1501     1634     1632     1514     1364 
    1216     1171     1193     1169     1057      799      648      878 
    1260     1539     1634     1578     1628     1780     1690     1356 
    1125     1089     1050      927      855      915     1054     1194 
    1308     1464     1601     1610     1609     1622     1505     1263 
    1008      869      884      951      990      976      992     1177 
    1479     1656     1553     1325     1219     1308     1479     1561 
    1468     1213      954      878      943     1034     1128     1175 
    1159     1150     1162     1236     1422     1570     1564     1491 
    1391     1310     1204      963      788      858     1053     1244 
    1363     1397     1399     1381     1358     1390     1452     1460 
    1417     1308     1093      928      973     1143     1289     1333 
    1317     1370     1429     1337     1155     1030     1057     1158 
    1277     1505     1718     1748     1676     1547     1354     1208 
    1154     1046      792      610      741      994     1063     1057 
    1206     1451     1655     1737     1611     1351     1143     1055 
    1035     1011     1062     1309     1568     1572     1412     1304 
    1287     1323     1367     1296     1034      805      877     1054 
    1038      972     1074     1283     1439     1467     1448     1475 
    1555     1710     1826     1680     1362     1136     1019      922 
     869      846      778      726      815      981     1165     1390 
    1587     1742     1845     1827     1765     1692     1553     1344 
    1104      916      768      608      577      796     1159     1452 
    1563     1541     1436     1347     1439     1571     1530     1367 
    1146      896      704      696      972     1318     1482     1548 
    1599     1632     1661     1582     1404     1255     1129     1047 
     972      850      866     1032     1119     1163     1289     1410 
    1444     1426     1404     1372     1345     1372     1420     1397 
    1328     1202      994      893      918      946     1044     1144 
    1156     1189     1298     1524     1715     1637     1449     1335 
    1228     1166     1125      990      866      912     1109     1368 
    1522     1533     1607     1655     1463     1217     1067     1000 
    1053     1074      992      994     1115     1344     1617     1669 
    1509     1356     1296     1337     1314     1129     1046     1102 
    1125     1224     1412     1497     1462     1363     1247     1158 
    1012      816      762      853      986     1175     1393     1568 
    1709     1807     1798     1706     1593     1350      935      591 
     541      696      851     1004     1225     1425     1534     1667 
    1822     1852     1722     1493     1247     1040      828      646 
     583      641      869     1204     1487     1741     1883     1767 
    1563     1429     1360     1300     1177     1065     1004      874 
     735      749      926     1212     1507     1710     1763     1665 
    1545     1468     1366     1233     1139     1108     1078     1028 
    1023     1063     1090     1120     1221     1367     1441     1366 
    1194     1147     1359     1624     1711     1642     1522     1378 
    1144      843      669      662      670      666      793     1163 
    1629     1918     1992     1960     1818     1580     1324     1062 
     855      827      930      986      919      792      778      984 
    1333     1686     1817     1678     1561     1572     1556     1494 
    1416     1293     1061      733      504      529      734      955 
    1097     1227     1467     1798     2049     2122     2052     1831 
    1529     1282     1057      811      583      394      359      473 
     660      999     1463     1903     2231     2331     2205     1977 
    1691     1347      967      604      379      372      548      803 
    1032     1244     1517     1784     1872     1782     1661     1534 
    1335     1125      972      872      874      930      965     1053 
    1233     1440     1587     1574     1431     1323     1232     1128 
    1129     1186     1144     1007      900     1011     1318     1560 
    1615     1601     1547     1374     1138      918      769      765 
     874     1040     1190     1264     1352     1455     1545     1713 
    1846     1776     1567     1350     1212     1152     1107     1107 
    1109      967      800      832     1057     1323     1452     1487 
    1593     1672     1618     1478     1285     1165     1150     1044 
     810      692      843     1171     1479     1594     1547     1530 
    1564     1556     1507     1356     1105      939      892      877 
     889      999     1212     1332     1313     1320     1317     1293 
    1351     1398     1343     1225     1109     1071     1170     1351 
    1507     1572     1486     1313     1220     1190     1155     1123 
    1034      959     1069     1275     1386     1366     1339     1404 
    1406     1248     1073      954      950     1161     1426     1525 
    1559     1660     1723     1638     1393     1121      973      900 
     841      766      733      896     1152     1310     1440     1584 
    1717     1768     1593     1294     1112     1034      999     1063 
    1189     1258     1269     1275     1270     1290     1370     1395 
    1337     1327     1356     1327     1250     1163     1088     1065 
    1129     1216     1177     1078     1102     1198     1301     1429 
    1460     1335     1227     1247     1379     1551     1564     1348 
    1100      984     1015     1092     1069      927      831      963 
    1258     1424     1387     1385     1561     1757     1796     1698 
    1494     1193      903      753      801      989     1189     1318 
    1364     1352     1358     1394     1408     1355     1198     1026 
     992     1084     1240     1363     1336     1327     1501     1656 
    1602     1412     1219     1098     1007      859      687      541 
     572      927     1482     1934     2072     1926     1719     1609 
    1541     1309      912      591      496      611      812      993 
    1147     1254     1366     1579     1809     1948     1979     1850 
    1601     1325     1007      723      657      731      772      797 
     839      972     1321     1692     1815     1772     1717     1702 
    1722     1641     1347      969      753      785      951     1080 
    1148     1173     1131     1192     1391     1490     1487     1486 
    1458     1409     1289     1147     1131     1146     1044      855 
     695      729      996     1339     1590     1688     1721     1794 
    1830     1726     1490     1202      953      733      535      426 
     406      514      814     1154     1422     1671     1815     1827 
    1894     2010     1964     1696     1312      936      669      491 
     387      541      957     1374     1680     1823     1837     1884 
    1892     1694     1305      891      688      729      862      992 
    1053     1132     1317     1445     1486     1568     1651     1686 
    1663     1551     1394     1201      980      873      899      912 
     959     1142     1296     1239     1027      935     1200     1599 
    1794     1817     1814     1756     1552     1275     1050      787 
     530      461      502      645      976     1327     1590     1848 
    2039     2012     1769     1494     1260      955      661      581 
     668      758      768      842     1233     1760     2018     1956 
    1717     1493     1375     1225     1003      862      869      969 
    1093     1182     1201     1248     1464     1760     1900     1738 
    1413     1206     1086      934      851      837      891     1138 
    1463     1696     1794     1728     1568     1401     1251     1115 
     932      750      696      754      834      951     1220     1644 
    1976     2006     1844     1653     1451     1260     1115      988 
     884      861      909      967      999      966      994     1167 
    1279     1216     1062      942     1036     1374     1634     1525 
    1320     1414     1645     1702     1567     1370     1209     1105 
    1139     1372     1601     1541     1197      850      760      807 
     783      814      950     1097     1341     1657     1879     1958 
    1904     1737     1471     1138      865      780      837      909 
     982     1120     1348     1657     1981     2146     1944     1429 
     973      724      606      656      772      733      621      626 
     756      915     1092     1341     1753     2299     2659     2573 
    2201     1815     1466     1127      787      511      453      571 
     679      793      919     1015     1165     1372     1591     1714 
    1625     1482     1412     1344     1260     1093      799      552 
     558      865     1355     1833     2097     2123     2107     2076 
    1899     1649     1359      908      396       67       32      278 
     702     1100     1266     1224     1217     1424     1815     2096 
    1984     1651     1386     1250     1266     1344     1270     1062 
     949     1030     1128     1078      986      974     1038     1185 
    1339     1412     1474     1522     1516     1418     1182      924 
     835      993     1298     1534     1640     1705     1765     1728 
    1611     1540     1394     1096      841      724      691      680 
     683      715      750      861     1183     1576     1776     1769 
    1687     1606     1584     1587     1520     1364     1208     1134 
    1027      796      657      768      969     1021      939      999 
    1232     1390     1393     1279     1200     1308     1393     1277 
    1151     1090     1051     1135     1433     1917     2404     2666 
    2674     2569     2430     2219     1921     1493      924      399 
      90       45      224      461      734     1044     1275     1551 
    1952     2296     2420     2182     1649     1132      766      571 
     572      588      498      410      394      523      873     1440 
    2065     2354     2060     1287      426      -43      -76       14 
     -32     -283     -417     -120      531     1379     2222     2853 
    3226     3196     2648     1868     1254      903      746      707 
     865     1347     1968     2488     2740     2381     1410      429 
    -139     -307     -257     -211     -135      305     1239     2347 
    3187     3628     3805     3609     2812     1526      149     -854 
   -1198    -1024     -715     -356      413     1872     3778     5452 
    6134     5506     3931     2107      504     -785    -1737    -2247 
   -2278    -1934    -1290     -291     1151     2902     4417     5115 
    4866     3910     2636     1382      328     -453     -943    -1031 
    -618      143     1011     1698     1948     1964     2104     2239 
    2016     1425      653     -233    -1092    -1657    -1782    -1366 
    -340     1136     2498     3086     2999     2975     3215     3315 
    2997     2263     1356      649      236       -8       44      526 
    1188     1738     2049     2000     1687     1444     1375     1232 
     777       89     -427     -368      338     1370     2282     2990 
    3569     3848     3769     3426     2805     1998     1156      360 
    -135     -232     -330     -683    -1028    -1021     -598      -17 
     422      835     1579     2612     3510     4045     4240     4095 
    3557     2469      893     -704    -1806    -2128    -1860    -1374 
    -758       25      954     1958     2830     3376     3667     3784 
    3485     2563     1321      263     -280     -139      437      820 
     681      298      321     1063     2025     2455     2243     1989 
    2083     2239     2041     1335      446       33      298      839 
    1228     1337     1297     1308     1483     1707     1748     1588 
    1401     1374     1637     2004     2077     1699     1069      612 
     571      558      221      -97      -48      151      245      535 
    1452     2641     3326     3226     2682     2297     2303     2316 
    1941     1035     -217    -1090     -981     -199      507      889 
    1256     1786     2259     2448     2443     2511     2612     2323 
    1397      284     -421     -749     -778     -328      457     1348 
    2330     3181     3562     3342     2637     1729      892      427 
     448      409     -270    -1210    -1534     -845      511     1803 
    2609     2925     2767     2467     2551     2918     3037     2587 
    1613      467     -518    -1047     -949     -537     -151      302 
    1021     1960     2717     2995     2864     2504     2232     2165 
    1999     1733     1640     1615     1406     1053      793      625 
     303      -21      -52       35       36       63      306      904 
    1733     2478     3002     3275     3223     2749     1876      957 
     332       54       94      291      569     1097     1695     1884 
    1540      783      -93     -554     -471     -210       72      544 
    1377     2519     3569     4108     4054     3589     2952     2187 
    1183      133     -527     -770     -882     -903     -575      306 
    1514     2457     2874     3133     3454     3462     2862     1822 
     600     -387     -645     -263      261      687     1181     2087 
    3281     4075     4133     3597     2602     1352      129     -799 
   -1305    -1547    -1599    -1332     -799     -156      646     1610 
    2361     2520     2254     1965     1717     1572     1703     1919 
    1971     1850     1524     1013      552      275       54     -217 
    -263      179      896     1551     1966     2174     2251     2115 
    1833     1669     1768     2103     2461     2700     2920     3045 
    2822     2199     1351      495     -174     -464     -376      -87 
     371      908     1341     1655     1876     2178     2702     3064 
    2832     2123     1296      588       93     -247     -548     -778 
    -676     -101      557      919     1115     1333     1579     1817 
    2060     2362     2556     2362     1813     1097      387     -118 
    -322     -180      252      679     1001     1371     1755     2151 
    2490     2405     1900     1273      622      233      314      558 
     872     1345     1875     2462     2925     2953     2685     2373 
    2035     1614     1055      487      275      567     1077     1317 
    1017      592      675     1189     1605     1603     1254      955 
     920      892      722      658      882     1240     1468     1543 
    1678     1945     2123     2073     1848     1505     1201     1024 
     780      446      166      -76     -162        8      276      645 
    1170     1755     2289     2565     2448     2097     1756     1651 
    1814     2002     1980     1705     1364     1260     1337     1235 
     950      814      837      781      600      405      415      880 
    1541     1807     1690     1653     1844     2079     2127     1942 
    1637     1302      992      681      429      302      155       17 
     183      627     1092     1503     1798     1838     1557     1088 
     845     1112     1540     1497      835      139       83      679 
    1440     1953     2197     2527     3013     3129     2455     1362 
     558      175      -17      -37      149      544     1081     1572 
    1846     2026     2420     2884     3038     2863     2430     1799 
    1059      209     -541     -823     -530      183     1055     1844 
    2388     2586     2447     2027     1460      989      712      599 
     662      881     1085     1050      839      723      760      913 
    1120     1224     1165     1104     1354     1860     2020     1663 
    1233      859      461      114     -236     -498     -356      253 
    1192     2165     2762     2907     2855     2798     2741     2454 
    1782     1000      498      338      310      437      930     1660 
    2305     2681     2663     2232     1590     1003      585      325 
      90     -171     -167      325     1097     1906     2560     2798 
    2515     1910     1406     1205     1084      946      804      573 
     363      290      432      974     1655     1952     1827     1495 
    1146      880      639      514      596      726      984     1621 
    2332     2621     2423     1912     1360     1007      838      753 
     747      789      739      654      831     1279     1744     2191 
