Origin Time       2025/03/30 21:30:00
Lat.              38.535
Long.             142.295
Depth. (km)       44
Mag.              4.3
Station Code      IWT026
Station Lat.      39.2569
Station Long.     141.0983
Station Height(m) 76
Record Time       2025/03/30 21:31:33
Sampling Freq(Hz) 100Hz
Duration Time(s)  60
Dir.              N-S
Scale Factor      7845(gal)/8223790
Max. Acc. (gal)   2.822
Last Correction   2025/03/30 21:31:32
Memo.             
  -17952   -17644   -17595   -17778   -17988   -18092   -18184   -18274 
  -18243   -18208   -18218   -18106   -17959   -17921   -17845   -17680 
  -17707   -17964   -18050   -17841   -17713   -17905   -18231   -18369 
  -18256   -18130   -18099   -18098   -18052   -17818   -17520   -17574 
  -17946   -18137   -18004   -17879   -17946   -18094   -18249   -18364 
  -18296   -18098   -17995   -17987   -17887   -17651   -17496   -17618 
  -17859   -17961   -18002   -18148   -18310   -18314   -18094   -17799 
  -17764   -18019   -18252   -18316   -18216   -17926   -17655   -17652 
  -17706   -17540   -17362   -17594   -18287   -18885   -18856   -18378 
  -17971   -17836   -17837   -17782   -17593   -17424   -17447   -17554 
  -17658   -17875   -18156   -18327   -18342   -18273   -18312   -18473 
  -18373   -17892   -17649   -17938   -18052   -17628   -17296   -17456 
  -17790   -17969   -17983   -17928   -17964   -18219   -18500   -18457 
  -18145   -17979   -18038   -18034   -17946   -17961   -17977   -17814 
  -17652   -17717   -17859   -17957   -18119   -18250   -18161   -17967 
  -17906   -18027   -18152   -18040   -17747   -17631   -17811   -18081 
  -18272   -18288   -18157   -18073   -18107   -18148   -18075   -17851 
  -17652   -17666   -17728   -17716   -17869   -18198   -18360   -18291 
  -18252   -18328   -18258   -17844   -17378   -17331   -17713   -18060 
  -18171   -18304   -18484   -18407   -18029   -17589   -17346   -17415 
  -17622   -17840   -18158   -18416   -18303   -18040   -18037   -18168 
  -18181   -18102   -17934   -17770   -17822   -17933   -17815   -17732 
  -17980   -18185   -17987   -17775   -17982   -18295   -18200   -17776 
  -17491   -17577   -17875   -18156   -18200   -18014   -18026   -18303 
  -18315   -18007   -17909   -18111   -18200   -18041   -17868   -17687 
  -17452   -17474   -17779   -17932   -17975   -18208   -18339   -18114 
  -17851   -17852   -18068   -18231   -18246   -18262   -18235   -18142 
  -18148   -18079   -17748   -17551   -17694   -17764   -17643   -17659 
  -17851   -17980   -18017   -18115   -18262   -18307   -18231   -18085 
  -17928   -17941   -18148   -18153   -17794   -17512   -17562   -17689 
  -17740   -17879   -18142   -18316   -18293   -18144   -18033   -18121 
  -18249   -18135   -17830   -17614   -17659   -17791   -17832   -18011 
  -18310   -18316   -18123   -18094   -18103   -17890   -17614   -17540 
  -17666   -17944   -18264   -18318   -18114   -17980   -17884   -17633 
  -17571   -17983   -18366   -18279   -18034   -17964   -17948   -17925 
  -18013   -18045   -17801   -17594   -17709   -17899   -18054   -18276 
  -18358   -18176   -17957   -17817   -17702   -17701   -17936   -18274 
  -18345   -18162   -18219   -18438   -18252   -17740   -17421   -17483 
  -17741   -17915   -17902   -17852   -17941   -18152   -18253   -18076 
  -17822   -17798   -17984   -18223   -18428   -18443   -18218   -17929 
  -17744   -17736   -17847   -17949   -18017   -18000   -17841   -17734 
  -17895   -18091   -18042   -17941   -17953   -17982   -18085   -18246 
  -18203   -18004   -17959   -18053   -18029   -17860   -17709   -17664 
  -17794   -18031   -18160   -18096   -17972   -17938   -17944   -17811 
  -17687   -17842   -18031   -17961   -17929   -18106   -18153   -18060 
  -18130   -18180   -18004   -17883   -17834   -17620   -17459   -17621 
  -17876   -18007   -18171   -18387   -18376   -18145   -17968   -17826 
  -17640   -17666   -18068   -18457   -18355   -17987   -17880   -17923 
  -17795   -17772   -17969   -17973   -17861   -17961   -18040   -17995 
  -18091   -18211   -18114   -17959   -17928   -17884   -17741   -17797 
  -18152   -18337   -18191   -18107   -18046   -17718   -17455   -17599 
  -17891   -18088   -18229   -18335   -18357   -18260   -18073   -17821 
  -17571   -17533   -17778   -18106   -18308   -18304   -18156   -18031 
  -18069   -18169   -18104   -17887   -17728   -17675   -17695   -17853 
  -17992   -17905   -17861   -18121   -18326   -18181   -17936   -17837 
  -17860   -17950   -18081   -18177   -18164   -18090   -18095   -18095 
  -17826   -17474   -17506   -17741   -17795   -17918   -18166   -18172 
  -18092   -18229   -18315   -18142   -17955   -17880   -17813   -17855 
  -18018   -18002   -17886   -17942   -17986   -17821   -17635   -17699 
  -18025   -18284   -18281   -18218   -18215   -18119   -17896   -17737 
  -17672   -17604   -17628   -17840   -18149   -18373   -18364   -18188 
  -17998   -17818   -17729   -17797   -17874   -17875   -17860   -17876 
  -17987   -18189   -18318   -18203   -17919   -17707   -17606   -17629 
  -17942   -18304   -18296   -18106   -18004   -17905   -17853   -17891 
  -17872   -17891   -18067   -18179   -18134   -18064   -17967   -17868 
  -17860   -17888   -17914   -17992   -18088   -18152   -18187   -18175 
  -18108   -18013   -17879   -17776   -17825   -17964   -18036   -18056 
  -18112   -18112   -17950   -17832   -17911   -17911   -17716   -17648 
  -17840   -18094   -18227   -18141   -17898   -17790   -17964   -18223 
  -18341   -18250   -18037   -17903   -17895   -17853   -17771   -17783 
  -17895   -18067   -18292   -18420   -18220   -17806   -17575   -17667 
  -17914   -18162   -18247   -18122   -18022   -18104   -18146   -17941 
  -17705   -17675   -17760   -17865   -18006   -18106   -18122   -18076 
  -17955   -17834   -17811   -17845   -17895   -17969   -18011   -18045 
  -18142   -18198   -18046   -17744   -17567   -17662   -17838   -17998 
  -18243   -18407   -18264   -17956   -17691   -17589   -17703   -17906 
  -18014   -17950   -17887   -18029   -18146   -18085   -18098   -18135 
  -18030   -17959   -17972   -17955   -17906   -17811   -17691   -17702 
  -17942   -18219   -18185   -17965   -18006   -18216   -18184   -17948 
  -17830   -17869   -17949   -18092   -18139   -17944   -17832   -18013 
  -18193   -18154   -18011   -17942   -17918   -17874   -17903   -17986 
  -17950   -17874   -17973   -18199   -18351   -18376   -18276   -18000 
  -17674   -17597   -17737   -17822   -17906   -18044   -18103   -18185 
  -18347   -18364   -18134   -17824   -17621   -17537   -17500   -17564 
  -17772   -18064   -18388   -18567   -18320   -17788   -17550   -17799 
  -18111   -18235   -18273   -18145   -17883   -17836   -17988   -17949 
  -17612   -17334   -17447   -17828   -18180   -18395   -18422   -18238 
  -18041   -18081   -18208   -18058   -17729   -17574   -17653   -17872 
  -18123   -18193   -18036   -17876   -17828   -17865   -17991   -18079 
  -18081   -18110   -18125   -18085   -18057   -17907   -17559   -17367 
  -17709   -18284   -18423   -18077   -17798   -17869   -18127   -18342 
  -18347   -18153   -17971   -17845   -17701   -17672   -17842   -17998 
  -17928   -17729   -17693   -17907   -18119   -18166   -18183   -18172 
  -18036   -17971   -18111   -18180   -18065   -18031   -18083   -17995 
  -17820   -17686   -17632   -17743   -18003   -18233   -18323   -18296 
  -18188   -18021   -17910   -17948   -17971   -17857   -17803   -17817 
  -17667   -17590   -17907   -18323   -18370   -18033   -17732   -17776 
  -18011   -18241   -18404   -18312   -17964   -17722   -17701   -17713 
  -17748   -17837   -17883   -17901   -17945   -17980   -17999   -18013 
  -18087   -18204   -18139   -17955   -17991   -18257   -18412   -18180 
  -17737   -17570   -17724   -17867   -17937   -17972   -17950   -17992 
  -18045   -17930   -17828   -17925   -18069   -18180   -18327   -18374 
  -18117   -17733   -17585   -17656   -17713   -17737   -17849   -18069 
  -18246   -18276   -18242   -18142   -17971   -17926   -17995   -17932 
  -17802   -17896   -18141   -18134   -17892   -17794   -17876   -17967 
  -17983   -17914   -17933   -18108   -18157   -17961   -17794   -17782 
  -17779   -17802   -17946   -18117   -18177   -18199   -18230   -18127 
  -17928   -17894   -17982   -18040   -18111   -18108   -17902   -17699 
  -17734   -17848   -17813   -17740   -17810   -17938   -18006   -18025 
  -17963   -17934   -18165   -18422   -18355   -18181   -18162   -18108 
  -17875   -17644   -17570   -17633   -17806   -17995   -18065   -18048 
  -18011   -17888   -17726   -17747   -17937   -18092   -18202   -18327 
  -18307   -17986   -17666   -17824   -18300   -18501   -18289   -17945 
  -17671   -17589   -17674   -17761   -17799   -17865   -18042   -18261 
  -18316   -18242   -18214   -18142   -17905   -17703   -17740   -17878 
  -17940   -17967   -18025   -18103   -18094   -17907   -17751   -17883 
  -18141   -18227   -18172   -18131   -18060   -17860   -17624   -17514 
  -17590   -17795   -18071   -18373   -18522   -18365   -18094   -17917 
  -17780   -17734   -17829   -17869   -17845   -18000   -18262   -18264 
  -17971   -17732   -17709   -17784   -17894   -17995   -18036   -18111 
  -18289   -18361   -18110   -17772   -17743   -17832   -17740   -17751 
  -17963   -18048   -17999   -18003   -18041   -18061   -18084   -18115 
  -18058   -17887   -17825   -17976   -18145   -18181   -18065   -17902 
  -17895   -18018   -18026   -17844   -17695   -17794   -17975   -17999 
  -18019   -18173   -18239   -18079   -17898   -17932   -18068   -18071 
  -17930   -17793   -17806   -17929   -17946   -17898   -17944   -17996 
  -17995   -17988   -17942   -17868   -17824   -17847   -18017   -18222 
  -18226   -18044   -17863   -17847   -18022   -18139   -17999   -17778 
  -17691   -17714   -17817   -17984   -18095   -18098   -18013   -17837 
  -17755   -17960   -18264   -18374   -18280   -18138   -18025   -17944 
  -17883   -17824   -17848   -17937   -17934   -17955   -18146   -18274 
  -18210   -18088   -17913   -17733   -17714   -17783   -17815   -17845 
  -17890   -18007   -18187   -18180   -17965   -17828   -17797   -17736 
  -17772   -18056   -18405   -18474   -18131   -17706   -17614   -17790 
  -17971   -18084   -18036   -17833   -17780   -17972   -18165   -18276 
  -18318   -18135   -17767   -17597   -17780   -17996   -18018   -18037 
  -18119   -18054   -17932   -17971   -18026   -17946   -17859   -17882 
  -18034   -18210   -18214   -18058   -17905   -17838   -17871   -17906 
  -17906   -17980   -18114   -18203   -18212   -18095   -17891   -17815 
  -17983   -18150   -18096   -17940   -17836   -17829   -17899   -17992 
  -18067   -18026   -17911   -17905   -17937   -17887   -17825   -17787 
  -17851   -18011   -18026   -17964   -18133   -18365   -18337   -18111 
  -17905   -17863   -18002   -18171   -18175   -17994   -17768   -17532 
  -17351   -17417   -17628   -17763   -17945   -18270   -18505   -18485 
  -18311   -18087   -17864   -17730   -17629   -17547   -17729   -18192 
  -18559   -18478   -18044   -17790   -17872   -17952   -17963   -17930 
  -17790   -17747   -17844   -17859   -17882   -18077   -18225   -18064 
  -17786   -17840   -18195   -18349   -18210   -18031   -17787   -17548 
  -17597   -17829   -17971   -18025   -18094   -18216   -18299   -18231 
  -18133   -18106   -18045   -17917   -17833   -17821   -17774   -17717 
  -17829   -18063   -18107   -17932   -17875   -18007   -18009   -17857 
  -17952   -18273   -18387   -18283   -18229   -18200   -18050   -17820 
  -17725   -17841   -17950   -17901   -17795   -17797   -17969   -18152 
  -18102   -17898   -17806   -17774   -17648   -17668   -18029   -18369 
  -18355   -18239   -18303   -18376   -18284   -18115   -17883   -17622 
  -17566   -17737   -17895   -18002   -18067   -17910   -17639   -17666 
  -17992   -18117   -17898   -17813   -18083   -18341   -18360   -18268 
  -18149   -18036   -17960   -17872   -17802   -17847   -17911   -17838 
  -17645   -17567   -17763   -18015   -18110   -18099   -18063   -18114 
  -18254   -18219   -17956   -17806   -17875   -17921   -17911   -17956 
  -17942   -17875   -17921   -17988   -17987   -18034   -18122   -18121 
  -17971   -17771   -17748   -17937   -18171   -18295   -18177   -17933 
  -17898   -18026   -17952   -17697   -17597   -17721   -17874   -18031 
  -18247   -18256   -17876   -17469   -17363   -17558   -17957   -18284 
  -18306   -18262   -18405   -18509   -18355   -18162   -18038   -17849 
  -17772   -17952   -18098   -18058   -17933   -17739   -17555   -17525 
  -17581   -17618   -17722   -17923   -18138   -18338   -18500   -18536 
  -18399   -18189   -18014   -17779   -17504   -17520   -17917   -18264 
  -18200   -17921   -17810   -17855   -17844   -17891   -18130   -18266 
  -18096   -17901   -17913   -18075   -18219   -18179   -17995   -17891 
  -17903   -17923   -17967   -18064   -18023   -17820   -17805   -17942 
  -17878   -17802   -17972   -18165   -18312   -18427   -18279   -17987 
  -17879   -17852   -17745   -17660   -17713   -17868   -18015   -18077 
  -18060   -18029   -17968   -17829   -17748   -17848   -17979   -17959 
  -17825   -17849   -18138   -18430   -18527   -18384   -17986   -17614 
  -17587   -17809   -18033   -18139   -18165   -18184   -18110   -17936 
  -17825   -17799   -17822   -17855   -17810   -17730   -17676   -17663 
  -17783   -18046   -18347   -18589   -18677   -18624   -18527   -18351 
  -18104   -18069   -18366   -18632   -18516   -18181   -17894   -17583 
  -17346   -17412   -17601   -17716   -17784   -17737   -17599   -17574 
  -17675   -17676   -17452   -17342   -17736   -18327   -18594   -18571 
  -18334   -17830   -17431   -17348   -17177   -16968   -17371   -18350 
  -19275   -19832   -19935   -19592   -19014   -18405   -17863   -17270 
  -16440   -15614   -15156   -15018   -15167   -15809   -16879   -18079 
  -19230   -20050   -20285   -20171   -19959   -19417   -18455   -17614 
  -17446   -17942   -18670   -19149   -19228   -19113   -18856   -18231 
  -17344   -16696   -16441   -16239   -15994   -16063   -16478   -16760 
  -16772   -16900   -17302   -17911   -18723   -19525   -19936   -19796 
  -19315   -18804   -18446   -18532   -19121   -19556   -19296   -18535 
  -17485   -16410   -15973   -16330   -17081   -18131   -19209   -19631 
  -19330   -18819   -18335   -17753   -16991   -16345   -16190   -16422 
  -16808   -17382   -17915   -18067   -18045   -18293   -18962   -19876 
  -20590   -20652   -20112   -19608   -19561   -19624   -19434   -19017 
  -18366   -17518   -16691   -16097   -15826   -15742   -15672   -15601 
  -15549   -15712   -16325   -17101   -17640   -18122   -18775   -19183 
  -18995   -18631   -18547   -18652   -18717   -18585   -18176   -17639 
  -17354   -17713   -18617   -19350   -19299   -18566   -17668   -16924 
  -16403   -16195   -16179   -16079   -16124   -16826   -18037   -19087 
  -19623   -19673   -19407   -19157   -19056   -18777   -18179   -17693 
  -17676   -17906   -18067   -18181   -18365   -18671   -19043   -19294 
  -19302   -19009   -18480   -17979   -17591   -17288   -17193   -17182 
  -16930   -16598   -16497   -16556   -16711   -17057   -17505   -17712 
  -17425   -17026   -17170   -17944   -18954   -19874   -20402   -20214 
  -19421   -18551   -17952   -17666   -17604   -17514   -17154   -16807 
  -17109   -17879   -18351   -18476   -18478   -18218   -17829   -17687 
  -17851   -18137   -18231   -17948   -17605   -17644   -18099   -18581 
  -18507   -17752   -16953   -16810   -17397   -18249   -18940   -19327 
  -19350   -19134   -18832   -18293   -17521   -16918   -16773   -16950 
  -17236   -17691   -18284   -18667   -18634   -18284   -17837   -17544 
  -17528   -17682   -17779   -17779   -17838   -17891   -17840   -17867 
  -17922   -17712   -17344   -17104   -17015   -17150   -17671   -18422 
  -18886   -18613   -17791   -17188   -17389   -18256   -19118   -19512 
  -19458   -18886   -17679   -16532   -16505   -17535   -18615   -19140 
  -19141   -18813   -18422   -18299   -18501   -18711   -18584   -18009 
  -17277   -16838   -16660   -16660   -17281   -18442   -19213   -19292 
  -19148   -18921   -18604   -18264   -17685   -16897   -16560   -16930 
  -17486   -17883   -18144   -18162   -17851   -17278   -16634   -16314 
  -16486   -16862   -17270   -17841   -18551   -19066   -19195   -19175 
  -19314   -19430   -19079   -18442   -18063   -17875   -17585   -17396 
  -17593   -18025   -18270   -18198   -18073   -18017   -17857   -17643 
  -17678   -18106   -18661   -18871   -18581   -18060   -17680   -17780 
  -18322   -18747   -18592   -17968   -17404   -17230   -17211   -17223 
  -17451   -17836   -18199   -18327   -18018   -17597   -17536   -17682 
  -17821   -18154   -18616   -18819   -18671   -18316   -17892   -17424 
  -16856   -16395   -16362   -16746   -17343   -17983   -18468   -18586 
  -18254   -17675   -17180   -17030   -17410   -18198   -18881   -19110 
  -18909   -18473   -18200   -18295   -18412   -18288   -18019   -17721 
  -17620   -17744   -17698   -17456   -17362   -17431   -17683   -18288 
  -18939   -19099   -18801   -18474   -18249   -18009   -17837   -17852 
  -17917   -17914   -18091   -18647   -19047   -18628   -17728   -17194 
  -17238   -17458   -17595   -17674   -17720   -17729   -17757   -17960 
  -18435   -18932   -19064   -18844   -18461   -17992   -17674   -17518 
  -17035   -16294   -16106   -16610   -17296   -18068   -18883   -19330 
  -19184   -18669   -18237   -18131   -18142   -18071   -17925   -17768 
  -17906   -18445   -18943   -19183   -19089   -18346   -17448   -17315 
  -17682   -17782   -17469   -16937   -16671   -17101   -18019   -18956 
  -19491   -19298   -18571   -17949   -17791   -17910   -17983   -17944 
  -17911   -17829   -17559   -17348   -17451   -17543   -17247   -16750 
  -16559   -16854   -17262   -17601   -18161   -18912   -19449   -19566 
  -19295   -18848   -18427   -17933   -17415   -17332   -17770   -18200 
  -18308   -18220   -18007   -17749   -17705   -17887   -17968   -17712 
  -17393   -17558   -18067   -18291   -18144   -17832   -17396   -16999 
  -16837   -16969   -17470   -18272   -19098   -19649   -19678   -19242 
  -18566   -17784   -17311   -17460   -17732   -17672   -17559   -17581 
  -17527   -17320   -17076   -16930   -17158   -17809   -18373   -18466 
  -18279   -18200   -18459   -18916   -19071   -18608   -17806   -17244 
  -17219   -17598   -18092   -18478   -18642   -18504   -18146   -17909 
  -18038   -18422   -18698   -18596   -18266   -17892   -17344   -16852 
  -17037   -17736   -18091   -17982   -17855   -17760   -17768   -18126 
  -18617   -18650   -18027   -17290   -17085   -17375   -17759   -18164 
  -18682   -19120   -19221   -19047   -18890   -18825   -18524   -17829 
  -17138   -16947   -17288   -17775   -18130   -18276   -18119   -17685 
  -17163   -16891   -17065   -17381   -17532   -17647   -17851   -18119 
  -18570   -19284   -19903   -19793   -18897   -17807   -16868   -16220 
  -16274   -16985   -17659   -17945   -18009   -17998   -17996   -18081 
  -18231   -18281   -18210   -18279   -18596   -18917   -18949   -18586 
  -17960   -17292   -16731   -16524   -16833   -17331   -17622   -17787 
  -17983   -18085   -18081   -18148   -18216   -18134   -17984   -17906 
  -18021   -18404   -18843   -19003   -18816   -18395   -17979   -17865 
  -17892   -17767   -17802   -18122   -18227   -18013   -17748   -17509 
  -17466   -17528   -17243   -17018   -17550   -18249   -18285   -17987 
  -18021   -18382   -18630   -18674   -18814   -19030   -19064   -18836 
  -18295   -17533   -16945   -16737   -16845   -17331   -18083   -18586 
  -18488   -17968   -17598   -17732   -18114   -18280   -18038   -17662 
  -17631   -17919   -18060   -18067   -18361   -18754   -18697   -18295 
  -17971   -17755   -17575   -17504   -17552   -17884   -18697   -19404 
  -19137   -18226   -17649   -17451   -17194   -17014   -17173   -17521 
