Origin Time       2025/03/30 21:30:00
Lat.              38.535
Long.             142.295
Depth. (km)       44
Mag.              4.3
Station Code      IWT026
Station Lat.      39.2569
Station Long.     141.0983
Station Height(m) 76
Record Time       2025/03/30 21:31:33
Sampling Freq(Hz) 100Hz
Duration Time(s)  60
Dir.              U-D
Scale Factor      7845(gal)/8223790
Max. Acc. (gal)   2.200
Last Correction   2025/03/30 21:31:32
Memo.             
[...]
    1175     1293     1264     1273     1243     1121     1115     1185 
    1125      961      892     1012     1159     1216     1269     1269 
    1077      909     1088     1421     1524     1348     1138     1178 
    1408     1362      924      649      760      800      747     1043 
    1503     1717     1722     1517     1129      934      935      841 
     900     1291     1435     1043      762     1047     1358     1205 
     994     1040     1150     1351     1572     1408     1040     1019 
    1156     1003      855     1131     1399     1190      857      832 
    1030     1264     1386     1313     1259     1339     1309     1104 
     963      976      984      985     1169     1455     1559     1414 
    1147     1050     1213     1277     1152     1044      950      942 
    1073     1143     1156     1233     1219     1059     1031     1239 
    1390     1293     1121     1036      963     1008     1410     1733 
    1306      553      392      841     1277     1452     1522     1462 
    1117      766      835     1190     1377     1251      972      785 
     966     1470     1729     1428     1055      955      885      880 
    1107     1215     1035      912      938     1028     1286     1556 
    1512     1255     1063      896      761      939     1332     1506 
    1402     1223     1112     1206     1394     1313      907      625 
     872     1389     1571     1414     1352     1318     1020      683 
     643      835     1028     1139     1227     1345     1476     1520 
    1378     1219     1171     1020      774      753      969     1221 
    1412     1459     1244      812      546      783     1316     1606 
    1476     1221     1032      967     1155     1509     1624     1242 
     715      616      913     1243     1493     1501     1156      893 
    1073     1367     1406     1323     1251     1077      850      812 
     976     1092     1082     1120     1290     1421     1260      967 
     999     1278     1362     1219     1050      967     1074     1304 
    1441     1436     1308     1058      915     1053     1185     1066 
     911      930     1065     1220     1306     1250     1177     1216 
    1193     1012      899      990     1190     1397     1456     1260 
    1069     1143     1251     1116      850      746      949     1224 
    1260     1201     1313     1435     1313     1062      967     1135 
    1360     1385     1194      989     1046     1270     1212      981 
     974      976      858      982     1200     1089      961     1227 
    1568     1548     1263     1058      974      909     1031     1289 
    1293     1121     1161     1367     1429     1267     1115     1075 
    1019      909      793      793     1088     1385     1239      977 
    1136     1395     1259     1034     1048     1073     1028     1116 
    1286     1316     1201     1140     1136     1015      882      926 
    1081     1347     1718     1771     1306      876      868     1034 
    1167     1212     1050      892     1129     1534     1524     1188 
    1104     1247     1092      654      519      923     1424     1537 
    1390     1339     1298     1102      978     1028     1057     1089 
    1213     1169      953     1024     1340     1439     1399     1410 
    1244      935      869     1135     1351     1182      911      984 
    1201     1194     1089     1113     1167     1136     1127     1178 
    1182     1158     1174     1140     1001      868      835      897 
    1138     1552     1723     1460     1246     1252     1152      989 
     950      908      889     1024     1115     1094     1158     1251 
    1310     1378     1260      954      795      967     1331     1494 
    1254      915      849     1024     1179     1213     1185     1127 
    1108     1263     1564     1691     1360      828      621      866 
    1224     1301     1170     1174     1256     1194     1046      942 
     934     1042     1228     1395     1502     1566     1414      949 
     661      903     1156     1093     1048     1097     1088     1131 
    1204     1113      981     1080     1308     1372     1358     1362 
    1158      846      818     1005     1144     1240     1297     1264 
    1213     1162      978      708      761     1254     1614     1517 
    1321     1248     1154     1021      976     1038     1179     1364 
    1451     1331     1210     1144      857      606      878     1301 
    1347     1213     1185     1174     1111     1151     1269     1206 
    1067     1150     1270     1108      892     1001     1293     1383 
    1183      945      963     1221     1397     1301     1132     1136 
    1216     1181     1116     1127     1131     1061      963     1013 
    1254     1372     1197      993      993     1138     1193     1088 
    1034     1030      955     1080     1459     1606     1325      928 
     770      959     1208     1290     1336     1356     1231     1046 
     959     1005     1108     1232     1331     1270     1035      909 
    1121     1356     1285     1123     1015      945     1105     1406 
    1435     1175      959      961     1186     1463     1467     1200 
     945      801      770      919     1205     1408     1337     1177 
    1179     1186     1109     1158     1210     1034      905     1125 
    1394     1336     1109     1017     1077     1197     1224     1021 
     772      792     1109     1440     1441     1057      783     1008 
    1318     1321     1210     1120     1036     1078     1323     1644 
    1686     1252      703      567      977     1513     1661     1389 
     985      770      892     1125     1251     1282     1224     1128 
    1111     1171     1229     1189     1057      990     1061     1181 
    1225     1146     1100     1205     1269     1167     1142     1312 
    1401     1231     1007      996     1081     1003     1011     1308 
    1348      967      862     1135     1243     1139     1119     1208 
    1220     1070      994     1208     1464     1356      993      939 
    1231     1302     1086      969      993     1011      974      949 
    1081     1313     1402     1362     1340     1236     1023     1044 
    1308     1343     1086      888      862      939     1125     1404 
    1532     1377     1190     1081      954     1017     1352     1451 
    1036      656      827     1229     1339     1254     1271     1227 
     972      869     1166     1524     1475     1047      816     1047 
    1267     1229     1206     1205     1021      847      943     1108 
    1154     1213     1227     1158     1217     1354     1393     1320 
    1093      864      927     1143     1162     1024     1008     1155 
    1278     1286     1232     1183     1219     1254     1115      977 
     994     1004     1069     1277     1345     1204     1119     1117 
    1066     1021     1109     1329     1509     1368      989      795 
     949     1271     1460     1379     1227     1166     1146     1140 
    1088      923      819      932     1086     1090     1043     1136 
    1393     1505     1266     1053     1109     1104     1023     1155 
    1314     1275     1281     1389     1264      922      783      963 
    1169     1171     1085     1139     1274     1300     1169      940 
     830      957     1105     1179     1269     1308     1301     1240 
     992      876     1258     1609     1387     1004      955     1055 
    1005      999     1258     1416     1127      837     1054     1462 
    1490     1158      866      870     1119     1312     1231     1042 
    1066     1306     1393     1147      870      895     1134     1282 
    1308     1306     1210     1085     1044     1003     1073     1358 
    1431     1143     1015     1202     1324     1221     1030      905 
     932     1055     1166     1166     1100     1165     1248     1196 
    1198     1225     1109     1012     1048     1171     1339     1490 
    1486     1236      997     1019     1053      901      727      703 
     905     1239     1494     1543     1394     1225     1161     1102 
    1001      994     1109     1167     1144     1190     1302     1337 
    1250     1125     1135     1282     1287     1048      934     1108 
    1150      916      884     1201     1405     1256     1021      977 
    1085     1188     1304     1414     1328     1092      946      916 
     984     1140     1197     1092     1058     1262     1494     1374 
    1066     1080     1281     1173      858      799     1069     1347 
    1352     1154     1061     1111     1047      965     1107     1188 
     996      990     1352     1537     1364     1215     1129      930 
     827     1065     1360     1320     1202     1386     1557     1424 
    1115      804      826     1120     1028      650      756     1278 
    1530     1410     1232     1023      841      945     1231     1381 
    1359     1270     1104      864      831     1181     1463     1306 
    1051     1057     1146     1109     1163     1348     1269      969 
     866     1003     1254     1441     1332     1121     1061     1024 
    1046     1269     1401     1206      977     1028     1259     1345 
    1182     1031     1097     1196     1154     1100     1196     1323 
    1251     1066      982     1020     1136     1231     1194     1097 
    1062     1115     1209     1219     1111     1084     1200     1219 
    1108     1090     1152     1131     1020      951     1044     1264 
    1405     1341     1227     1146      949      793     1032     1436 
    1451     1101      905     1032     1231     1308     1175      969 
     976     1169     1252     1161     1156     1327     1385     1266 
    1119      877      631      795     1358     1678     1350      818 
     776     1169     1362     1237     1188     1200     1096     1051 
    1186     1360     1356     1085      814      855     1159     1420 
    1390     1182     1128     1206     1182     1151     1170     1043 
     977     1221     1385     1205      981      950     1113     1313 
    1350     1256     1088      854      832     1210     1507     1201 
     730      807     1201     1278     1081     1059     1251     1328 
    1279     1363     1429     1220      978     1000     1152     1208 
    1151     1101     1179     1360     1425     1248      986      831 
     796      826      996     1317     1530     1507     1332     1043 
     835      954     1256     1331     1044      785      916     1248 
    1420     1344     1174     1063     1012     1009     1108     1266 
    1305     1119      958     1117     1382     1410     1279     1138 
    1003      984     1127     1228     1192     1081      874      783 
    1146     1555     1448     1212     1260     1277     1131     1104 
    1192     1175     1088     1051     1013      966     1019     1159 
    1291     1263      969      677      764     1104     1329     1356 
    1290     1232     1247     1351     1480     1474     1224      932 
     841      881      984     1185     1264     1030      776      918 
    1305     1372     1063      915     1080     1228     1298     1433 
    1548     1470     1293     1220     1224     1188     1125     1096 
    1120     1179     1260     1279     1109      915      909      884 
     693      704     1124     1540     1587     1370     1154     1123 
    1146     1074     1154     1337     1190      861      897     1244 
    1408     1340     1259     1096      923      934      976     1038 
    1244     1290     1015      838      943     1046     1048     1080 
    1167     1243     1210     1119     1177     1367     1510     1510 
    1281      943      795      893     1125     1378     1494     1371 
    1051      745      724     1081     1563     1713     1463     1183 
    1057     1093     1270     1343     1148      876      715      679 
     805     1142     1501     1588     1378     1178     1136     1062 
    1021     1167     1146      847      885     1443     1838     1632 
    1120      738      677      837      892      797      845      988 
    1015     1177     1626     1915     1755     1474     1406     1405 
    1220      847      388       56      121      568     1108     1516 
    1772     1914     1894     1698     1420     1143      842      484 
     226      383      985     1476     1406     1181     1390     1840 
    1957     1587      951      311      -48      120      693     1236 
    1449     1398     1428     1838     2457     2749     2374     1534 
     804      511      448      373      361      495      714      939 
    1159     1459     1800     1900     1667     1310      976      783 
     815     1001     1269     1381     1146      961     1147     1309 
    1294     1395     1420     1053      625      607      820      697 
     418      695     1378     1867     2074     1915     1325      816 
     880     1367     1804     1911     1657     1105      587      522 
     706      805     1077     1516     1601     1289      969      882 
    1001      945      513      133      140      430      874     1335 
    1575     1425     1074     1028     1389     1647     1493     1158 
     957      989     1310     1900     2214     1661      774      552 
     931     1084      739      318      125      156      423      969 
    1659     2176     2276     2145     2165     2216     1898     1394 
    1109      981      981     1078      903      598      892     1750 
    2420     2674     2619     2039      989       28     -527     -793 
    -980    -1159     -980      -64     1198     2097     2458     2597 
    2884     3196     2965     2153     1332      922      815      557 
     140       63      371      780     1169     1309     1138      978 
     977     1015     1070     1194     1197      789      257      148 
     282      290      477     1120     1753     1784     1421     1421 
    1876     2239     2393     2366     1879     1131      735      819 
    1227     1741     1846     1246      297     -359     -264      481 
    1308     1659     1404      961      741      662      689     1003 
    1433     1505     1155      959     1333     1938     2268     2203 
    2018     2083     2261     2201     2034     1836     1329      580 
      59      -14       33      -51      -41      189      550     1112 
    1796     2211     2191     1942     1576     1026      452      184 
     168       81      -54      184      950     1741     1818      970 
      24      113     1171     2164     2637     2656     2076     1181 
     741      781      650      265       62      122      307      531 
     631      718     1216     2027     2578     2663     2311     1665 
    1447     2073     2743     2782     2455     1865      913      182 
     234      608      691      621      642      854     1281     1568 
    1521     1398     1236      884      533      472      614      695 
     754      839      583       28       76     1011     1790     1686 
    1242     1236     1672     1996     1853     1501     1412     1512 
    1424     1219     1080      855      579      522      600      500 
     328      468      920     1335     1549     1640     1615     1498 
    1379     1223      978      776      778     1132     1755     2178 
    2047     1489      935      803     1188     1729     1925     1648 
    1152      769      764      932      729      341      380      681 
     872      996     1086     1182     1269     1175      986      854 
     853     1166     1583     1710     1791     1948     1737     1209 
     909      951     1084     1100     1013     1055     1270     1390 
    1363     1449     1576     1381      988      824      915      994 
    1026     1159     1335     1398     1449     1525     1429     1281 
    1335     1378     1150      810      507      268      292      641 
     990     1143     1243     1309     1092      604      396      811 
    1301     1294     1089     1043      945      757      866     1285 
    1528     1354     1090     1059     1058      904      913     1209 
    1539     1702     1549     1237     1124     1047      788      691 
     936     1148     1089     1109     1441     1714     1799     1942 
    1938     1582     1183      943      945     1391     1950     1954 
    1518     1202     1088     1042     1024      961      788      533 
     440      704     1023     1146     1289     1441     1377     1217 
    1043      897     1082     1401     1248      841      783      866 
     652      440      751     1302     1425     1216     1116     1030 
     912     1080     1368     1270     1013     1059     1125     1082 
    1273     1510     1449     1310     1298     1325     1386     1460 
    1350     1008      614      286      126      210      454      880 
    1499     1948     2039     2097     2160     1988     1695     1433 
    1252     1267     1370     1347     1231     1179     1154      946 
     588      282      152      406      858      965      920     1289 
    1921     2273     2134     1703     1290     1165     1377     1493 
    1040      376      283      660      784      657      666      706 
     685      816     1062     1124     1042     1193     1605     1868 
    1794     1644     1641     1598     1306     1039      974      684 
     144        5      368      849     1286     1507     1489     1510 
    1598     1620     1625     1564     1254      868      827     1046 
    1173     1201     1075      823      830     1044     1108     1129 
    1208     1104      888      947     1248     1377     1293     1344 
    1582     1757     1759     1647     1393     1001      745      824 
    1096     1262     1082      731      652      824      939     1040 
    1277     1402     1278     1248     1262      984      858     1264 
    1598     1467     1274     1279     1335     1383     1478     1483 
    1236      818      515      534      710      704      567      676 
    1013     1225     1367     1676     1989     1987     1611     1171 
    1092     1255     1262     1194     1177     1077     1015     1027 
     830      518      550      957     1287     1358     1345     1308 
    1223     1146     1129     1250     1517     1640     1314      780 
     481      438      519      680      870     1158     1421     1321 
    1096     1205     1395     1217      880      839     1089     1383 
    1526     1451     1476     1688     1490      855      576      666 
     562      449      702     1092     1382     1663     1880     1782 
    1429     1227     1286     1406     1522     1587     1522     1367 
    1111      897     1048     1363     1358     1201     1250     1194 
     737      418      710     1078     1082     1026     1040     1182 
    1560     1752     1528     1308     1225      977      549      386 
     646      930     1109     1413     1680     1556     1140      908 
    1078     1286     1162      891      816      963     1053      953 
     942     1094     1042      784      727      897      982      943 
     931     1027     1406     2011     2226     1831     1435     1362 
    1335     1237     1192     1165     1015      826      885     1193 
    1391     1304     1090      928      957     1134     1135      900 
     754      865     1201     1636     1854     1711     1472     1410 
    1463     1458     1378     1182      822      626      811      955 
