Origin Time       2025/03/30 21:30:00
Lat.              38.535
Long.             142.295
Depth. (km)       44
Mag.              4.3
Station Code      IWT007
Station Lat.      39.2699
Station Long.     141.8567
Station Height(m) 9
Record Time       2025/03/30 21:31:11
Sampling Freq(Hz) 100Hz
Duration Time(s)  62
Dir.              E-W
Scale Factor      7845(gal)/8223790
Max. Acc. (gal)   9.927
Last Correction   2025/03/30 21:31:10
Memo.             
[...]
     885      884      886      889      885      877      880      886 
     888      888      889      878      873      886      893      884 
     877      877      882      896      900      885      874      878 
     889      891      881      877      888      892      881      877 
     882      886      885      886      880      873      886      897 
     886      880      885      889      889      884      876      881 
     892      896      888      877      872      882      899      893 
     872      873      886      893      895      882      868      872 
     888      895      891      885      884      885      885      882 
     882      885      884      885      889      884      873      881 
     891      881      878      891      891      876      873      888 
     895      889      886      881      876      884      892      891 
     880      870      878      892      886      878      882      886 
     884      885      884      882      882      886      885      881 
     885      888      886      885      884      886      881      876 
     878      880      888      895      886      880      882      886 
     884      878      886      893      885      880      885      889 
     882      873      880      895      893      881      882      892 
     884      873      880      885      891      892      877      873 
     893      897      884      880      881      878      880      889 
     896      882      870      884      893      884      880      884 
     881      882      892      892      878      874      881      884 
     889      896      888      876      876      882      892      895 
     885      873      877      895      897      884      882      882 
     878      886      892      888      884      882      884      886 
     882      880      882      884      882      888      892      880 
     869      882      900      897      884      876      880      886 
     891      891      888      882      877      881      895      892 
     880      880      885      888      888      886      884      873 
     872      882      892      892      884      876      878      893 
     901      891      877      876      878      885      893      891 
     878      877      886      891      885      882      882      876 
     885      905      897      877      874      885      889      886 
     882      884      892      888      881      888      891      882 
     880      888      889      881      884      889      882      877 
     880      886      896      886      872      880      892      892 
     886      877      874      886      893      884      881      886 
     882      880      888      885      877      882      892      892 
     884      877      884      889      882      881      888      896 
     888      874      876      888      895      891      877      876 
     892      895      880      878      886      885      885      889 
     889      886      878      876      888      888      874      877 
     892      895      885      881      881      885      886      881 
     882      885      886      891      884      872      881      896 
     886      873      881      896      893      884      881      884 
     888      891      891      888      884      882      891      895 
     892      881      878      892      901      897      893      904 
     911      884      845      810      778      780      776      847 
    1051      997      841     1070      969      603     1074     1274 
     660     1063     1647      756      214      800      973      980 
    1136      530      -39      248      548      837      814      417 
    1634     3067     1526     -799     -783     1377     3183     1802 
     -59     1514     2664      580     -465      -18     -758     -144 
    1998     1464     -476     -213     1682     2527     1247       90 
     461     1038      689     -109     1246     3889     3323      868 
     436      977      143    -1069     -930     -432      180     1460 
    1709     1348     2335     2432      -36     -390     2540     1792 
   -2087    -1593     1950     3361     2924     2087      361     -743 
     793     1618     -599    -1588      521     2010     1333      400 
     112     1607     4344     3383    -1051    -2601     -518     1096 
    1609     2103     1298      263     1642     2633      897     -197 
     384      302      685     2268     1560     -664     -391      413 
    -194      604     2538     2228      -40     -314     2138     2635 
     800     1167     2157      334    -1372     -267     1621     1925 
    1030     1004     1674      827     -349      348      707     -396 
     203     2354     2192      172      191     2439     2631     -504 
   -1374     1601     2052     -361      495     3565     2855     -696 
   -1331      826     1046     -240      499     1969     1458      492 
    1053     1582      886      572     1277     1509      565      218 
    1202     1108        5      271     1390     1769      962     -108 
      32     1089     1595      768      -91      696     1871     1732 
     904      843     1684     1825      870       94      102      630 
     818      603      738      822      953     1736     1389     -409 
    -234     1574     1264       28      510     1220     1190     1448 
    1831     1817     1401      729      425      866     1335      587 
    -716     -338      994     1050      608      761     1254     1954 
    1468       60      513     1621     1225     1057     1397      699 
     -28      734     1728     1111     -143      -13     1123     1425 
     463     -144      831     1926     1759     1224      893      876 
    1224     1011      429      814     1586     1069     -135     -151 
     452      603     1458     2542     1089    -1863    -1534     1988 
    3111     1051      170     1336     2548     2585     1367       71 
    -274      325     1212     1706      958     -448      162     1657 
     789     -587      143     1486     1216      305      799     1354 
     768      946     1952     1702      774      696      892     1525 
    2384     1317     -241      545     1260     -448    -1075     1653 
    2882      -94    -1773      735     2617      808     -768     1169 
    2767     1375      774     1718     1005     -118     1190     2682 
    1248     -594      396     1425       32     -480     1177     1827 
     988      691      664      400     1026     1644      946      769 
    1487      911     -198      330     1327     1453     1549      839 
    -657      -41     1819     1660      662      757      985     1154 
    1682     1479      491      302      854     1030     1281     1151 
    -406     -756     1097     1877     1590     1503      457     -257 
     945     1475      490     1057     2335     1105     -440      355 
    1317     1089     1080     1169      491      222      711      556 
     525     1297     1063      567     1382     1539      901     1509 
    1981      851       -9      498     1223     1225      433      -81 
    1035     2104      774     -714     -151      479      448     1115 
    2031     1750      560      419     1603     2191     1286      298 
     869     1741     1143      379      473      476      411      903 
     996       47     -241      861     1679     1544      976      526 
     797     1058      703      793     1406     1730     1624      878 
     135      542     1308     1098      387      249      703      993 
    1047     1248      818      -76      696     2042      843     -623 
     908     2605     1625       -8      202     1590     1653      722 
     816      897      380      679      800       14      252     1279 
    1270     1055     1229      769      461     1156     1601     1329 
    1096      905      688      648      718      855     1098     1252 
     714     -155      101     1416     2066     1297      214      -25 
     290      607      841      905     1243     1621     1066      907 
    2019     1941      315      -43      826      751      288      727 
    1293     1323      488     -423     1016     2795     1188     -477 
     823     1642      658      454     1170     1031      580     1077 
    1192      337      175      619     1248     1746      571     -155 
    1655     2382      915      504     1354     1331      207     -163 
     872     1170      407      854     2020     1503     -217     -677 
     499     1428     1297     1129     1019      221      253     2073 
    2501      868      727     1236      -40     -576     1171     2604 
    1829       14     -256     1217     1664      399     -234      359 
    1050     1286     1116      905      278      -39     1341     1962 
     827     1065     1965     1286      526      847     1163      718 
     299      611      934      506      272     1209     1512      484 
     527     1173      696      491     1173     1742     1476      306 
     -18     1121     1844     1355      442      325     1159     1449 
     824     -207     -683      936     2511     1144     -395      446 
    1514     1742     1657      630        2     1402     2218      901 
     198      670      589      764     1410     1016      414      413 
     313      868     1537      567      163     1661     1684      206 
     380     1458     1630      945      190      535     1383     1501 
    1239     1115     1012      291       59     1507     1729      -48 
    -432      599     1179     1125      776     1001     1526     1043 
     203      376     1228     1603     1073      545     1080     1858 
    1206       82      643     1381      585      442     1243      654 
    -373      357     1846     1853      706      585     1377      988 
    -392       -4     2158     1887     -399      260     2002      831 
     -86     1435     1750      357      899     2212     1213     -122 
     128     1352     2317     1040     -761      464     1925      410 
    -275     1567     1714     -148      -70     1721     1705      351 
     480     1254     1401     1321      811      572      499      -58 
     895     2617     1593     -526      139     1876     1190      326 
    1522     1790      136     -930      189     2204     2219      743 
     359     1043     1240      599      295      510      934     1540 
     974      179     1117     1572      770      648      891     1229 
    1308      264     -170     1028     1973     1435      481      695 
     892      -55      364     2022     1476     -191      271     1436 
     770       71      972     1796     1686      853       63      757 
    1594     1127      981     1269     1093     1026      681      218 
     626      815      473      861     1386      985      255      213 
     773     1197     1345     1278     1026      996     1312     1030 
      54      125     1163     1759     1734      731     -206      708 
    2111     1780      -24     -808      495     1154      494     1070 
    1578      405      750     2376     1431      -47      878     1298 
    -197     -222     1690     1771      607     1416     1939      457 
     -20      994     1188      171     -487      756     2392     1556 
    -209       -2     1822     3071     1872       79      102      467 
     664      989      403      -52      572     1540     2085     1082 
    -226      275     1058      749      823     1321      453     -307 
    1487     3618     2947      106    -1143      977     2585      838 
   -1271     -415     1767     1490      -81      184     1116     1345 
    1205      567      190      643     1177     1382     1429     1533 
    1343      989     1437     1868     1186      409      352      535 
     511      533      221     -311      608     1736     1097      561 
     965     1169     1296      955     -152     -243     1611     3127 
    1941     -417    -1023      356     2362     2674      302    -1028 
    1012     2716     1495     -160       40     1088     1151      571 
    1069     1787      773     -102      996     1647      854      714 
    1182      788     -251     -672      270     1509     1678     1431 
    1590     1231      240      550     1713     1586     1306     1587 
     877      141      830     1355      619      454     1372      846 
   -1210    -1320      980     1915      665      122      912     1988 
    2389      981      -78     1229     1566      241     1186     2847 
    1274     -518      819     2270     1258     -492     -854      444 
    2274     2069     -930    -2004      688     2488     2312     1614 
      99     -272     1518     2292      807       20      884     1491 
    1486     1104      684      746      540      355      923     1156 
     778      737     1069     1070      858     1420     1657      279 
     -93     1572     1929      469     -319     -454        4     1815 
    2529     1030      342     1061     1270     1186     1729     1748 
     529      190     1532     2232     1254      243      513      841 
     110       14      993      649     -982    -1413     -121      876 
      35     -662      133      141      486     3554     4604      873 
    -607     2146     1528    -1189     1530     6143     6096     2754 
    -526    -2658    -3326    -1887      916     3049     3388     1605 
      72      922      746    -2196    -3655    -1179     2108     2633 
    1806     2346     3235     4411     6261     3865    -3589    -5898 
    2423    11291     8779    -2722    -9509    -4035     3967     1965 
   -4552    -3478     1707      714    -4325    -3894     1048     2250 
    1691     4641     5256      116    -2600     1213     5409     5086 
    2851     2439     3528     3948     1135    -3667    -4359     -159 
    3059     2767     1173     -841    -3419    -3227      479      889 
   -1198     3148     8384     4459    -2054    -2821      760     4572 
    5020     1568    -2918    -4282     -301     5296     7514     4579 
   -1861    -5589    -4579    -2560     1135     4509     1329    -3739 
   -1695     3886     4479     1441      495     2195     3825     2473 
    -792    -1256      799     1985     2562     1829     -750      -94 
    3451     1930    -3815    -6312    -3507     2309     6230     5256 
    2979     3073     4826     4916     1505    -2257    -3206     -576 
    3087      788    -4639    -3612      236      895       47     -986 
     418     4951     6534     1930    -1796     1633     4924     2164 
     353     1609     1004     -787    -1410     -309     1922     2339 
     440     -668       16     -876    -3651    -1798     3029     1885 
   -1792     -989     2231     4734     4261     1445      480     1634 
    3627     5146     2729    -1038     -519     1844     3080     3649 
     218    -5572    -4718     1351     2556    -1979    -4588    -2020 
    1930     3758     2581      576     1644     3554     2232     1382 
    4291     5913     2554     -951     -926      322     1475     1514 
    -962    -2073      858     1455    -2417    -2870      337      153 
   -2470    -2196     2335     6706     4625     -936    -1243     2857 
    4291     3200     3541     3172      766      126      386     -943 
   -2393    -2778     -778     2462     2732      838      523      488 
   -1244      253     6274     6693      155    -2177      460     1189 
     222     -220     -375      213     1606     1772      306       56 
     746     -179     -553      639      702      823     2462     3339 
    2957     2014      423      199     1624      951    -1227     -457 
    1838     1448      -36      -35     -365     -646     1250     2273 
     953      552      695      818     2982     3562      630      604 
    2689      469    -2412     -781     2982     4583     1640    -2323 
   -1759     1715     3508     2251     -675    -2751    -2770     -498 
    2427     2084     -677     -700     2745     5738     3964    -1494 
   -3141     1032     4864     5034     2488    -1162    -2149      985 
    3261     2076      257     -693     -298      660     -221    -1815 
   -2187    -1493      638     3186     3060     -449    -1156     4027 
    6049     2443     1154     2178     2064     1263      581     1281 
    1680     -325    -1536     -610     -336     -486     1004     2251 
     271    -2524    -2091      616     2496     2544     1439      569 
     978     1518     1115     1876     4029     4028      966    -2296 
   -2124     1282     2154     -837    -1316     2282     3754     1177 
    -280     1765     3704     1949    -1405    -2161    -1031      558 
    1919     1224     1343     3267     1254    -2930    -1759     2339 
    2687     1177     1047     -283    -2014      580     4792     4236 
    1267     1121     1737      913      333       91      699     2135 
     550    -2752    -1409     3084     3771      234    -1404      152 
     274     -579      133      812     1158     2231     2720     1289 
    -332      294     2810     4266     2420     -133      -91      878 
     712      421     1273     1983      814     -650     -999     -803 
     -85      703     1048     1259     1620     1359      -91       39 
    2219     2320      610      527     1807     1825      475     1101 
    3071     1780    -1101    -1100      851     2180     1800      464 
      14      125      552     1336      413     -689      645      954 
    -985     -805     1641     2725     2415     2185     1390      776 
    1946     2454      880      251      299      -54     1949     4055 
    1453    -2286    -1636      870      664      -40     1194     1621 
     772       31     -905     -441     1687     2559     1769      820 
     552     1713     3048     2573     1479      934     -136     -693 
     619     1381      461      221      610     -156     -849      337 
    2396     2547      669      483     1591      167     -981     1198 
    2439     1394     1436     1715      591      130      706      457 
      16      707     1027      741     2033     2787      715     -457 
     650     2058     3157     1690    -1044     -419      329    -1718 
    -997     3029     3840     1389      268     -317    -1085      788 
    2191       45     -356     2108     2535     1183      369     -244 
    1170     4480     3442    -1259    -1858     1271     2182      -95 
   -1111      742     1691     1491     2165     2046      461     -804 
    -156     1587     1393      194      371      519      502      978 
    1030     1320     2204     2027      538     -172      341       -9 
    -386     1614     3362     2050      762     1414      994     -646 
       0     1980     1271    -1116    -1358      394     1409     1287 
    1895     2582     1524      645      853     1005     1417      519 
   -1574    -1208     1360     3148     3096     1399     -757     -780 
    1647     2717     1216     -301     -444     1150     2813     2015 
    -182     -638     1494     2469       -5     -876     1845     2073 
    -554       -2     2347     1129    -1656     -712     2728     2536 
    -549      336     3572     2316     -888     -156     1914     1422 
     498     1058     1853     1198     -282      151     1455      776 
     195     1482     1745      361      224      475     -514     -639 
     329     1611     2752     1470     -868     -163     2967     3852 
