Origin Time       2025/03/30 21:30:00
Lat.              38.535
Long.             142.295
Depth. (km)       44
Mag.              4.3
Station Code      IWT008
Station Lat.      39.0815
Station Long.     141.7093
Station Height(m) 24
Record Time       2025/03/30 21:31:19
Sampling Freq(Hz) 100Hz
Duration Time(s)  60
Dir.              N-S
Scale Factor      7845(gal)/8223790
Max. Acc. (gal)   3.035
Last Correction   2025/03/30 21:31:18
Memo.             
[...]
  -13263   -13266   -13267   -13263   -13266   -13267   -13263   -13263 
  -13265   -13265   -13266   -13262   -13262   -13265   -13266   -13266 
  -13263   -13262   -13265   -13267   -13266   -13265   -13263   -13263 
  -13263   -13265   -13265   -13263   -13265   -13265   -13265   -13265 
  -13265   -13266   -13267   -13267   -13266   -13263   -13265   -13266 
  -13265   -13263   -13266   -13266   -13265   -13265   -13269   -13266 
  -13263   -13266   -13270   -13266   -13263   -13267   -13267   -13265 
  -13266   -13267   -13265   -13265   -13266   -13266   -13269   -13267 
  -13266   -13266   -13265   -13265   -13267   -13267   -13265   -13265 
  -13267   -13266   -13266   -13265   -13265   -13270   -13270   -13263 
  -13263   -13269   -13266   -13265   -13265   -13265   -13266   -13266 
  -13263   -13266   -13266   -13263   -13266   -13266   -13263   -13266 
  -13267   -13265   -13267   -13269   -13267   -13266   -13266   -13266 
  -13267   -13265   -13262   -13267   -13269   -13262   -13265   -13269 
  -13265   -13263   -13267   -13269   -13267   -13263   -13263   -13265 
  -13263   -13265   -13266   -13265   -13263   -13265   -13266   -13265 
  -13262   -13263   -13265   -13266   -13263   -13262   -13266   -13266 
  -13263   -13265   -13263   -13261   -13265   -13269   -13265   -13262 
  -13269   -13269   -13263   -13262   -13266   -13269   -13265   -13262 
  -13267   -13271   -13266   -13262   -13263   -13266   -13265   -13261 
  -13261   -13265   -13266   -13263   -13263   -13269   -13269   -13265 
  -13265   -13267   -13267   -13263   -13262   -13267   -13269   -13263 
  -13263   -13266   -13266   -13265   -13263   -13266   -13267   -13269 
  -13267   -13267   -13267   -13267   -13266   -13267   -13267   -13265 
  -13263   -13265   -13267   -13266   -13263   -13266   -13269   -13265 
  -13262   -13266   -13267   -13266   -13266   -13266   -13266   -13266 
  -13265   -13263   -13263   -13265   -13266   -13263   -13262   -13266 
  -13269   -13265   -13261   -13261   -13263   -13266   -13266   -13265 
  -13263   -13266   -13269   -13266   -13263   -13266   -13266   -13266 
  -13267   -13266   -13267   -13267   -13266   -13265   -13263   -13267 
  -13270   -13266   -13263   -13263   -13265   -13269   -13270   -13269 
  -13267   -13266   -13265   -13269   -13267   -13263   -13263   -13266 
  -13263   -13263   -13266   -13267   -13269   -13266   -13261   -13262 
  -13269   -13269   -13265   -13262   -13262   -13266   -13270   -13269 
  -13265   -13265   -13267   -13265   -13263   -13267   -13269   -13266 
  -13263   -13263   -13265   -13267   -13269   -13266   -13265   -13265 
  -13265   -13266   -13266   -13263   -13263   -13267   -13266   -13262 
  -13262   -13269   -13267   -13265   -13265   -13266   -13266   -13265 
  -13265   -13265   -13263   -13263   -13265   -13267   -13266   -13265 
  -13263   -13265   -13265   -13265   -13266   -13267   -13270   -13269 
  -13259   -13258   -13265   -13269   -13269   -13266   -13265   -13263 
  -13262   -13263   -13267   -13271   -13271   -13265   -13261   -13262 
  -13265   -13266   -13269   -13269   -13262   -13261   -13265   -13266 
  -13267   -13267   -13265   -13259   -13263   -13270   -13269   -13265 
  -13265   -13266   -13266   -13265   -13262   -13265   -13269   -13267 
  -13263   -13261   -13265   -13266   -13263   -13266   -13266   -13265 
  -13265   -13267   -13267   -13265   -13265   -13267   -13269   -13269 
  -13266   -13263   -13263   -13265   -13266   -13266   -13263   -13263 
  -13267   -13271   -13267   -13263   -13267   -13269   -13266   -13267 
  -13266   -13266   -13270   -13270   -13266   -13266   -13266   -13266 
  -13265   -13266   -13266   -13263   -13263   -13266   -13267   -13267 
  -13266   -13263   -13266   -13266   -13262   -13265   -13269   -13267 
  -13263   -13263   -13265   -13265   -13265   -13266   -13265   -13262 
  -13263   -13266   -13265   -13262   -13266   -13267   -13265   -13267 
  -13266   -13263   -13265   -13266   -13266   -13266   -13266   -13265 
  -13266   -13266   -13263   -13265   -13265   -13265   -13266   -13266 
  -13266   -13266   -13266   -13266   -13265   -13265   -13265   -13265 
  -13266   -13269   -13267   -13266   -13266   -13266   -13266   -13266 
  -13263   -13265   -13267   -13269   -13270   -13274   -13278   -13282 
  -13282   -13284   -13281   -13265   -13248   -13244   -13240   -13216 
  -13184   -13189   -13209   -13188   -13204   -13332   -13416   -13344 
  -13271   -13323   -13414   -13382   -13197   -13107   -13258   -13373 
  -13275   -13194   -13371   -13497   -13157   -12924   -13201   -13420 
  -13328   -13046   -12976   -13487   -13824   -13212   -12668   -13132 
  -13555   -13473   -13363   -13162   -13325   -13537   -13139   -12939 
  -13101   -13257   -13524   -13444   -12974   -13085   -13636   -13497 
  -12980   -12914   -13057   -13077   -13105   -13464   -13871   -13460 
  -12673   -13039   -13861   -13404   -12826   -13317   -13892   -13698 
  -12820   -12564   -13215   -13506   -13420   -13294   -13072   -13135 
  -13633   -13774   -13112   -12961   -13535   -13339   -12835   -13111 
  -13608   -13599   -13155   -13015   -13178   -13065   -13182   -13570 
  -13522   -13203   -12880   -12969   -13397   -13309   -13240   -13520 
  -13464   -13421   -13463   -13328   -13189   -12988   -13078   -13400 
  -13266   -13130   -13421   -13514   -13097   -12722   -12877   -13196 
  -13414   -13560   -13402   -13219   -13319   -13355   -13127   -13192 
  -13585   -13350   -12937   -13149   -13514   -13613   -13251   -13205 
  -13563   -13130   -12681   -12988   -13250   -13440   -13691   -13478 
  -12861   -12870   -13595   -13675   -12935   -12857   -13660   -13647 
  -12910   -13043   -13609   -13670   -13263   -13005   -13157   -13086 
  -13180   -13547   -13336   -12958   -12982   -13257   -13495   -13548 
  -13466   -13208   -13050   -13157   -13200   -13204   -13327   -13394 
  -13274   -13123   -13200   -13392   -13312   -13127   -13167   -13181 
  -13097   -13150   -13416   -13729   -13500   -12953   -13120   -13582 
  -13394   -13058   -13305   -13647   -13331   -12903   -12996   -13261 
  -13394   -13289   -13197   -13197   -13014   -13092   -13400   -13481 
  -13431   -13259   -13254   -13419   -13410   -13387   -13360   -13278 
  -13167   -13096   -13369   -13648   -13460   -13076   -12791   -12912 
  -13269   -13246   -13171   -13369   -13405   -13161   -13003   -13201 
  -13454   -13479   -13466   -13377   -13267   -13381   -13470   -13333 
  -13057   -12885   -13031   -13170   -13312   -13583   -13441   -13003 
  -12907   -13184   -13387   -13209   -13016   -13211   -13593   -13629 
  -13227   -13117   -13389   -13289   -12934   -13138   -13756   -13745 
  -13163   -13055   -13294   -13115   -12869   -13178   -13593   -13552 
  -13192   -12973   -13267   -13641   -13386   -12837   -12877   -13483 
  -13687   -13336   -13200   -13305   -13385   -13301   -12903   -12947 
  -13598   -13618   -13016   -12931   -13239   -13298   -13339   -13402 
  -13223   -13136   -13414   -13574   -13216   -12935   -13236   -13541 
  -13317   -13047   -13300   -13606   -13282   -12793   -13034   -13555 
  -13429   -13081   -13157   -13356   -13408   -13427   -13405   -13139 
  -12861   -13074   -13437   -13404   -13167   -13296   -13738   -13518 
  -12799   -12892   -13477   -13432   -13059   -13073   -13346   -13473 
  -13236   -13030   -13324   -13545   -13300   -13084   -13105   -13196 
  -13355   -13470   -13319   -13240   -13409   -13387   -13207   -13182 
  -13203   -13146   -13198   -13284   -13193   -13224   -13362   -13289 
  -13159   -13126   -13335   -13541   -13288   -13109   -13306   -13366 
  -13181   -13070   -13340   -13587   -13240   -12899   -13188   -13579 
  -13502   -13267   -13198   -13093   -13053   -13193   -13230   -13267 
  -13448   -13392   -13128   -13203   -13464   -13406   -13293   -13346 
  -13185   -13000   -13216   -13436   -13324   -13161   -13212   -13305 
  -13147   -13103   -13389   -13350   -13111   -13331   -13543   -13374 
  -13235   -13235   -13216   -13181   -13208   -13212   -13211   -13321 
  -13333   -13271   -13352   -13312   -13004   -12923   -13246   -13460 
  -13385   -13265   -13297   -13439   -13436   -13344   -13251   -13132 
  -13167   -13263   -13284   -13316   -13327   -13351   -13325   -13159 
  -13038   -13058   -13212   -13402   -13491   -13441   -13251   -13089 
  -13115   -13269   -13312   -13258   -13359   -13433   -13416   -13392 
  -13181   -13082   -13209   -13111   -12924   -13131   -13490   -13516 
  -13355   -13181   -13068   -13177   -13208   -13181   -13424   -13590 
  -13495   -13263   -12997   -12937   -13018   -13234   -13567   -13603 
  -13451   -13381   -13155   -13009   -13186   -13232   -13208   -13339 
  -13366   -13312   -13274   -13356   -13436   -13177   -13028   -13196 
  -13244   -13414   -13564   -13212   -12907   -13082   -13539   -13602 
  -13078   -13022   -13405   -13366   -13062   -13053   -13452   -13545 
  -13096   -12947   -13343   -13640   -13363   -12992   -13154   -13477 
  -13346   -12942   -13054   -13529   -13378   -13022   -13188   -13414 
  -13358   -13174   -13236   -13468   -13427   -13312   -13313   -13196 
  -13020   -13007   -13116   -13412   -13662   -13377   -13113   -13338 
  -13319   -13057   -13211   -13444   -13311   -13038   -13012   -13286 
  -13389   -13271   -13242   -13140   -13104   -13432   -13628   -13336 
  -13045   -13201   -13486   -13342   -13131   -13323   -13483   -13277 
  -12974   -13103   -13477   -13387   -13097   -13151   -13396   -13404 
  -13188   -13111   -13116   -13288   -13581   -13502   -13247   -13109 
  -13097   -13155   -13111   -13335   -13694   -13429   -13001   -13150 
  -13458   -13288   -13007   -13266   -13473   -13208   -13095   -13184 
  -13423   -13582   -13080   -12756   -13262   -13616   -13412   -13234 
  -13315   -13236   -12982   -13043   -13275   -13338   -13282   -13285 
  -13386   -13332   -13115   -13215   -13563   -13466   -13074   -12989 
  -13196   -13502   -13501   -13184   -13159   -13320   -13247   -13081 
  -13205   -13537   -13458   -13095   -13170   -13423   -13406   -13459 
  -13402   -13041   -12999   -13190   -13198   -13212   -13215   -13162 
  -13339   -13551   -13346   -13086   -13225   -13506   -13471   -13054 
  -12912   -13396   -13624   -13163   -12988   -13363   -13468   -13285 
  -13170   -13050   -12988   -13088   -13201   -13285   -13566   -13752 
  -13244   -12717   -13042   -13475   -13327   -13165   -13424   -13699 
  -13487   -13043   -13046   -13437   -13451   -13077   -13120   -13394 
  -13227   -13059   -13293   -13432   -13174   -12906   -13035   -13352 
  -13452   -13312   -13255   -13447   -13462   -13095   -12977   -13265 
  -13429   -13517   -13514   -13259   -13128   -13122   -13132   -13313 
  -13405   -13261   -13117   -13140   -13302   -13450   -13460   -13225 
  -13008   -13194   -13378   -13234   -13278   -13559   -13428   -13105 
  -13134   -13174   -13234   -13414   -13323   -13119   -13061   -13309 
  -13632   -13394   -13085   -13089   -13076   -13232   -13381   -13342 
  -13363   -13240   -13115   -13219   -13201   -13234   -13421   -13286 
  -13151   -13331   -13354   -13279   -13261   -13161   -13111   -13167 
  -13223   -13246   -13436   -13564   -13177   -12908   -13285   -13613 
  -13513   -13371   -13259   -13112   -13182   -13292   -13173   -13271 
  -13605   -13424   -12799   -12676   -13263   -13660   -13489   -13378 
  -13331   -13124   -13184   -13293   -13140   -13169   -13504   -13778 
  -13633   -13262   -13140   -13134   -13073   -13046   -13018   -13080 
  -13242   -13171   -13024   -13266   -13417   -13192   -13146   -13274 
  -13392   -13490   -13462   -13448   -13331   -13140   -13343   -13481 
  -13211   -13069   -13127   -13251   -13211   -12961   -13034   -13252 
  -13405   -13536   -13329   -13216   -13297   -13154   -13213   -13470 
  -13702   -13829   -13370   -12853   -12973   -13161   -12965   -12885 
  -13428   -13772   -13201   -12823   -13186   -13389   -13161   -13150 
  -13601   -13782   -13329   -13045   -13281   -13498   -13570   -13514 
  -13198   -12939   -12850   -12803   -12879   -13062   -13365   -13517 
  -13545   -13768   -13532   -12991   -13122   -13332   -13154   -13170 
  -13416   -13483   -13263   -13173   -13317   -13289   -13151   -13088 
  -13163   -13250   -13057   -12995   -13273   -13390   -13176   -13150 
  -13583   -13684   -13412   -13298   -12997   -12788   -13086   -13444 
  -13558   -13433   -13258   -13144   -13177   -13404   -13568   -13521 
  -13186   -12779   -12943   -13510   -13714   -13500   -13028   -12664 
  -13014   -13339   -12950   -12962   -13666   -13879   -13344   -13054 
  -13428   -13628   -13250   -12914   -13117   -13491   -13370   -13182 
  -13242   -13163   -13277   -13432   -13231   -13201   -13390   -13447 
  -13333   -13189   -13178   -13126   -13150   -13416   -13522   -13508 
  -13568   -13354   -12950   -12969   -13242   -13131   -12920   -12992 
  -13027   -13043   -13308   -13585   -13436   -12928   -12734   -13157 
  -13585   -13581   -13529   -13575   -13305   -13081   -13613   -14135 
  -13683   -12914   -12874   -13531   -14046   -14216   -14222   -13655 
  -12594   -11439   -10800   -11722   -13351   -14034   -13855   -13116 
  -12496   -13104   -14285   -14944   -14833   -13818   -12555   -12158 
  -13005   -14218   -14273   -13200   -12271   -11998   -12191   -12272 
  -12287   -13170   -14381   -14385   -13502   -13036   -12937   -12718 
  -12487   -12262   -12548   -13717   -15026   -15842   -15689   -14557 
  -13524   -12869   -11611   -10084   -10133   -11722   -12753   -13128 
  -14512   -16182   -16356   -15708   -15005   -13536   -12042   -11456 
  -11010   -11377   -13431   -14683   -13251   -11389   -11591   -13050 
  -13761   -13944   -14713   -14723   -12982   -11901   -12907   -14303 
  -14715   -14179   -13122   -12453   -13016   -14139   -14146   -12827 
  -11645   -11418   -12210   -13738   -14764   -14436   -13068   -11831 
  -12174   -13666   -14589   -14358   -13566   -12934   -12459   -12514 
  -13552   -14111   -13648   -13504   -13653   -13080   -11707   -11416 
  -13282   -14878   -15080   -14812   -13659   -12307   -11992   -12143 
  -12748   -13840   -14256   -13483   -12422   -12132   -12206   -12532 
  -13910   -14905   -13941   -12410   -12190   -13451   -14813   -15111 
  -14497   -13343   -12081   -11890   -13062   -13670   -13063   -12781 
  -12602   -12186   -13042   -14543   -14607   -13602   -12799   -12393 
  -12436   -13140   -14177   -14569   -13841   -12856   -12587   -12704 
  -12401   -12297   -13464   -14585   -13878   -12731   -12811   -13232 
  -13275   -13267   -13319   -13347   -13311   -13429   -13527   -13362 
  -13635   -14354   -14170   -13089   -12556   -12249   -11697   -12089 
  -12993   -13351   -13795   -14127   -13720   -13736   -14517   -14289 
  -12687   -11615   -12144   -13208   -13609   -13594   -13520   -13034 
  -12698   -13452   -14301   -14166   -13622   -13151   -13180   -13806 
  -13987   -13336   -12528   -12204   -12375   -12627   -13167   -13846 
  -13760   -13015   -12563   -13312   -14509   -14033   -12762   -12484 
  -12229   -12235   -13570   -14832   -14781   -13782   -12708   -12480 
  -12714   -12749   -13275   -14072   -14104   -13522   -12861   -12590 
  -12675   -12760   -13051   -13392   -13517   -13585   -13566   -13404 
  -13046   -12943   -13290   -13416   -13336   -13092   -12663   -13059 
  -14218   -14535   -13676   -13251   -13694   -13375   -12460   -12552 
  -13575   -14284   -13602   -12449   -12371   -12690   -12517   -12461 
  -13180   -14010   -13967   -13516   -13450   -13393   -13045   -12868 
  -13181   -13755   -13811   -13269   -13336   -14088   -13929   -12730 
  -12357   -13066   -13263   -13149   -13429   -13242   -12738   -12712 
  -12991   -13516   -14075   -13956   -13051   -12505   -12761   -12775 
  -12927   -13674   -13826   -13401   -13036   -12987   -13603   -14035 
  -13709   -13204   -12915   -13194   -13501   -13339   -13583   -13945 
  -13339   -12359   -12150   -12912   -13910   -14184   -13663   -12984 
  -12509   -12382   -12991   -13988   -14038   -13171   -12903   -13328 
  -13308   -12891   -13012   -13755   -14088   -13413   -12691   -12749 
  -13078   -13294   -13578   -13711   -13400   -12850   -12480   -12887 
  -13713   -13755   -13252   -13080   -13258   -13508   -13537   -13475 
  -13671   -13886   -13333   -12479   -12730   -13204   -12928   -13236 
  -14011   -13846   -13247   -13161   -13049   -12640   -12933   -13543 
  -13184   -12807   -13327   -13664   -13385   -13136   -13288   -13657 
  -13666   -13116   -12664   -12691   -12876   -13188   -13720   -14062 
  -13602   -12760   -12739   -13207   -13365   -13379   -13335   -13541 
  -13675   -13151   -13147   -13698   -13120   -12344   -13047   -13906 
  -13559   -13031   -13182   -13369   -13279   -13198   -12951   -12756 
  -13111   -13648   -13626   -13151   -13061   -13257   -13134   -13058 
  -13274   -13363   -13313   -13494   -13841   -13846   -13346   -12914 
  -13023   -13312   -13416   -13413   -13483   -13489   -12943   -12367 
  -12784   -13487   -13463   -13259   -13500   -13967   -13798   -12960 
  -12835   -13336   -13329   -13143   -13360   -13605   -13132   -12529 
  -12915   -13501   -13513   -13440   -13348   -13213   -13294   -13392 
  -13269   -13207   -13315   -13335   -13204   -13150   -13269   -13289 
  -13198   -13340   -13440   -13088   -12727   -12681   -13007   -13554 
  -13713   -13597   -13365   -13111   -13247   -13290   -13305   -13428 
  -12910   -12610   -13419   -14033   -13494   -12877   -12988   -13041 
  -12920   -13294   -13782   -13664   -13351   -13365   -13100   -12781 
  -13296   -13717   -13394   -13321   -13629   -13478   -12941   -12891 
  -13257   -13231   -13043   -13247   -13459   -13363   -13262   -13120 
  -13030   -13387   -13702   -13659   -13562   -13181   -12729   -12841 
  -13171   -13390   -13572   -13321   -12916   -12988   -13186   -13208 
  -13122   -13270   -13618   -13436   -13119   -13356   -13562   -13171 
  -12762   -13212   -13792   -13487   -13159   -13267   -13154   -13085 
  -13360   -13473   -13294   -13147   -13304   -13481   -13248   -13127 
  -13246   -13167   -13162   -13359   -13440   -13296   -13246   -13365 
  -13331   -13251   -13072   -12835   -12966   -13351   -13892   -14130 
  -13423   -12621   -12568   -12927   -13342   -13610   -13608   -13424 
  -13173   -12814   -12690   -13204   -13593   -13427   -13362   -13277 
  -12968   -12984   -13323   -13440   -13444   -13690   -13483   -12942 
  -13151   -13374   -13080   -12984   -13215   -13586   -13571   -13257 
  -13336   -13308   -13027   -13301   -13564   -13208   -13032   -13120 
  -13116   -13243   -13437   -13397   -13096   -13005   -13177   -13209 
  -13325   -13513   -13505   -13525   -13386   -12969   -13196   -13875 
  -13466   -12582   -12669   -13203   -13574   -13625   -13419   -13433 
  -13306   -12912   -12984   -13250   -13213   -13240   -13159   -13004 
  -13478   -13737   -13162   -13092   -13471   -13332   -13296   -13506 
  -13435   -13292   -13186   -13120   -13054   -13011   -13176   -13117 
  -13099   -13601   -13597   -13230   -13517   -13563   -12922   -12665 
  -12942   -13153   -13203   -13243   -13493   -13853   -13702   -13084 
  -12795   -12953   -13015   -13099   -13489   -13628   -13456   -13389 
  -13273   -13144   -13103   -13097   -13277   -13613   -13764   -13522 
