Origin Time       2025/03/30 21:30:00
Lat.              38.535
Long.             142.295
Depth. (km)       44
Mag.              4.3
Station Code      IWT008
Station Lat.      39.0815
Station Long.     141.7093
Station Height(m) 24
Record Time       2025/03/30 21:31:19
Sampling Freq(Hz) 100Hz
Duration Time(s)  60
Dir.              E-W
Scale Factor      7845(gal)/8223790
Max. Acc. (gal)   2.924
Last Correction   2025/03/30 21:31:18
Memo.             
[...]
   -7732    -7734    -7735    -7734    -7732    -7732    -7734    -7735 
   -7732    -7731    -7734    -7732    -7732    -7735    -7735    -7731 
   -7734    -7735    -7731    -7731    -7735    -7732    -7731    -7732 
   -7732    -7732    -7732    -7734    -7734    -7732    -7731    -7731 
   -7731    -7732    -7731    -7731    -7734    -7732    -7731    -7734 
   -7730    -7727    -7732    -7735    -7731    -7731    -7735    -7735 
   -7732    -7732    -7735    -7734    -7732    -7736    -7735    -7732 
   -7732    -7734    -7732    -7731    -7731    -7735    -7735    -7732 
   -7734    -7734    -7732    -7735    -7738    -7734    -7735    -7736 
   -7734    -7732    -7734    -7735    -7735    -7732    -7732    -7734 
   -7734    -7732    -7732    -7734    -7734    -7731    -7732    -7735 
   -7735    -7734    -7734    -7735    -7731    -7731    -7735    -7734 
   -7731    -7734    -7732    -7732    -7732    -7732    -7734    -7735 
   -7732    -7732    -7734    -7734    -7732    -7732    -7734    -7732 
   -7734    -7732    -7732    -7735    -7734    -7730    -7730    -7732 
   -7732    -7734    -7734    -7735    -7735    -7734    -7735    -7736 
   -7736    -7734    -7732    -7735    -7738    -7735    -7734    -7734 
   -7734    -7735    -7736    -7735    -7734    -7734    -7734    -7735 
   -7736    -7734    -7732    -7735    -7735    -7731    -7735    -7739 
   -7734    -7730    -7732    -7732    -7732    -7735    -7735    -7736 
   -7735    -7734    -7734    -7734    -7734    -7732    -7732    -7734 
   -7732    -7732    -7734    -7734    -7730    -7730    -7734    -7736 
   -7734    -7732    -7732    -7734    -7734    -7734    -7732    -7731 
   -7728    -7732    -7735    -7734    -7734    -7732    -7732    -7735 
   -7736    -7734    -7731    -7731    -7735    -7735    -7734    -7734 
   -7734    -7732    -7734    -7735    -7736    -7736    -7735    -7735 
   -7735    -7736    -7735    -7732    -7734    -7735    -7736    -7736 
   -7734    -7732    -7736    -7736    -7732    -7731    -7732    -7732 
   -7734    -7732    -7732    -7734    -7734    -7732    -7735    -7734 
   -7731    -7732    -7732    -7732    -7734    -7738    -7734    -7732 
   -7734    -7732    -7732    -7735    -7735    -7732    -7730    -7730 
   -7734    -7735    -7732    -7732    -7732    -7732    -7734    -7735 
   -7736    -7736    -7734    -7730    -7731    -7736    -7738    -7734 
   -7732    -7731    -7732    -7739    -7739    -7734    -7732    -7732 
   -7735    -7736    -7735    -7735    -7735    -7735    -7734    -7734 
   -7735    -7734    -7732    -7734    -7736    -7732    -7728    -7732 
   -7734    -7732    -7732    -7731    -7731    -7735    -7738    -7735 
   -7732    -7731    -7731    -7731    -7734    -7735    -7732    -7732 
   -7735    -7735    -7734    -7734    -7734    -7734    -7731    -7731 
   -7734    -7736    -7736    -7735    -7732    -7730    -7734    -7736 
   -7735    -7732    -7731    -7731    -7734    -7736    -7735    -7732 
   -7731    -7732    -7735    -7735    -7735    -7735    -7732    -7732 
   -7734    -7735    -7738    -7736    -7732    -7730    -7731    -7734 
   -7735    -7738    -7738    -7735    -7734    -7734    -7734    -7735 
   -7732    -7731    -7735    -7734    -7731    -7732    -7734    -7732 
   -7735    -7736    -7730    -7728    -7735    -7735    -7728    -7728 
   -7731    -7734    -7738    -7735    -7730    -7732    -7735    -7734 
   -7735    -7736    -7734    -7731    -7732    -7732    -7734    -7734 
   -7734    -7734    -7732    -7731    -7734    -7734    -7732    -7731 
   -7732    -7734    -7734    -7731    -7730    -7731    -7734    -7734 
   -7732    -7731    -7731    -7732    -7734    -7735    -7731    -7731 
   -7734    -7734    -7734    -7734    -7732    -7732    -7732    -7731 
   -7731    -7734    -7734    -7734    -7734    -7735    -7734    -7731 
   -7731    -7734    -7734    -7732    -7732    -7735    -7735    -7732 
   -7731    -7732    -7732    -7732    -7732    -7734    -7734    -7731 
   -7732    -7735    -7735    -7732    -7730    -7734    -7736    -7735 
   -7731    -7731    -7731    -7732    -7736    -7739    -7736    -7731 
   -7731    -7735    -7735    -7734    -7734    -7734    -7734    -7738 
   -7735    -7731    -7731    -7735    -7735    -7736    -7734    -7732 
   -7734    -7734    -7732    -7731    -7728    -7724    -7726    -7724 
   -7719    -7716    -7716    -7728    -7743    -7747    -7757    -7784 
   -7793    -7792    -7788    -7803    -7823    -7726    -7584    -7624 
   -7668    -7588    -7645    -7701    -7690    -7904    -7870    -7572 
   -7804    -7894    -7534    -7678    -7778    -7604    -7902    -7898 
   -7492    -7765    -8043    -7609    -7466    -7755    -7859    -7931 
   -7836    -7620    -7608    -7537    -7526    -7699    -7677    -7704 
   -8156    -8295    -7643    -7337    -7574    -7420    -7612    -8179 
   -7875    -7653    -8040    -8068    -8133    -7803    -6984    -7483 
   -8098    -7449    -7403    -7978    -7940    -7707    -7437    -7245 
   -7587    -7975    -8217    -8544    -8043    -7103    -7411    -7712 
   -7022    -7253    -8033    -8054    -8101    -8225    -7877    -7152 
   -7113    -8087    -8056    -7321    -7882    -8202    -7468    -7468 
   -7708    -7238    -7326    -8403    -8694    -7649    -7472    -8012 
   -7314    -6971    -7730    -8017    -8124    -8019    -7600    -7496 
   -7452    -7808    -8131    -7735    -7668    -7672    -7577    -8108 
   -8066    -7545    -7789    -7747    -7431    -7726    -7657    -7577 
   -8113    -8128    -7905    -7688    -7098    -7294    -7780    -7695 
   -7954    -7888    -7533    -8060    -8282    -7662    -7307    -7352 
   -7677    -8010    -7834    -7793    -8071    -7789    -7422    -7480 
   -7538    -7650    -7786    -7842    -7913    -7777    -7470    -7543 
   -7940    -7939    -7595    -7497    -7681    -8000    -8066    -7527 
   -7423    -8158    -7993    -7123    -7572    -8352    -7765    -7299 
   -7873    -7825    -7450    -8125    -8305    -7539    -7430    -7442 
   -7507    -8205    -8066    -7318    -7711    -8198    -7673    -7412 
   -7612    -7550    -7809    -8048    -7560    -7507    -7884    -7690 
   -7701    -7948    -7790    -7851    -7969    -7677    -7496    -7452 
   -7442    -7717    -7983    -7874    -7674    -7834    -7811    -7307 
   -7407    -7924    -7909    -7759    -7711    -7615    -7623    -7754 
   -7865    -7986    -8166    -7885    -7246    -7279    -7838    -8141 
   -8113    -7804    -7438    -7245    -7352    -7684    -7755    -7832 
   -8171    -8063    -7699    -7715    -7712    -7314    -7272    -8046 
   -8421    -7940    -7750    -7904    -7665    -7387    -7499    -7589 
   -7765    -8162    -8016    -7551    -7615    -7684    -7326    -7364 
   -7819    -7800    -7736    -8019    -8104    -8016    -7707    -7283 
   -7356    -7703    -7827    -7794    -7870    -8020    -7942    -7739 
   -7488    -7261    -7595    -7955    -7766    -7863    -8044    -7705 
   -7519    -7528    -7425    -7573    -7974    -8158    -8010    -7857 
   -7641    -7487    -7661    -7657    -7663    -7885    -7797    -7722 
   -7759    -7692    -7728    -7662    -7615    -7819    -7859    -7785 
   -7761    -7489    -7398    -7828    -7843    -7686    -8149    -8050 
   -7437    -7568    -7715    -7500    -7740    -8098    -7871    -7558 
   -7550    -7511    -7794    -8145    -7801    -7690    -7893    -7492 
   -7361    -7703    -7669    -7777    -8054    -7867    -7739    -7692 
   -7389    -7416    -7727    -7921    -8087    -7970    -7545    -7476 
   -7859    -7820    -7489    -7815    -8120    -7832    -7609    -7504 
   -7507    -7689    -7904    -8128    -8016    -7650    -7339    -7192 
   -7674    -8190    -7985    -7781    -7781    -7757    -7769    -7484 
   -7371    -7751    -7765    -7697    -8016    -7923    -7676    -7794 
   -7730    -7811    -8054    -7543    -7183    -7704    -7809    -7534 
   -7773    -7847    -7636    -7828    -7979    -7794    -7734    -7717 
   -7537    -7601    -7939    -7919    -7653    -7636    -7657    -7628 
   -7785    -7901    -7763    -7742    -7847    -7626    -7570    -7844 
   -7639    -7449    -7840    -8066    -7846    -7676    -7724    -7685 
   -7659    -7747    -7723    -7728    -7658    -7655    -7932    -7828 
   -7624    -7766    -7623    -7503    -7738    -7701    -7561    -7690 
   -7805    -7959    -8060    -7727    -7474    -7550    -7557    -7796 
   -8062    -7901    -7859    -7788    -7418    -7456    -7697    -7616 
   -7734    -8109    -7946    -7481    -7642    -7897    -7676    -7771 
   -8020    -7724    -7588    -7801    -7658    -7554    -7804    -7808 
   -7690    -7776    -7766    -7600    -7607    -7917    -7929    -7545 
   -7568    -7809    -7793    -7754    -7761    -7890    -7912    -7678 
   -7616    -7595    -7631    -7850    -7731    -7512    -7761    -8024 
   -7871    -7690    -7647    -7636    -7699    -7561    -7489    -7850 
   -8050    -7908    -7578    -7314    -7662    -7996    -7781    -7863 
   -8095    -7769    -7528    -7580    -7406    -7506    -7935    -8014 
   -7940    -7765    -7512    -7554    -7622    -7753    -8058    -7928 
   -7636    -7738    -7666    -7560    -7858    -7681    -7353    -7763 
   -7933    -7797    -7950    -7781    -7491    -7635    -7865    -7817 
   -7670    -7835    -7942    -7682    -7655    -7632    -7361    -7592 
   -7997    -7944    -7866    -7705    -7580    -7871    -7866    -7489 
   -7447    -7736    -8004    -7993    -7782    -7526    -7485    -7696 
   -7719    -7774    -8012    -7932    -7580    -7476    -7650    -7697 
   -7692    -7784    -7765    -7797    -7843    -7717    -7726    -7820 
   -7788    -7705    -7584    -7639    -7823    -7699    -7577    -7753 
   -7839    -7885    -7954    -7750    -7443    -7387    -7670    -7981 
   -7962    -7873    -7840    -7693    -7688    -7677    -7479    -7651 
   -7869    -7742    -7900    -7940    -7522    -7568    -7875    -7720 
   -7546    -7646    -7881    -8147    -7997    -7597    -7604    -7647 
   -7458    -7623    -7884    -7722    -7719    -7855    -7507    -7485 
   -7944    -7885    -7827    -7762    -7291    -7530    -7969    -7712 
   -7793    -8048    -7789    -7658    -7688    -7500    -7673    -8185 
   -7921    -7393    -7700    -7800    -7476    -7759    -8009    -7789 
   -7627    -7615    -7618    -7487    -7607    -7882    -7850    -8064 
   -8112    -7531    -7474    -7730    -7578    -7734    -8058    -7927 
   -7657    -7476    -7497    -7747    -7885    -7946    -7939    -7636 
   -7438    -7512    -7568    -7835    -8244    -8144    -7650    -7476 
   -7636    -7707    -7680    -7738    -7874    -7954    -7865    -7546 
   -7338    -7628    -7852    -7750    -7790    -7681    -7592    -7916 
   -7844    -7533    -7659    -7754    -7763    -7782    -7730    -7844 
   -7885    -7803    -7666    -7492    -7690    -7901    -7757    -7677 
   -7708    -7578    -7473    -7709    -7846    -7743    -7836    -7744 
   -7491    -7763    -8187    -8041    -7659    -7692    -7720    -7485 
   -7574    -7843    -7956    -7825    -7601    -7771    -7850    -7582 
   -7632    -7681    -7541    -7784    -7993    -7848    -7912    -7893 
   -7391    -7267    -7753    -7916    -7803    -7882    -7765    -7599 
   -7808    -7839    -7668    -7848    -7749    -7211    -7371    -7996 
   -8012    -7642    -7735    -8058    -7680    -7272    -7614    -7816 
   -7782    -7844    -7728    -7743    -7932    -7873    -7530    -7404 
   -7804    -7878    -7603    -7843    -8005    -7707    -7603    -7697 
   -7662    -7530    -7635    -7931    -7877    -7681    -7842    -8016 
   -7781    -7456    -7650    -7992    -7920    -7823    -7731    -7547 
   -7601    -7776    -7622    -7298    -7620    -8101    -7736    -7415 
   -7685    -7850    -7927    -8108    -8052    -7848    -7892    -7628 
   -7177    -7562    -7866    -7481    -7655    -8137    -7971    -7647 
   -7666    -7596    -7246    -7369    -8031    -8170    -7805    -7738 
   -7865    -7990    -8032    -7699    -7391    -7479    -7560    -7560 
   -7731    -7901    -7757    -7527    -7549    -7651    -7811    -7908 
   -7690    -7680    -7835    -7701    -7917    -8229    -7938    -7874 
   -7888    -7431    -7507    -7750    -7214    -7053    -7757    -8075 
   -7816    -7743    -7719    -7460    -7468    -7843    -7978    -7942 
   -8059    -8031    -8031    -8020    -7549    -7400    -7668    -7495 
   -7663    -8357    -8195    -7430    -7160    -7207    -7337    -7654 
   -8002    -8144    -7948    -7749    -7662    -7609    -7804    -7784 
   -7542    -7786    -8129    -8113    -7844    -7558    -7651    -7615 
   -7292    -7433    -7755    -7947    -7994    -7881    -7801    -7310 
   -7084    -7827    -8197    -8006    -7975    -7912    -7766    -7584 
   -7496    -7515    -7609    -7766    -7661    -7766    -8133    -7912 
   -7554    -7460    -7341    -7551    -7971    -8070    -8013    -7919 
   -7719    -7649    -7668    -7650    -7784    -7975    -7981    -7744 
   -7470    -7582    -7758    -7604    -7711    -7959    -7917    -7836 
   -7547    -7372    -7507    -7388    -7609    -8164    -8149    -8048 
   -8052    -7730    -7385    -7426    -7693    -7763    -7692    -7485 
   -7323    -7762    -8241    -8704    -9595    -9375    -7558    -5985 
   -5595    -6328    -7722    -8814    -9266    -9009    -7522    -5528 
   -5019    -6124    -7122    -7561    -8484    -9576    -9382    -8510 
   -8230    -8105    -7743    -6997    -5952    -5719    -7079    -9061 
   -9832   -10019   -10330    -8565    -5907    -5127    -4668    -4673 
   -6523    -8013    -8577    -9567   -10477   -10644    -9684    -7410 
   -5410    -5421    -6430    -7048    -7825    -8548    -8691    -8618 
   -7587    -6245    -6856    -8464    -9038    -8984    -9175    -9105 
   -8125    -7749    -8534    -8147    -6347    -5574    -6859    -7920 
   -6924    -6251    -6798    -6948    -7600    -8681    -8937    -9050 
   -8515    -7261    -7182    -7786    -8035    -8745    -9254    -8338 
   -7468    -7797    -7812    -7040    -6659    -6627    -6415    -6497 
   -7334    -8201    -8621    -8777    -8425    -7859    -7292    -6986 
   -7580    -7447    -6222    -6690    -8333    -8598    -8029    -7700 
   -7754    -8799    -9814    -8662    -6075    -4812    -5908    -7730 
   -9065   -10181   -10191    -8634    -7001    -6367    -6862    -7955 
   -8448    -7965    -7678    -7580    -6700    -6633    -7857    -8074 
   -7740    -7874    -7735    -8164    -8947    -8268    -7074    -6955 
   -7576    -8059    -7960    -7911    -8174    -8078    -7600    -7091 
   -7060    -7755    -8287    -7956    -7389    -7369    -7688    -7750 
   -7491    -7427    -7460    -7191    -7495    -8063    -7492    -6844 
   -7113    -7735    -8689    -9101    -8033    -6960    -7358    -8473 
   -8864    -8486    -7885    -6767    -6021    -7202    -9115    -9549 
   -8652    -7744    -7168    -7140    -7528    -7074    -6439    -7217 
   -8023    -7963    -8301    -8623    -7979    -7284    -7426    -7892 
   -8023    -8019    -7888    -7177    -6639    -7472    -8808    -8924 
   -8140    -7639    -7119    -6806    -7794    -8448    -7414    -6910 
   -7144    -6565    -7009    -8908    -9094    -7916    -7765    -7539 
   -6937    -7724    -8716    -8414    -8016    -7669    -6941    -6960 
   -7484    -7346    -7379    -8135    -8387    -7655    -7146    -7573 
   -8075    -8352    -8764    -8675    -7916    -7507    -7310    -6809 
   -7121    -8039    -7928    -7406    -7254    -6952    -6814    -7375 
   -8468    -9224    -8795    -7812    -7376    -7639    -8006    -8160 
   -8436    -8326    -7514    -7065    -7175    -7391    -7797    -8297 
   -8552    -8094    -7433    -7560    -7426    -6570    -6879    -7786 
   -7662    -7755    -8162    -7905    -7932    -7893    -7337    -7758 
   -8372    -7847    -7518    -7740    -7646    -7596    -7973    -8286 
   -7975    -7418    -7446    -7599    -7458    -7589    -7700    -7568 
   -7449    -7101    -6972    -7589    -8322    -8738    -8964    -8579 
   -7412    -6458    -6586    -7546    -8183    -8114    -8256    -8352 
   -7684    -7215    -7348    -7342    -7465    -7851    -8006    -8105 
   -7870    -7183    -7416    -8283    -8046    -7493    -7485    -7306 
   -7520    -8340    -8758    -8426    -7489    -6966    -7358    -7798 
   -7987    -7873    -7665    -7723    -7543    -7302    -7668    -8209 
   -8233    -7894    -7730    -7712    -7519    -7156    -7125    -7743 
   -8105    -7992    -8236    -8226    -7643    -7258    -7209    -7582 
   -8062    -8233    -8295    -8136    -7537    -6944    -7245    -8028 
   -8152    -7762    -7225    -6947    -7470    -8006    -8052    -8140 
   -7857    -7350    -7557    -7731    -7504    -7604    -7804    -7848 
   -7758    -7685    -7931    -8106    -7823    -7353    -7288    -7673 
   -7875    -7851    -7870    -7740    -7330    -7325    -7925    -7979 
   -7632    -7769    -7960    -8147    -8271    -8083    -7912    -7456 
   -7018    -7462    -7897    -7717    -7842    -8195    -8163    -7919 
   -7445    -7192    -7688    -8160    -8239    -8121    -7788    -7468 
   -7263    -7458    -7869    -7680    -7333    -7295    -7415    -8031 
   -8437    -7879    -7464    -7564    -7507    -7344    -7425    -7946 
   -8164    -7743    -7762    -7942    -7746    -7927    -7962    -7411 
   -7275    -7465    -7497    -7680    -7866    -7843    -7850    -7858 
   -7800    -7803    -7815    -7719    -7568    -7653    -8031    -8224 
   -8066    -7736    -7322    -7195    -7568    -7906    -7933    -7759 
   -7321    -7196    -7692    -7917    -7863    -8091    -8210    -7888 
   -7314    -7024    -7376    -7858    -8094    -8298    -8328    -7935 
   -7569    -7581    -7592    -7553    -7735    -7947    -7933    -7827 
   -7815    -7701    -7573    -7722    -7726    -7626    -7796    -7642 
   -7184    -7206    -7727    -8198    -8175    -8008    -8114    -8135 
   -7933    -7503    -7063    -7157    -7292    -7244    -7942    -8734 
   -8224    -7375    -7257    -7354    -7592    -7857    -7739    -7631 
   -7704    -7776    -7879    -7711    -7438    -7669    -7765    -7618 
   -8109    -8402    -7924    -7582    -7429    -7514    -7851    -7692 
   -7524    -7797    -7792    -7781    -8059    -8031    -7628    -7354 
   -7614    -7902    -7809    -7789    -7807    -7824    -7717    -7514 
   -7854    -7952    -7620    -7794    -7728    -7577    -7935    -7803 
   -7491    -7690    -7739    -7739    -8016    -7994    -7755    -7749 
   -7649    -7535    -7755    -7905    -7765    -7539    -7345    -7416 
   -7690    -7739    -7736    -7935    -7933    -7915    -8064    -7936 
   -7759    -7560    -7418    -7724    -7782    -7562    -7539    -7530 
   -7728    -7969    -8075    -8105    -7670    -7157    -7090    -7414 
   -8137    -8557    -7959    -7184    -7379    -7874    -7832    -7927 
   -7973    -7407    -7233    -7770    -8094    -8208    -8166    -7452 
   -7052    -7547    -7665    -7603    -7962    -7923    -7649    -7726 
   -7680    -7508    -7585    -7618    -7580    -7720    -7896    -7978 
   -8039    -8221    -8210    -7712    -7472    -7798    -7942    -7744 
   -7516    -7473    -7623    -7553    -7657    -8226    -8120    -7443 
   -7442    -7754    -7757    -7753    -7776    -7623    -7543    -7673 
   -7631    -7672    -8098    -8086    -7715    -7874    -7946    -7635 
