Origin Time       2025/03/30 21:30:00
Lat.              38.535
Long.             142.295
Depth. (km)       44
Mag.              4.3
Station Code      IWT005
Station Lat.      39.6478
Station Long.     141.9465
Station Height(m) 6
Record Time       2025/03/30 21:31:31
Sampling Freq(Hz) 100Hz
Duration Time(s)  60
Dir.              U-D
Scale Factor      7845(gal)/8223790
Max. Acc. (gal)   1.586
Last Correction   2025/03/30 21:31:30
Memo.             
[...]
  -43659   -43494   -43276   -43289   -43503   -43723   -43825   -43740 
  -43594   -43579   -43702   -43830   -43872   -43869   -43821   -43706 
  -43727   -43887   -43843   -43679   -43772   -43981   -43933   -43714 
  -43615   -43595   -43483   -43294   -43182   -43332   -43650   -43858 
  -43993   -44122   -44023   -43746   -43599   -43529   -43453   -43567 
  -43719   -43714   -43858   -44167   -44254   -44111   -43892   -43629 
  -43414   -43344   -43383   -43456   -43538   -43598   -43567   -43476 
  -43513   -43803   -44074   -43993   -43830   -43870   -43856   -43746 
  -43740   -43734   -43649   -43490   -43324   -43386   -43741   -44099 
  -44116   -43826   -43609   -43614   -43621   -43509   -43491   -43656 
  -43779   -43819   -43857   -43816   -43785   -43854   -43842   -43713 
  -43672   -43771   -43819   -43633   -43378   -43359   -43447   -43487 
  -43664   -43862   -43889   -43988   -44116   -43991   -43787   -43715 
  -43690   -43595   -43441   -43436   -43629   -43714   -43633   -43653 
  -43784   -43812   -43730   -43710   -43679   -43556   -43515   -43533 
  -43548   -43700   -43914   -43964   -43856   -43800   -43881   -43918 
  -43850   -43753   -43632   -43529   -43449   -43382   -43420   -43580 
  -43827   -44016   -43899   -43683   -43777   -43941   -43850   -43684 
  -43538   -43440   -43541   -43744   -43796   -43714   -43708   -43795 
  -43819   -43783   -43722   -43700   -43756   -43784   -43819   -43839 
  -43715   -43590   -43606   -43707   -43730   -43632   -43644   -43715 
  -43668   -43661   -43625   -43429   -43387   -43599   -43872   -44089 
  -44109   -43958   -43775   -43590   -43586   -43798   -43831   -43571 
  -43384   -43437   -43571   -43733   -43857   -43792   -43637   -43538 
  -43514   -43621   -43850   -44026   -44010   -43902   -43769   -43552 
  -43390   -43438   -43569   -43667   -43781   -43912   -43983   -43937 
  -43764   -43640   -43686   -43698   -43613   -43611   -43641   -43582 
  -43583   -43752   -43877   -43839   -43804   -43845   -43843   -43741 
  -43580   -43440   -43417   -43518   -43640   -43727   -43753   -43738 
  -43831   -43946   -43870   -43761   -43710   -43596   -43583   -43725 
  -43745   -43686   -43765   -43839   -43789   -43777   -43792   -43745 
  -43704   -43584   -43379   -43345   -43467   -43537   -43573   -43687 
  -43876   -43997   -43961   -43870   -43866   -43904   -43839   -43722 
  -43688   -43657   -43579   -43513   -43483   -43564   -43727   -43822 
  -43812   -43718   -43632   -43649   -43654   -43594   -43561   -43633 
  -43788   -43849   -43757   -43673   -43704   -43811   -43849   -43796 
  -43816   -43900   -43865   -43679   -43488   -43414   -43453   -43536 
  -43586   -43626   -43752   -43957   -44081   -44058   -43983   -43837 
  -43610   -43524   -43609   -43586   -43488   -43627   -43848   -43815 
  -43657   -43563   -43544   -43582   -43592   -43609   -43676   -43681 
  -43734   -43924   -44000   -43941   -43931   -43903   -43812   -43690 
  -43522   -43464   -43568   -43640   -43636   -43619   -43567   -43559 
  -43626   -43676   -43680   -43609   -43553   -43679   -43873   -43972 
  -43991   -43953   -43942   -44001   -43893   -43572   -43425   -43502 
  -43448   -43325   -43411   -43663   -43912   -44016   -43883   -43659 
  -43548   -43517   -43557   -43713   -43767   -43673   -43698   -43816 
  -43893   -43976   -43989   -43873   -43783   -43760   -43710   -43659 
  -43615   -43507   -43434   -43530   -43657   -43683   -43694   -43745 
  -43742   -43659   -43621   -43690   -43762   -43741   -43706   -43777 
  -43846   -43811   -43776   -43775   -43802   -43856   -43810   -43675 
  -43609   -43564   -43510   -43514   -43537   -43544   -43575   -43680 
  -43819   -43860   -43853   -43889   -43848   -43783   -43829   -43791 
  -43638   -43602   -43617   -43541   -43510   -43625   -43771   -43804 
  -43769   -43779   -43791   -43719   -43646   -43713   -43858   -43839 
  -43603   -43445   -43565   -43729   -43696   -43627   -43681   -43784 
  -43872   -43852   -43656   -43518   -43598   -43702   -43733   -43764 
  -43791   -43792   -43767   -43719   -43649   -43602   -43687   -43796 
  -43761   -43730   -43746   -43706   -43714   -43733   -43664   -43619 
  -43605   -43611   -43729   -43816   -43722   -43653   -43735   -43758 
  -43688   -43686   -43703   -43725   -43788   -43775   -43748   -43810 
  -43795   -43734   -43752   -43741   -43698   -43668   -43573   -43483 
  -43514   -43569   -43622   -43762   -43857   -43814   -43768   -43756 
  -43760   -43802   -43841   -43825   -43726   -43579   -43575   -43696 
  -43661   -43538   -43579   -43686   -43757   -43764   -43654   -43607 
  -43702   -43731   -43707   -43757   -43804   -43808   -43784   -43740 
  -43764   -43815   -43773   -43673   -43569   -43526   -43611   -43722 
  -43750   -43756   -43748   -43698   -43686   -43686   -43618   -43669 
  -43830   -43814   -43704   -43696   -43700   -43696   -43737   -43780 
  -43788   -43745   -43721   -43741   -43667   -43559   -43557   -43541 
  -43519   -43652   -43818   -43854   -43787   -43687   -43642   -43691 
  -43787   -43816   -43740   -43733   -43803   -43819   -43843   -43827 
  -43757   -43729   -43636   -43528   -43559   -43594   -43592   -43633 
  -43641   -43700   -43883   -43899   -43691   -43546   -43526   -43632 
  -43810   -43798   -43706   -43791   -43860   -43804   -43761   -43708 
  -43677   -43715   -43656   -43488   -43460   -43627   -43808   -43885 
  -43829   -43707   -43667   -43718   -43730   -43654   -43583   -43630 
  -43750   -43798   -43757   -43710   -43694   -43726   -43723   -43595 
  -43511   -43645   -43833   -43868   -43811   -43796   -43788   -43731 
  -43692   -43679   -43679   -43753   -43748   -43573   -43491   -43565 
  -43653   -43721   -43700   -43652   -43746   -43873   -43845   -43726 
  -43683   -43772   -43876   -43870   -43812   -43843   -43896   -43761 
  -43540   -43463   -43480   -43507   -43568   -43625   -43652   -43700 
  -43760   -43722   -43638   -43684   -43779   -43722   -43606   -43681 
  -43922   -44038   -43924   -43740   -43634   -43623   -43621   -43594 
  -43583   -43598   -43652   -43726   -43764   -43771   -43762   -43746 
  -43718   -43694   -43744   -43852   -43857   -43760   -43696   -43623 
  -43519   -43498   -43538   -43583   -43646   -43679   -43715   -43856 
  -43996   -43953   -43780   -43713   -43742   -43695   -43636   -43657 
  -43700   -43725   -43715   -43706   -43688   -43638   -43657   -43684 
  -43563   -43475   -43530   -43522   -43505   -43665   -43876   -43981 
  -43977   -43907   -43857   -43839   -43842   -43900   -43912   -43744 
  -43567   -43555   -43548   -43495   -43534   -43556   -43521   -43621 
  -43723   -43667   -43645   -43706   -43749   -43829   -43887   -43831 
  -43815   -43835   -43729   -43713   -43891   -43879   -43638   -43533 
  -43586   -43653   -43714   -43675   -43534   -43494   -43645   -43833 
  -43845   -43767   -43811   -43827   -43704   -43657   -43680   -43669 
  -43691   -43725   -43713   -43710   -43733   -43733   -43719   -43680 
  -43586   -43541   -43605   -43686   -43741   -43776   -43835   -43930 
  -43943   -43811   -43646   -43625   -43738   -43744   -43603   -43526 
  -43565   -43677   -43750   -43700   -43680   -43711   -43694   -43711 
  -43675   -43506   -43546   -43803   -43849   -43745   -43760   -43785 
  -43757   -43775   -43803   -43780   -43745   -43665   -43572   -43575 
  -43632   -43721   -43865   -43907   -43776   -43650   -43621   -43618 
  -43613   -43609   -43588   -43565   -43613   -43737   -43796   -43762 
  -43779   -43827   -43785   -43683   -43645   -43715   -43775   -43737 
  -43690   -43691   -43727   -43796   -43838   -43850   -43908   -43941 
  -43843   -43661   -43468   -43380   -43445   -43482   -43438   -43447 
  -43492   -43587   -43808   -44028   -44078   -43987   -43899   -43881 
  -43868   -43803   -43749   -43794   -43852   -43767   -43602   -43505 
  -43476   -43503   -43572   -43528   -43362   -43355   -43544   -43702 
  -43753   -43745   -43769   -43883   -44031   -44080   -44005   -43993 
  -44020   -43902   -43695   -43497   -43367   -43411   -43515   -43530 
  -43503   -43534   -43661   -43769   -43734   -43686   -43744   -43854 
  -43910   -43812   -43665   -43668   -43746   -43811   -43888   -43881 
  -43779   -43723   -43699   -43603   -43515   -43564   -43646   -43564 
  -43444   -43541   -43752   -43818   -43742   -43634   -43569   -43618 
  -43737   -43880   -44045   -44062   -43910   -43802   -43698   -43579 
  -43646   -43754   -43710   -43664   -43634   -43556   -43552   -43636 
  -43661   -43645   -43700   -43769   -43760   -43753   -43794   -43773 
  -43692   -43692   -43757   -43788   -43806   -43802   -43768   -43748 
  -43677   -43618   -43675   -43671   -43595   -43584   -43540   -43556 
  -43745   -43767   -43603   -43645   -43846   -43947   -43897   -43765 
  -43692   -43707   -43702   -43644   -43602   -43657   -43753   -43749 
  -43644   -43576   -43602   -43652   -43645   -43572   -43568   -43680 
  -43772   -43841   -43919   -43939   -43931   -43875   -43729   -43626 
  -43607   -43552   -43519   -43613   -43707   -43744   -43769   -43733 
  -43713   -43744   -43625   -43465   -43536   -43644   -43652   -43752 
  -43879   -43903   -43966   -44014   -43900   -43749   -43646   -43582 
  -43633   -43738   -43738   -43692   -43640   -43518   -43472   -43525 
  -43522   -43548   -43630   -43653   -43700   -43849   -43972   -43969 
  -43892   -43830   -43825   -43831   -43718   -43580   -43671   -43837 
  -43842   -43791   -43733   -43691   -43702   -43626   -43467   -43372 
  -43325   -43324   -43428   -43560   -43680   -43850   -44020   -44035 
  -43937   -43900   -43895   -43881   -43919   -43895   -43780   -43687 
  -43541   -43389   -43430   -43573   -43582   -43501   -43549   -43698 
  -43744   -43744   -43806   -43838   -43796   -43767   -43798   -43815 
  -43757   -43723   -43734   -43702   -43679   -43719   -43718   -43656 
  -43668   -43735   -43711   -43626   -43541   -43505   -43605   -43784 
  -43924   -43951   -43866   -43768   -43707   -43699   -43753   -43804 
  -43771   -43703   -43735   -43822   -43769   -43609   -43515   -43505 
  -43497   -43455   -43395   -43449   -43641   -43789   -43885   -43983 
  -43964   -43895   -43946   -43974   -43843   -43722   -43707   -43673 
  -43596   -43561   -43537   -43526   -43563   -43575   -43578   -43617 
  -43644   -43644   -43654   -43769   -43961   -43987   -43885   -43857 
  -43775   -43646   -43659   -43704   -43703   -43702   -43690   -43696 
  -43691   -43591   -43457   -43405   -43474   -43555   -43621   -43816 
  -44049   -44135   -44116   -44012   -43808   -43663   -43677   -43694 
  -43575   -43445   -43432   -43510   -43644   -43796   -43906   -43895 
  -43760   -43614   -43529   -43490   -43524   -43594   -43653   -43827 
  -44073   -44084   -43887   -43757   -43738   -43738   -43669   -43530 
  -43495   -43617   -43696   -43667   -43692   -43804   -43826   -43714 
  -43572   -43452   -43403   -43509   -43713   -43835   -43885   -43927 
  -43849   -43717   -43767   -43893   -43857   -43729   -43665   -43646 
  -43603   -43514   -43452   -43575   -43821   -43958   -43919   -43810 
  -43810   -43902   -43826   -43599   -43494   -43567   -43715   -43818 
  -43821   -43810   -43791   -43675   -43513   -43413   -43403   -43449 
  -43472   -43498   -43613   -43771   -43888   -43969   -44023   -44016 
  -43981   -43945   -43789   -43569   -43522   -43565   -43556   -43626 
  -43711   -43622   -43524   -43587   -43675   -43664   -43621   -43633 
  -43672   -43664   -43614   -43584   -43665   -43861   -43978   -43965 
  -43966   -43987   -43942   -43862   -43756   -43636   -43615   -43627 
  -43530   -43455   -43499   -43561   -43634   -43741   -43825   -43845 
  -43796   -43696   -43615   -43600   -43634   -43671   -43654   -43652 
  -43757   -43858   -43864   -43833   -43781   -43726   -43688   -43676 
  -43677   -43663   -43715   -43887   -44011   -44001   -43947   -43875 
  -43787   -43746   -43727   -43640   -43510   -43378   -43237   -43185 
  -43293   -43495   -43690   -43803   -43839   -43884   -44008   -44153 
  -44158   -44015   -43887   -43846   -43816   -43754   -43673   -43545 
  -43460   -43495   -43494   -43397   -43364   -43501   -43719   -43869 
  -43937   -43985   -43974   -43858   -43715   -43588   -43428   -43272 
  -43195   -43231   -43391   -43594   -43789   -44059   -44297   -44308 
  -44170   -43950   -43595   -43248   -43144   -43289   -43506   -43723 
  -43973   -44107   -43972   -43715   -43491   -43276   -43093   -43012 
  -43105   -43475   -44026   -44470   -44710   -44840   -44801   -44544 
  -44227   -43849   -43324   -42858   -42588   -42514   -42790   -43298 
  -43656   -43815   -43939   -44086   -44165   -44015   -43686   -43467 
  -43546   -43827   -44074   -44200   -44339   -44500   -44421   -44059 
  -43677   -43371   -43089   -42844   -42700   -42724   -42884   -43093 
  -43376   -43680   -43934   -44269   -44621   -44716   -44594   -44413 
  -44127   -43803   -43556   -43339   -43135   -43012   -43059   -43235 
  -43340   -43374   -43453   -43605   -43852   -44096   -44212   -44308 
  -44417   -44344   -44093   -43854   -43715   -43744   -43870   -43807 
  -43502   -43236   -43117   -43067   -43106   -43276   -43545   -43825 
  -44097   -44390   -44593   -44626   -44562   -44327   -43812   -43170 
  -42641   -42372   -42412   -42674   -43015   -43332   -43580   -43710 
  -43696   -43738   -44024   -44352   -44556   -44825   -45129   -45121 
  -44814   -44491   -44138   -43609   -42989   -42477   -42168   -42045 
  -42105   -42309   -42477   -42672   -43224   -44084   -44832   -45237 
  -45351   -45322   -45215   -45009   -44699   -44288   -43833   -43507 
  -43339   -43251   -43258   -43276   -43232   -43202   -43128   -43001 
  -42931   -42855   -42811   -42974   -43247   -43471   -43733   -44099 
  -44493   -44894   -45234   -45266   -44864   -44216   -43599   -43152 
  -42935   -42942   -42974   -42897   -42873   -43052   -43453   -43919 
  -44161   -44136   -44028   -43914   -43748   -43421   -42973   -42753 
  -43036   -43611   -44176   -44721   -45148   -45210   -44830   -44190 
  -43613   -43148   -42669   -42391   -42503   -42822   -43181   -43511 
  -43754   -43891   -43926   -44020   -44239   -44312   -44211   -44178 
  -44177   -44172   -44239   -44297   -44328   -44280   -43960   -43475 
  -43073   -42758   -42562   -42599   -42754   -42912   -43201   -43582 
  -43903   -44181   -44369   -44451   -44501   -44444   -44226   -43877 
  -43528   -43366   -43364   -43433   -43551   -43684   -43916   -44228 
  -44327   -44143   -43849   -43457   -43056   -42970   -43198   -43428 
  -43563   -43572   -43467   -43468   -43560   -43568   -43575   -43621 
  -43615   -43563   -43548   -43654   -43903   -44205   -44428   -44544 
  -44570   -44401   -44030   -43688   -43588   -43677   -43729   -43640 
  -43505   -43403   -43375   -43364   -43345   -43461   -43573   -43453 
  -43321   -43318   -43370   -43579   -43879   -44088   -44217   -44166 
  -43941   -43776   -43611   -43353   -43256   -43406   -43594   -43700 
  -43733   -43777   -43873   -43974   -44082   -44212   -44309   -44305 
  -44219   -44122   -43951   -43669   -43413   -43187   -42938   -42870 
  -43096   -43370   -43536   -43615   -43559   -43445   -43418   -43363 
  -43275   -43426   -43823   -44224   -44547   -44753   -44778   -44656 
  -44405   -44039   -43703   -43449   -43240   -43143   -43201   -43314 
  -43397   -43459   -43548   -43591   -43544   -43540   -43573   -43499 
  -43367   -43333   -43488   -43772   -44014   -44167   -44323   -44386 
  -44181   -43815   -43506   -43348   -43363   -43411   -43398   -43507 
  -43785   -44088   -44347   -44469   -44406   -44220   -43927   -43627 
  -43441   -43285   -43081   -42970   -43059   -43187   -43191   -43144 
  -43137   -43185   -43348   -43644   -43957   -44223   -44486   -44694 
  -44712   -44566   -44383   -44170   -43918   -43725   -43606   -43528 
  -43509   -43465   -43337   -43201   -43081   -42881   -42631   -42626 
  -42982   -43494   -44046   -44527   -44825   -44986   -44921   -44595 
  -44219   -43865   -43480   -43140   -43005   -43135   -43445   -43822 
  -44080   -44066   -43848   -43501   -43162   -43105   -43258   -43368 
  -43491   -43681   -43908   -44197   -44444   -44527   -44388   -43970 
  -43413   -42992   -42844   -42952   -43240   -43583   -43846   -44007 
  -44093   -44099   -44030   -43896   -43744   -43649   -43579   -43509 
  -43506   -43572   -43740   -43983   -44086   -44054   -44024   -43887 
  -43606   -43317   -43042   -42901   -43086   -43478   -43788   -43930 
  -43965   -43939   -43950   -43997   -43946   -43843   -43804   -43787 
  -43784   -43846   -43961   -44064   -43999   -43758   -43546   -43341 
  -43108   -43079   -43200   -43301   -43465   -43649   -43789   -43920 
  -43956   -43888   -43879   -43969   -43974   -43780   -43613   -43708 
  -43962   -44107   -44038   -43877   -43754   -43684   -43626   -43568 
  -43534   -43460   -43244   -43069   -43141   -43293   -43384   -43528 
  -43761   -43992   -44180   -44375   -44524   -44477   -44273   -44113 
  -44008   -43760   -43413   -43210   -43132   -43100   -43146   -43216 
  -43295   -43448   -43559   -43506   -43443   -43521   -43673   -43852 
  -44178   -44656   -44968   -44918   -44699   -44424   -44051   -43683 
  -43394   -43119   -42892   -42807   -42763   -42727   -42865   -43105 
  -43285   -43553   -43937   -44181   -44231   -44228   -44223   -44230 
  -44316   -44437   -44429   -44236   -43941   -43644   -43371   -43089 
  -42900   -42900   -42951   -42917   -42936   -43221   -43699   -44082 
  -44307   -44496   -44575   -44344   -43915   -43634   -43580   -43599 
  -43590   -43522   -43456   -43498   -43625   -43659   -43532   -43447 
  -43528   -43657   -43792   -43934   -44000   -44037   -44165   -44288 
  -44247   -44108   -43954   -43772   -43613   -43525   -43430   -43236 
  -42959   -42761   -42799   -43077   -43460   -43794   -44001   -44050 
  -44054   -44220   -44416   -44352   -44103   -43889   -43825   -43864 
  -43879   -43835   -43738   -43595   -43457   -43340   -43228   -43090 
  -42927   -42870   -43044   -43433   -43889   -44199   -44325   -44416 
  -44479   -44355   -44028   -43722   -43579   -43586   -43694   -43752 
  -43657   -43507   -43456   -43569   -43730   -43779   -43703   -43563 
  -43486   -43544   -43571   -43501   -43478   -43559   -43729   -43950 
  -44018   -43833   -43619   -43499   -43479   -43632   -43754   -43731 
  -43834   -44049   -44109   -44059   -43969   -43750   -43524   -43497 
  -43588   -43623   -43617   -43625   -43672   -43789   -43922   -43880 
  -43654   -43488   -43429   -43395   -43426   -43518   -43640   -43764 
  -43830   -43893   -43958   -43843   -43533   -43363   -43592   -43951 
  -44055   -43978   -43915   -43860   -43784   -43699   -43665   -43719 
  -43788   -43829   -43892   -43957   -43896   -43700   -43475   -43221 
  -43020   -43019   -43114   -43202   -43339   -43468   -43573   -43810 
  -44119   -44302   -44431   -44590   -44649   -44525   -44298   -44086 
  -43889   -43634   -43443   -43379   -43251   -43065   -43017   -43073 
  -43113   -43154   -43220   -43293   -43341   -43368   -43538   -43957 
  -44371   -44552   -44632   -44755   -44721   -44393   -44070   -43842 
  -43526   -43244   -43137   -43160   -43237   -43217   -43164   -43248 
