Origin Time       2025/03/30 21:30:00
Lat.              38.535
Long.             142.295
Depth. (km)       44
Mag.              4.3
Station Code      IWT006
Station Lat.      39.4850
Station Long.     141.9748
Station Height(m) 17
Record Time       2025/03/30 21:31:27
Sampling Freq(Hz) 100Hz
Duration Time(s)  60
Dir.              U-D
Scale Factor      7845(gal)/8223790
Max. Acc. (gal)   0.884
Last Correction   2025/03/30 21:31:26
Memo.             
[...]
  -50444   -50477   -50487   -50481   -50498   -50507   -50471   -50442 
  -50458   -50492   -50519   -50522   -50492   -50452   -50437   -50458 
  -50499   -50510   -50457   -50386   -50376   -50437   -50512   -50556 
  -50550   -50508   -50475   -50490   -50527   -50525   -50453   -50395 
  -50449   -50527   -50519   -50450   -50383   -50400   -50526   -50618 
  -50561   -50418   -50333   -50371   -50487   -50541   -50467   -50444 
  -50506   -50499   -50508   -50587   -50518   -50318   -50342   -50560 
  -50593   -50480   -50444   -50441   -50415   -50429   -50487   -50491 
  -50429   -50394   -50422   -50523   -50573   -50510   -50546   -50638 
  -50552   -50419   -50386   -50371   -50402   -50499   -50500   -50487 
  -50626   -50684   -50596   -50553   -50441   -50195   -50075   -50299 
  -50653   -50707   -50460   -50311   -50531   -50776   -50604   -50446 
  -50584   -50529   -50337   -50410   -50510   -50344   -50230   -50442 
  -50681   -50758   -50677   -50329   -50035   -50228   -50645   -50712 
  -50496   -50437   -50473   -50464   -50548   -50585   -50456   -50430 
  -50491   -50452   -50498   -50585   -50427   -50245   -50434   -50676 
  -50548   -50437   -50535   -50496   -50352   -50207   -50187   -50454 
  -50715   -50751   -50600   -50445   -50512   -50560   -50375   -50257 
  -50453   -50676   -50583   -50483   -50498   -50299   -50232   -50537 
  -50714   -50608   -50537   -50538   -50310   -50133   -50463   -50704 
  -50557   -50441   -50344   -50342   -50511   -50616   -50544   -50345 
  -50425   -50728   -50693   -50468   -50356   -50303   -50290   -50392 
  -50666   -50712   -50396   -50255   -50341   -50471   -50629   -50680 
  -50635   -50457   -50275   -50383   -50461   -50355   -50445   -50618 
  -50442   -50198   -50562   -51100   -50824   -50221   -50245   -50500 
  -50363   -50276   -50572   -50687   -50454   -50448   -50618   -50410 
  -50167   -50340   -50395   -50275   -50612   -50981   -50641   -50265 
  -50492   -50556   -50168   -50264   -50785   -50750   -50449   -50422 
  -50348   -50325   -50522   -50608   -50479   -50430   -50529   -50450 
  -50361   -50506   -50623   -50584   -50400   -50306   -50456   -50500 
  -50396   -50438   -50625   -50768   -50715   -50377   -50048   -50334 
  -50796   -50527   -50147   -50384   -50673   -50615   -50556   -50604 
  -50477   -50222   -50211   -50529   -50727   -50480   -50271   -50492 
  -50647   -50480   -50468   -50588   -50473   -50440   -50560   -50423 
  -50203   -50275   -50499   -50517   -50504   -50745   -50836   -50602 
  -50361   -50326   -50372   -50260   -50332   -50622   -50566   -50421 
  -50529   -50531   -50452   -50614   -50579   -50053   -50087   -50807 
  -50784   -50220   -50321   -50712   -50571   -50414   -50741   -50681 
  -50194   -50229   -50557   -50589   -50467   -50440   -50326   -50249 
  -50662   -50820   -50201   -49970   -50600   -50957   -50554   -50423 
  -50692   -50383   -50120   -50539   -50674   -50395   -50403   -50604 
  -50512   -50305   -50467   -50564   -50394   -50491   -50593   -50469 
  -50349   -50255   -50423   -50737   -50692   -50359   -50317   -50741 
  -50872   -50448   -50070   -49944   -50247   -50877   -51036   -50538 
  -50160   -50392   -50666   -50544   -50392   -50311   -50269   -50457 
  -50741   -50661   -50194   -50240   -50892   -50911   -50346   -50187 
  -50325   -50436   -50599   -50681   -50440   -50217   -50545   -50853 
  -50488   -50124   -50278   -50476   -50433   -50495   -50719   -50592 
  -50272   -50371   -50557   -50464   -50454   -50592   -50564   -50419 
  -50348   -50352   -50492   -50697   -50734   -50623   -50456   -50229 
  -50167   -50391   -50465   -50461   -50754   -50695   -50291   -50414 
  -50576   -50175   -50037   -50581   -50834   -50606   -50719   -50865 
  -50643   -50503   -50329   -50031   -50174   -50593   -50507   -50129 
  -50152   -50457   -50722   -50901   -50846   -50557   -50400   -50454 
  -50395   -50271   -50288   -50325   -50386   -50635   -50893   -50758 
  -50380   -50232   -50283   -50396   -50519   -50500   -50361   -50318 
  -50554   -50747   -50639   -50585   -50581   -50446   -50337   -50259 
  -50291   -50483   -50641   -50673   -50565   -50475   -50415   -50344 
  -50467   -50518   -50422   -50602   -50639   -50367   -50371   -50394 
  -50116   -50091   -50604   -50969   -50699   -50476   -50523   -50411 
  -50479   -50706   -50581   -50205   -50049   -50415   -50708   -50502 
  -50413   -50629   -50728   -50494   -50226   -50301   -50417   -50469 
  -50635   -50579   -50388   -50480   -50599   -50495   -50377   -50442 
  -50580   -50672   -50657   -50415   -50199   -50263   -50437   -50580 
  -50581   -50491   -50421   -50363   -50473   -50650   -50554   -50421 
  -50508   -50484   -50295   -50357   -50549   -50507   -50521   -50711 
  -50604   -50318   -50359   -50562   -50607   -50480   -50265   -50183 
  -50350   -50469   -50425   -50557   -50781   -50708   -50566   -50521 
  -50317   -50201   -50400   -50577   -50531   -50367   -50310   -50522 
  -50769   -50728   -50441   -50255   -50375   -50515   -50442   -50390 
  -50430   -50431   -50480   -50650   -50738   -50571   -50363   -50307 
  -50268   -50418   -50795   -50712   -50299   -50357   -50561   -50390 
  -50261   -50491   -50706   -50550   -50328   -50437   -50571   -50483 
  -50506   -50575   -50426   -50396   -50533   -50364   -50164   -50492 
  -50834   -50643   -50445   -50531   -50527   -50419   -50340   -50199 
  -50275   -50712   -50938   -50662   -50279   -50201   -50421   -50600 
  -50625   -50527   -50392   -50305   -50252   -50414   -50561   -50398 
  -50383   -50681   -50896   -50728   -50377   -50257   -50269   -50410 
  -50688   -50568   -50175   -50325   -50815   -50685   -50202   -50317 
  -50587   -50423   -50460   -50706   -50440   -50159   -50557   -50863 
  -50542   -50305   -50440   -50537   -50452   -50398   -50487   -50465 
  -50353   -50471   -50665   -50602   -50333   -50261   -50450   -50573 
  -50683   -50695   -50394   -50218   -50436   -50620   -50411   -50137 
  -50359   -50753   -50733   -50506   -50422   -50431   -50394   -50371 
  -50445   -50506   -50452   -50440   -50595   -50677   -50546   -50388 
  -50400   -50533   -50539   -50429   -50359   -50355   -50450   -50606 
  -50684   -50573   -50372   -50321   -50337   -50236   -50314   -50722 
  -50896   -50602   -50375   -50467   -50576   -50498   -50390   -50383 
  -50333   -50377   -50739   -50859   -50355   -50014   -50318   -50573 
  -50417   -50417   -50683   -50653   -50418   -50410   -50491   -50492 
  -50480   -50535   -50553   -50356   -50298   -50569   -50607   -50321 
  -50313   -50557   -50575   -50639   -50892   -50572   -49948   -50148 
  -50695   -50629   -50427   -50430   -50224   -50136   -50591   -50932 
  -50706   -50418   -50365   -50376   -50476   -50542   -50382   -50373 
  -50592   -50591   -50448   -50384   -50418   -50623   -50674   -50321 
  -50125   -50383   -50673   -50769   -50638   -50294   -50144   -50436 
  -50695   -50585   -50454   -50444   -50483   -50723   -50726   -50206 
  -49970   -50290   -50544   -50572   -50618   -50689   -50654   -50550 
  -50438   -50379   -50437   -50446   -50415   -50456   -50407   -50333 
  -50461   -50623   -50562   -50488   -50603   -50558   -50326   -50336 
  -50407   -50287   -50404   -50743   -50641   -50238   -50380   -50838 
  -50633   -50186   -50367   -50595   -50521   -50699   -50728   -50167 
  -50020   -50602   -50749   -50361   -50337   -50494   -50440   -50480 
  -50557   -50508   -50562   -50606   -50508   -50576   -50620   -50228 
  -50012   -50396   -50646   -50598   -50639   -50619   -50457   -50295 
  -50238   -50415   -50607   -50490   -50413   -50572   -50502   -50479 
  -50774   -50604   -50161   -50356   -50607   -50244   -50182   -50807 
  -50913   -50352   -50245   -50519   -50473   -50391   -50608   -50600 
  -50210   -50205   -50642   -50635   -50206   -50321   -50884   -50827 
  -50356   -50376   -50550   -50410   -50419   -50627   -50391   -50120 
  -50508   -50784   -50580   -50490   -50409   -50260   -50386   -50615 
  -50558   -50375   -50425   -50483   -50445   -50556   -50602   -50562 
  -50666   -50602   -50303   -50232   -50409   -50487   -50417   -50440 
  -50502   -50369   -50460   -50876   -50758   -50195   -50109   -50458 
  -50656   -50548   -50479   -50498   -50306   -50371   -50890   -50886 
  -50242   -50039   -50498   -50672   -50257   -50174   -50593   -50741 
  -50700   -50674   -50326   -50047   -50414   -50834   -50581   -50264 
  -50404   -50430   -50334   -50517   -50630   -50541   -50526   -50522 
  -50496   -50521   -50442   -50296   -50434   -50669   -50441   -50194 
  -50492   -50672   -50456   -50336   -50295   -50346   -50631   -50801 
  -50575   -50310   -50481   -50680   -50417   -50305   -50608   -50674 
  -50382   -50175   -50384   -50720   -50661   -50495   -50511   -50468 
  -50359   -50326   -50419   -50472   -50398   -50395   -50476   -50579 
  -50619   -50498   -50298   -50234   -50508   -50792   -50696   -50498 
  -50485   -50526   -50404   -50301   -50429   -50514   -50452   -50472 
  -50538   -50504   -50480   -50510   -50395   -50284   -50359   -50449 
  -50661   -50792   -50444   -50211   -50488   -50722   -50662   -50527 
  -50360   -50106   -50179   -50688   -50885   -50610   -50356   -50396 
  -50643   -50615   -50384   -50380   -50338   -50220   -50383   -50627 
  -50635   -50571   -50514   -50415   -50463   -50557   -50523   -50463 
  -50305   -50209   -50372   -50599   -50703   -50579   -50423   -50394 
  -50353   -50360   -50418   -50468   -50541   -50611   -50658   -50542 
  -50352   -50456   -50657   -50503   -50340   -50504   -50553   -50487 
  -50541   -50425   -50260   -50357   -50587   -50680   -50575   -50521 
  -50410   -50207   -50259   -50427   -50576   -50616   -50469   -50581 
  -50747   -50446   -50279   -50526   -50572   -50410   -50469   -50487 
  -50278   -50480   -50897   -50656   -50245   -50253   -50265   -50317 
  -50569   -50573   -50332   -50419   -50757   -50689   -50377   -50345 
  -50426   -50423   -50383   -50383   -50461   -50637   -50904   -50747 
  -50253   -50309   -50584   -50413   -50247   -50418   -50517   -50323 
  -50359   -50741   -50754   -50387   -50268   -50476   -50701   -50704 
  -50426   -50116   -50241   -50673   -50680   -50417   -50541   -50762 
  -50602   -50276   -50225   -50434   -50472   -50364   -50498   -50685 
  -50542   -50267   -50286   -50484   -50514   -50490   -50533   -50565 
  -50580   -50423   -50286   -50527   -50683   -50442   -50311   -50506 
  -50643   -50468   -50302   -50373   -50495   -50649   -50718   -50526 
  -50363   -50379   -50311   -50175   -50359   -50787   -50843   -50608 
  -50550   -50485   -50341   -50342   -50356   -50315   -50491   -50716 
  -50480   -50180   -50453   -50723   -50495   -50341   -50504   -50595 
  -50562   -50556   -50452   -50269   -50274   -50415   -50484   -50496 
  -50518   -50538   -50549   -50625   -50641   -50384   -50170   -50372 
  -50666   -50550   -50211   -50224   -50568   -50723   -50584   -50498 
  -50446   -50256   -50287   -50630   -50654   -50314   -50269   -50534 
  -50683   -50728   -50592   -50190   -50075   -50507   -50822   -50637 
  -50384   -50352   -50506   -50726   -50693   -50413   -50256   -50427 
  -50755   -50795   -50427   -50187   -50404   -50660   -50627   -50425 
  -50234   -50295   -50599   -50764   -50535   -50241   -50261   -50323 
  -50446   -50831   -50765   -50209   -50161   -50556   -50703   -50600 
  -50479   -50444   -50519   -50607   -50571   -50477   -50561   -50646 
  -50488   -50313   -50276   -50475   -50776   -50706   -50463   -50471 
  -50531   -50431   -50321   -50391   -50487   -50473   -50390   -50283 
  -50414   -50641   -50498   -50299   -50348   -50360   -50453   -50697 
  -50685   -50350   -50178   -50446   -50635   -50496   -50500   -50630 
  -50629   -50523   -50368   -50291   -50375   -50618   -50768   -50510 
  -50159   -50064   -50136   -50309   -50539   -50738   -50696   -50365 
  -50298   -50685   -50801   -50480   -50440   -50579   -50469   -50571 
  -50827   -50637   -50269   -50248   -50448   -50479   -50426   -50506 
  -50575   -50595   -50514   -50406   -50481   -50383   -50147   -50236 
  -50394   -50510   -50727   -50722   -50517   -50560   -50620   -50178 
  -49813   -50283   -50804   -50619   -50344   -50342   -50305   -50315 
  -50469   -50517   -50494   -50618   -50832   -50935   -50751   -50464 
  -50438   -50583   -50604   -50446   -50229   -50062   -50075   -50387 
  -50595   -50508   -50631   -50785   -50627   -50517   -50479   -50321 
  -50371   -50868   -50998   -50294   -49914   -50305   -50577   -50580 
  -50591   -50457   -50284   -50390   -50506   -50340   -50171   -50206 
  -50433   -50711   -50855   -50764   -50508   -50519   -50724   -50495 
  -50036   -50067   -50464   -50480   -50217   -50287   -50573   -50770 
  -50641   -50210   -50183   -50695   -51017   -50809   -50500   -50546 
  -50746   -50719   -50391   -50039   -50035   -50209   -50310   -50429 
  -50446   -50388   -50564   -50897   -51048   -50855   -50407   -49956 
  -49913   -50530   -51069   -50797   -50302   -50180   -50369   -50750 
  -50803   -50427   -50377   -50511   -50233   -49910   -49971   -50348 
  -50680   -50550   -50197   -50292   -50787   -50977   -50823   -50853 
  -50876   -50607   -50518   -50579   -50176   -49644   -49661   -50079 
  -50568   -50955   -50996   -50714   -50643   -50862   -50618   -50066 
  -50020   -50147   -50140   -50394   -50661   -50643   -50793   -51174 
  -51108   -50723   -50743   -50620   -49908   -49550   -49740   -50078 
  -50604   -50788   -50453   -50414   -50882   -51050   -50553   -50207 
  -50256   -50186   -50328   -50816   -50958   -50568   -50175   -50186 
  -50487   -50773   -50635   -50125   -50075   -50445   -50498   -50423 
  -50522   -50546   -50461   -50561   -50774   -50650   -50271   -50194 
  -50558   -50922   -50839   -50396   -49985   -49939   -50407   -50935 
  -50909   -50576   -50452   -50503   -50522   -50463   -50282   -49950 
  -49829   -50328   -50889   -50758   -50418   -50481   -50572   -50503 
  -50527   -50534   -50386   -50363   -50625   -50679   -50298   -50257 
  -50826   -51007   -50433   -50118   -50326   -50329   -50341   -50679 
  -50629   -50143   -50195   -50575   -50299   -49904   -50326   -50992 
  -51081   -50923   -50836   -50498   -50236   -50485   -50595   -50259 
  -50247   -50695   -50809   -50464   -50203   -50211   -50402   -50550 
  -50444   -50383   -50523   -50453   -50265   -50472   -50855   -50830 
  -50692   -50843   -50612   -50021   -49975   -50248   -50303   -50361 
  -50602   -50750   -50502   -50290   -50556   -50808   -50710   -50600 
  -50537   -50269   -50016   -50253   -50704   -50689   -50450   -50340 
  -50148   -50290   -50884   -51030   -50541   -50186   -50203   -50094 
  -50090   -50585   -50757   -50449   -50625   -51003   -50652   -50166 
  -50423   -50600   -50121   -50067   -50699   -50955   -50708   -50550 
  -50382   -50120   -50183   -50356   -50160   -49968   -50302   -50969 
  -51148   -50662   -50436   -50683   -50782   -50639   -50464   -50291 
  -50070   -49979   -50238   -50645   -50868   -50746   -50512   -50527 
  -50602   -50463   -50213   -50032   -50064   -50321   -50668   -50843 
  -50691   -50553   -50692   -50662   -50288   -50230   -50625   -50629 
  -50121   -50067   -50546   -50826   -50949   -50973   -50572   -50126 
  -50268   -50664   -50530   -50039   -49824   -50001   -50488   -50976 
  -50965   -50485   -50309   -50719   -50828   -50458   -50411   -50579 
  -50457   -50322   -50458   -50376   -50134   -50523   -50905   -50604 
  -50367   -50295   -50260   -50522   -50704   -50529   -50199   -50116 
  -50464   -50797   -50755   -50360   -50091   -50456   -50862   -50731 
  -50611   -50633   -50361   -50083   -50117   -50303   -50490   -50584 
  -50711   -50681   -50322   -50275   -50507   -50392   -50249   -50542 
  -50873   -50688   -50406   -50525   -50589   -50419   -50436   -50579 
  -50426   -50152   -50279   -50588   -50620   -50573   -50679   -50676 
  -50495   -50338   -50228   -50268   -50531   -50718   -50465   -50075 
  -50415   -51217   -51189   -50257   -49590   -49744   -50199   -50581 
  -50881   -50831   -50542   -50681   -51163   -51013   -50145   -49748 
  -50041   -50238   -50426   -50697   -50561   -50306   -50616   -50996 
  -50558   -49935   -50130   -50544   -50371   -50183   -50506   -50742 
  -50674   -50766   -50634   -50013   -49916   -50662   -51206   -50984 
  -50515   -50276   -50125   -50143   -50515   -50708   -50502   -50469 
  -50630   -50499   -50295   -50357   -50365   -50217   -50313   -50764 
  -51098   -50816   -50188   -50040   -50544   -50862   -50522   -50314 
  -50545   -50465   -50118   -50110   -50421   -50747   -50853   -50599 
  -50338   -50535   -50673   -50269   -50095   -50539   -50819   -50602 
  -50422   -50436   -50392   -50404   -50457   -50450   -50646   -50747 
  -50252   -49923   -50386   -50757   -50522   -50372   -50531   -50502 
  -50383   -50602   -50735   -50384   -50121   -50409   -50815   -50743 
  -50457   -50502   -50603   -50449   -50303   -50274   -50357   -50566 
  -50527   -50334   -50603   -50843   -50553   -50380   -50356   -50194 
  -50292   -50463   -50284   -50191   -50418   -50472   -50437   -50908 
  -51187   -50577   -50120   -50257   -50325   -50382   -50608   -50704 
  -50518   -50309   -50338   -50620   -50992   -50861   -50179   -50068 
  -50580   -50635   -50372   -50265   -50166   -50252   -50580   -50799 
  -50728   -50429   -50211   -50261   -50498   -50743   -50712   -50484 
  -50391   -50467   -50625   -50642   -50346   -50052   -50089   -50423 
  -50842   -51074   -50924   -50476   -50120   -50126   -50330   -50415 
  -50367   -50376   -50479   -50557   -50583   -50654   -50692   -50485 
  -50240   -50341   -50610   -50657   -50558   -50414   -50245   -50330 
  -50618   -50739   -50565   -50256   -50255   -50525   -50596   -50733 
  -50946   -50546   -49860   -49805   -50382   -50866   -50835   -50622 
  -50490   -50342   -50264   -50298   -50464   -50627   -50541   -50506 
  -50615   -50371   -50018   -50153   -50422   -50454   -50623   -50950 
  -50946   -50581   -50171   -49869   -50090   -50895   -51190   -50606 
  -50238   -50446   -50558   -50469   -50534   -50656   -50502   -50215 
  -50224   -50423   -50387   -50338   -50638   -50784   -50549   -50596 
  -50589   -49981   -49971   -50881   -51148   -50595   -50383   -50521 
  -50434   -50290   -50342   -50441   -50446   -50438   -50506   -50454 
  -50280   -50333   -50510   -50461   -50387   -50544   -50585   -50264 
  -50072   -50346   -50664   -50838   -50989   -50873   -50602   -50548 
  -50353   -49898   -49982   -50691   -50947   -50458   -50137   -50365 
  -50538   -50372   -50334   -50471   -50458   -50446   -50554   -50608 
  -50445   -50161   -50143   -50433   -50724   -50834   -50657   -50511 
  -50800   -51043   -50708   -50121   -49773   -49828   -50325   -50907 
  -50777   -50193   -50259   -50685   -50696   -50576   -50554   -50484 
  -50396   -50411   -50494   -50427   -50321   -50507   -50836   -50888 
  -50610   -50365   -50321   -50407   -50558   -50467   -50157   -50102 
  -50267   -50361   -50463   -50684   -50872   -50699   -50280   -50237 
  -50546   -50620   -50467   -50472   -50653   -50774   -50728   -50472 
  -50160   -50184   -50475   -50638   -50623   -50585   -50565   -50384 
