Origin Time       2025/03/30 21:30:00
Lat.              38.535
Long.             142.295
Depth. (km)       44
Mag.              4.3
Station Code      IWT004
Station Lat.      39.7356
Station Long.     141.9671
Station Height(m) 9
Record Time       2025/03/30 21:31:32
Sampling Freq(Hz) 100Hz
Duration Time(s)  60
Dir.              U-D
Scale Factor      7845(gal)/8223790
Max. Acc. (gal)   1.560
Last Correction   2025/03/30 21:31:31
Memo.             
[...]
  -45524   -45833   -46489   -46878   -46664   -46265   -46191   -46390 
  -46558   -46529   -46273   -45914   -45646   -45557   -45666   -45936 
  -46164   -46229   -46203   -46110   -46087   -46280   -46515   -46642 
  -46693   -46623   -46380   -46056   -45765   -45658   -45956   -46440 
  -46562   -46279   -45972   -45863   -45966   -46170   -46234   -46055 
  -45871   -45924   -46145   -46344   -46426   -46356   -46217   -46207 
  -46325   -46361   -46260   -46084   -45902   -45887   -46121   -46375 
  -46472   -46489   -46354   -45995   -45777   -45968   -46280   -46352 
  -46183   -45993   -45968   -46132   -46307   -46387   -46423   -46365 
  -46165   -45889   -45654   -45693   -46041   -46360   -46483   -46561 
  -46549   -46364   -46238   -46292   -46376   -46422   -46338   -46012 
  -45728   -45860   -46197   -46273   -46052   -45820   -45781   -45978 
  -46346   -46592   -46421   -46030   -45916   -46153   -46363   -46309 
  -46128   -46049   -46217   -46569   -46778   -46602   -46180   -45854 
  -45837   -46043   -46172   -46055   -45832   -45836   -46174   -46462 
  -46326   -45949   -45827   -46122   -46498   -46612   -46450   -46186 
  -46017   -46028   -46109   -46180   -46278   -46309   -46156   -45974 
  -45971   -46145   -46332   -46323   -46121   -46021   -46179   -46411 
  -46533   -46449   -46138   -45862   -45883   -46006   -45978   -45952 
  -46137   -46394   -46402   -46179   -46094   -46224   -46338   -46399 
  -46373   -46148   -45937   -45993   -46152   -46288   -46429   -46406 
  -46138   -45928   -46052   -46360   -46483   -46264   -45925   -45813 
  -46026   -46278   -46211   -45936   -45877   -46080   -46259   -46321 
  -46321   -46255   -46153   -46120   -46211   -46396   -46565   -46538 
  -46273   -46039   -46029   -46072   -45994   -45936   -46049   -46175 
  -46180   -46156   -46160   -46187   -46203   -46165   -46125   -46157 
  -46210   -46218   -46210   -46246   -46361   -46475   -46419   -46161 
  -45941   -46037   -46299   -46361   -46171   -45906   -45804   -45972 
  -46170   -46170   -46155   -46305   -46462   -46468   -46345   -46171 
  -46060   -46036   -46012   -45974   -46018   -46226   -46450   -46422 
  -46186   -46041   -46148   -46360   -46453   -46305   -45947   -45694 
  -45819   -46113   -46307   -46426   -46429   -46268   -46165   -46234 
  -46298   -46284   -46251   -46134   -45948   -45890   -45939   -45943 
  -46024   -46253   -46448   -46481   -46375   -46224   -46187   -46313 
  -46399   -46283   -46047   -45835   -45808   -45989   -46117   -46082 
  -46095   -46282   -46471   -46440   -46217   -46079   -46221   -46476 
  -46511   -46224   -45820   -45662   -45927   -46309   -46435   -46330 
  -46145   -46002   -46040   -46215   -46300   -46203   -46087   -46097 
  -46186   -46273   -46318   -46280   -46248   -46319   -46407   -46394 
  -46286   -46094   -45866   -45781   -45906   -46082   -46229   -46321 
  -46197   -45937   -45900   -46159   -46503   -46688   -46535   -46170 
  -45944   -46033   -46302   -46504   -46461   -46172   -45806   -45563 
  -45643   -46062   -46438   -46450   -46232   -46053   -46025   -46211 
  -46542   -46695   -46498   -46126   -45835   -45874   -46275   -46511 
  -46198   -45748   -45652   -45925   -46327   -46479   -46211   -45943 
  -46113   -46494   -46602   -46422   -46209   -46099   -46153   -46272 
  -46236   -46064   -45983   -46018   -46008   -45941   -46003   -46276 
  -46534   -46457   -46111   -45917   -46101   -46446   -46615   -46456 
  -46107   -45897   -45967   -46145   -46228   -46132   -45933   -45855 
  -45997   -46201   -46323   -46371   -46321   -46192   -46180   -46341 
  -46496   -46530   -46337   -45970   -45840   -46072   -46263   -46211 
  -46044   -45864   -45809   -46017   -46338   -46431   -46238   -46070 
  -46126   -46273   -46400   -46496   -46469   -46323   -46165   -46039 
  -45999   -46078   -46160   -46121   -45995   -45976   -46152   -46309 
  -46222   -46041   -46051   -46248   -46395   -46361   -46224   -46084 
  -46002   -46030   -46191   -46368   -46349   -46157   -46055   -46143 
  -46282   -46373   -46398   -46315   -46137   -45928   -45786   -45800 
  -45955   -46163   -46318   -46398   -46483   -46533   -46392   -46121 
  -45943   -45960   -46133   -46319   -46294   -46066   -45940   -46084 
  -46357   -46543   -46514   -46261   -45962   -45816   -45855   -46025 
  -46232   -46337   -46264   -46068   -45983   -46160   -46396   -46456 
  -46360   -46198   -46051   -46048   -46164   -46205   -46160   -46168 
  -46201   -46165   -46110   -46107   -46134   -46180   -46230   -46192 
  -46125   -46192   -46295   -46264   -46186   -46217   -46278   -46218 
  -46126   -46114   -46125   -46114   -46078   -46090   -46210   -46302 
  -46234   -46109   -46084   -46174   -46286   -46330   -46276   -46201 
  -46190   -46197   -46143   -46086   -46106   -46175   -46190   -46093 
  -45989   -46022   -46192   -46377   -46410   -46271   -46093   -45978 
  -45997   -46136   -46282   -46361   -46360   -46325   -46327   -46332 
  -46214   -45974   -45814   -45883   -46076   -46201   -46180   -46126 
  -46156   -46257   -46338   -46296   -46156   -46122   -46245   -46352 
  -46357   -46290   -46149   -46056   -46118   -46226   -46255   -46207 
  -46124   -46006   -45908   -45941   -46067   -46129   -46140   -46226 
  -46376   -46496   -46521   -46372   -46118   -46024   -46179   -46369 
  -46372   -46171   -45945   -45863   -45902   -45972   -46078   -46172 
  -46164   -46147   -46226   -46314   -46337   -46344   -46329   -46275 
  -46292   -46311   -46134   -45936   -45995   -46197   -46295   -46248 
  -46113   -45979   -45964   -46072   -46184   -46240   -46214   -46165 
  -46237   -46388   -46426   -46286   -46098   -46067   -46228   -46379 
  -46350   -46153   -45922   -45847   -45968   -46147   -46234   -46202 
  -46168   -46194   -46211   -46217   -46253   -46303   -46268   -46148 
  -46106   -46168   -46226   -46267   -46255   -46155   -46151   -46321 
  -46373   -46114   -45817   -45821   -46053   -46263   -46346   -46245 
  -46071   -46134   -46413   -46504   -46255   -45974   -45949   -46140 
  -46380   -46461   -46230   -45877   -45790   -46044   -46363   -46503 
  -46398   -46151   -45995   -46067   -46230   -46278   -46213   -46157 
  -46111   -46039   -46053   -46232   -46375   -46307   -46145   -46056 
  -46049   -46095   -46125   -46071   -46059   -46187   -46323   -46368 
  -46340   -46280   -46264   -46322   -46345   -46265   -46192   -46153 
  -46028   -45864   -45837   -46006   -46228   -46290   -46144   -45976 
  -45974   -46128   -46341   -46525   -46543   -46365   -46182   -46137 
  -46201   -46273   -46260   -46165   -46083   -46075   -46151   -46236 
  -46242   -46175   -46055   -45913   -45820   -45844   -46001   -46186 
  -46367   -46591   -46677   -46467   -46180   -46097   -46217   -46350 
  -46307   -46068   -45871   -45959   -46238   -46392   -46253   -45947 
  -45796   -45970   -46240   -46359   -46314   -46170   -46075   -46159 
  -46311   -46332   -46213   -46111   -46103   -46161   -46269   -46354 
  -46334   -46261   -46182   -46056   -45925   -45889   -45951   -46032 
  -46099   -46198   -46333   -46404   -46363   -46321   -46341   -46318 
  -46214   -46128   -46109   -46118   -46106   -46072   -46060   -46094 
  -46160   -46219   -46213   -46168   -46210   -46300   -46295   -46224 
  -46136   -46033   -46029   -46175   -46291   -46265   -46176   -46066 
  -45985   -46033   -46168   -46284   -46369   -46392   -46309   -46197 
  -46175   -46222   -46230   -46171   -46070   -45959   -45967   -46202 
  -46461   -46434   -46178   -46020   -46079   -46180   -46152   -45991 
  -45854   -45921   -46132   -46317   -46476   -46596   -46575   -46414 
  -46229   -46145   -46155   -46126   -46048   -46014   -46045   -46078 
  -46082   -46110   -46161   -46153   -46101   -46113   -46191   -46248 
  -46242   -46174   -46074   -46078   -46256   -46433   -46468   -46390 
  -46209   -46049   -46106   -46240   -46218   -46093   -46018   -46049 
  -46107   -46116   -46091   -46040   -46014   -46124   -46280   -46357 
  -46377   -46345   -46232   -46137   -46187   -46263   -46260   -46288 
  -46275   -46078   -45863   -45851   -46078   -46418   -46600   -46438 
  -46114   -45979   -46094   -46218   -46213   -46141   -46028   -45943 
  -46028   -46225   -46368   -46326   -46125   -46025   -46121   -46279 
  -46396   -46356   -46161   -46052   -46137   -46260   -46283   -46225 
  -46124   -46055   -46091   -46143   -46164   -46190   -46151   -46080 
  -46090   -46118   -46125   -46148   -46179   -46225   -46296   -46365 
  -46402   -46361   -46215   -46055   -46049   -46215   -46341   -46240 
  -46037   -45978   -46066   -46128   -46120   -46087   -46060   -46097 
  -46226   -46387   -46454   -46321   -46089   -45983   -46053   -46209 
  -46307   -46284   -46259   -46300   -46314   -46271   -46221   -46125 
  -45955   -45844   -45936   -46179   -46327   -46261   -46165   -46143 
  -46153   -46245   -46296   -46148   -46020   -46106   -46219   -46249 
  -46271   -46246   -46167   -46186   -46321   -46345   -46210   -46136 
  -46165   -46191   -46210   -46210   -46168   -46110   -46083   -46097 
  -46103   -46066   -45986   -45922   -45936   -46013   -46160   -46363 
  -46484   -46485   -46499   -46508   -46386   -46201   -46084   -46049 
  -46120   -46294   -46398   -46278   -46043   -45913   -45912   -45952 
  -45991   -46033   -46056   -46052   -46086   -46201   -46344   -46477 
  -46554   -46458   -46221   -46055   -46047   -46152   -46332   -46427 
  -46248   -45964   -45936   -46151   -46315   -46291   -46068   -45779 
  -45762   -46098   -46411   -46404   -46213   -46121   -46215   -46322 
  -46255   -46102   -46074   -46198   -46310   -46236   -46006   -45900 
  -46132   -46508   -46615   -46368   -46043   -45936   -46097   -46321 
  -46363   -46157   -45960   -46083   -46376   -46437   -46184   -45837 
  -45648   -45809   -46230   -46481   -46299   -46001   -46040   -46371 
  -46620   -46611   -46373   -46041   -45897   -46111   -46408   -46390 
  -46105   -45894   -45893   -46017   -46151   -46198   -46147   -46094 
  -46106   -46128   -46137   -46206   -46319   -46368   -46363   -46352 
  -46286   -46207   -46207   -46202   -46109   -46006   -45968   -45981 
  -46044   -46157   -46240   -46269   -46323   -46373   -46317   -46209 
  -46165   -46192   -46286   -46403   -46392   -46203   -45947   -45793 
  -45862   -46059   -46180   -46149   -46047   -46032   -46186   -46346 
  -46330   -46242   -46246   -46276   -46282   -46332   -46349   -46267 
  -46179   -46130   -46111   -46106   -46070   -46057   -46114   -46190 
  -46267   -46269   -46152   -46067   -46057   -46048   -46098   -46233 
  -46295   -46222   -46214   -46375   -46481   -46372   -46149   -45955 
  -45898   -45974   -46005   -45944   -45985   -46264   -46600   -46631 
  -46282   -45925   -45912   -46215   -46543   -46630   -46427   -46086 
  -45824   -45801   -45952   -46071   -46082   -46075   -46137   -46279 
  -46431   -46473   -46373   -46222   -46090   -46041   -46109   -46165 
  -46148   -46129   -46143   -46174   -46218   -46263   -46256   -46195 
  -46176   -46225   -46202   -46110   -46071   -46068   -46099   -46242 
  -46400   -46391   -46272   -46206   -46144   -46036   -45982   -45960 
  -45959   -46082   -46261   -46321   -46230   -46128   -46138   -46211 
  -46255   -46265   -46241   -46202   -46236   -46336   -46381   -46283 
  -46074   -45924   -45998   -46187   -46206   -46003   -45823   -45877 
  -46126   -46387   -46499   -46418   -46217   -46037   -46025   -46194 
  -46369   -46400   -46321   -46198   -46082   -46093   -46240   -46294 
  -46116   -45913   -45902   -46063   -46292   -46449   -46429   -46248 
  -46036   -45990   -46129   -46261   -46272   -46170   -46097   -46205 
  -46330   -46276   -46143   -46059   -46089   -46278   -46435   -46341 
  -46103   -45978   -46039   -46203   -46341   -46315   -46167   -46124 
  -46273   -46408   -46337   -46138   -45970   -45928   -46025   -46111 
  -46078   -46056   -46151   -46248   -46271   -46291   -46272   -46153 
  -46066   -46094   -46172   -46276   -46327   -46201   -45994   -45956 
  -46140   -46369   -46441   -46315   -46140   -46051   -46087   -46198 
  -46275   -46241   -46140   -46140   -46305   -46445   -46391   -46175 
  -45978   -45998   -46245   -46427   -46282   -46021   -45998   -46153 
  -46279   -46345   -46344   -46290   -46222   -46121   -46032   -46045 
  -46144   -46238   -46291   -46290   -46225   -46113   -45968   -45819 
  -45719   -45704   -45798   -45928   -45993   -46071   -46300   -46615 
  -46795   -46731   -46541   -46333   -46199   -46215   -46215   -46090 
  -45989   -45974   -45948   -45846   -45720   -45708   -45874   -46163 
  -46415   -46469   -46294   -46051   -46022   -46282   -46650   -46975 
  -47100   -46894   -46589   -46494   -46538   -46508   -46342   -46003 
  -45527   -45146   -45048   -45100   -45188   -45382   -45627   -45856 
  -46198   -46651   -47017   -47243   -47399   -47414   -47224   -46862 
  -46359   -45910   -45739   -45748   -45657   -45427   -45312   -45427 
  -45635   -45843   -45991   -46003   -45931   -45887   -45912   -46025 
  -46295   -46639   -46838   -46832   -46741   -46677   -46704   -46776 
  -46761   -46657   -46545   -46407   -46155   -45813   -45562   -45528 
  -45597   -45601   -45573   -45632   -45790   -45987   -46183   -46284 
  -46245   -46273   -46442   -46467   -46317   -46336   -46602   -46812 
  -46799   -46665   -46508   -46449   -46612   -46772   -46604   -46205 
  -45839   -45574   -45333   -45018   -44680   -44545   -44788   -45307 
  -45860   -46364   -46804   -47158   -47409   -47456   -47297   -47077 
  -46793   -46468   -46356   -46504   -46560   -46300   -45943   -45712 
  -45549   -45382   -45276   -45270   -45449   -45918   -46427   -46537 
  -46252   -45940   -45933   -46327   -46840   -47083   -46971   -46741 
  -46639   -46647   -46494   -46049   -45589   -45414   -45500   -45711 
  -45922   -46047   -46145   -46350   -46580   -46552   -46191   -45806 
  -45700   -45809   -45905   -45940   -46020   -46182   -46325   -46330 
  -46205   -46105   -46201   -46504   -46799   -46834   -46579   -46188 
  -45881   -45816   -45971   -46134   -46129   -46017   -45937   -45897 
  -45897   -45983   -46183   -46473   -46707   -46724   -46575   -46417 
  -46310   -46225   -46118   -46016   -45974   -45985   -46045   -46103 
  -46032   -45902   -45890   -45960   -46036   -46128   -46187   -46192 
  -46300   -46583   -46828   -46853   -46641   -46269   -45906   -45705 
  -45706   -45781   -45792   -45860   -46133   -46406   -46454   -46354 
  -46236   -46091   -45922   -45777   -45720   -45828   -46083   -46379 
  -46620   -46762   -46857   -46915   -46855   -46727   -46658   -46600 
  -46390   -45995   -45531   -45139   -45060   -45369   -45752   -45895 
  -45833   -45844   -46090   -46437   -46692   -46719   -46523   -46332 
  -46372   -46577   -46718   -46741   -46705   -46589   -46364   -46121 
  -45909   -45639   -45355   -45241   -45269   -45389   -45666   -45972 
  -46143   -46228   -46295   -46390   -46653   -47040   -47274   -47213 
  -46981   -46727   -46462   -46168   -45878   -45588   -45319   -45166 
  -45211   -45454   -45746   -45937   -46057   -46203   -46434   -46711 
  -46919   -46954   -46750   -46407   -46145   -46084   -46207   -46391 
  -46550   -46693   -46719   -46469   -45979   -45477   -45175   -45118 
  -45247   -45495   -45752   -45971   -46260   -46646   -46907   -46930 
  -46863   -46742   -46498   -46224   -46075   -46064   -46095   -46055 
  -45920   -45850   -46021   -46327   -46485   -46357   -46060   -45891 
  -46021   -46206   -46138   -45871   -45684   -45814   -46269   -46718 
  -46815   -46661   -46587   -46546   -46365   -46124   -45877   -45635 
  -45551   -45694   -45941   -46187   -46457   -46668   -46600   -46273 
  -45966   -45921   -46157   -46456   -46580   -46456   -46186   -46053 
  -46246   -46560   -46603   -46275   -45817   -45457   -45311   -45418 
  -45640   -45877   -46179   -46487   -46642   -46623   -46526   -46462 
  -46510   -46606   -46534   -46186   -45854   -45848   -46041   -46156 
  -46126   -46012   -45890   -45852   -45937   -46053   -46068   -45962 
  -45889   -46082   -46467   -46700   -46708   -46646   -46583   -46538 
  -46445   -46234   -45991   -45850   -45848   -45898   -45947   -46114 
  -46400   -46604   -46608   -46448   -46249   -46143   -46099   -45999 
  -45847   -45673   -45504   -45490   -45713   -46012   -46179   -46225 
  -46333   -46572   -46831   -46958   -46872   -46681   -46592   -46603 
  -46519   -46205   -45752   -45388   -45292   -45544   -45935   -46083 
  -45902   -45650   -45652   -45967   -46349   -46556   -46510   -46380 
  -46452   -46653   -46660   -46489   -46384   -46356   -46363   -46430 
  -46462   -46330   -46090   -45968   -45931   -45760   -45569   -45561 
  -45690   -45893   -46116   -46202   -46136   -46233   -46658   -47058 
  -47042   -46615   -46047   -45698   -45778   -46071   -46215   -46178 
  -46155   -46198   -46206   -46129   -46014   -45925   -45937   -46091 
  -46265   -46294   -46171   -45994   -45924   -46074   -46337   -46507 
  -46450   -46241   -46082   -46080   -46237   -46415   -46433   -46315 
  -46240   -46341   -46504   -46442   -46124   -45820   -45800   -46066 
  -46307   -46284   -46084   -45851   -45681   -45736   -46057   -46342 
  -46298   -46051   -45916   -46012   -46248   -46487   -46600   -46504 
  -46303   -46187   -46165   -46195   -46280   -46348   -46273   -46086 
  -45962   -45989   -46134   -46255   -46168   -45997   -46037   -46244 
  -46379   -46381   -46275   -46086   -45960   -46045   -46219   -46256 
  -46180   -46122   -46098   -46155   -46271   -46329   -46305   -46252 
  -46228   -46248   -46279   -46348   -46407   -46327   -46171   -46103 
  -46180   -46271   -46198   -45993   -45792   -45723   -45840   -45971 
  -45989   -46033   -46176   -46295   -46327   -46284   -46215   -46238 
  -46357   -46487   -46619   -46674   -46550   -46300   -46014   -45823 
  -45909   -46141   -46151   -45920   -45694   -45607   -45701   -45948 
  -46178   -46253   -46292   -46431   -46583   -46668   -46711   -46645 
  -46481   -46364   -46252   -46089   -46037   -46111   -46125   -46064 
  -46020   -45975   -45945   -45954   -45894   -45739   -45669   -45833 
  -46179   -46457   -46476   -46348   -46323   -46453   -46570   -46550 
  -46394   -46192   -46140   -46295   -46404   -46224   -45829   -45522 
  -45507   -45762   -46111   -46346   -46381   -46326   -46327   -46407 
  -46484   -46476   -46391   -46336   -46388   -46426   -46275   -45986 
  -45740   -45643   -45673   -45773   -45890   -45971   -46056   -46192 
  -46345   -46511   -46680   -46770   -46750   -46668   -46512   -46272 
  -46097   -46137   -46307   -46369   -46153   -45771   -45534   -45565 
  -45684   -45728   -45719   -45731   -45875   -46159   -46431   -46587 
  -46593   -46491   -46423   -46491   -46610   -46585   -46376   -46171 
  -46095   -46110   -46145   -46161   -46132   -46057   -45981   -45948 
  -46010   -46143   -46232   -46240   -46219   -46202   -46186   -46151 
  -46097   -46106   -46245   -46380   -46313   -46090   -45933   -45941 
  -46078   -46237   -46291   -46236   -46201   -46251   -46311   -46371 
  -46433   -46386   -46224   -46102   -46103   -46182   -46197   -46079 
  -45900   -45773   -45852   -46102   -46249   -46191   -46109   -46121 
