Origin Time       2025/03/30 21:30:00
Lat.              38.535
Long.             142.295
Depth. (km)       44
Mag.              4.3
Station Code      IWT013
Station Lat.      39.3290
Station Long.     141.5638
Station Height(m) 298
Record Time       2025/03/30 21:31:26
Sampling Freq(Hz) 100Hz
Duration Time(s)  60
Dir.              E-W
Scale Factor      7845(gal)/8223790
Max. Acc. (gal)   3.031
Last Correction   2025/03/30 21:31:25
Memo.             
[...]
    5942     5944     5944     5945     5944     5944     5946     5946 
    5944     5945     5948     5948     5946     5945     5945     5945 
    5946     5948     5948     5949     5946     5945     5946     5945 
    5945     5946     5945     5944     5944     5944     5946     5946 
    5945     5945     5945     5946     5945     5944     5944     5948 
    5948     5945     5944     5946     5948     5948     5946     5946 
    5946     5946     5946     5946     5946     5946     5945     5946 
    5946     5944     5945     5946     5946     5942     5941     5946 
    5949     5946     5944     5944     5942     5942     5944     5942 
    5941     5945     5949     5946     5945     5946     5946     5948 
    5948     5946     5946     5946     5946     5948     5948     5946 
    5948     5948     5946     5945     5945     5946     5946     5948 
    5948     5942     5944     5948     5945     5942     5944     5945 
    5945     5942     5944     5945     5945     5944     5942     5942 
    5945     5946     5945     5944     5944     5945     5945     5944 
    5944     5948     5948     5944     5946     5948     5944     5944 
    5946     5946     5945     5944     5944     5945     5945     5945 
    5946     5945     5945     5946     5945     5942     5945     5946 
    5945     5945     5945     5945     5945     5944     5944     5946 
    5948     5948     5946     5946     5946     5948     5948     5948 
    5948     5950     5950     5948     5948     5946     5942     5944 
    5942     5937     5942     5952     5953     5954     5964     5973 
    5976     5972     5968     5972     5973     5971     5967     5964 
    5956     5940     5918     5895     5861     5829     5822     5827 
    5844     5883     5919     5962     6046     6114     6093     6022 
    5976     5956     5952     5926     5844     5810     5891     5954 
    5945     5942     5925     5881     5844     5810     5884     6048 
    6072     6016     6115     6245     6223     6075     5865     5756 
    5782     5755     5737     5886     6006     5960     5926     5999 
    6038     5937     5823     5900     6093     6099     5861     5780 
    6122     6447     6205     5665     5540     5888     6106     5872 
    5545     5637     6102     6378     6208     5923     5868     5991 
    6062     5964     5790     5794     6027     6145     5960     5792 
    5879     6099     6257     6114     5761     5649     5746     5780 
    5818     5849     5842     5976     6107     6034     6007     6075 
    5994     5921     6011     6066     6016     5918     5840     5895 
    6000     5976     5854     5775     5803     5940     6043     5958 
    5817     5829     5965     6166     6307     6170     5923     5957 
    6149     6080     5737     5472     5543     5811     5919     5865 
    5927     6126     6231     6145     5994     5896     5803     5744 
    5876     6053     6019     5946     5998     5996     5875     5746 
    5736     5860     5983     6048     6103     6172     6247     6215 
    6008     5823     5829     5859     5806     5825     5937     6042 
    6095     6042     5952     5921     5892     5863     5884     5923 
    5971     5999     5927     5840     5904     6004     5927     5806 
    5794     5818     5856     5922     5979     6064     6160     6111 
    5979     5958     5960     5852     5761     5815     5961     6066 
    6072     5994     5914     5942     6007     5961     5867     5829 
    5875     6008     6115     6108     6115     6133     6008     5869 
    5854     5832     5796     5844     5892     5883     5881     5965 
    6058     5989     5798     5715     5829     5980     6019     6016 
    6076     6116     6026     5842     5741     5845     5996     5976 
    5911     5995     6133     6169     6066     5906     5865     5923 
    5900     5859     5900     5957     6023     6052     5996     5996 
    6016     5917     5840     5837     5761     5690     5764     5913 
    5996     6007     6037     6056     6021     5998     6003     6011 
    5948     5825     5857     6018     6043     5941     5832     5783 
    5879     6025     6048     5971     5892     5896     6008     6099 
    6048     5946     5941     6035     6139     6178     6134     6041 
    5940     5805     5701     5732     5782     5773     5844     5942 
    5933     5942     5987     5900     5788     5783     5846     6015 
    6149     6048     5915     5961     5994     5891     5803     5854 
    6014     6083     5981     5979     6174     6261     6133     5995 
    5913     5818     5734     5740     5800     5846     5960     6193 
    6347     6241     5996     5873     5895     5825     5640     5591 
    5695     5806     5911     5996     6068     6127     6077     5938 
    5810     5760     5840     5931     5941     6011     6141     6187 
    6192     6166     6025     5875     5859     5904     5894     5803 
    5776     5949     6096     6008     5875     5838     5880     5954 
    5938     5926     6029     6019     5921     6004     6095     5965 
    5833     5827     5822     5857     6002     6106     6052     5865 
    5703     5724     5778     5787     5913     6011     5965     6023 
    6158     6196     6191     6096     5954     5991     6075     5996 
    5890     5864     5856     5846     5830     5825     5881     5992 
    6107     6157     6087     5933     5834     5918     6010     5872 
    5709     5772     5949     6041     5987     5911     5929     5894 
    5784     5811     5921     5956     5989     6060     6097     6073 
    6003     5962     5964     5949     5904     5837     5807     5863 
    5919     5968     6056     6081     6052     6033     5960     5857 
    5805     5795     5865     6019     6150     6191     6168     6116 
    6038     5907     5725     5574     5567     5699     5842     5952 
    6049     6122     6180     6189     6062     5834     5683     5732 
    5910     6006     5961     5960     6069     6145     6139     6075 
    5917     5772     5805     5902     5892     5875     5958     6056 
    6070     5976     5854     5856     5953     6042     6080     6000 
    5879     5899     5992     6002     5973     5950     5891     5827 
    5809     5849     5950     5977     5891     5884     5956     5940 
    5922     5968     5981     5967     5950     5960     6066     6150 
    6075     5941     5842     5813     5892     5937     5850     5790 
    5810     5872     6010     6095     6062     6060     6050     5971 
    5894     5814     5815     5926     5922     5894     6058     6153 
    6026     5925     5902     5884     5908     5926     5899     5902 
    6006     6135     6091     5917     5857     5886     5906     5949 
    5965     5961     6006     5999     5908     5903     5957     5854 
    5672     5740     6021     6188     6199     6153     6091     6068 
    5985     5775     5672     5768     5821     5792     5872     6021 
    6039     5922     5838     5888     5953     5904     5864     5941 
    6042     6102     6092     6007     5946     5946     5926     5910 
    5971     5958     5807     5759     5911     6069     6057     5931 
    5967     6187     6261     6100     5906     5802     5832     5914 
    5894     5795     5767     5848     5991     6150     6219     6111 
    5949     5856     5773     5684     5697     5836     5981     6052 
    6077     6058     5946     5825     5844     5948     5989     5964 
    5953     5984     5972     5892     5914     6034     6087     6064 
    5991     5900     5888     5891     5827     5764     5752     5799 
    5915     6072     6196     6218     6200     6211     6145     5980 
    5842     5784     5818     5900     5906     5849     5848     5894 
    5911     5860     5759     5761     5967     6135     6110     6046 
    5983     5900     5892     5919     5927     5948     5950     5942 
    5960     5989     5987     5865     5741     5826     5945     5918 
    5880     5869     5927     6119     6223     6134     6065     6096 
    6097     5973     5840     5865     5948     5877     5751     5809 
    5973     5979     5871     5836     5902     6073     6192     6081 
    5907     5827     5803     5887     6034     6087     6058     6012 
    5983     6002     5972     5871     5865     5950     5953     5895 
    5857     5806     5776     5799     5764     5725     5869     6084 
    6123     6083     6139     6156     6049     5985     5973     5929 
    5896     5784     5613     5680     5933     6011     5911     5868 
    5946     6025     6000     5946     5935     5926     5995     6170 
    6242     6150     6064     6000     5892     5814     5815     5786 
    5760     5900     6043     5980     5911     5981     6068     6102 
    6033     5868     5719     5672     5807     6037     6112     6095 
    6158     6131     5971     5903     5857     5764     5823     5917 
    5899     5944     5975     5906     5927     5934     5842     5860 
    5938     5973     6038     6061     5991     5954     5991     6056 
    6089     5992     5902     5954     5910     5745     5718     5790 
    5845     5899     5948     6007     6097     6200     6242     6119 
    5934     5854     5840     5859     5925     5937     5911     5981 
    6083     6135     6145     5975     5701     5659     5790     5842 
    5869     5906     5927     6000     6038     5987     5991     6041 
    6014     5929     5860     5810     5790     5834     5863     5821 
    5791     5803     5861     6026     6207     6245     6178     6111 
    6062     6034     5976     5879     5876     5942     5891     5783 
    5815     5950     6052     6077     5987     5883     5900     5914 
    5850     5814     5837     5950     6083     6077     6077     6156 
    6072     5907     5875     5796     5684     5782     5938     5931 
    5881     5930     6043     6119     6088     5972     5921     6006 
    6034     5968     6011     6038     5906     5819     5786     5756 
    5848     5879     5798     5869     5972     5899     5829     5898 
    6045     6183     6196     6081     5988     5984     6029     6080 
    6072     5985     5911     5881     5877     5930     6006     6025 
    5975     5865     5790     5822     5898     6007     6116     6111 
    6018     5903     5819     5832     5846     5829     5871     5911 
    5908     5935     5973     5996     5921     5724     5686     5842 
    5872     5822     5867     5908     5971     6104     6174     6180 
    6185     6134     6054     6003     5971     5981     5985     5888 
    5810     5884     5988     5972     5910     5940     6023     5999 
    5852     5786     5965     6196     6137     5861     5741     5799 
    5815     5782     5767     5809     5930     6014     6026     6087 
    6127     6030     5891     5798     5810     5906     5933     6018 
    6224     6197     5964     5861     5868     5915     5962     5899 
    5830     5884     6000     6084     6080     6000     5921     5884 
    5877     5868     5890     5973     6104     6210     6143     5922 
    5786     5787     5737     5632     5625     5719     5867     5995 
    5994     5952     5976     6016     6048     6016     5922     5929 
    6033     6061     6060     6147     6211     6164     6106     6091 
    5999     5748     5610     5772     5890     5795     5749     5784 
    5859     6075     6262     6201     6023     5923     5865     5795 
    5818     5886     5832     5823     6006     6168     6180     6076 
    5903     5805     5807     5813     5886     5981     5941     5925 
    6050     6073     6008     6049     6088     6149     6320     6269 
    5929     5678     5545     5414     5383     5540     5888     6238 
    6359     6354     6264     6018     5869     5902     5877     5827 
    5853     5896     5968     6006     5944     5879     5815     5719 
    5651     5637     5782     6091     6268     6205     6060     5929 
    5877     5884     5931     6099     6222     6106     5967     5961 
    5960     5980     5996     5871     5795     5879     5903     5929 
    6073     6087     5976     5969     5913     5756     5715     5760 
    5850     5956     5930     5931     6096     6154     6062     6050 
    6088     6058     5984     5925     5902     5875     5846     5907 
    6016     5988     5833     5729     5782     5991     6191     6219 
    6169     6142     5994     5707     5551     5606     5641     5562 
    5626     5922     6097     6088     6116     6083     5922     5834 
    5895     6019     6085     6061     6093     6216     6238     6056 
    5772     5568     5576     5684     5736     5854     6072     6227 
    6353     6407     6255     6130     6141     6062     5983     6007 
    5944     5826     5778     5759     5752     5648     5424     5354 
    5576     5841     5917     5940     6103     6238     6218     6224 
    6241     6196     6200     6129     5923     5782     5703     5732 
    5922     5989     5954     6102     6234     6210     6196     6058 
    5771     5651     5651     5571     5582     5798     6070     6255 
    6324     6311     6197     6008     5868     5806     5706     5483 
    5314     5468     5859     6210     6361     6270     6168     6219 
    6158     5938     5841     5775     5640     5684     5810     5741 
    5562     5348     5163     5216     5494     5771     5960     6057 
    6095     6280     6809     7554     8147     8349     8347     8343 
    8068     7319     6282     5070     3878     3103     2783     2768 
    3110     3794     4739     5803     6677     7221     7395     7176 
    6860     6725     6737     6841     6822     6400     5817     5466 
    5239     4969     4741     4521     4183     3800     3689     4299 
    5594     6918     7778     8158     8210     8163     8021     7411 
    6250     5098     4542     4692     5233     5713     6002     6350 
    6762     6982     7052     7042     6816     6392     5964     5670 
    5549     5606     5790     5875     5641     5193     4784     4510 
    4365     4347     4449     4633     4954     5628     6534     7148 
    7315     7188     6698     5969     5540     5616     5849     6133 
    6733     7522     7963     7847     7392     6733     5883     5177 
    4939     4900     4726     4486     4364     4471     4922     5724 
    6520     6914     6990     6959     6851     6885     7263     7609 
    7474     6880     5945     4934     4402     4432     4483     4274 
    4089     4332     5001     5682     6065     6168     6212     6469 
    6840     7044     7125     7080     6824     6602     6407     5900 
    5255     4892     4837     4993     5277     5483     5621     5984 
    6548     6997     7211     7074     6612     6330     6392     6382 
    6034     5435     4939     4811     4858     4818     4716     4806 
    5204     5613     5859     6166     6550     6891     7179     7280 
    7190     6940     6427     6039     6227     6577     6625     6529 
    6370     6018     5547     5077     4652     4352     4297     4580 
    5098     5676     6281     6826     7253     7526     7404     6905 
    6370     5859     5348     5054     5047     5250     5556     5655 
    5472     5354     5429     5582     5706     5692     5698     5837 
    5971     6292     6804     6870     6535     6382     6250     5972 
    5944     6193     6470     6772     6910     6466     5506     4629 
    4407     4980     5795     6110     6002     6106     6502     6767 
    6689     6280     5594     5140     5414     5840     5822     5836 
    6006     5782     5364     5244     5233     5215     5543     6104 
    6259     6012     6050     6415     6534     6534     6880     7227 
    7130     6752     6204     5602     5271     5157     5043     5050 
    5329     5765     6114     6339     6501     6453     6291     6316 
    6336     6218     6205     6226     6223     6385     6481     6220 
    5733     5206     4754     4457     4353     4472     4833     5406 
    6025     6473     6667     6619     6399     6083     5663     5333 
    5508     6126     6608     6686     6540     6338     6127     5942 
    5790     5611     5501     5655     5962     6238     6507     6752 
    6847     6663     6431     6432     6250     5738     5556     5795 
    5998     6088     6096     5921     5572     5300     5312     5408 
    5445     5571     5788     6006     6141     6114     6058     6142 
    6299     6363     6201     5875     5640     5502     5417     5590 
    5836     5670     5188     4849     4887     5247     5732     6149 
    6340     6386     6550     6812     7029     7091     6832     6374 
    5957     5695     5825     6189     6285     6106     5856     5560 
    5300     5131     5113     5471     6168     6832     7311     7542 
    7318     6798     6331     5930     5602     5433     5321     5243 
    5255     5231     5151     5093     5019     5105     5439     5617 
    5678     5961     6080     5805     5621     5676     5769     6052 
    6632     7138     7219     6907     6415     6029     5888     5806 
    5574     5356     5503     5942     6297     6431     6330     6076 
    5886     5710     5436     5289     5551     6149     6706     6978 
    6907     6565     6251     5956     5422     4984     4912     5001 
    5323     5833     6135     6192     6129     5991     5929     5913 
    5856     5813     5701     5582     5745     6135     6454     6511 
    6278     5930     5595     5408     5562     5891     6172     6458 
    6675     6693     6624     6616     6633     6382     5815     5406 
    5379     5625     6052     6285     6075     5611     5223     5286 
    5678     5756     5537     5541     5742     5825     5787     5887 
    6143     6151     5871     5733     5776     5838     5979     6119 
    6043     5724     5455     5626     6045     6195     6204     6338 
    6403     6451     6570     6390     6004     5965     6205     6381 
    6361     5950     5404     5313     5524     5601     5594     5543 
    5557     5944     6431     6475     6158     5875     5776     5768 
    5740     5764     5880     6026     6227     6369     6269     6080 
    6058     6139     6021     5687     5529     5649     5751     5729 
    5717     5830     6085     6291     6258     6133     6139     6180 
    6151     6180     6143     5829     5464     5337     5440     5718 
    6053     6210     6154     6026     5822     5568     5483     5649 
    5852     5892     5895     6057     6304     6450     6367     5979 
    5374     4872     4868     5514     6378     6794     6675     6448 
    6347     6315     6253     6135     6065     6092     6115     6083 
    6083     6211     6420     6465     6156     5695     5468     5562 
    5695     5660     5575     5491     5363     5458     5819     5956 
    5771     5647     5701     5880     6027     5914     5706     5718 
    5933     6228     6461     6461     6281     6087     5952     5965 
    6039     5821     5506     5722     6215     6326     6181     6120 
    6147     6297     6440     6191     5656     5417     5571     5783 
    6072     6453     6573     6350     6137     6091     6076     6060 
    5980     5590     5030     4783     4946     5259     5495     5578 
    5602     5736     6062     6450     6617     6551     6390     6083 
