Origin Time       2025/03/30 21:30:00
Lat.              38.535
Long.             142.295
Depth. (km)       44
Mag.              4.3
Station Code      IWT021
Station Lat.      39.9203
Station Long.     141.0822
Station Height(m) 283
Record Time       2025/03/30 21:31:47
Sampling Freq(Hz) 100Hz
Duration Time(s)  60
Dir.              N-S
Scale Factor      7845(gal)/8223790
Max. Acc. (gal)   1.676
Last Correction   2025/03/30 21:31:46
Memo.             
[...]
    3689     3732     3747     3771     3815     3840     3828     3773 
    3700     3654     3636     3631     3647     3690     3736     3757 
    3773     3773     3713     3632     3588     3569     3568     3607 
    3674     3730     3753     3734     3699     3699     3732     3774 
    3816     3812     3750     3686     3659     3670     3732     3815 
    3862     3862     3820     3765     3717     3666     3605     3541 
    3493     3485     3516     3577     3654     3711     3739     3777 
    3821     3842     3838     3805     3750     3705     3703     3744 
    3800     3813     3788     3738     3666     3597     3543     3515 
    3546     3600     3646     3707     3754     3755     3762     3812 
    3869     3920     3970     3989     3960     3894     3785     3666 
    3565     3478     3438     3469     3555     3650     3726     3797 
    3855     3879     3875     3851     3811     3778     3777     3778 
    3742     3680     3604     3528     3505     3555     3651     3761 
    3835     3843     3844     3871     3862     3797     3727     3655 
    3588     3564     3589     3618     3611     3574     3568     3639 
    3754     3816     3808     3793     3766     3712     3696     3726 
    3754     3778     3794     3770     3716     3665     3634     3638 
    3659     3665     3663     3681     3726     3775     3800     3788 
    3744     3694     3676     3699     3726     3742     3747     3731 
    3719     3742     3775     3785     3746     3676     3622     3635 
    3713     3813     3885     3904     3869     3798     3723     3667 
    3627     3574     3535     3564     3667     3816     3933     3912 
    3778     3640     3527     3462     3492     3591     3689     3757 
    3804     3842     3856     3831     3771     3724     3717     3719 
    3723     3744     3742     3697     3638     3568     3511     3526 
    3586     3628     3649     3684     3748     3809     3811     3761 
    3728     3747     3770     3775     3786     3796     3777     3739 
    3709     3693     3674     3645     3635     3673     3728     3770 
    3789     3781     3758     3723     3678     3655     3665     3694 
    3738     3775     3811     3851     3867     3854     3825     3784 
    3736     3696     3667     3647     3618     3605     3630     3655 
    3673     3711     3777     3836     3855     3842     3797     3715 
    3640     3595     3559     3553     3605     3693     3780     3848 
    3882     3874     3843     3788     3709     3642     3589     3537 
    3516     3558     3646     3744     3819     3851     3851     3817 
    3744     3655     3584     3528     3481     3469     3530     3672 
    3840     3970     4032     4041     4001     3900     3761     3618 
    3491     3411     3389     3414     3489     3609     3750     3865 
    3939     3991     4009     3969     3896     3811     3721     3655 
    3627     3624     3631     3626     3593     3562     3595     3682 
    3780     3866     3908     3862     3750     3623     3514     3462 
    3492     3593     3728     3863     3960     3975     3921     3842 
    3740     3649     3615     3643     3701     3755     3788     3770 
    3670     3545     3462     3443     3523     3692     3867     3987 
    4029     3983     3866     3731     3635     3589     3588     3620 
    3647     3636     3605     3577     3577     3628     3705     3784 
    3870     3917     3881     3801     3735     3678     3612     3547 
    3541     3627     3757     3867     3932     3931     3861     3765 
    3708     3726     3782     3815     3800     3732     3630     3538 
    3505     3541     3616     3703     3775     3827     3859     3856 
    3812     3720     3595     3523     3558     3645     3715     3727 
    3689     3650     3649     3694     3754     3773     3762     3743 
    3728     3740     3757     3757     3761     3757     3731     3731 
    3790     3877     3942     3943     3862     3727     3620     3582 
    3588     3615     3632     3608     3586     3627     3713     3809 
    3889     3928     3925     3898     3863     3811     3736     3636 
    3531     3485     3528     3613     3715     3809     3861     3865 
    3811     3703     3588     3501     3461     3477     3530     3592 
    3677     3777     3832     3819     3786     3769     3755     3765 
    3804     3816     3770     3690     3601     3549     3565     3615 
    3654     3674     3682     3681     3680     3693     3716     3743 
    3784     3825     3835     3808     3767     3735     3738     3759 
    3742     3694     3673     3684     3707     3738     3782     3834 
    3854     3851     3843     3792     3682     3570     3508     3514 
    3573     3654     3735     3802     3866     3936     3998     4013 
    3950     3832     3705     3597     3504     3424     3383     3395 
    3461     3584     3739     3863     3915     3894     3835     3771 
    3716     3673     3634     3584     3520     3480     3511     3607 
    3728     3848     3928     3939     3906     3873     3847     3827 
    3808     3765     3682     3599     3530     3483     3485     3538 
    3616     3726     3861     3975     4029     4021     3970     3909 
    3863     3815     3758     3711     3676     3657     3655     3653 
    3658     3686     3699     3677     3649     3607     3568     3580 
    3645     3728     3782     3757     3669     3592     3576     3620 
    3699     3758     3743     3655     3558     3504     3499     3547 
    3653     3774     3859     3885     3842     3743     3655     3603 
    3568     3558     3576     3589     3615     3676     3744     3807 
    3851     3842     3792     3793     3862     3909     3904     3878 
    3847     3846     3882     3906     3896     3855     3793     3732 
    3707     3704     3667     3591     3515     3480     3530     3686 
    3878     3990     3975     3881     3789     3744     3751     3771 
    3770     3750     3732     3730     3744     3761     3753     3709 
    3658     3626     3599     3550     3470     3362     3272     3276 
    3392     3566     3746     3892     3985     4031     4048     4050 
    3993     3838     3620     3406     3257     3206     3237     3345 
    3526     3715     3879     4006     4054     4027     3948     3824 
    3712     3666     3663     3670     3690     3715     3739     3775 
    3798     3780     3726     3673     3661     3709     3788     3854 
    3892     3896     3863     3827     3797     3754     3689     3609 
    3562     3609     3703     3775     3821     3802     3726     3674 
    3673     3685     3666     3611     3572     3593     3665     3767 
    3874     3933     3896     3757     3588     3466     3433     3465 
    3528     3635     3765     3852     3906     3935     3917     3870 
    3789     3670     3577     3553     3576     3605     3626     3647 
    3680     3715     3747     3780     3823     3863     3869     3838 
    3794     3744     3667     3573     3535     3608     3742     3850 
    3913     3944     3889     3734     3570     3470     3460     3549 
    3705     3885     4041     4139     4167     4110     3956     3748 
    3572     3476     3446     3450     3480     3527     3562     3581 
    3611     3659     3689     3686     3680     3689     3716     3769 
    3817     3825     3788     3742     3711     3685     3669     3658 
    3643     3628     3599     3542     3493     3492     3538     3623 
    3724     3801     3835     3836     3821     3821     3838     3855 
    3885     3908     3873     3789     3700     3619     3572     3582 
    3632     3703     3773     3847     3940     4018     4023     3943 
    3797     3639     3527     3488     3512     3554     3573     3584 
    3632     3712     3773     3792     3769     3715     3696     3717 
    3715     3693     3682     3684     3692     3712     3766     3851 
    3924     3962     3960     3925     3861     3770     3673     3586 
    3526     3511     3559     3643     3701     3720     3712     3690 
    3682     3693     3704     3712     3717     3728     3758     3788 
    3774     3701     3599     3516     3466     3483     3589     3703 
    3751     3774     3789     3785     3769     3734     3690     3663 
    3642     3608     3562     3523     3519     3565     3667     3834 
    4014     4156     4214     4176     4074     3920     3739     3582 
    3472     3426     3462     3547     3666     3798     3867     3843 
    3801     3775     3732     3689     3654     3592     3534     3512 
    3523     3569     3676     3844     4024     4147     4163     4082 
    3950     3793     3624     3458     3308     3219     3219     3280 
    3404     3597     3800     3982     4128     4155     4035     3840 
    3626     3435     3343     3376     3504     3682     3852     3958 
    3981     3955     3908     3847     3797     3765     3732     3692 
    3662     3661     3677     3692     3701     3694     3689     3697 
    3686     3674     3692     3709     3716     3724     3730     3770 
    3867     3958     3986     3943     3813     3612     3424     3335 
    3349     3441     3573     3676     3728     3751     3732     3684 
    3654     3663     3708     3773     3835     3858     3831     3775 
    3704     3639     3618     3640     3685     3723     3739     3736 
    3708     3685     3699     3723     3728     3712     3692     3684 
    3685     3694     3761     3867     3944     3986     3994     3942 
    3852     3755     3654     3581     3565     3584     3607     3626 
    3650     3704     3784     3854     3913     3974     3989     3925 
    3796     3624     3458     3341     3308     3397     3586     3792 
    3952     4048     4051     3950     3792     3645     3526     3447 
    3442     3501     3577     3638     3673     3674     3661     3647 
    3657     3692     3717     3721     3719     3700     3682     3697 
    3744     3802     3839     3819     3755     3699     3674     3694 
    3748     3784     3767     3740     3731     3720     3692     3669 
    3672     3676     3666     3669     3704     3755     3788     3798 
    3801     3781     3744     3717     3708     3743     3807     3831 
    3823     3828     3828     3788     3731     3682     3658     3672 
    3692     3685     3697     3736     3755     3747     3728     3711 
    3694     3692     3705     3709     3693     3676     3666     3666 
    3670     3658     3630     3631     3674     3724     3767     3805 
    3807     3774     3742     3704     3666     3658     3659     3622 
    3570     3559     3576     3595     3634     3681     3727     3800 
    3890     3939     3940     3920     3859     3730     3596     3518 
    3478     3478     3520     3566     3618     3692     3778     3877 
    3969     4000     3955     3846     3703     3578     3499     3478 
    3550     3681     3812     3923     3982     3970     3925     3869 
    3800     3734     3657     3576     3543     3569     3620     3670 
    3716     3778     3863     3944     4008     4036     4009     3937 
    3862     3766     3634     3495     3384     3341     3395     3515 
    3661     3789     3851     3861     3875     3906     3923     3892 
    3813     3704     3596     3516     3481     3503     3593     3719 
    3834     3920     3935     3848     3685     3493     3334     3257 
    3288     3422     3604     3770     3889     3915     3844     3753 
    3699     3665     3613     3559     3518     3501     3530     3577 
    3630     3704     3771     3815     3871     3932     3937     3874 
    3778     3663     3535     3438     3437     3526     3649     3765 
    3850     3888     3906     3924     3919     3873     3815     3778 
    3748     3734     3763     3811     3832     3829     3824     3827 
    3842     3828     3751     3645     3568     3561     3628     3731 
    3840     3924     3932     3900     3870     3823     3780     3748 
    3692     3632     3601     3578     3581     3642     3731     3807 
    3873     3935     3978     3977     3917     3811     3680     3535 
    3402     3322     3326     3415     3573     3753     3897     3989 
    4012     3950     3824     3678     3551     3474     3442     3451 
    3489     3545     3651     3811     3966     4077     4117     4045 
    3871     3646     3414     3233     3153     3167     3234     3318 
    3396     3473     3584     3765     3987     4180     4268     4222 
    4086     3925     3784     3661     3534     3418     3330     3294 
    3366     3553     3782     3997     4155     4207     4162     4067 
    3943     3771     3569     3383     3240     3168     3177     3225 
    3287     3402     3603     3888     4201     4465     4638     4699 
    4619     4391     4075     3746     3447     3238     3146     3138 
    3173     3269     3443     3662     3892     4067     4116     4066 
    3973     3862     3774     3689     3526     3296     3082     2983 
    3109     3487     4012     4523     4868     4961     4830     4522 
    4045     3446     2864     2462     2367     2629     3121     3631 
    4023     4248     4279     4149     3958     3758     3526     3260 
    3018     2879     2902     3099     3441     3878     4328     4691 
    4905     4920     4681     4180     3497     2805     2328     2174 
    2305     2662     3179     3767     4379     4938     5286     5310 
    5055     4635     4144     3640     3163     2718     2349     2168 
    2285     2720     3383     4117     4776     5251     5474     5397 
    5019     4401     3705     3096     2651     2467     2609     2992 
    3501     4027     4401     4514     4383     4097     3781     3527 
    3335     3177     3069     3051     3169     3488     4028     4669 
    5148     5255     4943     4275     3416     2639     2162     2050 
    2236     2629     3176     3762     4232     4511     4587     4471 
    4243     4008     3835     3719     3557     3276     2965     2822 
    2997     3453     3989     4399     4591     4536     4272     3888 
    3416     2894     2462     2339     2629     3257     4002     4629 
    5007     5127     5035     4816     4534     4163     3681     3191 
    2852     2768     2965     3360     3802     4185     4419     4452 
    4310     4028     3608     3153     2835     2697     2732     2988 
    3449     3993     4487     4810     4892     4726     4345     3832 
    3285     2803     2486     2409     2579     2932     3353     3740 
    4077     4359     4545     4581     4414     4045     3589     3202 
    2997     2995     3107     3213     3250     3250     3292     3447 
    3696     3912     4016     4035     4018     4064     4228     4396 
    4455     4415     4340     4251     4129     3963     3748     3488 
    3252     3144     3196     3389     3674     3943     4106     4164 
    4133     4039     3937     3865     3823     3816     3836     3827 
    3757     3657     3553     3466     3422     3435     3528     3708 
    3933     4152     4275     4201     3915     3528     3203     3038 
    3044     3169     3361     3595     3839     4025     4122     4148 
    4109     3981     3736     3389     3019     2721     2617     2805 
    3276     3885     4380     4565     4449     4170     3852     3588 
    3426     3370     3400     3484     3599     3744     3896     3971 
    3901     3712     3496     3327     3268     3337     3478     3627 
    3738     3750     3662     3566     3531     3550     3618     3742 
    3886     4000     4083     4140     4151     4124     4047     3917 
    3809     3788     3851     3951     3979     3858     3642     3443 
    3292     3196     3203     3335     3566     3859     4164     4395 
    4509     4527     4440     4228     3936     3628     3366     3229 
    3214     3269     3372     3503     3646     3817     4020     4194 
    4263     4210     4090     3963     3823     3631     3384     3117 
    2890     2786     2853     3051     3304     3581     3852     4104 
    4282     4307     4170     3936     3694     3539     3512     3582 
    3692     3805     3916     4025     4113     4122     3989     3694 
    3303     2934     2706     2689     2832     3032     3261     3549 
    3929     4421     4924     5259     5256     4843     4145     3422 
    2883     2601     2533     2644     2947     3434     4070     4718 
    5155     5217     4878     4251     3555     2994     2675     2644 
    2855     3181     3526     3824     4014     4082     4047     3933 
    3777     3653     3640     3765     3973     4171     4272     4241 
    4126     4013     3921     3778     3527     3211     2945     2849 
    2968     3208     3431     3562     3631     3692     3747     3804 
    3859     3874     3850     3817     3785     3789     3840     3912 
    3990     4035     3989     3863     3738     3659     3609     3543 
    3431     3308     3256     3289     3370     3476     3577     3670 
    3808     4027     4268     4423     4386     4163     3874     3650 
    3566     3592     3646     3681     3678     3654     3670     3720 
    3738     3721     3707     3705     3736     3802     3878     3925 
    3923     3844     3684     3478     3300     3187     3144     3163 
    3242     3393     3623     3913     4186     4367     4450     4444 
    4355     4218     4059     3851     3557     3219     2952     2829 
    2859     3028     3291     3562     3797     3977     4058     4040 
    3956     3825     3704     3640     3634     3673     3738     3807 
    3889     3969     4004     3983     3923     3842     3761     3680 
    3572     3443     3323     3257     3322     3531     3805     4113 
    4401     4554     4523     4314     3986     3639     3358     3168 
    3041     2961     2965     3122     3481     3994     4495     4828 
    4930     4831     4592     4248     3835     3420     3046     2752 
    2609     2679     2944     3335     3775     4128     4266     4198 
    4016     3801     3623     3497     3412     3372     3389     3457 
    3564     3712     3869     3947     3921     3842     3724     3577 
    3437     3316     3223     3180     3202     3337     3605     3939 
    4253     4492     4600     4561     4392     4105     3759     3453 
    3260     3199     3240     3329     3462     3647     3848     3997 
    4010     3861     3630     3449     3400     3489     3670     3858 
    3993     4093     4175     4193     4110     3943     3735     3528 
    3334     3169     3094     3167     3388     3684     3985     4230 
    4367     4374     4256     4035     3740     3419     3141     2972 
    2937     3028     3218     3474     3789     4104     4330     4442 
    4429     4261     3977     3654     3360     3164     3136     3285 
    3564     3878     4140     4294     4297     4139     3875     3608 
    3407     3273     3217     3237     3304     3423     3616     3848 
    4075     4247     4283     4159     3943     3709     3512     3383 
    3321     3296     3306     3412     3662     3983     4243     4322 
    4193     3955     3731     3596     3600     3727     3894     4016 
    4031     3905     3653     3376     3206     3179     3261     3407 
    3562     3696     3831     3978     4114     4212     4236     4176 
    4062     3932     3800     3666     3550     3453     3370     3330 
