Origin Time       2025/03/30 21:30:00
Lat.              38.535
Long.             142.295
Depth. (km)       44
Mag.              4.3
Station Code      IWT020
Station Lat.      39.7844
Station Long.     141.3296
Station Height(m) 695
Record Time       2025/03/30 21:31:41
Sampling Freq(Hz) 100Hz
Duration Time(s)  60
Dir.              E-W
Scale Factor      7845(gal)/8223790
Max. Acc. (gal)   1.455
Last Correction   2025/03/30 21:31:41
Memo.             
[...]
    3925     3894     3878     3863     3854     3856     3855     3832 
    3798     3784     3812     3869     3897     3874     3852     3856 
    3851     3821     3780     3753     3755     3758     3748     3744 
    3751     3770     3790     3793     3777     3747     3723     3731 
    3765     3802     3825     3827     3835     3877     3935     3963 
    3951     3931     3929     3929     3923     3928     3964     4014 
    4044     4043     4028     4013     3993     3970     3964     3979 
    3987     3970     3932     3882     3829     3789     3767     3782 
    3850     3939     3987     3969     3905     3846     3817     3789 
    3751     3744     3775     3801     3785     3736     3700     3690 
    3690     3696     3715     3765     3831     3882     3910     3909 
    3867     3800     3742     3736     3770     3786     3769     3755 
    3775     3813     3827     3824     3861     3951     4021     4002 
    3924     3885     3925     3982     3982     3948     3952     4006 
    4063     4079     4060     4036     4013     3974     3906     3816 
    3736     3712     3748     3809     3862     3917     3998     4091 
    4137     4093     3974     3844     3773     3782     3832     3871 
    3896     3924     3927     3867     3747     3612     3516     3477 
    3473     3503     3577     3689     3823     3940     4004     4024 
    4010     3967     3905     3838     3797     3801     3829     3855 
    3865     3862     3878     3901     3901     3874     3846     3846 
    3870     3894     3917     3939     3942     3937     3946     3958 
    3960     3958     3951     3937     3900     3840     3808     3827 
    3861     3878     3881     3893     3931     3973     3982     3943 
    3869     3794     3748     3730     3730     3743     3785     3840 
    3870     3871     3871     3893     3932     3967     3975     3963 
    3933     3904     3890     3873     3839     3821     3820     3801 
    3758     3696     3653     3677     3758     3836     3878     3883 
    3874     3873     3881     3888     3908     3948     3982     3991 
    3977     3958     3952     3948     3916     3850     3782     3755 
    3773     3792     3775     3753     3766     3819     3871     3894 
    3896     3898     3906     3896     3854     3807     3792     3834 
    3917     3989     4014     4008     3979     3940     3889     3825 
    3770     3766     3816     3883     3923     3943     3974     4012 
    4027     3981     3896     3824     3794     3792     3774     3731 
    3708     3743     3811     3865     3900     3939     3977     3979 
    3942     3886     3835     3781     3726     3680     3673     3713 
    3782     3858     3920     3935     3898     3840     3780     3719 
    3670     3666     3724     3824     3929     4005     4054     4091 
    4095     4035     3916     3790     3730     3754     3821     3889 
    3937     3981     4028     4044     4004     3939     3888     3856 
    3835     3811     3796     3824     3906     3998     4051     4063 
    4047     3997     3908     3809     3732     3692     3692     3727 
    3769     3797     3804     3785     3761     3758     3774     3798 
    3808     3809     3832     3859     3866     3877     3912     3948 
    3947     3901     3834     3774     3748     3763     3789     3784 
    3763     3767     3797     3846     3910     3975     4010     4014 
    4008     3994     3964     3916     3866     3852     3867     3871 
    3870     3897     3935     3958     3955     3935     3916     3901 
    3882     3879     3898     3906     3885     3839     3796     3778 
    3780     3777     3775     3790     3820     3851     3866     3862 
    3855     3847     3832     3798     3753     3746     3790     3839 
    3867     3894     3931     3960     3963     3936     3893     3840 
    3784     3755     3788     3865     3947     4006     4036     4036 
    3997     3923     3859     3836     3835     3831     3828     3852 
    3912     3969     3981     3939     3871     3816     3785     3777 
    3774     3775     3781     3784     3782     3788     3797     3804 
    3812     3815     3798     3775     3769     3790     3843     3909 
    3952     3970     3963     3935     3897     3863     3843     3827 
    3812     3819     3859     3904     3923     3909     3883     3879 
    3908     3950     3990     4014     4010     3990     3963     3931 
    3896     3870     3850     3832     3821     3827     3848     3871 
    3873     3846     3805     3770     3762     3792     3844     3874 
    3858     3828     3805     3778     3735     3689     3686     3742 
    3812     3852     3858     3848     3848     3855     3855     3850 
    3851     3871     3912     3951     3974     3994     4023     4037 
    4021     3975     3919     3865     3829     3825     3847     3877 
    3894     3904     3919     3925     3901     3869     3861     3875 
    3882     3877     3881     3909     3935     3924     3869     3807 
    3784     3796     3790     3748     3709     3711     3746     3775 
    3780     3762     3755     3786     3842     3873     3863     3848 
    3854     3874     3883     3863     3828     3807     3811     3840 
    3881     3908     3928     3958     3987     3979     3920     3863 
    3861     3905     3959     3997     4021     4029     4010     3975 
    3937     3896     3862     3848     3840     3827     3819     3825 
    3848     3885     3921     3948     3952     3931     3901     3877 
    3847     3801     3757     3738     3743     3754     3754     3744 
    3734     3739     3762     3786     3807     3819     3834     3866 
    3901     3927     3943     3933     3882     3813     3763     3742 
    3727     3716     3743     3823     3912     3955     3939     3896 
    3867     3871     3890     3902     3919     3943     3966     3979 
    3978     3970     3960     3937     3898     3865     3856     3877 
    3900     3906     3906     3900     3877     3866     3908     4000 
    4089     4110     4058     3967     3873     3797     3754     3744 
    3759     3800     3861     3944     4029     4070     4032     3924 
    3785     3658     3570     3531     3539     3576     3628     3689 
    3746     3785     3804     3793     3754     3716     3689     3684 
    3728     3821     3939     4047     4117     4137     4122     4079 
    4005     3902     3792     3704     3666     3690     3750     3823 
    3913     3998     4044     4041     4005     3974     3962     3959 
    3967     3985     3998     4006     4004     3978     3948     3932 
    3909     3859     3794     3740     3717     3734     3769     3793 
    3801     3815     3847     3897     3946     3973     3981     3987 
    3982     3936     3859     3801     3789     3813     3846     3858 
    3838     3832     3873     3928     3946     3883     3757     3638 
    3581     3582     3616     3666     3712     3747     3762     3766 
    3784     3824     3873     3889     3862     3835     3842     3874 
    3901     3904     3883     3856     3840     3846     3873     3915 
    3978     4041     4068     4062     4058     4074     4089     4068 
    4001     3923     3897     3946     4020     4079     4098     4070 
    4021     3964     3893     3843     3832     3827     3807     3773 
    3739     3715     3689     3667     3658     3655     3661     3682 
    3730     3784     3817     3834     3842     3848     3847     3832 
    3827     3829     3805     3743     3662     3599     3596     3639 
    3682     3717     3759     3827     3920     3994     4027     4035 
    4018     3987     3977     4009     4051     4068     4050     4016 
    3994     3982     3974     3978     3991     3990     3954     3889 
    3840     3829     3846     3870     3904     3954     4006     4028 
    4006     3955     3902     3869     3844     3829     3832     3846 
    3843     3812     3769     3755     3788     3843     3869     3829 
    3753     3682     3619     3558     3528     3543     3595     3670 
    3757     3846     3924     3966     3962     3929     3877     3813 
    3771     3782     3839     3902     3946     3975     4004     4018 
    3998     3952     3906     3871     3840     3820     3809     3819 
    3869     3958     4051     4108     4104     4064     4029     3994 
    3937     3862     3790     3753     3770     3812     3834     3835 
    3835     3854     3888     3919     3936     3928     3888     3843 
    3819     3817     3843     3900     3978     4056     4089     4055 
    3994     3932     3861     3770     3673     3605     3592     3608 
    3635     3676     3730     3792     3863     3924     3955     3943 
    3885     3802     3720     3646     3601     3600     3647     3735 
    3835     3915     3940     3901     3820     3735     3684     3704 
    3786     3894     4001     4104     4186     4220     4193     4109 
    3998     3898     3832     3820     3862     3933     4005     4047 
    4055     4063     4072     4062     4020     3956     3906     3894 
    3898     3906     3924     3940     3948     3931     3870     3797 
    3762     3762     3761     3717     3661     3658     3724     3813 
    3882     3923     3933     3915     3873     3801     3692     3578 
    3507     3488     3491     3491     3512     3596     3735     3848 
    3878     3854     3844     3874     3916     3928     3913     3916 
    3954     4004     4028     4024     4013     3981     3892     3767 
    3678     3669     3731     3839     3970     4097     4199     4270 
    4306     4309     4266     4178     4075     3986     3921     3889 
    3896     3940     3983     3989     3954     3896     3829     3773 
    3751     3766     3793     3817     3842     3862     3863     3839 
    3796     3748     3688     3611     3550     3532     3543     3568 
    3611     3674     3735     3778     3813     3838     3848     3855 
    3843     3802     3744     3684     3659     3685     3731     3807 
    3921     4017     4045     4023     3978     3919     3847     3789 
    3775     3816     3896     3989     4083     4168     4229     4253 
    4239     4175     4081     3990     3927     3896     3897     3923 
    3960     3986     3986     3987     3989     3954     3877     3802 
    3761     3747     3746     3754     3784     3831     3879     3923 
    3952     3955     3925     3869     3788     3705     3642     3597 
    3576     3577     3603     3650     3692     3709     3724     3742 
    3739     3708     3672     3655     3658     3670     3692     3723 
    3754     3778     3793     3823     3877     3937     3997     4035 
    4039     4017     3990     3977     3981     4001     4039     4087 
    4135     4174     4187     4171     4126     4043     3936     3859 
    3859     3956     4098     4195     4209     4172     4122     4072 
    4023     3973     3923     3866     3817     3780     3738     3696 
    3674     3677     3694     3712     3732     3755     3766     3748 
    3715     3685     3692     3739     3811     3896     3969     3985 
    3913     3773     3623     3501     3410     3345     3323     3352 
    3414     3487     3546     3586     3645     3723     3782     3821 
    3900     4040     4186     4259     4249     4201     4159     4128 
    4093     4054     4025     4018     4051     4113     4164     4170 
    4144     4108     4048     3959     3881     3856     3900     3986 
    4077     4125     4124     4126     4185     4268     4301     4247 
    4131     4004     3883     3767     3672     3618     3612     3655 
    3716     3742     3711     3618     3460     3262     3082     2980 
    3002     3142     3357     3553     3670     3724     3758     3800 
    3847     3896     3954     4023     4105     4193     4264     4309 
    4317     4268     4176     4075     3963     3811     3640     3514 
    3451     3435     3447     3492     3593     3758     3958     4149 
    4291     4352     4344     4298     4237     4194     4201     4287 
    4415     4463     4367     4175     3951     3748     3613     3562 
    3568     3600     3658     3757     3885     4008     4075     4032 
    3871     3657     3465     3348     3331     3410     3554     3724 
    3863     3948     3996     4009     3958     3821     3639     3477 
    3376     3335     3356     3447     3603     3782     3962     4109 
    4166     4108     3989     3879     3835     3875     4002     4222 
    4499     4725     4789     4662     4409     4129     3886     3672 
    3461     3272     3157     3152     3245     3403     3605     3846 
    4109     4359     4534     4587     4521     4379     4198     4004 
    3839     3739     3716     3755     3778     3711     3570     3433 
    3333     3265     3223     3215     3291     3516     3875     4271 
    4610     4833     4915     4847     4622     4282     3904     3550 
    3264     3092     3065     3180     3397     3630     3774     3802 
    3755     3673     3593     3555     3569     3615     3696     3825 
    3996     4152     4228     4197     4104     4008     3939     3916 
    3946     4027     4132     4207     4241     4263     4286     4307 
    4302     4224     4056     3843     3651     3522     3454     3424 
    3406     3396     3416     3485     3640     3901     4210     4456 
    4537     4417     4144     3817     3561     3485     3623     3897 
    4162     4278     4202     3985     3662     3262     2843     2496 
    2339     2466     2893     3546     4251     4810     5136     5242 
    5170     4977     4715     4448     4237     4086     3944     3794 
    3659     3570     3507     3411     3272     3132     3041     3040 
    3133     3300     3504     3712     3958     4287     4657     4959 
    5080     4963     4657     4256     3838     3487     3281     3231 
    3292     3415     3568     3735     3893     3969     3904     3726 
    3531     3437     3499     3703     4006     4314     4496     4498 
    4353     4143     3937     3747     3557     3420     3427     3589 
    3831     4041     4174     4247     4283     4291     4267     4199 
    4067     3881     3689     3561     3520     3538     3576     3626 
    3670     3669     3615     3577     3655     3856     4090     4270 
    4378     4429     4418     4334     4202     4066     3928     3762 
    3553     3337     3179     3100     3045     2976     2936     2980 
    3111     3277     3406     3495     3622     3859     4190     4510 
    4733     4849     4870     4803     4657     4432     4144     3867 
    3705     3713     3840     3966     4014     3994     3948     3913 
    3909     3936     4000     4121     4298     4486     4615     4646 
    4585     4457     4244     3940     3622     3396     3306     3315 
    3361     3397     3402     3368     3311     3265     3277     3357 
    3462     3565     3669     3770     3854     3875     3777     3553 
    3285     3103     3095     3262     3518     3739     3870     3955 
    4071     4240     4395     4452     4380     4216     4035     3906 
    3850     3873     3974     4122     4241     4263     4190     4093 
    4047     4064     4077     4037     3986     4002     4104     4218 
    4260     4213     4125     4058     4036     4060     4125     4197 
    4234     4217     4135     4004     3875     3767     3651     3535 
    3477     3503     3566     3605     3609     3618     3655     3688 
    3690     3669     3613     3511     3366     3181     2960     2743 
    2619     2664     2870     3154     3447     3713     3943     4147 
    4329     4448     4438     4324     4183     4050     3936     3866 
    3844     3894     4035     4248     4484     4698     4874     4974 
    4920     4679     4355     4129     4108     4255     4437     4544 
    4541     4432     4230     3971     3711     3508     3406     3404 
    3497     3680     3908     4113     4236     4234     4095     3838 
    3523     3223     2960     2729     2566     2512     2586     2759 
    2967     3167     3346     3501     3616     3688     3757     3879 
    4040     4178     4272     4337     4365     4325     4218     4090 
    3958     3789     3555     3319     3191     3233     3431     3727 
    4045     4351     4621     4847     5039     5181     5208     5054 
    4725     4322     3977     3775     3743     3839     4000     4145 
    4194     4144     4055     3962     3844     3640     3356     3115 
    3056     3208     3477     3734     3928     4070     4143     4137 
    4075     3975     3847     3685     3493     3325     3258     3312 
    3429     3515     3519     3476     3454     3470     3495     3531 
    3611     3723     3819     3875     3902     3923     3952     4000 
    4071     4172     4287     4361     4333     4195     4004     3842 
    3758     3748     3809     3906     3975     3996     3994     3989 
    3967     3909     3827     3759     3720     3719     3778     3898 
    4028     4085     4052     4010     4048     4178     4332     4440 
    4492     4515     4498     4401     4237     4067     3920     3796 
    3693     3609     3547     3530     3573     3630     3624     3541 
    3451     3435     3501     3607     3697     3740     3736     3686 
    3595     3489     3411     3391     3406     3403     3376     3353 
    3372     3433     3505     3569     3647     3766     3917     4050 
    4131     4172     4191     4190     4163     4109     4077     4118 
    4230     4368     4477     4523     4514     4456     4364     4245 
    4113     3996     3935     3956     4047     4135     4143     4050 
    3890     3716     3581     3538     3627     3823     4032     4172 
    4210     4186     4174     4168     4097     3932     3728     3578 
    3504     3454     3424     3449     3523     3604     3627     3584 
    3530     3522     3546     3555     3526     3485     3472     3492 
    3535     3597     3661     3708     3750     3781     3775     3728 
    3657     3603     3599     3631     3693     3766     3824     3869 
    3916     3946     3921     3858     3846     3970     4190     4399 
    4533     4579     4557     4500     4442     4388     4326     4245 
    4172     4133     4124     4120     4116     4131     4171     4217 
    4247     4247     4210     4152     4068     3948     3817     3719 
    3657     3609     3586     3600     3618     3596     3532     3458 
    3406     3392     3431     3504     3566     3589     3576     3581 
    3638     3699     3717     3709     3697     3661     3569     3433 
    3306     3233     3207     3219     3304     3472     3665     3828 
    3950     4044     4099     4089     4037     3990     3950     3908 
    3873     3862     3908     4018     4190     4409     4619     4758 
    4814     4801     4752     4677     4564     4429     4326     4287 
    4290     4270     4176     4037     3905     3809     3775     3801 
    3861     3905     3882     3820     3805     3869     3947     3977 
    3939     3829     3657     3447     3238     3075     2988     2963 
    2968     2976     2970     2957     2951     2952     2975     3032 
    3127     3276     3465     3667     3855     3987     4048     4077 
    4105     4137     4178     4218     4244     4256     4253     4237 
    4218     4201     4163     4090     4014     4013     4108     4260 
