Origin Time       2025/03/30 21:30:00
Lat.              38.535
Long.             142.295
Depth. (km)       44
Mag.              4.3
Station Code      IWT013
Station Lat.      39.3290
Station Long.     141.5638
Station Height(m) 298
Record Time       2025/03/30 21:31:26
Sampling Freq(Hz) 100Hz
Duration Time(s)  60
Dir.              U-D
Scale Factor      7845(gal)/8223790
Max. Acc. (gal)   0.831
Last Correction   2025/03/30 21:31:25
Memo.             
  -47984   -47984   -47981   -47983   -47984   -47983   -47984   -47985 
  -47983   -47981   -47983   -47983   -47983   -47984   -47983   -47980 
  -47981   -47983   -47981   -47981   -47981   -47983   -47984   -47984 
  -47984   -47983   -47984   -47984   -47983   -47981   -47984   -47985 
  -47985   -47985   -47985   -47984   -47983   -47983   -47985   -47985 
  -47984   -47984   -47984   -47984   -47984   -47985   -47984   -47984 
  -47985   -47985   -47985   -47985   -47984   -47985   -47988   -47985 
  -47981   -47984   -47987   -47984   -47983   -47983   -47984   -47984 
  -47983   -47984   -47984   -47985   -47983   -47981   -47985   -47985 
  -47983   -47981   -47984   -47984   -47983   -47981   -47984   -47984 
  -47984   -47985   -47985   -47984   -47983   -47981   -47983   -47983 
  -47983   -47984   -47984   -47983   -47983   -47983   -47981   -47980 
  -47983   -47985   -47983   -47980   -47983   -47983   -47983   -47981 
  -47983   -47983   -47983   -47984   -47984   -47983   -47983   -47983 
  -47981   -47981   -47985   -47987   -47983   -47980   -47983   -47984 
  -47984   -47981   -47981   -47984   -47984   -47984   -47985   -47985 
  -47984   -47984   -47984   -47985   -47984   -47981   -47981   -47984 
  -47984   -47984   -47985   -47983   -47983   -47985   -47983   -47980 
  -47981   -47983   -47983   -47984   -47983   -47981   -47983   -47985 
  -47984   -47984   -47984   -47983   -47984   -47987   -47985   -47987 
  -47985   -47983   -47987   -47985   -47981   -47984   -47987   -47984 
  -47984   -47985   -47987   -47987   -47985   -47984   -47983   -47984 
  -47985   -47984   -47984   -47987   -47983   -47981   -47983   -47984 
  -47984   -47984   -47984   -47983   -47983   -47985   -47985   -47984 
  -47984   -47984   -47983   -47984   -47985   -47984   -47984   -47984 
  -47983   -47985   -47988   -47985   -47984   -47985   -47985   -47985 
  -47985   -47985   -47987   -47984   -47979   -47980   -47984   -47983 
  -47983   -47983   -47983   -47984   -47983   -47981   -47980   -47980 
  -47984   -47985   -47983   -47983   -47985   -47985   -47985   -47988 
  -47988   -47988   -47991   -47989   -47985   -47985   -47985   -47981 
  -47976   -47972   -47968   -47965   -47972   -47985   -47989   -47987 
  -47999   -48023   -48033   -48020   -48015   -48030   -48045   -48034 
  -48016   -48018   -48012   -47979   -47952   -47937   -47887   -47818 
  -47794   -47818   -47857   -47891   -47916   -47995   -48134   -48217 
  -48192   -48127   -48039   -47960   -48011   -48058   -47862   -47702 
  -47900   -48128   -48043   -47902   -47884   -47757   -47615   -47773 
  -48076   -48325   -48325   -48011   -48024   -48398   -48355   -47999 
  -47722   -47596   -47858   -48215   -48149   -47888   -47723   -47629 
  -47767   -48107   -48227   -48068   -47906   -48001   -48440   -48474 
  -47675   -47298   -48116   -48855   -48298   -47262   -47244   -47984 
  -48338   -48184   -47733   -47409   -47865   -48571   -48535   -47953 
  -47661   -47931   -48321   -48379   -48037   -47711   -47821   -47903 
  -47737   -47958   -48269   -48049   -47861   -48007   -47915   -47721 
  -47938   -48050   -47903   -48165   -48439   -48197   -47799   -47453 
  -47602   -48265   -48351   -47910   -47771   -47792   -47961   -48207 
  -48020   -47783   -47993   -48138   -47950   -48077   -48436   -48166 
  -47592   -47578   -47899   -47950   -47903   -48170   -48384   -48212 
  -47987   -47895   -47912   -47831   -47637   -47831   -48165   -48022 
  -47837   -48077   -48396   -48244   -47727   -47628   -47942   -47991 
  -47984   -48186   -48122   -47887   -47912   -48004   -48034   -48006 
  -47883   -47825   -47795   -47875   -48153   -48122   -47846   -47983 
  -48265   -48097   -47777   -47833   -48076   -48165   -48166   -48161 
  -48062   -47879   -47893   -47911   -47638   -47750   -48195   -48173 
  -48080   -48146   -47953   -47771   -47818   -47885   -48014   -48127 
  -48020   -47954   -48084   -48072   -47918   -47804   -47764   -47993 
  -48290   -48216   -47920   -47803   -47883   -47893   -47947   -48084 
  -48022   -48012   -48155   -48047   -47837   -47934   -48138   -47974 
  -47682   -47810   -48138   -48211   -48115   -48012   -47988   -48107 
  -48076   -47910   -47987   -47956   -47698   -47830   -48089   -48028 
  -47969   -48012   -48016   -47881   -47723   -47892   -48305   -48483 
  -48139   -47714   -47812   -48053   -47927   -47827   -47899   -47827 
  -47883   -48177   -48278   -48135   -47964   -47881   -47872   -47891 
  -48004   -48146   -48078   -47883   -47949   -48087   -47869   -47714 
  -47972   -48197   -48119   -47899   -47795   -47935   -47999   -47929 
  -48015   -48046   -47911   -47916   -48181   -48357   -48097   -47796 
  -47757   -47841   -48050   -48091   -47883   -47876   -48049   -48028 
  -47849   -47844   -48084   -48271   -48146   -47957   -47992   -48000 
  -47970   -48042   -47898   -47669   -47790   -48077   -48143   -47974 
  -47941   -48162   -48223   -47989   -47839   -47911   -47950   -47927 
  -48069   -48228   -48064   -47750   -47795   -48008   -47846   -47694 
  -48010   -48436   -48447   -47946   -47618   -47877   -48023   -47810 
  -47891   -48115   -47993   -47996   -48278   -48277   -48055   -47884 
  -47706   -47745   -47992   -48019   -47926   -47946   -47915   -47918 
  -48114   -48193   -47943   -47812   -48027   -48062   -47929   -48046 
  -48000   -47673   -47722   -48131   -48254   -48046   -48026   -48174 
  -48085   -47845   -47745   -47866   -48022   -47970   -47903   -48053 
  -48178   -47984   -47785   -48010   -48147   -47887   -47903   -48163 
  -48103   -47977   -48051   -48093   -47972   -47750   -47729   -47993 
  -48060   -47881   -47966   -48159   -48057   -47943   -48033   -48070 
  -47881   -47711   -47989   -48308   -48103   -47914   -48068   -48024 
  -47750   -47808   -48011   -47908   -47923   -48138   -48146   -48046 
  -47898   -47877   -48135   -48184   -47961   -47807   -47723   -47893 
  -48211   -48136   -47908   -47846   -47812   -48050   -48340   -48115 
  -47785   -47765   -47899   -48068   -48142   -48109   -47977   -47873 
  -47991   -47964   -47810   -47950   -48054   -47981   -48062   -48107 
  -47941   -47910   -48038   -48053   -48053   -48034   -47923   -47892 
  -47907   -48019   -48147   -47974   -47856   -48004   -47989   -47904 
  -48000   -48035   -47935   -47885   -47974   -48069   -48003   -47984 
  -48082   -48024   -47943   -47969   -47861   -47821   -48014   -48047 
  -47939   -47954   -47974   -47965   -48000   -48062   -48057   -47987 
  -47976   -47965   -47947   -47965   -47972   -48031   -48062   -47991 
  -47916   -47858   -47903   -48034   -48043   -47958   -47960   -48014 
  -48080   -48170   -48105   -47877   -47860   -48072   -48087   -47960 
  -47941   -47866   -47846   -48024   -48035   -47876   -47925   -48105 
  -48151   -48011   -47849   -47833   -47911   -47980   -48033   -48084 
  -48082   -48007   -47925   -47929   -48082   -48158   -47992   -47930 
  -48054   -48049   -47919   -47881   -47904   -47877   -47830   -47881 
  -48127   -48216   -47903   -47873   -48222   -48126   -47802   -47906 
  -48070   -47966   -47965   -48091   -48014   -47846   -47876   -48047 
  -48127   -48034   -47938   -47927   -47861   -47861   -48028   -48076 
  -48033   -48020   -47911   -47922   -48061   -47961   -47893   -48019 
  -48001   -47995   -48120   -48105   -47979   -47933   -47910   -47837 
  -47899   -48047   -47981   -47934   -48116   -48089   -47819   -47856 
  -48081   -47946   -47682   -47846   -48223   -48276   -48068   -47939 
  -47974   -48045   -47988   -47873   -47954   -48146   -48103   -47964 
  -48010   -47949   -47768   -47848   -47920   -47914   -48131   -48138 
  -47888   -47925   -48072   -48033   -47902   -47900   -48038   -48011 
  -47919   -47985   -48146   -48258   -48046   -47799   -47934   -48026 
  -47872   -47842   -47993   -48091   -48057   -47956   -47842   -47807 
  -47883   -48004   -48018   -47895   -47860   -48010   -48234   -48298 
  -48035   -47717   -47694   -47908   -48170   -48313   -48231   -48027 
  -47898   -47895   -47864   -47750   -47737   -47868   -48100   -48352 
  -48332   -48053   -47862   -47815   -47842   -47914   -48006   -48081 
  -47999   -47912   -47981   -47987   -47985   -48092   -48120   -48007 
  -47844   -47818   -47987   -48101   -48047   -47958   -47860   -47854 
  -48103   -48266   -48111   -47930   -47830   -47887   -48109   -48155 
  -47992   -47811   -47682   -47717   -47923   -48132   -48254   -48261 
  -48041   -47811   -47879   -47987   -47952   -47862   -47798   -47974 
  -48185   -48130   -48091   -48035   -47807   -47776   -47904   -47952 
  -48105   -48213   -47974   -47723   -47903   -48266   -48196   -47807 
  -47763   -47991   -48026   -47969   -48028   -48084   -48068   -47993 
  -47858   -47858   -48123   -48228   -47957   -47830   -47992   -48103 
  -48122   -47958   -47738   -47794   -47858   -47896   -48159   -48239 
  -48066   -48038   -47952   -47810   -47996   -48199   -48061   -47896 
  -47919   -47954   -47915   -47889   -47946   -47938   -47799   -47923 
  -48246   -48155   -47860   -47880   -48093   -48220   -48076   -47804 
  -47823   -48108   -48274   -48115   -47815   -47723   -47794   -47846 
  -47981   -48082   -47976   -47935   -48012   -47952   -47956   -48097 
  -48047   -47999   -48142   -48184   -48038   -47841   -47823   -48072 
  -48119   -47884   -47872   -47927   -47826   -47946   -48178   -48142 
  -47914   -47776   -47954   -48057   -47823   -47868   -48155   -48236 
  -48289   -48159   -47879   -47857   -47821   -47833   -48078   -48042 
  -47866   -47927   -47883   -47806   -48022   -48166   -48123   -48196 
  -48091   -47898   -48014   -47930   -47742   -47898   -47888   -47825 
  -48120   -48300   -48201   -47992   -47812   -47899   -47871   -47740 
  -47979   -48047   -47888   -48087   -48197   -48028   -48058   -48089 
  -47938   -47920   -47965   -47920   -47937   -47965   -47980   -48008 
  -47941   -47888   -47888   -47900   -48078   -48147   -47900   -47868 
  -48146   -48246   -48120   -47952   -47802   -47834   -48022   -48092 
  -48034   -47961   -47925   -47983   -48043   -48022   -47880   -47757 
  -47903   -48150   -48128   -47858   -47752   -47992   -48228   -48132 
  -47865   -47903   -48207   -48143   -47765   -47729   -47980   -48042 
  -47945   -47927   -47937   -47987   -48178   -48215   -47910   -47680 
  -47857   -48132   -48170   -48130   -48074   -47942   -47949   -48010 
  -47934   -47912   -47879   -47857   -48136   -48220   -47858   -47752 
  -47957   -48010   -47956   -47993   -48105   -48209   -48213   -47987 
  -47752   -47910   -48131   -48016   -48006   -48109   -47812   -47618 
  -47927   -48042   -47866   -47862   -47947   -48028   -48103   -48103 
  -48139   -48122   -47884   -47830   -48193   -48230   -47823   -47845 
  -48082   -47980   -47834   -47749   -47771   -47943   -48055   -48197 
  -48234   -47989   -47885   -48019   -48039   -47888   -47825   -48064 
  -48325   -48122   -47696   -47698   -47947   -47985   -47976   -48103 
  -48173   -47987   -47783   -47887   -48011   -47942   -47941   -47962 
  -47933   -48051   -48159   -48095   -48019   -47958   -47942   -47988 
  -47877   -47713   -47893   -48219   -48250   -48118   -47974   -47912 
  -48074   -48103   -47799   -47695   -47945   -48031   -47862   -47908 
  -48142   -48120   -48057   -48178   -48084   -47879   -47919   -47927 
  -47826   -47903   -48039   -48076   -48107   -48043   -47929   -47964 
  -48016   -48061   -48103   -47939   -47773   -47892   -48049   -47987 
  -47883   -47929   -48111   -48197   -48010   -47889   -47935   -47899 
  -47965   -48000   -47772   -47800   -48101   -48100   -47920   -47850 
  -47880   -47991   -48074   -48157   -48239   -48162   -48062   -48114 
  -48093   -47791   -47583   -47769   -47941   -47938   -47991   -48111 
  -48145   -48033   -47969   -48024   -48006   -47891   -47892   -48050 
  -48084   -47984   -48015   -48037   -47974   -48104   -48142   -47883 
  -47796   -47829   -47810   -47946   -48027   -47968   -47961   -47916 
  -47849   -47916   -48130   -48238   -47991   -47823   -48082   -48096 
  -47731   -47757   -48091   -48203   -48119   -48053   -48088   -48047 
  -47875   -47915   -48065   -47997   -47950   -47916   -47806   -47977 
  -48184   -48004   -47741   -47772   -48168   -48473   -48271   -48015 
  -48020   -47906   -47703   -47829   -48093   -48060   -47887   -47837 
  -47764   -47731   -47929   -48118   -48047   -47927   -48077   -48339 
  -48270   -47969   -47866   -47885   -47880   -47922   -47900   -47884 
  -47964   -47893   -47761   -47833   -47988   -48185   -48307   -48097 
  -47877   -47902   -48016   -48162   -48188   -48122   -48131   -48060 
  -47925   -47969   -47965   -47714   -47683   -47969   -48196   -48340 
  -48193   -47827   -47798   -47830   -47623   -47750   -48092   -47954 
  -47837   -48197   -48355   -48169   -47968   -47788   -47822   -47950 
  -47896   -47966   -48158   -48084   -47968   -47979   -47923   -47947 
  -48042   -47957   -47844   -47810   -47791   -47943   -48215   -48259 
  -47931   -47636   -47884   -48284   -48180   -47868   -47943   -48155 
  -48038   -47947   -48062   -47984   -47742   -47638   -47875   -48155 
  -48105   -48111   -48257   -48239   -48192   -48091   -47866   -47745 
  -47764   -47922   -48134   -47981   -47710   -47904   -48089   -47966 
  -48045   -48166   -48022   -47834   -47821   -48136   -48420   -48130 
  -47740   -47875   -48069   -47900   -47837   -47961   -47926   -47856 
  -47934   -48058   -48004   -47790   -47709   -47873   -48111   -48188 
  -48099   -48030   -48018   -47914   -47856   -48039   -48014   -47775 
  -47817   -47830   -47768   -47992   -48236   -48281   -48030   -47711 
  -47910   -48190   -48074   -48093   -48120   -47827   -47777   -48003 
  -48030   -47920   -47850   -47908   -48015   -47937   -47900   -48177 
  -48374   -48131   -47808   -47862   -48115   -48120   -48039   -48141 
  -48162   -48200   -48358   -48350   -48381   -48351   -47958   -47839 
  -48131   -48200   -48114   -48012   -47768   -47691   -47892   -48001 
  -48039   -48092   -47872   -47645   -47887   -48114   -47881   -47578 
  -47552   -47787   -47996   -47981   -47892   -47709   -47520   -47700 
  -48000   -47997   -47988   -48126   -48085   -47966   -47937   -47903 
  -48049   -48204   -47947   -47672   -47771   -47911   -47826   -47698 
  -47746   -47900   -47987   -48099   -48379   -48605   -48537   -48424 
  -48447   -48462   -48375   -48197   -48143   -48139   -47729   -47196 
  -47233   -47721   -48135   -48303   -48168   -47787   -47526   -47595 
  -47790   -48027   -48316   -48228   -47844   -47945   -48335   -48309 
  -48055   -47906   -47744   -47618   -47634   -47625   -47564   -47476 
  -47507   -47892   -48404   -48644   -48394   -48101   -48324   -48377 
  -47919   -47756   -47949   -47973   -47829   -47842   -48097   -48323 
  -48493   -48552   -48208   -47872   -47985   -48042   -47768   -47547 
  -47556   -47626   -47690   -47806   -47772   -47505   -47390   -47582 
  -47912   -48311   -48575   -48703   -48786   -48443   -47979   -48043 
  -48055   -47633   -47515   -47976   -48280   -47942   -47551   -47569 
  -47730   -47969   -48155   -48039   -48058   -48238   -48105   -48097 
  -48339   -48379   -48448   -48443   -48039   -47717   -47650   -47628 
  -47709   -47837   -47970   -48105   -47973   -47664   -47722   -48051 
  -48273   -48598   -48729   -48243   -47914   -47925   -47621   -47425 
  -47650   -47817   -47880   -47725   -47443   -47619   -47942   -47931 
  -47957   -48162   -48265   -48347   -48636   -48726   -48235   -47853 
  -48062   -48076   -47571   -47279   -47352   -47506   -47760   -47857 
  -47754   -47810   -47931   -48016   -48200   -48398   -48605   -48751 
  -48492   -48008   -47989   -48378   -48510   -48203   -47752   -47590 
  -47726   -47676   -47529   -47630   -47659   -47673   -47984   -47993 
  -47663   -47775   -48104   -48168   -48209   -48271   -48134   -47935 
  -48068   -48404   -48373   -48157   -48230   -48328   -48146   -47865 
  -47707   -47673   -47745   -47937   -48131   -48093   -47714   -47474 
  -47741   -47964   -48016   -48209   -48139   -47877   -47930   -48012 
  -48028   -48126   -48108   -48211   -48432   -48228   -47804   -47559 
  -47420   -47466   -47699   -47941   -48182   -48172   -47692   -47459 
  -47949   -48405   -48340   -48143   -48096   -48120   -48127   -48181 
  -48126   -47721   -47556   -47911   -48003   -47926   -48142   -48092 
  -47822   -47812   -47802   -47925   -48216   -48135   -48016   -48161 
  -48135   -48061   -48212   -48382   -48339   -48208   -48270   -48255 
  -47765   -47240   -47286   -47668   -47889   -47960   -48074   -48226 
  -48238   -48114   -47979   -47790   -47661   -47737   -47807   -47925 
  -48219   -48226   -48004   -48015   -48008   -48012   -48231   -48284 
  -48028   -47826   -47927   -47989   -47775   -47702   -47764   -47842 
  -48189   -48377   -48097   -47757   -47533   -47547   -47665   -47758 
  -48174   -48555   -48320   -47965   -47914   -47875   -47812   -47985 
  -48294   -48498   -48463   -48131   -47818   -47888   -48049   -47912 
  -47798   -47857   -47875   -47993   -48018   -47683   -47592   -47974 
  -48134   -47965   -47896   -47883   -47906   -48012   -48089   -48204 
  -48301   -48251   -48039   -47750   -47736   -47930   -48014   -48181 
  -48227   -47856   -47710   -47876   -47930   -48070   -48085   -47877 
  -47945   -48074   -48072   -48153   -48230   -48296   -48216   -47895 
  -47736   -47781   -47761   -47719   -47780   -47803   -47703   -47858 
  -48215   -48253   -48232   -48301   -48003   -47757   -48045   -48267 
  -48168   -48051   -47911   -47970   -48297   -48246   -47830   -47557 
  -47470   -47740   -48219   -48222   -47946   -47900   -47806   -47729 
  -47920   -48054   -48096   -48091   -47969   -47919   -47979   -48150 
  -48269   -48153   -48074   -48028   -47958   -48150   -48347   -48217 
  -47929   -47582   -47379   -47440   -47634   -47966   -48170   -48143 
  -48178   -48120   -48020   -48038   -47773   -47691   -48163   -48301 
  -48246   -48458   -48340   -48041   -47968   -47938   -47935   -47764 
  -47397   -47356   -47709   -48049   -48161   -48087   -48027   -48003 
  -48060   -48284   -48274   -48008   -47923   -47964   -47996   -48033 
  -48015   -48072   -48141   -47929   -47642   -47611   -47691   -47746 
  -47844   -47976   -48081   -48193   -48224   -48054   -47912   -48018 
  -48246   -48274   -48028   -47734   -47641   -47902   -48168   -48091 
  -48026   -48145   -48095   -47925   -47868   -47763   -47709   -47864 
  -48006   -48089   -48069   -48016   -48031   -47856   -47818   -48161 
  -48232   -47961   -47865   -47872   -47838   -47970   -48068   -47934 
  -47952   -48045   -47881   -47877   -48120   -47969   -47673   -47884 
  -48197   -48116   -47914   -47885   -47918   -47922   -48049   -48188 
  -48130   -48037   -48012   -48062   -48254   -48284   -48055   -47999 
  -48050   -47976   -48092   -48243   -47947   -47682   -47858   -48037 
  -48112   -48185   -47985   -47713   -47750   -47835   -47787   -47860 
  -48031   -48078   -48081   -48182   -48236   -48128   -48028   -47995 
  -47937   -47934   -48010   -47993   -47839   -47698   -47628   -47683 
  -47856   -47984   -48141   -48286   -48134   -47915   -47926   -48038 
  -48177   -48190   -47996   -47873   -47831   -47768   -47907   -48145 
