Origin Time       2025/03/30 21:30:00
Lat.              38.535
Long.             142.295
Depth. (km)       44
Mag.              4.3
Station Code      MYG008
Station Lat.      38.5676
Station Long.     141.4267
Station Height(m) 26
Record Time       2025/03/30 21:31:19
Sampling Freq(Hz) 100Hz
Duration Time(s)  60
Dir.              U-D
Scale Factor      7845(gal)/8223790
Max. Acc. (gal)   2.308
Last Correction   2025/03/30 21:31:19
Memo.             
[...]
  -52910   -52910   -52909   -52911   -52911   -52909   -52909   -52911 
  -52910   -52910   -52910   -52909   -52909   -52909   -52909   -52909 
  -52909   -52910   -52911   -52910   -52909   -52907   -52910   -52913 
  -52911   -52910   -52910   -52907   -52906   -52910   -52913   -52910 
  -52910   -52911   -52910   -52909   -52910   -52911   -52911   -52910 
  -52910   -52911   -52911   -52910   -52909   -52910   -52913   -52913 
  -52910   -52911   -52914   -52915   -52913   -52910   -52913   -52915 
  -52911   -52910   -52913   -52911   -52909   -52911   -52913   -52910 
  -52911   -52911   -52909   -52911   -52911   -52909   -52911   -52914 
  -52913   -52910   -52911   -52913   -52911   -52910   -52911   -52911 
  -52909   -52907   -52910   -52913   -52911   -52910   -52909   -52909 
  -52911   -52913   -52910   -52909   -52911   -52913   -52911   -52907 
  -52906   -52909   -52911   -52910   -52909   -52909   -52909   -52910 
  -52910   -52909   -52910   -52911   -52910   -52910   -52910   -52907 
  -52906   -52909   -52911   -52907   -52907   -52910   -52911   -52911 
  -52910   -52910   -52911   -52910   -52909   -52910   -52909   -52909 
  -52913   -52911   -52909   -52909   -52911   -52913   -52913   -52910 
  -52907   -52909   -52909   -52909   -52910   -52909   -52907   -52909 
  -52911   -52910   -52910   -52909   -52909   -52909   -52910   -52909 
  -52909   -52907   -52909   -52913   -52913   -52910   -52907   -52906 
  -52909   -52910   -52910   -52910   -52909   -52910   -52910   -52909 
  -52910   -52911   -52909   -52909   -52910   -52907   -52907   -52909 
  -52910   -52910   -52911   -52910   -52909   -52907   -52905   -52906 
  -52910   -52910   -52907   -52907   -52910   -52911   -52909   -52907 
  -52909   -52907   -52907   -52907   -52907   -52909   -52909   -52907 
  -52909   -52909   -52907   -52907   -52909   -52907   -52906   -52909 
  -52909   -52907   -52909   -52911   -52911   -52910   -52909   -52909 
  -52909   -52911   -52911   -52906   -52907   -52914   -52911   -52907 
  -52911   -52913   -52907   -52909   -52913   -52910   -52909   -52910 
  -52911   -52910   -52910   -52909   -52909   -52910   -52911   -52909 
  -52907   -52910   -52913   -52909   -52906   -52910   -52911   -52910 
  -52911   -52911   -52911   -52910   -52909   -52909   -52910   -52913 
  -52911   -52911   -52910   -52911   -52911   -52911   -52911   -52911 
  -52910   -52910   -52910   -52907   -52910   -52913   -52909   -52905 
  -52909   -52910   -52909   -52910   -52911   -52909   -52909   -52911 
  -52910   -52907   -52909   -52910   -52910   -52909   -52909   -52909 
  -52909   -52910   -52911   -52910   -52911   -52913   -52910   -52907 
  -52910   -52911   -52910   -52909   -52913   -52913   -52910   -52910 
  -52911   -52910   -52909   -52909   -52910   -52910   -52910   -52911 
  -52910   -52907   -52909   -52910   -52910   -52910   -52910   -52909 
  -52909   -52909   -52910   -52910   -52910   -52910   -52910   -52909 
  -52907   -52909   -52911   -52907   -52907   -52913   -52913   -52909 
  -52909   -52910   -52909   -52907   -52909   -52910   -52909   -52906 
  -52909   -52911   -52910   -52910   -52913   -52913   -52909   -52909 
  -52909   -52910   -52910   -52909   -52907   -52909   -52913   -52914 
  -52911   -52910   -52909   -52910   -52911   -52911   -52910   -52910 
  -52910   -52909   -52910   -52911   -52910   -52910   -52911   -52911 
  -52910   -52911   -52910   -52909   -52909   -52910   -52910   -52909 
  -52910   -52911   -52910   -52907   -52907   -52909   -52910   -52911 
  -52910   -52909   -52911   -52914   -52913   -52911   -52911   -52914 
  -52913   -52911   -52911   -52910   -52909   -52910   -52913   -52913 
  -52910   -52909   -52909   -52910   -52913   -52914   -52911   -52910 
  -52910   -52911   -52911   -52909   -52909   -52911   -52913   -52910 
  -52910   -52911   -52910   -52911   -52911   -52909   -52907   -52909 
  -52910   -52911   -52913   -52910   -52910   -52911   -52911   -52909 
  -52909   -52910   -52909   -52907   -52911   -52911   -52907   -52909 
  -52913   -52911   -52910   -52909   -52909   -52913   -52913   -52909 
  -52909   -52910   -52910   -52910   -52910   -52910   -52909   -52905 
  -52902   -52901   -52897   -52893   -52894   -52897   -52894   -52888 
  -52887   -52901   -52932   -52980   -53023   -53023   -52968   -52886 
  -52830   -52849   -52949   -53032   -52898   -52582   -52515   -52884 
  -53242   -53173   -52856   -52697   -52845   -53033   -53038   -53119 
  -53160   -52753   -52559   -53094   -53365   -52776   -52251   -52632 
  -53488   -53578   -52481   -51914   -53090   -53916   -53029   -52404 
  -52899   -53188   -52880   -52423   -52258   -52991   -53694   -52864 
  -52030   -52967   -54024   -53547   -52328   -51840   -52740   -53951 
  -53628   -52205   -51900   -52955   -53663   -53223   -52524   -52690 
  -53399   -53285   -52382   -52424   -53242   -53063   -52875   -53524 
  -53025   -51927   -52446   -53457   -53426   -52695   -52057   -52658 
  -53982   -53739   -52504   -52536   -53041   -52737   -52546   -52868 
  -53184   -53372   -53238   -52679   -52027   -52299   -53937   -54395 
  -52357   -51424   -53026   -53757   -52687   -52124   -52855   -53865 
  -53599   -52126   -52008   -53496   -53929   -53094   -52332   -51687 
  -51952   -53769   -54631   -52888   -51370   -52159   -53565   -53840 
  -52914   -52103   -52741   -53782   -53522   -52466   -52012   -52893 
  -54102   -53468   -51996   -52232   -53142   -53234   -52982   -52614 
  -52570   -53225   -53453   -52717   -52296   -52659   -53235   -53582 
  -53083   -52463   -52682   -52679   -52581   -53611   -53973   -52292 
  -51543   -53187   -54203   -53022   -51744   -52280   -53651   -53640 
  -52651   -52740   -53190   -52578   -52394   -53331   -53462   -52546 
  -52375   -53050   -53292   -52855   -52428   -52786   -53557   -53376 
  -52467   -52112   -52489   -53362   -54156   -53500   -51850   -51833 
  -53342   -53589   -52627   -52651   -53455   -53215   -52288   -52488 
  -53416   -53485   -52748   -52434   -53104   -53532   -52879   -52442 
  -52708   -52890   -53114   -53192   -52682   -52636   -53258   -53055 
  -52645   -53233   -53277   -52647   -52714   -52616   -52386   -52930 
  -53365   -53593   -53604   -52203   -51148   -52728   -54214   -53528 
  -52682   -52308   -52382   -53430   -53600   -52451   -52247   -52883 
  -53292   -53495   -52886   -52147   -52818   -53689   -53275   -52467 
  -52158   -52598   -53507   -53546   -52655   -52404   -53140   -53711 
  -53115   -52115   -52498   -53565   -53304   -52374   -52429   -53226 
  -53545   -52876   -52096   -52504   -53474   -53354   -52749   -52779 
  -52852   -52763   -52820   -53013   -53250   -53061   -52643   -52737 
  -53117   -53346   -53142   -52265   -51933   -53117   -53982   -53140 
  -52123   -52321   -53183   -53527   -53084   -52610   -52596   -52994 
  -53446   -53215   -52434   -52276   -52949   -53322   -52960   -52755 
  -52999   -52963   -52644   -52925   -53387   -52760   -52212   -53272 
  -54120   -53069   -51722   -52039   -53504   -54000   -52841   -52101 
  -52888   -53068   -52301   -52959   -54097   -53261   -51903   -52165 
  -53376   -53856   -52994   -52266   -52654   -52876   -52883   -53341 
  -53199   -52477   -52501   -52987   -53200   -53262   -52971   -52575 
  -52743   -52826   -52786   -53258   -53117   -52320   -52606   -53522 
  -53542   -52736   -52257   -52920   -53577   -52837   -52077   -52883 
  -53848   -53262   -52062   -52099   -53420   -53981   -52726   -51856 
  -52737   -53392   -53046   -52964   -53011   -52591   -52338   -53022 
  -53893   -53185   -51861   -52550   -54016   -53580   -52266   -52200 
  -53083   -53334   -52617   -52483   -53418   -53547   -52674   -52612 
  -52820   -52328   -52739   -54137   -54051   -52145   -51197   -52906 
  -54650   -53427   -51352   -51810   -53667   -54112   -52855   -51957 
  -52806   -53424   -52532   -52455   -53360   -53144   -52737   -53260 
  -53303   -52648   -52512   -52911   -53126   -52914   -52768   -53129 
  -53239   -52647   -52523   -53057   -53030   -52806   -52990   -52759 
  -52481   -52941   -53373   -53406   -53145   -52506   -52292   -52786 
  -53169   -53343   -53258   -52620   -52355   -52816   -52956   -52929 
  -53204   -53034   -52571   -52816   -53280   -52898   -52272   -52709 
  -53713   -53399   -52051   -52358   -53821   -53295   -51910   -52533 
  -53950   -53885   -52475   -51586   -52554   -54022   -53817   -52528 
  -52324   -53104   -53221   -52786   -52729   -52759   -52591   -52778 
  -53234   -53302   -53052   -52721   -52438   -52639   -53183   -53308 
  -52929   -52691   -52783   -52856   -53067   -53276   -52894   -52482 
  -52547   -52825   -53165   -52983   -52652   -53113   -53306   -52938 
  -52976   -52590   -52122   -53167   -53982   -52983   -52255   -52820 
  -53264   -53065   -52780   -52920   -53179   -52640   -52096   -53084 
  -54159   -53064   -51564   -52370   -53728   -53233   -52475   -53052 
  -53577   -52853   -52039   -52670   -53929   -53539   -51958   -52053 
  -53538   -53628   -52517   -52193   -52725   -53253   -53377   -53169 
  -53086   -52744   -52049   -52575   -53671   -53126   -52334   -52936 
  -53565   -53299   -52435   -52100   -53175   -53766   -52748   -52019 
  -52351   -53211   -53906   -53472   -52612   -52393   -52552   -52945 
  -53260   -53094   -53010   -53056   -52604   -52397   -53098   -53455 
  -52813   -52394   -52949   -53526   -53185   -52297   -52015   -52996 
  -53809   -53156   -52550   -52983   -53442   -53304   -52567   -51946 
  -52382   -53285   -53596   -53211   -52444   -52313   -53283   -53608 
  -52691   -52342   -52778   -52888   -52872   -53275   -53503   -52834 
  -52161   -52670   -53582   -53339   -52316   -52192   -53006   -53536 
  -53492   -53163   -52578   -52172   -52386   -52775   -53358   -53784 
  -52918   -52215   -53063   -53550   -52868   -52381   -52583   -53076 
  -53273   -52991   -52830   -52844   -52613   -52767   -53607   -53650 
  -52355   -51659   -52845   -54132   -53389   -52069   -52529   -53419 
  -52843   -52191   -52955   -53786   -53158   -52209   -52525   -53418 
  -53501   -52699   -52192   -52793   -53368   -53080   -52926   -52984 
  -52658   -52506   -52915   -53438   -53343   -52556   -52219   -52744 
  -53346   -53599   -53013   -52124   -52533   -53227   -52894   -52902 
  -53230   -52756   -52567   -53300   -53626   -52888   -52060   -52494 
  -53631   -53376   -52272   -52405   -53126   -53137   -52929   -53034 
  -53242   -52920   -52231   -52577   -53568   -53318   -52637   -52975 
  -53033   -52385   -52574   -53397   -53515   -52924   -52440   -52365 
  -52555   -53194   -53894   -53311   -51726   -51671   -53678   -54768 
  -53339   -51624   -51750   -52924   -53640   -53688   -53142   -52348 
  -52316   -53076   -53450   -53021   -52448   -52366   -52903   -53466 
  -53246   -52689   -52786   -52980   -52821   -53030   -52979   -52393 
  -52740   -53609   -53508   -52621   -51916   -52434   -53887   -53847 
  -52014   -51628   -53298   -53960   -53005   -52515   -52853   -52913 
  -52851   -53242   -53256   -52439   -52257   -53357   -53902   -52729 
  -51692   -52826   -54357   -53373   -51499   -51767   -53271   -53784 
  -53310   -52893   -52709   -52743   -53032   -53172   -53018   -52735 
  -52677   -52861   -52903   -53071   -53260   -52851   -52394   -52716 
  -53420   -53424   -52577   -52105   -52505   -53010   -53284   -53250 
  -53104   -53091   -52786   -52525   -52829   -53038   -53006   -53017 
  -52793   -52678   -53145   -53383   -52752   -52242   -52710   -53339 
  -53234   -52893   -53045   -53283   -52840   -52213   -52459   -53289 
  -53501   -52826   -52477   -53048   -53262   -52851   -52794   -52704 
  -52378   -52755   -53715   -53883   -52671   -51665   -52724   -54244 
  -53215   -51278   -51992   -54097   -54421   -53001   -51857   -52115 
  -52987   -53291   -53126   -53025   -52879   -52469   -52367   -53126 
  -53649   -52994   -52481   -52861   -52983   -52826   -53088   -53077 
  -52728   -52982   -53343   -53002   -52650   -52805   -52922   -52853 
  -52753   -52516   -52828   -53712   -53427   -52174   -52105   -53015 
  -53491   -53300   -52543   -52408   -53455   -53342   -51999   -52365 
  -53800   -53812   -52953   -52319   -52196   -53102   -53674   -52587 
  -51887   -52911   -54024   -53960   -52884   -51669   -51750   -53338 
  -54241   -53179   -51942   -52239   -53342   -53657   -52987   -52436 
  -52685   -53254   -53341   -52778   -52041   -52061   -53121   -53912 
  -53396   -52377   -52261   -53042   -53627   -53476   -52812   -52494 
  -52825   -52880   -52791   -53067   -52890   -52712   -53144   -52955 
  -52695   -53207   -52975   -52312   -52882   -53725   -53002   -51628 
  -52161   -53946   -53982   -52562   -52196   -52816   -52991   -52793 
  -52898   -53269   -52980   -52170   -52667   -53878   -53581   -52702 
  -52710   -53025   -53130   -52736   -52232   -52739   -53473   -52894 
  -51999   -52317   -52928   -52597   -52301   -53017   -53543   -53221 
  -52936   -52474   -51729   -52169   -53844   -54492   -53150   -51903 
  -52651   -54294   -54410   -52868   -52042   -52527   -52718   -52861 
  -53639   -53740   -52938   -52578   -52901   -53188   -52809   -52186 
  -52864   -54264   -53755   -52093   -51895   -52689   -53788   -54773 
  -53716   -51923   -52461   -54022   -54568   -53913   -51831   -50630 
  -52420   -53751   -52228   -51150   -52312   -53774   -53856   -52317 
  -51505   -53472   -54957   -52911   -50490   -51132   -53605   -54853 
  -53580   -51798   -52029   -53505   -53865   -52336   -51160   -52749 
  -54302   -52762   -51248   -52080   -53323   -53943   -53665   -52797 
  -53233   -54238   -53353   -52100   -52473   -52826   -52416   -52477 
  -53129   -53923   -53967   -52705   -51965   -52763   -53412   -53277 
  -53042   -52434   -51348   -50976   -52239   -54309   -55179   -54022 
  -52547   -52509   -53202   -53397   -53050   -52110   -51283   -51902 
  -53136   -53771   -54214   -53894   -51980   -50575   -52002   -54299 
  -54394   -52857   -51777   -52300   -53990   -54379   -53005   -52523 
  -52998   -52826   -52963   -53600   -53341   -52498   -51726   -51355 
  -52392   -54453   -55024   -52990   -51159   -52128   -54071   -54213 
  -52720   -51744   -52353   -52968   -52586   -52803   -53685   -53287 
  -52579   -53345   -53855   -52774   -51559   -51358   -52551   -54486 
  -54689   -52785   -51719   -52556   -53156   -52600   -52243   -52740 
  -53374   -53163   -52547   -53179   -53796   -52728   -52339   -52934 
  -52119   -51699   -53289   -54226   -53586   -52582   -52050   -53121 
  -54382   -53576   -52429   -52519   -52699   -52605   -52624   -52855 
  -53322   -53438   -53038   -52605   -52385   -53055   -53921   -53199 
  -52031   -52041   -52600   -53310   -53661   -52932   -52153   -52733 
  -54033   -53874   -52196   -51925   -53644   -54172   -52492   -51456 
  -52435   -53145   -52694   -52936   -53443   -52893   -52705   -53366 
  -53235   -52331   -52294   -53341   -53736   -52728   -52173   -53056 
  -53337   -52326   -52389   -53604   -53478   -52234   -52026   -52999 
  -53470   -52960   -52668   -52783   -52918   -53261   -53457   -53107 
  -52168   -51873   -53779   -55166   -52938   -50541   -51653   -53775 
  -53983   -53063   -52436   -52550   -53234   -53661   -53296   -52725 
  -52442   -52240   -52219   -52512   -53176   -54089   -53856   -52506 
  -52450   -53420   -53063   -52126   -52740   -53948   -53419   -52035 
  -52308   -53526   -53154   -51889   -52510   -54045   -53595   -52212 
  -52307   -53343   -53419   -52276   -51700   -52822   -54319   -54071 
  -52203   -51367   -52828   -54618   -54326   -52239   -51275   -52444 
  -53574   -53873   -53678   -52587   -51744   -52272   -53167   -53689 
  -53576   -52562   -52151   -53354   -53933   -52872   -52185   -52442 
  -52897   -53127   -52771   -52569   -52847   -52627   -52515   -53237 
  -53308   -52704   -52810   -52987   -52914   -53049   -52671   -52305 
  -52879   -53235   -52899   -52640   -52492   -52706   -53256   -53144 
  -52762   -52978   -53198   -53175   -52978   -52424   -52316   -53171 
  -54027   -53719   -52479   -52081   -53202   -54055   -53130   -51759 
  -52266   -53663   -53345   -52348   -52674   -53487   -53711   -53007 
  -51984   -52397   -53403   -52798   -52321   -53678   -53950   -52235 
  -51862   -52952   -53179   -52995   -53001   -52601   -52605   -53167 
  -53146   -53127   -53265   -52668   -52699   -53584   -52979   -51823 
  -52562   -53682   -53304   -52346   -51903   -52404   -53528   -53866 
  -53212   -52772   -52546   -52393   -53069   -53823   -53362   -52525 
  -52315   -52505   -53160   -53669   -52995   -52408   -53107   -53700 
  -53302   -52641   -52181   -52195   -52810   -53292   -52949   -52288 
  -52284   -53032   -53589   -53203   -52628   -52766   -53025   -53158 
  -53234   -52829   -52930   -53588   -52913   -52065   -52783   -53137 
  -52848   -53327   -53188   -52388   -52458   -52559   -52774   -53515 
  -53036   -52088   -52832   -54004   -53855   -52790   -52045   -52625 
  -53532   -53136   -52533   -52814   -52829   -52462   -52681   -53176 
  -53190   -52805   -52710   -53109   -53254   -52803   -52429   -52529 
  -52863   -53334   -53539   -53086   -52722   -52872   -52816   -52498 
  -52659   -53311   -53509   -52810   -52131   -52405   -53347   -53754 
  -53050   -52471   -52794   -52824   -52401   -52864   -53762   -53522 
  -52573   -52485   -53036   -53013   -52570   -52439   -52926   -53616 
  -53262   -52358   -52745   -53589   -53133   -52274   -52647   -53658 
  -53172   -51817   -52582   -54089   -53041   -51514   -52277   -53659 
  -53740   -52930   -52465   -52763   -52991   -52733   -52606   -52899 
  -53156   -52949   -52751   -53160   -53350   -52771   -52648   -53134 
  -53231   -53125   -52744   -52184   -52620   -53577   -53688   -53067 
  -52416   -52583   -53501   -53310   -52047   -52254   -53649   -53862 
  -53018   -52366   -52282   -52940   -53670   -53181   -52088   -52222 
  -53192   -53435   -53126   -52922   -52591   -52328   -52583   -52965 
  -53111   -53044   -52677   -52600   -53285   -53495   -52641   -52269 
  -53038   -53551   -52897   -52011   -52107   -53200   -54068   -53469 
  -52299   -52266   -53082   -53713   -53522   -52608   -52451   -53011 
  -52859   -52720   -53046   -52809   -52597   -53152   -53538   -53005 
  -52240   -52516   -53519   -53632   -52890   -52404   -52438   -52925 
  -53171   -52639   -52516   -53269   -53466   -52870   -52714   -53017 
  -52963   -52759   -52739   -52597   -52691   -53206   -53115   -52779 
  -53088   -52983   -52628   -53126   -53158   -52411   -52628   -53319 
  -53254   -53069   -52870   -52602   -52944   -53131   -52736   -52883 
  -53223   -52806   -52278   -52637   -53662   -53782   -52737   -52401 
  -53044   -53192   -52725   -52447   -52519   -52663   -52803   -53129 
  -53433   -52944   -52304   -53036   -53715   -52585   -51841   -53017 
  -53866   -53072   -52327   -52774   -53515   -53650   -53106   -52492 
  -52498   -52643   -52434   -52586   -53226   -53511   -53141   -52625 
  -52903   -53553   -52996   -52203   -52635   -53136   -53169   -53033 
  -52598   -52668   -53138   -53072   -52901   -52702   -52471   -53118 
  -53809   -53142   -52226   -52304   -52793   -53026   -52936   -52740 
