Origin Time       2025/03/30 21:30:00
Lat.              38.535
Long.             142.295
Depth. (km)       44
Mag.              4.3
Station Code      MYG002
Station Lat.      38.7261
Station Long.     141.5110
Station Height(m) 65
Record Time       2025/03/30 21:31:09
Sampling Freq(Hz) 100Hz
Duration Time(s)  75
Dir.              E-W
Scale Factor      7845(gal)/8223790
Max. Acc. (gal)   27.251
Last Correction   2025/03/30 21:31:09
Memo.             
[...]
    2493     2496     2494     2492     2492     2493     2492     2493 
    2492     2490     2492     2494     2494     2493     2492     2494 
    2494     2492     2490     2493     2493     2492     2492     2492 
    2490     2493     2493     2490     2492     2490     2489     2489 
    2492     2494     2490     2488     2492     2493     2492     2492 
    2492     2492     2490     2490     2493     2492     2490     2493 
    2493     2492     2492     2490     2489     2492     2490     2489 
    2490     2493     2490     2490     2493     2492     2490     2493 
    2493     2492     2490     2489     2490     2492     2492     2492 
    2493     2490     2488     2489     2492     2490     2490     2492 
    2493     2492     2489     2488     2489     2489     2489     2490 
    2494     2493     2492     2493     2493     2490     2490     2493 
    2493     2490     2492     2492     2490     2490     2490     2492 
    2493     2492     2490     2493     2493     2490     2489     2492 
    2492     2489     2488     2492     2493     2490     2490     2490 
    2489     2492     2494     2490     2488     2490     2492     2490 
    2490     2490     2488     2489     2490     2490     2493     2493 
    2492     2493     2490     2486     2486     2490     2493     2493 
    2490     2489     2493     2497     2494     2492     2490     2490 
    2492     2493     2492     2489     2489     2493     2492     2492 
    2493     2493     2490     2490     2492     2493     2494     2490 
    2489     2490     2490     2489     2492     2492     2490     2492 
    2490     2490     2492     2490     2489     2490     2490     2490 
    2493     2494     2493     2493     2490     2488     2489     2492 
    2490     2492     2494     2490     2488     2490     2492     2490 
    2490     2492     2490     2492     2493     2490     2489     2493 
    2494     2493     2492     2490     2492     2493     2492     2490 
    2490     2489     2489     2492     2492     2492     2493     2490 
    2489     2490     2489     2486     2488     2489     2490     2490 
    2490     2492     2492     2490     2489     2492     2492     2488 
    2492     2494     2494     2493     2489     2488     2490     2490 
    2490     2493     2492     2492     2492     2490     2492     2493 
    2492     2489     2490     2494     2493     2490     2490     2492 
    2492     2492     2490     2490     2489     2489     2493     2492 
    2489     2490     2492     2492     2492     2490     2490     2492 
    2490     2490     2493     2492     2490     2490     2490     2492 
    2493     2493     2492     2490     2490     2490     2492     2492 
    2490     2490     2493     2493     2492     2490     2492     2490 
    2489     2489     2490     2492     2492     2492     2493     2489 
    2486     2489     2490     2493     2493     2490     2490     2489 
    2489     2490     2490     2490     2489     2490     2493     2493 
    2492     2492     2489     2489     2493     2493     2490     2490 
    2492     2492     2492     2490     2488     2489     2490     2492 
    2493     2494     2489     2485     2488     2489     2488     2490 
    2492     2492     2493     2492     2490     2493     2493     2490 
    2490     2492     2490     2492     2490     2490     2492     2489 
    2489     2492     2493     2493     2493     2493     2493     2492 
    2492     2490     2489     2492     2496     2493     2492     2493 
    2490     2490     2493     2492     2492     2493     2490     2490 
    2492     2490     2489     2490     2492     2489     2489     2492 
    2490     2490     2492     2489     2486     2488     2489     2489 
    2490     2494     2492     2489     2493     2493     2492     2492 
    2489     2489     2490     2490     2489     2489     2488     2488 
    2489     2493     2494     2493     2490     2489     2489     2489 
    2492     2492     2489     2490     2492     2490     2486     2489 
    2494     2493     2490     2493     2496     2493     2490     2489 
    2489     2490     2490     2490     2492     2493     2492     2492 
    2492     2493     2493     2490     2489     2492     2492     2492 
    2493     2490     2490     2493     2492     2493     2493     2490 
    2489     2492     2492     2489     2490     2492     2490     2489 
    2490     2493     2492     2492     2494     2492     2490     2493 
    2492     2492     2493     2493     2492     2492     2490     2493 
    2493     2490     2489     2488     2486     2481     2473     2469 
    2463     2454     2451     2452     2454     2463     2489     2519 
    2538     2543     2552     2587     2658     2739     2740     2609 
    2351     1998     1809     2115     2652     2828     2643     2494 
    2606     2930     2953     2378     1992     2312     2639     2666 
    2485     1699     1189     2463     4317     4668     3631     1800 
      76      619     3067     3784     1995      855     1784     3680 
    5381     4650     1119     -581     1736     4213     4032     2197 
     734      826     2316     3901     3784     2251     1765     2779 
    3815     3488     1294     -318      780     3820     6608     4606 
     -82      737     2694      839     2069     3913     1594     3046 
    7264     4619     -634     -730      526     1028     4531     6183 
    1919      635     4078     3705     1321     1829     1684     1020 
    3578     5093     1946       56     2346     3932     3654     3403 
    2069      588     1553     3357     3454     2439     1760     1458 
    1706     3736     5717     4077      515    -1719    -1279     3442 
    8418     7327     2731    -1054    -2949      259     5340     4568 
    2467     4270     3828     1345     2558     2281    -1179      584 
    4824     4097     2492     3241     3275     2533     2197      938 
     483     3262     5062     3438     2057     1097      139     2220 
    4734     3669     2745     3195     1607      901     3057     2538 
     120     1879     4764     4247     3160     2920     1788      699 
    1336     2216     2177     3604     5346     2905      -16     1813 
    3809     2795     1948     1625     1566     3488     4671     1987 
      56     2010     3638     3515     3111     2691     2727     1890 
     861     2096     3395     3207     2043      445     2041     6050 
    5715     1301    -1100       31     2943     5121     4126     2322 
    2401     1983     1057     2077     3376     3576     2990      814 
     -45     3083     5386     4117     2497     1210      136      861 
    2317     3665     5459     4768     1227      507     2655     2883 
    2191     2162     1264     1143     3218     4255     3447     3460 
    2844      693      832     2489     2731     3200     3574     2274 
    1455     2328     2905     2154     1998     3366     3802     2494 
    1702     1954     2239     2060     1628     2465     3904     3908 
    3604     2533      190      206     2153     3357     4780     4423 
     893      341     4260     4432      418      476     2875     2739 
    3720     4715     2007      332     1692     2389     2189     3090 
    4294     3468     2259     2481     1494        5     1398     3874 
    4394     3800     3218     1476     -180     1524     3964     3375 
    2655     2948     1931     1814     3304     2681     1161     2412 
    4241     3280     1449     1151     1728     2893     3964     3616 
    2315     1173     1270     2509     3150     2843     2266     1868 
    2597     3817     3645     2639     1935     1289     1642     2809 
    2386     1536     2790     4220     3882     2729     1644     1293 
    1432     1687     2786     3846     3834     3036     1783     1475 
    2134     2250     2548     3391     3199     2072     1717     2218 
    2722     3021     2235     1424     2994     4217     2759     1607 
    1737     2087     2883     3412     2810     1648     1237     2239 
    3111     2967     3033     2555     1671     2944     4050     2366 
    1155     1363     1520     2650     3627     3223     3454     3483 
    1769     1075     2138     2440     2393     3064     3045     1904 
    1574     2891     3341     2447     2681     2527     1483     2384 
    3132     2203     2054     2467     2816     3152     3048     2744 
    2034     1661     1942     1953     2521     3258     3395     3811 
    2963     1120     1413     1919     1386     3164     4893     2830 
    1163     2403     2955     1906     1830     2641     2323     2392 
    3755     3249     1861     2614     3048     1740     1170     1779 
    2377     3272     4355     3847     1813      665     1371     2768 
    3504     3377     2505     1301     1537     2921     3275     2697 
    2015     1952     2828     3353     3159     2644     1806     1470 
    2093     2447     1544     1543     4149     5725     3937     1933 
     943     -282       74     3288     5657     4722     2932     1853 
     967      824     1884     2917     2768     2779     3694     3281 
    2020     1976     1701     1699     3393     3694     2111     1663 
    2170     2662     3217     3171     2284     1455     1776     2992 
    3277     2759     3345     3237      859      116     2104     3222 
    3427     4094     3414     1340      999     2127     2398     3095 
    4101     2677     1021     2096     3149     2546     2262     2415 
    2548     3318     3716     2539      801       51     1009     3325 
    5159     4918     3825     2795      199    -1742      621     4009 
    4958     4314     2575     1836     3231     2983      687      540 
    2327     3140     3427     3607     2570     2007     3069     2957 
    1287      855     2081     3419     3564     2778     2794     2941 
    1981     1941     2528     1337      958     3191     4450     4120 
    3496     1221      -72     2365     3829     1841      756     2694 
    4772     4449     2374      652      815     2799     4241     3215 
    1478     1237     2178     3221     3375     2709     2285     2141 
    2041     2516     3345     3055     1792     1645     2131     1783 
    2389     4445     4850     2952     1298      945     1374     2019 
    2232     2212     2830     3755     4179     3987     2110     -477 
     346     2902     3014     3580     4299     1429      807     4202 
    3518     1067     2619     3267     1456     1954     3827     3461 
    2066     1836     1517     1182     2813     4191     3146     2249 
    2216     1468     1637     3595     3690     1406     1563     3647 
    3615     3107     2559      310      211     3576     4981     3086 
    1741     1487     1570     3127     3578     1817     2062     3045 
    2099     2101     2883     2812     2987     2729     1755     1499 
    2293     3816     4314     2685     1077      984     2134     3485 
    3361     2724     2575     1341      685     2590     4212     3823 
    2436     1243     1456     2660     3535     3385     2188     1395 
    2582     4131     2729      355     1250     3275     3688     3523 
    2809     1992     2120     2690     2795     1575      913     2380 
    2751     1983     3273     5001     4560     2648     1071      125 
    -488     1067     4297     5120     3758     3099     2362     1259 
    1516     2168     2054     2386     3358     3719     2911     1811 
    1748     2747     3465     2791     1270      531     1598     3693 
    4675     4078     3056     1202     -314     1453     3748     3403 
    3206     3117     1594     1378     2451     2551     2706     3323 
    3113     2573     2231     1777     2154     3150     2909     1728 
    1239     1995     3527     4298     2910      966     1236     2957 
    4182     4352     2457     -454     -676     2562     5868     5783 
    2754      618      734     1506     2477     2488     1163     1815 
    4665     5682     3937     1827      892      600      607     2192 
    4391     4479     2974     1806     1665     2285     2998     3345 
    1960       82     1360     3701     3758     3019     2504     2527 
    2868     2432     2658     2951     1621     1063     1173     1544 
    4186     5383     2976     1651     1806     1020     1227     3264 
    4071     2887     2184     2552     2593     2251     2529     2555 
    1398     1804     3985     3924     2767     2737     1902     1227 
    1969     2693     3588     4037     2744     1105     1100     2652 
    3446     2578     1714     1601     2197     3042     3018     2602 
    3018     3419     2635     1925     2069     1926     1451     1429 
    2459     4047     4503     3307     1425      953     2088     1946 
    1240     2829     4529     3765     2293     1626     1618     2442 
    3331     2826     1489     1219     2246     3546     4190     3493 
    2901     3369     1827    -1348     -216     4491     5680     3227 
    1942     1688     1290     2637     3994     2158      761     3059 
    5023     3816     2108     1637     1062     1183     3582     4600 
    1611     -720      284     1671     3420     6554     7165     2793 
   -3501    -6585    -2978     4989    11616    13146     8299      402 
   -3163      -29     3468     1972    -2621    -5470    -2430     6049 
   13413    13424     4861    -6056    -8757    -1502     7144    11438 
    9401     -738   -11034    -7641     8403    21188    19731     6481 
  -11024   -22279   -13752     9806    23322    16260     -373   -14142 
  -13898     4874    25668    25219     3279   -20101   -26076    -9011 
   16422    27445    17371    -3148   -17679   -12617     8603    23645 
   17855      810   -11350   -11892    -2566     7761    10585     7160 
    2524    -1919    -3704      677     5823     4758     3994     6486 
    3932      730     3357     3883     1910     2363      340    -2929 
    -486     5174     9996     9011    -3010   -13165    -7393     5324 
   16244    22106    11454    -8887   -13116    -2235     2400      573 
    2412     4515     4426     8401    13485     8827    -2814    -9447 
   -8901    -3615     6322    14490    12132     2577    -2851    -1665 
     491     2868     5842     4305    -1896    -4658     -700     5733 
   10750    10264     3850     -899    -1111      360     2708     2274 
    -403      329     1560     2205     6791     9598     4993      117 
    -908    -2258    -2060     2829     6485     6789     7812     6201 
       6    -2764     -444      994     1756     2560     1831     3492 
    6920     3640    -3025    -1868     4284     6879     5960     2733 
   -2273    -3542     2412     7998     6859     5494     5579     1466 
   -1934     -938      122     1665     2755     2328     4230     5503 
    3910     3973     3126     -985    -2417     -113     1595     3156 
    6033     6232     2988     2627     4726     2899     -414      525 
    2871     2343     1746     3586     4594     3106      891     -668 
     745     4271     4761     2991     2199      460      287     4924 
    7025     4217     3198     1896    -2255    -3086      562     5598 
    9969     7921     -893    -5624    -1474     3628     6301     8047 
    4228    -1576      -28     2258      683     3117     6070     2405 
    -507     3379     7071     4286     -216     -278     2178     2053 
      -5     1692     5564     5460     4340     3825     -319    -2745 
    1269     4322     4180     5166     5707     3126    -1054    -2581 
     874     5081     5738     3010     -295      670     4384     4580 
    3761     4299     1534    -1588      -14     2004     3068     5144 
    4764     2116     1177     1084     1925     3832     3973     3489 
    1980    -1587     -162     5566     5991     3804     3738     1501 
    -368     1933     2235      610     2511     4399     4305     4731 
    3469      889      680      714    -1371     -972     4943    10412 
    9597     4066    -1814    -4453    -2843     1011     4966     7388 
    6407     2641      359      761      885      958     2195     2870 
    2731     3820     5541     4773     2574     1482     -153    -1260 
     710     3373     5649     7600     6235     1125    -3329    -3589 
    -629     4113     8807     8248     3623     1775      437    -3122 
   -1844     4005     5205     3700     4831     3927     1266     2027 
    2540     1189     2343     3645     1957     1372     3611     4622 
    2937      889     -599     -514     2922     6943     7572     4411 
    -718    -3241    -1395     1547     4860     7576     6496     3388 
    1144     -942     -978     1741     2793     2893     4496     4561 
    2857     1838     1370      666      475     2992     6162     5165 
    2255     1213      427      896     4089     4704     1286      260 
    2643     4386     5198     3767    -1351    -3272     2200     6366 
    4618     4045     5194     2018    -1881     -692     2602     4349 
    4342     2828      832      646     3646     6286     4109     -560 
   -2509      -89     4174     6535     6458     4406      990      203 
    1962     1305       44     1532     3568     5769     7233     4681 
     733     -996    -1710     -976     2849     7186     7655     3993 
     488     -121      727     1417     1937     2346     2177     2088 
    3611     4596     3218     3179     3461      777      487     2789 
    1544      880     4160     5306     3565     2115       -5     -610 
    2999     6200     5377     3052     1175     -911    -1210     2951 
    6806     5481     2774     1348      106      837     3396     4209 
    2874     1120      486     2747     5302     3657     1121     1470 
    1389     1108     3252     4737     3383     1645     1830     2243 
    1593     3049     4900     3125     1813     2300      815     -372 
    1096     3419     5304     5244     3820     2160     -627     -711 
    3561     4926     2430     1985     3230     4014     4396     3231 
     461    -1937    -1243     2871     5964     5961     4926     2799 
     575      599     1156     1015     1761     3065     3280     3434 
    5063     5224     2585      804     -513    -1775     1594     6322 
    5090     2164     2448     2389     1667     2052     1958     2374 
    3974     3823     2047     1459     2185     1749      175     1239 
    4556     6114     5139     2251     -781    -1363      923     4579 
    5911     3931     2486     2045     1217     1784     3082     2272 
     955     2066     3650     3164     2836     3607     2674     1047 
    1336     1784     1822     3048     4356     4329     2918     1266 
    1163     1966     3006     4321     3578     1000      411     2511 
    4118     2974     1273     1756     2932     3198     3866     4409 
    1941     -901      486     2639     2844     4205     4884     2116 
     237     1690     3194     3156     2493     1906     2188     3211 
    3484     2511     1615     1679     2309     2677     2673     3457 
    3859     2309     1192      963     1174     3576     5331     3650 
    1497     1189     2351     2778     1561     1719     3473     3643 
    2411     1525     1892     3807     3788       82     -658     3796 
    5753     3419     1256      469     1389     2849     3477     4141 
    3225     1617     2829     3241      986     1177     2902     2685 
    3083     3615     2227     2355     2948     1030     1136     3565 
