Origin Time       2025/03/30 21:30:00
Lat.              38.535
Long.             142.295
Depth. (km)       44
Mag.              4.3
Station Code      MYG013
Station Lat.      38.2661
Station Long.     140.9286
Station Height(m) 5
Record Time       2025/03/30 21:31:30
Sampling Freq(Hz) 100Hz
Duration Time(s)  60
Dir.              N-S
Scale Factor      7845(gal)/8223790
Max. Acc. (gal)   1.762
Last Correction   2025/03/30 21:31:29
Memo.             
[...]
   -2169    -2263    -2400    -2566    -2656    -2590    -2479    -2442 
   -2427    -2293    -2003    -1768    -1848    -2184    -2444    -2470 
   -2432    -2506    -2631    -2619    -2458    -2285    -2189    -2172 
   -2158    -2108    -2112    -2197    -2280    -2312    -2343    -2405 
   -2465    -2473    -2411    -2342    -2361    -2450    -2479    -2350 
   -2166    -2134    -2224    -2255    -2203    -2187    -2266    -2303 
   -2220    -2218    -2385    -2540    -2558    -2475    -2371    -2303 
   -2289    -2268    -2211    -2219    -2274    -2261    -2250    -2330 
   -2427    -2475    -2443    -2366    -2338    -2331    -2299    -2295 
   -2304    -2276    -2246    -2247    -2303    -2393    -2432    -2377 
   -2263    -2223    -2284    -2304    -2272    -2273    -2286    -2281 
   -2263    -2297    -2411    -2454    -2384    -2380    -2465    -2498 
   -2442    -2336    -2227    -2151    -2135    -2192    -2286    -2367 
   -2409    -2386    -2354    -2397    -2427    -2336    -2199    -2124 
   -2149    -2259    -2346    -2295    -2214    -2278    -2438    -2515 
   -2424    -2317    -2340    -2366    -2293    -2246    -2308    -2376 
   -2336    -2246    -2220    -2274    -2369    -2400    -2343    -2335 
   -2381    -2367    -2297    -2219    -2220    -2296    -2277    -2201 
   -2246    -2369    -2420    -2374    -2351    -2430    -2509    -2454 
   -2269    -2133    -2173    -2290    -2328    -2299    -2297    -2351 
   -2412    -2412    -2346    -2266    -2224    -2245    -2277    -2247 
   -2204    -2234    -2324    -2380    -2350    -2334    -2381    -2417 
   -2405    -2362    -2320    -2295    -2261    -2211    -2182    -2258 
   -2384    -2403    -2365    -2370    -2377    -2373    -2369    -2322 
   -2243    -2218    -2270    -2319    -2307    -2262    -2255    -2301 
   -2316    -2254    -2208    -2266    -2371    -2430    -2420    -2362 
   -2312    -2308    -2323    -2336    -2316    -2262    -2262    -2370 
   -2479    -2434    -2284    -2219    -2250    -2292    -2332    -2336 
   -2281    -2257    -2296    -2344    -2369    -2322    -2243    -2257 
   -2301    -2286    -2300    -2365    -2434    -2471    -2428    -2380 
   -2381    -2338    -2268    -2243    -2230    -2226    -2247    -2285 
   -2366    -2443    -2439    -2386    -2334    -2290    -2278    -2315 
   -2344    -2317    -2281    -2269    -2274    -2327    -2377    -2334 
   -2281    -2324    -2386    -2380    -2296    -2212    -2236    -2295 
   -2259    -2199    -2218    -2343    -2471    -2477    -2444    -2466 
   -2462    -2369    -2226    -2145    -2161    -2184    -2199    -2230 
   -2246    -2277    -2390    -2533    -2562    -2443    -2307    -2286 
   -2347    -2315    -2195    -2161    -2200    -2236    -2277    -2292 
   -2289    -2332    -2430    -2532    -2511    -2351    -2245    -2268 
   -2308    -2270    -2200    -2223    -2289    -2261    -2257    -2381 
   -2442    -2339    -2249    -2285    -2384    -2435    -2370    -2249 
   -2209    -2259    -2286    -2257    -2242    -2292    -2357    -2380 
   -2398    -2417    -2350    -2261    -2262    -2272    -2232    -2215 
   -2257    -2354    -2423    -2384    -2344    -2400    -2447    -2397 
   -2285    -2180    -2196    -2313    -2371    -2377    -2398    -2388 
   -2365    -2371    -2358    -2289    -2216    -2209    -2270    -2320 
   -2299    -2253    -2239    -2281    -2359    -2366    -2328    -2354 
   -2381    -2358    -2315    -2284    -2316    -2349    -2292    -2246 
   -2297    -2385    -2404    -2308    -2224    -2266    -2374    -2447 
   -2432    -2355    -2312    -2336    -2340    -2284    -2278    -2346 
   -2343    -2265    -2234    -2251    -2276    -2301    -2313    -2311 
   -2308    -2317    -2336    -2359    -2407    -2447    -2401    -2305 
   -2285    -2353    -2378    -2269    -2122    -2114    -2236    -2334 
   -2343    -2299    -2288    -2358    -2405    -2334    -2207    -2188 
   -2300    -2365    -2334    -2320    -2355    -2388    -2346    -2290 
   -2346    -2386    -2317    -2284    -2319    -2339    -2322    -2281 
   -2273    -2334    -2382    -2335    -2259    -2274    -2353    -2393 
   -2371    -2304    -2254    -2269    -2309    -2309    -2272    -2281 
   -2331    -2344    -2351    -2382    -2367    -2308    -2290    -2309 
   -2286    -2222    -2203    -2284    -2388    -2409    -2353    -2331 
   -2392    -2431    -2380    -2286    -2227    -2222    -2226    -2257 
   -2347    -2396    -2350    -2285    -2284    -2343    -2330    -2261 
   -2288    -2367    -2400    -2365    -2303    -2339    -2430    -2423 
   -2374    -2369    -2355    -2322    -2319    -2338    -2297    -2192 
   -2128    -2166    -2249    -2293    -2288    -2295    -2378    -2484 
   -2494    -2394    -2276    -2238    -2289    -2362    -2377    -2305 
   -2241    -2253    -2308    -2353    -2313    -2227    -2253    -2349 
   -2381    -2361    -2307    -2270    -2303    -2312    -2288    -2297 
   -2315    -2344    -2397    -2448    -2462    -2398    -2330    -2278 
   -2212    -2185    -2205    -2235    -2270    -2270    -2277    -2354 
   -2442    -2470    -2421    -2322    -2246    -2245    -2273    -2246 
   -2185    -2246    -2438    -2540    -2435    -2265    -2218    -2282 
   -2320    -2295    -2273    -2290    -2340    -2396    -2420    -2398 
   -2349    -2311    -2312    -2322    -2304    -2258    -2215    -2207 
   -2220    -2228    -2228    -2262    -2361    -2435    -2428    -2393 
   -2324    -2254    -2297    -2403    -2432    -2373    -2284    -2262 
   -2331    -2363    -2334    -2343    -2340    -2290    -2293    -2303 
   -2266    -2265    -2308    -2350    -2398    -2378    -2293    -2290 
   -2311    -2241    -2212    -2281    -2351    -2374    -2331    -2282 
   -2315    -2388    -2389    -2315    -2304    -2392    -2412    -2301 
   -2226    -2295    -2367    -2322    -2231    -2205    -2296    -2421 
   -2413    -2282    -2200    -2292    -2482    -2539    -2415    -2290 
   -2263    -2270    -2227    -2168    -2185    -2265    -2304    -2307 
   -2347    -2367    -2328    -2335    -2377    -2343    -2274    -2286 
   -2357    -2384    -2322    -2239    -2254    -2344    -2351    -2276 
   -2245    -2255    -2250    -2268    -2339    -2388    -2367    -2362 
   -2390    -2340    -2224    -2196    -2312    -2396    -2311    -2241 
   -2312    -2353    -2296    -2278    -2319    -2332    -2335    -2370 
   -2369    -2324    -2340    -2394    -2409    -2373    -2307    -2307 
   -2347    -2331    -2315    -2285    -2243    -2303    -2396    -2427 
   -2411    -2326    -2232    -2224    -2265    -2299    -2297    -2226 
   -2165    -2235    -2338    -2355    -2354    -2369    -2413    -2484 
   -2454    -2330    -2259    -2277    -2332    -2374    -2315    -2177 
   -2134    -2239    -2349    -2346    -2285    -2319    -2419    -2446 
   -2393    -2332    -2338    -2384    -2334    -2216    -2145    -2106 
   -2137    -2243    -2315    -2365    -2419    -2439    -2459    -2478 
   -2451    -2394    -2322    -2239    -2192    -2197    -2218    -2253 
   -2311    -2349    -2361    -2358    -2362    -2384    -2349    -2284 
   -2312    -2385    -2376    -2266    -2154    -2182    -2320    -2404 
   -2386    -2332    -2340    -2428    -2474    -2451    -2401    -2326 
   -2284    -2297    -2270    -2207    -2155    -2099    -2128    -2297 
   -2432    -2413    -2344    -2330    -2340    -2350    -2347    -2324 
   -2317    -2319    -2288    -2241    -2224    -2281    -2366    -2350 
   -2261    -2228    -2266    -2358    -2444    -2444    -2409    -2411 
   -2421    -2435    -2413    -2285    -2157    -2165    -2211    -2189 
   -2161    -2182    -2266    -2363    -2394    -2393    -2423    -2450 
   -2394    -2315    -2324    -2362    -2355    -2324    -2293    -2299 
   -2322    -2315    -2307    -2282    -2208    -2185    -2262    -2334 
   -2366    -2390    -2396    -2400    -2411    -2380    -2308    -2251 
   -2247    -2253    -2187    -2146    -2276    -2442    -2484    -2447 
   -2366    -2273    -2250    -2290    -2297    -2226    -2161    -2192 
   -2301    -2407    -2452    -2431    -2366    -2295    -2259    -2276 
   -2305    -2265    -2176    -2165    -2258    -2363    -2423    -2420 
   -2401    -2403    -2394    -2362    -2362    -2413    -2432    -2355 
   -2220    -2126    -2205    -2376    -2373    -2242    -2204    -2251 
   -2301    -2343    -2381    -2413    -2424    -2382    -2307    -2263 
   -2261    -2284    -2330    -2374    -2404    -2390    -2350    -2385 
   -2442    -2404    -2322    -2277    -2263    -2239    -2215    -2218 
   -2218    -2205    -2204    -2259    -2396    -2494    -2474    -2412 
   -2343    -2274    -2254    -2274    -2253    -2181    -2172    -2257 
   -2336    -2385    -2419    -2439    -2454    -2403    -2295    -2261 
   -2292    -2268    -2203    -2177    -2222    -2327    -2446    -2501 
   -2438    -2331    -2315    -2353    -2363    -2332    -2266    -2270 
   -2335    -2293    -2211    -2231    -2309    -2390    -2413    -2312 
   -2234    -2313    -2420    -2416    -2344    -2300    -2301    -2307 
   -2295    -2268    -2215    -2182    -2201    -2262    -2355    -2393 
   -2330    -2312    -2394    -2440    -2363    -2228    -2201    -2295 
   -2315    -2253    -2276    -2400    -2490    -2477    -2411    -2351 
   -2278    -2185    -2141    -2160    -2208    -2277    -2332    -2355 
   -2363    -2388    -2427    -2424    -2382    -2366    -2363    -2354 
   -2351    -2326    -2243    -2126    -2066    -2138    -2253    -2285 
   -2255    -2268    -2353    -2438    -2471    -2430    -2351    -2386 
   -2548    -2628    -2506    -2281    -2169    -2231    -2284    -2232 
   -2196    -2228    -2249    -2224    -2211    -2241    -2316    -2393 
   -2397    -2331    -2285    -2326    -2404    -2434    -2420    -2436 
   -2435    -2316    -2184    -2176    -2239    -2235    -2154    -2153 
   -2320    -2508    -2525    -2424    -2351    -2301    -2245    -2169 
   -2049    -2022    -2170    -2330    -2428    -2511    -2560    -2578 
   -2560    -2494    -2403    -2284    -2164    -2088    -2058    -2045 
   -2054    -2139    -2305    -2477    -2582    -2623    -2647    -2644 
   -2581    -2461    -2305    -2164    -2091    -2097    -2126    -2128 
   -2176    -2281    -2369    -2446    -2505    -2516    -2481    -2367 
   -2204    -2116    -2155    -2242    -2296    -2303    -2300    -2328 
   -2373    -2369    -2342    -2371    -2393    -2300    -2162    -2104 
   -2138    -2141    -2084    -2107    -2219    -2326    -2434    -2543 
   -2573    -2528    -2474    -2407    -2346    -2327    -2326    -2334 
   -2319    -2288    -2311    -2357    -2394    -2436    -2411    -2322 
   -2290    -2300    -2266    -2224    -2265    -2377    -2430    -2344 
   -2242    -2263    -2369    -2401    -2245    -2046    -2057    -2196 
   -2242    -2176    -2114    -2216    -2431    -2508    -2417    -2346 
   -2374    -2415    -2388    -2327    -2276    -2265    -2315    -2417 
   -2516    -2535    -2447    -2313    -2224    -2193    -2182    -2195 
   -2234    -2299    -2405    -2477    -2435    -2389    -2411    -2430 
   -2413    -2344    -2222    -2143    -2127    -2124    -2166    -2243 
   -2281    -2295    -2386    -2538    -2555    -2443    -2390    -2386 
   -2382    -2376    -2280    -2146    -2103    -2142    -2192    -2189 
   -2154    -2209    -2369    -2466    -2425    -2396    -2488    -2602 
   -2585    -2419    -2317    -2380    -2370    -2180    -2034    -2096 
   -2261    -2320    -2272    -2282    -2367    -2428    -2403    -2299 
   -2214    -2224    -2322    -2411    -2384    -2317    -2344    -2425 
   -2485    -2439    -2254    -2080    -2084    -2214    -2259    -2184 
   -2154    -2231    -2338    -2385    -2408    -2478    -2482    -2369 
   -2276    -2238    -2226    -2257    -2285    -2278    -2261    -2238 
   -2242    -2243    -2211    -2214    -2214    -2200    -2276    -2401 
   -2473    -2467    -2419    -2438    -2505    -2455    -2312    -2285 
   -2382    -2403    -2320    -2284    -2347    -2442    -2457    -2403 
   -2471    -2651    -2659    -2473    -2359    -2390    -2420    -2328 
   -2158    -2046    -2034    -2079    -2115    -2106    -2088    -2115 
   -2204    -2277    -2203    -2079    -2080    -2151    -2205    -2254 
   -2308    -2365    -2396    -2376    -2317    -2273    -2334    -2471 
   -2492    -2369    -2347    -2560    -2859    -3059    -3095    -2998 
   -2848    -2670    -2420    -2130    -1906    -1817    -1833    -1857 
   -1892    -2020    -2193    -2304    -2332    -2317    -2339    -2380 
   -2409    -2517    -2610    -2492    -2296    -2231    -2227    -2176 
   -2099    -2029    -1962    -1919    -1925    -2000    -2176    -2412 
   -2594    -2612    -2451    -2297    -2309    -2350    -2311    -2261 
   -2238    -2261    -2315    -2340    -2338    -2336    -2371    -2451 
   -2463    -2328    -2164    -2093    -2088    -2087    -2126    -2261 
   -2458    -2641    -2708    -2664    -2685    -2809    -2884    -2797 
   -2602    -2447    -2408    -2448    -2452    -2343    -2135    -1864 
   -1622    -1559    -1591    -1548    -1506    -1586    -1802    -2139 
   -2515    -2863    -3168    -3348    -3334    -3148    -2783    -2228 
   -1624    -1202    -1146    -1462    -1945    -2389    -2782    -3202 
   -3635    -3897    -3786    -3377    -2852    -2262    -1684    -1248 
   -1005     -938    -1011    -1159    -1289    -1490    -1969    -2635 
   -3118    -3173    -2913    -2691    -2628    -2508    -2242    -1950 
   -1737    -1648    -1769    -2223    -2944    -3630    -4048    -4164 
   -3981    -3578    -3127    -2614    -1939    -1254     -778     -615 
    -750    -1058    -1456    -1953    -2505    -2916    -3002    -2883 
   -2731    -2482    -2081    -1684    -1526    -1680    -2007    -2362 
   -2743    -3194    -3539    -3480    -3049    -2506    -2058    -1823 
   -1692    -1502    -1389    -1599    -2112    -2605    -2864    -3022 
   -3196    -3248    -3011    -2539    -2034    -1660    -1474    -1480 
   -1661    -1946    -2245    -2571    -2951    -3300    -3558    -3597 
   -3227    -2560    -1865    -1286    -1011    -1047    -1174    -1312 
   -1509    -1802    -2160    -2474    -2805    -3134    -3168    -2910 
   -2671    -2516    -2374    -2235    -2104    -2089    -2253    -2451 
   -2605    -2752    -2824    -2716    -2428    -2108    -1987    -2056 
   -2115    -2060    -1946    -1942    -2076    -2189    -2239    -2250 
   -2170    -2014    -1939    -2111    -2493    -2883    -3068    -2945 
   -2678    -2577    -2681    -2762    -2610    -2185    -1710    -1460 
   -1510    -1757    -2014    -2218    -2458    -2744    -3015    -3144 
   -3059    -2884    -2664    -2354    -2079    -1954    -1892    -1782 
   -1634    -1567    -1683    -1937    -2187    -2334    -2346    -2354 
   -2544    -2798    -2820    -2578    -2297    -2215    -2371    -2554 
   -2567    -2516    -2552    -2667    -2781    -2791    -2689    -2543 
   -2344    -2111    -1876    -1636    -1571    -1757    -1944    -2053 
   -2196    -2311    -2327    -2322    -2408    -2606    -2772    -2698 
   -2396    -2074    -1858    -1809    -1919    -2045    -2185    -2455 
   -2762    -2945    -2930    -2787    -2683    -2650    -2632    -2547 
   -2303    -2008    -1826    -1821    -2041    -2415    -2752    -2902 
   -2871    -2768    -2614    -2394    -2145    -1863    -1537    -1256 
   -1216    -1443    -1729    -2010    -2362    -2759    -3130    -3362 
   -3370    -3245    -3059    -2771    -2412    -2057    -1756    -1624 
   -1679    -1725    -1730    -1894    -2205    -2447    -2523    -2481 
   -2369    -2212    -2047    -1937    -1941    -2025    -2141    -2328 
   -2506    -2552    -2540    -2563    -2562    -2443    -2247    -2131 
   -2176    -2357    -2597    -2748    -2685    -2521    -2496    -2604 
   -2666    -2621    -2489    -2316    -2176    -2077    -2018    -2007 
   -2004    -1934    -1833    -1869    -2095    -2381    -2610    -2671 
   -2505    -2254    -2123    -2158    -2262    -2392    -2513    -2508 
   -2401    -2295    -2208    -2251    -2427    -2531    -2525    -2524 
   -2566    -2631    -2658    -2601    -2506    -2436    -2350    -2207 
   -2037    -1867    -1736    -1761    -1979    -2236    -2413    -2508 
   -2529    -2497    -2436    -2312    -2154    -2058    -2034    -2053 
   -2145    -2278    -2361    -2424    -2598    -2847    -2899    -2629 
   -2257    -2018    -1933    -1956    -2069    -2215    -2336    -2440 
   -2525    -2550    -2512    -2407    -2199    -1945    -1799    -1834 
   -1968    -2115    -2281    -2439    -2523    -2614    -2779    -2890 
   -2897    -2913    -2957    -2949    -2808    -2533    -2309    -2246 
   -2200    -2080    -1984    -1902    -1780    -1726    -1804    -1925 
   -2004    -2049    -2131    -2278    -2446    -2574    -2550    -2420 
   -2401    -2455    -2384    -2258    -2254    -2344    -2412    -2396 
   -2277    -2173    -2266    -2500    -2635    -2574    -2388    -2185 
   -2065    -2087    -2222    -2374    -2400    -2273    -2208    -2317 
   -2440    -2443    -2335    -2222    -2204    -2203    -2162    -2189 
   -2292    -2358    -2386    -2430    -2434    -2376    -2346    -2365 
   -2397    -2448    -2471    -2440    -2367    -2249    -2182    -2250 
   -2374    -2431    -2313    -2141    -2138    -2239    -2324    -2365 
   -2296    -2185    -2158    -2188    -2230    -2251    -2246    -2274 
   -2350    -2385    -2324    -2246    -2184    -2068    -1977    -2035 
   -2146    -2212    -2297    -2436    -2562    -2636    -2690    -2762 
   -2825    -2825    -2764    -2614    -2334    -2041    -1892    -1895 
   -1961    -2083    -2292    -2482    -2509    -2427    -2351    -2344 
   -2438    -2559    -2601    -2529    -2389    -2288    -2301    -2347 
   -2284    -2118    -1980    -1903    -1848    -1826    -1856    -1939 
   -2101    -2315    -2527    -2721    -2848    -2853    -2781    -2662 
   -2532    -2488    -2478    -2385    -2274    -2239    -2246    -2215 
   -2168    -2160    -2126    -2031    -1981    -2047    -2155    -2241 
   -2330    -2382    -2358    -2353    -2384    -2427    -2496    -2502 
   -2421    -2362    -2340    -2349    -2373    -2350    -2319    -2339 
   -2361    -2317    -2203    -2103    -2123    -2176    -2151    -2141 
   -2196    -2289    -2462    -2640    -2708    -2722    -2659    -2465 
   -2295    -2218    -2138    -2045    -1973    -1960    -2027    -2095 
   -2133    -2215    -2357    -2525    -2695    -2772    -2647    -2386 
   -2184    -2143    -2236    -2355    -2465    -2593    -2652    -2571 
   -2432    -2307    -2199    -2128    -2093    -2047    -1998    -1991 
   -2061    -2215    -2397    -2563    -2701    -2698    -2502    -2262 
   -2093    -2029    -2039    -2027    -2039    -2138    -2226    -2305 
   -2446    -2601    -2701    -2660    -2466    -2246    -2107    -2073 
   -2101    -2106    -2139    -2324    -2546    -2632    -2639    -2635 
   -2542    -2339    -2160    -2126    -2215    -2332    -2435    -2488 
   -2409    -2258    -2230    -2326    -2407    -2423    -2367    -2290 
   -2293    -2359    -2409    -2371    -2272    -2236    -2282    -2307 
   -2273    -2188    -2088    -2061    -2103    -2143    -2185    -2239 
   -2297    -2386    -2473    -2479    -2405    -2324    -2301    -2317 
   -2285    -2203    -2178    -2226    -2232    -2204    -2243    -2358 
