Origin Time       2025/03/30 21:30:00
Lat.              38.535
Long.             142.295
Depth. (km)       44
Mag.              4.3
Station Code      MYG015
Station Lat.      38.1037
Station Long.     140.8708
Station Height(m) 3
Record Time       2025/03/30 21:31:33
Sampling Freq(Hz) 100Hz
Duration Time(s)  60
Dir.              N-S
Scale Factor      7845(gal)/8223790
Max. Acc. (gal)   2.122
Last Correction   2025/03/30 21:31:32
Memo.             
[...]
    9020     8969     8904     8872     8914     8937     8907     8937 
    9080     9259     9367     9346     9221     9082     8939     8793 
    8737     8784     8850     8932     9070     9231     9347     9382 
    9313     9193     9150     9158     9086     8926     8761     8667 
    8691     8781     8854     8934     9043     9097     9081     9063 
    9046     9054     9120     9151     9047     8896     8891     9034 
    9140     9124     9050     9009     9030     9039     8985     8958 
    9012     9062     9054     8989     8932     9030     9236     9364 
    9347     9212     9063     9032     9080     9057     8943     8814 
    8722     8733     8853     8996     9116     9175     9155     9115 
    9059     8993     8972     8947     8887     8887     8968     9053 
    9139     9263     9377     9379     9259     9090     8955     8908 
    8922     8911     8866     8839     8842     8905     9058     9224 
    9312     9333     9288     9175     9054     8939     8841     8792 
    8762     8752     8831     9011     9211     9306     9246     9132 
    9103     9130     9094     8989     8916     8884     8851     8827 
    8834     8878     8950     9000     8969     8893     8907     9050 
    9207     9294     9333     9306     9188     9101     9148     9250 
    9267     9146     9008     8974     8955     8883     8823     8823 
    8853     8872     8889     8932     9004     9032     8984     9007 
    9184     9304     9227     9090     9040     9038     8991     8911 
    8857     8872     8942     9018     9057     9067     9140     9262 
    9243     9061     8932     8985     9090     9070     8977     8989 
    9107     9212     9228     9167     9115     9108     9080     8978 
    8818     8683     8676     8758     8827     8914     9063     9200 
    9255     9267     9270     9265     9265     9205     9012     8812 
    8743     8764     8804     8860     8938     9013     9039     9036 
    9074     9173     9267     9273     9175     9059     9018     9007 
    8964     8946     9000     9072     9080     8995     8950     9027 
    9059     8978     8961     9059     9139     9140     9096     9070 
    9135     9219     9213     9158     9111     9090     9067     9009 
    8986     9005     8951     8858     8868     8978     9063     9073 
    9053     9012     8968     8942     8943     8992     9035     9016 
    8991     8977     8973     9001     9016     8986     8943     8918 
    8926     8974     9053     9130     9130     9055     9005     9034 
    9127     9219     9221     9121     8996     8945     8984     9028 
    9050     9086     9131     9151     9130     9053     8974     8973 
    9016     9001     8939     8945     9039     9142     9182     9121 
    9028     9011     9045     9058     9024     8941     8853     8812 
    8800     8827     8961     9116     9135     9084     9082     9147 
    9243     9254     9144     9050     9034     9055     9050     8968 
    8878     8911     9057     9170     9158     9067     9015     9057 
    9090     9011     8904     8876     8907     8965     9058     9182 
    9254     9193     9096     9108     9217     9252     9096     8878 
    8803     8860     8899     8824     8716     8741     8880     8972 
    8973     8949     8930     8950     9043     9135     9171     9225 
    9283     9252     9175     9144     9158     9190     9228     9193 
    9059     8920     8873     8908     8934     8910     8905     8949 
    8999     9043     9072     9099     9157     9211     9204     9147 
    9082     9027     8989     9009     9054     9028     8922     8815 
    8789     8857     8938     8970     8977     9012     9089     9177 
    9228     9232     9238     9220     9107     8973     8930     8931 
    8915     8900     8901     8945     9034     9112     9136     9126 
    9120     9103     9030     8949     8918     8946     8993     9000 
    8989     9009     9022     9022     9084     9202     9261     9194 
    9105     9115     9165     9116     9004     8969     9022     9054 
    9005     8911     8806     8707     8710     8850     9011     9076 
    9026     8993     9143     9387     9464     9305     9124     9067 
    9063     9024     8937     8865     8880     8919     8911     8851 
    8792     8826     8958     9094     9150     9093     9028     9038 
    9081     9167     9312     9389     9319     9174     9058     9022 
    9030     8968     8830     8789     8922     9073     9094     9051 
    9030     8997     8969     8996     9043     9108     9190     9178 
    9040     8908     8891     8969     9013     8905     8764     8800 
    8993     9148     9170     9136     9147     9184     9194     9162 
    9101     9051     9019     8996     8980     8923     8842     8861 
    8988     9069     9039     9012     9081     9190     9216     9170 
    9170     9205     9174     9065     8955     8920     8930     8897 
    8857     8918     9054     9134     9066     8923     8881     8957 
    8995     8935     8850     8849     8966     9101     9186     9239 
    9244     9186     9144     9184     9252     9255     9143     8954 
    8822     8802     8795     8739     8725     8851     9081     9277 
    9328     9266     9186     9127     9124     9132     9047     8919 
    8827     8781     8839     8982     9104     9162     9146     9088 
    9040     9003     8977     9012     9077     9038     8888     8761 
    8799     9013     9213     9225     9127     9094     9180     9246 
    9193     9096     8992     8919     8981     9117     9154     9061 
    8972     9015     9119     9128     8992     8785     8696     8811 
    8953     8991     9020     9088     9104     9069     9070     9084 
    9028     8985     9076     9219     9236     9081     8887     8831 
    8938     9073     9093     8984     8885     8922     9061     9144 
    9059     8927     8926     9061     9289     9536     9606     9431 
    9193     9074     9018     8903     8781     8726     8704     8726 
    8815     8927     9031     9123     9163     9113     9003     8918 
    8912     8969     9011     8984     8951     8984     9023     9059 
    9167     9292     9329     9288     9185     9073     9069     9130 
    9084     8924     8776     8700     8741     8919     9107     9128 
    9019     8953     8980     9026     9092     9207     9231     9085 
    8977     9058     9200     9259     9231     9124     9013     8980 
    8932     8796     8692     8743     8866     8932     8961     8981 
    8981     9019     9126     9246     9296     9219     9119     9130 
    9188     9169     9050     8908     8883     9018     9162     9151 
    8984     8793     8718     8800     8943     9004     8981     8989 
    9073     9190     9275     9310     9292     9193     9046     8946 
    8920     8907     8885     8914     8985     9018     9013     9035 
    9070     9070     9085     9165     9204     9109     8982     8965 
    9036     9050     8961     8885     8845     8830     8920     9045 
    9039     8976     9018     9143     9229     9247     9225     9167 
    9155     9269     9369     9285     9094     8932     8823     8770 
    8752     8718     8691     8738     8884     9089     9263     9313 
    9273     9250     9242     9205     9153     9100     9043     8969 
    8903     8889     8930     8985     9015     8985     8914     8900 
    8996     9093     9065     8941     8846     8847     8918     9020 
    9142     9200     9143     9100     9196     9308     9244     9057 
    8930     8903     8884     8822     8796     8892     9015     9046 
    9027     9001     9003     9085     9154     9115     9058     9073 
    9121     9105     8996     8930     9020     9146     9140     9081 
    9090     9082     9013     9005     9046     9049     9019     8954 
    8872     8862     8928     8980     8984     8958     8941     8969 
    9022     9082     9154     9207     9190     9139     9119     9092 
    8969     8811     8784     8927     9089     9177     9236     9310 
    9378     9350     9205     9054     9000     9032     9054     9043 
    9063     9058     8989     8977     9015     9018     9046     9082 
    8997     8799     8626     8604     8743     8907     9016     9096 
    9120     9105     9147     9281     9408     9374     9178     8942 
    8775     8749     8802     8826     8865     8957     9054     9174 
    9324     9436     9462     9386     9169     8860     8658     8652 
    8733     8815     8897     8957     8992     9103     9271     9332 
    9255     9146     9076     9030     8953     8868     8854     8939 
    9045     9059     9004     8997     9015     8969     8926     9001 
    9109     9093     9015     8996     9022     9054     9053     9011 
    8980     8976     9018     9135     9263     9296     9259     9270 
    9310     9270     9127     8970     8915     8924     8873     8831 
    8891     8927     8881     8874     8968     9099     9190     9193 
    9113     9013     8953     8941     8911     8851     8849     8895 
    8903     8900     9000     9163     9236     9216     9227     9277 
    9277     9186     9069     9046     9101     9085     8996     8959 
    8918     8779     8694     8816     9034     9144     9138     9140 
    9174     9181     9146     9042     8911     8883     8922     8903 
    8881     8965     9097     9148     9111     9094     9166     9232 
    9161     9005     8946     9054     9200     9205     9061     8900 
    8811     8812     8876     8930     8888     8769     8730     8814 
    8901     8981     9089     9120     9070     9111     9247     9351 
    9394     9385     9342     9315     9297     9234     9138     9070 
    9024     8966     8891     8775     8679     8707     8792     8845 
    8950     9142     9273     9243     9100     8974     8969     9045 
    9109     9161     9204     9184     9113     9103     9144     9119 
    9035     8965     8918     8927     8977     8912     8712     8611 
    8710     8814     8799     8787     8897     9070     9190     9273 
    9393     9485     9378     9072     8824     8858     9040     9113 
    9035     8891     8775     8739     8779     8911     9085     9159 
    9103     9073     9208     9423     9518     9441     9319     9274 
    9246     9096     8928     8954     9035     8884     8568     8405 
    8521     8812     9076     9127     9040     9038     9101     9131 
    9162     9194     9162     9099     9105     9178     9232     9167 
    8950     8756     8785     8953     9072     9096     9011     8843 
    8739     8780     8900     8985     8997     9013     9082     9142 
    9138     9148     9309     9586     9747     9657     9401     9101 
    8826     8603     8509     8614     8769     8730     8549     8529 
    8820     9235     9483     9475     9356     9328     9418     9466 
    9329     9078     8927     8918     8885     8764     8660     8702 
    8866     9007     9053     9059     9089     9086     9013     8961 
    8954     8934     8916     8984     9151     9269     9266     9221 
    9146     9063     9040     9040     8972     8874     8857     8908 
    8974     9061     9128     9107     8989     8893     8937     9030 
    9072     9061     8949     8841     8969     9273     9459     9417 
    9271     9157     9099     9045     8995     8970     8935     8884 
    8865     8892     8961     8993     8884     8719     8629     8625 
    8741     8970     9198     9331     9293     9131     9086     9242 
    9404     9396     9165     8841     8698     8811     8992     9066 
    9072     9127     9202     9247     9285     9286     9224     9154 
    9150     9180     9148     9040     8930     8907     8981     9051 
    9049     9018     9046     9151     9229     9212     9154     9093 
    8970     8793     8683     8725     8884     8980     8872     8727 
    8762     8905     8966     8878     8748     8729     8872     9065 
    9108     8919     8696     8679     8816     8981     9132     9192 
    9139     9120     9247     9451     9536     9370     9101     9003 
    9039     8938     8695     8590     8735     8972     9121     9140 
    9116     9157     9232     9194     9024     8905     8945     9074 
    9186     9204     9124     9030     9008     9169     9548     9967 
   10179    10087     9747     9344     9119     9153     9310     9363 
    9147     8714     8249     7874     7678     7728     7912     7993 
    7902     7865     8087     8533     9082     9564     9764     9765 
    9892    10177    10291    10061     9737     9614     9625     9521 
    9246     8924     8635     8415     8367     8475     8513     8349 
    8106     7951     7974     8187     8510     8837     9115     9348 
    9570     9833    10112    10250    10168     9988     9805     9666 
    9626     9549     9240     8824     8503     8264     8132     8176 
    8318     8453     8552     8625     8769     9051     9346     9441 
    9386     9474     9734     9855     9799     9882    10160    10341 
   10120     9432     8607     8117     8118     8379     8537     8468 
    8345     8324     8437     8664     8927     9151     9265     9116 
    8618     8020     7713     7808     8122     8461     8757     9115 
    9687    10407    10905    10854    10365     9798     9246     8594 
    7912     7538     7643     7924     7981     7866     7966     8557 
    9544    10470    10856    10708    10507    10544    10575    10353 
   10022     9733     9398     8942     8365     7723     7145     6810 
    6867     7214     7663     8203     8773     9221     9636    10191 
   10800    11141    10921    10195     9329     8621     8241     8239 
    8386     8522     8766     9121     9418     9566     9618     9624 
    9441     8962     8390     8040     7994     8085     8210     8394 
    8672     9100     9580     9936    10235    10585    10768    10384 
    9339     8193     7565     7414     7312     7075     6886     6987 
    7429     8155     9094    10029    10639    10848    10824    10651 
   10415    10330    10399    10327     9919     9242     8581     8236 
    8251     8532     8961     9315     9377     9144     8841     8700 
    8657     8448     8082     7919     8240     8980     9771    10201 
   10239    10152     9940     9451     8854     8455     8289     8120 
    7865     7835     8140     8405     8499     8654     8953     9332 
    9742    10027    10053     9896     9701     9505     9271     8974 
    8642     8317     8220     8615     9200     9336     9050     8970 
    9319     9699     9802     9651     9347     8993     8631     8326 
    8284     8530     8757     8741     8586     8563     8810     9144 
    9267     9108     8808     8546     8503     8710     8932     8955 
    8849     8928     9414    10125    10590    10476     9910     9375 
    9107     8822     8313     7857     7739     7933     8353     8919 
    9455     9806     9938     9894     9741     9602     9583     9589 
    9456     9221     8941     8599     8370     8483     8856     9208 
    9351     9240     8996     8789     8588     8372     8363     8640 
    8961     9076     9000     8907     8823     8769     8914     9209 
    9383     9302     9031     8754     8696     8916     9273     9587 
    9783     9796     9614     9389     9275     9207     9018     8689 
    8363     8203     8253     8367     8379     8318     8334     8515 
    8850     9239     9587     9895    10206    10454    10497    10354 
   10173     9921     9410     8591     7724     7253     7250     7294 
    7150     7115     7512     8187     8756     9224     9784    10228 
   10272    10039     9853     9882    10083    10289    10268     9925 
    9389     8822     8391     8253     8364     8564     8865     9396 
   10038    10386    10211     9672     9077     8652     8483     8480 
    8482     8405     8274     8185     8216     8325     8357     8316 
    8534     9161     9801    10042     9849     9479     9374     9717 
   10125    10098     9578     8946     8568     8529     8762     9016 
    8954     8581     8224     8121     8260     8505     8654     8536 
    8309     8421     9004     9657     9952     9898     9809     9817 
    9745     9466     9046     8571     8201     8164     8440     8775 
    8950     8827     8552     8583     9032     9425     9464     9443 
    9552     9563     9331     8934     8480     8209     8290     8527 
    8711     8991     9486     9964    10137     9994     9755     9605 
    9552     9516     9394     9162     8926     8730     8565     8568 
    8843     9243     9482     9366     8943     8511     8344     8433 
    8576     8640     8626     8604     8706     8984     9275     9383 
    9283     9080     8892     8715     8563     8646     9058     9528 
    9682     9545     9594     9917     9980     9603     9259     9243 
    9207     8718     7990     7581     7720     8228     8694     8762 
    8510     8293     8403     8868     9464     9963    10226    10215 
   10065    10010    10100    10122     9922     9614     9310     8928 
    8476     8152     8008     7901     7769     7661     7681     7938 
    8387     8768     8857     8799     8874     9001     8918     8754 
    8903     9414     9960    10272    10369    10404    10453    10463 
   10331    10041     9671     9261     8795     8264     7821     7712 
    7889     8024     8048     8271     8808     9354     9792    10249 
   10484    10188     9572     9093     8926     8942     8910     8600 
    8027     7580     7658     8178     8638     8746     8726     8804 
    8926     8996     9069     9250     9490     9711     9929    10079 
   10057     9895     9674     9435     9200     8997     8851     8761 
    8675     8623     8711     8841     8866     8783     8563     8243 
    8056     8135     8391     8694     8904     9054     9350     9721 
    9923    10054    10242    10235     9787     9040     8374     8044 
    8036     8145     8168     8101     8121     8355     8791     9321 
    9675     9668     9467     9339     9409     9698    10006     9946 
    9510     9194     9308     9661     9906     9856     9566     9173 
    8725     8287     7983     7808     7661     7569     7740     8291 
    8996     9435     9431     9223     9202     9440     9607     9595 
    9721    10021    10091     9821     9487     9170     8818     8669 
    8853     9001     8807     8449     8195     8085     8098     8271 
    8580     8883     9115     9408     9811    10087     9984     9595 
    9275     9221     9305     9354     9261     8954     8567     8321 
    8284     8394     8522     8542     8486     8527     8703     8830 
    8891     9050     9278     9364     9250     9153     9316     9683 
    9998    10062     9798     9297     8816     8588     8587     8654 
    8752     8908     9042     9085     9130     9248     9359     9445 
    9575     9622     9408     9080     8954     9073     9170     8995 
    8599     8249     8110     8124     8135     8062     7996     8066 
    8352     8847     9371     9705     9769     9647     9536     9564 
    9624     9547     9347     9215     9259     9344     9332     9263 
    9173     9050     8985     9085     9246     9285     9150     8866 
    8556     8409     8438     8529     8681     8945     9223     9340 
