Origin Time       2025/03/30 21:30:00
Lat.              38.535
Long.             142.295
Depth. (km)       44
Mag.              4.3
Station Code      MYG001
Station Lat.      38.9017
Station Long.     141.5709
Station Height(m) 36
Record Time       2025/03/30 21:31:18
Sampling Freq(Hz) 100Hz
Duration Time(s)  60
Dir.              E-W
Scale Factor      7845(gal)/8223790
Max. Acc. (gal)   7.021
Last Correction   2025/03/30 21:31:18
Memo.             
[...]
    -527     -529     -530     -529     -529     -529     -526     -527 
    -530     -529     -526     -529     -529     -527     -529     -529 
    -529     -530     -527     -527     -529     -529     -527     -529 
    -530     -529     -529     -529     -527     -526     -527     -526 
    -526     -527     -527     -526     -529     -531     -529     -525 
    -526     -527     -530     -529     -527     -527     -527     -526 
    -529     -527     -527     -530     -529     -527     -529     -527 
    -526     -530     -531     -527     -527     -527     -527     -529 
    -529     -529     -529     -527     -526     -527     -529     -529 
    -527     -526     -527     -529     -527     -529     -529     -527 
    -529     -529     -529     -529     -527     -525     -526     -529 
    -529     -526     -526     -527     -529     -529     -527     -527 
    -529     -530     -530     -527     -527     -530     -529     -526 
    -527     -527     -530     -530     -527     -529     -529     -529 
    -527     -529     -529     -527     -527     -529     -529     -529 
    -530     -531     -531     -529     -525     -526     -530     -531 
    -529     -529     -530     -531     -530     -529     -529     -527 
    -527     -529     -527     -526     -529     -531     -529     -527 
    -530     -529     -529     -529     -525     -526     -530     -530 
    -527     -529     -529     -529     -530     -527     -526     -529 
    -531     -529     -527     -527     -527     -529     -529     -526 
    -526     -527     -529     -527     -527     -527     -527     -530 
    -530     -529     -529     -529     -529     -530     -529     -527 
    -529     -531     -530     -527     -526     -529     -530     -530 
    -529     -526     -526     -529     -530     -527     -525     -529 
    -534     -531     -527     -526     -527     -531     -531     -527 
    -527     -527     -527     -527     -527     -529     -529     -530 
    -530     -530     -530     -529     -530     -530     -529     -530 
    -529     -529     -529     -529     -529     -527     -529     -530 
    -530     -526     -526     -529     -529     -526     -527     -530 
    -529     -530     -530     -526     -523     -527     -530     -529 
    -527     -526     -529     -530     -527     -527     -530     -530 
    -527     -529     -530     -527     -527     -530     -527     -526 
    -530     -533     -530     -529     -529     -529     -529     -529 
    -529     -527     -530     -530     -529     -529     -529     -529 
    -533     -531     -529     -529     -531     -530     -526     -526 
    -529     -529     -529     -529     -527     -527     -529     -530 
    -530     -527     -527     -527     -527     -530     -529     -526 
    -529     -530     -527     -527     -527     -527     -527     -527 
    -529     -530     -531     -529     -525     -526     -527     -527 
    -530     -530     -526     -525     -529     -530     -527     -527 
    -527     -527     -526     -526     -526     -527     -527     -529 
    -529     -526     -525     -527     -531     -530     -527     -527 
    -530     -530     -527     -526     -527     -527     -530     -530 
    -526     -525     -529     -531     -530     -530     -527     -527 
    -530     -527     -523     -529     -530     -527     -529     -530 
    -526     -527     -529     -526     -526     -527     -527     -529 
    -529     -530     -527     -527     -529     -526     -526     -529 
    -529     -527     -526     -526     -530     -531     -526     -525 
    -527     -529     -527     -529     -529     -527     -527     -529 
    -527     -525     -523     -527     -530     -529     -527     -529 
    -530     -530     -530     -529     -529     -529     -530     -529 
    -527     -529     -527     -527     -527     -526     -527     -531 
    -531     -529     -529     -529     -530     -530     -531     -530 
    -526     -526     -530     -527     -525     -526     -529     -529 
    -531     -533     -534     -538     -538     -533     -540     -553 
    -549     -556     -596     -560     -379     -305     -521     -649 
    -464     -411     -545     -506     -584     -900     -818     -390 
    -392     -697     -564     -128       -4     -168     -594    -1294 
   -1424     -746      -83      309      214     -438     -673     -440 
    -697    -1084     -986     -706     -375     -263     -626    -1043 
   -1061     -486      232      256     -286     -508     -194      -83 
    -769    -1537    -1235     -515     -684    -1067     -622      305 
     776      195     -874    -2011    -2880    -1526     1259     1648 
     144     -673    -1073    -1089     -525     -270     -125      261 
      82     -652    -1487    -2732    -2844     -125     2340     1385 
    -681    -1260    -1285    -1085      101      830        8     -949 
   -1402    -1692    -1282       33     1165      762     -676    -1474 
   -1842    -2119    -1205      290      893      769      305     -533 
   -1621    -2168    -1188      222      724      773     -243    -2214 
   -2366     -573      326        2        5      124     -504    -1435 
   -1605     -608      372       87     -623     -846    -1085    -1059 
    -147      476      207     -144     -838    -1655    -1601     -940 
      47      608      -25     -490     -541    -1250    -1204     -130 
    -155     -633     -626    -1044     -897      147      174     -657 
    -689     -126     -201     -811    -1074    -1059    -1146     -908 
    -216      129     -162     -297      135      -44    -1350    -1756 
    -608       81     -179     -411     -742    -1232    -1019     -162 
     241       83       27      -83     -616    -1286    -1757    -1584 
    -561      244     -112     -730     -662     -328      101      499 
     -14     -973    -1012     -662     -885    -1275    -1220     -504 
     220       22     -445     -425     -604     -938     -476      332 
     101     -838    -1031     -969    -1350    -1013       51      499 
      76     -629    -1127    -1251    -1028     -596     -171       52 
    -109     -450     -452     -232     -399     -685     -718    -1197 
   -1649     -792      -43     -538     -359      380     -272    -1071 
    -685     -367     -488     -129      484      -81    -1440    -1476 
    -653     -560     -664     -526     -345     -243     -614     -901 
    -778     -889     -591      271      259     -351     -426     -349 
    -506     -653     -685     -864    -1371    -1318     -432     -164 
    -498     -211      -60     -500     -371       12     -495    -1125 
    -764     -201     -360     -623     -544     -629     -762     -340 
     -55     -791    -1244     -457      -75     -861    -1372     -832 
      18      326      168     -124     -631     -972     -719     -607 
   -1070    -1121     -477      -12       31     -330    -1017    -1115 
    -467     -153     -340     -513     -652     -637     -540     -610 
    -558     -619    -1000     -646      213       45     -584     -477 
    -348     -631     -664     -677     -919     -758     -476     -467 
    -345     -564     -970     -557     -122     -272     -290     -504 
    -900     -556     -122     -336     -414     -448    -1016    -1146 
    -527     -234     -294     -386     -697     -853     -660     -490 
    -359     -220     -274     -475     -531     -515     -761    -1051 
    -892     -549     -467     -344     -155     -363     -537     -272 
    -313     -743     -793     -680     -804     -739     -332     -145 
    -463     -723     -638     -595     -606     -553     -500     -426 
    -456     -596     -710     -656     -228      193       70     -375 
    -815     -974     -778     -703     -810     -918    -1039     -719 
     -27       27     -423     -279       40     -446     -886     -560 
    -490     -793     -571     -274     -522     -737     -627     -569 
    -631     -687     -645     -537     -699    -1034     -799      -12 
     436      132     -623    -1051     -490       70     -495    -1031 
    -793     -841    -1154     -928     -365       24      -31     -515 
    -837     -639     -276      -55     -268     -702     -621     -437 
    -643     -783     -876     -831     -305      101     -143     -625 
    -912    -1078    -1013     -483     -153     -530     -731     -291 
      60      -95     -365     -476     -783    -1067     -803     -531 
    -598     -662     -658     -500     -255     -271     -572     -785 
    -545      -33      -31     -642     -891     -733     -986    -1021 
     -99      533     -176    -1062     -858     -294     -430     -765 
    -595     -479     -662     -556     -508     -838     -770     -295 
    -145     -369     -506     -313     -202     -534     -866     -870 
    -684     -438     -286     -306     -548     -828     -876     -810 
    -630     -364     -299     -383     -507     -525     -356     -475 
    -710     -379      -98     -550    -1075    -1024     -460      -51 
    -334     -780     -855     -795     -761     -488       76      220 
    -395     -796     -556     -594     -851     -388      230        8 
    -942    -1885    -1848     -859      -48      259      244     -356 
   -1092     -888       70      492      137     -256     -642    -1144 
   -1316    -1007     -649     -797    -1208     -993     -525     -494 
     -37      677      325     -417     -654     -834     -785     -372 
    -341     -756     -832     -596     -822    -1125     -615       28 
    -124     -656     -916     -712     -232      -76     -376     -734 
   -1105    -1027      -36      479     -314     -706     -357     -789 
   -1363     -886     -492     -861     -753      -16       10     -603 
    -573      -55     -116     -534     -631     -711    -1011    -1021 
    -491        0      -91     -325     -387     -724     -785     -194 
    -446    -1513    -1390     -243      210      -63     -137     -153 
    -594    -1013     -976     -750     -735     -796     -413     -139 
    -607     -715      -47      275      -31     -394     -433     -479 
   -1119    -1588    -1192     -824     -818     -724     -603     -403 
       0      290       54     -306     -252     -486    -1074    -1102 
    -820     -522     -126      -89     -218     -463    -1363    -1852 
   -1182     -634     -526     -232      -43     -152     -120      167 
     313      -20     -556     -544     -248     -703    -1435    -1395 
   -1124    -1277    -1217     -657     -221      108      780     1117 
     383     -565     -986    -1312    -1644    -1742    -1352     -386 
     290       58     -310      -82       55     -712    -1372     -984 
    -480     -340     -199     -341     -756     -832     -446      -43 
    -202     -627     -461      -68     -201     -660    -1077    -1283 
   -1274     -889       28      446     -309     -907     -800     -874 
    -766     -217     -322     -784     -414       71     -229     -463 
    -236     -356     -712     -777    -1109    -1582    -1017      -29 
      32     -245     -218     -270     -259     -135     -508    -1124 
   -1097     -743     -785     -865     -619     -287     -159     -467 
    -631      -79      240     -139     -268     -133     -548    -1134 
    -986     -799    -1394    -1634     -985     -486     -379     -360 
    -399     -271       91      383      490      446       47     -646 
   -1142    -1324    -1367    -1263    -1040     -781     -614     -715 
    -853     -668     -614     -828     -283      792      961      386 
    -164     -733    -1061    -1177    -1291     -920     -394     -560 
   -1158    -1485     -977      191      679      126     -220      -93 
    -313     -835    -1142    -1142     -818     -319     -237     -750 
   -1144     -834     -133       90     -221     -263     -302     -700 
    -708     -407     -436     -837    -1308    -1209     -561      -16 
     162     -118     -413     -220     -249     -846    -1077     -750 
    -557     -657     -928    -1250    -1228     -556      422      737 
     160     -263     -159     -233     -565     -702     -711     -950 
   -1007     -411     -290    -1286    -1836    -1194     -464     -147 
       5     -121     -540     -650      -17      583      214     -554 
    -811     -849    -1219    -1368     -837     -399     -255        6 
    -278    -1186    -1416     -724     -116       91       83     -382 
   -1069    -1048     -557     -610     -692     -295     -415     -947 
    -768     -264      -91       87      351      426      -94    -1310 
   -1987    -1287      -99      762      646     -965    -2597    -2249 
    -257     1480     1493      -45    -1518    -1764     -573      981 
     680    -1161    -2195    -2828    -3889    -3280     -274     2389 
    2454      405    -1857    -2809    -1243     2670     5282     3466 
   -1112    -4536    -4141    -1104      704     -116    -2020    -3360 
   -2944     -675     1718     2347     1088     -908    -2452    -2660 
   -1371      253      866      657      492      823     1796     2290 
     849    -1323    -2124    -2366    -3388    -3983    -3146    -1566 
     176     1194      734      147      839     1958     1969      688 
    -870    -2207    -3237    -3483    -3241    -3117    -2492     -418 
    2910     5429     5039     2659       13    -2324    -2527     -423 
      22    -2822    -5822    -6493    -5521    -4017    -1682     1140 
    3473     5313     5917     4688     2945     1803     1665     1782 
     102    -3395    -6652    -7888    -6123    -2718     -724    -1020 
   -2039    -2451    -1988     -807      568     1696     2984     4162 
    4121     3127     1899      652      -28     -616    -2313    -3615 
   -2474     -664     -572    -2050    -4386    -6249    -5984    -3874 
    -985     2060     4230     5015     4552     3028     1671     1194 
     575    -1011    -3435    -4974    -4079    -2509    -1895    -1275 
    -378       70     -275    -1116     -804     1503     3628     3510 
    1572     -876    -2824    -3854    -3748    -2546    -1170     -340 
    -190     -319      189      970     1285     1601     1298     -675 
   -2821    -2905    -1190       78      149      202      109     -610 
   -1102    -1420    -1680    -1224     -747     -702     -445     -522 
   -1163    -1138     -340      417     1243     2118     2203     1243 
    -183    -1761    -3138    -3426    -2524    -1464     -950     -978 
   -1017     -818    -1125    -1655     -691     1609     3231     3329 
    2196      207    -1587    -2253    -2047    -1431     -869    -1201 
   -2403    -2928    -1601      330     1021      733      295     -260 
    -535     -322     -108      109      353      130     -290     -330 
    -715    -1807    -2280    -1601     -936    -1067    -1294     -576 
     661     1055      229     -722     -460      384      122     -811 
   -1217    -1220     -877     -448     -537     -847    -1320    -1807 
   -1502     -913     -515      450     1213      614     -210     -318 
    -522    -1059     -981     -186       62     -815    -1710    -1567 
    -692      330     1179     1144     -145    -1815    -2635    -2342 
   -1339     -298      -51      -58      309       39     -430      214 
     730     -112    -1328    -1761    -1275     -657     -510     -523 
    -546     -502       67     1038     1387      417    -1013    -1844 
   -2115    -1760     -880     -430     -916    -1669    -1651    -1048 
    -751     -305      819     1570     1291      723      130     -503 
    -654     -683    -1054    -1144    -1115    -1428    -1517    -1491 
   -1678    -1306     -392      122      303      693     1027      931 
     538     -238    -1306    -1728    -1431    -1566    -1989    -1220 
     433      642     -762    -1422     -837     -351     -178       25 
     101      -36     -315     -483     -351     -326     -760    -1350 
   -1453     -854     -197       13     -230     -835    -1151     -939 
    -865     -885     -646     -272      444     1023      425     -619 
   -1063    -1121     -989     -966    -1063     -730     -321     -244 
     -67      229      298        4     -599    -1039     -872     -457 
    -535    -1154    -1545    -1350    -1008     -699     -319      -22 
     -56     -414     -533     -110      328      155     -629    -1070 
    -656     -444     -807     -711     -201      -67     -209     -368 
    -687    -1192    -1679    -1773    -1073      -58      236      -94 
    -437     -673     -525      130      696      344     -772    -1410 
   -1336    -1108     -641     -216     -105     -214     -772    -1109 
    -592     -172     -379     -824    -1252    -1086     -224      405 
     405      371      546      197     -811    -1580    -1912    -1985 
   -1579     -970     -565     -422     -557     -550     -139      282 
     639      853      506     -136     -688    -1410    -2065    -1825 
    -773       93      197     -164     -414     -368     -288     -491 
    -963    -1255    -1128     -928     -847     -610     -145      152 
     234      278       -8     -332     -261     -499    -1100    -1242 
   -1101    -1074     -989     -934     -776     -364     -311     -297 
     475      827       -9     -723    -1000    -1405    -1405     -947 
    -622     -128      253     -372    -1213    -1205     -832     -469 
     -98     -295     -897     -881     -272      329      745      588 
    -267    -1281    -1829    -1340     -303     -182     -950    -1440 
   -1453    -1158     -538      159      673      603       40     -120 
     -31     -548    -1071     -764     -334     -685    -1387    -1570 
   -1209     -710     -284     -136     -259     -230       95      237 
    -199     -805     -846     -477     -226      -86     -318     -733 
    -649     -730    -1258    -1316    -1042    -1001    -1127    -1193 
    -893     -310      348      954      869      179     -180     -286 
    -691    -1109     -999     -684     -891    -1223    -1000     -710 
    -818     -978     -850     -430     -110     -203     -336      -89 
     230      268       99     -279     -553     -438     -670    -1321 
   -1405     -994     -789     -847     -985     -882     -402      -45 
      55      174      -78     -691     -807     -534     -608     -818 
    -594       94      487     -153    -1021    -1065     -876    -1080 
   -1129    -1042    -1285    -1312     -689      129      635      645 
     583      579       24     -792    -1161    -1404    -1467     -903 
    -546    -1034    -1467    -1069     -305      113      294      371 
     105     -275     -614     -897     -900     -823     -761     -637 
    -792    -1179    -1333     -961     -118      514      469       43 
    -519     -999     -990     -575     -180      -14      -24     -137 
    -527    -1174    -1505    -1210     -645     -355     -629     -951 
    -561      171      228     -324     -561     -247      -16     -255 
    -534     -634     -928    -1159     -731     -126     -153     -681 
   -1026     -858     -610     -631     -395      -67     -561    -1102 
    -769     -490     -530     -311     -225     -386     -464     -513 
    -162      492      315     -773    -1615    -1593    -1129     -889 
    -942     -959     -751     -375      118      616      575     -118 
    -792    -1233    -1378     -820       25      325     -148    -1128 
