Origin Time       2025/03/30 21:30:00
Lat.              38.535
Long.             142.295
Depth. (km)       44
Mag.              4.3
Station Code      MYG002
Station Lat.      38.7261
Station Long.     141.5110
Station Height(m) 65
Record Time       2025/03/30 21:31:09
Sampling Freq(Hz) 100Hz
Duration Time(s)  75
Dir.              U-D
Scale Factor      7845(gal)/8223790
Max. Acc. (gal)   5.335
Last Correction   2025/03/30 21:31:09
Memo.             
[...]
  -20019   -20017   -20020   -20020   -20017   -20021   -20023   -20017 
  -20019   -20023   -20020   -20017   -20020   -20021   -20023   -20021 
  -20019   -20019   -20020   -20019   -20019   -20019   -20017   -20019 
  -20021   -20020   -20017   -20017   -20019   -20021   -20020   -20017 
  -20019   -20020   -20019   -20017   -20019   -20020   -20021   -20019 
  -20017   -20017   -20017   -20019   -20019   -20017   -20019   -20017 
  -20016   -20020   -20021   -20019   -20016   -20016   -20019   -20020 
  -20020   -20019   -20019   -20020   -20021   -20019   -20019   -20021 
  -20021   -20017   -20019   -20023   -20021   -20019   -20021   -20023 
  -20020   -20019   -20020   -20020   -20019   -20017   -20020   -20019 
  -20017   -20017   -20020   -20021   -20021   -20020   -20020   -20021 
  -20021   -20020   -20021   -20021   -20020   -20021   -20020   -20019 
  -20020   -20021   -20019   -20020   -20021   -20020   -20021   -20021 
  -20020   -20020   -20020   -20020   -20020   -20020   -20019   -20021 
  -20024   -20021   -20020   -20021   -20019   -20020   -20021   -20020 
  -20019   -20020   -20021   -20020   -20021   -20023   -20021   -20021 
  -20023   -20021   -20017   -20017   -20020   -20021   -20020   -20019 
  -20019   -20020   -20020   -20020   -20020   -20020   -20021   -20023 
  -20020   -20021   -20021   -20017   -20019   -20020   -20017   -20020 
  -20020   -20019   -20019   -20021   -20020   -20019   -20019   -20020 
  -20020   -20020   -20020   -20021   -20020   -20019   -20021   -20021 
  -20021   -20021   -20021   -20019   -20019   -20021   -20023   -20020 
  -20019   -20019   -20019   -20021   -20023   -20023   -20021   -20023 
  -20024   -20023   -20020   -20020   -20020   -20021   -20020   -20019 
  -20020   -20021   -20023   -20021   -20019   -20017   -20019   -20020 
  -20019   -20017   -20020   -20021   -20020   -20020   -20021   -20021 
  -20020   -20019   -20021   -20021   -20019   -20019   -20020   -20020 
  -20021   -20020   -20020   -20021   -20021   -20020   -20021   -20020 
  -20020   -20021   -20020   -20019   -20021   -20021   -20019   -20020 
  -20021   -20020   -20021   -20019   -20019   -20021   -20020   -20020 
  -20023   -20021   -20019   -20019   -20020   -20020   -20021   -20021 
  -20017   -20020   -20023   -20021   -20020   -20020   -20020   -20020 
  -20020   -20021   -20021   -20020   -20019   -20020   -20023   -20021 
  -20019   -20020   -20020   -20020   -20020   -20020   -20021   -20020 
  -20019   -20020   -20021   -20021   -20023   -20020   -20019   -20021 
  -20019   -20017   -20019   -20019   -20019   -20019   -20021   -20021 
  -20021   -20021   -20021   -20019   -20020   -20021   -20023   -20020 
  -20019   -20020   -20020   -20020   -20020   -20019   -20020   -20021 
  -20019   -20017   -20020   -20021   -20017   -20019   -20021   -20019 
  -20017   -20020   -20023   -20021   -20019   -20020   -20020   -20019 
  -20020   -20020   -20020   -20023   -20020   -20017   -20019   -20020 
  -20017   -20019   -20020   -20017   -20017   -20019   -20019   -20019 
  -20020   -20021   -20019   -20017   -20020   -20019   -20019   -20020 
  -20021   -20020   -20021   -20023   -20021   -20020   -20020   -20020 
  -20021   -20021   -20020   -20020   -20021   -20020   -20017   -20019 
  -20020   -20021   -20023   -20023   -20021   -20021   -20020   -20019 
  -20020   -20019   -20019   -20020   -20021   -20019   -20021   -20023 
  -20020   -20020   -20020   -20019   -20019   -20021   -20021   -20019 
  -20019   -20019   -20019   -20020   -20023   -20021   -20020   -20020 
  -20020   -20020   -20020   -20021   -20021   -20021   -20020   -20019 
  -20017   -20019   -20020   -20020   -20020   -20019   -20020   -20021 
  -20020   -20016   -20019   -20020   -20021   -20021   -20020   -20021 
  -20021   -20017   -20019   -20021   -20020   -20020   -20023   -20024 
  -20023   -20021   -20021   -20021   -20024   -20021   -20017   -20019 
  -20021   -20020   -20021   -20020   -20019   -20021   -20024   -20021 
  -20020   -20020   -20019   -20017   -20019   -20023   -20023   -20021 
  -20020   -20020   -20021   -20020   -20019   -20020   -20020   -20020 
  -20019   -20017   -20019   -20020   -20021   -20020   -20019   -20019 
  -20020   -20021   -20021   -20020   -20021   -20020   -20019   -20020 
  -20021   -20021   -20019   -20019   -20020   -20021   -20021   -20021 
  -20020   -20020   -20021   -20020   -20019   -20020   -20021   -20020 
  -20019   -20016   -20015   -20013   -20009   -20005   -20000   -19989 
  -19981   -19984   -19997   -20013   -20023   -20008   -19978   -19996 
  -20078   -20171   -20264   -20271   -20055   -19823   -19858   -19997 
  -20055   -20005   -19762   -19668   -20144   -20521   -20139   -19723 
  -19778   -20016   -20525   -20752   -19861   -19029   -19329   -19830 
  -20472   -21438   -20911   -19014   -18929   -20687   -21064   -20193 
  -19599   -18524   -18500   -20713   -21643   -20353   -19656   -19786 
  -19703   -19828   -20491   -20748   -20110   -19685   -19687   -19525 
  -19643   -19953   -20372   -20650   -19924   -20046   -20526   -18900 
  -19330   -21401   -19885   -19488   -21371   -19865   -18658   -20667 
  -20434   -18415   -20148   -21932   -19155   -19157   -22253   -19711 
  -17798   -21760   -21587   -17682   -18812   -21118   -19889   -20174 
  -22119   -19998   -17236   -19068   -21138   -20884   -20617   -20023 
  -19545   -20191   -20493   -20056   -19597   -19580   -19981   -19666 
  -19769   -21392   -20821   -18106   -18485   -20929   -21612   -21116 
  -19776   -18145   -18702   -20480   -21346   -21276   -19477   -17851 
  -19916   -22099   -20433   -19638   -20592   -18970   -19020   -21693 
  -20232   -18220   -20754   -21601   -18742   -18527   -20251   -20356 
  -21276   -21300   -18260   -18164   -21578   -21978   -19813   -18777 
  -18625   -19612   -21161   -20444   -19229   -20679   -21255   -19053 
  -19183   -21396   -20819   -19076   -19089   -19835   -20182   -20177 
  -20054   -19548   -19704   -21062   -20553   -19133   -20455   -20864 
  -18782   -18900   -20533   -20601   -20259   -20502   -19934   -19049 
  -19847   -20410   -19946   -20452   -20272   -19692   -20140   -19579 
  -19615   -21182   -20999   -19391   -18659   -19573   -21185   -21047 
  -18916   -17982   -20486   -22798   -20781   -17838   -18731   -21574 
  -21520   -19094   -18948   -20405   -20410   -20040   -19701   -19826 
  -21343   -20652   -17829   -18913   -21872   -20795   -19156   -20401 
  -20524   -19079   -19229   -19631   -19845   -21489   -21406   -18677 
  -18509   -20709   -20827   -19963   -20082   -19978   -20047   -20262 
  -19248   -19224   -20871   -20999   -19963   -19423   -18989   -19552 
  -21212   -21251   -19434   -19156   -20433   -20285   -19387   -19830 
  -20560   -20232   -19730   -19548   -19905   -20764   -20445   -19782 
  -19805   -19183   -19572   -21217   -21278   -20121   -19047   -18474 
  -19307   -21505   -22072   -18941   -17683   -20812   -21536   -19920 
  -19958   -19641   -19560   -20625   -20653   -19755   -19267   -20085 
  -20522   -19646   -19757   -20039   -19872   -20679   -20884   -19564 
  -18669   -19812   -21116   -20056   -19508   -20826   -20305   -18912 
  -19766   -20842   -20555   -20133   -19526   -18598   -19170   -21332 
  -21479   -19515   -19492   -20422   -19903   -19700   -20137   -20002 
  -19812   -20247   -20613   -20008   -19458   -19882   -20011   -19732 
  -20310   -20756   -19889   -19060   -19503   -20700   -21024   -19818 
  -19014   -19885   -20775   -20401   -19878   -20042   -20100   -19612 
  -19452   -20067   -20410   -20251   -20054   -19624   -19946   -20663 
  -19899   -19276   -20108   -20426   -20043   -20189   -20231   -19521 
  -19423   -20182   -20517   -20868   -20349   -18581   -18974   -20761 
  -20903   -20425   -19765   -19228   -19792   -20305   -20471   -20351 
  -19575   -19727   -20383   -19890   -19678   -20129   -20116   -20000 
  -19988   -20109   -20555   -20245   -19160   -19530   -20964   -20598 
  -19317   -19519   -20185   -20394   -20484   -19980   -19340   -19483 
  -20271   -20733   -20128   -19572   -19693   -20048   -20671   -20206 
  -19217   -19936   -20449   -19820   -19853   -20320   -20364   -19642 
  -19469   -20162   -20021   -20402   -20769   -19539   -19620   -20297 
  -19773   -20098   -20374   -19797   -19954   -20194   -19705   -19708 
  -20703   -20646   -19174   -19271   -20691   -20578   -19907   -20164 
  -19572   -18551   -19893   -21814   -21115   -19452   -19087   -19488 
  -20066   -20833   -20931   -19728   -18665   -19333   -21107   -21531 
  -19754   -18732   -19467   -19940   -20579   -21188   -20038   -18616 
  -19178   -20717   -21096   -20340   -19465   -19228   -19908   -20409 
  -20366   -20039   -19678   -20281   -20421   -19259   -19399   -20645 
  -20750   -20008   -19600   -19780   -20164   -20336   -19839   -19643 
  -20429   -20386   -19927   -20038   -19502   -19720   -20858   -20277 
  -19421   -19784   -19885   -19965   -20418   -20602   -20271   -19376 
  -19176   -20337   -20876   -20031   -19572   -19795   -19928   -20440 
  -20636   -19905   -19442   -19252   -19757   -21276   -21208   -19519 
  -19226   -19693   -19290   -19894   -21541   -21031   -18982   -18665 
  -19637   -20359   -21149   -21093   -19639   -18879   -19569   -20267 
  -20444   -20520   -20264   -19498   -19367   -20317   -20815   -20274 
  -19535   -19110   -19542   -20326   -20563   -20748   -20449   -19607 
  -19453   -19589   -19986   -20806   -20440   -19098   -19241   -20845 
  -21065   -19889   -19469   -19426   -19909   -21078   -20493   -18882 
  -19229   -20726   -21215   -20247   -18912   -19114   -20293   -20162 
  -19691   -20439   -20775   -20036   -20000   -20177   -19356   -19321 
  -20252   -20602   -20590   -19997   -19098   -19191   -20144   -21035 
  -20943   -19575   -18393   -19376   -21371   -21180   -19673   -19507 
  -19677   -19776   -20722   -20920   -19899   -19309   -19548   -19877 
  -19913   -20339   -20648   -19943   -19893   -20525   -19886   -19384 
  -20355   -20368   -18995   -19261   -20888   -20791   -19699   -19940 
  -20294   -19884   -20021   -19896   -19561   -20529   -20449   -19059 
  -19519   -20274   -20370   -21240   -20372   -18671   -19854   -20763 
  -19402   -19303   -20520   -20240   -19589   -20939   -21359   -18959 
  -18017   -19662   -21384   -21963   -20312   -18130   -18347   -20286 
  -21559   -20934   -19774   -19492   -19060   -19244   -21050   -21398 
  -19751   -19202   -19580   -19943   -20711   -20795   -19650   -19018 
  -19884   -20684   -20560   -20289   -19796   -19514   -19881   -20166 
  -20312   -20189   -19920   -19673   -19066   -19483   -20926   -21324 
  -20896   -19772   -18300   -18798   -20826   -21787   -20892   -19016 
  -18004   -19001   -20713   -21479   -21373   -20345   -18203   -17716 
  -20752   -22798   -20746   -18477   -18485   -19853   -21432   -21192 
  -19596   -18883   -19253   -20679   -21527   -20042   -18796   -19577 
  -20889   -20937   -19371   -18806   -19782   -20561   -21478   -20858 
  -18685   -18639   -20109   -20561   -19851   -19840   -20985   -20456 
  -19350   -20007   -20348   -20321   -20406   -19102   -18365   -20094 
  -21525   -20763   -19650   -19534   -19834   -19965   -19467   -19161 
  -20479   -21493   -20521   -19462   -19083   -19418   -20790   -21209 
  -20023   -19302   -19348   -19579   -20536   -21149   -20422   -19838 
  -19280   -18671   -19901   -21313   -20914   -20221   -19554   -18864 
  -19406   -20664   -21023   -20750   -20503   -19259   -18067   -19479 
  -21610   -21635   -20511   -19075   -18025   -19425   -21412   -20984 
  -20169   -19774   -18728   -19271   -21062   -21000   -20024   -19527 
  -18986   -19222   -20785   -21567   -19915   -18712   -20204   -21319 
  -20476   -19303   -18835   -19722   -20680   -20258   -19803   -19944 
  -20425   -20587   -19215   -19026   -20881   -20615   -19535   -19805 
  -19467   -20009   -21401   -20796   -19650   -19303   -19059   -19421 
  -20459   -21406   -20883   -19047   -19097   -20370   -20106   -20278 
  -20960   -20039   -19070   -19201   -19701   -20386   -20904   -20174 
  -18824   -19461   -21097   -20700   -19533   -19854   -20652   -20108 
  -19292   -19832   -20150   -20128   -20823   -20244   -18989   -19350 
  -20256   -21189   -21533   -19680   -17968   -19187   -21073   -20715 
  -19426   -19589   -20475   -20532   -20197   -19904   -19151   -19122 
  -20763   -21124   -19510   -19263   -20208   -20586   -20721   -20757 
  -20220   -19211   -19005   -19276   -19534   -20904   -21435   -20147 
  -19826   -19836   -18752   -18727   -20297   -21574   -21398   -19720 
  -18183   -18704   -20586   -21354   -20622   -20156   -19631   -18814 
  -19765   -21000   -20382   -20225   -20800   -20009   -18675   -18816 
  -20503   -21277   -20386   -19719   -19209   -19280   -20557   -20937 
  -20313   -19556   -19083   -20019   -20690   -20460   -20351   -19344 
  -18987   -20144   -20239   -19813   -20254   -19920   -18262   -17905 
  -19770   -21313   -21780   -21274   -19003   -17739   -20062   -23031 
  -23363   -21178   -18198   -16803   -18316   -21412   -23306   -21523 
  -17041   -14859   -17833   -22851   -24872   -22640   -19323   -17902 
  -18269   -19734   -22110   -23222   -20806   -16945   -16721   -21224 
  -25035   -24102   -20221   -16641   -15804   -17984   -20551   -22092 
  -22609   -20842   -18250   -18330   -19558   -19144   -19259   -21132 
  -21506   -19678   -18747   -19815   -21483   -21921   -20426   -17849 
  -15835   -18088   -24305   -24869   -17200   -14427   -21460   -25084 
  -20083   -16455   -17616   -19481   -21695   -23701   -23008   -19504 
  -16187   -16409   -19711   -22183   -21095   -18523   -19251   -22813 
  -22933   -18621   -16721   -19932   -22913   -21928   -19113   -18049 
  -20283   -22270   -19344   -15793   -17772   -22071   -23346   -21020 
  -17786   -16646   -19197   -24236   -25350   -19828   -15052   -16181 
  -21104   -25362   -23592   -16761   -14746   -20599   -24537   -21293 
  -16212   -15128   -19954   -25587   -24075   -17594   -15211   -18607 
  -22149   -22786   -21849   -19764   -16873   -17242   -22060   -24659 
  -21077   -16748   -16730   -19138   -21536   -22902   -21382   -18709 
  -17648   -17632   -19959   -23886   -23025   -17865   -16456   -19858 
  -22446   -21818   -19697   -18567   -18781   -18891   -19728   -22088 
  -22766   -20291   -17832   -17541   -19440   -21786   -22131   -21031 
  -19391   -18006   -18505   -19893   -21618   -22978   -20968   -17567 
  -17483   -20201   -21697   -20023   -18900   -20800   -21143   -19041 
  -19005   -19780   -20013   -22295   -22434   -17702   -15920   -19657 
  -23060   -23387   -20854   -17474   -16869   -19431   -22485   -23178 
  -20012   -16822   -18269   -21224   -21720   -20218   -18262   -19149 
  -21612   -20578   -18789   -19561   -19957   -19672   -20649   -21374 
  -20196   -19500   -20318   -19522   -18153   -19687   -22315   -22681 
  -20331   -17849   -17741   -19402   -21258   -22361   -21253   -17709 
  -16420   -19988   -22524   -21338   -20067   -19159   -18436   -19408 
  -21112   -21347   -20142   -19749   -20054   -19499   -19399   -20083 
  -20295   -20112   -19839   -20198   -21100   -20682   -18808   -18631 
  -20498   -20297   -19161   -20383   -20472   -18706   -19252   -21154 
  -21863   -21367   -19246   -17150   -18931   -22376   -21423   -19360 
  -20916   -20634   -18068   -19012   -20993   -21209   -20906   -19238 
  -18029   -19461   -20603   -21042   -22401   -21263   -17362   -16988 
  -20561   -22458   -21139   -19300   -18860   -19492   -20655   -21447 
  -20518   -19345   -19313   -18982   -19438   -21647   -21361   -18216 
  -18006   -20933   -21801   -19834   -18739   -19742   -20490   -20005 
  -19789   -20871   -21485   -19377   -17408   -19126   -21965   -22383 
  -19803   -17290   -18993   -21820   -21216   -19642   -19006   -18785 
  -20089   -22164   -21926   -19480   -18299   -19062   -19668   -20235 
  -21096   -20896   -19768   -19225   -19718   -19710   -19053   -20224 
  -21694   -20179   -18546   -20116   -21799   -20301   -18393   -19330 
  -21007   -20487   -19394   -19896   -20213   -20027   -20753   -20285 
  -18949   -19803   -20353   -19021   -19816   -22002   -21016   -18850 
  -19121   -19691   -19342   -20252   -21601   -20945   -19160   -18879 
  -20081   -20382   -20250   -20777   -19990   -18804   -19738   -20957 
  -20645   -19853   -19218   -18995   -20020   -21226   -21246   -20649 
  -19218   -18592   -20721   -21465   -19446   -19068   -20035   -20568 
  -20973   -19857   -18864   -19953   -19953   -19294   -20395   -20808 
  -20425   -20611   -19323   -18031   -19801   -21844   -21227   -19519 
  -19008   -19703   -20217   -20445   -20128   -19091   -19155   -19873 
  -20086   -20592   -20664   -20282   -19834   -18902   -19240   -20625 
  -20872   -20306   -19376   -18944   -20279   -21454   -20609   -19387 
  -19349   -20218   -20935   -20578   -19714   -19129   -19453   -21116 
  -21475   -19191   -18145   -19921   -21685   -21509   -19687   -18403 
  -19249   -20657   -20953   -20470   -19653   -19039   -19637   -20815 
  -20725   -19669   -19287   -19568   -20074   -20491   -19926   -19462 
  -20339   -20568   -19570   -19761   -20796   -20169   -19228   -19840 
  -19974   -19828   -20765   -20328   -19052   -20256   -21610   -19568 
  -17377   -19286   -21932   -21095   -19753   -20069   -19935   -19576 
  -19602   -19622   -20723   -21740   -20713   -19252   -18686   -18860 
  -20167   -21462   -20916   -19611   -19534   -19980   -19940   -20136 
  -20387   -20272   -20277   -19754   -18981   -19718   -21174   -21058 
  -19519   -18913   -19616   -19846   -20178   -20952   -20497   -19761 
  -19639   -19363   -19870   -20691   -20413   -19758   -19387   -19998 
  -20640   -19897   -19753   -20036   -19383   -19921   -21028   -20121 
  -18863   -19398   -20634   -20956   -20274   -19269   -18860   -19602 
  -20575   -21151   -21450   -20244   -18327   -18850   -20769   -21046 
  -20073   -19323   -19724   -20572   -20042   -19791   -20910   -20179 
  -18382   -19429   -21096   -20787   -20702   -20277   -18620   -18933 
  -21097   -21444   -19807   -19209   -20090   -20236   -19888   -19962 
  -19812   -19893   -20146   -19957   -19791   -19537   -19919   -21014 
  -20634   -19398   -18954   -18972   -20340   -21957   -20829   -18744 
  -18592   -19751   -20954   -21093   -20002   -19141   -19292   -20225 
  -20973   -20459   -19545   -19543   -20187   -20529   -20417   -20019 
  -18887   -18972   -21382   -21732   -19407   -19197   -20656   -20121 
  -18878   -19878   -21105   -20035   -19350   -20587   -20583   -19025 
  -19330   -21049   -20902   -19633   -19765   -20187   -19633   -19620 
  -20243   -20048   -19429   -19778   -20758   -20348   -19429   -20110 
  -20417   -19820   -19996   -19977   -19786   -20148   -20336   -20139 
  -19894   -20194   -19965   -18658   -19267   -21431   -21286   -19515 
  -19167   -20125   -20294   -19390   -19198   -20183   -21282   -21504 
  -19936   -17906   -18669   -21401   -21567   -19546   -19402   -20150 
  -19808   -20297   -20989   -19708   -18652   -19791   -21185   -21037 
  -19688   -19041   -20244   -20887   -19772   -19611   -20245   -19917 
  -19931   -20262   -19921   -20050   -20358   -19580   -19369   -20310 
  -19854   -19165   -20460   -20993   -20050   -19872   -19842   -19413 
