Origin Time       2025/03/30 21:30:00
Lat.              38.535
Long.             142.295
Depth. (km)       44
Mag.              4.3
Station Code      MYG011
Station Lat.      38.3020
Station Long.     141.5079
Station Height(m) 12
Record Time       2025/03/30 21:31:18
Sampling Freq(Hz) 100Hz
Duration Time(s)  60
Dir.              N-S
Scale Factor      7845(gal)/8223790
Max. Acc. (gal)   6.229
Last Correction   2025/03/30 21:31:18
Memo.             
[...]
    3557     3557     3557     3555     3557     3554     3554     3555 
    3555     3555     3557     3555     3551     3551     3555     3555 
    3554     3557     3557     3555     3557     3555     3554     3554 
    3553     3553     3555     3555     3553     3553     3554     3555 
    3557     3553     3553     3555     3557     3555     3555     3557 
    3555     3554     3554     3554     3553     3551     3555     3555 
    3554     3555     3555     3553     3553     3554     3554     3554 
    3555     3555     3555     3554     3554     3554     3555     3555 
    3555     3554     3554     3554     3553     3554     3554     3554 
    3553     3555     3555     3555     3555     3554     3555     3554 
    3555     3557     3555     3555     3557     3557     3555     3554 
    3555     3555     3553     3553     3555     3557     3554     3554 
    3555     3557     3557     3555     3555     3554     3554     3554 
    3555     3555     3557     3557     3554     3553     3554     3555 
    3553     3554     3557     3553     3554     3558     3555     3554 
    3555     3554     3555     3555     3553     3553     3555     3555 
    3555     3557     3555     3553     3555     3557     3554     3555 
    3558     3555     3554     3555     3558     3555     3553     3557 
    3558     3554     3554     3557     3557     3554     3555     3557 
    3557     3558     3557     3553     3554     3557     3558     3557 
    3554     3555     3558     3555     3553     3557     3559     3557 
    3555     3558     3557     3555     3555     3554     3555     3557 
    3555     3554     3554     3557     3557     3555     3555     3555 
    3554     3555     3557     3557     3555     3553     3555     3555 
    3553     3555     3557     3555     3554     3554     3554     3555 
    3555     3554     3554     3554     3554     3555     3555     3553 
    3554     3557     3555     3553     3554     3555     3554     3554 
    3554     3554     3557     3557     3555     3555     3555     3554 
    3555     3553     3554     3557     3557     3557     3555     3554 
    3555     3555     3554     3555     3557     3557     3554     3553 
    3557     3557     3553     3553     3555     3555     3554     3553 
    3555     3555     3554     3555     3557     3557     3554     3551 
    3554     3555     3553     3554     3555     3554     3553     3554 
    3555     3554     3554     3555     3557     3557     3558     3557 
    3554     3555     3555     3553     3554     3554     3553     3557 
    3557     3554     3557     3557     3554     3554     3554     3557 
    3557     3554     3553     3554     3557     3555     3554     3555 
    3555     3555     3554     3551     3551     3555     3555     3554 
    3555     3557     3554     3551     3554     3558     3555     3554 
    3557     3557     3554     3554     3554     3553     3555     3555 
    3554     3555     3555     3554     3555     3555     3554     3555 
    3557     3555     3555     3555     3553     3554     3555     3554 
    3555     3557     3558     3554     3553     3554     3557     3555 
    3557     3557     3557     3557     3555     3555     3554     3553 
    3554     3555     3557     3554     3554     3557     3558     3555 
    3557     3555     3553     3555     3558     3557     3554     3555 
    3558     3558     3555     3555     3555     3555     3555     3553 
    3553     3554     3554     3557     3558     3554     3554     3557 
    3554     3553     3554     3555     3553     3551     3554     3555 
    3557     3555     3554     3554     3554     3555     3555     3554 
    3554     3555     3555     3554     3555     3555     3554     3554 
    3557     3555     3551     3551     3555     3555     3554     3554 
    3555     3554     3553     3554     3555     3555     3553     3554 
    3555     3557     3557     3555     3555     3558     3557     3554 
    3554     3554     3554     3554     3554     3555     3555     3553 
    3554     3557     3557     3554     3553     3554     3555     3557 
    3557     3555     3555     3555     3554     3554     3554     3554 
    3555     3557     3554     3553     3554     3557     3555     3554 
    3557     3555     3554     3557     3558     3554     3554     3555 
    3555     3557     3555     3554     3555     3557     3554     3554 
    3555     3555     3554     3554     3554     3553     3555     3558 
    3558     3557     3559     3562     3568     3572     3562     3546 
    3542     3554     3557     3538     3523     3530     3553     3591 
    3604     3538     3450     3491     3653     3708     3550     3383 
    3445     3634     3655     3566     3546     3499     3476     3642 
    3682     3464     3547     3762     3615     3492     3350     3177 
    3599     4027     3724     3356     3237     3346     3854     3886 
    3476     3582     3505     3229     3581     3939     3647     3271 
    3524     3655     3450     3650     3568     3388     3636     3532 
    3492     3708     3342     3187     3809     3923     3437     3402 
    3709     3699     3658     3832     3346     3095     3670     3526 
    3634     3893     3014     3137     4126     3937     3303     3177 
    3592     4051     3781     3281     3296     3310     3739     4248 
    3434     3022     3370     3496     4153     3885     3026     3345 
    3588     3501     3512     3542     3593     3758     4075     3582 
    3067     3414     3466     3507     3905     3736     3315     3466 
    3476     3148     3511     4063     3970     3566     3281     3188 
    3269     3858     4116     3391     3211     3655     3585     3493 
    3692     3731     3663     3755     3605     3106     3206     3584 
    3686     3936     3472     2874     3608     4178     3661     3107 
    3331     3834     3659     3453     3635     3628     3226     3295 
    4132     3820     3075     3754     4043     3375     3005     3273 
    3842     3673     3423     3844     3721     3213     3343     3685 
    3665     3485     3539     3758     3778     3457     3051     3369 
    3881     3758     3875     3504     2983     3740     3817     3261 
    3493     3595     3585     3751     3576     3160     3315     3927 
    3960     3456     3144     3500     3906     3555     3276     3719 
    3889     3345     3391     3708     3403     3628     3701     3393 
    3690     3524     3553     3751     3283     3538     3646     3395 
    3829     3662     3393     3715     3519     3403     3649     3585 
    3574     3422     3300     3581     3451     3464     3708     3553 
    3839     3755     3160     3434     3707     3619     3685     3646 
    3456     3227     3403     3870     3940     3518     3164     3345 
    3591     3840     3738     3087     3488     3987     3438     3512 
    3597     3362     3605     3549     3599     3676     3399     3650 
    3736     3447     3589     3642     3451     3499     3844     3740 
    3146     3399     3566     3207     3823     3847     3271     3686 
    3546     3435     3859     3431     3611     3877     3003     3202 
    3788     3584     3847     3608     3240     3785     3646     3483 
    3832     3312     3149     3753     3539     3485     3820     3335 
    3481     4040     3612     3454     3499     3304     3573     3944 
    3604     2848     3339     4118     3558     3464     3719     3279 
    3534     3901     3392     3387     3778     3707     3510     3200 
    3457     3960     3739     3651     3454     3315     3624     3291 
    3322     3888     3665     3442     3682     3681     3379     3518 
    3958     3646     3254     3501     3437     3377     3797     3861 
    3608     3321     3150     3451     3828     3767     3600     3761 
    3465     3090     3549     3527     3450     4025     3820     3195 
    3040     3551     4058     3600     3435     3719     3609     3582 
    3276     3238     3969     3879     3233     3364     3686     3462 
    3429     3878     3663     3172     3402     3700     3628     3464 
    3604     3946     3981     3595     3121     3194     3747     4009 
    3416     2911     3397     3576     3674     4062     3551     3473 
    3646     3167     3600     3720     3150     3677     4051     3522 
    3306     3557     3604     3516     3701     3808     3578     3379 
    3419     3381     3423     3673     3642     3474     3277     3578 
    4102     3460     3345     4120     3443     3087     3834     3404 
    3339     4247     3543     2806     3835     3969     3192     3235 
    3235     3591     4075     3655     3485     3414     3387     3986 
    4054     3539     3295     3329     3458     3573     3364     3316 
    3717     3527     3681     3959     3067     3302     4252     3821 
    3377     3523     3473     3426     3940     3874     2972     3186 
    3524     3082     3782     4183     3161     3418     3932     3307 
    3856     4213     3150     3260     3627     3315     3786     3790 
    3269     3584     3716     3342     3226     3470     3693     3624 
    3596     3811     3744     3192     3461     3991     3262     3319 
    3947     3308     3449     3923     3315     3447     3736     3532 
    3905     3734     3132     3213     3543     4133     4117     3308 
    3208     3192     3037     3901     4220     3161     3198     4029 
    3576     3221     3640     3670     3736     3796     3316     3006 
    3468     4162     3936     3127     2978     3550     3786     3446 
    3798     3804     3132     3743     4033     3596     3484     3014 
    3431     3735     3223     3932     4195     3376     3267     3507 
    3443     3289     3412     3620     3874     3730     3169     3902 
    4537     3438     2911     3171     3433     3831     3461     3316 
    3532     3246     3608     4171     4095     3191     2853     4109 
    3738     3090     3946     3308     3585     4349     2683     2987 
    4355     3449     3343     3917     3534     3249     3508     3839 
    3489     3366     3649     3565     3863     3619     2921     3350 
    3778     3870     3808     3507     3635     3237     3339     3991 
    3076     3400     4337     3306     3447     4144     3611     3345 
    3376     3395     3183     3192     3762     3956     3672     3334 
    3376     3626     3620     3869     3904     3414     3520     3573 
    3252     3466     3489     3349     3387     3470     3933     3685 
    3276     3967     3762     3241     4031     3740     3141     3859 
    3420     2872     3620     3716     3673     3585     3227     3577 
    3391     3190     3928     4093     3956     3566     3148     3901 
    3942     2783     2964     3807     3665     3802     3983     3164 
    2964     3346     3477     3925     3596     3186     4029     4172 
    3728     3445     3099     3735     3790     2976     3298     3622 
    3821     4062     3211     3206     4131     3553     3056     3311 
    3458     4279     3842     2674     3433     4054     3688     3615 
    3187     3072     4329     4275     3167     3705     3331     2681 
    3765     3559     3450     4301     3395     3237     4152     3474 
    2967     2965     3163     4233     3982     3446     4124     3743 
    3372     3593     3473     3676     3281     3184     3748     3331 
    3260     3858     3690     3140     3439     4086     4004     3647 
    3302     3820     4330     3064     2826     3653     2690     2714 
    4256     4120     3721     3825     3703     3933     3304     3213 
    4166     3261     2934     3862     3179     3395     4428     3254 
    2668     3975     3838     3036     4064     4457     3258     3245 
    3792     3168     2852     3699     4055     3717     3507     3252 
    3707     3861     3177     3635     3736     3271     3829     3906 
    3770     3408     2737     3765     4303     3130     3032     3430 
    3376     3827     3743     3063     3785     4552     3508     2913 
    3634     3758     3419     3665     3680     3198     3375     3883 
    3412     2990     4126     4125     2824     3584     3780     3277 
    4222     3331     2693     4122     3870     3319     3863     3719 
    3319     3613     3777     3133     2984     3187     3321     4162 
    4230     3684     3399     2884     3595     4448     3535     3100 
    4005     3786     2997     3804     3742     2579     3183     3883 
    3736     3754     3643     3812     3657     2956     3487     4148 
    3445     3334     3959     3858     3591     3576     3334     2867 
    3150     4122     4008     3269     3445     4060     4279     3396 
    3238     4583     3873     2883     3780     3906     3924     3395 
    2544     3246     3184     3056     3767     3916     4179     3543 
    3148     4132     3823     3410     3558     2790     3244     3912 
    2668     2428     2835     2786     3913     3967     3476     4522 
    4109     3102     4035     4028     2120     2165     4261     4958 
    4850     4116     2076     1667     1937     1333     3480     6608 
    7722     7338     3445     1945     4116       59    -1067     5944 
    6953     3734     1634     1259     5695     6527     3002     2253 
    1213     1888     4347     3372     3677     5957     5583     5229 
    3257     -777     1278     4519     2839     4438     8438     6524 
    1471     1678     4202     2631     2251     3343     3769     3632 
    1242     5271     8172      973     1598     4968     1119     2722 
    4835     3705     5977     4781     2461     6003     4248    -2975 
    -575     5717     4907     5309     8592     4916     -916     2245 
    5103      810     2230     5086     2928     5464     5958     1624 
    2343     3118      846      961     4957     8257     4209      733 
    6058     8456     2836      460     3924     4388     1128     1640 
    3959     4024     4222     2713     2574     7071     7069     2404 
     194     1792     3954     1204     1495     7508     7342     5370 
    3661    -1057     2490     6709     2205     3846     5761      101 
    1659     6145     5314     2135    -1740     3141     8673     4707 
    4189     2597     -364     6466     7138     1113     3298     3558 
    1471     5198     4587      828     4009     6297     2791     1919 
    4406     4688     3805     3391     3500     4175     2570     1682 
    4333     4603     2551     2486     3883     4747     3223     2218 
    4275     4665     2451     1269     2758     5610     4807     2708 
    3337     2926     3599     5827     5177     3834     3113     3727 
    4723     3150     2716     2544     1120     3562     4519     2504 
    4537     4527     2695     4259     3152     3534     6164     2961 
    2191     4579     2721     3661     4830      677     1246     4958 
    3765     3618     4977     4194     4336     3855     2798     3970 
    4199     3152     3150     2926     2593     3620     4368     3439 
    2247     2359     4935     6343     3196     1746     3605     3580 
    3141     3844     3703     3400     4788     4414      918     2328 
    6083     3608     2397     5522     5044     3019     3045     2609 
    1952     1942     4267     6628     3510     1934     4437     3412 
    2853     3847     2513     3915     5749     2940     2770     5016 
    3007     2674     3765     1642     3129     5077     2957     3588 
    5003     3878     2933     4014     4941     1888     2070     5244 
    2655     2397     5633     4662     3541     3252     2303     2212 
    2633     3635     4203     4649     4287     2469     4351     5705 
    2340     2247     3406     3418     5211     4068     1871     3491 
    4823     2822     2332     4260     3605     3426     3767     2411 
    3983     5576     4340     3194     2628     3149     3385     2573 
    3330     4993     4172     2690     3225     3758     4029     3561 
    3385     5115     3330     1336     3877     3643     3657     5653 
    2571     1089     3632     4045     4224     3600     2660     4707 
    5431     3565     2515     1921     2290     4815     6116     3391 
    1906     4476     4291     1431     1957     3585     3921     4665 
    4279     3226     4502     4553     2620     3466     3385     1657 
    3280     4367     4471     5335     2836     1503     4527     4426 
    1981     3021     4221     3323     3990     4779     2814     2555 
    4758     3559     1945     4020     4630     3427     3808     3979 
    2604     2884     5246     4372     2556     3235     1814     2025 
    6170     5088     1717     3735     4737     2905     2832     3346 
    4461     4545     2731     2862     4137     4329     2886     2424 
    4052     3123     2971     4117     2691     5058     5657     1352 
    3460     4376     1672     3946     4218     3611     4895     2832 
    2956     4784     2312     1736     5008     5174     3109     3769 
    3778     2189     3746     3604     2108     4822     4303     3015 
    4831     2740     2756     4698     2585     3392     4720     2766 
    3477     4703     3523     3098     3299     3063     2893     3635 
    4550     3839     3322     3618     3800     3688     2709     2898 
    3724     4012     4179     3176     3276     3543     2613     3898 
    4495     3172     3607     4349     4469     3909     2436     2266 
    3194     4139     4210     3406     3389     3237     4086     4912 
    2058     1625     4530     4083     3507     4191     3530     3576 
    3435     2731     3551     4309     3983     3537     3188     3126 
    4109     4658     3321     3485     3937     2126     2906     4930 
    3754     2313     3215     4760     3829     1861     2528     4347 
    4579     4094     3939     2999     2438     3712     4302     3361 
    3141     3960     3921     3005     3410     4259     3419     3036 
    3746     3508     3551     3881     3456     3863     3689     2243 
    3616     5352     3404     2932     3932     2820     3731     4892 
    2520     2523     4436     2525     2235     4842     4016     4276 
    5325     1979     2290     5197     3056     2506     4276     3122 
    3481     4595     2928     3329     4125     2724     3429     3595 
    3416     5063     3715     2929     4064     2299     2214     4313 
    4174     4044     4581     3808     2903     3327     3893     3046 
    2223     3777     5510     3902     1738     3114     4923     3550 
    2297     3350     3939     3836     4182     3866     3677     3866 
    2747     3103     4425     2797     3252     5217     3381     3014 
    3024     1509     4322     5645     2289     2663     5256     4199 
    2502     3011     3327     3670     4843     4135     2751     3275 
    3985     3588     2590     2074     3245     4903     4538     2970 
    2983     4155     4116     3430     3649     3480     3473     4683 
    3692     2161     3707     3437     1872     4352     5501     2647 
    2812     4959     3643     2103     3183     4202     3848     3441 
    3952     4452     3762     2678     2948     3360     3036     3767 
    4360     4221     3801     2793     2897     3164     3672     4773 
    3392     3005     4885     3380     1875     3963     4145     2826 
    3717     4399     4194     3865     2922     2455     2825     4006 
    4303     2839     3117     4002     3249     3812     4203     2556 
