Origin Time       2025/03/30 21:30:00
Lat.              38.535
Long.             142.295
Depth. (km)       44
Mag.              4.3
Station Code      MYG007
Station Lat.      38.5877
Station Long.     141.2510
Station Height(m) 4
Record Time       2025/03/30 21:31:22
Sampling Freq(Hz) 100Hz
Duration Time(s)  60
Dir.              U-D
Scale Factor      7845(gal)/8223790
Max. Acc. (gal)   1.901
Last Correction   2025/03/30 21:31:22
Memo.             
[...]
  -46224   -46224   -46222   -46224   -46226   -46226   -46224   -46222 
  -46228   -46229   -46225   -46224   -46226   -46225   -46221   -46219 
  -46225   -46226   -46222   -46224   -46228   -46225   -46221   -46219 
  -46221   -46222   -46221   -46221   -46224   -46226   -46228   -46225 
  -46226   -46229   -46228   -46224   -46222   -46225   -46225   -46222 
  -46221   -46224   -46224   -46222   -46224   -46226   -46228   -46225 
  -46224   -46225   -46228   -46225   -46222   -46225   -46228   -46224 
  -46221   -46226   -46229   -46226   -46222   -46224   -46228   -46225 
  -46219   -46219   -46222   -46224   -46222   -46219   -46224   -46228 
  -46225   -46224   -46226   -46229   -46229   -46226   -46224   -46228 
  -46228   -46224   -46224   -46226   -46224   -46222   -46224   -46224 
  -46222   -46221   -46218   -46219   -46222   -46222   -46224   -46224 
  -46222   -46222   -46224   -46224   -46221   -46219   -46219   -46222 
  -46228   -46225   -46218   -46224   -46230   -46225   -46219   -46222 
  -46226   -46228   -46224   -46224   -46222   -46221   -46221   -46219 
  -46219   -46222   -46221   -46221   -46222   -46222   -46221   -46221 
  -46222   -46226   -46228   -46225   -46226   -46228   -46225   -46224 
  -46226   -46228   -46226   -46222   -46221   -46224   -46225   -46222 
  -46217   -46219   -46224   -46222   -46221   -46224   -46228   -46229 
  -46226   -46226   -46226   -46225   -46224   -46225   -46224   -46222 
  -46222   -46224   -46224   -46224   -46222   -46219   -46222   -46224 
  -46221   -46221   -46225   -46228   -46224   -46222   -46228   -46228 
  -46224   -46224   -46226   -46228   -46222   -46219   -46221   -46219 
  -46218   -46218   -46217   -46217   -46221   -46222   -46222   -46224 
  -46222   -46224   -46225   -46225   -46224   -46224   -46222   -46224 
  -46222   -46221   -46222   -46225   -46228   -46228   -46225   -46228 
  -46228   -46221   -46215   -46218   -46219   -46215   -46215   -46221 
  -46225   -46226   -46225   -46226   -46230   -46229   -46226   -46226 
  -46228   -46224   -46221   -46224   -46224   -46218   -46218   -46219 
  -46219   -46219   -46217   -46218   -46224   -46224   -46222   -46224 
  -46225   -46226   -46228   -46225   -46225   -46229   -46228   -46224 
  -46222   -46221   -46218   -46215   -46214   -46214   -46218   -46225 
  -46232   -46240   -46244   -46242   -46237   -46237   -46242   -46245 
  -46236   -46224   -46211   -46213   -46233   -46229   -46176   -46137 
  -46157   -46201   -46217   -46197   -46213   -46280   -46292   -46253 
  -46256   -46264   -46246   -46210   -46198   -46286   -46321   -46136 
  -45962   -46098   -46429   -46576   -46380   -46098   -46093   -46341 
  -46471   -46330   -46028   -45783   -45901   -46251   -46390   -46300 
  -46161   -46040   -46032   -46113   -46278   -46531   -46500   -46165 
  -46160   -46422   -46457   -46326   -46072   -45820   -45933   -46283 
  -46543   -46646   -46390   -45813   -45742   -46327   -46542   -46228 
  -46049   -46151   -46375   -46375   -46067   -45906   -46152   -46612 
  -46522   -45752   -45640   -46461   -46935   -46637   -46114   -45981 
  -46359   -46495   -46024   -45752   -46125   -46569   -46575   -46241 
  -45956   -45778   -45689   -46032   -46661   -46857   -46390   -45875 
  -46005   -46448   -46465   -46244   -46256   -46338   -46228   -46001 
  -45937   -46287   -46688   -46388   -45624   -45527   -46251   -46726 
  -46569   -46314   -46148   -46134   -46306   -46233   -45860   -45731 
  -45937   -46241   -46674   -46958   -46600   -45902   -45538   -45733 
  -46387   -46997   -46834   -46017   -45665   -46207   -46623   -46376 
  -46109   -45918   -45825   -46248   -46572   -46269   -45987   -46072 
  -46383   -46473   -45978   -45740   -46321   -46714   -46429   -46203 
  -46314   -46360   -46230   -46030   -45971   -46279   -46469   -46106 
  -45825   -46059   -46353   -46413   -46323   -46275   -46364   -46299 
  -45971   -45877   -46218   -46576   -46462   -45995   -45916   -46364 
  -46665   -46384   -45756   -45538   -46165   -46892   -46754   -46072 
  -45748   -45952   -46383   -46642   -46494   -46213   -46110   -46036 
  -45967   -46202   -46406   -46164   -46070   -46361   -46387   -46138 
  -46307   -46785   -46573   -45725   -45630   -46452   -46808   -46294 
  -45715   -45605   -46136   -46791   -46583   -45864   -45785   -46283 
  -46597   -46452   -46047   -45816   -46009   -46429   -46677   -46488 
  -46083   -45894   -45922   -46136   -46461   -46565   -46387   -46017 
  -45777   -46057   -46460   -46623   -46614   -46287   -45956   -45998 
  -46103   -46187   -46292   -46128   -45968   -46330   -46619   -46294 
  -46041   -46164   -46315   -46408   -46248   -45901   -45863   -46194 
  -46542   -46506   -46137   -46183   -46548   -46295   -45827   -45979 
  -46367   -46465   -46205   -45964   -46168   -46338   -46182   -46126 
  -46172   -46272   -46456   -46452   -46314   -46114   -45817   -45860 
  -46344   -46610   -46330   -46010   -46122   -46249   -46205   -46552 
  -46851   -46408   -45944   -45979   -46157   -46133   -45809   -45841 
  -46479   -46786   -46564   -46251   -46009   -46051   -46122   -46016 
  -46103   -46159   -45989   -46180   -46504   -46314   -46175   -46357 
  -46188   -45901   -46017   -46260   -46457   -46661   -46728   -46592 
  -46317   -45990   -45864   -46080   -46206   -46055   -46090   -46261 
  -46214   -46171   -46174   -45994   -45967   -46332   -46548   -46377 
  -46265   -46330   -46413   -46287   -45794   -45601   -46151   -46700 
  -46633   -46175   -46087   -46596   -46666   -45971   -45750   -46257 
  -46485   -46380   -46236   -45831   -45758   -46309   -46407   -46032 
  -46078   -46238   -46083   -46068   -46400   -46649   -46477   -46171 
  -46138   -46241   -46292   -46411   -46371   -46045   -46025   -46388 
  -46564   -46376   -45870   -45557   -45887   -46198   -46244   -46445 
  -46477   -46264   -46191   -46155   -46246   -46456   -46295   -46097 
  -46334   -46453   -46095   -45750   -46024   -46734   -46985   -46556 
  -45883   -45481   -45831   -46404   -46372   -46153   -46236   -46083 
  -45623   -45775   -46585   -47125   -46990   -46383   -45928   -46028 
  -46244   -46241   -46141   -46039   -45976   -45997   -46183   -46348 
  -46234   -46191   -46400   -46487   -46407   -46259   -45970   -45785 
  -45940   -46202   -46267   -46218   -46279   -46417   -46516   -46471 
  -46203   -45997   -46051   -46178   -46387   -46616   -46487   -46176 
  -45943   -45692   -45990   -46683   -46379   -45630   -45943   -46633 
  -46716   -46448   -46111   -45854   -45831   -46132   -46527   -46511 
  -46229   -46174   -46309   -46399   -46264   -46083   -46198   -46280 
  -46120   -46187   -46437   -46340   -46001   -45983   -46369   -46494 
  -46064   -45920   -46303   -46276   -46001   -46226   -46341   -46153 
  -46290   -46367   -46133   -46165   -46415   -46491   -46422   -46159 
  -45814   -45990   -46454   -46472   -46321   -46221   -45990   -45974 
  -46165   -46165   -46128   -46278   -46296   -46102   -46260   -46562 
  -46372   -46074   -46090   -46303   -46506   -46392   -45999   -45747 
  -45981   -46477   -46606   -46410   -46336   -46311   -46140   -46024 
  -46182   -46290   -46124   -46082   -46176   -46125   -46186   -46330 
  -46226   -46084   -46156   -46345   -46390   -46190   -46152   -46387 
  -46427   -46151   -45789   -45725   -46352   -47048   -46695   -45786 
  -45801   -46552   -46700   -46117   -45686   -45716   -46006   -46485 
  -46780   -46618   -46207   -45765   -45877   -46417   -46251   -45935 
  -46429   -46696   -46290   -46037   -46028   -46178   -46438   -46345 
  -45994   -45979   -46512   -47044   -46560   -45370   -45145   -46144 
  -46863   -46550   -45998   -45931   -46141   -46554   -47028   -46615 
  -45655   -45630   -46129   -46290   -46542   -46641   -45995   -45404 
  -45739   -46413   -46660   -46561   -46325   -46276   -46422   -46133 
  -45669   -45825   -46309   -46483   -46352   -46157   -46144   -46444 
  -46693   -46408   -45867   -45812   -46251   -46507   -46303   -45855 
  -45720   -46292   -46761   -46437   -46029   -46097   -46369   -46431 
  -46125   -46017   -46446   -46599   -46248   -46114   -46089   -45985 
  -46192   -46353   -46195   -46201   -46291   -46191   -46060   -46022 
  -46197   -46398   -46371   -46441   -46584   -46363   -46001   -45809 
  -45837   -46174   -46415   -46273   -46207   -46322   -46360   -46268 
  -46070   -46068   -46233   -46244   -46367   -46533   -46287   -45972 
  -46086   -46399   -46408   -46091   -45936   -46172   -46430   -46271 
  -45968   -46060   -46234   -46205   -46361   -46561   -46411   -46184 
  -46086   -46022   -46067   -46210   -46284   -46306   -46359   -46311 
  -46167   -46190   -46221   -46114   -46305   -46580   -46357   -46006 
  -46006   -46232   -46346   -46130   -45840   -45823   -46128   -46525 
  -46595   -46539   -46630   -46419   -46039   -45877   -45723   -45760 
  -46089   -46323   -46538   -46615   -46197   -45829   -46102   -46677 
  -46944   -46630   -46029   -45631   -45580   -45962   -46584   -46649 
  -46008   -45598   -45951   -46699   -47189   -46793   -45839   -45570 
  -46176   -46597   -46406   -46083   -45975   -46121   -46357   -46381 
  -46186   -45986   -45908   -46016   -46232   -46388   -46319   -46205 
  -46450   -46699   -46488   -46210   -46048   -45901   -45999   -46307 
  -46387   -46068   -45914   -46257   -46330   -46068   -46249   -46476 
  -46176   -45885   -46070   -46471   -46664   -46611   -46260   -45796 
  -45979   -46507   -46449   -46045   -45662   -45625   -46423   -47054 
  -46479   -45850   -46053   -46284   -46170   -46079   -46186   -46472 
  -46564   -46246   -46174   -46568   -46541   -46043   -45927   -46094 
  -46041   -45793   -45800   -46388   -46788   -46423   -45945   -45814 
  -46109   -46585   -46658   -46434   -46311   -46361   -46433   -46174 
  -45810   -45927   -46368   -46558   -46353   -46159   -46064   -45870 
  -45862   -46026   -46109   -46391   -46537   -45997   -45763   -46498 
  -46859   -46306   -46183   -46592   -46446   -46059   -46033   -46170 
  -46332   -46256   -45999   -46192   -46583   -46337   -45643   -45443 
  -46022   -46600   -46502   -46209   -46300   -46292   -45958   -46091 
  -46521   -46249   -45944   -46396   -46651   -46502   -46602   -46484 
  -45975   -45790   -45927   -46016   -46206   -46529   -46566   -46117 
  -45698   -45839   -46222   -46369   -46403   -46394   -46228   -46206 
  -46356   -46330   -46287   -46263   -46028   -45873   -46187   -46791 
  -46849   -46126   -45823   -46291   -46390   -45927   -45577   -45711 
  -46461   -47100   -46689   -45666   -45257   -45928   -46854   -46959 
  -46359   -45978   -46047   -46230   -46427   -46305   -45766   -45723 
  -46352   -46531   -46273   -46415   -46448   -45981   -45945   -46360 
  -46327   -46078   -46120   -46290   -46587   -46705   -46178   -45740 
  -46130   -46654   -46588   -46180   -45927   -45955   -46133   -46252 
  -46083   -45836   -46074   -46588   -46708   -46476   -46172   -46037 
  -46207   -46240   -46006   -45970   -46207   -46377   -46349   -46435 
  -46477   -46018   -45632   -45878   -46283   -46365   -46159   -46117 
  -46556   -46813   -46287   -45786   -45947   -46201   -46210   -46030 
  -45954   -46294   -46618   -46676   -46618   -46286   -45936   -45955 
  -46113   -46211   -46207   -46087   -46199   -46398   -46002   -45592 
  -46117   -46870   -46913   -46534   -46130   -45817   -45877   -46222 
  -46492   -46531   -46218   -45954   -46210   -46484   -46318   -46079 
  -46130   -46377   -46460   -46246   -46198   -46461   -46485   -46225 
  -45894   -45422   -45399   -46171   -46784   -46687   -46290   -46103 
  -46299   -46419   -46145   -45848   -45960   -46323   -46269   -45883 
  -45864   -46161   -46560   -47007   -46997   -46437   -46062   -46090 
  -45860   -45400   -45593   -46287   -46516   -46319   -46215   -46307 
  -46510   -46538   -46311   -46080   -46020   -46197   -46421   -46423 
  -46306   -46272   -46232   -46051   -45937   -46037   -46305   -46705 
  -46762   -46256   -45955   -46171   -46303   -46192   -46175   -46303 
  -46365   -46132   -45836   -45921   -46044   -45922   -45966   -46087 
  -46049   -46218   -46630   -46811   -46550   -46094   -46028   -46441 
  -46507   -46184   -46202   -46128   -45663   -45717   -46221   -46429 
  -46391   -46210   -46032   -45943   -45906   -46417   -47029   -46635 
  -45936   -45994   -46359   -46495   -46518   -46427   -46163   -46016 
  -46033   -46030   -46264   -46558   -46471   -46345   -46279   -46179 
  -46454   -46781   -46653   -46286   -45814   -45608   -45881   -46094 
  -46221   -46535   -46808   -46701   -46288   -46165   -46232   -46026 
  -46206   -46550   -45917   -45257   -45785   -46367   -46218   -46225 
  -46350   -45994   -45739   -45786   -45725   -45968   -46430   -46340 
  -46167   -46481   -46566   -46111   -45689   -45862   -46665   -47209 
  -47112   -46881   -46399   -45755   -45592   -45936   -46384   -46545 
  -46566   -46599   -46124   -45416   -45162   -45114   -45141   -45512 
  -46205   -46994   -47517   -47266   -46408   -46348   -47256   -47125 
  -45901   -45678   -46408   -46566   -46214   -46265   -46737   -47016 
  -46822   -46228   -45447   -44930   -44991   -45468   -46225   -47146 
  -47549   -47065   -46315   -45850   -45586   -45104   -44405   -44532 
  -45897   -47245   -47663   -47452   -47035   -46623   -46186   -45546 
  -45125   -45571   -46446   -46645   -45949   -45175   -45031   -45442 
  -45928   -46556   -47561   -48217   -47879   -47115   -46629   -46479 
  -46348   -45998   -45677   -45729   -46010   -45999   -45497   -45225 
  -45773   -46260   -45959   -45801   -46307   -46672   -46639   -46664 
  -46870   -47066   -46923   -46345   -45697   -45260   -45291   -46033 
  -46768   -46754   -46638   -46859   -46927   -46660   -45990   -45023 
  -44806   -45724   -46368   -46098   -46103   -46639   -46639   -46047 
  -45798   -46102   -46311   -46178   -46099   -46329   -46576   -46306 
  -45777   -45850   -46230   -46188   -46120   -46279   -46255   -46125 
  -46322   -46877   -46986   -46218   -45881   -46647   -47143   -46719 
  -46141   -45824   -45806   -46057   -46269   -46236   -45966   -45639 
  -45561   -45786   -46260   -46741   -46803   -46525   -46164   -45912 
  -46021   -46164   -45844   -45447   -45867   -46705   -46693   -46444 
  -47008   -47426   -46953   -46317   -46122   -46079   -45895   -45939 
  -46079   -45952   -45937   -45883   -45613   -45752   -45927   -45724 
  -46076   -46866   -46904   -46503   -46750   -47324   -47156   -46209 
  -45382   -45445   -46001   -46022   -45666   -45511   -45457   -45814 
  -46630   -46989   -46800   -46643   -46434   -46025   -45640   -45590 
  -45951   -46327   -46564   -46681   -46410   -46122   -46481   -46919 
  -46550   -45908   -46060   -46633   -46462   -45819   -45717   -46021 
  -46209   -46218   -46005   -45885   -46190   -46562   -46764   -46662 
  -46194   -46232   -46785   -46577   -46074   -46330   -46670   -46504 
  -46107   -45763   -45584   -45449   -45412   -45824   -46564   -46834 
  -46390   -46002   -45974   -45970   -46022   -46280   -46603   -46708 
  -46477   -46025   -45728   -45960   -46079   -45732   -46110   -46988 
  -46966   -46670   -46813   -46651   -46009   -45527   -45620   -45941 
  -45991   -46179   -46538   -46175   -45654   -46132   -46712   -46415 
  -45781   -45516   -46075   -47097   -47364   -46525   -45693   -45956 
  -46684   -46676   -46114   -45609   -45570   -46326   -47116   -46950 
  -46365   -46421   -46712   -46102   -45160   -45214   -45779   -46033 
  -46218   -46273   -46191   -46218   -46049   -46024   -46616   -47012 
  -46934   -46866   -46525   -46103   -46202   -46180   -45615   -45342 
  -45785   -46530   -46985   -46554   -45655   -45635   -46392   -46387 
  -45550   -45351   -46164   -47034   -47129   -46244   -45289   -45372 
  -45985   -46237   -46267   -46413   -46768   -47007   -46695   -46295 
  -46346   -46408   -46299   -46386   -46548   -46630   -46560   -46010 
  -45434   -45496   -45797   -45898   -45932   -46120   -46566   -46820 
  -46516   -46165   -46087   -46151   -46494   -46786   -46545   -46323 
  -46291   -45860   -45478   -45671   -46041   -46315   -46309   -45979 
  -45847   -46314   -47048   -47158   -46296   -45499   -45819   -46780 
  -47109   -46411   -45569   -45486   -45870   -46013   -45979   -46067 
  -46349   -46616   -46218   -45563   -45839   -46421   -46345   -46197 
  -46278   -46516   -47071   -47244   -46512   -45828   -45981   -46460 
  -46514   -46118   -45868   -46179   -46423   -45945   -45377   -45289 
  -45405   -45716   -46264   -46803   -47368   -47655   -47025   -46117 
  -46066   -46481   -46472   -46275   -46178   -45756   -45260   -45472 
  -45958   -45978   -45940   -46090   -46192   -46326   -46318   -46221 
  -46461   -46579   -46174   -45864   -46147   -46758   -47050   -46816 
  -46579   -46485   -46165   -45742   -45648   -45929   -46306   -46450 
  -46282   -46165   -46263   -46151   -45802   -45885   -46415   -46639 
  -46342   -45944   -45756   -45847   -46122   -46315   -46372   -46460 
  -46560   -46572   -46400   -46121   -46036   -46109   -46159   -46350 
  -46607   -46521   -46143   -45914   -45882   -45885   -46097   -46453 
  -46537   -46406   -46256   -46009   -45863   -46120   -46556   -46681 
  -46483   -46361   -46296   -46048   -45837   -45800   -45727   -45711 
  -46009   -46383   -46387   -46201   -46124   -46022   -46259   -47016 
  -47200   -46522   -46072   -46152   -46458   -46720   -46413   -45775 
  -45678   -46167   -46391   -46094   -46030   -46087   -45679   -45704 
  -46674   -47175   -46502   -45890   -45900   -45837   -45863   -46159 
  -46056   -45962   -46464   -46746   -46562   -46380   -45979   -45639 
  -45935   -46373   -46460   -46302   -46107   -46118   -46352   -46700 
  -46892   -46580   -46111   -46024   -46300   -46572   -46421   -45987 
  -45854   -46102   -46359   -46379   -46124   -45783   -45731   -46084 
  -46333   -46021   -45821   -46369   -46797   -46533   -46233   -46160 
  -46221   -46396   -46332   -46156   -46338   -46469   -46201   -46052 
  -46222   -46329   -46211   -46020   -46091   -46484   -46610   -46191 
  -45755   -45558   -45513   -45751   -46121   -46379   -46587   -46705 
  -46792   -46873   -46608   -46217   -46170   -46083   -45841   -45987 
  -46318   -46244   -45886   -45728   -45895   -46098   -46187   -46276 
  -46261   -46076   -46118   -46550   -46639   -46083   -45850   -46282 
  -46565   -46554   -46606   -46583   -46391   -46148   -45943   -46014 
  -46387   -46603   -46464   -46372   -46460   -46425   -46234   -45987 
  -45854   -45925   -45832   -45667   -45935   -46182   -45962   -45970 
  -46448   -46653   -46504   -46533   -46634   -46408   -46028   -45974 
  -46180   -46269   -46329   -46456   -46284   -45991   -46268   -46666 
  -46340   -45863   -46005   -46345   -46303   -46041   -45889   -45909 
  -46076   -46040   -45566   -45409   -46057   -46660   -46642   -46584 
  -46731   -46615   -46386   -46511   -46523   -46070   -45939   -46321 
  -46514   -46503   -46365   -45863   -45495   -45774   -46232   -46251 
  -46109   -46323   -46541   -46410   -46194   -45949   -45823   -46188 
  -46712   -46707   -46244   -45991   -46224   -46557   -46568   -46375 
  -46306   -46261   -46176   -46275   -46403   -46199   -45871   -45922 
