Origin Time       2025/03/30 21:30:00
Lat.              38.535
Long.             142.295
Depth. (km)       44
Mag.              4.3
Station Code      MYG012
Station Lat.      38.3288
Station Long.     141.0128
Station Height(m) 74
Record Time       2025/03/30 21:31:27
Sampling Freq(Hz) 100Hz
Duration Time(s)  60
Dir.              U-D
Scale Factor      7845(gal)/8223790
Max. Acc. (gal)   0.962
Last Correction   2025/03/30 21:31:27
Memo.             
[...]
  -12515   -12517   -12514   -12513   -12514   -12515   -12514   -12514 
  -12514   -12517   -12519   -12515   -12513   -12517   -12514   -12513 
  -12517   -12518   -12513   -12510   -12515   -12519   -12517   -12517 
  -12519   -12514   -12511   -12515   -12515   -12515   -12517   -12511 
  -12514   -12517   -12514   -12514   -12517   -12517   -12517   -12517 
  -12515   -12517   -12517   -12515   -12515   -12517   -12515   -12511 
  -12513   -12518   -12517   -12514   -12515   -12515   -12514   -12515 
  -12515   -12513   -12515   -12521   -12515   -12513   -12514   -12515 
  -12517   -12514   -12514   -12517   -12517   -12514   -12517   -12517 
  -12514   -12517   -12518   -12515   -12515   -12515   -12514   -12515 
  -12518   -12515   -12514   -12515   -12515   -12518   -12515   -12511 
  -12517   -12519   -12513   -12513   -12517   -12517   -12515   -12515 
  -12514   -12514   -12517   -12515   -12513   -12514   -12515   -12514 
  -12514   -12515   -12515   -12514   -12514   -12517   -12515   -12511 
  -12511   -12515   -12517   -12515   -12515   -12514   -12514   -12517 
  -12517   -12514   -12513   -12515   -12517   -12515   -12519   -12529 
  -12533   -12536   -12541   -12534   -12518   -12507   -12506   -12507 
  -12511   -12510   -12490   -12459   -12461   -12518   -12569   -12545 
  -12469   -12438   -12467   -12475   -12440   -12441   -12553   -12711 
  -12723   -12569   -12526   -12698   -12781   -12560   -12239   -12137 
  -12282   -12413   -12375   -12336   -12434   -12569   -12726   -12907 
  -12830   -12490   -12383   -12603   -12696   -12487   -12259   -12380 
  -12760   -12725   -12235   -12151   -12592   -12768   -12556   -12417 
  -12414   -12491   -12533   -12366   -12397   -12684   -12622   -12495 
  -12685   -12684   -12505   -12532   -12644   -12607   -12352   -12102 
  -12120   -12348   -12595   -12668   -12505   -12426   -12738   -13001 
  -12708   -12314   -12345   -12582   -12683   -12451   -12128   -12307 
  -12718   -12733   -12644   -12677   -12537   -12399   -12517   -12544 
  -12379   -12344   -12447   -12633   -12754   -12530   -12449   -12784 
  -12708   -12306   -12336   -12414   -12390   -12619   -12715   -12625 
  -12586   -12456   -12457   -12532   -12383   -12303   -12455   -12654 
  -12627   -12337   -12260   -12563   -12758   -12510   -12155   -12212 
  -12577   -12717   -12604   -12545   -12514   -12569   -12580   -12391 
  -12453   -12630   -12553   -12603   -12748   -12559   -12310   -12414 
  -12621   -12548   -12306   -12279   -12580   -12692   -12378   -12386 
  -12899   -12937   -12411   -12305   -12634   -12706   -12550   -12479 
  -12561   -12715   -12609   -12318   -12340   -12405   -12182   -12258 
  -12633   -12615   -12475   -12552   -12522   -12540   -12649   -12476 
  -12449   -12741   -12658   -12414   -12418   -12367   -12418   -12528 
  -12498   -12587   -12467   -12294   -12575   -12595   -12372   -12560 
  -12627   -12503   -12550   -12521   -12545   -12677   -12582   -12452 
  -12532   -12540   -12383   -12506   -12760   -12594   -12465   -12614 
  -12486   -12336   -12434   -12367   -12418   -12753   -12661   -12418 
  -12505   -12441   -12447   -12623   -12502   -12528   -12726   -12600 
  -12478   -12476   -12374   -12317   -12403   -12491   -12518   -12627 
  -12694   -12592   -12606   -12579   -12374   -12374   -12482   -12476 
  -12447   -12491   -12617   -12604   -12522   -12505   -12444   -12553 
  -12733   -12563   -12349   -12478   -12591   -12471   -12463   -12529 
  -12417   -12463   -12656   -12499   -12351   -12564   -12586   -12325 
  -12395   -12785   -12721   -12339   -12456   -12653   -12494   -12559 
  -12808   -12627   -12235   -12267   -12503   -12498   -12463   -12565 
  -12656   -12606   -12513   -12503   -12433   -12420   -12698   -12775 
  -12376   -12260   -12510   -12415   -12301   -12550   -12633   -12568 
  -12641   -12517   -12334   -12506   -12677   -12571   -12471   -12461 
  -12510   -12633   -12602   -12519   -12664   -12610   -12287   -12313 
  -12499   -12436   -12455   -12650   -12694   -12490   -12328   -12468 
  -12646   -12576   -12471   -12517   -12532   -12461   -12510   -12606 
  -12611   -12595   -12515   -12430   -12444   -12513   -12529   -12425 
  -12395   -12455   -12469   -12555   -12658   -12676   -12607   -12483 
  -12474   -12480   -12401   -12403   -12495   -12641   -12769   -12622 
  -12274   -12245   -12505   -12590   -12583   -12502   -12406   -12533 
  -12579   -12634   -12816   -12590   -12268   -12372   -12501   -12488 
  -12559   -12537   -12355   -12460   -12715   -12522   -12294   -12476 
  -12637   -12629   -12626   -12660   -12667   -12513   -12406   -12484 
  -12550   -12614   -12509   -12252   -12367   -12525   -12395   -12437 
  -12517   -12576   -12696   -12567   -12565   -12661   -12432   -12361 
  -12506   -12483   -12436   -12542   -12638   -12559   -12503   -12425 
  -12386   -12606   -12564   -12394   -12548   -12572   -12609   -12702 
  -12472   -12445   -12568   -12383   -12405   -12667   -12660   -12492 
  -12391   -12399   -12583   -12667   -12429   -12383   -12575   -12498 
  -12424   -12541   -12619   -12668   -12579   -12457   -12569   -12645 
  -12422   -12382   -12658   -12469   -12145   -12505   -12694   -12306 
  -12307   -12611   -12675   -12746   -12661   -12341   -12380   -12549 
  -12428   -12429   -12550   -12582   -12649   -12621   -12572   -12617 
  -12486   -12359   -12518   -12622   -12406   -12267   -12550   -12753 
  -12528   -12464   -12684   -12654   -12495   -12556   -12591   -12421 
  -12258   -12220   -12374   -12471   -12367   -12572   -12783   -12567 
  -12610   -12816   -12619   -12359   -12282   -12364   -12690   -12820 
  -12506   -12355   -12472   -12501   -12542   -12606   -12523   -12376 
  -12399   -12577   -12573   -12441   -12486   -12615   -12668   -12552 
  -12374   -12424   -12526   -12498   -12545   -12604   -12448   -12312 
  -12467   -12613   -12590   -12515   -12406   -12453   -12510   -12521 
  -12741   -12704   -12501   -12656   -12556   -12266   -12469   -12649 
  -12614   -12638   -12479   -12390   -12507   -12445   -12395   -12461 
  -12488   -12529   -12484   -12442   -12495   -12568   -12731   -12729 
  -12444   -12390   -12534   -12368   -12239   -12522   -12694   -12681 
  -12696   -12530   -12378   -12391   -12425   -12422   -12382   -12590 
  -12835   -12615   -12390   -12559   -12738   -12668   -12479   -12410 
  -12411   -12290   -12178   -12244   -12391   -12555   -12789   -12869 
  -12687   -12640   -12660   -12521   -12518   -12588   -12509   -12418 
  -12401   -12461   -12560   -12532   -12406   -12436   -12606   -12573 
  -12303   -12314   -12668   -12637   -12312   -12453   -12764   -12667 
  -12530   -12636   -12642   -12573   -12591   -12447   -12236   -12283 
  -12361   -12270   -12330   -12568   -12626   -12568   -12676   -12845 
  -12731   -12533   -12600   -12557   -12374   -12378   -12391   -12415 
  -12426   -12409   -12584   -12609   -12460   -12532   -12611   -12626 
  -12603   -12496   -12523   -12599   -12560   -12532   -12471   -12287 
  -12339   -12629   -12600   -12492   -12590   -12448   -12307   -12606 
  -12874   -12727   -12556   -12553   -12375   -12147   -12212   -12378 
  -12456   -12537   -12660   -12776   -12811   -12623   -12289   -12339 
  -12760   -12714   -12290   -12341   -12650   -12660   -12534   -12469 
  -12455   -12503   -12465   -12290   -12312   -12469   -12522   -12731 
  -12784   -12488   -12532   -12648   -12432   -12353   -12445   -12537 
  -12626   -12545   -12345   -12426   -12681   -12615   -12563   -12600 
  -12316   -12251   -12550   -12545   -12428   -12573   -12623   -12523 
  -12634   -12648   -12455   -12533   -12557   -12364   -12533   -12721 
  -12511   -12422   -12487   -12414   -12383   -12479   -12607   -12556 
  -12313   -12380   -12708   -12676   -12436   -12511   -12650   -12552 
  -12592   -12634   -12321   -12298   -12609   -12591   -12523   -12588 
  -12521   -12541   -12586   -12414   -12352   -12460   -12529   -12600 
  -12511   -12402   -12582   -12583   -12395   -12588   -12753   -12560 
  -12447   -12363   -12309   -12501   -12560   -12517   -12626   -12542 
  -12391   -12544   -12683   -12590   -12511   -12530   -12480   -12384 
  -12387   -12459   -12609   -12653   -12441   -12463   -12681   -12533 
  -12310   -12421   -12679   -12704   -12496   -12490   -12542   -12402 
  -12448   -12695   -12656   -12334   -12264   -12563   -12708   -12487 
  -12317   -12452   -12642   -12611   -12455   -12521   -12712   -12660 
  -12511   -12471   -12495   -12564   -12503   -12337   -12378   -12492 
  -12464   -12445   -12453   -12474   -12561   -12658   -12752   -12642 
  -12442   -12550   -12669   -12611   -12598   -12475   -12305   -12367 
  -12503   -12461   -12394   -12469   -12525   -12571   -12610   -12482 
  -12451   -12548   -12518   -12552   -12575   -12448   -12505   -12623 
  -12448   -12367   -12580   -12561   -12352   -12405   -12545   -12557 
  -12568   -12525   -12492   -12671   -12695   -12480   -12529   -12646 
  -12490   -12361   -12507   -12669   -12502   -12245   -12344   -12617 
  -12707   -12645   -12582   -12565   -12486   -12382   -12507   -12663 
  -12478   -12255   -12507   -12876   -12715   -12452   -12476   -12329 
  -12204   -12388   -12410   -12433   -12712   -12700   -12549   -12594 
  -12496   -12490   -12669   -12506   -12210   -12214   -12420   -12565 
  -12575   -12631   -12610   -12545   -12783   -12842   -12588   -12577 
  -12510   -12283   -12361   -12579   -12630   -12501   -12379   -12532 
  -12710   -12486   -12262   -12511   -12646   -12382   -12274   -12370 
  -12451   -12533   -12717   -12845   -12579   -12334   -12426   -12501 
  -12569   -12571   -12398   -12406   -12532   -12496   -12583   -12741 
  -12541   -12410   -12546   -12480   -12361   -12387   -12596   -12833 
  -12611   -12387   -12582   -12698   -12730   -12808   -12553   -12074 
  -12075   -12440   -12471   -12368   -12447   -12483   -12453   -12440 
  -12606   -12845   -12745   -12526   -12499   -12557   -12571   -12440 
  -12499   -12719   -12582   -12375   -12324   -12182   -12136   -12349 
  -12534   -12588   -12721   -12784   -12667   -12657   -12722   -12638 
  -12518   -12509   -12488   -12397   -12283   -12182   -12349   -12680 
  -12712   -12571   -12533   -12576   -12622   -12565   -12442   -12478 
  -12653   -12668   -12491   -12348   -12503   -12800   -12644   -12415 
  -12571   -12505   -12321   -12375   -12291   -12267   -12513   -12514 
  -12413   -12676   -12807   -12587   -12537   -12654   -12646   -12451 
  -12337   -12548   -12634   -12399   -12313   -12428   -12447   -12361 
  -12368   -12476   -12465   -12405   -12594   -12877   -12896   -12764 
  -12675   -12575   -12499   -12459   -12472   -12522   -12426   -12330 
  -12351   -12360   -12468   -12561   -12515   -12582   -12642   -12513 
  -12406   -12461   -12533   -12469   -12467   -12645   -12745   -12649 
  -12501   -12480   -12474   -12357   -12436   -12598   -12449   -12353 
  -12534   -12561   -12472   -12517   -12525   -12455   -12564   -12757 
  -12565   -12275   -12480   -12652   -12480   -12561   -12642   -12432 
  -12453   -12613   -12692   -12733   -12517   -12314   -12407   -12498 
  -12390   -12367   -12603   -12614   -12513   -12704   -12617   -12289 
  -12326   -12505   -12510   -12441   -12495   -12621   -12646   -12641 
  -12501   -12349   -12447   -12406   -12390   -12788   -12896   -12528 
  -12440   -12591   -12505   -12430   -12513   -12411   -12361   -12438 
  -12332   -12391   -12596   -12671   -12860   -12789   -12424   -12538 
  -12714   -12451   -12387   -12437   -12252   -12235   -12336   -12397 
  -12692   -12976   -12772   -12502   -12611   -12540   -12233   -12336 
  -12626   -12569   -12340   -12432   -12772   -12799   -12461   -12356 
  -12568   -12506   -12294   -12355   -12476   -12552   -12476   -12356 
  -12498   -12576   -12484   -12536   -12733   -12834   -12657   -12525 
  -12618   -12672   -12569   -12302   -12216   -12366   -12344   -12411 
  -12522   -12432   -12483   -12530   -12546   -12645   -12556   -12568 
  -12718   -12555   -12343   -12505   -12692   -12550   -12397   -12424 
  -12432   -12371   -12433   -12596   -12564   -12490   -12542   -12478 
  -12451   -12638   -12680   -12503   -12490   -12652   -12633   -12510 
  -12609   -12687   -12668   -12699   -12471   -12286   -12436   -12407 
  -12274   -12303   -12382   -12472   -12536   -12672   -12692   -12526 
  -12606   -12577   -12271   -12333   -12449   -12334   -12515   -12780 
  -12675   -12513   -12526   -12538   -12615   -12642   -12461   -12556 
  -12683   -12310   -12171   -12459   -12606   -12623   -12521   -12492 
  -12745   -12735   -12401   -12384   -12617   -12644   -12513   -12521 
  -12708   -12610   -12185   -12159   -12444   -12438   -12376   -12420 
  -12402   -12550   -12734   -12688   -12744   -12830   -12692   -12599 
  -12491   -12249   -12253   -12517   -12505   -12306   -12496   -12756 
  -12626   -12514   -12555   -12490   -12441   -12483   -12453   -12414 
  -12479   -12467   -12442   -12641   -12753   -12602   -12453   -12447 
  -12568   -12555   -12316   -12341   -12818   -12951   -12424   -12293 
  -12681   -12594   -12220   -12249   -12484   -12494   -12289   -12197 
  -12545   -13003   -12915   -12613   -12625   -12649   -12380   -12067 
  -12051   -12190   -12375   -12609   -12637   -12694   -12934   -12947 
  -12823   -12749   -12468   -12204   -12303   -12291   -12013   -12020 
  -12209   -12316   -12467   -12575   -12772   -13045   -13011   -13051 
  -13282   -13204   -13076   -12846   -12251   -11940   -11846   -11507 
  -11531   -11913   -12101   -12540   -13270   -13516   -13197   -12633 
  -12104   -12028   -12271   -12406   -12490   -12567   -12694   -13045 
  -13317   -13142   -12648   -12187   -11997   -12058   -11955   -11557 
  -11585   -12216   -12819   -13149   -13003   -12615   -12665   -12839 
  -12893   -13189   -13259   -12877   -12617   -12417   -12259   -12363 
  -12125   -11673   -11917   -12522   -12955   -12987   -12499   -12426 
  -12746   -12475   -12222   -12301   -12002   -11859   -12424   -12880 
  -12789   -12577   -12409   -12402   -12658   -12812   -12696   -12399 
  -12054   -12059   -12232   -12183   -12316   -12526   -12569   -12974 
  -13446   -13359   -13018   -12969   -13400   -13423   -12580   -12081 
  -12028   -11674   -11634   -12001   -12164   -12407   -12718   -12596 
  -12337   -12333   -12434   -12587   -12676   -12549   -12425   -12298 
  -12102   -12140   -12509   -12869   -12876   -12719   -12746   -12919 
  -12950   -12599   -12217   -12195   -12334   -12476   -12586   -12513 
  -12312   -12455   -13007   -13193   -12837   -12648   -12556   -12258 
  -12316   -12567   -12472   -12259   -11859   -11769   -12467   -12808 
  -12393   -12056   -12162   -12501   -12557   -12529   -12933   -13309 
  -13149   -12703   -12546   -12748   -12654   -12295   -12344   -12567 
  -12619   -12480   -12154   -12357   -12734   -12290   -12054   -12530 
  -12665   -12440   -12251   -12179   -12343   -12360   -12321   -12760 
  -13051   -12900   -13015   -13073   -12587   -12187   -12328   -12627 
  -12577   -12330   -12283   -12231   -12105   -12349   -12737   -12738 
  -12644   -12544   -12241   -12264   -12455   -12363   -12526   -12798 
  -12866   -13000   -12866   -12564   -12611   -12532   -12182   -12279 
  -12492   -12249   -12272   -12604   -12561   -12438   -12490   -12660 
  -12822   -12741   -12614   -12371   -12167   -12351   -12375   -12221 
  -12259   -12329   -12494   -12744   -12931   -12903   -12630   -12549 
  -12780   -12881   -12615   -12355   -12387   -12411   -12360   -12294 
  -12077   -12048   -12394   -12604   -12582   -12715   -12916   -12814 
  -12675   -12811   -12722   -12294   -12143   -12233   -12229   -12218 
  -12363   -12629   -12656   -12649   -12977   -12915   -12488   -12347 
  -12216   -12297   -12478   -12306   -12437   -12637   -12594   -12876 
  -12881   -12557   -12664   -12712   -12542   -12545   -12452   -12305 
  -12398   -12387   -12229   -12459   -12815   -12641   -12283   -12330 
  -12483   -12383   -12320   -12424   -12561   -12653   -12422   -12155 
  -12410   -12753   -12749   -12690   -12773   -12820   -12737   -12684 
  -12599   -12510   -12530   -12320   -12066   -12232   -12468   -12464 
  -12266   -12287   -12757   -12896   -12673   -12746   -12807   -12637 
  -12491   -12430   -12461   -12486   -12434   -12457   -12413   -12251 
  -12280   -12240   -12249   -12590   -12564   -12363   -12548   -12681 
  -12669   -12764   -12788   -12653   -12730   -12717   -12391   -12540 
  -12671   -12244   -12181   -12426   -12532   -12583   -12459   -12299 
  -12183   -12208   -12552   -12754   -12695   -12734   -12648   -12479 
  -12614   -12691   -12534   -12403   -12339   -12532   -12725   -12533 
  -12353   -12370   -12523   -12665   -12515   -12442   -12567   -12552 
  -12474   -12289   -12236   -12646   -12846   -12669   -12638   -12525 
  -12496   -12891   -12896   -12340   -12171   -12532   -12683   -12457 
  -12382   -12486   -12405   -12279   -12351   -12475   -12634   -12700 
  -12456   -12357   -12559   -12540   -12374   -12386   -12490   -12546 
  -12486   -12371   -12357   -12488   -12534   -12368   -12425   -12702 
  -12681   -12548   -12588   -12699   -12760   -12672   -12557   -12540 
  -12472   -12330   -12429   -12627   -12550   -12569   -12665   -12553 
  -12586   -12517   -12312   -12451   -12422   -12104   -12255   -12598 
  -12556   -12594   -12744   -12495   -12360   -12649   -12681   -12515 
  -12540   -12582   -12683   -12671   -12510   -12685   -12771   -12480 
  -12351   -12324   -12371   -12432   -12252   -12298   -12600   -12696 
  -12644   -12502   -12465   -12556   -12330   -12083   -12337   -12602 
  -12511   -12540   -12641   -12495   -12475   -12694   -12884   -12916 
  -12658   -12509   -12688   -12503   -12145   -12313   -12525   -12552 
  -12496   -12154   -12159   -12563   -12461   -12380   -12749   -12703 
  -12544   -12799   -12812   -12598   -12555   -12507   -12498   -12598 
  -12611   -12432   -12174   -12166   -12457   -12644   -12540   -12375 
  -12374   -12498   -12588   -12692   -12741   -12631   -12613   -12604 
  -12464   -12472   -12588   -12696   -12663   -12371   -12372   -12522 
  -12370   -12490   -12536   -12185   -12378   -12714   -12525   -12401 
  -12472   -12598   -12744   -12696   -12556   -12420   -12312   -12326 
  -12403   -12515   -12548   -12491   -12560   -12627   -12584   -12502 
  -12421   -12448   -12479   -12528   -12622   -12542   -12425   -12421 
  -12532   -12696   -12627   -12478   -12492   -12480   -12483   -12625 
  -12599   -12344   -12325   -12465   -12455   -12511   -12506   -12375 
  -12536   -12780   -12834   -12843   -12762   -12571   -12366   -12297 
  -12487   -12634   -12445   -12233   -12291   -12382   -12425   -12568 
  -12675   -12572   -12395   -12449   -12640   -12583   -12428   -12440 
  -12501   -12557   -12502   -12374   -12603   -12823   -12465   -12263 
  -12634   -12858   -12638   -12467   -12646   -12679   -12459   -12502 
  -12590   -12511   -12403   -12253   -12245   -12344   -12523   -12646 
  -12491   -12579   -12652   -12371   -12545   -12768   -12469   -12378 
  -12510   -12573   -12739   -12722   -12387   -12283   -12366   -12271 
  -12317   -12474   -12401   -12409   -12690   -12811   -12735   -12800 
  -12722   -12541   -12649   -12629   -12499   -12536   -12469   -12471 
