Origin Time       2025/03/30 21:30:00
Lat.              38.535
Long.             142.295
Depth. (km)       44
Mag.              4.3
Station Code      MYG008
Station Lat.      38.5676
Station Long.     141.4267
Station Height(m) 26
Record Time       2025/03/30 21:31:19
Sampling Freq(Hz) 100Hz
Duration Time(s)  60
Dir.              N-S
Scale Factor      7845(gal)/8223790
Max. Acc. (gal)   4.407
Last Correction   2025/03/30 21:31:19
Memo.             
[...]
    3195     3195     3195     3195     3195     3192     3192     3194 
    3196     3198     3194     3194     3196     3194     3192     3198 
    3196     3195     3196     3196     3195     3194     3194     3196 
    3195     3194     3195     3194     3192     3195     3196     3194 
    3192     3192     3194     3194     3194     3194     3191     3194 
    3196     3194     3191     3192     3194     3194     3192     3192 
    3195     3195     3195     3194     3194     3194     3195     3195 
    3195     3195     3195     3195     3192     3192     3194     3194 
    3194     3194     3192     3195     3196     3195     3194     3194 
    3191     3194     3198     3198     3198     3198     3195     3194 
    3196     3196     3195     3194     3198     3196     3194     3194 
    3195     3194     3194     3194     3194     3195     3198     3199 
    3195     3194     3194     3195     3194     3192     3192     3195 
    3194     3191     3192     3198     3198     3195     3195     3198 
    3196     3195     3194     3194     3196     3196     3196     3196 
    3194     3194     3196     3195     3195     3195     3195     3198 
    3198     3196     3196     3192     3192     3196     3199     3195 
    3194     3194     3194     3196     3199     3196     3194     3194 
    3192     3192     3195     3195     3194     3195     3194     3194 
    3195     3195     3194     3192     3194     3195     3196     3195 
    3192     3195     3196     3195     3194     3194     3194     3194 
    3192     3195     3196     3195     3192     3192     3194     3195 
    3195     3195     3194     3192     3194     3198     3198     3195 
    3196     3198     3195     3196     3194     3192     3196     3195 
    3191     3194     3195     3194     3195     3195     3194     3195 
    3196     3195     3195     3194     3194     3196     3195     3195 
    3196     3195     3192     3194     3194     3192     3194     3194 
    3194     3195     3195     3194     3194     3195     3196     3196 
    3194     3194     3195     3195     3195     3195     3192     3194 
    3195     3192     3194     3195     3196     3196     3195     3195 
    3196     3195     3195     3195     3192     3196     3198     3196 
    3195     3195     3195     3194     3194     3195     3196     3196 
    3196     3198     3198     3196     3195     3195     3194     3194 
    3195     3196     3194     3192     3192     3194     3195     3195 
    3195     3198     3195     3192     3195     3198     3196     3195 
    3195     3195     3194     3194     3195     3195     3195     3194 
    3194     3194     3194     3195     3195     3194     3194     3194 
    3194     3195     3195     3194     3192     3194     3195     3194 
    3194     3195     3196     3196     3194     3195     3195     3192 
    3194     3195     3195     3195     3195     3195     3195     3194 
    3195     3195     3195     3196     3196     3192     3191     3195 
    3195     3194     3195     3195     3195     3196     3196     3192 
    3194     3198     3196     3194     3195     3195     3195     3196 
    3198     3196     3195     3194     3195     3196     3195     3196 
    3198     3194     3194     3198     3196     3194     3194     3192 
    3192     3194     3194     3194     3196     3195     3195     3196 
    3195     3195     3198     3195     3192     3195     3196     3195 
    3195     3196     3196     3199     3198     3196     3199     3199 
    3192     3194     3196     3195     3195     3196     3194     3192 
    3195     3196     3196     3195     3196     3198     3194     3194 
    3196     3194     3192     3195     3195     3195     3196     3195 
    3195     3195     3192     3194     3196     3196     3195     3195 
    3195     3196     3198     3195     3192     3198     3196     3191 
    3194     3198     3194     3191     3195     3198     3194     3194 
    3194     3194     3194     3195     3192     3195     3195     3195 
    3195     3196     3196     3196     3195     3192     3192     3194 
    3195     3194     3192     3192     3192     3194     3200     3208 
    3207     3196     3181     3175     3188     3225     3250     3229 
    3177     3142     3144     3184     3242     3237     3159     3098 
    3109     3203     3296     3261     3207     3257     3244     3144 
    3153     3213     3233     3242     3195     3129     3100     3028 
    3045     3349     3524     3200     2947     3129     3296     3287 
    3237     3187     3253     3323     3111     2891     3103     3331 
    3127     2957     3190     3581     3627     3137     2716     2940 
    3496     3685     3335     2909     2849     3087     3191     3076 
    3132     3415     3430     3235     3283     3226     2998     3157 
    3426     3395     3096     2702     2863     3423     3315     2791 
    2906     3447     3596     3418     3414     3549     3414     2938 
    2722     3079     3410     3326     3026     2829     2986     3175 
    3156     3258     3411     3379     3308     3254     3113     3084 
    3399     3396     2848     2806     3206     3191     3148     3300 
    3217     3113     3176     3254     3577     3882     3484     2813 
    2668     2893     3033     3136     3323     3325     3019     2878 
    3190     3477     3466     3510     3470     3146     2914     2887 
    3048     3343     3338     2975     2883     3227     3439     3391 
    3269     3207     3427     3524     3091     2805     3156     3429 
    3090     2722     2906     3372     3496     3233     3071     3179 
    3308     3277     3214     3202     3125     3073     3198     3361 
    3439     3314     2952     2821     3033     3114     3132     3310 
    3550     3663     3279     2621     2583     3126     3484     3518 
    3420     3307     3204     3036     3010     3294     3504     3294 
    2887     2936     3331     3217     2956     3165     3285     3219 
    3237     3146     3200     3441     3268     2982     3176     3337 
    3206     3280     3311     3041     3046     3245     3200     3132 
    3119     3168     3375     3370     3010     2887     3091     3168 
    3180     3217     3265     3505     3620     3311     3026     2920 
    2801     2975     3392     3489     3314     3127     2960     3063 
    3307     3207     3015     3188     3547     3600     3177     2856 
    2997     3195     3311     3327     3175     3127     3090     3001 
    3217     3388     3210     3107     3113     3084     3229     3426 
    3418     3329     3157     2992     3110     3265     3310     3322 
    3136     2998     3175     3267     3079     3011     3186     3275 
    3265     3314     3306     3149     3091     3329     3349     2940 
    2870     3149     3275     3429     3466     3199     3006     2951 
    3021     3319     3520     3403     3188     2876     2582     2805 
    3441     3951     3971     3322     2691     2918     3357     3152 
    2889     3114     3326     3169     2841     2801     3279     3686 
    3531     3277     3291     3299     3137     3017     3133     3241 
    3111     3075     3222     3262     3307     3316     2978     2786 
    3311     3717     3300     2901     3041     3168     3009     2936 
    3376     3820     3422     2822     2965     3366     3300     2898 
    2902     3508     3682     2988     2650     3219     3603     3256 
    2867     2938     3388     3763     3588     3192     3044     2820 
    2559     2874     3554     3800     3388     2902     2956     3195 
    3149     3334     3634     3230     2737     3009     3508     3562 
    3213     2949     2965     2982     3169     3488     3210     2755 
    3127     3775     3651     2866     2496     3217     3902     3388 
    2791     3098     3410     3271     3130     3109     3226     3341 
    3133     2925     3091     3252     3254     3335     3315     3154 
    3105     3100     3122     3265     3245     3071     3167     3376 
    3348     3122     2821     2830     3334     3715     3542     3149 
    2863     2832     3115     3318     3203     3215     3435     3458 
    3339     3217     2853     2496     2874     3711     3986     3539 
    3030     2947     3040     3051     3241     3333     3088     3055 
    3186     3117     2949     2818     3100     3801     4191     3877 
    2999     2243     2442     3294     3748     3449     2889     2820 
    3292     3514     3227     2924     2843     2995     3426     3835 
    3701     3072     2610     2754     3246     3408     3152     3130 
    3299     3206     3068     3084     3250     3492     3462     3235 
    3118     3046     3092     3253     3137     2945     3331     3817 
    3476     2844     2721     2916     3326     3605     3119     2556 
    2979     3780     3674     2976     2860     3180     3225     3171 
    3426     3688     3458     2945     2727     3017     3381     3160 
    2802     3306     3900     3262     2323     2600     3539     3823 
    3505     3254     3025     2889     3153     3326     3065     2937 
    3296     3646     3330     2766     2863     3391     3723     3676 
    3065     2523     2879     3429     3403     3161     2995     2910 
    3009     3314     3562     3507     3331     3227     2961     2678 
    3003     3588     3542     3207     3250     3198     2830     2921 
    3365     3497     3311     2860     2768     3373     3669     3447 
    3230     3028     3051     3352     3435     3055     2785     3130 
    3481     3315     2925     2651     2835     3438     3804     3559 
    3138     3109     3295     3245     3106     3176     3338     3234 
    2833     2762     3106     3211     3261     3387     3323     3450 
    3406     2897     2883     3289     3366     3183     2968     3095 
    3541     3505     3034     2876     3028     3234     3508     3586 
    3226     2782     2720     3040     3277     3253     3396     3607 
    3520     3285     2917     2743     3144     3441     3226     3034 
    3105     3163     3033     3041     3426     3649     3388     3096 
    3029     2992     3100     3414     3330     2972     2974     2928 
    2872     3418     3906     3794     3561     3186     2652     2587 
    2971     3204     3161     3161     3272     3244     3164     3210 
    3295     3439     3551     3168     2554     2867     3842     3859 
    2997     2628     3026     3530     3450     2889     2751     3132 
    3269     3053     3009     3343     3715     3734     3348     2764 
    2578     3196     3836     3667     3126     2812     2716     2832 
    3203     3562     3566     3184     2830     3068     3744     3817 
    3005     2506     2841     3217     3372     3384     3160     2994 
    3049     3246     3453     3343     3238     3492     3408     2847 
    2492     2644     3462     4220     3786     2600     1981     2717 
    3983     4081     3257     2990     3300     3327     3038     2984 
    3115     2948     2721     3167     3877     3811     3204     2826 
    2857     3310     3696     3353     2770     2686     3025     3461 
    3473     3026     3009     3604     3879     3306     2636     2708 
    3136     3384     3518     3242     2448     2297     3308     4072 
    3771     3234     2999     3153     3626     3615     2883     2277 
    2486     3348     3913     3859     3622     3195     2809     2810 
    2835     2876     3383     3789     3187     2413     2713     3384 
    3476     3253     3129     3373     3879     3835     2952     2290 
    2756     3661     3917     3418     2721     2494     2929     3519 
    3611     3186     3069     3527     3748     3208     2265     2049 
    3164     4411     4270     3005     2351     2867     3346     3261 
    3026     2982     3280     3747     3969     3460     2585     2394 
    2835     3296     3576     3437     2987     2659     2824     3335 
    3568     3464     3152     2911     3306     3654     3248     2971 
    3411     3855     3483     2598     2259     2755     3507     3661 
    3134     3006     3335     3416     3623     3720     3053     2384 
    2340     2874     3851     4264     3518     2812     3036     3346 
    2901     2435     2944     3739     3824     3430     2983     2762 
    2832     2943     3345     3966     3921     3230     2681     2563 
    2895     3373     3561     3515     3203     2833     2855     2841 
    2860     3375     3653     3537     3454     3102     2810     3240 
    3865     3802     3115     2416     2084     2625     3819     4102 
    3318     2886     3026     3296     3516     3472     3298     3075 
    2945     3262     3731     3757     3160     2610     3072     3846 
    3470     2392     1883     2037     2454     2952     3272     3223 
    3156     3542     3905     3839     4000     4452     4483     3767 
    2824     2759     3140     2608     1811     1942     2743     3673 
    4318     3946     2338      660      908     3566     5980     5436 
    2875     1537     2965     5364     6141     4814     2656     1479 
    2201     3345     3042     1695      908     1745     3564     4652 
    4990     5296     4463     2147      591     1513     4144     5757 
    4220     1615     1790     3778     3701     2312     3105     4968 
    4260     1323     -491      677     3743     5595     4510     2797 
    2702     3277     4101     4887     3850     2178     1825     1293 
     691     1688     3234     4904     6767     6319     3474     1849 
    2970     5359     6388     4278      585    -1425      103     3584 
    5023     4662     5474     5177     2359     1196     2620     3750 
    3055     1140     1086     3732     5518     4590     2679     2751 
    5053     4954     1837     1324     3206     3488     3222     3516 
    3051     1864     1310     2555     4747     4612     1378      109 
    3512     6350     5198     2998     1956     2413     4064     4075 
    2155     2349     4429     5050     3804     1143     -777      564 
    3704     6608     7727     5410     1464     -295     1597     4511 
    4822     3061     1336      502     2289     5821     6392     3431 
    1938     3823     4742     2415     1235     3123     4044     3584 
    4374     4743     3051     1283      985     1795     2936     4310 
    5277     4958     4418     3736     2304     1968     2463     2246 
    3171     4715     3649     1458     1648     3468     3663     2068 
    1691     3545     5454     5186     3194     1995     2354     2874 
    2875     2944     3696     5001     5810     4484     1244     -330 
    1688     4347     4895     3584     2091     2335     3921     4372 
    2994     1761     2604     4495     4735     3115     1953     2412 
    3225     3406     3805     4459     3815     1930     1015     2277 
    4174     4804     4247     2990     1597     1144     1537     2812 
    4822     5536     4841     3512     1194      643     3508     6102 
    6118     4359     1869      496     1838     4434     4693     2398 
    1452     3009     4144     3894     3871     4129     3500     1803 
     545     1879     4746     5252     2849     1335     2679     4410 
    4402     3609     2929     2004     1389     2570     5057     5910 
    4221     2535     1946     1324     1381     3200     4966     4739 
    3235     2135     2236     3038     3615     3959     4460     4301 
    2636     1437     2830     5285     6272     4580     1375      251 
    1750     2984     3249     3294     2826     2231     2917     4390 
    4603     3663     3140     3246     3200     3014     3250     3496 
    3348     2963     2149     1244     1197     2772     5239     5721 
    3524     1868     2652     4095     4025     3069     2895     3349 
    3875     3800     2540     2022     3535     4533     3491     2469 
    2470     2778     3623     4063     3391     3465     3626     2520 
    2728     4417     4047     1580      525     2227     4025     4005 
    3738     3921     3510     3009     3277     3624     3354     2941 
    2902     3076     3195     2712     1642     1556     3051     4538 
    4847     4156     3375     3395     3442     2870     3078     3726 
    3038     2187     2579     3076     2883     2925     3940     4450 
    2805     1258     2531     4531     4729     3937     2720     1613 
    2574     4606     4189     1885     1333     2763     3839     4174 
    4180     3669     3447     3705     3042     1791     1891     3100 
    3726     3948     3886     2587     1790     3311     5057     4942 
    3333     1941     2304     3257     3169     2775     2463     2153 
    2565     3458     4091     4267     3960     3495     3161     3080 
    3051     2693     2840     4276     5282     3719     1028      693 
    2797     4414     4324     3145     2116     2612     3906     4317 
    4037     3774     3171     2083     1763     2735     3692     4017 
    3758     3063     2817     2930     2578     2115     2551     4087 
    5274     4673     2902     1530     1692     3126     3805     3051 
    2749     3414     3707     3684     4047     4155     3291     2261 
    2122     2605     3303     4066     4054     2876     1590     1510 
    2759     4552     5713     4850     2785     1937     2512     3426 
    3753     2906     2118     2187     2320     2952     4018     4028 
    3530     3662     3701     3087     2425     2563     3632     4294 
    3295     1726     1522     3038     5027     5482     3956     2371 
    2039     2658     3596     3851     3103     2698     3071     3080 
    2936     3337     3188     2120     1841     3167     4611     4588 
    3720     3396     3473     3268     2781     2465     2871     3796 
    4008     2768     1213     1269     3111     4661     4580     4195 
    4436     4104     3007     2338     2362     2704     2779     2524 
    2825     3518     3627     2988     2207     2600     4311     5069 
    3555     1768     2123     3736     4206     3662     3252     2984 
    3111     3322     2610     2060     3073     4263     3854     2259 
    1082     1838     4668     6801     5201     1796      988     2863 
    4537     4425     2844     1991     3110     4104     3217     1750 
    2041     4044     4764     3107     1744     2396     3966     4634 
    3728     2563     2475     3092     3730     3608     2319     1381 
    2081     3696     4768     4337     3240     2764     2886     3186 
    3059     2559     2643     3295     3910     4288     3962     2813 
    2091     2643     3568     4024     3917     3284     2616     2446 
    3003     3663     3326     2849     3244     3619     3654     3370 
    2959     3258     3615     3325     2851     2177     1807     2793 
    4684     5499     4079     1973     1345     2265     3441     3990 
    3731     2736     1925     2284     3215     3939     4275     4112 
    4048     4002     2857     1269     1325     3271     4816     4206 
    2592     1976     2689     3572     3423     2984     3790     4797 
    4309     2891     1821     2007     3284     4203     3969     2876 
    2137     2600     3190     3096     2809     2836     3558     4423 
    4120     2921     2377     2894     3742     4083     3546     3006 
    3122     3076     2694     2446     2184     2517     3624     4058 
    3739     3704     3634     3457     3669     3601     2982     2421 
