Origin Time       2025/03/30 21:30:00
Lat.              38.535
Long.             142.295
Depth. (km)       44
Mag.              4.3
Station Code      MYG006
Station Lat.      38.5660
Station Long.     140.9767
Station Height(m) 17
Record Time       2025/03/30 21:31:30
Sampling Freq(Hz) 100Hz
Duration Time(s)  60
Dir.              E-W
Scale Factor      7845(gal)/8223790
Max. Acc. (gal)   3.947
Last Correction   2025/03/30 21:31:29
Memo.             
[...]
     954      954      955      947      940      994     1166     1352 
    1409     1362     1302     1198     1020      849      723      661 
     746      977     1206     1370     1491     1529     1424     1242 
    1090      970      822      702      703      784      889     1046 
    1232     1358     1421     1452     1395     1273     1188     1094 
     939      835      864      955     1034     1085     1120     1134 
    1086      986      945     1005     1089     1150     1219     1317 
    1409     1435     1360     1200     1009      864      777      746 
     805      938     1059     1166     1300     1440     1505     1404 
    1144      891      785      777      800      911     1116     1301 
    1395     1418     1390     1333     1251     1136     1008      911 
     847      812      834      891      954     1051     1173     1258 
    1291     1297     1275     1210     1119     1051     1034     1050 
    1058     1038     1038     1090     1154     1177     1131     1053 
    1023     1085     1185     1223     1181     1148     1143     1101 
    1061     1071     1074     1035      986      957      967      996 
    1013     1069     1181     1283     1302     1236     1142     1067 
    1039     1058     1081     1098     1138     1175     1165     1120 
    1089     1081     1090     1086     1053     1040     1071     1101 
    1156     1274     1336     1232     1047      919      855      803 
     783      851      999     1154     1291     1405     1444     1383 
    1240     1070      947      861      788      781      869     1020 
    1213     1402     1513     1510     1422     1308     1198     1098 
    1028     1000      974      927      915      966     1032     1071 
    1073     1044     1042     1109     1223     1302     1285     1193 
    1102     1036     1005     1057     1147     1181     1155     1129 
    1112     1080     1030      994     1016     1086     1158     1198 
    1204     1183     1124     1024      951      958     1008     1048 
    1073     1066     1031     1027     1081     1123     1117     1096 
    1084     1111     1181     1243     1267     1247     1173     1050 
     930      881      922     1016     1124     1179     1150     1104 
    1075     1047     1039     1070     1139     1225     1270     1275 
    1274     1236     1127     1004      927      884      876      946 
    1065     1166     1256     1321     1305     1232     1159     1081 
    1012     1004     1053     1101     1124     1102     1040     1008 
    1044     1086     1121     1206     1289     1290     1243     1208 
    1150     1032      913      850      839      870      938     1039 
    1154     1242     1301     1339     1320     1232     1134     1073 
    1040     1011     1007     1035     1042     1024     1035     1057 
    1051     1034     1035     1053     1081     1119     1159     1209 
    1256     1277     1271     1236     1165     1108     1100     1112 
    1128     1162     1179     1159     1142     1150     1159     1151 
    1131     1096     1032      951      897      884      897      938 
     982     1017     1054     1085     1117     1161     1175     1170 
    1220     1304     1333     1313     1285     1212     1061      892 
     785      778      854      951     1053     1175     1287     1341 
    1355     1323     1202     1038      907      814      772      820 
     935     1063     1190     1308     1399     1421     1335     1185 
    1044      928      842      834      896      961     1030     1146 
    1264     1344     1404     1417     1339     1216     1102      992 
     916      920      945      942      962     1036     1138     1242 
    1333     1375     1363     1296     1154     1003      913      861 
     847      923     1023     1070     1119     1205     1263     1289 
    1325     1324     1231     1086      951      838      770      783 
     838      892      970     1098     1239     1336     1356     1320 
    1271     1190     1058      959      923      901      918     1000 
    1085     1158     1228     1240     1189     1136     1086     1047 
    1048     1073     1117     1190     1227     1208     1200     1213 
    1209     1182     1146     1115     1097     1081     1067     1065 
    1062     1063     1089     1136     1177     1179     1136     1080 
    1027      969      923      913      926      965     1042     1117 
    1178     1240     1269     1217     1154     1140     1104     1007 
     930      904      881      881      953     1066     1154     1208 
    1250     1296     1341     1359     1335     1278     1171     1019 
     896      843      830      861      962     1084     1159     1198 
    1221     1209     1166     1131     1124     1116     1098     1119 
    1188     1236     1233     1205     1165     1084      984      935 
     959     1019     1089     1162     1204     1174     1104     1048 
    1016      994      993     1027     1081     1107     1113     1152 
    1190     1150     1067     1038     1035     1004      994     1042 
    1097     1134     1182     1224     1223     1190     1162     1142 
    1116     1077     1046     1046     1046     1017     1001     1030 
    1069     1109     1183     1274     1331     1321     1250     1143 
    1028      935      895      913      966     1043     1121     1167 
    1188     1236     1308     1321     1251     1179     1162     1159 
    1150     1139     1081      967      899      889      869      868 
     936     1026     1094     1166     1255     1320     1323     1290 
    1251     1201     1154     1124     1089     1043     1027     1031 
    1019     1024     1085     1143     1151     1131     1104     1069 
    1028      988      959      966      980      982     1015     1078 
    1134     1198     1267     1283     1235     1173     1117     1063 
    1032     1034     1053     1071     1090     1134     1200     1254 
    1285     1277     1215     1152     1129     1098     1039      972 
     909      854      830      862      928      985     1036     1097 
    1138     1158     1206     1269     1263     1202     1159     1117 
    1048     1028     1093     1163     1183     1186     1178     1124 
    1062     1055     1075     1089     1090     1071     1051     1063 
    1105     1148     1174     1169     1154     1146     1146     1166 
    1194     1186     1148     1098     1020      945      935      959 
     973     1012     1090     1148     1151     1129     1125     1129 
    1117     1100     1092     1097     1123     1147     1169     1200 
    1221     1206     1156     1084     1011      972      976      994 
    1003      993      954      913      926      989     1090     1208 
    1279     1286     1262     1228     1181     1134     1105     1100 
    1108     1109     1102     1116     1136     1134     1135     1135 
    1112     1085     1073     1078     1117     1183     1228     1229 
    1202     1151     1071     1011      990      986     1004     1042 
    1066     1074     1113     1174     1197     1159     1089     1021 
     967      951     1012     1098     1123     1109     1111     1092 
    1034      978      962      984     1012     1030     1048     1070 
    1078     1088     1108     1115     1134     1193     1247     1291 
    1340     1347     1285     1165     1038      963      922      878 
     888      976     1090     1193     1258     1266     1269     1308 
    1329     1313     1305     1293     1225     1117     1027      977 
     946      936      963     1036     1132     1181     1148     1098 
    1057      999      958      955      934      912      957     1028 
    1086     1177     1244     1193     1078      985      935      945 
    1007     1070     1084     1059     1061     1081     1092     1111 
    1112     1085     1084     1124     1179     1254     1321     1345 
    1331     1294     1250     1209     1166     1107     1038     1009 
    1028     1026      988      970      981     1019     1092     1156 
    1183     1201     1198     1177     1170     1144     1071      988 
     903      859      899      977     1063     1178     1281     1317 
    1296     1233     1154     1080     1004      936      896      888 
     918      966     1021     1104     1178     1202     1223     1250 
    1239     1198     1151     1080     1005      972      980      994 
     997     1024     1093     1177     1251     1291     1290     1275 
    1246     1209     1201     1182     1111     1038     1004      993 
    1017     1096     1200     1283     1317     1289     1206     1151 
    1175     1193     1158     1129     1081      999      957      953 
     946      961      977      931      854      842      922     1030 
    1102     1155     1167     1113     1047      981      903      899 
     980     1051     1107     1171     1200     1201     1215     1210 
    1193     1189     1169     1150     1165     1169     1154     1142 
    1121     1085     1050     1020     1020     1075     1151     1196 
    1233     1289     1301     1260     1256     1243     1151     1094 
    1112     1082     1000      927      916      997     1062     1070 
    1121     1162     1119     1065     1004      939      950      992 
     996     1000     1019     1032     1030     1027     1081     1179 
    1242     1278     1308     1286     1247     1221     1142     1032 
     950      859      784      797      885     1015     1163     1293 
    1375     1386     1354     1331     1282     1189     1101     1046 
     996      953      976     1075     1154     1143     1120     1139 
    1162     1174     1197     1198     1128     1027      978     1000 
    1047     1090     1128     1142     1129     1166     1243     1277 
    1258     1186     1065      953      896      878      904      970 
    1020     1043     1067     1077     1046      989      947      947 
     989     1048     1131     1239     1328     1350     1308     1210 
    1059      905      824      814      855      981     1161     1290 
    1339     1331     1262     1162     1094     1059     1034     1030 
    1065     1113     1143     1171     1204     1201     1165     1161 
    1201     1233     1235     1201     1148     1105     1070     1039 
    1027     1031     1047     1097     1170     1232     1273     1271 
    1231     1163     1065      992      985      985      953      927 
     947     1012     1059     1046     1028     1054     1097     1154 
    1223     1259     1246     1212     1159     1074      993      962 
     969      999     1057     1115     1124     1081     1017      977 
     982     1007     1015     1065     1209     1351     1413     1435 
    1397     1270     1113      969      851      803      822      869 
     943     1057     1179     1258     1298     1358     1437     1458 
    1409     1350     1281     1188     1082      981      903      862 
     851      872      905      913      915      958     1026     1078 
    1108     1101     1067     1067     1085     1067     1039     1015 
     953      865      830      868      919      951      994     1054 
    1105     1147     1190     1252     1337     1414     1440     1409 
    1336     1221     1100     1040     1062     1142     1243     1331 
    1378     1371     1316     1275     1298     1321     1282     1255 
    1269     1229     1134     1080     1062     1001      916      864 
     847      843      838      834      846      876      895      893 
     866      797      754      772      773      761      819      930 
    1036     1166     1329     1458     1517     1536     1517     1435 
    1285     1086      911      811      783      834      962     1116 
    1273     1452     1617     1709     1730     1680     1528     1318 
    1139     1035     1021     1047     1023      919      783      670 
     618      634      733      905     1085     1205     1271     1289 
    1244     1175     1135     1086     1003      932      924      984 
    1074     1150     1208     1216     1139     1019      900      770 
     656      621      700      888     1156     1453     1709     1852 
    1858     1738     1501     1193      907      673      468      342 
     418      749     1279     1910     2533     3024     3276     3242 
    2899     2277     1448      530     -318     -989    -1385    -1413 
   -1112     -619      -63      448      832     1055     1121     1058 
     915      750      592      468      386      329      333      442 
     633      924     1385     1960     2484     2840     3033     3088 
    2972     2706     2381     1998     1575     1282     1171     1139 
    1123     1088      977      828      757      768      795      900 
    1209     1694     2185     2492     2411     1815      824     -230 
   -1047    -1466    -1441    -1005     -260      626     1499     2269 
    2814     3015     2909     2587     2064     1364      627       -4 
    -430     -576     -445     -145      205      610     1142     1788 
    2415     2847     2956     2694     2057     1138      157     -668 
   -1197    -1305     -970     -380      270      930     1513     1849 
    1884     1715     1478     1286     1215     1281     1476     1776 
    2079     2273     2315     2169     1814     1367     1021      872 
     905     1082     1291     1401     1383     1312     1170      816 
     243     -340     -665     -522      179     1341     2666     3825 
    4673     5174     5239     4769     3784     2412      847     -612 
   -1714    -2404    -2712    -2627    -2169    -1456     -645      187 
    1004     1660     2008     2004     1586      769     -176     -945 
   -1375    -1410    -1082     -430      506     1610     2689     3491 
    3755     3458     2836     2138     1513     1065      838      808 
     978     1374     1930     2496     2921     3137     3163     3002 
    2620     2019     1274      544       32     -225     -371     -445 
    -368     -168       47      255      467      596      521      267 
      43       51      315      738     1248     1798     2300     2700 
    2957     2995     2785     2431     2053     1699     1412     1178 
     926      684      596      715      974     1301     1622     1807 
    1710     1328      784      194     -344     -741     -953     -970 
    -793     -452      -14      414      741      950     1109     1271 
    1431     1593     1745     1863     1962     2030     2008     1892 
    1748     1621     1536     1521     1587     1702     1749     1645 
    1498     1453     1432     1282     1047      850      708      581 
     438      249       66       36      221      525      826     1036 
    1107     1109     1194     1397     1615     1769     1850     1865 
    1813     1687     1422      976      488      163       72      179 
     372      519      639      872     1251     1696     2077     2290 
    2358     2354     2305     2209     2011     1644     1161      658 
     183     -171     -280     -120      216      627     1050     1408 
    1610     1618     1491     1339     1262     1294     1368     1439 
    1507     1516     1382     1139      866      584      288       20 
    -152     -183      -74      143      414      660      862     1100 
    1404     1703     1917     1998     1935     1748     1462     1146 
     926      899     1061     1293     1494     1669     1857     2019 
    2081     2033     1929     1779     1544     1242      928      631 
     382      167      -64     -255     -271      -58      348      800 
    1113     1231     1206     1123     1062     1053     1057     1059 
    1129     1359     1734     2106     2303     2251     2019     1755 
    1518     1289     1070      874      724      716      889     1123 
    1305     1416     1467     1506     1564     1594     1539     1393 
    1167      909      677      488      330      197       98       43 
      36       82      136      135      116      163      243      284 
     372      616      973     1331     1644     1907     2131     2305 
    2431     2577     2759     2895     2901     2748     2450     2056 
    1622     1150      625      126     -234     -432     -449     -287 
     -29      230      481      719      943     1162     1347     1467 
    1529     1536     1513     1512     1525     1512     1443     1309 
    1123      942      814      756      764      845      980     1055 
     982      849      816      919     1105     1313     1459     1468 
    1356     1208     1113     1094     1089     1048     1001      996 
    1054     1127     1138     1115     1142     1229     1354     1524 
    1701     1791     1729     1545     1313     1046      764      529 
     368      297      345      498      756     1124     1487     1710 
    1768     1676     1467     1210      973      824      816      897 
     962     1007     1075     1155     1183     1148     1088     1019 
     916      799      724      702      720      765      816      905 
    1085     1317     1530     1706     1787     1691     1452     1196 
     984      812      692      623      558      495      469      469 
     473      494      537      608      760      992     1213     1372 
    1513     1676     1854     2027     2155     2211     2216     2199 
    2126     1985     1819     1648     1453     1278     1185     1125 
    1032      977     1039     1165     1239     1217     1131      967 
     688      379      153      -13     -151     -211     -159       35 
     376      762     1055     1217     1255     1165      999      853 
     777      762      768      774      820      961     1182     1420 
    1633     1798     1927     2050     2153     2205     2192     2095 
    1931     1749     1580     1421     1260     1100      938      734 
     465      183      -37     -157     -116      128      476      795 
    1048     1232     1354     1448     1503     1476     1383     1267 
    1178     1182     1271     1375     1467     1549     1587     1557 
    1512     1498     1503     1486     1417     1296     1124      918 
     711      548      468      467      511      587      695      827 
     970     1102     1186     1235     1282     1321     1318     1254 
    1111      872      621      514      572      704      858     1031 
    1228     1425     1570     1648     1641     1512     1296     1096 
     989      982     1015     1013      973      949      954      951 
     961     1046     1185     1304     1374     1372     1285     1148 
    1013      892      792      765      851     1021     1233     1456 
    1615     1668     1628     1497     1282     1067      936      891 
     908      986     1128     1306     1495     1674     1795     1807 
    1692     1502     1287     1051      805      606      467      356 
     282      280      352      487      696      940     1174     1358 
    1428     1351     1170      940      710      533      472      535 
     660      792      892      939      978     1047     1109     1144 
    1173     1181     1171     1202     1269     1314     1337     1350 
    1333     1293     1242     1151     1005      876      842      905 
    1042     1264     1563     1846     2003     2010     1902     1714 
    1486     1298     1178     1088     1017      974      939      920 
