Origin Time       2025/03/30 21:30:00
Lat.              38.535
Long.             142.295
Depth. (km)       44
Mag.              4.3
Station Code      MYG013
Station Lat.      38.2661
Station Long.     140.9286
Station Height(m) 5
Record Time       2025/03/30 21:31:30
Sampling Freq(Hz) 100Hz
Duration Time(s)  60
Dir.              E-W
Scale Factor      7845(gal)/8223790
Max. Acc. (gal)   1.751
Last Correction   2025/03/30 21:31:29
Memo.             
[...]
   -1143    -1163    -1282    -1358    -1336    -1306    -1329    -1393 
   -1408    -1344    -1310    -1325    -1306    -1286    -1310    -1337 
   -1343    -1341    -1317    -1221    -1107    -1112    -1221    -1287 
   -1298    -1372    -1529    -1629    -1512    -1217    -1003    -1030 
   -1173    -1275    -1301    -1313    -1405    -1534    -1588    -1555 
   -1463    -1337    -1204    -1121    -1152    -1270    -1335    -1252 
   -1120    -1090    -1179    -1277    -1266    -1196    -1242    -1439 
   -1630    -1648    -1497    -1348    -1300    -1306    -1321    -1321 
   -1302    -1279    -1247    -1231    -1270    -1332    -1317    -1219 
   -1188    -1287    -1410    -1452    -1418    -1379    -1367    -1310 
   -1224    -1213    -1259    -1293    -1335    -1350    -1317    -1302 
   -1324    -1352    -1358    -1321    -1263    -1201    -1188    -1278 
   -1405    -1479    -1472    -1390    -1293    -1242    -1247    -1285 
   -1294    -1258    -1235    -1244    -1266    -1275    -1262    -1248 
   -1250    -1256    -1290    -1363    -1445    -1501    -1483    -1414 
   -1366    -1348    -1313    -1251    -1194    -1205    -1306    -1390 
   -1336    -1204    -1139    -1209    -1341    -1381    -1324    -1312 
   -1363    -1389    -1354    -1279    -1204    -1170    -1182    -1205 
   -1248    -1345    -1426    -1420    -1408    -1433    -1429    -1343 
   -1209    -1177    -1300    -1409    -1397    -1324    -1297    -1331 
   -1318    -1227    -1174    -1225    -1298    -1279    -1186    -1175 
   -1296    -1414    -1410    -1318    -1290    -1371    -1440    -1422 
   -1377    -1374    -1410    -1404    -1317    -1209    -1143    -1120 
   -1113    -1138    -1215    -1300    -1371    -1431    -1453    -1447 
   -1410    -1335    -1252    -1235    -1306    -1381    -1383    -1350 
   -1317    -1298    -1321    -1358    -1363    -1328    -1271    -1235 
   -1235    -1248    -1264    -1294    -1325    -1337    -1345    -1359 
   -1368    -1377    -1374    -1332    -1256    -1193    -1188    -1254 
   -1332    -1354    -1347    -1377    -1417    -1387    -1287    -1202 
   -1193    -1223    -1251    -1301    -1358    -1360    -1333    -1340 
   -1379    -1399    -1354    -1281    -1279    -1329    -1358    -1347 
   -1275    -1189    -1177    -1212    -1264    -1320    -1329    -1345 
   -1402    -1426    -1422    -1414    -1354    -1270    -1237    -1286 
   -1354    -1358    -1308    -1255    -1215    -1201    -1209    -1215 
   -1233    -1274    -1341    -1439    -1505    -1474    -1364    -1269 
   -1266    -1285    -1243    -1209    -1216    -1239    -1275    -1296 
   -1321    -1368    -1358    -1298    -1294    -1366    -1422    -1402 
   -1366    -1359    -1351    -1340    -1302    -1201    -1121    -1175 
   -1306    -1386    -1386    -1352    -1320    -1324    -1341    -1306 
   -1219    -1138    -1144    -1260    -1374    -1412    -1414    -1445 
   -1480    -1416    -1286    -1242    -1269    -1286    -1296    -1289 
   -1285    -1317    -1333    -1312    -1304    -1314    -1312    -1290 
   -1285    -1331    -1387    -1370    -1278    -1198    -1202    -1270 
   -1308    -1283    -1290    -1345    -1366    -1355    -1358    -1341 
   -1302    -1285    -1297    -1318    -1321    -1298    -1291    -1297 
   -1277    -1246    -1244    -1285    -1345    -1341    -1273    -1289 
   -1383    -1404    -1336    -1254    -1205    -1221    -1277    -1312 
   -1333    -1375    -1426    -1445    -1409    -1356    -1317    -1267 
   -1250    -1296    -1328    -1316    -1281    -1224    -1200    -1221 
   -1231    -1246    -1297    -1355    -1387    -1391    -1414    -1440 
   -1375    -1240    -1150    -1181    -1266    -1274    -1217    -1228 
   -1347    -1470    -1486    -1429    -1401    -1391    -1351    -1290 
   -1243    -1225    -1221    -1227    -1251    -1275    -1298    -1312 
   -1285    -1260    -1291    -1324    -1310    -1300    -1345    -1422 
   -1431    -1333    -1227    -1206    -1262    -1324    -1321    -1285 
   -1318    -1408    -1437    -1367    -1297    -1314    -1345    -1298 
   -1200    -1155    -1200    -1232    -1231    -1279    -1345    -1370 
   -1390    -1421    -1456    -1482    -1459    -1398    -1356    -1340 
   -1293    -1200    -1134    -1166    -1270    -1336    -1318    -1277 
   -1264    -1302    -1350    -1347    -1316    -1290    -1262    -1260 
   -1304    -1354    -1374    -1356    -1313    -1270    -1248    -1266 
   -1306    -1344    -1372    -1375    -1345    -1320    -1317    -1317 
   -1277    -1229    -1243    -1275    -1266    -1250    -1271    -1327 
   -1366    -1394    -1435    -1429    -1360    -1285    -1229    -1213 
   -1206    -1156    -1124    -1171    -1277    -1391    -1456    -1474 
   -1480    -1445    -1378    -1339    -1318    -1294    -1301    -1356 
   -1402    -1366    -1255    -1147    -1124    -1182    -1229    -1224 
   -1231    -1305    -1404    -1447    -1413    -1352    -1324    -1350 
   -1375    -1339    -1279    -1277    -1332    -1409    -1447    -1377 
   -1255    -1197    -1225    -1301    -1350    -1329    -1270    -1228 
   -1250    -1314    -1354    -1350    -1306    -1242    -1202    -1219 
   -1273    -1318    -1331    -1331    -1344    -1381    -1426    -1424 
   -1343    -1237    -1208    -1264    -1297    -1240    -1178    -1224 
   -1341    -1389    -1327    -1274    -1300    -1370    -1421    -1394 
   -1304    -1232    -1225    -1269    -1317    -1348    -1391    -1447 
   -1466    -1452    -1416    -1337    -1233    -1162    -1169    -1223 
   -1250    -1251    -1271    -1317    -1368    -1387    -1359    -1344 
   -1350    -1323    -1279    -1254    -1251    -1283    -1309    -1286 
   -1254    -1246    -1294    -1383    -1414    -1385    -1382    -1386 
   -1368    -1351    -1291    -1220    -1239    -1298    -1310    -1285 
   -1248    -1266    -1328    -1321    -1258    -1262    -1341    -1385 
   -1337    -1291    -1331    -1389    -1368    -1289    -1227    -1227 
   -1302    -1367    -1341    -1300    -1308    -1302    -1224    -1120 
   -1139    -1305    -1410    -1345    -1240    -1259    -1394    -1506 
   -1516    -1443    -1355    -1318    -1323    -1308    -1267    -1223 
   -1178    -1152    -1186    -1267    -1340    -1374    -1377    -1377 
   -1370    -1335    -1283    -1236    -1232    -1267    -1266    -1264 
   -1340    -1420    -1399    -1316    -1269    -1246    -1223    -1246 
   -1329    -1443    -1513    -1478    -1413    -1372    -1304    -1225 
   -1202    -1205    -1192    -1216    -1306    -1366    -1340    -1314 
   -1306    -1278    -1248    -1260    -1324    -1351    -1317    -1340 
   -1409    -1459    -1494    -1475    -1404    -1332    -1264    -1229 
   -1244    -1277    -1304    -1289    -1210    -1147    -1204    -1320 
   -1366    -1316    -1220    -1181    -1251    -1337    -1351    -1306 
   -1262    -1281    -1335    -1339    -1310    -1310    -1352    -1431 
   -1460    -1397    -1344    -1345    -1348    -1350    -1340    -1317 
   -1313    -1283    -1193    -1116    -1116    -1197    -1294    -1324 
   -1318    -1324    -1355    -1414    -1418    -1331    -1266    -1283 
   -1332    -1385    -1422    -1399    -1337    -1323    -1367    -1386 
   -1318    -1239    -1256    -1325    -1348    -1321    -1275    -1262 
   -1271    -1252    -1258    -1314    -1360    -1360    -1296    -1228 
   -1251    -1291    -1279    -1255    -1233    -1237    -1281    -1328 
   -1362    -1372    -1354    -1358    -1395    -1404    -1359    -1281 
   -1208    -1197    -1250    -1278    -1221    -1139    -1136    -1239 
   -1368    -1452    -1498    -1524    -1514    -1489    -1471    -1433 
   -1348    -1212    -1069    -1016    -1073    -1178    -1298    -1359 
   -1306    -1246    -1278    -1358    -1431    -1437    -1374    -1350 
   -1406    -1482    -1495    -1405    -1277    -1193    -1169    -1181 
   -1194    -1200    -1210    -1255    -1364    -1498    -1549    -1468 
   -1321    -1236    -1269    -1324    -1304    -1219    -1138    -1127 
   -1189    -1252    -1270    -1252    -1213    -1198    -1263    -1370 
   -1455    -1518    -1539    -1494    -1394    -1271    -1198    -1200 
   -1220    -1229    -1225    -1231    -1271    -1323    -1343    -1331 
   -1306    -1298    -1317    -1354    -1401    -1451    -1463    -1412 
   -1331    -1275    -1277    -1313    -1321    -1313    -1354    -1417 
   -1433    -1379    -1286    -1194    -1119    -1063    -1063    -1182 
   -1363    -1456    -1441    -1409    -1413    -1462    -1501    -1468 
   -1371    -1283    -1262    -1263    -1224    -1170    -1146    -1125 
   -1092    -1101    -1163    -1240    -1355    -1498    -1580    -1557 
   -1466    -1366    -1279    -1213    -1169    -1116    -1093    -1183 
   -1364    -1517    -1555    -1493    -1358    -1202    -1136    -1188 
   -1260    -1278    -1244    -1247    -1363    -1498    -1506    -1397 
   -1285    -1237    -1225    -1219    -1251    -1318    -1358    -1367 
   -1381    -1399    -1389    -1327    -1263    -1246    -1270    -1335 
   -1413    -1463    -1458    -1402    -1402    -1472    -1439    -1297 
   -1215    -1240    -1320    -1368    -1304    -1175    -1104    -1129 
   -1179    -1173    -1143    -1181    -1279    -1375    -1449    -1471 
   -1418    -1331    -1287    -1316    -1336    -1290    -1252    -1286 
   -1363    -1401    -1314    -1185    -1132    -1128    -1151    -1201 
   -1244    -1294    -1358    -1391    -1420    -1467    -1497    -1471 
   -1404    -1381    -1424    -1413    -1279    -1119    -1030    -1034 
   -1102    -1208    -1323    -1414    -1467    -1498    -1534    -1547 
   -1495    -1437    -1412    -1387    -1337    -1269    -1212    -1189 
   -1202    -1260    -1296    -1231    -1177    -1235    -1305    -1271 
   -1142    -1071    -1174    -1331    -1385    -1344    -1309    -1351 
   -1447    -1502    -1451    -1321    -1242    -1254    -1263    -1264 
   -1302    -1331    -1304    -1270    -1296    -1336    -1308    -1232 
   -1194    -1244    -1351    -1448    -1480    -1453    -1404    -1312 
   -1194    -1125    -1138    -1242    -1364    -1378    -1336    -1360 
   -1401    -1393    -1345    -1287    -1246    -1221    -1220    -1231 
   -1233    -1247    -1271    -1266    -1248    -1244    -1255    -1300 
   -1377    -1422    -1437    -1460    -1489    -1534    -1574    -1540 
   -1456    -1368    -1285    -1200    -1107    -1073    -1161    -1306 
   -1412    -1443    -1440    -1417    -1344    -1242    -1179    -1175 
   -1193    -1177    -1116    -1089    -1167    -1333    -1445    -1420 
   -1352    -1324    -1308    -1281    -1242    -1206    -1173    -1131 
   -1124    -1181    -1248    -1283    -1301    -1325    -1377    -1474 
   -1591    -1645    -1603    -1570    -1605    -1597    -1482    -1341 
   -1220    -1129    -1105    -1116    -1136    -1215    -1340    -1417 
   -1425    -1418    -1424    -1409    -1325    -1200    -1135    -1223 
   -1387    -1406    -1252    -1138    -1174    -1281    -1297    -1185 
   -1121    -1213    -1347    -1412    -1406    -1368    -1304    -1192 
   -1078    -1044    -1111    -1228    -1344    -1421    -1460    -1478 
   -1474    -1463    -1441    -1382    -1291    -1204    -1158    -1206 
   -1304    -1320    -1273    -1291    -1381    -1474    -1525    -1513 
   -1468    -1410    -1379    -1394    -1359    -1242    -1127    -1065 
   -1070    -1082    -1036     -973     -967    -1077    -1269    -1412 
   -1479    -1552    -1660    -1772    -1775    -1621    -1451    -1370 
   -1290    -1135     -984     -947    -1031    -1119    -1115    -1109 
   -1217    -1359    -1409    -1364    -1350    -1487    -1688    -1746 
   -1645    -1525    -1482    -1468    -1381    -1209    -1067    -1053 
   -1109    -1128    -1147    -1208    -1233    -1224    -1251    -1291 
   -1282    -1266    -1296    -1297    -1224    -1165    -1204    -1327 
   -1379    -1293    -1194    -1159    -1177    -1243    -1296    -1305 
   -1344    -1433    -1563    -1676    -1683    -1621    -1522    -1364 
   -1231    -1175    -1155    -1167    -1225    -1314    -1390    -1422 
   -1470    -1536    -1494    -1302    -1093     -989     -967     -981 
   -1067    -1244    -1433    -1564    -1649    -1707    -1698    -1587 
   -1418    -1235    -1074     -976     -912     -822     -719     -714 
    -889    -1158    -1371    -1499    -1598    -1725    -1849    -1861 
   -1769    -1630    -1418    -1182    -1028     -978     -994    -1057 
   -1154    -1281    -1440    -1638    -1818    -1861    -1749    -1582 
   -1441    -1354    -1285    -1158     -997     -920     -958    -1048 
   -1123    -1144    -1120    -1071    -1007     -993    -1086    -1220 
   -1337    -1443    -1548    -1649    -1714    -1683    -1534    -1258 
    -934     -739     -768     -940    -1138    -1260    -1251    -1177 
   -1197    -1333    -1468    -1547    -1633    -1814    -2069    -2258 
   -2347    -2378    -2255    -1931    -1493    -1042     -693     -530 
    -533     -654     -853    -1107    -1381    -1555    -1516    -1277 
    -939     -625     -407     -325     -410     -654     -959    -1235 
   -1487    -1771    -2115    -2455    -2597    -2420    -2015    -1555 
   -1150     -823     -499     -167       16     -126     -643    -1372 
   -1996    -2297    -2253    -1950    -1587    -1325    -1170    -1062 
    -980     -997    -1193    -1443    -1513    -1314     -930     -572 
    -476     -715    -1190    -1740    -2247    -2706    -3048    -3090 
   -2790    -2262    -1664    -1178     -903     -780     -724     -735 
    -824     -903     -811     -521     -143      224      507      526 
      59     -788    -1598    -2110    -2330    -2384    -2416    -2419 
   -2253    -1934    -1660    -1575    -1675    -1813    -1836    -1748 
   -1584    -1366    -1163    -1003     -872     -791     -787     -892 
   -1069    -1192    -1212    -1231    -1325    -1459    -1521    -1379 
   -1028     -716     -685     -864     -996     -982    -1009    -1320 
   -1837    -2205    -2222    -2061    -2015    -2070    -1931    -1435 
    -793     -388     -403     -703     -990    -1132    -1200    -1262 
   -1385    -1610    -1872    -2004    -1810    -1289     -706     -367 
    -469     -900    -1271    -1408    -1398    -1328    -1300    -1379 
   -1502    -1598    -1605    -1498    -1398    -1435    -1626    -1856 
   -1948    -1896    -1795    -1599    -1332    -1152    -1071    -1007 
    -928     -837     -828     -988    -1205    -1337    -1278    -1027 
    -800     -737     -776     -873     -943     -923     -923    -1048 
   -1310    -1644    -1887    -1929    -1834    -1736    -1729    -1822 
   -1933    -1945    -1822    -1641    -1412    -1082     -741     -580 
    -689     -935    -1117    -1287    -1595    -1973    -2196    -2087 
   -1717    -1329    -1038     -805     -596     -461     -499     -697 
    -942    -1117    -1139    -1057    -1031    -1101    -1242    -1483 
   -1763    -1956    -2057    -2046    -1911    -1760    -1621    -1405 
   -1136     -949     -947    -1147    -1404    -1526    -1441    -1224 
   -1050    -1028    -1038     -934     -780     -745     -961    -1356 
   -1701    -1910    -1989    -1857    -1578    -1371    -1324    -1337 
   -1287    -1158    -1082    -1179    -1383    -1494    -1375    -1120 
    -992    -1105    -1294    -1405    -1432    -1386    -1262    -1158 
   -1242    -1498    -1676    -1657    -1553    -1453    -1356    -1254 
   -1177    -1165    -1193    -1213    -1215    -1193    -1120    -1011 
    -981    -1088    -1252    -1386    -1455    -1497    -1561    -1594 
   -1530    -1437    -1394    -1398    -1385    -1274    -1075     -891 
    -837     -928    -1012     -974     -913     -984    -1219    -1539 
   -1807    -1929    -1922    -1868    -1810    -1741    -1638    -1453 
   -1173     -878     -668     -625     -772     -988    -1165    -1331 
   -1521    -1722    -1907    -2000    -1935    -1734    -1485    -1220 
    -886     -483     -190     -202     -488     -899    -1329    -1691 
   -1926    -2046    -2047    -1894    -1579    -1208     -951     -904 
   -1070    -1340    -1543    -1610    -1559    -1448    -1355    -1285 
   -1220    -1171    -1212    -1386    -1591    -1746    -1830    -1783 
   -1629    -1474    -1355    -1200     -913     -585     -449     -599 
    -942    -1318    -1560    -1570    -1426    -1328    -1329    -1289 
   -1181    -1151    -1242    -1364    -1464    -1521    -1495    -1398 
   -1316    -1262    -1165    -1031     -946     -961    -1088    -1282 
   -1474    -1652    -1822    -1888    -1738    -1424    -1105     -908 
    -872     -950    -1046    -1112    -1177    -1246    -1290    -1321 
   -1333    -1310    -1304    -1350    -1449    -1601    -1726    -1771 
   -1787    -1780    -1698    -1566    -1439    -1347    -1290    -1188 
    -980     -797     -774     -870     -992    -1129    -1275    -1368 
   -1341    -1229    -1151    -1188    -1325    -1480    -1540    -1466 
   -1321    -1215    -1196    -1174    -1096    -1059    -1135    -1305 
   -1505    -1633    -1636    -1561    -1476    -1381    -1308    -1331 
   -1449    -1532    -1462    -1289    -1167    -1147    -1174    -1251 
   -1340    -1281    -1047     -903    -1046    -1383    -1717    -1868 
   -1744    -1464    -1243    -1129    -1035     -951     -966    -1065 
   -1177    -1329    -1529    -1694    -1738    -1629    -1420    -1256 
   -1235    -1305    -1406    -1552    -1656    -1605    -1467    -1333 
   -1232    -1196    -1163    -1123    -1155    -1205    -1206    -1201 
   -1173    -1108    -1035     -972     -946     -999    -1129    -1291 
   -1463    -1610    -1680    -1717    -1750    -1710    -1530    -1183 
    -756     -475     -510     -827    -1200    -1404    -1491    -1633 
   -1771    -1753    -1603    -1448    -1320    -1186    -1093    -1089 
   -1093    -1038    -1004    -1093    -1308    -1544    -1703    -1802 
   -1848    -1811    -1764    -1715    -1543    -1263    -1051     -980 
    -994     -999     -978    -1017    -1150    -1335    -1524    -1645 
   -1630    -1509    -1413    -1410    -1372    -1213    -1023     -861 
    -761     -797     -954    -1154    -1320    -1409    -1459    -1495 
   -1491    -1443    -1358    -1242    -1162    -1201    -1313    -1386 
   -1393    -1359    -1372    -1499    -1622    -1591    -1364    -1040 
    -873     -988    -1202    -1355    -1433    -1491    -1571    -1598 
   -1530    -1443    -1345    -1231    -1158    -1102    -1050    -1113 
   -1312    -1506    -1578    -1499    -1335    -1208    -1170    -1213 
   -1279    -1270    -1188    -1162    -1255    -1417    -1540    -1594 
   -1661    -1736    -1657    -1391    -1121    -1011    -1086    -1237 
   -1316    -1321    -1313    -1281    -1277    -1333    -1347    -1287 
   -1242    -1208    -1152    -1121    -1152    -1232    -1314    -1328 
   -1304    -1333    -1375    -1372    -1370    -1391    -1456    -1548 
   -1556    -1445    -1293    -1161    -1104    -1113    -1144    -1235 
   -1368    -1425    -1367    -1233    -1078     -980     -985    -1115 
   -1320    -1444    -1416    -1354    -1371    -1431    -1458    -1499 
   -1605    -1645    -1498    -1282    -1177    -1165    -1182    -1216 
   -1165    -1001     -899     -957    -1124    -1304    -1420    -1480 
   -1501    -1480    -1460    -1436    -1348    -1240    -1243    -1374 
   -1476    -1412    -1279    -1233    -1235    -1247    -1335    -1432 
