Origin Time       2025/03/30 21:30:00
Lat.              38.535
Long.             142.295
Depth. (km)       44
Mag.              4.3
Station Code      MYG010
Station Lat.      38.4292
Station Long.     141.2819
Station Height(m) 2
Record Time       2025/03/30 21:31:22
Sampling Freq(Hz) 100Hz
Duration Time(s)  60
Dir.              N-S
Scale Factor      7845(gal)/8223790
Max. Acc. (gal)   3.746
Last Correction   2025/03/30 21:31:22
Memo.             
[...]
     -45      -49      -45      -44      -45      -41      -40      -48 
     -56      -47      -33      -37      -44      -45      -51      -54 
     -54      -52      -52      -51      -36      -20      -28      -44 
     -49      -41      -33      -33      -39      -51      -55      -45 
     -41      -52      -62      -55      -51      -59      -54      -39 
     -47      -63      -63      -56      -52      -54      -60      -67 
     -79      -86      -72      -59      -60      -66      -62      -52 
     -51      -52      -51      -52      -55      -54      -56      -59 
     -58      -59      -64      -62      -52      -51      -55      -51 
     -39      -39      -51      -64      -62      -52      -48      -47 
     -48      -56      -55      -43      -41      -55      -62      -47 
     -29      -33      -51      -56      -47      -37      -33      -35 
     -44      -51      -56      -60      -51      -33      -35      -52 
     -59      -47      -37      -32      -29      -37      -47      -47 
     -41      -36      -40      -56      -59      -44      -41      -52 
     -59      -60      -60      -52      -43      -48      -63      -68 
     -63      -62      -62      -62      -63      -66      -59      -49 
     -47      -52      -67      -75      -62      -47      -41      -47 
     -74      -91      -68      -41      -51      -78      -72      -51 
     -47      -49      -47      -55      -66      -67      -60      -55 
     -54      -58      -64      -66      -62      -54      -48      -58 
     -62      -49      -44      -47      -51      -49      -40      -36 
     -48      -60      -55      -40      -41      -52      -47      -40 
     -45      -47      -39      -35      -41      -43      -41      -43 
     -44      -47      -44      -35      -36      -49      -52      -47 
     -48      -49      -40      -37      -48      -54      -52      -48 
     -45      -44      -49      -55      -48      -49      -64      -59 
     -33      -28      -56      -78      -68      -49      -43      -45 
     -63      -75      -63      -59      -68      -64      -56      -56 
     -68      -79      -72      -55      -44      -44      -49      -58 
     -74      -82      -66      -47      -47      -59      -75      -79 
     -68      -56      -54      -66      -78      -67      -48      -45 
     -49      -52      -63      -78      -66      -33      -29      -51 
     -55      -45      -51      -54      -37      -33      -45      -52 
     -54      -45      -28      -24      -41      -62      -66      -45 
     -21      -16      -25      -44      -56      -58      -49      -31 
     -27      -45      -47      -47      -60      -48      -27      -43 
     -67      -54      -31      -31      -36      -39      -49      -58 
     -58      -48      -37      -40      -52      -59      -64      -74 
     -81      -71      -51      -41      -41      -54      -79      -79 
     -41       -2      -12      -85     -135      -70       21       -2 
    -101     -113      -36       -1      -51     -108     -113     -110 
    -108      -43       22      -10      -86      -97      -58      -37 
     -16       10      -44     -162     -182      -55       25      -76 
    -160      -51       45      -29      -79      -18       14      -36 
    -121      -85       43       -2     -135     -110      -51      -45 
      -9        5      -62      -95       -2        8     -157     -168 
      36       99     -101     -302     -190      171      251     -129 
    -336      -66      145       75      -21     -121     -171      -59 
      31       52       36     -172     -284      -43      117       60 
      21     -116     -234      -28      125      -33     -124      -78 
     -55      -29      -29     -114     -182      -67       91       54 
    -130     -221      -31      184       86      -81      -45       -6 
     -51      -39       -6      -41     -122     -156      -49       -1 
    -148     -218     -139      -66      -12       41       43     -137 
    -398     -286      176      336       17     -282     -259        2 
     194       52     -252     -368     -124      252      237     -180 
    -442     -257      166      328      -45     -425     -247      132 
     180      -66     -270     -168       95      163       14     -145 
    -244     -230      -36      163       33     -321     -392      -62 
     294      355       78     -218     -194       47      229      145 
    -193     -400     -228       82      195       56     -155     -263 
    -168        9       25      -60      -87      -48       16       70 
     149      125     -118     -216      -28       63      -40     -182 
    -248     -141       32       43      -55      -24      114      147 
      -8     -197     -195      -68       -2       33      -25     -171 
    -163     -109     -102      -12      -40     -207     -184       -4 
      56      -33     -140     -157        9      210      187       49 
     -39     -128     -218     -220     -108        1       24      -28 
    -151     -238     -175      -37       78      109       -4      -87 
     -87     -203     -286     -129       47       35      -79     -128 
     -36      128      128     -108     -240     -143      -98     -103 
     -18      -31     -194     -290     -213       17      234      209 
      55       -9      -24       17       71      -37     -244     -336 
    -189       48       56     -105     -170     -135      -83       -4 
     114      193       79      -83       18      133      -76     -198 
      -2       62      -68      -82      -94     -164      -81      -29 
    -130     -122     -105     -228     -201      -28        9       67 
     260      264       79       13       35      -45     -126      -93 
    -113     -238     -321     -313     -182       48      178      114 
      40       28      -20       -5       72        6     -122     -198 
    -241      -99      125       52     -217     -321     -179       35 
      37     -172     -268     -145       49      164       54     -105 
     -59        8      -36     -101      -98       49       99      -78 
    -167     -136     -178     -283     -332     -182       40       99 
     113      187      194      110       55       10     -126     -237 
    -213     -164     -145     -122      -21       67      -59     -178 
    -120     -105      -97      -41      -45      -59      -97      -79 
     105      139      -85     -195     -167     -151      -10      128 
      33     -124     -224     -209       17      179       76      -43 
     -45        1       49      -14     -224     -301     -103      114 
     156       41     -145     -232     -133       29      140       93 
     -70      -52      133      145       27        8      -48     -168 
     -91       21      -74     -120        1       97       86      -51 
    -229     -232     -109      -93      -66       93      101      -91 
    -120        9      -37     -238     -368     -326     -128      -13 
     -17       78      126        2      -68      -39      -52     -168 
    -306     -299     -132      -52     -132     -175     -130      -40 
      24       -8      -74     -105      -27       59      -33     -144 
     -72      105      232      133     -135     -290     -240      -35 
     143       95      -22      -70      -85       -6       91       13 
    -118      -75       39       49       21      -32     -190     -241 
     -54       85       25     -117     -228     -182      -25        5 
    -145     -167       97      267       74     -179     -203     -126 
    -135     -171      -48      163      176        2      -75       -1 
      75        1     -176     -125      106       71     -141     -152 
     -67        4      149      222      126        2      -35      -27 
    -126     -344     -438     -301      -75      139      199      -47 
    -279     -207     -125     -202     -245     -210      -93      129 
     198       45      -24       25       48       -6     -151     -251 
    -174     -124     -228     -247     -125      -78     -153     -176 
       5      247      301      140      -79     -113      106      193 
     -20     -140     -126     -182     -191     -237     -380     -288 
     -18       58       55      152      190      112       51       22 
      -9        1       39       56        1     -145     -226     -175 
    -118      -91     -102     -137     -133     -110      -90      -16 
     147      280      271      220      153       18      -93     -199 
    -334     -326     -233     -237     -229     -137       64      314 
     270     -117     -495     -589     -329       72      225       97 
      36      124      199      210      101     -137     -356     -476 
    -459     -216       -9     -180     -330      -36      338      419 
     261       16     -108       32      205      110      -87     -163 
    -197     -280     -355     -286      -75       20      -47      -21 
      58       10     -103     -198     -201      -83       22       32 
      -2      -37      -35      -14      -41     -132     -265     -291 
    -118       45      112      140       68      -39       -6      155 
     214       18     -207     -210     -108      -37       27       22 
     -70     -128     -105      -49      -27        1       41        4 
     -35      -31     -122     -144        2      -22     -174     -174 
     -95       90      240       49     -244     -371     -321      -55 
     199      260      226        6     -232     -167      -68     -124 
    -156     -145      -99      -64     -108     -114      -24       62 
      55      -33      -20      120       86     -128     -267     -319 
    -228       14       63     -103     -153     -132     -120       67 
     210      -24     -310     -264      -75       71      183      189 
     126      -48     -328     -288       -1       -8     -198     -209 
     -40      106       78        1      -55     -144     -152     -144 
    -174      -95      -24      -59      -75      -16      114      190 
      93      -71     -140      -79      -31      -72     -106     -102 
     -56       56       75      -83     -162       41      286      156 
    -222     -268       25      130       -9     -149     -202      -89 
      55       40       12      -39     -197     -288     -253     -102 
     103      130      -58     -226     -164       29       16     -195 
    -253      -72       90      112       39     -118     -259     -283 
    -291     -226       14      203      228      171       25      -56 
     -27      -76     -176     -178      -55       49       54      112 
      97     -136     -176       83      280      342      216     -130 
    -364     -338     -260     -198     -109     -122     -206     -157 
     -75        4      132      121        8      -37      -41      -82 
    -195     -257     -228     -260     -270     -116       39       14 
    -110     -164     -144      -83       27       43      -76      -82 
     114      268      189        1      -64       -9       21      -12 
    -126     -274     -314     -380     -465     -217      216      441 
     504      403      195      126       67     -109     -292     -461 
    -535     -440     -168      207      396      270       13     -221 
    -325     -230      -35       51       -8      -82     -105       58 
     311      263       22      -48      -41      -97     -189     -334 
    -477     -483     -263       90      394      546      456      217 
     116       54     -184     -372     -352     -332     -329     -248 
    -194     -193     -151     -110      -79       32      133       67 
     -27      -32     -162     -414     -446     -195      103      217 
      59      -55       55       97        6      -85     -210     -193 
      27       48     -221     -338     -121      136      186      106 
     148      284      229      -29     -232     -240     -202     -292 
    -360     -152      155      170       28       89      189       48 
    -198     -298     -217     -117     -148     -249     -170      133 
     270       55     -102      -41       32      144      305      264 
      10     -155     -286     -541     -608     -322       99      392 
     319       44      -18       56      -87     -361     -402     -171 
      87      194       89      -37       54      179      203      183 
     -87     -469     -471     -216     -109     -118      -43      144 
     234      136       79       87        1       22      152       -2 
    -376     -599     -585     -322       89      363      355      168 
      32      -25     -110     -205     -322     -302      -64       56 
     101      306      383      167     -102     -274     -251     -228 
    -537     -924    -1043     -811     -259      238      434      531 
     549      360      145        2     -288     -724    -1024     -865 
     -89      900     1543     1768     1653     1248      683     -244 
   -1606    -2713    -2949    -2366    -1277     -166      603     1223 
    1863     2188     1809      816     -114     -637    -1148    -1597 
   -1467     -838       35      855      931      243     -411     -699 
    -595     -302     -521    -1219    -1449     -747      548     1609 
    1956     2218     2748     2718     1649     -113    -1984    -3248 
   -3659    -3322    -2119     -398     1078     1848     1624      807 
     232     -155     -450      -25     1217     2354     2254      684 
   -1259    -2258    -1912     -760      210      357     -168     -958 
   -1613    -1702    -1281     -730       63     1406     2984     3875 
    3279     1402     -724    -2295    -2763    -1907     -448      540 
     672      163     -693    -1486    -1633    -1017     -199      356 
     799     1282     1593     1587     1194      519      -59     -504 
    -889    -1081    -1151    -1210    -1258    -1298    -1192     -666 
     400     1567     1918     1225      306     -361     -980    -1362 
   -1067     -444      -99      197      699     1074     1186      901 
     247     -153     -202     -368     -602     -681     -510       51 
     568      500       91     -213     -207       43       13     -554 
   -1019     -751       27      612      406     -534    -1333    -1255 
    -468      284      453      176     -166     -330      -40      411 
     282     -205      -29      989     1706     1264      530      499 
     708      475     -284    -1198    -1351     -419      514      502 
    -301    -1441    -2324    -2146     -926      363     1085     1455 
    1648     1572     1375      918     -143    -1213    -1347     -600 
     226      569      241     -571    -1209    -1283     -999     -361 
     580      970      164    -1011    -1356     -934     -411      279 
    1350     2173     1918      689     -558    -1165    -1201     -965 
    -661     -206      421      711      402     -164     -669     -889 
    -612      220     1277     1690     1026       12     -660    -1040 
   -1156     -947     -567     -157      218      396      124     -622 
   -1382    -1401     -170     1734     2635     1703       91     -924 
   -1155     -835     -500     -711    -1283    -1405     -616      530 
    1127     1092      909      576      -24     -602     -916     -642 
     201      796      807      534       28     -542     -769     -592 
    -263        6      103        6       -9      423     1084     1444 
    1390      866      -95     -903    -1138     -978     -745     -716 
    -850     -815     -612     -349      217     1004     1499     1559 
    1244      496     -581    -1640    -2157    -1896    -1162     -234 
     861     1736     1621      627     -195     -557     -745     -675 
    -402      -20      391      425       45     -233     -144        6 
    -140     -503     -801     -851     -616     -338     -155      184 
     695      965      741      174     -324     -392      -99      294 
     639      737      575      279     -267     -770     -677     -189 
     114      -64     -561    -1001    -1244     -981     -132      469 
     521      548      526      334      122     -236     -561     -353 
     211      496      299     -179     -668     -785     -237      635 
    1003      642      125     -260     -533     -625     -683     -750 
    -565     -126      341      683      873      985      787      170 
    -395     -683     -754     -468      -35       -2     -336     -476 
    -282      -99     -112     -329     -684     -796     -492     -114 
     253      756     1231     1456     1255      546     -313     -683 
    -417     -116     -292     -773    -1073     -996     -768     -584 
    -437     -294      -27      417      819     1042      989      595 
     167      -17      -49     -228     -664     -903     -704     -471 
    -278       68      387      530      708      909      730      198 
    -108     -106     -180     -309     -221       45       99     -256 
    -580     -498     -209       67      286      286       83      -76 
    -207     -314     -245     -241     -560     -853     -773     -391 
      59      414      619      561      379      352      298       -6 
    -311     -318     -120      -51     -144     -121       21       99 
     130      141      179      326      270     -129     -419     -481 
    -394       49      511      355     -199     -561     -517     -267 
    -267     -562     -803     -881     -818     -552     -162      159 
     345      479      603      634      472       94     -410     -781 
    -762     -399       49      415      550      383      205      234 
     237      137      130       95     -213     -645     -924     -911 
    -531       27      449      688      793      560       71     -190 
    -275     -368     -306     -261     -386     -472     -495     -395 
    -168      -48       78      365      549      557      510      345 
     128       72      101       91      144      103     -191     -314 
      18      452      556      264     -110     -275     -299     -357 
    -340      -85      241      348      102     -395     -742     -677 
    -423     -276     -388     -603     -473      -58      237      469 
     629      480      233       13     -407     -846     -994     -900 
    -550      -37      244      174      114      290      436      392 
     403      427      101     -337     -400     -245      -85       95 
     140      112      194      213       62      -67      -64      -48 
    -203     -540     -814     -792     -429       97      367      180 
    -163     -351     -394     -410     -434     -585     -831     -653 
      12      432      382      174       -5       32      226      309 
     388      579      603      365      176      191      279      256 
      72       12      213      405      429      210     -222     -456 
    -295      -67       49      106       44     -113     -221     -328 
    -517     -604     -441     -143       44        5     -117     -164 
     -74      140      275      179      -25     -178     -255     -324 
    -357     -311     -306     -291     -125      136      453      652 
     577      411      240       47      -64      -67      -48     -108 
    -236     -468     -816     -934     -689     -475     -480     -639 
    -730     -414       75      261      172       -2      -99      -40 
     -71     -148      121      604      814      607      175     -286 
