Origin Time       2025/03/30 21:30:00
Lat.              38.535
Long.             142.295
Depth. (km)       44
Mag.              4.3
Station Code      MYG015
Station Lat.      38.1037
Station Long.     140.8708
Station Height(m) 3
Record Time       2025/03/30 21:31:33
Sampling Freq(Hz) 100Hz
Duration Time(s)  60
Dir.              E-W
Scale Factor      7845(gal)/8223790
Max. Acc. (gal)   2.437
Last Correction   2025/03/30 21:31:32
Memo.             
[...]
  -12159   -12159   -12236   -12307   -12451   -12663   -12742   -12646 
  -12540   -12499   -12529   -12611   -12646   -12579   -12433   -12255 
  -12166   -12220   -12333   -12415   -12425   -12399   -12428   -12536 
  -12604   -12484   -12256   -12120   -12060   -12017   -12097   -12324 
  -12557   -12683   -12690   -12664   -12665   -12637   -12523   -12383 
  -12266   -12163   -12131   -12166   -12182   -12201   -12253   -12309 
  -12361   -12449   -12584   -12661   -12623   -12583   -12569   -12511 
  -12440   -12407   -12407   -12403   -12380   -12390   -12469   -12513 
  -12425   -12320   -12328   -12341   -12262   -12189   -12185   -12232 
  -12321   -12406   -12480   -12550   -12572   -12534   -12474   -12438 
  -12407   -12357   -12359   -12375   -12321   -12291   -12321   -12318 
  -12313   -12368   -12434   -12494   -12555   -12572   -12557   -12548 
  -12496   -12378   -12303   -12334   -12353   -12351   -12406   -12465 
  -12505   -12552   -12565   -12564   -12537   -12442   -12330   -12270 
  -12289   -12363   -12418   -12424   -12393   -12352   -12344   -12395 
  -12441   -12397   -12316   -12237   -12141   -12098   -12162   -12272 
  -12329   -12310   -12318   -12438   -12609   -12696   -12644   -12548 
  -12521   -12529   -12492   -12403   -12322   -12289   -12303   -12334 
  -12291   -12218   -12217   -12236   -12301   -12438   -12486   -12448 
  -12490   -12564   -12577   -12571   -12550   -12496   -12463   -12472 
  -12469   -12434   -12382   -12344   -12352   -12351   -12312   -12303 
  -12322   -12325   -12333   -12332   -12317   -12351   -12405   -12451 
  -12559   -12648   -12560   -12410   -12394   -12445   -12441   -12399 
  -12329   -12255   -12259   -12341   -12440   -12471   -12421   -12391 
  -12442   -12515   -12536   -12502   -12487   -12486   -12428   -12363 
  -12370   -12378   -12309   -12235   -12213   -12244   -12316   -12326 
  -12274   -12279   -12307   -12295   -12324   -12391   -12445   -12496 
  -12482   -12378   -12361   -12491   -12602   -12631   -12606   -12509 
  -12388   -12345   -12353   -12339   -12334   -12363   -12324   -12244 
  -12301   -12475   -12582   -12536   -12445   -12465   -12546   -12515 
  -12402   -12343   -12306   -12218   -12174   -12243   -12348   -12459 
  -12572   -12613   -12580   -12525   -12459   -12421   -12414   -12393 
  -12391   -12413   -12367   -12286   -12276   -12291   -12263   -12262 
  -12356   -12464   -12483   -12442   -12415   -12399   -12383   -12360 
  -12299   -12214   -12221   -12384   -12540   -12513   -12409   -12407 
  -12464   -12494   -12540   -12604   -12609   -12556   -12491   -12410 
  -12332   -12298   -12325   -12403   -12459   -12411   -12320   -12329 
  -12424   -12447   -12375   -12318   -12306   -12321   -12351   -12372 
  -12402   -12452   -12471   -12437   -12384   -12387   -12478   -12555 
  -12550   -12496   -12395   -12306   -12305   -12310   -12256   -12217 
  -12235   -12270   -12314   -12376   -12433   -12455   -12409   -12345 
  -12366   -12415   -12413   -12441   -12529   -12590   -12603   -12596 
  -12590   -12588   -12544   -12444   -12359   -12317   -12309   -12321 
  -12332   -12305   -12233   -12217   -12359   -12532   -12587   -12563 
  -12509   -12452   -12425   -12387   -12309   -12255   -12235   -12208 
  -12244   -12376   -12490   -12502   -12432   -12353   -12316   -12297 
  -12270   -12239   -12229   -12282   -12349   -12375   -12405   -12449 
  -12460   -12501   -12622   -12714   -12718   -12684   -12611   -12507 
  -12420   -12363   -12347   -12321   -12199   -12097   -12183   -12370 
  -12472   -12482   -12490   -12474   -12370   -12280   -12290   -12314 
  -12339   -12379   -12375   -12349   -12378   -12467   -12594   -12710 
  -12731   -12637   -12521   -12434   -12316   -12218   -12237   -12259 
  -12186   -12144   -12255   -12456   -12586   -12557   -12456   -12418 
  -12447   -12445   -12374   -12295   -12298   -12375   -12464   -12533 
  -12541   -12469   -12417   -12463   -12513   -12471   -12428   -12415 
  -12317   -12199   -12212   -12264   -12253   -12247   -12302   -12410 
  -12506   -12509   -12447   -12413   -12403   -12414   -12474   -12526 
  -12538   -12565   -12561   -12459   -12337   -12282   -12262   -12244 
  -12231   -12243   -12286   -12329   -12384   -12457   -12529   -12614 
  -12664   -12576   -12429   -12353   -12318   -12289   -12312   -12391 
  -12484   -12544   -12509   -12421   -12384   -12383   -12364   -12330 
  -12276   -12244   -12291   -12332   -12289   -12271   -12356   -12444 
  -12455   -12461   -12511   -12560   -12584   -12548   -12478   -12468 
  -12465   -12351   -12181   -12108   -12198   -12359   -12428   -12432 
  -12502   -12567   -12515   -12422   -12386   -12405   -12452   -12468 
  -12393   -12285   -12263   -12321   -12376   -12402   -12413   -12430 
  -12511   -12621   -12631   -12548   -12478   -12398   -12303   -12283 
  -12272   -12206   -12167   -12150   -12123   -12151   -12226   -12302 
  -12395   -12467   -12472   -12452   -12471   -12534   -12569   -12540 
  -12511   -12509   -12499   -12480   -12448   -12368   -12285   -12312 
  -12442   -12557   -12555   -12445   -12343   -12294   -12287   -12312 
  -12301   -12285   -12380   -12545   -12648   -12660   -12623   -12552 
  -12442   -12337   -12314   -12363   -12393   -12383   -12329   -12213 
  -12132   -12167   -12212   -12243   -12374   -12577   -12694   -12669 
  -12604   -12579   -12561   -12491   -12363   -12220   -12181   -12316 
  -12484   -12550   -12545   -12467   -12324   -12295   -12394   -12372 
  -12201   -12071   -12089   -12248   -12411   -12436   -12399   -12426 
  -12526   -12646   -12739   -12806   -12776   -12600   -12422   -12344 
  -12318   -12309   -12272   -12235   -12293   -12379   -12351   -12251 
  -12205   -12239   -12306   -12340   -12343   -12391   -12460   -12471 
  -12436   -12420   -12397   -12321   -12303   -12394   -12437   -12403 
  -12415   -12459   -12449   -12433   -12475   -12501   -12436   -12382 
  -12430   -12499   -12518   -12517   -12490   -12430   -12422   -12475 
  -12501   -12459   -12393   -12363   -12364   -12390   -12425   -12374 
  -12280   -12312   -12455   -12548   -12488   -12353   -12318   -12394 
  -12460   -12415   -12259   -12129   -12110   -12133   -12186   -12274 
  -12361   -12445   -12499   -12503   -12505   -12538   -12594   -12590 
  -12486   -12421   -12463   -12483   -12464   -12519   -12582   -12502 
  -12353   -12249   -12235   -12367   -12510   -12459   -12293   -12187 
  -12199   -12294   -12324   -12235   -12194   -12262   -12363   -12549 
  -12766   -12807   -12691   -12586   -12528   -12502   -12469   -12334 
  -12151   -12104   -12174   -12194   -12166   -12193   -12291   -12386 
  -12438   -12511   -12640   -12754   -12791   -12704   -12509   -12330 
  -12209   -12132   -12205   -12393   -12465   -12368   -12293   -12356 
  -12428   -12410   -12384   -12345   -12264   -12287   -12407   -12480 
  -12536   -12571   -12484   -12376   -12378   -12405   -12417   -12437 
  -12395   -12343   -12410   -12492   -12432   -12294   -12225   -12253 
  -12320   -12394   -12471   -12521   -12498   -12370   -12224   -12208 
  -12298   -12324   -12259   -12229   -12249   -12295   -12414   -12556 
  -12618   -12610   -12592   -12584   -12556   -12499   -12445   -12382 
  -12312   -12332   -12457   -12529   -12482   -12452   -12475   -12452 
  -12426   -12490   -12555   -12480   -12299   -12170   -12118   -12082 
  -12108   -12232   -12384   -12546   -12696   -12712   -12627   -12615 
  -12658   -12590   -12382   -12175   -12112   -12154   -12178   -12224 
  -12370   -12523   -12565   -12488   -12411   -12434   -12491   -12486 
  -12453   -12402   -12264   -12124   -12135   -12290   -12467   -12579 
  -12652   -12733   -12777   -12744   -12637   -12459   -12253   -12087 
  -11993   -12013   -12145   -12290   -12378   -12411   -12410   -12440 
  -12526   -12563   -12486   -12405   -12406   -12395   -12301   -12252 
  -12357   -12509   -12557   -12495   -12391   -12326   -12345   -12414 
  -12430   -12339   -12236   -12263   -12405   -12532   -12580   -12563 
  -12507   -12486   -12522   -12537   -12505   -12463   -12409   -12330 
  -12236   -12162   -12166   -12258   -12349   -12382   -12437   -12563 
  -12669   -12661   -12536   -12364   -12209   -12143   -12239   -12401 
  -12480   -12487   -12441   -12359   -12341   -12417   -12457   -12380 
  -12278   -12245   -12306   -12449   -12559   -12577   -12557   -12474 
  -12306   -12166   -12187   -12375   -12541   -12561   -12526   -12523 
  -12532   -12529   -12545   -12565   -12525   -12422   -12359   -12417 
  -12538   -12621   -12552   -12294   -12070   -12069   -12164   -12194 
  -12132   -12020   -11979   -12085   -12278   -12496   -12653   -12656 
  -12607   -12602   -12575   -12545   -12519   -12390   -12206   -12123 
  -12179   -12310   -12363   -12313   -12376   -12569   -12684   -12681 
  -12618   -12510   -12434   -12411   -12418   -12453   -12445   -12347 
  -12280   -12299   -12334   -12382   -12421   -12426   -12428   -12407 
  -12359   -12344   -12340   -12309   -12279   -12264   -12305   -12430 
  -12506   -12448   -12371   -12366   -12440   -12530   -12555   -12565 
  -12645   -12753   -12788   -12648   -12407   -12293   -12282   -12205 
  -12078   -11965   -11928   -12040   -12237   -12415   -12521   -12546 
  -12549   -12529   -12463   -12457   -12561   -12673   -12714   -12625 
  -12414   -12222   -12133   -12116   -12147   -12179   -12218   -12348 
  -12492   -12529   -12528   -12507   -12434   -12382   -12348   -12332 
  -12436   -12602   -12649   -12572   -12463   -12384   -12347   -12324 
  -12324   -12337   -12345   -12410   -12506   -12519   -12459   -12398 
  -12357   -12345   -12376   -12475   -12622   -12691   -12594   -12445 
  -12368   -12357   -12382   -12418   -12386   -12263   -12181   -12213 
  -12272   -12282   -12275   -12253   -12178   -12085   -12056   -12127 
  -12222   -12274   -12345   -12449   -12519   -12584   -12661   -12722 
  -12783   -12807   -12738   -12645   -12588   -12550   -12529   -12499 
  -12429   -12394   -12496   -12622   -12577   -12438   -12326   -12181 
  -12031   -11988   -12035   -12105   -12170   -12206   -12225   -12298 
  -12429   -12522   -12569   -12641   -12677   -12599   -12514   -12482 
  -12383   -12221   -12106   -12039   -12044   -12185   -12374   -12478 
  -12529   -12594   -12615   -12577   -12550   -12530   -12487   -12441 
  -12386   -12383   -12565   -12761   -12657   -12395   -12276   -12259 
  -12259   -12298   -12352   -12406   -12475   -12488   -12424   -12368 
  -12343   -12313   -12313   -12348   -12429   -12538   -12548   -12476 
  -12445   -12399   -12302   -12291   -12349   -12310   -12195   -12131 
  -12160   -12262   -12353   -12366   -12294   -12240   -12328   -12492 
  -12572   -12587   -12626   -12653   -12623   -12621   -12683   -12630 
  -12382   -12140   -12090   -12218   -12352   -12325   -12239   -12263 
  -12351   -12447   -12563   -12644   -12690   -12733   -12669   -12465 
  -12278   -12212   -12222   -12235   -12237   -12258   -12209   -12087 
  -12132   -12367   -12511   -12490   -12393   -12303   -12382   -12613 
  -12760   -12746   -12648   -12540   -12457   -12407   -12432   -12490 
  -12465   -12347   -12206   -12164   -12316   -12544   -12604   -12447 
  -12279   -12307   -12468   -12517   -12383   -12248   -12212   -12213 
  -12237   -12276   -12249   -12179   -12152   -12201   -12359   -12555 
  -12583   -12459   -12433   -12533   -12613   -12663   -12696   -12661 
  -12523   -12316   -12175   -12222   -12399   -12519   -12461   -12355 
  -12382   -12484   -12513   -12461   -12410   -12361   -12291   -12263 
  -12325   -12403   -12434   -12464   -12478   -12411   -12322   -12312 
  -12390   -12555   -12765   -12845   -12741   -12623   -12548   -12480 
  -12433   -12303   -12036   -11827   -11834   -11979   -12112   -12189 
  -12297   -12390   -12334   -12295   -12484   -12710   -12731   -12627 
  -12555   -12564   -12622   -12626   -12456   -12127   -11861   -11809 
  -11865   -11869   -11836   -11912   -12093   -12258   -12449   -12700 
  -12889   -13018   -13105   -12958   -12606   -12456   -12603   -12704 
  -12618   -12510   -12476   -12480   -12519   -12621   -12699   -12588 
  -12256   -11931   -11915   -12216   -12544   -12672   -12590   -12409 
  -12297   -12349   -12505   -12584   -12511   -12418   -12406   -12432 
  -12513   -12630   -12592   -12386   -12224   -12193   -12220   -12217 
  -12132   -12069   -12164   -12295   -12318   -12356   -12495   -12627 
  -12739   -12910   -13092   -13228   -13358   -13396   -13055   -12256 
  -11468   -11146   -11111   -11020   -10837   -10655   -10652   -10975 
  -11524   -12066   -12441   -12739   -13163   -13751   -14327   -14580 
  -14274   -13589   -13012   -12768   -12727   -12710   -12474   -11911 
  -11394   -11327   -11638   -12035   -12351   -12480   -12421   -12326 
  -12387   -12592   -12717   -12672   -12611   -12633   -12718   -12799 
  -12849   -12926   -12955   -12764   -12368   -11951   -11681   -11605 
  -11599   -11572   -11616   -11758   -11890   -11956   -12027   -12224 
  -12496   -12672   -12738   -12776   -12717   -12444   -12131   -12131 
  -12428   -12712   -12951   -13161   -13107   -12843   -12757   -12819 
  -12657   -12206   -11692   -11315   -11244   -11539   -11975   -12249 
  -12413   -12726   -13169   -13575   -13895   -13964   -13668   -13216 
  -12764   -12294   -11851   -11412   -10949   -10621   -10513   -10604 
  -11056   -11929   -12923   -13701   -14192   -14473   -14543   -14354 
  -13945   -13379   -12580   -11545   -10617   -10056    -9848   -10080 
  -10643   -11137   -11564   -12226   -13122   -13980   -14551   -14679 
  -14386   -13867   -13371   -12987   -12563   -11993   -11362   -10801 
  -10488   -10659   -11261   -11951   -12482   -12675   -12491   -12356 
  -12623   -13130   -13589   -13814   -13749   -13502   -13192   -12895 
  -12644   -12391   -12128   -11854   -11587   -11450   -11425   -11383 
  -11419   -11680   -12100   -12391   -12252   -11854   -11704   -11948 
  -12386   -12841   -13173   -13347   -13483   -13625   -13720   -13775 
  -13678   -13267   -12708   -12251   -11989   -12031   -12278   -12307 
  -11894   -11248   -10770   -10787   -11244   -11758   -12031   -11962 
  -11723   -11746   -12209   -12789   -13074   -12924   -12556   -12344 
  -12397   -12580   -12779   -12802   -12588   -12487   -12729   -13057 
  -13211   -13221   -13153   -12991   -12798   -12629   -12363   -11939 
  -11524   -11330   -11438   -11684   -11855   -11993   -12177   -12344 
  -12449   -12559   -12791   -13103   -13331   -13448   -13428   -13261 
  -13139   -13047   -12779   -12407   -12074   -11782   -11546   -11330 
  -11129   -11048   -11148   -11414   -11871   -12478   -12985   -13281 
  -13524   -13645   -13468   -13254   -13255   -13273   -13084   -12660 
  -12106   -11670   -11522   -11601   -11736   -11767   -11674   -11561 
  -11597   -11923   -12356   -12515   -12387   -12397   -12798   -13296 
  -13475   -13393   -13270   -12982   -12474   -11988   -11647   -11414 
  -11322   -11311   -11267   -11268   -11441   -11719   -11956   -12190 
  -12594   -13120   -13536   -13853   -14142   -14193   -13919   -13474 
  -12945   -12448   -12032   -11596   -11267   -11344   -11840   -12391 
  -12607   -12463   -12271   -12340   -12658   -12897   -12831   -12541 
  -12226   -12059   -12070   -12168   -12240   -12160   -12050   -12163 
  -12420   -12611   -12708   -12733   -12688   -12580   -12509   -12560 
  -12607   -12525   -12409   -12391   -12572   -12950   -13244   -13144 
  -12700   -12182   -11855   -11848   -11907   -11722   -11607   -12010 
  -12619   -12856   -12733   -12546   -12437   -12428   -12401   -12168 
  -11789   -11500   -11286   -11098   -11190   -11668   -12218   -12507 
  -12587   -12787   -13207   -13614   -13764   -13598   -13329   -13159 
  -12972   -12661   -12293   -11817   -11254   -10933   -11028   -11330 
  -11647   -11915   -12108   -12329   -12725   -13223   -13571   -13626 
  -13440   -13100   -12708   -12432   -12371   -12386   -12276   -12058 
  -11877   -11854   -12075   -12461   -12768   -12860   -12803   -12665 
  -12507   -12529   -12804   -12930   -12569   -12020   -11705   -11618 
  -11554   -11500   -11730   -12356   -12933   -13142   -13298   -13595 
  -13734   -13535   -13134   -12694   -12353   -12232   -12287   -12349 
  -12305   -12199   -12090   -11896   -11569   -11306   -11295   -11407 
  -11477   -11596   -11774   -11920   -12116   -12391   -12640   -12830 
  -12919   -12883   -12854   -12869   -12792   -12618   -12525   -12603 
  -12702   -12752   -12862   -12911   -12663   -12186   -11712   -11553 
  -11928   -12573   -12985   -12938   -12575   -12195   -12005   -12033 
  -12132   -12116   -11992   -11792   -11576   -11632   -12069   -12618 
  -13122   -13501   -13636   -13648   -13695   -13683   -13506   -13178 
  -12714   -12218   -11881   -11718   -11641   -11649   -11749   -11911 
  -12083   -12251   -12422   -12534   -12625   -12742   -12741   -12603 
  -12471   -12287   -12042   -11975   -12162   -12405   -12625   -12779 
  -12758   -12602   -12317   -11834   -11404   -11342   -11585   -11901 
  -12151   -12255   -12251   -12339   -12525   -12584   -12523   -12484 
  -12444   -12382   -12309   -12252   -12224   -12164   -12105   -12133 
  -12201   -12309   -12565   -12965   -13304   -13358   -13107   -12733 
  -12456   -12429   -12660   -12953   -12991   -12687   -12399   -12433 
  -12696   -13024   -13230   -13096   -12657   -12181   -11955   -12002 
  -11988   -11703   -11392   -11326   -11504   -11888   -12399   -12816 
  -13042   -13081   -12854   -12515   -12351   -12295   -12213   -12239 
  -12432   -12590   -12564   -12448   -12279   -12032   -11935   -12013 
  -11920   -11731   -11859   -12252   -12610   -12830   -12980   -13140 
  -13178   -12987   -12885   -13069   -13158   -12877   -12395   -11954 
  -11655   -11410   -11171   -11144   -11398   -11770   -12158   -12460 
  -12588   -12672   -12857   -13041   -13084   -13038   -12961   -12861 
  -12722   -12495   -12225   -12033   -11946   -11986   -12237   -12614 
  -12807   -12630   -12214   -11819   -11587   -11604   -11951   -12449 
  -12694   -12592   -12457   -12505   -12667   -12831   -12972   -13046 
  -13063   -13196   -13427   -13439   -13126   -12704   -12337   -12067 
  -11871   -11692   -11557   -11492   -11460   -11438   -11408   -11469 
  -11804   -12321   -12808   -13227   -13498   -13527   -13354   -13011 
  -12645   -12499   -12488   -12384   -12197   -12067   -12033   -11977 
  -11869   -11843   -11881   -11877   -11874   -11897   -11869   -11867 
  -12150   -12650   -12937   -12870   -12730   -12702   -12753   -12838 
  -12943   -13038   -13082   -13073   -13062   -12987   -12687   -12229 
  -11815   -11508   -11283   -11169   -11315   -11674   -11952   -12098 
  -12247   -12341   -12402   -12640   -13062   -13521   -13900   -13994 
  -13718   -13323   -13018   -12802   -12598   -12329   -12066   -11940 
  -11967   -12054   -12063   -11971   -11854   -11782   -11853   -12056 
  -12262   -12420   -12501   -12395   -12177   -12060   -12070   -12078 
  -12059   -12109   -12322   -12569   -12582   -12391   -12248   -12205 
  -12213   -12310   -12501   -12664   -12644   -12453   -12303   -12236 
  -12035   -11700   -11534   -11645   -11893   -12253   -12718   -13088 
  -13255   -13263   -13140   -12962   -12823   -12810   -12915   -12924 
