Origin Time       2025/03/30 21:30:00
Lat.              38.535
Long.             142.295
Depth. (km)       44
Mag.              4.3
Station Code      MYG018
Station Lat.      38.7194
Station Long.     141.5228
Station Height(m) 24
Record Time       2025/03/30 21:31:17
Sampling Freq(Hz) 100Hz
Duration Time(s)  60
Dir.              E-W
Scale Factor      7845(gal)/8223790
Max. Acc. (gal)   6.116
Last Correction   2025/03/30 21:31:17
Memo.             
[...]
    7009     7009     7013     7011     7010     7013     7013     7010 
    7011     7013     7011     7011     7013     7010     7011     7013 
    7010     7009     7013     7014     7011     7013     7013     7010 
    7009     7009     7010     7011     7010     7011     7011     7009 
    7009     7010     7010     7010     7011     7011     7011     7010 
    7010     7013     7011     7010     7013     7014     7010     7011 
    7014     7013     7010     7010     7011     7011     7011     7010 
    7010     7011     7011     7010     7010     7010     7011     7013 
    7011     7010     7010     7011     7013     7011     7009     7009 
    7011     7010     7011     7014     7014     7009     7009     7013 
    7013     7010     7010     7010     7009     7009     7009     7011 
    7011     7010     7010     7011     7013     7011     7010     7010 
    7011     7010     7011     7011     7010     7011     7011     7010 
    7009     7010     7013     7011     7009     7007     7009     7009 
    7009     7007     7007     7010     7011     7010     7010     7010 
    7009     7009     7010     7011     7010     7010     7010     7011 
    7010     7009     7010     7010     7009     7009     7009     7011 
    7011     7011     7010     7009     7011     7013     7011     7010 
    7009     7007     7010     7010     7011     7011     7010     7009 
    7009     7010     7010     7009     7009     7010     7013     7011 
    7009     7007     7009     7010     7010     7013     7013     7009 
    7010     7011     7009     7010     7011     7010     7010     7010 
    7009     7010     7010     7009     7009     7007     7010     7014 
    7010     7009     7011     7009     7007     7011     7011     7010 
    7010     7011     7010     7009     7010     7010     7009     7010 
    7010     7009     7011     7013     7011     7011     7010     7010 
    7010     7011     7010     7009     7011     7011     7007     7007 
    7010     7011     7011     7010     7010     7010     7010     7011 
    7011     7009     7010     7013     7009     7010     7011     7009 
    7005     7006     7009     7011     7011     7009     7009     7010 
    7011     7010     7010     7013     7013     7010     7009     7011 
    7010     7009     7009     7009     7009     7010     7009     7010 
    7011     7010     7010     7010     7010     7010     7010     7010 
    7014     7013     7007     7006     7010     7011     7010     7010 
    7010     7010     7010     7010     7009     7010     7013     7011 
    7009     7010     7011     7010     7010     7013     7011     7010 
    7011     7013     7011     7011     7010     7010     7011     7013 
    7013     7013     7011     7011     7014     7014     7010     7010 
    7013     7013     7010     7011     7013     7011     7009     7009 
    7011     7011     7010     7013     7011     7009     7010     7010 
    7009     7009     7010     7011     7011     7009     7011     7013 
    7011     7011     7011     7010     7010     7011     7010     7007 
    7009     7010     7010     7013     7014     7010     7011     7014 
    7011     7010     7010     7009     7009     7010     7010     7010 
    7014     7014     7010     7007     7010     7010     7007     7009 
    7011     7010     7009     7007     7009     7011     7010     7009 
    7011     7013     7011     7010     7010     7010     7009     7009 
    7013     7013     7011     7011     7011     7010     7010     7009 
    7009     7009     7007     7009     7011     7011     7011     7011 
    7011     7013     7011     7010     7009     7010     7010     7007 
    7010     7010     7010     7011     7011     7010     7009     7010 
    7011     7010     7009     7011     7013     7011     7011     7013 
    7011     7009     7009     7009     7010     7014     7011     7009 
    7010     7011     7009     7009     7009     7010     7009     7009 
    7013     7013     7011     7010     7011     7011     7013     7013 
    7011     7011     7013     7013     7010     7009     7011     7013 
    7010     7011     7011     7011     7011     7011     7009     7010 
    7011     7010     7010     7010     7011     7010     7011     7011 
    7010     7010     7011     7013     7011     7011     7013     7011 
    7009     7007     7011     7014     7010     7009     7010     7009 
    7010     7013     7013     7011     7011     7010     7009     7010 
    7011     7009     7010     7013     7011     7010     7011     7010 
    7010     7009     7009     7010     7013     7011     7010     7010 
    7010     7011     7013     7010     7009     7010     7011     7010 
    7010     7009     7005     7002     7002     6997     6991     6988 
    6979     6967     6963     6975     7006     7032     7026     6998 
    6988     7036     7137     7218     7187     7060     6960     6978 
    7049     7025     6849     6654     6660     6917     7222     7372 
    7308     7044     6744     6706     6972     7303     7474     7250 
    6705     6390     6647     7252     7627     7472     7165     6972 
    6779     6720     6794     6700     6637     6849     7114     7368 
    7372     7028     7061     7299     6975     6783     7156     7267 
    6964     6644     6447     6529     6925     7300     7369     7360 
    7376     7230     6980     6620     6357     6693     7425     7855 
    7469     6628     6561     7118     6930     6536     7078     7492 
    7075     6791     6859     7145     7584     7329     6465     6173 
    6812     7515     7341     6824     6751     6822     6986     7153 
    7126     7362     7753     7620     6867     6265     6457     6818 
    6901     7032     7078     6820     6609     7021     7609     7349 
    6907     7241     7454     7110     6851     6562     6484     6844 
    6786     6763     7457     7769     7446     7155     6793     6513 
    6602     6843     7140     7402     7418     7059     6596     6542 
    6829     7210     7430     7203     6874     6798     6825     6988 
    7371     7599     7319     6762     6490     6459     6453     6959 
    7388     6910     6762     7627     8185     7547     6655     6581 
    6623     6416     6727     7236     7275     6972     6764     6990 
    7317     7353     7272     7044     6644     6454     6515     6871 
    7555     7657     7061     6906     7113     7086     7048     6930 
    6669     6814     7307     7412     6949     6586     6783     7037 
    7010     6910     7036     7446     7285     6747     6953     7074 
    6777     7148     7597     7159     6486     6546     7176     7464 
    7330     7160     6817     6583     6764     7026     7115     6952 
    6832     7045     7241     7192     7083     7036     6952     6671 
    6628     7173     7488     7199     6916     6642     6521     7150 
    7770     7226     6447     6733     7213     7080     7068     7260 
    7145     6829     6689     6952     7211     7057     6837     6860 
    6922     6840     7025     7470     7350     6993     7076     7086 
    6818     6555     6679     7214     7281     6913     6839     6964 
    7168     7415     7248     6708     6671     7079     7064     7005 
    7294     7167     6706     6751     7037     7153     7376     7357 
    6824     6631     6920     6972     6816     6899     7298     7398 
    6921     6709     6901     6849     7025     7528     7349     6917 
    6966     6849     6801     7141     6983     6548     6712     7164 
    7281     7096     7083     7249     7225     7111     7024     6886 
    6871     6983     6997     6912     6779     6723     6990     7303 
    7172     6968     7109     7003     6691     6951     7241     7095 
    7042     7080     7084     7074     7078     7246     7184     6751 
    6691     6991     6870     6635     6920     7342     7408     7067 
    6767     6933     7230     7209     6835     6669     6991     7005 
    6812     7192     7415     7033     6835     6872     6928     7113 
    7137     7107     7119     6791     6808     7456     7327     6524 
    6582     7117     7134     7011     6920     6808     7056     7257 
    7020     6953     7191     7241     7074     6853     6671     6782 
    7167     7285     7118     7065     6871     6758     7179     7269 
    6901     7021     7256     6893     6528     6899     7395     7069 
    6702     7168     7348     6817     6701     6976     7048     7045 
    7003     6948     7038     7141     7087     6839     6636     7084 
    7732     7393     6905     7192     6909     6193     6598     7292 
    7202     7056     7209     7095     6777     6887     7072     6790 
    6802     7249     7406     7389     7168     6736     6667     6903 
    7123     7160     6971     6849     6801     6818     7191     7600 
    7231     6508     6677     7161     7072     7167     7226     6739 
    6772     7311     7257     6762     6586     6929     7210     6994 
    6903     7199     7119     6782     6906     7042     6961     7187 
    7407     7227     6833     6616     6894     7114     7014     7164 
    7398     7267     6914     6727     6799     6777     6770     7164 
    7527     7342     6905     6737     6775     6866     7059     6993 
    6812     7065     7360     7272     6907     6740     7090     7254 
    7055     6986     6801     6809     7345     7310     6604     6551 
    7072     7142     6914     7063     7300     7171     7106     7137 
    6750     6481     6789     7102     7412     7599     7067     6515 
    6652     7082     7447     7264     6696     6681     7038     7341 
    7416     6856     6308     6498     7033     7573     7726     7188 
    6686     6714     6794     6891     7161     7155     6970     7069 
    7109     6974     7087     7006     6613     6806     7145     7051 
    7304     7443     6779     6554     7071     7167     6994     7098 
    7140     7090     7114     6974     6536     6420     6999     7380 
    7200     7161     7344     7353     6998     6570     6598     6806 
    6862     7134     7402     7132     6794     6897     6979     6875 
    7013     7204     7160     7226     7368     7107     6669     6558 
    6798     7237     7412     7021     6849     7159     7065     6785 
    6875     6821     6878     7435     7599     7194     6933     6890 
    6951     6948     6659     6471     6758     7249     7460     7125 
    6924     7288     7082     6427     6606     7025     7134     7303 
    7165     6878     7064     7334     7318     7199     7005     6925 
    6974     6701     6434     6701     6924     6967     7315     7371 
    7106     7392     7442     6621     6416     7179     7225     6497 
    6448     6839     7045     7582     7867     7204     6876     7175 
    6804     6301     6718     7028     6778     7015     7391     7298 
    7353     7246     6786     6852     7086     6835     6689     6853 
    6777     6709     7222     7704     7686     7541     7171     6677 
    6604     6709     6586     6498     6791     7186     7203     7175 
    7407     7379     7026     6816     6777     6720     6739     6924 
    6937     6886     7246     7543     7573     7616     7088     6453 
    6762     7038     6620     6527     6987     7175     7168     7546 
    7562     6824     6520     6808     6912     7005     7195     7159 
    7067     7049     6851     6806     7148     7022     6677     7176 
    7356     6652     6802     7195     6681     6907     7607     7102 
    6744     7318     7346     6906     6887     6897     6717     6825 
    7128     6999     6789     7169     7314     6767     6548     6937 
    7384     7493     7179     6767     6613     6940     7407     7312 
    6774     6621     7109     7360     6939     6733     6856     6779 
    7160     7807     7420     6783     6978     6999     6529     6602 
    7144     7315     7187     7226     7269     6941     6579     6654 
    6652     6505     6876     7376     7476     7325     7111     7184 
    7508     7568     7236     6683     6257     6380     6831     7194 
    7308     6845     6412     7044     7672     7171     6709     6945 
    6998     6751     6748     6874     7034     7574     8048     7452 
    6601     6810     6970     6502     6498     6717     6720     6864 
    7164     7546     7669     7040     6621     7063     6814     6324 
    7091     7300     6744     7238     7546     7103     7222     7306 
    6976     7030     6984     6651     6836     7133     7040     7107 
    7214     6984     7006     7387     7321     6774     6540     6697 
    6709     6805     7191     7362     7445     7511     7198     6790 
    6380     6342     7156     7565     6914     6496     6851     7422 
    7763     7483     6687     6247     6397     6804     7253     7064 
    6579     6972     7315     6912     7242     7915     7361     6623 
    6725     6956     6998     6883     6697     6723     6871     7034 
    7211     7387     7538     7349     6781     6396     6477     6859 
    7248     7547     7835     7732     7487     7643     7393     6706 
    6438     6471     6538     6169     5895     6912     7763     7361 
    6998     6899     6890     6681     5211     3766     4399     6466 
    9099    11684    12104     9456     6021     4324     4704     6268 
    7573     7649     7273     6818     5981     5984     6952     6797 
    5950     6280     6450     5890     6741     8344     8479     7557 
    7030     8040    10222    11264    10744     9759     7165     3073 
     646      599     2122     6237    11156    12873    11649     9531 
    7009     4969     3863     3947     5584     6804     6797     7326 
    7939     8280     9197     8808     6358     4483     4637     6168 
    7238     6956     7064     7842     7711     7375     7650     7348 
    6593     6517     6493     6255     6876     7734     7622     7431 
    7558     6910     6131     6650     7807     8417     8064     6592 
    5104     5119     6131     6995     8127     9043     7906     6130 
    6168     7037     7735     8137     7699     6735     5854     5967 
    7543     8991     8360     6246     5421     6160     6165     5545 
    5783     6583     7258     8671    10392     9424     6529     4895 
    4758     6145     7759     7762     6789     5772     7276     9895 
    7974     4972     5449     5746     5687     7542     9186     9131 
    7678     5653     5420     7327     8343     7603     7053     6970 
    6944     7099     6652     5733     5498     6381     8407     9400 
    7345     5899     7244     7028     5212     6153     7873     7296 
    6980     7889     7646     6115     5400     6744     8268     8181 
    8158     8087     6816     6392     6605     6076     6185     6600 
    6963     7893     7649     6409     5840     5776     6852     8349 
    8206     7627     7857     7163     5460     5505     7177     7488 
    6805     7059     7110     6539     7059     8179     8310     7526 
    6490     5991     6212     6617     7242     7497     7003     7025 
    7057     6187     6215     6975     6716     7146     8579     8083 
    6787     7446     8098     7083     6515     7001     6767     6016 
    6269     6907     7006     7553     8163     7595     7063     6713 
    5665     5751     7557     8318     7075     6038     6231     7002 
    7839     7495     6454     7078     7900     6770     6320     7331 
    7024     6461     7173     7065     6114     6111     6918     7925 
    8822     8525     6562     5559     6777     7123     6439     7122 
    7647     6822     6885     7927     7380     5568     5536     7497 
    8446     7290     6382     6930     7171     6874     7237     7144 
    6474     6964     7538     7179     7164     6991     6019     5776 
    6866     7766     7649     7689     7730     7057     7114     7352 
    6430     6124     6669     6758     6812     6813     6936     7430 
    7407     7526     7647     6340     5637     6951     7954     7465 
    6470     6408     7299     7508     7245     7461     7319     6964 
    7322     7539     6902     6299     6417     6713     6655     6825 
    7244     7075     7010     7434     7017     6763     7803     7578 
    6386     7145     7700     6399     6218     7186     7326     7427 
    7516     6682     6172     6756     6910     6250     6269     6970 
    7537     8075     7689     6253     6211     7369     7327     7294 
    7609     6524     6750     8649     7736     5636     5767     6424 
    6864     7022     6555     7119     7688     6826     6875     7653 
    7430     7186     7051     6774     7033     7273     7277     7554 
    7213     6336     6652     7330     6872     6727     7079     6520 
    6332     7388     7912     7385     6697     6345     6794     7477 
    7480     7125     6575     6417     7161     7206     6597     6782 
    6970     7149     7550     7142     6597     6802     7457     7869 
    7312     6562     6517     6914     7272     7006     6717     7041 
    7038     6817     7101     7404     7333     7002     6762     6735 
    6735     6679     6571     7020     7863     7573     6866     7213 
    7068     6482     7113     6864     5661     6809     8469     7578 
    6270     6655     7470     7576     7369     6647     5926     6833 
    7878     7242     6828     7539     7491     6505     6550     7145 
    6332     5733     6975     8102     8191     7805     7218     7225 
    7203     6432     6427     6967     6465     6031     6701     7473 
    7719     7368     7045     7452     7372     6589     6578     6455 
    6076     7052     7630     6859     6781     7055     7160     7565 
    7407     7082     7241     6903     6230     6162     6835     7466 
    7071     6778     7533     7798     7299     7082     6975     6974 
    7396     7345     6471     6257     6750     6713     6810     7318 
    7384     7473     7445     6700     6617     7402     7005     5985 
    6628     7638     7236     7091     7437     6860     6824     7379 
    6554     6158     7118     7068     6675     7337     7616     7114 
    6928     6858     6628     7142     7958     7716     7040     6812 
    6744     6878     6944     6448     6197     6940     7790     7550 
    6956     7153     7125     6636     6882     7102     6601     6675 
    7366     7303     6786     6704     6681     6909     7681     7684 
    6662     6247     6868     7402     7260     7160     7285     6785 
    6416     7029     7375     7088     7060     7271     7114     6656 
    6847     7311     6858     6648     7269     6945     6432     7288 
    7581     6724     6864     7642     7572     7223     7141     6813 
    6052     5823     6633     7265     7345     7620     7811     7508 
    7005     6723     6696     6596     6806     7410     7470     7032 
    6578     6331     6793     7272     7064     6998     7053     6733 
    6921     7776     7784     6778     6558     7226     7350     7123 
    6736     6270     6651     6980     6805     7049     7176     7319 
    7739     7488     6844     6504     6658     7248     7319     6706 
    6620     7024     7219     7500     7554     6970     6439     6443 
    6891     7118     6498     6045     6810     7866     8104     7715 
    7310     7055     6596     6052     6237     7240     7943     7358 
    6292     6399     7318     7611     7418     7115     6521     6386 
