Origin Time       2025/03/30 21:30:00
Lat.              38.535
Long.             142.295
Depth. (km)       44
Mag.              4.3
Station Code      MYG010
Station Lat.      38.4292
Station Long.     141.2819
Station Height(m) 2
Record Time       2025/03/30 21:31:22
Sampling Freq(Hz) 100Hz
Duration Time(s)  60
Dir.              E-W
Scale Factor      7845(gal)/8223790
Max. Acc. (gal)   3.095
Last Correction   2025/03/30 21:31:22
Memo.             
[...]
   -1144    -1142    -1139    -1142    -1147    -1151    -1154    -1147 
   -1140    -1138    -1138    -1146    -1158    -1156    -1147    -1151 
   -1158    -1155    -1151    -1147    -1142    -1146    -1161    -1158 
   -1140    -1136    -1143    -1147    -1150    -1150    -1144    -1143 
   -1148    -1148    -1147    -1152    -1156    -1158    -1158    -1156 
   -1156    -1159    -1155    -1148    -1146    -1148    -1151    -1150 
   -1148    -1143    -1147    -1158    -1161    -1155    -1156    -1163 
   -1161    -1148    -1148    -1156    -1162    -1162    -1156    -1150 
   -1151    -1159    -1165    -1162    -1158    -1154    -1162    -1167 
   -1161    -1163    -1169    -1158    -1138    -1135    -1150    -1162 
   -1161    -1156    -1154    -1154    -1161    -1161    -1152    -1154 
   -1159    -1161    -1165    -1165    -1155    -1148    -1146    -1150 
   -1155    -1154    -1148    -1148    -1148    -1142    -1138    -1144 
   -1147    -1136    -1142    -1162    -1161    -1142    -1136    -1146 
   -1150    -1147    -1148    -1150    -1150    -1147    -1143    -1144 
   -1148    -1150    -1150    -1150    -1155    -1161    -1151    -1142 
   -1147    -1152    -1148    -1143    -1139    -1142    -1146    -1147 
   -1162    -1169    -1143    -1132    -1147    -1150    -1151    -1158 
   -1155    -1158    -1163    -1156    -1147    -1146    -1155    -1166 
   -1161    -1162    -1174    -1167    -1156    -1161    -1162    -1169 
   -1177    -1163    -1152    -1152    -1155    -1159    -1156    -1147 
   -1151    -1169    -1175    -1159    -1151    -1159    -1162    -1158 
   -1154    -1146    -1144    -1151    -1150    -1144    -1150    -1150 
   -1143    -1146    -1152    -1158    -1158    -1152    -1152    -1166 
   -1167    -1143    -1136    -1154    -1158    -1143    -1139    -1147 
   -1151    -1146    -1139    -1142    -1151    -1155    -1150    -1135 
   -1127    -1138    -1161    -1173    -1161    -1140    -1132    -1148 
   -1167    -1167    -1161    -1151    -1142    -1142    -1147    -1151 
   -1158    -1156    -1151    -1147    -1144    -1144    -1146    -1144 
   -1144    -1144    -1144    -1152    -1159    -1152    -1144    -1146 
   -1146    -1142    -1148    -1165    -1163    -1148    -1144    -1152 
   -1158    -1159    -1159    -1159    -1154    -1144    -1147    -1162 
   -1167    -1156    -1151    -1151    -1146    -1150    -1163    -1158 
   -1143    -1148    -1161    -1158    -1152    -1152    -1150    -1154 
   -1163    -1170    -1169    -1170    -1165    -1147    -1140    -1161 
   -1178    -1171    -1147    -1136    -1154    -1173    -1162    -1146 
   -1156    -1169    -1156    -1154    -1162    -1152    -1144    -1150 
   -1151    -1142    -1139    -1144    -1146    -1147    -1156    -1159 
   -1156    -1150    -1142    -1147    -1161    -1173    -1159    -1115 
   -1100    -1158    -1198    -1144    -1092    -1136    -1189    -1150 
   -1085    -1107    -1152    -1128    -1117    -1171    -1192    -1150 
   -1166    -1237    -1205    -1071    -1054    -1206    -1308    -1248 
   -1117     -994     -980    -1170    -1431    -1420    -1053     -766 
    -957    -1356    -1436    -1188     -980     -977    -1123    -1281 
   -1273    -1059     -900    -1078    -1381    -1348    -1038     -907 
   -1100    -1359    -1432    -1279    -1015     -905    -1155    -1455 
   -1305     -857     -787    -1244    -1567    -1302     -855     -772 
   -1121    -1557    -1541    -1062     -791    -1040    -1412    -1487 
   -1212     -861     -858    -1223    -1414    -1200     -992     -994 
   -1081    -1289    -1464    -1278     -904     -796    -1098    -1507 
   -1482    -1057     -797     -818    -1026    -1356    -1382    -1007 
    -789    -1040    -1420    -1467    -1169     -815     -757    -1093 
   -1399    -1331    -1026     -819    -1027    -1501    -1618    -1169 
    -706     -738    -1163    -1512    -1406    -1013     -874    -1140 
   -1485    -1595    -1327     -877     -765    -1131    -1553    -1559 
   -1140     -874    -1063    -1304    -1259    -1026     -886    -1013 
   -1308    -1495    -1304     -888     -866    -1351    -1691    -1435 
    -861     -664    -1055    -1431    -1356    -1026     -804     -953 
   -1341    -1578    -1489    -1215    -1005     -959    -1024    -1123 
   -1143    -1102    -1171    -1312    -1364    -1267    -1001     -800 
    -939    -1305    -1553    -1340     -853     -781    -1213    -1597 
   -1557    -1165     -904    -1026    -1229    -1290    -1170     -935 
    -835     -922    -1024    -1124    -1286    -1458    -1417    -1102 
    -930    -1053    -1075    -1001    -1048    -1046    -1036    -1215 
   -1381    -1305    -1057     -874     -858     -878     -977    -1237 
   -1408    -1358    -1237    -1104     -976     -962    -1163    -1444 
   -1499    -1258     -951     -872    -1039    -1188    -1173    -1081 
   -1027    -1039    -1158    -1354    -1381    -1171     -981    -1004 
   -1212    -1375    -1293    -1125    -1156    -1383    -1476    -1155 
    -785     -830    -1053    -1243    -1417    -1372    -1212    -1247 
   -1363    -1350    -1200    -1026    -1039    -1219    -1343    -1439 
   -1452    -1208     -932     -905    -1034    -1127    -1094    -1008 
   -1084    -1260    -1270    -1070     -850     -851    -1081    -1345 
   -1468    -1269     -945     -985    -1213    -1134     -980    -1057 
   -1188    -1312    -1444    -1428    -1252    -1073     -932     -828 
    -901    -1147    -1310    -1252    -1050     -988    -1224    -1467 
   -1435    -1210    -1061    -1124    -1167     -949     -742     -788 
    -954    -1193    -1367    -1300    -1132    -1048    -1152    -1355 
   -1393    -1201     -938     -831     -990    -1248    -1301    -1082 
    -923    -1036    -1240    -1323    -1205     -996     -974    -1139 
   -1232    -1217    -1186    -1181    -1274    -1433    -1447    -1250 
   -1047    -1024    -1134    -1228    -1215    -1053     -942    -1111 
   -1325    -1335    -1278    -1309    -1356    -1159     -797     -816 
   -1179    -1329    -1251    -1227    -1251    -1208    -1100    -1023 
    -963     -946    -1098    -1254    -1200    -1092    -1080    -1107 
   -1158    -1263    -1291    -1196    -1147    -1225    -1340    -1283 
   -1031     -928    -1143    -1383    -1395    -1213    -1009     -996 
   -1186    -1281    -1075     -789     -743     -973    -1275    -1493 
   -1486    -1201     -962    -1039    -1170    -1097     -974     -997 
   -1156    -1296    -1283    -1116     -984    -1075    -1223    -1205 
   -1190    -1246    -1144    -1036    -1205    -1443    -1435    -1188 
    -951     -900    -1030    -1237    -1297    -1143    -1043    -1128 
   -1209    -1194    -1102     -973    -1009    -1198    -1227    -1061 
    -959    -1016    -1093    -1131    -1217    -1344    -1391    -1281 
   -1131    -1100    -1109    -1073    -1096    -1173    -1128    -1044 
   -1148    -1377    -1455    -1208     -915     -974    -1215    -1297 
   -1260    -1201    -1063     -936    -1043    -1273    -1341    -1236 
   -1053     -976    -1233    -1605    -1574    -1104     -722     -850 
   -1255    -1452    -1378    -1158     -947     -999    -1256    -1329 
   -1104     -911     -993    -1206    -1352    -1358    -1148     -962 
   -1086    -1256    -1158     -932     -816     -891    -1120    -1328 
   -1378    -1331    -1217    -1086    -1054    -1088    -1132    -1138 
   -1050    -1036    -1151    -1163    -1088    -1123    -1255    -1387 
   -1412    -1229    -1034    -1065    -1178    -1179    -1134    -1121 
   -1084    -1030    -1090    -1197    -1159    -1062    -1016    -1019 
   -1152    -1318    -1297    -1148    -1021    -1016    -1151    -1308 
   -1378    -1229     -895     -726     -912    -1256    -1447    -1337 
   -1116    -1074    -1223    -1404    -1456    -1321    -1179    -1084 
    -934     -842     -920    -1154    -1439    -1512    -1298    -1034 
    -870     -885    -1104    -1270    -1193    -1042    -1054    -1285 
   -1520    -1436    -1063     -807     -885    -1086    -1109     -949 
    -897    -1108    -1381    -1499    -1406    -1237    -1237    -1401 
   -1436    -1205     -928     -926    -1210    -1463    -1390    -1050 
    -814     -946    -1251    -1351    -1119     -847     -943    -1325 
   -1530    -1397    -1197    -1128    -1109    -1069    -1081    -1156 
   -1183    -1150    -1097     -959     -893    -1086    -1193     -980 
    -874    -1066    -1259    -1289    -1143    -1015    -1048    -1092 
   -1193    -1414    -1518    -1386    -1088     -807     -773     -974 
   -1205    -1291    -1210    -1071    -1017    -1082    -1135    -1198 
   -1448    -1611    -1317     -976    -1021    -1162    -1173    -1178 
   -1147    -1067    -1048    -1035     -905     -770     -891    -1209 
   -1314    -1144    -1028     -984     -911    -1054    -1474    -1773 
   -1676    -1313    -1023    -1039    -1235    -1309    -1212    -1065 
    -972    -1116    -1431    -1458    -1096     -849    -1085    -1463 
   -1517    -1337    -1140    -1044    -1196    -1412    -1282     -783 
    -473     -756    -1169    -1285    -1339    -1305    -1011     -905 
   -1198    -1424    -1379    -1175     -899     -859    -1205    -1486 
   -1343    -1012     -864     -950    -1097    -1200    -1167     -997 
    -977    -1193    -1372    -1414    -1426    -1452    -1424    -1344 
   -1254     -989     -646     -656     -950    -1220    -1343    -1128 
    -818     -891    -1208    -1472    -1540    -1298     -962     -922 
   -1186    -1309    -1047     -734     -760    -1069    -1341    -1367 
   -1150     -935     -896     -943    -1063    -1255    -1350    -1306 
   -1274    -1275    -1197    -1080    -1085    -1159    -1175    -1215 
   -1237    -1189    -1219    -1224    -1102    -1043    -1063    -1100 
   -1162    -1213    -1382    -1595    -1529    -1248     -970     -827 
    -923    -1116    -1282    -1391    -1414    -1414    -1278     -954 
    -807     -993    -1202    -1189    -1088    -1179    -1358    -1335 
   -1240    -1237    -1159    -1016     -959     -889     -820     -992 
   -1317    -1404    -1189    -1011    -1019    -1080    -1196    -1389 
   -1451    -1283    -1074    -1081    -1208    -1139     -994    -1031 
   -1105    -1035     -912     -931    -1080    -1175    -1163    -1171 
   -1279    -1372    -1340    -1233    -1127    -1047     -951     -831 
    -869    -1188    -1574    -1628    -1289    -1026    -1098    -1142 
    -924     -692     -688     -928    -1200    -1325    -1371    -1321 
   -1201    -1231    -1375    -1437    -1394    -1232    -1009     -868 
    -918    -1057     -963     -770     -870    -1212    -1572    -1744 
   -1667    -1437    -1059     -812     -945    -1109    -1123    -1177 
   -1305    -1471    -1607    -1521    -1175     -788     -652     -793 
    -886     -843     -931    -1228    -1586    -1773    -1632    -1312 
   -1058     -976     -946     -799     -654     -707     -965    -1305 
   -1486    -1483    -1441    -1354    -1270    -1255    -1181     -957 
    -684     -664    -1038    -1398    -1471    -1416    -1345    -1329 
   -1355    -1256    -1040     -913     -993    -1139    -1185    -1159 
   -1032     -878     -965    -1224    -1395    -1391    -1198     -897 
    -657     -641     -864    -1065    -1093    -1098    -1197    -1366 
   -1424    -1200     -962    -1101    -1440    -1545    -1358    -1129 
   -1023    -1032    -1121    -1209    -1228    -1243    -1220    -1061 
    -915     -972    -1161    -1309    -1404    -1445    -1321    -1174 
   -1279    -1467    -1381    -1030     -614     -433     -716    -1204 
   -1543    -1599    -1366    -1155    -1139    -1107    -1070    -1043 
    -950    -1048    -1335    -1483    -1497    -1437    -1355    -1344 
   -1269    -1063     -828     -681     -851    -1185    -1216    -1044 
   -1096    -1401    -1655    -1603    -1327    -1158    -1277    -1394 
   -1134     -749     -702     -814     -792     -849    -1148    -1381 
   -1301    -1075     -972    -1105    -1277    -1143     -824     -733 
    -915    -1166    -1379    -1445    -1301    -1128    -1066     -990 
    -920    -1100    -1426    -1435    -1078     -805     -864    -1104 
   -1336    -1463    -1472    -1374    -1182    -1024     -923     -810 
    -881    -1183    -1363    -1297    -1178    -1156    -1194    -1134 
   -1034    -1059    -1178    -1366    -1549    -1537    -1379    -1255 
   -1194    -1119     -988     -962    -1140    -1343    -1435    -1460 
   -1414    -1173     -718     -441     -793    -1491    -1775    -1416 
    -924     -776     -912    -1008     -870     -629     -548     -766 
   -1278    -1678    -1561    -1181     -853     -726    -1027    -1524 
   -1728    -1644    -1495    -1320    -1051     -665     -321     -175 
    -213     -534    -1300    -2296    -3153    -3584    -3256    -2154 
    -731      486     1023      745      195      -99     -313     -803 
   -1556    -2369    -2965    -3109    -2689    -1641     -176     1035 
    1431      819     -622    -2174    -3086    -3168    -2687    -2084 
   -1410     -448      514      915      564     -218    -1111    -1984 
   -2292    -1690     -993    -1081    -1910    -2959    -3726    -3846 
   -3078    -1711     -426      735     1726     1618       89    -1710 
   -2583    -2338    -1331     -263     -151     -945    -1283     -868 
    -769    -1381    -2195    -2566    -2050     -718      851     1763 
    1478      321    -1182    -2573    -3025    -2238    -1242    -1216 
   -2350    -3829    -4396    -3422    -1545     -139      -35     -606 
    -540      294      604     -291    -1395    -1495     -648      213 
     426       39     -541    -1055    -1561    -1907    -1736    -1320 
   -1078     -955    -1220    -2220    -3222    -2938    -1152      810 
    1609     1132     -248    -1983    -2911    -2579    -1958    -1651 
   -1335    -1075    -1212    -1636    -2007    -1919    -1474    -1493 
   -1946    -1895    -1308     -661      109      801      900      313 
    -576     -939     -638     -828    -1984    -3226    -3771    -3122 
   -1451     -328     -731    -1275     -444     1053     1404       43 
   -1830    -2925    -2965    -2141     -986     -180      -43     -853 
   -2301    -3149    -2909    -2377    -2354    -2686    -2459    -1375 
      14     1175     1572     1000      183       35      410      268 
    -774    -1989    -2673    -2606    -1989    -1420    -1181     -885 
    -426     -274     -538     -889    -1297    -1865    -2382    -2504 
   -2058    -1143     -155      226     -168     -598     -827    -1564 
   -2786    -3373    -2803    -1944    -1460     -886      -76      311 
     -90     -919    -1201     -376      666      691     -367    -1769 
   -2801    -2932    -2222    -1536    -1491    -1837    -2226    -2473 
   -2319    -1555     -403      387      619      777      642     -205 
   -1325    -2191    -2739    -3072    -3069    -2450    -1467     -672 
    -287     -371     -641     -629     -392     -263     -438     -927 
   -1259    -1167    -1155    -1574    -2174    -2415    -2054    -1618 
   -1493    -1428    -1128     -529     -133     -399     -630     -105 
     537      475     -180    -1016    -1706    -2057    -2284    -2509 
   -2347    -1620     -810     -480     -719    -1159    -1393    -1431 
   -1507    -1667    -1755    -1587    -1250    -1108    -1119     -787 
     -82      463      564      211     -552    -1269    -1483    -1432 
   -1514    -1775    -2130    -2461    -2577    -2349    -1823    -1372 
   -1320    -1210     -500      220       22     -963    -1780    -1842 
   -1393     -778     -301     -220     -332     -642    -1413    -2261 
   -2814    -3086    -2887    -2278    -1541     -654      180      662 
     693      209     -314     -438     -529     -739     -978    -1377 
   -1849    -2246    -2312    -1838    -1429    -1564    -1786    -1638 
    -969      -95       78     -724    -1813    -2258    -1655     -773 
    -558     -955    -1544    -1860    -1545    -1151    -1304    -1557 
   -1351     -870     -454     -152       60       66      -49       49 
     103     -459    -1379    -2050    -2415    -2475    -2000    -1131 
    -464     -446    -1142    -2161    -2721    -2285    -1341    -1082 
   -1823    -2539    -2435    -1622     -596     -118     -434     -827 
    -920    -1050    -1397    -1782    -1769    -1166     -495     -361 
    -653     -838     -679     -476     -662    -1109    -1293    -1142 
    -993    -1081    -1441    -1786    -1728    -1381    -1054     -858 
    -977    -1491    -1966    -1998    -1742    -1453    -1263    -1313 
   -1405    -1142     -459      217      318     -225     -842    -1009 
    -939    -1026    -1212    -1458    -1698    -1691    -1552    -1437 
   -1134     -629     -271     -341     -631     -664     -546     -676 
    -905    -1069    -1237    -1232    -1036     -939     -958    -1127 
   -1571    -2039    -2307    -2344    -2097    -1904    -2108    -2316 
   -2145    -1719    -1121     -549     -255      -48       95      -94 
    -561     -972    -1178    -1429    -1817    -1931    -1552     -928 
    -639    -1128    -1831    -1848    -1382    -1131    -1016     -658 
    -190       91       67     -349    -1152    -2077    -2745    -3051 
   -3061    -2667    -1842     -959     -487     -495     -741    -1035 
   -1104     -733     -311     -302     -561     -812     -943     -859 
    -708     -776    -1021    -1341    -1786    -2058    -1674     -857 
    -392     -583     -992    -1113     -862     -504     -341     -481 
    -804    -1143    -1445    -1721    -1944    -2019    -1829    -1402 
    -980     -693     -681    -1143    -1633    -1507    -1021     -749 
    -845    -1131    -1278    -1206    -1074     -957    -1027    -1370 
   -1572    -1389    -1201    -1229    -1328    -1449    -1401    -1046 
    -796     -905    -1073    -1092    -1011     -999    -1206    -1432 
   -1445    -1476    -1722    -1830    -1466     -955     -826    -1024 
   -1116     -974     -958    -1278    -1576    -1525    -1236    -1020 
    -988     -796     -356     -313     -993    -1765    -1985    -1764 
   -1491    -1320    -1178     -949     -706     -579     -592     -831 
   -1185    -1393    -1520    -1618    -1547    -1347    -1063     -685 
    -332     -152     -403    -1173    -1991    -2272    -1809     -931 
    -311     -292     -719    -1190    -1262     -946     -765    -1015 
   -1391    -1495    -1367    -1259    -1267    -1374    -1566    -1752 
   -1719    -1333     -680     -251     -546    -1061    -1077     -908 
    -947    -1128    -1445    -1695    -1651    -1512    -1451    -1507 
   -1607    -1479    -1090     -591     -194     -421    -1212    -1710 
   -1553    -1088     -765     -842    -1136    -1277    -1244    -1278 
   -1394    -1451    -1561    -1756    -1657    -1274    -1058    -1080 
   -1154    -1170    -1039     -900     -912     -897     -650     -418 
    -567     -939    -1202    -1374    -1517    -1533    -1490    -1582 
   -1788    -1864    -1467     -603       63        2     -650    -1402 
   -1719    -1618    -1428    -1074     -673     -587     -602     -390 
    -117     -207     -885    -1682    -1981    -1912    -1833    -1722 
   -1563    -1447    -1328    -1197    -1123    -1140    -1273    -1264 
    -907     -656     -861    -1302    -1838    -2165    -1910    -1371 
