Origin Time       2025/03/30 21:30:00
Lat.              38.535
Long.             142.295
Depth. (km)       44
Mag.              4.3
Station Code      MYG007
Station Lat.      38.5877
Station Long.     141.2510
Station Height(m) 4
Record Time       2025/03/30 21:31:22
Sampling Freq(Hz) 100Hz
Duration Time(s)  60
Dir.              E-W
Scale Factor      7845(gal)/8223790
Max. Acc. (gal)   2.900
Last Correction   2025/03/30 21:31:22
Memo.             
[...]
   -8752    -8752    -8761    -8764    -8758    -8757    -8762    -8765 
   -8762    -8753    -8754    -8764    -8765    -8757    -8756    -8762 
   -8766    -8765    -8757    -8754    -8764    -8768    -8764    -8762 
   -8766    -8765    -8760    -8761    -8761    -8761    -8762    -8762 
   -8764    -8762    -8758    -8760    -8761    -8757    -8753    -8760 
   -8768    -8766    -8758    -8758    -8764    -8766    -8761    -8757 
   -8762    -8769    -8765    -8758    -8760    -8764    -8764    -8760 
   -8757    -8760    -8765    -8762    -8757    -8757    -8761    -8761 
   -8761    -8761    -8760    -8760    -8762    -8766    -8765    -8757 
   -8757    -8762    -8761    -8754    -8754    -8760    -8766    -8764 
   -8754    -8758    -8769    -8768    -8761    -8758    -8762    -8766 
   -8765    -8761    -8761    -8766    -8765    -8760    -8757    -8757 
   -8760    -8764    -8762    -8758    -8760    -8764    -8764    -8762 
   -8758    -8758    -8764    -8766    -8760    -8757    -8765    -8768 
   -8761    -8757    -8758    -8766    -8769    -8761    -8756    -8758 
   -8761    -8757    -8750    -8752    -8758    -8762    -8762    -8760 
   -8760    -8764    -8765    -8761    -8757    -8758    -8760    -8761 
   -8758    -8757    -8760    -8768    -8769    -8758    -8753    -8760 
   -8764    -8761    -8754    -8753    -8760    -8762    -8757    -8754 
   -8761    -8768    -8766    -8762    -8761    -8764    -8762    -8757 
   -8756    -8757    -8758    -8761    -8761    -8757    -8758    -8764 
   -8766    -8769    -8768    -8766    -8772    -8776    -8765    -8754 
   -8758    -8765    -8761    -8753    -8753    -8761    -8766    -8758 
   -8753    -8760    -8765    -8760    -8753    -8757    -8761    -8760 
   -8757    -8756    -8758    -8760    -8757    -8758    -8758    -8756 
   -8756    -8760    -8758    -8753    -8752    -8760    -8769    -8764 
   -8754    -8760    -8768    -8766    -8760    -8760    -8764    -8765 
   -8760    -8753    -8754    -8765    -8766    -8757    -8756    -8765 
   -8770    -8768    -8765    -8766    -8769    -8768    -8772    -8772 
   -8764    -8761    -8768    -8765    -8753    -8739    -8743    -8748 
   -8729    -8711    -8727    -8753    -8756    -8738    -8743    -8791 
   -8818    -8785    -8768    -8824    -8874    -8842    -8776    -8754 
   -8770    -8761    -8710    -8685    -8700    -8696    -8687    -8708 
   -8749    -8776    -8770    -8757    -8773    -8802    -8803    -8768 
   -8676    -8595    -8621    -8669    -8694    -8776    -8876    -8889 
   -8880    -8935    -9012    -9034    -8912    -8680    -8625    -8783 
   -8799    -8627    -8537    -8561    -8592    -8673    -8834    -8957 
   -9012    -9011    -8869    -8712    -8731    -8733    -8557    -8442 
   -8548    -8731    -8793    -8695    -8645    -8796    -8981    -8985 
   -8888    -8910    -8970    -8815    -8560    -8480    -8604    -8765 
   -8757    -8649    -8644    -8629    -8552    -8676    -8980    -9088 
   -8916    -8726    -8708    -8802    -8784    -8629    -8564    -8703 
   -8835    -8737    -8546    -8496    -8553    -8680    -8938    -9189 
   -9239    -9085    -8797    -8588    -8695    -8891    -8839    -8692 
   -8684    -8722    -8753    -8839    -8891    -8773    -8610    -8603 
   -8683    -8783    -8904    -8850    -8694    -8765    -8922    -8866 
   -8742    -8733    -8768    -8739    -8688    -8775    -8955    -8923 
   -8677    -8619    -8803    -8842    -8680    -8567    -8560    -8618 
   -8691    -8704    -8742    -8812    -8731    -8591    -8673    -8919 
   -9018    -8889    -8753    -8737    -8766    -8756    -8681    -8635 
   -8711    -8820    -8843    -8776    -8698    -8662    -8677    -8726 
   -8777    -8837    -8831    -8700    -8664    -8849    -8950    -8822 
   -8779    -8842    -8815    -8841    -8923    -8872    -8789    -8739 
   -8617    -8548    -8684    -8841    -8754    -8548    -8611    -8903 
   -8955    -8742    -8658    -8785    -8883    -8830    -8739    -8733 
   -8772    -8722    -8596    -8621    -8799    -8835    -8706    -8608 
   -8598    -8684    -8833    -8860    -8773    -8733    -8702    -8796 
   -9074    -9035    -8634    -8457    -8591    -8775    -8853    -8769 
   -8730    -8850    -8938    -8905    -8819    -8691    -8637    -8820 
   -8965    -8808    -8640    -8596    -8521    -8561    -8827    -9004 
   -8878    -8704    -8683    -8679    -8681    -8870    -9076    -9000 
   -8842    -8822    -8768    -8592    -8452    -8494    -8637    -8654 
   -8649    -8853    -9084    -9078    -8912    -8795    -8804    -8780 
   -8563    -8410    -8649    -9039    -9097    -8901    -8829    -8803 
   -8689    -8688    -8731    -8602    -8471    -8590    -8872    -8955 
   -8754    -8645    -8741    -8795    -8748    -8676    -8642    -8653 
   -8671    -8779    -8953    -8962    -8816    -8758    -8743    -8575 
   -8421    -8533    -8777    -8928    -8937    -8773    -8532    -8483 
   -8637    -8830    -9001    -9053    -9043    -9101    -9005    -8766 
   -8752    -8812    -8722    -8772    -8942    -8824    -8507    -8359 
   -8444    -8637    -8741    -8654    -8611    -8760    -8916    -9032 
   -9165    -9175    -9050    -8991    -9019    -8888    -8429    -7951 
   -7989    -8471    -8812    -8881    -8899    -8835    -8768    -8887 
   -8996    -8907    -8780    -8660    -8529    -8617    -8850    -8803 
   -8571    -8586    -8792    -8883    -8834    -8737    -8607    -8559 
   -8672    -8842    -8974    -8918    -8629    -8476    -8652    -8827 
   -8791    -8687    -8729    -8955    -9163    -9181    -9063    -8884 
   -8710    -8669    -8746    -8808    -8714    -8511    -8491    -8648 
   -8708    -8729    -8837    -8958    -8966    -8815    -8660    -8712 
   -8889    -8873    -8719    -8768    -8880    -8785    -8657    -8698 
   -8883    -9018    -8897    -8606    -8392    -8343    -8367    -8491 
   -8803    -9054    -8977    -8799    -8769    -8804    -8799    -8712 
   -8600    -8586    -8646    -8671    -8696    -8833    -8965    -8899 
   -8757    -8745    -8768    -8768    -8765    -8695    -8662    -8769 
   -8845    -8838    -8858    -8880    -8932    -8993    -8854    -8650 
   -8661    -8695    -8615    -8703    -8938    -8889    -8650    -8722 
   -8949    -8954    -8849    -8719    -8611    -8654    -8718    -8757 
   -8861    -8861    -8680    -8565    -8640    -8797    -8905    -8900 
   -8866    -8841    -8753    -8765    -8903    -8850    -8654    -8563 
   -8511    -8488    -8568    -8600    -8565    -8684    -8881    -8907 
   -8888    -8904    -8834    -8837    -8880    -8696    -8518    -8586 
   -8661    -8648    -8714    -8827    -8930    -9065    -9009    -8739 
   -8603    -8533    -8421    -8510    -8694    -8756    -8884    -9124 
   -9171    -9000    -8881    -8823    -8735    -8722    -8833    -8901 
   -8762    -8621    -8730    -8826    -8661    -8517    -8542    -8563 
   -8600    -8802    -9065    -9136    -8985    -8857    -8810    -8734 
   -8671    -8588    -8473    -8569    -8865    -9020    -8938    -8696 
   -8376    -8305    -8662    -9027    -8951    -8665    -8665    -8888 
   -9011    -8955    -8765    -8668    -8770    -8877    -9023    -9128 
   -8877    -8496    -8359    -8343    -8349    -8509    -8739    -8892 
   -8961    -8884    -8657    -8519    -8594    -8700    -8726    -8818 
   -9059    -9308    -9328    -9074    -8873    -8822    -8629    -8472 
   -8630    -8753    -8681    -8621    -8513    -8415    -8587    -8831 
   -8776    -8684    -8857    -8931    -8841    -8910    -8896    -8618 
   -8464    -8567    -8710    -8815    -8835    -8765    -8799    -9027 
   -9180    -9011    -8687    -8488    -8514    -8716    -8853    -8788 
   -8696    -8629    -8634    -8827    -8972    -8939    -8926    -8905 
   -8826    -8769    -8645    -8488    -8471    -8491    -8492    -8622 
   -8858    -9061    -9169    -9124    -8856    -8541    -8519    -8711 
   -8807    -8845    -8880    -8785    -8630    -8613    -8768    -8912 
   -8868    -8779    -8818    -8857    -8792    -8703    -8611    -8523 
   -8540    -8657    -8780    -8806    -8648    -8576    -8874    -9151 
   -8977    -8606    -8494    -8730    -9045    -9155    -9012    -8715 
   -8375    -8143    -8264    -8707    -8974    -8831    -8658    -8749 
   -8953    -9045    -8973    -8876    -8887    -8922    -8811    -8592 
   -8503    -8623    -8806    -8969    -9043    -8958    -8772    -8594 
   -8541    -8599    -8623    -8675    -8856    -9032    -9082    -8972 
   -8765    -8545    -8372    -8414    -8645    -8897    -9171    -9262 
   -9019    -8785    -8677    -8526    -8429    -8451    -8502    -8618 
   -8811    -8931    -8870    -8779    -8803    -8802    -8673    -8569 
   -8611    -8742    -8827    -8854    -8982    -9188    -9177    -8827 
   -8402    -8199    -8226    -8372    -8564    -8729    -8858    -9001 
   -9159    -9310    -9340    -9074    -8618    -8301    -8361    -8703 
   -8866    -8769    -8803    -8874    -8745    -8665    -8662    -8530 
   -8448    -8587    -8768    -8808    -8870    -9131    -9313    -9223 
   -9036    -8777    -8459    -8352    -8592    -8868    -8816    -8648 
   -8675    -8797    -8918    -8883    -8565    -8361    -8546    -8907 
   -9217    -9157    -8676    -8432    -8699    -8930    -8818    -8545 
   -8324    -8387    -8706    -8881    -8822    -8775    -8780    -8907 
   -9246    -9366    -8873    -8239    -8168    -8576    -8822    -8708 
   -8607    -8765    -8955    -8951    -8892    -8889    -8843    -8793 
   -8827    -8874    -8856    -8730    -8563    -8600    -8905    -9159 
   -9008    -8519    -8248    -8407    -8583    -8653    -8746    -8762 
   -8854    -9159    -9236    -8984    -8883    -8881    -8658    -8460 
   -8511    -8618    -8646    -8657    -8711    -8795    -8808    -8707 
   -8638    -8727    -8833    -8770    -8629    -8625    -8699    -8568 
   -8316    -8424    -8869    -9073    -9004    -9050    -9049    -8837 
   -8773    -8888    -8878    -8835    -8827    -8692    -8573    -8653 
   -8741    -8708    -8754    -8968    -9063    -8870    -8715    -8823 
   -8900    -8795    -8727    -8830    -9069    -9267    -9243    -9058 
   -8912    -8808    -8559    -8311    -8370    -8475    -8347    -8289 
   -8495    -8733    -8764    -8638    -8694    -8939    -8928    -8640 
   -8463    -8448    -8471    -8579    -8766    -8951    -9076    -8984 
   -8699    -8617    -8749    -8587    -8275    -8395    -8716    -8870 
   -9054    -9182    -8995    -8749    -8626    -8521    -8573    -8787 
   -8907    -9069    -9386    -9494    -9234    -8905    -8718    -8640 
   -8608    -8596    -8569    -8583    -8699    -8780    -8785    -8820 
   -8800    -8700    -8631    -8608    -8700    -8895    -8989    -8883 
   -8761    -8826    -8899    -8803    -8735    -8768    -8784    -8800 
   -8834    -8851    -8743    -8433    -8136    -8128    -8382    -8619 
   -8654    -8727    -8972    -9019    -8861    -8831    -8861    -8862 
   -8877    -8830    -8787    -8765    -8627    -8486    -8591    -8910 
   -9151    -9138    -8993    -8838    -8581    -8357    -8475    -8776 
   -8861    -8695    -8564    -8704    -8961    -9022    -8973    -9018 
   -9130    -9323    -9498    -9377    -8965    -8499    -8237    -8260 
   -8297    -8256    -8441    -8847    -9112    -9111    -8955    -8672 
   -8390    -8441    -8746    -8927    -8881    -8625    -8367    -8372 
   -8563    -8791    -8803    -8482    -8301    -8484    -8644    -8633 
   -8741    -9092    -9351    -9313    -9236    -9034    -8459    -8009 
   -8098    -8383    -8594    -8777    -8901    -8995    -9147    -9204 
   -8974    -8660    -8591    -8754    -8985    -9254    -9390    -9169 
   -8791    -8584    -8517    -8537    -8691    -8806    -8807    -8910 
   -9058    -8962    -8712    -8588    -8679    -8945    -9142    -9045 
   -8884    -8869    -8791    -8641    -8557    -8276    -7865    -7931 
   -8482    -8935    -9047    -8974    -8999    -9150    -9111    -8837 
   -8521    -8209    -8012    -8090    -8419    -8779    -8978    -9066 
   -9054    -8861    -8611    -8487    -8494    -8552    -8679    -8815 
   -8815    -8811    -8943    -9070    -9077    -8866    -8580    -8567 
   -8685    -8723    -8889    -9116    -9107    -8947    -8903    -8993 
   -8942    -8595    -8162    -7969    -8186    -8642    -9151    -9702 
   -9992    -9895    -9819    -9618    -8904    -8212    -8043    -8027 
   -7987    -8338    -9067    -9757   -10238   -10156    -9196    -7969 
   -7067    -6430    -6424    -7302    -8345    -9074    -9568    -9882 
   -9940    -9464    -8677    -8310    -8378    -8469    -8549    -8529 
   -8191    -7801    -7908    -8371    -8581    -8392    -8086    -8167 
   -9040   -10250   -10847   -10465    -9467    -8625    -8599    -9248 
   -9497    -8550    -7372    -7531    -8687    -9271    -9067    -8908 
   -8796    -8511    -8679    -9483   -10069    -9917    -9340    -8864 
   -8608    -8109    -7366    -7334    -8341    -9655   -10662   -11114 
  -11028   -10584    -9670    -8226    -6828    -6097    -5984    -6293 
   -7184    -8399    -9190    -9501    -9775   -10037   -10006    -9397 
   -8486    -8046    -8172    -8550    -8999    -9119    -8780    -8094 
   -7187    -6897    -7696    -8688    -9139    -9155    -9051    -9298 
  -10000   -10382    -9701    -8132    -6723    -6566    -7466    -8156 
   -8244    -8522    -9352   -10107   -10157    -9790    -9813   -10210 
  -10108    -9306    -8495    -8091    -8031    -8155    -8260    -8189 
   -7828    -7531    -8419   -10562   -11801   -10728    -8878    -8226 
   -8838    -9771   -10079    -9132    -7680    -7395    -8588    -9857 
   -9737    -8210    -7040    -7518    -8603    -8927    -8457    -7731 
   -7528    -8347    -9626   -10193    -9486    -8430    -8093    -8306 
   -8761    -9193    -9047    -8619    -8471    -8314    -7998    -7618 
   -7079    -6775    -7129    -7803    -8407    -8843    -9047    -9293 
  -10061   -11032   -11045    -9950    -9139    -9202    -9359    -9201 
   -8784    -8259    -8104    -8687    -9787   -10594   -10504    -9769 
   -8772    -7713    -7148    -7537    -8317    -8591    -8688    -9207 
   -9356    -8802    -8633    -8893    -8700    -8534    -9039    -9279 
   -8704    -8257    -8222    -7912    -7553    -7808    -8360    -8522 
   -8252    -8116    -8487    -9065    -9471    -9531    -9077    -8563 
   -8727    -9223    -9224    -8772    -8365    -8322    -8576    -8792 
   -8934    -8978    -8649    -8329    -8526    -8684    -8307    -7965 
   -8175    -8808    -9528    -9954    -9914    -9657    -9501    -9477 
   -9567    -9652    -9516    -9373    -9265    -8703    -7971    -7697 
   -7623    -7510    -7626    -8108    -8868    -9656   -10106    -9915 
   -9144    -8305    -7801    -7623    -7600    -7592    -7707    -8351 
   -9367    -9729    -9112    -8484    -8602    -9188    -9435    -9163 
   -8912    -8671    -8345    -8428    -8823    -8835    -8356    -7987 
   -8172    -8544    -8714    -8992    -9427    -9532    -9377    -9313 
   -9184    -8919    -8831    -8981    -9101    -8919    -8337    -7701 
   -7825    -8784    -9447    -9393    -9262    -9262    -9343    -9544 
   -9632    -9294    -8453    -7500    -7129    -7730    -9034   -10017 
   -9734    -8689    -8148    -8247    -8255    -7874    -7464    -7609 
   -8383    -9239    -9721    -9651    -9169    -8648    -8257    -8089 
   -8217    -8414    -8425    -8569    -9223    -9782    -9660    -9367 
   -9126    -8571    -8048    -8128    -8561    -8901    -9201    -9551 
   -9733    -9643    -9405    -9148    -8900    -8505    -7912    -7666 
   -8248    -9228    -9961   -10048    -9298    -8355    -8039    -8073 
   -7970    -7847    -7952    -8503    -9319    -9761    -9472    -8703 
   -8114    -8270    -8950    -9223    -8606    -7852    -7815    -8216 
   -8467    -8484    -8361    -8347    -8704    -9202    -9405    -9208 
   -8881    -8847    -9247    -9590    -9265    -8567    -8332    -8815 
   -9558    -9663    -8662    -7510    -7379    -8037    -8646    -9004 
   -9236    -9325    -9363    -9391    -9134    -8748    -8718    -8856 
   -8941    -9142    -9275    -9153    -8888    -8588    -8490    -8642 
   -8635    -8298    -7939    -7828    -8175    -9005    -9495    -8957 
   -8232    -8183    -8505    -8915    -9155    -8785    -8193    -8035 
   -8355    -9090    -9823    -9776    -9142    -8888    -9159    -9355 
   -9174    -8737    -8240    -7954    -8050    -8209    -8121    -8073 
   -8344    -8881    -9518    -9855    -9683    -9417    -9352    -9201 
   -8753    -8266    -7963    -7858    -7983    -8151    -8170    -8290 
   -8526    -8567    -8556    -8802    -9202    -9495    -9656    -9686 
   -9431    -9034    -8741    -8499    -8262    -8037    -7947    -8217 
   -8685    -9101    -9541    -9896   -10003    -9919    -9490    -8614 
   -7739    -7407    -7596    -7867    -8121    -8588    -9181    -9655 
   -9990    -9949    -9288    -8618    -8611    -8903    -8982    -8905 
   -8646    -8224    -8078    -8290    -8436    -8380    -8332    -8513 
   -8864    -8966    -8733    -8549    -8641    -8993    -9270    -8935 
   -8151    -7715    -7952    -8518    -8970    -9088    -8927    -8735 
   -8897    -9494    -9950    -9706    -8931    -8387    -8457    -8689 
   -8784    -8915    -8945    -8614    -8190    -8093    -8241    -8428 
   -8706    -9013    -9251    -9443    -9377    -8949    -8604    -8584 
   -8640    -8669    -8569    -8294    -8313    -8811    -9352    -9598 
   -9400    -8843    -8351    -8154    -8025    -7854    -8074    -8802 
   -9366    -9397    -9047    -8503    -8268    -8600    -8958    -8982 
   -8904    -8856    -8830    -8920    -9042    -8924    -8565    -8214 
   -8060    -8224    -8633    -9005    -9216    -9375    -9472    -9301 
   -8922    -8758    -8893    -8970    -8927    -8845    -8573    -8230 
   -8266    -8815    -9531    -9944    -9845    -9468    -9142    -8847 
   -8453    -8082    -7911    -7858    -7823    -8046    -8556    -8796 
   -8544    -8326    -8471    -8606    -8415    -8237    -8387    -8665 
   -9053    -9564    -9683    -9126    -8355    -7983    -8195    -8664 
   -9012    -9105    -8981    -8876    -8995    -9169    -9123    -8869 
   -8557    -8309    -8132    -7973    -8097    -8716    -9379    -9709 
   -9720    -9367    -8943    -8897    -9086    -9221    -9286    -8993 
   -8334    -8163    -8598    -8765    -8604    -8631    -8856    -9049 
   -9128    -9074    -8819    -8506    -8503    -8814    -8953    -8716 
   -8502    -8553    -8785    -9138    -9315    -8935    -8283    -8059 
   -8356    -8576    -8446    -8365    -8641    -8988    -8978    -8541 
   -8101    -8255    -8819    -8976    -8776    -8746    -8703    -8607 
   -8799    -8904    -8549    -8378    -8777    -9162    -9171    -8900 
   -8556    -8526    -8864    -9107    -9022    -8857    -8799    -8811 
   -8916    -8982    -8775    -8459    -8395    -8702    -9132    -9252 
   -8989    -8723    -8688    -8760    -8777    -8689    -8625    -8758 
   -8968    -9015    -8945    -8895    -8816    -8657    -8500    -8317 
   -8109    -8212    -8787    -9400    -9509    -9084    -8676    -8691 
   -8861    -9004    -9251    -9340    -9045    -8683    -8395    -8101 
   -8017    -8241    -8544    -8816    -8945    -8895    -8991    -9256 
   -9232    -8901    -8640    -8460    -8224    -8093    -8243    -8532 
