Origin Time       2025/03/30 21:30:00
Lat.              38.535
Long.             142.295
Depth. (km)       44
Mag.              4.3
Station Code      MYG008
Station Lat.      38.5676
Station Long.     141.4267
Station Height(m) 26
Record Time       2025/03/30 21:31:19
Sampling Freq(Hz) 100Hz
Duration Time(s)  60
Dir.              E-W
Scale Factor      7845(gal)/8223790
Max. Acc. (gal)   5.972
Last Correction   2025/03/30 21:31:19
Memo.             
[...]
    4584     4583     4583     4581     4583     4585     4584     4584 
    4584     4584     4585     4585     4584     4584     4584     4584 
    4585     4587     4581     4577     4583     4585     4581     4581 
    4584     4584     4584     4585     4585     4585     4583     4583 
    4584     4583     4583     4584     4585     4585     4584     4581 
    4584     4585     4584     4585     4585     4584     4584     4583 
    4584     4587     4584     4583     4587     4588     4587     4584 
    4583     4583     4585     4584     4584     4585     4587     4584 
    4580     4581     4584     4584     4583     4581     4584     4587 
    4587     4585     4584     4584     4587     4584     4581     4584 
    4587     4583     4584     4585     4584     4585     4585     4584 
    4584     4584     4587     4588     4585     4587     4587     4584 
    4583     4587     4588     4587     4583     4581     4584     4585 
    4584     4585     4584     4581     4584     4585     4584     4585 
    4585     4585     4584     4584     4587     4588     4585     4584 
    4583     4584     4585     4585     4583     4585     4588     4587 
    4585     4585     4587     4585     4584     4583     4584     4587 
    4585     4583     4584     4587     4587     4584     4583     4584 
    4587     4587     4585     4583     4584     4587     4584     4583 
    4587     4587     4584     4587     4587     4584     4584     4584 
    4587     4585     4584     4585     4584     4583     4585     4585 
    4584     4584     4584     4584     4585     4584     4585     4584 
    4583     4584     4584     4583     4585     4585     4584     4583 
    4580     4580     4583     4584     4584     4583     4584     4583 
    4583     4585     4587     4583     4584     4587     4585     4587 
    4587     4585     4583     4585     4587     4587     4587     4584 
    4584     4585     4585     4584     4585     4585     4584     4581 
    4583     4588     4588     4584     4583     4584     4587     4585 
    4583     4584     4585     4585     4584     4583     4584     4585 
    4584     4585     4585     4584     4585     4585     4583     4581 
    4585     4587     4584     4583     4584     4587     4585     4584 
    4585     4585     4585     4587     4585     4584     4587     4587 
    4584     4584     4587     4585     4584     4584     4583     4584 
    4584     4581     4584     4585     4583     4583     4583     4581 
    4585     4585     4583     4583     4584     4584     4585     4585 
    4585     4584     4581     4581     4583     4583     4584     4587 
    4585     4583     4585     4585     4584     4584     4584     4585 
    4585     4584     4585     4587     4585     4584     4587     4584 
    4584     4585     4585     4584     4585     4588     4585     4581 
    4583     4585     4585     4587     4584     4581     4585     4587 
    4583     4585     4587     4584     4584     4584     4581     4581 
    4585     4585     4581     4584     4588     4587     4583     4580 
    4581     4585     4585     4583     4585     4585     4583     4584 
    4587     4587     4584     4585     4587     4585     4584     4588 
    4588     4583     4583     4584     4584     4584     4584     4584 
    4585     4585     4583     4583     4588     4588     4584     4583 
    4584     4583     4583     4583     4584     4587     4585     4584 
    4587     4588     4585     4581     4583     4587     4587     4585 
    4585     4584     4584     4585     4585     4587     4590     4588 
    4587     4587     4585     4584     4584     4583     4581     4584 
    4588     4587     4585     4584     4585     4587     4585     4584 
    4584     4584     4585     4585     4584     4584     4587     4588 
    4584     4579     4579     4581     4580     4576     4571     4569 
    4567     4568     4575     4584     4591     4591     4590     4599 
    4626     4657     4673     4654     4577     4475     4488     4644 
    4683     4480     4325     4455     4676     4698     4561     4560 
    4685     4633     4550     4747     4837     4486     4280     4716 
    5128     4699     3931     3993     4900     5267     4463     3929 
    4629     5209     4684     4128     4436     4972     4959     4379 
    3832     4148     4985     4934     4132     4217     5171     5351 
    4517     4041     4469     5011     4939     4270     3893     4637 
    5486     4862     3576     3762     5108     5306     4482     4476 
    4714     4342     4540     5193     4864     4068     4256     4990 
    4858     4143     3939     4248     4807     5212     4984     4658 
    4619     4455     4275     4455     4742     4764     4787     4658 
    3901     3937     5474     5792     3990     3272     4807     5709 
    4676     3758     4116     4873     5163     4834     4461     4519 
    4765     4876     4355     3307     3469     5262     6257     5131 
    3635     3701     4800     5161     4565     4027     4225     5081 
    5436     4561     3882     4604     5327     4706     3996     4376 
    4841     4710     4549     4299     4116     4801     5513     4831 
    3778     4132     5011     4664     4067     4583     4982     4418 
    4286     5105     5171     3913     3519     4981     5979     4981 
    3743     4020     4780     4785     4735     4847     4413     3971 
    4429     5098     4862     4330     4415     4579     4509     4531 
    4627     4756     4761     4554     4450     4473     4436     4575 
    4909     4652     3879     4158     5359     5289     4050     3991 
    5027     5171     4488     4306     4707     4896     4552     4209 
    4309     4683     5084     5105     4558     4159     4288     4290 
    4158     4645     5243     4993     4463     4421     4536     4434 
    4449     4764     4801     4430     4436     4984     5107     4378 
    3846     4271     4893     4980     4608     4183     4286     4823 
    4984     4542     4139     4299     4614     4653     4564     4491 
    4849     5425     5081     3964     3543     4357     5360     5217 
    4094     3723     4916     5806     4677     3292     3909     5440 
    5645     4486     3689     4216     5124     5193     4626     4259 
    4195     4136     4298     4981     5255     4353     3730     4405 
    5032     4892     4702     4546     4438     4962     5437     4540 
    3465     4155     5263     4854     4126     4436     4822     4661 
    4657     4646     4236     4318     4993     4974     4341     4411 
    4916     4557     3956     4592     5448     4719     3727     4355 
    5100     4453     3996     4799     5381     4804     4147     4438 
    5161     4923     3804     3800     5070     5306     4272     4110 
    5132     5269     4021     3686     4718     5030     4679     4754 
    4642     4176     4218     4754     4853     4455     4469     4730 
    4684     4666     4627     4486     4531     4594     4669     4827 
    4652     4060     3927     4784     5354     4692     4129     4630 
    5136     4692     4075     4388     5143     4947     3850     3688 
    4939     5510     4654     4125     4417     4422     4266     4854 
    5389     4571     3569     4058     5055     5065     4641     4746 
    4997     4664     4116     4303     4958     4873     4261     4411 
    4992     4761     4174     4382     4791     4351     4085     4978 
    5289     4012     3488     4970     6062     4984     3403     3596 
    5090     5541     4599     4180     4596     4503     4086     4469 
    5073     4730     4299     4854     5239     4515     3983     4473 
    4853     4580     4490     4712     4612     4445     4677     4753 
    4484     4590     4922     4731     4256     4182     4428     4673 
    4864     4708     4310     4305     4741     5109     4926     4387 
    4162     4274     4459     4770     4946     4480     3883     4438 
    5609     5165     3619     3955     5570     5135     3462     3793 
    5289     5194     4087     4106     5007     5111     4395     4097 
    4608     5364     5269     4118     3716     4753     5277     4630 
    4284     4541     4625     4523     4500     4449     4399     4572 
    4772     4695     4444     4217     4336     4839     5090     4914 
    4656     4506     4596     4530     4206     4467     4958     4684 
    4125     3967     4426     5301     5474     4509     3661     4315 
    5530     5004     3670     4133     5296     4978     4279     4650 
    4754     3685     3573     5410     6367     4716     3098     3875 
    5293     5065     4128     4276     5054     5069     4538     4414 
    4491     4449     4533     4699     4864     4683     3966     3834 
    4847     5285     4143     3705     5152     5826     4882     4374 
    4403     4081     3986     4644     5252     4951     4484     4576 
    4534     4345     4495     4603     4517     4500     4675     4877 
    4729     4560     4712     4591     4249     4426     4841     4747 
    4230     4075     4630     5076     4781     4344     4432     4909 
    4892     4198     4105     4837     5077     4402     3858     4467 
    5456     5312     4306     3686     3902     4762     5459     5030 
    4153     4342     5135     4828     3827     4178     5229     4743 
    3987     4739     5293     4507     3767     4082     4720     4679 
    4575     5086     5250     4617     4110     4266     4689     4806 
    4477     4284     4729     5138     4618     3850     4210     5170 
    5065     4355     4534     5008     4683     4290     4603     4812 
    4287     3974     4530     4862     4348     4183     4980     5409 
    4448     3581     4486     5657     5070     3905     4085     5027 
    5148     4463     4102     4351     4590     4634     4762     4739 
    4324     4122     4583     5071     4769     4197     4515     5197 
    4995     4317     3998     4203     4900     5173     4484     4110 
    4568     4633     4090     4345     5260     4905     3893     4409 
    5379     5109     4648     4685     4455     3920     3936     4704 
    5112     4611     4137     4330     4873     5096     4803     4668 
    4885     4712     4230     4280     4552     4459     4506     4692 
    4357     4028     4579     5287     4974     4396     4711     4864 
    4131     4087     5213     5568     4461     3790     4356     4683 
    4446     4490     4367     3960     4402     5544     5776     4595 
    3526     3847     4924     5378     4826     4345     4472     4507 
    4423     4622     4770     4290     3755     4438     5605     5354 
    3937     3531     5030     6072     4716     3337     4131     5165 
    4828     4477     4634     4322     4367     5447     5413     3665 
    3133     4770     5640     4483     3838     4789     5385     4741 
    4140     4473     4889     4603     4257     4405     4683     4700 
    4541     4330     4320     4861     5297     4915     4253     3986 
    4264     4676     4677     4617     4779     4738     4468     4302 
    4587     5076     4765     4002     4062     4808     5486     5375 
    4129     3142     3821     5094     5215     4638     4699     4908 
    4569     4437     4766     4735     4097     3974     5184     6170 
    5224     3528     3273     4509     5390     4869     4068     4276 
    4896     4846     4500     4390     4131     3977     4714     5533 
    4862     3597     3902     5038     5069     4666     5062     5336 
    4557     3640     3793     4912     5607     4806     3717     4213 
    5352     5009     3874     3923     4860     5328     5132     4438 
    3645     3825     4887     5287     4780     4504     4687     4774 
    4707     4588     4365     4263     4395     4517     4622     4784 
    4905     4812     4418     4328     4707     4541     4054     4387 
    4830     4282     3651     4210     5340     5668     5104     4318 
    3925     4554     5560     5158     3711     3600     4946     5652 
    5062     4186     3925     4422     4861     4345     3707     4418 
    5478     5124     4414     4622     4668     4344     4614     4818 
    4395     4282     4611     4571     4357     4514     4560     4368 
    4569     4974     5030     4816     4436     4131     4459     5005 
    4974     4546     3963     3690     4630     5953     5424     3638 
    3766     5387     5212     3746     3751     4907     5198     4484 
    4197     4739     5013     4738     4607     4413     3774     3501 
    4179     5097     5321     4834     4615     4907     4796     4502 
    5178     6524     6754     5090     3350     3550     4828     5198 
    4565     3847     3237     2844     3354     4202     3688     2781 
    3646     5058     5057     4873     6015     6851     5265     2907 
    2852     4294     4891     5490     6937     7006     4785     2691 
    2566     4163     5941     5632     3006     1057     2273     5406 
    7379     6952     4939     2839     2570     4807     7446     7732 
    5595     4152     5262     6362     5416     4114     3697     3447 
    3356     4143     5144     4922     3947     4093     5220     5188 
    3589     2542     3712     5940     6008     3068     1316     4234 
    7761     6581     3657     3638     4951     5632     5651     3974 
    1695     1722     3643     5192     5748     5491     5108     5398 
    5933     6129     5807     4984     4116     3208     2562     3414 
    5366     6443     6278     6188     5868     3534      877     1386 
    3361     3122     1863     3127     7534    10845     8440     3078 
     885     2794     6312     8175     6070     2207      785     2933 
    6214     7430     5841     3584     3126     4608     6204     6378 
    5043     3198     2077     3125     5950     7254     5270     2311 
    1733     4345     7261     6701     3681     3102     5373     6655 
    6033     4941     3596     2648     3855     5883     5212     2239 
     496     2227     6315     8433     6223     2816     2251     4114 
    4725     3893     4764     6660     7311     6916     5247     2890 
    2493     3942     4773     5017     5197     4625     4581     5814 
    5760     3642     2207     3198     5391     6534     6169     5227 
    4201     3669     3703     3775     3935     4120     4071     3924 
    4302     5724     6899     6002     3943     3553     5601     7026 
    5120     2160     1503     2812     4552     5779     5379     3819 
    3052     3383     4201     5710     6913     6045     3993     3534 
    4753     5208     4955     5228     4712     3244     3038     4426 
    5449     5130     5071     5845     5134     3493     4391     6465 
    5645     3080     2085     3119     5263     6324     5298     4693 
    4993     4283     3350     3894     5378     6170     5686     4320 
    2774     2801     4842     6037     5193     4787     5201     4399 
    3361     4352     6064     5368     2239      511     2662     6413 
    8075     6525     3879     2714     3747     5948     6346     3711 
    2158     4252     6346     5903     5000     4942     4584     4012 
    4271     4607     4105     3720     4596     5643     4959     3705 
    4357     5913     5853     4430     3086     2789     4379     6143 
    5435     3585     3268     4137     4812     5371     5744     4897 
    3392     3373     5200     6804     6353     4504     3458     3890 
    4263     3634     3276     4083     4853     4738     4749     5478 
    5668     4792     4419     5239     5618     4665     4259     5297 
    5382     3628     2424     3294     5100     5579     4190     3210 
    4507     6538     6214     3900     3376     5082     5593     4364 
    3478     3519     4315     5344     5331     4268     3639     3975 
    4359     4122     3815     4141     4729     5179     5711     6126 
    5996     5459     4915     4482     3974     3195     2532     2859 
    4621     6743     6408     3464     2501     5101     6878     5410 
    3565     3820     4583     4521     5093     6021     5440     3952 
    3294     3626     4002     4537     5584     5713     4326     3273 
    4051     5690     6015     5243     4973     4432     2748     2022 
    4275     7433     7538     4527     2259     2922     4664     5054 
    4290     3939     4411     4808     4511     4286     4887     5454 
    5178     4599     4302     4288     4467     4860     5383     5298 
    4079     3402     4662     5826     5405     4564     4023     3897 
    3801     3435     4230     6003     6241     4847     3568     3217 
    4147     5729     6311     5208     3393     2716     4128     6123 
    6462     4812     2824     2552     4005     5289     5832     5711 
    4135     2295     2855     5300     6755     6164     4430     3105 
    3129     3843     4661     5405     5503     5525     5869     5300 
    3931     2998     2941     4132     5852     6424     5418     3603 
    2585     3875     6187     6415     4615     3504     3569     3717 
    4348     5832     6203     4455     3458     4909     6183     5373 
    3921     3535     4017     4210     4228     5015     6073     6058 
    4320     2239     2454     4267     4900     5042     5838     5125 
    2531     1856     4887     7940     7425     5024     3869     3599 
    3044     3501     5516     6385     4874     3615     3894     4355 
    4365     4251     4677     5587     5698     4880     4266     4360 
    4762     4837     4710     4576     4205     4268     4787     4295 
    3015     3044     4843     6207     5656     4545     4214     4456 
    4831     4949     4820     4872     4923     4540     3956     3808 
    3937     3638     3348     4025     5522     6713     6470     5035 
    3719     3211     3631     4730     5328     4851     4556     5279 
    5799     4881     3456     3140     3927     4858     5209     4521 
    3569     3975     5341     5938     5633     5163     4700     4195 
    3769     3716     4079     4587     5240     5813     5320     3975 
    3522     4170     4398     3964     4062     4954     5753     5505 
    4205     3678     4846     5813     5298     3958     3057     3620 
    4791     5069     4590     4310     4745     5313     5166     4471 
    3785     3492     4041     5173     5664     5285     5042     4915 
    4172     3483     4062     5231     5066     3730     3331     4477 
    5981     6108     4423     3593     4723     4963     3863     3906 
    4926     4954     4333     4839     5965     5541     4014     3520 
    3821     3975     4380     4930     5090     4980     4920     4999 
    4997     4916     4623     3750     3119     3522     4147     4639 
    5282     5463     4989     4753     5157     5508     4837     3414 
    3184     4729     5748     5252     4753     4280     3160     2947 
    4585     6016     5956     5459     4594     3306     3385     4758 
    5112     4314     3975     4792     5765     5069     3335     3240 
    4951     6058     5333     4216     4241     4529     4410     5020 
    5661     4500     2778     3190     5409     6490     5420     4179 
    4234     4594     3882     2893     3312     4847     5616     5225 
    5143     5541     5094     3928     3689     4783     5514     4693 
    3377     3368     4909     5965     5206     4396     4780     5015 
    4737     4889     4668     3346     2875     4374     5660     5131 
