Origin Time       2025/03/30 21:30:00
Lat.              38.535
Long.             142.295
Depth. (km)       44
Mag.              4.3
Station Code      MYG013
Station Lat.      38.2661
Station Long.     140.9286
Station Height(m) 5
Record Time       2025/03/30 21:31:30
Sampling Freq(Hz) 100Hz
Duration Time(s)  60
Dir.              U-D
Scale Factor      7845(gal)/8223790
Max. Acc. (gal)   0.824
Last Correction   2025/03/30 21:31:29
Memo.             
[...]
   -3272    -3204    -3153    -3152    -3272    -3368    -3411    -3495 
   -3478    -3327    -3233    -3303    -3388    -3227    -3002    -3083 
   -3289    -3303    -3217    -3244    -3388    -3514    -3522    -3387 
   -3234    -3257    -3339    -3306    -3288    -3322    -3256    -3199 
   -3292    -3323    -3184    -3171    -3357    -3402    -3271    -3261 
   -3296    -3231    -3260    -3392    -3427    -3402    -3391    -3325 
   -3245    -3273    -3307    -3262    -3257    -3265    -3256    -3295 
   -3326    -3369    -3437    -3375    -3256    -3238    -3230    -3200 
   -3265    -3388    -3456    -3441    -3338    -3222    -3229    -3323 
   -3337    -3240    -3175    -3208    -3330    -3524    -3589    -3368 
   -3127    -3141    -3279    -3339    -3299    -3230    -3258    -3404 
   -3460    -3365    -3308    -3283    -3223    -3310    -3465    -3361 
   -3171    -3233    -3392    -3426    -3339    -3208    -3191    -3211 
   -3129    -3180    -3356    -3399    -3438    -3530    -3515    -3407 
   -3230    -3080    -3084    -3152    -3257    -3339    -3296    -3311 
   -3404    -3438    -3499    -3457    -3175    -3033    -3231    -3450 
   -3543    -3578    -3379    -2992    -2949    -3215    -3249    -3208 
   -3350    -3326    -3240    -3416    -3501    -3416    -3462    -3438 
   -3179    -3034    -3167    -3241    -3173    -3314    -3541    -3493 
   -3375    -3312    -3172    -3096    -3215    -3447    -3600    -3433 
   -3125    -3127    -3375    -3438    -3273    -3136    -3137    -3256 
   -3411    -3508    -3504    -3346    -3186    -3240    -3289    -3183 
   -3169    -3296    -3416    -3423    -3275    -3198    -3287    -3322 
   -3304    -3345    -3360    -3258    -3129    -3253    -3585    -3589 
   -3252    -3123    -3184    -3221    -3406    -3551    -3369    -3191 
   -3223    -3249    -3257    -3326    -3335    -3250    -3229    -3377 
   -3493    -3404    -3365    -3430    -3285    -3113    -3173    -3223 
   -3275    -3411    -3285    -3055    -3206    -3442    -3416    -3412 
   -3424    -3257    -3175    -3279    -3326    -3267    -3219    -3252 
   -3341    -3423    -3424    -3284    -3136    -3187    -3333    -3383 
   -3454    -3511    -3365    -3223    -3241    -3240    -3211    -3221 
   -3261    -3289    -3287    -3375    -3445    -3300    -3219    -3350 
   -3419    -3396    -3352    -3198    -3057    -3168    -3408    -3445 
   -3350    -3397    -3450    -3326    -3192    -3188    -3241    -3304 
   -3404    -3427    -3273    -3153    -3198    -3261    -3307    -3333 
   -3254    -3144    -3130    -3288    -3550    -3628    -3404    -3191 
   -3249    -3418    -3402    -3227    -3153    -3192    -3215    -3298 
   -3399    -3387    -3411    -3504    -3424    -3233    -3217    -3298 
   -3204    -3102    -3214    -3311    -3327    -3381    -3419    -3458 
   -3402    -3191    -3186    -3388    -3420    -3316    -3242    -3188 
   -3207    -3326    -3410    -3330    -3180    -3145    -3283    -3476 
   -3520    -3391    -3260    -3203    -3157    -3142    -3265    -3392 
   -3354    -3373    -3500    -3426    -3230    -3230    -3296    -3235 
   -3203    -3284    -3322    -3304    -3349    -3354    -3268    -3298 
   -3442    -3477    -3396    -3294    -3164    -3088    -3241    -3497 
   -3496    -3285    -3164    -3177    -3249    -3256    -3200    -3227 
   -3268    -3314    -3424    -3435    -3381    -3357    -3229    -3146 
   -3227    -3204    -3122    -3296    -3576    -3577    -3368    -3269 
   -3289    -3314    -3381    -3391    -3223    -3109    -3230    -3408 
   -3496    -3441    -3195    -3002    -3175    -3457    -3442    -3300 
   -3276    -3302    -3372    -3427    -3314    -3156    -3123    -3196 
   -3335    -3392    -3284    -3200    -3211    -3316    -3511    -3538 
   -3303    -3107    -3156    -3345    -3505    -3593    -3520    -3260 
   -3117    -3279    -3493    -3493    -3261    -2979    -2887    -3071 
   -3368    -3518    -3430    -3279    -3296    -3466    -3518    -3329 
   -3144    -3157    -3225    -3234    -3292    -3400    -3399    -3300 
   -3250    -3207    -3127    -3199    -3453    -3630    -3550    -3287 
   -3075    -3099    -3311    -3511    -3505    -3280    -3053    -3032 
   -3234    -3470    -3496    -3356    -3258    -3287    -3414    -3474 
   -3353    -3230    -3214    -3233    -3303    -3333    -3268    -3271 
   -3249    -3179    -3312    -3423    -3304    -3354    -3466    -3252 
   -3098    -3222    -3261    -3306    -3497    -3523    -3396    -3315 
   -3198    -3122    -3242    -3404    -3415    -3300    -3262    -3319 
   -3303    -3262    -3262    -3271    -3365    -3437    -3307    -3186 
   -3269    -3352    -3349    -3339    -3237    -3230    -3526    -3676 
   -3358    -2983    -2974    -3227    -3427    -3493    -3431    -3235 
   -3106    -3186    -3337    -3393    -3318    -3200    -3200    -3376 
   -3504    -3438    -3375    -3365    -3245    -3122    -3175    -3275 
   -3250    -3194    -3198    -3210    -3279    -3420    -3505    -3505 
   -3406    -3200    -3134    -3312    -3395    -3264    -3322    -3543 
   -3415    -3127    -3187    -3403    -3365    -3173    -3191    -3352 
   -3354    -3358    -3458    -3330    -3049    -3063    -3329    -3402 
   -3235    -3154    -3194    -3294    -3478    -3562    -3491    -3383 
   -3265    -3315    -3424    -3296    -3194    -3284    -3364    -3369 
   -3231    -3055    -3115    -3342    -3530    -3630    -3514    -3203 
   -3082    -3225    -3294    -3258    -3233    -3223    -3316    -3403 
   -3318    -3150    -3024    -3141    -3519    -3655    -3383    -3210 
   -3292    -3338    -3298    -3268    -3283    -3306    -3275    -3248 
   -3233    -3215    -3273    -3318    -3296    -3318    -3300    -3310 
   -3495    -3542    -3337    -3202    -3180    -3215    -3354    -3464 
   -3427    -3323    -3241    -3229    -3269    -3284    -3285    -3356 
   -3462    -3532    -3507    -3399    -3307    -3146    -2936    -3001 
   -3271    -3426    -3474    -3439    -3337    -3276    -3289    -3357 
   -3316    -3167    -3190    -3310    -3323    -3262    -3079    -2967 
   -3190    -3468    -3562    -3499    -3223    -3003    -3198    -3512 
   -3546    -3431    -3329    -3191    -3175    -3383    -3505    -3376 
   -3233    -3214    -3230    -3277    -3426    -3574    -3526    -3323 
   -3114    -2959    -3080    -3464    -3589    -3376    -3230    -3202 
   -3265    -3460    -3484    -3294    -3269    -3352    -3306    -3281 
   -3330    -3326    -3256    -3159    -3103    -3168    -3342    -3465 
   -3457    -3450    -3400    -3238    -3144    -3165    -3223    -3326 
   -3431    -3456    -3330    -3100    -3048    -3225    -3275    -3163 
   -3172    -3264    -3319    -3429    -3546    -3528    -3434    -3380 
   -3353    -3262    -3148    -3167    -3252    -3300    -3377    -3365 
   -3245    -3291    -3449    -3443    -3321    -3240    -3184    -3171 
   -3306    -3487    -3515    -3410    -3285    -3196    -3206    -3296 
   -3275    -3153    -3210    -3368    -3384    -3416    -3495    -3379 
   -3203    -3180    -3188    -3233    -3445    -3600    -3454    -3194 
   -3061    -3137    -3354    -3406    -3254    -3206    -3250    -3292 
   -3389    -3395    -3249    -3203    -3300    -3365    -3399    -3350 
   -3141    -3061    -3267    -3465    -3508    -3495    -3437    -3283 
   -3159    -3202    -3231    -3129    -3118    -3294    -3466    -3508 
   -3420    -3234    -3084    -3132    -3283    -3441    -3595    -3541 
   -3308    -3227    -3241    -3118    -3013    -3192    -3493    -3526 
   -3391    -3365    -3361    -3375    -3476    -3449    -3300    -3268 
   -3257    -3184    -3206    -3258    -3188    -3183    -3381    -3469 
   -3383    -3492    -3564    -3196    -2853    -2928    -3184    -3392 
   -3389    -3215    -3126    -3153    -3303    -3543    -3559    -3312 
   -3129    -3148    -3302    -3458    -3442    -3246    -3107    -3223 
   -3496    -3616    -3438    -3150    -3052    -3249    -3462    -3442 
   -3391    -3388    -3262    -3206    -3368    -3492    -3462    -3383 
   -3339    -3379    -3429    -3399    -3352    -3339    -3272    -3106 
   -2998    -3036    -3068    -3113    -3333    -3493    -3365    -3254 
   -3368    -3478    -3418    -3283    -3168    -3057    -3091    -3391 
   -3662    -3565    -3202    -2909    -2945    -3291    -3600    -3592 
   -3407    -3267    -3230    -3407    -3593    -3338    -3011    -3218 
   -3537    -3492    -3375    -3384    -3346    -3221    -3218    -3389 
   -3492    -3429    -3318    -3215    -3096    -3032    -3123    -3283 
   -3329    -3276    -3221    -3183    -3160    -3204    -3392    -3557 
   -3442    -3262    -3322    -3441    -3397    -3258    -3136    -3092 
   -3171    -3280    -3333    -3373    -3402    -3431    -3443    -3306 
   -3172    -3217    -3230    -3226    -3342    -3364    -3294    -3327 
   -3361    -3329    -3335    -3396    -3423    -3350    -3276    -3275 
   -3254    -3227    -3245    -3226    -3223    -3318    -3384    -3402 
   -3416    -3321    -3142    -3091    -3281    -3523    -3523    -3414 
   -3369    -3238    -3133    -3200    -3295    -3395    -3461    -3358 
   -3206    -3167    -3231    -3345    -3427    -3381    -3245    -3217 
   -3308    -3333    -3349    -3410    -3322    -3157    -3214    -3407 
   -3426    -3369    -3443    -3381    -3138    -3187    -3439    -3411 
   -3287    -3319    -3233    -3063    -3110    -3267    -3418    -3527 
   -3445    -3292    -3227    -3159    -3144    -3248    -3353    -3430 
   -3430    -3246    -3041    -3092    -3350    -3484    -3391    -3262 
   -3168    -3176    -3426    -3605    -3403    -3161    -3123    -3199 
   -3396    -3546    -3528    -3484    -3370    -3154    -3069    -3226 
   -3377    -3381    -3387    -3318    -3046    -2875    -3048    -3365 
   -3574    -3632    -3551    -3412    -3353    -3327    -3225    -3099 
   -3059    -3208    -3464    -3504    -3321    -3226    -3218    -3237 
   -3372    -3454    -3383    -3279    -3191    -3217    -3314    -3253 
   -3064    -3059    -3369    -3601    -3495    -3392    -3345    -3237 
   -3391    -3670    -3601    -3348    -3235    -3207    -3134    -3059 
   -3082    -3203    -3261    -3142    -3067    -3268    -3542    -3568 
   -3376    -3338    -3572    -3597    -3291    -3157    -3214    -3127 
   -3055    -3195    -3318    -3265    -3318    -3516    -3438    -3202 
   -3235    -3387    -3446    -3468    -3420    -3302    -3214    -3289 
   -3496    -3541    -3334    -3179    -3231    -3226    -3094    -3118 
   -3267    -3283    -3218    -3258    -3345    -3271    -3213    -3430 
   -3527    -3303    -3256    -3400    -3365    -3225    -3122    -3148 
   -3314    -3383    -3329    -3231    -3068    -3061    -3272    -3476 
   -3568    -3497    -3376    -3346    -3241    -3114    -3267    -3477 
   -3375    -3223    -3334    -3464    -3346    -3126    -3048    -3167 
   -3372    -3489    -3473    -3400    -3288    -3234    -3342    -3439 
   -3253    -2940    -2975    -3294    -3402    -3361    -3462    -3604 
   -3613    -3484    -3391    -3419    -3326    -3105    -2982    -2920 
   -2964    -3230    -3497    -3555    -3420    -3238    -3254    -3446 
   -3497    -3353    -3141    -2937    -2940    -3235    -3532    -3624 
   -3634    -3595    -3402    -3223    -3273    -3381    -3364    -3380 
   -3451    -3384    -3349    -3466    -3352    -2978    -2725    -2670 
   -2844    -3198    -3383    -3411    -3572    -3732    -3740    -3712 
   -3591    -3352    -3254    -3271    -3127    -2990    -3146    -3439 
   -3573    -3427    -3125    -2937    -2937    -3102    -3364    -3437 
   -3275    -3207    -3327    -3419    -3403    -3392    -3376    -3217 
   -3056    -3238    -3688    -3912    -3635    -3086    -2679    -2639 
   -2918    -3240    -3298    -3163    -3146    -3399    -3828    -4112 
   -3946    -3446    -3010    -2860    -2976    -3250    -3487    -3530 
   -3504    -3456    -3258    -3164    -3296    -3291    -3140    -3133 
   -3184    -3176    -3211    -3318    -3403    -3353    -3173    -3010 
   -2895    -2862    -3021    -3287    -3537    -3763    -3875    -3832 
   -3667    -3365    -3198    -3333    -3397    -3296    -3304    -3334 
   -3249    -3267    -3422    -3314    -2945    -2880    -3204    -3476 
   -3541    -3551    -3572    -3501    -3323    -3214    -3137    -2964 
   -2901    -2980    -2956    -2836    -2821    -3061    -3545    -3892 
   -3794    -3551    -3485    -3526    -3672    -3843    -3736    -3399 
   -3154    -3111    -3191    -3275    -3190    -2934    -2876    -3204 
   -3541    -3500    -3173    -2940    -2982    -3159    -3285    -3319 
   -3431    -3732    -3862    -3593    -3227    -3015    -3103    -3434 
   -3551    -3360    -3260    -3334    -3364    -3383    -3470    -3399 
   -3073    -2816    -2884    -3136    -3354    -3469    -3396    -3204 
   -3095    -3036    -3042    -3242    -3454    -3501    -3465    -3423 
   -3530    -3754    -3767    -3596    -3397    -3122    -3003    -3154 
   -3202    -3067    -2994    -3068    -3181    -3144    -3115    -3360 
   -3611    -3674    -3703    -3634    -3516    -3547    -3526    -3353 
   -3248    -3161    -3052    -3033    -3057    -3177    -3370    -3381 
   -3246    -3169    -3261    -3453    -3430    -3237    -3215    -3257 
   -3159    -3045    -2955    -2875    -2991    -3373    -3723    -3802 
   -3730    -3584    -3419    -3396    -3385    -3272    -3192    -3110 
   -3018    -3002    -3061    -3223    -3388    -3427    -3370    -3295 
   -3333    -3373    -3137    -2879    -3014    -3427    -3873    -4170 
   -4039    -3589    -3272    -3190    -3167    -3021    -2755    -2733 
   -3096    -3466    -3516    -3230    -2902    -2932    -3291    -3572 
   -3588    -3435    -3341    -3514    -3736    -3662    -3439    -3299 
   -3267    -3342    -3356    -3285    -3222    -2999    -2863    -3248 
   -3689    -3615    -3262    -2956    -2756    -2835    -3234    -3582 
   -3601    -3434    -3339    -3362    -3352    -3322    -3377    -3376 
   -3273    -3257    -3384    -3514    -3419    -3146    -3013    -3090 
   -3304    -3523    -3518    -3362    -3287    -3289    -3334    -3478 
   -3643    -3581    -3323    -3187    -3176    -3161    -3207    -3315 
   -3330    -3161    -2944    -2837    -2845    -2998    -3199    -3238 
   -3257    -3399    -3453    -3423    -3538    -3665    -3630    -3595 
   -3491    -3227    -3213    -3438    -3358    -3115    -3214    -3433 
   -3457    -3497    -3558    -3333    -2938    -2859    -3204    -3527 
   -3543    -3399    -3173    -3082    -3404    -3793    -3692    -3204 
   -2794    -2767    -3165    -3632    -3678    -3411    -3253    -3203 
   -3181    -3265    -3300    -3129    -3002    -3142    -3302    -3298 
   -3264    -3215    -3130    -3106    -3130    -3215    -3422    -3638 
   -3704    -3592    -3379    -3145    -3073    -3275    -3439    -3419 
   -3346    -3071    -2789    -3014    -3478    -3667    -3667    -3612 
   -3388    -3180    -3349    -3622    -3537    -3333    -3314    -3281 
   -3210    -3273    -3325    -3226    -3127    -3115    -3183    -3376 
   -3539    -3441    -3261    -3294    -3396    -3308    -3126    -3113 
   -3217    -3230    -3258    -3395    -3476    -3501    -3527    -3429 
   -3215    -3026    -2934    -3030    -3287    -3426    -3354    -3312 
   -3357    -3372    -3430    -3535    -3464    -3194    -3009    -3015 
   -3025    -3071    -3283    -3411    -3364    -3397    -3376    -3172 
   -3206    -3496    -3591    -3561    -3638    -3609    -3375    -3206 
   -3222    -3292    -3376    -3493    -3520    -3339    -3083    -2899 
   -2776    -2790    -2971    -3200    -3461    -3613    -3531    -3488 
   -3573    -3537    -3451    -3404    -3211    -3060    -3291    -3535 
   -3356    -3132    -3177    -3244    -3315    -3474    -3377    -2960 
   -2791    -3106    -3445    -3492    -3414    -3407    -3443    -3469 
   -3608    -3770    -3626    -3272    -3009    -2893    -3015    -3299 
   -3383    -3275    -3254    -3245    -3119    -3107    -3240    -3230 
   -3191    -3387    -3638    -3701    -3596    -3457    -3256    -2952 
   -2890    -3134    -3295    -3342    -3281    -3092    -3125    -3362 
   -3489    -3532    -3481    -3280    -3113    -3119    -3238    -3310 
   -3264    -3241    -3362    -3470    -3383    -3326    -3393    -3281 
   -3152    -3364    -3562    -3396    -3242    -3341    -3366    -3219 
   -3225    -3431    -3476    -3268    -3129    -3206    -3267    -3179 
   -3142    -3268    -3331    -3319    -3497    -3686    -3581    -3391 
   -3280    -3180    -3160    -3248    -3354    -3473    -3539    -3437 
   -3291    -3326    -3406    -3304    -3207    -3190    -3024    -2913 
   -3132    -3326    -3291    -3343    -3541    -3595    -3442    -3322 
   -3327    -3233    -3107    -3221    -3356    -3358    -3442    -3514 
   -3369    -3153    -3105    -3253    -3373    -3204    -2911    -2995 
   -3410    -3596    -3484    -3318    -3142    -3095    -3231    -3399 
   -3495    -3435    -3362    -3433    -3456    -3349    -3221    -3138 
   -3238    -3377    -3306    -3240    -3310    -3333    -3370    -3402 
   -3179    -2932    -3057    -3397    -3616    -3577    -3295    -3061 
   -3132    -3348    -3456    -3360    -3194    -3244    -3392    -3331 
   -3163    -3034    -3015    -3287    -3635    -3624    -3380    -3234 
   -3187    -3223    -3329    -3383    -3397    -3391    -3352    -3360 
   -3369    -3284    -3214    -3196    -3175    -3302    -3538    -3495 
   -3167    -2965    -3064    -3383    -3708    -3816    -3730    -3526 
   -3280    -3179    -3233    -3341    -3389    -3206    -3015    -3134 
   -3322    -3396    -3470    -3462    -3323    -3222    -3223    -3218 
   -3086    -3007    -3242    -3497    -3451    -3349    -3300    -3149 
   -3072    -3208    -3292    -3153    -2976    -3024    -3288    -3410 
   -3269    -3229    -3316    -3268    -3275    -3454    -3501    -3402 
   -3451    -3663    -3688    -3419    -3225    -3183    -3057    -3001 
   -3180    -3346    -3406    -3435    -3372    -3289    -3291    -3311 
   -3402    -3564    -3576    -3415    -3296    -3311    -3345    -3280 
   -3200    -3195    -3168    -3119    -3210    -3377    -3407    -3299 
   -3192    -3194    -3273    -3231    -3098    -3094    -3187    -3306 
   -3492    -3605    -3504    -3373    -3353    -3306    -3275    -3393 
   -3461    -3395    -3369    -3345    -3254    -3217    -3268    -3357 
   -3392    -3321    -3217    -3127    -3150    -3350    -3500    -3422 
   -3261    -3115    -3033    -3146    -3321    -3339    -3318    -3335 
   -3245    -3098    -3138    -3307    -3300    -3161    -3196    -3420 
   -3532    -3416    -3273    -3169    -3177    -3454    -3657    -3460 
   -3207    -3217    -3400    -3542    -3500    -3400    -3376    -3360 
   -3343    -3345    -3213    -2992    -3051    -3406    -3584    -3411 
   -3233    -3285    -3445    -3555    -3465    -3160    -2995    -3134 
   -3295    -3307    -3248    -3210    -3196    -3187    -3229    -3295 
   -3310    -3288    -3237    -3213    -3289    -3430    -3520    -3470 
   -3346    -3273    -3280    -3304    -3285    -3314    -3345    -3207 
   -3090    -3142    -3169    -3184    -3315    -3437    -3358    -3234 
   -3420    -3649    -3470    -3295    -3358    -3262    -3134    -3245 
   -3334    -3294    -3272    -3291    -3365    -3487    -3564    -3508 
