Origin Time       2025/03/30 21:30:00
Lat.              38.535
Long.             142.295
Depth. (km)       44
Mag.              4.3
Station Code      MYG011
Station Lat.      38.3020
Station Long.     141.5079
Station Height(m) 12
Record Time       2025/03/30 21:31:18
Sampling Freq(Hz) 100Hz
Duration Time(s)  60
Dir.              E-W
Scale Factor      7845(gal)/8223790
Max. Acc. (gal)   5.137
Last Correction   2025/03/30 21:31:18
Memo.             
[...]
   -3987    -3987    -3989    -3990    -3990    -3989    -3987    -3987 
   -3989    -3990    -3989    -3989    -3989    -3989    -3990    -3989 
   -3986    -3987    -3989    -3987    -3987    -3989    -3987    -3987 
   -3989    -3989    -3990    -3991    -3989    -3987    -3990    -3993 
   -3990    -3987    -3987    -3989    -3989    -3987    -3989    -3987 
   -3987    -3990    -3990    -3990    -3990    -3989    -3987    -3989 
   -3990    -3990    -3990    -3987    -3989    -3990    -3989    -3989 
   -3990    -3989    -3989    -3991    -3990    -3989    -3990    -3990 
   -3987    -3990    -3990    -3987    -3987    -3989    -3989    -3990 
   -3990    -3990    -3991    -3991    -3990    -3990    -3990    -3989 
   -3989    -3989    -3989    -3990    -3991    -3990    -3991    -3993 
   -3990    -3990    -3990    -3990    -3990    -3991    -3991    -3989 
   -3989    -3990    -3989    -3990    -3989    -3987    -3991    -3991 
   -3989    -3989    -3986    -3986    -3987    -3987    -3989    -3990 
   -3989    -3987    -3987    -3987    -3989    -3987    -3987    -3990 
   -3990    -3989    -3989    -3990    -3989    -3989    -3990    -3989 
   -3986    -3987    -3991    -3990    -3989    -3990    -3990    -3989 
   -3990    -3989    -3989    -3989    -3989    -3987    -3986    -3986 
   -3987    -3987    -3987    -3989    -3989    -3989    -3989    -3987 
   -3987    -3989    -3990    -3991    -3989    -3986    -3989    -3991 
   -3989    -3989    -3991    -3990    -3989    -3990    -3990    -3990 
   -3989    -3990    -3993    -3990    -3987    -3987    -3987    -3989 
   -3990    -3991    -3990    -3990    -3991    -3990    -3989    -3990 
   -3990    -3987    -3990    -3991    -3987    -3989    -3991    -3990 
   -3989    -3990    -3990    -3989    -3990    -3991    -3989    -3987 
   -3989    -3990    -3989    -3989    -3989    -3987    -3989    -3991 
   -3989    -3986    -3987    -3987    -3987    -3990    -3991    -3991 
   -3990    -3989    -3989    -3990    -3989    -3987    -3990    -3989 
   -3987    -3990    -3991    -3990    -3989    -3990    -3990    -3990 
   -3990    -3989    -3990    -3990    -3987    -3986    -3989    -3987 
   -3987    -3987    -3987    -3987    -3989    -3989    -3989    -3989 
   -3989    -3989    -3991    -3990    -3987    -3987    -3986    -3986 
   -3987    -3990    -3990    -3989    -3989    -3987    -3987    -3990 
   -3991    -3990    -3990    -3991    -3990    -3989    -3990    -3990 
   -3989    -3990    -3989    -3987    -3989    -3989    -3989    -3989 
   -3987    -3987    -3990    -3991    -3987    -3986    -3987    -3987 
   -3989    -3990    -3989    -3987    -3987    -3990    -3990    -3987 
   -3990    -3991    -3990    -3990    -3989    -3989    -3990    -3990 
   -3990    -3990    -3989    -3987    -3990    -3991    -3989    -3990 
   -3991    -3989    -3987    -3990    -3991    -3990    -3989    -3990 
   -3989    -3989    -3990    -3990    -3990    -3990    -3990    -3989 
   -3990    -3991    -3990    -3990    -3991    -3991    -3990    -3986 
   -3987    -3990    -3990    -3989    -3989    -3989    -3989    -3990 
   -3990    -3990    -3989    -3986    -3989    -3993    -3993    -3990 
   -3991    -3990    -3987    -3987    -3990    -3990    -3989    -3990 
   -3989    -3989    -3989    -3989    -3989    -3987    -3989    -3991 
   -3990    -3989    -3990    -3990    -3989    -3990    -3990    -3990 
   -3990    -3989    -3989    -3989    -3987    -3987    -3989    -3990 
   -3989    -3990    -3990    -3987    -3989    -3990    -3987    -3987 
   -3989    -3987    -3986    -3987    -3989    -3989    -3989    -3987 
   -3987    -3987    -3989    -3987    -3986    -3987    -3990    -3990 
   -3990    -3989    -3986    -3989    -3993    -3990    -3987    -3989 
   -3991    -3989    -3990    -3991    -3991    -3991    -3989    -3987 
   -3990    -3989    -3987    -3990    -3990    -3989    -3991    -3993 
   -3989    -3989    -3991    -3991    -3989    -3990    -3991    -3991 
   -3989    -3989    -3991    -3991    -3990    -3990    -3989    -3989 
   -3989    -3990    -3990    -3987    -3989    -3990    -3987    -3987 
   -3990    -3990    -3987    -3987    -3990    -3991    -3990    -3989 
   -3989    -3990    -3989    -3989    -3990    -3990    -3989    -3989 
   -3989    -3989    -3990    -3987    -3987    -3990    -3989    -3989 
   -3991    -3993    -3993    -3993    -3993    -3990    -3985    -3981 
   -3974    -3971    -3970    -3960    -3947    -3946    -3963    -3985 
   -3997    -4018    -4048    -4060    -4056    -4054    -4010    -3933 
   -3952    -4033    -4024    -3989    -3963    -3881    -3879    -4004 
   -4041    -4040    -4112    -4033    -3913    -3962    -3946    -4000 
   -4149    -3959    -3871    -4043    -3819    -3813    -4264    -4233 
   -3987    -3886    -3720    -3815    -4028    -4040    -4044    -4010 
   -3940    -3977    -4068    -4209    -4266    -3993    -3693    -3854 
   -4166    -4116    -3844    -3744    -3886    -4141    -4106    -3777 
   -4012    -4305    -4089    -4117    -3931    -3879    -4133    -3794 
   -3917    -3937    -3559    -4186    -4328    -3935    -4185    -3908 
   -3631    -4149    -3906    -3489    -4287    -4421    -3769    -3906 
   -3959    -3917    -4133    -4140    -4020    -3774    -4085    -4315 
   -3597    -3599    -4197    -4160    -3981    -3956    -3892    -3804 
   -4325    -4538    -3546    -3609    -4428    -4006    -3723    -3794 
   -3715    -4379    -4472    -3812    -4226    -4090    -3343    -4131 
   -4406    -3856    -4164    -4020    -3519    -3765    -4225    -4167 
   -3825    -4110    -4287    -3840    -3902    -4187    -3847    -3686 
   -3981    -3723    -3738    -4286    -4139    -4197    -4203    -3615 
   -3811    -4256    -4097    -3946    -4031    -3932    -3990    -4168 
   -3769    -4044    -4519    -3754    -3615    -4182    -3928    -3701 
   -4174    -4249    -3807    -4016    -4118    -3856    -4006    -3974 
   -4108    -4170    -3734    -3998    -4210    -3626    -3721    -4194 
   -3866    -3974    -4498    -4036    -3755    -4050    -4024    -3986 
   -3958    -4035    -4064    -3855    -3881    -4040    -4270    -4113 
   -3586    -3925    -4268    -3935    -4025    -3912    -3709    -4216 
   -4128    -3678    -4058    -4209    -3892    -3940    -3790    -3809 
   -4297    -4006    -3867    -4307    -3940    -3892    -4229    -3825 
   -3732    -3744    -3893    -4251    -3905    -4109    -4106    -3638 
   -4236    -4175    -3817    -4033    -3964    -4140    -3821    -3682 
   -4364    -3946    -3635    -4168    -4021    -4068    -4221    -3831 
   -3998    -4028    -3719    -4284    -4287    -3620    -3979    -4132 
   -4016    -4257    -3723    -3654    -4248    -3985    -3831    -4014 
   -4128    -4243    -3742    -3651    -4248    -4113    -3939    -4021 
   -3842    -4126    -4183    -3798    -4141    -4105    -3662    -4082 
   -4012    -3754    -4274    -3952    -3493    -4013    -4241    -3996 
   -3969    -4239    -4000    -3715    -4224    -4124    -3828    -3971 
   -3659    -3956    -4302    -3762    -3942    -4270    -3967    -4209 
   -4148    -3531    -4047    -4332    -3618    -3910    -4247    -3797 
   -3851    -4110    -4232    -4167    -3900    -4021    -4191    -3897 
   -3689    -3925    -4074    -4027    -3940    -3721    -3844    -4183 
   -4294    -4021    -3709    -4230    -4104    -3472    -4259    -4191 
   -3584    -4287    -3847    -3403    -4387    -4276    -3862    -3993 
   -3921    -4282    -4166    -3555    -3705    -4112    -4394    -4276 
   -3843    -3693    -3790    -4037    -4044    -3979    -4052    -3910 
   -4060    -4037    -3885    -4315    -3951    -3541    -4001    -3817 
   -4032    -4630    -3781    -3538    -4689    -4392    -3396    -3770 
   -4082    -3937    -4170    -4021    -3607    -3901    -4275    -3879 
   -3781    -4202    -4153    -4167    -4060    -3595    -3920    -4274 
   -4039    -4027    -3912    -3915    -4122    -3856    -3708    -3932 
   -4195    -4217    -3919    -3902    -4153    -4249    -4004    -3789 
   -3875    -3816    -3890    -4029    -4041    -4224    -4068    -3931 
   -3920    -3543    -3766    -4206    -4174    -4318    -4089    -3753 
   -3983    -3919    -3973    -4283    -3850    -3678    -4148    -3944 
   -3753    -4174    -4114    -3910    -4148    -4166    -4004    -4090 
   -4025    -3720    -3786    -3928    -3863    -3997    -4028    -4052 
   -4498    -4326    -3407    -3720    -4433    -3852    -3883    -4175 
   -3561    -3951    -4279    -3504    -3870    -4329    -3815    -4241 
   -4479    -3777    -3908    -3951    -3667    -4194    -4201    -3808 
   -4129    -3974    -3647    -3978    -4094    -4099    -3958    -3839 
   -4284    -4174    -3686    -4018    -4284    -3886    -3843    -3821 
   -3591    -4171    -4401    -3960    -4035    -3993    -3757    -4028 
   -4599    -4239    -3470    -3774    -3800    -3751    -4473    -4214 
   -3496    -3816    -4347    -4243    -4039    -4040    -3743    -3843 
   -4337    -3942    -3528    -3881    -4004    -3939    -4321    -4280 
   -3761    -4095    -4085    -3450    -4140    -4536    -3659    -3846 
   -4317    -3488    -3441    -4342    -4225    -4179    -4442    -3890 
   -3685    -3789    -3753    -4216    -4274    -3912    -3682    -3480 
   -4135    -4657    -4163    -4197    -4137    -3389    -3635    -4344 
   -4171    -3701    -3784    -4270    -4139    -3703    -4093    -4475 
   -3971    -3678    -3969    -3777    -3892    -4626    -4060    -3298 
   -3929    -4224    -3789    -3919    -4264    -4050    -3842    -3982 
   -4000    -3986    -4172    -4017    -3611    -3861    -4390    -4320 
   -3836    -3650    -4122    -4197    -3615    -3923    -4290    -3870 
   -3998    -3998    -4006    -4415    -3798    -3789    -4407    -3728 
   -3605    -4263    -4206    -3846    -3561    -3734    -4284    -4351 
   -4045    -3854    -3821    -3832    -3900    -4563    -4699    -3836 
   -3765    -3539    -3335    -4387    -4495    -3927    -3788    -3472 
   -3816    -4355    -4318    -4178    -3912    -3831    -4151    -4429 
   -4005    -3522    -3893    -3812    -3720    -4326    -4043    -3866 
   -4263    -3993    -3875    -4068    -4017    -3721    -3662    -4233 
   -4259    -3875    -4245    -4299    -3493    -3466    -4278    -4291 
   -4060    -4099    -3690    -3682    -3989    -4058    -4172    -3905 
   -3970    -4337    -4017    -3794    -3906    -4153    -4239    -3676 
   -3604    -4253    -4245    -3897    -4275    -4275    -3636    -3908 
   -4118    -3969    -4230    -3715    -3534    -4064    -3921    -4112 
   -4067    -3750    -4156    -4020    -4059    -4128    -3555    -4039 
   -4275    -3894    -4194    -3929    -3815    -4110    -3674    -4048 
   -4488    -3744    -3898    -4337    -3684    -3753    -4545    -4091 
   -3404    -3800    -3939    -4016    -4545    -4270    -3839    -3875 
   -3553    -3811    -4430    -3932    -3909    -4492    -3916    -3299 
   -3888    -4660    -4039    -3840    -4561    -3564    -3439    -4583 
   -4043    -3719    -4110    -3817    -3632    -3869    -3757    -4234 
   -5044    -4095    -3549    -4137    -3796    -4056    -4405    -3615 
   -3559    -3989    -4112    -4004    -3514    -3591    -4194    -4282 
   -4195    -4247    -4306    -4363    -3982    -3615    -3649    -3785 
   -3856    -3709    -3658    -3457    -4006    -5259    -4869    -3971 
   -3851    -4178    -4228    -3258    -3635    -4394    -3418    -3271 
   -4280    -4680    -3991    -3532    -4245    -4627    -4095    -3642 
   -4253    -4252    -3181    -3771    -4260    -3669    -4017    -3854 
   -3680    -4796    -4938    -3924    -3515    -3736    -3804    -3782 
   -3942    -3944    -3979    -3831    -3865    -4509    -4055    -3736 
   -4799    -4252    -3009    -3948    -4442    -3615    -3862    -3730 
   -3493    -4417    -4395    -4125    -4129    -3800    -4086    -4430 
   -4156    -3734    -3662    -3422    -3661    -4494    -4075    -4058 
   -4378    -3383    -3731    -4818    -4047    -3352    -4136    -4314 
   -3670    -4159    -4365    -3443    -3740    -4545    -4202    -4014 
   -3851    -3157    -3851    -4866    -4278    -3716    -3819    -4375 
   -4355    -3315    -3765    -4507    -3952    -3979    -3900    -3717 
   -4275    -4083    -3773    -4060    -3789    -3750    -4133    -3916 
   -3955    -4109    -3838    -3881    -3877    -4102    -4704    -4329 
   -3364    -3173    -3877    -4552    -4446    -3663    -3476    -4390 
   -4244    -3669    -4326    -4043    -3350    -4163    -4625    -3827 
   -3550    -3966    -4009    -3827    -3402    -3875    -4980    -4212 
   -3770    -4590    -4160    -4018    -4438    -3831    -3396    -3361 
   -3491    -4240    -4545    -4464    -4550    -3962    -3724    -4102 
   -4014    -4540    -4769    -3832    -3731    -3788    -3771    -3932 
   -2967    -3254    -4164    -3704    -4436    -4479    -3292    -3740 
   -3680    -3146    -4237    -4905    -4217    -4369    -4737    -2818 
   -1470    -3626    -5625    -5530    -5637    -5961    -5458    -3321 
    -637    -1383    -3063    -2975    -5543    -7284    -5262    -4664 
   -4689    -4538    -3619     -996    -1686    -3676    -2733    -3230 
   -5131    -4426    -4401    -6713    -5926    -3315    -3786    -4723 
   -2488     -530    -3975    -6129    -2698    -2147    -4249    -4838 
   -4426    -3507    -5007    -5926    -3385    -3130    -5397    -4066 
   -1075    -4460    -7385    -1555    -1186    -6197    -3057    -3704 
   -9374    -5466     -999    -3418    -2770     -800    -5505    -6625 
   -1390    -2524    -5054    -4062    -4676    -5490    -5972    -5097 
   -3350    -2255    -2142    -5282    -5617    -1447    -2965    -6907 
   -4089    -2791    -5934    -2949     -550    -5567    -5644    -1047 
   -2524    -6866    -6616    -3640    -3753    -4195    -1803    -3111 
   -5984    -4264    -3947    -4768    -3298    -3296    -2820    -2705 
   -5028    -4375    -2489    -3677    -6359    -7029    -3252    -1525 
   -4973    -4838    -2249    -4787    -6426    -2513    -1896    -5080 
   -3794    -2797    -5578    -4619    -2181    -3585    -4627    -4834 
   -5805    -3600    -1730    -4618    -4897    -2011    -3628    -6471 
   -3484    -1725    -4980    -4735    -4595    -5418    -2401    -2956 
   -5545    -4581    -3373    -3747    -3399    -2018    -4811    -6411 
   -2303    -2910    -5857    -3466    -2454    -4756    -5221    -4664 
   -3585    -2218    -3770    -4753    -3028    -4164    -5166    -2789 
   -3689    -5171    -3049    -3979    -5900    -3952    -4032    -5395 
   -2953    -2440    -4326    -3051    -3204    -5451    -4599    -2975 
   -3244    -4232    -4765    -4723    -4396    -4371    -4264    -3194 
   -3539    -4544    -3665    -3157    -3250    -4027    -5537    -5154 
   -4143    -3659    -2812    -2801    -3657    -4627    -4629    -3456 
   -3927    -4865    -4052    -4195    -4646    -3226    -2805    -4317 
   -5355    -4552    -2349    -2728    -5266    -4876    -3111    -3288 
   -4449    -4625    -4284    -3481    -3240    -5239    -4446    -2756 
   -4494    -4148    -3341    -4941    -4915    -2980    -2428    -4333 
   -5751    -4679    -3253    -3862    -3661    -2763    -4347    -4384 
   -3561    -3713    -2640    -3673    -5292    -4271    -4058    -4892 
   -4062    -3140    -3971    -4398    -4581    -5256    -4276    -2444 
   -2643    -4368    -4396    -3730    -5127    -4996    -2219    -3055 
   -5606    -3308    -2548    -5386    -3763    -2454    -4816    -4934 
   -4202    -4495    -5000    -3854    -1671    -3180    -5076    -4086 
   -3618    -3704    -3420    -4261    -5312    -3835    -3082    -4962 
   -4441    -3404    -4365    -3802    -3562    -4164    -3904    -4679 
   -4851    -4398    -3770    -1911    -3011    -4776    -3936    -3986 
   -3640    -3732    -4687    -4075    -4977    -5557    -3709    -3451 
   -3819    -3361    -4012    -4691    -3871    -3296    -3726    -3994 
   -3688    -3512    -4661    -4347    -2139    -3881    -5618    -3210 
   -4305    -6076    -3119    -2794    -4583    -3713    -3908    -4926 
   -4442    -4124    -3712    -4025    -4941    -3114    -1845    -3944 
   -4924    -4376    -4209    -3832    -3596    -3632    -3655    -3457 
   -4085    -5289    -4511    -3784    -3875    -3109    -4129    -5463 
   -3831    -2782    -4225    -4020    -2693    -4388    -4708    -2987 
   -5111    -5621    -3132    -4305    -4440    -2949    -4554    -4261 
   -2632    -3993    -4486    -2972    -2874    -4276    -5416    -5672 
   -4538    -2727    -2282    -3754    -5393    -4772    -3084    -3289 
   -4386    -4723    -4496    -3483    -2882    -3905    -4201    -3554 
   -4361    -4239    -3410    -4608    -4191    -3840    -5113    -3407 
   -3341    -4946    -2882    -2978    -5487    -4442    -2863    -3902 
   -4545    -4212    -4490    -3705    -3118    -4479    -4139    -2799 
   -3882    -5125    -5019    -4324    -2957    -3030    -4332    -3881 
   -3731    -4234    -3276    -3900    -5086    -4090    -4216    -4380 
   -3381    -3987    -4444    -3982    -4203    -4521    -3550    -2492 
   -3655    -4816    -4932    -4160    -2776    -3827    -4803    -4087 
   -4255    -4294    -3986    -3132    -2779    -4407    -4403    -4063 
   -5213    -3543    -2951    -4858    -3298    -3260    -5898    -4791 
   -3210    -3711    -3699    -2928    -3234    -4765    -4920    -3897 
   -3171    -3713    -4901    -4120    -3271    -3924    -4665    -4718 
   -3816    -3813    -4224    -3680    -3063    -3439    -4764    -4031 
   -3511    -4730    -3681    -3736    -4914    -4131    -4375    -4014 
   -3431    -4266    -3219    -3106    -5188    -4954    -3700    -3676 
   -3635    -3651    -3331    -3507    -5742    -5107    -2011    -3650 
   -5246    -3435    -4426    -5132    -2937    -2982    -4036    -4499 
   -4903    -3728    -3233    -3847    -3681    -4120    -4945    -4622 
   -3591    -3449    -3890    -3704    -4125    -4878    -4271    -3261 
   -3370    -4000    -3547    -3704    -5297    -4422    -2841    -3982 
   -4239    -3626    -4271    -4263    -3954    -4066    -4006    -3950 
   -3578    -3626    -3797    -3555    -4527    -5270    -4434    -3518 
   -3415    -4256    -4077    -3291    -4029    -4465    -4040    -4152 
   -4340    -4016    -3693    -3716    -3910    -3813    -3288    -3757 
   -4588    -3805    -3495    -4537    -4691    -4109    -4193    -4579 
   -3831    -3400    -4001    -3477    -3607    -4287    -3659    -4202 
   -4414    -3734    -4749    -4407    -3321    -4174    -4334    -4106 
   -3943    -2825    -3469    -5035    -3601    -2694    -5177    -5532 
   -3558    -3798    -4311    -4043    -4078    -3060    -2751    -3878 
   -4083    -4247    -4382    -3950    -4444    -4828    -4028    -3260 
   -3673    -4650    -3805    -2930    -4621    -4768    -3404    -4237 
   -4036    -3127    -4330    -3878    -2631    -4356    -5576    -4307 
   -3561    -3704    -3296    -3739    -5505    -5223    -3289    -2983 
   -3499    -3821    -3920    -4380    -4954    -3667    -2986    -4433 
   -4714    -3524    -3319    -4399    -4367    -3715    -4530    -4344 
   -2949    -3474    -4280    -3855    -4452    -5233    -3939    -2658 
   -3993    -5008    -3483    -2970    -4268    -4888    -3986    -3446 
   -4611    -4572    -3515    -3466    -3335    -3650    -4359    -4379 
