Origin Time       2025/03/30 21:30:00
Lat.              38.535
Long.             142.295
Depth. (km)       44
Mag.              4.3
Station Code      MYG018
Station Lat.      38.7194
Station Long.     141.5228
Station Height(m) 24
Record Time       2025/03/30 21:31:17
Sampling Freq(Hz) 100Hz
Duration Time(s)  60
Dir.              U-D
Scale Factor      7845(gal)/8223790
Max. Acc. (gal)   3.742
Last Correction   2025/03/30 21:31:17
Memo.             
[...]
  -22384   -22385   -22384   -22383   -22385   -22387   -22387   -22387 
  -22384   -22384   -22387   -22385   -22385   -22387   -22385   -22385 
  -22387   -22387   -22385   -22387   -22385   -22384   -22385   -22384 
  -22384   -22385   -22384   -22385   -22387   -22385   -22383   -22384 
  -22385   -22385   -22384   -22383   -22384   -22387   -22387   -22385 
  -22384   -22383   -22384   -22387   -22384   -22383   -22384   -22384 
  -22383   -22388   -22388   -22384   -22385   -22387   -22385   -22385 
  -22387   -22385   -22384   -22384   -22384   -22385   -22387   -22387 
  -22388   -22385   -22384   -22385   -22384   -22384   -22387   -22385 
  -22385   -22387   -22384   -22383   -22384   -22385   -22385   -22384 
  -22383   -22385   -22385   -22381   -22384   -22388   -22389   -22387 
  -22385   -22384   -22385   -22387   -22385   -22383   -22385   -22388 
  -22387   -22385   -22387   -22388   -22388   -22388   -22387   -22385 
  -22387   -22387   -22385   -22384   -22385   -22387   -22385   -22385 
  -22384   -22385   -22387   -22384   -22383   -22385   -22387   -22385 
  -22384   -22384   -22385   -22385   -22385   -22385   -22387   -22387 
  -22385   -22387   -22388   -22384   -22385   -22387   -22385   -22385 
  -22387   -22387   -22385   -22385   -22385   -22385   -22385   -22385 
  -22384   -22383   -22387   -22388   -22384   -22384   -22388   -22387 
  -22385   -22385   -22387   -22385   -22381   -22383   -22385   -22387 
  -22387   -22385   -22384   -22384   -22384   -22387   -22388   -22385 
  -22385   -22385   -22384   -22384   -22387   -22387   -22385   -22387 
  -22388   -22387   -22385   -22387   -22387   -22387   -22388   -22387 
  -22385   -22387   -22385   -22384   -22387   -22387   -22383   -22385 
  -22389   -22389   -22385   -22381   -22384   -22387   -22388   -22385 
  -22387   -22389   -22387   -22384   -22387   -22387   -22384   -22385 
  -22385   -22385   -22387   -22385   -22385   -22387   -22385   -22387 
  -22387   -22384   -22387   -22388   -22387   -22387   -22385   -22385 
  -22388   -22385   -22383   -22384   -22387   -22385   -22387   -22387 
  -22385   -22385   -22387   -22387   -22385   -22383   -22385   -22389 
  -22389   -22385   -22383   -22385   -22389   -22385   -22383   -22385 
  -22385   -22385   -22387   -22387   -22387   -22387   -22385   -22385 
  -22385   -22387   -22388   -22385   -22384   -22384   -22385   -22387 
  -22384   -22383   -22384   -22384   -22385   -22387   -22388   -22388 
  -22385   -22384   -22385   -22387   -22385   -22384   -22387   -22387 
  -22387   -22385   -22384   -22385   -22385   -22383   -22384   -22384 
  -22384   -22385   -22385   -22387   -22387   -22385   -22384   -22387 
  -22385   -22383   -22385   -22387   -22383   -22383   -22385   -22384 
  -22385   -22385   -22384   -22384   -22385   -22385   -22385   -22385 
  -22385   -22384   -22383   -22384   -22385   -22385   -22385   -22384 
  -22385   -22385   -22384   -22385   -22384   -22383   -22384   -22385 
  -22385   -22385   -22384   -22384   -22385   -22385   -22384   -22385 
  -22385   -22384   -22385   -22387   -22385   -22384   -22384   -22384 
  -22385   -22384   -22384   -22387   -22385   -22383   -22384   -22385 
  -22383   -22383   -22384   -22384   -22385   -22384   -22385   -22385 
  -22383   -22381   -22384   -22384   -22384   -22385   -22383   -22383 
  -22385   -22383   -22380   -22383   -22385   -22387   -22383   -22381 
  -22384   -22383   -22383   -22384   -22384   -22381   -22381   -22384 
  -22383   -22381   -22383   -22383   -22383   -22384   -22384   -22383 
  -22383   -22385   -22387   -22384   -22383   -22384   -22387   -22384 
  -22381   -22383   -22384   -22384   -22383   -22383   -22384   -22385 
  -22384   -22384   -22385   -22385   -22384   -22384   -22385   -22387 
  -22385   -22384   -22384   -22383   -22383   -22384   -22384   -22384 
  -22384   -22383   -22384   -22383   -22383   -22385   -22384   -22384 
  -22385   -22387   -22385   -22385   -22387   -22387   -22387   -22388 
  -22385   -22384   -22387   -22387   -22384   -22385   -22387   -22385 
  -22384   -22383   -22383   -22384   -22383   -22383   -22385   -22385 
  -22385   -22385   -22385   -22388   -22388   -22385   -22385   -22383 
  -22381   -22385   -22387   -22384   -22387   -22387   -22384   -22385 
  -22387   -22385   -22385   -22385   -22385   -22387   -22387   -22385 
  -22384   -22384   -22384   -22384   -22384   -22384   -22383   -22384 
  -22387   -22387   -22383   -22383   -22383   -22383   -22384   -22385 
  -22387   -22387   -22384   -22384   -22387   -22387   -22387   -22385 
  -22385   -22384   -22384   -22383   -22383   -22383   -22383   -22385 
  -22387   -22384   -22384   -22385   -22387   -22385   -22384   -22384 
  -22384   -22383   -22385   -22387   -22385   -22384   -22385   -22384 
  -22383   -22381   -22376   -22370   -22370   -22372   -22362   -22342 
  -22322   -22334   -22395   -22461   -22439   -22320   -22234   -22319 
  -22576   -22793   -22684   -22265   -21983   -22208   -22742   -22968 
  -22408   -21444   -21294   -22410   -23566   -23530   -22392   -21184 
  -21200   -22458   -23442   -23413   -22680   -21870   -21691   -21748 
  -21987   -23122   -23699   -22627   -21925   -22207   -22148   -22122 
  -22347   -22345   -22451   -22179   -21822   -22808   -23244   -21655 
  -21274   -23129   -23978   -22673   -21304   -21601   -22755   -23059 
  -22242   -21424   -21824   -22779   -22751   -22366   -22774   -23259 
  -22646   -21347   -21404   -22721   -23148   -23125   -22750   -21011 
  -20802   -22904   -23361   -22653   -22844   -22401   -21811   -22343 
  -22881   -22813   -22249   -21930   -22032   -21674   -21953   -22978 
  -23006   -22914   -22966   -21921   -21150   -21838   -22914   -23507 
  -23427   -22616   -21509   -21037   -21683   -22786   -23217   -22931 
  -22592   -22000   -21290   -21998   -23456   -22792   -21420   -22378 
  -23568   -22719   -21493   -21397   -22242   -23089   -22898   -22297 
  -22226   -22107   -22334   -23157   -22974   -21937   -21701   -22235 
  -22756   -23058   -22808   -22152   -21455   -21001   -22040   -23645 
  -23215   -22100   -22258   -22447   -22725   -23306   -22307   -21157 
  -21820   -22476   -22669   -22692   -21917   -21790   -22871   -23072 
  -22289   -22432   -22819   -22095   -22072   -22933   -22273   -21535 
  -22481   -22887   -22180   -21663   -21897   -23045   -23410   -22603 
  -22381   -21857   -21149   -22268   -23326   -22851   -22532   -22262 
  -21948   -22415   -22291   -21845   -22940   -23499   -22227   -21649 
  -22167   -22535   -22711   -22500   -21942   -21957   -22621   -22774 
  -22320   -22229   -22350   -22206   -22172   -22540   -23001   -23033 
  -22451   -21687   -21609   -22531   -23014   -22419   -22426   -22774 
  -22077   -21618   -22380   -23249   -23028   -21771   -21334   -22341 
  -23086   -23102   -22534   -21513   -21421   -22280   -22883   -23091 
  -22878   -22310   -21928   -21829   -22192   -23020   -23099   -22175 
  -21716   -22000   -22446   -22964   -22792   -21929   -21987   -22773 
  -22594   -21952   -22168   -22755   -22836   -22304   -21735   -22059 
  -22639   -22335   -22445   -23213   -22563   -21564   -22042   -22439 
  -22362   -22945   -23067   -22019   -21525   -22324   -22966   -22572 
  -22081   -22045   -22150   -22689   -22997   -22262   -21810   -22183 
  -22665   -23148   -22829   -21870   -21855   -22522   -22862   -22599 
  -21849   -21681   -22353   -22738   -22720   -22670   -22264   -22049 
  -22549   -22744   -22446   -22280   -21944   -21983   -22717   -22701 
  -22261   -22453   -22272   -21940   -22481   -22896   -22574   -22144 
  -21942   -22149   -22731   -23205   -22693   -21513   -21555   -22582 
  -22817   -22553   -22269   -21957   -22555   -23210   -22415   -21730 
  -21956   -22239   -22968   -23114   -21959   -21691   -22499   -22746 
  -22833   -22851   -22029   -21676   -22420   -22597   -22275   -22431 
  -22590   -22388   -22196   -22356   -22469   -22142   -22060   -22545 
  -22877   -22648   -22234   -22144   -22195   -22264   -22739   -22846 
  -22171   -22064   -22361   -22206   -22411   -22713   -22257   -22126 
  -22777   -22778   -22064   -21938   -22270   -22524   -22777   -22559 
  -22053   -22086   -22334   -22476   -22626   -22376   -22046   -22366 
  -22756   -22593   -22349   -22277   -22194   -22447   -22684   -22250 
  -22145   -22497   -22354   -22242   -22485   -22673   -22639   -22118 
  -21768   -22461   -22986   -22449   -22107   -22210   -22162   -22547 
  -23090   -22628   -21744   -21720   -22401   -22833   -22558   -22202 
  -22295   -22427   -22562   -22530   -22041   -22148   -22829   -22766 
  -22439   -22378   -22034   -21783   -22104   -22871   -23306   -22500 
  -21706   -22036   -22347   -22473   -22750   -22441   -21891   -22203 
  -23006   -22890   -21863   -21550   -22358   -23117   -23021   -22208 
  -21659   -22106   -22734   -22657   -22505   -22658   -22445   -22122 
  -22233   -22223   -22272   -22680   -22424   -21972   -22420   -22627 
  -22262   -22376   -22466   -22191   -22283   -22454   -22300   -22319 
  -22563   -22497   -22233   -22501   -22833   -22312   -21942   -22389 
  -22597   -22361   -22196   -22383   -22785   -22693   -22516   -22578 
  -22026   -21622   -22094   -22551   -22924   -23008   -22449   -21965 
  -21809   -22111   -22828   -22851   -22270   -22165   -22169   -22113 
  -22665   -22882   -22084   -21979   -22840   -22906   -22277   -21999 
  -22156   -22515   -22611   -22412   -22231   -22154   -22233   -22149 
  -22111   -22808   -23414   -22736   -21633   -21482   -22095   -22820 
  -23206   -22766   -21942   -21776   -22296   -22739   -22639   -22245 
  -22275   -22806   -22863   -22088   -21660   -22338   -23051   -22588 
  -21708   -21817   -22584   -23072   -23064   -22385   -21528   -21739 
  -22766   -23070   -22496   -21973   -22009   -22469   -22615   -22476 
  -22576   -22407   -22014   -22121   -22457   -22681   -22666   -22353 
  -22307   -22377   -22046   -22084   -22661   -22842   -22480   -22090 
  -22090   -22258   -22189   -22281   -22659   -22815   -22729   -22378 
  -21967   -22210   -22477   -22206   -22404   -22863   -22423   -21783 
  -21937   -22389   -22758   -22887   -22503   -22150   -22079   -22040 
  -22492   -23039   -22600   -22053   -22358   -22431   -22071   -22455 
  -23013   -22480   -21801   -22183   -22670   -22438   -22183   -22260 
  -22453   -22582   -22481   -22319   -22204   -22087   -22368   -22851 
  -22762   -22346   -22041   -22072   -22547   -22681   -22427   -22373 
  -22086   -21782   -22356   -23147   -22985   -22162   -21766   -22214 
  -22644   -22470   -22470   -22540   -21880   -21636   -22707   -23280 
  -22431   -21969   -22435   -22624   -22639   -22607   -22123   -21938 
  -22264   -22535   -22655   -22288   -21824   -22149   -22685   -22775 
  -22700   -22611   -22581   -22189   -21583   -22099   -22810   -22515 
  -22565   -22530   -21918   -22366   -22893   -22480   -22470   -22486 
  -22276   -22478   -22234   -21803   -22010   -22160   -22439   -22979 
  -22655   -21971   -22230   -22794   -22665   -22181   -21972   -22202 
  -22611   -22802   -22639   -22211   -22084   -22516   -22667   -22507 
  -22407   -21892   -21843   -22712   -22669   -21996   -22243   -22612 
  -22599   -22682   -22531   -22131   -22165   -22427   -22303   -22200 
  -22431   -22671   -22677   -22370   -22415   -22761   -22299   -21926 
  -22497   -22380   -21789   -22223   -22720   -22663   -22545   -22378 
  -22284   -22063   -22254   -23087   -22812   -21743   -21782   -22296 
  -22508   -22801   -22642   -22019   -21903   -22219   -22639   -22945 
  -22631   -22134   -22061   -22176   -22276   -22465   -22689   -22669 
  -22415   -22095   -22034   -22462   -22738   -22547   -22334   -22392 
  -22551   -22291   -22115   -22523   -22522   -22296   -22620   -22437 
  -22033   -22488   -22373   -21795   -22540   -23267   -22662   -22285 
  -22535   -22229   -21925   -22225   -22318   -22374   -22361   -21932 
  -22291   -23095   -22690   -21964   -22126   -22405   -22337   -22276 
  -22369   -22596   -22711   -22558   -22269   -22068   -22048   -22214 
  -22700   -23090   -22761   -22009   -21618   -22080   -22847   -22797 
  -22195   -22040   -22111   -22121   -22553   -23078   -22804   -21999 
  -21739   -22349   -22998   -22971   -22464   -21937   -21786   -22165 
  -22727   -22842   -22454   -22037   -21926   -22420   -22871   -22582 
  -22353   -22284   -22137   -22465   -22684   -22270   -22050   -22295 
  -22612   -22762   -22362   -21805   -22099   -22766   -22765   -22477 
  -22446   -22333   -22179   -22275   -22272   -22189   -22383   -22738 
  -22643   -21824   -21633   -22711   -23406   -22958   -22212   -21936 
  -22135   -22373   -22671   -22702   -22214   -22335   -22738   -22122 
  -21805   -22304   -22357   -22511   -22775   -22545   -22547   -22366 
  -22017   -22731   -23013   -21489   -20900   -22673   -23745   -22875 
  -22264   -21934   -21304   -22115   -23580   -23025   -21594   -21566 
  -22319   -22825   -22928   -22346   -21938   -22410   -22500   -22385 
  -23025   -22794   -21649   -21590   -22123   -22492   -22796   -22813 
  -22852   -22362   -21451   -22050   -22956   -21703   -20538   -21887 
  -23195   -22339   -21798   -22910   -23283   -22581   -22135   -21582 
  -21787   -22999   -23237   -23183   -23673   -22925   -21223   -20845 
  -21988   -23017   -23097   -22449   -21717   -21537   -22019   -23049 
  -24182   -24459   -23178   -21330   -20895   -21560   -22211   -23700 
  -24844   -23392   -21060   -20009   -21431   -25123   -26308   -23426 
  -20526   -18738   -19062   -22688   -24997   -23419   -22045   -22171 
  -21807   -22121   -23519   -23593   -22239   -21004   -20749   -21176 
  -21384   -22358   -23998   -23649   -21965   -21907   -22982   -23064 
  -22455   -22478   -22746   -22310   -21375   -21031   -21964   -23094 
  -23160   -22798   -22688   -22145   -21271   -21586   -23156   -24146 
  -23464   -22013   -21658   -22369   -22455   -22133   -22196   -21967 
  -21442   -21398   -22219   -23388   -23325   -22114   -21703   -22438 
  -23132   -22923   -22100   -21886   -22358   -22387   -22198   -22715 
  -23053   -22648   -22472   -22423   -22299   -22260   -21571   -20952 
  -21829   -23388   -23971   -22991   -21547   -21308   -22113   -22747 
  -22982   -22927   -22358   -21748   -22081   -23044   -23085   -22276 
  -22222   -22185   -21335   -21683   -22820   -22567   -22222   -22673 
  -22761   -22689   -22534   -22208   -22477   -22743   -22283   -21583 
  -21374   -22339   -23247   -22856   -22779   -23581   -23475   -21882 
  -20488   -21170   -22933   -23110   -22214   -22333   -22399   -21706 
  -22339   -23502   -22697   -21595   -22076   -22534   -22195   -22129 
  -22392   -22275   -21991   -22500   -23569   -23630   -22603   -21879 
  -21938   -22303   -22212   -21818   -22144   -22761   -22589   -22191 
  -22280   -22059   -21662   -22319   -23161   -23005   -22488   -22357 
  -22686   -22870   -22473   -22088   -22088   -22056   -22131   -22667 
  -22905   -22366   -21984   -22449   -22869   -22230   -21594   -22273 
  -22891   -22454   -22419   -22680   -22121   -21905   -22654   -22698 
  -21888   -22095   -22962   -22864   -22233   -21741   -21766   -22711 
  -22968   -21735   -21281   -22060   -22478   -22796   -23220   -23210 
  -23085   -22439   -21456   -21791   -22823   -22931   -22395   -21965 
  -21938   -21951   -22025   -22693   -22929   -22173   -21987   -22482 
  -22547   -22464   -22297   -22148   -22627   -22898   -22516   -22238 
  -22223   -22365   -22358   -22314   -22419   -22140   -22014   -22751 
  -23253   -22574   -21732   -21892   -22441   -22613   -22711   -22874 
  -22677   -22175   -22248   -22638   -22387   -22323   -22682   -22172 
  -21583   -22308   -23093   -22550   -21737   -22054   -22792   -23018 
  -22994   -22531   -21876   -21793   -21884   -22161   -22823   -22981 
  -22454   -22034   -22238   -22493   -22040   -21992   -22644   -22458 
  -22010   -22474   -22864   -22443   -22235   -22771   -22840   -22053 
  -21541   -21932   -22731   -22767   -22187   -22067   -21882   -21763 
  -22686   -23298   -22744   -22222   -22258   -22759   -22974   -22385 
  -21971   -22175   -22416   -22401   -22365   -22046   -21585   -22397 
  -23340   -22482   -21901   -22549   -22531   -22176   -22381   -22508 
  -22304   -22137   -22504   -22917   -22573   -22311   -22420   -22245 
  -22272   -22613   -22531   -22086   -22108   -22635   -22935   -22968 
  -22470   -21581   -21617   -22130   -22219   -22566   -22866   -22720 
  -22681   -22424   -21918   -21767   -22076   -22944   -23333   -22365 
  -21787   -22331   -22630   -22531   -22459   -22580   -22680   -21843 
  -21153   -22392   -23658   -22993   -22126   -22203   -21984   -21505 
  -22164   -23157   -22843   -22203   -22450   -22756   -22504   -22140 
  -22168   -22476   -22608   -22657   -22370   -21566   -21494   -22187 
  -22663   -23241   -23059   -21681   -21397   -22333   -22802   -23047 
  -22873   -22041   -21986   -22450   -22333   -22307   -22306   -22233 
  -22682   -22492   -21744   -22107   -22716   -22712   -22644   -22329 
  -22152   -22495   -22663   -22646   -22383   -21933   -22353   -23125 
  -22856   -22168   -22015   -22126   -22229   -22400   -22545   -22569 
  -22427   -21979   -21604   -22141   -23206   -23352   -22451   -21706 
  -21643   -21917   -22337   -22773   -22928   -23037   -22979   -21998 
  -21357   -22523   -23484   -22632   -21755   -21951   -22185   -22184 
  -22465   -22840   -22736   -21963   -21517   -22272   -22994   -22681 
  -22188   -22212   -22576   -22609   -22257   -22477   -22886   -22389 
  -21725   -21793   -22229   -22484   -22468   -22457   -22419   -22420 
  -22723   -22586   -22075   -22239   -22408   -22378   -22770   -22569 
  -22050   -22337   -22523   -22432   -22619   -22729   -22729   -22423 
  -21969   -22123   -22319   -22265   -22634   -22964   -22732   -22200 
  -21703   -21930   -22735   -22900   -22303   -21994   -22339   -22639 
  -22501   -22063   -21610   -21938   -22867   -23031   -22410   -22108 
  -22295   -22397   -22350   -22485   -22639   -22432   -22011   -21718 
  -22011   -22819   -22978   -22428   -22164   -22056   -22019   -22412 
  -22967   -23248   -22792   -21932   -21882   -22369   -22407   -22395 
  -22620   -22631   -22261   -21990   -22415   -22829   -22505   -22347 
  -22504   -22165   -21895   -22216   -22493   -22585   -22565   -22273 
  -22167   -22458   -22642   -22500   -22245   -22239   -22399   -22373 
  -22412   -22505   -22312   -22181   -22392   -22403   -21979   -21984 
  -22690   -22914   -22287   -21809   -21964   -22496   -22839   -22643 
  -22473   -22432   -22126   -22137   -22573   -22667   -22626   -22611 
  -22090   -21848   -22527   -22783   -22249   -22090   -22350   -22504 
  -22651   -22617   -22361   -22458   -22513   -22040   -22025   -22654 
  -22860   -22673   -22597   -22383   -21978   -21840   -22260   -22821 
  -22756   -22291   -22172   -22281   -22262   -22300   -22650   -22835 
  -22249   -21816   -22262   -22451   -22266   -22666   -22912   -22324 
  -21855   -21998   -22354   -22594   -22608   -22590   -22464   -22118 
  -22300   -22708   -22234   -22011   -22766   -22765   -21914   -21784 
  -22377   -22877   -22829   -22175   -21679   -22053   -22692   -22659 
  -22158   -22072   -22596   -22928   -22518   -22071   -22288   -22551 
