Origin Time       2025/03/30 21:30:00
Lat.              38.535
Long.             142.295
Depth. (km)       44
Mag.              4.3
Station Code      MYG005
Station Lat.      38.7989
Station Long.     140.6512
Station Height(m) 304
Record Time       2025/03/30 21:31:37
Sampling Freq(Hz) 100Hz
Duration Time(s)  60
Dir.              U-D
Scale Factor      7845(gal)/8223790
Max. Acc. (gal)   0.854
Last Correction   2025/03/30 21:31:36
Memo.             
[...]
  -22270   -22275   -22441   -22489   -22339   -22272   -22400   -22518 
  -22473   -22357   -22320   -22358   -22378   -22362   -22316   -22284 
  -22327   -22374   -22338   -22287   -22291   -22334   -22365   -22346 
  -22350   -22423   -22430   -22324   -22310   -22470   -22558   -22356 
  -22148   -22281   -22500   -22476   -22350   -22289   -22308   -22426 
  -22496   -22361   -22226   -22312   -22426   -22358   -22256   -22252 
  -22284   -22393   -22581   -22616   -22423   -22260   -22266   -22357 
  -22470   -22526   -22384   -22181   -22221   -22431   -22507   -22442 
  -22396   -22372   -22364   -22404   -22427   -22404   -22395   -22360 
  -22280   -22289   -22410   -22461   -22389   -22345   -22350   -22315 
  -22270   -22297   -22387   -22470   -22457   -22342   -22266   -22314 
  -22377   -22347   -22285   -22295   -22354   -22399   -22418   -22384 
  -22357   -22453   -22566   -22495   -22315   -22256   -22366   -22518 
  -22540   -22396   -22280   -22307   -22334   -22299   -22330   -22418 
  -22446   -22449   -22478   -22468   -22408   -22354   -22319   -22333 
  -22399   -22450   -22428   -22350   -22300   -22338   -22378   -22366 
  -22370   -22387   -22422   -22486   -22419   -22245   -22241   -22373 
  -22397   -22333   -22299   -22318   -22374   -22400   -22368   -22351 
  -22380   -22422   -22432   -22362   -22297   -22339   -22384   -22373 
  -22401   -22381   -22211   -22154   -22345   -22505   -22470   -22345 
  -22239   -22245   -22372   -22486   -22497   -22419   -22260   -22131 
  -22203   -22416   -22532   -22476   -22366   -22324   -22403   -22557 
  -22631   -22504   -22280   -22200   -22315   -22449   -22466   -22354 
  -22216   -22191   -22266   -22356   -22455   -22562   -22572   -22415 
  -22216   -22195   -22368   -22515   -22462   -22310   -22265   -22368 
  -22485   -22485   -22360   -22299   -22384   -22412   -22307   -22270 
  -22350   -22430   -22481   -22459   -22316   -22210   -22272   -22366 
  -22357   -22326   -22320   -22315   -22366   -22473   -22520   -22455 
  -22318   -22226   -22285   -22407   -22458   -22451   -22384   -22268 
  -22262   -22427   -22566   -22495   -22272   -22160   -22276   -22420 
  -22418   -22354   -22350   -22404   -22473   -22492   -22441   -22399 
  -22399   -22415   -22428   -22405   -22373   -22380   -22377   -22368 
  -22383   -22331   -22256   -22310   -22410   -22407   -22343   -22322 
  -22357   -22393   -22397   -22399   -22388   -22384   -22449   -22462 
  -22323   -22245   -22342   -22391   -22324   -22333   -22395   -22400 
  -22416   -22439   -22347   -22254   -22347   -22486   -22477   -22450 
  -22518   -22523   -22416   -22356   -22341   -22266   -22188   -22198 
  -22283   -22397   -22428   -22279   -22145   -22246   -22387   -22380 
  -22384   -22414   -22345   -22302   -22410   -22551   -22577   -22434 
  -22239   -22176   -22238   -22357   -22509   -22524   -22318   -22169 
  -22288   -22488   -22530   -22418   -22299   -22285   -22353   -22393 
  -22396   -22418   -22443   -22426   -22364   -22335   -22392   -22437 
  -22426   -22478   -22553   -22492   -22396   -22384   -22364   -22345 
  -22366   -22341   -22322   -22419   -22481   -22399   -22327   -22358 
  -22380   -22337   -22323   -22385   -22432   -22389   -22288   -22250 
  -22356   -22472   -22434   -22315   -22292   -22378   -22437   -22372 
  -22287   -22300   -22361   -22362   -22308   -22237   -22162   -22177 
  -22360   -22538   -22466   -22269   -22277   -22451   -22497   -22420 
  -22400   -22395   -22358   -22353   -22365   -22385   -22395   -22320 
  -22277   -22405   -22534   -22458   -22253   -22149   -22248   -22389 
  -22366   -22258   -22283   -22453   -22578   -22563   -22472   -22376 
  -22326   -22327   -22315   -22326   -22424   -22486   -22439   -22414 
  -22442   -22443   -22426   -22437   -22458   -22450   -22401   -22329 
  -22280   -22291   -22293   -22239   -22242   -22360   -22439   -22395 
  -22293   -22212   -22302   -22559   -22623   -22369   -22157   -22180 
  -22323   -22489   -22550   -22405   -22208   -22206   -22422   -22634 
  -22588   -22320   -22167   -22299   -22480   -22457   -22288   -22200 
  -22288   -22366   -22291   -22252   -22400   -22580   -22658   -22597 
  -22428   -22311   -22341   -22449   -22515   -22411   -22183   -22110 
  -22334   -22615   -22651   -22478   -22326   -22246   -22222   -22338 
  -22512   -22519   -22405   -22389   -22442   -22424   -22349   -22323 
  -22381   -22384   -22264   -22216   -22333   -22414   -22346   -22266 
  -22292   -22357   -22408   -22454   -22391   -22208   -22185   -22399 
  -22512   -22365   -22211   -22223   -22327   -22439   -22439   -22289 
  -22226   -22356   -22407   -22296   -22284   -22400   -22434   -22393 
  -22385   -22347   -22283   -22307   -22397   -22446   -22432   -22424 
  -22488   -22538   -22495   -22474   -22500   -22411   -22243   -22200 
  -22322   -22445   -22410   -22275   -22260   -22396   -22491   -22485 
  -22458   -22420   -22418   -22484   -22478   -22368   -22339   -22384 
  -22310   -22218   -22316   -22457   -22431   -22300   -22195   -22211 
  -22339   -22377   -22269   -22253   -22370   -22378   -22281   -22331 
  -22532   -22609   -22453   -22284   -22280   -22349   -22396   -22430 
  -22405   -22349   -22360   -22381   -22334   -22285   -22297   -22366 
  -22442   -22427   -22362   -22435   -22611   -22632   -22477   -22361 
  -22341   -22295   -22189   -22138   -22225   -22368   -22432   -22393 
  -22346   -22405   -22532   -22515   -22303   -22156   -22269   -22458 
  -22477   -22380   -22331   -22339   -22327   -22287   -22277   -22318 
  -22333   -22252   -22214   -22384   -22577   -22584   -22509   -22423 
  -22291   -22280   -22484   -22662   -22576   -22320   -22195   -22279 
  -22381   -22434   -22445   -22372   -22311   -22342   -22356   -22364 
  -22459   -22531   -22478   -22400   -22391   -22415   -22335   -22145 
  -22117   -22388   -22638   -22566   -22365   -22362   -22513   -22558 
  -22451   -22347   -22320   -22347   -22356   -22262   -22104   -22087 
  -22295   -22497   -22472   -22303   -22226   -22349   -22536   -22558 
  -22366   -22145   -22152   -22426   -22636   -22503   -22206   -22075 
  -22198   -22441   -22580   -22450   -22184   -22130   -22383   -22643 
  -22646   -22403   -22096   -21996   -22202   -22485   -22577   -22453 
  -22337   -22403   -22468   -22343   -22262   -22418   -22593   -22577 
  -22408   -22234   -22248   -22478   -22600   -22403   -22180   -22230 
  -22387   -22395   -22252   -22127   -22214   -22504   -22667   -22496 
  -22268   -22268   -22373   -22372   -22285   -22218   -22208   -22253 
  -22283   -22243   -22252   -22416   -22617   -22674   -22558   -22397 
  -22357   -22430   -22465   -22437   -22414   -22361   -22299   -22351 
  -22461   -22468   -22377   -22281   -22283   -22372   -22376   -22266 
  -22203   -22227   -22295   -22422   -22619   -22771   -22688   -22365 
  -22114   -22189   -22451   -22607   -22566   -22391   -22180   -22118 
  -22239   -22392   -22543   -22635   -22495   -22279   -22292   -22439 
  -22491   -22480   -22468   -22442   -22420   -22320   -22148   -22176 
  -22449   -22536   -22270   -22071   -22195   -22372   -22410   -22389 
  -22320   -22258   -22338   -22437   -22384   -22302   -22296   -22333 
  -22403   -22457   -22424   -22319   -22252   -22322   -22458   -22512 
  -22486   -22450   -22459   -22545   -22572   -22412   -22203   -22123 
  -22189   -22318   -22380   -22346   -22324   -22350   -22373   -22388 
  -22424   -22476   -22495   -22454   -22378   -22289   -22235   -22285 
  -22391   -22428   -22368   -22264   -22188   -22242   -22469   -22684 
  -22628   -22388   -22250   -22272   -22423   -22644   -22669   -22368 
  -22052   -22034   -22261   -22430   -22373   -22280   -22346   -22405 
  -22275   -22138   -22246   -22508   -22611   -22439   -22230   -22234 
  -22399   -22507   -22459   -22346   -22277   -22284   -22385   -22485 
  -22392   -22222   -22253   -22383   -22420   -22424   -22385   -22254 
  -22248   -22492   -22694   -22646   -22458   -22248   -22199   -22449 
  -22666   -22570   -22424   -22381   -22310   -22362   -22597   -22626 
  -22384   -22222   -22177   -22160   -22285   -22470   -22472   -22349 
  -22266   -22272   -22415   -22582   -22549   -22377   -22252   -22191 
  -22183   -22219   -22283   -22373   -22415   -22365   -22322   -22324 
  -22310   -22289   -22306   -22323   -22283   -22221   -22238   -22353 
  -22459   -22470   -22434   -22401   -22354   -22327   -22353   -22354 
  -22334   -22378   -22439   -22416   -22377   -22454   -22584   -22573 
  -22418   -22311   -22349   -22449   -22488   -22414   -22287   -22241 
  -22364   -22555   -22590   -22401   -22194   -22180   -22318   -22396 
  -22370   -22358   -22354   -22327   -22343   -22368   -22377   -22399 
  -22327   -22231   -22368   -22628   -22659   -22405   -22184   -22264 
  -22500   -22620   -22573   -22400   -22226   -22238   -22369   -22377 
  -22256   -22207   -22304   -22412   -22408   -22331   -22293   -22330 
  -22369   -22337   -22318   -22459   -22631   -22642   -22563   -22422 
  -22185   -22102   -22284   -22458   -22434   -22260   -22049   -22034 
  -22318   -22590   -22574   -22446   -22437   -22484   -22482   -22412 
  -22297   -22260   -22373   -22504   -22469   -22281   -22180   -22280 
  -22399   -22393   -22335   -22304   -22315   -22374   -22477   -22563 
  -22562   -22474   -22380   -22312   -22222   -22160   -22261   -22427 
  -22427   -22296   -22239   -22345   -22536   -22616   -22472   -22239 
  -22122   -22208   -22383   -22437   -22357   -22272   -22276   -22430 
  -22616   -22577   -22381   -22357   -22478   -22424   -22245   -22266 
  -22412   -22391   -22323   -22374   -22377   -22333   -22430   -22558 
  -22527   -22407   -22322   -22339   -22468   -22554   -22459   -22333 
  -22345   -22361   -22284   -22277   -22350   -22323   -22229   -22214 
  -22285   -22329   -22272   -22260   -22412   -22501   -22364   -22256 
  -22346   -22443   -22470   -22493   -22443   -22330   -22322   -22414 
  -22464   -22450   -22411   -22372   -22395   -22500   -22582   -22555 
  -22470   -22416   -22391   -22347   -22316   -22337   -22369   -22388 
  -22347   -22254   -22289   -22455   -22474   -22324   -22241   -22245 
  -22254   -22289   -22337   -22377   -22419   -22388   -22260   -22172 
  -22231   -22365   -22437   -22422   -22347   -22239   -22184   -22257 
  -22401   -22480   -22403   -22296   -22353   -22488   -22499   -22439 
  -22416   -22377   -22326   -22293   -22231   -22194   -22302   -22469 
  -22518   -22461   -22441   -22455   -22391   -22279   -22233   -22242 
  -22291   -22397   -22465   -22418   -22342   -22342   -22401   -22392 
  -22296   -22283   -22380   -22393   -22311   -22373   -22608   -22724 
  -22576   -22374   -22365   -22500   -22542   -22412   -22280   -22279 
  -22346   -22416   -22472   -22431   -22273   -22200   -22346   -22474 
  -22388   -22276   -22296   -22356   -22424   -22516   -22513   -22388 
  -22316   -22397   -22488   -22418   -22245   -22211   -22395   -22528 
  -22384   -22175   -22196   -22374   -22511   -22505   -22330   -22185 
  -22270   -22430   -22491   -22438   -22261   -22149   -22279   -22388 
  -22312   -22295   -22407   -22480   -22472   -22431   -22412   -22435 
  -22438   -22383   -22300   -22258   -22310   -22419   -22505   -22513 
  -22434   -22320   -22270   -22311   -22370   -22397   -22399   -22361 
  -22288   -22229   -22218   -22296   -22438   -22489   -22377   -22235 
  -22207   -22281   -22380   -22469   -22509   -22423   -22245   -22179 
  -22311   -22469   -22508   -22481   -22437   -22391   -22365   -22360 
  -22385   -22430   -22416   -22376   -22397   -22422   -22396   -22412 
  -22474   -22468   -22366   -22283   -22343   -22507   -22562   -22399 
  -22221   -22303   -22545   -22538   -22222   -22013   -22164   -22473 
  -22613   -22476   -22254   -22207   -22361   -22518   -22478   -22281 
  -22168   -22265   -22478   -22603   -22473   -22187   -22086   -22304 
  -22586   -22627   -22462   -22396   -22481   -22528   -22505   -22441 
  -22356   -22343   -22383   -22364   -22347   -22357   -22269   -22189 
  -22346   -22578   -22551   -22256   -21973   -21969   -22276   -22630 
  -22736   -22549   -22248   -22086   -22189   -22480   -22700   -22545 
  -22048   -21713   -21878   -22285   -22501   -22351   -22057   -22118 
  -22600   -22877   -22576   -22175   -22208   -22549   -22797   -22802 
  -22567   -22243   -22150   -22320   -22476   -22446   -22256   -22098 
  -22172   -22427   -22639   -22599   -22346   -22265   -22535   -22747 
  -22531   -22202   -22265   -22620   -22774   -22567   -22250   -22083 
  -22185   -22488   -22623   -22293   -21806   -21725   -22087   -22423 
  -22455   -22361   -22361   -22411   -22401   -22396   -22469   -22497 
  -22366   -22187   -22083   -22048   -22104   -22319   -22590   -22709 
  -22654   -22567   -22513   -22486   -22522   -22597   -22557   -22316 
  -22119   -22261   -22558   -22589   -22408   -22420   -22646   -22684 
  -22351   -21895   -21682   -21891   -22329   -22605   -22627   -22561 
  -22455   -22299   -22211   -22250   -22250   -22100   -21984   -22121 
  -22419   -22616   -22577   -22373   -22212   -22266   -22454   -22531 
  -22422   -22258   -22172   -22306   -22661   -22887   -22727   -22399 
  -22248   -22353   -22553   -22573   -22326   -22087   -22150   -22395 
  -22484   -22376   -22338   -22457   -22485   -22246   -21986   -22146 
  -22693   -23062   -23014   -22809   -22589   -22403   -22395   -22376 
  -21984   -21477   -21501   -22098   -22705   -22879   -22534   -22063 
  -22141   -22748   -23032   -22604   -22021   -21910   -22266   -22597 
  -22603   -22489   -22508   -22599   -22619   -22554   -22397   -22118 
  -21855   -21879   -22215   -22505   -22443   -22237   -22256   -22414 
  -22395   -22199   -22022   -21946   -22010   -22238   -22509   -22593 
  -22449   -22338   -22449   -22536   -22358   -22169   -22208   -22306 
  -22366   -22491   -22573   -22441   -22208   -22092   -22114   -22191 
  -22245   -22302   -22495   -22812   -23008   -22920   -22717   -22705 
  -22904   -23026   -22871   -22513   -22246   -22293   -22518   -22600 
  -22497   -22451   -22516   -22486   -22308   -22113   -22019   -22086 
  -22169   -22091   -22029   -22207   -22410   -22376   -22218   -22119 
  -22110   -22096   -21986   -21901   -22041   -22276   -22287   -22063 
  -21919   -22014   -22114   -22092   -22184   -22427   -22534   -22516 
  -22657   -22905   -23024   -22964   -22786   -22623   -22616   -22620 
  -22422   -22167   -22176   -22464   -22694   -22604   -22291   -22075 
  -22188   -22526   -22773   -22777   -22608   -22415   -22320   -22381 
  -22551   -22617   -22338   -21872   -21712   -21979   -22229   -22152 
  -21980   -22048   -22333   -22566   -22507   -22199   -21986   -22045 
  -22208   -22380   -22609   -22731   -22596   -22472   -22576   -22617 
  -22349   -22067   -22117   -22323   -22361   -22314   -22445   -22685 
  -22697   -22391   -22154   -22304   -22582   -22600   -22442   -22465 
  -22678   -22735   -22547   -22362   -22311   -22400   -22546   -22482 
  -22194   -22056   -22192   -22337   -22338   -22177   -21918   -21879 
  -22257   -22635   -22497   -22018   -21755   -21953   -22430   -22808 
  -22792   -22466   -22160   -22088   -22323   -22716   -22859   -22639 
  -22388   -22277   -22261   -22322   -22339   -22242   -22176   -22168 
  -22129   -22214   -22511   -22747   -22689   -22434   -22245   -22293 
  -22465   -22523   -22401   -22258   -22296   -22497   -22590   -22438 
  -22231   -22202   -22347   -22497   -22528   -22528   -22615   -22755 
  -22847   -22810   -22643   -22461   -22403   -22419   -22288   -22027 
  -21980   -22264   -22604   -22747   -22597   -22243   -22005   -22095 
  -22424   -22752   -22812   -22580   -22438   -22632   -22852   -22735 
  -22418   -22194   -22021   -21780   -21556   -21539   -21853   -22260 
  -22288   -21964   -21806   -22073   -22528   -22735   -22499   -22157 
  -22156   -22399   -22504   -22446   -22373   -22272   -22142   -22084 
  -22106   -22108   -22069   -22010   -21945   -21982   -22195   -22420 
  -22486   -22501   -22628   -22816   -22952   -23070   -23153   -23039 
  -22724   -22470   -22469   -22647   -22769   -22719   -22646   -22680 
  -22727   -22635   -22411   -22280   -22291   -22168   -21915   -21898 
  -22180   -22484   -22601   -22484   -22261   -22183   -22320   -22469 
  -22411   -22090   -21716   -21713   -22195   -22666   -22677   -22404 
  -22322   -22562   -22778   -22680   -22427   -22246   -22180   -22223 
  -22248   -22184   -22175   -22225   -22222   -22246   -22324   -22311 
  -22257   -22302   -22339   -22315   -22361   -22420   -22356   -22235 
  -22146   -22075   -22087   -22219   -22231   -21971   -21793   -22040 
  -22499   -22765   -22777   -22794   -22982   -23148   -23053   -22778 
  -22563   -22526   -22565   -22513   -22370   -22268   -22283   -22403 
  -22527   -22516   -22360   -22189   -22137   -22264   -22465   -22496 
  -22349   -22293   -22393   -22459   -22395   -22241   -22044   -21894 
  -21901   -22050   -22210   -22196   -22042   -22061   -22308   -22410 
  -22257   -22195   -22383   -22574   -22607   -22574   -22588   -22666 
  -22732   -22636   -22346   -22029   -21925   -22198   -22634   -22747 
  -22485   -22256   -22303   -22603   -22968   -23021   -22644   -22311 
  -22401   -22702   -22869   -22740   -22387   -22176   -22319   -22493 
  -22411   -22234   -22189   -22285   -22447   -22551   -22432   -22123 
  -21909   -21992   -22245   -22356   -22180   -21898   -21791   -21872 
  -21944   -21959   -21976   -21973   -22017   -22204   -22416   -22530 
  -22565   -22526   -22528   -22724   -22902   -22785   -22501   -22323 
  -22349   -22478   -22495   -22362   -22291   -22345   -22389   -22419 
  -22516   -22578   -22480   -22330   -22299   -22424   -22630   -22781 
  -22779   -22681   -22597   -22513   -22384   -22306   -22343   -22368 
  -22299   -22257   -22287   -22302   -22283   -22250   -22211   -22260 
  -22410   -22470   -22339   -22210   -22296   -22493   -22526   -22396 
  -22338   -22384   -22408   -22412   -22383   -22262   -22160   -22204 
  -22365   -22536   -22562   -22343   -22087   -22049   -22111   -22048 
  -21937   -21944   -22030   -22095   -22123   -22129   -22145   -22185 
  -22191   -22221   -22378   -22477   -22366   -22287   -22427   -22650 
  -22755   -22671   -22523   -22512   -22620   -22677   -22612   -22465 
  -22349   -22358   -22457   -22561   -22673   -22743   -22702   -22680 
  -22786   -22836   -22729   -22657   -22712   -22765   -22719   -22566 
  -22360   -22208   -22173   -22146   -22048   -21991   -22040   -22114 
  -22185   -22242   -22231   -22218   -22323   -22445   -22418   -22356 
  -22381   -22339   -22218   -22229   -22319   -22272   -22121   -22017 
  -22054   -22243   -22450   -22515   -22454   -22426   -22511   -22593 
  -22551   -22501   -22559   -22592   -22474   -22311   -22191   -22145 
  -22207   -22233   -22134   -22150   -22372   -22546   -22567   -22540 
  -22493   -22404   -22315   -22292   -22319   -22349   -22365   -22316 
  -22218   -22210   -22277   -22292   -22268   -22277   -22314   -22334 
  -22351   -22443   -22586   -22647   -22601   -22520   -22428   -22396 
  -22495   -22594   -22530   -22405   -22399   -22424   -22354   -22297 
  -22330   -22322   -22194   -22075   -22053   -22084   -22115   -22104 
