Origin Time       2025/03/30 21:30:00
Lat.              38.535
Long.             142.295
Depth. (km)       44
Mag.              4.3
Station Code      MYG002
Station Lat.      38.7261
Station Long.     141.5110
Station Height(m) 65
Record Time       2025/03/30 21:31:09
Sampling Freq(Hz) 100Hz
Duration Time(s)  75
Dir.              N-S
Scale Factor      7845(gal)/8223790
Max. Acc. (gal)   24.391
Last Correction   2025/03/30 21:31:09
Memo.             
[...]
   14033    14033    14034    14035    14033    14033    14034    14033 
   14034    14038    14035    14034    14034    14031    14030    14035 
   14040    14037    14033    14033    14034    14034    14033    14035 
   14035    14034    14035    14033    14030    14034    14035    14033 
   14033    14035    14035    14033    14033    14034    14034    14033 
   14031    14035    14037    14034    14033    14033    14031    14031 
   14034    14035    14033    14031    14031    14033    14034    14034 
   14034    14034    14034    14033    14031    14031    14030    14030 
   14034    14037    14033    14031    14034    14031    14030    14031 
   14033    14031    14031    14034    14034    14033    14033    14033 
   14033    14033    14035    14035    14033    14031    14031    14033 
   14033    14034    14035    14035    14031    14030    14034    14037 
   14035    14035    14034    14033    14033    14033    14033    14033 
   14033    14035    14035    14034    14033    14031    14031    14033 
   14033    14034    14034    14033    14034    14035    14034    14031 
   14030    14030    14033    14034    14034    14034    14033    14029 
   14029    14031    14031    14031    14031    14031    14033    14034 
   14031    14031    14031    14030    14030    14030    14031    14033 
   14031    14033    14034    14034    14035    14033    14031    14035 
   14037    14031    14031    14034    14033    14033    14033    14033 
   14035    14034    14033    14034    14033    14033    14033    14031 
   14033    14034    14035    14035    14034    14035    14037    14035 
   14034    14035    14034    14031    14031    14031    14034    14035 
   14035    14031    14033    14035    14035    14034    14034    14033 
   14031    14033    14034    14031    14031    14033    14031    14034 
   14034    14031    14033    14033    14033    14035    14037    14033 
   14031    14030    14030    14033    14035    14034    14033    14033 
   14033    14034    14035    14035    14034    14033    14031    14033 
   14034    14034    14031    14033    14034    14033    14033    14033 
   14034    14034    14033    14034    14034    14031    14030    14033 
   14033    14030    14034    14035    14033    14031    14031    14034 
   14034    14033    14034    14034    14033    14033    14033    14034 
   14037    14037    14034    14031    14031    14031    14033    14033 
   14033    14033    14033    14034    14035    14034    14033    14033 
   14031    14031    14035    14037    14034    14033    14033    14034 
   14034    14033    14031    14031    14031    14034    14035    14034 
   14031    14030    14033    14035    14037    14037    14034    14034 
   14035    14033    14033    14038    14037    14033    14034    14033 
   14031    14033    14033    14033    14035    14033    14030    14033 
   14034    14035    14035    14035    14033    14033    14037    14035 
   14030    14031    14035    14034    14035    14034    14030    14033 
   14034    14030    14031    14035    14034    14033    14033    14031 
   14030    14033    14035    14035    14034    14034    14035    14037 
   14037    14033    14031    14033    14037    14034    14031    14034 
   14034    14031    14035    14035    14031    14033    14034    14034 
   14034    14034    14034    14033    14033    14034    14034    14034 
   14037    14037    14034    14035    14034    14030    14033    14035 
   14035    14035    14037    14037    14034    14034    14031    14030 
   14033    14035    14034    14034    14033    14029    14031    14033 
   14030    14031    14031    14031    14035    14035    14033    14034 
   14035    14031    14031    14031    14033    14031    14030    14031 
   14031    14033    14037    14035    14033    14033    14034    14031 
   14033    14037    14034    14030    14034    14033    14031    14034 
   14033    14027    14031    14034    14033    14030    14031    14035 
   14034    14031    14031    14031    14033    14033    14034    14034 
   14031    14034    14033    14031    14033    14033    14030    14031 
   14031    14031    14034    14037    14033    14030    14029    14030 
   14031    14033    14034    14033    14033    14034    14033    14031 
   14033    14033    14034    14033    14031    14034    14035    14033 
   14030    14033    14037    14035    14031    14033    14035    14034 
   14031    14033    14033    14034    14034    14034    14034    14034 
   14033    14034    14035    14033    14034    14035    14034    14034 
   14033    14031    14033    14034    14033    14033    14034    14034 
   14034    14033    14033    14030    14030    14033    14033    14033 
   14034    14034    14030    14033    14037    14035    14035    14038 
   14041    14046    14052    14050    14045    14033    14018    14022 
   14044    14045    14025    13990    13925    13895    13977    14072 
   14115    14157    14138    14107    14227    14231    13811    13436 
   13657    14239    14642    14459    13797    13591    13969    13844 
   13671    14531    14948    13902    13374    14008    13963    13173 
   13296    14588    16127    16370    13848    10940    11723    14530 
   15225    14497    14386    14427    14165    13879    13832    14044 
   13724    12992    13590    15261    15388    14054    13528    13533 
   13657    14143    13633    13689    15539    15052    12966    13485 
   13288    11450    14075    18565    17092    13315    12636    11468 
   10554    13718    16150    15757    16561    16185    12613    10721 
   11672    13100    15194    16490    15375    14675    14852    13151 
   11947    13404    13863    12958    13801    15595    16410    15342 
   12460    11229    13279    14912    14916    15653    16079    13516 
   10243    11434    16109    17247    13779    12087    13626    14762 
   15130    14682    12842    12438    13959    14665    15654    16387 
   12997     9891    12441    15421    15263    15156    15402    14840 
   14102    12452    11130    13319    16278    15807    13929    12997 
   12679    13910    15800    14932    12923    13629    14694    13662 
   13895    15309    13639    11495    12969    15147    16008    16102 
   14261    12214    12879    13937    13104    13065    15614    17109 
   14688    12221    12711    13266    13073    14023    15136    15261 
   14885    13950    13220    13728    14193    13845    13771    14092 
   14234    13946    13875    14628    14397    13055    13365    14088 
   13366    14508    17375    16225    11529     9680    12437    16167 
   16906    14265    12463    14079    15664    14084    12021    13301 
   15728    14332    11628    13377    16542    15866    13682    13127 
   13378    13440    12991    13308    15712    16656    13814    12175 
   14084    15010    13636    12718    12657    13602    15958    16922 
   14945    12879    12202    11886    12549    14736    16787    17325 
   15597    11637     9097    11800    16297    16858    14906    14153 
   14081    13275    12502    13555    15630    15039    12302    12731 
   15863    15954    13694    13096    12985    12249    12928    15350 
   17375    17020    13977    10385    10319    14386    16675    14692 
   13347    13930    14071    14416    14624    13549    13095    13915 
   14246    14018    14145    14480    14767    14737    13834    12486 
   12286    13830    15341    15506    15306    14746    13046    11846 
   12641    14111    14852    14860    14469    14532    15380    15183 
   12733    10720    12059    14731    15831    16081    15658    13760 
   12133    12186    12970    13965    15299    16209    15531    13663 
   12891    13331    12907    12818    14561    15807    15256    13946 
   12984    13458    14293    13628    13051    14216    15403    15148 
   13903    12960    13351    13984    13950    14835    16015    14278 
   11484    12274    14724    14750    13892    14439    15437    15276 
   13320    11693    12877    14912    15124    14423    14299    14422 
   14072    13157    12428    13383    15075    15013    14661    15284 
   14243    12302    12671    13720    13797    14554    15392    15002 
   14419    13693    12604    12742    13952    14386    14619    15383 
   15001    13663    13481    13581    12731    12823    14534    15684 
   15244    14478    14075    13080    11823    12550    15048    16100 
   15321    14674    13375    11965    13005    14484    14627    15209 
   15317    13972    12996    12723    12879    14138    15777    15851 
   13948    12275    12815    14462    14681    13558    13771    15272 
   15471    14153    12463    11873    13684    15172    14499    14959 
   15749    13554    12009    13405    14150    14172    14967    14724 
   13605    13603    14008    13711    13624    14542    15191    14002 
   12607    13240    14380    14740    15306    14893    12668    11886 
   14156    15990    15014    13493    13157    13292    13975    14818 
   14365    13320    13837    15403    14886    12868    13171    14281 
   13568    13956    15338    14138    12698    13937    14913    14044 
   13865    14763    14430    12970    12827    14108    14543    14152 
   14634    14913    13730    13108    14002    14328    13598    13807 
   14871    14597    13645    13662    13402    13046    14291    15427 
   14866    14307    14247    13212    12255    13625    15306    14665 
   14002    14463    13574    12637    14104    15449    14856    13906 
   13358    13379    13772    13535    13548    15094    16236    14998 
   12896    12059    12479    13517    15142    16314    15395    13401 
   12555    12802    13824    15207    14936    13779    13813    13532 
   13019    14355    15534    14224    12769    13737    15534    15624 
   13886    11769    11384    13419    15804    16474    15473    14148 
   13404    12744    11905    12339    14621    16717    16875    14941 
   11940    10949    13296    15334    15214    14871    13845    12285 
   12997    15059    15718    14879    13541    13026    13400    13447 
   13699    14854    15634    14929    13086    11970    13328    15597 
   15986    14648    12897    11457    12091    14829    16506    16146 
   14875    12769    11168    12202    15021    16386    15242    13848 
   13369    13011    13058    14088    14964    14754    14247    13875 
   14054    15126    14239    10882    11053    15643    17601    15862 
   14593    12977    11214    12302    13518    13624    16295    18550 
   16090    12282     9976     9775    13474    18234    18075    14258 
   12695    13294    13012    13035    13378    12459    13385    16762 
   17753    15758    13215    10941    10497    12480    15137    16864 
   16545    14828    13672    13051    12656    12691    12784    14515 
   17136    15894    12644    12448    13103    13265    14970    15692 
   14153    13180    13151    14054    15526    14577    12363    13309 
   15855    15375    12799    12245    13770    14567    14369    14432 
   14740    14592    13637    13055    13760    13852    13020    13882 
   15846    15965    14104    12286    12382    14300    15128    13705 
   13319    14931    15391    14536    13884    12843    12114    13099 
   15138    16347    14968    12545    12610    14442    15147    14558 
   13549    12866    13284    14426    14943    14443    14315    14751 
   14179    12714    11950    12826    14700    15915    16387    16276 
   14079    10816    10035    12582    16101    17459    15928    13919 
   13208    13147    12339    11865    14048    16586    15967    14115 
   13791    13886    13293    12897    12930    13370    14539    15601 
   15924    15377    13490    11669    11896    13467    15464    17319 
   16096    11577     9585    12571    16000    16914    16186    14609 
   12835    11780    12024    13612    15277    15734    15039    13747 
   12850    13019    14134    15619    15379    13181    12553    13902 
   14288    14127    14562    14096    13063    13509    14582    14415 
   13927    14189    14365    14646    14634    12904    12410    14666 
   15052    13722    14145    14380    13825    14300    14312    13437 
   13667    14288    13254    12258    14303    16918    16033    13790 
   12977    12182    11996    13896    15736    16058    15082    13046 
   12189    13909    15087    13518    12935    15363    15796    12942 
   12780    15746    15651    12059    10384    12842    16641    17744 
   15360    12525    11418    12109    14119    16156    16883    15252 
   12050    11129    13185    14418    14283    14740    15020    14341 
   13933    13949    13937    14266    13813    12453    12826    14555 
   15241    15136    15002    14720    13918    12461    11537    12715 
   15387    16704    15862    14497    12501    11055    12968    15381 
   15080    14574    14384    13563    13984    15102    14972    13763 
   12291    12528    14405    14771    13954    14311    15025    15020 
   14266    12483    11549    13776    16480    15842    13562    12484 
   12478    13533    15066    15693    15628    14898    13489    12372 
   11944    12915    15180    15897    13467    10813    11759    15373 
   17753    17188    13734     9493     8768    12683    17649    20800 
   21442    18323    11612     5462     4928    10918    18171    20370 
   17235    13215    11400    12339    14565    14496    11553    10107 
   13007    19028    24177    22599    12745     2872     3133    12293 
   19607    19207    14960    12210    13042    17212    20736    17369 
    6034    -4392    -1475    16077    34707    39602    27207     6210 
   -9941   -11260     3622    24352    36769    34342    19553     4052 
     -85     6758    16418    19809    12919     5656     9682    20953 
   28887    28563    16673    -2347    -9474     3738    20730    27972 
   27376    21192    13176     9373     7554     5751     8384    12492 
   13554    18115    26565    26557    15724     4425    -1178     -222 
    7011    18289    31077    37627    26493     3298   -10156    -3921 
   13852    28717    27845    14737     6609     8163    14083    21708 
   21917    12060     6022     8019    13043    21601    25516    16683 
    6617     4800     6407    10169    17616    23781    24088    18119 
    9093     5201     8962    11400     9401    11639    20270    26658 
   25439    18982    11800     5736      846     1409    11090    22381 
   25540    21946    17987    14721     9784     5209     6748    12744 
   14894    14698    18820    21230    16175    10569     9626    13189 
   17460    15533    10216    10307    14724    17000    14578    10083 
    9506    14332    19040    19696    17747    15078    10856     6944 
    9344    16227    19356    18817    16783    10023     3133     7098 
   20115    28239    23226    11611     4729     4804    10666    20051 
   22141    15161    10845     9965     9795    14384    18636    17675 
   16283    13505     8680     8357    13375    19926    22736    16637 
    7673     5709    10778    17787    20780    16833    10385     7402 
   10454    16869    20204    18955    15913    10789     5277     6405 
   15246    22937    23267    18492    11855     6223     5459     9061 
   14254    19707    21304    17397    12951    10746    11572    15499 
   16750    13377    12320    14176    13620    12973    14962    16094 
   15272    13436    12037    13271    13220    10542    12947    18941 
   19847    16353    11106     6740     8831    14547    17990    19896 
   18777    13564    10312    11572    13841    15348    14616    11253 
   10018    13277    17280    19553    18732    13963     9651     9880 
   12584    14335    14184    13475    13798    14831    15302    15716 
   16776    15379    10762     9259    12951    15863    15519    14773 
   15531    16600    13869     9027    10608    16555    17394    14497 
   12924    12417    12837    13527    13794    14366    13936    13760 
   16391    17771    15385    12540    10976    11276    12542    13575 
   16222    18407    16540    13552    12171    12553    14254    13992 
   11701    12019    14416    14686    13941    14986    16451    15974 
   13521    11481    12033    14432    16567    16649    14778    13302 
   12545    10966    10120    12665    16861    18985    18836    17219 
   12876     7246     6211    11820    17732    18770    16776    14632 
   14316    15337    13234     9539    10737    13921    14276    15628 
   18362    17559    14431    12556    10821     8383     8907    15098 
   21698    21857    17477    12233     6586     5595    12055    18546 
   20078    18453    14261    10057    10774    13811    13228    11597 
   13311    15809    17466    18509    16016    11306     9308    10552 
   13606    16210    16610    16482    15088    11367    10802    14061 
   14544    13701    15529    16403    15356    15090    14031    11674 
   10994    11894    13239    16384    18746    15909    11951    11951 
   13198    13914    15041    15167    13841    12537    12432    14588 
   17308    16336    12291    10250    11288    14099    18235    19616 
   15226     9985     8395     9838    14216    19294    19380    14754 
   11398    11433    13180    14931    14608    12781    12950    15045 
   15979    15273    14440    13969    13257    12071    11736    13437 
   15539    16584    16771    14577    11122    11068    13369    14534 
   15207    14656    12733    13922    17304    16549    13316    12685 
   12576    11874    13057    14299    15338    17790    16008     9942 
   10058    15526    16679    14044    12673    12888    13716    15400 
   17637    17423    13342     9216     7797     9991    17010    22908 
   20151    13495     9815     7985     9055    14804    19575    18740 
   14558    11726    12555    13682    12677    12960    14430    14148 
   14805    17050    16231    12345    10084    11535    13956    15390 
   16995    16829    14642    14121    13150    11051    12086    13765 
   13585    14854    17305    17586    14107     9949    10913    14997 
   16195    14609    12002    10941    14343    18052    17278    14449 
   11728     9710    11111    14756    16611    16843    16456    15055 
   13027    11155    10752    11936    13593    16058    18293    17170 
   13270    11183    12271    13320    13707    15021    15396    14374 
   15051    15703    13292    11541    12260    12719    14129    16447 
   16322    14994    13932    12515    12615    14258    14758    13981 
   13549    14320    15780    15633    12829    10694    12025    14809 
   16283    15591    13721    13100    13871    13961    13630    13941 
   14044    13784    13649    13424    14145    16043    16378    14582 
   13328    12523    10918    11265    15102    18085    16560    12912 
   11827    14219    16056    14422    11913    11588    13223    15650 
   17157    16355    13987    11626    10773    12135    14462    16218 
   16818    15338    12633    12195    13795    13845    12895    13531 
   14989    15732    15610    14148    12325    12486    13641    14052 
   14964    16044    14987    12873    12603    13558    13522    13382 
   14644    15795    15495    15288    15070    12405     9378    10362 
   14574    18314    18581    15126    12199    12208    12442    11970 
   13062    15858    17236    15321    12911    12822    13373    13397 
   14203    14974    14693    13972    12486    12117    15053    16780 
