Origin Time       2025/03/30 21:30:00
Lat.              38.535
Long.             142.295
Depth. (km)       44
Mag.              4.3
Station Code      MYG019
Station Lat.      38.7513
Station Long.     140.7226
Station Height(m) 144
Record Time       2025/03/30 21:31:33
Sampling Freq(Hz) 100Hz
Duration Time(s)  60
Dir.              N-S
Scale Factor      7845(gal)/8223790
Max. Acc. (gal)   2.491
Last Correction   2025/03/30 21:31:32
Memo.             
[...]
   -2470    -2492    -2508    -2415    -2254    -2162    -2133    -2101 
   -2130    -2251    -2407    -2554    -2659    -2670    -2581    -2427 
   -2205    -1975    -1907    -2026    -2162    -2316    -2586    -2802 
   -2744    -2500    -2290    -2226    -2288    -2340    -2270    -2178 
   -2204    -2265    -2269    -2311    -2409    -2446    -2403    -2330 
   -2236    -2205    -2316    -2481    -2550    -2488    -2359    -2288 
   -2330    -2332    -2182    -2080    -2219    -2463    -2596    -2592 
   -2544    -2490    -2346    -2115    -1980    -2026    -2122    -2223 
   -2389    -2543    -2578    -2533    -2505    -2494    -2419    -2300 
   -2254    -2234    -2150    -2100    -2184    -2349    -2523    -2651 
   -2668    -2542    -2353    -2245    -2224    -2176    -2106    -2108 
   -2188    -2312    -2442    -2493    -2452    -2390    -2344    -2315 
   -2317    -2347    -2361    -2371    -2373    -2322    -2268    -2295 
   -2380    -2466    -2538    -2540    -2412    -2232    -2153    -2166 
   -2173    -2174    -2207    -2258    -2327    -2416    -2497    -2519 
   -2466    -2381    -2324    -2326    -2370    -2378    -2308    -2239 
   -2203    -2191    -2297    -2506    -2582    -2479    -2390    -2347 
   -2235    -2120    -2174    -2328    -2376    -2324    -2320    -2353 
   -2336    -2303    -2339    -2447    -2529    -2505    -2434    -2403 
   -2388    -2359    -2334    -2335    -2353    -2300    -2162    -2108 
   -2201    -2317    -2404    -2471    -2450    -2319    -2197    -2220 
   -2342    -2369    -2268    -2216    -2295    -2386    -2451    -2577 
   -2694    -2629    -2419    -2232    -2139    -2127    -2187    -2289 
   -2389    -2420    -2359    -2289    -2274    -2277    -2255    -2261 
   -2334    -2413    -2407    -2343    -2334    -2396    -2457    -2486 
   -2482    -2394    -2258    -2191    -2185    -2197    -2280    -2423 
   -2471    -2344    -2189    -2169    -2258    -2355    -2432    -2504 
   -2508    -2416    -2361    -2392    -2392    -2335    -2309    -2288 
   -2215    -2184    -2285    -2430    -2509    -2525    -2500    -2392 
   -2207    -2068    -2070    -2178    -2332    -2502    -2627    -2682 
   -2658    -2508    -2299    -2146    -2050    -2015    -2108    -2265 
   -2323    -2299    -2327    -2423    -2479    -2454    -2396    -2316 
   -2197    -2126    -2211    -2384    -2473    -2446    -2432    -2496 
   -2566    -2559    -2463    -2317    -2181    -2112    -2120    -2193 
   -2288    -2340    -2347    -2376    -2400    -2369    -2346    -2377 
   -2409    -2416    -2421    -2405    -2331    -2259    -2274    -2338 
   -2385    -2421    -2423    -2346    -2246    -2234    -2311    -2370 
   -2374    -2384    -2407    -2362    -2241    -2193    -2299    -2419 
   -2432    -2381    -2359    -2351    -2289    -2245    -2307    -2369 
   -2328    -2277    -2334    -2439    -2458    -2411    -2413    -2427 
   -2326    -2161    -2119    -2245    -2371    -2411    -2415    -2374 
   -2235    -2088    -2089    -2243    -2396    -2448    -2447    -2447 
   -2452    -2436    -2384    -2344    -2349    -2361    -2369    -2361 
   -2328    -2304    -2300    -2311    -2327    -2323    -2334    -2370 
   -2349    -2273    -2246    -2276    -2316    -2393    -2493    -2540 
   -2519    -2443    -2344    -2300    -2351    -2425    -2394    -2255 
   -2169    -2189    -2208    -2218    -2280    -2330    -2332    -2376 
   -2438    -2435    -2403    -2362    -2308    -2289    -2327    -2380 
   -2389    -2332    -2285    -2303    -2339    -2378    -2382    -2299 
   -2226    -2290    -2401    -2430    -2374    -2277    -2199    -2218 
   -2361    -2527    -2565    -2508    -2446    -2328    -2166    -2104 
   -2172    -2273    -2353    -2394    -2381    -2361    -2376    -2409 
   -2448    -2479    -2443    -2335    -2224    -2176    -2195    -2262 
   -2354    -2442    -2478    -2435    -2342    -2257    -2222    -2278 
   -2400    -2473    -2452    -2407    -2365    -2277    -2151    -2111 
   -2223    -2408    -2569    -2625    -2562    -2462    -2386    -2319 
   -2274    -2273    -2255    -2193    -2146    -2149    -2215    -2344 
   -2473    -2513    -2436    -2317    -2258    -2245    -2245    -2288 
   -2349    -2361    -2344    -2350    -2359    -2365    -2389    -2400 
   -2362    -2295    -2243    -2254    -2326    -2432    -2532    -2539 
   -2436    -2315    -2250    -2235    -2250    -2304    -2382    -2421 
   -2384    -2324    -2323    -2335    -2263    -2188    -2239    -2367 
   -2457    -2505    -2533    -2493    -2401    -2336    -2300    -2268 
   -2249    -2257    -2316    -2405    -2484    -2563    -2573    -2417 
   -2182    -2014    -1996    -2143    -2313    -2390    -2416    -2380 
   -2278    -2245    -2312    -2386    -2424    -2419    -2371    -2316 
   -2293    -2336    -2411    -2452    -2447    -2408    -2353    -2288 
   -2232    -2246    -2370    -2498    -2479    -2338    -2208    -2133 
   -2064    -2053    -2188    -2363    -2409    -2373    -2398    -2470 
   -2502    -2509    -2536    -2542    -2470    -2367    -2304    -2278 
   -2282    -2322    -2384    -2431    -2404    -2281    -2150    -2120 
   -2197    -2292    -2350    -2417    -2482    -2473    -2431    -2394 
   -2358    -2390    -2475    -2436    -2263    -2173    -2242    -2342 
   -2380    -2363    -2307    -2227    -2149    -2143    -2236    -2340 
   -2407    -2465    -2478    -2416    -2323    -2251    -2216    -2212 
   -2245    -2319    -2365    -2332    -2317    -2403    -2505    -2542 
   -2532    -2492    -2380    -2245    -2205    -2257    -2303    -2326 
   -2354    -2385    -2392    -2349    -2300    -2316    -2378    -2427 
   -2466    -2485    -2413    -2276    -2207    -2231    -2219    -2176 
   -2216    -2300    -2327    -2320    -2349    -2408    -2482    -2560 
   -2593    -2523    -2400    -2284    -2181    -2137    -2172    -2228 
   -2280    -2343    -2403    -2412    -2359    -2304    -2292    -2286 
   -2299    -2362    -2413    -2400    -2339    -2272    -2292    -2415 
   -2509    -2494    -2430    -2357    -2272    -2232    -2332    -2498 
   -2535    -2381    -2182    -2085    -2093    -2149    -2257    -2405 
   -2438    -2299    -2180    -2209    -2331    -2470    -2563    -2573 
   -2504    -2440    -2486    -2544    -2404    -2127    -1980    -2045 
   -2211    -2343    -2361    -2301    -2269    -2335    -2466    -2527 
   -2458    -2377    -2389    -2454    -2492    -2478    -2425    -2326 
   -2196    -2145    -2251    -2396    -2407    -2350    -2344    -2315 
   -2245    -2266    -2366    -2400    -2295    -2110    -2016    -2138 
   -2381    -2577    -2668    -2651    -2498    -2304    -2205    -2219 
   -2236    -2205    -2232    -2388    -2516    -2492    -2403    -2339 
   -2278    -2219    -2236    -2344    -2416    -2378    -2340    -2386 
   -2450    -2458    -2436    -2459    -2494    -2416    -2257    -2158 
   -2133    -2122    -2116    -2137    -2189    -2250    -2297    -2353 
   -2411    -2465    -2593    -2735    -2671    -2415    -2205    -2128 
   -2097    -2106    -2212    -2363    -2450    -2471    -2475    -2486 
   -2500    -2466    -2355    -2223    -2131    -2087    -2119    -2278 
   -2451    -2475    -2447    -2517    -2554    -2457    -2374    -2349 
   -2272    -2187    -2242    -2388    -2413    -2284    -2177    -2224 
   -2384    -2493    -2428    -2272    -2150    -2069    -2083    -2249 
   -2420    -2465    -2450    -2467    -2486    -2454    -2409    -2392 
   -2347    -2269    -2249    -2316    -2403    -2409    -2340    -2303 
   -2315    -2340    -2417    -2501    -2465    -2312    -2197    -2231 
   -2319    -2316    -2272    -2312    -2403    -2416    -2362    -2340 
   -2331    -2250    -2151    -2212    -2419    -2559    -2565    -2523 
   -2421    -2251    -2139    -2139    -2177    -2212    -2212    -2185 
   -2243    -2382    -2440    -2415    -2484    -2646    -2682    -2535 
   -2392    -2354    -2324    -2230    -2172    -2269    -2431    -2440 
   -2286    -2164    -2146    -2172    -2265    -2409    -2442    -2344 
   -2293    -2330    -2365    -2407    -2490    -2515    -2392    -2246 
   -2245    -2292    -2258    -2239    -2284    -2301    -2320    -2416 
   -2484    -2404    -2253    -2191    -2247    -2326    -2357    -2384 
   -2467    -2567    -2574    -2443    -2289    -2242    -2266    -2273 
   -2282    -2326    -2362    -2351    -2295    -2251    -2293    -2373 
   -2381    -2343    -2322    -2268    -2180    -2203    -2350    -2457 
   -2442    -2378    -2358    -2389    -2417    -2401    -2340    -2297 
   -2300    -2311    -2342    -2396    -2359    -2257    -2265    -2380 
   -2417    -2338    -2293    -2357    -2413    -2407    -2397    -2412 
   -2424    -2392    -2331    -2324    -2407    -2494    -2452    -2304 
   -2204    -2176    -2154    -2172    -2247    -2286    -2261    -2241 
   -2239    -2265    -2384    -2508    -2481    -2392    -2392    -2411 
   -2382    -2381    -2384    -2344    -2353    -2400    -2343    -2201 
   -2147    -2215    -2257    -2236    -2295    -2454    -2614    -2713 
   -2659    -2465    -2346    -2361    -2297    -2137    -2091    -2185 
   -2285    -2367    -2394    -2276    -2130    -2114    -2143    -2161 
   -2299    -2543    -2667    -2605    -2524    -2517    -2505    -2431 
   -2326    -2222    -2168    -2188    -2200    -2178    -2181    -2209 
   -2261    -2367    -2454    -2427    -2343    -2308    -2342    -2407 
   -2457    -2485    -2454    -2357    -2342    -2436    -2475    -2461 
   -2482    -2502    -2498    -2431    -2259    -2096    -2019    -2011 
   -2080    -2209    -2330    -2407    -2432    -2408    -2330    -2249 
   -2282    -2430    -2525    -2492    -2384    -2258    -2177    -2196 
   -2269    -2342    -2427    -2489    -2492    -2446    -2369    -2334 
   -2380    -2390    -2295    -2158    -2076    -2070    -2138    -2331 
   -2586    -2677    -2538    -2353    -2276    -2290    -2304    -2303 
   -2380    -2520    -2559    -2465    -2386    -2384    -2330    -2185 
   -2080    -2065    -2096    -2214    -2380    -2450    -2442    -2470 
   -2517    -2515    -2481    -2440    -2376    -2300    -2234    -2155 
   -2089    -2138    -2295    -2408    -2431    -2457    -2500    -2478 
   -2393    -2346    -2374    -2393    -2371    -2351    -2273    -2147 
   -2153    -2288    -2392    -2424    -2411    -2359    -2312    -2276 
   -2238    -2205    -2205    -2270    -2342    -2353    -2347    -2381 
   -2457    -2544    -2602    -2605    -2489    -2258    -2099    -2101 
   -2182    -2299    -2431    -2490    -2419    -2261    -2131    -2112 
   -2230    -2452    -2619    -2592    -2463    -2390    -2366    -2299 
   -2212    -2181    -2137    -2080    -2189    -2458    -2654    -2632 
   -2469    -2374    -2371    -2273    -2166    -2230    -2312    -2296 
   -2344    -2504    -2569    -2444    -2312    -2316    -2331    -2254 
   -2180    -2176    -2231    -2322    -2365    -2320    -2296    -2347 
   -2320    -2199    -2208    -2358    -2400    -2338    -2382    -2532 
   -2614    -2548    -2396    -2292    -2295    -2303    -2208    -2116 
   -2176    -2297    -2358    -2374    -2384    -2434    -2528    -2619 
   -2632    -2501    -2317    -2230    -2214    -2227    -2269    -2301 
   -2357    -2451    -2435    -2295    -2247    -2340    -2403    -2393 
   -2373    -2280    -2089    -1961    -2006    -2168    -2389    -2596 
   -2625    -2496    -2448    -2466    -2334    -2142    -2089    -2123 
   -2174    -2317    -2558    -2702    -2571    -2263    -2081    -2112 
   -2197    -2295    -2475    -2668    -2709    -2547    -2373    -2380 
   -2440    -2374    -2277    -2290    -2384    -2421    -2366    -2278 
   -2142    -1962    -1912    -2118    -2439    -2620    -2543    -2376 
   -2293    -2228    -2127    -2119    -2257    -2455    -2605    -2628 
   -2574    -2538    -2531    -2515    -2435    -2282    -2097    -1948 
   -1945    -2108    -2300    -2442    -2511    -2469    -2374    -2322 
   -2342    -2389    -2385    -2339    -2344    -2411    -2427    -2338 
   -2272    -2354    -2428    -2339    -2270    -2404    -2577    -2505 
   -2192    -1925    -1883    -1998    -2168    -2347    -2508    -2631 
   -2641    -2554    -2498    -2462    -2370    -2262    -2185    -2174 
   -2251    -2342    -2365    -2347    -2392    -2479    -2450    -2332 
   -2301    -2328    -2343    -2398    -2471    -2450    -2290    -2134 
   -2138    -2224    -2296    -2431    -2592    -2597    -2450    -2315 
   -2276    -2249    -2133    -1991    -2006    -2245    -2527    -2674 
   -2725    -2721    -2602    -2431    -2353    -2385    -2380    -2257 
   -2122    -2081    -2155    -2332    -2492    -2490    -2290    -2020 
   -1958    -2208    -2509    -2644    -2705    -2768    -2752    -2681 
   -2667    -2625    -2370    -1999    -1780    -1777    -1869    -2003 
   -2118    -2016    -1655    -1327    -1279    -1458    -1745    -2070 
   -2331    -2506    -2727    -3049    -3369    -3546    -3469    -3150 
   -2808    -2594    -2419    -2242    -2173    -2177    -2103    -2023 
   -2114    -2261    -2293    -2346    -2525    -2636    -2559    -2435 
   -2384    -2365    -2354    -2478    -2763    -3007    -3103    -3065 
   -2805    -2365    -1988    -1741    -1525    -1298    -1075     -869 
    -777     -974    -1463    -2104    -2813    -3420    -3685    -3546 
   -3109    -2650    -2459    -2513    -2646    -2754    -2739    -2660 
   -2683    -2798    -2922    -3001    -2841    -2158     -981       78 
     270     -469    -1547    -2504    -3267    -3781    -3888    -3646 
   -3427    -3406    -3291    -2847    -2282    -1966    -1981    -2104 
   -2145    -2077    -1895    -1657    -1551    -1611    -1633    -1530 
   -1525    -1802    -2346    -3071    -3761    -4066    -3816    -3227 
   -2727    -2550    -2579    -2569    -2353    -1953    -1507    -1057 
    -669     -634    -1063    -1659    -2185    -2633    -2941    -3072 
   -3150    -3190    -3029    -2733    -2520    -2350    -2081    -1858 
   -1976    -2401    -2802    -3002    -2965    -2570    -1852    -1163 
    -834     -943    -1486    -2409    -3370    -3909    -3970    -3727 
   -3144    -2317    -1728    -1722    -2187    -2747    -3075    -3061 
   -2718    -2239    -2115    -2488    -2754    -2473    -1919    -1520 
   -1367    -1341    -1378    -1449    -1503    -1641    -2038    -2605 
   -3142    -3684    -4137    -4043    -3262    -2355    -1765    -1310 
    -828     -627     -908    -1416    -1964    -2581    -3084    -3206 
   -3068    -2959    -2821    -2554    -2440    -2685    -3045    -3218 
   -3121    -2790    -2390    -2147    -2073    -1989    -1937    -2054 
   -2095    -1775    -1363    -1235    -1308    -1405    -1734    -2505 
   -3342    -3631    -3389    -3115    -2843    -2326    -1880    -1810 
   -1779    -1514    -1239    -1350    -2018    -2920    -3661    -4060 
   -3900    -3203    -2458    -2096    -2077    -2080    -2065    -2269 
   -2575    -2610    -2447    -2486    -2760    -2879    -2560    -1956 
   -1417    -1075     -923    -1148    -1945    -3042    -3712    -3474 
   -2677    -1973    -1657    -1757    -2135    -2485    -2636    -2687 
   -2708    -2589    -2257    -1890    -1773    -1945    -2184    -2344 
   -2423    -2485    -2597    -2759    -2994    -3213    -3122    -2601 
   -1937    -1513    -1390    -1463    -1711    -2019    -2299    -2647 
   -2898    -2735    -2338    -2118    -2147    -2330    -2555    -2679 
   -2652    -2532    -2457    -2539    -2712    -2806    -2694    -2366 
   -1992    -1753    -1800    -2151    -2416    -2263    -2027    -2097 
   -2241    -2161    -1999    -1979    -2180    -2590    -3080    -3419 
   -3427    -3079    -2551    -2089    -1772    -1559    -1475    -1607 
   -1875    -2027    -2088    -2238    -2323    -2246    -2266    -2563 
   -3021    -3348    -3354    -3196    -3048    -2810    -2386    -1830 
   -1310    -1065    -1263    -1950    -2860    -3438    -3402    -2909 
   -2300    -1881    -1688    -1649    -1787    -1971    -2084    -2376 
   -3009    -3588    -3636    -3175    -2523    -1884    -1327    -1059 
   -1277    -1794    -2354    -2899    -3226    -3083    -2577    -2034 
   -1590    -1246    -1250    -1763    -2401    -2737    -2824    -2870 
   -2778    -2430    -2119    -2120    -2286    -2376    -2388    -2532 
   -2847    -3088    -3164    -3064    -2554    -1671    -1015     -973 
   -1370    -2015    -2898    -3755    -4048    -3653    -3072    -2691 
   -2419    -2103    -1798    -1576    -1355    -1219    -1459    -2010 
   -2496    -2731    -2679    -2384    -2111    -2110    -2319    -2547 
   -2624    -2451    -2201    -2123    -2158    -2133    -2076    -2091 
   -2153    -2290    -2651    -3100    -3207    -2909    -2556    -2350 
   -2320    -2479    -2704    -2790    -2641    -2380    -2228    -2253 
   -2342    -2416    -2458    -2430    -2305    -2095    -1823    -1615 
   -1648    -1849    -1977    -2010    -2103    -2245    -2263    -2205 
   -2308    -2528    -2605    -2521    -2473    -2542    -2691    -2863 
   -2943    -2822    -2512    -2118    -1829    -1813    -1972    -2029 
   -1937    -1884    -1977    -2169    -2393    -2602    -2776    -2916 
   -2952    -2771    -2327    -1775    -1467    -1614    -2084    -2674 
   -3292    -3693    -3501    -2830    -2236    -1946    -1887    -1991 
   -2042    -1961    -1985    -2227    -2558    -2718    -2509    -2170 
   -2002    -1876    -1753    -1845    -2112    -2409    -2722    -2967 
   -3049    -2979    -2816    -2628    -2415    -2189    -2124    -2236 
   -2269    -2222    -2276    -2254    -2006    -1879    -2088    -2300 
   -2288    -2211    -2216    -2319    -2396    -2335    -2253    -2246 
   -2282    -2374    -2529    -2717    -2856    -2851    -2785    -2747 
   -2536    -2108    -1879    -1995    -2042    -1885    -1934    -2335 
   -2675    -2636    -2382    -2211    -2193    -2246    -2344    -2419 
   -2334    -2222    -2312    -2523    -2709    -2832    -2799    -2589 
   -2303    -2026    -1800    -1668    -1645    -1764    -2087    -2465 
   -2520    -2153    -1775    -1761    -2056    -2442    -2851    -3246 
   -3478    -3433    -3118    -2614    -2053    -1651    -1660    -2062 
   -2532    -2779    -2739    -2535    -2322    -2124    -1960    -1838 
   -1690    -1543    -1568    -1903    -2492    -3071    -3408    -3445 
   -3206    -2809    -2470    -2316    -2232    -2056    -1888    -1926 
   -2187    -2565    -2785    -2563    -2043    -1675    -1702    -1957 
   -2188    -2475    -2822    -2851    -2524    -2263    -2218    -2272 
   -2350    -2331    -2155    -1976    -1987    -2208    -2475    -2662 
   -2763    -2805    -2749    -2525    -2243    -2115    -2115    -2081 
   -1938    -1773    -1719    -1759    -1923    -2353    -2801    -2839 
   -2567    -2365    -2257    -2131    -2178    -2554    -2882    -2829 
   -2702    -2793    -2890    -2848    -2754    -2569    -2228    -1864 
   -1665    -1779    -2168    -2517    -2617    -2592    -2513    -2315 
   -2119    -2053    -2029    -1966    -2002    -2309    -2671    -2743 
   -2651    -2570    -2351    -2019    -1849    -1939    -2174    -2405 
   -2492    -2384    -2191    -2058    -2030    -2092    -2208    -2280 
   -2315    -2423    -2521    -2479    -2446    -2639    -3007    -3284 
   -3217    -2802    -2286    -1899    -1711    -1733    -1969    -2308 
