Origin Time       2025/03/30 21:30:00
Lat.              38.535
Long.             142.295
Depth. (km)       44
Mag.              4.3
Station Code      MYG005
Station Lat.      38.7989
Station Long.     140.6512
Station Height(m) 304
Record Time       2025/03/30 21:31:37
Sampling Freq(Hz) 100Hz
Duration Time(s)  60
Dir.              N-S
Scale Factor      7845(gal)/8223790
Max. Acc. (gal)   2.155
Last Correction   2025/03/30 21:31:36
Memo.             
[...]
  -11259   -11192   -11129   -11040   -10894   -10840   -10999   -11215 
  -11272   -11142   -10959   -10885   -10983   -11148   -11226   -11232 
  -11267   -11304   -11222   -11040   -10909   -10883   -10906   -10959 
  -11074   -11242   -11385   -11426   -11337   -11171   -11017   -10909 
  -10872   -10928   -11032   -11107   -11134   -11140   -11151   -11179 
  -11213   -11229   -11199   -11137   -11080   -11045   -11007   -10957 
  -10935   -11002   -11163   -11321   -11353   -11236   -11074   -10980 
  -10972   -10983   -10960   -10930   -11003   -11191   -11341   -11329 
  -11192   -11060   -11036   -11097   -11149   -11161   -11146   -11090 
  -10982   -10874   -10827   -10835   -10848   -10878   -10959   -11086 
  -11222   -11311   -11321   -11288   -11248   -11182   -11101   -11030 
  -10982   -10964   -10962   -10987   -11082   -11221   -11333   -11364 
  -11288   -11148   -11020   -10939   -10881   -10840   -10860   -10974 
  -11111   -11178   -11178   -11159   -11137   -11114   -11097   -11117 
  -11190   -11245   -11227   -11163   -11063   -10926   -10832   -10863 
  -10984   -11115   -11215   -11253   -11241   -11245   -11276   -11272 
  -11218   -11168   -11101   -10949   -10795   -10804   -10999   -11225 
  -11314   -11263   -11165   -11109   -11130   -11198   -11237   -11183 
  -11043   -10930   -10917   -10940   -10929   -10909   -10926   -11007 
  -11130   -11229   -11271   -11261   -11195   -11091   -10995   -10947 
  -10964   -11036   -11130   -11200   -11200   -11118   -11010   -10962 
  -10993   -11045   -11102   -11206   -11317   -11317   -11171   -10982 
  -10868   -10854   -10894   -10968   -11086   -11199   -11214   -11126 
  -11037   -11028   -11087   -11157   -11178   -11136   -11083   -11087 
  -11149   -11191   -11156   -11071   -10982   -10928   -10962   -11092 
  -11257   -11380   -11434   -11400   -11261   -11063   -10902   -10840 
  -10874   -10970   -11122   -11296   -11380   -11296   -11118   -10967 
  -10913   -10940   -10979   -11003   -11048   -11107   -11128   -11088 
  -11052   -11080   -11144   -11153   -11110   -11086   -11095   -11092 
  -11072   -11075   -11124   -11171   -11148   -11055   -10976   -10997 
  -11107   -11214   -11246   -11211   -11133   -11043   -11014   -11087 
  -11167   -11145   -11055   -10971   -10921   -10952   -11083   -11198 
  -11200   -11151   -11099   -11030   -10983   -10999   -11025   -11005 
  -10983   -11020   -11098   -11163   -11196   -11226   -11233   -11153 
  -10993   -10866   -10893   -11061   -11234   -11281   -11211   -11117 
  -11041   -10979   -10979   -11067   -11180   -11260   -11275   -11192 
  -11067   -10991   -10971   -10987   -11065   -11175   -11191   -11075 
  -10949   -10944   -11025   -11074   -11024   -10937   -10935   -11048 
  -11186   -11233   -11206   -11211   -11252   -11244   -11182   -11092 
  -11022   -11033   -11119   -11234   -11337   -11357   -11254   -11098 
  -10986   -10952   -10957   -10952   -10949   -10962   -10966   -11003 
  -11121   -11237   -11233   -11107   -10970   -10905   -10937   -11059 
  -11183   -11195   -11109   -11025   -10999   -11003   -11001   -10984 
  -10979   -11006   -11064   -11110   -11106   -11084   -11090   -11106 
  -11115   -11156   -11195   -11146   -11013   -10929   -11017   -11203 
  -11317   -11299   -11184   -10993   -10794   -10710   -10787   -10952 
  -11113   -11227   -11296   -11311   -11230   -11063   -10937   -10990 
  -11183   -11325   -11292   -11134   -10987   -10951   -10991   -11021 
  -11036   -11086   -11142   -11145   -11114   -11114   -11144   -11151 
  -11119   -11082   -11056   -11049   -11079   -11145   -11226   -11276 
  -11229   -11095   -10980   -10945   -10964   -11005   -11059   -11124 
  -11183   -11203   -11180   -11141   -11098   -11061   -11038   -11033 
  -11059   -11117   -11191   -11248   -11237   -11164   -11110   -11122 
  -11137   -11067   -10951   -10924   -11064   -11288   -11373   -11209 
  -10956   -10810   -10787   -10812   -10868   -10978   -11128   -11279 
  -11403   -11476   -11465   -11356   -11191   -11026   -10883   -10795 
  -10810   -10925   -11079   -11207   -11272   -11277   -11244   -11214 
  -11218   -11192   -11056   -10858   -10744   -10817   -11009   -11151 
  -11182   -11191   -11245   -11291   -11264   -11198   -11149   -11092 
  -10989   -10864   -10821   -10903   -11006   -11047   -11105   -11257 
  -11410   -11399   -11229   -11025   -10874   -10822   -10894   -11003 
  -11038   -11038   -11092   -11165   -11195   -11210   -11226   -11219 
  -11191   -11169   -11129   -11010   -10849   -10779   -10844   -10974 
  -11099   -11160   -11153   -11169   -11260   -11342   -11302   -11121 
  -10917   -10824   -10887   -11040   -11175   -11203   -11121   -11018 
  -10995   -11074   -11209   -11367   -11495   -11503   -11356   -11124 
  -10885   -10686   -10593   -10667   -10894   -11178   -11392   -11439 
  -11350   -11244   -11152   -11025   -10871   -10798   -10852   -10972 
  -11124   -11323   -11518   -11585   -11454   -11195   -10975   -10876 
  -10858   -10895   -10995   -11133   -11246   -11253   -11126   -10940 
  -10822   -10852   -10967   -11052   -11097   -11155   -11222   -11226 
  -11117   -10966   -10908   -10975   -11078   -11146   -11167   -11137 
  -11082   -11048   -11078   -11144   -11146   -11049   -10971   -11052 
  -11248   -11375   -11327   -11164   -11038   -11033   -11075   -11064 
  -10999   -10928   -10897   -10940   -11055   -11202   -11317   -11367 
  -11329   -11227   -11164   -11175   -11145   -10997   -10818   -10743 
  -10800   -10924   -11036   -11101   -11136   -11172   -11173   -11099 
  -10987   -10939   -11006   -11106   -11152   -11192   -11294   -11349 
  -11203   -10914   -10720   -10754   -10935   -11084   -11094   -11006 
  -10945   -10955   -10997   -11041   -11125   -11240   -11276   -11187 
  -11071   -11030   -11060   -11076   -11022   -10949   -10945   -11033 
  -11151   -11225   -11236   -11215   -11205   -11191   -11130   -11037 
  -10994   -11036   -11140   -11245   -11264   -11173   -11036   -10940 
  -10957   -11086   -11233   -11286   -11237   -11188   -11200   -11241 
  -11287   -11326   -11284   -11102   -10863   -10723   -10729   -10868 
  -11117   -11341   -11396   -11334   -11298   -11295   -11249   -11161 
  -11059   -10953   -10886   -10875   -10887   -10937   -11026   -11071 
  -11037   -10980   -10984   -11080   -11218   -11321   -11321   -11202 
  -11006   -10782   -10616   -10635   -10867   -11184   -11404   -11421 
  -11291   -11141   -11030   -10997   -11047   -11119   -11167   -11165 
  -11126   -11119   -11163   -11176   -11138   -11102   -11057   -10978 
  -10925   -10984   -11134   -11264   -11273   -11171   -11074   -11057 
  -11088   -11141   -11245   -11383   -11464   -11379   -11118   -10821 
  -10644   -10639   -10793   -11060   -11317   -11402   -11290   -11105 
  -10933   -10795   -10748   -10863   -11095   -11295   -11306   -11080 
  -10800   -10748   -10921   -11060   -11038   -10976   -10998   -11105 
  -11246   -11376   -11406   -11272   -11028   -10785   -10667   -10795 
  -11161   -11557   -11745   -11631   -11275   -10847   -10581   -10594 
  -10816   -11084   -11246   -11256   -11190   -11142   -11113   -11057 
  -11020   -11053   -11109   -11133   -11161   -11207   -11242   -11263 
  -11253   -11157   -10995   -10874   -10885   -11025   -11188   -11268 
  -11271   -11219   -11124   -11045   -11021   -11003   -10966   -10951 
  -10997   -11070   -11151   -11237   -11273   -11242   -11217   -11213 
  -11173   -11080   -11005   -10998   -11001   -10945   -10899   -10962 
  -11079   -11121   -11080   -11059   -11117   -11206   -11244   -11211 
  -11157   -11105   -11053   -11017   -11006   -11010   -11061   -11200 
  -11372   -11430   -11337   -11206   -11125   -11101   -11088   -11037 
  -10957   -10909   -10905   -10956   -11080   -11219   -11271   -11191 
  -11018   -10840   -10747   -10781   -10928   -11124   -11265   -11267 
  -11155   -11080   -11155   -11292   -11300   -11134   -10952   -10885 
  -10912   -10975   -11034   -11083   -11153   -11210   -11165   -11080 
  -11092   -11188   -11240   -11175   -11020   -10863   -10809   -10899 
  -11075   -11215   -11230   -11133   -11017   -10964   -11001   -11099 
  -11184   -11205   -11187   -11172   -11146   -11092   -11068   -11167 
  -11358   -11481   -11410   -11182   -10945   -10828   -10863   -10998 
  -11129   -11187   -11187   -11153   -11122   -11117   -11109   -11088 
  -11102   -11130   -11114   -11056   -10994   -10974   -11009   -11067 
  -11114   -11080   -10928   -10779   -10790   -10990   -11280   -11469 
  -11422   -11191   -10955   -10887   -10983   -11018   -10864   -10687 
  -10706   -10935   -11202   -11350   -11341   -11253   -11202   -11214 
  -11229   -11194   -11103   -11025   -11044   -11178   -11337   -11383 
  -11269   -11101   -10968   -10885   -10885   -11003   -11151   -11190 
  -11133   -11097   -11138   -11237   -11308   -11299   -11232   -11133 
  -11033   -10974   -10939   -10901   -10889   -10943   -11064   -11175 
  -11198   -11119   -10983   -10905   -10976   -11142   -11268   -11269 
  -11190   -11124   -11083   -11034   -10974   -10924   -10905   -10944 
  -11051   -11192   -11299   -11277   -11103   -10890   -10758   -10696 
  -10671   -10721   -10866   -11082   -11314   -11488   -11562   -11522 
  -11385   -11203   -10991   -10756   -10594   -10636   -10897   -11230 
  -11481   -11561   -11450   -11232   -11086   -11065   -11037   -10948 
  -10887   -10909   -11010   -11179   -11353   -11414   -11304   -11115 
  -10979   -10953   -11037   -11149   -11175   -11095   -10978   -10917 
  -10943   -10959   -10928   -10925   -10997   -11106   -11128   -10999 
  -10870   -10910   -11075   -11209   -11241   -11182   -11091   -11061 
  -11124   -11233   -11340   -11394   -11341   -11192   -11067   -11049 
  -11055   -10976   -10891   -10924   -11037   -11141   -11257   -11384 
  -11410   -11300   -11159   -11067   -11038   -11007   -10899   -10756 
  -10697   -10774   -10980   -11257   -11503   -11615   -11549   -11399 
  -11279   -11176   -11038   -10885   -10794   -10813   -10887   -10916 
  -10874   -10860   -10975   -11176   -11350   -11415   -11323   -11083 
  -10829   -10725   -10791   -10921   -11014   -11055   -11087   -11125 
  -11109   -11018   -10926   -10905   -10947   -10989   -11018   -11122 
  -11306   -11425   -11403   -11276   -11098   -10926   -10839   -10882 
  -11017   -11126   -11142   -11118   -11122   -11159   -11214   -11284 
  -11318   -11284   -11264   -11331   -11430   -11456   -11331   -11061 
  -10777   -10611   -10577   -10736   -11132   -11543   -11662   -11448 
  -11105   -10864   -10841   -10980   -11169   -11371   -11589   -11747 
  -11692   -11357   -10894   -10565   -10497   -10638   -10860   -11037 
  -11133   -11198   -11277   -11368   -11396   -11260   -10975   -10735 
  -10723   -10960   -11267   -11389   -11268   -11061   -10903   -10818 
  -10801   -10856   -11017   -11246   -11391   -11334   -11137   -10970 
  -10909   -10875   -10832   -10870   -11016   -11188   -11314   -11344 
  -11260   -11091   -10913   -10832   -10924   -11144   -11338   -11389 
  -11294   -11119   -10949   -10862   -10906   -11028   -11065   -10948 
  -10813   -10839   -11030   -11230   -11298   -11215   -11047   -10862 
  -10751   -10793   -10989   -11236   -11402   -11415   -11294   -11090 
  -10881   -10771   -10845   -11055   -11271   -11389   -11384   -11294 
  -11171   -11038   -10957   -11014   -11192   -11372   -11438   -11357 
  -11229   -11141   -11036   -10858   -10702   -10702   -10864   -11067 
  -11168   -11136   -11082   -11107   -11151   -11086   -10947   -10925 
  -11115   -11369   -11475   -11372   -11140   -10890   -10724   -10679 
  -10729   -10855   -11072   -11354   -11611   -11693   -11500   -11159 
  -10918   -10870   -10933   -11051   -11211   -11371   -11429   -11334 
  -11145   -10974   -10908   -10924   -10921   -10866   -10808   -10783 
  -10816   -10937   -11130   -11280   -11290   -11190   -11060   -10922 
  -10797   -10744   -10806   -10947   -11075   -11202   -11399   -11578 
  -11599   -11484   -11325   -11165   -11041   -10949   -10820   -10632 
  -10581   -10890   -11430   -11844   -11959   -11839   -11612   -11342 
  -11061   -10876   -10835   -10816   -10770   -10814   -11014   -11276 
  -11433   -11399   -11267   -11188   -11173   -11113   -11006   -10936 
  -10886   -10795   -10696   -10659   -10762   -11057   -11448   -11696 
  -11614   -11249   -10840   -10538   -10319   -10179   -10251   -10620 
  -11136   -11539   -11705   -11689   -11566   -11360   -11114   -10941 
  -10964   -11133   -11210   -11057   -10756   -10459   -10258   -10187 
  -10278   -10538   -10975   -11618   -12276   -12571   -12343   -11701 
  -10785    -9871    -9416    -9709   -10659   -11835   -12623   -12623 
  -11967   -11090   -10284    -9733    -9644   -10039   -10667   -11261 
  -11796   -12293   -12552   -12337   -11669   -10858   -10287   -10162 
  -10434   -10822   -11006   -10933   -10847   -10982   -11352   -11727 
  -11854   -11697   -11376   -10995   -10663   -10471   -10442   -10589 
  -10957   -11518   -12104   -12437   -12295   -11707   -10933   -10320 
  -10156   -10462   -10974   -11445   -11793   -11959   -11867   -11449 
  -10740   -10072    -9953   -10582   -11566   -12177   -11928   -11017 
  -10191   -10014   -10269   -10369   -10191   -10169   -10662   -11497 
  -12190   -12434   -12253   -11815   -11310   -10894   -10588   -10327 
  -10088   -10049   -10517   -11512   -12579   -13151   -12949   -12043 
  -10721    -9447    -8833    -9263   -10459   -11713   -12536   -12843 
  -12672   -12062   -11198   -10338    -9622    -9166    -9236   -10008 
  -11138   -11947   -12051   -11578   -10905   -10404   -10327   -10709 
  -11399   -12087   -12366   -12009   -11267   -10767   -10953   -11531 
  -11784   -11453   -10930   -10709   -10944   -11341   -11452   -11232 
  -11079   -11219   -11446   -11539   -11577   -11680   -11739   -11595 
  -11322   -11107   -10952   -10747   -10466   -10135    -9823    -9733 
  -10010   -10469   -10735   -10693   -10647   -10924   -11394   -11589 
  -11306   -10822   -10453   -10261   -10320   -10760   -11481   -12177 
  -12613   -12638   -12123   -11157   -10195    -9721    -9806   -10195 
  -10671   -11133   -11534   -11870   -12087   -12117   -12002   -11831 
  -11649   -11506   -11461   -11480   -11453   -11352   -11253   -11209 
  -11126   -10820   -10332   -10017   -10161   -10709   -11292   -11462 
  -11083   -10520   -10301   -10593   -11095   -11392   -11295   -10921 
  -10550   -10423   -10655   -11211   -11847   -12231   -12182   -11763 
  -11142   -10463    -9926    -9814   -10206   -10855   -11506   -11985 
  -12071   -11716   -11277   -11172   -11373   -11458   -11218   -10939 
  -10929   -11091   -11109   -10860   -10554   -10399   -10372   -10451 
  -10771   -11338   -11861   -11966   -11565   -10953   -10512   -10453 
  -10763   -11148   -11225   -10960   -10690   -10786   -11298   -11823 
  -11854   -11349   -10746   -10466   -10650   -11226   -11909   -12272 
  -12064   -11423   -10727   -10362   -10551   -11165   -11747   -11819 
  -11284   -10609   -10388   -10748   -11308   -11549   -11234   -10593 
  -10089   -10066   -10519   -11171   -11676   -11842   -11736   -11437 
  -10893   -10246    -9880   -10015   -10497   -10998   -11400   -11796 
  -12231   -12614   -12727   -12329   -11461   -10442    -9667    -9514 
  -10071   -10975   -11719   -11912   -11480   -10837   -10597   -10910 
  -11391   -11712   -11897   -12012   -11894   -11385   -10643   -10083 
  -10042   -10443   -10909   -11196   -11256   -11072   -10744   -10462 
  -10309   -10237   -10161   -10150   -10403   -10932   -11477   -11851 
  -12055   -12004   -11601   -11080   -10849   -11006   -11303   -11503 
  -11545   -11445   -11249   -11074   -11001   -10968   -10854   -10667 
  -10581   -10762   -11217   -11705   -11921   -11807   -11557   -11296 
  -11022   -10845   -10897   -11107   -11364   -11632   -11873   -12010 
  -11958   -11647   -11044   -10227    -9535    -9445   -10115   -11132 
  -11912   -12183   -11934   -11327   -10759   -10590   -10839   -11246 
  -11477   -11306   -10833   -10469   -10539   -10999   -11534   -11788 
  -11597   -11128   -10729   -10673   -10949   -11296   -11394   -11079 
  -10515   -10150   -10274   -10700   -11059   -11225   -11261   -11168 
  -10945   -10709   -10631   -10825   -11196   -11442   -11360   -11052 
  -10829   -10929   -11241   -11441   -11403   -11229   -11037   -10894 
  -10835   -10855   -10971   -11213   -11489   -11600   -11458   -11179 
  -10989   -11028   -11126   -11064   -11005   -11317   -12002   -12604 
  -12653   -12044   -11092   -10335   -10072   -10162   -10409   -10810 
  -11340   -11770   -11812   -11425   -10874   -10500   -10469   -10667 
  -10786   -10651   -10434   -10442   -10733   -11114   -11395   -11472 
  -11300   -10962   -10642   -10458   -10444   -10658   -11032   -11248 
  -11087   -10706   -10438   -10463   -10709   -10976   -11219   -11504 
  -11728   -11761   -11759   -11971   -12298   -12337   -11863   -11153 
  -10733   -10789   -10997   -11010   -10839   -10675   -10632   -10736 
  -10960   -11198   -11325   -11321   -11314   -11381   -11392   -11234 
  -11029   -10944   -10983   -11043   -10993   -10822   -10682   -10696 
  -10822   -10998   -11234   -11462   -11450   -11141   -10804   -10717 
  -10918   -11242   -11515   -11666   -11665   -11508   -11248   -10970 
  -10710   -10469   -10314   -10351   -10615   -11017   -11352   -11427 
  -11287   -11173   -11196   -11187   -11024   -10804   -10654   -10686 
  -10963   -11302   -11415   -11260   -11007   -10827   -10808   -10902 
  -10956   -10912   -10858   -10939   -11263   -11774   -12174   -12113 
  -11605   -11045   -10764   -10800   -11038   -11342   -11539   -11493 
  -11245   -10999   -10936   -11072   -11269   -11349   -11221   -10949 
  -10759   -10824   -11057   -11245   -11249   -11109   -11034   -11192 
  -11464   -11561   -11388   -11082   -10808   -10679   -10758   -10994 
  -11215   -11252   -11070   -10789   -10608   -10651   -10891   -11194 
  -11434   -11527   -11441   -11211   -10945   -10793   -10847   -11074 
  -11361   -11561   -11534   -11280   -10972   -10808   -10875   -11087 
  -11225   -11164   -10962   -10725   -10559   -10584   -10801   -11009 
  -11043   -10998   -11075   -11284   -11448   -11399   -11117   -10748 
  -10511   -10477   -10593   -10854   -11226   -11508   -11479   -11169 
  -10908   -10960   -11211   -11321   -11105   -10712   -10477   -10625 
  -11072   -11518   -11749   -11776   -11696   -11569   -11466   -11489 
  -11626   -11695   -11539   -11188   -10783   -10489   -10424   -10544 
  -10697   -10804   -10949   -11232   -11557   -11696   -11554   -11217 
  -10825   -10531   -10459   -10615   -10840   -10983   -11061   -11140 
  -11241   -11391   -11542   -11577   -11441   -11136   -10754   -10550 
  -10679   -10959   -11161   -11292   -11364   -11260   -10966   -10683 
  -10647   -10870   -11134   -11298   -11388   -11425   -11375   -11261 
  -11138   -10982   -10785   -10678   -10752   -10910   -11045   -11124 
  -11144   -11125   -11028   -10870   -10800   -10836   -10905   -11018 
  -11107   -11105   -11079   -11107   -11184   -11241   -11254   -11225 
  -11125   -11071   -11218   -11421   -11406   -11186   -10960   -10852 
  -10833   -10795   -10728   -10783   -11021   -11307   -11589   -11851 
