Origin Time       2025/03/30 21:30:00
Lat.              38.535
Long.             142.295
Depth. (km)       44
Mag.              4.3
Station Code      MYG001
Station Lat.      38.9017
Station Long.     141.5709
Station Height(m) 36
Record Time       2025/03/30 21:31:18
Sampling Freq(Hz) 100Hz
Duration Time(s)  60
Dir.              N-S
Scale Factor      7845(gal)/8223790
Max. Acc. (gal)   8.400
Last Correction   2025/03/30 21:31:18
Memo.             
[...]
   -5016    -5015    -5012    -5016    -5017    -5013    -5015    -5016 
   -5015    -5016    -5016    -5016    -5019    -5019    -5016    -5016 
   -5016    -5015    -5016    -5015    -5013    -5015    -5013    -5012 
   -5015    -5019    -5016    -5013    -5016    -5017    -5015    -5016 
   -5017    -5016    -5015    -5015    -5013    -5015    -5016    -5016 
   -5015    -5015    -5016    -5017    -5017    -5016    -5013    -5015 
   -5017    -5019    -5015    -5012    -5016    -5016    -5015    -5015 
   -5015    -5015    -5016    -5017    -5019    -5016    -5015    -5016 
   -5017    -5016    -5015    -5016    -5017    -5016    -5015    -5016 
   -5015    -5013    -5016    -5016    -5015    -5015    -5015    -5015 
   -5013    -5015    -5015    -5015    -5017    -5019    -5017    -5016 
   -5017    -5016    -5015    -5013    -5016    -5016    -5015    -5016 
   -5015    -5015    -5016    -5016    -5013    -5013    -5015    -5016 
   -5017    -5016    -5015    -5016    -5015    -5012    -5015    -5017 
   -5017    -5017    -5016    -5016    -5015    -5013    -5016    -5017 
   -5013    -5015    -5017    -5017    -5015    -5013    -5013    -5015 
   -5016    -5016    -5017    -5019    -5016    -5015    -5017    -5015 
   -5012    -5015    -5015    -5016    -5017    -5016    -5015    -5015 
   -5016    -5017    -5017    -5017    -5016    -5016    -5017    -5016 
   -5013    -5016    -5017    -5016    -5015    -5017    -5019    -5019 
   -5016    -5016    -5019    -5017    -5016    -5016    -5017    -5017 
   -5015    -5013    -5015    -5015    -5015    -5016    -5015    -5015 
   -5016    -5015    -5013    -5016    -5015    -5015    -5015    -5016 
   -5019    -5017    -5016    -5013    -5012    -5013    -5015    -5013 
   -5015    -5015    -5013    -5016    -5016    -5015    -5016    -5016 
   -5015    -5013    -5015    -5015    -5015    -5013    -5012    -5013 
   -5016    -5015    -5013    -5012    -5015    -5015    -5015    -5016 
   -5017    -5015    -5015    -5016    -5016    -5017    -5019    -5016 
   -5013    -5016    -5016    -5016    -5017    -5015    -5015    -5016 
   -5016    -5015    -5013    -5013    -5015    -5016    -5019    -5019 
   -5016    -5016    -5015    -5013    -5015    -5016    -5015    -5015 
   -5016    -5015    -5013    -5016    -5016    -5015    -5017    -5016 
   -5013    -5016    -5016    -5016    -5015    -5013    -5016    -5016 
   -5013    -5015    -5016    -5015    -5016    -5015    -5013    -5016 
   -5016    -5015    -5015    -5013    -5016    -5019    -5016    -5016 
   -5016    -5012    -5013    -5016    -5016    -5015    -5013    -5013 
   -5017    -5017    -5012    -5012    -5015    -5015    -5016    -5016 
   -5015    -5017    -5017    -5012    -5013    -5016    -5016    -5015 
   -5013    -5011    -5012    -5015    -5013    -5012    -5015    -5016 
   -5013    -5015    -5016    -5013    -5012    -5013    -5015    -5015 
   -5015    -5013    -5013    -5013    -5015    -5015    -5013    -5015 
   -5015    -5012    -5012    -5015    -5016    -5012    -5012    -5015 
   -5015    -5012    -5015    -5017    -5015    -5012    -5015    -5015 
   -5015    -5016    -5016    -5016    -5015    -5013    -5013    -5015 
   -5017    -5015    -5013    -5016    -5017    -5016    -5016    -5015 
   -5015    -5016    -5017    -5017    -5016    -5017    -5015    -5015 
   -5016    -5016    -5015    -5016    -5017    -5016    -5015    -5015 
   -5017    -5019    -5016    -5015    -5016    -5017    -5017    -5016 
   -5013    -5012    -5015    -5016    -5015    -5015    -5016    -5015 
   -5017    -5017    -5013    -5013    -5015    -5015    -5013    -5013 
   -5013    -5015    -5015    -5015    -5012    -5013    -5017    -5015 
   -5012    -5013    -5015    -5016    -5016    -5016    -5019    -5019 
   -5015    -5015    -5016    -5016    -5015    -5015    -5013    -5012 
   -5015    -5016    -5015    -5015    -5017    -5016    -5017    -5020 
   -5017    -5015    -5015    -5015    -5015    -5016    -5017    -5017 
   -5016    -5016    -5016    -5015    -5015    -5017    -5017    -5017 
   -5017    -5017    -5019    -5019    -5017    -5017    -5017    -5015 
   -5013    -5013    -5013    -5013    -5008    -5004    -5009    -5009 
   -4990    -4996    -5050    -5066    -4985    -4966    -5057    -5042 
   -4999    -5120    -5135    -4950    -4939    -5115    -5057    -4788 
   -4834    -5098    -5028    -4870    -4922    -4909    -4985    -5248 
   -5466    -5559    -5228    -4795    -4708    -4515    -4468    -4857 
   -5235    -5659    -5764    -5177    -4703    -4504    -4345    -4707 
   -5242    -5258    -5090    -5148    -5312    -5286    -4957    -4637 
   -4846    -5273    -5150    -4804    -4923    -5325    -5359    -5039 
   -4908    -4456    -3862    -4785    -6092    -5668    -4950    -5143 
   -5167    -4685    -4467    -5098    -5790    -5633    -5228    -4666 
   -3542    -2763    -3975    -6787    -7808    -6416    -5495    -5092 
   -4045    -3618    -4769    -5746    -4914    -3981    -4252    -4213 
   -3825    -5000    -7052    -7067    -5470    -4824    -4780    -4567 
   -4854    -5580    -5948    -5324    -4433    -3933    -3106    -3009 
   -5047    -6963    -6764    -6012    -5476    -4344    -3817    -4718 
   -5201    -4619    -4710    -5890    -6038    -4639    -4086    -4896 
   -5405    -5448    -5418    -4996    -4583    -4716    -4653    -4332 
   -4953    -5825    -5624    -5019    -4486    -4388    -5374    -5954 
   -5347    -5063    -4854    -4338    -4739    -5439    -5201    -4731 
   -4533    -4376    -4762    -5605    -6034    -5810    -5200    -4942 
   -4888    -4328    -4024    -4234    -4479    -5113    -5697    -5540 
   -5278    -5501    -5800    -5462    -4797    -4666    -4872    -5143 
   -5308    -4884    -4241    -3819    -3855    -4607    -5433    -5965 
   -6286    -6002    -5189    -4557    -4590    -4958    -5124    -5213 
   -5082    -4573    -4357    -4580    -5090    -5726    -5746    -5309 
   -4860    -4410    -4348    -4417    -4683    -5468    -5753    -5405 
   -5238    -5185    -5078    -5000    -5108    -5287    -5097    -4691 
   -4421    -4274    -4403    -4808    -5351    -5898    -5778    -5054 
   -4649    -4581    -4681    -5109    -5626    -5832    -5445    -4729 
   -4257    -4147    -4275    -4792    -5497    -5491    -5101    -5355 
   -5540    -5298    -5348    -5154    -4461    -4121    -4506    -5333 
   -5595    -5296    -5360    -4965    -4033    -4064    -4743    -5213 
   -5485    -5637    -5799    -5540    -4958    -4912    -4726    -4225 
   -4789    -5368    -4768    -4714    -5482    -5617    -5078    -4645 
   -4880    -5224    -4931    -4588    -4475    -4572    -5236    -5802 
   -5589    -5150    -5109    -5385    -5215    -4465    -4340    -4855 
   -4768    -4672    -5373    -5522    -4831    -5046    -5813    -5320 
   -4554    -4858    -5040    -4527    -4325    -4828    -5386    -5404 
   -5263    -5194    -4808    -4654    -5059    -5190    -5132    -5444 
   -5625    -5201    -4668    -4548    -4579    -4612    -4897    -5236 
   -5229    -4999    -5036    -5089    -4714    -4668    -5155    -5335 
   -5389    -5609    -5401    -4861    -4707    -4823    -4634    -4399 
   -4679    -5065    -5196    -5350    -5360    -5331    -5364    -4911 
   -4584    -4881    -4942    -5049    -5436    -5179    -4645    -4545 
   -4745    -5224    -5497    -5128    -4653    -4531    -4831    -5390 
   -5703    -5513    -5185    -5039    -4869    -4592    -4488    -4679 
   -5042    -5328    -5359    -5092    -4644    -4544    -4959    -5255 
   -5220    -5127    -5009    -4997    -5240    -5410    -5227    -5093 
   -5211    -5084    -4679    -4463    -4541    -4693    -4757    -4955 
   -5274    -5265    -5147    -5170    -5131    -5136    -5158    -5066 
   -4961    -4880    -4841    -4934    -5293    -5544    -5131    -4546 
   -4534    -4893    -5088    -5078    -5136    -5212    -5074    -4814 
   -4862    -5335    -5351    -4714    -4625    -5050    -5125    -5057 
   -5036    -4949    -4881    -4999    -5378    -5456    -5005    -4715 
   -4769    -4908    -4934    -4733    -4804    -5270    -5447    -5250 
   -5028    -4904    -4978    -5077    -5036    -5138    -5228    -5028 
   -4893    -4765    -4615    -4889    -5152    -5001    -4757    -4635 
   -5054    -5672    -5644    -5421    -5200    -4743    -4633    -4672 
   -4488    -4787    -5543    -5791    -5259    -4692    -4677    -4708 
   -4511    -4810    -5436    -5287    -4726    -5008    -5630    -5512 
   -5181    -5167    -5022    -4661    -4461    -4553    -4831    -4973 
   -4896    -5049    -5269    -5154    -5158    -5359    -5350    -5254 
   -5113    -4857    -4811    -4888    -4669    -4660    -5254    -5598 
   -5142    -4583    -4710    -5036    -4847    -4727    -5059    -5310 
   -5394    -5383    -5132    -4833    -4847    -5244    -5375    -4816 
   -4529    -4872    -4914    -4842    -5065    -4947    -4749    -4993 
   -5184    -5266    -5360    -5259    -5096    -4869    -4737    -4969 
   -5236    -5185    -4858    -4789    -5090    -5185    -5162    -5049 
   -4603    -4469    -4791    -4892    -4973    -5400    -5508    -4970 
   -4742    -5184    -5428    -5364    -5467    -5433    -5051    -4684 
   -4426    -4244    -4477    -5093    -5278    -4938    -4726    -4569 
   -4619    -5250    -5857    -6043    -5818    -5212    -4683    -4590 
   -5000    -5413    -5213    -4737    -4342    -4032    -4074    -4644 
   -5405    -5682    -5575    -5606    -5366    -4990    -5289    -5601 
   -5007    -4201    -4178    -4542    -4622    -5024    -5787    -5691 
   -5049    -4974    -4888    -4545    -4874    -5498    -5401    -4784 
   -4492    -4857    -5354    -5512    -5490    -5323    -4757    -4199 
   -4307    -4726    -4999    -5395    -5647    -5123    -4448    -4483 
   -4970    -5505    -5757    -5462    -4962    -4739    -5034    -5495 
   -5521    -5298    -4895    -3990    -3376    -3908    -4934    -5481 
   -5557    -5675    -5628    -5223    -5324    -5827    -5489    -4530 
   -4194    -4719    -5243    -5302    -5270    -5004    -4330    -3960 
   -4290    -4769    -4919    -5204    -5813    -5840    -5259    -5047 
   -5317    -5537    -5408    -5175    -5054    -4675    -4209    -4367 
   -5022    -5297    -4827    -4383    -4536    -4915    -5260    -5598 
   -5574    -5113    -5003    -5132    -4734    -4456    -4873    -5494 
   -5787    -5405    -4851    -4567    -4463    -4833    -5132    -4936 
   -5140    -5570    -5364    -4781    -4399    -4476    -4868    -5252 
   -5375    -5139    -4976    -5104    -5182    -5155    -5086    -4858 
   -4712    -5088    -5520    -5275    -4927    -4966    -4961    -4976 
   -5065    -4915    -4646    -4526    -4799    -5324    -5437    -5093 
   -4909    -5144    -5443    -5217    -4639    -4496    -4847    -5178 
   -5139    -4862    -4672    -4692    -5167    -5805    -5813    -5374 
   -5167    -5124    -4780    -4342    -4442    -4762    -4791    -4893 
   -5104    -5096    -5059    -5036    -4928    -4936    -5043    -5026 
   -4961    -5197    -5668    -5728    -5165    -4711    -4882    -5003 
   -4756    -4784    -4793    -4459    -4550    -5062    -5346    -5435 
   -5265    -4851    -4828    -5115    -5332    -5576    -5348    -4631 
   -4437    -4766    -5047    -5250    -5093    -4816    -5071    -5236 
   -4904    -4711    -4955    -5355    -5402    -5279    -5436    -5317 
   -4648    -4445    -5054    -5251    -4641    -4372    -4742    -4849 
   -4653    -4853    -5196    -5194    -5250    -5474    -5502    -5397 
   -5393    -5617    -5752    -5343    -4600    -3920    -3773    -4180 
   -4468    -4923    -5524    -5229    -4658    -4822    -5256    -5502 
   -5441    -5152    -5055    -5290    -5472    -5432    -5228    -4749 
   -4548    -4873    -4830    -4552    -4885    -5437    -5572    -5267 
   -4604    -4082    -4326    -4947    -5352    -5551    -5460    -5080 
   -4723    -4750    -5119    -5224    -4869    -4618    -4837    -5238 
   -5486    -5547    -5467    -5216    -4901    -4919    -5136    -4930 
   -4652    -4936    -5277    -5036    -4430    -4279    -4900    -5270 
   -4972    -4780    -4768    -4854    -5198    -5476    -5576    -5409 
   -4958    -4888    -5212    -5375    -5440    -5290    -4780    -4509 
   -4571    -4580    -4743    -5013    -5030    -4887    -4814    -4896 
   -4735    -4293    -4756    -5960    -6138    -5364    -4972    -5085 
   -5248    -5525    -5834    -5320    -4175    -3824    -4321    -4860 
   -5188    -5039    -4588    -4625    -5267    -5645    -5340    -5103 
   -5285    -5379    -5358    -5348    -5105    -4828    -5104    -5786 
   -5719    -4806    -4684    -5339    -5240    -4872    -4924    -4483 
   -3723    -3755    -4236    -4216    -3981    -4330    -4989    -5456 
   -6026    -6764    -7188    -7047    -6779    -6806    -6243    -4453 
   -2538    -1605    -1844    -2822    -3921    -4699    -4814    -4565 
   -4598    -5027    -5239    -4438    -3504    -4409    -6839    -8545 
   -8519    -7443    -6519    -6358    -6124    -5012    -3415    -1973 
   -2057    -4949    -8599    -8789    -4623     -225      272    -2963 
   -6824    -7967    -5246    -1624    -1462    -5043    -8673    -9626 
   -7804    -4746    -2875    -3500    -5810    -8025    -8317    -6269 
   -4207    -4216    -4854    -4276    -3202    -2327    -1753    -2250 
   -3194    -3241    -2857    -2716    -3400    -5981    -9144   -10689 
  -11460   -12054   -11190    -9161    -6794    -4456    -2787    -1347 
      83     1233     2797     3790     2323    -1011    -4746    -7951 
   -9958   -10874   -11304   -12005   -12816   -12233    -9990    -7306 
   -4494    -1802       54     1422     2504     2728     2486     2052 
      99    -4191    -8938   -11462   -11993   -12322   -12449   -11670 
   -9890    -7203    -4029    -1244      -79     -310     -259     -500 
   -2282    -3865    -4440    -5687    -7318    -7932    -7674    -7315 
   -7288    -6789    -5238    -3823    -3280    -3264    -3111    -2396 
   -2583    -4896    -7369    -8132    -7661    -6575    -5259    -4035 
   -2988    -2694    -3150    -3959    -5251    -6241    -6443    -6453 
   -6334    -6080    -5309    -3997    -3740    -4653    -4995    -4791 
   -4918    -4930    -4726    -4889    -4747    -3488    -2455    -2978 
   -4541    -6612    -8302    -8445    -7677    -7129    -6605    -5730 
   -4774    -3410    -1624    -1200    -2405    -3522    -4449    -5427 
   -5572    -4797    -4071    -4631    -6326    -7283    -7217    -7369 
   -7616    -7137    -6170    -5691    -5697    -5088    -3739    -2393 
   -1240     -610     -980    -2056    -3493    -5150    -6627    -7717 
   -8480    -8602    -7917    -7169    -6785    -6370    -5580    -4455 
   -3622    -3150    -2292    -1768    -2466    -2839    -2394    -3294 
   -5768    -7807    -8507    -8205    -7292    -6168    -5479    -5394 
   -5170    -4475    -3994    -4087    -4248    -4314    -4387    -4079 
   -3505    -3472    -4081    -4541    -4749    -5440    -6716    -8248 
   -8907    -7582    -5784    -4988    -4545    -3919    -2759    -1676 
   -2107    -3322    -4137    -4712    -4889    -5270    -6669    -7766 
   -7342    -6075    -5275    -5524    -5911    -5655    -5159    -4456 
   -3854    -4094    -4311    -3807    -3464    -3704    -4457    -5270 
   -5290    -5009    -5143    -5333    -5867    -7033    -7458    -6061 
   -4261    -3771    -4122    -4648    -5444    -5807    -5173    -4225 
   -3670    -3692    -4371    -5147    -5278    -5032    -4761    -4810 
   -5767    -6889    -7049    -6444    -5532    -4463    -3592    -3439 
   -3985    -4425    -4513    -4630    -4629    -4801    -5772    -6778 
   -6336    -4665    -3959    -4770    -5256    -5023    -4847    -4756 
   -4865    -5127    -5471    -5890    -5497    -4710    -4857    -5100 
   -4907    -4768    -4418    -4530    -5325    -5454    -4986    -4568 
   -4109    -4311    -5368    -6035    -5695    -4931    -4646    -5265 
   -5953    -5830    -5278    -4672    -4125    -3921    -3854    -4047 
   -4943    -6008    -6574    -6512    -5771    -4631    -3920    -4031 
   -4168    -4027    -4257    -4642    -4785    -5109    -5892    -6723 
   -6660    -5566    -4953    -5366    -5336    -4877    -4885    -4761 
   -4538    -4760    -4912    -4565    -4072    -3975    -4118    -4365 
   -5084    -5694    -5699    -5921    -6366    -6228    -5876    -5598 
   -4743    -3820    -3979    -4684    -4904    -4618    -4243    -4255 
   -4679    -5274    -5832    -5786    -5190    -4622    -4573    -5518 
   -6440    -6191    -5359    -4499    -4074    -4482    -4812    -4631 
   -4509    -4388    -4442    -5001    -5343    -5177    -5117    -5027 
   -4665    -4961    -6093    -6363    -5497    -5184    -5374    -5267 
   -5227    -4878    -3862    -3244    -3653    -4491    -5105    -5431 
   -5470    -5201    -5256    -5687    -5568    -5206    -5209    -4895 
   -4379    -4808    -5818    -5894    -5185    -4870    -4633    -4214 
   -4483    -5158    -5200    -4681    -4291    -4425    -4938    -5324 
   -5327    -5259    -5493    -5756    -5706    -5552    -5073    -4259 
   -4336    -5252    -5656    -5447    -5007    -4708    -4762    -4666 
   -4557    -4716    -4644    -4390    -4394    -4703    -5113    -5328 
   -5544    -5906    -5967    -5707    -5391    -5256    -5584    -5823 
   -5289    -4490    -4133    -4045    -3943    -4039    -4261    -4415 
   -4642    -4756    -4691    -4931    -5468    -5782    -5899    -6211 
   -6431    -6129    -5725    -5436    -4877    -4401    -4518    -4441 
   -3515    -2983    -3948    -5154    -5179    -4673    -4696    -5050 
   -5413    -6134    -6763    -6330    -5557    -5535    -5521    -5162 
   -5282    -5391    -4772    -4035    -3623    -3512    -3689    -4236 
   -5042    -5368    -5100    -4900    -5043    -5501    -5918    -6058 
   -6080    -5827    -5568    -5680    -5414    -4672    -4284    -3966 
   -3439    -3411    -3997    -4604    -4968    -5201    -5356    -5343 
   -5300    -5512    -5817    -6003    -6214    -6087    -5269    -4492 
   -4446    -4704    -4627    -4247    -3686    -3188    -3670    -5040 
   -5683    -5498    -5767    -6099    -5597    -5244    -5972    -6556 
   -6012    -5390    -5213    -4615    -3743    -3692    -4189    -4191 
   -3982    -4066    -4116    -4287    -5121    -6103    -6316    -6066 
   -5922    -5692    -5574    -5822    -5823    -5437    -5344    -5346 
   -4637    -3631    -3538    -4178    -4306    -4054    -4197    -4492 
   -4758    -5167    -5645    -5984    -5973    -5980    -6339    -6168 
   -5390    -5275    -5360    -4626    -3838    -3713    -4025    -4216 
   -4171    -4467    -4958    -5178    -5444    -5879    -6056    -5738 
   -5354    -5383    -5447    -5173    -4918    -4795    -4630    -4687 
   -4958    -4819    -4043    -3412    -3743    -4450    -4835    -5370 
   -5891    -5919    -6192    -6744    -6593    -5854    -5220    -4726 
   -4228    -3885    -3858    -4020    -4276    -4514    -4503    -4654 
   -5259    -5587    -5358    -5162    -5194    -5313    -5699    -6363 
   -6656    -6052    -4931    -4160    -4077    -4270    -4380    -4382 
   -4255    -4206    -4517    -5031    -5628    -5949    -5309    -4415 
   -4347    -4753    -5378    -5957    -5895    -5701    -5703    -5634 
   -5633    -5339    -4683    -4129    -3639    -3539    -3807    -3904 
