Origin Time       2025/03/30 21:30:00
Lat.              38.535
Long.             142.295
Depth. (km)       44
Mag.              4.3
Station Code      MYG015
Station Lat.      38.1037
Station Long.     140.8708
Station Height(m) 3
Record Time       2025/03/30 21:31:33
Sampling Freq(Hz) 100Hz
Duration Time(s)  60
Dir.              U-D
Scale Factor      7845(gal)/8223790
Max. Acc. (gal)   1.131
Last Correction   2025/03/30 21:31:32
Memo.             
[...]
  -11433   -11425   -11287   -11354   -11635   -11774   -11551   -11221 
  -11250   -11484   -11468   -11379   -11415   -11450   -11539   -11620 
  -11529   -11433   -11438   -11438   -11434   -11458   -11460   -11398 
  -11335   -11430   -11628   -11560   -11246   -11244   -11506   -11495 
  -11329   -11364   -11473   -11477   -11434   -11396   -11458   -11599 
  -11526   -11276   -11198   -11364   -11597   -11601   -11375   -11327 
  -11439   -11404   -11315   -11319   -11411   -11572   -11649   -11560 
  -11468   -11445   -11423   -11437   -11492   -11495   -11446   -11406 
  -11377   -11356   -11389   -11504   -11596   -11588   -11499   -11410 
  -11448   -11560   -11558   -11426   -11323   -11426   -11616   -11506 
  -11169   -11138   -11410   -11492   -11354   -11294   -11389   -11514 
  -11511   -11431   -11402   -11408   -11449   -11434   -11319   -11327 
  -11461   -11492   -11457   -11466   -11502   -11557   -11549   -11445 
  -11364   -11353   -11411   -11507   -11512   -11487   -11551   -11560 
  -11446   -11411   -11476   -11475   -11381   -11280   -11257   -11380 
  -11538   -11550   -11464   -11395   -11371   -11425   -11512   -11511 
  -11464   -11485   -11564   -11588   -11477   -11290   -11214   -11335 
  -11462   -11404   -11319   -11383   -11464   -11453   -11434   -11443 
  -11438   -11468   -11551   -11556   -11479   -11410   -11352   -11389 
  -11527   -11560   -11441   -11280   -11190   -11296   -11464   -11437 
  -11350   -11438   -11572   -11587   -11593   -11638   -11578   -11419 
  -11300   -11280   -11317   -11346   -11418   -11584   -11646   -11514 
  -11419   -11456   -11484   -11484   -11496   -11491   -11454   -11422 
  -11372   -11326   -11388   -11479   -11426   -11321   -11333   -11421 
  -11453   -11411   -11399   -11460   -11485   -11456   -11514   -11639 
  -11603   -11437   -11425   -11554   -11588   -11445   -11244   -11221 
  -11346   -11333   -11253   -11303   -11352   -11398   -11574   -11674 
  -11543   -11434   -11499   -11572   -11527   -11411   -11337   -11357 
  -11404   -11445   -11542   -11551   -11350   -11244   -11406   -11592 
  -11631   -11516   -11333   -11276   -11341   -11326   -11249   -11279 
  -11406   -11523   -11595   -11615   -11573   -11493   -11434   -11412 
  -11410   -11392   -11317   -11265   -11317   -11392   -11457   -11538 
  -11572   -11496   -11423   -11446   -11476   -11529   -11622   -11581 
  -11443   -11425   -11492   -11479   -11377   -11330   -11399   -11468 
  -11453   -11395   -11377   -11431   -11484   -11450   -11383   -11396 
  -11489   -11523   -11446   -11427   -11516   -11520   -11389   -11268 
  -11254   -11302   -11335   -11423   -11547   -11554   -11537   -11603 
  -11601   -11507   -11497   -11523   -11419   -11308   -11308   -11331 
  -11369   -11422   -11438   -11489   -11614   -11628   -11468   -11383 
  -11489   -11572   -11429   -11218   -11327   -11607   -11518   -11233 
  -11241   -11384   -11381   -11379   -11489   -11550   -11449   -11290 
  -11249   -11356   -11411   -11352   -11406   -11574   -11585   -11472 
  -11466   -11568   -11610   -11483   -11317   -11383   -11637   -11709 
  -11487   -11268   -11306   -11507   -11580   -11419   -11254   -11307 
  -11502   -11612   -11565   -11470   -11406   -11387   -11395   -11337 
  -11236   -11248   -11342   -11379   -11362   -11391   -11519   -11669 
  -11692   -11558   -11400   -11358   -11400   -11376   -11314   -11422 
  -11618   -11568   -11323   -11280   -11504   -11638   -11448   -11233 
  -11372   -11664   -11719   -11620   -11551   -11491   -11437   -11380 
  -11302   -11273   -11325   -11457   -11547   -11427   -11311   -11426 
  -11507   -11356   -11198   -11227   -11373   -11512   -11585   -11523 
  -11406   -11429   -11500   -11453   -11389   -11357   -11376   -11526 
  -11612   -11477   -11403   -11537   -11611   -11461   -11271   -11256 
  -11369   -11473   -11543   -11522   -11406   -11415   -11595   -11614 
  -11384   -11242   -11307   -11344   -11315   -11372   -11493   -11587 
  -11622   -11562   -11475   -11404   -11306   -11276   -11411   -11577 
  -11597   -11450   -11311   -11340   -11457   -11497   -11434   -11392 
  -11450   -11522   -11508   -11452   -11453   -11518   -11580   -11577 
  -11449   -11296   -11325   -11446   -11381   -11202   -11253   -11488 
  -11557   -11438   -11362   -11408   -11468   -11472   -11502   -11518 
  -11402   -11267   -11317   -11547   -11696   -11558   -11358   -11375 
  -11461   -11441   -11477   -11592   -11556   -11421   -11387   -11419 
  -11453   -11465   -11398   -11356   -11485   -11634   -11562   -11349 
  -11240   -11322   -11510   -11570   -11338   -11087   -11161   -11367 
  -11399   -11416   -11600   -11704   -11519   -11368   -11520   -11630 
  -11465   -11264   -11199   -11306   -11468   -11489   -11433   -11433 
  -11469   -11518   -11564   -11549   -11510   -11569   -11651   -11565 
  -11380   -11288   -11337   -11458   -11503   -11412   -11334   -11304 
  -11257   -11334   -11566   -11666   -11529   -11321   -11206   -11315 
  -11527   -11500   -11299   -11295   -11504   -11658   -11592   -11406 
  -11334   -11356   -11291   -11259   -11412   -11534   -11530   -11603 
  -11616   -11414   -11314   -11406   -11441   -11442   -11484   -11503 
  -11523   -11577   -11585   -11503   -11387   -11340   -11371   -11392 
  -11446   -11535   -11433   -11221   -11288   -11535   -11619   -11551 
  -11464   -11437   -11475   -11483   -11400   -11277   -11281   -11473 
  -11573   -11408   -11294   -11381   -11389   -11326   -11454   -11611 
  -11572   -11430   -11308   -11367   -11545   -11497   -11326   -11349 
  -11415   -11480   -11651   -11646   -11450   -11387   -11388   -11389 
  -11464   -11446   -11341   -11373   -11448   -11389   -11364   -11524 
  -11691   -11634   -11446   -11387   -11457   -11481   -11470   -11469 
  -11452   -11415   -11322   -11290   -11435   -11510   -11462   -11527 
  -11542   -11334   -11187   -11322   -11537   -11537   -11412   -11429 
  -11495   -11446   -11442   -11514   -11469   -11329   -11253   -11291 
  -11425   -11515   -11408   -11310   -11510   -11732   -11618   -11398 
  -11361   -11367   -11286   -11276   -11449   -11620   -11596   -11527 
  -11580   -11566   -11411   -11292   -11246   -11269   -11380   -11468 
  -11475   -11421   -11372   -11421   -11480   -11421   -11319   -11369 
  -11526   -11497   -11348   -11431   -11604   -11531   -11394   -11452 
  -11523   -11392   -11254   -11377   -11603   -11637   -11578   -11658 
  -11685   -11403   -11113   -11172   -11399   -11497   -11438   -11369 
  -11414   -11504   -11516   -11481   -11481   -11481   -11435   -11400 
  -11372   -11352   -11431   -11558   -11591   -11473   -11283   -11273 
  -11464   -11547   -11484   -11425   -11357   -11346   -11476   -11592 
  -11554   -11439   -11346   -11325   -11399   -11524   -11592   -11546 
  -11448   -11352   -11375   -11573   -11639   -11372   -11115   -11153 
  -11323   -11412   -11433   -11430   -11396   -11441   -11634   -11727 
  -11538   -11353   -11387   -11433   -11356   -11280   -11319   -11434 
  -11469   -11396   -11380   -11493   -11589   -11529   -11411   -11372 
  -11338   -11308   -11421   -11591   -11572   -11361   -11268   -11407 
  -11468   -11411   -11497   -11580   -11457   -11358   -11399   -11434 
  -11506   -11668   -11708   -11570   -11454   -11449   -11454   -11400 
  -11395   -11477   -11461   -11326   -11265   -11273   -11300   -11422 
  -11550   -11565   -11587   -11628   -11546   -11438   -11384   -11304 
  -11330   -11507   -11557   -11342   -11086   -11134   -11468   -11673 
  -11585   -11419   -11398   -11507   -11491   -11302   -11218   -11352 
  -11472   -11458   -11458   -11491   -11497   -11516   -11485   -11389 
  -11368   -11460   -11568   -11542   -11317   -11149   -11314   -11631 
  -11727   -11549   -11371   -11373   -11448   -11483   -11489   -11468 
  -11464   -11485   -11402   -11291   -11369   -11534   -11596   -11580 
  -11529   -11491   -11404   -11184   -11121   -11341   -11419   -11248 
  -11186   -11341   -11537   -11538   -11350   -11394   -11728   -11834 
  -11600   -11442   -11506   -11608   -11610   -11481   -11346   -11399 
  -11553   -11530   -11384   -11314   -11314   -11394   -11531   -11526 
  -11352   -11206   -11192   -11334   -11462   -11398   -11399   -11608 
  -11639   -11389   -11188   -11207   -11454   -11722   -11619   -11275 
  -11175   -11361   -11599   -11641   -11402   -11245   -11371   -11503 
  -11529   -11519   -11448   -11381   -11350   -11290   -11348   -11545 
  -11641   -11638   -11561   -11392   -11415   -11691   -11793   -11543 
  -11215   -11094   -11237   -11439   -11465   -11398   -11433   -11520 
  -11537   -11510   -11446   -11380   -11460   -11573   -11492   -11412 
  -11511   -11562   -11483   -11442   -11452   -11433   -11352   -11226 
  -11219   -11421   -11593   -11504   -11371   -11461   -11562   -11454 
  -11280   -11227   -11326   -11430   -11433   -11472   -11639   -11781 
  -11672   -11367   -11215   -11284   -11357   -11361   -11329   -11371 
  -11480   -11403   -11244   -11350   -11539   -11510   -11376   -11323 
  -11387   -11480   -11470   -11391   -11443   -11651   -11696   -11465 
  -11294   -11384   -11628   -11736   -11527   -11296   -11288   -11357 
  -11408   -11475   -11512   -11473   -11392   -11365   -11392   -11443 
  -11568   -11643   -11488   -11365   -11495   -11564   -11492   -11504 
  -11495   -11387   -11329   -11286   -11215   -11249   -11384   -11476 
  -11523   -11518   -11350   -11178   -11276   -11549   -11655   -11534 
  -11423   -11456   -11587   -11642   -11529   -11496   -11580   -11443 
  -11190   -11245   -11514   -11569   -11385   -11261   -11395   -11574 
  -11431   -11217   -11389   -11626   -11543   -11419   -11477   -11643 
  -11770   -11596   -11176   -10983   -11173   -11396   -11361   -11184 
  -11203   -11472   -11668   -11614   -11496   -11529   -11662   -11670 
  -11484   -11283   -11263   -11448   -11589   -11439   -11225   -11287 
  -11520   -11624   -11502   -11327   -11253   -11250   -11379   -11643 
  -11734   -11543   -11457   -11605   -11580   -11325   -11284   -11442 
  -11412   -11264   -11253   -11319   -11418   -11618   -11753   -11631 
  -11371   -11175   -11156   -11410   -11747   -11700   -11283   -11101 
  -11404   -11715   -11631   -11452   -11465   -11426   -11260   -11252 
  -11441   -11631   -11664   -11514   -11338   -11279   -11345   -11485 
  -11572   -11527   -11414   -11341   -11412   -11593   -11669   -11570 
  -11475   -11421   -11321   -11310   -11493   -11603   -11487   -11414 
  -11497   -11538   -11412   -11196   -11072   -11083   -11084   -11067 
  -11140   -11233   -11322   -11518   -11718   -11777   -11792   -11784 
  -11628   -11458   -11434   -11389   -11283   -11294   -11350   -11325 
  -11259   -11214   -11252   -11325   -11331   -11399   -11677   -11975 
  -12025   -11823   -11597   -11643   -11870   -11844   -11518   -11192 
  -11034   -11160   -11441   -11479   -11265   -11183   -11280   -11353 
  -11431   -11610   -11726   -11588   -11354   -11315   -11450   -11526 
  -11453   -11350   -11323   -11331   -11283   -11169   -11105   -11272 
  -11668   -11911   -11695   -11315   -11209   -11348   -11466   -11497 
  -11497   -11452   -11379   -11327   -11286   -11218   -11121   -11130 
  -11318   -11499   -11570   -11624   -11673   -11578   -11360   -11314 
  -11508   -11645   -11624   -11585   -11523   -11414   -11402   -11542 
  -11661   -11616   -11435   -11210   -11102   -11240   -11496   -11695 
  -11804   -11722   -11439   -11287   -11516   -11815   -11713   -11335 
  -11145   -11250   -11402   -11448   -11530   -11597   -11360   -11011 
  -11011   -11310   -11583   -11620   -11367   -11191   -11429   -11719 
  -11699   -11519   -11371   -11340   -11427   -11464   -11344   -11155 
  -11055   -11176   -11415   -11556   -11608   -11695   -11880   -12101 
  -12015   -11529   -11240   -11415   -11433   -11107   -11053   -11376 
  -11634   -11719   -11634   -11298   -10974   -11055   -11399   -11518 
  -11367   -11338   -11543   -11668   -11506   -11384   -11619   -11836 
  -11641   -11221   -10818   -10577   -10748   -11206   -11411   -11277 
  -11187   -11307   -11465   -11454   -11329   -11399   -11749   -11989 
  -11853   -11654   -11699   -11800   -11793   -11727   -11480   -11132 
  -11194   -11607   -11730   -11574   -11574   -11718   -11772   -11646 
  -11423   -11250   -11144   -11109   -11122   -11061   -11064   -11367 
  -11767   -11913   -11716   -11402   -11272   -11294   -11215   -11006 
  -10871   -11083   -11607   -11886   -11650   -11346   -11325   -11503 
  -11742   -11874   -11805   -11704   -11708   -11761   -11821   -11786 
  -11554   -11298   -11113   -10891   -10783   -10828   -10764   -10690 
  -10802   -10980   -11307   -11847   -12151   -12025   -11892   -12031 
  -12245   -12202   -11858   -11529   -11352   -11164   -10913   -10719 
  -10721   -10947   -11211   -11395   -11608   -11797   -11786   -11765 
  -11827   -11713   -11533   -11497   -11458   -11398   -11352   -11259 
  -11271   -11422   -11484   -11473   -11580   -11699   -11492   -11033 
  -10774   -10805   -11092   -11693   -12109   -11940   -11692   -11686 
  -11570   -11271   -11076   -11070   -11163   -11171   -10980   -10921 
  -11280   -11693   -11839   -11875   -11754   -11388   -11249   -11541 
  -11801   -11803   -11696   -11600   -11619   -11763   -11880   -11813 
  -11499   -11033   -10683   -10585   -10685   -10856   -11010   -11315 
  -11786   -12073   -12148   -12163   -11982   -11646   -11377   -11192 
  -11048   -10872   -10546   -10255   -10413   -10925   -11348   -11689 
  -11977   -11916   -11689   -11794   -12162   -12313   -12010   -11543 
  -11333   -11379   -11458   -11387   -11179   -11178   -11472   -11643 
  -11622   -11728   -11847   -11650   -11294   -11246   -11556   -11765 
  -11646   -11404   -11160   -10948   -10937   -11075   -11142   -11241 
  -11514   -11761   -11804   -11767   -11784   -11728   -11492   -11232 
  -11060   -11009   -11172   -11415   -11470   -11389   -11350   -11342 
  -11441   -11708   -11828   -11623   -11325   -11109   -11101   -11329 
  -11462   -11391   -11379   -11379   -11176   -11052   -11319   -11612 
  -11537   -11383   -11522   -11847   -12121   -12283   -12139   -11615 
  -11308   -11497   -11524   -11227   -11048   -10898   -10702   -10798 
  -11196   -11572   -11676   -11465   -11159   -11033   -11213   -11529 
  -11718   -11850   -12046   -12091   -11881   -11647   -11565   -11516 
  -11391   -11245   -11032   -10835   -10947   -11163   -11121   -11124 
  -11515   -11928   -11851   -11441   -11236   -11408   -11700   -11739 
  -11454   -11273   -11497   -11817   -11790   -11512   -11435   -11650 
  -11785   -11546   -11048   -10751   -10960   -11375   -11510   -11352 
  -11205   -11277   -11569   -11853   -11905   -11761   -11639   -11672 
  -11708   -11560   -11345   -11308   -11448   -11514   -11379   -11221 
  -11186   -11129   -10891   -10654   -10743   -11105   -11307   -11306 
  -11439   -11684   -11882   -11966   -11792   -11626   -11792   -11931 
  -11689   -11364   -11358   -11512   -11445   -11268   -11295   -11433 
  -11456   -11335   -11060   -10716   -10687   -11175   -11767   -11929 
  -11719   -11619   -11743   -11840   -11942   -12166   -12209   -11840 
  -11337   -11051   -10986   -10878   -10638   -10493   -10559   -10816 
  -11307   -11866   -12201   -12343   -12361   -12106   -11664   -11326 
  -11113   -11020   -11155   -11356   -11465   -11522   -11480   -11435 
  -11543   -11591   -11499   -11539   -11647   -11554   -11381   -11333 
  -11421   -11620   -11753   -11581   -11214   -10868   -10673   -10814 
  -11125   -11156   -11072   -11295   -11661   -11792   -11672   -11514 
  -11394   -11322   -11421   -11607   -11645   -11524   -11319   -11086 
  -11056   -11453   -11877   -11692   -11233   -11275   -11647   -11780 
  -11651   -11565   -11691   -11853   -11772   -11545   -11469   -11573 
  -11665   -11573   -11302   -11129   -11304   -11539   -11462   -11322 
  -11399   -11546   -11695   -11750   -11546   -11377   -11434   -11364 
  -11175   -11240   -11329   -11051   -10777   -10925   -11180   -11227 
  -11192   -11252   -11461   -11697   -11773   -11669   -11507   -11499 
  -11761   -12050   -11982   -11627   -11415   -11371   -11222   -11047 
  -11041   -11202   -11373   -11373   -11358   -11581   -11758   -11628 
  -11530   -11603   -11514   -11352   -11411   -11416   -11223   -11214 
  -11426   -11458   -11272   -11209   -11373   -11523   -11479   -11333 
  -11335   -11531   -11623   -11445   -11254   -11377   -11688   -11743 
  -11520   -11445   -11577   -11583   -11404   -11313   -11395   -11585 
  -11732   -11561   -11261   -11335   -11658   -11789   -11655   -11453 
  -11399   -11469   -11391   -11195   -11191   -11268   -11164   -11056 
  -11192   -11443   -11499   -11384   -11376   -11415   -11385   -11437 
  -11526   -11522   -11529   -11508   -11337   -11203   -11341   -11658 
  -11824   -11670   -11520   -11674   -11846   -11723   -11477   -11283 
  -11122   -11095   -11253   -11495   -11707   -11740   -11612   -11507 
  -11435   -11341   -11252   -11107   -10917   -10868   -11007   -11207 
  -11425   -11605   -11654   -11620   -11605   -11608   -11583   -11526 
  -11492   -11475   -11438   -11423   -11395   -11302   -11236   -11277 
  -11412   -11549   -11585   -11564   -11537   -11529   -11637   -11782 
  -11709   -11495   -11466   -11554   -11429   -11230   -11331   -11533 
  -11484   -11458   -11673   -11780   -11592   -11308   -11074   -11055 
  -11361   -11661   -11577   -11273   -11091   -11168   -11477   -11684 
  -11524   -11352   -11457   -11549   -11415   -11259   -11244   -11338 
  -11465   -11547   -11569   -11523   -11456   -11492   -11566   -11526 
  -11450   -11429   -11380   -11279   -11225   -11253   -11360   -11561 
  -11691   -11615   -11487   -11454   -11504   -11524   -11408   -11252 
  -11153   -11138   -11222   -11333   -11496   -11631   -11480   -11237 
  -11256   -11392   -11457   -11495   -11479   -11398   -11373   -11450 
  -11554   -11580   -11531   -11558   -11643   -11611   -11499   -11448 
  -11408   -11362   -11422   -11512   -11531   -11610   -11776   -11792 
  -11554   -11295   -11253   -11381   -11503   -11497   -11364   -11334 
  -11514   -11550   -11348   -11233   -11206   -11117   -11126   -11362 
  -11632   -11600   -11281   -11207   -11591   -11826   -11588   -11369 
  -11404   -11429   -11371   -11302   -11218   -11169   -11186   -11263 
  -11398   -11512   -11603   -11645   -11503   -11460   -11807   -12105 
  -12032   -11796   -11518   -11310   -11263   -11169   -11043   -11094 
  -11161   -11134   -11230   -11441   -11564   -11561   -11481   -11407 
  -11453   -11538   -11469   -11334   -11364   -11462   -11358   -11130 
  -11191   -11561   -11747   -11642   -11574   -11624   -11726   -11773 
  -11643   -11507   -11545   -11632   -11554   -11271   -11075   -11221 
  -11496   -11604   -11570   -11514   -11469   -11481   -11518   -11466 
  -11398   -11435   -11456   -11362   -11337   -11429   -11445   -11387 
  -11383   -11350   -11205   -11101   -11240   -11466   -11385   -11153 
  -11259   -11580   -11664   -11461   -11261   -11242   -11276   -11213 
  -11138   -11191   -11346   -11479   -11564   -11630   -11676   -11703 
  -11658   -11504   -11354   -11261   -11217   -11272   -11321   -11276 
  -11325   -11508   -11704   -11902   -12006   -11956   -11901   -11812 
